Origin Time       2011/03/11 14:46:00
Lat.              38.103
Long.             142.860
Depth. (km)       24
Mag.              9.0
Station Code      AIC018
Station Lat.      34.6220
Station Long.     137.1086
Station Height(m) 22
Record Time       2011/03/11 14:49:39
Sampling Freq(Hz) 100Hz
Duration Time(s)  120
Dir.              E-W
Scale Factor      3920(gal)/6182761
Max. Acc. (gal)   3.969
Last Correction   2011/03/11 14:49:24
Memo.             
[...]
  -36436   -36425   -36452   -36475   -36553   -36674   -36758   -36857 
  -36981   -37066   -37157   -37241   -37267   -37287   -37292   -37252 
  -37249   -37311   -37357   -37385   -37431   -37464   -37487   -37495 
  -37479   -37503   -37530   -37463   -37338   -37205   -37103   -37071 
  -37062   -37043   -37057   -37069   -36994   -36848   -36699   -36571 
  -36461   -36365   -36277   -36208   -36167   -36104   -35994   -35903 
  -35832   -35739   -35654   -35624   -35648   -35723   -35829   -35907 
  -35937   -35912   -35798   -35649   -35498   -35315   -35140   -35020 
  -34946   -34895   -34818   -34754   -34751   -34746   -34735   -34733 
  -34692   -34665   -34701   -34694   -34629   -34601   -34594   -34583 
  -34618   -34675   -34723   -34821   -34931   -35004   -35112   -35199 
  -35187   -35190   -35232   -35281   -35373   -35428   -35427   -35458 
  -35483   -35484   -35533   -35607   -35682   -35777   -35856   -35912 
  -35969   -36015   -36065   -36115   -36144   -36153   -36131   -36092 
  -36068   -36062   -36089   -36142   -36170   -36181   -36217   -36254 
  -36263   -36280   -36306   -36325   -36332   -36300   -36259   -36230 
  -36200   -36234   -36306   -36369   -36499   -36663   -36768   -36850 
  -36912   -36940   -36958   -36941   -36908   -36902   -36898   -36895 
  -36894   -36889   -36883   -36838   -36778   -36751   -36721   -36688 
  -36659   -36626   -36621   -36621   -36606   -36611   -36592   -36566 
  -36601   -36633   -36620   -36617   -36608   -36557   -36505   -36474 
  -36436   -36392   -36373   -36361   -36325   -36270   -36194   -36099 
  -36019   -35926   -35789   -35659   -35541   -35404   -35302   -35262 
  -35220   -35171   -35157   -35151   -35144   -35150   -35131   -35114 
  -35130   -35081   -34994   -34967   -34950   -34906   -34874   -34855 
  -34827   -34785   -34763   -34786   -34793   -34773   -34762   -34756 
  -34760   -34763   -34763   -34801   -34841   -34869   -34954   -35050 
  -35136   -35274   -35430   -35580   -35734   -35863   -36003   -36150 
  -36249   -36362   -36496   -36587   -36680   -36786   -36862   -36948 
  -37048   -37135   -37236   -37314   -37348   -37391   -37410   -37393 
  -37407   -37431   -37431   -37426   -37401   -37337   -37264   -37204 
  -37143   -37097   -37058   -36993   -36947   -36924   -36878   -36861 
  -36888   -36905   -36935   -36964   -36936   -36879   -36811   -36725 
  -36642   -36551   -36430   -36302   -36182   -36073   -35990   -35938 
  -35898   -35864   -35842   -35817   -35789   -35776   -35758   -35740 
  -35737   -35718   -35690   -35677   -35670   -35673   -35712   -35779 
  -35854   -35915   -35960   -36015   -36084   -36149   -36232   -36335 
  -36406   -36434   -36416   -36345   -36257   -36171   -36077   -36025 
  -36049   -36112   -36202   -36317   -36424   -36530   -36629   -36706 
  -36773   -36828   -36862   -36881   -36891   -36908   -36932   -36953 
  -36990   -37038   -37064   -37098   -37140   -37121   -37058   -36972 
  -36831   -36679   -36531   -36345   -36161   -35995   -35819   -35656 
  -35534   -35437   -35370   -35329   -35282   -35241   -35191   -35098 
  -35012   -34939   -34831   -34745   -34724   -34724   -34742   -34773 
  -34797   -34829   -34860   -34886   -34953   -35054   -35140   -35197 
  -35224   -35240   -35250   -35232   -35246   -35330   -35415   -35514 
  -35648   -35757   -35855   -35965   -36059   -36148   -36237   -36314 
  -36376   -36436   -36502   -36545   -36583   -36658   -36728   -36766 
  -36799   -36832   -36843   -36814   -36730   -36607   -36457   -36281 
  -36100   -35920   -35743   -35588   -35436   -35291   -35186   -35099 
  -35035   -35029   -35055   -35073   -35088   -35101   -35086   -35043 
  -34994   -34961   -34954   -34945   -34951   -35005   -35054   -35080 
  -35100   -35096   -35065   -35005   -34926   -34865   -34821   -34767 
  -34700   -34625   -34551   -34456   -34336   -34237   -34155   -34049 
  -33952   -33882   -33815   -33776   -33774   -33785   -33812   -33845 
  -33869   -33887   -33896   -33918   -33949   -33964   -33970   -33948 
  -33897   -33846   -33781   -33719   -33688   -33654   -33626   -33638 
  -33653   -33678   -33744   -33812   -33884   -33965   -34013   -34049 
  -34086   -34078   -34052   -34031   -34000   -33981   -33985   -33989 
  -33996   -34004   -33993   -33978   -33968   -33934   -33901   -33909 
  -33925   -33942   -33981   -34022   -34077   -34171   -34272   -34386 
  -34526   -34655   -34788   -34965   -35163   -35366   -35596   -35844 
  -36079   -36309   -36512   -36655   -36760   -36830   -36842   -36808 
  -36747   -36663   -36558   -36437   -36312   -36190   -36077   -35973 
  -35880   -35813   -35761   -35697   -35626   -35548   -35445   -35339 
  -35238   -35141   -35076   -35045   -35039   -35082   -35150   -35217 
  -35299   -35380   -35455   -35540   -35617   -35693   -35778   -35848 
  -35911   -35957   -35957   -35947   -35926   -35877   -35833   -35775 
  -35689   -35604   -35506   -35397   -35318   -35264   -35223   -35224 
  -35256   -35283   -35317   -35370   -35421   -35452   -35485   -35534 
  -35558   -35561   -35590   -35622   -35645   -35675   -35696   -35714 
  -35736   -35754   -35777   -35791   -35778   -35763   -35749   -35716 
  -35694   -35698   -35691   -35688   -35719   -35759   -35805   -35875 
  -35960   -36043   -36130   -36209   -36254   -36274   -36278   -36248 
  -36193   -36123   -36028   -35937   -35873   -35812   -35761   -35746 
  -35763   -35794   -35841   -35905   -35959   -35999   -36046   -36093 
  -36123   -36135   -36130   -36113   -36080   -36050   -36038   -36028 
  -36035   -36073   -36122   -36190   -36285   -36383   -36475   -36563 
  -36635   -36693   -36744   -36790   -36823   -36834   -36837   -36838 
  -36821   -36795   -36774   -36763   -36783   -36821   -36850   -36887 
  -36925   -36946   -36965   -36991   -37039   -37100   -37155   -37224 
  -37307   -37377   -37439   -37510   -37587   -37657   -37716   -37771 
  -37828   -37875   -37896   -37889   -37862   -37827   -37770   -37688 
  -37623   -37584   -37537   -37482   -37420   -37337   -37245   -37142 
  -37018   -36879   -36738   -36604   -36473   -36333   -36183   -36034 
  -35892   -35765   -35665   -35585   -35519   -35465   -35407   -35338 
  -35256   -35162   -35072   -34999   -34942   -34902   -34871   -34845 
  -34826   -34803   -34762   -34730   -34713   -34675   -34629   -34600 
  -34575   -34548   -34535   -34533   -34544   -34569   -34588   -34604 
  -34649   -34705   -34762   -34842   -34932   -35023   -35136   -35259 
  -35380   -35486   -35562   -35613   -35642   -35650   -35634   -35612 
  -35615   -35620   -35622   -35655   -35695   -35727   -35785   -35855 
  -35931   -36025   -36107   -36169   -36235   -36273   -36278   -36289 
  -36299   -36295   -36292   -36290   -36292   -36311   -36338   -36376 
  -36431   -36480   -36521   -36560   -36591   -36628   -36677   -36724 
  -36795   -36892   -36994   -37113   -37247   -37385   -37534   -37660 
  -37758   -37851   -37901   -37910   -37908   -37874   -37824   -37785 
  -37730   -37672   -37636   -37603   -37576   -37566   -37547   -37525 
  -37511   -37482   -37439   -37387   -37307   -37220   -37148   -37055 
  -36939   -36831   -36714   -36606   -36545   -36501   -36468   -36472 
  -36510   -36562   -36624   -36685   -36751   -36826   -36865   -36864 
  -36873   -36855   -36778   -36687   -36570   -36401   -36223   -36035 
  -35831   -35645   -35473   -35313   -35192   -35098   -35015   -34957 
  -34913   -34861   -34821   -34790   -34745   -34719   -34728   -34734 
  -34760   -34836   -34916   -35009   -35149   -35290   -35424   -35588 
  -35736   -35855   -35993   -36111   -36186   -36271   -36350   -36402 
  -36472   -36566   -36661   -36772   -36902   -37016   -37129   -37263 
  -37377   -37461   -37558   -37658   -37719   -37753   -37780   -37777 
  -37730   -37645   -37528   -37392   -37237   -37069   -36914   -36782 
  -36669   -36583   -36521   -36472   -36423   -36364   -36303   -36242 
  -36158   -36070   -36019   -35972   -35922   -35917   -35944   -35977 
  -36039   -36120   -36194   -36265   -36310   -36309   -36292   -36264 
  -36207   -36141   -36089   -36036   -35970   -35909   -35859   -35782 
  -35682   -35598   -35511   -35402   -35311   -35241   -35178   -35137 
  -35110   -35096   -35109   -35135   -35170   -35241   -35339   -35435 
  -35553   -35705   -35847   -35980   -36129   -36277   -36406   -36536 
  -36680   -36824   -36977   -37163   -37371   -37589   -37829   -38082 
  -38325   -38539   -38701   -38815   -38896   -38931   -38917   -38890 
  -38871   -38838   -38782   -38718   -38650   -38580   -38522   -38463 
  -38390   -38325   -38267   -38191   -38108   -38030   -37940   -37851 
  -37770   -37674   -37584   -37506   -37414   -37336   -37281   -37237 
  -37219   -37206   -37193   -37204   -37210   -37201   -37206   -37199 
  -37176   -37158   -37147   -37141   -37131   -37122   -37119   -37110 
  -37122   -37172   -37245   -37358   -37504   -37669   -37868   -38064 
  -38236   -38423   -38600   -38734   -38848   -38949   -39015   -39044 
  -39050   -39045   -39034   -39027   -39023   -39004   -38979   -38963 
  -38918   -38839   -38775   -38706   -38628   -38587   -38554   -38511 
  -38482   -38449   -38396   -38347   -38304   -38246   -38166   -38080 
  -38002   -37906   -37808   -37731   -37647   -37567   -37492   -37401 
  -37323   -37226   -37099   -36990   -36849   -36672   -36520   -36350 
  -36168   -36042   -35948   -35898   -35907   -35929   -35992   -36099 
  -36178   -36248   -36338   -36404   -36433   -36450   -36464   -36469 
  -36480   -36512   -36553   -36605   -36684   -36785   -36892   -36993 
  -37073   -37141   -37192   -37194   -37164   -37119   -37047   -36979 
  -36935   -36907   -36929   -37003   -37103   -37224   -37348   -37456 
  -37549   -37629   -37676   -37685   -37679   -37647   -37585   -37528 
  -37463   -37376   -37308   -37250   -37171   -37105   -37080   -37084 
  -37115   -37158   -37210   -37286   -37359   -37403   -37438   -37471 
  -37494   -37493   -37446   -37364   -37260   -37115   -36936   -36755 
  -36596   -36461   -36348   -36271   -36243   -36255   -36281   -36308 
  -36355   -36411   -36431   -36434   -36468   -36501   -36525   -36573 
  -36628   -36700   -36793   -36867   -36950   -37060   -37151   -37234 
  -37324   -37397   -37438   -37446   -37423   -37384   -37333   -37280 
  -37245   -37217   -37193   -37195   -37204   -37213   -37260   -37334 
  -37407   -37484   -37551   -37589   -37597   -37577   -37530   -37444 
  -37324   -37202   -37082   -36959   -36856   -36796   -36754   -36729 
  -36736   -36758   -36792   -36856   -36933   -37014   -37121   -37233 
  -37342   -37473   -37599   -37707   -37835   -37967   -38088   -38217 
  -38342   -38451   -38535   -38600   -38661   -38699   -38727   -38775 
  -38804   -38821   -38860   -38879   -38898   -38934   -38937   -38938 
  -38949   -38915   -38867   -38801   -38688   -38582   -38455   -38279 
  -38130   -37972   -37756   -37560   -37364   -37114   -36864   -36621 
  -36367   -36140   -35941   -35757   -35610   -35491   -35390   -35311 
  -35248   -35193   -35142   -35103   -35073   -35038   -34995   -34955 
  -34928   -34913   -34909   -34920   -34933   -34945   -34964   -34983 
  -35011   -35048   -35088   -35150   -35219   -35276   -35342   -35416 
  -35488   -35559   -35601   -35623   -35645   -35645   -35636   -35654 
  -35689   -35741   -35828   -35931   -36022   -36096   -36167   -36222 
  -36237   -36231   -36216   -36169   -36112   -36081   -36065   -36059 
  -36094   -36159   -36233   -36341   -36482   -36614   -36724   -36803 
  -36828   -36811   -36772   -36711   -36623   -36532   -36462   -36408 
  -36348   -36284   -36245   -36229   -36228   -36269   -36334   -36387 
  -36449   -36507   -36538   -36573   -36624   -36665   -36715   -36777 
  -36819   -36855   -36897   -36903   -36875   -36858   -36831   -36788 
  -36767   -36774   -36798   -36832   -36864   -36906   -36947   -36972 
  -37004   -37033   -37050   -37081   -37104   -37096   -37078   -37031 
  -36946   -36862   -36773   -36667   -36567   -36478   -36387   -36293 
  -36199   -36114   -36022   -35906   -35772   -35625   -35460   -35279 
  -35110   -34972   -34851   -34763   -34713   -34680   -34658   -34638 
  -34639   -34666   -34688   -34734   -34814   -34889   -34978   -35069 
  -35133   -35210   -35280   -35303   -35328   -35338   -35302   -35265 
  -35223   -35175   -35153   -35133   -35118   -35132   -35141   -35142 
  -35148   -35149   -35154   -35171   -35190   -35208   -35223   -35231 
  -35237   -35237   -35244   -35254   -35241   -35233   -35235   -35224 
  -35239   -35269   -35282   -35312   -35342   -35337   -35327   -35328 
  -35317   -35290   -35269   -35255   -35230   -35212   -35221   -35235 
  -35244   -35257   -35241   -35179   -35084   -34944   -34767   -34571 
  -34363   -34164   -33986   -33826   -33699   -33610   -33542   -33503 
  -33508   -33546   -33615   -33736   -33902   -34100   -34337   -34588 
  -34833   -35100   -35378   -35633   -35888   -36147   -36381   -36597 
  -36810   -37004   -37172   -37328   -37464   -37578   -37694   -37819 
  -37956   -38122   -38325   -38561   -38820   -39083   -39345   -39610 
  -39851   -40059   -40238   -40368   -40454   -40512   -40526   -40524 
  -40516   -40474   -40438   -40443   -40445   -40444   -40477   -40510 
  -40516   -40533   -40555   -40562   -40592   -40664   -40742   -40827 
  -40943   -41078   -41226   -41396   -41581   -41765   -41933   -42064 
  -42142   -42164   -42137   -42068   -41978   -41883   -41777   -41672 
  -41575   -41472   -41366   -41245   -41098   -40944   -40756   -40510 
  -40251   -39993   -39711   -39446   -39240   -39072   -38940   -38863 
  -38818   -38804   -38829   -38876   -38944   -39048   -39158   -39265 
  -39392   -39514   -39625   -39739   -39835   -39910   -39962   -39977 
  -39974   -39951   -39901   -39847   -39780   -39689   -39616   -39548 
  -39470   -39421   -39393   -39362   -39344   -39331   -39312   -39286 
  -39245   -39205   -39165   -39110   -39064   -39023   -38979   -38959 
  -38946   -38916   -38891   -38881   -38863   -38824   -38774   -38719 
  -38632   -38502   -38362   -38215   -38042   -37852   -37668   -37496 
  -37319   -37134   -36965   -36821   -36679   -36518   -36359   -36220 
  -36062   -35873   -35703   -35548   -35384   -35234   -35091   -34938 
  -34772   -34595   -34423   -34246   -34039   -33819   -33607   -33394 
  -33185   -33008   -32865   -32738   -32639   -32584   -32549   -32520 
  -32533   -32588   -32653   -32743   -32869   -33006   -33167   -33352 
  -33545   -33751   -33979   -34210   -34427   -34635   -34832   -35009 
  -35165   -35301   -35423   -35541   -35658   -35778   -35910   -36056 
  -36219   -36395   -36571   -36747   -36910   -37046   -37168   -37273 
  -37330   -37352   -37361   -37347   -37314   -37305   -37324   -37366 
  -37448   -37554   -37664   -37762   -37830   -37879   -37884   -37834 
  -37768   -37681   -37557   -37432   -37317   -37211   -37132   -37080 
  -37060   -37074   -37102   -37133   -37166   -37188   -37181   -37156 
  -37147   -37154   -37176   -37229   -37296   -37371   -37475   -37582 
  -37684   -37804   -37929   -38047   -38157   -38258   -38364   -38477 
  -38585   -38713   -38886   -39068   -39231   -39408   -39583   -39706 
  -39805   -39881   -39901   -39887   -39840   -39744   -39640   -39563 
  -39496   -39458   -39469   -39504   -39559   -39636   -39718   -39801 
  -39881   -39954   -40034   -40111   -40178   -40253   -40326   -40376 
  -40425   -40479   -40511   -40538   -40573   -40594   -40610   -40620 
  -40601   -40572   -40547   -40506   -40448   -40388   -40314   -40220 
  -40122   -40010   -39880   -39747   -39605   -39452   -39294   -39140 
  -38994   -38844   -38705   -38591   -38478   -38369   -38262   -38149 
  -38048   -37957   -37877   -37826   -37790   -37759   -37749   -37742 
  -37722   -37692   -37647   -37577   -37482   -37354   -37192   -37010 
  -36822   -36632   -36461   -36324   -36216   -36125   -36050   -35994 
  -35960   -35935   -35905   -35880   -35866   -35848   -35807   -35755 
  -35697   -35618   -35527   -35444   -35367   -35304   -35250   -35196 
  -35163   -35145   -35123   -35102   -35094   -35090   -35072   -35050 
  -35037   -35026   -35022   -35030   -35045   -35075   -35118   -35162 
  -35210   -35266   -35312   -35351   -35398   -35446   -35501   -35578 
  -35673   -35783   -35902   -36030   -36154   -36253   -36337   -36413 
  -36474   -36529   -36586   -36652   -36734   -36814   -36899   -36993 
  -37080   -37175   -37276   -37361   -37444   -37518   -37550   -37556 
  -37543   -37483   -37384   -37270   -37132   -36968   -36795   -36601 
  -36391   -36191   -35992   -35792   -35637   -35527   -35410   -35312 
  -35252   -35186   -35118   -35062   -35009   -34990   -34985   -34946 
  -34929   -34955   -34953   -34933   -34942   -34944   -34915   -34873 
  -34812   -34746   -34707   -34655   -34591   -34584   -34603   -34579 
  -34594   -34676   -34698   -34711   -34808   -34884   -34931   -35035 
  -35147   -35235   -35325   -35414   -35508   -35592   -35657   -35749 
  -35845   -35904   -35977   -36054   -36110   -36170   -36218   -36250 
  -36288   -36308   -36303   -36305   -36301   -36267   -36241   -36232 
  -36210   -36211   -36250   -36295   -36360   -36448   -36535   -36627 
  -36717   -36798   -36873   -36915   -36929   -36933   -36888   -36806 
  -36736   -36650   -36538   -36441   -36357   -36257   -36137   -36008 
  -35870   -35716   -35536   -35332   -35114   -34881   -34641   -34406 
  -34182   -33982   -33798   -33620   -33477   -33349   -33210   -33102 
  -33023   -32927   -32849   -32791   -32713   -32641   -32581   -32516 
  -32457   -32401   -32370   -32369   -32371   -32403   -32473   -32555 
  -32666   -32799   -32928   -33060   -33190   -33313   -33429   -33531 
  -33620   -33695   -33762   -33822   -33865   -33910   -33952   -33982 
  -34030   -34072   -34101   -34143   -34133   -34082   -34058   -33966 
  -33822   -33741   -33593   -33382   -33265   -33116   -32900   -32773 
  -32678   -32564   -32507   -32464   -32400   -32376   -32374   -32339 
  -32296   -32272   -32241   -32188   -32146   -32134   -32111   -32076 
  -32083   -32120   -32132   -32159   -32224   -32247   -32252   -32267 
  -32254   -32277   -32316   -32307   -32351   -32438   -32455   -32457 
  -32471   -32477   -32536   -32570   -32534   -32585   -32652   -32579 
  -32520   -32542   -32545   -32569   -32628   -32662   -32710   -32778 
  -32824   -32895   -32986   -33039   -33112   -33214   -33258   -33285 
  -33364   -33444   -33544   -33695   -33830   -33955   -34116   -34276 
  -34408   -34541   -34679   -34793   -34876   -34972   -35098   -35208 
  -35307   -35453   -35630   -35802   -35990   -36194   -36388   -36574 
  -36750   -36937   -37123   -37225   -37298   -37391   -37419   -37487 
  -37612   -37587   -37561   -37707   -37788   -37755   -37786   -37871 
  -37940   -37946   -37908   -37925   -37989   -37970   -37885   -37885 
  -37911   -37830   -37742   -37720   -37660   -37539   -37458   -37407 
  -37308   -37220   -37177   -37109   -37073   -37118   -37111   -37054 
  -37048   -37034   -36976   -36899   -36773   -36646   -36557   -36425 
  -36244   -36086   -35957   -35790   -35585   -35425   -35265   -35051 
  -34884   -34753   -34597   -34469   -34354   -34254   -34202   -34122 
