Origin Time       2011/03/11 14:46:00
Lat.              38.103
Long.             142.860
Depth. (km)       24
Mag.              9.0
Station Code      AIC003
Station Lat.      35.1734
Station Long.     136.7402
Station Height(m) -1
Record Time       2011/03/11 14:49:09
Sampling Freq(Hz) 100Hz
Duration Time(s)  297
Dir.              N-S
Scale Factor      3920(gal)/6182761
Max. Acc. (gal)   22.853
Last Correction   2011/03/11 14:48:54
Memo.             
[...]
  -36701   -36856   -37328   -37571   -37649   -38133   -38640   -38730 
  -39065   -39777   -40165   -40476   -41314   -42141   -42530   -43180 
  -44327   -45248   -45924   -46979   -48191   -49038   -49873   -51001 
  -51856   -52311   -53050   -53988   -54461   -54733   -55318   -55818 
  -55947   -56227   -56667   -56698   -56611   -56919   -57100   -56840 
  -56835   -57160   -57158   -57032   -57298   -57580   -57514   -57633 
  -58055   -57992   -57593   -57718   -57986   -57768   -57603   -57788 
  -57699   -57291   -57209   -57321   -57035   -56700   -56810   -56760 
  -56223   -55933   -55980   -55717   -55296   -55245   -55178   -54681 
  -54332   -54306   -53962   -53433   -53315   -53316   -52932   -52596 
  -52727   -52693   -52259   -52183   -52379   -52146   -51922   -52265 
  -52586   -52574   -52810   -53291   -53498   -53759   -54535   -55275 
  -55626   -56165   -56979   -57540   -58048   -58965   -59885   -60433 
  -61165   -62280   -63097   -63609   -64332   -64972   -65256   -65738 
  -66577   -67094   -67179   -67464   -67820   -67672   -67423   -67442 
  -67112   -66419   -66117   -66030   -65513   -64857   -64511   -63942 
  -62877   -62096   -61634   -60669   -59493   -58745   -57916   -56648 
  -55520   -54643   -53469   -52159   -51213   -50230   -48829   -47635 
  -46846   -45767   -44446   -43505   -42680   -41461   -40261   -39445 
  -38481   -37273   -36490   -36068   -35310   -34329   -33695   -33096 
  -32117   -31415   -31222   -30731   -30037   -29810   -29577   -28877 
  -28368   -28331   -28192   -27981   -28255   -28678   -28641   -28655 
  -29249   -29814   -30134   -30898   -31935   -32541   -33085   -34046 
  -34886   -35318   -35944   -36816   -37293   -37592   -38291   -38916 
  -39104   -39455   -40044   -40252   -40161   -40297   -40455   -40238 
  -40149   -40519   -40611   -40287   -40288   -40402   -40046   -39728 
  -39853   -39800   -39425   -39432   -39751   -39690   -39503   -39662 
  -39571   -39017   -38867   -39113   -38993   -38832   -39132   -39340 
  -39277   -39595   -40187   -40348   -40284   -40659   -41219   -41499 
  -41978   -42849   -43434   -43829   -44704   -45677   -46206   -46867 
  -47922   -48676   -49198   -50172   -51268   -51978   -52820   -54053 
  -55018   -55684   -56736   -57941   -58713   -59541   -60786   -61783 
  -62381   -63213   -64191   -64711   -65061   -65847   -66655   -66971 
  -67276   -67803   -67947   -67779   -67939   -68101   -67764   -67465 
  -67536   -67435   -67089   -67079   -67312   -67163   -66812   -66800 
  -66701   -66201   -65989   -66058   -65703   -65289   -65424   -65513 
  -65050   -64657   -64606   -64249   -63646   -63516   -63527   -63030 
  -62571   -62558   -62297   -61721   -61566   -61511   -60918   -60371 
  -60256   -59899   -59207   -58845   -58653   -58011   -57316   -57015 
  -56454   -55467   -54898   -54624   -53842   -52979   -52554   -51888 
  -50800   -50027   -49481   -48521   -47479   -46924   -46359   -45356 
  -44512   -44009   -43176   -42128   -41481   -40851   -39878   -39189 
  -38974   -38543   -37797   -37391   -37232   -36637   -35978   -35888 
  -35776   -35366   -35409   -35727   -35510   -35151   -35239   -35285 
  -35057   -35170   -35624   -35696   -35509   -35715   -35932   -35697 
  -35703   -36169   -36279   -36073   -36259   -36569   -36499   -36561 
  -37103   -37376   -37142   -37169   -37396   -37137   -36793   -37016 
  -37247   -36961   -36793   -36948   -36694   -36198   -36224   -36370 
  -36120   -36060   -36334   -36262   -36054   -36359   -36718   -36655 
  -36758   -37230   -37420   -37348   -37626   -38020   -37954   -37815 
  -38048   -38101   -37785   -37807   -38081   -37954   -37803   -38063 
  -38112   -37710   -37524   -37551   -37162   -36628   -36552   -36547 
  -36191   -35952   -36017   -35822   -35404   -35372   -35415   -34956 
  -34530   -34508   -34256   -33703   -33385   -33067   -32434   -31967 
  -31843   -31526   -31007   -30885   -31038   -30820   -30546   -30791 
  -31026   -30955   -31236   -31883   -32269   -32562   -33290   -34120 
  -34684   -35468   -36596   -37457   -38071   -39010   -40088   -40791 
  -41488   -42594   -43527   -44053   -44876   -45895   -46502   -47146 
  -48219   -49137   -49716   -50464   -51329   -51796   -52051   -52542 
  -52925   -52896   -52932   -53138   -52956   -52474   -52277   -52099 
  -51450   -50786   -50364   -49663   -48805   -48358   -47987   -47247 
  -46598   -46239   -45592   -44635   -43980   -43480   -42619   -41795 
  -41403   -40893   -40050   -39470   -39107   -38370   -37587   -37289 
  -36993   -36355   -35948   -35898   -35637   -35310   -35428   -35627 
  -35530   -35667   -36283   -36758   -37092   -37950   -38975   -39496 
  -40066   -41101   -41907   -42430   -43355   -44388   -44991   -45608 
  -46608   -47549   -48217   -49119   -50255   -50997   -51598   -52577 
  -53417   -53840   -54553   -55707   -56583   -57143   -57945   -58790 
  -59398   -60296   -61597   -62589   -63193   -64073   -65095   -65715 
  -66364   -67334   -68027   -68414   -69095   -69870   -70135   -70275 
  -70833   -71249   -71230   -71449   -71831   -71643   -71218   -71263 
  -71303   -70786   -70359   -70342   -69972   -69238   -68828   -68370 
  -67306   -66240   -65540   -64532   -63117   -62043   -61195   -59916 
  -58604   -57694   -56543   -55035   -53863   -52856   -51445   -49992 
  -48917   -47709   -46101   -44752   -43721   -42300   -40775   -39730 
  -38561   -36962   -35695   -34847   -33780   -32656   -31976   -31373 
  -30508   -29908   -29713   -29255   -28596   -28463   -28572   -28329 
  -28205   -28483   -28533   -28323   -28531   -28973   -29001   -29023 
  -29498   -29782   -29698   -29997   -30575   -30775   -30953   -31542 
  -32005   -32133   -32587   -33325   -33662   -33964   -34869   -35807 
  -36309   -36951   -37879   -38423   -38639   -39217   -39920   -40216 
  -40671   -41599   -42261   -42610   -43310   -44128   -44551   -45018 
  -45890   -46634   -47092   -47803   -48642   -49060   -49434   -50309 
  -51170   -51637   -52336   -53328   -53842   -54054   -54653   -55206 
  -55287   -55569   -56239   -56595   -56725   -57261   -57833   -57945 
  -58175   -58783   -59065   -59011   -59364   -59921   -60106   -60394 
  -61089   -61529   -61664   -62071   -62505   -62498   -62496   -62829 
  -62867   -62451   -62307   -62366   -62009   -61638   -61679   -61488 
  -60804   -60310   -60049   -59377   -58531   -58080   -57548   -56565 
  -55811   -55484   -54887   -54056   -53591   -53194   -52348   -51527 
  -51135   -50572   -49631   -49021   -48719   -48058   -47306   -46963 
  -46533   -45727   -45197   -44982   -44388   -43648   -43350   -42994 
  -42280   -41961   -42045   -41731   -41304   -41437   -41596   -41328 
  -41293   -41671   -41739   -41584   -41881   -42286   -42282   -42478 
  -43181   -43628   -43768   -44340   -45084   -45352   -45583   -46197 
  -46617   -46688   -47067   -47653   -47800   -47878   -48434   -48880 
  -48869   -49046   -49476   -49560   -49430   -49554   -49637   -49340 
  -49150   -49352   -49321   -48934   -48902   -49002   -48538   -48084 
  -48180   -48130   -47736   -47653   -47632   -47005   -46230   -45909 
  -45611   -45060   -44806   -44780   -44277   -43589   -43394   -43200 
  -42483   -41907   -41737   -41265   -40558   -40243   -39974   -39292 
  -38805   -38864   -38778   -38458   -38514   -38624   -38276   -38132 
  -38622   -39013   -39135   -39521   -39871   -39720   -39587   -39964 
  -40332   -40263   -40330   -40716   -40785   -40712   -41083   -41402 
  -41206   -41102   -41316   -41186   -40778   -40771   -40804   -40328 
  -39924   -39913   -39704   -39297   -39294   -39502   -39348   -39266 
  -39730   -40036   -39964   -40347   -41027   -41231   -41389   -41996 
  -42436   -42540   -43008   -43726   -44021   -44206   -44792   -45315 
  -45446   -45758   -46409   -46774   -46959   -47600   -48259   -48387 
  -48670   -49384   -49767   -49901   -50459   -51038   -51172   -51540 
  -52399   -52914   -53034   -53483   -54019   -54125   -54298   -54854 
  -55128   -55041   -55350   -55830   -55804   -55722   -56000   -56105 
  -55914   -55994   -56262   -56147   -55896   -56001   -56017   -55605 
  -55375   -55489   -55282   -54814   -54723   -54701   -54229   -53808 
  -53750   -53416   -52752   -52474   -52386   -51860   -51360   -51312 
  -51042   -50351   -49972   -49814   -49206   -48545   -48370   -48152 
  -47608   -47291   -47227   -46816   -46177   -45879   -45605   -44926 
  -44414   -44307   -43892   -43246   -43111   -43061   -42499   -42098 
  -42137   -41875   -41390   -41341   -41395   -41031   -40696   -40704 
  -40495   -39963   -39748   -39741   -39321   -38862   -38854   -38693 
  -38138   -37918   -37980   -37631   -37202   -37260   -37286   -36957 
  -36904   -37158   -37099   -36939   -37175   -37367   -37164   -37115 
  -37356   -37306   -37080   -37275   -37582   -37461   -37447   -37876 
  -38019   -37876   -38119   -38391   -38204   -38119   -38477   -38670 
  -38536   -38731   -39176   -39219   -39208   -39634   -39929   -39850 
  -40044   -40477   -40509   -40429   -40773   -41072   -41004   -41108 
  -41486   -41618   -41523   -41692   -41988   -41920   -41840   -42122 
  -42133   -41743   -41752   -42017   -41806   -41509   -41607   -41518 
  -41047   -40841   -40838   -40422   -39838   -39642   -39435   -38791 
  -38314   -38185   -37653   -36873   -36531   -36193   -35460   -34944 
  -34785   -34347   -33755   -33645   -33680   -33302   -33027   -33239 
  -33282   -33053   -33272   -33790   -33939   -34027   -34576   -35071 
  -35177   -35631   -36484   -36959   -37368   -38352   -39337   -39950 
  -40883   -42146   -42998   -43744   -45030   -46290   -47127   -48303 
  -49913   -51152   -52175   -53614   -55093   -56175   -57330   -58796 
  -59970   -60772   -61913   -63210   -63956   -64584   -65571   -66371 
  -66817   -67504   -68370   -68760   -68892   -69331   -69621   -69399 
  -69347   -69602   -69432   -69027   -69030   -68898   -68192   -67654 
  -67418   -66750   -65829   -65247   -64611   -63549   -62627   -62027 
  -61092   -59852   -58942   -58092   -56858   -55704   -54861   -53856 
  -52700   -51914   -51288   -50268   -49271   -48793   -48256   -47443 
  -47061   -46932   -46314   -45657   -45464   -45114   -44417   -44109 
  -44174   -43887   -43416   -43371   -43350   -42874   -42546   -42563 
  -42185   -41534   -41307   -41139   -40540   -40109   -40129   -39850 
  -39186   -38854   -38656   -37979   -37324   -37201   -36916   -36183 
  -35774   -35637   -35055   -34377   -34181   -33948   -33326   -32951 
  -32957   -32673   -32253   -32318   -32433   -32132   -32010   -32330 
  -32454   -32311   -32487   -32809   -32769   -32792   -33273   -33581 
  -33540   -33941   -34646   -34802   -34842   -35411   -35937   -36180 
  -36688   -37305   -37538   -37808   -38471   -38927   -38953   -39142 
  -39547   -39703   -39793   -40199   -40497   -40346   -40341   -40722 
  -40809   -40564   -40677   -40934   -40803   -40860   -41342   -41412 
  -41152   -41377   -41779   -41777   -41841   -42346   -42757   -42914 
  -43380   -44060   -44368   -44609   -45289   -45953   -46316   -46959 
  -47965   -48758   -49385   -50302   -51285   -51966   -52721   -53745 
  -54521   -55102   -56062   -57095   -57680   -58294   -59233   -59874 
  -60239   -61013   -61880   -62248   -62633   -63399   -63948   -64208 
  -64769   -65428   -65694   -65995   -66661   -67121   -67249   -67657 
  -68249   -68501   -68736   -69321   -69728   -69757   -70032   -70547 
  -70617   -70413   -70531   -70606   -70242   -70003   -70052   -69689 
  -69030   -68838   -68704   -68004   -67374   -67155   -66651   -65865 
  -65475   -65225   -64523   -63840   -63622   -63263   -62595   -62271 
  -62152   -61635   -61067   -60891   -60566   -59828   -59347   -59099 
  -58407   -57603   -57216   -56713   -55757   -54970   -54485   -53631 
  -52478   -51698   -50971   -49756   -48662   -47998   -46987   -45606 
  -44627   -43790   -42445   -41105   -40258   -39249   -37856   -36832 
  -36123   -35010   -33812   -33099   -32315   -31127   -30272   -29841 
  -29073   -28130   -27630   -27199   -26442   -25915   -25810   -25435 
  -24796   -24581   -24530   -24052   -23599   -23577   -23437   -22970 
  -22757   -22821   -22577   -22242   -22351   -22425   -22117   -22109 
  -22488   -22600   -22606   -23006   -23456   -23574   -23820   -24464 
  -24910   -25058   -25568   -26256   -26515   -26823   -27593   -28120 
  -28225   -28613   -29161   -29263   -29269   -29625   -29828   -29680 
  -29800   -30120   -30009   -29802   -30021   -30085   -29693   -29564 
  -29723   -29510   -29213   -29350   -29396   -29034   -28932   -29163 
  -28999   -28647   -28791   -28988   -28763   -28747   -29172   -29368 
  -29371   -29805   -30385   -30541   -30756   -31492   -32119   -32392 
  -33011   -33892   -34353   -34792   -35727   -36511   -36957   -37824 
  -38920   -39518   -40059   -41118   -42091   -42562   -43209   -44214 
  -44899   -45444   -46496   -47555   -48096   -48796   -49922   -50760 
  -51319   -52256   -53272   -53814   -54470   -55603   -56404   -56780 
  -57553   -58516   -59024   -59572   -60531   -61198   -61477   -62123 
  -63012   -63519   -63979   -64807   -65452   -65730   -66321   -67155 
  -67580   -67918   -68690   -69409   -69780   -70418   -71322   -71810 
  -72101   -72782   -73534   -73986   -74516   -75329   -75949   -76305 
  -76977   -77797   -78157   -78468   -79154   -79614   -79718   -80178 
  -80850   -81052   -81145   -81608   -81861   -81684   -81721   -81898 
  -81615   -81195   -81156   -81013   -80476   -80169   -80090   -79557 
  -78821   -78494   -78114   -77258   -76557   -76191   -75487   -74568 
  -74003   -73396   -72357   -71472   -70915   -70030   -68878   -68062 
  -67277   -66056   -64918   -64167   -63156   -61788   -60753   -59958 
  -58810   -57599   -56741   -55748   -54435   -53426   -52629   -51395 
  -50061   -49178   -48228   -46901   -45854   -45083   -43912   -42605 
  -41693   -40755   -39481   -38425   -37739   -36824   -35701   -34949 
  -34329   -33355   -32493   -32094   -31498   -30567   -30060   -29829 
  -29198   -28591   -28455   -28197   -27628   -27388   -27395   -27022 
  -26602   -26667   -26706   -26356   -26229   -26483   -26446   -26237 
  -26547   -26963   -26926   -27059   -27631   -27956   -28084   -28643 
  -29297   -29556   -29932   -30694   -31237   -31470   -32009   -32735 
  -33056   -33300   -33949   -34493   -34609   -34944   -35614   -35911 
  -36018   -36583   -37115   -37202   -37517   -38157   -38397   -38374 
  -38734   -39119   -39047   -39103   -39544   -39669   -39511   -39725 
  -39947   -39675   -39501   -39694   -39634   -39357   -39454   -39619 
  -39331   -39110   -39298   -39216   -38790   -38779   -39008   -38778 
  -38548   -38858   -39053   -38884   -39111   -39634   -39644   -39503 
  -39929   -40361   -40363   -40666   -41396   -41786   -41990   -42671 
  -43390   -43619   -43989   -44791   -45336   -45672   -46452   -47314 
  -47671   -48040   -48846   -49416   -49571   -50082   -50856   -51180 
  -51432   -52135   -52673   -52732   -53041   -53687   -53962   -54067 
  -54646   -55214   -55294   -55592   -56271   -56530   -56551   -57038 
  -57515   -57513   -57700   -58237   -58386   -58279   -58557   -58842 
  -58666   -58507   -58641   -58579   -58267   -58239   -58320   -57942 
  -57511   -57534   -57457   -57052   -56949   -57056   -56766   -56375 
  -56384   -56391   -56029   -55805   -55929   -55735   -55244   -55200 
  -55278   -54848   -54534   -54650   -54380   -53753   -53511   -53314 
  -52682   -52176   -52010   -51560   -50826   -50365   -49980   -49223 
  -48488   -48136   -47610   -46744   -46199   -45870   -45167   -44478 
  -44141   -43554   -42618   -41963   -41494   -40722   -39983   -39656 
  -39262   -38508   -37921   -37650   -37122   -36453   -36269   -36177 
  -35636   -35162   -34976   -34478   -33764   -33466   -33299   -32741 
  -32256   -32214   -32006   -31415   -31077   -30941   -30379   -29760 
  -29658   -29512   -28971   -28672   -28696   -28404   -27905   -27810 
  -27895   -27658   -27447   -27583   -27553   -27276   -27379   -27592 
  -27279   -27008   -27233   -27269   -26999   -27093   -27339   -27127 
  -26989   -27428   -27727   -27661   -27982   -28562   -28692   -28755 
  -29319   -29801   -29884   -30315   -31112   -31591   -32084   -33116 
  -34107   -34662   -35358   -36295   -36815   -37033   -37655   -38452 
  -38854   -39284   -40154   -40861   -41174   -41741   -42480   -42788 
  -43092   -43818   -44339   -44457   -44794   -45292   -45363   -45256 
  -45489   -45649   -45405   -45416   -45851   -45945   -45758   -45950 
  -46113   -45773   -45598   -45764   -45561   -45213   -45397   -45683 
  -45602   -45712   -46197   -46357   -46259   -46585   -46963   -46793 
  -46690   -47075   -47172   -46886   -47043   -47446   -47380   -47258 
  -47615   -47885   -47824   -48148   -48795   -49003   -49030   -49474 
  -49914   -49952   -50159   -50725   -50998   -51075   -51596   -52187 
  -52259   -52352   -52827   -53029   -52920   -53156   -53471   -53328 
  -53280   -53757   -54094   -54059   -54310   -54748   -54774   -54839 
  -55421   -55867   -55912   -56182   -56644   -56723   -56693   -57104 
  -57487   -57443   -57596   -58009   -57991   -57852   -58204   -58486 
  -58327   -58419   -58817   -58773   -58527   -58743   -58895   -58505 
  -58267   -58363   -58046   -57460   -57336   -57350   -57024   -56829 
  -56895   -56576   -55946   -55699   -55624   -55139   -54684   -54685 
  -54467   -53807   -53540   -53665   -53393   -52977   -52969   -52909 
  -52409   -51902   -51670   -51325   -50789   -50524   -50273   -49558 
  -48925   -48658   -48089   -47310   -47031   -46844   -46215   -45781 
  -45752   -45376   -44722   -44511   -44469   -43995   -43476   -43260 
  -42869   -42265   -42068   -42112   -41803   -41489   -41562   -41478 
  -41041   -40852   -40890   -40598   -40206   -40171   -40090   -39671 
  -39457   -39543   -39331   -38962   -38983   -39050   -38778   -38646 
  -38812   -38667   -38220   -38067   -38000   -37594   -37357   -37560 
  -37603   -37482   -37733   -38024   -37851   -37741   -38112   -38377 
  -38364   -38661   -39149   -39279   -39386   -39878   -40262   -40356 
  -40780   -41494   -41889   -42182   -42849   -43515   -43869   -44379 
  -45114   -45507   -45731   -46320   -46880   -47033   -47315   -47873 
  -48111   -48128   -48534   -48993   -49016   -49115   -49537   -49672 
  -49547   -49825   -50311   -50433   -50563   -51069   -51356   -51215 
  -51319   -51655   -51594   -51447   -51729   -51908   -51647   -51546 
  -51671   -51413   -50997   -51003   -51040   -50769   -50704   -50919 
  -50823   -50491   -50480   -50585   -50341   -50155   -50396   -50505 
  -50342   -50545   -50911   -50826   -50701   -50895   -50812   -50370 
  -50255   -50403   -50280   -50173   -50485   -50694   -50440   -50340 
  -50491   -50235   -49819   -49857   -49922   -49618   -49461   -49618 
  -49473   -49002   -48826   -48712   -48065   -47380   -47179   -46919 
  -46349   -46001   -45795   -45193   -44509   -44177   -43750   -42991 
  -42428   -42096   -41462   -40776   -40563   -40377   -39879   -39613 
  -39661   -39397   -38926   -38836   -38775   -38276   -37944   -38041 
  -37892   -37475   -37378   -37378   -37044   -36829   -37025   -37048 
