Origin Time       2011/03/11 14:46:00
Lat.              38.103
Long.             142.860
Depth. (km)       24
Mag.              9.0
Station Code      AIC016
Station Lat.      34.7784
Station Long.     136.9082
Station Height(m) 4
Record Time       2011/03/11 14:49:22
Sampling Freq(Hz) 100Hz
Duration Time(s)  170
Dir.              E-W
Scale Factor      3920(gal)/6182761
Max. Acc. (gal)   17.513
Last Correction   2011/03/11 14:49:07
Memo.             
[...]
   -5201    -5764    -6216    -6562    -6782    -6897    -6907    -6779 
   -6591    -6439    -6310    -6194    -6110    -6036    -5912    -5733 
   -5571    -5422    -5204    -4906    -4578    -4222    -3785    -3295 
   -2858    -2482    -2108    -1711    -1287     -889     -549     -220 
      90      365      657      954     1252     1618     2019     2354 
    2661     2985     3242     3409     3536     3615     3623     3583 
    3543     3490     3390     3284     3154     2952     2724     2475 
    2133     1696     1193      617      -48     -803    -1582    -2331 
   -3029    -3614    -4077    -4446    -4675    -4745    -4650    -4401 
   -4137    -3909    -3626    -3268    -2840    -2316    -1742    -1155 
    -562      -16      474      904     1198     1375     1517     1615 
    1710     1894     2119     2357     2703     3143     3621     4158 
    4740     5299     5776     6100     6241     6222     5980     5525 
    5086     4740     4350     3908     3430     2910     2455     2022 
    1514     1060      666      184     -311     -679     -967    -1230 
   -1398    -1419    -1320    -1140     -950     -746     -421        6 
     489     1158     2003     2854     3717     4604     5472     6340 
    7101     7625     7941     8124     8241     8260     8164     8117 
    8155     8150     8112     8065     7981     7887     7686     7273 
    6792     6387     6015     5632     5204     4653     3986     3258 
    2484     1727     1063      434     -196     -812    -1544    -2433 
   -3335    -4239    -5148    -5954    -6684    -7373    -7946    -8404 
   -8741    -8933    -9069    -9123    -8973    -8666    -8291    -7898 
   -7525    -7085    -6530    -5939    -5285    -4517    -3718    -2988 
   -2305    -1582     -834     -127      499      959     1266     1517 
    1668     1740     1897     2103     2194     2142     2002     1801 
    1552     1235      842      493      276       93     -110     -260 
    -378     -540     -672     -727     -779     -787     -696     -563 
    -383     -122      199      556      922     1301     1728     2186 
    2675     3223     3781     4291     4747     5145     5502     5838 
    6105     6245     6307     6387     6473     6497     6492     6482 
    6370     6130     5894     5728     5582     5449     5274     4953 
    4551     4146     3687     3175     2664     2149     1627     1131 
     712      401      167      -21     -176     -294     -356     -415 
    -533     -652     -734     -796     -764     -592     -393     -207 
      58      375      630      803      890      818      554      208 
    -126     -481     -892    -1324    -1757    -2195    -2601    -2997 
   -3424    -3774    -4018    -4278    -4543    -4746    -4913    -5046 
   -5120    -5144    -5133    -5107    -5098    -5092    -5075    -5078 
   -5088    -5076    -5071    -5072    -5115    -5265    -5399    -5434 
   -5498    -5563    -5518    -5431    -5262    -4890    -4393    -3826 
   -3156    -2443    -1734    -1023     -352      239      740     1107 
    1327     1455     1482     1341     1053      657      105     -539 
   -1124    -1648    -2195    -2764    -3303    -3801    -4261    -4631 
   -4867    -4998    -5060    -5055    -5018    -4992    -4918    -4732 
   -4423    -3949    -3312    -2595    -1808     -965     -183      546 
    1289     1964     2559     3151     3705     4173     4533     4771 
    4948     5079     5153     5231     5285     5263     5248     5248 
    5211     5142     5028     4845     4626     4373     4037     3652 
    3275     2869     2467     2174     1957     1790     1732     1768 
    1823     1873     1928     1993     2058     2095     2120     2156 
    2174     2172     2189     2229     2277     2317     2332     2320 
    2288     2223     2121     1985     1829     1722     1684     1626 
    1529     1455     1406     1337     1196      937      562      141 
    -314     -808    -1261    -1635    -1912    -2030    -2025    -1961 
   -1806    -1578    -1362    -1178    -1016     -901     -813     -668 
    -400       14      559     1195     1881     2616     3399     4194 
    4983     5752     6492     7224     7934     8594     9245     9881 
   10484    11124    11780    12367    12894    13347    13685    13886 
   13938    13863    13631    13237    12745    12169    11552    10900 
   10169     9417     8689     7964     7206     6410     5651     4957 
    4279     3638     3142     2780     2427     2080     1793     1548 
    1338     1220     1173     1138     1209     1388     1564     1830 
    2202     2507     2765     3049     3268     3429     3597     3705 
    3782     3910     4033     4122     4181     4227     4320     4454 
    4580     4695     4775     4770     4716     4643     4514     4353 
    4182     3973     3748     3494     3192     2894     2595     2289 
    2010     1692     1266      764      187     -467    -1137    -1807 
   -2478    -3099    -3675    -4220    -4681    -5053    -5386    -5670 
   -5879    -6018    -6081    -6085    -6066    -6068    -6183    -6403 
   -6582    -6690    -6751    -6684    -6498    -6313    -6148    -6000 
   -5878    -5726    -5555    -5434    -5315    -5133    -4950    -4828 
   -4704    -4536    -4365    -4154    -3860    -3553    -3251    -2903 
   -2546    -2226    -1887    -1509    -1183     -945     -737     -593 
    -628     -855    -1211    -1633    -2067    -2516    -2954    -3358 
   -3725    -3947    -4020    -4069    -4080    -4014    -3912    -3765 
   -3622    -3572    -3564    -3541    -3518    -3472    -3392    -3279 
   -3095    -2863    -2621    -2335    -1985    -1595    -1169     -686 
    -179      297      795     1341     1831     2235     2583     2858 
    3069     3251     3452     3698     3967     4266     4600     4946 
    5331     5744     6086     6354     6620     6845     6999     7147 
    7305     7453     7624     7835     8043     8199     8261     8188 
    7975     7654     7217     6661     6078     5477     4817     4180 
    3602     3017     2433     1897     1392      883      386      -76 
    -507     -907    -1284    -1602    -1816    -1994    -2184    -2348 
   -2485    -2613    -2687    -2678    -2650    -2645    -2558    -2337 
   -2088    -1829    -1446     -947     -453        0      401      771 
    1231     1779     2276     2719     3143     3483     3715     3853 
    3861     3731     3513     3307     3233     3255     3269     3314 
    3386     3364     3251     3144     3057     2934     2736     2451 
    2057     1561     1017      449     -164     -823    -1495    -2155 
   -2735    -3180    -3521    -3747    -3844    -3894    -3918    -3879 
   -3790    -3673    -3500    -3227    -2863    -2449    -1990    -1506 
   -1040     -600     -223       75      331      538      692      807 
     868      891      869      739      530      289      -61     -541 
   -1096    -1728    -2443    -3226    -4065    -4889    -5663    -6398 
   -7008    -7446    -7770    -7935    -7888    -7706    -7437    -7089 
   -6705    -6250    -5721    -5195    -4674    -4192    -3811    -3505 
   -3280    -3137    -3013    -2942    -2932    -2861    -2719    -2563 
   -2364    -2130    -1941    -1822    -1690    -1498    -1283    -1060 
    -875     -790     -770     -793     -929    -1212    -1614    -2162 
   -2842    -3582    -4399    -5292    -6212    -7132    -8000    -8825 
   -9635   -10380   -11058   -11682   -12193   -12570   -12805   -12890 
  -12858   -12719   -12473   -12117   -11632   -11012   -10273    -9491 
   -8659    -7675    -6548    -5332    -4093    -2916    -1790     -740 
     194     1059     1844     2537     3227     3956     4679     5362 
    5959     6469     6938     7322     7555     7663     7641     7467 
    7192     6864     6456     5931     5318     4665     3977     3262 
    2509     1702      929      269     -332     -934    -1488    -1916 
   -2239    -2449    -2441    -2289    -2118    -1835    -1444    -1115 
    -849     -618     -475     -395     -440     -674     -932    -1158 
   -1411    -1605    -1690    -1707    -1632    -1449    -1198     -872 
    -495     -193       49      305      518      660      716      614 
     379      107     -190     -571    -1007    -1460    -1989    -2571 
   -3098    -3545    -3919    -4189    -4304    -4263    -4084    -3751 
   -3249    -2571    -1768     -933      -39      928     1854     2698 
    3487     4197     4799     5240     5507     5678     5746     5643 
    5414     5082     4627     4124     3612     3098     2645     2248 
    1885     1559     1233      958      777      587      371      181 
     -17     -211     -375     -528     -627     -655     -615     -488 
    -302      -31      294      569      881     1277     1613     1882 
    2136     2340     2529     2710     2845     2935     2951     2880 
    2725     2440     2058     1605     1063      471     -119     -609 
    -945    -1155    -1209    -1154    -1013     -748     -477     -182 
     194      514      810     1070     1249     1498     1710     1796 
    1836     1734     1504     1168      756      427      139      -87 
    -211     -290     -232     -141     -113      -44       22       83 
      90       22       16        0      -80     -134     -177     -257 
    -323     -278     -225     -195     -124      -93      -14      155 
     321      519      768     1066     1331     1598     1958     2268 
    2511     2721     2847     2906     2874     2824     2809     2781 
    2749     2708     2681     2699     2688     2569     2389     2167 
    1844     1526     1269      966      625      314       66     -151 
    -383     -610     -903    -1299    -1755    -2327    -2999    -3712 
   -4463    -5157    -5767    -6308    -6750    -7050    -7119    -6976 
   -6720    -6352    -5845    -5277    -4723    -4142    -3611    -3219 
   -2880    -2566    -2316    -2096    -1835    -1513    -1222    -1010 
    -824     -679     -616     -619     -657     -716     -806     -943 
   -1155    -1399    -1624    -1886    -2189    -2457    -2743    -3107 
   -3465    -3792    -4137    -4496    -4843    -5146    -5388    -5576 
   -5729    -5833    -5854    -5819    -5753    -5668    -5582    -5450 
   -5297    -5205    -5121    -5039    -5041    -5089    -5166    -5323 
   -5506    -5690    -5923    -6212    -6590    -7073    -7580    -8083 
   -8588    -9079    -9562   -10037   -10499   -10917   -11279   -11619 
  -11922   -12153   -12301   -12344   -12286   -12111   -11772   -11276 
  -10640    -9861    -8959    -7965    -6886    -5728    -4524    -3367 
   -2320    -1328     -373      507     1318     2063     2712     3236 
    3648     3949     4120     4176     4070     3744     3269     2676 
    1973     1227      464     -264     -899    -1474    -2023    -2529 
   -2957    -3272    -3469    -3564    -3489    -3134    -2564    -1845 
    -953        3      971     2016     3044     4006     4967     5842 
    6553     7207     7854     8431     8966     9480     9926    10311 
   10603    10787    10934    10942    10718    10394     9987     9465 
    8954     8453     7919     7449     7043     6569     6018     5508 
    5073     4645     4239     3899     3560     3168     2728     2197 
    1562      900      249     -372     -940    -1446    -1900    -2337 
   -2702    -2962    -3200    -3410    -3560    -3701    -3785    -3753 
   -3653    -3498    -3299    -3082    -2791    -2394    -1915    -1420 
   -1005     -651     -318      -90      -18      -94     -278     -459 
    -633     -894    -1198    -1484    -1753    -1941    -2015    -2036 
   -2035    -1993    -1934    -1924    -1958    -1964    -1915    -1777 
   -1521    -1244    -1038     -871     -727     -580     -392     -239 
    -207     -255     -309     -364     -463     -593     -705     -834 
    -980    -1050    -1078    -1136    -1196    -1274    -1385    -1469 
   -1540    -1640    -1697    -1651    -1599    -1581    -1560    -1592 
   -1637    -1623    -1611    -1566    -1417    -1211     -951     -626 
    -203      381     1068     1798     2542     3227     3867     4487 
    5015     5435     5817     6183     6537     6943     7421     7915 
    8400     8867     9300     9746    10223    10666    11081    11456 
   11714    11859    11866    11708    11484    11238    10925    10549 
   10138     9705     9274     8879     8532     8197     7843     7468 
    7079     6698     6264     5728     5202     4708     4213     3852 
    3667     3580     3586     3622     3657     3783     3904     3900 
    3885     3904     3916     3985     4082     4174     4322     4512 
    4761     5071     5394     5813     6332     6832     7341     7804 
    8098     8295     8452     8497     8433     8361     8358     8383 
    8352     8280     8256     8283     8300     8270     8131     7850 
    7502     7118     6664     6114     5473     4799     4076     3211 
    2228     1230      246     -782    -1926    -3131    -4273    -5293 
   -6132    -6676    -6862    -6713    -6278    -5621    -4811    -3909 
   -2993    -2120    -1323     -655      -79      509     1148     1845 
    2605     3390     4162     4886     5520     6043     6450     6793 
    7102     7284     7297     7205     7021     6754     6397     5914 
    5377     4834     4248     3606     2894     2111     1232      226 
    -898    -2177    -3624    -5192    -6849    -8534   -10209   -11885 
  -13562   -15275   -17022   -18732   -20393   -21982   -23412   -24668 
  -25743   -26526   -27034   -27335   -27318   -26990   -26502   -25824 
  -24899   -23773   -22471   -21055   -19558   -17927   -16196   -14441 
  -12643   -10857    -9185    -7561    -5960    -4499    -3185    -2014 
   -1045     -243      349      679      919     1153     1288     1313 
    1227     1036      836      621      335       30     -258     -545 
    -838    -1140    -1475    -1879    -2308    -2684    -3034    -3360 
   -3585    -3669    -3622    -3407    -2964    -2355    -1692     -988 
    -195      634     1416     2149     2785     3308     3814     4291 
    4724     5195     5670     6061     6441     6889     7326     7738 
    8141     8461     8740     8962     8989     8865     8575     8025 
    7275     6317     5144     3889     2557     1104     -413    -1953 
   -3441    -4763    -5960    -7042    -7882    -8494    -8917    -9101 
   -9110    -9084    -9076    -9020    -8883    -8700    -8436    -8129 
   -7821    -7417    -6926    -6369    -5707    -4988    -4206    -3406 
   -2715    -2078    -1409     -757     -242        3       11      -26 
     -84     -250     -489     -739     -996    -1209    -1372    -1531 
   -1696    -1948    -2369    -2909    -3421    -3818    -4187    -4595 
   -4958    -5210    -5364    -5467    -5548    -5707    -5981    -6181 
   -6280    -6404    -6477    -6501    -6555    -6571    -6592    -6571 
   -6329    -6001    -5744    -5454    -5100    -4761    -4447    -4140 
   -3849    -3579    -3306    -2958    -2443    -1787    -1117     -502 
     110      750     1355     1892     2403     2881     3285     3606 
    3899     4192     4431     4638     4778     4797     4775     4694 
    4527     4308     3982     3594     3191     2700     2136     1513 
     839      253     -232     -754    -1281    -1741    -2152    -2520 
   -2881    -3287    -3743    -4186    -4593    -5022    -5482    -5956 
   -6440    -6864    -7189    -7499    -7802    -8038    -8151    -8081 
   -7966    -7863    -7682    -7531    -7438    -7319    -7164    -6972 
   -6762    -6469    -6113    -5764    -5315    -4754    -4161    -3516 
   -2887    -2334    -1824    -1376     -955     -560     -277      -46 
     162      299      429      520      471      317      125     -102 
    -354     -627     -984    -1385    -1689    -1874    -1971    -1979 
   -1899    -1763    -1584    -1394    -1277    -1211    -1118    -1008 
    -941     -934     -916     -814     -624     -388      -80      310 
     719     1166     1671     2223     2799     3376     3980     4551 
    5082     5599     6032     6449     6895     7277     7560     7780 
    8035     8300     8522     8769     9034     9293     9602     9913 
   10171    10421    10609    10694    10729    10641    10370     9949 
    9415     8806     8140     7466     6788     6095     5422     4775 
    4159     3580     3068     2603     2158     1790     1484     1191 
     871      544      273      -26     -350     -625     -910    -1171 
   -1310    -1317    -1251    -1175    -1121    -1048     -871     -684 
    -576     -507     -471     -461     -490     -533     -593     -738 
    -933    -1137    -1325    -1485    -1629    -1797    -2032    -2287 
   -2555    -2833    -3074    -3323    -3620    -3945    -4283    -4690 
   -5214    -5830    -6520    -7210    -7827    -8374    -8834    -9199 
   -9480    -9628    -9579    -9335    -8962    -8557    -8118    -7550 
   -6933    -6339    -5682    -5007    -4347    -3646    -2966    -2317 
   -1635     -961     -317      314      948     1592     2153     2670 
    3228     3762     4260     4703     5109     5571     5992     6308 
    6569     6729     6807     6858     6855     6793     6658     6443 
    6180     5867     5552     5261     4941     4649     4425     4186 
    3926     3715     3560     3438     3387     3397     3399     3461 
    3618     3738     3818     3942     4101     4288     4500     4695 
    4843     4954     5056     5148     5227     5291     5315     5345 
    5429     5535     5645     5782     5966     6196     6461     6767 
    7141     7569     7971     8308     8652     9054     9460     9800 
   10133    10472    10743    11032    11330    11570    11897    12249 
   12501    12767    13013    13129    13158    13145    13092    12991 
   12864    12725    12526    12259    11967    11632    11220    10788 
   10363     9898     9381     8818     8290     7896     7609     7445 
    7391     7322     7276     7286     7236     7205     7257     7228 
    7157     7121     7029     6927     6846     6758     6744     6713 
    6591     6479     6304     6070     5858     5572     5255     4942 
    4485     3899     3270     2565     1830     1131      418     -335 
   -1063    -1748    -2456    -3188    -3860    -4463    -5011    -5468 
   -5865    -6264    -6622    -6864    -7042    -7263    -7533    -7822 
   -8180    -8608    -9051    -9547    -9994   -10256   -10476   -10674 
  -10771   -10859   -10848   -10603   -10268    -9894    -9391    -8787 
   -8089    -7262    -6368    -5423    -4425    -3505    -2693    -1882 
   -1110     -475       66      554      948     1274     1579     1809 
    1954     2055     2069     2012     1944     1853     1732     1562 
    1305      987      674      362      -11     -440     -905    -1415 
   -1968    -2543    -3033    -3392    -3659    -3755    -3691    -3583 
   -3295    -2767    -2208    -1609     -876     -154      547     1303 
    1981     2569     3227     3887     4433     4994     5585     5991 
    6262     6546     6701     6706     6719     6689     6576     6375 
    6000     5584     5287     5021     4718     4425     4049     3490 
    2960     2608     2278     1959     1723     1576     1569     1586 
    1543     1669     2003     2346     2685     3006     3225     3462 
    3846     4197     4331     4299     4091     3750     3509     3351 
