Origin Time       2011/03/11 14:46:00
Lat.              38.103
Long.             142.860
Depth. (km)       24
Mag.              9.0
Station Code      AIC014
Station Lat.      34.8285
Station Long.     137.2199
Station Height(m) 10
Record Time       2011/03/11 14:49:02
Sampling Freq(Hz) 100Hz
Duration Time(s)  169
Dir.              E-W
Scale Factor      3920(gal)/6182761
Max. Acc. (gal)   4.643
Last Correction   2011/03/11 14:48:47
Memo.             
[...]
  -11490   -12168   -12795   -13302   -13693   -13995   -14211   -14398 
  -14603   -14763   -14844   -14902   -15023   -15252   -15523   -15689 
  -15629   -15301   -14787   -14232   -13699   -13203   -12781   -12421 
  -12065   -11705   -11412   -11264   -11260   -11316   -11348   -11294 
  -11149   -10969   -10784   -10610   -10523   -10578   -10763   -11073 
  -11491   -11934   -12316   -12599   -12804   -13015   -13313   -13706 
  -14122   -14466   -14654   -14646   -14491   -14261   -13998   -13745 
  -13554   -13440   -13354   -13215   -12978   -12647   -12299   -12035 
  -11892   -11839   -11763   -11567   -11285   -10980   -10716   -10592 
  -10653   -10863   -11185   -11575   -11964   -12325   -12672   -13014 
  -13347   -13662   -13954   -14208   -14403   -14522   -14556   -14540 
  -14559   -14642   -14722   -14749   -14708   -14562   -14309   -14012 
  -13737   -13499   -13239   -12865   -12380   -11870   -11421   -11075 
  -10839   -10712   -10665   -10633   -10572   -10496   -10426   -10366 
  -10297   -10207   -10151   -10190   -10309   -10456   -10602   -10773 
  -11014   -11342   -11742   -12197   -12677   -13152   -13591   -13959 
  -14233   -14389   -14437   -14469   -14560   -14671   -14736   -14752 
  -14713   -14595   -14426   -14245   -14059   -13872   -13679   -13457 
  -13181   -12863   -12566   -12332   -12157   -12013   -11847   -11634 
  -11422   -11312   -11397   -11705   -12167   -12666   -13091   -13392 
  -13598   -13772   -13951   -14152   -14386   -14639   -14862   -14994 
  -15022   -14991   -14963   -14980   -15051   -15140   -15195   -15167 
  -15013   -14714   -14266   -13679   -13018   -12394   -11891   -11543 
  -11325   -11175   -11057   -10963   -10931   -11007   -11183   -11445 
  -11769   -12118   -12468   -12789   -13048   -13225   -13336   -13457 
  -13679   -14060   -14606   -15254   -15913   -16471   -16847   -17036 
  -17088   -17033   -16858   -16576   -16229   -15817   -15344   -14836 
  -14295   -13748   -13265   -12889   -12653   -12602   -12710   -12865 
  -12942   -12851   -12602   -12267   -11913   -11655   -11605   -11771 
  -12087   -12488   -12928   -13384   -13866   -14379   -14884   -15342 
  -15732   -16010   -16130   -16090   -15900   -15579   -15205   -14857 
  -14582   -14419   -14326   -14227   -14092   -13898   -13642   -13358 
  -13078   -12829   -12607   -12392   -12171   -11925   -11636   -11317 
  -11019   -10792   -10651   -10602   -10620   -10671   -10776   -10963 
  -11245   -11617   -12021   -12410   -12773   -13073   -13297   -13498 
  -13692   -13856   -14019   -14228   -14525   -14907   -15307   -15670 
  -15963   -16132   -16162   -16046   -15769   -15355   -14832   -14252 
  -13728   -13323   -13036   -12863   -12779   -12734   -12696   -12645 
  -12534   -12321   -12016   -11688   -11411   -11222   -11120   -11061 
  -11048   -11132   -11319   -11584   -11911   -12255   -12562   -12812 
  -13018   -13220   -13465   -13754   -14040   -14256   -14347   -14337 
  -14327   -14389   -14542   -14756   -14950   -15079   -15164   -15224 
  -15283   -15343   -15330   -15207   -15042   -14927   -14918   -15003 
  -15113   -15190   -15234   -15289   -15384   -15475   -15490   -15401 
  -15240   -15070   -14930   -14849   -14827   -14788   -14678   -14543 
  -14463   -14507   -14674   -14877   -15041   -15120   -15075   -14945 
  -14773   -14532   -14216   -13863   -13525   -13263   -13088   -12983 
  -12978   -13075   -13227   -13409   -13569   -13644   -13597   -13379 
  -13025   -12650   -12327   -12101   -11981   -11893   -11814   -11809 
  -11893   -12051   -12240   -12356   -12343   -12243   -12107   -11988 
  -11934   -11925   -11912   -11897   -11944   -12117   -12410   -12772 
  -13161   -13499   -13719   -13845   -13938   -14045   -14209   -14422 
  -14624   -14749   -14760   -14665   -14521   -14399   -14351   -14384 
  -14484   -14632   -14771   -14858   -14898   -14889   -14802   -14647 
  -14486   -14343   -14199   -14068   -13989   -13964   -13976   -14027 
  -14083   -14097   -14059   -13975   -13866   -13788   -13774   -13795 
  -13767   -13647   -13470   -13280   -13102   -12956   -12844   -12776 
  -12766   -12802   -12849   -12863   -12827   -12772   -12745   -12787 
  -12915   -13125   -13376   -13603   -13764   -13840   -13824   -13754 
  -13668   -13555   -13404   -13205   -12946   -12680   -12510   -12480 
  -12579   -12777   -13002   -13167   -13225   -13198   -13154   -13192 
  -13412   -13817   -14304   -14776   -15201   -15618   -16060   -16486 
  -16852   -17124   -17226   -17117   -16881   -16648   -16445   -16223 
  -15977   -15728   -15456   -15153   -14838   -14497   -14115   -13724 
  -13365   -13040   -12713   -12368   -12008   -11605   -11159   -10759 
  -10479   -10349   -10378   -10509   -10660   -10808   -10973   -11173 
  -11414   -11693   -12007   -12321   -12587   -12830   -13110   -13425 
  -13719   -13931   -14055   -14131   -14199   -14291   -14402   -14493 
  -14532   -14494   -14371   -14193   -13970   -13704   -13429   -13176 
  -12945   -12729   -12525   -12327   -12163   -12052   -11950   -11829 
  -11739   -11718   -11738   -11777   -11832   -11907   -12046   -12284 
  -12600   -12954   -13343   -13811   -14375   -14971   -15544   -16067 
  -16501   -16833   -17087   -17306   -17484   -17554   -17499   -17348 
  -17143   -16958   -16822   -16663   -16399   -16030   -15604   -15169 
  -14749   -14336   -13892   -13377   -12780   -12121   -11477   -10980 
  -10691   -10543   -10482   -10524   -10664   -10860   -11072   -11279 
  -11451   -11560   -11625   -11698   -11828   -12031   -12292   -12605 
  -12981   -13409   -13857   -14259   -14546   -14703   -14751   -14728 
  -14686   -14646   -14589   -14521   -14459   -14407   -14378   -14402 
  -14533   -14806   -15164   -15518   -15813   -16025   -16157   -16238 
  -16304   -16377   -16459   -16565   -16695   -16806   -16860   -16872 
  -16868   -16858   -16830   -16755   -16620   -16436   -16221   -15985 
  -15714   -15378   -14955   -14449   -13890   -13301   -12702   -12128 
  -11632   -11260   -10997   -10797   -10632   -10497   -10402   -10347 
  -10316   -10310   -10325   -10331   -10313   -10332   -10486   -10784 
  -11144   -11512   -11906   -12357   -12877   -13455   -14029   -14518 
  -14896   -15169   -15348   -15473   -15584   -15688   -15806   -15944 
  -16061   -16135   -16156   -16124   -16058   -15928   -15671   -15315 
  -14974   -14747   -14656   -14638   -14600   -14469   -14230   -13923 
  -13590   -13267   -12977   -12729   -12516   -12307   -12119   -12022 
  -12027   -12114   -12294   -12546   -12820   -13098   -13367   -13624 
  -13855   -14022   -14081   -13996   -13775   -13515   -13345   -13317 
  -13408   -13554   -13663   -13656   -13543   -13386   -13207   -12999 
  -12750   -12445   -12100   -11748   -11418   -11134   -10927   -10848 
  -10933   -11169   -11540   -12006   -12474   -12863   -13125   -13279 
  -13400   -13548   -13748   -13979   -14177   -14299   -14334   -14310 
  -14297   -14327   -14341   -14264   -14050   -13716   -13344   -12998 
  -12705   -12474   -12293   -12158   -12102   -12135   -12207   -12286 
  -12363   -12415   -12448   -12511   -12624   -12777   -12960   -13165 
  -13377   -13593   -13831   -14076   -14301   -14486   -14581   -14537 
  -14357   -14122   -13921   -13745   -13532   -13279   -13014   -12754 
  -12501   -12234   -11916   -11537   -11145   -10813   -10579   -10457 
  -10452   -10509   -10543   -10567   -10649   -10822   -11110   -11482 
  -11862   -12234   -12626   -13027   -13444   -13900   -14398   -14930 
  -15443   -15873   -16233   -16546   -16793   -16973   -17081   -17125 
  -17157   -17171   -17136   -17078   -16985   -16794   -16498   -16108 
  -15646   -15217   -14906   -14663   -14391   -14022   -13528   -13007 
  -12585   -12279   -12078   -11974   -11945   -11992   -12099   -12219 
  -12332   -12437   -12530   -12628   -12751   -12887   -13034   -13207 
  -13409   -13639   -13878   -14087   -14248   -14356   -14395   -14360 
  -14251   -14082   -13901   -13725   -13532   -13324   -13113   -12935 
  -12833   -12815   -12897   -13072   -13272   -13472   -13626   -13650 
  -13584   -13504   -13421   -13410   -13509   -13640   -13798   -13996 
  -14196   -14405   -14627   -14834   -15006   -15091   -15047   -14895 
  -14656   -14341   -13990   -13651   -13381   -13231   -13191   -13235 
  -13359   -13515   -13630   -13676   -13661   -13635   -13641   -13660 
  -13694   -13772   -13897   -14082   -14333   -14611   -14901   -15203 
  -15472   -15667   -15781   -15779   -15647   -15449   -15237   -15016 
  -14758   -14439   -14059   -13612   -13138   -12732   -12405   -12135 
  -11917   -11691   -11423   -11159   -10931   -10763   -10666   -10606 
  -10583   -10622   -10765   -11063   -11496   -12017   -12601   -13177 
  -13728   -14310   -14881   -15368   -15741   -15980   -16134   -16291 
  -16444   -16563   -16631   -16593   -16459   -16294   -16091   -15839 
  -15561   -15254   -14903   -14542   -14227   -13963   -13739   -13536 
  -13309   -13034   -12735   -12460   -12227   -12027   -11874   -11784 
  -11730   -11710   -11751   -11871   -12097   -12421   -12779   -13141 
  -13497   -13766   -13896   -13959   -14015   -14009   -13893   -13871 
  -14147   -14355   -14280   -14332   -14271   -13845   -14110   -15248 
  -15905   -15739   -15433   -15086   -14494   -14309   -15007   -15446 
  -15207   -15239   -15376   -15255   -15068   -14755   -14663   -14982 
  -15222   -15251   -15172   -14667   -14053   -14156   -14238   -13781 
  -13852   -14172   -14143   -14430   -14569   -14021   -13665   -13899 
  -14296   -14405   -14124   -13751   -13395   -13011   -12919   -13272 
  -13484   -13425   -13601   -13815   -13808   -13885   -14046   -13925 
  -13567   -13584   -14006   -14235   -14154   -13825   -13482   -13547 
  -13943   -14394   -14645   -14750   -14980   -15149   -15412   -15817 
  -15779   -15543   -15429   -15203   -15012   -14854   -14608   -14352 
  -14078   -13905   -13831   -13819   -13977   -14131   -14275   -14537 
  -14666   -14669   -14748   -14715   -14605   -14717   -14882   -15005 
  -15412   -15938   -16260   -16659   -17151   -17404   -17537   -17626 
  -17535   -17435   -17311   -16926   -16376   -15683   -14827   -14097 
  -13588   -13125   -12625   -12209   -11994   -11716   -11245   -10866 
  -10534   -10205   -10187   -10394   -10472   -10281   -10032   -10163 
  -10475   -10575   -10901   -11546   -12049   -12647   -13460   -13990 
  -14317   -14710   -14902   -14891   -14977   -15209   -15570   -15824 
  -15704   -15601   -15770   -15729   -15547   -15689   -15645   -15232 
  -15083   -14715   -13804   -13323   -13123   -12592   -12305   -12216 
  -11874   -11673   -11514   -11085   -10869   -10778   -10393   -10201 
  -10293   -10216   -10267   -10521   -10560   -10760   -11353   -11850 
  -12296   -12847   -13381   -13884   -14121   -14228   -14632   -14888 
  -14746   -14930   -15317   -15210   -15224   -15641   -15547   -15317 
  -15612   -15609   -15285   -15273   -15121   -14748   -14587   -14395 
  -13898   -13270   -12848   -12613   -12099   -11484   -11196   -10694 
   -9965    -9871    -9997    -9762    -9968   -10561   -10576   -10447 
  -10804   -11193   -11439   -11781   -12163   -12486   -12764   -13165 
  -13819   -14438   -14934   -15567   -16169   -16555   -16869   -17120 
  -17273   -17444   -17731   -17821   -17381   -16820   -16505   -16221 
  -15687   -14941   -14485   -14309   -13898   -13422   -12899   -12166 
  -11651   -11287   -10753   -10337   -10147   -10002    -9918    -9909 
  -10006   -10360   -10793   -11119   -11611   -12195   -12605   -13109 
  -13665   -13948   -14231   -14801   -15417   -15840   -16177   -16471 
  -16533   -16519   -16678   -16805   -16859   -16954   -16937   -16742 
  -16457   -16173   -15897   -15596   -15342   -15100   -14819   -14535 
  -14302   -14231   -14136   -13869   -13704   -13660   -13659   -13802 
  -13896   -13899   -14043   -14272   -14557   -14974   -15349   -15566 
  -15811   -16150   -16421   -16704   -17026   -17144   -17184   -17324 
  -17389   -17429   -17554   -17614   -17532   -17368   -17177   -17048 
  -16897   -16467   -15908   -15532   -15160   -14771   -14597   -14485 
  -14276   -14004   -13709   -13410   -13123   -13064   -13179   -13104 
  -12953   -12806   -12518   -12493   -12839   -12986   -13047   -13395 
  -13760   -14167   -14676   -14864   -14927   -15092   -14981   -14839 
  -14928   -14792   -14522   -14526   -14501   -14205   -13894   -13543 
  -13142   -13124   -13333   -13279   -13181   -13104   -12660   -12214 
  -12360   -12587   -12487   -12557   -12651   -12483   -12547   -12749 
  -12902   -13317   -13728   -14054   -14461   -14656   -14858   -15281 
  -15597   -15837   -16039   -16083   -16169   -16430   -16672   -16686 
  -16601   -16563   -16417   -16245   -16233   -16034   -15455   -14847 
  -14209   -13465   -12907   -12421   -11771   -11148   -10658   -10225 
   -9801    -9440    -9281    -9333    -9441    -9463    -9545    -9765 
   -9786    -9808   -10283   -10725   -10990   -11676   -12445   -12929 
  -13723   -14742   -15370   -15893   -16536   -16899   -17146   -17624 
  -17996   -18040   -18039   -18130   -18111   -17979   -17869   -17594 
  -17119   -16731   -16482   -16119   -15457   -14680   -14043   -13498 
  -12930   -12327   -11688   -11040   -10581   -10377   -10181   -10109 
  -10296   -10334   -10404   -10911   -11392   -11771   -12485   -13184 
  -13616   -14224   -14953   -15501   -16195   -17095   -17688   -18129 
  -18859   -19514   -19905   -20409   -20834   -20942   -20992   -20814 
  -20250   -19718   -19193   -18412   -17671   -16899   -15707   -14585 
  -13926   -13237   -12404   -11672   -10986   -10497   -10289   -10092 
   -9961   -10004    -9952    -9705    -9487    -9413    -9303    -9262 
   -9872   -11048   -12022   -12956   -14623   -16344   -16913   -16704 
  -16366   -16181   -16869   -18180   -18962   -18835   -18126   -17257 
  -16150   -14948   -14643   -15174   -15579   -15699   -15620   -15095 
  -13847   -12521   -12025   -11512   -10283    -9252    -8857    -9094 
   -9815   -10199    -9959    -9702   -10075   -10738   -10933   -11479 
  -12956   -14145   -14570   -14582   -14196   -13933   -14243   -14755 
  -15405   -16644   -17976   -18215   -17546   -16873   -16161   -15614 
  -15723   -15831   -15429   -14837   -14145   -13547   -13131   -12457 
  -11384   -10347    -9943   -10177   -10564   -10868   -10747   -10162 
   -9931   -10338   -10661   -10625   -10762   -11305   -12018   -12850 
  -13638   -14025   -14132   -14394   -14947   -15395   -15425   -15386 
  -15408   -15246   -14955   -14611   -14439   -14571   -14577   -14342 
  -14016   -13599   -13251   -12817   -11942   -10964   -10436   -10267 
  -10191   -10282   -10450   -10400   -10172   -10058   -10184   -10460 
  -10823   -11267   -11578   -11617   -11713   -12118   -12712   -13417 
  -14100   -14509   -14708   -15022   -15490   -15898   -16269   -16597 
  -16748   -16885   -16974   -16759   -16465   -16157   -15549   -14905 
  -14476   -13923   -13157   -12517   -12188   -12028   -11739   -11219 
  -10599   -10149   -10055   -10050   -10091   -10513   -10964   -11041 
  -11067   -11150   -11288   -11822   -12659   -13265   -13613   -14090 
  -14672   -15258   -15967   -16599   -16956   -17208   -17441   -17655 
  -17866   -17980   -17992   -17916   -17744   -17667   -17638   -17420 
  -17233   -17251   -17151   -16710   -15995   -15223   -14695   -14392 
  -14015   -13506   -13056   -12731   -12474   -12385   -12467   -12476 
  -12439   -12575   -12797   -13044   -13466   -14009   -14510   -14944 
  -15307   -15578   -15862   -16236   -16498   -16542   -16630   -16828 
  -17001   -17263   -17587   -17698   -17503   -17097   -16764   -16648 
  -16486   -16082   -15464   -14876   -14516   -14221   -14013   -13960 
  -13829   -13739   -13878   -13973   -13880   -13778   -13775   -13844 
  -13922   -13834   -13572   -13576   -13953   -14202   -14193   -14159 
  -14136   -14249   -14505   -14495   -14136   -13770   -13552   -13441 
  -13304   -12949   -12381   -11771   -11210   -10744   -10514   -10548 
  -10546   -10259    -9895    -9809   -10009   -10203   -10286   -10332 
  -10380   -10572   -10916   -11269   -11654   -11975   -12186   -12574 
  -13156   -13715   -14355   -15029   -15378   -15516   -15782   -15979 
  -15891   -15640   -15228   -14767   -14491   -14245   -13849   -13402 
  -12982   -12698   -12567   -12419   -12233   -11981   -11558   -11203 
  -11162   -11112   -10803   -10643   -10808   -10905   -10821   -10798 
  -10963   -11259   -11550   -11861   -12150   -12127   -12001   -12248 
  -12587   -12654   -12791   -13156   -13422   -13627   -13987   -14276 
  -14345   -14351   -14314   -14273   -14260   -14205   -14180   -14289 
  -14452   -14452   -14276   -14201   -14248   -14216   -14070   -13818 
  -13609   -13671   -13695   -13190   -12451   -12123   -12274   -12524 
  -12507   -12263   -12157   -12280   -12491   -12625   -12498   -12266 
  -12296   -12499   -12528   -12502   -12651   -12714   -12596   -12588 
  -12630   -12537   -12388   -12209   -12017   -11828   -11549   -11285 
  -11210   -11217   -11097   -10747   -10317   -10131   -10190   -10241 
  -10274   -10305   -10232   -10105   -10025   -10050   -10277   -10541 
  -10598   -10663   -10947   -11384   -11975   -12627   -13166   -13636 
  -14169   -14813   -15506   -16081   -16501   -16865   -17084   -17025 
  -16824   -16617   -16404   -16244   -16029   -15569   -15055   -14720 
  -14548   -14454   -14259   -13846   -13270   -12677   -12197   -11744 
  -11236   -10822   -10599   -10430   -10164    -9897    -9717    -9608 
   -9690    -9941   -10152   -10287   -10470   -10813   -11266   -11609 
  -11804   -12055   -12429   -12854   -13301   -13683   -14062   -14556 
  -14878   -14965   -15225   -15569   -15727   -15897   -16050   -15952 
  -15799   -15683   -15369   -14923   -14510   -14079   -13699   -13475 
  -13325   -13153   -12939   -12793   -12786   -12697   -12444   -12292 
  -12242   -12149   -12158   -12272   -12366   -12525   -12735   -12862 
  -13006   -13288   -13620   -13939   -14292   -14628   -14758   -14618 
  -14438   -14486   -14685   -14790   -14863   -15130   -15470   -15597 
  -15506   -15398   -15350   -15199   -14858   -14541   -14350   -14198 
  -13978   -13531   -13098   -13087   -13260   -13352   -13484   -13545 
  -13544   -13698   -13813   -13812   -13942   -14080   -14047   -13992 
  -14008   -14118   -14350   -14538   -14480   -14255   -14123   -14137 
  -14159   -14147   -14055   -13799   -13411   -13003   -12701   -12476 
  -12205   -11975   -11873   -11796   -11722   -11662   -11639   -11785 
  -11977   -11939   -11799   -11791   -11888   -12061   -12344   -12610 
  -12680   -12605   -12534   -12516   -12555   -12652   -12750   -12809 
  -12859   -12873   -12878   -12982   -13122   -13244   -13405   -13606 
  -13858   -14141   -14470   -14908   -15341   -15652   -15848   -15981 
  -16145   -16276   -16226   -16063   -15927   -15890   -15934   -15961 
  -16032   -16183   -16218   -16149   -16100   -15908   -15454   -14898 
  -14278   -13539   -12897   -12470   -12112   -11823   -11615   -11399 
  -11290   -11456   -11891   -12441   -12881   -13114   -13310   -13603 
  -13870   -14056   -14243   -14399   -14422   -14341   -14325   -14406 
  -14480   -14558   -14634   -14667   -14653   -14582   -14539   -14479 
