Origin Time       2011/03/11 14:46:00
Lat.              38.103
Long.             142.860
Depth. (km)       24
Mag.              9.0
Station Code      AIC014
Station Lat.      34.8285
Station Long.     137.2199
Station Height(m) 10
Record Time       2011/03/11 14:49:02
Sampling Freq(Hz) 100Hz
Duration Time(s)  169
Dir.              N-S
Scale Factor      3920(gal)/6182761
Max. Acc. (gal)   4.862
Last Correction   2011/03/11 14:48:47
Memo.             
[...]
  -44443   -44297   -44004   -43658   -43325   -42911   -42449   -41974 
  -41406   -40848   -40457   -40138   -39804   -39545   -39320   -39107 
  -39073   -39104   -39006   -39038   -39370   -39768   -40085   -40295 
  -40361   -40405   -40586   -40840   -41083   -41390   -41719   -41941 
  -42161   -42502   -42895   -43278   -43598   -43801   -43929   -43975 
  -43902   -43773   -43665   -43543   -43279   -42837   -42410   -42145 
  -41934   -41636   -41276   -40958   -40723   -40570   -40435   -40228 
  -39982   -39799   -39647   -39443   -39273   -39286   -39447   -39705 
  -40095   -40481   -40751   -41021   -41335   -41632   -41933   -42266 
  -42578   -42844   -43075   -43184   -43172   -43223   -43369   -43470 
  -43479   -43396   -43222   -43091   -43058   -42979   -42810   -42580 
  -42290   -42076   -41975   -41823   -41710   -41860   -42159   -42422 
  -42731   -43074   -43313   -43559   -43842   -43957   -43986   -44146 
  -44387   -44651   -44991   -45336   -45600   -45881   -46213   -46489 
  -46728   -46977   -47125   -47114   -47007   -46795   -46497   -46171 
  -45790   -45360   -44906   -44435   -44008   -43614   -43190   -42812 
  -42558   -42386   -42274   -42159   -41975   -41855   -41831   -41778 
  -41734   -41751   -41789   -41906   -42131   -42402   -42741   -43193 
  -43723   -44233   -44645   -44991   -45282   -45468   -45583   -45666 
  -45697   -45668   -45596   -45519   -45414   -45179   -44848   -44570 
  -44330   -44079   -43883   -43705   -43480   -43179   -42690   -42074 
  -41547   -41146   -40834   -40630   -40495   -40366   -40248   -40197 
  -40274   -40474   -40743   -41068   -41423   -41765   -42101   -42448 
  -42812   -43148   -43403   -43618   -43839   -44059   -44289   -44538 
  -44825   -45146   -45435   -45711   -46020   -46277   -46443   -46551 
  -46568   -46521   -46522   -46565   -46551   -46493   -46448   -46399 
  -46377   -46436   -46503   -46547   -46652   -46760   -46732   -46586 
  -46386   -46164   -45964   -45821   -45716   -45596   -45454   -45251 
  -44969   -44738   -44604   -44430   -44124   -43699   -43217   -42752 
  -42298   -41851   -41430   -41016   -40652   -40401   -40241   -40095 
  -39902   -39773   -39851   -39999   -40054   -40118   -40314   -40629 
  -40960   -41156   -41214   -41339   -41576   -41764   -41862   -41943 
  -42028   -42151   -42341   -42490   -42561   -42695   -42879   -42908 
  -42798   -42689   -42510   -42175   -41712   -41168   -40687   -40359 
  -40075   -39739   -39428   -39228   -39031   -38783   -38611   -38539 
  -38544   -38695   -38962   -39202   -39332   -39346   -39340   -39435 
  -39625   -39805   -39968   -40200   -40477   -40715   -40905   -41032 
  -41074   -41058   -41054   -41063   -41007   -40913   -40867   -40828 
  -40741   -40640   -40569   -40536   -40548   -40639   -40844   -41141 
  -41472   -41830   -42239   -42662   -43077   -43512   -43954   -44333 
  -44604   -44824   -45102   -45484   -45911   -46277   -46526   -46691 
  -46813   -46868   -46854   -46820   -46756   -46607   -46354   -46001 
  -45613   -45270   -44920   -44500   -44064   -43653   -43283   -42955 
  -42654   -42426   -42285   -42198   -42140   -42068   -42039   -42176 
  -42423   -42666   -42897   -43056   -43146   -43339   -43660   -43982 
  -44267   -44561   -44890   -45191   -45393   -45509   -45591   -45683 
  -45775   -45791   -45689   -45521   -45334   -45108   -44834   -44512 
  -44143   -43801   -43507   -43185   -42800   -42360   -41879   -41361 
  -40797   -40195   -39556   -38923   -38372   -37942   -37670   -37529 
  -37443   -37456   -37598   -37757   -37917   -38163   -38465   -38763 
  -39074   -39425   -39839   -40317   -40793   -41215   -41639   -42135 
  -42693   -43247   -43725   -44071   -44277   -44410   -44504   -44486 
  -44334   -44114   -43832   -43468   -43059   -42585   -42016   -41422 
  -40838   -40255   -39725   -39278   -38858   -38451   -38073   -37695 
  -37338   -37040   -36776   -36588   -36531   -36557   -36670   -36883 
  -37124   -37409   -37826   -38275   -38628   -38952   -39305   -39631 
  -39949   -40322   -40686   -40947   -41130   -41227   -41148   -40960 
  -40761   -40499   -40186   -39868   -39490   -39082   -38706   -38287 
  -37769   -37254   -36830   -36463   -36092   -35738   -35505   -35411 
  -35379   -35399   -35438   -35430   -35489   -35724   -35983   -36146 
  -36249   -36388   -36769   -37327   -37570   -37462   -37608   -38166 
  -38656   -38729   -38410   -38135   -38419   -39033   -39341   -39257 
  -39175   -39408   -39839   -40090   -40034   -39844   -39673   -39634 
  -39831   -40112   -40074   -39649   -39302   -39323   -39417   -39406 
  -39414   -39320   -39178   -39335   -39641   -39775   -39809   -39852 
  -39955   -40234   -40651   -41032   -41349   -41738   -42300   -42837 
  -43035   -43146   -43616   -44177   -44387   -44432   -44569   -44681 
  -44782   -45051   -45298   -45239   -45039   -45009   -45107   -45142 
  -45110   -44948   -44527   -44004   -43593   -43279   -42991   -42729 
  -42564   -42554   -42618   -42626   -42650   -42892   -43274   -43463 
  -43438   -43534   -43876   -44245   -44423   -44426   -44413   -44430 
  -44576   -44985   -45324   -45294   -45207   -45237   -45199   -45104 
  -45030   -44842   -44490   -44072   -43603   -43089   -42546   -41946 
  -41311   -40682   -40127   -39747   -39489   -39166   -38690   -38221 
  -37998   -37924   -37820   -37777   -37793   -37783   -37858   -38096 
  -38353   -38517   -38640   -38738   -38836   -39016   -39251   -39506 
  -39782   -40010   -40183   -40295   -40300   -40308   -40419   -40548 
  -40632   -40612   -40445   -40304   -40312   -40287   -40130   -39977 
  -39892   -39847   -39885   -39953   -39960   -39962   -39973   -39927 
  -39836   -39757   -39745   -39797   -39824   -39734   -39615   -39690 
  -39958   -40222   -40443   -40718   -41100   -41563   -41989   -42323 
  -42675   -43068   -43398   -43634   -43825   -44032   -44291   -44540 
  -44736   -44895   -44995   -45110   -45326   -45501   -45526   -45520 
  -45513   -45442   -45356   -45187   -44853   -44478   -44071   -43598 
  -43177   -42811   -42433   -42070   -41706   -41333   -41020   -40737 
  -40446   -40246   -40142   -40020   -39908   -39921   -40066   -40272 
  -40513   -40843   -41322   -41920   -42595   -43318   -43985   -44519 
  -44981   -45442   -45859   -46179   -46405   -46540   -46607   -46567 
  -46299   -45849   -45339   -44762   -44095   -43334   -42498   -41648 
  -40818   -40049   -39363   -38702   -38060   -37486   -36957   -36475 
  -36105   -35809   -35571   -35480   -35523   -35650   -35896   -36270 
  -36740   -37283   -37885   -38552   -39244   -39850   -40283   -40602 
  -40953   -41353   -41698   -41936   -42116   -42296   -42453   -42536 
  -42544   -42467   -42300   -42107   -41860   -41525   -41257   -41025 
  -40585   -40093   -39877   -39726   -39435   -39400   -39693   -39861 
  -39920   -40195   -40835   -41567   -41894   -42259   -43009   -43561 
  -44062   -44704   -45187   -45778   -46410   -46900   -47483   -47948 
  -48198   -48400   -48482   -48511   -48580   -48616   -48584   -48504 
  -48286   -47888   -47604   -47499   -47185   -46766   -46612   -46456 
  -46053   -45695   -45652   -45788   -45727   -45621   -45852   -46018 
  -45907   -45927   -46064   -46203   -46271   -46160   -46186   -46385 
  -46503   -46638   -46738   -46755   -46857   -46930   -46888   -46827 
  -46757   -46726   -46715   -46623   -46427   -46129   -45798   -45492 
  -45118   -44693   -44331   -43966   -43522   -43059   -42627   -42261 
  -41970   -41696   -41471   -41456   -41721   -42090   -42320   -42469 
  -42736   -43154   -43789   -44501   -44980   -45442   -45963   -46293 
  -46809   -47429   -47674   -47942   -48393   -48794   -49116   -49247 
  -49211   -49122   -49113   -49059   -48880   -48806   -48589   -48229 
  -47962   -47565   -47198   -47008   -46758   -46477   -46212   -45995 
  -45956   -45989   -45881   -45708   -45757   -46005   -46243   -46421 
  -46570   -46864   -47264   -47612   -47983   -48220   -48346   -48488 
  -48469   -48446   -48411   -48218   -48037   -47725   -47302   -46960 
  -46531   -46087   -45727   -45327   -44989   -44753   -44493   -44235 
  -44041   -43903   -43766   -43620   -43536   -43440   -43252   -43117 
  -43095   -43108   -43143   -43174   -43208   -43299   -43406   -43474 
  -43527   -43583   -43718   -43951   -44094   -44103   -44092   -44062 
  -44051   -44069   -44022   -43900   -43775   -43687   -43626   -43584 
  -43515   -43359   -43201   -43168   -43267   -43409   -43477   -43411 
  -43305   -43271   -43238   -43136   -43007   -42892   -42791   -42675 
  -42603   -42525   -42322   -42159   -42058   -41882   -41725   -41623 
  -41467   -41252   -41094   -41025   -40941   -40845   -40817   -40812 
  -40775   -40728   -40648   -40542   -40471   -40387   -40274   -40201 
  -40225   -40306   -40320   -40314   -40322   -40277   -40272   -40229 
  -40069   -39983   -39966   -39978   -40070   -40061   -39984   -40042 
  -40062   -39979   -39923   -39834   -39745   -39711   -39672   -39664 
  -39653   -39634   -39709   -39848   -39994   -40148   -40306   -40496 
  -40749   -41070   -41393   -41690   -42030   -42412   -42818   -43244 
  -43680   -44080   -44371   -44624   -44846   -44936   -44938   -44930 
  -44920   -44910   -44902   -44875   -44824   -44724   -44539   -44355 
  -44109   -43698   -43271   -42859   -42446   -42085   -41671   -41284 
  -41043   -40873   -40793   -40769   -40776   -40927   -41160   -41381 
  -41661   -41818   -41755   -41982   -42322   -42338   -42625   -43075 
  -43296   -43837   -44566   -45071   -45453   -45779   -46153   -46390 
  -46434   -46536   -46580   -46503   -46371   -46167   -45917   -45584 
  -45190   -44783   -44421   -44164   -43919   -43641   -43375   -43089 
  -42725   -42395   -42157   -41918   -41594   -41212   -41094   -41231 
  -41339   -41499   -41578   -41731   -42358   -42905   -43214   -43757 
  -44284   -44745   -45310   -45746   -46056   -46340   -46582   -46737 
  -46811   -46911   -46977   -46949   -46891   -46828   -46776   -46610 
  -46299   -46132   -45904   -45318   -44743   -44254   -43780   -43416 
  -42990   -42684   -42583   -42342   -42069   -41958   -41964   -42025 
  -42002   -41978   -42055   -42088   -42044   -41999   -42012   -42119 
  -42256   -42386   -42556   -42679   -42668   -42655   -42638   -42539 
  -42414   -42195   -41898   -41653   -41316   -40746   -40097   -39520 
  -38984   -38396   -37772   -37179   -36630   -36166   -35788   -35436 
  -35187   -35127   -35131   -35130   -35314   -35595   -35663   -35872 
  -36511   -37076   -37362   -37858   -38789   -39561   -39992   -40707 
  -41586   -42110   -42558   -43229   -43754   -44126   -44639   -44984 
  -45112   -45261   -45278   -45262   -45289   -45029   -44666   -44514 
  -44284   -43845   -43476   -43221   -42820   -42402   -42224   -41829 
  -41178   -41040   -41159   -40763   -40387   -40648   -40844   -40689 
  -40904   -41245   -41257   -41468   -41800   -41930   -42175   -42459 
  -42615   -42838   -43030   -43077   -43141   -43217   -43306   -43408 
  -43392   -43390   -43431   -43282   -43070   -42907   -42624   -42296 
  -42003   -41662   -41348   -41126   -40940   -40774   -40670   -40594 
  -40427   -40199   -40085   -40167   -40289   -40281   -40329   -40506 
  -40576   -40635   -40821   -41020   -41215   -41427   -41642   -41789 
  -41862   -41901   -41841   -41745   -41715   -41724   -41718   -41650 
  -41569   -41535   -41543   -41611   -41737   -41858   -41958   -42053 
  -42196   -42393   -42570   -42763   -42992   -43222   -43583   -44032 
  -44417   -44835   -45259   -45637   -46059   -46415   -46683   -47029 
  -47422   -47677   -47868   -48160   -48288   -48234   -48329   -48363 
  -48256   -48221   -48064   -47780   -47525   -47251   -46969   -46640 
  -46287   -45997   -45683   -45298   -44895   -44490   -44097   -43703 
  -43324   -43034   -42795   -42553   -42309   -42130   -42068   -42013 
  -42046   -42249   -42332   -42369   -42598   -42767   -42831   -42995 
  -43169   -43283   -43398   -43511   -43615   -43715   -43820   -43908 
  -43933   -43909   -43908   -43881   -43651   -43260   -42922   -42604 
  -42238   -41908   -41545   -41125   -40759   -40350   -39871   -39489 
  -39142   -38815   -38636   -38478   -38302   -38304   -38408   -38471 
  -38586   -38721   -38826   -39085   -39427   -39630   -39793   -40014 
  -40263   -40565   -40872   -41112   -41319   -41510   -41713   -41912 
  -41998   -42010   -42025   -41941   -41779   -41659   -41497   -41282 
  -41134   -40998   -40830   -40720   -40660   -40571   -40470   -40411 
  -40433   -40511   -40561   -40591   -40695   -40896   -41190   -41568 
  -41954   -42318   -42702   -43109   -43533   -43935   -44228   -44448 
  -44644   -44747   -44774   -44774   -44681   -44515   -44365   -44234 
  -44114   -43976   -43745   -43427   -43099   -42813   -42594   -42414 
  -42245   -42147   -42107   -42025   -41920   -41864   -41817   -41769 
  -41780   -41843   -41923   -41994   -42077   -42244   -42462   -42636 
  -42809   -43017   -43172   -43246   -43273   -43218   -43078   -42926 
  -42737   -42467   -42205   -41984   -41763   -41583   -41433   -41253 
  -41149   -41139   -41029   -40818   -40621   -40410   -40205   -40074 
  -39982   -39959   -40092   -40349   -40641   -40902   -41104   -41405 
  -41936   -42516   -43028   -43561   -44110   -44671   -45251   -45777 
  -46291   -46890   -47570   -48232   -48763   -49137   -49460   -49828 
  -50139   -50274   -50268   -50162   -49974   -49787   -49624   -49378 
  -49014   -48639   -48285   -47881   -47426   -46953   -46424   -45906 
  -45516   -45134   -44689   -44293   -43908   -43467   -43067   -42772 
  -42582   -42493   -42456   -42451   -42509   -42535   -42358   -42027 
  -41725   -41595   -41686   -41872   -41974   -41943   -41837   -41728 
  -41644   -41581   -41514   -41468   -41546   -41709   -41783   -41704 
  -41561   -41486   -41463   -41427   -41450   -41586   -41791   -42015 
  -42210   -42425   -42706   -42998   -43289   -43512   -43632   -43943 
  -44473   -44705   -44648   -45015   -45979   -46715   -46503   -45991 
  -46358   -47300   -47601   -47061   -46610   -47051   -47848   -47886 
  -47190   -46515   -46421   -46769   -46647   -46028   -45874   -46165 
  -46129   -45629   -45125   -44919   -44908   -44907   -44734   -44325 
  -44115   -44432   -44655   -44284   -43849   -43831   -44013   -44142 
  -44202   -44247   -44371   -44509   -44462   -44315   -44302   -44511 
  -44851   -45021   -44883   -44745   -44879   -45080   -44944   -44527 
  -44283   -44359   -44506   -44465   -44226   -44044   -44033   -43975 
  -43777   -43583   -43468   -43508   -43717   -43899   -44005   -44179 
  -44417   -44599   -44661   -44623   -44571   -44684   -45038   -45423 
  -45653   -45715   -45686   -45760   -45931   -45977   -45864   -45733 
  -45724   -45814   -45813   -45682   -45547   -45450   -45289   -45016 
  -44814   -44782   -44780   -44786   -44824   -44759   -44572   -44297 
  -43927   -43653   -43637   -43747   -43808   -43796   -43742   -43669 
  -43732   -43971   -44050   -43816   -43568   -43521   -43664   -43900 
  -44016   -43861   -43582   -43434   -43484   -43594   -43614   -43578 
  -43548   -43419   -43149   -42925   -42881   -42848   -42693   -42536 
  -42365   -42068   -41815   -41731   -41634   -41417   -41211   -41191 
  -41383   -41533   -41383   -41105   -41038   -41113   -41076   -40943 
  -40907   -41110   -41425   -41549   -41492   -41522   -41743   -42058 
  -42316   -42461   -42555   -42673   -42854   -42994   -42912   -42696 
  -42655   -42807   -42842   -42679   -42504   -42388   -42390   -42488 
  -42418   -42156   -42013   -42006   -41866   -41571   -41272   -40984 
  -40714   -40494   -40281   -40065   -39836   -39499   -39141   -38959 
  -38928   -38922   -38898   -38871   -38912   -39043   -39131   -39105 
  -39120   -39302   -39622   -39964   -40143   -40165   -40236   -40407 
  -40622   -40855   -41066   -41238   -41434   -41714   -41996   -42162 
  -42248   -42321   -42379   -42483   -42608   -42604   -42543   -42572 
  -42566   -42443   -42298   -42179   -42134   -42182   -42205   -42143 
  -42074   -42026   -41981   -41955   -41891   -41748   -41626   -41618 
  -41674   -41663   -41572   -41472   -41405   -41423   -41475   -41489 
  -41515   -41523   -41506   -41633   -41879   -41926   -41733   -41651 
  -41872   -42203   -42264   -41894   -41479   -41456   -41747   -41981 
  -41956   -41783   -41582   -41378   -41384   -41665   -41839   -41666 
  -41284   -40919   -40818   -41026   -41279   -41349   -41169   -40816 
  -40644   -40957   -41413   -41504   -41382   -41404   -41617   -41977 
  -42148   -41756   -41310   -41442   -41871   -42186   -42211   -41855 
  -41601   -41866   -42060   -41712   -41384   -41394   -41336   -41158 
  -41107   -41103   -40955   -40653   -40409   -40353   -40321   -40218 
  -40168   -40246   -40344   -40494   -40876   -41279   -41422   -41503 
  -41661   -41778   -41963   -42260   -42422   -42493   -42753   -43053 
  -43112   -43030   -42958   -43007   -43308   -43631   -43691   -43621 
  -43489   -43238   -43075   -43080   -43001   -42774   -42586   -42485 
  -42427   -42469   -42525   -42450   -42401   -42546   -42761   -42935 
  -43070   -43142   -43135   -43160   -43404   -43813   -44100   -44244 
  -44398   -44527   -44650   -44882   -45145   -45364   -45556   -45602 
  -45535   -45681   -45982   -46008   -45842   -45872   -45987   -45930 
  -45820   -45726   -45509   -45233   -45021   -44806   -44653   -44650 
  -44570   -44292   -43926   -43517   -43195   -43079   -43002   -42802 
  -42612   -42578   -42615   -42622   -42602   -42587   -42644   -42776 
  -42914   -43009   -43098   -43195   -43129   -42863   -42655   -42669 
  -42827   -42910   -42712   -42394   -42317   -42471   -42565   -42483 
  -42246   -41931   -41715   -41650   -41553   -41319   -41070   -40898 
  -40756   -40657   -40658   -40719   -40810   -40931   -41047   -41173 
  -41259   -41218   -41237   -41439   -41614   -41692   -41722   -41659 
  -41645   -41777   -41888   -41914   -41921   -41973   -42104   -42230 
  -42270   -42232   -42154   -42044   -41888   -41754   -41613   -41332 
  -41019   -40835   -40756   -40741   -40700   -40511   -40276   -40182 
  -40209   -40244   -40212   -40129   -40118   -40182   -40257   -40434 
  -40735   -41007   -41145   -41200   -41343   -41697   -42141   -42457 
  -42597   -42670   -42823   -43047   -43181   -43231   -43309   -43399 
  -43495   -43645   -43768   -43728   -43638   -43625   -43599   -43558 
  -43549   -43431   -43179   -43008   -42930   -42789   -42676   -42655 
  -42597   -42557   -42615   -42656   -42665   -42751   -42882   -42981 
  -43088   -43199   -43282   -43408   -43540   -43577   -43604   -43720 
  -43881   -44054   -44246   -44417   -44562   -44724   -44862   -44967 
  -45075   -45176   -45269   -45393   -45563   -45723   -45799   -45795 
  -45842   -46040   -46267   -46411   -46545   -46728   -46860   -46836 
  -46723   -46643   -46657   -46766   -46856   -46853   -46843   -46883 
  -46903   -46850   -46704   -46481   -46286   -46181   -46102   -45983 
  -45827   -45649   -45395   -45056   -44757   -44568   -44456   -44338 
  -44146   -43988   -43980   -43968   -43784   -43503   -43273   -43167 
  -43181   -43224   -43170   -43036   -42940   -42891   -42840   -42778 
