Origin Time       2011/03/11 14:46:00
Lat.              38.103
Long.             142.860
Depth. (km)       24
Mag.              9.0
Station Code      AIC017
Station Lat.      34.6697
Station Long.     137.2638
Station Height(m) 10
Record Time       2011/03/11 14:48:41
Sampling Freq(Hz) 100Hz
Duration Time(s)  202
Dir.              N-S
Scale Factor      3920(gal)/6182761
Max. Acc. (gal)   6.623
Last Correction   2011/03/11 14:48:26
Memo.             
[...]
  -15824   -15260   -14716   -14133   -13502   -12976   -12490   -11955 
  -11492   -11096   -10712   -10435   -10249   -10060    -9898    -9787 
   -9746    -9801    -9854    -9888   -10005   -10177   -10390   -10648 
  -10817   -10903   -11036   -11222   -11447   -11668   -11860   -12114 
  -12389   -12619   -12887   -13183   -13476   -13791   -14089   -14375 
  -14697   -15028   -15384   -15813   -16204   -16525   -16903   -17308 
  -17671   -18061   -18465   -18805   -19088   -19330   -19488   -19545 
  -19525   -19465   -19380   -19267   -19172   -19064   -18892   -18713 
  -18487   -18176   -17842   -17472   -17104   -16844   -16605   -16313 
  -16007   -15672   -15385   -15191   -14993   -14788   -14563   -14255 
  -13953   -13753   -13597   -13445   -13314   -13183   -13085   -13034 
  -12951   -12861   -12779   -12612   -12420   -12331   -12282   -12137 
  -11938   -11762   -11576   -11456   -11409   -11324   -11284   -11352 
  -11492   -11711   -11912   -12081   -12302   -12523   -12724   -12898 
  -13017   -13132   -13208   -13251   -13346   -13478   -13622   -13774 
  -13939   -14135   -14343   -14517   -14656   -14823   -14967   -15005 
  -14997   -14969   -14913   -14874   -14851   -14817   -14765   -14730 
  -14730   -14761   -14801   -14808   -14799   -14776   -14779   -14871 
  -15009   -15172   -15346   -15511   -15696   -15888   -16107   -16379 
  -16641   -16870   -17108   -17357   -17567   -17736   -17879   -17923 
  -17866   -17783   -17688   -17571   -17388   -17131   -16881   -16661 
  -16440   -16209   -15986   -15774   -15506   -15204   -14926   -14616 
  -14274   -13924   -13557   -13252   -13022   -12744   -12431   -12209 
  -12042   -11838   -11624   -11397   -11164   -11000   -10899   -10822 
  -10800   -10851   -11014   -11343   -11794   -12291   -12852   -13471 
  -14044   -14526   -14951   -15319   -15635   -15908   -16116   -16259 
  -16335   -16343   -16354   -16391   -16429   -16489   -16565   -16645 
  -16744   -16851   -16951   -17061   -17163   -17231   -17277   -17299 
  -17251   -17139   -17035   -16907   -16706   -16498   -16285   -16026 
  -15777   -15543   -15234   -14853   -14458   -14067   -13696   -13392 
  -13204   -13195   -13387   -13699   -14011   -14268   -14448   -14517 
  -14475   -14350   -14187   -14038   -13944   -13964   -14105   -14341 
  -14575   -14570   -14255   -13823   -13421   -13076   -12797   -12533 
  -12295   -12230   -12386   -12619   -12702   -12511   -12225   -12007 
  -11820   -11663   -11493   -11304   -11258   -11401   -11691   -12047 
  -12247   -12240   -12208   -12252   -12354   -12464   -12554   -12643 
  -12775   -12994   -13253   -13473   -13642   -13743   -13830   -14026 
  -14274   -14458   -14600   -14696   -14745   -14879   -15154   -15452 
  -15707   -15951   -16186   -16430   -16700   -16914   -17003   -16992 
  -16953   -16935   -16922   -16878   -16826   -16797   -16704   -16469 
  -16144   -15761   -15308   -14860   -14485   -14124   -13768   -13517 
  -13385   -13380   -13491   -13553   -13507   -13431   -13388   -13448 
  -13587   -13730   -13906   -14129   -14317   -14442   -14520   -14562 
  -14629   -14714   -14723   -14651   -14565   -14501   -14482   -14496 
  -14459   -14366   -14274   -14166   -14080   -14060   -13990   -13833 
  -13667   -13489   -13277   -13067   -12856   -12618   -12403   -12211 
  -11999   -11834   -11773   -11796   -11854   -11859   -11791   -11748 
  -11783   -11885   -12041   -12223   -12425   -12660   -12897   -13115 
  -13329   -13538   -13778   -14055   -14311   -14598   -14909   -15130 
  -15292   -15437   -15521   -15570   -15583   -15503   -15341   -15146 
  -14940   -14750   -14633   -14589   -14550   -14489   -14415   -14328 
  -14247   -14164   -14029   -13865   -13694   -13499   -13366   -13307 
  -13200   -13018   -12790   -12562   -12417   -12381   -12430   -12492 
  -12501   -12520   -12621   -12717   -12730   -12736   -12758   -12758 
  -12773   -12776   -12727   -12655   -12575   -12529   -12533   -12504 
  -12428   -12378   -12316   -12236   -12247   -12317   -12379   -12504 
  -12701   -12944   -13210   -13405   -13513   -13621   -13753   -13877 
  -13972   -13985   -13917   -13845   -13742   -13587   -13427   -13236 
  -13021   -12834   -12639   -12426   -12234   -12088   -12071   -12169 
  -12231   -12215   -12191   -12204   -12258   -12331   -12423   -12571 
  -12837   -13209   -13610   -14027   -14483   -14946   -15413   -15907 
  -16382   -16783   -17108   -17401   -17722   -18067   -18363   -18582 
  -18766   -18965   -19188   -19398   -19548   -19640   -19710   -19749 
  -19748   -19709   -19601   -19437   -19264   -19047   -18729   -18342 
  -17934   -17515   -17100   -16710   -16331   -15923   -15502   -15146 
  -14843   -14530   -14217   -13900   -13582   -13314   -13081   -12851 
  -12651   -12503   -12397   -12329   -12311   -12324   -12336   -12333 
  -12308   -12288   -12323   -12432   -12610   -12847   -13135   -13497 
  -13934   -14420   -14970   -15567   -16144   -16679   -17205   -17741 
  -18288   -18854   -19418   -19937   -20404   -20833   -21179   -21404 
  -21517   -21518   -21408   -21201   -20874   -20399   -19750   -18945 
  -18085   -17220   -16327   -15417   -14496   -13561   -12656   -11805 
  -11021   -10316    -9664    -9074    -8593    -8205    -7856    -7527 
   -7211    -6900    -6648    -6511    -6431    -6362    -6365    -6474 
   -6674    -6959    -7294    -7649    -8051    -8526    -9063    -9633 
  -10215   -10800   -11389   -12015   -12713   -13452   -14176   -14868 
  -15521   -16136   -16730   -17287   -17786   -18257   -18708   -19088 
  -19382   -19613   -19769   -19867   -19949   -19990   -19954   -19828 
  -19596   -19273   -18873   -18378   -17783   -17079   -16261   -15367 
  -14459   -13546   -12581   -11601   -10675    -9778    -8886    -8020 
   -7195    -6447    -5801    -5260    -4858    -4626    -4544    -4612 
   -4828    -5138    -5543    -6074    -6680    -7325    -7980    -8581 
   -9166    -9819   -10532   -11247   -11921   -12571   -13240   -13923 
  -14573   -15171   -15745   -16280   -16723   -17057   -17253   -17329 
  -17344   -17269   -17077   -16801   -16469   -16117   -15763   -15365 
  -14900   -14408   -13928   -13460   -12989   -12508   -12015   -11532 
  -11114   -10798   -10544   -10285   -10033    -9880    -9853    -9902 
  -10028   -10210   -10418   -10695   -11013   -11305   -11609   -11988 
  -12483   -13101   -13797   -14536   -15322   -16158   -17036   -17909 
  -18720   -19454   -20102   -20635   -21058   -21400   -21668   -21867 
  -22025   -22137   -22195   -22200   -22126   -21944   -21675   -21334 
  -20871   -20264   -19567   -18839   -18098   -17354   -16597   -15824 
  -15068   -14325   -13567   -12820   -12124   -11493   -10931   -10427 
   -9980    -9631    -9406    -9264    -9161    -9137    -9205    -9323 
   -9513    -9791   -10115   -10497   -10933   -11320   -11599   -11794 
  -11922   -12005   -12054   -12064   -12081   -12113   -12127   -12163 
  -12274   -12425   -12571   -12710   -12839   -12969   -13125   -13278 
  -13405   -13532   -13662   -13784   -13888   -13965   -14051   -14196 
  -14353   -14481   -14620   -14757   -14884   -15021   -15115   -15161 
  -15190   -15187   -15154   -15077   -14944   -14803   -14690   -14612 
  -14575   -14559   -14524   -14471   -14445   -14451   -14468   -14476 
  -14435   -14368   -14324   -14287   -14260   -14254   -14235   -14231 
  -14275   -14319   -14367   -14458   -14571   -14698   -14874   -15086 
  -15298   -15499   -15693   -15915   -16179   -16468   -16766   -17042 
  -17291   -17522   -17713   -17820   -17827   -17769   -17662   -17435 
  -17072   -16682   -16273   -15778   -15274   -14787   -14236   -13662 
  -13108   -12549   -12021   -11525   -11055   -10653   -10308    -9994 
   -9713    -9455    -9244    -9089    -8946    -8780    -8615    -8504 
   -8439    -8391    -8395    -8474    -8649    -8953    -9364    -9851 
  -10408   -11044   -11766   -12520   -13257   -13973   -14632   -15208 
  -15725   -16190   -16603   -16958   -17239   -17459   -17638   -17795 
  -17942   -18057   -18115   -18123   -18098   -18026   -17917   -17784 
  -17608   -17383   -17105   -16757   -16359   -15933   -15449   -14911 
  -14361   -13802   -13237   -12711   -12220   -11721   -11255   -10896 
  -10610   -10325   -10054    -9804    -9553    -9341    -9189    -9065 
   -8983    -8951    -8960    -9019    -9092    -9164    -9301    -9493 
   -9670    -9834   -10015   -10196   -10352   -10489   -10613   -10725 
  -10852   -11030   -11229   -11411   -11616   -11869   -12140   -12395 
  -12607   -12762   -12860   -12910   -12916   -12875   -12798   -12688 
  -12542   -12406   -12313   -12233   -12153   -12101   -12064   -12030 
  -12047   -12119   -12209   -12313   -12407   -12479   -12580   -12719 
  -12839   -12936   -13066   -13212   -13337   -13501   -13688   -13825 
  -13977   -14153   -14284   -14402   -14527   -14652   -14796   -14929 
  -15046   -15190   -15347   -15496   -15632   -15693   -15657   -15589 
  -15520   -15428   -15314   -15205   -15136   -15097   -15061   -15027 
  -14987   -14927   -14861   -14778   -14687   -14616   -14551   -14512 
  -14525   -14569   -14682   -14902   -15167   -15457   -15783   -16085 
  -16346   -16605   -16823   -16942   -16964   -16883   -16710   -16477 
  -16180   -15804   -15367   -14905   -14447   -13998   -13574   -13170 
  -12755   -12365   -12059   -11819   -11625   -11479   -11380   -11336 
  -11364   -11465   -11584   -11684   -11794   -11948   -12153   -12399 
  -12681   -13019   -13425   -13865   -14318   -14773   -15179   -15532 
  -15878   -16173   -16364   -16480   -16558   -16614   -16625   -16571 
  -16461   -16298   -16072   -15802   -15530   -15276   -15024   -14785 
  -14593   -14456   -14369   -14323   -14299   -14292   -14310   -14328 
  -14328   -14338   -14370   -14414   -14475   -14545   -14628   -14748 
  -14887   -14988   -15045   -15090   -15136   -15177   -15221   -15261 
  -15283   -15305   -15347   -15406   -15481   -15560   -15621   -15635 
  -15577   -15430   -15194   -14884   -14502   -14061   -13623   -13223 
  -12836   -12476   -12204   -12010   -11847   -11698   -11563   -11431 
  -11290   -11155   -11023   -10875   -10743   -10668   -10649   -10671 
  -10718   -10782   -10871   -10999   -11185   -11424   -11696   -11998 
  -12313   -12613   -12906   -13198   -13464   -13693   -13880   -14025 
  -14128   -14195   -14246   -14291   -14331   -14372   -14406   -14423 
  -14395   -14314   -14219   -14154   -14121   -14100   -14076   -14056 
  -14047   -14018   -13949   -13875   -13805   -13722   -13637   -13507 
  -13298   -13054   -12813   -12602   -12415   -12228   -12040   -11839 
  -11636   -11446   -11244   -11016   -10771   -10514   -10263   -10003 
   -9697    -9382    -9107    -8883    -8724    -8624    -8571    -8566 
   -8623    -8727    -8844    -8997    -9207    -9446    -9711   -10011 
  -10352   -10757   -11207   -11690   -12204   -12704   -13150   -13555 
  -13921   -14223   -14463   -14645   -14773   -14861   -14910   -14936 
  -14970   -14998   -15014   -15050   -15132   -15236   -15345   -15481 
  -15635   -15799   -15964   -16108   -16249   -16376   -16440   -16462 
  -16436   -16318   -16160   -15984   -15747   -15484   -15216   -14931 
  -14662   -14425   -14217   -14042   -13905   -13795   -13704   -13649 
  -13598   -13513   -13412   -13306   -13206   -13125   -13028   -12902 
  -12768   -12631   -12509   -12404   -12305   -12220   -12137   -12098 
  -12156   -12271   -12419   -12613   -12864   -13171   -13495   -13816 
  -14166   -14542   -14919   -15332   -15796   -16260   -16706   -17128 
  -17488   -17764   -17988   -18192   -18361   -18480   -18529   -18501 
  -18401   -18221   -18001   -17778   -17524   -17232   -16933   -16636 
  -16337   -16037   -15757   -15516   -15279   -14984   -14636   -14259 
  -13857   -13428   -12952   -12461   -12035   -11681   -11384   -11192 
  -11087   -11056   -11147   -11316   -11553   -11899   -12292   -12741 
  -13295   -13873   -14436   -15027   -15614   -16147   -16647   -17119 
  -17566   -18008   -18425   -18803   -19159   -19495   -19814   -20134 
  -20437   -20690   -20918   -21109   -21193   -21196   -21181   -21140 
  -21074   -20993   -20887   -20744   -20580   -20416   -20239   -20026 
  -19789   -19557   -19337   -19090   -18842   -18674   -18515   -18293 
  -18109   -17947   -17702   -17427   -17157   -16855   -16567   -16338 
  -16194   -16149   -16163   -16250   -16463   -16774   -17140   -17574 
  -18063   -18547   -18992   -19374   -19677   -19907   -20065   -20174 
  -20259   -20308   -20326   -20330   -20306   -20250   -20151   -19980 
  -19766   -19538   -19240   -18847   -18418   -17999   -17601   -17217 
  -16852   -16537   -16271   -16046   -15853   -15631   -15383   -15161 
  -14937   -14677   -14386   -14085   -13805   -13556   -13331   -13114 
  -12906   -12754   -12689   -12686   -12733   -12826   -12953   -13143 
  -13347   -13514   -13693   -13881   -14071   -14271   -14477   -14729 
  -15035   -15351   -15675   -16020   -16371   -16708   -17016   -17280 
  -17497   -17665   -17772   -17832   -17855   -17832   -17772   -17667 
  -17510   -17320   -17083   -16774   -16403   -16003   -15584   -15130 
  -14656   -14190   -13735   -13317   -12933   -12577   -12280   -12027 
  -11783   -11593   -11470   -11390   -11396   -11491   -11641   -11874 
  -12197   -12582   -13046   -13581   -14145   -14761   -15461   -16213 
  -17011   -17861   -18731   -19620   -20515   -21365   -22152   -22868 
  -23490   -24010   -24435   -24754   -24940   -25006   -24970   -24802 
  -24483   -24068   -23585   -22993   -22290   -21491   -20591   -19651 
  -18737   -17858   -17005   -16179   -15395   -14672   -14007   -13384 
  -12779   -12185   -11601   -11006   -10414    -9874    -9387    -8929 
   -8511    -8147    -7827    -7553    -7323    -7122    -6979    -6900 
   -6866    -6905    -7032    -7242    -7512    -7823    -8147    -8406 
   -8598    -8775    -8928    -9061    -9200    -9338    -9483    -9643 
   -9806    -9968   -10118   -10236   -10324   -10401   -10464   -10519 
  -10579   -10629   -10650   -10633   -10594   -10561   -10470   -10284 
  -10066    -9833    -9586    -9368    -9158    -8943    -8763    -8606 
   -8487    -8448    -8426    -8407    -8419    -8419    -8413    -8425 
   -8435    -8438    -8435    -8437    -8471    -8562    -8700    -8866 
   -9074    -9331    -9621    -9940   -10260   -10572   -10889   -11205 
  -11502   -11723   -11842   -11916   -11935   -11862   -11722   -11480 
  -11140   -10779   -10372    -9906    -9470    -9086    -8720    -8410 
   -8163    -7939    -7737    -7562    -7422    -7312    -7215    -7156 
   -7134    -7139    -7190    -7279    -7402    -7576    -7778    -7969 
   -8147    -8337    -8558    -8787    -9014    -9252    -9480    -9669 
   -9855   -10043   -10173   -10250   -10305   -10310   -10270   -10246 
  -10236   -10212   -10212   -10254   -10311   -10377   -10440   -10483 
  -10523   -10555   -10561   -10557   -10571   -10626   -10743   -10925 
  -11176   -11493   -11856   -12262   -12707   -13161   -13639   -14166 
  -14712   -15291   -15939   -16625   -17359   -18160   -18969   -19762 
  -20561   -21328   -22028   -22633   -23102   -23440   -23642   -23681 
  -23553   -23255   -22791   -22195   -21487   -20674   -19777   -18826 
  -17838   -16832   -15791   -14694   -13597   -12531   -11463   -10442 
   -9514    -8630    -7825    -7157    -6577    -6087    -5736    -5502 
   -5353    -5298    -5334    -5454    -5667    -5960    -6335    -6824 
   -7417    -8095    -8851    -9670   -10534   -11413   -12270   -13101 
  -13908   -14654   -15325   -15944   -16509   -17014   -17468   -17859 
  -18182   -18483   -18766   -18985   -19148   -19294   -19426   -19535 
  -19598   -19581   -19494   -19354   -19173   -18951   -18680   -18384 
  -18071   -17730   -17416   -17143   -16856   -16602   -16436   -16325 
  -16267   -16248   -16264   -16361   -16506   -16659   -16799   -16892 
  -16966   -17037   -17053   -17003   -16909   -16814   -16772   -16771 
  -16805   -16898   -17051   -17282   -17562   -17823   -18070   -18330 
  -18580   -18769   -18878   -18937   -18894   -18698   -18407   -18033 
  -17563   -17015   -16379   -15690   -14966   -14203   -13424   -12595 
  -11749   -10973   -10239    -9568    -8970    -8465    -8110    -7832 
   -7649    -7591    -7548    -7578    -7712    -7827    -7950    -8104 
   -8236    -8375    -8542    -8715    -8883    -9055    -9274    -9537 
   -9811   -10091   -10390   -10732   -11123   -11515   -11908   -12350 
  -12812   -13307   -13875   -14435   -14968   -15506   -16029   -16564 
  -17058   -17429   -17745   -18030   -18245   -18440   -18574   -18574 
  -18501   -18368   -18173   -17951   -17601   -17111   -16589   -16015 
  -15360   -14657   -13945   -13248   -12573   -11947   -11370   -10811 
  -10265    -9763    -9299    -8820    -8319    -7814    -7305    -6807 
   -6324    -5885    -5533    -5251    -5024    -4876    -4828    -4921 
   -5110    -5287    -5510    -5826    -6173    -6594    -7096    -7587 
   -8087    -8651    -9249    -9832   -10420   -11041   -11618   -12165 
  -12756   -13285   -13719   -14160   -14553   -14860   -15163   -15415 
  -15572   -15706   -15775   -15742   -15702   -15664   -15572   -15461 
  -15331   -15177   -15052   -14944   -14828   -14729   -14675   -14656 
  -14649   -14664   -14701   -14741   -14802   -14889   -14989   -15107 
  -15213   -15312   -15505   -15769   -16051   -16413   -16832   -17292 
  -17832   -18394   -18965   -19594   -20231   -20810   -21340   -21799 
  -22163   -22419   -22551   -22602   -22569   -22399   -22126   -21815 
  -21450   -21006   -20520   -19995   -19401   -18739   -18012   -17260 
  -16488   -15654   -14852   -14114   -13351   -12647   -12060   -11447 
  -10833   -10344    -9907    -9514    -9254    -9061    -8898    -8799 
   -8747    -8744    -8801    -8895    -9022    -9201    -9444    -9799 
  -10271   -10786   -11304   -11866   -12508   -13175   -13795   -14386 
  -14974   -15544   -16093   -16632   -17160   -17663   -18160   -18693 
  -19220   -19674   -20083   -20464   -20801   -21122   -21370   -21535 
  -21697   -21820   -21882   -21953   -22026   -22042   -22003   -21916 
  -21792   -21661   -21498   -21269   -21046   -20888   -20758   -20662 
  -20610   -20565   -20568   -20633   -20636   -20562   -20469   -20338 
  -20199   -20041   -19823   -19625   -19463   -19317   -19212   -19089 
  -18936   -18825   -18731   -18614   -18468   -18303   -18174   -18018 
  -17781   -17601   -17422   -17110   -16830   -16598   -16310   -16068 
  -15820   -15459   -15086   -14773   -14510   -14263   -13990   -13734 
  -13543   -13411   -13301   -13139   -12958   -12826   -12677   -12520 
  -12418   -12291   -12125   -12055   -12060   -12040   -12063   -12177 
  -12315   -12501   -12769   -13049   -13343   -13711   -14140   -14593 
  -15060   -15550   -16055   -16572   -17089   -17570   -18000   -18400 
  -18803   -19195   -19530   -19844   -20144   -20390   -20621   -20842 
  -21015   -21158   -21266   -21332   -21385   -21432   -21466   -21487 
  -21485   -21442   -21380   -21333   -21284   -21191   -21073   -20939 
  -20743   -20493   -20234   -19957   -19655   -19337   -19004   -18683 
  -18392   -18109   -17845   -17629   -17432   -17259   -17149   -17099 
  -17098   -17116   -17137   -17190   -17272   -17349   -17405   -17471 
