Origin Time       2011/03/11 14:46:00
Lat.              38.103
Long.             142.860
Depth. (km)       24
Mag.              9.0
Station Code      AIC011
Station Lat.      34.9966
Station Long.     136.8641
Station Height(m) 5
Record Time       2011/03/11 14:48:58
Sampling Freq(Hz) 100Hz
Duration Time(s)  279
Dir.              U-D
Scale Factor      3920(gal)/6182761
Max. Acc. (gal)   5.868
Last Correction   2011/03/11 14:48:43
Memo.             
[...]
  -17088   -16938   -16924   -16830   -16820   -16895   -16917   -16968 
  -17034   -17029   -17092   -17189   -17143   -17136   -17412   -17816 
  -17996   -17850   -17597   -17392   -17306   -17534   -17968   -18150 
  -18013   -17973   -18269   -18742   -19250   -19686   -19844   -19908 
  -20287   -20887   -21448   -21900   -22039   -21899   -21947   -22312 
  -22641   -22766   -22807   -22754   -22562   -22468   -22551   -22489 
  -22194   -21915   -21837   -21976   -22135   -21999   -21562   -21167 
  -20979   -20868   -20748   -20577   -20409   -20429   -20541   -20510 
  -20360   -20175   -20032   -20028   -20038   -19904   -19749   -19763 
  -19916   -20098   -20327   -20538   -20495   -20283   -20363   -20887 
  -21580   -22104   -22306   -22423   -22776   -23217   -23418   -23361 
  -23168   -22896   -22646   -22600   -22720   -22613   -22278   -22208 
  -22347   -22220   -21852   -21613   -21595   -21557   -21393   -21144 
  -20854   -20791   -21064   -21251   -21064   -20751   -20601   -20557 
  -20427   -20209   -20022   -19868   -19679   -19494   -19430   -19544 
  -19786   -20047   -20204   -20172   -19981   -19743   -19581   -19584 
  -19748   -20019   -20354   -20600   -20619   -20573   -20695   -20954 
  -21263   -21658   -21968   -21885   -21617   -21637   -21823   -21786 
  -21531   -21255   -21118   -21297   -21713   -21858   -21515   -21166 
  -21060   -20917   -20628   -20243   -19760   -19320   -19018   -18744 
  -18462   -18329   -18366   -18274   -17914   -17535   -17199   -16765 
  -16425   -16301   -16142   -15938   -15844   -15798   -15841   -16012 
  -16155   -16248   -16407   -16696   -17010   -17104   -16961   -16794 
  -16682   -16584   -16547   -16617   -16716   -16792   -16900   -17033 
  -17196   -17487   -17853   -18064   -18098   -18217   -18521   -18830 
  -18913   -18695   -18543   -18866   -19410   -19735   -19773   -19620 
  -19442   -19359   -19308   -19217   -19134   -19156   -19325   -19547 
  -19605   -19503   -19477   -19439   -19108   -18633   -18315   -18064 
  -17769   -17631   -17659   -17570   -17450   -17512   -17572   -17549 
  -17648   -17931   -18281   -18549   -18709   -18781   -18745   -18747 
  -18880   -18988   -19041   -19161   -19304   -19376   -19338   -19153 
  -18914   -18770   -18672   -18503   -18392   -18574   -19010   -19471 
  -19844   -20082   -20077   -19995   -20332   -20989   -21315   -21429 
  -21794   -22124   -22182   -22209   -22303   -22419   -22457   -22429 
  -22614   -23027   -23466   -23857   -23990   -23867   -23838   -23877 
  -23791   -23720   -23658   -23384   -23088   -23013   -22862   -22503 
  -22288   -22291   -22325   -22307   -22068   -21574   -21130   -20890 
  -20667   -20362   -20104   -19950   -19820   -19764   -19856   -19941 
  -19986   -20185   -20462   -20589   -20560   -20509   -20570   -20738 
  -20915   -21071   -21168   -21188   -21180   -21227   -21422   -21719 
  -22006   -22222   -22293   -22348   -22516   -22586   -22492   -22478 
  -22600   -22693   -22716   -22752   -22666   -22268   -21853   -21731 
  -21686   -21623   -21570   -21276   -20824   -20627   -20663   -20544 
  -20070   -19454   -18982   -18741   -18733   -18724   -18469   -18238 
  -18244   -18246   -18186   -18218   -18286   -18193   -17886   -17554 
  -17312   -17074   -16877   -16810   -16797   -16819   -16903   -16984 
  -17066   -17233   -17444   -17585   -17624   -17617   -17639   -17709 
  -17786   -17785   -17718   -17762   -17986   -18251   -18464   -18675 
  -18880   -19006   -19103   -19225   -19293   -19373   -19558   -19654 
  -19605   -19741   -20119   -20330   -20316   -20374   -20424   -20414 
  -20596   -20906   -21168   -21393   -21486   -21426   -21358   -21311 
  -21289   -21338   -21398   -21354   -21263   -21213   -21070   -20825 
  -20734   -20789   -20780   -20671   -20495   -20329   -20250   -20158 
  -19978   -19741   -19438   -19142   -18970   -18917   -18856   -18621 
  -18278   -18012   -17833   -17774   -17810   -17726   -17521   -17386 
  -17399   -17482   -17402   -17105   -16837   -16754   -16787   -16796 
  -16784   -16907   -17181   -17430   -17525   -17558   -17670   -17792 
  -17875   -18037   -18258   -18457   -18741   -19118   -19379   -19490 
  -19630   -19794   -19783   -19636   -19576   -19519   -19357   -19339 
  -19492   -19637   -19840   -20033   -20040   -20033   -20187   -20377 
  -20467   -20544   -20709   -20856   -21008   -21369   -21780   -21950 
  -21940   -21915   -21959   -22138   -22336   -22330   -22157   -22090 
  -22179   -22211   -22186   -22196   -22142   -22069   -22052   -21871 
  -21493   -21256   -21229   -21114   -20897   -20847   -20948   -20976 
  -20967   -21073   -21227   -21248   -21046   -20738   -20494   -20292 
  -20106   -19957   -19809   -19734   -19739   -19759   -19872   -20002 
  -20025   -20030   -20069   -20127   -20155   -20067   -19835   -19479 
  -19237   -19316   -19485   -19630   -19939   -20322   -20585   -20777 
  -20967   -21062   -20999   -20910   -20929   -21029   -21153   -21303 
  -21536   -21845   -22127   -22357   -22517   -22534   -22503   -22478 
  -22345   -22203   -22223   -22289   -22289   -22297   -22372   -22461 
  -22474   -22465   -22463   -22334   -22182   -22204   -22216   -22050 
  -21836   -21670   -21558   -21522   -21536   -21483   -21302   -21107 
  -20975   -20792   -20521   -20312   -20127   -19758   -19342   -19141 
  -19039   -18881   -18750   -18598   -18356   -18213   -18172   -18028 
  -17905   -17877   -17685   -17474   -17512   -17459   -17156   -16997 
  -17101   -17268   -17364   -17303   -17136   -17041   -17086   -17131 
  -17139   -17394   -17982   -18574   -19019   -19394   -19658   -19839 
  -20127   -20520   -20848   -21035   -21135   -21255   -21322   -21186 
  -21009   -21036   -21262   -21506   -21600   -21638   -21697   -21585 
  -21307   -21043   -20781   -20512   -20252   -19954   -19685   -19460 
  -19166   -18907   -18812   -18726   -18550   -18385   -18232   -17971 
  -17610   -17376   -17391   -17440   -17358   -17259   -17307   -17525 
  -17782   -17918   -17987   -18248   -18647   -18785   -18694   -18705 
  -18782   -18808   -18851   -18949   -19082   -19185   -19222   -19167 
  -18943   -18630   -18379   -18117   -17786   -17559   -17482   -17349 
  -17215   -17304   -17495   -17596   -17625   -17601   -17505   -17458 
  -17641   -17967   -18280   -18643   -19027   -19306   -19545   -19801 
  -20005   -20236   -20572   -20829   -20953   -21077   -21173   -21257 
  -21440   -21659   -21780   -21734   -21570   -21437   -21307   -21129 
  -21137   -21381   -21542   -21567   -21645   -21753   -21869   -22045 
  -22162   -22082   -21926   -21920   -22034   -22188   -22459   -22724 
  -22813   -22816   -22783   -22723   -22680   -22594   -22412   -22250 
  -22335   -22579   -22644   -22571   -22499   -22285   -21953   -21617 
  -21273   -21068   -21082   -21147   -21150   -21122   -21187   -21457 
  -21835   -22075   -22110   -22089   -22099   -22169   -22337   -22546 
  -22740   -22945   -23136   -23240   -23270   -23303   -23323   -23241 
  -23134   -23174   -23319   -23441   -23551   -23659   -23779   -23942 
  -24106   -24223   -24296   -24377   -24463   -24534   -24706   -24991 
  -25216   -25372   -25591   -25834   -25960   -26000   -26024   -25952 
  -25806   -25740   -25701   -25523   -25256   -25022   -24798   -24562 
  -24336   -24023   -23562   -23159   -22965   -22762   -22380   -21976 
  -21641   -21309   -20985   -20672   -20353   -20081   -19909   -19809 
  -19703   -19591   -19493   -19351   -19259   -19355   -19470   -19466 
  -19559   -19763   -19760   -19590   -19560   -19605   -19500   -19392 
  -19479   -19637   -19834   -20205   -20585   -20721   -20755   -20906 
  -21022   -20991   -21099   -21406   -21696   -22050   -22448   -22602 
  -22616   -22747   -22900   -22983   -23083   -23179   -23206   -23327 
  -23636   -23897   -23959   -23918   -23868   -23910   -24107   -24320 
  -24371   -24335   -24415   -24603   -24700   -24677   -24671   -24714 
  -24779   -24828   -24745   -24605   -24612   -24721   -24730   -24496 
  -24079   -23710   -23480   -23273   -22992   -22682   -22386   -22115 
  -21984   -21957   -21837   -21696   -21615   -21436   -21202   -21152 
  -21227   -21148   -20953   -20889   -20853   -20681   -20506   -20412 
  -20307   -20191   -20183   -20311   -20510   -20711   -20801   -20832 
  -20974   -21132   -21134   -21113   -21284   -21477   -21443   -21420 
  -21512   -21423   -21327   -21479   -21457   -21089   -20897   -21070 
  -21184   -21047   -20889   -20881   -21081   -21402   -21544   -21442 
  -21384   -21461   -21507   -21500   -21574   -21705   -21776   -21868 
  -22016   -22089   -22127   -22253   -22410   -22540   -22643   -22652 
  -22610   -22654   -22729   -22724   -22704   -22697   -22616   -22428 
  -22190   -21987   -21821   -21676   -21652   -21729   -21693   -21508 
  -21386   -21418   -21402   -21169   -20854   -20599   -20381   -20267 
  -20327   -20367   -20240   -20102   -20111   -20307   -20622   -20825 
  -20835   -20798   -20778   -20746   -20704   -20706   -20722   -20604 
  -20458   -20527   -20626   -20562   -20561   -20700   -20798   -20850 
  -20897   -20862   -20737   -20710   -20872   -20947   -20806   -20737 
  -20852   -20945   -20997   -21162   -21308   -21312   -21412   -21660 
  -21861   -22040   -22182   -22193   -22213   -22344   -22515   -22685 
  -22832   -22941   -23035   -23170   -23375   -23591   -23778   -23987 
  -24230   -24401   -24478   -24626   -24878   -24983   -24880   -24853 
  -24934   -25015   -25283   -25640   -25782   -25888   -26071   -26062 
  -25857   -25735   -25778   -25854   -25961   -26187   -26377   -26371 
  -26265   -26118   -25867   -25572   -25381   -25332   -25497   -25909 
  -26226   -26208   -26159   -26214   -26119   -25859   -25647   -25587 
  -25663   -25814   -25980   -26070   -26047   -25971   -25790   -25456 
  -25066   -24692   -24375   -24124   -23855   -23530   -23230   -23026 
  -22873   -22613   -22174   -21690   -21230   -20750   -20331   -20098 
  -20028   -19925   -19673   -19438   -19313   -19219   -19148   -19106 
  -19064   -18955   -18792   -18728   -18745   -18691   -18561   -18473 
  -18491   -18529   -18505   -18431   -18334   -18212   -18047   -17920 
  -17925   -17978   -17969   -17942   -17965   -18012   -18145   -18435 
  -18694   -18780   -18877   -19131   -19413   -19565   -19631   -19698 
  -19805   -20059   -20401   -20614   -20771   -20992   -21110   -21079 
  -21082   -21135   -21102   -21057   -21124   -21173   -21183   -21346 
  -21539   -21540   -21477   -21432   -21293   -21181   -21250   -21270 
  -21104   -21050   -21201   -21306   -21346   -21419   -21382   -21199 
  -21059   -20932   -20671   -20432   -20384   -20445   -20530   -20551 
  -20445   -20303   -20224   -20167   -20028   -19888   -19958   -20124 
  -20123   -20001   -19923   -19961   -20059   -20034   -19915   -19904 
  -19995   -20118   -20263   -20365   -20460   -20618   -20727   -20806 
  -21014   -21217   -21274   -21327   -21424   -21443   -21389   -21402 
  -21498   -21555   -21613   -21745   -21860   -21969   -22204   -22458 
  -22518   -22445   -22422   -22493   -22586   -22634   -22651   -22720 
  -22903   -23147   -23325   -23405   -23413   -23359   -23303   -23323 
  -23393   -23438   -23476   -23572   -23661   -23667   -23734   -23975 
  -24207   -24246   -24192   -24218   -24286   -24277   -24239   -24206 
  -24107   -23953   -23746   -23502   -23392   -23501   -23643   -23636 
  -23551   -23507   -23397   -23252   -23314   -23399   -23224   -23038 
  -23021   -22977   -22848   -22682   -22460   -22260   -22167   -22139 
  -22087   -21989   -21897   -21793   -21642   -21483   -21302   -21068 
  -20810   -20524   -20195   -19905   -19672   -19321   -18794   -18351 
  -18106   -17807   -17363   -17004   -16809   -16596   -16305   -16070 
  -15900   -15754   -15740   -15804   -15733   -15555   -15412   -15328 
  -15292   -15258   -15187   -15121   -15103   -15130   -15164   -15193 
  -15203   -15151   -15095   -15103   -15178   -15333   -15509   -15621 
  -15708   -15831   -16053   -16374   -16661   -16917   -17284   -17680 
  -17931   -18086   -18298   -18559   -18756   -18989   -19412   -19854 
  -20139   -20377   -20606   -20733   -20815   -20973   -21104   -21065 
  -21064   -21213   -21217   -21110   -21205   -21388   -21402   -21273 
  -21108   -21023   -21090   -21180   -21116   -21025   -21149   -21335 
  -21357   -21360   -21447   -21505   -21503   -21483   -21464   -21488 
  -21666   -21974   -22140   -22117   -22104   -22108   -22107   -22183 
  -22265   -22286   -22332   -22458   -22614   -22656   -22624   -22725 
  -22850   -22863   -22939   -23043   -23007   -23027   -23252   -23494 
  -23649   -23791   -23852   -23717   -23581   -23573   -23436   -23189 
  -23129   -23184   -23216   -23307   -23457   -23606   -23738   -23783 
  -23689   -23588   -23554   -23397   -23140   -23055   -23114   -23123 
  -23044   -22907   -22773   -22664   -22520   -22339   -22116   -21878 
  -21755   -21723   -21605   -21405   -21238   -21127   -21050   -20947 
  -20770   -20568   -20414   -20304   -20200   -20087   -19925   -19664 
  -19327   -18917   -18506   -18282   -18207   -18067   -17825   -17571 
  -17330   -17001   -16575   -16236   -16037   -15925   -15889   -15824 
  -15719   -15652   -15523   -15338   -15162   -14845   -14401   -14043 
  -13779   -13497   -13250   -13133   -12971   -12650   -12416   -12324 
  -12119   -11766   -11513   -11402   -11195   -10990   -11050   -11152 
  -11123   -11137   -11100   -10948   -11015   -11284   -11446   -11633 
  -12009   -12350   -12562   -12842   -13268   -13683   -13971   -14126 
  -14215   -14409   -14785   -15165   -15401   -15597   -15889   -16147 
  -16252   -16413   -16739   -17016   -17161   -17326   -17548   -17799 
  -18149   -18565   -18877   -19059   -19211   -19341   -19461   -19616 
  -19770   -19971   -20307   -20643   -20819   -20849   -20928   -21226 
  -21538   -21647   -21721   -21946   -22284   -22539   -22537   -22348 
  -22174   -22155   -22292   -22460   -22601   -22774   -22965   -23177 
  -23518   -23880   -24045   -24086   -24220   -24520   -24898   -25229 
  -25437   -25517   -25656   -25983   -26211   -26069   -25757   -25529 
  -25351   -25098   -24794   -24560   -24398   -24274   -24265   -24366 
  -24450   -24472   -24436   -24387   -24420   -24448   -24269   -24013 
  -23964   -24010   -24004   -24113   -24237   -24104   -23938   -23941 
  -23838   -23487   -23063   -22712   -22501   -22503   -22713   -22926 
  -23066   -23318   -23559   -23558   -23519   -23600   -23607   -23442 
  -23247   -23124   -22970   -22725   -22464   -22182   -21882   -21583 
  -21175   -20656   -20246   -20006   -19738   -19365   -19066   -18955 
  -18968   -18974   -18826   -18530   -18296   -18217   -18156   -18071 
  -18051   -17992   -17715   -17368   -17191   -17047   -16722   -16363 
  -16089   -15881   -15891   -16065   -16131   -16111   -16086   -15952 
  -15742   -15680   -15810   -15896   -15889   -15948   -16038   -16081 
  -16079   -16014   -15896   -15781   -15768   -15848   -15816   -15643 
  -15533   -15468   -15246   -14970   -14910   -15018   -15064   -15000 
  -14925   -14954   -15106   -15240   -15275   -15256   -15252   -15281 
  -15251   -15153   -15136   -15221   -15235   -15162   -15121   -15068 
  -15003   -15079   -15304   -15559   -15819   -16128   -16446   -16727 
  -17023   -17303   -17486   -17715   -18085   -18438   -18685   -18820 
  -18820   -18772   -18800   -18934   -19139   -19368   -19588   -19699 
  -19750   -19982   -20403   -20781   -21029   -21328   -21735   -21976 
  -21995   -21993   -21914   -21704   -21534   -21498   -21626   -21912 
  -22168   -22135   -21869   -21695   -21659   -21558   -21457   -21503 
  -21576   -21624   -21753   -22003   -22359   -22759   -23079   -23237 
  -23309   -23418   -23496   -23501   -23636   -23883   -23908   -23669 
  -23425   -23227   -22994   -22760   -22450   -21997   -21614   -21413 
  -21253   -21080   -20946   -20824   -20675   -20532   -20390   -20251 
  -20239   -20395   -20628   -20852   -21016   -21121   -21161   -21039 
  -20751   -20408   -20078   -19830   -19645   -19448   -19327   -19364 
  -19425   -19400   -19389   -19479   -19494   -19310   -19117   -19076 
  -19151   -19307   -19489   -19557   -19470   -19376   -19372   -19388 
  -19341   -19173   -18938   -18731   -18519   -18300   -18131   -18024 
  -18046   -18243   -18524   -18807   -19104   -19418   -19664   -19754 
  -19626   -19287   -18971   -18885   -18891   -18917   -19134   -19416 
  -19516   -19547   -19648   -19742   -19820   -19977   -20201   -20375 
  -20480   -20527   -20429   -20237   -20090   -19954   -19783   -19747 
  -20033   -20534   -20977   -21271   -21409   -21389   -21324   -21271 
  -21143   -20987   -20984   -21083   -21102   -21058   -21020   -20900 
  -20695   -20524   -20306   -20004   -19793   -19612   -19340   -19170 
  -19209   -19283   -19200   -18999   -18857   -18769   -18669   -18595 
  -18454   -18158   -17915   -17920   -17950   -17801   -17698   -17790 
  -17954   -18146   -18332   -18459   -18578   -18698   -18682   -18463 
  -18198   -18036   -17909   -17753   -17672   -17720   -17800   -17864 
  -17917   -17918   -17820   -17562   -17202   -16908   -16698   -16557 
  -16517   -16497   -16477   -16495   -16455   -16384   -16444   -16582 
  -16647   -16626   -16558   -16447   -16302   -16224   -16196   -16028 
  -15844   -15877   -15937   -15929   -16076   -16333   -16512   -16646 
  -16760   -16699   -16423   -16174   -16075   -15967   -15844   -15862 
  -16037   -16235   -16348   -16428   -16543   -16649   -16703   -16647 
  -16484   -16324   -16204   -16024   -15760   -15623   -15781   -16135 
  -16539   -16885   -17115   -17344   -17557   -17526   -17311   -17198 
  -17202   -17160   -17058   -17008   -16970   -16907   -16980   -17140 
  -17199   -17266   -17372   -17330   -17181   -17095   -17077   -17069 
  -17143   -17332   -17509   -17572   -17528   -17500   -17569   -17646 
  -17702   -17714   -17632   -17583   -17518   -17231   -16865   -16567 
  -16246   -15961   -15841   -15809   -15756   -15695   -15680   -15718 
  -15772   -15841   -15899   -15839   -15707   -15609   -15398   -14961 
  -14452   -14060   -13832   -13695   -13640   -13732   -13943   -14192 
  -14398   -14493   -14526   -14625   -14791   -14945   -15130   -15346 
  -15486   -15563   -15648   -15693   -15641   -15631   -15767   -15949 
  -16171   -16475   -16723   -16848   -16958   -17055   -17023   -16925 
  -16935   -17016   -17107   -17304   -17623   -17952   -18246   -18617 
  -19086   -19446   -19735   -20155   -20506   -20660   -20807   -20848 
  -20678   -20604   -20727   -20777   -20725   -20790   -20997   -21198 
  -21397   -21631   -21798   -21873   -21959   -22028   -21962   -21801 
  -21631   -21459   -21390   -21516   -21698   -21824   -21964   -22072 
  -22074   -22127   -22306   -22424   -22372   -22334   -22404   -22346 
  -22192   -22188   -22195   -22163   -22289   -22502   -22637   -22670 
  -22728   -22959   -23246   -23441   -23539   -23493   -23352   -23177 
  -22899   -22569   -22350   -22268   -22215   -22145   -22114   -22084 
  -21972   -21875   -21879   -21908   -21948   -22031   -22068   -21993 
  -21862   -21674   -21364   -21043   -20865   -20704   -20458   -20318 
  -20314   -20279   -20236   -20203   -20085   -19889   -19671   -19434 
