Origin Time       2011/03/11 14:46:00
Lat.              38.103
Long.             142.860
Depth. (km)       24
Mag.              9.0
Station Code      AIC012
Station Lat.      34.9119
Station Long.     137.0446
Station Height(m) 4
Record Time       2011/03/11 14:48:52
Sampling Freq(Hz) 100Hz
Duration Time(s)  300
Dir.              U-D
Scale Factor      3920(gal)/6182761
Max. Acc. (gal)   5.459
Last Correction   2011/03/11 14:48:37
Memo.             
[...]
   18887    19019    19155    19332    19503    19641    19781    19936 
   20044    20035    19949    19873    19790    19660    19510    19320 
   19031    18689    18362    18032    17720    17471    17216    16916 
   16626    16352    16097    15945    15936    15915    15536    14630 
   13903    14324    15335    15634    15483    15166    14247    14696 
   17161    17626    16278    16692    16819    16155    17555    18603 
   17717    17485    17676    17389    17565    18200    18449    17588 
   16721    17430    17960    17487    17748    17794    17221    17677 
   18005    17617    17902    18040    17629    17767    18101    18219 
   18207    18129    18312    18286    18266    18857    18950    18675 
   18958    18978    18773    18936    19070    19178    19189    18918 
   18788    18869    18900    18876    18755    18420    18052    17980 
   17905    17475    17258    17228    16743    16282    16030    15445 
   14798    14578    14523    14059    13575    13395    12995    12926 
   13193    12852    12542    12531    12393    12479    12579    12618 
   12900    13091    13238    13389    13319    13558    13972    13799 
   13716    13990    13857    13980    14481    14367    14263    14571 
   14580    14539    14734    14814    14776    14750    14691    14642 
   14727    14894    15089    15256    15209    15137    15189    15156 
   15240    15387    15309    15493    15911    16090    16381    16708 
   16886    17242    17502    17714    18100    18328    18623    18928 
   18920    19154    19526    19360    19093    19297    19674    19903 
   20082    20202    20193    20331    20635    20787    20915    21125 
   21056    20851    21151    21674    21614    21080    20807    20991 
   21062    20892    20766    20514    20223    20065    20009    20141 
   20088    19640    19141    18903    19005    18884    18278    17883 
   17876    17797    17450    17072    16929    16733    16466    16501 
   16463    16257    16351    16515    16661    16918    17014    17149 
   17521    17850    17965    17903    18067    18387    18431    18627 
   18954    18817    18617    18893    19362    19458    19202    19161 
   19371    19486    19629    19900    19913    19792    19960    20065 
   19991    20090    20200    20102    19897    19761    19796    19845 
   19712    19539    19439    19413    19554    19521    19216    19042 
   18809    18439    18257    18311    18274    17836    17576    17599 
   17313    17236    17289    16786    16450    16547    16423    16374 
   16692    16751    16510    16623    16968    16961    16774    16868 
   16990    16846    16863    17108    17045    16968    17300    17255 
   16808    16947    17205    16993    16870    16876    16916    17139 
   17260    17348    17534    17544    17673    18017    18173    18395 
   18642    18686    19004    19362    19420    19623    19790    19643 
   19536    19416    19247    19392    19488    19171    18994    19065 
   19034    19024    19121    19168    19193    19278    19288    19174 
   19087    19131    19310    19517    19654    19653    19585    19592 
   19568    19440    19294    19172    18999    18799    18738    18581 
   18243    18024    17749    17378    17278    17277    17022    16761 
   16690    16513    16399    16562    16550    16536    16762    16804 
   16903    17232    17345    17459    17799    18000    18142    18438 
   18704    18947    19124    19258    19655    19977    20050    20235 
   20287    20231    20396    20503    20459    20365    20277    20279 
   20206    20117    20053    19757    19456    19455    19438    19164 
   18912    18778    18546    18360    18310    18083    17768    17767 
   17951    18006    18136    18290    18188    18326    18762    18847 
   18733    18661    18541    18624    18852    18842    18739    18865 
   19066    19209    19463    19681    19780    20051    20295    20325 
   20519    20751    20714    20742    20936    20944    20797    20845 
   20986    20930    20897    21030    21075    21076    21144    21138 
   21132    21207    21129    20941    20910    20965    21011    20899 
   20586    20555    20738    20667    20602    20659    20719    20846 
   20910    20861    20751    20702    20755    20631    20451    20520 
   20609    20564    20628    20694    20506    20414    20493    20341 
   20165    20049    19698    19377    19196    18972    18732    18340 
   18001    17886    17656    17515    17480    17193    17104    17321 
   17323    17285    17442    17470    17417    17520    17584    17655 
   17841    17841    17766    17937    18115    18140    18244    18385 
   18483    18617    18703    18932    19253    19335    19574    19955 
   20103    20398    20806    21019    21276    21559    21748    22015 
   22320    22525    22694    22958    23244    23353    23436    23583 
   23530    23424    23415    23217    22936    22842    22597    22061 
   21765    21654    21291    20971    20786    20410    20086    20034 
   19836    19373    19052    18838    18563    18378    18203    17978 
   17797    17617    17504    17443    17323    17223    17162    17133 
   17218    17339    17376    17460    17654    17755    17768    17837 
   17925    17992    17971    17796    17668    17729    17738    17696 
   17796    17808    17807    17995    18064    18080    18172    18113 
   18094    18212    18180    18137    18157    18060    18072    18169 
   18075    17994    17990    17959    18009    18086    18072    17958 
   17794    17700    17700    17706    17723    17718    17649    17806 
   18193    18227    17991    18040    18140    18226    18578    18627 
   18237    18120    18206    18165    18097    18024    17910    17715 
   17597    17709    17839    17884    17739    17400    17297    17299 
   17030    16859    16770    16490    16487    16677    16495    16356 
   16483    16405    16391    16572    16363    16126    16287    16316 
   16256    16229    16015    15999    16132    16056    16016    15947 
   15809    15905    16013    15964    16014    16170    16304    16400 
   16498    16655    16842    16968    17048    17223    17521    17799 
   18000    18264    18698    19103    19315    19479    19695    19869 
   19919    19946    20071    20264    20505    20679    20723    20814 
   20867    20817    20919    21047    20979    21071    21445    21575 
   21501    21725    21926    21792    21724    21703    21546    21439 
   21345    21274    21265    21104    20904    20806    20615    20341 
   20112    19965    19845    19569    19262    19202    19207    19052 
   18830    18579    18318    18110    17953    17946    18026    17920 
   17758    17775    17761    17539    17335    17263    17153    17053 
   17063    17056    16991    16864    16771    16819    16814    16705 
   16660    16683    16683    16698    16830    16944    16945    17052 
   17281    17474    17699    17936    18096    18345    18649    18795 
   18936    19141    19223    19269    19428    19580    19611    19546 
   19514    19679    19915    19970    19928    19870    19730    19606 
   19548    19418    19146    18841    18611    18388    18082    17826 
   17722    17611    17502    17559    17650    17733    17956    18175 
   18271    18337    18413    18524    18624    18614    18575    18588 
   18567    18524    18463    18340    18286    18230    18032    17911 
   17917    17872    17841    17862    17788    17668    17699    17783 
   17718    17601    17514    17452    17408    17265    17077    16882 
   16637    16495    16399    16250    16195    16189    16128    16076 
   16069    15985    15785    15718    15733    15582    15498    15555 
   15493    15333    15207    15131    15077    15043    15052    15060 
   15103    15232    15354    15418    15402    15353    15414    15492 
   15388    15227    15192    15182    15156    15197    15157    15066 
   15141    15228    15312    15556    15772    15983    16346    16667 
   16922    17328    17815    18104    18275    18541    18698    18737 
   18907    19068    19169    19269    19211    19119    19091    18976 
   18794    18594    18431    18339    18232    18137    18078    18032 
   17985    17877    17787    17791    17756    17680    17697    17708 
   17637    17658    17787    17885    17965    18052    18077    18149 
   18374    18557    18698    18927    19053    19043    19134    19260 
   19180    19036    18965    18789    18581    18490    18380    18224 
   18088    18005    17953    17818    17683    17597    17472    17406 
   17344    17210    17177    17154    17091    17187    17284    17227 
   17248    17345    17409    17660    17990    18037    17982    18047 
   18061    17987    17961    17934    17804    17614    17460    17367 
   17219    16984    16809    16649    16466    16348    16209    16046 
   15941    15839    15759    15702    15615    15505    15311    15086 
   14942    14726    14420    14241    14108    13933    13835    13693 
   13446    13338    13368    13384    13467    13670    13865    14014 
   14212    14465    14746    15031    15177    15252    15526    15825 
   15915    16109    16468    16660    16822    17084    17234    17392 
   17665    17895    18089    18247    18340    18398    18378    18392 
   18509    18512    18419    18460    18559    18576    18579    18563 
   18538    18620    18672    18584    18560    18616    18585    18476 
   18424    18467    18491    18488    18443    18252    18066    17969 
   17775    17488    17197    16879    16575    16325    16108    15845 
   15511    15325    15312    15229    15141    15097    15071    15211 
   15312    15268    15427    15690    15806    15964    16179    16324 
   16575    16938    17172    17335    17627    17960    18159    18203 
   18189    18226    18236    18118    18037    17980    17792    17660 
   17642    17597    17603    17603    17547    17593    17681    17696 
   17657    17637    17710    17774    17780    17838    17867    17849 
   17975    18127    18112    18084    18135    18191    18280    18387 
   18405    18450    18676    18907    18978    18977    19024    19112 
   19157    19184    19252    19291    19225    19161    19225    19276 
   19236    19248    19243    19192    19232    19310    19404    19502 
   19557    19701    19887    19955    20005    20095    20078    19906 
   19732    19631    19506    19306    19108    18987    18874    18769 
   18761    18694    18532    18491    18487    18363    18218    18133 
   18126    18137    18087    18001    17863    17671    17461    17169 
   16885    16706    16479    16203    15987    15772    15555    15415 
   15320    15147    14948    14844    14713    14561    14519    14454 
   14339    14324    14351    14348    14358    14369    14371    14431 
   14500    14476    14462    14537    14543    14444    14416    14390 
   14196    14040    14004    13864    13712    13578    13301    13075 
   12972    12828    12718    12637    12522    12470    12519    12623 
   12714    12781    12864    12964    13082    13235    13450    13669 
   13792    13897    14081    14318    14573    14855    15191    15492 
   15772    16190    16612    16894    17165    17460    17763    18110 
   18424    18685    18990    19330    19583    19709    19773    19813 
   19906    20074    20150    20161    20271    20369    20384    20393 
   20356    20297    20309    20342    20324    20292    20304    20316 
   20291    20255    20171    20027    19923    19871    19742    19579 
   19488    19350    19150    19005    18861    18684    18499    18275 
   18034    17804    17574    17319    17031    16753    16507    16234 
   15966    15791    15631    15420    15243    15151    15071    14954 
   14914    15031    15239    15473    15727    15992    16227    16456 
   16771    17117    17388    17649    17973    18300    18601    18942 
   19260    19499    19793    20108    20286    20392    20498    20557 
   20601    20685    20735    20683    20595    20532    20511    20558 
   20563    20469    20429    20419    20341    20267    20220    20124 
   19956    19867    19803    19639    19615    19479    19113    19244 
   19420    18931    18671    18779    18513    18310    18375    18078 
   17643    17588    17549    17189    16883    16768    16493    16209 
   16117    15935    15719    15617    15485    15401    15379    15182 
   14982    15026    14993    14828    14811    14776    14705    14786 
   14782    14631    14558    14455    14275    14201    14149    14050 
   14048    14134    14250    14380    14523    14802    15163    15390 
   15588    15919    16210    16362    16574    16844    16944    17058 
   17352    17483    17472    17620    17794    17886    17953    17998 
   18134    18344    18460    18517    18659    18899    19083    19163 
   19313    19481    19542    19594    19547    19373    19314    19210 
   18979    18985    19026    18819    18756    18861    18791    18744 
   18913    19019    19011    19130    19202    19085    19048    19034 
   18927    18885    18778    18593    18507    18435    18457    18514 
   18396    18395    18599    18666    18635    18864    19244    19409 
   19583    19824    19779    19785    20105    20253    20173    20231 
   20362    20398    20403    20459    20540    20643    20924    21175 
   21188    21342    21647    21858    22129    22489    22816    23114 
   23443    23751    23956    24201    24551    24916    25294    25577 
   25690    25818    26139    26434    26404    26379    26608    26670 
   26592    26596    26373    26085    26022    25753    25253    24984 
   24812    24508    24290    24112    23783    23622    23684    23547 
   23353    23324    23218    23078    22973    22727    22466    22294 
   22096    21838    21458    21066    20828    20586    20235    19807 
   19419    19147    18791    18460    18249    17852    17491    17334 
   17026    16737    16552    16191    15933    15844    15587    15324 
   15225    15165    15124    15080    15053    15086    15078    15040 
   15059    15116    15228    15358    15408    15519    15814    16042 
   16110    16294    16531    16642    16821    17077    17172    17162 
   17294    17571    17751    17799    17860    17972    18160    18373 
   18514    18662    18897    19124    19252    19370    19454    19423 
   19469    19504    19361    19336    19381    19284    19261    19287 
   19204    19149    19136    19053    18921    18829    18744    18601 
   18544    18623    18527    18212    18111    18155    17909    17710 
   17847    17754    17481    17612    17757    17627    17728    17978 
   18004    17980    18059    18113    18070    18022    17916    17719 
   17697    17807    17771    17726    17871    18079    18180    18237 
   18375    18517    18574    18618    18609    18472    18422    18558 
   18614    18569    18596    18650    18731    18863    18947    18925 
   18826    18748    18652    18483    18374    18254    18027    17851 
   17677    17505    17472    17328    17094    17111    17112    16937 
   16932    17068    17157    17241    17306    17321    17372    17459 
   17468    17398    17344    17335    17363    17367    17313    17316 
   17398    17429    17419    17456    17513    17560    17649    17781 
   17824    17829    17946    17998    17936    17961    17930    17761 
   17743    17813    17698    17574    17657    17776    17851    18019 
   18215    18351    18509    18666    18748    18873    19176    19413 
   19356    19366    19536    19517    19539    19740    19735    19600 
   19568    19463    19199    18996    18967    18935    18839    18810 
   18816    18752    18736    18849    18889    18837    18881    18913 
   18818    18717    18647    18582    18463    18230    18016    17930 
   17888    17765    17536    17339    17176    16965    16837    16854 
   16857    16759    16699    16712    16658    16684    16874    16902 
   16823    16959    17062    17030    17209    17367    17268    17309 
   17462    17470    17541    17728    17873    18017    18157    18146 
   17977    17926    18007    17810    17447    17285    17055    16701 
   16574    16464    16158    15999    16029    15898    15727    15888 
   16085    16026    16128    16471    16592    16585    16840    17148 
   17241    17325    17487    17622    17790    17932    17988    18173 
   18333    18194    18149    18333    18305    18109    18010    17921 
   17809    17839    17848    17489    17184    17269    17066    16623 
   16668    16721    16302    16146    16340    16171    15899    15843 
   15638    15415    15375    15344    15234    14962    14833    15010 
   14940    14651    14628    14659    14446    14158    14029    14048 
   14082    14146    14232    14289    14418    14624    14817    15007 
   15233    15392    15356    15420    15796    16116    16239    16338 
   16511    16899    17317    17548    17790    18029    18230    18584 
   18902    19100    19411    19640    19646    19743    19974    20105 
   20161    20300    20547    20731    20758    20846    21051    21162 
   21268    21456    21423    21156    21072    21242    21400    21434 
   21281    21002    20831    20751    20624    20458    20208    19889 
   19629    19431    19205    18937    18604    18177    17806    17572 
   17335    17070    16760    16366    16076    15891    15623    15404 
   15260    15015    14836    14802    14652    14412    14351    14378 
   14277    14179    14177    14135    14063    14045    14077    14111 
   14076    14036    14147    14381    14580    14734    14947    15211 
   15492    15857    16333    16792    17140    17488    17920    18333 
   18705    19077    19423    19750    20037    20310    20583    20714 
   20796    20940    20908    20741    20700    20645    20506    20483 
   20449    20255    20123    20020    19720    19416    19197    18909 
   18691    18481    18125    17944    17893    17615    17328    17234 
   17157    17012    16888    16838    16777    16721    16737    16712 
   16659    16688    16726    16736    16766    16864    17056    17246 
   17383    17537    17694    17859    18076    18267    18390    18470 
   18502    18547    18669    18787    18823    18880    19013    19090 
   19116    19242    19380    19380    19411    19564    19718    19889 
   20032    20138    20364    20574    20662    20806    20958    21046 
   21204    21392    21491    21534    21622    21811    21928    21876 
   21863    21850    21727    21688    21650    21437    21241    21147 
   21045    20883    20643    20419    20270    20108    19930    19736 
   19495    19328    19212    18937    18624    18479    18305    17975 
   17698    17472    17153    16883    16707    16454    16194    16020 
   15825    15636    15517    15397    15247    15123    15098    15095 
   14982    14908    14983    15010    14952    14919    14881    14844 
   14845    14862    14925    15053    15202    15388    15596    15788 
   16029    16244    16365    16572    16854    17080    17333    17621 
   17891    18175    18471    18774    19088    19396    19729    20101 
   20449    20764    21073    21332    21529    21702    21893    22059 
   22104    22114    22148    22134    22192    22294    22235    22162 
   22247    22344    22360    22406    22522    22597    22619    22635 
