Origin Time       2011/03/11 14:46:00
Lat.              38.103
Long.             142.860
Depth. (km)       24
Mag.              9.0
Station Code      AIC013
Station Lat.      34.9335
Station Long.     137.5749
Station Height(m) 80
Record Time       2011/03/11 14:49:02
Sampling Freq(Hz) 100Hz
Duration Time(s)  143
Dir.              N-S
Scale Factor      3920(gal)/6182761
Max. Acc. (gal)   4.358
Last Correction   2011/03/11 14:48:47
Memo.             
[...]
   -9516   -10193   -10961   -11298   -11465   -11660   -11810   -11858 
  -11482   -10799   -10606   -10846   -10692   -10251   -10269   -10665 
  -10864   -10894   -10985   -11015   -11062   -11277   -11226   -10669 
  -10236   -10155    -9808    -9215    -8972    -8998    -8883    -8709 
   -8740    -8943    -9189    -9419    -9525    -9506    -9424    -9232 
   -9029    -8935    -8727    -8449    -8411    -8428    -8286    -7998 
   -7725    -7830    -8002    -7876    -7868    -7934    -7900    -8095 
   -8317    -8332    -8425    -8546    -8607    -8841    -9001    -8715 
   -8408    -8571    -8924    -8902    -8618    -8541    -8385    -8006 
   -7855    -7805    -7736    -7821    -7798    -7592    -7495    -7534 
   -7517    -7408    -7278    -7080    -6931    -6981    -7009    -6878 
   -6742    -6675    -6704    -6853    -7006    -7174    -7477    -7811 
   -8174    -8658    -9007    -9182    -9368    -9337    -9201    -9361 
   -9502    -9441    -9549    -9872   -10237   -10582   -10764   -10768 
  -10834   -10847   -10498   -10179   -10186   -10038    -9815    -9923 
   -9965    -9890   -10194   -10633   -10802   -10878   -11085   -11304 
  -11097   -10593   -10438   -10438   -10192    -9906    -9735    -9675 
   -9753    -9964   -10081   -10148   -10437   -10641   -10693   -10863 
  -10986   -10956   -10864   -10784   -10536   -10110    -9921    -9770 
   -9436    -9245    -9229    -9395    -9658    -9694    -9766   -10220 
  -10672   -10835   -10880   -10871   -10901   -10968   -10806   -10493 
  -10323   -10256   -10239   -10406   -10603   -10753   -11135   -11460 
  -11442   -11525   -11782   -11911   -11889   -11854   -11960   -12103 
  -12087   -11939   -11851   -11901   -11812   -11556   -11515   -11649 
  -11662   -11574   -11529   -11455   -11165   -10784   -10521   -10269 
  -10029    -9924    -9886    -9817    -9592    -9290    -9223    -9210 
   -8853    -8429    -8356    -8337    -8095    -7909    -7793    -7670 
   -7676    -7719    -7819    -8022    -8204    -8433    -8594    -8474 
   -8359    -8543    -8712    -8614    -8634    -8854    -8964    -9115 
   -9307    -9298    -9338    -9511    -9590    -9607    -9664    -9959 
  -10520   -10813   -10633   -10641   -10950   -10831   -10358    -9945 
   -9466    -9104    -8935    -8615    -8187    -7911    -7928    -8022 
   -7767    -7371    -7312    -7378    -7164    -6841    -6737    -6782 
   -6755    -6594    -6480    -6559    -6664    -6681    -6647    -6526 
   -6477    -6589    -6522    -6170    -5900    -5779    -5499    -5124 
   -4921    -4810    -4872    -5251    -5600    -5863    -6406    -7045 
   -7439    -7752    -8156    -8561    -8973    -9405    -9664    -9895 
  -10391   -10828   -11001   -11281   -11625   -11655   -11546   -11512 
  -11306   -10974   -10756   -10418    -9777    -9154    -8822    -8584 
   -8249    -7975    -7771    -7582    -7596    -7748    -7769    -7858 
   -8156    -8185    -8048    -8227    -8305    -8288    -8588    -8660 
   -8461    -8505    -8458    -8224    -8178    -8154    -8011    -8024 
   -8207    -8351    -8591    -9120    -9717   -10076   -10146   -10086 
  -10017    -9859    -9597    -9412    -9385    -9360    -9213    -9019 
   -8877    -8825    -8740    -8491    -8393    -8537    -8564    -8658 
   -8991    -9156    -9172    -9341    -9457    -9303    -9128    -9124 
   -9018    -8712    -8593    -8520    -8154    -7975    -7922    -7429 
   -7055    -7054    -6833    -6570    -6495    -6391    -6348    -6365 
   -6313    -6339    -6501    -6596    -6549    -6545    -6586    -6484 
   -6332    -6241    -6037    -5758    -5608    -5493    -5430    -5580 
   -5649    -5449    -5352    -5546    -5900    -6308    -6564    -6647 
   -6932    -7409    -7768    -8128    -8527    -8842    -9173    -9539 
   -9867   -10075   -10197   -10334   -10291   -10137   -10105    -9902 
   -9505    -9204    -8875    -8416    -7919    -7478    -7142    -6796 
   -6502    -6316    -6050    -5853    -5880    -5856    -5741    -5655 
   -5525    -5406    -5318    -5171    -5078    -5089    -5180    -5459 
   -5795    -6054    -6453    -6968    -7356    -7702    -8097    -8465 
   -8804    -9085    -9234    -9313    -9410    -9339    -9059    -8986 
   -9160    -9180    -9067    -9047    -9108    -9286    -9556    -9681 
   -9643    -9655    -9759    -9746    -9491    -9133    -8755    -8368 
   -8074    -7813    -7510    -7287    -7064    -6657    -6257    -5951 
   -5431    -4920    -4817    -4656    -4331    -4476    -4797    -4690 
   -4528    -4645    -4727    -4690    -4831    -5081    -5306    -5791 
   -6423    -6783    -7118    -7656    -8067    -8386    -8908    -9415 
   -9742   -10177   -10683   -10971   -11207   -11587   -11846   -11845 
  -11755   -11600   -11410   -11314   -11207   -11038   -11007   -10995 
  -10738   -10447   -10325   -10204   -10018    -9886    -9771    -9537 
   -9335    -9274    -9132    -9009    -9155    -9344    -9490    -9751 
   -9980   -10057   -10160   -10278   -10135    -9859    -9767    -9660 
   -9442    -9314    -9163    -8850    -8488    -8201    -7947    -7596 
   -7211    -6896    -6665    -6589    -6535    -6328    -6131    -6041 
   -5980    -5957    -5995    -6058    -6121    -6203    -6244    -6187 
   -6081    -5945    -5807    -5689    -5593    -5611    -5760    -6025 
   -6416    -6787    -7053    -7273    -7534    -7937    -8312    -8496 
   -8718    -9053    -9267    -9411    -9708   -10037   -10120   -10009 
   -9877    -9737    -9776   -10086   -10312   -10522   -10917   -10984 
  -10886   -11272   -11360   -10857   -11035   -11561   -11113   -10618 
  -11022   -10911   -10034   -10214   -10833   -10245    -9962   -10737 
  -10492    -9585    -9923   -10438   -10291   -10756   -11551   -11609 
  -11338   -11114   -10741   -10407   -10532   -10735   -10303    -9864 
  -10101   -10230    -9916    -9762    -9887    -9916    -9694    -9584 
   -9667    -9673    -9818    -9936    -9750    -9807   -10121   -10177 
   -9962    -9844   -10222   -10826   -11132   -11131   -11134   -11497 
  -11958   -12031   -12074   -12406   -12496   -12137   -11907   -12043 
  -12219   -12216   -11995   -11759   -11736   -11718   -11459   -11177 
  -11163   -11033   -10438    -9894    -9646    -9514    -9413    -9044 
   -8488    -8095    -7756    -7371    -6965    -6523    -6323    -6414 
   -6473    -6601    -6958    -7520    -8172    -8608    -8924    -9234 
   -9466    -9681    -9582    -9328    -9440    -9555    -9375    -9138 
   -8862    -8517    -8221    -8066    -7977    -7841    -7659    -7545 
   -7619    -7640    -7476    -7454    -7400    -7014    -6762    -6848 
   -6740    -6408    -6472    -6779    -6709    -6499    -6503    -6547 
   -6518    -6642    -6989    -7159    -7238    -7572    -7648    -7399 
   -7514    -7695    -7632    -7881    -8135    -7868    -7682    -7820 
   -8044    -8342    -8442    -8312    -8213    -8226    -8005    -7363 
   -7257    -7593    -7326    -7275    -7615    -7381    -7226    -7436 
   -7365    -7396    -7653    -7483    -7229    -7425    -7528    -7774 
   -8603    -8876    -8496    -8573    -8801    -8622    -8468    -8591 
   -8615    -8310    -8039    -8091    -8189    -7976    -7444    -6896 
   -6617    -6392    -6079    -6136    -6622    -7079    -7372    -7624 
   -7988    -8309    -8155    -7920    -8225    -8439    -8282    -8481 
   -8735    -8741    -9335   -10230   -10437   -10460   -10829   -10976 
  -10891   -10955   -10990   -11093   -11225   -11065   -11062   -11261 
  -11210   -11346   -11772   -11922   -11873   -11847   -11911   -12093 
  -12198   -12435   -12862   -12931   -12732   -12537   -12086   -11540 
  -11066   -10512   -10155    -9847    -9140    -8584    -8629    -8734 
   -8475    -8272    -8483    -8580    -8307    -8195    -8262    -8069 
   -7777    -7754    -7903    -7983    -8021    -8248    -8543    -8705 
   -8968    -9236    -9291    -9402    -9411    -9180    -9309    -9798 
  -10000    -9932    -9897    -9836    -9753    -9673    -9446    -9142 
   -8924    -8830    -8863    -8901    -8902    -8978    -9034    -8980 
   -9013    -9029    -8849    -8850    -8907    -8659    -8708    -9032 
   -8907    -8799    -9213    -9524    -9540    -9742    -9910    -9729 
   -9497    -9223    -8917    -8880    -8892    -8781    -8855    -9027 
   -8953    -8895    -9132    -9177    -8892    -8754    -8642    -8584 
   -8863    -8844    -8240    -7683    -7457    -7325    -7006    -6718 
   -6675    -6452    -6148    -6369    -6944    -7230    -7131    -7227 
   -7582    -7475    -6993    -6774    -6687    -6513    -6256    -5974 
   -6063    -6332    -6220    -5986    -5896    -5808    -5620    -5282 
   -5072    -5217    -5348    -5106    -4858    -5050    -5014    -4332 
   -4102    -4541    -4586    -4371    -4536    -4739    -4762    -4861 
   -5072    -5340    -5599    -5825    -6112    -6513    -7045    -7348 
   -7203    -7170    -7344    -7220    -6955    -7009    -7230    -7323 
   -7460    -7650    -7631    -7568    -7668    -7747    -7913    -8418 
   -8917    -9171    -9358    -9530    -9718    -9909   -10125   -10440 
  -10656   -10790   -11180   -11777   -12330   -12688   -12873   -13294 
  -13786   -13636   -13275   -13440   -13660   -13508   -13293   -13073 
  -12824   -12965   -13379   -13311   -12905   -12789   -12686   -12329 
  -12097   -11997   -11832   -11772   -11789   -11886   -12165   -12298 
  -12441   -12804   -12774   -12679   -13001   -12825   -12448   -12842 
  -13048   -12721   -12786   -12689   -11900   -11368   -11276   -10821 
  -10154    -9962    -9901    -9473    -8904    -8548    -8662    -8780 
   -8312    -7730    -7303    -6972    -7138    -7376    -7113    -7069 
   -7508    -7671    -7511    -7421    -7392    -7419    -7502    -7602 
   -7803    -8040    -8196    -8079    -7318    -6227    -5845    -6259 
   -6372    -6111    -6420    -6834    -6496    -6102    -6105    -6301 
   -7137    -7987    -7963    -8057    -8151    -7393    -6937    -7529 
   -8610    -9216    -8708    -8096    -7799    -7486    -7793    -7903 
   -7340    -7896    -9316    -9643    -8843    -8387    -8814    -8954 
   -8404    -8031    -7825    -7666    -7768    -7541    -7181    -7644 
   -8128    -7916    -7750    -7511    -7122    -7055    -6860    -6701 
   -6860    -6576    -6041    -6018    -6341    -6534    -6580    -6720 
   -6914    -6978    -6956    -7035    -7172    -7325    -7591    -7736 
   -7826    -8236    -8641    -8742    -8781    -8623    -8259    -8247 
   -8295    -7935    -8110    -8934    -8887    -8149    -8171    -8623 
   -8601    -8311    -8169    -8199    -8179    -8257    -8527    -8188 
   -7267    -7061    -7449    -7090    -6116    -5453    -5126    -4825 
   -4305    -3712    -3375    -3011    -2541    -2394    -2502    -2490 
   -2630    -3028    -3018    -2868    -3417    -3947    -3777    -4003 
   -4782    -4947    -4685    -4990    -5993    -6700    -6603    -6616 
   -7027    -7337    -7621    -7903    -7919    -7874    -7951    -7887 
   -7834    -7985    -7907    -7573    -7418    -7506    -7754    -8063 
   -8253    -8281    -8487    -9100    -9618    -9733    -9630    -9478 
   -9568    -9684    -9574    -9550    -9363    -8903    -8624    -8364 
   -7868    -7422    -7295    -7308    -7054    -6717    -6614    -6471 
   -6283    -6185    -5831    -5248    -4832    -4588    -4403    -4306 
   -4310    -4485    -4764    -4864    -4733    -4641    -4830    -5077 
   -5211    -5609    -6120    -6196    -6192    -6679    -7252    -7321 
   -7146    -7162    -7328    -7577    -7942    -8203    -8132    -8089 
   -8392    -8585    -8543    -8712    -9017    -9191    -9281    -9417 
   -9569    -9563    -9426    -9193    -9055    -9371    -9862   -10311 
  -10880   -11273   -11432   -11562   -11530   -11402   -11218   -10967 
  -10865   -10853   -10980   -11297   -11296   -10870   -10572   -10662 
  -10991   -11361   -11590   -11696   -11867   -12111   -12359   -12575 
  -12594   -12386   -12162   -11959   -11652   -11375   -11305   -11159 
  -10876   -10958   -11289   -11533   -11892   -12158   -12072   -11969 
  -12109   -12354   -12372   -12250   -12461   -12783   -12799   -12899 
  -13170   -13156   -13123   -13419   -13663   -13621   -13652   -14042 
  -14317   -13951   -13448   -13421   -13546   -13355   -12980   -12684 
  -12320   -11787   -11333   -10957   -10546   -10336   -10298   -10239 
  -10340   -10625   -10912   -11061   -10972   -10822   -10729   -10572 
  -10386   -10172    -9706    -9062    -8645    -8524    -8290    -7565 
   -6780    -6693    -6788    -6282    -5790    -5715    -5418    -4779 
   -4241    -3921    -3600    -3120    -2775    -2768    -2786    -2761 
   -2930    -3279    -3673    -4051    -4371    -4692    -5158    -5616 
   -5862    -6002    -6092    -6221    -6431    -6463    -6354    -6337 
   -6409    -6456    -6349    -6387    -6860    -7287    -7448    -7889 
   -8644    -9233    -9579    -9641    -9436    -9149    -8660    -8187 
   -8004    -7681    -7228    -7082    -7145    -7225    -7216    -7079 
   -7074    -7319    -7718    -8109    -8366    -8823    -9450    -9570 
   -9409    -9599    -9793    -9579    -9261    -9226    -9299    -9142 
   -8985    -8998    -8967    -8960    -9182    -9521    -9647    -9575 
   -9628    -9684    -9662    -9964   -10577   -11207   -11888   -12585 
  -13177   -13761   -14274   -14530   -14730   -14934   -14911   -14837 
  -14834   -14687   -14457   -14324   -14233   -14018   -13791   -13822 
  -13921   -13965   -14245   -14648   -14908   -15039   -14967   -14835 
  -15057   -15573   -15892   -15835   -15698   -15729   -15800   -15658 
  -15241   -14736   -14335   -14088   -13863   -13429   -12867   -12367 
  -11940   -11655   -11438   -11148   -10963   -11034   -11120   -10915 
  -10497   -10008    -9464    -9095    -8730    -7912    -7162    -6998 
   -6822    -6408    -6231    -6191    -5907    -5490    -5187    -4876 
   -4467    -4159    -3972    -3873    -3920    -3980    -4062    -4271 
   -4386    -4351    -4413    -4405    -4092    -3760    -3545    -3474 
   -3682    -3789    -3730    -4024    -4516    -4865    -5204    -5649 
   -6191    -6671    -6958    -7191    -7559    -8081    -8552    -8804 
   -8992    -9368    -9942   -10416   -10607   -10833   -11243   -11518 
  -11643   -11845   -11925   -11635   -11280   -11289   -11528   -11433 
  -10991   -10841   -11034   -11123   -11180   -11326   -11385   -11406 
  -11414   -11227   -10939   -10701   -10291    -9673    -9156    -8671 
   -8023    -7333    -6701    -6207    -5737    -5117    -4721    -4675 
   -4516    -4379    -4570    -4691    -4517    -4317    -4219    -4113 
   -3915    -3753    -3626    -3466    -3544    -3717    -3554    -3357 
   -3382    -3361    -3219    -3057    -2975    -3019    -3172    -3382 
   -3512    -3706    -4124    -4457    -4609    -4876    -5260    -5556 
   -5737    -5929    -6221    -6604    -7005    -7259    -7371    -7565 
   -7684    -7495    -7374    -7556    -7711    -7768    -7914    -8057 
   -8129    -8356    -8582    -8465    -8386    -8596    -8671    -8589 
   -8489    -8254    -8197    -8413    -8449    -8527    -8999    -9484 
   -9798   -10076   -10412   -10832   -10994   -10794   -10555   -10296 
   -9936    -9480    -8938    -8475    -8226    -8117    -7894    -7534 
   -7348    -7300    -7182    -7035    -6856    -6727    -6824    -6961 
   -6967    -7019    -7060    -6931    -6758    -6552    -6300    -6137 
   -6121    -6198    -6263    -6437    -6798    -7023    -7051    -7142 
   -7294    -7310    -7180    -7054    -6828    -6442    -6231    -6219 
   -6140    -6100    -6145    -6143    -6331    -6795    -7143    -7340 
   -7651    -7924    -8008    -8150    -8405    -8608    -8786    -8964 
   -9122    -9287    -9353    -9331    -9415    -9554    -9574    -9513 
   -9456    -9352    -9112    -8802    -8566    -8401    -8168    -7813 
   -7485    -7308    -7186    -7096    -7149    -7316    -7467    -7502 
   -7456    -7515    -7656    -7704    -7726    -7825    -7951    -8116 
   -8347    -8484    -8450    -8423    -8457    -8465    -8496    -8544 
   -8503    -8436    -8470    -8546    -8528    -8395    -8243    -8153 
   -8090    -8042    -8133    -8338    -8421    -8433    -8651    -8947 
   -9111    -9271    -9432    -9531    -9670    -9809    -9764    -9510 
   -9282    -9185    -8988    -8729    -8716    -8818    -8738    -8692 
   -8881    -9041    -9159    -9429    -9624    -9612    -9639    -9696 
   -9601    -9526    -9541    -9453    -9341    -9277    -9158    -9058 
   -9038    -9065    -9163    -9333    -9505    -9635    -9753    -9897 
  -10042   -10128   -10163   -10145   -10091   -10158   -10296   -10328 
  -10447   -10738   -10919   -10899   -10803   -10715   -10576   -10303 
   -9983    -9607    -9157    -8900    -8848    -8647    -8327    -8080 
   -7784    -7498    -7362    -7209    -6964    -6657    -6312    -6084 
   -6058    -6125    -6062    -5878    -5813    -5862    -6010    -6284 
   -6443    -6526    -6784    -7117    -7428    -7786    -8140    -8410 
   -8664    -8937    -9049    -8977    -8966    -8987    -8896    -8840 
   -8816    -8721    -8706    -8754    -8651    -8443    -8291    -8112 
   -7721    -7217    -6829    -6480    -6122    -5975    -5987    -5957 
   -6014    -6242    -6437    -6451    -6329    -6171    -6076    -6108 
   -6165    -6116    -6060    -6100    -6079    -5897    -5722    -5598 
   -5347    -5071    -5068    -5225    -5315    -5435    -5599    -5724 
   -5874    -5983    -5955    -5937    -6034    -6159    -6348    -6722 
   -7161    -7638    -8282    -8899    -9317    -9692   -10072   -10342 
  -10485   -10519   -10480   -10510   -10602   -10566   -10367   -10182 
  -10197   -10341   -10380   -10352   -10361   -10386   -10553   -10847 
  -10982   -10977   -10984   -10920   -10873   -10889   -10712   -10503 
  -10586   -10698   -10636   -10626   -10726   -10883   -11076   -11161 
  -11143   -11159   -11182   -11227   -11315   -11339   -11381   -11571 
  -11782   -11961   -12192   -12400   -12475   -12399   -12272   -12262 
  -12279   -12153   -12073   -12174   -12277   -12307   -12275   -12159 
  -12020   -11884   -11723   -11540   -11307   -11033   -10832   -10774 
  -10727   -10573   -10482   -10560   -10647   -10685   -10733   -10807 
  -10933   -11157   -11424   -11624   -11846   -12156   -12415   -12621 
  -12812   -12841   -12688   -12520   -12341   -12078   -11767   -11462 
  -11210   -11030   -10905   -10845   -10815   -10805   -10896   -11050 
  -11150   -11254   -11361   -11387   -11475   -11576   -11412   -11164 
  -11027   -10894   -10869   -10989   -10992   -10820   -10711   -10828 
  -10982   -10980   -10973   -10900   -10556   -10225   -10065    -9815 
   -9460    -9100    -8686    -8278    -7978    -7754    -7503    -7261 
   -7128    -7052    -7046    -7126    -7115    -7017    -6947    -6842 
   -6681    -6521    -6365    -6275    -6401    -6670    -6753    -6592 
   -6431    -6260    -5947    -5677    -5565    -5376    -5171    -5235 
   -5350    -5305    -5314    -5310    -5157    -5089    -5151    -5173 
   -5155    -5194    -5306    -5360    -5351    -5417    -5410    -5233 
   -5147    -5264    -5488    -5702    -5822    -6011    -6293    -6471 
   -6648    -6885    -7049    -7176    -7366    -7682    -8045    -8304 
   -8485    -8638    -8765    -8881    -9044    -9375    -9748    -9997 
  -10324   -10644   -10578   -10325   -10219   -10104    -9932    -9867 
