Origin Time       2011/03/11 14:46:00
Lat.              38.103
Long.             142.860
Depth. (km)       24
Mag.              9.0
Station Code      AIC010
Station Lat.      34.9760
Station Long.     137.4236
Station Height(m) 525
Record Time       2011/03/11 14:48:09
Sampling Freq(Hz) 100Hz
Duration Time(s)  234
Dir.              N-S
Scale Factor      3920(gal)/6182761
Max. Acc. (gal)   15.524
Last Correction   2011/03/11 14:47:54
Memo.             
[...]
  -50601   -50508   -50315   -50000   -49571   -49029   -48351   -47597 
  -46754   -45767   -44769   -43891   -43040   -42064   -40956   -39786 
  -38620   -37581   -36765   -36180   -35795   -35565   -35447   -35322 
  -35078   -34799   -34659   -34736   -35034   -35480   -35985   -36518 
  -37004   -37419   -37830   -38185   -38486   -38840   -39262   -39796 
  -40516   -41378   -42251   -43121   -44080   -45140   -46279   -47403 
  -48366   -49078   -49458   -49597   -49674   -49613   -49310   -48787 
  -48105   -47369   -46628   -45877   -45024   -43969   -42843   -41795 
  -40761   -39609   -38393   -37282   -36246   -35265   -34514   -33959 
  -33356   -32698   -32199   -31921   -31829   -31940   -32225   -32692 
  -33430   -34419   -35511   -36571   -37562   -38599   -39801   -41014 
  -42011   -42798   -43387   -43802   -44197   -44594   -44911   -45162 
  -45377   -45541   -45608   -45571   -45475   -45281   -44908   -44431 
  -43942   -43367   -42730   -42214   -41795   -41364   -40980   -40642 
  -40231   -39746   -39293   -38938   -38645   -38368   -38179   -38070 
  -37940   -37851   -37896   -38017   -38159   -38325   -38476   -38629 
  -38840   -39061   -39254   -39481   -39872   -40526   -41335   -42197 
  -43155   -44185   -45217   -46184   -47002   -47663   -48221   -48701 
  -49154   -49633   -50022   -50185   -50242   -50259   -50097   -49749 
  -49263   -48611   -47854   -47064   -46282   -45484   -44526   -43453 
  -42455   -41499   -40515   -39599   -38804   -38053   -37324   -36664 
  -36052   -35475   -34970   -34582   -34309   -34058   -33783   -33483 
  -33187   -33011   -33083   -33456   -34013   -34665   -35478   -36398 
  -37284   -38145   -39085   -40104   -41143   -42259   -43460   -44654 
  -45839   -47036   -48158   -49158   -50128   -51143   -52257   -53407 
  -54353   -55055   -55594   -55901   -55981   -55940   -55777   -55439 
  -54923   -54195   -53192   -51981   -50607   -49055   -47439   -45897 
  -44427   -42879   -41141   -39353   -37650   -35976   -34400   -33119 
  -32126   -31325   -30786   -30512   -30378   -30359   -30533   -31032 
  -31899   -33029   -34388   -35922   -37460   -38981   -40523   -41952 
  -43165   -44206   -45143   -46028   -46816   -47395   -47806   -48133 
  -48349   -48513   -48666   -48692   -48557   -48318   -47963   -47485 
  -46921   -46303   -45595   -44719   -43693   -42607   -41507   -40435 
  -39511   -38744   -37989   -37267   -36682   -36170   -35660   -35245 
  -35088   -35242   -35680   -36391   -37347   -38470   -39618   -40689 
  -41665   -42514   -43319   -44181   -44979   -45651   -46304   -46942 
  -47437   -47729   -47909   -48031   -48027   -47903   -47789   -47727 
  -47698   -47757   -47866   -47856   -47678   -47424   -47149   -46800 
  -46394   -46101   -45924   -45615   -45159   -44820   -44659   -44588 
  -44634   -44777   -44872   -44836   -44648   -44298   -43859   -43424 
  -43031   -42733   -42523   -42352   -42267   -42234   -42114   -41932 
  -41704   -41343   -40909   -40533   -40245   -40020   -39867   -39799 
  -39708   -39506   -39289   -39136   -39032   -39070   -39345   -39779 
  -40260   -40763   -41318   -41885   -42369   -42845   -43415   -44006 
  -44543   -44999   -45337   -45567   -45704   -45725   -45618   -45387 
  -45047   -44694   -44439   -44304   -44276   -44321   -44392   -44459 
  -44526   -44574   -44461   -44128   -43700   -43241   -42743   -42322 
  -42194   -42382   -42627   -42758   -42840   -42835   -42666   -42470 
  -42276   -41964   -41624   -41444   -41487   -41704   -42092   -42616 
  -43129   -43614   -44112   -44541   -44863   -45080   -45166   -45094 
  -44918   -44749   -44667   -44694   -44733   -44710   -44667   -44545 
  -44318   -44121   -43974   -43745   -43386   -43019   -42739   -42504 
  -42332   -42249   -42119   -41834   -41471   -41095   -40702   -40352 
  -40122   -40011   -39918   -39762   -39557   -39288   -38918   -38588 
  -38423   -38269   -38061   -37902   -37763   -37616   -37472   -37283 
  -37103   -37026   -37060   -37199   -37429   -37690   -38002   -38441 
  -38915   -39299   -39680   -40184   -40747   -41302   -41959   -42724 
  -43451   -44166   -44964   -45739   -46406   -47069   -47722   -48278 
  -48792   -49254   -49541   -49615   -49446   -49014   -48368   -47418 
  -46151   -44800   -43433   -42038   -40744   -39571   -38451   -37364 
  -36285   -35263   -34403   -33716   -33248   -33094   -33163   -33330 
  -33601   -33932   -34287   -34746   -35283   -35804   -36355   -36948 
  -37507   -38037   -38581   -39216   -40013   -40974   -42073   -43271 
  -44465   -45518   -46430   -47284   -48020   -48646   -49247   -49756 
  -50046   -50061   -49870   -49566   -49106   -48459   -47717   -46943 
  -46162   -45486   -44948   -44436   -43893   -43260   -42514   -41748 
  -41015   -40374   -39862   -39408   -39038   -38841   -38713   -38556 
  -38483   -38561   -38791   -39274   -39991   -40734   -41340   -41808 
  -42244   -42691   -43030   -43235   -43417   -43458   -43314   -43245 
  -43250   -43209   -43191   -43178   -43156   -43194   -43352   -43706 
  -44185   -44617   -44953   -45258   -45539   -45685   -45655   -45409 
  -44835   -43972   -42871   -41550   -40190   -39008   -38122   -37404 
  -36645   -35957   -35456   -35030   -34698   -34507   -34339   -34125 
  -33890   -33626   -33244   -32739   -32269   -31838   -31381   -31065 
  -31004   -31141   -31438   -31918   -32603   -33445   -34492   -35885 
  -37571   -39374   -41151   -42790   -44279   -45599   -46727   -47729 
  -48648   -49452   -50091   -50585   -50958   -51114   -51024   -50792 
  -50442   -49951   -49346   -48548   -47442   -46097   -44664   -43143 
  -41465   -39686   -37843   -35912   -34041   -32351   -30831   -29548 
  -28580   -28009   -27887   -28051   -28365   -28875   -29544   -30178 
  -30675   -31186   -31829   -32552   -33318   -34131   -34966   -35772 
  -36630   -37681   -38807   -39926   -41220   -42641   -44024   -45394 
  -46610   -47488   -48115   -48583   -48948   -49183   -49163   -48961 
  -48686   -48265   -47758   -47322   -46787   -45967   -45061   -44319 
  -43772   -43515   -43607   -43804   -44103   -44480   -44725   -44911 
  -44998   -45122   -45223   -44853   -44539   -44517   -44093   -43495 
  -43116   -42665   -42260   -42185   -42083   -41571   -41042   -40776 
  -40349   -39726   -39270   -39069   -38937   -38721   -38696   -38827 
  -38768   -38913   -39523   -40104   -40441   -40908   -41819   -42739 
  -43251   -43837   -44570   -44889   -45009   -45205   -45018   -44481 
  -44061   -43629   -43083   -42518   -41855   -41411   -41315   -41154 
  -40979   -41030   -41152   -41116   -40999   -41158   -41456   -41512 
  -41529   -41622   -41526   -41296   -41219   -41208   -41110   -41141 
  -41377   -41682   -42055   -42565   -43143   -43536   -43820   -44129 
  -44216   -44313   -44742   -45054   -45074   -45083   -44919   -44418 
  -43847   -43228   -42456   -41832   -41300   -40611   -40088   -39726 
  -39297   -39090   -39138   -39096   -38787   -38533   -38796   -39018 
  -38692   -38623   -39060   -39313   -39392   -39783   -40473   -41043 
  -41402   -41917   -42575   -43023   -43415   -43989   -44462   -44582 
  -44696   -44995   -44981   -44657   -44303   -43850   -43674   -43614 
  -43049   -42372   -41776   -41135   -40879   -40720   -40156   -39672 
  -39474   -39096   -38589   -38405   -38497   -38546   -38351   -38022 
  -38095   -38403   -38360   -38446   -38955   -39371   -39635   -39989 
  -40604   -41351   -41871   -42388   -42993   -43334   -43654   -43959 
  -43906   -43804   -43648   -43468   -43772   -44130   -44273   -44656 
  -44919   -44893   -45141   -45397   -45317   -45441   -45725   -45714 
  -45700   -45850   -45914   -45666   -45163   -44984   -45072   -44715 
  -44237   -44138   -43985   -43761   -43789   -43809   -43752   -43921 
  -44191   -43924   -43126   -42696   -42639   -42375   -42072   -41842 
  -41626   -41343   -41064   -41147   -40929   -39909   -39165   -39189 
  -39199   -38804   -38586   -38689   -38368   -37764   -37394   -37017 
  -36623   -36242   -35799   -35551   -35345   -34933   -34695   -34682 
  -34390   -34064   -34192   -34187   -33811   -33829   -34143   -34141 
  -33974   -34048   -34550   -34958   -34996   -35513   -36488   -37172 
  -37853   -38791   -39695   -40546   -41409   -42346   -43392   -44366 
  -45120   -45559   -45701   -45742   -45554   -44958   -44304   -43583 
  -42587   -41856   -41455   -40918   -40413   -39817   -38757   -37937 
  -37825   -37488   -36703   -36292   -36085   -35902   -36267   -36929 
  -37539   -38197   -38852   -39770   -40880   -41709   -42706   -44103 
  -45082   -45744   -46958   -48267   -48949   -49400   -49875   -50337 
  -50890   -51301   -51635   -52105   -52148   -51606   -51228   -50988 
  -50205   -49012   -47778   -46480   -45171   -43956   -42895   -41675 
  -40096   -39043   -38810   -38233   -37228   -36700   -36401   -36087 
  -36327   -36982   -37378   -37604   -38236   -39161   -39753   -40096 
  -40612   -41061   -41263   -41610   -42041   -42308   -42605   -42823 
  -42965   -43247   -43586   -44201   -44871   -44936   -44774   -44973 
  -45230   -45103   -44898   -44941   -44859   -44610   -44380   -43975 
  -43569   -43386   -43418   -44004   -45090   -46036   -46787   -47749 
  -48698   -49239   -49735   -50214   -50222   -50068   -49949   -49720 
  -49646   -49669   -49564   -49468   -49437   -49340   -48961   -48257 
  -47529   -46938   -46375   -45807   -44901   -43497   -42161   -40879 
  -39540   -38503   -37371   -36058   -35122   -34318   -33608   -33311 
  -33036   -32717   -32583   -32326   -31991   -32026   -32429   -33063 
  -34005   -35054   -36048   -37126   -37934   -38237   -38528   -38877 
  -39004   -39073   -39242   -39477   -39809   -40241   -40563   -40675 
  -40808   -40849   -40592   -40492   -40866   -41229   -41248   -41346 
  -41679   -41830   -42114   -42995   -43672   -43660   -43562   -43715 
  -44205   -44488   -43966   -43672   -43751   -43158   -43114   -44025 
  -43682   -42657   -43056   -43565   -43159   -43554   -44512   -44469 
  -43992   -43517   -43014   -43281   -43726   -43003   -41765   -41233 
  -40889   -40039   -39444   -39486   -38849   -37151   -36262   -35962 
  -34462   -33613   -34753   -35258   -34579   -34851   -35714   -35515 
  -34921   -35645   -37799   -39815   -40343   -40016   -40959   -43098 
  -43535   -42615   -42986   -43276   -42495   -42673   -43148   -42622 
  -42181   -41765   -41241   -41795   -42696   -42678   -42104   -40802 
  -39433   -39302   -39046   -38565   -39249   -39491   -38813   -38768 
  -38725   -38030   -37659   -38169   -39123   -40095   -40823   -41058 
  -41250   -41493   -41581   -42351   -43546   -43847   -43905   -44794 
  -45638   -45779   -45577   -44773   -43927   -44001   -43616   -42243 
  -41816   -42009   -40783   -38793   -37902   -37848   -37390   -36654 
  -36448   -36510   -36214   -35862   -35531   -34761   -34212   -34364 
  -34390   -34301   -34399   -34502   -35156   -36052   -36520   -37313 
  -38386   -39163   -39688   -39837   -40548   -42129   -43115   -43936 
  -45586   -46966   -47928   -49301   -50338   -50777   -51713   -53069 
  -54090   -54834   -55450   -55796   -55720   -55288   -54603   -53407 
  -51727   -50060   -48575   -47190   -45780   -44165   -42527   -41132 
  -39722   -38175   -36931   -36078   -35218   -34508   -34392   -34603 
  -34936   -35566   -36134   -36434   -36950   -37936   -39192   -40514 
  -41951   -43396   -44440   -45233   -46305   -47811   -49565   -51104 
  -52006   -52358   -52570   -52758   -52824   -52679   -51888   -50726 
  -50211   -49939   -49178   -48397   -47637   -46744   -46210   -46030 
  -45600   -44416   -42627   -41002   -39720   -38218   -36088   -33540 
  -31340   -29925   -28961   -28076   -27375   -27266   -27747   -28285 
  -28783   -29586   -30713   -31868   -32947   -34393   -36358   -38201 
  -39882   -41752   -43489   -45105   -47066   -49136   -50562   -51182 
  -51569   -52110   -52692   -53075   -53460   -54058   -53983   -52696 
  -51262   -50178   -48632   -46772   -45447   -44113   -42205   -40289 
  -38397   -36498   -35121   -33982   -32501   -30836   -29345   -28168 
  -27169   -26299   -25650   -24912   -24119   -23999   -24606   -25332 
  -25990   -26852   -28099   -29532   -31130   -32964   -34656   -36436 
  -38885   -41427   -43521   -45571   -47617   -49330   -50770   -52102 
  -53309   -54337   -55314   -56259   -56705   -56417   -55959   -55565 
  -54893   -54102   -53281   -52169   -50830   -49406   -48055   -47020 
  -46367   -45578   -44058   -42308   -41059   -40142   -39003   -37336 
  -35629   -34792   -34535   -33778   -32706   -32210   -32264   -32433 
  -32511   -32476   -32712   -33524   -34548   -35456   -36746   -38804 
  -40827   -42234   -43763   -45774   -47564   -48834   -49911   -50774 
  -51154   -51344   -51866   -52336   -52055   -51157   -50226   -49362 
  -48229   -47088   -46193   -44952   -43303   -41677   -39850   -37850 
  -36157   -34578   -32806   -31160   -29678   -28071   -26453   -24860 
  -23249   -22035   -21260   -20468   -19857   -19922   -20399   -20975 
  -22075   -23850   -25941   -28410   -31267   -34118   -36864   -39628 
  -42626   -46040   -49606   -52975   -56049   -58765   -60854   -62223 
  -63291   -64151   -64747   -65417   -65884   -65810   -65503   -64852 
  -63700   -62260   -60363   -57855   -54913   -51695   -48381   -45196 
  -42411   -40131   -37955   -35669   -33625   -31673   -29142   -26291 
  -24105   -22625   -21204   -19848   -18827   -18062   -17566   -17461 
  -17488   -17463   -17835   -18775   -19846   -21100   -22744   -24595 
  -26672   -28929   -31212   -33631   -36065   -38392   -40749   -42843 
  -44417   -45842   -47137   -48067   -49025   -50168   -51163   -51942 
  -52402   -52554   -52745   -52786   -52192   -51167   -50140   -49203 
  -48348   -47414   -46112   -44342   -42247   -40226   -38530   -36881 
  -35178   -33642   -32197   -30884   -29894   -28847   -27457   -26212 
  -25389   -24630   -23754   -22987   -22506   -22393   -22677   -23125 
  -23723   -24861   -26322   -27535   -28801   -30462   -32099   -33723 
  -35608   -37362   -38906   -40699   -42723   -44609   -46306   -48174 
  -50385   -52495   -54231   -55774   -57242   -58730   -60108   -61047 
  -61672   -62217   -62446   -62171   -61534   -60717   -59864   -58813 
  -57212   -55088   -52565   -49751   -46986   -44439   -42014   -39554 
  -36969   -34416   -32074   -30019   -28299   -26914   -25946   -25392 
  -24872   -24087   -23264   -22791   -22781   -22993   -23311   -24053 
  -25233   -26532   -27989   -29690   -31554   -33653   -36078   -38650 
  -40981   -43052   -45295   -47630   -49444   -50786   -52085   -53025 
  -53371   -53760   -54521   -55172   -55320   -55041   -54590   -54029 
  -53247   -52333   -51537   -50849   -50063   -49213   -48392   -47303 
  -45696   -43754   -41626   -39562   -37800   -36082   -34359   -32667 
  -30826   -29088   -27616   -26285   -25234   -24594   -24279   -24204 
  -24496   -25221   -26208   -27490   -29119   -30875   -32607   -34338 
  -36098   -37847   -39505   -40909   -41981   -42868   -43655   -44315 
  -44902   -45687   -46795   -47878   -48858   -49767   -50297   -50691 
  -51245   -51545   -51526   -51536   -51550   -51471   -51274   -50805 
  -50197   -49881   -49925   -50023   -49959   -49819   -49625   -49103 
  -48289   -47433   -46545   -45737   -45000   -44030   -42891   -41858 
  -40700   -39218   -37884   -36906   -36029   -35361   -34883   -34432 
  -34324   -34642   -35020   -35440   -36069   -36612   -36799   -36941 
  -37335   -38013   -39008   -40177   -41350   -42675   -44389   -46430 
  -48365   -49945   -51458   -53020   -54368   -55530   -56632   -57457 
  -57951   -58274   -58380   -58323   -57980   -56920   -55391   -53793 
  -51925   -49904   -48142   -46482   -44651   -42931   -41506   -40038 
  -38452   -37012   -35726   -34560   -33583   -32819   -32310   -31995 
  -31788   -31799   -32031   -32276   -32502   -32907   -33583   -34435 
  -35429   -36640   -38051   -39555   -41098   -42696   -44340   -45858 
  -47068   -48057   -49083   -50198   -51267   -52241   -53060   -53712 
  -54390   -55059   -55487   -55787   -56073   -56152   -55944   -55569 
  -55099   -54443   -53572   -52562   -51285   -49748   -48246   -46813 
  -45335   -43834   -42285   -40836   -39738   -38816   -37930   -37161 
  -36269   -35199   -34417   -33951   -33294   -32471   -31849   -31200 
  -30301   -29571   -29157   -28877   -28955   -29452   -30109   -31015 
  -32255   -33688   -35313   -37119   -39099   -41349   -43734   -45971 
  -47885   -49365   -50450   -51396   -52426   -53558   -54660   -55511 
  -56041   -56392   -56568   -56425   -55994   -55325   -54310   -53036 
  -51696   -50364   -49112   -47801   -46279   -44743   -43252   -41721 
  -40211   -38705   -37286   -36055   -34901   -33791   -32766   -31863 
  -31054   -30169   -29265   -28573   -28052   -27611   -27364   -27191 
  -26875   -26714   -26905   -27200   -27700   -28631   -29741   -30977 
  -32627   -34574   -36515   -38378   -40162   -41943   -43638   -45193 
  -46948   -48778   -50189   -51384   -52584   -53569   -54378   -55114 
  -55612   -55765   -55607   -55107   -54164   -52819   -51182   -49283 
  -47342   -45627   -44124   -42616   -40950   -39277   -37633   -35757 
  -33744   -31795   -29862   -28036   -26345   -24750   -23498   -22767 
  -22372   -22182   -22383   -22994   -23874   -25165   -26911   -29025 
  -31535   -34178   -36609   -39036   -41650   -44114   -46277   -48209 
  -49702   -50715   -51603   -52624   -53681   -54476   -54801   -54782 
  -54581   -54063   -53216   -52324   -51459   -50456   -49364   -48314 
  -47244   -46156   -45031   -43593   -41785   -39899   -38016   -36038 
  -34072   -32303   -30779   -29273   -27533   -25837   -24530   -23397 
  -22281   -21356   -20709   -20332   -20165   -20226   -20608   -21234 
  -22110   -23408   -25106   -27019   -29155   -31684   -34448   -37069 
  -39476   -41750   -43863   -45769   -47435   -48877   -50220   -51622 
  -53045   -54243   -55082   -55584   -55821   -55768   -55285   -54493 
  -53635   -52647   -51486   -50226   -48876   -47538   -46251   -44917 
  -43573   -42205   -40677   -39146   -37847   -36740   -35762   -34872 
  -34007   -33187   -32485   -32059   -31898   -31739   -31625   -31696 
  -31854   -32256   -33018   -33964   -35091   -36400   -37834   -39393 
  -40877   -42135   -43193   -44009   -44563   -44881   -45036   -45194 
  -45548   -46156   -46788   -47240   -47579   -47788   -47806   -47724 
  -47554   -47353   -47312   -47450   -47651   -47914   -48274   -48546 
  -48545   -48327   -47965   -47560   -47111   -46386   -45508   -44828 
  -44286   -43728   -43076   -42191   -41151   -40193   -39373   -38559 
  -37711   -36959   -36272   -35578   -35001   -34535   -34096   -33782 
  -33598   -33505   -33594   -33725   -33713   -33637   -33531   -33434 
  -33581   -34142   -34976   -35819   -36601   -37319   -37977   -38685 
  -39478   -40316   -41182   -42106   -43193   -44341   -45431   -46594 
  -47672   -48381   -48781   -48918   -48763   -48359   -47694   -46944 
  -46292   -45458   -44218   -42692   -41004   -39306   -37678   -36084 
  -34542   -33075   -31675   -30294   -29017   -27959   -27041   -26394 
  -26121   -25985   -26053   -26456   -26990   -27663   -28600   -29684 
