Origin Time       2011/03/11 14:46:00
Lat.              38.103
Long.             142.860
Depth. (km)       24
Mag.              9.0
Station Code      AIC015
Station Lat.      34.7552
Station Long.     137.4040
Station Height(m) 17
Record Time       2011/03/11 14:48:29
Sampling Freq(Hz) 100Hz
Duration Time(s)  254
Dir.              E-W
Scale Factor      3920(gal)/6182761
Max. Acc. (gal)   11.223
Last Correction   2011/03/11 14:48:14
Memo.             
[...]
 -112574  -112175  -111698  -111146  -110523  -109893  -109324  -108841 
 -108432  -108106  -107911  -107835  -107848  -107928  -108025  -108146 
 -108237  -108232  -108203  -108141  -108051  -108018  -107955  -107815 
 -107610  -107272  -106772  -106063  -105108  -103935  -102536  -100970 
  -99368   -97830   -96385   -95018   -93817   -92884   -92223   -91867 
  -91833   -92103   -92634   -93365   -94316   -95516   -96926   -98502 
 -100146  -101746  -103319  -104897  -106447  -107936  -109303  -110498 
 -111568  -112537  -113334  -113950  -114389  -114620  -114717  -114701 
 -114592  -114522  -114411  -114113  -113733  -113310  -112796  -112318 
 -111918  -111479  -111047  -110724  -110471  -110281  -110204  -110169 
 -110096  -109993  -109838  -109626  -109374  -109035  -108675  -108361 
 -108014  -107667  -107415  -107277  -107246  -107272  -107355  -107540 
 -107808  -108123  -108478  -108887  -109380  -109930  -110477  -111058 
 -111668  -112197  -112636  -113031  -113336  -113512  -113657  -113820 
 -113908  -113947  -113964  -113953  -114012  -114071  -114056  -114088 
 -114141  -114136  -114168  -114259  -114336  -114422  -114522  -114587 
 -114626  -114592  -114426  -114247  -114149  -114037  -113803  -113491 
 -113182  -112880  -112580  -112328  -112157  -112010  -111875  -111800 
 -111717  -111628  -111574  -111427  -111228  -111131  -111036  -110884 
 -110784  -110702  -110564  -110449  -110388  -110328  -110255  -110154 
 -110088  -110153  -110295  -110474  -110741  -111092  -111509  -111987 
 -112416  -112693  -112900  -113100  -113247  -113376  -113533  -113721 
 -114001  -114372  -114799  -115264  -115692  -116100  -116565  -117053 
 -117524  -117928  -118212  -118430  -118576  -118568  -118395  -118094 
 -117718  -117307  -116858  -116378  -115862  -115261  -114577  -113848 
 -113039  -112125  -111147  -110084  -108934  -107761  -106578  -105420 
 -104354  -103407  -102587  -101915  -101422  -101087  -100921  -100994 
 -101253  -101607  -102023  -102470  -102929  -103395  -103853  -104274 
 -104667  -105084  -105528  -105945  -106305  -106616  -106898  -107117 
 -107208  -107152  -106985  -106752  -106521  -106369  -106246  -106062 
 -105839  -105631  -105457  -105297  -105061  -104708  -104295  -103838 
 -103318  -102729  -102059  -101330  -100578   -99874   -99277   -98747 
  -98263   -97861   -97558   -97407   -97450   -97657   -98021   -98590 
  -99299  -100050  -100874  -101780  -102666  -103456  -104109  -104615 
 -105036  -105397  -105694  -105990  -106325  -106691  -107111  -107637 
 -108239  -108803  -109278  -109699  -110107  -110468  -110715  -110885 
 -111031  -111135  -111237  -111365  -111473  -111586  -111729  -111877 
 -112038  -112205  -112337  -112416  -112470  -112549  -112672  -112860 
 -113123  -113390  -113617  -113867  -114165  -114457  -114694  -114825 
 -114848  -114795  -114655  -114437  -114162  -113842  -113554  -113338 
 -113198  -113187  -113258  -113347  -113520  -113768  -114079  -114476 
 -114877  -115268  -115674  -116023  -116335  -116646  -116934  -117177 
 -117265  -117166  -116965  -116693  -116351  -115875  -115229  -114520 
 -113777  -112995  -112264  -111589  -110983  -110528  -110169  -109830 
 -109491  -109143  -108854  -108599  -108280  -107932  -107604  -107290 
 -107076  -106992  -106910  -106837  -106876  -106974  -107104  -107281 
 -107449  -107620  -107846  -108149  -108544  -109004  -109531  -110143 
 -110813  -111477  -112080  -112654  -113210  -113685  -114072  -114369 
 -114542  -114637  -114723  -114806  -114868  -114904  -114893  -114821 
 -114724  -114578  -114282  -113813  -113205  -112492  -111750  -111054 
 -110385  -109649  -108897  -108288  -107798  -107408  -107181  -107048 
 -107012  -107143  -107347  -107551  -107747  -107880  -107952  -108004 
 -108017  -107949  -107789  -107541  -107222  -106827  -106341  -105786 
 -105182  -104535  -103862  -103177  -102483  -101805  -101182  -100608 
 -100085   -99647   -99314   -99132   -99110   -99167   -99250   -99359 
  -99490   -99629   -99802  -100067  -100430  -100942  -101665  -102560 
 -103567  -104609  -105644  -106682  -107644  -108540  -109465  -110337 
 -111128  -111912  -112620  -113193  -113696  -114123  -114387  -114467 
 -114374  -114094  -113691  -113238  -112719  -112177  -111675  -111212 
 -110795  -110413  -110040  -109656  -109250  -108884  -108600  -108350 
 -108136  -107976  -107862  -107798  -107768  -107744  -107770  -107898 
 -108081  -108269  -108479  -108705  -108934  -109169  -109396  -109599 
 -109768  -109911  -110023  -110099  -110191  -110304  -110395  -110502 
 -110663  -110830  -110928  -110951  -110942  -110918  -110841  -110635 
 -110302  -109878  -109315  -108597  -107790  -106889  -105851  -104707 
 -103494  -102226  -100964   -99773   -98669   -97680   -96866   -96294 
  -96031   -96100   -96419   -96872   -97472   -98257   -99117   -99996 
 -100942  -101923  -102941  -104033  -105178  -106373  -107531  -108565 
 -109505  -110363  -111132  -111828  -112445  -113002  -113508  -113945 
 -114278  -114442  -114432  -114279  -113934  -113367  -112590  -111629 
 -110607  -109646  -108757  -107943  -107241  -106664  -106157  -105659 
 -105175  -104694  -104175  -103642  -103142  -102650  -102177  -101831 
 -101662  -101624  -101697  -101869  -102127  -102394  -102569  -102646 
 -102621  -102495  -102370  -102288  -102278  -102409  -102655  -102960 
 -103333  -103755  -104165  -104519  -104801  -105029  -105208  -105316 
 -105363  -105389  -105401  -105383  -105353  -105336  -105317  -105271 
 -105199  -105135  -105076  -104960  -104820  -104694  -104560  -104483 
 -104492  -104453  -104365  -104392  -104535  -104695  -104914  -105267 
 -105765  -106416  -107184  -108004  -108881  -109801  -110700  -111592 
 -112509  -113351  -114015  -114545  -114946  -115201  -115432  -115621 
 -115706  -115867  -116124  -116363  -116651  -116952  -117209  -117450 
 -117602  -117616  -117487  -117228  -116936  -116600  -116188  -115745 
 -115222  -114619  -114048  -113521  -112975  -112394  -111815  -111285 
 -110787  -110328  -109990  -109750  -109495  -109265  -109122  -108962 
 -108757  -108572  -108342  -108023  -107650  -107224  -106706  -106124 
 -105593  -105167  -104870  -104730  -104712  -104840  -105118  -105442 
 -105757  -106062  -106329  -106514  -106648  -106827  -107064  -107324 
 -107574  -107815  -108063  -108234  -108316  -108371  -108382  -108363 
 -108305  -108200  -108151  -108129  -108053  -107980  -107885  -107678 
 -107387  -107039  -106638  -106228  -105868  -105588  -105393  -105311 
 -105360  -105526  -105837  -106299  -106865  -107513  -108192  -108819 
 -109385  -109883  -110286  -110607  -110843  -111003  -111173  -111344 
 -111464  -111534  -111459  -111167  -110804  -110443  -110007  -109566 
 -109272  -109096  -108980  -108967  -109034  -109079  -109062  -109008 
 -108928  -108796  -108604  -108394  -108223  -108130  -108153  -108293 
 -108499  -108729  -108984  -109316  -109716  -110071  -110314  -110468 
 -110590  -110697  -110733  -110737  -110784  -110892  -111130  -111468 
 -111770  -112074  -112442  -112744  -112855  -112835  -112801  -112748 
 -112594  -112365  -112141  -111924  -111698  -111488  -111313  -111173 
 -111092  -111126  -111290  -111552  -111891  -112307  -112788  -113292 
 -113807  -114328  -114821  -115235  -115503  -115638  -115702  -115695 
 -115613  -115496  -115420  -115436  -115446  -115425  -115422  -115332 
 -115089  -114726  -114208  -113522  -112680  -111710  -110734  -109810 
 -108952  -108264  -107726  -107270  -106994  -106899  -106828  -106738 
 -106662  -106609  -106623  -106735  -106916  -107197  -107646  -108250 
 -108948  -109710  -110545  -111398  -112195  -112955  -113692  -114392 
 -115058  -115647  -116135  -116533  -116848  -117106  -117348  -117604 
 -117846  -118067  -118332  -118634  -118945  -119285  -119584  -119739 
 -119782  -119781  -119693  -119447  -119043  -118525  -117906  -117197 
 -116487  -115798  -115071  -114370  -113791  -113305  -112918  -112664 
 -112463  -112310  -112250  -112180  -112044  -111909  -111755  -111530 
 -111264  -110979  -110684  -110385  -110018  -109596  -109202  -108778 
 -108314  -107927  -107642  -107449  -107303  -107146  -107007  -106842 
 -106592  -106282  -105866  -105290  -104689  -104164  -103555  -102835 
 -102218  -101727  -101293  -100963  -100729  -100548  -100441  -100442 
 -100559  -100766  -101030  -101344  -101727  -102174  -102635  -103105 
 -103606  -104117  -104588  -104984  -105293  -105481  -105549  -105525 
 -105394  -105195  -104964  -104673  -104386  -104163  -103953  -103751 
 -103590  -103504  -103547  -103725  -104021  -104408  -104891  -105471 
 -106072  -106648  -107201  -107702  -108142  -108548  -108956  -109383 
 -109814  -110288  -110876  -111599  -112408  -113149  -113728  -114268 
 -114795  -115115  -115209  -115214  -115092  -114812  -114465  -114131 
 -113757  -113236  -112645  -112050  -111401  -110745  -110114  -109510 
 -108987  -108528  -108125  -107826  -107638  -107576  -107576  -107562 
 -107647  -107853  -108044  -108212  -108365  -108450  -108503  -108587 
 -108722  -108889  -109033  -109183  -109429  -109725  -110047  -110466 
 -110905  -111281  -111621  -111893  -112103  -112310  -112442  -112475 
 -112593  -112829  -112993  -113135  -113394  -113642  -113793  -113938 
 -114077  -114140  -114142  -114077  -113893  -113654  -113414  -113079 
 -112612  -112108  -111571  -110940  -110298  -109777  -109307  -108802 
 -108379  -108083  -107854  -107750  -107760  -107801  -107910  -108032 
 -108069  -108082  -108090  -108012  -107863  -107726  -107560  -107310 
 -107034  -106677  -106205  -105713  -105144  -104415  -103676  -103101 
 -102590  -102094  -101825  -101718  -101557  -101496  -101595  -101654 
 -101712  -101783  -101712  -101656  -101732  -101752  -101746  -101789 
 -101793  -101772  -101755  -101737  -101723  -101753  -101862  -101996 
 -102219  -102584  -102961  -103395  -103974  -104569  -105123  -105699 
 -106293  -106884  -107521  -108241  -109051  -109995  -111044  -112117 
 -113266  -114497  -115699  -116830  -117883  -118886  -119797  -120465 
 -120934  -121358  -121685  -121808  -121831  -121879  -121850  -121656 
 -121411  -121157  -120804  -120351  -119851  -119310  -118716  -118051 
 -117366  -116712  -116039  -115358  -114780  -114305  -113869  -113473 
 -113127  -112808  -112474  -112072  -111565  -110957  -110229  -109386 
 -108501  -107596  -106697  -105875  -105128  -104472  -103937  -103477 
 -103095  -102811  -102552  -102275  -102065  -101922  -101696  -101449 
 -101353  -101212  -100901  -100623  -100374  -100066   -99744   -99406 
  -99070   -98764   -98426   -98024   -97604   -97173   -96705   -96189 
  -95608   -95064   -94709   -94533   -94508   -94624   -94905   -95393 
  -95977   -96594   -97247   -97863   -98463   -99057   -99604  -100081 
 -100425  -100661  -100825  -100891  -100890  -100840  -100734  -100577 
 -100430  -100349  -100263  -100166  -100256  -100508  -100701  -100979 
 -101434  -101774  -102004  -102320  -102618  -102826  -103017  -103200 
 -103420  -103770  -104205  -104598  -105034  -105639  -106277  -106890 
 -107595  -108325  -108972  -109594  -110221  -110817  -111343  -111793 
 -112175  -112448  -112595  -112650  -112654  -112602  -112491  -112347 
 -112170  -112050  -112025  -111958  -111869  -111860  -111905  -111975 
 -112044  -112183  -112430  -112631  -112822  -113088  -113275  -113302 
 -113207  -113022  -112753  -112312  -111662  -110928  -110224  -109503 
 -108735  -108013  -107357  -106748  -106207  -105713  -105211  -104714 
 -104307  -103996  -103736  -103540  -103433  -103405  -103374  -103260 
 -103125  -103025  -102899  -102733  -102588  -102462  -102370  -102373 
 -102484  -102682  -102936  -103214  -103542  -103907  -104253  -104611 
 -105028  -105448  -105778  -106075  -106436  -106745  -106968  -107206 
 -107400  -107659  -108083  -108394  -108615  -108980  -109331  -109530 
 -109719  -109932  -110040  -110071  -110140  -110202  -110289  -110489 
 -110702  -110906  -111216  -111579  -111898  -112304  -112829  -113301 
 -113762  -114268  -114691  -115086  -115508  -115833  -116034  -116153 
 -116144  -116018  -115832  -115508  -115012  -114463  -113831  -113060 
 -112220  -111280  -110261  -109263  -108254  -107219  -106185  -105188 
 -104276  -103410  -102602  -101922  -101349  -100829  -100414  -100108 
  -99770   -99445   -99205   -98912   -98636   -98466   -98294   -98135 
  -98032   -98023   -98107   -98189   -98294   -98478   -98654   -98851 
  -99178   -99563   -99956  -100417  -100906  -101398  -101900  -102282 
 -102493  -102677  -102819  -102804  -102760  -102679  -102432  -102230 
 -102106  -101815  -101524  -101432  -101256  -100981  -100862  -100713 
 -100521  -100502  -100492  -100546  -100768  -100885  -100977  -101251 
 -101575  -101929  -102366  -102913  -103531  -104055  -104507  -104926 
 -105291  -105613  -105767  -105785  -105808  -105820  -105811  -105763 
 -105712  -105701  -105664  -105588  -105496  -105370  -105236  -105105 
 -104930  -104812  -104786  -104660  -104460  -104323  -104226  -104150 
 -104112  -104142  -104238  -104373  -104563  -104771  -104998  -105287 
 -105604  -105982  -106401  -106719  -107021  -107465  -107928  -108314 
 -108833  -109482  -110019  -110581  -111264  -111880  -112516  -113203 
 -113787  -114347  -114946  -115471  -115862  -116301  -116866  -117359 
 -117857  -118494  -119134  -119801  -120543  -121316  -122115  -122826 
 -123427  -123993  -124509  -124926  -125227  -125507  -125728  -125736 
 -125718  -125826  -125837  -125754  -125704  -125549  -125317  -125129 
 -124840  -124463  -124141  -123769  -123303  -122809  -122279  -121746 
 -121141  -120445  -119802  -119124  -118359  -117632  -116879  -116151 
 -115519  -114833  -114130  -113502  -112871  -112209  -111556  -110911 
 -110266  -109649  -109063  -108534  -108089  -107689  -107372  -107184 
 -107021  -106810  -106601  -106477  -106416  -106296  -106150  -106065 
 -105957  -105816  -105690  -105549  -105411  -105287  -105158  -105050 
 -104955  -104878  -104838  -104785  -104696  -104596  -104517  -104436 
 -104323  -104245  -104186  -104014  -103796  -103596  -103270  -102848 
 -102455  -102005  -101485  -100963  -100405   -99899   -99543   -99266 
  -99070   -99018   -99097   -99294   -99558   -99860  -100218  -100570 
 -100903  -101228  -101461  -101662  -101934  -102159  -102261  -102346 
 -102438  -102471  -102465  -102463  -102452  -102420  -102377  -102349 
 -102347  -102412  -102585  -102795  -103029  -103370  -103706  -103950 
 -104187  -104333  -104376  -104463  -104456  -104280  -104130  -103962 
 -103657  -103317  -102949  -102481  -101959  -101413  -100875  -100465 
 -100178   -99878   -99567   -99332   -99185   -99054   -98906   -98846 
  -98852   -98862   -99001   -99255   -99521   -99891  -100380  -100889 
 -101436  -102037  -102603  -103130  -103644  -104076  -104439  -104805 
 -105170  -105482  -105774  -106140  -106561  -107011  -107499  -107945 
 -108348  -108785  -109235  -109589  -109827  -110050  -110227  -110296 
 -110339  -110379  -110431  -110476  -110452  -110442  -110430  -110350 
 -110303  -110318  -110364  -110455  -110604  -110801  -110978  -111152 
 -111368  -111588  -111805  -112019  -112244  -112528  -112809  -113012 
 -113230  -113485  -113705  -113943  -114162  -114308  -114481  -114649 
 -114769  -114933  -115108  -115214  -115295  -115414  -115498  -115422 
 -115282  -115190  -115008  -114682  -114325  -113970  -113621  -113281 
 -112937  -112633  -112346  -111969  -111556  -111197  -110814  -110371 
 -110012  -109738  -109471  -109335  -109334  -109302  -109230  -109174 
 -109123  -108947  -108639  -108343  -107943  -107390  -106905  -106475 
 -106046  -105739  -105592  -105557  -105618  -105812  -106157  -106517 
 -106794  -107119  -107496  -107744  -107880  -107947  -107885  -107751 
 -107528  -107165  -106754  -106314  -105824  -105302  -104742  -104220 
 -103789  -103343  -102881  -102523  -102222  -101915  -101673  -101444 
 -101163  -100968  -100855  -100656  -100409  -100191   -99964   -99760 
  -99581   -99416   -99314   -99248   -99206   -99228   -99294   -99417 
  -99590   -99715   -99806  -100007  -100258  -100457  -100766  -101225 
 -101692  -102212  -102830  -103437  -104017  -104649  -105272  -105816 
 -106395  -107016  -107578  -108162  -108780  -109343  -109879  -110354 
 -110730  -111078  -111338  -111442  -111466  -111430  -111309  -111114 
 -110929  -110790  -110547  -110256  -110138  -110040  -109881  -109921 
 -110067  -110058  -110044  -110162  -110246  -110197  -110090  -109950 
 -109733  -109386  -108895  -108327  -107693  -106985  -106292  -105611 
 -104896  -104181  -103501  -102955  -102457  -101822  -101271  -100878 
 -100351   -99753   -99265   -98845   -98483   -98211   -98061   -98038 
  -98101   -98261   -98513   -98759   -98929   -99072   -99299   -99581 
  -99814  -100001  -100193  -100430  -100663  -100800  -100911  -101013 
 -101036  -101027  -100994  -100927  -100892  -100872  -100839  -100855 
 -100935  -100998  -101007  -101035  -101097  -101089  -101010  -100961 
 -100910  -100813  -100740  -100713  -100693  -100683  -100642  -100554 
 -100451  -100290  -100066   -99843   -99638   -99472   -99387   -99403 
  -99523   -99779  -100171  -100663  -101265  -101956  -102676  -103443 
 -104253  -105025  -105797  -106634  -107477  -108293  -109099  -109968 
 -110898  -111697  -112338  -112968  -113540  -113981  -114326  -114524 
 -114536  -114451  -114319  -114113  -113873  -113656  -113441  -113186 
 -112939  -112777  -112660  -112531  -112438  -112405  -112407  -112476 
 -112590  -112656  -112679  -112728  -112820  -112909  -112985  -113086 
 -113145  -113165  -113279  -113417  -113509  -113617  -113682  -113704 
 -113748  -113766  -113740  -113699  -113632  -113515  -113349  -113177 
 -113051  -112970  -112906  -112913  -113013  -113148  -113364  -113643 
 -113864  -114040  -114188  -114291  -114347  -114287  -114133  -113934 
 -113634  -113248  -112786  -112214  -111604  -110972  -110290  -109645 
 -109092  -108593  -108096  -107651  -107300  -106963  -106682  -106498 
 -106341  -106251  -106245  -106291  -106407  -106575  -106793  -107034 
 -107268  -107516  -107710  -107828  -107904  -107912  -107851  -107737 
 -107602  -107471  -107312  -107156  -107045  -106956  -106872  -106795 
 -106747  -106682  -106576  -106549  -106606  -106694  -106880  -107122 
 -107395  -107750  -108136  -108513  -108845  -109115  -109330  -109419 
 -109379  -109242  -108994  -108662  -108258  -107777  -107241  -106658 
 -106010  -105302  -104623  -103990  -103319  -102688  -102165  -101672 
 -101228  -100884  -100592  -100349  -100170  -100008   -99889   -99830 
  -99750   -99666   -99674   -99709   -99703   -99781   -99952  -100106 
 -100292  -100520  -100715  -100908  -101093  -101196  -101200  -101127 
 -100997  -100808  -100566  -100276   -99933   -99578   -99211   -98822 
  -98459   -98129   -97829   -97587   -97378   -97194   -97044   -96906 
  -96807   -96727   -96641   -96643   -96659   -96608   -96610   -96627 
  -96613   -96645   -96664   -96645   -96666   -96744   -96858   -97045 
  -97359   -97754   -98189   -98700   -99238   -99770  -100356  -100982 
 -101612  -102254  -102900  -103532  -104162  -104789  -105349  -105875 
 -106422  -106935  -107432  -107958  -108463  -108930  -109377  -109830 
 -110290  -110736  -111172  -111573  -111946  -112333  -112698  -113060 
