Origin Time       2011/03/11 14:46:00
Lat.              38.103
Long.             142.860
Depth. (km)       24
Mag.              9.0
Station Code      AIC002
Station Lat.      35.2979
Station Long.     136.9154
Station Height(m) 21
Record Time       2011/03/11 14:49:10
Sampling Freq(Hz) 100Hz
Duration Time(s)  166
Dir.              U-D
Scale Factor      3920(gal)/6182761
Max. Acc. (gal)   3.583
Last Correction   2011/03/11 14:48:55
Memo.             
[...]
     313      489      763     1067     1297     1477     1630     1705 
    1709     1698     1664     1560     1439     1372     1310     1243 
    1265     1364     1459     1534     1541     1433     1264     1078 
     907      818      772      702      653      623      537      434 
     389      341      233      123       36      -60     -160     -274 
    -450     -637     -754     -816     -841     -825     -829     -876 
    -915     -937     -934     -882     -837     -875     -976    -1088 
   -1175    -1179    -1106    -1048    -1011     -940     -857     -811 
    -811     -825     -798     -713     -606     -542     -561     -664 
    -837    -1029    -1171    -1246    -1284    -1312    -1311    -1258 
   -1203    -1149    -1035     -886     -710     -466     -237     -117 
     -55        6       71      179      326      395      323      213 
     180      228      299      370      457      513      468      384 
     335      259      123       12      -56     -143     -200     -167 
    -179     -329     -492     -635     -840    -1035    -1158    -1304 
   -1487    -1641    -1803    -2019    -2230    -2357    -2398    -2423 
   -2478    -2543    -2636    -2821    -3066    -3272    -3424    -3532 
   -3626    -3772    -3940    -4025    -3964    -3835    -3761    -3711 
   -3624    -3523    -3397    -3240    -3117    -3020    -2827    -2569 
   -2389    -2210    -1918    -1645    -1478    -1319    -1120     -912 
    -724     -572     -480     -408     -252     -103      -93      -84 
     -51     -117     -198     -221     -246     -251     -226     -252 
    -355     -493     -627     -701     -707     -712     -722     -696 
    -641     -562     -448     -309     -177      -68       47      179 
     287      400      573      746      868      972     1072     1185 
    1321     1418     1467     1509     1490     1398     1324     1250 
    1117      953      738      436      136      -78     -240     -368 
    -402     -381     -397     -405     -334     -214      -77       82 
     211      257      258      255      242      229      232      236 
     209      134       22     -104     -254     -465     -733    -1008 
   -1301    -1603    -1817    -1907    -1938    -1968    -2041    -2200 
   -2405    -2545    -2577    -2522    -2382    -2185    -2000    -1865 
   -1756    -1634    -1508    -1397    -1278    -1138    -1027     -997 
   -1002     -994    -1036    -1119    -1114    -1033     -985     -951 
    -904     -877     -843     -723     -509     -272      -71       66 
      83      -23     -169     -311     -493     -715     -910    -1070 
   -1212    -1313    -1391    -1499    -1632    -1708    -1663    -1533 
   -1400    -1288    -1189    -1084     -908     -653     -422     -269 
    -163     -117     -121     -114      -93     -108     -148     -151 
    -108      -58        6      102      180      191      186      186 
     112      -19     -100     -179     -329     -472     -580     -692 
    -772     -805     -836     -875     -903     -892     -875     -900 
    -937     -967    -1020    -1081    -1120    -1153    -1200    -1261 
   -1336    -1436    -1542    -1610    -1635    -1614    -1524    -1408 
   -1321    -1252    -1195    -1156    -1130    -1131    -1147    -1155 
   -1187    -1261    -1306    -1309    -1371    -1502    -1620    -1699 
   -1719    -1694    -1669    -1638    -1593    -1545    -1498    -1450 
   -1351    -1204    -1099    -1039     -969     -898     -846     -790 
    -735     -709     -706     -680     -623     -575     -526     -440 
    -338     -257     -198     -134      -52       38      142      282 
     432      538      597      658      733      789      822      865 
     946     1060     1148     1190     1229     1226     1131     1027 
     953      845      697      540      372      208       54     -117 
    -307     -499     -688     -832     -887     -879     -871     -860 
    -827     -829     -886     -943    -1011    -1080    -1115    -1172 
   -1291    -1427    -1536    -1593    -1605    -1585    -1542    -1538 
   -1577    -1599    -1638    -1701    -1703    -1689    -1754    -1831 
   -1870    -1930    -2000    -2020    -2035    -2081    -2125    -2161 
   -2169    -2124    -2074    -2050    -2030    -2033    -2092    -2166 
   -2162    -2108    -2081    -2054    -2032    -2051    -2036    -1946 
   -1866    -1839    -1817    -1757    -1685    -1632    -1567    -1508 
   -1502    -1521    -1537    -1543    -1532    -1471    -1325    -1137 
   -1003     -964    -1010    -1090    -1139    -1164    -1200    -1226 
   -1227    -1235    -1217    -1091     -922     -806     -662     -473 
    -371     -353     -351     -376     -400     -390     -423     -524 
    -613     -666     -685     -632     -514     -388     -273     -158 
     -36       65      103       92       90      100       81        0 
     -97     -138     -113      -36       29       38       33       48 
      86      120       93       23      -34      -75      -82      -26 
      55      124      178      210      222      220      188      110 
      24      -51     -153     -258     -325     -377     -402     -409 
    -476     -611     -700     -688     -678     -805    -1025    -1141 
   -1094     -991     -871     -777     -775     -838     -909     -900 
    -799     -727     -658     -484     -258      -17      221      346 
     355      372      429      519      705      981     1221     1394 
    1574     1760     1898     1978     2011     2002     2012     2068 
    2109     2160     2275     2389     2463     2537     2600     2656 
    2740     2825     2886     2932     2944     2914     2886     2865 
    2791     2679     2570     2458     2381     2357     2348     2329 
    2331     2385     2423     2421     2430     2408     2316     2224 
    2184     2147     2060     1973     1936     1923     1905     1885 
    1882     1926     2017     2146     2332     2551     2747     2890 
    2973     3031     3095     3153     3205     3240     3217     3111 
    2971     2915     2944     2982     3047     3101     3083     3066 
    3090     3064     2931     2775     2640     2481     2323     2201 
    2058     1841     1572     1335     1133      913      712      589 
     532      487      393      249       68     -145     -335     -460 
    -580     -723     -818     -853     -933    -1092    -1247    -1397 
   -1601    -1740    -1743    -1776    -1874    -1928    -1980    -2038 
   -1954    -1728    -1509    -1294     -996     -701     -492     -266 
      14      241      397      518      578      608      673      752 
     862     1047     1239     1401     1596     1791     1940     2126 
    2343     2518     2690     2877     3038     3186     3338     3472 
    3593     3739     3905     4082     4293     4476     4556     4599 
    4652     4657     4643     4679     4704     4667     4643     4672 
    4712     4719     4667     4575     4467     4325     4131     3922 
    3759     3628     3459     3275     3126     2990     2857     2725 
    2557     2333     2065     1786     1525     1295     1083      864 
     654      505      403      298      185       58      -50      -70 
     -38      -46      -94     -158     -239     -298     -328     -378 
    -421     -439     -463     -427     -286     -154      -93      -47 
     -16      -25      -27      -23      -31        9       95      158 
     204      253      298      352      395      411      438      444 
     382      298      233      197      247      380      466      465 
     435      393      385      378      289      256      353      433 
     501      621      713      797      917     1001     1101     1240 
    1234     1117     1085     1013      782      598      529      393 
     214      123       56      -43      -39       42       -6      -88 
     -90     -164     -232     -169     -141     -147      -88      -85 
    -109      -17       62       57      139      268      274      242 
     248      233      232      266      290      318      317      221 
     109       41      -67     -199     -287     -425     -654     -827 
    -938    -1073    -1105    -1010     -993    -1029     -946     -823 
    -776     -737     -674     -656     -697     -768     -854     -930 
    -990    -1046    -1064    -1083    -1106     -996     -790     -648 
    -547     -464     -495     -596     -587     -480     -425     -411 
    -343     -229     -115       30      254      504      719      913 
    1036     1047     1075     1189     1244     1216     1281     1476 
    1648     1760     1867     1945     2040     2220     2407     2568 
    2707     2711     2570     2448     2441     2551     2668     2605 
    2435     2376     2379     2307     2242     2279     2241     2045 
    1984     2119     2149     2035     1916     1802     1729     1701 
    1634     1550     1480     1374     1331     1443     1607     1774 
    1923     1947     1872     1857     1894     1833     1752     1777 
    1713     1486     1335     1297     1210     1065      973      908 
     804      711      692      710      649      541      486      390 
     259      219      165       -6     -171     -238     -266     -280 
    -296     -414     -617     -826    -1040    -1255    -1470    -1667 
   -1771    -1767    -1770    -1808    -1799    -1791    -1776    -1629 
   -1448    -1360    -1306    -1255    -1194    -1160    -1290    -1488 
   -1499    -1383    -1334    -1318    -1279    -1254    -1241    -1214 
   -1138    -1064    -1049     -967     -793     -632     -497     -451 
    -452     -375     -308     -246      -92      -13      -36       59 
     256      420      535      561      558      597      603      663 
     829      849      710      709      823      838      786      775 
     789      775      741      708      640      607      683      733 
     712      761      807      741      737      855      941     1007 
    1103     1131     1077     1052     1100     1180     1214     1180 
    1143     1102     1017      959      943      859      706      595 
     539      445      332      283      222       67     -107     -216 
    -304     -451     -567     -569     -551     -556     -531     -467 
    -418     -406     -356     -230      -89       33      145      222 
     281      386      511      607      714      835      922     1049 
    1266     1429     1532     1618     1577     1544     1669     1723 
    1629     1582     1557     1417     1280     1281     1292     1239 
    1255     1312     1227     1076     1036     1008      852      679 
     562      406      227       73      -57     -133     -172     -216 
    -224     -207     -236     -224     -123     -114     -182     -117 
     -24      -28       67      291      421      453      555      737 
     829      841      972     1158     1272     1425     1611     1749 
    1928     2146     2313     2466     2600     2609     2485     2345 
    2252     2120     1928     1824     1795     1648     1454     1359 
    1271     1232     1346     1416     1320     1195     1097      962 
     807      732      690      515      302      247      191        5 
    -109     -152     -277     -401     -497     -621     -732     -840 
    -902     -846     -815     -860     -785     -553     -316     -128 
      45      167      238      410      656      775      807      896 
    1038     1217     1441     1670     1809     1813     1808     1911 
    2014     2002     1960     1971     1974     1931     1911     1946 
    1968     1914     1840     1786     1710     1639     1567     1500 
    1496     1474     1426     1441     1429     1397     1455     1467 
    1342     1265     1265     1153      978      936      930      853 
     859      868      652      411      360      314      155        8 
     -91     -165     -204     -265     -294     -243     -269     -322 
    -271     -310     -512     -725     -844     -794     -746     -859 
    -915     -911    -1030    -1137    -1275    -1588    -1783    -1779 
   -1887    -2025    -1951    -1867    -1942    -1934    -1815    -1882 
   -2122    -2241    -2215    -2290    -2464    -2556    -2658    -2844 
   -2870    -2723    -2759    -2953    -3020    -3103    -3344    -3518 
   -3543    -3542    -3529    -3413    -3167    -2904    -2656    -2335 
   -2007    -1718    -1398    -1150    -1002     -768     -510     -359 
    -162       76      221      401      644      802      924     1024 
     987      889      831      756      653      585      505      378 
     274      161      -15     -148     -169     -235     -486     -791 
    -936     -932     -931     -969    -1059    -1206    -1296    -1368 
   -1559    -1732    -1761    -1776    -1838    -1943    -2121    -2191 
   -2030    -1964    -2174    -2347    -2475    -2822    -3078    -3043 
   -3205    -3526    -3499    -3415    -3634    -3764    -3663    -3606 
   -3575    -3541    -3580    -3598    -3597    -3690    -3819    -3864 
   -3830    -3777    -3685    -3548    -3490    -3474    -3343    -3291 
   -3403    -3322    -3153    -3214    -3222    -3123    -3229    -3373 
   -3345    -3288    -3300    -3377    -3421    -3368    -3411    -3534 
   -3524    -3501    -3534    -3428    -3307    -3359    -3327    -3096 
   -3004    -3079    -3028    -2910    -2970    -3150    -3207    -3153 
   -3220    -3375    -3481    -3619    -3805    -3969    -4134    -4274 
   -4383    -4536    -4749    -4986    -5205    -5381    -5507    -5579 
   -5585    -5544    -5536    -5525    -5401    -5253    -5180    -5054 
   -4834    -4673    -4536    -4283    -4073    -4011    -3901    -3739 
   -3643    -3545    -3420    -3305    -3163    -3011    -2998    -3103 
   -3042    -2838    -2759    -2763    -2745    -2718    -2614    -2459 
   -2385    -2347    -2233    -2093    -2036    -2015    -1982    -1960 
   -1889    -1740    -1561    -1403    -1326    -1371    -1503    -1585 
   -1630    -1779    -1902    -1865    -1816    -1796    -1698    -1589 
   -1561    -1485    -1329    -1285    -1310    -1236    -1165    -1163 
   -1137    -1107    -1042     -795     -447     -199        3      285 
     576      795      997     1223     1334     1241     1176     1227 
    1138      963      942      973      958     1007     1099     1089 
    1045     1158     1254     1078      920     1044     1169     1128 
    1107     1154     1176     1222     1348     1475     1556     1654 
    1758     1677     1441     1367     1416     1354     1325     1404 
    1331     1131     1095     1152     1061      946      921      829 
     732      768      783      696      628      615      553      374 
     186       88      -37     -233     -365     -478     -634     -665 
    -573     -580     -653     -619     -532     -491     -428     -297 
    -249     -315     -257     -144     -210     -275     -272     -379 
    -441     -315     -215     -221     -203     -146     -125     -120 
     -89      -89     -114      -47      109      240      300      342 
     373      341      312      354      343      220       88      -64 
    -262     -346     -276     -220     -216     -182     -126     -105 
    -129     -140     -138     -204     -331     -408     -368     -338 
    -394     -405     -399     -522     -623     -543     -467     -548 
    -679     -798     -946    -1056    -1059    -1002     -916     -795 
    -727     -789     -865     -831     -700     -494     -315     -285 
    -311     -235      -74       24       28       84      207      265 
     278      396      633      827      940     1122     1398     1619 
    1776     2029     2354     2585     2788     3024     3159     3194 
    3256     3378     3517     3630     3735     3831     3878     3910 
    3974     4039     4052     3984     3899     3861     3812     3738 
    3661     3562     3504     3509     3481     3374     3244     3157 
    3068     2904     2749     2641     2483     2321     2219     2074 
    1911     1827     1734     1617     1566     1503     1369     1271 
    1234     1173     1066      941      808      657      557      586 
     603      515      514      592      515      410      489      615 
     663      694      751      819      859      829      747      626 
     470      382      406      416      401      417      391      373 
     485      601      637      779     1021     1101     1033     1013 
    1011      979      984      993      942      912      960      953 
     822      693      615      507      402      432      552      591 
     577      646      704      665      692      856     1051     1220 
    1308     1234     1045      865      714      599      598      661 
     639      551      505      504      481      458      513      595 
     651      754      915     1058     1142     1182     1261     1395 
    1454     1425     1480     1603     1643     1645     1672     1692 
    1692     1673     1667     1715     1785     1842     1846     1779 
    1737     1762     1752     1663     1530     1366     1213     1121 
    1092     1087     1081     1085     1071     1021     1002     1033 
    1045      999      910      822      829      930     1018     1098 
    1192     1230     1247     1335     1445     1536     1646     1735 
    1763     1761     1757     1776     1845     1904     1889     1872 
    1903     1929     1972     2047     2086     2084     2067     2003 
    1870     1704     1533     1368     1255     1149      959      762 
     639      541      443      341      223       87      -69     -203 
    -315     -466     -628     -756     -881    -1031    -1168    -1250 
   -1317    -1445    -1616    -1764    -1892    -2036    -2160    -2203 
   -2203    -2179    -2071    -1942    -1888    -1822    -1696    -1604 
   -1537    -1440    -1381    -1374    -1297    -1177    -1168    -1211 
   -1174    -1141    -1169    -1146    -1087    -1097    -1095     -980 
    -820     -605     -275       24      194      328      446      516 
     571      640      670      627      598      662      729      708 
     712      814      899      931      956      957      920      864 
     844      874      893      879      886      927      962      968 
     905      797      765      804      820      823      830      837 
     836      815      795      768      703      665      646      515 
     294      124       -1     -136     -225     -252     -312     -410 
    -466     -516     -628     -747     -847     -973    -1125    -1307 
   -1516    -1677    -1764    -1802    -1788    -1728    -1643    -1523 
   -1404    -1339    -1352    -1464    -1613    -1693    -1738    -1787 
   -1807    -1807    -1790    -1718    -1609    -1512    -1486    -1538 
   -1564    -1552    -1559    -1534    -1482    -1490    -1523    -1521 
   -1509    -1516    -1559    -1592    -1561    -1538    -1536    -1460 
   -1341    -1249    -1128     -994     -940     -914     -850     -796 
    -725     -611     -535     -477     -352     -173       -3      113 
     193      278      345      339      307      371      503      591 
     659      735      768      786      844      910      942      927 
     873      796      708      612      490      351      207       29 
    -168     -319     -424     -547     -695     -841    -1011    -1179 
   -1263    -1273    -1291    -1363    -1444    -1488    -1511    -1531 
