Origin Time       2011/03/11 14:46:00
Lat.              38.103
Long.             142.860
Depth. (km)       24
Mag.              9.0
Station Code      AIC003
Station Lat.      35.1734
Station Long.     136.7402
Station Height(m) -1
Record Time       2011/03/11 14:49:09
Sampling Freq(Hz) 100Hz
Duration Time(s)  297
Dir.              E-W
Scale Factor      3920(gal)/6182761
Max. Acc. (gal)   16.365
Last Correction   2011/03/11 14:48:54
Memo.             
[...]
   -5428    -5782    -6026    -6163    -6293    -6390    -6466    -6584 
   -6740    -6918    -7181    -7591    -8005    -8309    -8640    -9005 
   -9278    -9527    -9806    -9988   -10020   -10007    -9998    -9952 
   -9903    -9917    -9916    -9776    -9568    -9395    -9182    -8926 
   -8765    -8700    -8625    -8566    -8554    -8423    -8124    -7866 
   -7775    -7794    -7924    -8231    -8545    -8637    -8635    -8643 
   -8520    -8368    -8369    -8407    -8380    -8355    -8321    -8154 
   -7878    -7656    -7501    -7357    -7341    -7500    -7669    -7744 
   -7766    -7776    -7769    -7803    -7930    -8079    -8278    -8624 
   -9023    -9287    -9431    -9641    -9858    -9905    -9935   -10090 
  -10273   -10431   -10612   -10818   -10970   -11088   -11285   -11538 
  -11789   -12158   -12639   -13053   -13512   -14072   -14521   -14966 
  -15617   -16374   -17086   -17815   -18678   -19538   -20259   -20945 
  -21665   -22396   -23109   -23766   -24338   -24860   -25387   -25887 
  -26353   -26858   -27400   -27868   -28262   -28756   -29287   -29701 
  -30131   -30573   -30954   -31377   -31742   -31955   -32130   -32269 
  -32397   -32608   -32874   -33138   -33420   -33741   -34046   -34367 
  -34802   -35196   -35449   -35699   -35927   -36099   -36360   -36690 
  -36937   -37143   -37383   -37527   -37543   -37609   -37723   -37730 
  -37701   -37753   -37793   -37759   -37734   -37690   -37520   -37284 
  -37035   -36651   -36097   -35482   -34832   -34050   -33177   -32335 
  -31416   -30282   -29060   -27920   -26810   -25631   -24476   -23410 
  -22292   -21083   -19967   -18946   -17858   -16811   -15924   -15041 
  -14116   -13270   -12456   -11582   -10718    -9870    -8896    -7831 
   -6840    -5867    -4827    -3855    -3010    -2202    -1460     -809 
    -167      446      913     1229     1474     1633     1652     1584 
    1544     1522     1401     1229     1113      959      738      583 
     472      289       75      -96     -283     -549     -839    -1120 
   -1502    -2009    -2463    -2881    -3443    -3982    -4360    -4813 
   -5338    -5817    -6425    -7159    -7813    -8463    -9192    -9854 
  -10375   -10815   -11187   -11409   -11434   -11370   -11321   -11254 
  -11201   -11241   -11312   -11353   -11421   -11536   -11592   -11546 
  -11498   -11414   -11178   -10874   -10601   -10321   -10032    -9810 
   -9587    -9192    -8667    -8135    -7605    -7159    -6828    -6466 
   -5988    -5511    -5152    -4773    -4316    -3949    -3616    -3231 
   -2966    -2853    -2754    -2665    -2685    -2811    -2884    -2838 
   -2772    -2662    -2387    -2059    -1839    -1596    -1297    -1139 
   -1094    -1041    -1097    -1343    -1569    -1661    -1772    -1914 
   -1988    -2092    -2339    -2655    -2939    -3271    -3688    -4058 
   -4412    -4839    -5205    -5491    -5821    -6116    -6270    -6375 
   -6524    -6676    -6799    -7003    -7355    -7729    -8093    -8621 
   -9270    -9838   -10418   -11089   -11695   -12231   -12782   -13247 
  -13599   -14001   -14461   -14823   -15093   -15406   -15726   -15980 
  -16299   -16660   -16845   -16951   -17160   -17328   -17385   -17476 
  -17650   -17861   -18064   -18295   -18652   -19037   -19411   -19937 
  -20532   -21026   -21489   -21980   -22397   -22670   -22920   -23201 
  -23383   -23536   -23804   -24082   -24312   -24588   -24913   -25154 
  -25319   -25556   -25753   -25800   -25901   -26103   -26260   -26426 
  -26667   -26856   -26912   -26948   -27009   -26995   -26968   -27062 
  -27180   -27249   -27355   -27495   -27549   -27498   -27435   -27388 
  -27308   -27233   -27302   -27471   -27605   -27787   -28011   -28092 
  -28086   -28078   -27969   -27742   -27501   -27221   -26816   -26335 
  -25812   -25182   -24463   -23817   -23229   -22485   -21670   -20971 
  -20244   -19418   -18647   -17898   -17039   -16160   -15392   -14664 
  -13936   -13268   -12641   -11992   -11349   -10808   -10278    -9612 
   -8949    -8375    -7724    -7038    -6495    -5993    -5354    -4727 
   -4262    -3762    -3213    -2766    -2313    -1829    -1445    -1157 
    -883     -604     -413     -337     -231      -43       85      163 
     317      395      343      402      481      379      284      287 
     237      111      -19     -140     -266     -357     -381     -390 
    -436     -481     -481     -517     -626     -720     -826    -1013 
   -1215    -1373    -1545    -1781    -2064    -2393    -2761    -3126 
   -3473    -3872    -4397    -4971    -5569    -6218    -6835    -7427 
   -8071    -8760    -9440   -10113   -10835   -11586   -12338   -13154 
  -14063   -14904   -15625   -16468   -17460   -18403   -19271   -20118 
  -20976   -21811   -22639   -23577   -24560   -25469   -26352   -27219 
  -27992   -28738   -29514   -30225   -30918   -31652   -32368   -33071 
  -33757   -34417   -35033   -35576   -36071   -36468   -36742   -36962 
  -37117   -37219   -37368   -37578   -37710   -37663   -37570   -37481 
  -37265   -36984   -36753   -36513   -36203   -35850   -35495   -35035 
  -34408   -33792   -33217   -32524   -31730   -30942   -30078   -29057 
  -28056   -27166   -26233   -25257   -24329   -23380   -22362   -21384 
  -20442   -19445   -18458   -17514   -16517   -15479   -14557   -13732 
  -12862   -12029   -11303   -10585    -9823    -9060    -8375    -7662 
   -6860    -6148    -5502    -4787    -4095    -3519    -2984    -2531 
   -2252    -2020    -1779    -1558    -1357    -1267    -1186    -1044 
   -1063    -1203    -1304    -1479    -1734    -1940    -2196    -2519 
   -2730    -2892    -3094    -3275    -3446    -3591    -3694    -3726 
   -3671    -3662    -3659    -3549    -3507    -3612    -3653    -3571 
   -3569    -3692    -3777    -3848    -3996    -4048    -3872    -3748 
   -3815    -3792    -3659    -3641    -3686    -3630    -3531    -3467 
   -3306    -3039    -2819    -2551    -2151    -1825    -1604    -1217 
    -707     -358      -62      357      707      881     1059     1303 
    1506     1699     1994     2332     2622     2925     3253     3496 
    3692     3988     4270     4385     4469     4560     4518     4463 
    4550     4595     4520     4502     4510     4408     4214     3969 
    3706     3409     3077     2804     2491     1964     1390      915 
     421      -71     -414     -701    -1166    -1735    -2199    -2705 
   -3337    -3844    -4233    -4728    -5257    -5614    -5946    -6482 
   -7070    -7602    -8226    -8933    -9624   -10325   -11036   -11664 
  -12250   -12926   -13590   -14132   -14704   -15373   -15988   -16524 
  -17106   -17700   -18202   -18704   -19246   -19705   -20123   -20608 
  -21086   -21481   -21849   -22242   -22580   -22872   -23287   -23676 
  -23809   -23911   -24142   -24334   -24417   -24482   -24567   -24564 
  -24464   -24377   -24246   -24072   -23960   -23878   -23777   -23657 
  -23569   -23545   -23467   -23322   -23190   -22982   -22721   -22527 
  -22285   -21919   -21572   -21296   -20975   -20574   -20242   -20024 
  -19797   -19609   -19528   -19389   -19080   -18791   -18604   -18308 
  -18017   -17940   -17806   -17526   -17393   -17385   -17299   -17225 
  -17270   -17259   -17076   -16853   -16709   -16593   -16426   -16274 
  -16146   -15938   -15709   -15517   -15243   -14897   -14610   -14360 
  -14069   -13810   -13614   -13339   -12958   -12590   -12237   -11861 
  -11518   -11264   -11058   -10821   -10639   -10561   -10398   -10161 
   -9949    -9685    -9400    -9138    -8868    -8578    -8213    -7878 
   -7641    -7347    -7035    -6804    -6567    -6353    -6232    -6148 
   -6049    -5928    -5801    -5673    -5552    -5486    -5466    -5420 
   -5357    -5368    -5452    -5499    -5512    -5584    -5687    -5763 
   -5884    -6066    -6126    -6076    -6155    -6216    -6130    -6173 
   -6290    -6261    -6247    -6383    -6497    -6474    -6539    -6743 
   -6803    -6804    -6953    -7067    -7047    -7025    -6988    -6882 
   -6807    -6831    -6863    -6882    -6974    -7073    -7083    -7104 
   -7205    -7277    -7315    -7469    -7692    -7839    -8018    -8279 
   -8476    -8623    -8814    -8976    -9039    -9132    -9348    -9587 
   -9796   -10033   -10294   -10510   -10685   -10912   -11173   -11391 
  -11612   -11886   -12174   -12444   -12757   -13156   -13524   -13880 
  -14363   -14846   -15246   -15771   -16377   -16837   -17286   -17880 
  -18433   -18899   -19421   -19962   -20467   -20998   -21528   -21997 
  -22381   -22671   -22947   -23249   -23522   -23784   -24018   -24153 
  -24257   -24403   -24493   -24423   -24311   -24296   -24244   -24058 
  -23865   -23649   -23299   -22936   -22664   -22338   -21869   -21355 
  -20808   -20174   -19524   -18896   -18239   -17612   -17078   -16539 
  -15916   -15267   -14637   -13926   -13098   -12267   -11477   -10671 
   -9870    -9151    -8434    -7642    -6904    -6246    -5579    -4966 
   -4446    -3940    -3418    -2964    -2605    -2196    -1744    -1361 
    -999     -702     -575     -551     -545     -596     -768     -956 
   -1091    -1294    -1564    -1789    -1980    -2281    -2689    -3052 
   -3418    -3874    -4333    -4758    -5216    -5680    -6028    -6397 
   -6956    -7537    -8075    -8688    -9289    -9753   -10172   -10660 
  -11095   -11428   -11863   -12442   -12971   -13426   -13938   -14411 
  -14741   -15081   -15401   -15570   -15721   -15956   -16166   -16289 
  -16466   -16719   -16839   -16890   -17086   -17355   -17576   -17828 
  -18192   -18532   -18713   -18841   -18996   -19094   -19124   -19200 
  -19300   -19332   -19384   -19466   -19456   -19422   -19475   -19489 
  -19355   -19226   -19204   -19159   -19023   -18879   -18706   -18439 
  -18177   -18014   -17855   -17639   -17463   -17382   -17279   -17106 
  -16968   -16767   -16384   -16059   -15913   -15800   -15685   -15544 
  -15338   -15158   -15063   -14954   -14728   -14467   -14312   -14242 
  -14201   -14213   -14224   -14124   -13938   -13770   -13619   -13390 
  -13145   -12962   -12695   -12375   -12237   -12187   -11988   -11740 
  -11618   -11502   -11299   -11140   -11022   -10849   -10740   -10776 
  -10786   -10734   -10850   -11128   -11300   -11380   -11487   -11517 
  -11529   -11713   -11973   -12123   -12284   -12596   -12869   -13052 
  -13323   -13626   -13819   -13952   -14178   -14514   -14817   -15132 
  -15562   -15961   -16269   -16688   -17283   -17860   -18353   -18827 
  -19208   -19531   -19920   -20327   -20697   -21027   -21385   -21846 
  -22291   -22637   -22974   -23315   -23669   -24094   -24492   -24744 
  -24985   -25332   -25658   -25935   -26282   -26611   -26795   -26977 
  -27201   -27275   -27245   -27259   -27247   -27167   -27041   -26804 
  -26495   -26210   -25905   -25547   -25122   -24631   -24176   -23687 
  -23002   -22273   -21632   -20977   -20330   -19751   -19076   -18288 
  -17615   -17004   -16249   -15458   -14763   -14055   -13289   -12573 
  -11927   -11279   -10626   -10058    -9562    -9019    -8484    -8058 
   -7657    -7269    -6968    -6726    -6510    -6349    -6284    -6221 
   -6085    -5990    -5939    -5849    -5852    -6031    -6208    -6299 
   -6432    -6663    -6892    -7087    -7331    -7558    -7698    -7935 
   -8313    -8609    -8787    -9018    -9274    -9443    -9662    -9974 
  -10213   -10411   -10685   -10956   -11154   -11335   -11516   -11634 
  -11703   -11827   -11986   -12062   -12078   -12095   -12070   -12006 
  -11960   -11875   -11673   -11469   -11366   -11188   -10868   -10585 
  -10328    -9996    -9679    -9440    -9175    -8826    -8508    -8214 
   -7818    -7476    -7343    -7232    -7029    -6851    -6728    -6562 
   -6417    -6415    -6423    -6353    -6366    -6495    -6560    -6518 
   -6547    -6634    -6615    -6577    -6658    -6723    -6617    -6523 
   -6609    -6648    -6549    -6499    -6433    -6254    -6149    -6140 
   -6066    -5954    -5849    -5686    -5482    -5313    -5141    -4841 
   -4498    -4302    -4194    -4035    -3838    -3658    -3455    -3243 
   -3160    -3099    -2871    -2666    -2593    -2478    -2351    -2351 
   -2409    -2418    -2436    -2553    -2644    -2657    -2798    -3066 
   -3295    -3502    -3709    -3893    -4105    -4421    -4807    -5178 
   -5560    -5912    -6149    -6440    -6916    -7399    -7807    -8290 
   -8820    -9268    -9690   -10162   -10627   -10983   -11320   -11790 
  -12239   -12491   -12704   -13060   -13398   -13555   -13729   -13998 
  -14186   -14319   -14466   -14546   -14538   -14499   -14445   -14353 
  -14346   -14482   -14515   -14400   -14351   -14330   -14160   -13888 
  -13699   -13542   -13249   -13001   -12924   -12742   -12388   -12108 
  -11874   -11550   -11244   -10974   -10594   -10145    -9767    -9435 
   -9039    -8621    -8299    -8029    -7753    -7475    -7174    -6847 
   -6491    -6170    -5909    -5606    -5361    -5288    -5204    -5073 
   -5078    -5138    -5127    -5229    -5503    -5732    -5894    -6146 
   -6470    -6757    -7036    -7416    -7870    -8342    -8892    -9481 
   -9991   -10505   -11112   -11677   -12173   -12809   -13577   -14269 
  -14944   -15679   -16338   -16933   -17617   -18364   -19093   -19840 
  -20612   -21333   -22033   -22815   -23646   -24427   -25189   -25978 
  -26722   -27440   -28229   -28992   -29582   -30160   -30919   -31667 
  -32281   -32967   -33719   -34354   -34869   -35351   -35857   -36317 
  -36697   -37096   -37485   -37776   -38036   -38314   -38559   -38735 
  -38892   -39045   -39110   -39100   -39111   -39069   -38925   -38843 
  -38819   -38678   -38501   -38406   -38234   -37951   -37733   -37534 
  -37228   -36946   -36766   -36442   -35945   -35617   -35441   -35138 
  -34723   -34276   -33790   -33321   -32932   -32531   -31981   -31433 
  -31039   -30620   -30063   -29501   -28945   -28290   -27631   -27070 
  -26500   -25848   -25205   -24636   -24079   -23527   -23008   -22417 
  -21744   -21109   -20528   -19947   -19313   -18637   -17976   -17338 
  -16737   -16161   -15521   -14813   -14201   -13702   -13151   -12559 
  -11992   -11396   -10809   -10308    -9844    -9383    -8978    -8634 
   -8227    -7681    -7158    -6774    -6433    -6104    -5810    -5480 
   -5110    -4822    -4644    -4479    -4370    -4381    -4342    -4213 
   -4193    -4233    -4166    -4109    -4123    -4109    -4103    -4131 
   -4163    -4176    -4126    -4131    -4290    -4411    -4404    -4460 
   -4578    -4640    -4768    -4983    -5110    -5228    -5453    -5618 
   -5678    -5795    -5990    -6116    -6168    -6295    -6453    -6570 
   -6745    -6888    -6901    -6979    -7171    -7314    -7418    -7592 
   -7806    -8022    -8305    -8599    -8805    -9043    -9413    -9764 
   -9948   -10133   -10490   -10858   -11063   -11179   -11451   -11856 
  -12022   -12029   -12255   -12549   -12647   -12776   -13065   -13216 
  -13272   -13500   -13725   -13889   -14151   -14352   -14412   -14509 
  -14655   -14707   -14642   -14601   -14605   -14520   -14411   -14360 
  -14237   -14058   -13948   -13835   -13577   -13292   -13205   -13148 
  -12907   -12697   -12601   -12445   -12288   -12213   -12099   -11910 
  -11785   -11730   -11621   -11531   -11562   -11556   -11450   -11393 
  -11360   -11279   -11227   -11238   -11263   -11172   -11075   -11181 
  -11272   -11257   -11360   -11526   -11611   -11708   -11903   -12028 
  -12085   -12298   -12514   -12587   -12744   -13007   -13197   -13368 
  -13644   -13890   -14008   -14149   -14371   -14602   -14782   -14934 
  -15103   -15226   -15336   -15528   -15694   -15718   -15748   -15856 
  -15873   -15823   -15824   -15771   -15643   -15594   -15601   -15466 
  -15248   -15099   -14918   -14663   -14447   -14281   -14086   -13834 
  -13609   -13422   -13214   -13004   -12812   -12575   -12274   -12095 
  -12060   -11884   -11578   -11398   -11294   -11092   -10900   -10802 
  -10637   -10464   -10428   -10357   -10177   -10055    -9975    -9815 
   -9632    -9545    -9539    -9468    -9358    -9366    -9358    -9221 
   -9182    -9256    -9254    -9231    -9282    -9354    -9453    -9677 
   -9922   -10027   -10121   -10314   -10504   -10656   -10870   -11148 
  -11338   -11511   -11818   -12070   -12163   -12373   -12741   -12936 
  -12990   -13147   -13278   -13328   -13432   -13529   -13561   -13592 
  -13674   -13752   -13758   -13740   -13721   -13647   -13499   -13345 
  -13240   -13139   -13056   -12998   -12862   -12661   -12497   -12359 
  -12176   -11948   -11729   -11491   -11203   -10975   -10826   -10594 
  -10266   -10019    -9809    -9503    -9240    -9096    -8889    -8597 
   -8383    -8265    -8140    -8010    -7919    -7805    -7681    -7613 
   -7529    -7409    -7360    -7426    -7530    -7593    -7686    -7871 
   -8067    -8227    -8443    -8692    -8815    -8945    -9221    -9437 
   -9589    -9860   -10171   -10399   -10616   -10950   -11261   -11364 
  -11557   -11949   -12208   -12391   -12629   -12839   -13101   -13436 
  -13729   -13955   -14160   -14416   -14663   -14840   -15044   -15286 
  -15493   -15667   -15872   -16048   -16114   -16223   -16373   -16384 
  -16399   -16540   -16601   -16509   -16490   -16579   -16541   -16469 
  -16508   -16482   -16352   -16213   -16049   -15818   -15549   -15364 
  -15228   -14983   -14740   -14612   -14409   -14143   -14026   -13914 
  -13673   -13512   -13454   -13313   -13132   -13065   -13099   -13095 
  -13045   -13096   -13217   -13292   -13402   -13582   -13722   -13849 
  -14039   -14242   -14426   -14684   -15059   -15395   -15664   -16036 
  -16476   -16832   -17166   -17620   -18083   -18471   -18937   -19437 
  -19865   -20308   -20802   -21293   -21722   -22153   -22642   -23090 
  -23507   -23939   -24303   -24655   -25080   -25510   -25916   -26326 
  -26706   -27027   -27313   -27587   -27853   -28131   -28444   -28772 
  -28998   -29093   -29289   -29583   -29743   -29815   -29898   -29942 
  -29939   -29964   -30025   -30023   -29957   -29895   -29826   -29718 
  -29583   -29481   -29372   -29227   -29140   -29077   -28923   -28737 
  -28661   -28577   -28339   -28155   -28079   -27898   -27660   -27486 
  -27310   -27089   -26929   -26787   -26532   -26298   -26140   -25947 
  -25693   -25374   -25088   -24831   -24496   -24181   -23885   -23506 
  -23148   -22839   -22451   -22006   -21616   -21226   -20782   -20348 
  -19948   -19526   -19061   -18599   -18134   -17610   -17078   -16622 
  -16185   -15668   -15153   -14714   -14222   -13669   -13192   -12799 
  -12387   -11921   -11468   -11008   -10519   -10119    -9757    -9314 
   -8873    -8498    -8133    -7745    -7407    -7147    -6801    -6380 
   -6109    -5877    -5514    -5241    -5085    -4813    -4515    -4349 
   -4168    -3890    -3667    -3534    -3326    -3110    -3055    -2954 
   -2708    -2612    -2645    -2523    -2348    -2321    -2310    -2216 
   -2190    -2238    -2216    -2190    -2275    -2331    -2252    -2215 
   -2280    -2254    -2137    -2122    -2167    -2129    -2026    -1895 
   -1773    -1721    -1707    -1690    -1647    -1595    -1566    -1492 
   -1393    -1391    -1503    -1567    -1509    -1516    -1558    -1435 
   -1333    -1376    -1339    -1188    -1103    -1093    -1026     -916 
    -844     -768     -650     -559     -488     -331     -139      -53 
     -36       22      131      211      249      289      285      229 
