Origin Time       2011/03/11 14:46:00
Lat.              38.103
Long.             142.860
Depth. (km)       24
Mag.              9.0
Station Code      AIC004
Station Lat.      35.0631
Station Long.     136.9738
Station Height(m) 30
Record Time       2011/03/11 14:48:44
Sampling Freq(Hz) 100Hz
Duration Time(s)  300
Dir.              E-W
Scale Factor      3920(gal)/6182761
Max. Acc. (gal)   9.567
Last Correction   2011/03/11 14:48:29
Memo.             
[...]
  -93897   -94118   -94307   -94484   -94634   -94808   -95044   -95309 
  -95599   -95902   -96183   -96449   -96707   -96917   -97029   -97012 
  -96844   -96547   -96185   -95765   -95269   -94686   -93997   -93212 
  -92385   -91563   -90727   -89871   -89072   -88381   -87780   -87287 
  -86905   -86550   -86159   -85733   -85299   -84892   -84531   -84219 
  -83939   -83678   -83451   -83278   -83206   -83258   -83383   -83568 
  -83805   -84013   -84204   -84425   -84644   -84906   -85257   -85630 
  -86015   -86420   -86754   -86993   -87198   -87414   -87647   -87849 
  -88002   -88199   -88473   -88775   -89162   -89695   -90315   -90966 
  -91616   -92193   -92670   -93060   -93357   -93579   -93772   -93924 
  -94011   -94085   -94185   -94268   -94301   -94325   -94387   -94452 
  -94460   -94432   -94408   -94386   -94374   -94366   -94315   -94163 
  -93867   -93441   -92896   -92254   -91583   -90899   -90193   -89491 
  -88824   -88250   -87822   -87523   -87274   -87006   -86697   -86369 
  -86059   -85800   -85594   -85406   -85200   -84951   -84639   -84326 
  -84101   -83961   -83929   -84030   -84195   -84387   -84632   -84928 
  -85270   -85685   -86156   -86613   -87035   -87405   -87685   -87871 
  -87991   -88067   -88092   -88068   -88004   -87871   -87657   -87390 
  -87078   -86716   -86277   -85757   -85239   -84794   -84391   -84024 
  -83742   -83577   -83526   -83559   -83644   -83765   -83914   -84091 
  -84300   -84552   -84873   -85251   -85652   -86057   -86442   -86793 
  -87138   -87534   -88028   -88620   -89271   -89940   -90621   -91325 
  -92022   -92696   -93334   -93886   -94312   -94612   -94810   -94921 
  -94945   -94877   -94747   -94627   -94537   -94437   -94300   -94124 
  -93947   -93792   -93650   -93521   -93385   -93202   -92983   -92772 
  -92588   -92419   -92260   -92136   -92055   -91978   -91889   -91792 
  -91653   -91452   -91198   -90923   -90693   -90571   -90561   -90616 
  -90693   -90773   -90869   -90998   -91182   -91414   -91606   -91720 
  -91805   -91877   -91933   -91994   -92058   -92112   -92146   -92112 
  -91979   -91775   -91512   -91190   -90867   -90580   -90321   -90104 
  -89945   -89859   -89851   -89875   -89852   -89742   -89577   -89392 
  -89208   -89101   -89123   -89258   -89484   -89806   -90260   -90855 
  -91520   -92195   -92905   -93697   -94561   -95457   -96366   -97248 
  -98086   -98906   -99690  -100410  -101054  -101593  -102043  -102418 
 -102663  -102771  -102752  -102613  -102402  -102144  -101858  -101602 
 -101389  -101185  -100980  -100787  -100607  -100447  -100277  -100016 
  -99677   -99348   -98997   -98579   -98129   -97598   -97007   -96519 
  -96146   -95821   -95562   -95319   -95016   -94661   -94326   -94052 
  -93781   -93471   -93117   -92672   -92233   -91936   -91698   -91530 
  -91484   -91410   -91387   -91467   -91458   -91501   -91656   -91689 
  -91696   -91764   -91793   -91892   -92048   -92055   -91972   -91895 
  -91718   -91455   -91221   -91001   -90829   -90818   -90943   -91119 
  -91357   -91686   -92050   -92479   -93034   -93605   -94143   -94626 
  -94910   -95074   -95293   -95516   -95813   -96310   -96827   -97292 
  -97837   -98380   -98870   -99419   -99989  -100498  -100914  -101194 
 -101271  -101080  -100656  -100100   -99516   -98917   -98241   -97566 
  -96918   -96220   -95562   -94983   -94363   -93737   -93203   -92665 
  -92070   -91528   -91066   -90725   -90608   -90635   -90685   -90807 
  -91026   -91272   -91577   -91934   -92217   -92353   -92304   -92113 
  -91877   -91584   -91178   -90638   -90027   -89466   -88914   -88329 
  -87870   -87558   -87328   -87217   -87103   -86934   -86900   -86982 
  -87032   -87045   -86963   -86729   -86483   -86315   -86161   -85988 
  -85781   -85544   -85338   -85229   -85285   -85482   -85693   -85866 
  -86075   -86365   -86666   -86956   -87224   -87350   -87374   -87455 
  -87558   -87611   -87667   -87736   -87803   -87955   -88199   -88424 
  -88621   -88784   -88854   -88896   -89022   -89212   -89369   -89429 
  -89383   -89276   -89155   -89038   -88941   -88782   -88494   -88113 
  -87662   -87233   -86927   -86712   -86524   -86329   -86102   -85812 
  -85522   -85294   -85057   -84811   -84592   -84374   -84186   -83983 
  -83726   -83501   -83314   -83158   -83107   -83136   -83167   -83200 
  -83227   -83239   -83304   -83459   -83666   -83908   -84179   -84471 
  -84864   -85388   -85915   -86413   -86924   -87481   -88172   -88915 
  -89573   -90182   -90720   -91164   -91619   -92119   -92576   -92942 
  -93184   -93224   -93163   -93139   -93100   -93068   -93083   -93033 
  -92886   -92677   -92422   -92154   -91896   -91628   -91270   -90798 
  -90276   -89728   -89207   -88836   -88638   -88584   -88672   -88816 
  -88940   -89138   -89455   -89804   -90166   -90514   -90742   -90849 
  -90905   -90895   -90852   -90868   -90918   -90953   -91000   -91035 
  -91015   -90940   -90862   -90873   -90967   -91138   -91408   -91647 
  -91808   -91983   -92112   -92162   -92182   -92108   -91946   -91809 
  -91723   -91684   -91692   -91730   -91858   -92145   -92549   -93042 
  -93633   -94238   -94741   -95139   -95486   -95782   -96023   -96185 
  -96189   -96024   -95752   -95457   -95201   -94963   -94765   -94635 
  -94513   -94407   -94409   -94560   -94866   -95251   -95624   -95977 
  -96300   -96580   -96876   -97170   -97350   -97438   -97480   -97417 
  -97296   -97191   -97103   -97034   -96944   -96830   -96715   -96488 
  -96083   -95604   -95089   -94488   -93828   -93167   -92509   -91862 
  -91264   -90761   -90411   -90249   -90274   -90461   -90805   -91250 
  -91711   -92201   -92766   -93403   -94089   -94775   -95436   -96048 
  -96547   -96931   -97236   -97508   -97808   -98088   -98304   -98480 
  -98524   -98390   -98188   -97910   -97532   -97160   -96805   -96390 
  -95903   -95336   -94706   -94118   -93584   -93036   -92540   -92109 
  -91604   -91067   -90588   -90116   -89757   -89611   -89451   -89197 
  -89051   -89006   -88946   -88937   -89019   -89161   -89403   -89712 
  -89940   -90079   -90222   -90324   -90365   -90441   -90555   -90638 
  -90648   -90551   -90348   -90072   -89795   -89593   -89457   -89355 
  -89329   -89341   -89301   -89232   -89162   -89105   -89143   -89269 
  -89381   -89462   -89555   -89615   -89653   -89796   -90035   -90295 
  -90604   -90957   -91309   -91659   -91952   -92144   -92329   -92617 
  -92992   -93374   -93684   -93852   -93849   -93766   -93725   -93709 
  -93665   -93571   -93397   -93191   -93043   -92978   -93033   -93229 
  -93512   -93847   -94252   -94651   -94941   -95122   -95223   -95298 
  -95410   -95500   -95511   -95533   -95646   -95845   -96047   -96207 
  -96390   -96582   -96724   -96830   -96832   -96664   -96338   -95833 
  -95195   -94500   -93733   -92850   -91822   -90640   -89366   -88091 
  -86828   -85566   -84445   -83506   -82597   -81749   -81026   -80352 
  -79782   -79395   -79118   -78922   -78847   -78898   -79104   -79421 
  -79718   -80001   -80334   -80705   -81162   -81664   -82066   -82447 
  -82915   -83405   -83913   -84458   -84996   -85530   -86077   -86613 
  -87051   -87369   -87733   -88184   -88620   -89051   -89477   -89874 
  -90280   -90722   -91180   -91634   -92063   -92431   -92763   -93088 
  -93338   -93484   -93536   -93465   -93310   -93115   -92833   -92475 
  -92117   -91733   -91241   -90694   -90253   -89975   -89793   -89689 
  -89662   -89598   -89479   -89431   -89454   -89572   -89829   -90088 
  -90300   -90513   -90736   -91061   -91485   -91880   -92249   -92629 
  -93010   -93440   -93930   -94355   -94645   -94866   -95023   -95106 
  -95178   -95170   -94993   -94717   -94381   -93981   -93577   -93217 
  -92879   -92535   -92268   -92126   -91991   -91792   -91597   -91429 
  -91216   -91012   -90939   -90917   -90803   -90604   -90408   -90303 
  -90312   -90405   -90573   -90777   -90978   -91183   -91407   -91635 
  -91812   -91904   -91931   -91874   -91723   -91553   -91346   -91095 
  -90968   -90969   -90963   -91007   -91125   -91235   -91393   -91640 
  -91907   -92220   -92598   -92986   -93392   -93794   -94102   -94328 
  -94515   -94615   -94627   -94643   -94701   -94761   -94802   -94828 
  -94816   -94735   -94579   -94303   -93828   -93171   -92423   -91589 
  -90725   -89960   -89281   -88649   -88143   -87826   -87676   -87659 
  -87762   -87924   -88092   -88286   -88512   -88754   -89039   -89339 
  -89573   -89746   -89886   -90023   -90234   -90518   -90807   -91100 
  -91447   -91898   -92451   -93063   -93648   -94079   -94341   -94499 
  -94544   -94541   -94579   -94521   -94284   -94013   -93735   -93432 
  -93261   -93270   -93329   -93436   -93611   -93733   -93804   -93949 
  -94172   -94433   -94687   -94816   -94787   -94723   -94731   -94824 
  -94961   -95032   -94947   -94708   -94392   -94162   -94109   -94147 
  -94176   -94038   -93656   -93255   -93022   -93005   -93190   -93327 
  -93240   -93054   -92934   -92972   -93074   -93099   -93090   -92940 
  -92433   -91793   -91348   -90994   -90533   -89972   -89408   -88878 
  -88354   -87934   -87670   -87355   -86929   -86545   -86145   -85644 
  -85199   -84884   -84663   -84589   -84505   -84187   -83814   -83650 
  -83765   -84183   -84691   -85001   -85208   -85452   -85746   -86297 
  -87162   -88042   -88780   -89304   -89585   -89988   -90735   -91553 
  -92258   -92765   -93013   -93207   -93451   -93633   -93841   -94211 
  -94620   -94889   -95039   -95154   -95211   -95175   -95096   -94976 
  -94722   -94318   -93817   -93279   -92780   -92313   -91840   -91436 
  -91161   -90916   -90645   -90402   -90161   -89920   -89658   -89248 
  -88817   -88569   -88355   -88071   -87831   -87649   -87544   -87571 
  -87602   -87529   -87424   -87316   -87182   -87039   -86832   -86494 
  -86169   -85957   -85641   -85193   -84815   -84452   -84121   -83977 
  -83935   -83942   -84099   -84351   -84621   -84982   -85490   -86119 
  -86794   -87493   -88229   -88856   -89303   -89749   -90303   -90938 
  -91586   -92149   -92617   -92980   -93176   -93293   -93430   -93426 
  -93112   -92602   -92033   -91377   -90720   -90188   -89626   -88913 
  -88161   -87405   -86650   -85971   -85376   -84858   -84452   -84199 
  -84085   -84142   -84410   -84743   -85092   -85510   -85883   -86163 
  -86379   -86484   -86540   -86598   -86572   -86464   -86405   -86502 
  -86730   -87006   -87355   -87804   -88335   -89001   -89809   -90673 
  -91559   -92438   -93246   -93973   -94649   -95354   -96134   -96864 
  -97497   -98130   -98659   -99064   -99552  -100088  -100574  -101025 
 -101358  -101575  -101754  -101847  -101831  -101754  -101659  -101548 
 -101377  -101163  -100923  -100637  -100383  -100176   -99861   -99460 
  -99189   -99061   -98899   -98645   -98384   -98158   -97898   -97503 
  -96956   -96371   -95845   -95294   -94616   -93889   -93258   -92767 
  -92382   -92047   -91684   -91317   -91062   -90891   -90680   -90458 
  -90270   -89990   -89648   -89452   -89342   -89157   -89046   -89112 
  -89133   -89017   -88953   -89009   -89087   -89171   -89233   -89229 
  -89277   -89438   -89572   -89675   -89889   -90218   -90554   -90907 
  -91350   -91895   -92503   -93120   -93748   -94447   -95182   -95884 
  -96572   -97247   -97832   -98253   -98524   -98690   -98820   -99007 
  -99240   -99457   -99655   -99840  -100037  -100243  -100418  -100582 
 -100720  -100718  -100525  -100143   -99585   -98953   -98320   -97612 
  -96793   -95947   -95121   -94269   -93403   -92586   -91820   -91168 
  -90734   -90447   -90176   -89946   -89804   -89692   -89554   -89405 
  -89211   -88931   -88616   -88308   -88020   -87768   -87563   -87441 
  -87452   -87595   -87780   -87945   -88137   -88347   -88523   -88706 
  -88924   -89109   -89243   -89354   -89430   -89495   -89559   -89562 
  -89529   -89550   -89612   -89691   -89801   -89862   -89832   -89836 
  -89986   -90237   -90469   -90588   -90601   -90561   -90467   -90302 
  -90120   -90033   -90098   -90221   -90276   -90263   -90274   -90341 
  -90429   -90551   -90709   -90870   -91023   -91147   -91319   -91654 
  -92089   -92539   -93056   -93674   -94334   -94940   -95479   -95990 
  -96415   -96714   -96916   -96997   -96976   -96853   -96521   -95992 
  -95347   -94585   -93739   -92888   -92078   -91272   -90447   -89725 
  -89177   -88749   -88428   -88209   -88060   -87994   -87996   -88019 
  -88104   -88302   -88527   -88687   -88825   -88975   -89042   -88978 
  -88900   -88905   -88988   -89132   -89345   -89668   -90114   -90653 
  -91234   -91772   -92246   -92690   -93067   -93343   -93532   -93619 
  -93577   -93441   -93242   -92968   -92588   -92132   -91686   -91267 
  -90860   -90490   -90129   -89755   -89401   -89080   -88819   -88620 
  -88416   -88200   -88022   -87895   -87798   -87662   -87442   -87175 
  -86849   -86424   -85969   -85575   -85288   -85102   -84957   -84825 
  -84758   -84848   -85129   -85546   -86037   -86581   -87193   -87864 
  -88519   -89154   -89861   -90632   -91326   -91836   -92176   -92429 
  -92623   -92722   -92722   -92655   -92552   -92449   -92348   -92256 
  -92247   -92354   -92529   -92745   -93040   -93442   -93881   -94281 
  -94690   -95131   -95554   -95952   -96336   -96684   -96996   -97305 
  -97643   -97978   -98287   -98672   -99174   -99695  -100251  -100930 
 -101650  -102312  -102924  -103464  -103915  -104342  -104789  -105239 
 -105619  -105849  -105980  -106118  -106206  -106162  -106010  -105752 
 -105411  -105083  -104802  -104480  -104043  -103532  -102962  -102279 
 -101538  -100844  -100199   -99598   -99066   -98626   -98288   -98050 
  -97891   -97787   -97718   -97631   -97456   -97174   -96831   -96469 
  -96040   -95506   -94900   -94239   -93531   -92790   -92084   -91525 
  -91148   -90930   -90867   -90916   -91024   -91236   -91585   -91968 
  -92280   -92520   -92660   -92620   -92468   -92340   -92204   -92018 
  -91787   -91446   -91048   -90759   -90560   -90337   -90069   -89736 
  -89319   -88923   -88618   -88323   -88017   -87734   -87382   -86935 
  -86512   -86131   -85729   -85326   -84942   -84594   -84351   -84273 
  -84333   -84483   -84679   -84838   -84939   -85051   -85199   -85415 
  -85760   -86181   -86560   -86859   -87091   -87316   -87592   -87894 
  -88206   -88556   -88960   -89431   -89897   -90291   -90664   -90996 
  -91237   -91453   -91647   -91709   -91635   -91567   -91606   -91743 
  -91926   -92101   -92222   -92255   -92222   -92156   -92102   -92161 
  -92309   -92399   -92430   -92481   -92546   -92596   -92662   -92788 
  -92976   -93203   -93454   -93727   -93999   -94248   -94489   -94722 
  -94934   -95090   -95177   -95190   -95099   -94919   -94650   -94326 
  -94026   -93702   -93284   -92787   -92219   -91582   -90920   -90290 
  -89716   -89250   -88937   -88756   -88686   -88731   -88890   -89133 
  -89376   -89546   -89646   -89674   -89561   -89281   -88893   -88412 
  -87850   -87286   -86746   -86215   -85757   -85452   -85273   -85188 
  -85292   -85625   -86087   -86641   -87284   -87900   -88429   -88962 
  -89488   -89938   -90370   -90786   -91102   -91361   -91615   -91749 
  -91725   -91683   -91647   -91609   -91675   -91831   -92011   -92238 
  -92491   -92744   -93054   -93405   -93700   -93969   -94283   -94588 
  -94818   -95030   -95300   -95610   -95883   -96069   -96176   -96223 
  -96210   -96161   -96116   -96119   -96194   -96264   -96286   -96298 
  -96296   -96264   -96233   -96236   -96296   -96431   -96605   -96791 
  -97027   -97328   -97647   -97960   -98280   -98524   -98612   -98631 
  -98589   -98415   -98187   -97950   -97675   -97404   -97149   -96897 
  -96691   -96528   -96328   -96117   -95996   -95921   -95770   -95596 
  -95503   -95413   -95248   -95037   -94752   -94369   -93959   -93523 
  -93031   -92579   -92259   -92035   -91880   -91821   -91782   -91662 
  -91558   -91558   -91538   -91455   -91369   -91177   -90882   -90649 
  -90420   -90129   -89947   -89903   -89874   -89832   -89754   -89634 
  -89578   -89637   -89771   -89955   -90100   -90115   -90121   -90266 
  -90458   -90572   -90608   -90558   -90411   -90233   -90073   -89918 
  -89780   -89669   -89489   -89191   -88906   -88685   -88440   -88212 
  -88079   -87992   -87915   -87876   -87873   -87879   -87946   -88134 
  -88363   -88526   -88600   -88575   -88497   -88516   -88684   -88854 
  -88917   -88884   -88764   -88574   -88365   -88161   -87979   -87880 
  -87853   -87810   -87757   -87771   -87907   -88242   -88713   -89137 
  -89513   -89917   -90297   -90609   -90911   -91199   -91361   -91367 
  -91310   -91253   -91180   -91079   -91020   -91065   -91155   -91224 
  -91293   -91407   -91538   -91653   -91743   -91741   -91607   -91392 
  -91075   -90593   -90000   -89394   -88781   -88109   -87340   -86546 
  -85863   -85314   -84877   -84569   -84370   -84278   -84356   -84606 
  -84953   -85363   -85829   -86327   -86805   -87321   -88025   -88833 
  -89514   -90045   -90508   -90897   -91220   -91542   -91886   -92223 
  -92540   -92795   -92984   -93128   -93158   -93075   -92930   -92707 
  -92433   -92110   -91686   -91191   -90678   -90175   -89739   -89373 
  -89019   -88675   -88351   -88032   -87734   -87507   -87404   -87411 
  -87479   -87654   -87931   -88206   -88496   -88862   -89299   -89813 
  -90369   -90916   -91440   -91876   -92217   -92543   -92825   -93045 
  -93267   -93461   -93596   -93691   -93748   -93801   -93866   -93929 
  -94048   -94161   -94138   -94089   -94061   -93910   -93708   -93603 
  -93547   -93447   -93285   -93146   -93122   -93093   -92891   -92605 
  -92362   -92163   -92039   -91917   -91695   -91564   -91685   -91934 
  -92162   -92316   -92424   -92529   -92568   -92512   -92466   -92474 
  -92517   -92572   -92575   -92539   -92509   -92506   -92555   -92534 
  -92344   -92110   -91889   -91606   -91234   -90733   -90129   -89555 
  -89040   -88517   -87894   -87179   -86541   -86018   -85546   -85177 
  -84932   -84784   -84763   -84849   -85039   -85343   -85565   -85601 
  -85604   -85641   -85687   -85711   -85678   -85629   -85556   -85500 
  -85595   -85821   -86083   -86366   -86688   -87022   -87341   -87711 
  -88128   -88437   -88548   -88504   -88378   -88277   -88264   -88303 
  -88300   -88164   -88001   -87986   -88041   -88089   -88197   -88358 
  -88533   -88662   -88775   -89093   -89448   -89440   -89282   -89316 
  -89375   -89448   -89762   -90060   -90144   -90352   -90748   -91202 
  -91743   -92204   -92497   -92725   -92862   -93036   -93406   -93774 
  -93995   -94202   -94415   -94523   -94537   -94506   -94358   -94024 
  -93609   -93248   -92945   -92665   -92352   -91959   -91554   -91338 
  -91398   -91466   -91463   -91629   -91816   -91854   -91989   -92274 
  -92574   -92972   -93520   -94055   -94451   -94777   -95064   -94973 
  -94444   -94402   -95154   -95429   -94539   -93329   -92674   -92616 
  -92431   -91490   -90508   -90474   -90656   -89996   -89122   -88888 
  -89121   -89403   -89179   -88473   -88250   -88434   -88238   -88030 
  -88094   -88001   -87889   -88020   -88127   -88101   -88142   -88226 
  -88289   -88582   -89020   -89111   -88926   -88834   -88776   -88746 
  -88962   -89191   -88974   -88556   -88500   -88736   -88876   -88867 
