Origin Time       2011/03/11 14:46:00
Lat.              38.103
Long.             142.860
Depth. (km)       24
Mag.              9.0
Station Code      AIC011
Station Lat.      34.9966
Station Long.     136.8641
Station Height(m) 5
Record Time       2011/03/11 14:48:58
Sampling Freq(Hz) 100Hz
Duration Time(s)  279
Dir.              E-W
Scale Factor      3920(gal)/6182761
Max. Acc. (gal)   11.336
Last Correction   2011/03/11 14:48:43
Memo.             
[...]
  -15285   -14709   -14052   -13527   -13012   -12263   -11567   -11125 
  -10603    -9993    -9598    -9236    -8741    -8452    -8430    -8320 
   -8235    -8451    -8729    -9029    -9623   -10396   -11166   -12103 
  -13162   -14031   -14945   -16161   -17232   -18015   -18825   -19567 
  -20010   -20281   -20547   -20626   -20434   -20166   -19642   -18682 
  -17747   -17031   -16017   -14682   -13559   -12521   -11319   -10422 
   -9833    -8956    -8030    -7610    -7498    -7564    -8044    -8731 
   -9245    -9758   -10513   -11121   -11513   -12304   -13236   -13777 
  -14365   -15062   -15368   -15461   -15806   -16085   -15832   -15562 
  -15651   -15562   -15303   -15330   -15382   -15115   -14765   -14560 
  -14421   -14333   -14395   -14491   -14560   -14860   -15385   -15844 
  -16306   -16777   -16846   -16533   -16326   -16409   -16683   -17037 
  -17199   -16933   -16566   -16412   -16129   -15637   -15453   -15569 
  -15593   -15648   -15902   -16066   -16008   -15864   -15638   -15472 
  -15634   -15804   -15412   -14615   -14001   -13686   -13405   -13126 
  -12911   -12699   -12513   -12312   -12026   -11922   -12301   -12967 
  -13649   -14483   -15508   -16492   -17448   -18513   -19583   -20613 
  -21723   -22781   -23463   -23876   -24273   -24428   -24364   -24494 
  -24665   -24560   -24310   -23897   -23085   -22022   -20908   -19614 
  -18260   -17300   -16748   -16264   -15868   -15622   -15254   -14762 
  -14540   -14704   -14966   -15298   -15869   -16433   -16953   -17749 
  -18675   -19566   -20598   -21634   -22360   -22855   -23413   -23987 
  -24332   -24601   -24872   -24718   -24258   -23992   -23626   -22959 
  -22446   -21953   -21167   -20494   -20033   -19405   -18727   -18260 
  -17718   -16847   -15946   -15237   -14574   -13955   -13434   -12947 
  -12667   -12660   -12476   -11965   -11444   -10944   -10425   -10094 
   -9940    -9724    -9514    -9451    -9285    -8972    -8822    -8795 
   -8696    -8559    -8465    -8417    -8351    -8359    -8508    -8599 
   -8689    -8933    -9207    -9494    -9735    -9688    -9490    -9475 
   -9630    -9790    -9864    -9831    -9782    -9873   -10255   -10750 
  -11082   -11563   -12461   -13318   -13877   -14395   -14899   -15396 
  -16020   -16613   -17044   -17431   -17707   -17656   -17394   -17269 
  -17194   -16809   -16236   -15824   -15493   -15012   -14498   -14024 
  -13443   -12951   -12757   -12555   -12261   -12135   -11966   -11541 
  -11288   -11420   -11582   -11770   -12254   -12712   -12798   -12900 
  -13244   -13380   -13231   -13165   -13006   -12576   -12269   -12053 
  -11524   -10945   -10661   -10424   -10171   -10114   -10130   -10066 
  -10005    -9901    -9666    -9386    -9149    -9036    -9075    -9228 
   -9495    -9704    -9871   -10290   -10856   -11327   -11695   -12030 
  -12424   -12861   -13294   -13704   -14074   -14391   -14660   -14971 
  -15349   -15784   -16394   -17181   -18004   -18793   -19557   -20352 
  -21232   -22157   -23048   -23830   -24358   -24603   -24821   -25049 
  -25017   -24772   -24516   -24198   -23820   -23522   -23231   -22825 
  -22368   -21862   -21267   -20731   -20316   -19856   -19373   -19081 
  -18985   -18979   -19089   -19294   -19469   -19715   -20105   -20404 
  -20566   -20819   -21206   -21541   -21800   -22048   -22090   -21883 
  -21605   -21190   -20593   -19988   -19336   -18402   -17333   -16482 
  -15681   -14735   -13910   -13178   -12233   -11221   -10485   -10025 
   -9765    -9811   -10013   -10176   -10513   -11003   -11381   -11890 
  -12708   -13436   -13992   -14721   -15586   -16286   -16828   -17388 
  -17782   -17888   -18091   -18382   -18440   -18500   -18735   -18934 
  -19064   -19267   -19479   -19531   -19598   -19759   -19634   -19275 
  -19108   -19042   -18837   -18517   -18021   -17327   -16703   -16229 
  -15607   -14878   -14373   -13890   -13107   -12309   -11692   -10955 
  -10062    -9270    -8591    -8020    -7668    -7463    -7297    -7273 
   -7389    -7402    -7285    -7288    -7442    -7564    -7806    -8336 
   -8952    -9637   -10438   -11146   -11823   -12593   -13270   -13888 
  -14734   -15780   -16804   -17889   -19083   -20097   -20997   -22006 
  -22899   -23578   -24190   -24743   -25237   -25720   -26196   -26662 
  -27068   -27370   -27566   -27513   -27057   -26288   -25341   -24274 
  -23163   -22011   -20829   -19806   -19008   -18281   -17660   -17283 
  -16982   -16678   -16826   -17411   -17670   -17707   -18187   -18730 
  -18800   -18814   -19114   -19441   -19723   -20054   -20210   -20075 
  -19906   -19866   -19872   -19866   -19897   -20016   -20295   -20777 
  -21281   -21641   -22060   -22552   -22710   -22601   -22592   -22577 
  -22472   -22501   -22640   -22640   -22558   -22666   -22849   -22974 
  -23310   -23735   -23781   -23562   -23637   -23949   -23847   -23379 
  -23022   -22617   -22068   -21594   -21092   -20580   -20236   -19930 
  -19686   -19633   -19552   -19377   -19342   -19334   -18971   -18316 
  -17831   -17617   -17364   -17053   -16973   -17130   -17390   -17801 
  -18344   -18889   -19479   -20163   -20772   -21221   -21539   -21664 
  -21606   -21402   -21027   -20583   -20198   -19730   -19119   -18617 
  -18127   -17328   -16438   -15782   -15156   -14366   -13630   -13042 
  -12516   -12200   -12083   -11852   -11640   -11779   -12061   -12272 
  -12740   -13655   -14629   -15481   -16441   -17360   -18044   -18701 
  -19251   -19507   -19733   -20051   -20289   -20532   -20941   -21291 
  -21322   -21270   -21266   -20889   -20203   -19841   -19739   -19394 
  -19019   -19005   -19065   -18980   -18979   -19071   -19131   -19233 
  -19346   -19402   -19657   -20121   -20385   -20618   -21229   -21825 
  -21988   -22057   -22315   -22512   -22504   -22543   -22737   -22860 
  -22843   -22798   -22650   -22388   -22104   -21630   -20913   -20289 
  -19833   -19282   -18771   -18487   -18098   -17459   -16831   -16249 
  -15636   -15025   -14295   -13390   -12680   -12290   -11787   -11253 
  -11159   -11274   -11253   -11227   -11277   -11393   -11742   -12308 
  -12724   -12885   -13125   -13454   -13513   -13450   -13652   -13949 
  -14219   -14710   -15396   -16046   -16593   -17099   -17466   -17531 
  -17453   -17411   -17304   -17058   -16776   -16595   -16612   -16721 
  -16658   -16532   -16586   -16538   -16200   -15990   -16004   -15828 
  -15510   -15406   -15358   -15211   -15244   -15341   -15230   -15214 
  -15442   -15581   -15557   -15563   -15551   -15368   -15200   -15240 
  -15260   -15192   -15226   -15159   -14802   -14450   -14218   -13841 
  -13332   -13004   -12768   -12445   -12252   -12104   -11804   -11669 
  -11684   -11407   -11001   -10884   -10877   -10657   -10454   -10541 
  -10593   -10438   -10508   -10807   -10966   -11209   -11702   -12156 
  -12634   -13234   -13777   -14367   -15097   -15633   -15802   -15921 
  -16125   -16155   -16133   -16411   -16726   -16741   -16674   -16615 
  -16412   -16151   -15932   -15701   -15323   -14861   -14560   -14234 
  -13648   -13062   -12534   -11903   -11208   -10483    -9873    -9527 
   -9349    -9298    -9432    -9752   -10265   -10991   -11998   -13138 
  -14127   -15193   -16518   -17766   -18929   -20221   -21485   -22653 
  -23883   -25060   -25983   -26851   -27739   -28229   -28282   -28330 
  -28284   -27857   -27322   -26837   -26097   -25080   -24176   -23416 
  -22469   -21395   -20296   -18903   -17421   -16288   -15261   -14124 
  -13124   -12221   -11193   -10277    -9639    -8952    -8338    -8162 
   -8020    -7635    -7479    -7678    -7760    -7748    -8065    -8452 
   -8603    -8963    -9544    -9886   -10313   -11146   -11887   -12385 
  -13100   -13871   -14190   -14424   -15020   -15576   -15928   -16414 
  -16827   -16877   -16996   -17355   -17471   -17241   -16880   -16321 
  -15620   -15088   -14720   -14235   -13694   -13318   -12935   -12460 
  -12223   -12288   -12447   -12727   -13119   -13453   -13750   -14123 
  -14477   -14717   -14974   -15291   -15445   -15454   -15574   -15635 
  -15418   -15214   -15181   -15076   -14842   -14692   -14693   -14665 
  -14497   -14261   -13982   -13640   -13265   -12852   -12516   -12389 
  -12332   -12375   -12637   -12900   -13049   -13236   -13485   -13599 
  -13512   -13435   -13432   -13387   -13341   -13313   -13197   -13108 
  -13258   -13522   -13644   -13759   -14013   -14221   -14502   -15082 
  -15746   -16463   -17374   -18191   -18867   -19751   -20733   -21596 
  -22439   -23172   -23660   -24051   -24490   -24751   -24560   -24147 
  -23746   -23181   -22481   -21972   -21639   -21154   -20621   -20347 
  -20151   -19862   -19694   -19710   -19746   -19863   -20205   -20625 
  -21036   -21540   -22019   -22384   -22771   -23163   -23416   -23621 
  -23861   -23880   -23637   -23526   -23486   -23146   -22786   -22768 
  -22730   -22474   -22489   -22801   -22926   -22959   -23156   -23317 
  -23359   -23466   -23551   -23509   -23509   -23469   -23259   -23104 
  -23014   -22694   -22217   -21890   -21558   -20967   -20350   -19954 
  -19706   -19435   -19087   -18818   -18767   -18870   -19027   -19156 
  -19202   -19289   -19533   -19884   -20409   -21107   -21682   -22110 
  -22617   -23174   -23615   -23977   -24385   -24767   -25004   -25055 
  -24969   -25052   -25350   -25454   -25305   -25173   -25010   -24663 
  -24282   -24005   -23711   -23385   -23120   -22828   -22396   -21885 
  -21328   -20629   -19790   -18820   -17563   -16180   -15039   -14046 
  -13102   -12372   -11663   -10809   -10101    -9530    -8800    -8230 
   -8153    -7985    -7408    -7150    -7417    -7551    -7589    -8049 
   -8680    -9167    -9894   -10923   -11776   -12431   -13164   -13865 
  -14330   -14637   -14797   -14726   -14699   -14810   -14609   -14144 
  -13909   -13727   -13309   -12941   -12657   -12163   -11658   -11447 
  -11261   -10858   -10537   -10484   -10457   -10506   -10851   -11345 
  -11926   -12700   -13468   -14073   -14701   -15389   -15940   -16487 
  -17390   -18503   -19508   -20523   -21512   -22047   -22072   -21879 
  -21444   -20723   -20116   -19777   -19304   -18613   -18022   -17544 
  -17115   -16795   -16345   -15621   -14876   -14189   -13423   -12694 
  -12299   -12321   -12424   -12181   -11659   -11171   -10783   -10487 
  -10304   -10305   -10620   -11158   -11715   -12266   -12819   -13335 
  -13819   -14059   -13848   -13584   -13685   -13988   -14116   -13939 
  -13640   -13157   -12253   -11272   -10607   -10007    -9251    -8405 
   -7485    -6614    -5866    -5128    -4489    -4250    -4364    -4443 
   -4604    -5147    -5850    -6807    -8207    -9613   -10914   -12336 
  -13720   -14871   -15933   -17103   -18095   -18627   -19006   -19286 
  -19219   -19072   -19027   -18929   -18925   -19025   -18756   -18027 
  -17512   -17447   -17230   -16916   -17036   -17301   -17422   -17698 
  -18217   -18676   -18987   -19478   -20108   -20587   -21050   -21452 
  -21674   -21965   -22234   -22181   -21983   -21857   -21465   -20602 
  -19847   -19280   -18232   -16919   -15961   -15230   -14467   -13679 
  -12971   -12433   -12073   -11745   -11217   -10719   -10626   -10689 
  -10732   -10984   -11435   -11889   -12245   -12655   -13341   -14236 
  -15173   -16030   -16809   -17617   -18409   -19143   -19868   -20584 
  -21282   -21931   -22508   -23118   -23795   -24464   -25095   -25578 
  -25919   -26164   -26112   -25809   -25549   -25273   -24710   -23914 
  -23120   -22140   -20823   -19514   -18246   -16767   -15297   -14056 
  -12801   -11500   -10383    -9325    -8214    -7245    -6467    -5874 
   -5565    -5464    -5324    -5163    -5245    -5373    -5299    -5468 
   -5939    -6155    -6208    -6483    -6763    -6868    -7191    -7892 
   -8542    -9101    -9849   -10593   -11168   -11832   -12706   -13573 
  -14383   -15358   -16411   -17288   -18129   -19090   -20016   -20868 
  -21728   -22477   -23044   -23619   -24211   -24624   -24959   -25327 
  -25492   -25498   -25662   -25805   -25673   -25512   -25432   -25158 
  -24721   -24473   -24284   -23871   -23534   -23396   -23127   -22875 
  -22999   -23282   -23468   -23773   -24219   -24640   -25199   -25817 
  -26154   -26333   -26597   -26750   -26637   -26448   -26139   -25543 
  -24848   -24104   -23082   -21838   -20537   -19124   -17681   -16364 
  -15090   -13883   -12812   -11693   -10521    -9557    -8861    -8340 
   -7991    -7878    -7969    -8082    -8221    -8509    -8799    -9079 
   -9565   -10203   -10850   -11619   -12495   -13211   -13861   -14627 
  -15249   -15704   -16233   -16704   -16963   -17197   -17486   -17618 
  -17587   -17607   -17620   -17385   -16974   -16547   -15916   -15150 
  -14558   -14032   -13434   -12872   -12444   -12023   -11452   -10983 
  -10701   -10411   -10317   -10478   -10513   -10445   -10566   -10714 
  -10766   -11083   -11708   -12252   -12835   -13775   -14763   -15516 
  -16225   -16840   -17182   -17395   -17522   -17501   -17472   -17450 
  -17278   -16942   -16595   -16270   -15780   -15247   -14940   -14655 
  -14270   -14032   -14033   -14189   -14437   -14837   -15363   -15842 
  -16355   -16915   -17225   -17293   -17376   -17444   -17374   -17201 
  -17002   -16853   -16761   -16594   -16244   -15834   -15563   -15340 
  -15059   -14900   -14848   -14749   -14731   -14845   -15074   -15566 
  -16307   -17192   -18270   -19521   -20830   -22210   -23668   -25044 
  -26322   -27606   -28851   -30054   -31259   -32262   -32915   -33407 
  -33808   -34085   -34223   -34081   -33778   -33388   -32744   -32089 
  -31571   -30894   -30073   -29326   -28525   -27560   -26620   -25636 
  -24433   -23258   -22204   -21070   -19940   -18980   -18096   -17175 
  -16277   -15430   -14517   -13636   -13045   -12636   -12275   -12151 
  -12198   -12166   -12141   -12259   -12384   -12430   -12577   -12891 
  -13198   -13514   -13983   -14494   -14897   -15239   -15484   -15481 
  -15329   -15169   -14759   -14055   -13504   -13126   -12612   -12096 
  -11710   -11297   -10911   -10723   -10568   -10372   -10365   -10430 
  -10360   -10418   -10760   -11059   -11268   -11739   -12333   -12747 
  -13186   -13744   -14280   -14864   -15533   -16163   -16685   -17118 
  -17431   -17549   -17583   -17646   -17624   -17543   -17578   -17691 
  -17741   -17711   -17666   -17586   -17401   -17200   -17073   -16944 
  -16772   -16551   -16191   -15773   -15430   -14993   -14368   -13765 
  -13220   -12557   -11914   -11463   -10955   -10452   -10239    -9967 
   -9517    -9249    -8991    -8608    -8364    -8113    -7754    -7615 
   -7744    -7942    -8177    -8456    -8738    -8964    -9231    -9663 
  -10115   -10593   -11258   -11887   -12294   -12743   -13330   -13766 
  -14096   -14577   -14970   -15116   -15284   -15455   -15427   -15339 
  -15303   -15076   -14650   -14291   -13900   -13385   -12993   -12836 
  -12789   -12801   -13028   -13343   -13434   -13613   -14089   -14435 
  -14655   -15071   -15535   -15856   -16217   -16756   -17269   -17699 
  -18180   -18581   -18824   -19106   -19442   -19613   -19604   -19612 
  -19552   -19303   -19115   -18978   -18604   -18135   -17788   -17362 
  -16836   -16492   -16242   -15974   -15902   -15908   -15783   -15847 
  -16220   -16476   -16663   -17071   -17431   -17582   -17779   -18159 
  -18607   -18973   -19329   -19709   -19971   -20092   -20109   -20026 
  -19967   -20001   -19930   -19758   -19678   -19550   -19270   -19109 
  -19079   -18870   -18715   -18891   -19004   -19032   -19289   -19564 
  -19737   -20003   -20306   -20418   -20421   -20514   -20515   -20356 
  -20261   -20168   -20043   -20071   -20188   -20290   -20471   -20716 
  -20904   -21092   -21444   -21835   -22045   -22281   -22687   -22920 
  -22949   -23208   -23620   -23762   -23818   -24026   -24014   -23723 
  -23508   -23237   -22716   -22227   -21783   -21080   -20262   -19561 
  -18736   -17645   -16628   -15770   -14720   -13568   -12672   -11979 
  -11418   -11143   -11138   -11117   -11092   -11330   -11535   -11596 
  -11975   -12339   -12301   -12382   -12603   -12541   -12483   -12830 
  -13238   -13323   -13437   -13740   -13820   -13710   -13613   -13485 
  -13471   -13686   -13961   -13908   -13476   -13424   -13995   -14398 
  -14312   -14094   -13991   -13939   -13739   -13401   -13119   -13077 
  -13238   -13375   -13557   -13759   -13755   -13908   -14441   -14833 
  -14870   -14981   -15337   -15724   -16157   -16571   -16799   -17013 
  -17164   -17009   -16657   -16328   -16127   -16091   -16192   -16193 
  -15777   -15063   -14442   -14045   -13609   -12912   -12207   -11757 
  -11477   -11197   -10839   -10511   -10313   -10207   -10138   -10040 
   -9897    -9684    -9651   -10073   -10359   -10267   -10617   -11341 
  -11488   -11181   -11223   -11496   -11618   -11887   -12268   -12493 
  -12956   -13612   -13862   -13982   -14482   -14987   -15180   -15315 
  -15396   -15378   -15581   -15985   -16155   -16040   -15944   -15808 
  -15382   -14874   -14365   -13445   -12274   -11549   -11162   -10498 
   -9769    -9322    -8720    -7942    -7320    -6381    -5114    -4670 
   -5282    -5749    -5680    -5881    -6442    -6985    -7676    -8505 
   -9315   -10147   -10938   -11604   -12218   -12943   -13563   -13921 
  -14319   -14554   -14473   -14615   -15012   -15040   -14494   -14011 
  -13990   -13997   -13886   -13946   -14128   -14040   -13567   -13190 
  -13292   -13763   -14414   -15102   -15592   -15795   -15960   -16246 
  -16616   -17013   -17340   -17678   -18147   -18637   -19216   -20137 
  -21212   -22065   -22691   -23187   -23530   -23893   -24427   -24886 
  -25251   -25763   -26128   -26162   -26366   -26836   -27151   -27305 
  -27340   -27005   -26494   -26349   -26504   -26534   -26478   -26343 
  -25866   -25252   -24805   -24421   -23959   -23415   -22855   -22324 
  -21969   -21875   -21772   -21680   -21915   -22304   -22383   -22122 
  -22003   -22187   -22501   -23120   -24082   -25030   -25905   -26906 
  -27874   -28585   -29258   -29841   -30128   -30546   -31140   -31299 
  -31103   -31083   -31057   -30691   -30293   -29847   -28927   -27830 
  -26901   -25849   -24701   -23897   -23392   -22711   -21780   -20883 
  -19999   -19071   -18387   -17953   -17468   -17102   -17092   -17095 
  -16907   -16820   -16872   -16814   -16664   -16605   -16610   -16565 
  -16555   -16691   -16819   -16712   -16378   -16045   -15879   -15756 
  -15554   -15490   -15687   -15852   -15785   -15606   -15431   -15282 
  -15231   -15290   -15241   -15001   -14928   -15167   -15482   -15828 
  -16230   -16643   -17051   -17342   -17339   -17041   -16731   -16595 
  -16563   -16510   -16244   -15835   -15505   -15128   -14509   -13758 
  -13140   -12655   -12105   -11631   -11349   -10921   -10272    -9722 
   -9242    -8788    -8637    -8787    -8958    -9159    -9572   -10049 
  -10461   -11088   -11879   -12428   -12862   -13461   -14088   -14687 
  -15316   -15856   -16324   -16959   -17730   -18226   -18419   -18742 
  -19088   -19136   -19114   -19083   -18852   -18632   -18557   -18325 
  -17870   -17401   -16885   -16199   -15446   -14781   -14043   -13134 
  -12409   -12048   -11867   -11725   -11621   -11493   -11331   -11338 
  -11447   -11389   -11308   -11445   -11650   -11805   -12011   -12111 
  -12037   -12011   -11961   -11853   -11914   -12099   -12222   -12293 
