Origin Time       2011/03/11 14:46:00
Lat.              38.103
Long.             142.860
Depth. (km)       24
Mag.              9.0
Station Code      AIC013
Station Lat.      34.9335
Station Long.     137.5749
Station Height(m) 80
Record Time       2011/03/11 14:49:02
Sampling Freq(Hz) 100Hz
Duration Time(s)  143
Dir.              E-W
Scale Factor      3920(gal)/6182761
Max. Acc. (gal)   4.202
Last Correction   2011/03/11 14:48:47
Memo.             
[...]
   -4902    -4725    -4602    -4488    -4326    -4341    -4498    -4615 
   -4715    -4759    -4703    -4856    -5175    -5035    -4601    -4544 
   -4618    -4543    -4643    -4786    -4718    -4780    -5033    -5073 
   -5123    -5462    -5525    -5317    -5640    -6138    -5977    -5640 
   -5705    -5695    -5385    -5269    -5208    -4615    -3917    -3744 
   -3765    -3787    -3925    -3786    -3441    -3651    -4205    -4173 
   -3909    -4395    -5189    -5435    -5615    -6268    -6535    -6159 
   -6359    -6820    -6381    -5989    -6193    -5879    -5278    -5281 
   -5195    -4484    -4167    -4552    -4571    -4281    -4434    -4594 
   -4485    -4632    -5008    -5044    -4633    -4334    -4287    -4194 
   -4186    -4081    -3788    -3842    -3940    -3756    -3882    -4164 
   -4044    -3825    -3826    -3894    -3911    -3907    -3795    -3465 
   -3248    -3390    -3388    -2907    -2345    -2046    -1922    -1758 
   -1584    -1484    -1405    -1488    -1590    -1372    -1258    -1513 
   -1565    -1347    -1438    -1846    -2135    -2365    -2802    -3324 
   -3832    -4366    -4761    -4847    -4855    -5105    -5398    -5470 
   -5383    -5123    -4895    -5062    -5324    -5125    -4606    -4512 
   -5022    -5353    -5283    -5526    -5947    -5824    -5642    -5897 
   -5875    -5706    -6185    -6511    -6080    -6084    -6862    -7198 
   -6890    -6777    -6942    -7127    -7342    -7328    -7152    -7349 
   -7819    -7964    -7549    -7117    -7372    -7746    -7466    -7161 
   -7105    -6876    -6903    -7238    -7163    -6807    -6583    -6459 
   -6513    -6577    -6317    -6025    -6006    -6045    -6170    -6406 
   -6332    -6140    -6208    -6020    -5580    -5348    -4793    -3973 
   -3822    -3947    -3576    -3162    -3030    -3018    -3220    -3336 
   -3002    -2763    -2973    -3214    -3421    -3739    -3974    -4141 
   -4431    -4757    -4922    -4991    -5230    -5533    -5530    -5464 
   -5678    -5741    -5444    -5249    -5135    -4742    -4313    -4106 
   -3792    -3345    -3236    -3462    -3509    -3187    -3001    -3436 
   -4135    -4463    -4488    -4687    -5073    -5238    -5086    -4862 
   -4759    -4852    -4933    -4835    -4925    -5293    -5575    -5694 
   -5699    -5637    -5501    -5197    -4987    -5045    -5015    -4720 
   -4498    -4543    -4494    -4218    -4201    -4472    -4433    -4045 
   -3848    -3925    -3840    -3519    -3334    -3307    -3384    -3709 
   -3965    -3959    -4055    -4296    -4456    -4518    -4678    -4962 
   -5011    -5021    -5392    -5707    -5755    -5750    -5530    -5233 
   -5254    -5246    -4776    -4286    -4246    -4343    -4289    -4177 
   -4086    -4265    -4750    -5000    -4869    -4900    -5264    -5552 
   -5730    -6025    -6266    -6420    -6621    -6655    -6520    -6478 
   -6504    -6595    -6833    -7022    -7043    -7022    -7081    -7246 
   -7342    -7265    -7204    -7261    -7289    -7186    -7028    -6938 
   -6920    -6793    -6442    -6121    -5929    -5504    -4908    -4706 
   -4732    -4377    -4039    -4253    -4521    -4555    -4695    -4843 
   -4768    -4663    -4557    -4304    -4119    -4157    -4167    -4155 
   -4421    -4809    -5068    -5345    -5576    -5592    -5536    -5456 
   -5208    -4943    -4860    -4534    -3834    -3533    -3631    -3438 
   -3306    -3572    -3465    -3012    -3257    -3947    -4065    -3939 
   -4205    -4437    -4385    -4320    -4101    -3776    -3764    -3860 
   -3758    -3771    -3985    -4138    -4262    -4313    -4279    -4419 
   -4535    -4367    -4190    -4251    -4363    -4098    -3697    -3985 
   -4686    -4907    -4994    -5543    -6013    -6056    -6083    -6046 
   -5897    -5950    -5854    -5509    -5534    -5772    -5843    -5867 
   -5908    -6221    -6721    -6718    -6245    -6046    -6243    -6257 
   -5878    -5505    -5458    -5690    -5772    -5371    -5012    -5250 
   -5476    -5224    -5209    -5629    -5754    -5455    -5232    -5334 
   -5444    -5186    -4917    -5102    -5465    -5625    -5589    -5573 
   -5785    -6089    -6288    -6540    -6994    -7472    -7639    -7516 
   -7465    -7484    -7265    -6893    -6586    -6235    -5831    -5518 
   -5278    -5080    -4850    -4620    -4599    -4665    -4542    -4304 
   -4124    -3940    -3633    -3272    -2955    -2788    -2834    -2898 
   -2916    -3011    -3169    -3301    -3227    -3047    -3094    -3207 
   -3141    -3205    -3577    -3864    -3833    -3732    -3733    -3655 
   -3376    -3141    -3115    -3137    -3200    -3464    -3769    -3868 
   -3923    -4157    -4441    -4596    -4806    -5280    -5747    -6039 
   -6368    -6778    -7264    -7733    -7850    -7718    -7798    -7978 
   -7822    -7591    -7675    -7707    -7527    -7443    -7294    -6954 
   -6732    -6584    -6330    -6279    -6577    -6860    -6987    -7204 
   -7641    -8141    -8489    -8721    -8953    -9034    -8886    -8765 
   -8763    -8753    -8626    -8336    -8113    -7965    -7526    -6930 
   -6464    -6038    -5740    -5708    -5689    -5614    -5829    -6244 
   -6372    -6152    -5877    -5711    -5453    -5018    -4716    -4623 
   -4512    -4433    -4570    -4716    -4710    -4652    -4408    -4067 
   -3947    -3896    -3776    -3766    -3878    -4010    -4064    -3998 
   -4096    -4434    -4601    -4556    -4595    -4821    -5115    -5108 
   -4880    -4954    -5140    -5012    -4747    -4568    -4410    -4172 
   -3903    -3703    -3513    -3303    -3189    -3243    -3472    -3819 
   -4138    -4382    -4666    -4938    -5042    -5074    -5112    -5071 
   -5089    -5247    -5195    -4985    -5091    -5321    -5350    -5471 
   -5773    -6017    -6256    -6521    -6668    -6757    -6895    -7021 
   -7093    -7166    -7202    -7190    -7239    -7197    -7017    -6985 
   -6901    -6508    -6194    -6091    -5956    -5827    -5652    -5358 
   -5200    -5155    -4978    -4728    -4466    -4319    -4613    -5007 
   -4887    -4588    -4529    -4492    -4360    -4138    -3708    -3185 
   -2842    -2624    -2343    -2074    -1930    -1893    -1928    -2067 
   -2282    -2421    -2574    -2865    -3128    -3340    -3639    -3984 
   -4271    -4504    -4770    -5108    -5444    -5725    -5934    -6125 
   -6404    -6592    -6570    -6612    -6678    -6644    -6833    -7132 
   -7113    -7048    -7242    -7415    -7399    -7296    -7165    -7093 
   -7072    -7095    -7269    -7457    -7510    -7439    -7143    -6724 
   -6408    -6052    -5520    -4965    -4571    -4322    -4076    -3890 
   -3699    -3217    -2693    -2485    -2261    -1830    -1624    -1769 
   -1932    -2122    -2487    -2927    -3355    -3566    -3585    -3819 
   -4131    -4275    -4412    -4551    -4812    -5126    -5238    -5404 
   -5435    -5079    -4898    -4843    -4578    -4324    -4068    -3919 
   -4097    -4275    -4299    -4420    -4735    -5099    -5396    -5739 
   -6094    -6256    -6407    -6810    -7177    -7227    -7180    -7028 
   -6586    -6194    -6060    -5954    -5725    -5350    -5003    -4817 
   -4750    -4772    -4654    -4316    -4003    -3768    -3694    -3899 
   -4224    -4431    -4300    -4132    -4422    -4753    -4793    -4822 
   -4770    -4724    -5018    -5451    -5721    -5892    -6044    -6188 
   -6406    -6640    -6696    -6645    -6689    -6736    -6656    -6637 
   -6726    -6782    -6951    -7196    -7295    -7385    -7457    -7330 
   -7144    -6900    -6451    -5970    -5613    -5325    -5009    -4650 
   -4370    -4120    -3830    -3689    -3739    -3858    -3974    -4081 
   -4244    -4449    -4637    -4771    -4928    -5286    -5765    -6206 
   -6660    -7160    -7631    -7948    -8106    -8230    -8293    -8277 
   -8267    -8149    -7857    -7613    -7436    -7103    -6653    -6256 
   -5878    -5460    -5142    -5013    -4980    -5063    -5255    -5406 
   -5526    -5646    -5701    -5735    -5823    -5964    -6083    -6086 
   -6023    -5966    -5868    -5737    -5630    -5493    -5357    -5351 
   -5424    -5518    -5655    -5702    -5608    -5528    -5457    -5336 
   -5244    -5178    -5047    -4881    -4792    -4738    -4612    -4513 
   -4508    -4484    -4445    -4482    -4593    -4689    -4736    -4842 
   -4973    -4975    -4978    -5154    -5427    -5665    -5849    -6050 
   -6275    -6506    -6687    -6650    -6473    -6362    -6173    -5879 
   -5652    -5330    -4816    -4344    -3919    -3349    -2700    -2167 
   -1763    -1465    -1265    -1073     -950    -1042    -1216    -1265 
   -1256    -1322    -1369    -1348    -1444    -1667    -1762    -1769 
   -1925    -2146    -2364    -2757    -3192    -3449    -3663    -3781 
   -3667    -3597    -3657    -3635    -3692    -4030    -4349    -4479 
   -4677    -4882    -4847    -4748    -4732    -4648    -4534    -4540 
   -4517    -4421    -4477    -4458    -4087    -3849    -3965    -3878 
   -3603    -3723    -4101    -4293    -4386    -4490    -4611    -4875 
   -5120    -5056    -4938    -5114    -5319    -5310    -5366    -5571 
   -5641    -5623    -5707    -5753    -5746    -5867    -6030    -6124 
   -6256    -6475    -6673    -6774    -6889    -7117    -7270    -7167 
   -6937    -6700    -6413    -6148    -5990    -5901    -5925    -6065 
   -6149    -6212    -6431    -6601    -6474    -6407    -6680    -6795 
   -6547    -6672    -7119    -6748    -6043    -6335    -6686    -6158 
   -5985    -6470    -6391    -5825    -5683    -5769    -5703    -5790 
   -5912    -5760    -5741    -5900    -5836    -6058    -6860    -7169 
   -6718    -6745    -7318    -7455    -7575    -8177    -8245    -7708 
   -7892    -8433    -8087    -7635    -7778    -7438    -6579    -6308 
   -6405    -6197    -5871    -5627    -5444    -5379    -5261    -4867 
   -4522    -4522    -4405    -4009    -3888    -3991    -3871    -3823 
   -4079    -4156    -3945    -3850    -3931    -3938    -3716    -3314 
   -2929    -2690    -2413    -2021    -1798    -1717    -1634    -1754 
   -2030    -2202    -2310    -2464    -2540    -2537    -2667    -2750 
   -2564    -2325    -2235    -2280    -2340    -2438    -2671    -2902 
   -3002    -3041    -3214    -3526    -3730    -3772    -3711    -3675 
   -3806    -3790    -3531    -3429    -3325    -3019    -2930    -3195 
   -3510    -3808    -4189    -4527    -4842    -5381    -5892    -6087 
   -6302    -6636    -6722    -6618    -6603    -6622    -6840    -7327 
   -7522    -7310    -7226    -7449    -7621    -7407    -7063    -6907 
   -6693    -6315    -6044    -6004    -6174    -6474    -6706    -6811 
   -6932    -7082    -7265    -7617    -7887    -7649    -7252    -7270 
   -7408    -7281    -7142    -7170    -7309    -7554    -7659    -7302 
   -6991    -7383    -7711    -7377    -7269    -7366    -7072    -7017 
   -7352    -7505    -7473    -7428    -7446    -7399    -7230    -7193 
   -7200    -7164    -7291    -7473    -7549    -7730    -8221    -8828 
   -9233    -9323    -9091    -8762    -8498    -8105    -7629    -7297 
   -7076    -6732    -6021    -5481    -5808    -6289    -6217    -5992 
   -5650    -5179    -5094    -4991    -4309    -3938    -4248    -4172 
   -3709    -3780    -4044    -3822    -3551    -3482    -3111    -2689 
   -2858    -3172    -3074    -2999    -3297    -3661    -3810    -3835 
   -3962    -4064    -3918    -3899    -4371    -4836    -4864    -5015 
   -5617    -6116    -6345    -6610    -7025    -7517    -7810    -8088 
   -8881    -9668    -9824    -9988   -10397   -10453   -10368   -10607 
  -10752   -10424   -10076   -10055   -10087   -10034    -9886    -9638 
   -9610    -9719    -9397    -8751    -8251    -7833    -7382    -7062 
   -6956    -6943    -6937    -7078    -7325    -7337    -7298    -7644 
   -7879    -7517    -7164    -7012    -6480    -5727    -5157    -4488 
   -3550    -2752    -2253    -1616     -833     -389     -172       44 
     104       65       -4     -259     -676    -1014    -1270    -1619 
   -1937    -2287    -2854    -3245    -3311    -3555    -4031    -4296 
   -4430    -4767    -5028    -5046    -5203    -5516    -5782    -5983 
   -6193    -6688    -7424    -7999    -8416    -8804    -9006    -9038 
   -9054    -8980    -8746    -8212    -7246    -6476    -6294    -5845 
   -4892    -4459    -4770    -4895    -4399    -3939    -4185    -4799 
   -5039    -5012    -5311    -5866    -6205    -6303    -6478    -6695 
   -6676    -6675    -6974    -7299    -7527    -7746    -7916    -7993 
   -7847    -7561    -7472    -7387    -7046    -6842    -6812    -6520 
   -6094    -5821    -5685    -5732    -5804    -5565    -5281    -5325 
   -5427    -5562    -5905    -6108    -6301    -6839    -7405    -7857 
   -8100    -7955    -7828    -7993    -8189    -8341    -8640    -9011 
   -9220    -9367    -9603    -9811    -9829    -9650    -9462    -9378 
   -9071    -8397    -8054    -8150    -7849    -7175    -6661    -6597 
   -7108    -7319    -6696    -6353    -6586    -6464    -6130    -6161 
   -6200    -5927    -5706    -5807    -6056    -6172    -5883    -5376 
   -5296    -5657    -5975    -5929    -5523    -5421    -5828    -5951 
   -5754    -5832    -6034    -6090    -6147    -6246    -6305    -6217 
   -5937    -5837    -6019    -5949    -5750    -5789    -5684    -5504 
   -5465    -5180    -4849    -4914    -5182    -5453    -5803    -6307 
   -6791    -6932    -6530    -5846    -5703    -6190    -6251    -5931 
   -6447    -7242    -6895    -6347    -6967    -7861    -8048    -8030 
   -8466    -9220    -9349    -8552    -8059    -8580    -9659   -10772 
  -11171   -11070   -11492   -11721   -11052   -10647   -10956   -11161 
  -10942   -10329    -9336    -8726    -8977    -8991    -8424    -8540 
   -9095    -9050    -9147    -9668    -9344    -8031    -7586    -9003 
  -10355   -10409   -10200    -9741    -9224    -9640    -9690    -8605 
   -8346    -9113    -9007    -7951    -7211    -7073    -7173    -7476 
   -8000    -8344    -8390    -8737    -9423    -9630    -9211    -8524 
   -7569    -6864    -6879    -6930    -6549    -6215    -6435    -6427 
   -5369    -4772    -5103    -4626    -3808    -3805    -4055    -4360 
   -4818    -4929    -4401    -4012    -4438    -4723    -4484    -4601 
   -4664    -4217    -4070    -4065    -3472    -3108    -3654    -3927 
   -3472    -3045    -2543    -2437    -3175    -3303    -2634    -2508 
   -2723    -2889    -3370    -3830    -3905    -3982    -4193    -4046 
   -3641    -3774    -4251    -4305    -4310    -4998    -5665    -5557 
   -5795    -6814    -7463    -7751    -8214    -8671    -8890    -8866 
   -8807    -8908    -9280    -9434    -9091    -8781    -8644    -8672 
   -8536    -8026    -7553    -6943    -6239    -5937    -5747    -5104 
   -4478    -4552    -4661    -4348    -4332    -4758    -4952    -4689 
   -4485    -4596    -4791    -5290    -6003    -6073    -5792    -6163 
   -6834    -7149    -7323    -7398    -7238    -7004    -6570    -6095 
   -5951    -5667    -5238    -5261    -5371    -5157    -5074    -5451 
   -5883    -6081    -6389    -6582    -6086    -5548    -5719    -6044 
   -5978    -5820    -5860    -5967    -5959    -6044    -6379    -6570 
   -6388    -6144    -6017    -5779    -5416    -5204    -5029    -4899 
   -5166    -5443    -5285    -5179    -5365    -5512    -5542    -5509 
   -5553    -5829    -6130    -6282    -6476    -6818    -7092    -7228 
   -7316    -7250    -7046    -6885    -6728    -6556    -6418    -6082 
   -5463    -5046    -4957    -4699    -4331    -4244    -4209    -4082 
   -4187    -4378    -4039    -3287    -2869    -2787    -2512    -2274 
   -2517    -2834    -2927    -3055    -2953    -2445    -2164    -2341 
   -2461    -2285    -2192    -2400    -2699    -3087    -3463    -3459 
   -3400    -3702    -3947    -4090    -4490    -4801    -4832    -4948 
   -5107    -5145    -5197    -5236    -5170    -5174    -5464    -5850 
   -5963    -6041    -6375    -6563    -6337    -5905    -5430    -4923 
   -4323    -3783    -3625    -3748    -3804    -3776    -3833    -4011 
   -3991    -3471    -3035    -3230    -3493    -3405    -3196    -2874 
   -2508    -2428    -2602    -2650    -2538    -2624    -2862    -2954 
   -2957    -3023    -3323    -3793    -4015    -4032    -3985    -3820 
   -3939    -4356    -4488    -4382    -4441    -4637    -4939    -5442 
   -5838    -5866    -5850    -6002    -6102    -6153    -6420    -6824 
   -7003    -6976    -7119    -7462    -7677    -7775    -7889    -7779 
   -7609    -7867    -8267    -8273    -8026    -8123    -8627    -8934 
   -8935    -8772    -8385    -8183    -8196    -7820    -7349    -7325 
   -7305    -7111    -7141    -7139    -6888    -6858    -6989    -6852 
   -6629    -6485    -6350    -6209    -5962    -5819    -5981    -6170 
   -6309    -6312    -5936    -5694    -5964    -6067    -5850    -5895 
   -6090    -6050    -5953    -5998    -6031    -5937    -5704    -5305 
   -4814    -4372    -4072    -3724    -3271    -3120    -3207    -3182 
   -3089    -2755    -2268    -2248    -2523    -2545    -2557    -2746 
   -2824    -2748    -2610    -2530    -2707    -2863    -2569    -2210 
   -2418    -2897    -2986    -2791    -2820    -3179    -3541    -3679 
   -3726    -3766    -3844    -4034    -4103    -3904    -3831    -4069 
   -4228    -4211    -4263    -4275    -4168    -4153    -4066    -3851 
   -3977    -4330    -4568    -4797    -4840    -4815    -5114    -5197 
   -4744    -4368    -4238    -4074    -3920    -3783    -3612    -3585 
   -3782    -4041    -4002    -3642    -3607    -4106    -4532    -4515 
   -4410    -4516    -4533    -4380    -4433    -4704    -4886    -4951 
   -5177    -5585    -5866    -5985    -5989    -5840    -5832    -6027 
   -5952    -5546    -5295    -5466    -5644    -5430    -5118    -5023 
   -5058    -4923    -4595    -4616    -4993    -5072    -4919    -4940 
   -5025    -4986    -4861    -4863    -4906    -4739    -4709    -4939 
   -5085    -5360    -5869    -6230    -6419    -6657    -6883    -6909 
   -6862    -7027    -7285    -7326    -7303    -7562    -7887    -7923 
   -7764    -7592    -7550    -7536    -7200    -6810    -6878    -7109 
   -7055    -6987    -7344    -7894    -8087    -7901    -7569    -7147 
   -6765    -6380    -5770    -5155    -4817    -4555    -4311    -4396 
   -4802    -5134    -5312    -5618    -6093    -6492    -6592    -6495 
   -6628    -6941    -7114    -7361    -7734    -8016    -8278    -8514 
   -8716    -8872    -8859    -8971    -9301    -9507    -9605    -9621 
   -9563    -9697    -9891    -9868    -9779    -9725    -9585    -9363 
   -9209    -9152    -9048    -8873    -8735    -8574    -8307    -8025 
   -7717    -7324    -6977    -6730    -6483    -6317    -6333    -6309 
   -6089    -5916    -5948    -6033    -6055    -5994    -5855    -5759 
   -5812    -5901    -5907    -5869    -5723    -5440    -5286    -5277 
   -5104    -4875    -4853    -4861    -4738    -4721    -4941    -5088 
   -5041    -5171    -5513    -5649    -5602    -5694    -5887    -6058 
   -6185    -6250    -6357    -6572    -6868    -7164    -7254    -7229 
   -7315    -7406    -7435    -7391    -7242    -7127    -7073    -7038 
   -7022    -6970    -6931    -6920    -6964    -7139    -7257    -7288 
   -7398    -7450    -7449    -7529    -7432    -7120    -6905    -6805 
   -6818    -6985    -7110    -7140    -7205    -7367    -7546    -7548 
   -7448    -7554    -7797    -7955    -8164    -8557    -8978    -9319 
