Origin Time       2011/03/11 14:46:00
Lat.              38.103
Long.             142.860
Depth. (km)       24
Mag.              9.0
Station Code      AIC011
Station Lat.      34.9966
Station Long.     136.8641
Station Height(m) 5
Record Time       2011/03/11 14:48:58
Sampling Freq(Hz) 100Hz
Duration Time(s)  279
Dir.              N-S
Scale Factor      3920(gal)/6182761
Max. Acc. (gal)   11.628
Last Correction   2011/03/11 14:48:43
Memo.             
[...]
    5977     5907     5980     6270     6496     6523     6678     7089 
    7527     7920     8339     8673     8888     9220     9646    10031 
   10561    11147    11557    12015    12562    13089    13715    14315 
   14767    15194    15607    15975    16305    16543    16571    16295 
   15775    15181    14543    13811    13006    12116    11192    10337 
    9474     8533     7626     6824     6089     5442     4905     4441 
    4079     3976     4243     4693     5106     5574     6188     6828 
    7526     8429     9276     9833    10411    11014    11373    11639 
   11875    11954    11904    11729    11422    10998    10475     9864 
    9106     8358     7801     7220     6602     6229     6061     5951 
    5942     6024     6031     5932     5952     6085     5972     5706 
    5780     5903     5604     5250     4953     4486     4123     3873 
    3367     2773     2465     2260     1904     1661     1603     1364 
    1037      852      568      280      372      639      815     1078 
    1435     1769     2237     2898     3483     3876     4301     4898 
    5551     6257     7148     8110     9011     9967    10878    11559 
   12194    12786    13036    13036    13044    12975    12800    12722 
   12682    12495    12244    11951    11427    10726    10066     9431 
    8749     8147     7784     7624     7650     7965     8398     8781 
    9299     9910    10384    10900    11555    12001    12198    12454 
   12715    12847    13036    13242    13299    13450    13708    13692 
   13538    13601    13602    13343    13244    13376    13288    13096 
   13165    13153    12859    12674    12624    12579    12599    12492 
   12209    12017    11930    11863    11813    11741    11555    11112 
   10553    10108     9750     9499     9315     9120     8992     8885 
    8720     8426     7923     7488     7428     7561     7583     7519 
    7401     7075     6695     6459     6093     5497     4992     4559 
    4003     3567     3395     3289     3303     3554     3757     3738 
    3760     3841     3816     3904     4159     4364     4633     5131 
    5624     5856     5997     6269     6553     6894     7472     8067 
    8566     9178     9830    10396    10999    11640    12246    12902 
   13621    14247    14634    14774    14778    14719    14591    14399 
   14122    13698    13212    12818    12355    11581    10642     9697 
    8711     7748     6846     5940     5100     4391     3763     3329 
    3203     3250     3405     3679     3954     4260     4762     5315 
    5730     6140     6587     7031     7596     8278     8975     9721 
   10577    11530    12468    13293    14048    14688    15137    15515 
   15903    16393    17115    17901    18530    18968    19174    19131 
   18895    18544    18160    17654    16952    16316    15850    15346 
   14806    14291    13714    13165    12751    12260    11574    10993 
   10686    10433    10187    10052     9929     9832     9885    10009 
   10050    10069    10285    10591    10717    10765    10842    10784 
   10606    10460    10208     9712     9208     8833     8463     8205 
    8136     8021     7846     7810     7854     7739     7546     7550 
    7676     7806     8055     8383     8726     9128     9535     9975 
   10578    11281    12023    12904    13778    14402    14911    15396 
   15752    16068    16263    16045    15477    14751    13976    13164 
   12185    11063     9955     8970     8146     7300     6348     5533 
    4961     4497     4177     4155     4328     4521     4788     5214 
    5745     6341     7087     7982     8872     9760    10558    11068 
   11485    12013    12470    12694    12741    12628    12267    11836 
   11592    11374    11019    10634    10270     9893     9555     9258 
    8854     8312     7785     7313     6884     6702     6811     6909 
    6853     6740     6625     6577     6738     7042     7300     7560 
    7890     8279     8710     9328    10289    11226    11945    12681 
   13212    13485    13976    14599    14911    14955    14913    14647 
   14011    13168    12278    11227    10017     8810     7472     6006 
    4710     3523     2254     1007      -16     -846    -1595    -2109 
   -2317    -2297    -2038    -1595    -1033     -386      405     1390 
    2383     3389     4572     5774     6914     8098     9102     9848 
   10648    11399    11825    12063    12205    12243    12312    12522 
   12848    13114    13283    13549    13837    14018    14281    14657 
   15039    15525    16151    16815    17478    18169    18828    19222 
   19252    19061    18774    18420    17950    17273    16430    15593 
   14701    13612    12472    11303    10033     8830     7737     6726 
    5931     5374     4909     4477     4193     4125     4309     4754 
    5277     5819     6487     7197     7874     8578     9244     9764 
   10167    10594    11092    11397    11387    11418    11556    11457 
   11201    10969    10649    10325    10148    10045     9906     9757 
    9652     9454     9189     9054     8934     8665     8413     8350 
    8259     8073     8137     8315     8261     8281     8539     8666 
    8743     9010     9166     9244     9689    10244    10481    10704 
   11021    11033    10859    10743    10464    10124     9973     9787 
    9457     9115     8643     7994     7387     6792     6096     5454 
    4953     4556     4294     4174     4108     4077     4186     4448 
    4834     5415     6230     7263     8489     9930    11527    13018 
   14319    15533    16553    17284    17737    17838    17734    17601 
   17242    16599    15877    15207    14558    13619    12327    11006 
    9645     8047     6423     5057     3803     2558     1478      420 
    -582     -954     -717     -374      181     1033     1962     3115 
    4495     5757     6917     8131     9187    10006    10914    12003 
   12924    13458    13792    14051    14138    14146    14140    13961 
   13701    13507    13149    12585    12084    11555    10874    10348 
    9972     9437     8842     8402     8010     7478     6871     6251 
    5435     4469     3679     3162     2834     2928     3612     4446 
    5251     6313     7524     8596     9642    10845    11996    13003 
   14149    15446    16690    17893    19033    19929    20585    21025 
   21073    20835    20523    19981    19156    18253    17299    16239 
   15134    13902    12455    11063     9860     8641     7490     6601 
    5913     5425     5069     4673     4398     4440     4536     4404 
    4285     4392     4527     4667     4916     5191     5536     6043 
    6588     6967     7145     7344     7576     7550     7451     7625 
    7788     7791     7962     8175     8172     8277     8602     8834 
    8996     9219     9386     9537     9827    10026    10025    10260 
   10794    11244    11584    11966    12347    12556    12561    12610 
   12706    12610    12484    12422    12254    12081    11832    11281 
   10569     9848     9184     8703     8366     8106     8048     8215 
    8437     8615     8760     8892     8981     9078     9371     9964 
   10786    11810    13081    14362    15431    16579    17950    19095 
   19829    20507    21122    21333    21207    20983    20703    20300 
   19707    18955    18126    17301    16455    15451    14349    13340 
   12393    11401    10401     9425     8488     7650     6911     6246 
    5668     5166     4725     4367     4077     3821     3649     3528 
    3335     3089     2883     2828     2850     2755     2720     2881 
    2997     3002     3121     3459     3910     4376     4855     5379 
    5975     6630     7237     7749     8273     8783     9231     9733 
   10224    10562    10885    11343    11817    12182    12563    13004 
   13304    13479    13668    13737    13636    13512    13404    13301 
   13242    13226    13095    12756    12396    12072    11662    11272 
   10890    10337     9792     9364     8878     8470     8267     7990 
    7526     7137     6977     6822     6449     6016     5576     4965 
    4424     4128     3802     3423     3181     3105     3138     3251 
    3581     4060     4521     5254     6223     6981     7704     8596 
    9357    10037    10902    11845    12808    13966    15263    16441 
   17506    18557    19356    19750    20008    20175    20111    19982 
   19772    19291    18681    18081    17417    16675    15884    15066 
   14325    13717    13146    12579    12122    11836    11706    11712 
   11794    11969    12168    12208    12176    12161    12173    12343 
   12560    12686    12864    13108    13306    13423    13441    13432 
   13420    13316    13216    13162    13004    12767    12479    12143 
   11973    11974    11845    11620    11535    11420    11273    11425 
   11641    11679    11856    12147    12240    12235    12306    12302 
   12145    12066    12046    11894    11740    11595    11320    11072 
   10930    10733    10526    10461    10370    10156    10134    10340 
   10380    10288    10363    10386    10308    10538    11030    11625 
   12444    13490    14647    15772    16969    18332    19599    20717 
   21768    22585    23119    23574    23961    24091    24141    24255 
   24114    23731    23427    23115    22678    22277    21871    21315 
   20747    20175    19439    18724    18228    17759    17141    16541 
   16106    15762    15502    15314    15064    14800    14745    14836 
   14800    14715    14751    14764    14724    14696    14629    14588 
   14686    14820    14779    14650    14605    14476    14209    13944 
   13605    13226    13020    12894    12742    12798    13156    13579 
   13970    14412    14851    15264    15707    16063    16271    16483 
   16734    16867    16827    16710    16547    16299    15939    15441 
   14757    13913    13055    12212    11225    10017     8737     7537 
    6326     5047     3845     2717     1626      669     -181    -1051 
   -1909    -2658    -3401    -4184    -4808    -5248    -5621    -5815 
   -5693    -5398    -5052    -4589    -4050    -3501    -2927    -2369 
   -1862    -1354     -779     -208      345     1023     1737     2324 
    2922     3584     4114     4530     5052     5547     5810     6032 
    6307     6380     6085     5546     4825     3785     2534     1240 
    -118    -1408    -2532    -3578    -4410    -4898    -5271    -5543 
   -5465    -5184    -4871    -4303    -3440    -2533    -1583     -541 
     454     1522     2812     4145     5355     6444     7523     8587 
    9344     9676     9931    10273    10434    10343    10198    10022 
    9760     9523     9328     8933     8327     7713     6988     5992 
    4856     3710     2506     1312      361     -427    -1285    -2185 
   -3084    -3954    -4773    -5593    -6360    -6943    -7276    -7421 
   -7449    -7348    -7120    -6728    -6107    -5258    -4259    -3194 
   -1941     -403     1205     2694     4194     5923     7752     9367 
   10810    12273    13613    14637    15403    15933    16208    16345 
   16295    15855    15155    14395    13393    12063    10645     9255 
    7840     6345     4820     3365     2002      840      -91     -957 
   -1723    -2273    -2649    -2927    -3086    -3008    -2732    -2310 
   -1549     -527      542     1800     3172     4298     5277     6461 
    7791     9127    10642    12298    13767    15026    16133    16854 
   17298    17892    18337    18272    18216    18354    18299    18167 
   18060    17722    17210    16746    16392    16087    15690    15207 
   14779    14493    14332    14208    14035    13762    13438    13027 
   12437    11912    11641    11402    11109    11007    11187    11484 
   11826    12163    12365    12402    12419    12672    13229    13866 
   14276    14322    14157    13954    13796    13646    13321    12806 
   12281    11881    11610    11396    11132    10632     9950     9381 
    8847     8306     8065     8023     7898     7775     7734     7749 
    7749     7683     7618     7526     7467     7465     7297     7112 
    7104     7047     6943     6889     6730     6421     6150     6019 
    5847     5702     5903     6236     6494     6973     7625     8165 
    8748     9485    10113    10521    10920    11378    11632    11574 
   11428    11309    11095    10789    10489    10006     9343     8821 
    8288     7657     7249     6856     6203     5560     5053     4482 
    3912     3676     3717     3734     3817     4143     4620     5210 
    5875     6441     6897     7411     8075     8790     9531    10359 
   11087    11661    12246    12674    12775    12650    12363    11853 
   11224    10701    10181     9551     8911     8179     7394     6780 
    6327     5858     5282     4655     4034     3395     2729     2095 
    1547     1061      642      331       54     -211     -361     -383 
    -303     -165       29      516     1419     2463     3474     4531 
    5565     6496     7393     8197     8834     9378     9892    10342 
   10551    10486    10424    10345    10026     9636     9247     8640 
    7967     7375     6649     5854     5160     4349     3323     2422 
    1808     1305      926      726      547      468      750     1262 
    1764     2383     3176     3940     4726     5734     6796     7746 
    8770     9888    10897    11816    12812    13842    14793    15717 
   16607    17353    18065    18907    19740    20459    21134    21722 
   22249    22793    23288    23732    24206    24741    25331    25895 
   26325    26701    27092    27259    27145    26946    26585    26077 
   25579    24996    24389    23983    23663    23306    23039    22791 
   22412    21940    21376    20776    20186    19532    18902    18384 
   17869    17344    16914    16561    16278    16082    15860    15590 
   15362    15161    14915    14670    14557    14592    14679    14766 
   14896    15081    15300    15547    15737    15889    16173    16536 
   16781    16969    17278    17631    17896    18082    18222    18323 
   18240    17949    17668    17328    16812    16282    15729    15061 
   14386    13757    13127    12540    12056    11688    11401    11111 
   10780    10343     9807     9308     8818     8292     7817     7400 
    6962     6599     6443     6323     6126     5989     5944     5835 
    5634     5555     5613     5650     5773     6083     6424     6706 
    7072     7538     7989     8549     9240     9831    10387    11084 
   11786    12381    13025    13703    14186    14532    14873    15003 
   14834    14643    14437    14062    13718    13479    13208    12993 
   12889    12805    12712    12704    12732    12572    12391    12354 
   12269    12144    12063    12038    12077    12029    11899    11830 
   11744    11644    11601    11482    11323    11256    11235    11301 
   11445    11543    11617    11684    11730    11741    11595    11293 
   10983    10686    10317     9926     9614     9248     8715     8157 
    7612     7050     6655     6498     6385     6213     6070     6006 
    5941     5874     5917     5997     6006     6104     6460     7063 
    7879     8849     9858    10835    11824    12804    13671    14547 
   15536    16435    17179    17889    18578    19186    19627    19896 
   20076    20208    20289    20339    20330    20322    20411    20399 
   20219    20082    19936    19659    19349    19033    18600    18099 
   17680    17252    16694    16120    15620    15027    14233    13444 
   12736    11867    10883    10025     9122     8139     7355     6680 
    5944     5233     4620     4090     3631     3364     3276     3189 
    3132     3103     3002     2928     2845     2586     2204     1763 
    1285      812      355      -64     -492     -914    -1244    -1692 
   -2432    -3286    -4139    -5001    -5834    -6568    -7168    -7685 
   -8187    -8668    -9029    -9190    -9230    -9240    -9233    -9258 
   -9282    -9087    -8662    -8179    -7567    -6839    -6122    -5385 
   -4666    -3900    -3054    -2293    -1527     -748     -119      541 
    1205     1616     1892     2089     2114     2124     2133     1954 
    1608     1213      802      316     -202     -602     -983    -1442 
   -1769    -1930    -2076    -2107    -1959    -1724    -1376     -808 
    -113      421      933     1651     2268     2773     3409     3953 
    4326     4747     5191     5502     5703     5887     5999     5992 
    5886     5669     5348     4971     4607     4277     3956     3728 
    3695     3737     3787     4083     4514     4753     5108     5765 
    6362     6966     7744     8370     8876     9587    10299    10844 
   11427    11974    12326    12643    12997    13231    13280    13213 
   13081    12901    12737    12667    12632    12542    12511    12556 
   12442    12266    12276    12194    11892    11764    11836    12003 
   12448    13086    13756    14588    15545    16384    17031    17587 
   18048    18302    18425    18523    18565    18632    18706    18623 
   18496    18441    18305    17956    17521    17162    16799    16476 
   16326    16176    15966    15833    15691    15406    15096    14891 
   14662    14322    13953    13372    12535    11924    11532    10946 
   10389     9905     9136     8314     7693     7082     6462     6032 
    5789     5488     5065     4650     4280     4185     4537     4905 
    4865     4595     4520     4670     4731     4763     4893     4922 
    4873     4808     4607     4368     4278     4173     3732     3109 
    2566     1923     1230      748      383       96     -116     -412 
    -638     -728     -924    -1176    -1427    -1703    -1824    -1815 
   -1821    -1692    -1249     -665     -117      483     1071     1636 
    2462     3434     4218     4966     5825     6729     7777     8871 
    9825    10816    11771    12376    12846    13472    14060    14497 
   14839    14907    14703    14516    14179    13552    13056    12735 
   12307    11899    11454    10823    10336     9974     9311     8459 
    7666     6843     6170     5973     5998     5863     5715     5795 
    6162     6762     7337     7779     8197     8417     8425     8617 
    9006     9419     9997    10629    10899    10858    10928    11155 
   11339    11463    11381    10952    10585    10664    10875    10800 
   10459    10035     9541     8961     8421     7989     7665     7315 
    6782     6347     6284     6374     6258     5940     5790     5884 
    6018     6136     6128     5916     5728     5782     5851     5741 
    5795     5984     5802     5357     5127     5240     5532     5751 
    5687     5377     5074     4859     4678     4623     4640     4466 
    4108     3728     3316     2940     2811     2884     2841     2611 
    2365     2164     2185     2654     3459     4282     4809     5012 
    5158     5253     5182     5118     5123     5054     4859     4576 
    4317     4084     3752     3229     2585     2052     1681     1328 
     872      260     -401     -943    -1311    -1647    -2163    -2890 
   -3695    -4383    -4861    -5209    -5515    -5819    -6010    -5905 
   -5571    -5151    -4734    -4367    -3805    -2929    -1969     -974 
      54     1013     1996     3014     3897     4720     5620     6452 
    7089     7711     8478     9219     9825    10481    11149    11673 
   12236    12896    13498    14029    14476    14796    14986    15176 
