Origin Time       2011/03/11 14:46:00
Lat.              38.103
Long.             142.860
Depth. (km)       24
Mag.              9.0
Station Code      AIC009
Station Lat.      35.0813
Station Long.     137.1466
Station Height(m) 55
Record Time       2011/03/11 14:48:19
Sampling Freq(Hz) 100Hz
Duration Time(s)  260
Dir.              N-S
Scale Factor      3920(gal)/6182761
Max. Acc. (gal)   12.700
Last Correction   2011/03/11 14:48:04
Memo.             
[...]
  -18253   -18013   -17772   -17344   -16789   -16260   -15616   -14874 
  -14200   -13508   -12749   -12004   -11327   -10709   -10071    -9475 
   -8994    -8605    -8407    -8464    -8650    -8924    -9340    -9785 
  -10182   -10584   -10992   -11360   -11609   -11715   -11723   -11654 
  -11565   -11555   -11560   -11509   -11537   -11545   -11459   -11493 
  -11517   -11463   -11471   -11399   -11281   -11285   -11389   -11618 
  -11993   -12488   -13004   -13462   -13995   -14642   -15274   -15979 
  -16867   -17660   -18216   -18724   -19082   -19129   -18961   -18526 
  -17767   -16858   -15848   -14727   -13625   -12656   -11862   -11248 
  -10823   -10624   -10581   -10575   -10610   -10638   -10622   -10718 
  -10847   -10909   -11073   -11341   -11684   -12098   -12552   -13133 
  -13770   -14393   -14988   -15388   -15624   -15749   -15638   -15345 
  -14941   -14390   -13708   -12920   -12055   -11157   -10326    -9631 
   -9052    -8668    -8524    -8543    -8738    -9059    -9407    -9781 
  -10056   -10204   -10266   -10221   -10243   -10379   -10514   -10653 
  -10807   -10988   -11243   -11568   -11836   -12116   -12413   -12399 
  -12118   -11736   -11201   -10618   -10125    -9807    -9635    -9580 
   -9698    -9925   -10202   -10516   -10866   -11160   -11284   -11364 
  -11393   -11260   -11088   -10981   -10927   -10937   -11030   -11173 
  -11292   -11364   -11445   -11480   -11434   -11453   -11469   -11436 
  -11513   -11681   -11926   -12272   -12683   -13127   -13486   -13737 
  -13938   -14123   -14259   -14311   -14409   -14588   -14852   -15242 
  -15715   -16323   -16969   -17547   -18106   -18473   -18610   -18592 
  -18343   -17905   -17303   -16555   -15762   -14940   -14096   -13269 
  -12431   -11605   -10811    -9932    -9074    -8374    -7727    -7224 
   -6980    -6991    -7189    -7451    -7838    -8282    -8717    -9236 
   -9692   -10080   -10486   -10814   -11039   -11143   -11163   -11140 
  -10947   -10529    -9993    -9308    -8489    -7735    -6962    -6118 
   -5402    -4852    -4507    -4380    -4454    -4799    -5313    -5908 
   -6621    -7504    -8570    -9625   -10563   -11440   -12210   -12889 
  -13475   -14016   -14598   -15127   -15690   -16399   -17141   -17942 
  -18879   -19854   -20736   -21489   -22128   -22659   -23014   -23162 
  -23131   -22941   -22731   -22481   -22096   -21742   -21398   -20955 
  -20416   -19802   -19210   -18582   -17899   -17282   -16710   -16159 
  -15625   -15151   -14739   -14299   -13939   -13721   -13489   -13253 
  -13159   -13170   -13183   -13269   -13411   -13428   -13366   -13311 
  -13071   -12552   -11961   -11339   -10550    -9674    -8754    -7685 
   -6605    -5737    -5005    -4395    -4123    -4108    -4149    -4333 
   -4724    -5163    -5607    -6166    -6714    -7134    -7631    -8267 
   -8875    -9444   -10093   -10755   -11329   -11970   -12662   -13239 
  -13727   -14088   -14368   -14660   -14920   -15192   -15439   -15570 
  -15658   -15736   -15759   -15790   -15932   -16122   -16262   -16282 
  -16089   -15810   -15575   -15324   -15102   -14875   -14496   -14010 
  -13420   -12665   -11854   -11069   -10297    -9551    -8900    -8386 
   -8050    -8034    -8347    -8876    -9616   -10539   -11530   -12462 
  -13216   -13755   -14079   -14146   -14004   -13797   -13522   -13208 
  -13061   -13056   -13145   -13477   -14014   -14647   -15331   -15992 
  -16561   -16974   -17229   -17282   -17102   -16832   -16553   -16204 
  -15804   -15466   -15208   -15013   -14946   -14978   -14978   -14962 
  -14979   -14966   -14959   -15064   -15266   -15500   -15784   -16182 
  -16584   -16867   -17109   -17297   -17341   -17262   -16987   -16456 
  -15792   -15012   -14081   -13090   -12087   -11118   -10211    -9294 
   -8383    -7513    -6656    -5899    -5253    -4599    -4060    -3736 
   -3436    -3197    -3119    -3153    -3391    -3744    -4105    -4661 
   -5344    -6104    -7075    -8037    -8907    -9865   -10880   -11934 
  -13019   -14038   -14892   -15537   -16077   -16507   -16714   -16737 
  -16484   -16108   -15855   -15619   -15567   -15587   -15522   -15778 
  -16086   -16017   -16032   -16319   -16458   -16476   -16434   -16111 
  -15716   -15532   -15457   -15188   -14957   -15110   -15143   -15077 
  -15318   -15545   -15869   -16188   -16132   -16346   -16782   -17044 
  -17422   -17460   -17077   -16893   -16595   -15730   -14838   -14211 
  -13209   -12110   -11219    -9863    -8572    -7590    -6369    -5470 
   -4848    -4015    -3382    -3031    -2687    -2331    -2111    -2021 
   -2001    -2230    -2441    -2331    -2410    -2891    -3456    -4096 
   -4767    -5269    -5705    -6283    -6878    -7400    -7897    -8191 
   -8360    -8687    -9121    -9691   -10460   -11185   -11734   -12226 
  -12743   -13308   -13831   -14259   -14781   -15464   -16211   -17089 
  -18001   -18711   -19321   -19813   -19916   -19680   -19314   -18771 
  -18056   -17420   -16895   -16451   -16164   -16020   -16225   -16807 
  -17522   -18419   -19384   -20177   -21024   -21888   -22367   -22596 
  -22831   -22842   -22523   -22218   -21878   -21164   -20378   -19599 
  -18588   -17649   -16866   -15959   -14896   -13805   -12732   -11688 
  -10735    -9758    -8717    -7697    -6646    -5673    -4741    -3732 
   -2954    -2375    -1758    -1444    -1491    -1493    -1576    -1967 
   -2322    -2532    -2801    -3065    -3290    -3585    -4033    -4587 
   -5237    -6076    -7006    -8058    -9270   -10509   -11647   -12492 
  -13147   -13640   -13865   -13970   -13825   -13417   -12969   -12624 
  -12528   -12527   -12626   -12880   -13134   -13480   -13857   -14260 
  -14791   -15220   -15487   -15574   -15477   -15298   -15005   -14736 
  -14407   -13917   -13594   -13412   -13258   -13339   -13744   -14473 
  -15494   -16717   -18021   -19190   -20204   -21209   -21990   -22291 
  -22230   -21851   -21117   -20277   -19348   -18077   -16792   -15795 
  -14930   -14323   -14026   -13808   -13591   -13418   -13292   -12994 
  -12433   -11839   -11120   -10145    -9098    -8012    -7039    -6382 
   -5817    -5307    -5029    -4763    -4422    -4178    -3905    -3542 
   -3171    -2715    -2288    -2103    -2136    -2422    -3074    -4104 
   -5346    -6535    -7730    -8976   -10120   -11151   -11934   -12432 
  -12887   -13367   -13787   -14139   -14468   -14806   -15348   -16132 
  -16899   -17701   -18523   -19141   -19695   -20272   -20596   -20662 
  -20712   -20474   -19770   -18975   -18109   -17027   -15911   -14805 
  -13636   -12415   -11180    -9982    -8842    -7847    -7114    -6587 
   -6229    -6129    -6177    -6227    -6489    -6961    -7317    -7624 
   -8025    -8391    -8728    -9092    -9353    -9549    -9830    -9948 
   -9840    -9740    -9441    -8842    -8262    -7700    -7020    -6503 
   -6178    -5764    -5589    -5818    -5985    -6229    -6893    -7609 
   -8203    -8883    -9580   -10339   -11263   -12176   -13034   -13845 
  -14518   -15127   -15695   -16094   -16525   -17134   -17589   -17924 
  -18447   -19028   -19525   -20034   -20534   -20900   -21153   -21270 
  -21185   -20944   -20454   -19810   -19159   -18316   -17399   -16457 
  -15309   -14325   -13555   -12710   -12055   -11591   -11160   -10849 
  -10549   -10354   -10254   -10071   -10050   -10112    -9924    -9618 
   -9099    -8204    -7410    -6754    -5824    -4834    -3866    -2842 
   -1963    -1147     -481     -121      151      354      457      521 
     484      350      138     -102     -316     -674    -1199    -1737 
   -2330    -2960    -3586    -4273    -4929    -5415    -5788    -6232 
   -6666    -6949    -7261    -7617    -7995    -8496    -9029    -9652 
  -10412   -11138   -11850   -12473   -12968   -13572   -14162   -14576 
  -14939   -15179   -15422   -15872   -16370   -16961   -17720   -18380 
  -19062   -20090   -21251   -22458   -23805   -25096   -26295   -27364 
  -28196   -28889   -29406   -29533   -29288   -28932   -28441   -27804 
  -27366   -27004   -26396   -25670   -24892   -24025   -23217   -22522 
  -21838   -21106   -20231   -19215   -18148   -17050   -16130   -15409 
  -14718   -14124   -13406   -12555   -11933   -11355   -10707   -10086 
   -9360    -8598    -7919    -7206    -6328    -5468    -4826    -4204 
   -3688    -3478    -3304    -3156    -3170    -3225    -3303    -3308 
   -3113    -2821    -2496    -2236    -2177    -2172    -2143    -2209 
   -2408    -2769    -3373    -4323    -5375    -6314    -7539    -9092 
  -10552   -11787   -12764   -13501   -14038   -14310   -14277   -14046 
  -13695   -13151   -12520   -12000   -11573   -11347   -11401   -11485 
  -11641   -12076   -12464   -12634   -12783   -12817   -12597   -12122 
  -11508   -10947   -10427    -9976    -9694    -9537    -9594   -10027 
  -10661   -11290   -12083   -12982   -13702   -14267   -14723   -15075 
  -15364   -15725   -16340   -17006   -17571   -18299   -19063   -19512 
  -19897   -20289   -20403   -20258   -19721   -18900   -18154   -17298 
  -16358   -15461   -14440   -13545   -12814   -11943   -11179   -10606 
   -9961    -9346    -8993    -9004    -9254    -9607   -10116   -10670 
  -11162   -11674   -12056   -12217   -12293   -12073   -11471   -10760 
   -9891    -9039    -8532    -8065    -7796    -8029    -8154    -8374 
   -9307    -9983    -9826    -9704    -9524    -8907    -8621    -8361 
   -7541    -7183    -7218    -6725    -6506    -7063    -7396    -7346 
   -7803    -8694    -9034    -8928    -8964    -8562    -8050    -8461 
   -8789    -8493    -8672    -9072    -9064    -9364   -10247   -11221 
  -12307   -13511   -14604   -15749   -16868   -17732   -18582   -19539 
  -20463   -20960   -20952   -20997   -20947   -20695   -20997   -21465 
  -21106   -20502   -20520   -20794   -21001   -21449   -22039   -22238 
  -22086   -22029   -21778   -21067   -20391   -19692   -18557   -17369 
  -16488   -15657   -14831   -14208   -13812   -13597   -13462   -13480 
  -13488   -13097   -12596   -12067   -11298   -10627    -9998    -9293 
   -9075    -9176    -8957    -8794    -8822    -8603    -8508    -8697 
   -8782    -8694    -8279    -7662    -7233    -6846    -6251    -5456 
   -4531    -3512    -2419    -1521    -1055     -961    -1277    -1853 
   -2410    -3108    -3937    -4821    -5827    -6633    -7319    -8174 
   -8860    -9378   -10182   -11168   -12131   -13218   -14239   -14997 
  -15664   -16182   -16518   -16734   -16730   -16459   -15934   -15400 
  -14928   -14222   -13320   -12214   -10874    -9533    -8066    -6534 
   -5352    -4549    -4114    -4181    -4679    -5537    -6819    -8402 
  -10090   -11793   -13391   -14609   -15192   -15428   -15558   -15403 
  -14998   -14347   -13484   -12620   -11670   -10626    -9847    -9366 
   -8743    -7923    -7153    -6292    -5417    -4753    -4111    -3555 
   -3292    -3172    -3082    -3142    -3452    -3951    -4647    -5609 
   -6742    -7975    -9362   -10750   -12041   -13404   -14807   -16175 
  -17436   -18547   -19774   -21005   -22000   -22980   -24001   -24919 
  -25661   -26130   -26177   -25635   -24531   -22929   -20717   -18052 
  -15277   -12329    -9235    -6315    -3684    -1529      -34      853 
    1046      540     -404    -1609    -2985    -4364    -5564    -6599 
   -7725    -8910    -9923   -10933   -11989   -12782   -13536   -14587 
  -15592   -16368   -17083   -17523   -17488   -17176   -16707   -15941 
  -15016   -14203   -13343   -12377   -11654   -11368   -11271   -11121 
  -11132   -11350   -11429   -11318   -11146   -10969   -10808   -10606 
  -10275    -9836    -9453    -9018    -8430    -8091    -8097    -8240 
   -8806    -9936   -11286   -12785   -14368   -15625   -16604   -17530 
  -18124   -18245   -18021   -17474   -16597   -15405   -14188   -13332 
  -12855   -12697   -12764   -12981   -13478   -14090   -14689   -15472 
  -16134   -16346   -16308   -16075   -15561   -14927   -14408   -13877 
  -13213   -12688   -12359   -12085   -11922   -11919   -11955   -11939 
  -12019   -12238   -12352   -12249   -12058   -11742   -11153   -10574 
  -10241   -10020    -9998   -10287   -10834   -11559   -12360   -13240 
  -14126   -14936   -15708   -16391   -16866   -16990   -16741   -16299 
  -15737   -14844   -13583   -12207   -10747    -9244    -7932    -6901 
   -6217    -5866    -5765    -5816    -5844    -5928    -6216    -6513 
   -6744    -7157    -7614    -7890    -8254    -8780    -9396   -10083 
  -10702   -11345   -12051   -12699   -13087   -13026   -12790   -12557 
  -12140   -11505   -10696    -9770    -8786    -7653    -6405    -5282 
   -4275    -3314    -2504    -1793    -1166     -599      -63      160 
     197      422      569      373      130      -76     -641    -1522 
   -2418    -3508    -4937    -6493    -8095    -9854   -11649   -13218 
  -14544   -15655   -16456   -16958   -17225   -17211   -17008   -16706 
  -16203   -15511   -14749   -14163   -13905   -13868   -14083   -14450 
  -14854   -15533   -16371   -16982   -17379   -17651   -17699   -17588 
  -17465   -17261   -16964   -16578   -16091   -15715   -15497   -15313 
  -15236   -15184   -15012   -14741   -14263   -13626   -12957   -12144 
  -11428   -11160   -11119   -11162   -11555   -12288   -13152   -14238 
  -15690   -17309   -18701   -19707   -20391   -20765   -21040   -21302 
  -21185   -20852   -20728   -20550   -20260   -20217   -20285   -20245 
  -20150   -19981   -19627   -19094   -18557   -17812   -16564   -15194 
  -13809   -11980    -9883    -7889    -5849    -3665    -1432      702 
    2552     4068     5253     6249     7105     7603     7794     7829 
    7715     7546     7358     7127     6851     6473     5937     5221 
    4438     3689     2882     1946      911     -192    -1302    -2301 
   -3127    -3799    -4310    -4575    -4576    -4511    -4485    -4574 
   -4971    -5545    -6262    -7374    -8823   -10494   -12373   -14385 
  -16411   -18282   -19910   -21311   -22470   -23345   -24004   -24560 
  -24980   -25184   -25266   -25423   -25635   -25805   -26104   -26551 
  -26873   -26987   -26892   -26516   -25894   -25026   -23907   -22634 
  -21250   -19875   -18741   -17831   -17044   -16446   -16078   -15951 
  -15983   -15987   -15898   -15789   -15682   -15380   -14745   -13904 
  -12903   -11663   -10290    -8937    -7592    -6295    -5162    -4131 
   -3149    -2300    -1537     -818     -278      135      585     1018 
    1359     1724     2219     2768     3315     3822     4180     4430 
    4648     4750     4618     4384     4159     3700     2956     2091 
    1210      398     -340     -849    -1163    -1503    -1630    -1574 
   -1698    -1896    -2254    -2985    -3914    -4978    -6120    -7295 
   -8471    -9391   -10102   -10688   -11071   -11421   -11710   -11915 
  -12285   -12761   -13289   -13949   -14646   -15480   -16423   -17124 
  -17670   -18268   -18732   -19018   -19213   -19244   -19122   -18896 
  -18564   -18122   -17541   -16863   -16118   -15341   -14559   -13678 
  -12701   -11690   -10610    -9594    -8822    -8239    -7895    -7966 
   -8299    -8662    -9037    -9404    -9784   -10127   -10410   -10736 
  -11019   -11289   -11697   -12049   -12329   -12723   -13094   -13283 
  -13270   -13118   -12914   -12653   -12354   -11938   -11438   -11064 
  -10714   -10352   -10136    -9938    -9743    -9768    -9940   -10090 
  -10354   -10811   -11214   -11530   -11964   -12399   -12654   -12783 
  -12868   -12966   -13029   -13013   -13018   -13021   -13023   -13118 
  -13119   -12897   -12538   -12006   -11318   -10621   -10038    -9574 
   -9161    -8802    -8477    -8132    -7838    -7722    -7790    -7960 
   -8248    -8630    -8943    -9230    -9650   -10212   -10948   -11802 
  -12635   -13443   -14282   -15210   -16073   -16756   -17471   -18137 
  -18554   -18851   -19086   -19169   -19205   -19226   -18964   -18589 
  -18350   -18045   -17834   -17901   -17943   -17889   -17964   -18115 
  -18252   -18501   -18757   -18868   -18958   -19010   -18852   -18535 
  -18225   -17887   -17470   -17138   -16934   -16715   -16396   -15994 
  -15626   -15244   -14756   -14218   -13647   -13143   -12686   -12173 
  -11729   -11272   -10799   -10541   -10417   -10423   -10653   -10962 
  -11259   -11645   -12187   -12808   -13472   -14099   -14618   -15059 
  -15278   -15323   -15402   -15439   -15377   -15258   -15143   -15010 
  -14816   -14637   -14376   -13924   -13340   -12624   -11878   -11226 
  -10668   -10223    -9894    -9730    -9725    -9784    -9981   -10288 
  -10557   -10742   -10846   -10922   -10906   -10810   -10847   -10982 
  -11192   -11569   -11941   -12280   -12746   -13265   -13736   -14150 
  -14489   -14704   -14613   -14157   -13503   -12748   -11915   -10999 
  -10047    -9227    -8509    -7756    -7112    -6668    -6294    -6004 
   -5740    -5441    -5333    -5487    -5827    -6438    -7270    -8129 
   -8988    -9853   -10619   -11331   -12114   -12773   -13145   -13440 
  -13742   -13925   -14076   -14313   -14554   -14819   -15205   -15523 
  -15650   -15761   -15839   -15791   -15717   -15586   -15287   -14882 
  -14465   -14035   -13633   -13306   -13038   -12816   -12580   -12352 
  -12151   -11876   -11609   -11404   -11197   -11077   -11055   -11035 
  -11021   -11070   -11143   -11062   -10863   -10656   -10281    -9810 
   -9512    -9352    -9197    -9024    -8904    -8797    -8583    -8401 
   -8300    -8101    -7855    -7621    -7286    -6955    -6821    -6845 
   -6954    -7146    -7352    -7642    -8110    -8578    -9016    -9417 
   -9599    -9633    -9556    -9249    -8797    -8319    -7777    -7127 
   -6517    -6039    -5704    -5607    -5725    -6072    -6644    -7286 
   -8050    -9019    -9941   -10690   -11444   -12060   -12459   -12837 
  -13073   -13126   -13218   -13357   -13397   -13366   -13367   -13425 
  -13522   -13565   -13544   -13447   -13130   -12597   -12005   -11416 
  -10697    -9938    -9401    -9050    -8967    -9208    -9531   -10004 
  -10781   -11574   -12135   -12711   -13437   -13942   -14159   -14348 
  -14420   -14473   -14823   -15255   -15675   -16303   -16969   -17582 
  -18285   -19037   -19720   -20231   -20547   -20618   -20363   -19869 
  -19211   -18385   -17428   -16379   -15328   -14318   -13333   -12517 
  -11955   -11577   -11419   -11442   -11473   -11610   -11985   -12423 
  -12830   -13198   -13392   -13426   -13351   -13022   -12504   -12083 
  -11683   -11182   -10824   -10668   -10552   -10491   -10516   -10406 
   -9994    -9463    -8812    -7843    -6746    -5779    -4916    -4163 
   -3724    -3666    -3800    -4029    -4322    -4588    -4799    -4902 
   -4851    -4790    -4795    -4776    -4726    -4737    -4947    -5398 
   -6008    -6787    -7724    -8770    -9862   -10881   -11891   -12912 
  -13848   -14819   -15775   -16399   -16637   -16631   -16342   -15811 
  -15260   -14620   -13879   -13235   -12572   -11858   -11337   -11078 
  -11017   -11103   -11281   -11488   -11759   -12105   -12374   -12531 
  -12682   -12846   -13027   -13148   -13140   -13125   -13067   -12898 
  -12726   -12474   -12129   -11892   -11729   -11434   -11049   -10682 
  -10306   -10070   -10066   -10192   -10514   -10966   -11315   -11579 
  -11862   -12138   -12285   -12255   -12111   -11854   -11379   -10696 
  -10029    -9434    -8816    -8323    -8068    -7953    -7998    -8279 
   -8713    -9209    -9782   -10337   -10733   -11044   -11299   -11428 
