Origin Time       2011/03/11 14:46:00
Lat.              38.103
Long.             142.860
Depth. (km)       24
Mag.              9.0
Station Code      AIC002
Station Lat.      35.2979
Station Long.     136.9154
Station Height(m) 21
Record Time       2011/03/11 14:49:10
Sampling Freq(Hz) 100Hz
Duration Time(s)  166
Dir.              E-W
Scale Factor      3920(gal)/6182761
Max. Acc. (gal)   4.901
Last Correction   2011/03/11 14:48:55
Memo.             
[...]
  -19663   -19711   -19807   -19894   -19960   -20040   -20057   -19992 
  -20060   -20263   -20342   -20314   -20416   -20613   -20681   -20672 
  -20725   -20764   -20769   -20795   -20895   -21087   -21190   -21176 
  -21245   -21367   -21496   -21693   -21790   -21692   -21617   -21674 
  -21696   -21573   -21439   -21332   -21108   -20858   -20705   -20515 
  -20283   -20135   -20069   -20035   -19991   -19981   -20143   -20481 
  -20820   -21095   -21365   -21628   -21980   -22441   -22689   -22669 
  -22776   -23145   -23433   -23425   -23378   -23484   -23580   -23516 
  -23273   -22961   -22712   -22460   -22204   -22001   -21682   -21220 
  -20842   -20627   -20483   -20317   -20168   -20043   -19853   -19685 
  -19605   -19511   -19399   -19225   -18893   -18562   -18341   -17982 
  -17354   -16704   -16189   -15690   -15151   -14682   -14418   -14319 
  -14120   -13895   -14029   -14251   -14109   -14034   -14439   -14803 
  -14842   -15168   -15918   -16417   -16639   -17159   -17858   -18276 
  -18457   -18554   -18634   -18764   -18797   -18723   -18713   -18666 
  -18602   -18738   -18891   -18917   -19086   -19422   -19706   -20012 
  -20440   -20878   -21273   -21669   -22020   -22207   -22204   -22081 
  -21848   -21447   -20899   -20305   -19681   -18960   -18230   -17690 
  -17278   -16807   -16418   -16349   -16460   -16635   -17092   -17695 
  -18098   -18548   -19313   -19999   -20351   -20794   -21460   -21805 
  -21775   -21935   -22235   -22204   -21944   -21696   -21288   -20778 
  -20510   -20335   -19987   -19783   -19844   -19766   -19625   -19863 
  -20335   -20633   -20884   -21349   -21744   -21813   -21818   -21878 
  -21769   -21503   -21263   -20992   -20635   -20313   -20009   -19587 
  -19152   -18998   -19015   -18850   -18737   -18982   -19185   -19139 
  -19257   -19604   -19845   -19990   -20240   -20554   -20852   -21095 
  -21230   -21362   -21555   -21629   -21541   -21454   -21358   -21134 
  -20851   -20681   -20571   -20310   -19982   -19818   -19710   -19447 
  -19121   -18907   -18810   -18769   -18695   -18544   -18477   -18610 
  -18803   -18941   -19085   -19262   -19403   -19472   -19535   -19616 
  -19642   -19636   -19746   -19915   -19985   -20113   -20430   -20756 
  -21057   -21440   -21832   -22172   -22507   -22827   -23152   -23527 
  -23803   -23815   -23652   -23545   -23502   -23282   -22833   -22401 
  -22108   -21777   -21276   -20809   -20523   -20234   -19850   -19508 
  -19276   -19168   -19196   -19311   -19475   -19697   -19933   -20160 
  -20436   -20739   -20957   -21095   -21184   -21159   -20957   -20616 
  -20281   -20002   -19635   -19192   -18897   -18745   -18509   -18243 
  -18223   -18409   -18599   -18799   -19032   -19229   -19348   -19434 
  -19593   -19749   -19720   -19599   -19560   -19558   -19505   -19439 
  -19445   -19474   -19389   -19218   -19132   -19134   -19012   -18759 
  -18657   -18683   -18596   -18490   -18440   -18288   -18100   -17989 
  -17833   -17584   -17332   -17087   -16844   -16657   -16505   -16348 
  -16230   -16188   -16212   -16283   -16350   -16355   -16343   -16391 
  -16475   -16559   -16642   -16740   -16935   -17202   -17405   -17635 
  -18027   -18450   -18788   -19025   -19218   -19527   -19844   -19920 
  -19893   -19926   -19883   -19738   -19641   -19545   -19337   -19110 
  -18982   -18907   -18741   -18460   -18182   -17906   -17629   -17420 
  -17224   -17022   -16974   -17135   -17328   -17507   -17825   -18183 
  -18403   -18565   -18720   -18815   -18812   -18701   -18537   -18338 
  -18085   -17804   -17479   -17118   -16749   -16274   -15708   -15269 
  -14958   -14585   -14253   -14179   -14267   -14390   -14590   -14874 
  -15263   -15814   -16444   -17027   -17572   -18108   -18593   -19005 
  -19375   -19677   -19834   -19869   -19827   -19711   -19526   -19270 
  -18974   -18667   -18368   -18177   -18131   -18090   -17957   -17758 
  -17580   -17498   -17451   -17323   -17148   -17053   -17078   -17147 
  -17180   -17215   -17302   -17375   -17423   -17508   -17589   -17663 
  -17839   -18085   -18250   -18364   -18570   -18842   -19082   -19265 
  -19388   -19513   -19675   -19835   -20034   -20294   -20521   -20683 
  -20839   -21041   -21277   -21448   -21538   -21671   -21872   -22029 
  -22123   -22226   -22343   -22475   -22596   -22645   -22670   -22715 
  -22673   -22523   -22362   -22182   -21940   -21654   -21318   -20943 
  -20563   -20194   -19870   -19571   -19214   -18810   -18460   -18193 
  -17965   -17758   -17604   -17537   -17573   -17723   -17953   -18249 
  -18619   -18984   -19312   -19667   -20030   -20390   -20797   -21226 
  -21618   -21968   -22269   -22484   -22569   -22460   -22148   -21794 
  -21464   -20978   -20318   -19698   -19206   -18749   -18273   -17833 
  -17451   -17119   -16930   -16928   -17024   -17193   -17499   -17896 
  -18323   -18822   -19323   -19682   -19990   -20388   -20688   -20762 
  -20836   -20977   -20986   -20829   -20659   -20556   -20481   -20418 
  -20382   -20378   -20441   -20572   -20732   -20859   -20885   -20853 
  -20824   -20789   -20734   -20581   -20354   -20186   -20064   -19948 
  -19788   -19510   -19247   -19115   -18939   -18639   -18384   -18181 
  -17949   -17727   -17506   -17251   -17037   -16934   -16866   -16766 
  -16765   -16926   -17158   -17444   -17828   -18346   -18956   -19573 
  -20207   -20850   -21411   -21900   -22352   -22710   -22960   -23232 
  -23520   -23642   -23636   -23620   -23467   -23152   -22824   -22473 
  -22082   -21767   -21505   -21231   -21023   -20931   -20975   -21157 
  -21324   -21410   -21569   -21861   -22192   -22431   -22528   -22585 
  -22714   -22844   -22845   -22759   -22681   -22621   -22575   -22515 
  -22436   -22391   -22428   -22522   -22569   -22577   -22688   -22856 
  -22896   -22818   -22750   -22713   -22655   -22560   -22433   -22274 
  -22145   -22072   -21945   -21723   -21500   -21309   -21085   -20848 
  -20630   -20367   -20108   -19993   -19998   -20035   -20116   -20254 
  -20453   -20735   -21020   -21235   -21424   -21570   -21620   -21609 
  -21600   -21590   -21538   -21420   -21210   -20890   -20565   -20306 
  -20016   -19674   -19379   -19119   -18897   -18840   -18985   -19196 
  -19385   -19615   -19954   -20333   -20633   -20861   -21109   -21315 
  -21353   -21315   -21343   -21313   -21074   -20757   -20495   -20143 
  -19656   -19253   -18952   -18610   -18296   -18097   -18018   -18066 
  -18191   -18351   -18581   -18930   -19330   -19657   -19917   -20191 
  -20463   -20648   -20703   -20699   -20734   -20787   -20779   -20689 
  -20554   -20432   -20293   -20038   -19687   -19366   -19077   -18704 
  -18257   -17827   -17425   -17034   -16675   -16398   -16202   -16015 
  -15843   -15821   -15962   -16115   -16277   -16552   -16903   -17270 
  -17663   -18049   -18412   -18752   -19042   -19300   -19561   -19747 
  -19783   -19772   -19787   -19751   -19606   -19351   -19043   -18741 
  -18433   -18097   -17793   -17551   -17289   -17048   -16968   -16960 
  -16949   -17098   -17397   -17636   -17890   -18332   -18856   -19325 
  -19776   -20319   -20941   -21442   -21739   -21967   -22159   -22193 
  -22067   -21905   -21693   -21310   -20826   -20428   -20099   -19736 
  -19358   -19042   -18839   -18720   -18620   -18513   -18435   -18442 
  -18478   -18491   -18556   -18646   -18687   -18723   -18746   -18710 
  -18669   -18648   -18605   -18513   -18403   -18329   -18276   -18176 
  -18049   -17967   -17869   -17678   -17535   -17520   -17493   -17498 
  -17637   -17789   -17960   -18236   -18482   -18656   -18855   -19038 
  -19131   -19164   -19184   -19189   -19143   -19029   -18866   -18663 
  -18425   -18198   -17998   -17810   -17601   -17391   -17288   -17268 
  -17251   -17320   -17515   -17780   -18135   -18620   -19137   -19607 
  -20107   -20640   -21080   -21384   -21608   -21762   -21792   -21736 
  -21705   -21680   -21568   -21316   -20999   -20762   -20562   -20300 
  -20045   -19816   -19577   -19425   -19420   -19444   -19446   -19548 
  -19737   -19874   -20010   -20231   -20470   -20681   -20868   -21007 
  -21163   -21419   -21659   -21776   -21889   -22051   -22155   -22187 
  -22207   -22213   -22196   -22192   -22188   -22136   -22049   -21944 
  -21806   -21641   -21470   -21296   -21089   -20856   -20689   -20588 
  -20454   -20315   -20248   -20217   -20197   -20205   -20246   -20292 
  -20294   -20273   -20256   -20227   -20190   -20132   -20052   -19991 
  -19944   -19888   -19810   -19699   -19560   -19400   -19270   -19196 
  -19107   -18969   -18864   -18834   -18823   -18793   -18739   -18638 
  -18477   -18284   -18103   -17952   -17814   -17691   -17591   -17526 
  -17537   -17634   -17728   -17713   -17595   -17480   -17421   -17356 
  -17234   -17074   -16901   -16734   -16603   -16528   -16471   -16381 
  -16288   -16237   -16200   -16139   -16080   -16075   -16114   -16154 
  -16200   -16295   -16413   -16510   -16645   -16780   -16755   -16603 
  -16437   -16241   -16014   -15778   -15490   -15160   -14876   -14686 
  -14575   -14534   -14542   -14597   -14744   -14969   -15226   -15553 
  -15946   -16292   -16563   -16916   -17405   -17840   -18137   -18385 
  -18583   -18703   -18797   -18821   -18700   -18492   -18224   -17896 
  -17646   -17480   -17239   -16980   -16776   -16481   -16106   -15812 
  -15566   -15247   -14919   -14711   -14583   -14500   -14537   -14639 
  -14741   -14928   -15206   -15472   -15710   -15982   -16255   -16431 
  -16569   -16749   -16884   -16936   -16973   -16993   -16996   -17049 
  -17163   -17306   -17487   -17704   -17985   -18387   -18814   -19168 
  -19563   -20013   -20388   -20707   -20984   -21158   -21286   -21379 
  -21359   -21259   -21154   -21038   -20867   -20630   -20407   -20277 
  -20218   -20200   -20219   -20270   -20375   -20497   -20607   -20795 
  -21072   -21314   -21540   -21852   -22177   -22403   -22582   -22748 
  -22866   -22952   -23000   -22960   -22796   -22568   -22422   -22351 
  -22238   -22085   -21968   -21943   -21971   -21976   -21992   -21998 
  -21945   -21955   -22064   -22191   -22357   -22533   -22615   -22651 
  -22768   -22911   -22859   -22622   -22489   -22520   -22493   -22342 
  -22207   -22198   -22290   -22429   -22578   -22679   -22735   -22859 
  -23079   -23304   -23409   -23395   -23486   -23716   -23800   -23663 
  -23481   -23330   -23177   -22977   -22741   -22477   -22148   -21833 
  -21646   -21549   -21432   -21226   -21079   -21313   -21909   -22441 
  -22668   -22720   -22851   -23218   -23690   -23978   -23995   -23882 
  -23780   -23717   -23693   -23591   -23115   -22274   -21589   -21386 
  -21338   -21046   -20592   -20216   -19986   -19913   -19906   -19828 
  -19759   -19896   -20149   -20243   -20308   -20703   -21283   -21548 
  -21315   -20929   -20927   -21386   -21703   -21438   -20955   -20750 
  -20746   -20576   -20121   -19647   -19424   -19323   -19162   -18988 
  -18776   -18555   -18551   -18779   -19005   -18967   -18676   -18582 
  -18957   -19364   -19289   -18814   -18429   -18506   -18795   -18669 
  -18108   -17579   -17190   -16972   -17035   -17074   -16793   -16509 
  -16634   -17017   -17296   -17413   -17483   -17614   -17841   -18006 
  -17911   -17685   -17691   -17849   -17781   -17591   -17429   -17186 
  -17089   -17222   -17099   -16574   -16156   -16164   -16229   -15774 
  -14935   -14641   -15284   -16023   -16112   -15897   -15984   -16435 
  -16993   -17399   -17583   -17848   -18416   -18905   -18955   -18952 
  -19310   -19753   -19969   -19969   -19701   -19241   -18984   -19101 
  -19221   -18919   -18244   -17607   -17398   -17600   -17670   -17238 
  -16714   -16704   -17207   -17678   -17654   -17269   -16999   -17096 
  -17474   -17716   -17466   -17022   -17016   -17494   -17854   -17734 
  -17413   -17355   -17760   -18369   -18636   -18445   -18289   -18461 
  -18719   -18877   -19058   -19365   -19711   -19964   -20021   -19930 
  -20003   -20381   -20771   -20865   -20660   -20444   -20441   -20519 
  -20520   -20467   -20411   -20298   -19935   -19469   -19419   -19674 
  -19656   -19386   -19191   -19097   -19164   -19497   -19869   -20020 
  -19993   -19970   -20128   -20506   -20858   -20912   -20782   -20794 
  -20984   -21119   -21079   -20956   -20809   -20581   -20373   -20443 
  -20757   -20942   -20789   -20515   -20464   -20696   -20991   -21141 
  -21137   -21127   -21195   -21244   -21207   -21187   -21135   -20960 
  -20899   -21032   -21015   -20749   -20545   -20594   -20811   -21035 
  -21043   -20680   -20266   -20294   -20685   -20960   -20894   -20653 
  -20532   -20701   -21062   -21224   -20996   -20734   -20678   -20556 
  -20188   -19825   -19633   -19450   -19207   -18939   -18635   -18365 
  -18156   -17944   -17723   -17537   -17474   -17592   -17709   -17633 
  -17440   -17331   -17494   -17883   -18077   -17891   -17658   -17631 
  -17779   -17976   -18001   -17747   -17392   -17204   -17227   -17158 
  -16781   -16357   -16127   -15912   -15600   -15402   -15437   -15619 
  -15821   -15943   -16069   -16336   -16658   -16932   -17199   -17440 
  -17515   -17363   -17208   -17262   -17278   -16962   -16522   -16160 
  -15740   -15322   -15059   -14734   -14185   -13588   -13070   -12608 
  -12232   -11983   -11817   -11696   -11606   -11520   -11527   -11733 
  -12081   -12399   -12548   -12549   -12506   -12502   -12624   -12844 
  -12956   -12882   -12776   -12777   -12811   -12666   -12332   -12062 
  -11928   -11770   -11589   -11535   -11544   -11487   -11532   -11799 
  -12098   -12392   -12806   -13288   -13802   -14422   -14996   -15402 
  -15891   -16547   -17116   -17536   -17902   -18162   -18267   -18338 
  -18474   -18502   -18225   -17774   -17402   -17198   -17011   -16607 
  -16063   -15728   -15657   -15567   -15375   -15279   -15385   -15569 
  -15725   -15951   -16301   -16637   -16851   -16998   -17207   -17558 
  -17909   -18065   -18143   -18367   -18653   -18842   -18974   -19063 
  -19057   -19043   -19191   -19456   -19626   -19646   -19623   -19675 
  -19835   -19966   -19930   -19779   -19670   -19662   -19646   -19555 
  -19480   -19504   -19600   -19665   -19683   -19718   -19752   -19819 
  -19999   -20161   -20188   -20246   -20480   -20796   -21079   -21320 
  -21516   -21708   -22020   -22469   -22886   -23111   -23205   -23383 
  -23709   -24046   -24327   -24527   -24523   -24405   -24457   -24694 
  -24925   -25041   -25031   -24962   -24939   -24955   -24880   -24708 
  -24518   -24279   -24013   -23837   -23761   -23651   -23440   -23244 
  -23141   -23067   -22952   -22780   -22629   -22592   -22629   -22656 
  -22675   -22686   -22625   -22446   -22190   -22004   -21975   -21926 
  -21688   -21372   -21193   -21173   -21135   -20929   -20563   -20230 
  -20090   -20054   -20005   -19885   -19679   -19526   -19475   -19453 
  -19451   -19387   -19230   -19104   -19033   -18976   -18961   -18930 
  -18796   -18629   -18555   -18586   -18625   -18600   -18524   -18434 
  -18394   -18463   -18618   -18758   -18764   -18637   -18565   -18727 
  -19039   -19214   -19118   -18926   -18869   -18898   -18803   -18564 
  -18284   -17976   -17625   -17277   -17018   -16866   -16745   -16574 
  -16313   -16091   -16040   -16036   -15994   -15963   -15924   -15849 
  -15776   -15783   -15856   -15877   -15834   -15784   -15786   -15860 
  -15873   -15739   -15555   -15392   -15217   -15067   -15064   -15158 
  -15143   -14991   -14847   -14801   -14839   -14914   -14944   -14825 
  -14625   -14542   -14591   -14626   -14601   -14574   -14558   -14597 
  -14752   -14970   -15196   -15389   -15516   -15676   -15921   -16224 
  -16523   -16673   -16732   -16843   -16938   -16975   -16965   -16956 
  -16974   -16894   -16785   -16778   -16742   -16646   -16648   -16778 
  -16889   -16869   -16796   -16758   -16803   -16912   -16921   -16874 
  -16943   -17066   -17133   -17093   -16957   -16857   -16846   -16858 
  -16849   -16821   -16771   -16629   -16442   -16364   -16341   -16302 
  -16294   -16243   -16105   -15978   -15912   -15869   -15754   -15581 
  -15479   -15433   -15326   -15170   -15083   -15159   -15344   -15480 
  -15514   -15573   -15790   -16060   -16190   -16285   -16486   -16728 
  -17017   -17265   -17255   -17125   -17151   -17282   -17333   -17221 
  -17029   -16871   -16725   -16666   -16824   -16995   -16936   -16788 
  -16798   -17044   -17383   -17594   -17663   -17729   -17893   -18148 
  -18347   -18405   -18424   -18486   -18593   -18739   -18822   -18729 
  -18550   -18433   -18376   -18348   -18332   -18242   -18100   -18078 
  -18241   -18475   -18623   -18690   -18915   -19345   -19682   -19809 
  -19878   -20048   -20413   -20804   -20955   -20964   -21079   -21276 
  -21384   -21374   -21339   -21353   -21400   -21352   -21109   -20769 
  -20514   -20369   -20196   -19965   -19740   -19467   -19151   -18955 
  -18958   -19016   -18930   -18795   -18823   -18962   -19102   -19194 
  -19142   -19037   -19111   -19324   -19531   -19673   -19643   -19518 
  -19558   -19737   -19860   -19846   -19703   -19540   -19463   -19502 
  -19599   -19602   -19561   -19682   -19813   -19782   -19829   -19985 
  -19996   -19897   -19785   -19638   -19513   -19372   -19169   -18954 
  -18669   -18383   -18184   -17866   -17451   -17176   -16921   -16605 
  -16416   -16311   -16161   -16041   -15974   -15956   -16023   -16182 
  -16467   -16737   -16843   -17053   -17491   -17826   -17933   -17980 
  -18017   -18065   -18173   -18229   -18143   -18063   -18115   -18175 
  -18092   -17929   -17803   -17694   -17613   -17627   -17634   -17583 
  -17648   -17850   -18029   -18210   -18473   -18655   -18633   -18556 
  -18600   -18816   -19065   -19087   -18940   -18962   -19139   -19190 
  -19099   -19027   -19021   -19015   -18989   -19001   -19064   -19064 
  -18961   -18989   -19282   -19595   -19748   -19823   -19952   -20215 
  -20502   -20666   -20750   -20787   -20753   -20731   -20734   -20642 
  -20466   -20363   -20347   -20307   -20229   -20111   -19908   -19676 
  -19510   -19369   -19206   -19075   -18934   -18688   -18496   -18537 
  -18635   -18562   -18361   -18186   -18138   -18222   -18236   -17997 
  -17744   -17727   -17738   -17623   -17569   -17662   -17730   -17665 
  -17618   -17737   -17882   -17894   -17818   -17745   -17809   -18061 
  -18274   -18304   -18312   -18400   -18506   -18569   -18498   -18294 
  -18146   -18045   -17831   -17609   -17423   -17165   -16964   -16890 
  -16823   -16817   -16847   -16709   -16502   -16516   -16759   -17026 
  -17156   -17155   -17214   -17455   -17770   -17986   -18043   -18095 
  -18245   -18374   -18508   -18749   -18983   -19152   -19350   -19584 
  -19831   -20082   -20267   -20444   -20746   -21067   -21272   -21425 
  -21620   -21880   -22166   -22382   -22454   -22415   -22399   -22470 
  -22551   -22545   -22389   -22180   -22090   -22061   -21993   -21915 
  -21836   -21824   -21904   -21973   -22009   -21978   -21836   -21705 
  -21625   -21528   -21385   -21200   -21046   -20921   -20764   -20592 
  -20376   -20168   -20056   -19900   -19638   -19385   -19220   -19167 
  -19126   -19065   -19032   -18955   -18879   -18922   -19128   -19420 
  -19496   -19368   -19408   -19573   -19668   -19760   -19813   -19750 
  -19618   -19508   -19477   -19419   -19238   -18984   -18740   -18626 
