Origin Time       2011/03/11 14:46:00
Lat.              38.103
Long.             142.860
Depth. (km)       24
Mag.              9.0
Station Code      AIC001
Station Lat.      35.2974
Station Long.     136.7505
Station Height(m) 5
Record Time       2011/03/11 14:48:34
Sampling Freq(Hz) 100Hz
Duration Time(s)  300
Dir.              U-D
Scale Factor      3920(gal)/6182761
Max. Acc. (gal)   4.774
Last Correction   2011/03/11 14:48:19
Memo.             
[...]
  -10010   -10123   -10105   -10190   -10339   -10493   -10576   -10513 
  -10488   -10558   -10599   -10701   -10895   -11035   -11100   -11159 
  -11191   -11178   -11171   -11130   -11023   -10981   -11036   -11068 
  -11036   -10980   -10923   -10869   -10839   -10843   -10783   -10588 
  -10366   -10249   -10243   -10242   -10181   -10125   -10144   -10200 
  -10187   -10082    -9965    -9827    -9682    -9664    -9734    -9798 
   -9904   -10047   -10168   -10280   -10375   -10432   -10512   -10609 
  -10629   -10639   -10707   -10736   -10713   -10675   -10578   -10489 
  -10452   -10342   -10147    -9979    -9898    -9918   -10017   -10110 
  -10132   -10099   -10020    -9865    -9684    -9535    -9368    -9141 
   -8880    -8624    -8420    -8251    -8039    -7751    -7412    -7067 
   -6802    -6680    -6616    -6475    -6303    -6204    -6151    -6125 
   -6187    -6295    -6307    -6236    -6242    -6346    -6462    -6539 
   -6533    -6511    -6599    -6779    -6947    -7044    -7075    -7092 
   -7102    -7083    -7106    -7193    -7231    -7221    -7280    -7434 
   -7645    -7775    -7673    -7493    -7434    -7404    -7434    -7579 
   -7565    -7411    -7388    -7364    -7221    -7092    -6999    -6886 
   -6758    -6702    -6733    -6700    -6538    -6361    -6281    -6303 
   -6341    -6341    -6303    -6209    -6107    -6095    -6135    -6104 
   -6065    -6138    -6258    -6379    -6567    -6785    -6971    -7186 
   -7491    -7853    -8237    -8637    -9026    -9404    -9808   -10195 
  -10494   -10717   -10906   -11093   -11295   -11463   -11548   -11579 
  -11566   -11497   -11430   -11404   -11356   -11223   -11018   -10814 
  -10681   -10560   -10367   -10165    -9993    -9854    -9793    -9662 
   -9393    -9219    -9164    -9098    -9041    -8975    -8928    -8937 
   -8925    -8899    -8816    -8559    -8250    -8083    -8005    -7842 
   -7558    -7207    -6870    -6692    -6679    -6615    -6417    -6258 
   -6275    -6401    -6484    -6435    -6323    -6257    -6193    -6104 
   -6086    -6094    -6047    -6086    -6230    -6301    -6286    -6306 
   -6412    -6560    -6698    -6827    -6929    -7015    -7122    -7195 
   -7210    -7232    -7227    -7158    -7192    -7374    -7498    -7583 
   -7743    -7842    -7895    -8027    -8079    -8024    -8027    -7999 
   -7858    -7712    -7546    -7281    -6986    -6687    -6363    -6098 
   -5888    -5659    -5473    -5362    -5245    -5119    -5033    -5024 
   -5108    -5245    -5368    -5495    -5675    -5853    -5929    -5954 
   -6079    -6216    -6121    -5866    -5677    -5516    -5315    -5169 
   -5008    -4652    -4209    -3897    -3757    -3662    -3419    -3068 
   -2830    -2684    -2526    -2447    -2455    -2417    -2343    -2368 
   -2482    -2557    -2549    -2466    -2351    -2314    -2370    -2414 
   -2404    -2429    -2560    -2751    -2999    -3299    -3532    -3707 
   -3928    -4141    -4277    -4315    -4234    -4140    -4140    -4144 
   -4072    -4002    -3956    -3888    -3832    -3776    -3649    -3487 
   -3378    -3328    -3298    -3264    -3210    -3160    -3194    -3332 
   -3454    -3487    -3527    -3657    -3877    -4160    -4438    -4633 
   -4786    -5050    -5452    -5860    -6173    -6340    -6408    -6525 
   -6686    -6734    -6670    -6639    -6666    -6704    -6809    -6916 
   -6831    -6644    -6633    -6796    -6876    -6761    -6607    -6530 
   -6533    -6628    -6655    -6512    -6454    -6509    -6468    -6454 
   -6534    -6475    -6257    -6120    -6131    -6104    -6012    -5995 
   -6060    -6196    -6450    -6731    -6915    -7034    -7206    -7440 
   -7609    -7647    -7621    -7621    -7709    -7861    -7941    -7864 
   -7667    -7470    -7429    -7562    -7652    -7571    -7477    -7469 
   -7428    -7356    -7391    -7515    -7611    -7658    -7668    -7610 
   -7473    -7320    -7228    -7194    -7125    -6930    -6649    -6392 
   -6204    -6031    -5831    -5680    -5612    -5511    -5328    -5113 
   -4933    -4865    -4920    -5057    -5155    -5083    -5001    -5036 
   -5033    -5019    -5098    -5222    -5365    -5432    -5388    -5418 
   -5583    -5786    -5986    -6141    -6138    -5979    -5830    -5735 
   -5574    -5368    -5251    -5181    -5004    -4725    -4446    -4197 
   -4001    -3878    -3762    -3623    -3547    -3561    -3575    -3564 
   -3602    -3692    -3782    -3868    -3907    -3908    -3964    -4016 
   -3974    -3960    -4035    -4117    -4220    -4391    -4567    -4694 
   -4798    -4891    -4978    -5074    -5162    -5312    -5554    -5717 
   -5763    -5842    -5974    -6140    -6334    -6449    -6470    -6450 
   -6403    -6401    -6478    -6585    -6675    -6692    -6667    -6696 
   -6799    -6969    -7147    -7252    -7340    -7528    -7816    -8114 
   -8363    -8513    -8561    -8666    -8929    -9254    -9531    -9665 
   -9655    -9661    -9754    -9845    -9858    -9785    -9678    -9596 
   -9545    -9495    -9447    -9377    -9186    -8874    -8572    -8310 
   -8058    -7853    -7677    -7493    -7386    -7369    -7335    -7269 
   -7145    -6966    -6927    -7020    -7015    -6927    -6885    -6853 
   -6750    -6608    -6594    -6717    -6758    -6682    -6613    -6583 
   -6616    -6719    -6847    -6967    -7050    -7191    -7478    -7795 
   -8041    -8171    -8151    -8143    -8273    -8395    -8380    -8283 
   -8207    -8176    -8079    -7830    -7533    -7273    -7000    -6788 
   -6762    -6796    -6729    -6644    -6676    -6827    -7023    -7234 
   -7452    -7672    -7897    -8061    -8086    -7970    -7763    -7629 
   -7684    -7777    -7771    -7729    -7670    -7591    -7592    -7663 
   -7660    -7557    -7440    -7390    -7429    -7442    -7375    -7344 
   -7381    -7509    -7802    -8052    -8067    -8025    -8036    -8096 
   -8217    -8269    -8237    -8180    -8069    -8041    -8156    -8225 
   -8181    -8104    -8025    -7960    -7946    -7880    -7645    -7416 
   -7363    -7358    -7284    -7188    -7190    -7360    -7583    -7724 
   -7853    -8029    -8141    -8193    -8303    -8420    -8414    -8326 
   -8285    -8321    -8364    -8305    -8095    -7854    -7744    -7735 
   -7706    -7678    -7656    -7568    -7479    -7462    -7509    -7616 
   -7660    -7539    -7468    -7599    -7694    -7599    -7500    -7457 
   -7310    -7117    -6956    -6682    -6386    -6251    -6145    -5984 
   -5830    -5692    -5595    -5562    -5603    -5713    -5859    -6006 
   -6095    -6153    -6273    -6439    -6623    -6839    -7068    -7328 
   -7616    -7822    -7870    -7870    -7957    -8089    -8192    -8296 
   -8360    -8286    -8112    -7985    -8003    -8139    -8312    -8473 
   -8603    -8673    -8613    -8429    -8253    -8097    -7903    -7771 
   -7716    -7595    -7408    -7251    -7149    -7079    -6964    -6773 
   -6587    -6466    -6380    -6271    -6123    -6019    -6015    -5990 
   -5913    -5902    -5874    -5733    -5563    -5418    -5423    -5623 
   -5781    -5776    -5703    -5641    -5668    -5832    -5979    -5976 
   -5985    -6163    -6389    -6518    -6566    -6551    -6487    -6480 
   -6567    -6651    -6725    -6808    -6718    -6354    -5981    -5830 
   -5791    -5739    -5703    -5645    -5477    -5270    -5166    -5231 
   -5467    -5708    -5727    -5590    -5475    -5410    -5486    -5746 
   -5985    -6051    -5994    -5948    -6044    -6318    -6652    -6909 
   -7085    -7205    -7300    -7427    -7558    -7653    -7744    -7821 
   -7879    -7957    -8007    -7952    -7813    -7715    -7729    -7731 
   -7567    -7276    -7062    -7037    -7087    -7107    -7127    -7110 
   -6968    -6842    -6935    -7133    -7241    -7309    -7366    -7326 
   -7251    -7210    -7142    -7049    -6926    -6699    -6454    -6331 
   -6238    -6042    -5848    -5750    -5681    -5636    -5615    -5581 
   -5612    -5703    -5693    -5534    -5303    -5063    -4833    -4599 
   -4338    -4066    -3812    -3554    -3231    -2836    -2467    -2159 
   -1805    -1444    -1243    -1141    -1000     -849     -678     -488 
    -409     -448     -555     -701     -737     -646     -648     -799 
    -932     -926     -806     -719     -817    -1000    -1074    -1110 
   -1264    -1534    -1877    -2247    -2566    -2831    -3064    -3179 
   -3125    -3060    -3172    -3405    -3559    -3590    -3610    -3675 
   -3776    -3889    -3976    -4020    -4073    -4167    -4314    -4541 
   -4782    -4931    -5018    -5137    -5316    -5492    -5643    -5865 
   -6190    -6520    -6794    -7054    -7391    -7798    -8137    -8359 
   -8564    -8831    -9155    -9525    -9920   -10257   -10535   -10876 
  -11230   -11470   -11670   -11838   -11901   -11971   -12092   -12203 
  -12345   -12457   -12437   -12386   -12386   -12371   -12350   -12370 
  -12368   -12313   -12242   -12131   -11979   -11899   -11928   -11954 
  -11897   -11786   -11621   -11368   -11074   -10824   -10603   -10352 
  -10062    -9690    -9206    -8772    -8563    -8470    -8296    -8043 
   -7770    -7470    -7164    -6900    -6727    -6708    -6773    -6758 
   -6645    -6527    -6471    -6495    -6548    -6540    -6461    -6400 
   -6437    -6577    -6734    -6830    -6863    -6805    -6707    -6718 
   -6726    -6562    -6404    -6347    -6258    -6135    -6039    -6001 
   -6008    -5960    -5848    -5780    -5774    -5776    -5770    -5736 
   -5629    -5465    -5297    -5154    -5084    -5063    -4954    -4699 
   -4419    -4235    -4083    -3876    -3652    -3388    -3054    -2800 
   -2769    -2869    -2900    -2835    -2786    -2785    -2812    -2816 
   -2727    -2596    -2492    -2424    -2466    -2623    -2759    -2784 
   -2728    -2686    -2714    -2750    -2744    -2749    -2752    -2736 
   -2814    -2986    -3121    -3214    -3316    -3459    -3761    -4169 
   -4444    -4542    -4532    -4441    -4400    -4562    -4855    -5084 
   -5240    -5386    -5444    -5386    -5240    -4980    -4748    -4778 
   -5023    -5203    -5208    -5228    -5451    -5791    -6095    -6403 
   -6814    -7257    -7624    -7945    -8209    -8236    -7980    -7715 
   -7746    -8005    -8237    -8423    -8633    -8820    -8963    -9085 
   -9167    -9202    -9284    -9432    -9457    -9258    -9031    -9016 
   -9258    -9595    -9800    -9779    -9597    -9339    -9044    -8764 
   -8531    -8241    -7874    -7618    -7534    -7525    -7509    -7440 
   -7567    -8084    -8473    -8183    -7511    -7239    -7719    -8493 
   -8896    -8739    -8227    -7759    -7721    -8068    -8244    -7867 
   -7265    -6926    -6837    -6663    -6297    -6048    -6111    -6178 
   -5995    -5712    -5461    -5241    -5168    -5303    -5339    -4987 
   -4392    -3811    -3408    -3379    -3660    -3846    -3826    -3835 
   -3800    -3426    -2825    -2369    -2166    -2164    -2274    -2158 
   -1521     -688     -357     -650     -966     -878     -584     -462 
    -597     -778     -687     -226       85     -442    -1497    -2096 
   -1900    -1244     -667     -668    -1240    -1873    -2075    -1881 
   -1835    -2113    -2364    -2429    -2339    -2010    -1524    -1324 
   -1721    -2481    -3157    -3481    -3427    -3231    -3222    -3457 
   -3667    -3671    -3706    -4012    -4371    -4526    -4654    -4880 
   -4929    -4733    -4768    -5384    -6220    -6581    -6356    -6177 
   -6467    -7015    -7539    -8001    -8450    -8928    -9399    -9775 
   -9994   -10051   -10092   -10343   -10747   -11043   -11228   -11430 
  -11574   -11610   -11593   -11549   -11675   -12154   -12680   -12814 
  -12513   -12081   -11853   -11880   -11956   -11962   -11868   -11683 
  -11551   -11481   -11223   -10758   -10397   -10256   -10225   -10329 
  -10643   -11115   -11496   -11327   -10513    -9766    -9783   -10282 
  -10451   -10084    -9705    -9662    -9728    -9586    -9273    -9019 
   -8853    -8672    -8445    -8149    -7821    -7531    -7220    -6829 
   -6429    -6272    -6542    -6909    -6852    -6383    -5965    -5833 
   -5828    -5762    -5564    -5268    -5041    -4998    -5020    -4886 
   -4653    -4591    -4672    -4749    -4809    -4613    -4087    -3717 
   -3793    -4073    -4295    -4397    -4438    -4595    -4990    -5412 
   -5534    -5373    -5245    -5313    -5491    -5648    -5682    -5574 
   -5477    -5607    -5963    -6274    -6311    -6146    -6045    -6169 
   -6428    -6680    -6930    -7133    -7091    -6802    -6586    -6667 
   -6905    -6995    -6866    -6727    -6708    -6738    -6771    -6756 
   -6631    -6491    -6452    -6523    -6655    -6809    -7054    -7394 
   -7640    -7732    -7792    -7912    -8129    -8400    -8545    -8500 
   -8497    -8624    -8709    -8746    -8779    -8780    -8867    -9091 
   -9331    -9529    -9623    -9582    -9656   -10011   -10336   -10329 
  -10132    -9991    -9926    -9807    -9618    -9538    -9583    -9451 
   -9015    -8635    -8674    -9008    -9278    -9379    -9393    -9269 
   -8969    -8730    -8710    -8594    -8103    -7512    -7185    -7088 
   -6938    -6531    -5988    -5595    -5369    -5107    -4797    -4578 
   -4411    -4158    -3880    -3714    -3610    -3510    -3422    -3297 
   -3137    -2956    -2670    -2320    -2069    -1857    -1501    -1104 
    -910     -965    -1180    -1308    -1032     -551     -312     -316 
    -440     -634     -706     -565     -340     -193     -242     -559 
   -1040    -1281     -976     -415     -136     -218     -366     -425 
    -402     -291     -135      -39      -86     -223     -199      119 
     511      727      730      586      371      193      123       54 
    -151     -387     -508     -473     -263      -95     -357    -1069 
   -1790    -2095    -1984    -1805    -1878    -2302    -2951    -3518 
   -3738    -3691    -3708    -4019    -4549    -4932    -4967    -4905 
   -4945    -5127    -5638    -6321    -6687    -6722    -6729    -6885 
   -7211    -7456    -7442    -7376    -7502    -7821    -8148    -8375 
   -8521    -8530    -8419    -8384    -8513    -8732    -8947    -8990 
   -8784    -8622    -8771    -9056    -9236    -9331    -9417    -9501 
   -9535    -9448    -9271    -9154    -9143    -9136    -9170    -9324 
   -9425    -9352    -9244    -9195    -9161    -9066    -8913    -8810 
   -8778    -8725    -8673    -8777    -9053    -9287    -9400    -9519 
   -9610    -9533    -9353    -9275    -9366    -9512    -9592    -9562 
   -9461    -9443    -9519    -9466    -9194    -8819    -8606    -8802 
   -9214    -9447    -9461    -9407    -9367    -9431    -9612    -9758 
   -9716    -9460    -9103    -8890    -8961    -9124    -9125    -8946 
   -8683    -8422    -8255    -8175    -8042    -7761    -7444    -7265 
   -7223    -7138    -6934    -6777    -6730    -6591    -6338    -6161 
   -6025    -5780    -5506    -5362    -5312    -5174    -4896    -4661 
   -4609    -4608    -4442    -4091    -3727    -3524    -3513    -3561 
   -3525    -3432    -3361    -3334    -3392    -3570    -3751    -3761 
   -3686    -3670    -3558    -3320    -3155    -3043    -2964    -3023 
   -3128    -3151    -3118    -3154    -3386    -3722    -3936    -4045 
   -4243    -4537    -4820    -5139    -5531    -5858    -5982    -5930 
   -5905    -6100    -6450    -6728    -6802    -6676    -6474    -6420 
   -6570    -6693    -6635    -6501    -6491    -6742    -7140    -7338 
   -7190    -6908    -6727    -6704    -6799    -6879    -6842    -6782 
   -6810    -6832    -6729    -6548    -6429    -6434    -6444    -6318 
   -6121    -5933    -5714    -5518    -5436    -5355    -5168    -4955 
   -4777    -4627    -4558    -4562    -4572    -4588    -4589    -4529 
   -4527    -4701    -4928    -5038    -5048    -5105    -5305    -5516 
   -5504    -5305    -5207    -5321    -5484    -5591    -5736    -6009 
   -6362    -6658    -6827    -6908    -6931    -6935    -7082    -7451 
   -7851    -8109    -8252    -8347    -8447    -8577    -8664    -8662 
   -8631    -8602    -8621    -8727    -8772    -8559    -8140    -7702 
   -7376    -7246    -7321    -7455    -7468    -7387    -7372    -7486 
   -7667    -7785    -7767    -7743    -7889    -8195    -8539    -8760 
   -8687    -8380    -8176    -8256    -8444    -8547    -8554    -8466 
   -8305    -8232    -8331    -8457    -8429    -8224    -7996    -7963 
   -8192    -8419    -8286    -7797    -7256    -6902    -6845    -7042 
   -7247    -7292    -7242    -7205    -7250    -7368    -7405    -7315 
   -7284    -7337    -7360    -7403    -7440    -7250    -6896    -6746 
   -6883    -7056    -7103    -7081    -7162    -7369    -7437    -7210 
   -6946    -6954    -7206    -7481    -7660    -7745    -7734    -7664 
   -7672    -7795    -7901    -7922    -7948    -8073    -8290    -8536 
   -8699    -8663    -8498    -8446    -8615    -8895    -9121    -9186 
   -9134    -9094    -9069    -8983    -8884    -8855    -8855    -8845 
   -8856    -8890    -8953    -9019    -8968    -8820    -8789    -8918 
   -8980    -8853    -8682    -8594    -8548    -8459    -8318    -8205 
   -8206    -8313    -8399    -8361    -8262    -8169    -8000    -7743 
   -7571    -7606    -7722    -7760    -7725    -7608    -7352    -7041 
   -6850    -6810    -6819    -6802    -6749    -6622    -6402    -6197 
   -6145    -6192    -6183    -6095    -6023    -6033    -6109    -6147 
   -6044    -5870    -5753    -5721    -5756    -5786    -5722    -5543 
   -5301    -5140    -5179    -5324    -5372    -5273    -5130    -5006 
   -4920    -4883    -4836    -4702    -4497    -4324    -4253    -4224 
   -4153    -4067    -3989    -3886    -3769    -3663    -3548    -3408 
   -3225    -2987    -2777    -2703    -2735    -2774    -2793    -2775 
   -2710    -2661    -2657    -2643    -2634    -2688    -2800    -2943 
   -3122    -3346    -3601    -3871    -4109    -4240    -4328    -4511 
   -4722    -4821    -4911    -5153    -5435    -5539    -5489    -5467 
   -5526    -5626    -5795    -5990    -6100    -6136    -6157    -6152 
   -6166    -6299    -6527    -6758    -6982    -7197    -7303    -7250 
   -7211    -7348    -7550    -7659    -7710    -7814    -8011    -8210 
   -8254    -8175    -8164    -8258    -8365    -8463    -8539    -8565 
   -8587    -8683    -8830    -8925    -8915    -8812    -8661    -8535 
   -8505    -8541    -8552    -8514    -8455    -8409    -8406    -8449 
   -8471    -8418    -8329    -8248    -8188    -8123    -7943    -7650 
   -7462    -7424    -7362    -7241    -7123    -6999    -6880    -6796 
   -6723    -6684    -6677    -6625    -6553    -6514    -6427    -6273 
   -6154    -6143    -6237    -6271    -6047    -5692    -5506    -5497 
   -5468    -5303    -5016    -4738    -4582    -4464    -4264    -4025 
   -3804    -3582    -3384    -3235    -3080    -2893    -2753    -2715 
   -2696    -2594    -2417    -2241    -2134    -2131    -2236    -2398 
   -2490    -2447    -2362    -2365    -2475    -2615    -2723    -2826 
   -2966    -3101    -3196    -3362    -3671    -4017    -4322    -4636 
   -4978    -5288    -5566    -5922    -6434    -7014    -7533    -7996 
   -8483    -8960    -9291    -9484    -9714   -10045   -10377   -10685 
  -11031   -11408   -11718   -11860   -11932   -12167   -12522   -12723 
  -12724   -12711   -12771   -12836   -12899   -13043   -13246   -13368 
  -13329   -13181   -13076   -13113   -13195   -13151   -12966   -12708 
  -12445   -12301   -12317   -12360   -12318   -12211   -12063   -11892 
