Origin Time       2011/03/11 14:46:00
Lat.              38.103
Long.             142.860
Depth. (km)       24
Mag.              9.0
Station Code      AIC006
Station Lat.      35.2158
Station Long.     137.5089
Station Height(m) 505
Record Time       2011/03/11 14:49:56
Sampling Freq(Hz) 100Hz
Duration Time(s)  60
Dir.              N-S
Scale Factor      3920(gal)/6182761
Max. Acc. (gal)   10.779
Last Correction   2011/03/11 14:49:41
Memo.             
[...]
  -24691   -23241   -21863   -20885   -20412   -20609   -21313   -22108 
  -22888   -23499   -23748   -23775   -23542   -23072   -22808   -22906 
  -23381   -24309   -25475   -26818   -28244   -29079   -28995   -28339 
  -27325   -26294   -25721   -25546   -25581   -25764   -25945   -26181 
  -26419   -26359   -26039   -25600   -25045   -24595   -24414   -24413 
  -24695   -25304   -25896   -26259   -26339   -26024   -25367   -24485 
  -23415   -22350   -21502   -20852   -20411   -20207   -20142   -20262 
  -20504   -20614   -20654   -20763   -20873   -21045   -21438   -22084 
  -22989   -24090   -25169   -26073   -26711   -26958   -26816   -26363 
  -25623   -24637   -23535   -22520   -21730   -21191   -20929   -20886 
  -20906   -20909   -20913   -21019   -21384   -22173   -23516   -25306 
  -27304   -29248   -30847   -31932   -32360   -32035   -31083   -29717 
  -28137   -26503   -24985   -23767   -22976   -22629   -22610   -22824 
  -23176   -23462   -23585   -23611   -23624   -23710   -24009   -24658 
  -25697   -26945   -28091   -29065   -29890   -30213   -29565   -27877 
  -25490   -22768   -19950   -17317   -15213   -14072   -14282   -15740 
  -17952   -20533   -23128   -25261   -26646   -27257   -27101   -26245 
  -24994   -23911   -23389   -23354   -23601   -23905   -23942   -23509 
  -22703   -21698   -20573   -19422   -18321   -17488   -17320   -18003 
  -19526   -21785   -24439   -27018   -29152   -30618   -31281   -31209 
  -30703   -30020   -29253   -28480   -27810   -27272   -26863   -26512 
  -25961   -25093   -24039   -22874   -21604   -20290   -19044   -18027 
  -17387   -17244   -17689   -18748   -20333   -22155   -23776   -24849 
  -25259   -25054   -24259   -23031   -21826   -20988   -20555   -20573 
  -21086   -21916   -22736   -23286   -23403   -23049   -22333   -21415 
  -20512   -19912   -19881   -20515   -21714   -23293   -24921   -26238 
  -27097   -27498   -27501   -27239   -26908   -26638   -26483   -26549 
  -26864   -27246   -27428   -27203   -26470   -25302   -23980   -22791 
  -21928   -21509   -21533   -21899   -22457   -23091   -23668   -24016 
  -24056   -23770   -23193   -22454   -21716   -21118   -20782   -20795 
  -21064   -21334   -21385   -21136   -20630   -19994   -19325   -18549 
  -17547   -16372   -15197   -14220   -13606   -13510   -14058   -15167 
  -16614   -18210   -19829   -21332   -22559   -23463   -24088   -24490 
  -24741   -24906   -24989   -24981   -24959   -24932   -24795   -24443 
  -23717   -22450   -20664   -18672   -16868   -15551   -15080   -15675 
  -17186   -19298   -21690   -24028   -25998   -27369   -28070   -28164 
  -27783   -27166   -26583   -26143   -25831   -25597   -25308   -24736 
  -23674   -22156   -20428   -18795   -17696   -17597   -18595   -20381 
  -22562   -24758   -26576   -27749   -28224   -28153   -27764   -27302 
  -26939   -26654   -26384   -26155   -25968   -25722   -25270   -24534 
  -23514   -22338   -21222   -20353   -19861   -19777   -20075   -20660 
  -21348   -21997   -22525   -22968   -23467   -24092   -24884   -25908 
  -27130   -28308   -29171   -29590   -29480   -28797   -27622   -26179 
  -24717   -23443   -22481   -21822   -21458   -21440   -21757   -22318 
  -23020   -23799   -24608   -25418   -26211   -27019   -27843   -28538 
  -28928   -28896   -28406   -27494   -26238   -24865   -23646   -22669 
  -21981   -21704   -21781   -21971   -22081   -21996   -21706   -21338 
  -21150   -21366   -21973   -22835   -23794   -24658   -25397   -26112 
  -26860   -27548   -27875   -27591   -26752   -25581   -24270   -23058 
  -22217   -21721   -21300   -20883   -20557   -20356   -20312   -20474 
  -20803   -21156   -21399   -21477   -21376   -21121   -20813   -20567 
  -20500   -20751   -21361   -22247   -23263   -24263   -25122   -25767 
  -26172   -26281   -26078   -25671   -25221   -24843   -24570   -24330 
  -23986   -23466   -22780   -22014   -21384   -21125   -21367   -22065 
  -23017   -24039   -24998   -25821   -26480   -26881   -26962   -26833 
  -26697   -26699   -26875   -27151   -27394   -27469   -27278   -26810 
  -26062   -25074   -23997   -22967   -22116   -21574   -21414   -21690 
  -22319   -23119   -23913   -24472   -24630   -24438   -24088   -23721 
  -23428   -23273   -23213   -23134   -22950   -22703   -22495   -22317 
  -22061   -21631   -20992   -20179   -19342   -18706   -18447   -18616 
  -19026   -19497   -19995   -20415   -20659   -20721   -20700   -20814 
  -21224   -21939   -22877   -23915   -24836   -25360   -25370   -24964 
  -24309   -23483   -22605   -21969   -21785   -22032   -22589   -23358 
  -24228   -24956   -25295   -25137   -24510   -23557   -22567   -21929 
  -21879   -22357   -23059   -23628   -23835   -23539   -22732   -21689 
  -20782   -20245   -20172   -20616   -21612   -23017   -24434   -25471 
  -25845   -25363   -24128   -22523   -20908   -19517   -18495   -17875 
  -17547   -17367   -17208   -17031   -16893   -16820   -16925   -17398 
  -18301   -19620   -21330   -23268   -25118   -26580   -27402   -27456 
  -26889   -25941   -24768   -23492   -22289   -21296   -20512   -19916 
  -19429   -18884   -18280   -17791   -17542   -17583   -18016   -18908 
  -20159   -21646   -23270   -24953   -26610   -28087   -29246   -30015 
  -30343   -30084   -29102   -27583   -25861   -24103   -22415   -20989 
  -19939   -19239   -18897   -18967   -19455   -20251   -21237   -22431 
  -23726   -24921   -26039   -27134   -28114   -28872   -29375   -29637 
  -29688   -29523   -29071   -28360   -27613   -27032   -26650   -26390 
  -26064   -25481   -24672   -23790   -22983   -22439   -22229   -22340 
  -22802   -23553   -24461   -25480   -26544   -27407   -27815   -27662 
  -26943   -25778   -24413   -23192   -22336   -21811   -21601   -21657 
  -21796   -21951   -22104   -22181   -22152   -22074   -22087   -22323 
  -22766   -23294   -23756   -24029   -24116   -23959   -23400   -22530 
  -21680   -21205   -21309   -21962   -23000   -24141   -25128   -25814 
  -26111   -26070   -25887   -25767   -25861   -26278   -27013   -27970 
  -29049   -30064   -30845   -31284   -31272   -30847   -30141   -29251 
  -28285   -27296   -26288   -25339   -24558   -24010   -23743   -23671 
  -23606   -23485   -23285   -22966   -22572   -22199   -21880   -21583 
  -21297   -21015   -20725   -20486   -20318   -20097   -19706   -19178 
  -18545   -17876   -17327   -16937   -16752   -16784   -16911   -17180 
  -17794   -18907   -20531   -22444   -24323   -25976   -27361   -28469 
  -29354   -30006   -30192   -29819   -29005   -27731   -26007   -24060 
  -22114   -20293   -18689   -17324   -16195   -15395   -15031   -15103 
  -15496   -16084   -16793   -17556   -18333   -19094   -19728   -20162 
  -20481   -20772   -20990   -21095   -21152   -21262   -21491   -21959 
  -22788   -23885   -24982   -25846   -26393   -26680   -26784   -26772 
  -26622   -26232   -25578   -24666   -23564   -22459   -21507   -20775 
  -20306   -20155   -20256   -20417   -20523   -20558   -20523   -20392 
  -20147   -19833   -19556   -19406   -19344   -19302   -19291   -19261 
  -19167   -19168   -19359   -19564   -19682   -19764   -19828   -19904 
  -19881   -19600   -19208   -18998   -19130   -19650   -20534   -21653 
  -22792   -23729   -24358   -24719   -24896   -25020   -25253   -25754 
  -26626   -27777   -29023   -30206   -31159   -31747   -31842   -31380 
  -30428   -29226   -28094   -27237   -26785   -26741   -26870   -26867 
  -26526   -25696   -24296   -22541   -20854   -19591   -19042   -19328 
  -20308   -21670   -23015   -23962   -24257   -23811   -22665   -21031 
  -19274   -17798   -16994   -17043   -17836   -19117   -20568   -21987 
  -23268   -24233   -24760   -24980   -25114   -25234   -25346   -25481 
  -25670   -25942   -26258   -26451   -26344   -25846   -24924   -23660 
  -22254   -20875   -19630   -18542   -17650   -17032   -16665   -16492 
  -16456   -16495   -16545   -16547   -16586   -16720   -16809   -16788 
  -16791   -16965   -17355   -17972   -18804   -19805   -20876   -21795 
  -22304   -22324   -21995   -21534   -21161   -21156   -21720   -22804 
  -24152   -25553   -26897   -28002   -28673   -28830   -28529   -27914 
  -27130   -26349   -25680   -25073   -24401   -23584   -22691   -21840 
  -21079   -20378   -19652   -18807   -17868   -17023   -16455   -16295 
  -16591   -17264   -18247   -19443   -20666   -21770   -22731   -23618 
  -24493   -25352   -26117   -26627   -26674   -26081   -24768   -22763 
  -20260   -17572   -15002   -12819   -11282   -10568   -10682   -11570 
  -13196   -15364   -17742   -20044   -22103   -23855   -25298   -26517 
  -27626   -28692   -29783   -30896   -31878   -32602   -33046   -33091 
  -32555   -31391   -29731   -27793   -25734   -23773   -22182   -21006 
  -20164   -19634   -19433   -19539   -19878   -20358   -20764   -20954 
  -21088   -21405   -22024   -22979   -24156   -25246   -25974   -26243 
  -26093   -25727   -25375   -25170   -25109   -25096   -25081   -24975 
  -24654   -24152   -23628   -23237   -23078   -23204   -23604   -24250 
  -25121   -26076   -26953   -27721   -28352   -28742   -28837   -28666 
  -28225   -27535   -26660   -25616   -24392   -22971   -21378   -19682 
  -17893   -15992   -14072   -12343   -10988   -10171    -9957   -10315 
  -11316   -12991   -15184   -17708   -20396   -23055   -25443   -27255 
  -28174   -28107   -27244   -25816   -24061   -22236   -20530   -19072 
  -17956   -17205   -16822   -16879   -17362   -18165   -19259   -20571 
  -22004   -23473   -24805   -25933   -26984   -27935   -28622   -29072 
  -29402   -29619   -29680   -29538   -29216   -28747   -28131   -27429 
  -26704   -25965   -25192   -24328   -23393   -22572   -22040   -21776 
  -21668   -21647   -21704   -21836   -21969   -22039   -22037   -21900 
  -21516   -20878   -20080   -19220   -18392   -17689   -17261   -17202 
  -17381   -17698   -18115   -18479   -18697   -18766   -18744   -18710 
  -18636   -18442   -18125   -17831   -17747   -17995   -18662   -19667 
  -20777   -21909   -23186   -24642   -26129   -27418   -28266   -28532 
  -28184   -27288   -26003   -24497   -23064   -22030   -21478   -21368 
  -21747   -22660   -23909   -25173   -26252   -27015   -27381   -27389 
  -27200   -26995   -26882   -26904   -26975   -26981   -26942   -26823 
  -26394   -25514   -24245   -22674   -20934   -19248   -17874   -17072 
  -16914   -17270   -17984   -18873   -19711   -20341   -20762   -21127 
  -21651   -22423   -23440   -24719   -26176   -27642   -28938   -29896 
  -30438   -30575   -30332   -29683   -28674   -27489   -26319   -25279 
  -24434   -23840   -23515   -23436   -23618   -24073   -24815   -25791 
  -26878   -28020   -29101   -29856   -30122   -29954   -29447   -28677 
  -27793   -26933   -26108   -25179   -23932   -22308   -20380   -18236 
  -16025   -13931   -12149   -10869   -10256   -10324   -10912   -11834 
  -12879   -13782   -14383   -14668   -14679   -14563   -14540   -14834 
  -15619   -16846   -18372   -20080   -21664   -22737   -23103   -22767 
  -21830   -20402   -18638   -16775   -15131   -13980   -13456   -13582 
  -14216   -15072   -15881   -16528   -17114   -17803   -18733   -19998 
  -21622   -23580   -25833   -28262   -30580   -32468   -33700   -34084 
  -33572   -32385   -30829   -29092   -27392   -25987   -24936   -24200 
  -23783   -23631   -23722   -24148   -24954   -26079   -27487   -29058 
  -30484   -31465   -31825   -31511   -30534   -28948   -26898   -24567 
  -22117   -19643   -17248   -15162   -13617   -12692   -12390   -12768 
  -13818   -15484   -17735   -20400   -23265   -26161   -28835   -31021 
  -32549   -33393   -33644   -33497   -33150   -32592   -31728   -30575 
  -29154   -27417   -25366   -23078   -20607   -18119   -15910   -14177 
  -13055   -12730   -13261   -14497   -16235   -18244   -20171   -21664 
  -22630   -23215   -23614   -24026   -24547   -25153   -25777   -26168 
  -26117   -25698   -25006   -24153   -23255   -22335   -21508   -20941 
  -20713   -20876   -21501   -22524   -23694   -24764   -25531   -25733 
  -25128   -23755   -21996   -20367   -19333   -19093   -19597   -20709 
  -22070   -23261   -24069   -24360   -24067   -23299   -22265   -21135 
  -20025   -19070   -18494   -18462   -18925   -19681   -20467   -21223 
  -22077   -23002   -24009   -25293   -26900   -28661   -30436   -32226 
  -34035   -35710   -36945   -37537   -37437   -36633   -35235   -33381 
  -31162   -28730   -26277   -24082   -22412   -21439   -21201   -21510 
  -22221   -23296   -24489   -25535   -26498   -27518   -28514   -29430 
  -30360   -31396   -32535   -33615   -34428   -34777   -34511   -33629 
  -32265   -30588   -28631   -26355   -23864   -21352   -19007   -17041 
  -15634   -14848   -14549   -14494   -14697   -15366   -16522   -18134 
  -20164   -22372   -24536   -26613   -28538   -30187   -31427   -32055 
  -32070   -31743   -31179   -30327   -29286   -28356   -27764   -27439 
  -27197   -26879   -26405   -25753   -24880   -23883   -22885   -21919 
  -21014   -20199   -19610   -19412   -19645   -20289   -21244   -22306 
  -23161   -23550   -23472   -23078   -22551   -22061   -21764   -21782 
  -22181   -22948   -23978   -25112   -26137   -26896   -27431   -27881 
  -28414   -29145   -30057   -31032   -31841   -32205   -31926   -30938 
  -29296   -27207   -25007   -22985   -21326   -20081   -19197   -18488 
  -17669   -16583   -15233   -13750   -12421   -11639   -11712   -12681 
  -14414   -16624   -18838   -20644   -21789   -22206   -21989   -21340 
  -20604   -20097   -19945   -20083   -20278   -20307   -20071   -19455 
  -18329   -16654   -14471   -11973    -9554    -7641    -6480    -6038 
   -6206    -6804    -7441    -8043    -8804    -9289    -9260    -9469 
   -9965   -10073   -10111   -10595   -11289   -11765   -11949   -12149 
  -12203   -11909   -11898   -12244   -12520   -13087   -14092   -15142 
  -16017   -16679   -17533   -18594   -19483   -20791   -22659   -24193 
  -25313   -26275   -26945   -27300   -27401   -27638   -28218   -28802 
  -29528   -30349   -30607   -30592   -30767   -30544   -29742   -28878 
  -28187   -27683   -27334   -27177   -27292   -27740   -28492   -29068 
  -29125   -28935   -28724   -28429   -28213   -28554   -29446   -30495 
  -31673   -32696   -33049   -32789   -32071   -30779   -28962   -27083 
  -25536   -24112   -22762   -21978   -21835   -22047   -22468   -22926 
  -23323   -23527   -23465   -23314   -23068   -22926   -23247   -23780 
  -24406   -25301   -26076   -26276   -25909   -25062   -23792   -22111 
  -20204   -18703   -17877   -17509   -17734   -18543   -19661   -20886 
  -21732   -22036   -22114   -21972   -21621   -21183   -20672   -20347 
  -20251   -20053   -19672   -19054   -18223   -17490   -16806   -16027 
  -15383   -15009   -14780   -14752   -15162   -15882   -16842   -18345 
  -20311   -22325   -24093   -25541   -26644   -27343   -27985   -28790 
  -29205   -29062   -28976   -29045   -28648   -27522   -26081   -24698 
  -23297   -21794   -20527   -19718   -19213   -19174   -19742   -20476 
  -20984   -21275   -21468   -21565   -21536   -21502   -21536   -21497 
  -21403   -21447   -21436   -21068   -20424   -19634   -18790   -17979 
  -17219   -16714   -16568   -16584   -16886   -17482   -17869   -18010 
  -18266   -18782   -19619   -20683   -21749   -22650   -23467   -24386 
  -25236   -25838   -26335   -26742   -26896   -26914   -26989   -27061 
  -27221   -27463   -27473   -27301   -27227   -27235   -26927   -26246 
  -25753   -25232   -24039   -22583   -21302   -19829   -18099   -16638 
  -15702   -15087   -14794   -15084   -15776   -16312   -16595   -16826 
  -16732   -16069   -15221   -14667   -14584   -14831   -15317   -16139 
  -17062   -17828   -18334   -18139   -17096   -15642   -14252   -13369 
  -13024   -13030   -13533   -14382   -15323   -16272   -16768   -16733 
  -16383   -15463   -14206   -13231   -12528   -12000   -12005   -12693 
  -13515   -13899   -13906   -13684   -13204   -12798   -12793   -13058 
  -13688   -15017   -16860   -18886   -20907   -22315   -22814   -22814 
  -22324   -21483   -21007   -20969   -21120   -21692   -22764   -24017 
  -24939   -25270   -25313   -25062   -24388   -23997   -24274   -24812 
  -25703   -27228   -28872   -29848   -30075   -29886   -29193   -27955 
  -26692   -25642   -24473   -23190   -22212   -21668   -21380   -21058 
  -20625   -20275   -19871   -19280   -19004   -19358   -20015   -20820 
  -21992   -23539   -24995   -26006   -26870   -27701   -28056   -28027 
  -27895   -27224   -26027   -24881   -23497   -21622   -19836   -18240 
  -16701   -15431   -14274   -13163   -12525   -12443   -12622   -13236 
  -14649   -16442   -18261   -20266   -22082   -23407   -24391   -25000 
  -25291   -25200   -24619   -23880   -23094   -22238   -21649   -21355 
  -21053   -20738   -20579   -20543   -20477   -20539   -20980   -21681 
  -22581   -23817   -25228   -26372   -27056   -27491   -27574   -27105 
  -26434   -25599   -24371   -23052   -21815   -20554   -19427   -18656 
  -18152   -17625   -17189   -17184   -17417   -17779   -18563   -19626 
  -20738   -22055   -23447   -24625   -25729   -26846   -27691   -28272 
  -28831   -29215   -29314   -29394   -29485   -29174   -28207   -26921 
  -25628   -24320   -23275   -22741   -22566   -22669   -23194   -24162 
  -25298   -26497   -27772   -28970   -30103   -30996   -31480   -31877 
  -32048   -31617   -30874   -29960   -28630   -27043   -25488   -24080 
  -23013   -22340   -22009   -22206   -23012   -24116   -25363   -26828 
  -28233   -29178   -29536   -29371   -28701   -27484   -26130   -25182 
  -24652   -24389   -24382   -24520   -24507   -24252   -24019   -23914 
  -23694   -23315   -23160   -23335   -23612   -24013   -24558   -25123 
  -25515   -25461   -24852   -23670   -22122   -20768   -19876   -19290 
  -18966   -19091   -19739   -20612   -21394   -22038   -22584   -23069 
  -23350   -23196   -22677   -21943   -21050   -20086   -19169   -18378 
  -17531   -16600   -15953   -15525   -15071   -14752   -14750   -15068 
  -15508   -16045   -16833   -17757   -18900   -20490   -22376   -24316 
  -25999   -27141   -27898   -28560   -29075   -29272   -29249   -29100 
  -28607   -27726   -26767   -25917   -25187   -24668   -24483   -24593 
  -24958   -25608   -26332   -27047   -27867   -28475   -28720   -28922 
  -29057   -29005   -28974   -28963   -28731   -28269   -27589   -26537 
  -25083   -23376   -21700   -20261   -19060   -18129   -17586   -17530 
  -17750   -17848   -17875   -17883   -17428   -16391   -15238   -14224 
  -13338   -12884   -13221   -14134   -15129   -16082   -16941   -17247 
  -16823   -15971   -14931   -13932   -13197   -12909   -13271   -14282 
  -15767   -17592   -19617   -21500   -23075   -24515   -25732   -26574 
  -27212   -27800   -28322   -28633   -28686   -28547   -28085   -27281 
  -26229   -24940   -23608   -22270   -20896   -19867   -19299   -18893 
  -18744   -19171   -19880   -20469   -21151   -21935   -22578   -23137 
  -23608   -23945   -24088   -24111   -24172   -23997   -23709   -23711 
  -23620   -23230   -22904   -22626   -22152   -21534   -20856   -20158 
  -19684   -19499   -19447   -19587   -19953   -20275   -20350   -20275 
  -19991   -19371   -18566   -17795   -17270   -17129   -17432   -18143 
  -19317   -21058   -22741   -23739   -24205   -24132   -23392   -22260 
  -20811   -19015   -17454   -16752   -16601   -16170   -15317   -14738 
  -14849   -15074   -14700   -13975   -13294   -12460   -11835   -11937 
