Origin Time       2011/03/11 14:46:00
Lat.              38.103
Long.             142.860
Depth. (km)       24
Mag.              9.0
Station Code      AIC008
Station Lat.      35.0977
Station Long.     137.5697
Station Height(m) 465
Record Time       2011/03/11 14:49:01
Sampling Freq(Hz) 100Hz
Duration Time(s)  155
Dir.              N-S
Scale Factor      3920(gal)/6182761
Max. Acc. (gal)   4.924
Last Correction   2011/03/11 14:48:46
Memo.             
[...]
  -21032   -20969   -21026   -21189   -21390   -21530   -21632   -21753 
  -21832   -21829   -21741   -21496   -21057   -20513   -20034   -19753 
  -19598   -19370   -19039   -18754   -18643   -18709   -18816   -18847 
  -18847   -18882   -18935   -18972   -19009   -19095   -19216   -19306 
  -19373   -19410   -19367   -19260   -19152   -19143   -19340   -19701 
  -20074   -20352   -20527   -20712   -21032   -21461   -21837   -22033 
  -22088   -22133   -22222   -22375   -22567   -22765   -23056   -23483 
  -23867   -24074   -24140   -24056   -23825   -23621   -23560   -23526 
  -23421   -23273   -23150   -23135   -23262   -23474   -23734   -24033 
  -24301   -24479   -24559   -24489   -24256   -23991   -23790   -23627 
  -23438   -23155   -22798   -22522   -22430   -22473   -22529   -22514 
  -22399   -22159   -21817   -21527   -21429   -21458   -21461   -21385 
  -21271   -21174   -21114   -21098   -21144   -21237   -21373   -21608 
  -21919   -22182   -22332   -22363   -22301   -22224   -22182   -22117 
  -21910   -21514   -21033   -20669   -20563   -20649   -20744   -20772 
  -20829   -21019   -21266   -21435   -21520   -21532   -21492   -21521 
  -21620   -21692   -21734   -21706   -21575   -21461   -21396   -21252 
  -21009   -20777   -20637   -20654   -20887   -21247   -21532   -21691 
  -21806   -21936   -22158   -22522   -22930   -23272   -23558   -23847 
  -24130   -24343   -24506   -24677   -24880   -25117   -25321   -25437 
  -25477   -25387   -25167   -25020   -25090   -25301   -25539   -25727 
  -25762   -25655   -25526   -25359   -25071   -24684   -24238   -23857 
  -23719   -23820   -24057   -24361   -24637   -24843   -24992   -25042 
  -24959   -24833   -24801   -24907   -25073   -25155   -25071   -24856 
  -24598   -24343   -24050   -23710   -23411   -23152   -22827   -22460 
  -22170   -21968   -21799   -21671   -21582   -21500   -21468   -21532 
  -21658   -21814   -21967   -22057   -22106   -22193   -22305   -22366 
  -22373   -22360   -22344   -22315   -22208   -22001   -21769   -21517 
  -21175   -20790   -20459   -20159   -19917   -19819   -19801   -19817 
  -19942   -20131   -20311   -20554   -20823   -20999   -21113   -21212 
  -21276   -21372   -21605   -21941   -22286   -22650   -23053   -23374 
  -23480   -23429   -23397   -23455   -23547   -23587   -23574   -23647 
  -23883   -24205   -24550   -24868   -25091   -25234   -25373   -25529 
  -25616   -25548   -25357   -25130   -24877   -24516   -24012   -23444 
  -22909   -22470   -22109   -21747   -21442   -21348   -21497   -21841 
  -22335   -22912   -23491   -24005   -24395   -24636   -24814   -25049 
  -25319   -25525   -25647   -25714   -25724   -25649   -25467   -25192 
  -24872   -24555   -24283   -24059   -23852   -23652   -23442   -23228 
  -23062   -22943   -22826   -22693   -22540   -22406   -22352   -22374 
  -22441   -22542   -22675   -22867   -23127   -23386   -23573   -23671 
  -23712   -23780   -23924   -24049   -24051   -23947   -23781   -23597 
  -23469   -23405   -23343   -23233   -23036   -22697   -22237   -21820 
  -21562   -21366   -21093   -20730   -20374   -20158   -20113   -20103 
  -20017   -19910   -19871   -19934   -20085   -20262   -20456   -20716 
  -21014   -21261   -21419   -21502   -21535   -21494   -21345   -21166 
  -21119   -21250   -21444   -21563   -21587   -21595   -21640   -21732 
  -21864   -22020   -22243   -22587   -22958   -23254   -23483   -23654 
  -23784   -23907   -24014   -24078   -24105   -24131   -24126   -24050 
  -23976   -24015   -24179   -24397   -24621   -24823   -24947   -24954 
  -24892   -24829   -24756   -24644   -24526   -24435   -24421   -24542 
  -24665   -24606   -24457   -24392   -24432   -24569   -24718   -24726 
  -24617   -24582   -24718   -24989   -25286   -25429   -25271   -24862 
  -24378   -23905   -23447   -23059   -22808   -22702   -22702   -22713 
  -22659   -22578   -22544   -22570   -22625   -22649   -22572   -22381 
  -22156   -21996   -21953   -22014   -22101   -22151   -22165   -22106 
  -21948   -21788   -21728   -21764   -21917   -22215   -22487   -22516 
  -22353   -22173   -22043   -22009   -22069   -22117   -22121   -22166 
  -22290   -22430   -22456   -22326   -22152   -22050   -22019   -21980 
  -21871   -21669   -21415   -21240   -21245   -21406   -21625   -21825 
  -22027   -22259   -22452   -22541   -22516   -22374   -22161   -22004 
  -21985   -22059   -22125   -22153   -22187   -22265   -22341   -22328 
  -22287   -22352   -22498   -22625   -22691   -22685   -22652   -22660 
  -22704   -22735   -22687   -22510   -22265   -22083   -21990   -21878 
  -21701   -21536   -21434   -21392   -21392   -21390   -21357   -21300 
  -21207   -21091   -21059   -21205   -21488   -21807   -22102   -22359 
  -22614   -22915   -23258   -23559   -23744   -23827   -23857   -23891 
  -24004   -24166   -24253   -24232   -24171   -24103   -24007   -23887 
  -23788   -23710   -23612   -23497   -23392   -23302   -23217   -23120 
  -23069   -23111   -23135   -23070   -22997   -22968   -22997   -23125 
  -23358   -23629   -23865   -24027   -24140   -24261   -24420   -24600 
  -24743   -24864   -25053   -25261   -25388   -25462   -25537   -25652 
  -25822   -26034   -26275   -26477   -26587   -26623   -26541   -26307 
  -25980   -25555   -24993   -24409   -23981   -23745   -23636   -23557 
  -23395   -23143   -22903   -22712   -22567   -22512   -22536   -22602 
  -22715   -22851   -23000   -23134   -23181   -23171   -23103   -22903 
  -22629   -22380   -22170   -22012   -21899   -21778   -21608   -21379 
  -21131   -20909   -20731   -20628   -20615   -20690   -20849   -21051 
  -21226   -21362   -21501   -21689   -21987   -22390   -22780   -23075 
  -23284   -23381   -23333   -23188   -22980   -22681   -22315   -21967 
  -21695   -21504   -21314   -21036   -20720   -20433   -20159   -19928 
  -19777   -19694   -19727   -19840   -19859   -19813   -19907   -20178 
  -20521   -20860   -21134   -21334   -21562   -21914   -22316   -22584 
  -22638   -22549   -22372   -22175   -22107   -22225   -22486   -22854 
  -23224   -23473   -23627   -23710   -23673   -23558   -23448   -23362 
  -23344   -23417   -23486   -23487   -23409   -23231   -22984   -22728 
  -22516   -22380   -22253   -22118   -22101   -22211   -22344   -22481 
  -22589   -22589   -22514   -22479   -22490   -22478   -22427   -22371 
  -22395   -22583   -22861   -23066   -23144   -23165   -23238   -23366 
  -23434   -23387   -23236   -22983   -22738   -22611   -22478   -22253 
  -22064   -21960   -21909   -21975   -22168   -22349   -22362   -22212 
  -22047   -21927   -21822   -21727   -21664   -21684   -21805   -21989 
  -22156   -22223   -22190   -22073   -21833   -21537   -21322   -21185 
  -21025   -20823   -20680   -20669   -20725   -20763   -20784   -20810 
  -20859   -20933   -21006   -21062   -21148   -21322   -21560   -21828 
  -22175   -22546   -22798   -22915   -22953   -22976   -23025   -23045 
  -23012   -22979   -22983   -23009   -23006   -22971   -22896   -22697 
  -22358   -21972   -21610   -21273   -20933   -20627   -20399   -20221 
  -20107   -20109   -20177   -20232   -20246   -20187   -20068   -19940 
  -19837   -19817   -19902   -20062   -20270   -20470   -20656   -20909 
  -21260   -21629   -21886   -21987   -22010   -22009   -21959   -21852 
  -21767   -21762   -21789   -21844   -21997   -22284   -22677   -23096 
  -23428   -23618   -23692   -23705   -23699   -23738   -23837   -23882 
  -23860   -23913   -24041   -24141   -24180   -24095   -23831   -23467 
  -23090   -22728   -22391   -22049   -21721   -21486   -21349   -21287 
  -21273   -21229   -21105   -20919   -20707   -20526   -20452   -20533 
  -20701   -20865   -21048   -21290   -21589   -21887   -22070   -22113 
  -22099   -22107   -22210   -22434   -22718   -23020   -23320   -23514 
  -23545   -23565   -23697   -23866   -24011   -24126   -24141   -24055 
  -23954   -23863   -23776   -23717   -23682   -23673   -23722   -23825 
  -23937   -24067   -24298   -24606   -24844   -24945   -24921   -24755 
  -24475   -24155   -23846   -23598   -23458   -23377   -23233   -23049 
  -22985   -23045   -23133   -23234   -23296   -23236   -22976   -22556 
  -22229   -22134   -22189   -22357   -22603   -22828   -22964   -23068 
  -23263   -23551   -23856   -24107   -24299   -24493   -24658   -24715 
  -24690   -24679   -24733   -24804   -24909   -25164   -25552   -25908 
  -26123   -26268   -26500   -26804   -27039   -27188   -27301   -27351 
  -27327   -27289   -27223   -27044   -26757   -26436   -26100   -25758 
  -25397   -24981   -24557   -24233   -23991   -23730   -23448   -23181 
  -22876   -22522   -22196   -21872   -21496   -21184   -21046   -21026 
  -21023   -20985   -20926   -20878   -20802   -20601   -20245   -19837 
  -19485   -19177   -18925   -18749   -18550   -18298   -18058   -17799 
  -17471   -17087   -16722   -16489   -16393   -16339   -16253   -16135 
  -16084   -16183   -16399   -16670   -16941   -17175   -17439   -17815 
  -18235   -18566   -18799   -18998   -19211   -19519   -19953   -20410 
  -20761   -20953   -21023   -21033   -20997   -20917   -20816   -20705 
  -20597   -20508   -20414   -20312   -20258   -20254   -20223   -20160 
  -20144   -20197   -20283   -20397   -20567   -20800   -21126   -21578 
  -22084   -22497   -22758   -22888   -22885   -22789   -22718   -22662 
  -22484   -22180   -21846   -21540   -21269   -20988   -20663   -20321 
  -20008   -19748   -19598   -19650   -19830   -20025   -20318   -20730 
  -21118   -21381   -21451   -21309   -21071   -20873   -20705   -20507 
  -20332   -20177   -19959   -19774   -19700   -19605   -19403   -19139 
  -18909   -18776   -18692   -18612   -18597   -18717   -18959   -19255 
  -19567   -19860   -20124   -20414   -20735   -21044   -21318   -21538 
  -21761   -22066   -22424   -22752   -23002   -23211   -23443   -23678 
  -23838   -23861   -23738   -23523   -23288   -23090   -22966   -22933 
  -22954   -22950   -22872   -22744   -22611   -22497   -22394   -22273 
  -22178   -22201   -22286   -22310   -22279   -22222   -22116   -21935 
  -21650   -21295   -20997   -20827   -20753   -20791   -20981   -21226 
  -21423   -21521   -21448   -21262   -21097   -20952   -20861   -20848 
  -20759   -20537   -20268   -20006   -19806   -19636   -19401   -19157 
  -18959   -18759   -18534   -18307   -18127   -17988   -17870   -17851 
  -17952   -18113   -18276   -18373   -18383   -18320   -18232   -18182 
  -18173   -18204   -18216   -18191   -18227   -18341   -18536   -18779 
  -18980   -19162   -19295   -19324   -19304   -19238   -19164   -19161 
  -19216   -19347   -19583   -19886   -20196   -20474   -20718   -20939 
  -21126   -21268   -21386   -21481   -21531   -21575   -21661   -21778 
  -21915   -22052   -22110   -22078   -22082   -22219   -22452   -22796 
  -23291   -23836   -24300   -24676   -24998   -25267   -25471   -25606 
  -25672   -25669   -25590   -25420   -25162   -24869   -24592   -24355 
  -24184   -24081   -24008   -23950   -23873   -23751   -23635   -23578 
  -23600   -23621   -23517   -23334   -23130   -22859   -22586   -22373 
  -22138   -21803   -21340   -20831   -20446   -20271   -20257   -20323 
  -20468   -20673   -20857   -21030   -21202   -21303   -21345   -21407 
  -21517   -21653   -21790   -21928   -22065   -22236   -22519   -22900 
  -23259   -23492   -23573   -23559   -23535   -23550   -23634   -23847 
  -24184   -24546   -24847   -25035   -25127   -25225   -25344   -25480 
  -25688   -25892   -25949   -25847   -25674   -25529   -25422   -25277 
  -25099   -24946   -24850   -24820   -24806   -24772   -24750   -24758 
  -24782   -24780   -24724   -24627   -24492   -24334   -24188   -24045 
  -23918   -23840   -23761   -23606   -23378   -23138   -22892   -22574 
  -22185   -21768   -21236   -20531   -19796   -19186   -18727   -18402 
  -18174   -18010   -17941   -18014   -18207   -18450   -18734   -19082 
  -19450   -19789   -20130   -20483   -20800   -21132   -21503   -21782 
  -21901   -21857   -21661   -21467   -21409   -21433   -21447   -21448 
  -21484   -21523   -21501   -21375   -21082   -20686   -20318   -19988 
  -19734   -19631   -19669   -19842   -20097   -20336   -20586   -20914 
  -21318   -21792   -22331   -22882   -23383   -23866   -24383   -24890 
  -25335   -25705   -26002   -26198   -26241   -26182   -26136   -26106 
  -26071   -26079   -26159   -26198   -26056   -25764   -25437   -25105 
  -24764   -24461   -24287   -24198   -24049   -23846   -23614   -23382 
  -23296   -23324   -23372   -23505   -23608   -23520   -23374   -23273 
  -23172   -23133   -23219   -23371   -23537   -23742   -24014   -24318 
  -24678   -25145   -25548   -25705   -25670   -25452   -24982   -24422 
  -24022   -23833   -23801   -23915   -24116   -24287   -24419   -24523 
  -24534   -24519   -24576   -24594   -24450   -24202   -23964   -23794 
  -23712   -23709   -23747   -23836   -23977   -24059   -24046   -24016 
  -23964   -23874   -23825   -23779   -23606   -23302   -22877   -22329 
  -21835   -21550   -21438   -21438   -21494   -21517   -21497   -21528 
  -21643   -21779   -21902   -21991   -22065   -22237   -22472   -22609 
  -22650   -22640   -22575   -22559   -22621   -22631   -22564   -22462 
  -22371   -22441   -22640   -22735   -22695   -22539   -22196   -21750 
  -21277   -20738   -20178   -19579   -18850   -18162   -17687   -17295 
  -16904   -16565   -16240   -15956   -15745   -15522   -15339   -15260 
  -15220   -15256   -15378   -15507   -15649   -15749   -15769   -15794 
  -15800   -15749   -15695   -15557   -15289   -15007   -14755   -14554 
  -14514   -14658   -14896   -15220   -15670   -16186   -16679   -17094 
  -17397   -17644   -17931   -18245   -18586   -19008   -19423   -19764 
  -20088   -20407   -20764   -21155   -21464   -21706   -21909   -22002 
  -22026   -22032   -22070   -22210   -22353   -22476   -22666   -22866 
  -23041   -23119   -23045   -22976   -22914   -22812   -22805   -22846 
  -22899   -23083   -23394   -23836   -24394   -25018   -25750   -26516 
  -27148   -27475   -27465   -27336   -27141   -26797   -26368   -25892 
  -25448   -25064   -24657   -24243   -23902   -23738   -23740   -23814 
  -24027   -24428   -24774   -24803   -24739   -24759   -25015   -25737 
  -25740   -25071   -25633   -26077   -25626   -25945   -25679   -24849 
  -24765   -23780   -22798   -22838   -22206   -21790   -21891   -21703 
  -21991   -21942   -21723   -21857   -21607   -22799   -23913   -22877 
  -23931   -26113   -25486   -25114   -26447   -26928   -26481   -26783 
  -27607   -27259   -26298   -25968   -25557   -24960   -24655   -24232 
  -23422   -22408   -21760   -21576   -20934   -20116   -20121   -20255 
  -20098   -20332   -20602   -20637   -20864   -20755   -20402   -20682 
  -20797   -20522   -20674   -20573   -20070   -19772   -19439   -19243 
  -19450   -19566   -19423   -19282   -19376   -19822   -20087   -20239 
  -20713   -20900   -20915   -20999   -20986   -21135   -20989   -20814 
  -21119   -21086   -20880   -20964   -20703   -20359   -20466   -20237 
  -19815   -20095   -20367   -20415   -20790   -20953   -20857   -21182 
  -21774   -22017   -22116   -22427   -22455   -22423   -22814   -22923 
  -22841   -23051   -22801   -22385   -22777   -22928   -22224   -22235 
  -22628   -21737   -21237   -22104   -22068   -21535   -22233   -22990 
  -22842   -22846   -23616   -23893   -23361   -23631   -24005   -23298 
  -23342   -24060   -23650   -23566   -24492   -24547   -24259   -24791 
  -25066   -24765   -24770   -25078   -24823   -24060   -23896   -23972 
  -23636   -23621   -23758   -23431   -23139   -23385   -23567   -23003 
  -22733   -23214   -23189   -22829   -22922   -23033   -22902   -22937 
  -23217   -23081   -22622   -22664   -22641   -21939   -21550   -21614 
  -21070   -20434   -20720   -20971   -20340   -19943   -20177   -19906 
  -19510   -19619   -19371   -18980   -18758   -18470   -18530   -18366 
  -18044   -18385   -18227   -17664   -18147   -18380   -17737   -17996 
  -18474   -18088   -18305   -18752   -18450   -18688   -19282   -19295 
  -19217   -19373   -19937   -20371   -20255   -20553   -21003   -21029 
  -21331   -21679   -21722   -21874   -22139   -22415   -22656   -22958 
  -23226   -23233   -23321   -23394   -23545   -24182   -24367   -24065 
  -24228   -24072   -23630   -24236   -24656   -23833   -23859   -24633 
  -24096   -23472   -23769   -23759   -23433   -23471   -23958   -24166 
  -23914   -24357   -24798   -24485   -24846   -25260   -24552   -23988 
  -23785   -23135   -22344   -21783   -21454   -21143   -20805   -20734 
  -20623   -20217   -20042   -20195   -20192   -19858   -19394   -19095 
  -18845   -18639   -18920   -19277   -19230   -19400   -20031   -20289 
  -19983   -20261   -20877   -20628   -20255   -20364   -20196   -19559 
  -19280   -19698   -19503   -18839   -19092   -18963   -18248   -18711 
  -19057   -18189   -17820   -18008   -17478   -17057   -17288   -16840 
  -16206   -16277   -16026   -15726   -15759   -15331   -14977   -15094 
  -15074   -15036   -15301   -15578   -15594   -15468   -15510   -15947 
  -16408   -16608   -17080   -17601   -17420   -17257   -17608   -17611 
  -17360   -17598   -18008   -18039   -18020   -18497   -19017   -19295 
  -19838   -20309   -20338   -20389   -20575   -20653   -20786   -21244 
  -21547   -21601   -21895   -22050   -22138   -22300   -22152   -22153 
  -21982   -21608   -21721   -21279   -20635   -20824   -20590   -20145 
  -20365   -20372   -20184   -20320   -20425   -20246   -20262   -20820 
  -20797   -20164   -20280   -20221   -19469   -19502   -19832   -19239 
  -18652   -18678   -18402   -17924   -17848   -17857   -17705   -17601 
  -17832   -17885   -17442   -17420   -17703   -17527   -17381   -17629 
  -17848   -17772   -17762   -18198   -18472   -18323   -18519   -19033 
  -19347   -19378   -19259   -19244   -19217   -19357   -19868   -20000 
  -19894   -20171   -20157   -19785   -19732   -19713   -19596   -19804 
  -19862   -19509   -19600   -19960   -20047   -20355   -20742   -20977 
  -21344   -21603   -21783   -21953   -21868   -21740   -21644   -21568 
  -21676   -21807   -21713   -21568   -21689   -21636   -21187   -21092 
  -21167   -20821   -20571   -20535   -20171   -19737   -19764   -19959 
  -19905   -19888   -19986   -19781   -19655   -19947   -20036   -20002 
  -20249   -20439   -20490   -20699   -21095   -21386   -21533   -21864 
  -22302   -22690   -23087   -23299   -23340   -23472   -23625   -23510 
  -23248   -23408   -23803   -23895   -23976   -23899   -23557   -23668 
  -23864   -23719   -23789   -24041   -24408   -24816   -24928   -25215 
  -25719   -25893   -26196   -26787   -27004   -27100   -27484   -27724 
  -27871   -28227   -28345   -28136   -28110   -28293   -28285   -27953 
  -27778   -27644   -26872   -26376   -26663   -26624   -26687   -27142 
  -26940   -26861   -27761   -28430   -28330   -28291   -28241   -27886 
  -27911   -27754   -26748   -26320   -26532   -26191   -25695   -24765 
  -23220   -22621   -22479   -21659   -20978   -20011   -18580   -18272 
  -18730   -18593   -18235   -17872   -16648   -15101   -14906   -16325 
  -17966   -18248   -17745   -18121   -18751   -18266   -17564   -18182 
  -19266   -18983   -17934   -18194   -19348   -19548   -19386   -19682 
  -20021   -20275   -19902   -19528   -20045   -20533   -20815   -20664 
  -19952   -19922   -20265   -20850   -22408   -22971   -21335   -20320 
  -21847   -23819   -23769   -22041   -20754   -21544   -23463   -23840 
