Origin Time       2011/03/11 14:46:00
Lat.              38.103
Long.             142.860
Depth. (km)       24
Mag.              9.0
Station Code      AIC005
Station Lat.      35.1983
Station Long.     137.2061
Station Height(m) 134
Record Time       2011/03/11 14:49:02
Sampling Freq(Hz) 100Hz
Duration Time(s)  156
Dir.              U-D
Scale Factor      3920(gal)/6182761
Max. Acc. (gal)   4.325
Last Correction   2011/03/11 14:48:47
Memo.             
[...]
    2420     2412     2325     2326     2499     2868     3075     3153 
    3390     3556     3521     3602     3724     3713     3685     3564 
    3473     3514     3453     3396     3420     3314     3197     3118 
    2928     2795     2666     2388     2239     2216     2167     2181 
    2201     2228     2293     2306     2301     2324     2331     2271 
    2229     2236     2157     2031     1969     2005     2100     2096 
    2062     2140     2269     2392     2445     2441     2396     2328 
    2352     2372     2314     2281     2247     2204     2180     2224 
    2322     2318     2293     2346     2364     2400     2462     2463 
    2506     2539     2460     2384     2251     1984     1753     1568 
    1349     1164     1047      936      750      544      463      470 
     394      258      264      396      510      515      559      772 
     837      840      944      864      858     1033     1072     1003 
     887      881      929      875      948     1026      942      915 
     960     1102     1228     1156     1242     1456     1423     1546 
    1825     1713     1681     2013     2119     2062     2113     2128 
    2192     2305     2314     2274     2137     1952     1852     1630 
    1303     1088      895      627      292       53      -32     -246 
    -472     -550     -730     -934    -1067    -1184    -1268    -1447 
   -1670    -1726    -1609    -1542    -1630    -1601    -1376    -1217 
   -1151     -976     -801     -783     -638     -328     -133     -122 
    -212     -100      111       54       62      229      262      332 
     500      702      980     1133     1110     1247     1611     1842 
    1923     2112     2373     2597     2743     2954     3180     3171 
    3205     3435     3651     3690     3562     3725     4017     3916 
    3780     3786     3650     3467     3410     3366     3242     3056 
    2842     2836     3009     2868     2613     2761     2873     2683 
    2607     2683     2837     2936     2822     2888     3232     3381 
    3268     3190     3279     3333     3210     3152     3156     3058 
    3082     3110     2994     3096     3185     2941     2855     3068 
    3129     2983     2918     3048     3322     3471     3490     3738 
    3895     3775     3913     4174     4229     4209     4138     4208 
    4372     4234     4069     4103     4054     3926     3824     3761 
    3743     3698     3539     3399     3489     3509     3335     3366 
    3459     3413     3413     3361     3338     3493     3517     3435 
    3595     3815     3823     3873     4053     4110     4130     4105 
    3950     3945     3973     3875     3888     3874     3752     3796 
    3903     3847     3742     3646     3555     3564     3610     3615 
    3582     3483     3442     3542     3580     3445     3347     3318 
    3215     3216     3347     3315     3218     3272     3252     3076 
    2950     2807     2548     2266     2029     1838     1631     1408 
    1183     1034     1032      907      631      577      646      613 
     619      638      631      679      675      671      755      695 
     430      185       66      -79     -483     -963    -1154    -1266 
   -1548    -1804    -1998    -2251    -2508    -2701    -2859    -2956 
   -2935    -2895    -2910    -2953    -2982    -2922    -2873    -2952 
   -2964    -2829    -2766    -2762    -2713    -2633    -2477    -2449 
   -2569    -2583    -2599    -2612    -2610    -2740    -2744    -2603 
   -2589    -2603    -2622    -2700    -2802    -3006    -3224    -3387 
   -3604    -3780    -3862    -3956    -3971    -3896    -3862    -3775 
   -3653    -3668    -3715    -3688    -3677    -3726    -3723    -3630 
   -3608    -3630    -3593    -3574    -3587    -3691    -3802    -3716 
   -3680    -3806    -3782    -3679    -3672    -3720    -3831    -3830 
   -3713    -3691    -3708    -3788    -3895    -3903    -3984    -4050 
   -3914    -3835    -3822    -3692    -3556    -3448    -3286    -3016 
   -2688    -2462    -2280    -2021    -1826    -1745    -1590    -1437 
   -1304     -998     -717     -415       77      421      677     1003 
    1310     1722     1978     2001     2238     2570     2785     3015 
    3312     3647     3841     3981     4264     4444     4512     4674 
    4783     4789     4829     4887     4844     4758     4731     4740 
    4851     4974     4916     4943     5147     5160     5140     5324 
    5378     5368     5555     5735     5899     6132     6349     6560 
    6717     6872     7033     7048     7007     6961     6933     7005 
    7030     7063     7232     7305     7262     7342     7467     7474 
    7456     7464     7462     7508     7534     7428     7368     7422 
    7305     7045     6899     6749     6457     6192     6077     5962 
    5677     5339     5124     4964     4726     4353     4028     3939 
    3901     3738     3563     3480     3375     3215     3157     3115 
    2938     2739     2673     2688     2627     2566     2537     2496 
    2505     2503     2506     2538     2592     2617     2531     2549 
    2533     2392     2583     2781     2662     2702     2745     2556 
    2613     2910     3048     2931     2690     2630     2646     2624 
    2674     2315     1794     1768     1738     1658     1821     1779 
    1503     1435     1718     1953     1835     1741     1559     1270 
    1626     2149     2140     2156     2283     2311     2476     2686 
    2682     2583     2661     2658     2388     2455     2697     2489 
    2498     2916     2922     2750     2837     2986     3089     2896 
    2654     2847     3053     3101     3273     3373     3185     2821 
    2813     3177     3145     2876     2762     2424     2164     2395 
    2526     2259     2046     2092     2084     1906     1867     1902 
    1646     1432     1544     1536     1470     1433     1041      835 
    1072      991      758      780      790      787      810      810 
     944     1161     1335     1419     1324     1340     1610     1669 
    1597     1750     1857     1879     1991     2129     2326     2418 
    2380     2435     2416     2477     2751     2745     2683     2976 
    3222     3429     3731     3734     3633     3838     4137     4304 
    4386     4504     4634     4794     5138     5430     5462     5525 
    5791     6038     6113     6153     6215     6257     6339     6369 
    6243     6207     6434     6599     6552     6655     6837     6866 
    7027     7306     7394     7430     7556     7660     7755     7817 
    7721     7522     7362     7372     7388     7170     7058     7106 
    6894     6636     6587     6482     6235     5959     5715     5606 
    5562     5431     5315     5246     5182     5235     5338     5414 
    5524     5584     5644     5814     5977     6080     6080     5976 
    5959     6011     5955     5910     6010     6079     5983     5930 
    5998     5940     5758     5693     5655     5486     5373     5418 
    5463     5465     5526     5673     5796     5769     5697     5758 
    5820     5763     5721     5803     5973     6129     6160     6069 
    5986     5856     5635     5518     5418     5223     5086     5017 
    4900     4722     4655     4609     4424     4429     4558     4550 
    4625     4701     4699     4773     4765     4674     4607     4499 
    4452     4454     4432     4473     4382     4162     4207     4329 
    4243     4202     4247     4283     4340     4342     4389     4494 
    4502     4645     4947     5107     5238     5397     5442     5471 
    5453     5322     5274     5354     5333     5097     4919     4984 
    4983     4860     4826     4705     4503     4455     4481     4501 
    4439     4247     4176     4290     4340     4220     4011     3924 
    4042     4086     3992     3973     4076     4236     4262     4121 
    4111     4308     4468     4400     4246     4270     4374     4370 
    4287     4186     4067     3913     3825     3821     3789     3726 
    3603     3395     3172     2975     2841     2690     2422     2117 
    1890     1732     1524     1267     1154     1214     1223     1227 
    1405     1540     1646     1875     1939     1996     2291     2432 
    2432     2520     2608     2744     2833     2755     2674     2621 
    2596     2600     2500     2387     2423     2461     2375     2311 
    2314     2237     2150     2146     2011     1801     1739     1645 
    1443     1263     1036      862      775      535      291      258 
     201       16     -132     -259     -453     -594     -630     -712 
    -907    -1018     -888     -819     -980    -1078    -1059    -1127 
   -1298    -1302    -1073    -1012    -1126    -1080     -881     -678 
    -613     -574     -364     -238     -218       39      314      339 
     372      480      571      657      652      595      574      529 
     484      470      452      464      518      570      541      456 
     433      389      305      322      350      365      435      482 
     543      585      597      686      668      506      492      633 
     732      777      881     1015     1091     1163     1206     1254 
    1400     1452     1434     1638     1868     1916     2061     2324 
    2478     2540     2661     2895     2984     3019     3303     3443 
    3427     3613     3759     3939     4245     4397     4534     4727 
    4894     5189     5491     5644     5873     6129     6241     6408 
    6594     6685     6837     6995     7085     7196     7356     7507 
    7463     7390     7468     7330     7104     7063     6878     6625 
    6472     6243     6030     5860     5676     5496     5262     5113 
    5070     4914     4724     4569     4313     4074     3938     3672 
    3349     3231     3099     2809     2556     2359     2148     1876 
    1529     1195      930      754      620      512      452      380 
     289      221      258      397      404      268      172      123 
      80      -56     -303     -522     -712     -892    -1029    -1195 
   -1416    -1658    -1877    -2057    -2202    -2309    -2432    -2602 
   -2719    -2785    -2954    -3148    -3175    -3131    -3158    -3211 
   -3208    -3168    -3130    -3056    -3006    -3003    -2952    -2883 
   -2769    -2561    -2383    -2262    -2133    -2023    -1953    -1907 
   -1892    -1925    -1982    -2064    -2201    -2294    -2269    -2290 
   -2416    -2496    -2493    -2498    -2588    -2676    -2630    -2565 
   -2523    -2419    -2343    -2305    -2192    -2063    -1946    -1767 
   -1623    -1555    -1381    -1142    -1042     -982     -803     -582 
    -400     -273     -153        6      129      279      491      582 
     712     1029     1198     1227     1371     1508     1650     1909 
    2042     2005     2116     2320     2379     2361     2361     2439 
    2508     2397     2324     2401     2369     2217     2082     2052 
    2163     2186     2029     1933     1938     1941     1971     2056 
    2198     2349     2470     2568     2646     2763     2872     2866 
    2911     3111     3227     3143     3044     3088     3165     3059 
    2907     2923     2950     2918     2914     2870     2766     2661 
    2619     2636     2607     2561     2497     2363     2370     2460 
    2326     2169     2258     2392     2409     2480     2527     2282 
    2303     2963     3268     3045     3300     3890     4234     4411 
    4560     4967     5490     5594     5791     6448     6662     6406 
    6622     7165     7294     7007     6872     7143     7297     7069 
    7009     7096     6891     6787     6838     6593     6414     6369 
    6051     5760     5640     5527     5449     5244     5006     5002 
    4932     4571     4352     4385     4219     3851     3610     3548 
    3424     3133     2978     2824     2426     2238     2116     1658 
    1479     1579     1252      897     1011     1115      953      782 
     798      925      873      768      847      946     1005     1023 
    1052     1193     1224     1104     1084     1075     1008     1117 
    1276     1286     1375     1468     1429     1509     1610     1588 
    1623     1700     1724     1717     1774     1906     1955     1969 
    2104     2252     2248     2223     2320     2324     2161     2126 
    2244     2290     2277     2243     2221     2304     2344     2324 
    2335     2299     2286     2312     2258     2138     2094     2228 
    2329     2296     2316     2381     2463     2610     2668     2599 
    2657     2833     2866     2908     3095     3163     3226     3411 
    3474     3515     3589     3643     3758     3785     3796     3882 
    3870     3898     4027     4060     4025     4008     4065     4211 
    4273     4208     4155     4138     4168     4166     4066     4075 
    4210     4266     4260     4270     4294     4286     4204     4162 
    4256     4320     4276     4304     4425     4483     4452     4437 
    4459     4485     4583     4709     4835     5004     5096     5200 
    5504     5777     5805     5774     5873     6004     5995     5848 
    5782     5852     5853     5777     5662     5503     5373     5212 
    5069     5001     4893     4854     4851     4792     4856     4914 
    4855     4882     4944     4966     4960     4913     4992     5137 
    5178     5263     5398     5484     5606     5759     5876     6008 
    6169     6294     6472     6729     6962     7186     7399     7646 
    7923     8048     8108     8230     8345     8493     8608     8671 
    8878     9079     9114     9158     9219     9228     9163     9052 
    9040     9038     8913     8736     8584     8519     8372     8041 
    7820     7663     7377     7127     6914     6684     6531     6375 
    6177     6043     5932     5758     5577     5467     5427     5340 
    5134     4983     4887     4737     4621     4491     4329     4229 
    4087     3911     3757     3553     3367     3213     3066     2968 
    2873     2815     2763     2614     2527     2515     2427     2316 
    2199     2072     1991     1868     1669     1560     1562     1517 
    1396     1285     1262     1244     1071      855      771      731 
     629      504      463      524      465      247      208      272 
     137       -5       -1      -24     -159     -206      -37      -14 
    -188     -144      -59     -236     -423     -461     -535     -690 
    -787     -824     -863     -909     -947    -1012    -1165    -1222 
   -1091    -1038    -1099    -1063     -949     -949    -1023     -969 
    -882     -879     -831     -683     -492     -389     -316      -72 
     116      101      248      638      907      876      938     1450 
    1871     1795     1832     2353     2804     2799     2832     3224 
    3471     3426     3614     4043     4251     4345     4604     4893 
    5113     5237     5345     5569     5700     5836     6230     6480 
    6505     6687     6892     6930     6906     6923     7012     7075 
    7059     7042     7078     7159     7223     7219     7161     7071 
    7016     7044     7013     6875     6782     6721     6652     6590 
    6450     6264     6156     6131     6077     5930     5857     5886 
    5869     5876     5915     5885     5843     5865     5897     5825 
    5712     5685     5630     5492     5437     5464     5423     5305 
    5163     5033     4954     4899     4856     4808     4707     4627 
    4578     4540     4537     4444     4302     4291     4257     4094 
    3966     3901     3860     3851     3821     3789     3830     3855 
    3783     3733     3736     3712     3682     3660     3638     3618 
    3577     3544     3500     3395     3276     3219     3229     3204 
    3104     3051     3116     3190     3151     3111     3174     3186 
    3142     3159     3170     3176     3197     3198     3202     3150 
    3059     3003     2964     2930     2839     2721     2657     2549 
    2353     2209     2165     2080     1912     1806     1802     1801 
    1741     1647     1577     1522     1443     1350     1264     1213 
    1190     1080      890      836      848      720      557      462 
     471      521      424      315      380      468      450      360 
     317      353      313      204      161      113       59       91 
      95        5      -72     -104     -109     -165     -320     -362 
    -271     -370     -585     -585     -478     -484     -531     -573 
    -650     -722     -744     -790     -944    -1002     -898     -936 
   -1006     -867     -854    -1046    -1032     -907     -960    -1020 
    -985     -993     -991     -813     -642     -683     -642     -466 
    -402     -325     -182     -103      -54       38      202      317 
     404      606      698      620      694      855      901      931 
     978     1042     1150     1277     1429     1528     1593     1687 
    1755     1862     1960     2018     2192     2348     2342     2375 
    2569     2755     2720     2637     2768     2868     2801     2823 
    2879     2832     2833     2960     3081     3024     2886     2859 
    2893     2972     2973     2776     2748     2924     2897     2721 
    2681     2760     2749     2651     2575     2511     2530     2549 
    2442     2422     2506     2430     2318     2442     2571     2522 
    2559     2725     2888     3058     3171     3249     3392     3497 
    3488     3476     3553     3646     3621     3537     3574     3624 
    3534     3464     3472     3451     3355     3174     3097     3114 
    2945     2753     2708     2617     2523     2519     2442     2271 
    2233     2288     2232     2165     2157     2135     2104     2069 
    2068     2043     1975     1965     1907     1827     1855     1825 
    1776     1848     1817     1681     1656     1666     1608     1527 
    1464     1381     1272     1216     1144     1008      934      945 
     928      793      686      745      766      683      654      669 
     704      735      731      791      850      837      890      979 
    1015      962      870      897      969      956      930      877 
     752      696      719      661      574      529      498      489 
     452      424      422      342      291      311      245      192 
     224      276      350      365      404      533      599      662 
     718      750      947     1168     1275     1428     1671     1956 
    2185     2368     2623     2840     2998     3227     3442     3617 
    3835     4038     4220     4405     4557     4697     4856     5075 
    5329     5491     5590     5760     5983     6146     6278     6508 
    6745     6849     6916     7027     7181     7317     7299     7207 
    7251     7387     7437     7359     7262     7250     7283     7258 
    7131     7000     6997     7044     7042     7077     7134     7096 
    7034     7040     7026     6902     6698     6532     6548     6687 
    6686     6482     6363     6421     6377     6192     6024     5894 
    5862     5926     5939     5856     5741     5673     5639     5415 
    4993     4794     4888     4826     4575     4473     4490     4425 
    4259     4053     3889     3765     3673     3654     3655     3685 
    3728     3662     3603     3625     3540     3381     3344     3437 
    3500     3308     3026     3000     3058     3018     2911     2640 
    2391     2438     2621     2547     2052     1659     1974     2569 
