Origin Time       2011/03/11 14:46:00
Lat.              38.103
Long.             142.860
Depth. (km)       24
Mag.              9.0
Station Code      AIC005
Station Lat.      35.1983
Station Long.     137.2061
Station Height(m) 134
Record Time       2011/03/11 14:49:02
Sampling Freq(Hz) 100Hz
Duration Time(s)  156
Dir.              N-S
Scale Factor      3920(gal)/6182761
Max. Acc. (gal)   4.613
Last Correction   2011/03/11 14:48:47
Memo.             
[...]
   -3594    -3318    -3198    -3256    -3373    -3459    -3495    -3560 
   -3644    -3637    -3622    -3705    -3797    -3850    -3903    -3906 
   -3968    -4205    -4450    -4627    -4726    -4734    -4777    -4825 
   -4756    -4572    -4302    -4021    -3797    -3566    -3329    -3181 
   -3070    -2937    -2844    -2825    -2890    -2952    -2893    -2773 
   -2615    -2408    -2292    -2322    -2432    -2562    -2602    -2517 
   -2399    -2292    -2170    -2010    -1841    -1699    -1605    -1576 
   -1604    -1743    -1961    -2126    -2305    -2491    -2527    -2533 
   -2574    -2536    -2498    -2526    -2586    -2734    -2936    -3109 
   -3285    -3435    -3567    -3724    -3804    -3864    -3989    -4041 
   -4041    -4115    -4282    -4516    -4760    -5016    -5254    -5354 
   -5297    -5157    -5011    -4827    -4560    -4334    -4180    -4017 
   -3839    -3681    -3686    -3805    -3796    -3752    -3699    -3425 
   -3149    -2998    -2783    -2674    -2652    -2489    -2361    -2317 
   -2257    -2259    -2329    -2442    -2582    -2610    -2528    -2511 
   -2511    -2461    -2432    -2382    -2311    -2337    -2351    -2208 
   -2115    -2084    -1933    -1868    -1977    -2070    -2081    -2078 
   -2040    -1889    -1755    -1748    -1864    -2094    -2371    -2659 
   -2908    -3095    -3269    -3474    -3695    -3827    -3864    -3874 
   -3913    -4029    -4182    -4411    -4710    -4841    -4896    -5001 
   -4872    -4719    -4830    -4935    -5061    -5261    -5371    -5514 
   -5664    -5707    -5851    -6077    -6133    -6112    -6073    -5873 
   -5617    -5456    -5340    -5317    -5436    -5536    -5652    -5879 
   -5936    -5840    -5824    -5785    -5758    -5733    -5664    -5802 
   -5999    -6094    -6333    -6551    -6634    -6716    -6632    -6542 
   -6563    -6447    -6391    -6460    -6534    -6807    -7052    -7055 
   -7088    -7015    -6742    -6573    -6437    -6330    -6383    -6332 
   -6244    -6357    -6430    -6444    -6620    -6758    -6709    -6663 
   -6548    -6352    -6344    -6332    -6171    -6175    -6269    -6257 
   -6251    -6191    -6104    -6111    -6018    -5896    -5898    -5781 
   -5620    -5537    -5366    -5201    -5088    -4922    -4751    -4528 
   -4228    -4024    -3943    -3864    -3772    -3652    -3534    -3405 
   -3156    -2890    -2646    -2246    -1749    -1317     -960     -697 
    -516     -360     -352     -462     -453     -458     -610     -657 
    -524     -393     -293     -211     -165     -137     -216     -349 
    -400     -343     -172      -76      -52       55       71       25 
      77       56      -43      -97     -247     -458     -625     -881 
   -1121    -1246    -1417    -1632    -1898    -2214    -2423    -2626 
   -3009    -3511    -4021    -4485    -4904    -5147    -5074    -4947 
   -4897    -4762    -4611    -4414    -4102    -3894    -3704    -3475 
   -3438    -3459    -3467    -3495    -3413    -3397    -3479    -3522 
   -3680    -3892    -4019    -4120    -4142    -4165    -4198    -4108 
   -4040    -3967    -3802    -3693    -3610    -3552    -3581    -3678 
   -3862    -4006    -4097    -4228    -4236    -4103    -3925    -3666 
   -3449    -3374    -3320    -3256    -3314    -3433    -3453    -3446 
   -3464    -3468    -3512    -3573    -3657    -3831    -3949    -3985 
   -4157    -4351    -4421    -4534    -4605    -4545    -4507    -4358 
   -4061    -3842    -3620    -3398    -3271    -3121    -3053    -3115 
   -3164    -3185    -3209    -3333    -3436    -3321    -3243    -3300 
   -3275    -3286    -3384    -3448    -3545    -3645    -3859    -4154 
   -4196    -4187    -4244    -4132    -3977    -3849    -3722    -3782 
   -3951    -4034    -4131    -4217    -4225    -4199    -4105    -4056 
   -4005    -3826    -3614    -3350    -3136    -3075    -3035    -3058 
   -3183    -3330    -3497    -3646    -3785    -3893    -3882    -3801 
   -3706    -3572    -3397    -3222    -3075    -2967    -2873    -2780 
   -2719    -2555    -2298    -2204    -2161    -2096    -2187    -2320 
   -2482    -2735    -2897    -3051    -3281    -3431    -3502    -3451 
   -3289    -3179    -3009    -2732    -2551    -2462    -2380    -2276 
   -2221    -2415    -2684    -2812    -2993    -3163    -3176    -3198 
   -3200    -3151    -3156    -3117    -2971    -2836    -2792    -2848 
   -2948    -3009    -3145    -3436    -3681    -3762    -3818    -3918 
   -3901    -3780    -3723    -3719    -3800    -3882    -3857    -3938 
   -4117    -4204    -4284    -4376    -4362    -4343    -4445    -4462 
   -4397    -4455    -4484    -4588    -4806    -4808    -4863    -5023 
   -4946    -4856    -4736    -4449    -4348    -4342    -4173    -4149 
   -4281    -4293    -4267    -4186    -4035    -3866    -3507    -3104 
   -2889    -2725    -2616    -2629    -2653    -2706    -2799    -2764 
   -2689    -2700    -2589    -2378    -2161    -1836    -1607    -1572 
   -1553    -1620    -1795    -2002    -2342    -2819    -3275    -3701 
   -4123    -4480    -4765    -4930    -5005    -5182    -5461    -5690 
   -5896    -6187    -6427    -6495    -6537    -6489    -6330    -6293 
   -6244    -6203    -6458    -6710    -6716    -6684    -6575    -6339 
   -6095    -5788    -5438    -5148    -4834    -4526    -4317    -4192 
   -4236    -4413    -4607    -4796    -4876    -4785    -4558    -4205 
   -3732    -3163    -2572    -1998    -1391     -782     -334     -105 
     -19     -119     -323     -278        9      306      655      903 
    1020     1345     1735     2018     2351     2551     2454     2166 
    1816     1623     1663     1820     1894     1763     1627     1601 
    1630     1734     1797     1641     1226      654      153     -147 
    -332     -421     -413     -478     -613     -706     -911    -1092 
    -974     -858     -927    -1079    -1337    -1398    -1259    -1309 
   -1327    -1292    -1479    -1466    -1296    -1397    -1443    -1505 
   -1778    -1923    -1960    -1924    -1735    -1582    -1533    -1489 
   -1498    -1571    -1654    -1818    -1975    -2175    -2549    -2784 
   -2740    -2580    -2285    -1991    -1909    -1880    -1877    -2046 
   -2240    -2532    -2928    -3081    -3101    -3103    -2922    -2709 
   -2559    -2293    -1935    -1708    -1590    -1386    -1224    -1269 
   -1346    -1426    -1587    -1712    -1884    -2279    -2794    -3274 
   -3691    -4091    -4405    -4577    -4755    -4894    -4796    -4628 
   -4660    -4787    -5018    -5455    -5754    -5857    -6045    -6254 
   -6456    -6586    -6563    -6454    -6203    -5889    -5596    -5389 
   -5372    -5339    -5283    -5246    -5032    -4958    -5094    -4955 
   -4749    -4657    -4426    -4286    -4301    -4402    -4741    -4993 
   -5001    -5040    -5018    -4883    -4825    -4850    -4956    -5092 
   -5217    -5440    -5668    -5915    -6374    -6778    -7018    -7317 
   -7505    -7748    -8099    -8100    -8170    -8353    -8035    -7622 
   -7289    -6774    -6429    -6323    -6273    -6220    -6094    -6084 
   -6158    -6165    -6285    -6411    -6382    -6236    -5900    -5550 
   -5297    -4907    -4523    -4346    -4129    -3852    -3752    -3710 
   -3628    -3702    -3750    -3535    -3315    -3138    -2888    -2660 
   -2443    -2135    -1821    -1794    -1960    -2009    -2107    -2256 
   -2210    -2075    -1997    -2048    -2247    -2439    -2481    -2404 
   -2300    -2206    -2087    -1920    -1824    -1771    -1451     -979 
    -797     -820     -820     -988    -1325    -1516    -1638    -1927 
   -2212    -2347    -2417    -2468    -2417    -2176    -2031    -2127 
   -2190    -2328    -2655    -2978    -3311    -3707    -4032    -4298 
   -4572    -4658    -4701    -4941    -5092    -5120    -5109    -4921 
   -4691    -4436    -4143    -3998    -3895    -3787    -3619    -3199 
   -2965    -3090    -3037    -2896    -2886    -2754    -2599    -2591 
   -2572    -2622    -2934    -3262    -3427    -3644    -3805    -3814 
   -4002    -4172    -4038    -4088    -4344    -4303    -4167    -4130 
   -3915    -3580    -3389    -3290    -3154    -3115    -3209    -3244 
   -3323    -3617    -3832    -3761    -3723    -3687    -3488    -3564 
   -3828    -3915    -4181    -4582    -4754    -4878    -5028    -5124 
   -5185    -5131    -4997    -4830    -4621    -4452    -4312    -4257 
   -4311    -4271    -4070    -3751    -3499    -3436    -3369    -3428 
   -3658    -3716    -3748    -4065    -4613    -5234    -5761    -5986 
   -5731    -5168    -4637    -4119    -3648    -3452    -3464    -3510 
   -3651    -3985    -4293    -4468    -4711    -4797    -4346    -3622 
   -3116    -2675    -2102    -1694    -1391    -1101    -1139    -1424 
   -1677    -1896    -2053    -2063    -1986    -1984    -1973    -1752 
   -1589    -1715    -1787    -1844    -2247    -2639    -2713    -2712 
   -2630    -2483    -2452    -2366    -2166    -2032    -1933    -1897 
   -2083    -2366    -2492    -2459    -2416    -2447    -2398    -2301 
   -2380    -2381    -2306    -2430    -2533    -2696    -3066    -3284 
   -3370    -3546    -3650    -3661    -3678    -3657    -3708    -3776 
   -3636    -3410    -3241    -3206    -3398    -3546    -3468    -3476 
   -3590    -3559    -3532    -3530    -3358    -3224    -3160    -2916 
   -2579    -2219    -1875    -1714    -1666    -1645    -1683    -1716 
   -1726    -1719    -1617    -1443    -1229    -1040    -1033    -1015 
    -904     -988    -1126    -1072    -1106    -1429    -1773    -2104 
   -2572    -2874    -3024    -3304    -3542    -3847    -4398    -4837 
   -5081    -5401    -5614    -5448    -5229    -5211    -5095    -4739 
   -4349    -3932    -3392    -2946    -2730    -2468    -2127    -1967 
   -1822    -1520    -1227     -835     -315      282     1107     1795 
    2032     2098     2013     1781     1664     1594     1549     1597 
    1549     1556     1842     2225     2603     2973     3189     3221 
    3150     3022     2910     2712     2379     2113     1750     1198 
     796      520      308      311      360      393      510      528 
     336      -64     -620    -1202    -1879    -2460    -2765    -3114 
   -3482    -3676    -3764    -3759    -3643    -3485    -3556    -3826 
   -3974    -4103    -4241    -4262    -4276    -4309    -4343    -4469 
   -4738    -5006    -5056    -4979    -5002    -5112    -5296    -5651 
   -6041    -6263    -6250    -6109    -6055    -5996    -5921    -6063 
   -6271    -6445    -6745    -7130    -7590    -8139    -8627    -8957 
   -9121    -9165    -9124    -9009    -8959    -8946    -8774    -8603 
   -8598    -8515    -8228    -7925    -7682    -7444    -7222    -7046 
   -6996    -6975    -6709    -6253    -5716    -5033    -4401    -4009 
   -3845    -3908    -3949    -3784    -3553    -3272    -3028    -2899 
   -2759    -2750    -2840    -2684    -2351    -2051    -1797    -1622 
   -1559    -1439    -1126     -776     -501     -345     -389     -612 
    -868     -854     -520        0      648      990      559     -288 
    -909    -1542    -2177    -1832    -1297    -1868    -2203    -1829 
   -1968    -2002    -1197     -584     -775     -834     -705    -1502 
   -1841     -724     -635    -1378     -558       82     -962    -1196 
    -436    -1038    -1907    -1539    -1863    -3100    -3064    -2806 
   -3870    -4485    -4460    -5177    -5809    -5474    -4732    -4830 
   -5896    -6483    -6623    -7023    -6850    -6002    -5710    -6057 
   -5984    -5509    -5461    -5718    -5869    -6179    -6393    -5841 
   -5066    -4993    -5271    -5345    -5665    -6027    -5700    -5342 
   -5307    -5030    -4920    -5279    -5361    -4926    -4364    -3874 
   -3564    -3505    -3891    -4500    -4450    -3906    -3614    -3275 
   -2620    -2074    -1854    -1790    -1888    -2131    -2061    -1786 
   -1817    -1844    -1740    -1687    -1304     -594      -99      175 
     463      536      448      553      676      648      519      437 
     503      540      549      389       73      134      301      216 
     389      675      470      248      519      653      545      723 
     684      221     -143     -656    -1298    -1604    -1788    -2080 
   -2460    -2853    -3054    -2974    -2696    -2611    -2855    -2913 
   -2664    -2285    -1727    -1335    -1210     -835     -313      -38 
     156      299      156      -17       91      140       86      416 
     978     1209     1272     1658     2139     2353     2388     2175 
    1661     1208      974      772      753      942      958     1003 
    1254     1437     1642     1805     1700     1512     1338     1083 
     811      689      659      633      701      784      675      417 
     340      374       75     -295     -509     -878    -1199    -1415 
   -1854    -2246    -2472    -2857    -3224    -3371    -3422    -3439 
   -3598    -3934    -4353    -4864    -5296    -5663    -6022    -6188 
   -6245    -6299    -6235    -6084    -6059    -6164    -6319    -6538 
   -6652    -6676    -6656    -6447    -6293    -6194    -5993    -5952 
   -5887    -5663    -5547    -5404    -5078    -4709    -4368    -4106 
   -4005    -3997    -4040    -4052    -3932    -3816    -3609    -3231 
   -2896    -2589    -2309    -2027    -1725    -1714    -1902    -1865 
   -1645    -1474    -1365    -1356    -1478    -1516    -1464    -1480 
   -1418    -1256    -1062     -716     -322     -191     -180      194 
     683      784      925     1382     1799     2282     2926     3407 
    3682     3741     3498     3279     3239     3208     3262     3410 
    3570     3656     3472     3208     3044     2776     2438     2203 
    2018     1873     1772     1542     1151      671      148     -338 
    -953    -1640    -2041    -2282    -2621    -2951    -3077    -3095 
   -3293    -3576    -3747    -3866    -3993    -4169    -4326    -4390 
   -4437    -4536    -4660    -4828    -5107    -5191    -5013    -5006 
   -4912    -4464    -4196    -4249    -4320    -4293    -3977    -3446 
   -3229    -3252    -3178    -3428    -3925    -3990    -4013    -4361 
   -4280    -3909    -4101    -4232    -3663    -3264    -3384    -3464 
   -3510    -3664    -3720    -3706    -3837    -3861    -3511    -3327 
   -3385    -3071    -2724    -2769    -2733    -2566    -2683    -2925 
   -2992    -3102    -3371    -3465    -3294    -3078    -2888    -2676 
   -2565    -2644    -2631    -2544    -2745    -2910    -2736    -2780 
   -3179    -3276    -3134    -3270    -3422    -3364    -3285    -3209 
   -3150    -3042    -2895    -2867    -2894    -2822    -2652    -2629 
   -2806    -2956    -3123    -3414    -3772    -4067    -4143    -4134 
   -4264    -4308    -4065    -3731    -3409    -3206    -3195    -3188 
   -3194    -3321    -3435    -3344    -3103    -2940    -2857    -2726 
   -2550    -2358    -2158    -2027    -1976    -1893    -1813    -1922 
   -2155    -2226    -2229    -2320    -2222    -1975    -1867    -1730 
   -1438    -1263    -1313    -1284    -1175    -1358    -1667    -1762 
   -1875    -2141    -2275    -2345    -2691    -3043    -3177    -3437 
   -3685    -3695    -3834    -4059    -4064    -4123    -4417    -4534 
   -4466    -4571    -4742    -4938    -5149    -5229    -5384    -5547 
   -5453    -5356    -5389    -5337    -5302    -5385    -5324    -5188 
   -5283    -5351    -5129    -4970    -4943    -4723    -4589    -4708 
   -4676    -4686    -4937    -4892    -4473    -4066    -3694    -3266 
   -2785    -2330    -2111    -2182    -2353    -2496    -2727    -3104 
   -3355    -3366    -3379    -3340    -3033    -2744    -2632    -2492 
   -2416    -2527    -2814    -3309    -3886    -4360    -4630    -4759 
   -4865    -4832    -4589    -4388    -4370    -4446    -4622    -4839 
   -4894    -4854    -4883    -4872    -4823    -4867    -4943    -4993 
   -5083    -5123    -4935    -4766    -4897    -5072    -5149    -5250 
   -5300    -5277    -5268    -5204    -5100    -5071    -5071    -5095 
   -5224    -5313    -5163    -4916    -4698    -4380    -4123    -4003 
   -3614    -3089    -2870    -2636    -2131    -1753    -1609    -1388 
   -1071     -744     -327       83      310      404      504      594 
     546      439      491      715      932     1094     1350     1595 
    1612     1583     1546     1333     1152     1013      681      307 
      18     -239     -370     -422     -542     -640     -756    -1060 
   -1377    -1615    -1956    -2225    -2234    -2308    -2542    -2760 
   -2989    -3258    -3483    -3493    -3433    -3469    -3405    -3500 
   -3707    -3558    -3419    -3399    -3211    -2963    -2719    -2656 
   -2744    -2724    -2585    -2338    -2184    -2072    -1691    -1442 
   -1494    -1324    -1085    -1052     -928     -724     -661     -656 
    -609     -565     -479     -290      -31      313      672      867 
     898      916      969      973     1049     1395     1783     1944 
    2052     2121     1936     1705     1531     1140      675      456 
     371      177       40       65      -79     -262     -392     -772 
   -1209    -1691    -2339    -2950    -3621    -4120    -4147    -4258 
   -4617    -4827    -5017    -5207    -5369    -5669    -5689    -5448 
   -5586    -5896    -5977    -5938    -5842    -5689    -5540    -5533 
   -5778    -6105    -6289    -6478    -6739    -6724    -6593    -6739 
   -6671    -6134    -5752    -5735    -5719    -5565    -5504    -5791 
   -6203    -6074    -5614    -5696    -5991    -5882    -5732    -5686 
   -5490    -5194    -4884    -4718    -4641    -4330    -4058    -3966 
   -3646    -3342    -3430    -3540    -3262    -2780    -2426    -2014 
   -1467    -1205    -1238    -1090     -682     -349      -87      135 
     179      239      408      664      944     1034     1063     1036 
     730      504      539      408      211      145      -91     -355 
    -360     -425     -634     -677     -657     -805     -963    -1037 
   -1207    -1507    -1823    -2057    -2087    -2053    -2052    -1971 
   -1986    -2152    -2314    -2496    -2632    -2639    -2621    -2757 
   -3020    -3166    -3044    -2813    -2815    -2861    -2552    -2313 
   -2547    -2773    -2674    -2594    -2687    -2736    -2683    -2729 
   -2899    -2936    -2813    -2698    -2746    -2914    -2955    -3054 
   -3295    -3255    -3164    -3379    -3603    -3819    -4078    -4223 
   -4404    -4566    -4603    -4740    -5006    -5326    -5621    -5805 
   -5966    -6230    -6571    -6835    -7074    -7391    -7770    -8197 
   -8585    -8947    -9285    -9539    -9626    -9475    -9439    -9689 
   -9888   -10043   -10257   -10438   -10597   -10655   -10604   -10653 
  -10782   -10799   -10731   -10658   -10572   -10539   -10560   -10494 
  -10388   -10429   -10495   -10428   -10384   -10369   -10233   -10002 
   -9709    -9420    -9286    -9123    -8703    -8304    -8103    -7967 
   -7902    -7904    -7883    -7778    -7624    -7440    -7157    -6967 
   -6962    -6928    -6832    -6648    -6383    -6187    -5908    -5483 
   -5269    -5164    -4813    -4462    -4229    -3965    -3811    -3727 
   -3585    -3476    -3419    -3403    -3366    -3270    -3267    -3300 
   -3164    -3025    -2986    -2879    -2714    -2545    -2435    -2428 
   -2374    -2304    -2324    -2274    -2126    -2042    -1983    -1931 
   -1971    -2060    -2109    -1997    -1788    -1681    -1606    -1553 
