Origin Time       2011/03/11 14:46:00
Lat.              38.103
Long.             142.860
Depth. (km)       24
Mag.              9.0
Station Code      AIC015
Station Lat.      34.7552
Station Long.     137.4040
Station Height(m) 17
Record Time       2011/03/11 14:48:29
Sampling Freq(Hz) 100Hz
Duration Time(s)  254
Dir.              U-D
Scale Factor      3920(gal)/6182761
Max. Acc. (gal)   5.473
Last Correction   2011/03/11 14:48:14
Memo.             
[...]
  -33670   -33395   -33079   -32739   -32407   -32099   -31841   -31665 
  -31547   -31457   -31396   -31340   -31240   -31101   -30982   -30885 
  -30798   -30769   -30832   -30939   -31058   -31174   -31236   -31244 
  -31284   -31406   -31571   -31734   -31907   -32069   -32172   -32247 
  -32365   -32556   -32813   -33113   -33415   -33619   -33672   -33637 
  -33598   -33590   -33648   -33785   -33938   -34065   -34174   -34238 
  -34235   -34221   -34283   -34390   -34424   -34358   -34213   -33975 
  -33695   -33445   -33231   -33090   -33048   -33047   -33068   -33152 
  -33292   -33449   -33601   -33741   -33839   -33881   -33911   -33951 
  -33983   -34012   -34027   -34034   -34080   -34192   -34355   -34548 
  -34742   -34889   -34977   -35007   -34981   -34915   -34850   -34842 
  -34911   -35065   -35329   -35673   -36020   -36320   -36543   -36668 
  -36719   -36740   -36776   -36814   -36772   -36602   -36329   -35996 
  -35663   -35391   -35216   -35105   -34989   -34859   -34726   -34578 
  -34409   -34211   -34031   -33911   -33790   -33645   -33542   -33515 
  -33539   -33584   -33657   -33759   -33832   -33836   -33821   -33834 
  -33857   -33867   -33835   -33778   -33801   -33957   -34162   -34332 
  -34478   -34617   -34746   -34888   -35075   -35318   -35605   -35946 
  -36339   -36705   -36969   -37153   -37287   -37320   -37251   -37182 
  -37154   -37136   -37163   -37270   -37375   -37407   -37387   -37322 
  -37229   -37084   -36850   -36646   -36486   -36229   -35952   -35797 
  -35710   -35622   -35513   -35337   -35077   -34805   -34578   -34383 
  -34221   -34073   -33891   -33714   -33587   -33502   -33495   -33565 
  -33614   -33600   -33561   -33555   -33626   -33703   -33683   -33567 
  -33430   -33342   -33303   -33306   -33336   -33289   -33129   -32957 
  -32781   -32551   -32274   -31957   -31661   -31481   -31393   -31366 
  -31436   -31569   -31723   -31948   -32255   -32579   -32884   -33164 
  -33381   -33515   -33662   -33914   -34232   -34539   -34780   -34941 
  -35101   -35307   -35556   -35875   -36230   -36536   -36757   -36875 
  -36876   -36796   -36706   -36643   -36632   -36696   -36801   -36870 
  -36848   -36764   -36696   -36609   -36442   -36241   -36060   -35880 
  -35652   -35395   -35194   -35055   -34891   -34650   -34355   -34085 
  -33887   -33766   -33734   -33764   -33801   -33885   -34074   -34339 
  -34622   -34878   -35100   -35279   -35400   -35485   -35562   -35622 
  -35647   -35627   -35566   -35479   -35365   -35207   -35023   -34831 
  -34596   -34301   -33955   -33586   -33289   -33170   -33237   -33383 
  -33495   -33555   -33597   -33636   -33675   -33690   -33644   -33535 
  -33374   -33189   -33064   -33076   -33186   -33275   -33274   -33198 
  -33077   -32955   -32879   -32841   -32829   -32869   -32925   -32936 
  -32924   -32926   -32953   -33030   -33157   -33312   -33474   -33617 
  -33756   -33889   -33985   -34068   -34168   -34268   -34345   -34354 
  -34273   -34142   -33986   -33829   -33724   -33666   -33625   -33581 
  -33480   -33345   -33239   -33122   -32895   -32499   -32015   -31635 
  -31404   -31200   -31012   -30903   -30859   -30829   -30721   -30614 
  -30704   -30891   -31068   -31240   -31372   -31604   -31807   -31686 
  -31498   -31376   -31227   -31205   -31183   -30992   -30851   -30885 
  -30947   -30870   -30737   -30615   -30527   -30594   -30521   -30198 
  -30026   -29950   -29854   -29849   -29751   -29581   -29606   -29820 
  -30091   -30466   -30961   -31347   -31617   -31913   -32164   -32359 
  -32527   -32666   -32741   -32716   -32677   -32610   -32527   -32451 
  -32348   -32316   -32253   -32095   -32014   -31879   -31672   -31636 
  -31688   -31696   -31714   -31677   -31535   -31417   -31400   -31356 
  -31132   -30835   -30750   -30813   -30743   -30646   -30619   -30501 
  -30357   -30323   -30422   -30595   -30681   -30717   -30727   -30590 
  -30416   -30362   -30407   -30462   -30471   -30513   -30693   -30989 
  -31266   -31593   -32121   -32611   -32896   -33175   -33562   -34005 
  -34363   -34685   -35186   -35651   -35836   -36051   -36259   -36168 
  -36218   -36640   -36997   -37094   -37053   -37047   -37020   -36929 
  -36935   -36825   -36469   -36257   -36210   -35988   -35613   -35237 
  -34937   -34835   -34785   -34566   -34357   -34252   -33991   -33724 
  -33751   -33817   -33774   -33834   -33952   -33955   -33966   -34157 
  -34360   -34348   -34248   -34249   -34224   -33976   -33653   -33521 
  -33495   -33268   -32802   -32483   -32467   -32328   -31864   -31494 
  -31299   -30817   -30184   -29881   -29631   -29174   -28965   -28954 
  -28558   -28135   -28116   -27925   -27488   -27303   -27335   -27464 
  -27631   -27644   -27550   -27588   -27743   -27856   -27919   -27919 
  -28000   -28303   -28474   -28486   -28765   -29081   -29075   -28992 
  -29060   -29186   -29238   -29179   -29081   -29030   -28980   -28971 
  -29118   -29144   -29026   -29274   -29778   -30077   -30323   -30659 
  -30909   -31107   -31294   -31395   -31475   -31500   -31521   -31761 
  -31940   -31833   -31925   -32331   -32649   -32850   -33050   -33294 
  -33569   -33700   -33862   -34263   -34634   -34840   -34974   -35095 
  -35169   -35023   -34731   -34598   -34554   -34303   -33954   -33751 
  -33565   -33226   -32840   -32579   -32472   -32437   -32409   -32335 
  -32245   -32329   -32510   -32520   -32458   -32515   -32660   -32789 
  -32967   -33416   -33874   -33992   -34119   -34412   -34596   -34778 
  -35007   -35167   -35540   -36026   -36091   -35992   -36080   -36062 
  -35894   -35725   -35584   -35506   -35298   -34940   -34615   -34354 
  -34322   -34392   -34181   -33874   -33717   -33590   -33464   -33393 
  -33401   -33466   -33482   -33595   -33981   -34218   -34170   -34364 
  -34652   -34638   -34599   -34566   -34387   -34162   -33862   -33644 
  -33581   -33360   -33085   -33015   -33016   -32994   -32882   -32607 
  -32373   -32232   -31952   -31638   -31492   -31326   -31132   -31047 
  -30977   -30922   -30867   -30810   -30965   -31198   -31328   -31552 
  -31696   -31571   -31561   -31709   -31663   -31469   -31367   -31436 
  -31467   -31200   -30912   -30908   -30969   -30909   -30782   -30688 
  -30611   -30499   -30494   -30554   -30479   -30429   -30490   -30382 
  -30214   -30362   -30678   -30764   -30573   -30443   -30571   -30668 
  -30651   -30772   -30968   -31088   -31217   -31443   -31714   -31957 
  -32209   -32415   -32457   -32509   -32821   -33226   -33287   -33091 
  -33160   -33335   -33240   -33190   -33387   -33619   -33674   -33477 
  -33329   -33426   -33449   -33272   -33124   -33001   -32822   -32710 
  -32606   -32455   -32353   -32161   -31967   -32011   -32061   -32023 
  -32012   -31931   -31887   -32031   -32184   -32257   -32248   -32104 
  -32104   -32382   -32414   -32193   -32168   -32116   -31991   -32030 
  -32030   -31897   -31769   -31774   -31894   -31981   -32166   -32533 
  -32890   -33240   -33737   -34336   -34773   -34971   -35254   -35632 
  -35836   -36048   -36182   -35945   -35814   -35917   -35833   -35710 
  -35642   -35501   -35401   -35239   -34918   -34658   -34524   -34404 
  -34236   -33990   -33770   -33671   -33567   -33411   -33263   -33095 
  -32981   -32956   -32888   -32877   -33065   -33195   -33094   -32999 
  -33038   -33117   -33234   -33488   -33826   -34025   -34113   -34299 
  -34465   -34452   -34445   -34554   -34683   -34772   -34767   -34754 
  -34876   -35024   -35185   -35482   -35704   -35641   -35486   -35433 
  -35403   -35276   -35150   -35232   -35447   -35458   -35156   -34885 
  -34835   -34720   -34449   -34202   -33896   -33442   -33034   -32887 
  -32934   -32871   -32556   -32059   -31450   -30935   -30663   -30511 
  -30370   -30188   -29979   -29867   -29830   -29824   -30015   -30453 
  -30880   -31212   -31582   -31926   -32295   -32805   -33254   -33641 
  -34038   -34293   -34535   -34863   -35065   -35142   -35320   -35665 
  -35926   -35896   -35834   -35911   -35878   -35799   -35920   -36073 
  -36069   -35898   -35619   -35409   -35243   -35114   -35173   -35163 
  -34924   -34790   -34791   -34697   -34559   -34505   -34527   -34571 
  -34597   -34552   -34436   -34315   -34188   -34052   -33940   -33736 
  -33454   -33308   -33265   -33180   -33021   -32745   -32413   -32076 
  -31763   -31558   -31487   -31674   -32070   -32372   -32595   -32915 
  -33322   -33804   -34330   -34839   -35355   -35873   -36242   -36424 
  -36678   -37130   -37527   -37747   -37941   -38135   -38226   -38138 
  -37879   -37594   -37363   -37133   -36823   -36361   -35909   -35733 
  -35652   -35284   -34714   -34245   -33926   -33600   -33144   -32704 
  -32481   -32413   -32401   -32396   -32360   -32329   -32273   -32106 
  -32038   -32288   -32616   -32793   -32845   -32807   -32857   -32985 
  -32951   -32839   -32760   -32631   -32538   -32557   -32583   -32549 
  -32470   -32475   -32628   -32719   -32731   -32969   -33459   -33946 
  -34340   -34761   -35231   -35579   -35824   -36193   -36650   -36931 
  -37032   -37172   -37346   -37402   -37359   -37357   -37446   -37475 
  -37399   -37353   -37307   -37292   -37358   -37330   -37255   -37255 
  -37261   -37251   -37167   -37030   -36955   -36766   -36299   -35772 
  -35321   -34828   -34319   -33906   -33515   -33116   -32844   -32725 
  -32705   -32803   -32958   -33139   -33336   -33463   -33597   -33855 
  -34163   -34419   -34569   -34695   -34913   -35165   -35437   -35678 
  -35738   -35758   -35848   -35760   -35456   -35184   -35014   -34834 
  -34566   -34277   -34047   -33822   -33654   -33677   -33712   -33590 
  -33490   -33524   -33589   -33613   -33649   -33775   -33907   -33989 
  -34166   -34456   -34650   -34737   -34923   -35185   -35334   -35396 
  -35499   -35599   -35583   -35474   -35409   -35439   -35506   -35561 
  -35602   -35630   -35588   -35380   -35035   -34748   -34689   -34762 
  -34678   -34487   -34462   -34524   -34506   -34470   -34414   -34310 
  -34239   -34253   -34353   -34480   -34594   -34755   -34921   -34992 
  -35071   -35214   -35295   -35371   -35514   -35586   -35606   -35684 
  -35785   -35922   -36122   -36290   -36365   -36390   -36410   -36415 
  -36380   -36399   -36527   -36608   -36543   -36392   -36240   -36095 
  -35900   -35648   -35369   -35104   -34914   -34804   -34712   -34601 
  -34473   -34323   -34152   -34040   -34035   -34058   -34068   -34094 
  -34172   -34345   -34523   -34572   -34531   -34456   -34333   -34189 
  -34020   -33863   -33820   -33826   -33775   -33687   -33583   -33512 
  -33542   -33625   -33618   -33498   -33355   -33220   -33113   -33065 
  -33060   -33053   -33043   -33095   -33144   -33047   -32924   -32934 
  -32949   -32910   -32969   -33166   -33406   -33604   -33792   -34096 
  -34483   -34805   -35063   -35313   -35584   -35885   -36161   -36417 
  -36761   -37180   -37537   -37787   -38015   -38333   -38704   -38938 
  -38995   -39044   -39172   -39310   -39396   -39473   -39599   -39744 
  -39859   -39911   -39836   -39684   -39595   -39551   -39474   -39352 
  -39182   -39013   -38906   -38773   -38548   -38333   -38138   -37874 
  -37520   -37064   -36561   -36074   -35546   -35026   -34643   -34369 
  -34171   -34047   -33944   -33884   -33858   -33813   -33797   -33814 
  -33848   -34042   -34466   -34988   -35453   -35782   -36025   -36246 
  -36378   -36417   -36476   -36539   -36564   -36678   -36839   -36827 
  -36728   -36727   -36737   -36636   -36494   -36441   -36416   -36304 
  -36191   -36098   -35928   -35719   -35532   -35305   -35009   -34746 
  -34591   -34464   -34302   -34138   -33945   -33710   -33470   -33245 
  -33067   -32872   -32633   -32448   -32268   -32021   -31777   -31524 
  -31228   -30964   -30785   -30677   -30636   -30636   -30629   -30697 
  -30898   -31118   -31290   -31492   -31798   -32145   -32435   -32730 
  -33106   -33490   -33794   -34029   -34233   -34441   -34697   -34973 
  -35184   -35314   -35430   -35552   -35605   -35570   -35531   -35532 
  -35544   -35545   -35563   -35542   -35367   -35078   -34793   -34570 
  -34422   -34266   -34053   -33872   -33728   -33484   -33154   -32847 
  -32559   -32240   -31882   -31550   -31271   -30956   -30625   -30393 
  -30178   -29924   -29737   -29547   -29279   -29134   -29202   -29334 
  -29461   -29602   -29750   -29851   -29881   -29896   -29911   -29914 
  -29966   -30072   -30146   -30174   -30211   -30266   -30353   -30540 
  -30826   -31099   -31308   -31525   -31776   -32044   -32406   -32891 
  -33411   -33938   -34462   -34900   -35213   -35462   -35685   -35877 
  -36075   -36264   -36365   -36407   -36470   -36494   -36433   -36357 
  -36298   -36203   -36012   -35766   -35536   -35312   -35112   -34961 
  -34819   -34692   -34605   -34578   -34657   -34813   -35001   -35230 
  -35445   -35573   -35654   -35765   -35922   -36073   -36161   -36217 
  -36270   -36253   -36168   -36063   -35926   -35791   -35710   -35676 
  -35675   -35655   -35608   -35603   -35599   -35521   -35457   -35467 
  -35511   -35620   -35769   -35817   -35740   -35630   -35548   -35516 
  -35501   -35463   -35398   -35237   -34903   -34456   -34013   -33637 
  -33295   -32902   -32486   -32115   -31769   -31475   -31258   -30977 
  -30542   -30084   -29734   -29500   -29343   -29203   -29075   -29004 
  -28912   -28729   -28530   -28324   -28117   -27966   -27784   -27520 
  -27267   -27055   -26822   -26567   -26336   -26088   -25768   -25460 
  -25253   -25125   -25004   -24921   -24953   -25078   -25257   -25497 
  -25775   -26036   -26267   -26505   -26739   -27016   -27435   -27886 
  -28254   -28640   -29066   -29414   -29697   -30003   -30341   -30671 
  -30897   -30988   -31046   -31112   -31127   -31061   -30953   -30877 
  -30850   -30848   -30880   -30967   -31111   -31290   -31510   -31802 
  -32172   -32584   -32946   -33236   -33523   -33821   -34084   -34248 
  -34337   -34399   -34410   -34424   -34448   -34399   -34310   -34229 
  -34164   -34163   -34221   -34280   -34346   -34438   -34530   -34652 
  -34864   -35146   -35478   -35860   -36245   -36571   -36854   -37141 
  -37404   -37586   -37704   -37798   -37828   -37804   -37799   -37787 
  -37779   -37809   -37775   -37609   -37334   -36999   -36689   -36437 
  -36181   -35885   -35591   -35340   -35117   -34886   -34647   -34422 
  -34221   -34055   -33897   -33751   -33672   -33666   -33745   -33922 
  -34094   -34207   -34334   -34494   -34640   -34769   -34859   -34878 
  -34833   -34767   -34756   -34819   -34928   -35064   -35178   -35254 
  -35338   -35442   -35545   -35621   -35658   -35683   -35740   -35804 
  -35825   -35818   -35793   -35755   -35728   -35716   -35687   -35625 
  -35543   -35441   -35326   -35186   -34985   -34736   -34504   -34330 
  -34194   -34134   -34174   -34179   -34116   -34118   -34205   -34345 
  -34544   -34806   -35149   -35536   -35898   -36216   -36466   -36658 
  -36792   -36830   -36843   -36913   -36962   -36954   -36949   -36907 
  -36786   -36582   -36276   -35934   -35611   -35295   -35005   -34745 
  -34483   -34209   -33953   -33770   -33672   -33613   -33599   -33647 
  -33702   -33741   -33757   -33739   -33727   -33712   -33662   -33579 
  -33432   -33206   -32924   -32621   -32353   -32156   -32019   -31902 
  -31755   -31580   -31442   -31372   -31361   -31396   -31440   -31478 
  -31535   -31614   -31699   -31780   -31897   -32069   -32246   -32424 
  -32612   -32740   -32781   -32773   -32725   -32618   -32456   -32274 
  -32101   -31934   -31791   -31666   -31499   -31315   -31161   -30996 
  -30850   -30796   -30765   -30717   -30750   -30861   -30930   -30938 
  -30952   -30969   -30971   -31002   -31133   -31332   -31454   -31464 
  -31469   -31502   -31498   -31390   -31200   -31014   -30845   -30684 
  -30601   -30596   -30580   -30607   -30752   -30952   -31204   -31570 
  -31990   -32388   -32818   -33287   -33733   -34172   -34623   -35029 
  -35309   -35420   -35368   -35204   -35027   -34835   -34519   -34105 
  -33713   -33355   -33005   -32687   -32403   -32119   -31856   -31637 
  -31466   -31346   -31264   -31202   -31141   -31120   -31194   -31309 
  -31370   -31340   -31264   -31196   -31098   -30944   -30786   -30653 
  -30553   -30511   -30554   -30688   -30868   -31043   -31198   -31313 
  -31380   -31411   -31391   -31323   -31232   -31166   -31165   -31186 
  -31227   -31327   -31440   -31583   -31849   -32213   -32614   -33056 
  -33497   -33898   -34298   -34692   -35005   -35200   -35346   -35515 
  -35672   -35795   -35939   -36088   -36111   -36006   -35947   -35985 
  -36026   -36064   -36188   -36412   -36603   -36647   -36573   -36457 
  -36366   -36282   -36174   -36092   -35983   -35776   -35595   -35459 
  -35249   -35043   -34945   -34875   -34784   -34728   -34661   -34474 
  -34216   -33995   -33765   -33428   -33018   -32598   -32140   -31629 
  -31093   -30569   -30139   -29819   -29527   -29252   -29008   -28794 
  -28655   -28578   -28480   -28381   -28321   -28257   -28135   -27963 
  -27786   -27587   -27306   -26997   -26748   -26534   -26328   -26165 
  -26064   -26035   -26053   -26036   -25989   -25963   -25925   -25884 
  -25902   -25941   -25955   -25988   -26083   -26286   -26598   -26975 
  -27433   -27948   -28479   -29045   -29601   -30120   -30683   -31294 
  -31894   -32505   -33182   -33905   -34620   -35329   -36048   -36785 
  -37532   -38222   -38799   -39308   -39752   -40048   -40212   -40346 
  -40506   -40676   -40771   -40791   -40836   -40928   -41027   -41132 
  -41272   -41456   -41620   -41741   -41858   -41908   -41862   -41859 
  -41923   -41935   -41934   -41998   -42068   -42129   -42173   -42145 
  -42058   -41892   -41637   -41384   -41135   -40822   -40484   -40178 
  -39849   -39434   -38984   -38543   -38062   -37559   -37089   -36628 
  -36198   -35858   -35561   -35284   -35016   -34679   -34274   -33863 
  -33484   -33163   -32843   -32502   -32215   -31947   -31619   -31270 
  -30961   -30735   -30552   -30350   -30181   -30113   -30099   -30078 
  -30083   -30153   -30244   -30326   -30443   -30623   -30824   -31008 
  -31223   -31498   -31749   -31957   -32230   -32558   -32832   -33062 
  -33344   -33697   -34032   -34291   -34516   -34704   -34798   -34846 
  -34938   -35078   -35243   -35388   -35459   -35496   -35533   -35514 
  -35431   -35321   -35192   -35025   -34802   -34578   -34417   -34287 
  -34180   -34144   -34130   -34096   -34099   -34149   -34169   -34102 
  -33985   -33916   -33903   -33867   -33787   -33685   -33577   -33474 
  -33340   -33171   -33049   -32962   -32812   -32588   -32311   -32010 
  -31779   -31610   -31390   -31071   -30704   -30417   -30253   -30109 
  -29970   -29902   -29867   -29795   -29691   -29618   -29688   -29896 
  -30045   -30075   -30144   -30294   -30449   -30580   -30668   -30706 
  -30775   -30885   -30875   -30721   -30600   -30579   -30542   -30373 
  -30136   -29979   -29917   -29888   -29854   -29832   -29876   -29942 
  -29960   -29977   -30079   -30288   -30586   -30949   -31354   -31795 
  -32243   -32664   -33044   -33394   -33723   -33969   -34117   -34234 
  -34317   -34327   -34258   -34110   -33931   -33774   -33588   -33310 
  -33028   -32824   -32598   -32303   -32104   -32057   -32007   -31932 
  -31984   -32172   -32404   -32642   -32866   -33073   -33257   -33444 
