Origin Time       2011/03/11 14:46:00
Lat.              38.103
Long.             142.860
Depth. (km)       24
Mag.              9.0
Station Code      AIC016
Station Lat.      34.7784
Station Long.     136.9082
Station Height(m) 4
Record Time       2011/03/11 14:49:22
Sampling Freq(Hz) 100Hz
Duration Time(s)  170
Dir.              N-S
Scale Factor      3920(gal)/6182761
Max. Acc. (gal)   11.026
Last Correction   2011/03/11 14:49:07
Memo.             
[...]
  -25617   -25834   -26056   -26311   -26632   -27008   -27343   -27610 
  -27948   -28327   -28657   -29069   -29531   -29880   -30213   -30531 
  -30711   -30815   -30878   -30855   -30799   -30783   -30786   -30728 
  -30619   -30532   -30422   -30248   -30095   -30011   -29919   -29782 
  -29692   -29662   -29594   -29453   -29289   -29127   -28948   -28775 
  -28637   -28478   -28279   -28112   -27976   -27832   -27680   -27483 
  -27247   -26955   -26568   -26193   -25895   -25599   -25334   -25158 
  -25017   -24874   -24768   -24692   -24575   -24406   -24207   -23973 
  -23759   -23653   -23654   -23651   -23608   -23598   -23643   -23780 
  -23999   -24164   -24304   -24568   -24893   -25157   -25407   -25708 
  -26023   -26303   -26582   -26862   -27075   -27287   -27591   -27953 
  -28453   -29181   -29962   -30693   -31489   -32248   -32770   -33134 
  -33468   -33763   -34094   -34536   -35034   -35605   -36249   -36831 
  -37373   -37916   -38298   -38495   -38574   -38508   -38451   -38469 
  -38308   -37974   -37668   -37292   -36810   -36387   -35965   -35509 
  -35187   -34893   -34474   -34125   -33840   -33348   -32715   -32132 
  -31541   -30970   -30590   -30366   -30195   -30099   -30056   -30076 
  -30155   -30148   -30058   -30002   -30026   -30204   -30444   -30638 
  -30938   -31294   -31533   -31837   -32283   -32676   -33032   -33425 
  -33787   -34115   -34358   -34519   -34857   -35282   -35387   -35274 
  -35165   -34941   -34637   -34330   -33858   -33205   -32480   -31699 
  -30998   -30450   -29895   -29361   -28923   -28439   -27970   -27715 
  -27691   -27921   -28379   -28865   -29321   -29862   -30524   -31277 
  -32087   -32878   -33563   -34112   -34529   -34840   -35069   -35148 
  -35017   -34729   -34283   -33629   -32849   -32026   -31097   -30075 
  -29085   -28119   -27178   -26394   -25759   -25205   -24772   -24389 
  -23987   -23651   -23364   -23105   -22989   -23000   -23127   -23546 
  -24268   -25094   -25985   -26977   -27949   -28791   -29497   -30060 
  -30508   -30888   -31195   -31473   -31780   -32092   -32366   -32537 
  -32530   -32372   -32151   -31896   -31584   -31182   -30727   -30322 
  -29999   -29697   -29434   -29244   -29042   -28833   -28781   -28947 
  -29228   -29498   -29700   -29873   -30047   -30233   -30501   -30871 
  -31302   -31769   -32183   -32476   -32656   -32684   -32519   -32266 
  -32056   -31890   -31692   -31398   -30976   -30428   -29809   -29193 
  -28588   -27986   -27454   -27021   -26669   -26415   -26256   -26175 
  -26175   -26211   -26211   -26180   -26176   -26237   -26398   -26721 
  -27221   -27860   -28636   -29537   -30489   -31430   -32318   -33087 
  -33735   -34328   -34859   -35261   -35556   -35779   -35918   -36042 
  -36238   -36473   -36712   -36949   -37137   -37255   -37398   -37614 
  -37806   -37910   -37981   -38000   -37924   -37791   -37585   -37325 
  -37133   -37034   -36959   -36861   -36739   -36612   -36452   -36214 
  -35912   -35606   -35323   -35051   -34791   -34478   -34072   -33692 
  -33350   -32943   -32505   -32064   -31553   -31015   -30526   -30053 
  -29599   -29196   -28777   -28316   -27895   -27546   -27281   -27126 
  -27031   -26993   -27075   -27214   -27306   -27358   -27379   -27342 
  -27292   -27272   -27242   -27186   -27130   -27129   -27184   -27203 
  -27214   -27281   -27306   -27298   -27372   -27423   -27370   -27337 
  -27284   -27120   -26938   -26738   -26488   -26291   -26140   -25948 
  -25755   -25616   -25512   -25441   -25367   -25226   -25072   -24934 
  -24757   -24547   -24302   -24000   -23649   -23261   -22920   -22697 
  -22510   -22334   -22198   -22031   -21848   -21714   -21611   -21563 
  -21616   -21788   -22086   -22469   -22914   -23395   -23852   -24286 
  -24700   -25092   -25532   -26023   -26492   -26896   -27207   -27386 
  -27455   -27507   -27569   -27609   -27626   -27631   -27615   -27569 
  -27537   -27575   -27660   -27757   -27847   -27909   -27915   -27863 
  -27781   -27674   -27577   -27520   -27471   -27430   -27407   -27392 
  -27431   -27543   -27706   -27913   -28120   -28321   -28543   -28766 
  -28976   -29116   -29133   -29049   -28858   -28621   -28368   -28006 
  -27634   -27326   -26971   -26577   -26168   -25744   -25370   -25067 
  -24792   -24522   -24334   -24270   -24281   -24374   -24555   -24815 
  -25145   -25527   -26005   -26541   -27071   -27634   -28251   -28881 
  -29500   -30141   -30779   -31356   -31899   -32377   -32757   -33132 
  -33517   -33832   -34068   -34230   -34260   -34147   -33908   -33535 
  -33071   -32562   -32020   -31457   -30878   -30302   -29779   -29339 
  -28979   -28718   -28526   -28338   -28143   -27950   -27744   -27540 
  -27381   -27273   -27216   -27241   -27343   -27492   -27704   -28014 
  -28397   -28840   -29392   -30008   -30618   -31253   -31899   -32510 
  -33131   -33752   -34302   -34811   -35304   -35722   -36036   -36254 
  -36375   -36371   -36237   -36041   -35833   -35574   -35215   -34787 
  -34354   -33966   -33617   -33273   -32935   -32603   -32232   -31821 
  -31404   -30980   -30552   -30203   -29969   -29764   -29529   -29287 
  -29071   -28908   -28798   -28715   -28678   -28706   -28762   -28837 
  -28939   -28983   -28949   -28928   -28912   -28832   -28714   -28590 
  -28438   -28288   -28217   -28215   -28217   -28232   -28261   -28279 
  -28312   -28350   -28394   -28507   -28626   -28668   -28708   -28754 
  -28691   -28505   -28218   -27823   -27382   -26907   -26407   -26014 
  -25710   -25364   -25077   -24931   -24819   -24756   -24822   -24957 
  -25112   -25291   -25487   -25736   -26029   -26306   -26600   -26927 
  -27274   -27732   -28315   -28886   -29428   -30006   -30605   -31253 
  -31947   -32538   -33033   -33536   -33997   -34462   -34977   -35351 
  -35590   -35860   -36045   -36087   -36120   -36077   -35908   -35716 
  -35428   -35010   -34587   -34152   -33663   -33137   -32495   -31794 
  -31155   -30402   -29475   -28555   -27594   -26554   -25575   -24627 
  -23706   -22945   -22343   -21928   -21730   -21561   -21440   -21545 
  -21769   -22103   -22665   -23320   -24006   -24790   -25569   -26346 
  -27203   -27978   -28629   -29239   -29665   -29896   -30083   -30198 
  -30300   -30472   -30579   -30674   -30854   -30935   -30926   -30998 
  -31022   -30919   -30803   -30603   -30274   -29928   -29580   -29240 
  -28957   -28676   -28367   -28113   -27941   -27790   -27632   -27526 
  -27537   -27596   -27644   -27783   -28009   -28241   -28536   -28890 
  -29230   -29591   -29961   -30272   -30553   -30831   -31084   -31312 
  -31508   -31659   -31777   -31869   -31935   -31970   -31971   -31923 
  -31819   -31685   -31527   -31341   -31139   -30906   -30693   -30547 
  -30385   -30222   -30142   -30050   -29909   -29816   -29718   -29574 
  -29485   -29454   -29377   -29301   -29308   -29284   -29190   -29123 
  -29039   -28924   -28840   -28762   -28758   -28879   -29009   -29148 
  -29359   -29600   -29824   -30034   -30312   -30676   -31049   -31491 
  -32059   -32677   -33308   -33937   -34568   -35210   -35818   -36395 
  -36948   -37413   -37757   -37969   -38062   -38069   -37951   -37675 
  -37327   -36935   -36470   -35996   -35529   -34996   -34415   -33860 
  -33292   -32653   -31979   -31264   -30510   -29805   -29156   -28570 
  -28105   -27716   -27368   -27085   -26824   -26531   -26187   -25829 
  -25554   -25394   -25302   -25307   -25501   -25882   -26387   -26992 
  -27667   -28370   -29097   -29825   -30550   -31295   -32004   -32630 
  -33209   -33738   -34192   -34554   -34816   -35037   -35266   -35432 
  -35419   -35255   -35053   -34783   -34330   -33680   -32905   -32052 
  -31128   -30180   -29228   -28217   -27130   -26010   -24918   -23892 
  -22940   -22064   -21336   -20824   -20473   -20268   -20290   -20515 
  -20865   -21372   -22141   -23088   -23948   -24755   -25694   -26608 
  -27352   -27981   -28486   -28897   -29276   -29539   -29661   -29762 
  -29888   -30033   -30234   -30459   -30665   -30894   -31129   -31317 
  -31448   -31491   -31444   -31375   -31251   -31038   -30843   -30696 
  -30534   -30366   -30156   -29866   -29592   -29356   -29081   -28816 
  -28578   -28273   -27956   -27692   -27383   -27062   -26777   -26347 
  -25762   -25165   -24471   -23713   -23041   -22315   -21513   -20782 
  -20000   -19174   -18459   -17667   -16759   -15974   -15229   -14514 
  -14031   -13674   -13489   -13688   -14004   -14361   -15093   -16062 
  -17035   -18052   -19015   -20076   -21403   -22673   -23881   -25221 
  -26521   -27841   -29289   -30631   -31874   -33120   -34213   -35155 
  -36091   -36964   -37641   -38085   -38330   -38480   -38576   -38509 
  -38308   -38089   -37766   -37328   -36967   -36675   -36361   -36135 
  -35935   -35659   -35430   -35182   -34884   -34662   -34392   -34111 
  -33994   -33936   -33917   -33998   -34181   -34497   -34788   -34985 
  -35169   -35253   -35215   -35079   -34816   -34474   -34059   -33626 
  -33214   -32750   -32247   -31686   -31086   -30593   -30172   -29755 
  -29406   -29180   -29077   -29000   -28948   -29039   -29202   -29369 
  -29584   -29807   -30070   -30385   -30663   -30958   -31286   -31550 
  -31811   -32126   -32471   -32856   -33263   -33730   -34222   -34586 
  -34876   -35119   -35171   -35055   -34842   -34533   -34159   -33711 
  -33155   -32461   -31617   -30685   -29703   -28700   -27753   -26871 
  -26036   -25289   -24636   -24025   -23465   -22991   -22523   -22040 
  -21710   -21551   -21443   -21399   -21408   -21446   -21617   -21963 
  -22424   -22978   -23613   -24305   -25023   -25679   -26218   -26631 
  -26893   -27038   -27127   -27149   -27122   -27080   -26946   -26684 
  -26391   -26051   -25589   -25071   -24574   -24055   -23511   -23028 
  -22621   -22265   -21967   -21732   -21590   -21592   -21707   -21913 
  -22234   -22613   -23016   -23467   -23971   -24506   -25021   -25539 
  -26096   -26610   -27026   -27402   -27765   -28132   -28582   -29093 
  -29556   -30006   -30518   -31034   -31592   -32288   -33073   -33925 
  -34839   -35708   -36487   -37216   -37864   -38387   -38765   -38941 
  -38903   -38709   -38349   -37732   -36886   -35939   -34878   -33668 
  -32397   -31056   -29596   -28057   -26504   -25038   -23697   -22460 
  -21409   -20605   -19984   -19554   -19374   -19407   -19636   -20087 
  -20730   -21541   -22517   -23637   -24846   -26075   -27297   -28499 
  -29684   -30809   -31737   -32469   -33084   -33529   -33800   -33927 
  -33851   -33621   -33270   -32632   -31688   -30579   -29366   -28144 
  -26960   -25778   -24676   -23710   -22845   -22091   -21454   -20907 
  -20469   -20116   -19751   -19431   -19268   -19171   -19090   -19187 
  -19523   -20051   -20803   -21736   -22692   -23618   -24610   -25691 
  -26746   -27741   -28759   -29884   -31130   -32401   -33701   -35098 
  -36463   -37702   -38874   -39925   -40788   -41447   -41856   -42021 
  -41920   -41583   -41191   -40749   -40162   -39550   -39021   -38436 
  -37633   -36741   -35894   -34941   -33876   -32821   -31695   -30489 
  -29284   -28069   -26894   -25804   -24745   -23715   -22754   -21813 
  -20836   -19906   -19115   -18389   -17653   -16989   -16429   -15925 
  -15550   -15397   -15373   -15381   -15514   -15869   -16365   -16852 
  -17326   -17900   -18547   -19177   -19846   -20695   -21797   -23115 
  -24520   -25922   -27350   -28874   -30480   -32031   -33375   -34494 
  -35454   -36278   -36969   -37513   -37911   -38230   -38408   -38354 
  -38139   -37811   -37351   -36762   -36013   -35188   -34381   -33494 
  -32521   -31586   -30720   -29958   -29393   -29005   -28653   -28271 
  -27955   -27766   -27681   -27738   -27926   -28224   -28736   -29403 
  -29995   -30518   -31089   -31641   -32091   -32422   -32660   -32841 
  -32914   -32842   -32619   -32226   -31771   -31307   -30761   -30168 
  -29588   -29010   -28470   -28008   -27582   -27203   -26967   -26883 
  -26958   -27246   -27659   -28125   -28666   -29208   -29736   -30339 
  -30994   -31595   -32067   -32408   -32683   -32885   -32986   -33040 
  -33060   -33026   -32964   -32871   -32722   -32544   -32391   -32246 
  -32057   -31830   -31559   -31289   -31157   -31149   -31182   -31290 
  -31464   -31675   -31913   -32113   -32272   -32385   -32441   -32496 
  -32521   -32509   -32550   -32601   -32597   -32553   -32447   -32315 
  -32240   -32144   -31879   -31470   -31028   -30551   -29986   -29335 
  -28607   -27840   -27114   -26438   -25790   -25272   -24991   -24921 
  -24987   -25114   -25262   -25459   -25688   -25894   -26058   -26166 
  -26224   -26256   -26286   -26313   -26287   -26240   -26257   -26295 
  -26257   -26123   -25979   -25962   -26083   -26251   -26427   -26561 
  -26635   -26720   -26803   -26819   -26722   -26585   -26557   -26571 
  -26524   -26497   -26453   -26289   -26016   -25700   -25469   -25333 
  -25132   -24907   -24793   -24742   -24769   -24931   -25144   -25434 
  -25906   -26523   -27290   -28191   -29097   -29951   -30731   -31431 
  -32095   -32716   -33293   -33829   -34283   -34695   -35100   -35411 
  -35591   -35646   -35496   -35145   -34695   -34128   -33438   -32710 
  -31962   -31228   -30574   -29923   -29191   -28454   -27740   -27027 
  -26357   -25736   -25171   -24725   -24437   -24369   -24557   -24894 
  -25329   -25933   -26665   -27475   -28444   -29549   -30646   -31789 
  -33185   -34774   -36292   -37667   -39004   -40354   -41641   -42794 
  -43805   -44680   -45446   -46068   -46527   -46927   -47225   -47319 
  -47305   -47265   -47165   -47022   -46871   -46691   -46548   -46519 
  -46540   -46577   -46578   -46429   -46229   -46072   -45789   -45293 
  -44708   -44142   -43628   -43103   -42462   -41755   -41062   -40324 
  -39512   -38642   -37705   -36714   -35741   -34922   -34205   -33471 
  -32830   -32375   -32034   -31704   -31364   -31091   -30836   -30478 
  -30104   -29843   -29694   -29611   -29610   -29666   -29712   -29842 
  -30098   -30339   -30511   -30626   -30730   -30878   -31007   -31132 
  -31283   -31331   -31378   -31647   -32042   -32450   -32899   -33327 
  -33744   -34217   -34654   -35011   -35329   -35596   -35798   -35933 
  -36038   -36113   -36050   -35813   -35434   -34868   -34119   -33416 
  -32881   -32216   -31308   -30494   -29851   -29217   -28567   -27914 
  -27338   -26833   -26294   -25745   -25188   -24640   -24172   -23668 
  -23090   -22633   -22337   -22163   -22180   -22187   -21990   -21927 
  -22080   -22069   -21978   -21976   -21938   -21935   -21982   -21993 
  -22083   -22260   -22382   -22429   -22477   -22556   -22570   -22465 
  -22317   -22103   -21793   -21538   -21399   -21167   -20759   -20433 
  -20311   -20246   -20196   -20235   -20437   -20747   -21035   -21407 
  -21984   -22627   -23258   -23897   -24487   -25065   -25680   -26196 
  -26644   -27114   -27401   -27516   -27693   -27823   -27807   -27762 
  -27700   -27617   -27523   -27430   -27375   -27308   -27179   -27009 
  -26832   -26661   -26459   -26167   -25794   -25437   -25161   -24909 
  -24652   -24437   -24257   -24103   -24015   -23918   -23771   -23736 
  -23848   -24027   -24303   -24703   -25228   -25838   -26481   -27217 
  -27990   -28682   -29337   -29965   -30515   -30967   -31338   -31661 
  -31861   -31894   -31870   -31807   -31584   -31205   -30848   -30484 
  -29908   -29173   -28394   -27475   -26381   -25217   -23954   -22516 
  -21043   -19719   -18494   -17252   -16096   -15155   -14372   -13727 
  -13251   -12923   -12732   -12629   -12666   -12927   -13361   -13999 
  -14855   -15845   -17070   -18533   -20062   -21657   -23275   -24830 
  -26388   -27924   -29375   -30735   -31940   -32963   -33856   -34661 
  -35347   -35893   -36374   -36787   -37047   -37202   -37352   -37430 
  -37328   -37092   -36765   -36303   -35744   -35133   -34430   -33650 
  -32831   -31957   -30996   -29917   -28771   -27612   -26400   -25178 
  -24022   -22955   -22020   -21215   -20512   -19937   -19499   -19166 
  -18883   -18652   -18481   -18312   -18145   -17967   -17729   -17516 
  -17351   -17185   -17139   -17303   -17597   -17986   -18542   -19296 
  -20170   -21139   -22221   -23344   -24466   -25546   -26559   -27578 
  -28585   -29536   -30452   -31307   -32092   -32817   -33452   -33994 
  -34417   -34671   -34796   -34830   -34723   -34503   -34251   -33934 
  -33546   -33155   -32767   -32342   -31920   -31555   -31149   -30689 
  -30295   -29928   -29556   -29224   -28875   -28491   -28147   -27854 
  -27576   -27344   -27209   -27178   -27253   -27432   -27684   -27959 
  -28256   -28584   -28881   -29105   -29266   -29390   -29452   -29425 
  -29384   -29372   -29393   -29465   -29551   -29639   -29761   -29909 
  -30040   -30131   -30192   -30230   -30234   -30125   -29874   -29595 
  -29309   -28963   -28596   -28244   -27931   -27656   -27389   -27235 
  -27250   -27285   -27345   -27535   -27827   -28198   -28620   -29046 
  -29511   -30028   -30582   -31145   -31697   -32315   -32959   -33481 
  -33899   -34195   -34358   -34521   -34666   -34717   -34686   -34555 
  -34359   -34116   -33745   -33242   -32631   -31968   -31332   -30710 
  -30152   -29683   -29210   -28766   -28404   -28107   -27892   -27727 
  -27617   -27587   -27612   -27732   -27910   -28096   -28340   -28601 
  -28860   -29168   -29487   -29796   -30135   -30513   -30903   -31302 
  -31740   -32161   -32487   -32815   -33228   -33626   -33965   -34366 
  -34900   -35451   -35976   -36589   -37234   -37811   -38377   -38875 
  -39262   -39659   -40071   -40423   -40698   -40894   -41023   -41079 
  -41050   -40936   -40739   -40520   -40325   -40075   -39726   -39307 
  -38847   -38370   -37850   -37292   -36736   -36127   -35463   -34841 
  -34258   -33680   -33163   -32747   -32399   -32080   -31805   -31653 
  -31600   -31538   -31514   -31568   -31587   -31628   -31804   -31967 
  -32040   -32172   -32364   -32481   -32539   -32615   -32675   -32696 
  -32694   -32668   -32642   -32597   -32503   -32440   -32418   -32327 
  -32162   -31985   -31774   -31479   -31110   -30716   -30356   -29987 
  -29591   -29290   -29063   -28852   -28744   -28718   -28722   -28769 
  -28841   -28910   -28899   -28799   -28659   -28447   -28195   -27877 
  -27395   -26892   -26453   -25997   -25585   -25234   -24887   -24546 
  -24255   -24104   -24062   -24048   -24051   -24056   -24155   -24423 
  -24795   -25251   -25771   -26326   -26983   -27755   -28576   -29423 
  -30293   -31206   -32195   -33223   -34282   -35387   -36464   -37484 
  -38461   -39339   -40064   -40678   -41224   -41602   -41791   -41945 
  -42016   -41877   -41627   -41294   -40845   -40292   -39645   -39022 
  -38489   -37956   -37385   -36835   -36320   -35787   -35221   -34669 
  -34187   -33768   -33387   -33067   -32809   -32578   -32380   -32261 
  -32212   -32157   -32103   -32038   -31878   -31659   -31410   -31107 
  -30760   -30428   -30247   -30178   -29992   -29741   -29655   -29769 
  -30014   -30268   -30469   -30688   -30927   -31211   -31573   -31920 
  -32218   -32479   -32711   -33031   -33469   -33833   -34058   -34320 
  -34678   -35010   -35255   -35509   -35803   -36104   -36474   -36806 
  -36975   -37141   -37435   -37892   -38379   -38595   -38621   -38616 
  -38456   -38178   -37799   -37279   -36800   -36329   -35714   -35111 
