Origin Time       2011/03/11 14:46:00
Lat.              38.103
Long.             142.860
Depth. (km)       24
Mag.              9.0
Station Code      AKT011
Station Lat.      39.8133
Station Long.     140.5805
Station Height(m) 315
Record Time       2011/03/11 14:47:06
Sampling Freq(Hz) 100Hz
Duration Time(s)  300
Dir.              U-D
Scale Factor      3920(gal)/6182761
Max. Acc. (gal)   63.441
Last Correction   2011/03/11 14:46:51
Memo.             
[...]
   42436    39688    31764    24415    19801    20206    22528    20962 
   16292    12261     9745    10583    17208    25590    29334    28728 
   25889    20448    14336    10748    10474    12323    14966    17923 
   20037    19976    18097    15966    14321    10643     3375    -3799 
   -9551   -16500   -21724   -20435   -14876    -8223     -751     4501 
    5804     7857    13352    18531    20175    17885    10571     -144 
   -6985    -5037     3659    14099    21898    26340    28307    25601 
   16630     4079    -7604   -13795   -11886    -3594     7120    16948 
   23388    25287    25682    28336    31084    30886    28908    25328 
   19735    15891    16651    18150    17670    19804    25109    26337 
   22353    17935    12706     7925    10911    19916    26149    30127 
   32633    27639    17431     9936     5736     4402     7818    14022 
   19523    21704    17687     6968    -6904   -18744   -25717   -28228 
  -28224   -28711   -30121   -28091   -20485   -10369     -235     7839 
   11475    12166    10821     4554    -5182   -12108   -12762    -7822 
     400    10393    20057    24566    23779    24266    28128    31774 
   33226    32674    30958    27921    23538    20915    21542    24111 
   30842    42477    50071    42640    19973    -7206   -27102   -32708 
  -22946    -4764    10164    15048    11311     3201    -4782    -8346 
   -7460    -4967    -1218     4378     9637    11150     8123     3136 
     224     2145     7663    11915    10612     3381    -7108   -15712 
  -14782       62    23650    44274    52739    47717    34265    21152 
   16635    19943    24015    26365    25022    17252     8217     3229 
     325     -791     2160     7865    14027    18537    16749     6496 
   -7443   -18033   -19736   -10600     3478    13553    15295     6770 
   -8385   -18371   -15819    -2134    19556    42239    54205    50822 
   38362    23792    13554    16456    33042    53111    67503    68589 
   51633    25308     3662    -7193    -6636     1272     8785    10673 
    4851    -6834   -16500   -15212    -1738    15284    25719    25618 
   16501     3820    -4201    -2558     6750    18558    27502    28985 
   23431    16260    12203    13386    18951    25990    32177    33602 
   26782    14752     3087    -4444    -3834     5386    15447    17752 
   11109    -2092   -17559   -25964   -21624    -8764     7004    20427 
   25687    24807    24540    27075    33797    44914    53596    53452 
   46439    38272    32960    31875    33436    33938    30678    23132 
   11418    -3217   -17740   -28640   -32251   -25963   -11904     3444 
   13573    14478     9843    10932    22209    37732    50695    53614 
   42471    24450     8547    -3581   -12962   -19119   -20220   -13955 
     251    19410    37516    47986    48211    42399    36357    31897 
   29766    30973    32421    29109    21106    11097     -943   -13827 
  -23596   -28534   -28854   -24516   -17076    -9662    -4207     -107 
    5145    13729    24891    34172    36617    31266    20596     9092 
    4401    11976    27101    40171    46893    45444    33815    17179 
    5871     4102     8187    13468    17524    17961    13718     6995 
       6    -4252    -1150    10280    27261    44519    53091    47234 
   29715     7966    -8002   -10290    -1615     8329    13324    11861 
    5577      236      591     5146    10522    14801    15726    11894 
    4606    -4463   -14337   -21057   -19447   -10506      518    10844 
   18858    21514    18528    14546    13187    13799    13348     7544 
   -4295   -15750   -20507   -17565    -7430     8031    23115    33270 
   39763    44677    45995    40723    28416    12144    -2112    -9387 
   -8384    -2124     3204     4087     2055      -53     -339     1812 
    7311    16452    24546    27399    26894    23008    13387     2359 
   -2658     -192     6650    14745    19172    14971     4711    -3785 
   -5434      800    12005    21795    24560    18132     4511    -8792 
  -13374    -8175     3044    18114    32726    40341    40531    37221 
   31949    26648    24443    23298    17693     7066    -3840   -10219 
   -8544     1968    16944    29897    35420    31116    21151    13618 
   12330    14381    17392    22097    24463    19832    12504     7665 
    5307     5549     7872     7723      968    -9147   -15565   -16461 
  -13162    -6665     -922     1091     2155     5651    12865    23108 
   31605    33921    30549    24071    17671    14003    12742    13008 
   16800    25581    34558    36978    32161    23370    15034    13221 
   19487    27894    31101    24753    10139    -4761   -11035    -6637 
    2670    10057    11469     5012    -5516   -13028   -16179   -16281 
  -12790    -7969    -5097    -3974    -3372    -2763    -1159     2239 
    5720     7457     9445    12583    13747    12415    12157    16815 
   28159    42403    52688    56464    53656    43273    28155    14267 
    4478     -785     -716     5651    16548    26413    31448    31587 
   28240    25793    27534    29827    27987    21667    11987     1790 
   -3855    -3196     1789    10996    24626    38263    45699    43099 
   29604     9913    -7067   -15094   -12513    -2644     6221     8082 
    3485    -5238   -14466   -17684   -13640    -8038    -2287     5483 
   12233    15565    17985    20432    22286    26587    34704    41679 
   44066    43178    38932    30500    21747    16761    14371    14202 
   17704    22080    24226    24519    23568    22615    23068    22518 
   17740    10575     4576     1138     2653     9923    17043    18759 
   17030    14413    10293     3964    -5012   -15812   -24747   -26599 
  -17610      437    20382    34831    39443    34841    27704    24930 
   26696    29729    31486    29018    21549    12383     5657     4354 
    9561    19013    27160    29083    23778    12524    -1541   -13027 
  -18165   -16661   -10650    -3822     1587     5054     6834     9798 
   15123    19315    20657    20184    18305    16343    16489    19454 
   23728    27214    29406    30007    28081    23412    16458     8982 
    3594      643    -1285    -2215    -2475    -4390    -9099   -16636 
  -26526   -34540   -35786   -30186   -21377   -14673   -13525   -15263 
  -13656    -4558     9980    22128    24556    16449     5347     -457 
   -1316     -688     1587     4869     7274    10385    16371    22477 
   24999    24259    20671    14005     8178     7713    11846    18449 
   26686    33431    34821    30859    25464    22279    21966    24489 
   29402    34752    38346    37480    30954    20715     9559     1829 
     297      602    -2750    -8836   -12514    -9962    -2096     5819 
    7665     1054   -10854   -22204   -27030   -22904   -14875    -8891 
   -4257     1172     6626    11349    14452    13987    10791     9619 
   12853    16227    13948     5664    -3538    -7785    -4157     6069 
   17095    21420    17815    12123     8597     8631    13648    21834 
   28653    31432    28619    19711     7812    -2580    -8421    -8316 
   -4208      220     3702     6365     8305     9533     9175     8188 
    9469    12858    16322    19566    21846    22113    22330    25053 
   28898    30124    27225    21054    11824     -142   -12914   -25468 
  -36162   -39215   -30324   -11433    11862    30836    37397    32343 
   22744    14194    10770    12949    15750    16714    18127    21681 
   27409    32119    31626    26904    21003    14785     9840     7952 
    7355     5693     4301     5076     7131     9231    10986    10701 
    6648     -378    -8742   -16788   -21728   -22244   -20456   -18384 
  -15869   -12712    -8388    -2350     4446    12807    24212    36210 
   45326    49288    46120    37033    27630    23283    24769    28571 
   29404    23593    13654     6854     6390     9702    13862    16168 
   15803    15975    17235    15619     9982     2230    -5132    -8057 
   -4300     4599    15562    25231    31333    31994    25393    13601 
    3103     -837     1860     8611    15920    18905    16852    15071 
   16033    17190    17564    17804    17066    15020    12564     9901 
    7631     6812     7466     9919    13509    14975    12012     6003 
    1539     1073     1637     1347      804     -584    -1281     1405 
    5103     5817     4501     3194     1496     1246     4183     7174 
    7758     5143    -1849    -8520    -7438     1087    12571    23763 
   29942    28476    24495    24181    26556    29222    33395    37696 
   40003    43064    46568    45685    41132    36755    32549    27781 
   22206    13064    -1555   -16808   -23961   -19112    -6380     6411 
   13200    12136     5974     -847    -5941    -7944    -6763    -4765 
   -2940     -484     2128     5167     9715    14392    17805    19928 
   19768    17686    15748    13521     9859     6587     4752     2219 
    -470     1457     9123    18098    24917    27424    23339    15150 
    9160     8417    11597    14511    12822     7623     2995      -96 
   -1646    -1569    -2566    -8050   -16270   -19590   -13596    -2465 
    7840    14105    15563    15572    18997    26014    31101    29498 
   23525    17129    10592     6900    10524    18952    26382    30442 
   31163    28371    21752    14542    12368    16294    23669    31992 
   37095    34918    26805    17313     9190     4750     7336    17044 
   27708    31559    25872    14469     5042     3656    10293    19866 
   25570    24076    19009    14108     8972     5132     4012     1497 
   -4204    -7620    -6469    -6051    -8553   -10328   -10373    -9411 
   -5677     -720      422    -1892    -3466    -2358     2981    13054 
   23651    28142    23528    13892     5930     2875     4627     8479 
   10621    10551    11594    16515    24197    31313    35463    34802 
   29033    22938    21672    22803    21930    20086    18515    16847 
   17433    21561    25214    24658    20965    16100    10686     6245 
    4543     6086    11101    19176    27330    31572    30978    27224 
   22414    19700    21176    25530    28921    25703    13375    -2922 
  -15591   -19797   -13558      795    15837    22941    19943    14191 
   13219    17719    25499    32707    34482    29811    21662    13928 
    9827    10510    14685    19616    22799    23525    22264    18138 
    9634    -1287    -9509   -12224   -10665    -6177      403     6361 
   10359    13778    16382    17884    19409    18729    12369     1708 
   -9335   -17659   -19776   -13631    -1676    11510    22706    28923 
   28056    24162    23728    25958    26465    25834    26118    26042 
   24618    23373    23528    24526    25281    25389    25221    25524 
   25588    23071    17358     9808     2886     1017     5991    13059 
   17822    20985    22991    23197    22870    22434    19866    12574 
     415   -11557   -17730   -17826   -14044    -9341    -7885   -10734 
  -15653   -20658   -23295   -19914    -9829     2780    14624    24733 
   31077    34102    38290    45657    54578    62921    65889    58414 
   42028    23542    10330     6367     9471    14437    16738    13019 
    3028    -9210   -18862   -23913   -24397   -22249   -22245   -26286 
  -30957   -34209   -35628   -32947   -25633   -17216   -11323    -9092 
   -9502    -8242      523    17636    38362    57301    68494    67236 
   56490    44321    34950    28443    24793    22443    19365    17100 
   17220    18636    21121    24402    26219    26246    26460    26722 
   26182    26927    30300    34065    37185    39542    38414    32804 
   25123    16724     7570    -1564    -9120   -14312   -18412   -22512 
  -24936   -24460   -22584   -19967   -14588    -5135     5899    15073 
   21913    27050    30769    34872    41301    49457    56980    61425 
   60040    51273    38340    26458    18060    14500    16251    20739 
   24843    27383    27821    25381    19567    10025    -2596   -15432 
  -24616   -27898   -25528   -18284    -8572    -1561      719     -247 
   -3610    -7414   -10105   -11793   -11620    -9385    -5270      590 
    5626     8975    13754    21004    28482    33701    34480    31279 
   27549    25408    25695    29705    36643    42964    44598    39842 
   31339    22749    15886    11883     9432     5569     1512      188 
     594     2281     7572    15069    19425    17660    10385     -754 
  -12728   -20810   -22489   -19017   -12264    -5141    -2514    -5771 
  -10129   -10689    -6513     2137    14174    25500    32490    36159 
   38518    38941    38679    41743    48256    55539    62077    64091 
   57985    47004    37109    31226    29804    30487    28721    22482 
   14365     6835     -581    -8054   -15672   -24007   -31328   -35143 
  -34566   -30654   -25158   -17704    -8285       69     5307     8310 
    9938    10770    13684    21085    31203    41933    51705    57946 
   61636    64251    62326    54805    46013    38564    32106    27180 
   23336    15919     3233    -9632   -20051   -28519   -32097   -29260 
  -24236   -20055   -15455   -11538   -11014   -11392   -10193    -8839 
   -5795     1286     9375    15659    22017    29647    36806    42285 
   45151    43921    39173    33381    27600    20248     9781    -3164 
  -16720   -28058   -34007   -32625   -24897   -16400   -12441   -12893 
  -15877   -19519   -20624   -18045   -11635     1291    20024    38472 
   52535    60908    62653    59677    56946    57383    59244    60324 
   60078    56664    49029    39872    30875    20613     9556     1242 
   -2113    -2825    -6846   -19013   -38836   -61410   -80119   -87811 
  -80195   -59464   -33665   -13732    -6218    -6614    -5514     1581 
   15532    35713    55181    64873    64373    58692    52186    50197 
   54611    59918    59850    52814    40348    24088     6480    -6932 
  -10349    -3710     6139    12603    14708    12974     8123     5027 
    8147    13753    15585    14093    11012     4834    -2454    -7111 
   -9633   -10098    -5761     3349    13543    21617    24879    20923 
   12231     5909     5433     7875    10573    13347    13722     8300 
   -2314   -15817   -30057   -40676   -44774   -43894   -38715   -28685 
  -15890    -2816     9336    19656    27899    34120    38579    41777 
   42995    40948    36078    30862    27623    26094    25187    24987 
   24155    20343    15162    13267    15608    19021    20750    18224 
   10386     1151    -5156    -8297    -8243    -4300      404     1910 
    1736     2551     3286     3966     5981     7521     7713     8886 
   10125     8598     6293     6297     8313    11750    16138    21375 
   28164    33658    33937    29662    23360    17397    13852    12436 
   11594    10524     8487     4493     -844    -5503    -9520   -13936 
  -16975   -16610   -13902   -10263    -6082    -3585    -4421    -5354 
   -2893     2860    10852    18664    22530    20673    14082     5814 
   -1105    -5085    -4031     3417    15219    27508    36425    39367 
   36431    30607    25269    20824    16429    11420     4143    -4250 
   -9315   -10139    -9276    -7318    -4524    -2683    -1484      479 
    2399     3658     5998    11414    19754    28561    34210    34362 
   30428    26774    27237    30924    32198    28014    21690    17709 
   18792    25701    34300    37300    30642    15701    -1776   -13844 
  -15235    -6482     7697    21163    29724    33100    32198    27109 
   19246    12053     8556     8845     9987     9999     9065     6370 
    3291     5345    13769    22212    24779    20954    11834     -150 
   -7742    -6414    -2002    -1276    -3220    -5011    -7329    -9546 
   -8487    -6445    -8729   -11765    -7827     2184    12456    21527 
   28766    30721    28563    27319    25565    19819    13166     9775 
   11366    18924    29450    35945    33492    24045    14291     9265 
   11920    22684    36341    46321    48669    42606    32499    24579 
   22192    25200    30995    37273    41736    41604    37886    33991 
   29645    23102    17447    17342    21607    26572    30151    28901 
   22597    16944    15059    17273    24163    31584    33280    28688 
   21446    14675    10736    10130     9174     5582     2596     2029 
    2720     4212     3834    -1669   -10077   -16186   -17576   -16121 
  -15940   -19430   -24933   -27755   -23388   -11665     2039    11394 
   14425    13917    14131    16963    21684    26857    30377    31711 
   33037    34421    33154    28826    23491    18612    15211    13872 
   14151    15260    15825    15394    14938    13649    10820     7768 
    5418     5907    10832    16982    20667    20786    17644    13826 
   12642    15667    22171    29898    36717    39613    36394    29181 
   20706    12308     6437     3720     1313    -1796    -4291    -7191 
  -11430   -14296   -13897   -11336    -6807      428     8132    12243 
   12144    10977    11808    15225    19351    21727    20437    15596 
   11318    12579    20063    30896    42218    51117    54662    52255 
   46284    40638    37297    35372    33876    32355    31478    33039 
   37014    41867    46044    47268    44895    41185    36977    31074 
   23518    14143     2515    -8233   -14117   -14997   -12519    -8611 
   -6331    -7885   -12493   -17121   -19029   -17351   -12682    -6978 
   -3293    -3377    -6347    -9871   -11106    -8781    -3848     3160 
   10688    15457    17716    20160    22013    21674    21899    25687 
   31102    36040    41378    45674    46317    44879    42970    38887 
   32209    24864    17678    10119     2675    -3228    -7077    -8462 
   -6509    -1776     4108     9828    14383    18391    23705    29630 
   32666    31239    27128    21370    14452     9772     9978    13274 
   16826    19321    19932    17957    14225    10232     6197     4284 
    8804    18690    28370    35650    39616    37923    31797    24763 
   18221    13329     9771     3732    -5184   -11778   -13037    -8811 
    1068    12502    17606    13326     3339    -8592   -20208   -27454 
  -27848   -23066   -13436     1758    18485    30925    37351    39592 
   40740    43740    49984    58588    66247    69432    67481    62378 
   57237    54728    54284    51619    43018    29124    12612    -4849 
  -20914   -32662   -39616   -42514   -40852   -34283   -24763   -16734 
  -13755   -15552   -19669   -22149   -19438   -13800   -10304    -9002 
   -6724    -2453     2714     7566    11779    15279    18743    25595 
   37810    50903    58597    58153    50144    39316    33315    34870 
   39558    43002    42426    34995    22382     8722    -5022   -15581 
  -16731    -9289     -716     3549     1327    -6951   -14915   -14341 
   -5328     6166    17625    27977    34735    38333    41396    44209 
   44685    41413    36104    31051    25756    19436    12892     8109 
    8356    14986    25153    33172    33779    27414    19637    14823 
   14322    17801    22372    23718    20676    15318     9651     4583 
      77    -3768    -6034    -6059    -4719    -3779    -4471    -6788 
   -7880    -3881     4327    11401    13688    11136     5665     1128 
    1414     7541    18485    32813    48220    60478    65152    61909 
   53320    41030    29086    22821    21761    22263    21478    16409 
    6536    -5573   -17389   -25578   -25771   -18016    -7753     1087 
    7002     6775    -1023   -13256   -26036   -34623   -34121   -25042 
