Origin Time       2011/03/11 14:46:00
Lat.              38.103
Long.             142.860
Depth. (km)       24
Mag.              9.0
Station Code      AKT007
Station Lat.      40.0460
Station Long.     140.0813
Station Height(m) 5
Record Time       2011/03/11 14:47:28
Sampling Freq(Hz) 100Hz
Duration Time(s)  300
Dir.              U-D
Scale Factor      3920(gal)/6182761
Max. Acc. (gal)   16.071
Last Correction   2011/03/11 14:47:13
Memo.             
[...]
  -14006   -13109   -12692   -12747   -13221   -13972   -14838   -15504 
  -15779   -15650   -15106   -14130   -12607   -10503    -8426    -7392 
   -7512    -8068    -8682    -9247    -9913   -11014   -12579   -14403 
  -15838   -16304   -16287   -16208   -15898   -15917   -16853   -18322 
  -19666   -20306   -20199   -19876   -19760   -19935   -19947   -19534 
  -19067   -18624   -18046   -17537   -17408   -17595   -17697   -17393 
  -16791   -16427   -16595   -17128   -17745   -17871   -17201   -16358 
  -16074   -16321   -16753   -17485   -18492   -19244   -19777   -20524 
  -21624   -22993   -23926   -23557   -22037   -20343   -19332   -19042 
  -18764   -17946   -16683   -15214   -13640   -12329   -11717   -11609 
  -11219   -10102    -8739    -7750    -7387    -7912    -9189   -10554 
  -11437   -11713   -11743   -11690   -11556   -11747   -12460   -13554 
  -14751   -15633   -15974   -15459   -14080   -12589   -11409   -10562 
   -9883    -8915    -7888    -7229    -6743    -6491    -6619    -6899 
   -7287    -7943    -8982   -10585   -12856   -15354   -17417   -18744 
  -19231   -19216   -19379   -19840   -20214   -20069   -19437   -18838 
  -18408   -18037   -17724   -17298   -16764   -16318   -15913   -15265 
  -14292   -13515   -13404   -13627   -13623   -13312   -12975   -12904 
  -13174   -13372   -12907   -11864   -10814   -10074    -9865   -10208 
  -10588   -10532   -10081    -9507    -9013    -8750    -8669    -8420 
   -7822    -7092    -6567    -6540    -7058    -7577    -7322    -6399 
   -5603    -5315    -5467    -5695    -5637    -5421    -5364    -5668 
   -6241    -6739    -7025    -6984    -6420    -5697    -5571    -6345 
   -7611    -8785    -9710   -10459   -11172   -12201   -13537   -14794 
  -15977   -17262   -18582   -19771   -20561   -20667   -20246   -20028 
  -20532   -21336   -21811   -22142   -22761   -23713   -25060   -26767 
  -28533   -29964   -30582   -30403   -29986   -29646   -29385   -29073 
  -28675   -28344   -27947   -27220   -26254   -25288   -24409   -23727 
  -23369   -23147   -22759   -21993   -20613   -18784   -16979   -15304 
  -13648   -11942   -10130    -8290    -6647    -5488    -4892    -4660 
   -4705    -5063    -5654    -6321    -6970    -7524    -8181    -9407 
  -10952   -12311   -13622   -14598   -14679   -13993   -12919   -11887 
  -11151   -10690   -10521   -10555   -10753   -11040   -11148   -11195 
  -11327   -11289   -11076   -11020   -11324   -11872   -12445   -13100 
  -13838   -14337   -14564   -14754   -14695   -14166   -13525   -13034 
  -12658   -12376   -11841   -10787    -9751    -9537   -10242   -11373 
  -12652   -13773   -14314   -14298   -13937   -13513   -13237   -12976 
  -12650   -12181   -11499   -10879   -10648   -10979   -11909   -13018 
  -13659   -13832   -13771   -13218   -12264   -11409   -10914   -10930 
  -11257   -11535   -11724   -11822   -12154   -13072   -14066   -14629 
  -14826   -14707   -14458   -14372   -14613   -15390   -16646   -17955 
  -19053   -19781   -20099   -20324   -20501   -20282   -19639   -18811 
  -18124   -17744   -17369   -16651   -15468   -13771   -11568    -9201 
   -7230    -5748    -4558    -3603    -2888    -2565    -2763    -3463 
   -4593    -5920    -7223    -8526    -9924   -11406   -12892   -14248 
  -15290   -15960   -16377   -16616   -16691   -16764   -16904   -16862 
  -16606   -16387   -16092   -15557   -15094   -15041   -15420   -16211 
  -17451   -18831   -19792   -20244   -20484   -20910   -21703   -22305 
  -22274   -21888   -21425   -21021   -20589   -19840   -18968   -18383 
  -17867   -17010   -15876   -14685   -13845   -13806   -14240   -14444 
  -14204   -13611   -12580   -10961    -9134    -7831    -7375    -7611 
   -8189    -8836    -9505   -10334   -11495   -12738   -13548   -13939 
  -14290   -14597   -14541   -14084   -13653   -13612   -13764   -13817 
  -13897   -14104   -14494   -15384   -16762   -18113   -19008   -19343 
  -19163   -18468   -17563   -17042   -16987   -17137   -17382   -17476 
  -17194   -16697   -16212   -15559   -14533   -13521   -12875   -12389 
  -11785   -11115   -10639   -10283    -9837    -9470    -9317    -9337 
   -9327    -9152    -9336   -10281   -11650   -13019   -14183   -15144 
  -15992   -16729   -17247   -17322   -16959   -16564   -16354   -16203 
  -16181   -16423   -16681   -16748   -16796   -16832   -16635   -16214 
  -15743   -15300   -14759   -14029   -13479   -13631   -14520   -15687 
  -16663   -17141   -16897   -16120   -15079   -13728   -12333   -11201 
  -10396   -10077   -10217   -10885   -12143   -13647   -15291   -16952 
  -18215   -18993   -19373   -19246   -18484   -17379   -16523   -16126 
  -15857   -15250   -14320   -13420   -12581   -11861   -11541   -11782 
  -12499   -13283   -13902   -14550   -15382   -16441   -17610   -18782 
  -19935   -20733   -21197   -21863   -22796   -23785   -24700   -25422 
  -26030   -26525   -26784   -26723   -26254   -25565   -24863   -24195 
  -23856   -23915   -23953   -23685   -23209   -22916   -23071   -23737 
  -24928   -26075   -26335   -25595   -24240   -22618   -21073   -19833 
  -18895   -18103   -17277   -16439   -15795   -15563   -15952   -16690 
  -17099   -16966   -16422   -15638   -14908   -14234   -13455   -12650 
  -11798   -10716    -9285    -7522    -5827    -4807    -4612    -4885 
   -5100    -4736    -3647    -2318    -1215     -357      306      880 
    1480     1866     1804     1344      563     -399    -1104    -1058 
    -335      646     1682     2654     3585     4548     5310     5684 
    5726     5479     4965     4176     3232     2371     1598      926 
     477      106     -220     -343     -449     -883    -1847    -3259 
   -4893    -6718    -8629   -10467   -12338   -14277   -16207   -18109 
  -19874   -21368   -22547   -23408   -23911   -24029   -24016   -24220 
  -24683   -25262   -25975   -27005   -28434   -30154   -31763   -32598 
  -32505   -31930   -31142   -30310   -29624   -29072   -28722   -28747 
  -29181   -29999   -31263   -32965   -34695   -35941   -36549   -36547 
  -35940   -34770   -33159   -31328   -29430   -27494   -25713   -24400 
  -23547   -22986   -22772   -22881   -23126   -23484   -24042   -24884 
  -25827   -26437   -26675   -26624   -26022   -24930   -23762   -22631 
  -21473   -20410   -19611   -19023   -18518   -18077   -17580   -16883 
  -15947   -14669   -13140   -11761   -10753   -10053    -9589    -9287 
   -8997    -8596    -8138    -7711    -7097    -6205    -5506    -5250 
   -5060    -4670    -4173    -3686    -3285    -3071    -3141    -3447 
   -3747    -3869    -3819    -3497    -2759    -1617      -92     1670 
    3344     4827     6207     7345     8018     8218     7923     7134 
    6053     4909     3917     3224     2817     2558     2144     1483 
     779      -49    -1064    -1979    -2719    -3399    -4079    -4908 
   -5863    -6714    -7455    -8403    -9765   -11155   -11950   -12060 
  -11865   -11797   -12313   -13659   -15435   -16945   -18046   -19140 
  -20388   -21584   -22710   -23893   -25141   -26542   -28154   -29729 
  -30926   -31537   -31600   -31468   -31435   -31350   -30844   -29860 
  -28720   -27791   -27293   -27423   -28158   -28988   -29471   -29636 
  -29762   -29991   -30066   -29797   -29411   -29130   -28948   -28784 
  -28626   -28497   -28389   -28186   -27616   -26609   -25344   -24009 
  -23031   -22735   -22790   -22832   -22856   -22902   -23008   -23094 
  -22910   -22430   -21825   -21126   -20477   -20211   -20552   -21523 
  -22790   -23842   -24489   -24829   -25064   -25353   -25524   -25246 
  -24432   -23152   -21689   -20356   -18924   -17063   -14835   -12367 
   -9910    -7860    -6414    -5383    -4333    -3107    -1877     -895 
    -424     -506     -958    -1593    -2303    -2987    -3576    -4240 
   -5084    -5848    -6417    -6888    -7168    -7239    -7086    -6543 
   -5739    -4843    -4100    -4124    -4900    -5743    -6391    -6709 
   -6464    -5856    -5268    -4918    -4737    -4398    -3860    -3232 
   -2448    -1674    -1162    -1042    -1616    -2907    -4458    -5834 
   -6794    -7405    -7884    -8330    -8898    -9651   -10404   -11077 
  -11602   -11758   -11638   -11697   -12033   -12309   -12354   -12249 
  -12104   -11923   -11576   -11078   -10480    -9766    -9357    -9780 
  -10801   -11784   -12589   -13500   -14554   -15575   -16627   -17851 
  -19156   -20345   -21250   -21706   -21745   -21702   -21596   -20979 
  -19894   -19025   -18794   -19022   -19377   -19772   -20190   -20511 
  -20791   -21133   -21283   -21150   -21152   -21414   -21560   -21348 
  -20722   -19711   -18640   -18006   -17798   -17343   -16265   -14793 
  -13013   -11004    -9204    -7737    -6463    -5634    -5498    -5937 
   -6784    -7832    -8882    -9831   -10502   -10912   -11291   -11630 
  -11821   -11824   -11678   -11532   -11349   -11080   -10960   -11168 
  -11623   -12151   -12632   -13044   -13412   -13834   -14249   -14342 
  -14166   -14079   -14065   -13928   -13605   -13083   -12374   -11596 
  -10992   -10582   -10427   -11052   -12600   -14516   -16379   -18030 
  -19397   -20533   -21391   -22001   -22529   -22945   -23179   -23151 
  -22875   -22514   -21997   -21367   -20972   -20841   -20742   -20450 
  -19977   -19796   -20111   -20556   -21029   -21616   -22058   -22244 
  -22265   -22138   -22086   -22314   -22675   -23035   -23462   -23920 
  -24149   -24113   -24008   -23796   -23322   -22350   -20712   -18962 
  -17644   -16442   -15244   -14382   -13751   -13139   -12557   -11935 
  -11119    -9941    -8626    -7839    -7758    -8033    -8560    -9279 
   -9882   -10352   -10815   -10999   -10802   -10370    -9586    -8500 
   -7391    -6409    -5757    -5462    -5262    -5051    -4879    -4770 
   -4797    -5124    -5868    -6987    -8362    -9839   -11268   -12543 
  -13596   -14326   -14621   -14641   -14663   -14640   -14388   -13837 
  -12968   -11917   -10909   -10043    -9370    -8915    -8474    -7722 
   -6636    -5430    -4285    -3378    -2730    -2168    -1732    -1446 
   -1062     -652     -466     -397     -362     -423     -582     -935 
   -1524    -2190    -2767    -3196    -3540    -3821    -4118    -4751 
   -5810    -7021    -8148    -9055    -9773   -10438   -11142   -12011 
  -13018   -14030   -15166   -16553   -17932   -18948   -19734   -20680 
  -21833   -23099   -24543   -26104   -27546   -28620   -29182   -29346 
  -29209   -28719   -27937   -27014   -26276   -26066   -26275   -26635 
  -26954   -27017   -26835   -26644   -26456   -26037   -25416   -24857 
  -24342   -23810   -23330   -22882   -22505   -22277   -22198   -22096 
  -21680   -21002   -20377   -19832   -19207   -18524   -17737   -16710 
  -15522   -14226   -12786   -11383   -10302    -9622    -9035    -8235 
   -7319    -6336    -5197    -4152    -3442    -2934    -2612    -2723 
   -3231    -3691    -3866    -4166    -4990    -6002    -6726    -7300 
   -7987    -8728    -9602   -10777   -11927   -12407   -12041   -11386 
  -11027   -11019   -11057   -10889   -10636   -10525   -10701   -11322 
  -12233   -13115   -13860   -14250   -14113   -13817   -13890   -14510 
  -15618   -16966   -18220   -19287   -20116   -20419   -20021   -19101 
  -18012   -17097   -16437   -15811   -15246   -15140   -15547   -16179 
  -16942   -17662   -17874   -17439   -16748   -16155   -15894   -16163 
  -16637   -16705   -16323   -15855   -15473   -15199   -15050   -14866 
  -14421   -13589   -12340   -11023   -10211   -10101   -10632   -11628 
  -12752   -13643   -13843   -13114   -11899   -10889   -10409   -10332 
  -10323   -10235   -10266   -10545   -10945   -11516   -12324   -13018 
  -13085   -12400   -11496   -11071   -11400   -12494   -14065   -15490 
  -16429   -17081   -17764   -18584   -19458   -20212   -20581   -20325 
  -19370   -17858   -16252   -15087   -14365   -13685   -12925   -12322 
  -12033   -11913   -11963   -12405   -13103   -13746   -14166   -14283 
  -14232   -14245   -14410   -14571   -14500   -14135   -13565   -13030 
  -12746   -12740   -12910   -13137   -13421   -13670   -13769   -13987 
  -14560   -15300   -15996   -16548   -16892   -17180   -17647   -18341 
  -19123   -19872   -20649   -21462   -22188   -22822   -23336   -23646 
  -23920   -24593   -25938   -27735   -29606   -31227   -32244   -32557 
  -32242   -31269   -29756   -28101   -26651   -25407   -24280   -23429 
  -23071   -23269   -23843   -24518   -25232   -25935   -26563   -27199 
  -27599   -27384   -26651   -25665   -24648   -23738   -22983   -22582 
  -22671   -23030   -23211   -22971   -22488   -21923   -21368   -20946 
  -20599   -20387   -20538   -21010   -21502   -21693   -21380   -20540 
  -19315   -17932   -16533   -15123   -13701   -12302   -10878    -9392 
   -8089    -7277    -6882    -6692    -6757    -7047    -7270    -7305 
   -7121    -6557    -5622    -4517    -3414    -2514    -1977    -1832 
   -2026    -2445    -3060    -3905    -4765    -5336    -5660    -5816 
   -5559    -4688    -3457    -2437    -1889    -1552    -1277    -1205 
   -1302    -1515    -2051    -3048    -4421    -5995    -7582    -9044 
  -10256   -11174   -12006   -12969   -13991   -14990   -15922   -16602 
  -17069   -17391   -17311   -16862   -16443   -16354   -16604   -16870 
  -17108   -17604   -18179   -18521   -18823   -19247   -19606   -19758 
  -19868   -20114   -20344   -20479   -20748   -21265   -21962   -22823 
  -23817   -24746   -25437   -26063   -26778   -27408   -27897   -28321 
  -28654   -28978   -29568   -30657   -32181   -33820   -35312   -36602 
  -37736   -38742   -39486   -39754   -39645   -39489   -39415   -39331 
  -39107   -38644   -37812   -36499   -34874   -33293   -31799   -30200 
  -28529   -26693   -24399   -21816   -19225   -16686   -14417   -12489 
  -10599    -8569    -6548    -4629    -2721    -1031       27      486 
     683      691      364     -220     -845    -1622    -2695    -3847 
   -4874    -5641    -5984    -6051    -6102    -6113    -5959    -5560 
   -4933    -4302    -3951    -4059    -4626    -5462    -6330    -7072 
   -7637    -8087    -8512    -8943    -9451   -10171   -11106   -12179 
  -13263   -14048   -14448   -14686   -14697   -14419   -14138   -13895 
  -13468   -12772   -11977   -11388   -11061   -10946   -11082   -11225 
  -10974   -10209    -9166    -8377    -8174    -8400    -8904    -9654 
  -10531   -11529   -12661   -13799   -14790   -15508   -16016   -16521 
  -17112   -17790   -18508   -19192   -19729   -20059   -20293   -20432 
  -20262   -19815   -19393   -19117   -18959   -18895   -18763   -18322 
  -17296   -15490   -13126   -10691    -8532    -6668    -5006    -3752 
   -3120    -2931    -3033    -3502    -4382    -5669    -7212    -8750 
  -10210   -11570   -12765   -13703   -14117   -13995   -13896   -14280 
  -15075   -15947   -16648   -17271   -18031   -18894   -19739   -20391 
  -20560   -20270   -19815   -19206   -18414   -17608   -16883   -16400 
  -16378   -16662   -17004   -17445   -17955   -18308   -18430   -18373 
  -18143   -17853   -17666   -17447   -16880   -15991   -15059   -14150 
  -13339   -12947   -13069   -13473   -13982   -14506   -15055   -15764 
  -16655   -17528   -18133   -18454   -18720   -18946   -19014   -19246 
  -20045   -21337   -22762   -23949   -24811   -25558   -26344   -27224 
  -28072   -28613   -28877   -29024   -28960   -28714   -28473   -28204 
  -27796   -27096   -25968   -24636   -23511   -22751   -22132   -21315 
  -20240   -19054   -17998   -17366   -17164   -17200   -17410   -17672 
  -17702   -17262   -16254   -14768   -12978   -11087    -9449    -8362 
   -7799    -7549    -7557    -7869    -8267    -8596    -9065    -9721 
  -10394   -10973   -11328   -11371   -11255   -11114   -10664    -9555 
   -7953    -6278    -4891    -4004    -3592    -3549    -3749    -4126 
   -4710    -5248    -5280    -4735    -3828    -2795    -2032    -1724 
   -1599    -1546    -1641    -1683    -1478    -1122     -734     -339 
      54      325      214     -325    -1051    -1746    -2275    -2685 
   -3164    -3757    -4491    -5499    -6814    -8315    -9765   -11004 
  -12030   -12830   -13444   -14028   -14733   -15624   -16563   -17386 
  -18257   -19446   -20991   -22638   -24034   -25173   -26212   -27030 
  -27643   -28341   -29113   -29623   -29674   -29290   -28492   -27271 
  -25747   -24171   -22841   -22005   -21715   -21831   -22211   -22726 
  -23278   -23883   -24537   -25256   -25948   -26207   -25859   -25108 
  -24053   -22803   -21536   -20212   -18719   -17179   -15926   -15068 
  -14439   -13979   -13563   -12906   -11982   -11082   -10501   -10276 
  -10273   -10490   -10840   -11066   -11235   -11487   -11607   -11460 
  -11166   -10847   -10604   -10516   -10501   -10366   -10252   -10585 
  -11467   -12689   -14008   -15159   -15998   -16550   -16948   -17290 
  -17455   -17290   -16862   -16167   -14988   -13291   -11243    -9046 
   -7095    -5732    -4941    -4499    -4090    -3391    -2312    -1058 
     126     1212     2175     2685     2451     1650      671     -325 
   -1387    -2587    -4033    -5696    -7325    -8859   -10434   -11992 
  -13313   -14364   -15360   -16351   -17131   -17607   -18027   -18768 
  -19780   -20735   -21706   -22767   -23524   -23807   -23950   -24141 
  -24259   -24314   -24533   -24943   -25189   -25006   -24472   -23714 
  -22917   -22467   -22514   -22636   -22313   -21410   -20046   -18496 
  -17126   -16111   -15437   -15032   -14895   -15140   -15767   -16731 
  -18131   -19941   -21983   -24173   -26316   -28014   -29099   -29852 
  -30658   -31610   -32551   -33383   -34129   -34812   -35461   -36027 
  -36357   -36270   -35565   -34232   -32503   -30614   -28692   -26695 
  -24487   -22092   -19717   -17489   -15325   -13177   -11237    -9688 
   -8432    -7330    -6430    -5721    -5078    -4495    -4020    -3686 
   -3566    -3572    -3514    -3413    -3350    -3287    -3207    -3083 
   -2860    -2510    -2020    -1512    -1168    -1003     -968    -1019 
   -1190    -1678    -2572    -3696    -5002    -6585    -8185    -9325 
   -9843    -9904    -9708    -9178    -8204    -7204    -6661    -6642 
   -7173    -8212    -9472   -10621   -11383   -11713   -11834   -11951 
  -12123   -12313   -12416   -12393   -12554   -13325   -14589   -15765 
  -16472   -16827   -17199   -17790   -18528   -19270   -19937   -20356 
  -20327   -20056   -20010   -20381   -21073   -21818   -22153   -21848 
  -21210   -20634   -20266   -20055   -19765   -19237   -18594   -18028 
  -17688   -17726   -18118   -18574   -18952   -19422   -20157   -21144 
  -22253   -23355   -24274   -24898   -25409   -25967   -26406   -26649 
  -26771   -26538   -25877   -25304   -25038   -24792   -24638   -24806 
  -25116   -25351   -25425   -25291   -25107   -25022   -24973   -24927 
  -24857   -24714   -24515   -24088   -23196   -21953   -20629   -19321 
  -18020   -16726   -15418   -14088   -12830   -11862   -11275   -10856 
  -10463   -10126    -9824    -9596    -9473    -9423    -9508    -9713 
   -9966   -10411   -11197   -12252   -13424   -14717   -16285   -18056 
  -19713   -21039   -22083   -23009   -23682   -23862   -23689   -23392 
  -22916   -22017   -20641   -19151   -17874   -16750   -15796   -15175 
  -14701   -14203   -13897   -13811   -13794   -13881   -13987   -13953 
  -13900   -13957   -13992   -13877   -13721   -13672   -13667   -13690 
  -13902   -14186   -14144   -13667   -12877   -11858   -10845   -10125 
