Origin Time       2011/03/11 14:46:00
Lat.              38.103
Long.             142.860
Depth. (km)       24
Mag.              9.0
Station Code      AKT020
Station Lat.      39.2027
Station Long.     139.9088
Station Height(m) 7
Record Time       2011/03/11 14:47:20
Sampling Freq(Hz) 100Hz
Duration Time(s)  300
Dir.              U-D
Scale Factor      3920(gal)/6182761
Max. Acc. (gal)   21.558
Last Correction   2011/03/11 14:47:05
Memo.             
[...]
  -10697   -12244   -13854   -15872   -18239   -20252   -21075   -20611 
  -19662   -19125   -19264   -19727   -20104   -20406   -20873   -21594 
  -22465   -23239   -23713   -23926   -23948   -23746   -23468   -23445 
  -23921   -24939   -26226   -27367   -28217   -28898   -29475   -29884 
  -30060   -30015   -29842   -29675   -29644   -29790   -30092   -30537 
  -30926   -30964   -30793   -30933   -31610   -32568   -33449   -33951 
  -33788   -32952   -31583   -29454   -26197   -21897   -17257   -13196 
  -10175    -7917    -5860    -3888    -2276    -1083     -190      439 
     747      682      359       89      259     1060     2187     3111 
    3665     4040     4274     4011     2770      429    -2486    -5238 
   -7462    -8866    -9136    -8526    -7603    -6593    -5461    -3974 
   -1808      959     3831     6345     8263     9520    10218    10597 
   10846    11035    11229    11510    11695    11251     9789     7566 
    5326     3550     1899     -475    -3991    -8144   -11975   -14872 
  -16898   -18381   -19361   -19725   -19653   -19609   -19851   -20083 
  -19667   -18201   -15947   -13646   -11931   -10920   -10339    -9986 
   -9815    -9776   -10022   -10764   -11760   -12635   -13355   -13970 
  -14528   -15302   -16533   -17998   -19123   -19593   -19612   -19627 
  -20066   -21102   -22454   -23646   -24317   -24206   -23203   -21589 
  -19980   -18858   -18202   -17629   -16775   -15523   -14079   -12885 
  -12250   -12072   -12126   -12417   -12964   -13483   -13524   -12884 
  -11968   -11454   -11366   -10959    -9658    -7700    -5745    -4048 
   -2339     -492     1158     2237     2728     2834     2656     2258 
    1910     1928     2334     2926     3460     3853     4355     5128 
    5954     6783     7966     9846    12399    15182    17641    19496 
   20786    21582    21819    21408    20343    18672    16507    14084 
   11772     9966     8881     8391     8194     8193     8574     9428 
   10554    11750    12929    13872    14305    14254    14058    14001 
   13946    13490    12584    11660    11036    10584     9906     8687 
    7084     5599     4340     2968     1437       86     -830    -1140 
    -784      -94      382      299     -220     -585     -491     -440 
    -990    -2047    -3372    -5050    -7135    -9377   -11502   -13479 
  -15383   -17221   -18964   -20595   -22007   -22958   -23229   -22854 
  -22138   -21474   -21089   -20824   -20332   -19624   -19101   -18996 
  -19218   -19685   -20436   -21512   -22842   -24215   -25482   -26743 
  -28188   -29832   -31436   -32634   -33180   -33200   -33156   -33359 
  -33600   -33505   -32910   -31791   -30197   -28184   -25734   -22966 
  -20379   -18678   -18057   -17946   -17681   -17013   -16167   -15497 
  -14959   -14279   -13382   -12354   -11234    -9838    -7927    -5544 
   -3195    -1768    -1944    -3444    -5346    -7319    -9774   -12943 
  -16413   -19136   -20089   -19284   -17618   -15879   -14287   -12748 
  -11262    -9955    -8823    -7595    -5989    -4202    -2903    -2598 
   -3124    -3820    -4116    -3931    -3586    -3328    -3137    -3032 
   -3197    -3728    -4503    -5248    -5741    -5874    -5668    -5495 
   -5973    -7304    -9014   -10526   -11721   -12785   -13761   -14344 
  -14080   -12836   -11020    -9203    -7601    -6014    -4389    -3250 
   -3217    -4379    -6509    -9492   -13156   -16958   -20135   -22175 
  -23143   -23385   -23011   -22084   -21015   -20251   -19782   -19192 
  -18181   -16997   -16039   -15165   -13795   -11534    -8682    -6174 
   -4735    -4320    -4541    -5235    -6412    -7916    -9407   -10653 
  -11772   -13174   -15175   -17535   -19436   -20139   -19658   -18579 
  -17393   -16262   -15265   -14532   -14105   -13810   -13438   -12956 
  -12418   -11774   -10888    -9742    -8579    -7805    -7801    -8741 
  -10492   -12611   -14574   -16292   -18225   -20737   -23576   -26195 
  -28261   -29595   -29975   -29380   -28234   -27221   -26864   -27163 
  -27607   -27680   -27304   -26750   -26249   -25779   -25134   -24217 
  -23255   -22594   -22206   -21536   -20073   -17934   -15623   -13470 
  -11496    -9613    -7932    -6901    -7020    -8326   -10249   -12130 
  -13726   -15238   -17004   -18799   -19659   -18980   -17307   -15746 
  -15008   -15019   -15283   -15469   -15582   -15680   -15571   -14889 
  -13407   -11255    -8895    -6847    -5331    -4070    -2537     -506 
    1679     3343     4005     3687     2743     1465     -208    -2437 
   -4868    -6558    -6734    -5531    -3957    -3087    -3040    -2840 
   -1661      -54      557     -389    -1848    -2362    -1566     -321 
     485      905     1479     2337     3065     3187     2740     2276 
    2236     2561     2971     3355     3895     4911     6540     8501 
   10229    11505    12703    14113    15420    15928    15157    13324 
   11053     8709     6311     3845     1316    -1343    -3986    -6141 
   -7542    -8443    -9161    -9509    -9076    -7899    -6448    -5236 
   -4738    -5089    -5709    -5892    -5665    -5557    -5828    -6274 
   -6494    -6153    -5412    -4800    -4341    -3721    -3027    -2581 
   -2613    -3089    -3576    -3451    -2418     -883      344      790 
     652      322     -246    -1413    -3299    -5579    -7661    -8986 
   -9299    -8727    -7744    -6944    -6579    -6358    -5845    -5061 
   -4576    -4935    -6067    -7472    -8921   -10659   -13005   -15892 
  -18664   -20635   -21856   -22828   -23745   -24264   -23826   -22392 
  -20768   -19832   -19623   -19395   -18413   -16650   -14726   -13185 
  -12107   -11463   -11409   -12113   -13496   -15222   -16962   -18553 
  -19827   -20566   -20762   -20653   -20400   -19914   -19089   -18233 
  -17954   -18371   -18789   -18469   -17425   -16196   -15204   -14576 
  -14307   -14432   -15074   -16285   -17888   -19515   -20923   -22273 
  -23827   -25498   -26890   -27727   -27986   -27609   -26400   -24282 
  -21530   -18607   -15843   -13550   -11960   -10893   -10175    -9707 
   -9095    -8338    -7960    -8075    -8266    -8117    -7570    -6954 
   -6571    -6377    -6133    -5695    -5173    -4917    -5221    -5845 
   -6093    -5608    -4883    -4779    -5564    -6647    -7464    -8138 
   -9085   -10433   -11821   -12658   -12562   -11535    -9862    -7899 
   -5879    -3899    -1896      395     3237     6620    10236    13638 
   16290    17741    17967    17317    16097    14412    12286     9691 
    6681     3580      742    -1807    -4224    -6484    -8457   -10170 
  -11799   -13440   -14865   -15631   -15591   -15098   -14750   -14923 
  -15429   -15856   -16215   -16985   -18489   -20418   -22181   -23436 
  -24038   -23778   -22448   -20187   -17631   -15513   -14081   -12952 
  -11579    -9957    -8734    -8463    -8961    -9574    -9993   -10609 
  -11909   -13796   -15788   -17677   -19630   -21736   -23703   -25056 
  -25614   -25682   -25625   -25391   -24621   -23156   -21306   -19534 
  -17981   -16455   -14734   -12874   -11219    -9941    -8804    -7429 
   -5690    -3913    -2529    -1641    -1193    -1158    -1504    -2346 
   -3911    -6111    -8409   -10262   -11538   -12573   -13757   -14905 
  -15450   -15207   -14457   -13487   -12100    -9689    -6070    -1805 
    2237     5404     7760     9905    12081    13876    14785    14685 
   13774    12214     9897     6853     3732     1270     -474    -1903 
   -3303    -4606    -5646    -6581    -7816    -9511   -11320   -12660 
  -13223   -13089   -12515   -11733   -10749    -9397    -7610    -5665 
   -4160    -3564    -3872    -4851    -6384    -8382   -10615   -12785 
  -14595   -15855   -16703   -17531   -18524   -19485   -20287   -21110 
  -21960   -22381   -21929   -20649   -18941   -17072   -15034   -12889 
  -11041    -9941    -9624    -9713    -9994   -10681   -11920   -13408 
  -14692   -15555   -16065   -16452   -16845   -17167   -17307   -17196 
  -16707   -15755   -14419   -12844   -11209    -9651    -8216    -7040 
   -6330    -6154    -6407    -6790    -7042    -7264    -7659    -8212 
   -8742    -8962    -8788    -8490    -8255    -8070    -8013    -8176 
   -8397    -8364    -7998    -7448    -6827    -6295    -6026    -6088 
   -6499    -7064    -7571    -8244    -9134    -9748    -9855    -9571 
   -9056    -8670    -8509    -8127    -7179    -5839    -4534    -3466 
   -2473    -1414     -536     -335     -992    -2125    -3151    -3728 
   -3869    -3740    -3400    -2828    -2090    -1289     -396      848 
    2614     4634     6572     8374     9868    10754    11054    10903 
   10276     9148     7471     5139     2082    -1672    -5816    -9792 
  -13172   -15904   -18192   -20176   -21941   -23716   -25447   -26682 
  -27276   -27289   -26799   -26105   -25027   -23137   -20674   -18137 
  -16119   -15301   -15795   -17232   -19401   -22136   -24914   -27125 
  -28491   -29014   -29022   -29110   -29570   -30164   -30549   -30675 
  -30860   -31478   -32510   -33501   -34017   -33983   -33591   -33067 
  -32489   -31736   -30581   -28836   -26510   -23967   -21727   -19951 
  -18406   -16981   -15910   -15326   -14885   -14101   -12777   -11031 
   -9177    -7531    -6324    -5768    -5915    -6561    -7483    -8642 
  -10084   -11810   -13760   -15678   -17063   -17437   -16578   -14585 
  -11908    -9217    -7061    -5469    -4067    -2806    -2201    -2570 
   -3377    -3683    -3229    -2656    -2580    -2957    -3415    -3817 
   -4370    -5200    -6126    -7005    -7774    -8201    -8186    -7943 
   -7615    -7273    -7016    -6733    -6159    -5192    -3924    -2438 
    -689     1395     3597     5610     7571     9690    11781    13697 
   15362    16295    16119    15250    14459    14099    13894    13402 
   12659    12073    11753    11399    10820    10175     9719     9358 
    8604     7148     5281     3622     2563     1983     1438      653 
    -291    -1236    -2063    -2747    -3576    -4759    -5947    -6667 
   -6902    -6971    -7090    -7015    -6251    -4768    -3249    -2552 
   -2887    -3494    -3555    -3300    -3670    -5149    -7301    -9353 
  -10989   -12390   -13799   -15290   -16853   -18516   -20290   -22098 
  -23819   -25276   -26255   -26640   -26603   -26545   -26840   -27741 
  -29299   -31265   -33193   -34708   -35753   -36525   -37135   -37385 
  -36950   -35773   -34111   -32318   -30584   -28780   -26810   -25031 
  -23943   -23716   -24143   -24741   -24992   -24591   -23531   -22150 
  -20760   -19217   -17225   -14872   -12657   -11051   -10084    -9476 
   -9075    -8994    -9298    -9666    -9696    -9450    -9292    -9381 
   -9566    -9561    -9301    -9148    -9513   -10373   -11363   -12248 
  -13141   -14213   -15261   -15717   -15171   -13749   -12055   -10668 
   -9622    -8627    -7667    -7142    -7465    -8564    -9998   -11460 
  -12865   -14087   -14924   -15242   -15026   -14238   -12778   -10683 
   -8228    -5827    -3844    -2397    -1367     -568      144      898 
    1944     3595     5886     8548    11312    14061    16753    19221 
   21034    21737    21349    20526    20032    19986    19762    18770 
   17089    15334    14078    13345    12636    11596    10399     9362 
    8553     7865     7273     6907     6915     7226     7438     7090 
    6168     5184     4698     4880     5435     5778     5521     4817 
    4125     3741     3529     3044     2021      686     -556    -1555 
   -2353    -2909    -3090    -3002    -3204    -4347    -6504    -9069 
  -11405   -13429   -15382   -17322   -19030   -20205   -20674   -20489 
  -19773   -18640   -17347   -16287   -15673   -15467   -15731   -16710 
  -18406   -20415   -22264   -23713   -24758   -25459   -25817   -25787 
  -25396   -24967   -24939   -25519   -26806   -28750   -30962   -33026 
  -34710   -35953   -36794   -37138   -36857   -36146   -35388   -34867 
  -34721   -34950   -35524   -36519   -37976   -39636   -40970   -41540 
  -41240   -40193   -38515   -36364   -34149   -32295   -30911   -29878 
  -29071   -28563   -28514   -28839   -29370   -30103   -31007   -31942 
  -32846   -33787   -34913   -36409   -38216   -39762   -40477   -40480 
  -40141   -39339   -37853   -35871   -33792   -31959   -30429   -28928 
  -27228   -25427   -23875   -22914   -22588   -22662   -23058   -23994 
  -25628   -27803   -30060   -31765   -32485   -32343   -31682   -30461 
  -28308   -25169   -21697   -18635   -16038   -13489   -10678    -7802 
   -5591    -4408    -3799    -3311    -2990    -3031    -3387    -3819 
   -4172    -4382    -4353    -4017    -3360    -2411    -1287     -226 
     517      882     1002      877      412     -174     -437     -202 
     340      989     1833     3013     4297     5237     5673     5854 
    6123     6536     6829     6853     6791     6862     6985     6800 
    6009     4929     4407     4886     5919     6680     6784     6645 
    6823     7189     7149     6442     5463     4889     5046     5582 
    5801     5329     4402     3582     3221     3208     3184     2885 
    2343     1858     1671     1632     1334      587     -316     -894 
    -921     -567     -280     -388     -788    -1184    -1460    -1665 
   -1845    -2017    -2187    -2303    -2181    -1586     -440      989 
    2179     2785     2904     2758     2268     1202     -434    -2454 
   -4752    -7394   -10441   -13600   -16255   -18054   -19263   -20358 
  -21563   -22943   -24549   -26251   -27857   -29465   -31271   -33261 
  -35294   -37162   -38678   -39868   -40864   -41730   -42477   -43018 
  -43152   -42665   -41501   -39891   -38257   -36862   -35575   -34111 
  -32593   -31555   -31195   -30927   -29852   -27647   -24824   -22160 
  -20082   -18459   -16840   -15034   -13313   -12076   -11467   -11237 
  -11059   -11025   -11503   -12485   -13458   -13874   -13699   -13488 
  -13845   -14837   -15979   -16757   -17103   -17218   -17218   -17102 
  -16736   -16074   -15461   -15335   -15796   -16574   -17288   -17729 
  -17886   -17738   -17267   -16682   -16304   -16192   -16117   -15841 
  -15291   -14494   -13458   -12174   -10679    -9132    -7887    -7283 
   -7294    -7598    -8029    -8754    -9911   -11281   -12554   -13653 
  -14616   -15421   -16069   -16665   -17263   -17854   -18535   -19341 
  -20180   -20964   -21474   -21479   -21003   -20177   -19050   -17507 
  -15360   -12795   -10420    -8693    -7508    -6479    -5559    -5167 
   -5617    -6715    -8005    -9178   -10133   -10756   -10894   -10667 
  -10450   -10419   -10443   -10345   -10046    -9632    -9373    -9617 
  -10563   -11970   -13361   -14539   -15407   -15777   -15809   -15696 
  -15240   -14487   -13595   -12507   -11489   -10860   -10521   -10186 
   -9581    -8792    -8269    -8163    -8115    -7876    -7768    -8349 
   -9750   -11434   -12717   -13488   -14167   -15038   -15898   -16290 
  -15919   -14825   -13276   -11594   -10025    -8661    -7552    -6931 
   -7029    -7668    -8436    -8915    -8703    -7912    -7386    -7809 
   -8855    -9608    -9702    -9682   -10177   -11109   -12033   -12765 
  -13220   -13246   -12911   -12464   -11987   -11311   -10346    -9321 
   -8405    -7332    -5742    -3708    -1711     -120     1182     2615 
    4281     5676     6212     5798     4784     3463     1766     -368 
   -2717    -5093    -7353    -9335   -11024   -12379   -13203   -13454 
  -13472   -13537   -13291   -12108    -9904    -7213    -4767    -3091 
   -2251    -1958    -1841    -1645    -1391    -1386    -1924    -3000 
   -4429    -6169    -8347   -11001   -13879   -16495   -18492   -19914 
  -21049   -22038   -22659   -22636   -22168   -21934   -22398   -23262 
  -23834   -23840   -23628   -23592   -23653   -23334   -22269   -20609 
  -18904   -17572   -16698   -16263   -16290   -16747   -17463   -18150 
  -18473   -18292   -17826   -17384   -17191   -17387   -17941   -18815 
  -20047   -21497   -22812   -23657   -23938   -23835   -23604   -23369 
  -23120   -22839   -22449   -21768   -20784   -19837   -19284   -19111 
  -19094   -19109   -19221   -19660   -20492   -21361   -21902   -22084 
  -22024   -21817   -21513   -21132   -20758   -20459   -20179   -19816 
  -19327   -18731   -17975   -16947   -15722   -14525   -13500   -12675 
  -11965   -11256   -10559   -10016    -9701    -9400    -8870    -8335 
   -8171    -8251    -8204    -7936    -7456    -6642    -5350    -3601 
   -1705     -139      769      944      483     -416    -1602    -3081 
   -4819    -6549    -7894    -8583    -8649    -8521    -8609    -8745 
   -8435    -7512    -6232    -4927    -3786    -2978    -2808    -3451 
   -4648    -5945    -7009    -7569    -7449    -6847    -6286    -6192 
   -6633    -7457    -8551    -9929   -11658   -13599   -15312   -16425 
  -16966   -17289   -17710   -18276   -18827   -19146   -19118   -18667 
  -17629   -15997   -14115   -12466   -11307   -10531    -9937    -9417 
   -8897    -8353    -7873    -7704    -8121    -9047    -9820    -9757 
   -8913    -7916    -7215    -6708    -6008    -4972    -3864    -2986 
   -2450    -2284    -2481    -2918    -3395    -3732    -3901    -4125 
   -4635    -5406    -6256    -7035    -7744    -8364    -8734    -8742 
   -8345    -7701    -7037    -6141    -4654    -2554     -149     2050 
    3741     5044     6254     7609     9027    10063    10363    10090 
    9775     9833    10353    11167    11948    12382    12392    12143 
   11768    11211    10364     9277     8107     6950     5808     4510 
    2855      952     -822    -2118    -2810    -2982    -2745    -2121 
   -1082      329     1968     3751     5646     7518     9230    10672 
   11693    12245    12330    11800    10469     8318     5613     2845 
     449    -1477    -3229    -5089    -6887    -8247    -9099    -9717 
  -10436   -11299   -11952   -12128   -12089   -12279   -12704   -12940 
  -12683   -12049   -11407   -10888   -10148    -8908    -7420    -6115 
   -5180    -4622    -4428    -4463    -4526    -4673    -5112    -5813 
   -6623    -7436    -8088    -8477    -8675    -8688    -8429    -7964 
   -7394    -6846    -6538    -6522    -6729    -7134    -7722    -8608 
   -9871   -11178   -12008   -12213   -12126   -12118   -12198   -11992 
  -11033    -9431    -7863    -6629    -5487    -4116    -2385     -648 
     621     1492     2208     2717     2994     3114     3137     3295 
    3794     4460     4938     5162     5420     5829     6052     5667 
    4544     2942     1279     -320    -1969    -3692    -5449    -7028 
   -7941    -7858    -6868    -5303    -3498    -1458     1032     3973 
    7110     9957    12100    13652    14795    15292    14966    14088 
   13040    11959    10740     9265     7571     5843     4232     2711 
    1181     -351    -1815    -3202    -4517    -5662    -6454    -6749 
   -6501    -5773    -4709    -3442    -2103     -875       54      470 
     170     -845    -2199    -3306    -3851    -4033    -4338    -4980 
   -5575    -5571    -4905    -4052    -3468    -3194    -2997    -2723 
   -2503    -2563    -2894    -3328    -3957    -5228    -7418   -10234 
  -13080   -15572   -17726   -19796   -21937   -24088   -26147   -28101 
  -29943   -31543   -32617   -32929   -32539   -31775   -30938   -30053 
  -28946   -27478   -25656   -23647   -21696   -20021   -18704   -17645 
  -16707   -15884   -15256   -14763   -14177   -13299   -12009   -10261 
   -8199    -6094    -4082    -2169     -428     1049     2238     3173 
