Origin Time       2011/03/11 14:46:00
Lat.              38.103
Long.             142.860
Depth. (km)       24
Mag.              9.0
Station Code      AKT018
Station Lat.      39.1937
Station Long.     140.1899
Station Height(m) 114
Record Time       2011/03/11 14:47:04
Sampling Freq(Hz) 100Hz
Duration Time(s)  300
Dir.              E-W
Scale Factor      3920(gal)/6182761
Max. Acc. (gal)   36.950
Last Correction   2011/03/11 14:46:49
Memo.             
[...]
   -3770     -918     4345     8604     9745     6764     1427    -2936 
   -5653    -9011   -14382   -20306   -24522   -25701   -24008   -21103 
  -18886   -18649   -20499   -22579   -22425   -20263   -18455   -17718 
  -17117   -15873   -14020   -13098   -14818   -18378   -20834   -19954 
  -15552    -9335    -3893     -858     -598    -2738    -6029    -8495 
   -9336    -9769    -9104    -5369    -1399    -1261    -3325    -4366 
   -5139    -7444   -11184   -16428   -22907   -27219   -26083   -21407 
  -17788   -17079   -17557   -16986   -16242   -17608   -20475   -23250 
  -25407   -25898   -24145   -21179   -18818   -18825   -20838   -22088 
  -21733   -21936   -24219   -28685   -33434   -35157   -33859   -31715 
  -28102   -22674   -18961   -18901   -19697   -18837   -16623   -14043 
  -10723    -6272    -3589    -5719   -10199   -12944   -14268   -16271 
  -19679   -23689   -25794   -25490   -25684   -27475   -28981   -29277 
  -29336   -29821   -30367   -30795   -31141   -31258   -31470   -31297 
  -28671   -24436   -22677   -23165   -21275   -15934   -10165    -5487 
   -1913     -858    -2895    -5564    -6613    -6733    -7610    -9210 
  -10106   -10100   -11936   -18502   -27986   -35471   -39087   -40217 
  -39692   -37536   -33699   -28307   -23171   -20395   -19177   -16982 
  -13000    -9462    -8768    -9808   -11103   -14540   -20115   -22635 
  -19623   -15162   -11959    -8334    -4380    -3559    -7684   -14693 
  -22095   -29461   -36379   -40665   -40218   -35036   -27507   -21448 
  -18915   -19331   -22191   -27080   -32004   -34265   -33146   -30214 
  -26874   -23648   -21030   -18715   -15202   -10604    -6937    -4784 
   -4052    -6122   -12016   -19646   -24796   -25434   -22946   -19154 
  -14191    -8268    -4360    -5022    -7470    -7504    -5951    -5170 
   -3884     -814     2019     2571     2172     3604     6853     9598 
   10826    11309    11649    11765    11497    11073    10923    10190 
    8085     5841     4117     2941     3511     5927     8322     9462 
   10330    12411    15421    17673    17822    16181    13766    10170 
    4760     -796    -4492    -7006    -9454   -10844   -10475   -10202 
  -11913   -14801   -17808   -21533   -25316   -26291   -23847   -21928 
  -23654   -27104   -28305   -26033   -23266   -23099   -24615   -25000 
  -23533   -20236   -13545    -4685      584    -1035    -6479   -10719 
  -11146    -7379    -1677     1749     1382    -1724    -6425   -10765 
  -14255   -19274   -26598   -34039   -39575   -42043   -40985   -36773 
  -30178   -23451   -18966   -16128   -13975   -13592   -14708   -15700 
  -16685   -17577   -17875   -19376   -22863   -26388   -29534   -32943 
  -34971   -34106   -32195   -30914   -28804   -25131   -20547   -14136 
   -6509    -2243    -3824    -7346    -8383    -8085    -9284   -11094 
  -11980   -13589   -17533   -21853   -23456   -23143   -25077   -30118 
  -34436   -37174   -42498   -49832   -51972   -46777   -40498   -37707 
  -35727   -32558   -32249   -35937   -38064   -35866   -32235   -28968 
  -25462   -22432   -21426   -22469   -23926   -23883   -21761   -18760 
  -16988   -16639   -15241   -11507    -6772    -2770     -920    -2361 
   -6588   -11422   -14396   -13903   -10681    -6809    -3303     -193 
    2499     3954     2939      -36    -2019     -960     1690     4365 
    7320     8934     5966     -895    -6581    -7753    -6099    -5378 
   -6815    -8099    -7152    -4718    -3100    -3998    -7489   -12790 
  -18873   -24628   -29000   -31893   -35389   -40600   -44983   -45903 
  -44111   -42261   -40758   -37872   -33620   -29203   -24008   -17591 
  -13289   -14749   -20018   -24027   -25348   -25388   -23081   -17521 
  -12087    -9803    -9321    -8102    -6335    -5592    -5343    -4174 
   -2229      457     4612     9181    11784    11860    11086    10915 
   11014    10588     8933     5512     1094    -3286    -6372    -6002 
   -2276     1459     2645     1611     -392    -3395    -8022   -13118 
  -16837   -19686   -23228   -27011   -28673   -26268   -20340   -13500 
   -8193    -5324    -4549    -5087    -6054    -7481   -10651   -15973 
  -21175   -23153   -22706   -23722   -26856   -29880   -32259   -34441 
  -35851   -36228   -36596   -38653   -43807   -51726   -60821   -68685 
  -71716   -68150   -59326   -47478   -36044   -29801   -31807   -41027 
  -52211   -58242   -56003   -47912   -37252   -27296   -20845   -17598 
  -16843   -19451   -24473   -28989   -31130   -30376   -27290   -24223 
  -23985   -26137   -27030   -25131   -22550   -21424   -21646   -21765 
  -21459   -21250   -20313   -17733   -15565   -17253   -21847   -23530 
  -18461    -9762    -4201    -4753    -9031   -12938   -13462   -10930 
   -8336    -7216    -6628    -6092    -6804    -8974   -10660   -10382 
   -7874    -3163     2250     5911     6874     5603     3298      764 
   -2857    -6893    -7917    -4671      161     3251     3196      782 
   -2205    -4702    -6458    -7363    -8161    -9385    -9728    -8526 
   -8249   -11258   -16062   -19744   -20862   -20042   -19690   -20568 
  -20883   -19945   -19339   -20509   -23074   -25717   -26738   -23949 
  -16427    -6613     1079     4203     3164     -664    -5551    -9834 
  -13010   -15468   -17160   -17092   -13847    -7282      705     8338 
   14742    18404    17516    12244     4732    -4140   -14923   -26005 
  -33038   -32862   -27123   -19910   -13141    -7817    -6678   -11483 
  -19773   -27810   -35181   -43124   -50452   -54591   -55297   -54628 
  -53979   -53239   -52232   -51628   -51732   -50709   -46729   -41423 
  -36693   -30569   -21841   -13363    -7372    -4169    -4642    -8996 
  -13734   -13374    -7005     1255     8266    11896     9394     1836 
   -5410    -9303   -11158   -12470   -12779   -11606    -9778    -8207 
   -7170    -7158    -9251   -13669   -18996   -23315   -25177   -24176 
  -20546   -14749    -8012    -1698     3466     7225     9928    11314 
    9634     4451    -2275    -9143   -15598   -19783   -18700   -11358 
   -2077     2971     2342    -1674    -6917   -11150   -11867    -8155 
   -1767     4068     7202     8183     8537     7360     2087    -6477 
  -13763   -17758   -20528   -22610   -21574   -16575   -10325    -4927 
      64     3594     2999    -1537    -6422    -9432   -12842   -18599 
  -24674   -29516   -34142   -39000   -43064   -45805   -48109   -49929 
  -49446   -46656   -42951   -38244   -33366   -29579   -24855   -17114 
   -9066    -5568    -7690   -12553   -18019   -23947   -28524   -28847 
  -26738   -25955   -25150   -21804   -18219   -18021   -20733   -22892 
  -22722   -21457   -19943   -17415   -14733   -12951    -9959    -4646 
     328     3102     4527     4566      359   -10228   -23149   -30451 
  -29658   -25474   -22528   -22457   -26623   -34958   -43317   -47854 
  -49677   -52399   -57042   -60379   -60085   -59027   -60946   -65235 
  -68426   -68836   -67116   -63775   -59563   -56606   -56223   -56492 
  -55068   -52503   -49788   -46448   -42115   -37059   -31953   -27234 
  -22500   -18372   -17009   -18518   -19969   -18372   -12867    -5747 
    -824       12    -2511    -6361    -9614   -11336   -10392    -4995 
    3822    11611    16024    17942    17190    12492     4950    -1600 
   -4632    -5283    -5628    -6264    -6165    -3567     1137     4925 
    5358     1426    -6509   -15337   -20601   -20526   -17511   -15093 
  -14382   -14115   -13658   -13553   -12993   -11378   -10376   -10709 
  -11289   -11429   -10986   -10425   -10794   -12164   -13011   -12568 
  -12673   -14596   -16299   -15779   -13921   -12171   -10566    -9367 
   -9835   -12071   -14252   -15091   -15344   -16436   -18781   -20662 
  -18788   -11905    -2854     4925    10720    14882    16614    14381 
    7946     -405    -8230   -15086   -20502   -22601   -20368   -15195 
  -10061    -8046    -9344   -10765   -10730   -11052   -12765   -14498 
  -15430   -16878   -20572   -26260   -30984   -31543   -27088   -19243 
  -11402    -6836    -5864    -5728    -4197    -1495     1307     4047 
    8464    15526    21990    24091    21967    16490     6578    -6858 
  -19779   -29514   -36274   -41043   -43464   -42784   -40750   -39911 
  -40956   -44373   -50229   -55571   -57188   -56518   -56831   -57160 
  -54425   -49975   -48664   -51936   -56325   -58551   -58448   -56937 
  -54440   -51626   -49659   -49864   -52184   -54467   -56142   -59023 
  -62790   -64557   -63084   -59730   -55377   -49180   -40340   -29940 
  -20416   -13602   -10028    -8444    -6094     -560     8635    18717 
   25409    27578    27280    25579    22485    18593    12857     3375 
   -7985   -16911   -21563   -23129   -24065   -26579   -31546   -38666 
  -45561   -48987   -50013   -52658   -57394   -61037   -60635   -55488 
  -47172   -38204   -31232   -28044   -28284   -30955   -35299   -39812 
  -43004   -43929   -42633   -40362   -37509   -33738   -30445   -29828 
  -31519   -32578   -30638   -25739   -19999   -14774    -8844    -1706 
    4444     7441     6984     3854     -780    -5122    -7326    -6579 
   -3036     1778     5141     6090     6294     6655     6111     3221 
   -2976   -10480   -14052   -11004    -4534     -146     -517    -4460 
   -9505   -13259   -13674   -10912    -7740    -6001    -4770    -2544 
    1128     6052    11559    15444    15466    12474     8796     4927 
     -13    -5874   -10575   -11641    -8121    -1944     2506     2533 
    -211    -3304    -6290    -8463    -8112    -4650      563     5469 
    8637     9504     8266     5461     1393    -3429    -7763   -10394 
  -11082   -10301    -8863    -7902    -7224    -5337    -3409    -4950 
  -10471   -17056   -21974   -23147   -18629    -8069     6003    17854 
   20629    12576        4   -10118   -17407   -23981   -28192   -27109 
  -22149   -17750   -15466   -13909   -13713   -16867   -22206   -26580 
  -28777   -30153   -31129   -28723   -22250   -15965   -12266   -10357 
  -10162   -12821   -18899   -26490   -33135   -39100   -44739   -47560 
  -46264   -42927   -39036   -33895   -26519   -18170   -12615   -12564 
  -17234   -23003   -26465   -26974   -25285   -22553   -21623   -24785 
  -28801   -28412   -24737   -22781   -23322   -22317   -17221   -10752 
   -6638    -5564    -6349    -7646    -7913    -5361      -54     5250 
    8417    10373    12318    12100     7063    -1069    -8177   -12711 
  -16468   -22065   -29380   -34276   -33771   -29947   -25339   -19871 
  -14363   -11629   -12815   -15884   -18260   -18966   -17759   -14049 
   -8752    -5300    -6443   -11937   -19142   -23956   -22846   -16107 
   -7545     -292     3626     1578    -7325   -19908   -30513   -34611 
  -30834   -21869   -14756   -16182   -25374   -34498   -37510   -34815 
  -29108   -22076   -14903    -9405    -7837   -10580   -14581   -16190 
  -15597   -16268   -20845   -27883   -32956   -34199   -32868   -29868 
  -26913   -26263   -26945   -26767   -26978   -30445   -36743   -41698 
  -42528   -41239   -40333   -38819   -35199   -30626   -26496   -21371 
  -13893    -7503    -8063   -16597   -28013   -36937   -41073   -39377 
  -31137   -18722    -7828    -1576     1688     3500     3515     1874 
    -353    -2678    -5643    -9514   -14553   -22017   -31512   -39196 
  -42693   -44428   -46004   -45268   -42306   -40436   -40071   -38605 
  -35388   -32858   -32714   -32614   -29267   -22453   -13937    -6076 
    -675     2288     3439     3276     3110     4251     6638    10049 
   13985    16329    15658    12771     9068     5749     3821     3277 
    2953     2621     2906     2770     1049    -1138    -2726    -4793 
   -8545   -13537   -18520   -22659   -26061   -29072   -31079   -30834 
  -27638   -22392   -17165   -13067    -9651    -6760    -5402    -6064 
   -8644   -13567   -19750   -24656   -27627   -29097   -29146   -28424 
  -26941   -23893   -20140   -17755   -18070   -21278   -26318   -31250 
  -34278   -34816   -33133   -29201   -23301   -16485    -9255    -1394 
    5485     8089     5420     -843    -8625   -15826   -19904   -17971 
   -9280     2487    11894    15796    14252     9986     7095     7685 
    8931     5369    -4488   -15934   -23783   -27593   -29906   -31003 
  -28441   -21944   -15170   -12160   -13651   -17502   -21678   -24632 
  -25098   -24002   -24106   -26776   -30550   -33052   -34231   -36349 
  -39371   -40352   -38687   -36857   -36487   -37073   -37957   -38700 
  -38381   -37452   -36846   -34882   -29043   -19992   -11892    -8250 
   -9717   -15147   -20950   -22729   -20029   -15582    -9672      477 
   14735    27086    31582    28899    23556    18916    16268    14151 
   10575     5587      427    -3212    -5150    -7450   -12266   -20312 
  -29985   -37484   -38847   -34252   -28148   -23312   -20378   -20523 
  -22155   -20442   -13934    -6209     -512     3019     5946     9130 
   12145    15825    22533    31499    37000    33876    22853     9078 
   -2588    -9932   -12699   -11053    -5417     1774     6694     8406 
    9698    12072    13077    10760     7323     5122     1973    -5544 
  -16516   -27469   -35913   -39590   -36690   -27949   -17682   -12051 
  -14461   -22557   -29942   -32246   -30952   -29415   -29627   -33171 
  -39192   -42485   -38508   -28236   -15407    -3847     2414     1342 
   -5330   -13111   -17972   -18870   -16643   -12715    -8480    -3868 
    2511    11032    20013    27004    29321    25210    16707     7880 
      13    -7746   -14885   -19758   -22775   -26456   -31220   -35892 
  -41853   -51515   -63987   -73527   -74131   -67049   -58697   -51813 
  -45344   -39830   -36437   -34248   -31774   -28638   -25314   -22380 
  -20149   -17957   -14352    -9870    -7021    -6544    -7133    -7801 
   -7952    -7676    -9060   -14536   -24011   -34655   -42505   -45196 
  -43581   -39403   -33545   -27526   -23366   -21422   -20686   -21790 
  -27113   -36668   -47652   -57834   -65602   -69351   -69024   -65764 
  -60789   -55442   -49947   -43156   -36049   -32049   -31774   -31456 
  -28437   -25338   -25996   -30520   -37305   -44687   -49781   -51053 
  -49675   -45723   -38875   -31886   -27482   -25825   -26316   -27747 
  -28598   -27788   -24208   -17320    -7768     2458    10077    12663 
   10762     7081     4383     3665     3847     3658     2610      124 
   -4181    -9098   -12417   -13620   -14177   -13911   -11139    -7767 
   -7354    -8955   -10106   -11456   -13962   -16505   -17904   -18625 
  -19779   -21167   -21150   -18441   -13267    -6969    -1122     3665 
    7730    10619    11133     8958     4731     -259    -4227    -5897 
   -4178     1830    10442    17973    21997    22392    20626    17878 
   14550    11735    10375    10405    11277    11385     8885     3291 
   -4896   -14363   -22183   -24623   -20268   -11622    -3027     2169 
    3180     1182    -2369    -5710    -6911    -5843    -4837    -6828 
  -12974   -21542   -29377   -34811   -37880   -38655   -37630   -35428 
  -32078   -29474   -30885   -37378   -47808   -58312   -63517   -63449 
  -62651   -62363   -61735   -61557   -60980   -56808   -49269   -43111 
  -40921   -41134   -42990   -46817   -50950   -52642   -50680   -46388 
  -41496   -35696   -28890   -23614   -22464   -25206   -29731   -34267 
  -37247   -36694   -32591   -28262   -26536   -26024   -23299   -17636 
  -11239    -5567     -367     3932     5131     1906    -3646    -8573 
  -12214   -14503   -14780   -13979   -14416   -16064   -15635   -10822 
   -3268     3248     5527     3300     -752    -4727    -8732   -13110 
  -18120   -22965   -25627   -25812   -24643   -22089   -18104   -13228 
   -8043    -4784    -6147   -11761   -18056   -21136   -19752   -15399 
  -10993   -10167   -13767   -17521   -17375   -14459   -12293   -12579 
  -14302   -15178   -14306   -13280   -14410   -17881   -21394   -22848 
  -21522   -17742   -13654   -11714   -11450   -11470   -12326   -13617 
  -13483   -12485   -12405   -12397   -10435    -6932    -4418    -4435 
   -6297    -8243    -8887    -7829    -5021     -955     2106     1825 
   -2042    -8151   -13116   -13089    -9107    -6446    -7466    -9439 
   -9073    -6014    -2218      735     2348     2117      833      670 
    1776     2534     3079     4351     4896     2562    -2304    -7803 
  -11918   -12460    -8577    -2199     3317     5154     1262    -8970 
  -22154   -31497   -33299   -30940   -29759   -31293   -34483   -37561 
  -38055   -35166   -31124   -28438   -27185   -25594   -23350   -22665 
  -24750   -28388   -32465   -36200   -38311   -38083   -35428   -31125 
  -27909   -28234   -31172   -33632   -32935   -27937   -20219   -13169 
   -8686    -6500    -6268    -8170   -11525   -14947   -18054   -20698 
  -21535   -20319   -19878   -22425   -26541   -30947   -36840   -44628 
  -52768   -59610   -63735   -64031   -60594   -53813   -43335   -30212 
  -17611    -8467    -4999    -8139   -15275   -21021   -21387   -16576 
   -9591    -3492     -154      428     -751    -3122    -5028    -3657 
     851     5224     8239    11192    13025    10720     5108     1358 
    2948     8773    15408    18789    16418    10415     4642     -463 
   -6290   -13076   -20639   -27117   -27762   -20338    -9810    -3472 
   -3795    -8559   -15322   -22217   -26119   -26037   -26249   -29807 
  -33642   -34230   -31849   -27753   -22323   -16175   -10795    -7613 
   -5886    -3146      585     1977     -649    -4840    -7171    -6205 
   -2549     2194     6105     7216     4977     1415     -958    -1772 
   -2650    -4792    -7272    -8468    -7764    -5446    -2466     -443 
   -1467    -6792   -14826   -21999   -26263   -28342   -29746   -30747 
  -30755   -30251   -30068   -29105   -26280   -24007   -25960   -31251 
  -34765   -34151   -31868   -29950   -27869   -24913   -21032   -16990 
  -15247   -18228   -24502   -29416   -30246   -28119   -25609   -24930 
  -27258   -31200   -33186   -31865   -29832   -28809   -26566   -20925 
  -13735    -9052    -8847   -11137   -12596   -11953    -9609    -6709 
   -5139    -5686    -7599   -10264   -13593   -18150   -23970   -28484 
  -28707   -24728   -19789   -18133   -21179   -26060   -29404   -30042 
  -28142   -24985   -22795   -22506   -22802   -22147   -20606   -18988 
  -17468   -16222   -14730   -10905    -5465    -3389    -6621   -11302 
  -14196   -15916   -17875   -19848   -21081   -21724   -21331   -18822 
  -15072   -11517    -7957    -4475    -2671    -3557    -5227    -5053 
   -3495    -1730      947     4219     6190     5644     1854    -5508 
  -14645   -21687   -23928   -22092   -18782   -16132   -15371   -16842 
  -19366   -21755   -25264   -30764   -34903   -34169   -30241   -26852 
  -24356   -20838   -15710    -9928    -4706     -995      438     -895 
   -4187    -6964    -7348    -6238    -5331    -4609    -4200    -5702 
   -9383   -13464   -16588   -17804   -16454   -14292   -14107   -16581 
  -21327   -28025   -34558   -37930   -38126   -37223   -35114   -30472 
  -24411   -18878   -13577    -7952    -3601    -1965    -1616      298 
    4322     7316     5571    -1177    -9689   -16479   -19803   -18870 
  -13733    -6917    -2216     -558      111      802      815      214 
    -646    -2272    -5098    -9884   -16744   -22786   -24811   -22778 
  -18465   -13650   -10448   -10867   -14782   -19503   -21714   -19661 
  -14400    -9714    -9219   -12838   -18073   -22819   -24900   -22706 
