Origin Time       2011/03/11 14:46:00
Lat.              38.103
Long.             142.860
Depth. (km)       24
Mag.              9.0
Station Code      AKT001
Station Lat.      40.3280
Station Long.     140.7429
Station Height(m) 166
Record Time       2011/03/11 14:47:18
Sampling Freq(Hz) 100Hz
Duration Time(s)  300
Dir.              U-D
Scale Factor      3920(gal)/6182761
Max. Acc. (gal)   11.867
Last Correction   2011/03/11 14:47:03
Memo.             
[...]
    4421     7129    13270    17745    16696    10707     3951      717 
    1474     2969     2374       63    -1463     -202     3417     5876 
    3863     -893    -3638    -2595     -171      237    -1904    -3433 
   -1498     2874     6459     7285     5561     2977     1440     1763 
    3511     5326     5603     3998     1731      159     -481     -930 
   -1539    -1773    -1150      278     1917     2748     2300     1274 
     922     2252     4973     7491     8767     9001     8399     6514 
    3266       60     -958     1369     5927     9934    11849    12268 
   11781    10429     8650     7264     7110     8218     9120     8536 
    7132     6485     7837    11260    14362    13948     9444     3009 
   -2336    -4758    -5144    -5380    -5492    -4495    -2965    -2553 
   -3570    -4319    -3011     -287     1486     1602     2047     5241 
   10800    14963    14640    10552     5917     4166     6397     9872 
   10925     8284     3466      -50     -253     1110     1874     1692 
    1095     1117     2127     3359     4184     4390     4085     3606 
    2959     1890      546      -11     1452     4257     5978     5902 
    6128     8528    12774    16422    16460    12920     9298     8347 
    9463     9907     7865     4089      712     -308     1864     6641 
   12133    15586    15449    12684     9327     7017     6181     6005 
    5708     5185     4696     4457     4180     3356     1866        8 
   -1462    -1659     -653     1103     4145     8338    11384    11063 
    6936      399    -5005    -5870    -2238     2919     5915     4648 
     783    -2004    -1609     1925     7102    11900    15310    17282 
   17729    16591    13848     9378     4129      780     1301     4302 
    6358     5561     3524     3573     6224     8473     7857     5287 
    4449     7486    11640    12688     9619     5218     3351     4491 
    5237     3132       48      104     4624    10843    15100    15520 
   13164    11060    11507    14589    17516    16461    11586     7478 
    7594    10991    14401    16097    16975    18162    19080    18010 
   14306     9723     6795     6730     9094    11838    12382    10152 
    7009     5193     5284     5399     3750     1532      596      794 
     985      119    -1435    -1563      709     3952     6450     7967 
    9157     9907     9884    10016    11285    13018    13550    11903 
    9063     7537     8530    10445    11164    10777    11219    13443 
   16067    17159    16175    14395    13825    14844    15697    14595 
   11186     6826     3885     3440     4310     4795     4221     3438 
    3903     5425     6481     7261     9269    11897    13184    12902 
   12141    11571    10851     9055     5947     2465       23     -631 
    -115      320      -92     -812        1     3449     7869     9963 
    8382     5349     3978     5132     7419     9083     9386     8243 
    5690     2396     -635    -2894    -3993    -3643    -2323     -842 
     570     2579     5836     9374    11329    11439    11161    11350 
   11244     9863     7709     6502     6869     7491     7179     6011 
    4625     3999     4855     6614     7908     7833     6635     5637 
    5697     5968     5244     3511     1544       -9     -576      465 
    2814     5090     6289     6486     6446     6402     5196     2166 
   -1259    -3121    -2699    -1217     -963    -2422    -3823    -3994 
   -3553    -3643    -4633    -5533    -4766    -2089      990     3094 
    3859     3318     2120     1353     1423     1831     1795     1384 
    1612     2458     2513     1125     -694    -1323       -7     2652 
    5534     7500     7670     6509     5831     6652     7768     7443 
    5763     4202     3638     3867     4234     4269     4428     5396 
    6529     6724     6082     4996     3174     1022       73     1139 
    3603     6296     8399     9876    10703    10820    11278    12702 
   13168    10574     5956     2220      710      548      350      -49 
     865     3669     5771     4676     1738      772     3996     9172 
   11792    10347     6619     2551     -168     -561      408     1515 
    2664     3592     4002     4706     6431     8542     9750     9171 
    7299     6190     7486    10395    12223    10529     5638      908 
   -1098     -539     1838     5111     8127    10491    11914    12353 
   12517    12251    10503     7437     4644     3532     4306     6073 
    7437     7546     6869     6755     8308    11198    13503    13767 
   12829    12390    12791    13060    12039     9915     8341     7893 
    7710     7348     6649     5742     4921     3866     3156     4451 
    7791    11389    13406    12883    10631     8980     9330    10449 
    9943     7241     4632     4983     8608    12842    14803    14336 
   13699    14945    18268    21836    23222    21590    18329    16015 
   16046    16926    16182    13271     9961     8432     8881     9159 
    7103     3327     1587     5011    11770    16522    16271    12947 
   10348     9738     8627     4308    -1866    -5518    -4232     -384 
     975    -2074    -5946    -6560    -3591      581     3134     3161 
    2028      481    -1954    -4780    -6534    -6363    -4873    -3878 
   -4612    -6215    -6353    -3544      684     3178     2732      781 
    -452      126     1731     2998     3665     4403     5467     6680 
    8101     9455     9918     8855     6213     2860      532      577 
    2935     6761    10949    14016    15196    14616    12082     8129 
    4592     2633     2068     1956     2001     3446     6349     8342 
    7444     3773     -149     -770     2573     6898     9251     8969 
    7269     5533     3261     -441    -3727    -3349     2119    10601 
   16931    17469    13766    10230     9734    11185    11473     9824 
    8336     9169    12097    14332    13639    10922     8786     8731 
    9655     9137     6925     5509     6914    10636    13987    14009 
    9972     3875    -1293    -3509    -2714     -560      687      -68 
   -1411     -988     1544     4271     5317     4720     4223     4887 
    5613     5207     4462     4940     6932     9536    11914    13180 
   12295     9609     7209     6970     8467     9062     6877     3182 
    1010     1995     4996     7043     5727     1761    -1884    -3241 
   -2407    -1459    -2552    -4423    -4299    -2155      267     1755 
    2347     3251     4758     5199     3084     -915    -3769    -2304 
    3350     9560    12648    11922     9656     8505     8756     7804 
    3563    -1100     -306     7433    16683    20592    17191    10448 
    6067     6177     7712     6629     3247     1172     2178     4956 
    7474     8848     9367    10186    12840    16903    19852    20456 
   19306    17348    16004    16163    16939    16762    14815    12020 
   10582    11347    12998    13908    13353    12136    11941    13125 
   14501    15191    15294    14889    13911    13000    12679    12900 
   14099    15921    16189    13380     8237     2994      -69     -411 
     741     2107     3380     4985     6771     7603     6726     4597 
    2661     1994     2137     2553     3553     5131     6535     6389 
    3818      403    -1133      -38     2368     4616     6352     7804 
    8292     6724     3269     -739    -3699    -4540    -3460    -1431 
     851     3102     5018     6201     6632     6652     6513     6306 
    5794     4678     3422     2808     2932     3142     2514     1194 
     720     1578     2330     1881      556     -479      418     3702 
    7193     8211     6505     4411     4425     6450     8061     7429 
    5537     5075     6804     8904     9908     9753     8807     7526 
    6412     5682     5176     4497     3060      510    -2360    -3414 
   -1242     2364     4137     3001       24    -3011    -4538    -4702 
   -4622    -4551    -3983    -2266      -53      547     -653    -1228 
     369     3288     5420     5189     3273     1788     1660     2175 
    2452     2416     2882     4702     7632    10695    13290    14975 
   15023    12836     8521     3710     1151     1806     3374     3194 
    1316        9     1239     4174     5421     3182     -698    -3619 
   -4410    -3464    -2490    -2560    -2672    -1459      963     3389 
    4948     5719     6236     6699     6789     6128     5066     5319 
    8127    11444    11599     7668     2649      786     3651     8451 
   10789     9031     5492     3567     3931     4489     3968     3087 
    2543     2273     2063     1914     2396     4108     6432     8136 
    8942     9422     9911     9800     8372     6537     6092     7317 
    8222     6307     1926    -1419    -1445      767     2862     3295 
    2635     2797     3993     4426     2873      101    -1599     -674 
    1696     2718      712    -2921    -4784    -3640    -1616     -855 
   -1273    -1174     1060     4769     6880     5399     1966       48 
    1371     4162     5183     3893     3472     6894    12815    16583 
   15183    10529     7509     9013    13730    17892    18209    14349 
    8850     4746     3471     4032     4336     3442     2369     2887 
    5008     6308     4693     1118    -1084      624     5537    10288 
   11986    10396     7221     4559     3614     4129     5187     5858 
    5673     5347     5740     6596     7326     7330     5968     3823 
    2588     3477     6568    10172    11313     9084     5906     4342 
    4485     4417     2555     -416    -2274    -1505     1307     3856 
    4273     2957     1743     1708     2472     3586     5426     7754 
    8809     7539     5517     5025     6400     7936     7633     5686 
    4413     5040     6514     6653     3864     -770    -4292    -4848 
   -2574     1180     4537     5858     4863     2668      609      125 
    2278     6126     9409    10509     9168     6698     4927     4541 
    5538     7998    11280    14084    15581    15429    13520    10486 
    7574     5829     5417     5627     6119     7191     8593     9947 
   10893    10339     8247     6931     8775    13925    20017    23629 
   22870    18690    13722    10402     9253     8308     5516     1178 
   -2583    -2763     2369     9750    13914    13056     9395     6269 
    6126     8472    10254     9089     5573     2867     3904     8381 
   12333    11569     6159      784      254     4867    10521    13085 
   11316     6736     2477      785     1100     1647     2104     3701 
    7049    10642    12205    11285     9667     9203     9635     9152 
    7411     6813     9268    13085    15054    14237    12416    12046 
   13713    15273    14757    12765    11327    12319    15213    16258 
   13418     9402     7407     7701     8484     8272     7978     9329 
   11680    12846    11944    10174     9364    10055    11439    12343 
   11723     9642     7665     7338     8485     9140     8131     7338 
    9328    13963    18844    21330    20204    16772    13494    12043 
   12967    15167    16475    16375    16632    18744    21739    22690 
   20063    16128    14318    15236    16553    15408    11051     5904 
    3133     3626     5511     6055     4979     4980     7791    11625 
   13302    11984    10269    10300    10184     7187     2234     -948 
     402     5095     8762     8716     6697     6408     9818    15222 
   18527    17243    12693     8408     6824     7286     7736     7488 
    6982     6502     6285     6796     8123     9031     8144     6224 
    5192     5974     8153    10056     9927     7668     4476     1226 
   -1626    -2971    -2037      131     2254     4028     4953     4443 
    3101     2059     1639     1770     2416     2872     2481     1824 
    1703     2002     2049     1324      239      -70     1001     3041 
    4642     4383     2818     1977     2842     4788     6679     7993 
    9158    10363    10668     8999     5936     4051     5565     9558 
   12290    10960     6419     1472    -1391     -750     2448     5719 
    8074    10382    13448    16242    16147    12558     8444     6911 
    8407    11037    12620    12968    12965    12276    10382     7897 
    5440     3211     1747     1891     3609     5003     3995      712 
   -3099    -5431    -4533     -230     5460     9965    11944    11667 
   10414     9293     8315     6887     4745     2145     -105     -841 
     767     4296     7447     7572     4875     2189     1300     1936 
    3099     3618     3270     3204     4159     5349     5073     2315 
   -1362    -2923    -1573      881     2513     2321      962      101 
    -133     -220      584     2227     3197     2170    -1071    -4617 
   -6021    -5405    -4488    -4246    -4215    -2389     2346     7238 
    7968     3856    -1256    -2918      -94     3665     3962     1129 
    -822      -15     1872     2363     1005      161     2060     5814 
    8777     9506     8727     8183     8448     8156     6193     3612 
    2448     3663     6145     7488     6794     5810     6499     8519 
    9779     9371     8572     8616     9172     9221     8686     8536 
    9010     8671     5812     1135    -1804     -243     4966    10495 
   13296    12963    11662    11522    12586    13104    11693     8864 
    6482     6650     9545    11527     8419      936    -5569    -6734 
   -3248      809     2479     2297     2881     5681     9229    10435 
    7883     3307     -618    -2321    -2042    -1695    -1631      738 
    6646    13530    17498    16853    14123    13159    14505    16379 
   17354    16822    16012    17001    19753    22563    24118    24148 
   23524    23230    23029    22103    20772    20232    20274    18768 
   14210     8629     6384     8485    11060    10426     6489     2219 
     988     3081     5672     6231     4534     1723    -1091    -2918 
   -3485    -3802    -4449    -4684    -3901    -2320     -700      517 
    1787     2850     2843     2845     4450     7338    10531    12335 
   10682     6658     3349     1880     2171     3711     4816     4446 
    3259     2215     1675      920    -1090    -3938    -6380    -7765 
   -7828    -6576    -4403    -2479    -2344    -3406    -2895      624 
    5589     8888     8521     5243     1488     -492      228     2954 
    6244     8794    10188    11471    13786    16343    17333    16550 
   15345    14560    13764    12164    10018     8277     7224     6767 
    6461     5371     3308      710    -1797    -2997    -2417    -1014 
     556     2569     5034     6945     7295     6661     6572     7607 
    9118    10027     9403     7168     4090     1025    -1111    -1886 
   -1858     -924     1396     3980     5792     7113     8033     8619 
    8892     8338     7309     6500     5129     2171    -1749    -4373 
   -3290     1298     5697     6652     4923     3478     4393     7402 
    9790     9212     6328     3660     3122     4589     6321     6541 
    4836     2555     1075      606     1341     3239     5162     6056 
    5915     5878     7640    10979    12998    11450     7347     3987 
    3703     5085     4951     2696      305     -119     2145     5613 
    8192     9354     9384     8183     5493     1677    -1595    -2435 
    -723     1951     3681     3348     1771      789      212    -1529 
   -3762    -3661      241     5894     9541     9713     8560     8749 
    9997    10232     9398     9866    13360    18410    20961    18701 
   14135    11121    10683    12030    13715    13958    12731    11488 
   11249    12532    14461    14609    11802     7763     5764     7903 
   13124    17660    17673    12921     7940     7838    12871    17963 
   17801    12296     6208     3922     5545     7617     7460     5791 
    4405     3745     3681     4427     5894     7196     7313     6146 
    4708     4091     4871     7241     9945    10381     7856     4941 
    4870     8859    14797    18396    17460    13914    10905     9796 
    9915     9943     8870     6221     2593     -511    -1825    -1079 
     733     1816      680    -2484    -5171    -4852    -1768     1567 
    2874     2090      667     -900    -3151    -5903    -7628    -6947 
   -5419    -6553   -10391   -12711   -10582    -5394     -975       71 
   -1015     -954     1804     5827     7884     6022     1524    -2609 
   -4030    -2769     -981      -90      615     2277     5054     8630 
   12678    16418    18349    17164    13578     9943     7562     6248 
    5765     6153     7270     8148     7630     6425     6649     8691 
   10466    10130     8114     6455     6412     7160     7628     7571 
    6651     5287     4691     4904     5222     5410     5563     5975 
    6349     5604     3545     1889     3049     7619    13526    17730 
   18065    14767    10565     7769     6411     5806     5966     7379 
   10118    12864    13627    11856     8779     6225     5562     6442 
    6948     5829     3584     1523      662      802      702       68 
      90     1346     3071     4407     5010     4774     3754     2648 
    2272     2552     3638     6204     9598    12276    13150    11927 
   10422    11335    14268    15689    13197     8588     5984     6708 
    7440     4667     -121    -1425     3701    11327    14413    10277 
    3088     -686      929     3950     3935      991     -718     1863 
    6425     8242     6005     3033     3806     8748    13069    12306 
    7737     4616     5726     8821     9731     6644     2233      671 
    2647     5079     5003     2506      -87     -841      197     1211 
     558    -1779    -4382    -5258    -3678    -1001     1271     2850 
    4108     5268     5383     2799    -1917    -5412    -5052    -1088 
    4261     8442    10078     9333     7371     5734     5321     5847 
    6480     6941     7490     7892     7845     7910     8185     7552 
    5807     4617     5215     6419     5771     2209    -2751    -5894 
   -4917     -936     2617     3516     2324     1292     1775     2716 
    2331      295    -2042    -2806    -1085     2446     5702     6394 
    4151      970     -608      282     2283     3620     3811     3664 
    4329     6232     8567     9933     9698     8555     7602     7023 
    6000     4137     2319     1900     3448     6136     8544     9923 
   10151     9177     7140     5185     5261     7348     9063     9378 
    8847     7163     4133      809    -1739    -3257    -3837    -3295 
   -1628      467     2218     3073     3239     4264     6743     8634 
    8336     7243     7724     9950    11762    11349     8882     5897 
    4113     4134     4748     4196     2719     2561     4484     6390 
    6067     3343      -63    -1933    -1918    -1570    -1314     -267 
    1331     2355     2293     1661     1571     1962     1320     -545 
   -1810    -1011     1338     2587      931    -1475    -1892     -889 
    -706    -2523    -4749    -4081      644     6526     7835     1372 
   -7969   -11568    -6807      908     4312     1343    -3092    -2874 
    2037     5832     4241     -377    -2158     1274     6787     9804 
    8338     4589     2860     4274     5447     3224    -1044    -3131 
   -1342     2024     4181     4750     5232     6287     7090     6713 
    4696     1860     -351    -1589    -1800    -1024      221     2029 
    4003     4511     3220     1649      886      931     1386     1848 
    3051     5671     7639     7005     5144     4160     4420     4983 
