Origin Time       2011/03/11 14:46:00
Lat.              38.103
Long.             142.860
Depth. (km)       24
Mag.              9.0
Station Code      AKT009
Station Lat.      39.8869
Station Long.     139.8467
Station Height(m) 16
Record Time       2011/03/11 14:47:26
Sampling Freq(Hz) 100Hz
Duration Time(s)  300
Dir.              N-S
Scale Factor      3920(gal)/6182761
Max. Acc. (gal)   22.896
Last Correction   2011/03/11 14:47:11
Memo.             
[...]
  -11341   -10963   -10561    -9919    -9105    -8334    -7736    -7368 
   -7319    -7674    -8381    -9264   -10131   -10839   -11340   -11593 
  -11520   -11191   -10934   -11084   -11688   -12563   -13570   -14724 
  -16103   -17727   -19489   -21235   -22771   -23870   -24473   -24707 
  -24667   -24371   -23717   -22542   -20906   -19103   -17351   -15547 
  -13404   -10868    -8289    -6146    -4636    -3591    -2731    -1906 
   -1120     -299      807     2395     4467     6828     9198    11335 
   13002    14021    14401    14286    13859    13302    12697    11894 
   10783     9553     8401     7409     6642     6112     5803     5582 
    5167     4373     3226     1861      398    -1099    -2535    -3755 
   -4630    -5182    -5574    -5876    -6082    -6303    -6532    -6553 
   -6294    -5887    -5394    -4780    -3927    -2686    -1224       72 
    1099     1928     2504     2719     2485     1794      863      165 
     113      705     1629     2531     3161     3485     3491     3027 
    2224     1538     1232     1374     1864     2383     2781     3026 
    3065     3102     3253     3334     3399     3686     4171     4763 
    5422     6035     6500     6728     6616     6258     5964     6067 
    6527     6913     7034     7091     7172     7256     7422     7690 
    7952     8160     8341     8425     8347     8190     7920     7212 
    5593     2797     -798    -4457    -7681   -10246   -12172   -13616 
  -14662   -15550   -16733   -18386   -20317   -22254   -24041   -25614 
  -26773   -27306   -27279   -26805   -26044   -25356   -24884   -24508 
  -24291   -24241   -24055   -23573   -22836   -21811   -20592   -19402 
  -18486   -18085   -18054   -17947   -17617   -17175   -16694   -16160 
  -15491   -14593   -13480   -12316   -11339   -10722   -10365    -9952 
   -9386    -8778    -8178    -7610    -7110    -6768    -6724    -7001 
   -7463    -7902    -8154    -8122    -7753    -7189    -6718    -6481 
   -6496    -6735    -7103    -7631    -8374    -9183    -9971   -10627 
  -10832   -10581   -10049    -9122    -7814    -6389    -5123    -4277 
   -3778    -3236    -2342     -924      925     2866     4659     6235 
    7580     8578     8948     8450     7124     5407     3780     2351 
    1140      263     -296     -576     -633     -720     -987    -1389 
   -1823    -2101    -2287    -2688    -3304    -3962    -4476    -4527 
   -4019    -3118    -1883     -344     1399     3201     4775     5812 
    6230     6241     6186     6283     6588     7023     7482     7981 
    8552     9119     9600     9834     9511     8490     6916     5001 
    2916      702    -1587    -3619    -5125    -6238    -7281    -8486 
   -9749   -10763   -11387   -11575   -11313   -10809   -10336    -9971 
   -9710    -9534    -9363    -9249    -9427    -9933   -10357   -10256 
   -9621    -8579    -6956    -4532    -1573     1177     3215     4656 
    5735     6461     6685     6297     5457     4508     3677     3026 
    2511     2027     1397      373    -1075    -2543    -3540    -3911 
   -3810    -3428    -2786    -1815     -607      664     1974     3409 
    5133     7211     9230    10582    11079    10866    10128     9021 
    7679     6358     5458     5269     5761     6619     7489     8191 
    8691     9002     9080     8795     8171     7336     6328     5271 
    4247     3177     2099     1042     -154    -1535    -2873    -3845 
   -4318    -4391    -4145    -3652    -3139    -2779    -2571    -2476 
   -2404    -2305    -2192    -1953    -1468     -675      544     2176 
    4015     5799     7188     7891     7803     6981     5633     3935 
    2045      329     -927    -1797    -2419    -2766    -2666    -1896 
    -537      975     2241     2996     3164     2976     2685     2398 
    2176     1965     1730     1690     2084     2886     3860     4785 
    5673     6755     8125     9538    10576    10989    10870    10468 
    9919     9199     8263     7127     5822     4272     2360      191 
   -1934    -3831    -5500    -6886    -7821    -8216    -8068    -7443 
   -6454    -5164    -3727    -2397    -1267     -342      531     1789 
    3598     5617     7405     8542     8842     8571     8045     7387 
    6712     6092     5547     5154     4927     4794     4829     5232 
    6144     7642     9628    11665    13231    14032    14011    13374 
   12475    11595    10909    10503    10423    10682    11184    11803 
   12435    12961    13375    13786    14247    14651    14661    13921 
   12420    10399     8041     5465     2775        1    -2785    -5340 
   -7312    -8318    -8207    -7259    -5859    -4199    -2442     -879 
     174      579      514      277      -90     -772    -1898    -3462 
   -5296    -7062    -8429    -9194    -9156    -8149    -6267    -3897 
   -1561      395     1891     2976     3808     4505     5068     5592 
    6237     6969     7473     7368     6542     5173     3503     1761 
     213     -828    -1177    -1017     -743     -577     -570     -810 
   -1419    -2394    -3588    -4794    -5836    -6604    -7052    -7231 
   -7237    -7141    -7088    -7286    -7870    -9005   -10803   -13049 
  -15275   -17023   -18041   -18335   -17964   -16995   -15738   -14650 
  -14025   -13893   -14056   -14362   -14850   -15511   -16220   -16866 
  -17380   -17812   -18327   -18926   -19427   -19753   -19957   -20015 
  -19764   -19052   -17866   -16288   -14446   -12578   -11046   -10175 
  -10032   -10308   -10474   -10181    -9480    -8677    -8106    -7970 
   -8337    -9204   -10428   -11826   -13392   -15029   -16381   -17204 
  -17393   -16904   -15956   -14959   -14291   -14161   -14534   -15160 
  -15714   -15979   -15838   -15315   -14629   -13938   -13304   -12863 
  -12612   -12348   -11939   -11372   -10667    -9903    -9119    -8181 
   -7092    -6182    -5700    -5685    -6103    -6756    -7458    -8249 
   -9148   -10132   -11283   -12540   -13717   -14790   -15743   -16510 
  -17171   -17807   -18349   -18679   -18716   -18391   -17584   -16250 
  -14482   -12424   -10197    -7856    -5486    -3276    -1310      421 
    1892     3032     3691     3796     3536     3233     3142     3408 
    4038     4924     5946     7028     8100     9043     9803    10480 
   11097    11481    11423    10776     9523     7869     6123     4527 
    3271     2479     2130     2152     2365     2371     1832      709 
    -820    -2525    -4313    -6155    -7861    -9213   -10193   -10828 
  -11010   -10677    -9885    -8631    -6849    -4565    -2035      308 
    2155     3492     4344     4594     4123     3060     1873     1057 
     737      666      550      393      445      797     1300     1795 
    2272     2896     3810     4879     5757     6236     6356     6228 
    5998     5806     5619     5378     5129     4962     4923     4925 
    4827     4545     4003     3068     1584     -506    -3105    -5938 
   -8556   -10597   -11937   -12687   -13157   -13616   -14289   -15539 
  -17568   -20188   -22933   -25198   -26551   -27027   -26909   -26374 
  -25503   -24382   -23119   -21876   -20778   -19774   -18732   -17605 
  -16394   -15139   -13871   -12541   -11170    -9937    -9131    -9027 
   -9700   -10946   -12340   -13393   -13736   -13173   -11803   -10068 
   -8513    -7606    -7532    -8106    -9028    -9904   -10286    -9942 
   -8879    -7342    -5777    -4505    -3550    -2791    -2081    -1310 
    -444      516     1486     2300     2902     3379     3860     4500 
    5397     6473     7639     8900    10160    11195    11907    12384 
   12676    12741    12566    12155    11599    11091    10577     9790 
    8584     6915     4855     2541      -11    -2655    -4926    -6461 
   -7206    -7292    -6992    -6574    -6205    -6023    -6064    -6170 
   -6095    -5710    -5043    -4119    -2976    -1701     -362      873 
    1691     1920     1592      772     -461    -2050    -3966    -6023 
   -7861    -9160    -9763    -9706    -9201    -8534    -7937    -7529 
   -7361    -7597    -8506   -10158   -12352   -14849   -17426   -19833 
  -21899   -23566   -24834   -25755   -26408   -26817   -27030   -27103 
  -26948   -26464   -25570   -24155   -22390   -20692   -19286   -18312 
  -17863   -17697   -17402   -16759   -15884   -15066   -14569   -14622 
  -15159   -15792   -16338   -16837   -17383   -18067   -18658   -18792 
  -18400   -17597   -16479   -15130   -13629   -12149   -11042   -10503 
  -10480   -10910   -11493   -11917   -12322   -12758   -13152   -13633 
  -13971   -13966   -13848   -13617   -13229   -12800   -12278   -11614 
  -10933   -10532   -10714   -11577   -12952   -14396   -15543   -16269 
  -16489   -16329   -16168   -16268   -16645   -17058   -17037   -16284 
  -14869   -13087   -11312    -9755    -8514    -7729    -7473    -7784 
   -8629    -9799   -11123   -12552   -13918   -15083   -16065   -16836 
  -17324   -17532   -17565   -17561   -17475   -17176   -16642   -15934 
  -15237   -14725   -14401   -14348   -14619   -15000   -15341   -15719 
  -16269   -17017   -17760   -18229   -18295   -17948   -17182   -16031 
  -14762   -13693   -12773   -11809   -10801    -9759    -8621    -7302 
   -5762    -4288    -3395    -3370    -4249    -5714    -7032    -7695 
   -7543    -6430    -4487    -2128      174     2111     3792     5356 
    6741     7891     8797     9506    10002    10126     9807     9210 
    8545     7977     7731     7917     8497     9307    10089    10948 
   12048    13065    13885    14735    15601    16493    17523    18527 
   19241    19537    19403    18967    18403    17918    17595    17223 
   16850    16714    16562    16192    15682    15026    14398    13866 
   13231    12616    12242    12180    12449    12869    13395    13811 
   13587    13086    12638    11826    10936    10078     8924     7841 
    7089     6553     6252     6288     6582     7032     7733     8502 
    9028     9243     9283     9541    10262    11341    12449    13396 
   14450    15705    17002    18307    19425    20272    21035    21766 
   22448    23075    23585    23835    23640    22904    21522    19525 
   17046    14197    11537     9497     7732     5974     4294     2697 
    1368      582      298      318      554      889     1218     1690 
    2412     3261     4231     5276     6190     6980     7797     8601 
    9296     9870    10258    10570    11100    11787    12357    12625 
   12576    12562    12815    13053    13000    12587    11816    10774 
    9645     8650     7790     6984     6416     6147     5995     5956 
    6028     6091     6044     5695     5091     4526     3997     3373 
    2626     1743      893      297     -112     -465     -690     -618 
    -108      905     2357     4005     5547     6849     8014     9361 
   11101    12998    14673    15981    16891    17371    17530    17578 
   17704    17983    18100    17665    16698    15318    13535    11384 
    8931     6364     3987     1968      235    -1357    -2824    -4010 
   -4793    -5333    -5888    -6539    -7223    -7826    -8409    -9102 
   -9721   -10013    -9928    -9622    -9320    -9050    -8810    -8689 
   -8647    -8471    -7829    -6598    -5115    -3709    -2409    -1179 
    -224      188      160     -205     -999    -2120    -3511    -5220 
   -7068    -8959   -10912   -12677   -14176   -15757   -17546   -19456 
  -21465   -23432   -25194   -26677   -27907   -29006   -29866   -30283 
  -30372   -30104   -29213   -27915   -26474   -24760   -22931   -21235 
  -19734   -18553   -17487   -16193   -14652   -12867   -10816    -8395 
   -5589    -2794     -299     1889     3697     5165     6480     7603 
    8383     8830     8936     8547     7538     5832     3448      675 
   -2157    -4885    -7325    -9337   -10984   -12450   -13913   -15251 
  -16160   -16571   -16573   -16203   -15440   -14374   -13182   -11909 
  -10751    -9931    -9295    -8739    -8105    -7055    -5809    -4845 
   -4173    -3847    -4097    -4802    -5555    -5812    -5230    -4102 
   -2930    -2125    -2016    -2618    -3866    -5773    -8082   -10331 
  -12220   -13790   -15322   -16949   -18429   -19588   -20695   -22008 
  -23417   -24612   -25412   -26053   -26867   -27894   -29029   -29988 
  -30565   -31021   -31670   -32620   -33819   -34996   -35889   -36408 
  -36672   -36882   -36995   -36729   -35815   -34328   -32647   -31059 
  -29620   -28204   -26725   -25373   -24424   -23966   -23773   -23473 
  -22993   -22476   -21912   -21233   -20427   -19484   -18498   -17648 
  -17013   -16646   -16597   -16663   -16551   -16281   -16065   -15905 
  -15480   -14521   -13147   -11629   -10185    -8897    -7612    -6317 
   -5297    -4578    -3838    -2894    -1840     -860      -67      552 
    1106     1665     2078     2101     1761     1370     1173     1300 
    1803     2465     2825     2592     1828      674     -802    -2543 
   -4303    -5673    -6479    -6733    -6402    -5523    -4324    -3201 
   -2366    -1755    -1513    -1933    -3038    -4665    -6475    -7991 
   -8972    -9344    -9090    -8349    -7227    -5790    -4287    -3036 
   -2172    -1802    -2078    -2923    -4118    -5457    -6679    -7575 
   -8145    -8420    -8413    -8353    -8541    -9004    -9612   -10271 
  -10763   -10809   -10346    -9454    -8273    -6943    -5577    -4357 
   -3260    -2044     -638      772     1893     2633     3198     3735 
    4243     4813     5629     6808     8281     9890    11694    13921 
   16600    19522    22483    25357    27991    30209    31871    32854 
   33097    32725    31859    30412    28436    26201    23847    21464 
   19141    16854    14635    12578    10787     9497     8844     8579 
    8359     8100     7772     7149     6153     5111     4430     4275 
    4498     4883     5375     5962     6648     7408     8175     9057 
   10220    11607    13026    14274    15233    15964    16384    16098 
   14932    13219    11470    10162     9479     9126     8717     8127 
    7458     6864     6331     5726     4960     4047     3048     1913 
     530    -1065    -2690    -4115    -5249    -6234    -7217    -8245 
   -9366   -10593   -11980   -13728   -15926   -18335   -20690   -22921 
  -24932   -26571   -27751   -28385   -28538   -28368   -27834   -26772 
  -25203   -23405   -21599   -19865   -18311   -16842   -15207   -13345 
  -11291    -9099    -6890    -4814    -3023    -1566     -313      869 
    1987     2946     3594     3801     3575     2958     1932      588 
    -953    -2643    -4255    -5598    -6691    -7452    -7839    -8030 
   -8189    -8436    -8925    -9800   -11044   -12411   -13588   -14321 
  -14556   -14362   -13665   -12432   -10841    -9091    -7189    -4976 
   -2459      124     2593     4764     6513     7953     9155    10051 
   10755    11615    12887    14453    15937    16904    17072    16525 
   15426    13803    11759     9472     7065     4651     2310      156 
   -1593    -2718    -3102    -2872    -2418    -2147    -2285    -2866 
   -3770    -4805    -5900    -7005    -7799    -8232    -8729    -9428 
  -10374   -11667   -12999   -14049   -14744   -15000   -14797   -14169 
  -13064   -11428    -9358    -7058    -4705    -2391     -129     1948 
    3634     4904     5833     6540     7240     8171     9495    11043 
   12355    13097    13138    12425    11033     9134     7027     5228 
    4171     3822     3760     3522     2859     1773      318    -1479 
   -3488    -5475    -7250    -8802   -10308   -12012   -14056   -16317 
  -18458   -20197   -21392   -21958   -21937   -21392   -20302   -18756 
  -16939   -14974   -13026   -11300    -9900    -8802    -7935    -7184 
   -6269    -4881    -2954     -611     2001     4771     7509     9837 
   11440    12320    12726    12985    13244    13415    13449    13337 
   12955    12087    10459     8084     5455     3009      854     -999 
   -2601    -4046    -5403    -6766    -8169    -9533   -10838   -12133 
  -13329   -14200   -14532   -14239   -13442   -12448   -11587   -11023 
  -10733   -10632   -10614   -10566   -10373   -10040    -9801    -9833 
  -10049   -10180    -9919    -9228    -8360    -7527    -6804    -6167 
   -5522    -4781    -3955    -3114    -2300    -1511     -679      240 
    1148     1987     2870     3887     4906     5627     5763     5180 
    4033     2725     1686     1249     1641     2890     4831     7259 
    9772    11768    12925    13291    13035    12371    11418    10233 
    8974     7790     6719     5796     5030     4313     3535     2675 
    1784      944      125     -783    -1663    -2174    -2167    -1809 
   -1427    -1334    -1628    -2169    -2697    -2920    -2678    -2062 
   -1259     -375      495     1272     1994     2678     3292     3922 
    4733     5836     7222     8797    10411    11860    12962    13615 
   13876    13898    13746    13381    12764    11940    11061    10325 
    9841     9583     9432     9186     8682     7871     6726     5174 
    3148      686    -2108    -5147    -8246   -11044   -13232   -14750 
  -15747   -16450   -16987   -17264   -17103   -16467   -15479   -14326 
  -13110   -11717   -10028    -8139    -6162    -4062    -1749      807 
    3519     6209     8776    11252    13549    15367    16441    16669 
   16026    14603    12734    10823     9016     7228     5413     3702 
    2235      966     -155    -1162    -2225    -3290    -4201    -5108 
   -6085    -7050    -7889    -8238    -7896    -7081    -5976    -4671 
   -3350    -2166    -1199     -429      363     1338     2357     3207 
    3807     4206     4558     5003     5613     6416     7354     8246 
    8916     9294     9430     9472     9613    10008    10755    11769 
   12728    13266    13132    12266    10790     8849     6577     4236 
    2100      246    -1412    -3000    -4578    -6099    -7563    -9051 
  -10581   -12179   -13929   -15886   -18020   -20186   -22193   -23883 
  -25162   -26069   -26669   -26963   -26962   -26611   -25857   -24823 
  -23708   -22653   -21701   -20844   -20163   -19727   -19470   -19315 
  -19241   -19185   -18981   -18499   -17804   -17062   -16338   -15546 
  -14602   -13568   -12582   -11794   -11365   -11362   -11772   -12530 
  -13414   -14227   -15036   -15962   -17021   -18132   -19099   -19815 
  -20381   -20929   -21559   -22325   -23160   -23921   -24542   -25038 
  -25403   -25564   -25362   -24674   -23567   -22144   -20390   -18293 
  -15982   -13683   -11618    -9935    -8648    -7730    -7196    -7014 
   -7072    -7307    -7728    -8301    -8905    -9465   -10090   -10989 
  -12224   -13635   -15091   -16637   -18263   -19829   -21269   -22605 
  -23851   -25031   -26132   -27031   -27558   -27689   -27521   -27133 
  -26606   -25975   -25141   -24017   -22675   -21247   -19777   -18189 
  -16449   -14741   -13313   -12174   -11141   -10099    -9094    -8210 
   -7381    -6404    -5176    -3828    -2648    -1905    -1721    -2147 
   -3241    -4920    -6945    -9094   -11205   -13156   -14873   -16310 
  -17466   -18422   -19329   -20277   -21229   -22135   -22988   -23739 
  -24262   -24419   -24160   -23540   -22603   -21296   -19537   -17420 
  -15242   -13239   -11537   -10226    -9297    -8619    -7981    -7266 
   -6583    -5971    -5388    -5021    -5060    -5460    -6087    -6790 
   -7481    -8207    -9004    -9802   -10489   -11003   -11377   -11661 
  -11793   -11688   -11411   -11079   -10731   -10335    -9817    -9188 
