Origin Time       2011/03/11 14:46:00
Lat.              38.103
Long.             142.860
Depth. (km)       24
Mag.              9.0
Station Code      AKT014
Station Lat.      39.5950
Station Long.     140.5573
Station Height(m) 56
Record Time       2011/03/11 14:47:05
Sampling Freq(Hz) 100Hz
Duration Time(s)  300
Dir.              E-W
Scale Factor      3920(gal)/6182761
Max. Acc. (gal)   66.652
Last Correction   2011/03/11 14:46:50
Memo.             
[...]
   21754    23219    19231     9064    -5104   -16331   -18437   -11234 
    2059    16383    25679    27708    25000    20507    15959    11467 
    4516    -6207   -16640   -21247   -18600   -10986    -1723     6207 
   11545    14882    15402     9895    -1992   -14926   -22880   -24616 
  -22766   -19891   -18298   -20408   -26140   -33105   -39416   -44003 
  -45417   -41539   -32062   -20214    -9048      266     6132     8226 
    8497     7825     5987     2466    -3851   -10171   -10161    -3200 
    5763    14285    22302    29347    34833    36712    32401    22451 
   10723     1406    -4649    -9935   -16183   -23335   -30121   -33833 
  -33144   -28362   -19237    -7932     1008     5751     6806     4530 
    -784    -8554   -16718   -23119   -28500   -33836   -37335   -36702 
  -30868   -21134   -11803    -5277      855     8650    16345    19654 
   14878     3956    -6663   -14253   -20382   -24263   -23518   -18833 
  -12199    -4707     1269     2328    -1364    -5457    -8178   -12714 
  -20610   -29878   -38520   -43409   -40178   -27205    -6947    14775 
   32002    42763    45967    38700    22451     4755    -8803   -17888 
  -23095   -24243   -21945   -16897    -9421    -1265     4893     8011 
    8473     6577     3180      327      438     4173     8141     8011 
    3873    -1815    -8838   -17564   -25641   -29385   -27623   -22655 
  -16625    -9327    -1821     3050     5295     6910     8876    11625 
   13756    11943     4781    -4321    -8544    -4190     6411    19293 
   30553    37831    43724    50101    52303    47237    38757    29769 
   19750    10011      887   -10007   -21132   -28604   -31480   -28977 
  -21206   -11193     -248    11502    20792    24118    22041    17662 
   11735     2359    -9296   -18287   -21620   -19606   -13852    -7225 
   -2415      168     1571     2376     1283    -3426    -9947   -14430 
  -16378   -18102   -20331   -22227   -24097   -26766   -29417   -30099 
  -26902   -18834    -7766     2486     9867    13575    11710     3966 
   -5639   -12628   -17067   -21014   -22316   -15924     -585    17915 
   30403    33010    27110    11768   -11186   -32324   -45478   -51937 
  -53296   -49271   -38741   -21923    -3537    10209    18046    23917 
   30727    36713    39424    39120    36255    29702    19114     5695 
  -10256   -28079   -44263   -56135   -62659   -60965   -50347   -35298 
  -21245   -12248    -9465   -11264   -16761   -24892   -32662   -37166 
  -36106   -28756   -17916    -7476     1125     8035    11995    10563 
    3825    -5101   -13565   -20827   -27590   -33776   -35622   -29725 
  -18257    -6294     1919     4855     4336     2378     -736    -4618 
   -7440    -7658    -6863    -7725   -10152   -12921   -15442   -16631 
  -15684   -14047   -15199   -20206   -24949   -26438   -26843   -27781 
  -28088   -26792   -23102   -16881   -10569    -7600    -9480   -14638 
  -19098   -20407   -19735   -17572   -13308    -9526    -7793    -4591 
    1677     7537    10046     9268     7473     7395     9610    13706 
   19188    22791    20970    14551     7154     2470     1823     2772 
    3693     5565     7821     9025     8727     6097     1767    -1383 
   -2018    -1616    -2158    -3380    -2877     -683     -382    -4091 
  -10778   -17951   -21879   -19780   -12463    -2551     8297    18999 
   27471    31500    30797    26499    19598    10525       97    -9125 
  -14726   -16892   -16994   -16745   -17669   -20070   -25359   -34208 
  -41798   -43690   -41143   -34955   -24622   -14200    -8723    -7514 
   -7524    -9209   -13130   -14640    -9791    -1891     4394     8289 
    9931     9798     9744     9423     4604    -7452   -23722   -38063 
  -44215   -38227   -23121    -7533     3691    12387    19264    21447 
   18342    12086     4453    -1694    -2048     4466    12625    15106 
   10085     2465    -3017    -5839    -6558    -5056    -1772     2248 
    4691     2149    -6163   -16626   -24650   -28609   -29363   -27549 
  -23705   -18562   -12736    -7972    -4711    -1087      685    -3983 
  -12289   -16596   -13716    -5707     3054     9200    13038    14782 
   12015     4681    -4281   -13981   -24388   -32236   -33640   -29298 
  -24222   -22328   -23366   -25081   -24862   -20285   -11920    -3915 
     128      864     2010     4902     7002     7528    10285    17832 
   26045    29298    27711    24201    21104    21824    26748    29978 
   26530    16917     4640    -4806    -7914    -8072    -9679   -12600 
  -15970   -18651   -18315   -15849   -14415   -14186   -13495   -11421 
   -6940      234     8619    17203    25766    32729    36392    36126 
   29997    16379    -1148   -15980   -24323   -26015   -23808   -21393 
  -18636   -12668    -2970     8331    17490    21451    20749    16925 
   10979     4478    -2559    -9887   -13718   -12340   -10802   -15359 
  -26022   -37144   -44414   -46461   -41560   -30341   -18480   -10804 
   -5978      362     9181    16335    17785    13891     6727    -1534 
   -6991    -7258    -3885      862     5651    10858    17396    22377 
   22171    17884    12007     5580     -635    -6963   -13790   -19311 
  -21770   -22431   -23323   -23637   -21732   -17910   -13465   -10430 
   -9919   -10130    -9938   -10576   -12586   -15764   -19580   -21892 
  -20993   -18671   -18314   -20036   -20215   -16308    -9836    -3980 
      39     2488     2655     -488    -6331   -12803   -18041   -20965 
  -20081   -14675    -7282    -1208     2359     3019      914    -3097 
   -9439   -18792   -28896   -36073   -38648   -35715   -26474   -13800 
   -2085     8362    18207    25514    29661    32315    34323    35244 
   33517    28440    23361    21835    21906    19611    14709     8906 
    2758    -2943    -6672    -7940    -6601    -1864     6145    15123 
   21050    21050    16193     9497     3406      464     2012     5905 
    8460     8145     6119     2907    -2851    -9964   -13436   -10432 
   -3167     5508    14513    21237    20964    12169     -294    -9914 
  -14123   -12223    -3618     8590    18957    24610    24493    17380 
    3830   -12520   -27542   -38878   -44823   -43557   -34322   -18834 
   -2003    10518    15568    12150     1937    -9666   -17672   -21119 
  -20704   -17102   -11764    -5683      719     5844     8945    12018 
   16131    19027    18822    16578    13641     9491     3161    -4724 
  -12508   -20195   -29031   -37963   -43815   -44641   -40546   -33336 
  -26775   -23840   -23371   -22859   -21978   -20249   -16498   -12092 
   -9824   -10967   -14812   -18600   -20595   -22022   -22612   -20875 
  -18408   -16536   -13752   -10048    -7573    -7700   -10304   -13768 
  -17014   -21140   -26153   -29485   -28245   -20200    -6423     6955 
   13836    12281     3305   -10117   -24265   -36322   -43326   -42198 
  -32734   -18566    -5548     1517     3151     3213     3237     3907 
    6720    10595    13247    14704    15559    15163    12809     8909 
    4681     1290     -164      228     -225    -3250    -6470    -7852 
   -7901    -6801    -5753    -6441    -7132    -5682    -2339     2101 
    5367     4761      566    -5147    -9473    -9359    -4500     3517 
   12360    18544    20891    20728    18008    13357     9818     9140 
   11553    16664    20932    20126    14706     8217     3037     -698 
   -4628    -9645   -13954   -15739   -15083   -12558    -9317    -7152 
   -6299    -4828     -434     6761    13526    18090    21448    22330 
   18648    12723     8240     5887     4947     5359     6725     7475 
    6490     4498     3668     5504     9004    11934    11647     6102 
   -2400   -10029   -17081   -24376   -30766   -36427   -41212   -43428 
  -42558   -37865   -28076   -14763    -1206     9484    13407     8689 
   -1006    -9522   -13514   -13282   -10182    -5964    -3481    -4369 
   -7767   -13154   -19901   -24227   -22860   -18143   -14251   -11832 
   -9201    -5106       87     5744    13466    23542    31747    35290 
   34379    26995    12629    -3164   -15055   -22374   -26891   -31322 
  -36886   -40663   -38437   -29721   -17949    -6160     5093    14831 
   20259    19964    14899     5921    -5114   -13442   -15474   -12567 
   -9055    -8291    -9443    -9377    -7957    -7111    -7269    -7970 
   -8054    -5890    -1792     2201     4772     6111     7493     9739 
   11447    10658     7902     5198     3744     4419     7823    12533 
   16212    18740    21088    22512    22311    21343    19395    16030 
   14337    16861    20301    20355    15720     6408    -4715   -13252 
  -17815   -18385   -15715   -13013   -11875   -10669    -8647    -6025 
   -2285     2297     6819    10624    11458     6799    -1671    -8645 
  -10194    -6411     -107     5524     8436     8343     5733      511 
   -7645   -18688   -31647   -43617   -51298   -53492   -50194   -40619 
  -24759    -5211    16277    39639    60521    71755    72060    66065 
   57482    46202    31486    16256     4149    -5648   -14295   -19747 
  -21963   -22951   -21682   -16489    -9024    -2727     -786    -4987 
  -13959   -22755   -26196   -23468   -18371   -14881   -12876    -8935 
   -1682     5988    10575    11142     9462     8684    10364    13447 
   16537    18819    20392    22344    23597    20359    10937    -2182 
  -14736   -22646   -23244   -16640    -5397     6666    16263    24107 
   32333    36917    31413    16766       48   -12873   -21307   -28234 
  -34461   -37787   -36958   -30721   -17582     -340    15273    26117 
   30722    28027    20991    14400     8999     3594    -1809    -7593 
  -13965   -20226   -26410   -32043   -34866   -33502   -29078   -23355 
  -16913    -9831    -2519     4512    10102    12877    12917    10838 
    6705     2381     1239     3786     7570    10300    10429     7235 
    1175    -6408   -13240   -17242   -18152   -16262   -11688    -6720 
   -5173    -8604   -15638   -22795   -25386   -21795   -15684   -10921 
   -7603    -4146      118     4230     6080     4639     1020    -3489 
   -8199   -12736   -17954   -23810   -27472   -27196   -23321   -16249 
   -9291    -6981    -8512    -9956    -8920    -3838     5484    16681 
   26671    33694    37372    37007    31070    19790     6737    -3344 
   -7617    -5875     1307    12905    25758    36018    42377    44840 
   41573    30528    13175    -5583   -21166   -32362   -39613   -42895 
  -43334   -42225   -38991   -33898   -28722   -24009   -20000   -17803 
  -17157   -16896   -17820   -20951   -24733   -27325   -28431   -27287 
  -22655   -14803    -5411     3193     8702     9905     6954     1459 
   -4203    -8748   -12119   -14170   -14472   -12843    -9137    -2892 
    5355    12978    17021    16416    12269     6546      528    -5143 
   -9750   -12740   -14230   -14830   -14605   -13027   -10844   -10291 
  -12830   -18172   -24342   -28437   -28881   -25445   -17890    -7456 
    3128    12253    18880    21890    22113    21265    19937    18662 
   17664    16341    14755    12903     9397     3024    -6251   -17651 
  -29448   -39664   -46811   -49201   -45460   -36925   -27684   -20299 
  -13752    -7367    -2050     2703     7092     8856     7710     6774 
    7658     9089     9764    10245    12325    15962    18331    16508 
    8886    -3929   -17493   -26185   -28001   -25043   -20897   -17393 
  -13950   -11010    -9666    -8201    -4941     -610     4646     9924 
   12128    10748     8433     6366     3669     -431    -5975   -12998 
  -21936   -32435   -42694   -50922   -56067   -56898   -52554   -44108 
  -33862   -23858   -16242   -13102   -13892   -15071   -14133   -11895 
  -10285    -9708    -9021    -7740    -6906    -8211   -13895   -24064 
  -33770   -38403   -37891   -31797   -19833    -6612     3335     9633 
   12423    11727     8298     3501      686     2218     5849     9098 
   13021    18193    21387    17727     4301   -16908   -39670   -59034 
  -73535   -82035   -83750   -79783   -71262   -58143   -41183   -24510 
  -12696    -5135      720     4770     8081    13407    21070    29613 
   36967    40660    39996    35233    25757    12491    -1159   -12197 
  -19920   -25856   -31885   -37937   -43324   -48154   -51552   -52189 
  -50012   -44805   -35907   -24350   -12938    -3797     2980     8008 
   12023    16691    23314    31003    36484    35454    27254    17196 
   10495     7576     7373    10061    15370    21624    26421    26654 
   20246     9519     -253    -5872    -7538    -7444    -8101   -10553 
  -14892   -20538   -25490   -28116   -27919   -25050   -20819   -16220 
  -12148   -10966   -13493   -17825   -22479   -25925   -25102   -19072 
  -11836    -7846    -7229    -7841    -8389    -8603    -9302   -11871 
  -16815   -22541   -25255   -22944   -18958   -17188   -16566   -13989 
   -7444     4918    22607    40913    55447    65027    69328    68213 
   61891    49650    30906     6997   -19331   -45086   -67762   -84798 
  -92928   -90381   -78772   -62465   -47849   -40165   -39047   -39750 
  -37600   -29737   -15783     1767    19371    34336    45124    51283 
   52612    49274    43189    35319    23283     6123   -13573   -34613 
  -57493   -79717   -96621  -105693  -106582   -98366   -80934   -59043 
  -38716   -19663     1428    23423    42733    56982    64712    66476 
   64500    60144    54110    47752    42619    38961    35080    29020 
   20585    10340    -1971   -15580   -28091   -39054   -50333   -61363 
  -67484   -63894   -48884   -24868     2409    29765    57644    81606 
   95172   100420   101145    94148    77619    55921    33502    13614 
   -1273   -11594   -18048   -20380   -20226   -18267   -11790      321 
   15246    28553    34786    28772     9266   -19231   -48573   -72329 
  -89465  -100584  -103236   -95459   -80301   -63048   -46513   -30969 
  -17382    -7275       24     6126    11064    13702    12970     8266 
      78    -9228   -16476   -19005   -15944    -9675    -3487      782 
    1529    -1419    -5442    -7875    -7580    -4078     3002    13655 
   25914    36371    42870    44497    42587    41775    44498    48346 
   50745    49628    41337    23390    -2554   -32274   -60752   -81948 
  -90835   -87476   -77900   -69078   -63271   -59594   -57116   -52690 
  -41857   -24910    -7069     7698    18009    21488    15993     3888 
   -9029   -18447   -23943   -26964   -28101   -28230   -28678   -27666 
  -23252   -18204   -14967   -12598   -10467    -7861    -3405     3091 
   11773    22396    32199    38260    39584    35212    24727    10475 
   -3779   -16003   -27114   -37919   -45882   -47615   -42071   -30180 
  -13919     4237    21477    35439    45510    51151    49948    40707 
   27035    15227     8874     6502     4550      201    -9349   -24486 
  -39843   -49842   -53982   -53166   -47638   -38273   -26111   -13949 
   -5514     -190     5294    11906    20263    30949    40219    43327 
   41058    36446    30447    23673    15996     6384    -4075   -13578 
  -22430   -30412   -34845   -34033   -29806   -26195   -27466   -34987 
  -45311   -53894   -58064   -54970   -41352   -17469    10777    34975 
   48875    50498    42685    31319    19819     7362    -6073   -18473 
  -29374   -38592   -44594   -48235   -51786   -53427   -49879   -42196 
  -33674   -25837   -18399   -10095     -263    10363    21798    34454 
   47021    58065    66891    71426    68427    57196    41889    28500 
   20175    16820    17720    21677    24822    21728    10359    -6259 
  -23510   -37180   -43698   -41533   -31443   -16598    -1438    12220 
   23802    30752    33156    34772    35914    33930    29156    23454 
   15850     3881   -12443   -31056   -49444   -63446   -68743   -63549 
  -48308   -27140    -6810    10680    27101    39774    44844    44121 
   41571    38444    33783    26869    18075     7606    -4559   -17388 
  -28844   -37174   -41899   -43239   -41313   -36946   -31391   -25051 
  -19217   -16195   -16099   -18940   -27446   -42608   -60839   -76776 
  -85663   -85322   -76901   -62151   -42620   -22105    -5602     4441 
    9043    11241    14221    19703    27251    34563    39218    40725 
   39580    35895    31245    28854    30758    36387    43194    48816 
   50954    45819    32775    17195     3451    -8620   -19137   -27194 
  -32380   -32839   -26604   -15669    -3623     8248    19955    30601 
   37519    38643    35164    29437    23115    17489    12322     6135 
   -1459   -10099   -19675   -29279   -37850   -44900   -49101   -49114 
  -44492   -34533   -19480    -1595    16523    32867    46306    55926 
   58826    51740    35342    14565    -4149   -16174   -20260   -16627 
   -6409     6949    19010    26106    25568    17491     5554    -5504 
  -12131   -13967   -14336   -16410   -20704   -26374   -31951   -35843 
  -37491   -37661   -37953   -39429   -40898   -39156   -31567   -18854 
   -4398     9670    22800    33449    40276    43476    43484    41108 
   37204    31810    25178    17196     6971    -4779   -16608   -28680 
  -40256   -48388   -50689   -45673   -32588   -14813      -76     6129 
    4647     -619    -6225   -10482   -14156   -18329   -22766   -26582 
  -27103   -21416   -11671    -4816    -6564   -16018   -25567   -27625 
  -20249    -6018    10813    25602    34169    34297    27106    16439 
    6683     1112      853     4204     8241    11242    12477    12288 
   12415    12259     7728    -2850   -16296   -28463   -36359   -38145 
  -33187   -22215    -8537     3269    11550    16873    17997    13274 
    4389    -4531   -10174   -11485    -9327    -5790    -2875     -812 
    1384     4357     8454    13463    18133    20263    16551     4622 
  -13673   -32879   -47934   -57354   -63243   -68287   -73076   -75869 
  -73046   -60753   -38783   -11117    18645    48378    74098    91375 
   99547   100166    93401    79571    62181    45288    29246    13092 
   -2414   -17114   -31575   -45106   -57474   -68570   -75496   -74132 
  -61995   -39960   -13676    10391    29379    41214    44256    40985 
   35246    28549    22174    18516    18795    22079    26685    30319 
   30427    25785    15717     -253   -19682   -37929   -52013   -60419 
  -62051   -56904   -44883   -25551       30    28132    52229    65778 
   66457    56977    42776    28774    17529     9727     4210    -1581 
   -8960   -17353   -25869   -33479   -39895   -46189   -51839   -53588 
  -48032   -33528   -12634     6551    15166     9595    -6987   -26345 
  -41005   -49738   -54606   -56719   -56875   -54851   -49368   -41012 
  -31740   -23041   -16454   -12818   -10822    -8364    -5548    -4443 
   -5570    -8524   -14700   -24090   -33398   -39905   -41504   -35588 
  -22067    -3152    18169    36799    48071    51468    48656    41136 
   31794    25052    22000    18585    12171     5031     -534    -5564 
  -13561   -27420   -44682   -59060   -66832   -66515   -57814   -44727 
  -32549   -22974   -15727    -9925    -4554     -513     1438     2978 
    6573    15040    30072    49615    69279    84430    91977    92706 
   89245    82445    71474    53849    26080   -10643   -47474   -75279 
  -91485   -96796   -92423   -82649   -72965   -65611   -59224   -51585 
  -42703   -33221   -21980    -9529     1556    11293    20757    28345 
   31717    30168    23655    12104    -2608   -15948   -25405   -33933 
  -44910   -56688   -65120   -67758   -64155   -55449   -45099   -37971 
