Origin Time       2011/03/11 14:46:00
Lat.              38.103
Long.             142.860
Depth. (km)       24
Mag.              9.0
Station Code      AKT010
Station Lat.      39.7223
Station Long.     140.0998
Station Height(m) 6
Record Time       2011/03/11 14:47:18
Sampling Freq(Hz) 100Hz
Duration Time(s)  300
Dir.              N-S
Scale Factor      3920(gal)/6182761
Max. Acc. (gal)   39.332
Last Correction   2011/03/11 14:47:03
Memo.             
[...]
   18639    18505    18617    19340    20397    21175    21134    19709 
   16716    12878     8986     5413     2278     -314    -2157    -3532 
   -4722    -5182    -4599    -3666    -3161    -3222    -3657    -4184 
   -4401    -4055    -3215    -2240    -1612    -1784    -3106    -5333 
   -7534    -8729    -8240    -5828    -1592     4133    10370    16167 
   21384    25623    28047    28597    27818    26036    23614    21325 
   19912    19524    19774    20362    21283    22285    23049    23878 
   25167    26700    28044    28923    29280    29077    27819    24861 
   20124    14106     7857     2800     -244    -1380     -778     1518 
    4946     8320    10435    10742     9292     6258     1977    -2868 
   -7364   -10509   -11664   -10658    -7478    -2775     2156     6454 
    9683    11454    11638    10325     7981     5360     2961      925 
    -801    -2309    -3808    -5781    -8284   -10292   -10545    -8352 
   -3580     2995    10043    16813    23035    28179    31258    31609 
   29707    26230    21601    16765    12667     9632     7540     5970 
    4697     3720     3056     3262     5234     9253    14644    19840 
   22952    23056    20528    16173    10940     6092     2831     1876 
    3597     8149    14847    22070    28375    33020    35755    36875 
   36714    35264    33057    31025    29539    28470    27194    25125 
   22592    20489    19562    20133    22269    25549    28819    31209 
   32604    32911    31733    28714    24132    18801    13610     9361 
    6237     3827     1659     -880    -4122    -7590   -10538   -12212 
  -11947    -9935    -7263    -5010    -3673    -3306    -4035    -5990 
   -9075   -13352   -18657   -23982   -28127   -30282   -30268   -28351 
  -24541   -19536   -14978   -11280    -7724    -4036     -238     3175 
    5124     4980     3037      358    -1555    -1477      752     4159 
    7698    10757    12979    14429    15099    14476    12235     8691 
    4823     1674     -800    -3444    -6620    -9834   -11947   -11957 
  -10177    -7577    -4502    -1434      984     2725     3766     4261 
    4709     5326     6160     7031     7490     7285     6583     5894 
    5409     4612     3101     1169     -680    -2252    -3389    -3704 
   -3347    -2801    -1982     -883      323     1822     3631     5158 
    5594     4861     3839     3345     3411     3466     3018     1966 
     530     -726    -1316    -1162     -401      557     1024      559 
    -518    -1257     -600     2054     6531    12220    18206    23260 
   26615    28271    28388    27461    26384    25430    24230    22542 
   20378    17802    14725    11180     7787     5252     3656     2927 
    3448     5658     9326    13532    17422    20741    23603    25939 
   27403    27948    28212    29134    31287    34511    37950    40695 
   42345    42769    41994    40554    39249    38372    37772    37413 
   37297    37450    37995    39176    41521    45127    49091    52512 
   55062    56543    56892    56422    55707    55130    54731    54676 
   55119    55880    56975    58395    59352    58793    56186    51599 
   45527    39034    33208    28405    24925    23234    23216    24363 
   26330    28826    31133    32529    33214    33587    33365    32248 
   30451    28322    26040    23959    22412    21326    20439    19174 
   17251    15295    13576    11579     9099     6664     5036     4343 
    4303     5123     6935     9533    13125    17804    22899    27397 
   30556    32586    34260    35663    36251    35799    34507    32546 
   30020    27281    24657    22157    19951    18606    18733    20551 
   23825    28057    32394    36011    38674    40067    39896    38654 
   36804    34568    32402    30488    28474    25726    22088    18183 
   14551    11524     9573     9011     9895    11896    14030    15551 
   16891    18691    20761    22462    23154    22547    21034    19122 
   16907    14512    12348    10843    10103     9846     9765     9873 
   10745    12994    16031    18256    18574    16925    13847    10241 
    7164     5207     4157     3549     3163     2826     2272     1177 
    -834    -3844    -7498   -11511   -15441   -18451   -20229   -21038 
  -21141   -20783   -19855   -18132   -15935   -13795   -12294   -11918 
  -12513   -13620   -14833   -15679   -15766   -14750   -12431    -8888 
   -4568     -742     1162      637    -2199    -6666   -11375   -15019 
  -16828   -16379   -13554    -8729    -2809     3206     8646    13151 
   16549    19089    21378    23400    24401    24155    23050    21576 
   20747    21749    25001    29967    35300    39517    41785    41657 
   38778    33497    27151    21196    16333    12514     9406     6994 
    5457     4521     3923     4061     5544     8519    12394    16350 
   19748    22063    23312    23579    22202    18956    14616     9985 
    5691     2082     -521    -1456     -956       29     1524     3856 
    6577     8839    10254    11115    11357    10577     8920     6932 
    5169     3814     2992     3341     4998     7186     9347    11247 
   12781    14067    14906    14962    14271    13258    12706    13021 
   13800    14586    15030    14671    13330    11098     8201     5370 
    3621     3489     4891     7537    10828    13666    15061    15023 
   14593    14650    15183    15999    17138    18597    20293    22029 
   23712    25647    28082    30775    33128    34277    33408    29894 
   23523    15534     8392     3574      756     -589     -749     -296 
     864     3482     7883    13570    19222    23928    27709    30353 
   31132    29390    25253    20046    15464    12446    10982    10567 
   10557    10503    10460    10493    10361    10019     9716     9967 
   11087    12688    14225    15234    15419    15161    15101    15400 
   15725    15779    15854    16493    17757    19034    19539    18878 
   16818    13295     8670     3442    -1574    -5379    -7639    -8408 
   -7293    -4435    -1134     2416     6876    11373    14788    16476 
   15706    12628     8032     2952    -1178    -3097    -2096     1672 
    7120    12835    17624    21047    23778    26258    27689    27619 
   26324    23882    20435    16320    12164     8340     4784     2296 
    1804     3441     7132    12430    18619    24825    30129    33983 
   36140    36661    35751    33602    30584    27004    23128    19396 
   16026    12948    10449     9267     9904    12514    16864    21786 
   25847    28297    28829    27296    23770    19019    14547    11440 
    9647     8577     8206     9390    12519    16435    19414    20434 
   19411    16870    13381     9675     6863     5883     7170    10664 
   15966    22620    29782    36111    40795    43760    44888    44384 
   42944    41142    39258    36952    33613    29281    24245    18878 
   14116    10423     7606     6028     6078     7583    10387    14006 
   17593    20611    22382    22384    21184    19315    16925    15025 
   14616    15693    18149    21732    25105    26659    26005    23642 
   20138    16088    12272     9774     9384    11196    14911    19686 
   24248    27383    28490    28037    26695    24443    21274    17727 
   14420    11713     9655     8240     7750     8493    10506    13733 
   17866    21822    23743    22294    17789    11473     4903     -723 
   -5172    -7941    -8198    -5545      427     9229    18693    26386 
   30793    31507    29396    26051    22716    19996    17742    15351 
   12887    11074    10432    11389    14152    18095    21993    24596 
   25216    23869    20772    16623    13154    11809    12493    14350 
   16500    18414    20082    21374    21952    21455    19651    17143 
   15252    15092    17116    20687    24060    25526    24325    20543 
   14899     8444     2263    -2720    -5665    -5430    -1738     3776 
    9185    13338    15941    17480    18194    17995    16501    13186 
    8773     4760     1590     -904    -2576    -3749    -5401    -8098 
  -11423   -14412   -16504   -17292   -15876   -11891    -5982     1234 
    8680    14081    16362    16913    16809    15865    14316    13326 
   14068    16657    20226    23704    26584    28921    29950    28219 
   24297    20633    18169    16817    17252    19350    22054    24532 
   26078    26551    26429    26201    26056    25679    24599    22669 
   20021    17159    14871    13374    12343    11512    10373     8748 
    7487     7414     8407     9502     9668     8709     7109     5476 
    4462     4603     5729     6972     7813     8353     8631     8576 
    8097     7046     5718     4927     4949     5101     4749     3792 
    2551     1723     1796     2941     5255     8551    12619    17035 
   20571    22171    21862    20158    17507    14333    11288     9139 
    8575    10048    13082    16437    19344    21589    22845    22938 
   22214    20824    18375    14987    11913    10707    12022    15118 
   18305    19936    19360    16912    13402     9755     6435     3562 
    1484      722     1760     4535     8655    13941    19664    24730 
   28559    30647    30324    27160    21607    15289    10248     7781 
    7693     8948    10798    12858    14892    16915    19214    21837 
   24538    27190    29689    32004    33844    34389    33287    30988 
   28028    24909    22403    21100    20736    20635    20034    18252 
   15721    13759    13227    14405    17302    21500    26199    30431 
   33066    33215    31229    28241    24612    20441    16365    12574 
    8809     5177     1888     -912    -3077    -4572    -5414    -5789 
   -5923    -5709    -5040    -3703    -1305     1717     4768     8236 
   12317    16558    20293    22634    23234    22329    20461    18699 
   17881    18215    19455    20777    21244    20417    18445    15528 
   12076     9274     6842     3165    -1032    -4527    -7360    -8636 
   -7722    -5084    -1163     3362     7744    11167    12727    12858 
   13151    13909    14271    14313    14147    13268    12022    10900 
    9985     9610     9694     9987    10489    10942    11462    12388 
   13361    14266    15159    15472    15137    14389    13228    12169 
   11627    11301    10408     8510     6591     6040     7326    10436 
   14908    19577    23354    25905    27161    26624    24044    20154 
   16133    13169    11967    12645    15375    19949    25133    29139 
   30265    27488    21260    13367     5613    -1163    -6956   -11820 
  -15723   -18688   -20540   -21135   -20455   -18466   -15372   -11544 
   -7293    -3086      533     3307     5068     5957     6781     8469 
   11579    15862    20436    25037    29826    34048    36711    37213 
   34569    28577    21019    13958     8640     5831     5469     6864 
    9092    10881    11527    11073     9349     6558     3774     1579 
    -610    -3209    -5529    -7132    -8636    -9814    -9383    -7249 
   -4146     -566     2498     4720     6687     7570     6221     2977 
   -1214    -4852    -6454    -5787    -3266      588     5153     9812 
   13608    15952    17193    17662    17537    17107    16655    16770 
   18120    20725    23345    24139    22857    20825    18640    16172 
   13636    10936     8136     6060     5209     5613     6755     7408 
    6365     3036    -2534    -9739   -16346   -19728   -20114   -18868 
  -16268   -12979    -9746    -7141    -6096    -6503    -7390    -8244 
   -9321   -10911   -11939   -12032   -12636   -13159   -12125   -10346 
   -8522    -6765    -5555    -4927    -4685    -4430    -3787    -2768 
   -1651     -786      360     2489     4902     6875     8809    11089 
   13704    16573    19622    22573    24465    24203    21579    17377 
   12844     9045     6714     6322     8023    11612    16287    20826 
   24398    26824    28111    28114    26581    23653    20100    16814 
   14396    13120    13164    14506    16309    17552    18089    18188 
   17790    16636    14712    12626    11387    11809    14205    18231 
   23255    28751    33995    38192    40967    42297    42381    41333 
   39212    36722    34867    34074    33981    33794    33166    32242 
   31198    30111    28744    26800    24141    20804    17430    14623 
   12197    10072     8456     7369     6783     6366     5961     6441 
    9002    13640    19103    24136    27585    28447    26764    23487 
   19803    16763    14734    13406    12414    11468    10382     9470 
    9421    10430    12140    14506    17379    19914    21733    23530 
   26101    29342    32573    35321    37059    37449    36736    35318 
   33430    30932    27681    24222    21586    20543    20988    21959 
   22427    22145    21668    21506    21461    20908    19524    17602 
   15652    13891    12058     9634     6478     2819    -1091    -4854 
   -8232   -11394   -14621   -18073   -21484   -24232   -25842   -26204 
  -25490   -23949   -22002   -20437   -19649   -19254   -18905   -18506 
  -17854   -16633   -14392   -10701    -5616      161     5579     9668 
   11836    12031    10752     8811     6930     5562     5004     5359 
    6388     7556     8148     7438     4899      508    -4933   -10015 
  -13682   -15827   -16583   -15605   -12421    -6873      501     8244 
   14854    19742    22784    24063    24046    23030    21226    19283 
   17941    17681    18638    20741    23962    28284    33510    38964 
   43700    47113    48951    49181    48106    46154    43553    40699 
   38745    39211    42780    48817    55976    62853    68444    72406 
   74831    75764    74981    72629    69681    67426    66776    67689 
   69294    70365    69833    67652    64429    60395    55786    51106 
   46825    43467    41436    40557    40228    39911    39307    38281 
   36604    34010    31059    28963    28420    29541    32001    35113 
   38277    40793    41948    41410    39009    34878    29582    23651 
   17599    12245     8161     5242     3477     3173     4171     6032 
    8551    11262    13483    15014    15891    16014    15752    15702 
   16173    17373    18906    20107    20859    21040    20314    18713 
   16817    15157    13867    13092    12932    13217    13856    14985 
   16535    17934    18562    18232    16982    14937    12643    11141 
   11493    13781    16720    18912    19866    19877    19743    20167 
   21372    23460    26367    29353    31268    31262    29244    25811 
   21693    17652    14421    11864     9146     6461     5157     5966 
    8580    12192    15760    18641    20297    20212    19049    17290 
   14363    11119     8832     6930     4994     3569     2809     2511 
    2693     4326     8343    13859    19690    25134    28860    30361 
   30347    29436    27978    25612    21944    17528    13310    10070 
    8002     6830     6065     4977     3363     1805      843      801 
    1829     3453     4747     5547     6763     8727    10726    12328 
   13542    14329    14525    14059    13423    13144    12935    12170 
   10435     7573     3980      508    -2092    -3564    -4101    -3780 
   -2602    -1048      265     1177     1908     2740     3652     4272 
    4442     4246     3327     1184    -2040    -5841    -9974   -14366 
  -18654   -22175   -24281   -24524   -22892   -19843   -16139   -12668 
   -9885    -7448    -4608    -1023     2718     5308     5683     4216 
    1895     -709    -2351    -2331    -1446      186     2453     4691 
    6912     8597     8608     6510     2511    -2546    -7341   -11091 
  -13884   -16176   -18285   -19991   -21230   -22513   -23969   -25392 
  -26809   -28289   -29505   -29738   -28592   -26392   -23953   -22252 
  -22122   -23826   -26821   -30451   -34384   -37961   -40409   -41638 
  -41956   -41845   -41897   -42061   -41559   -39859   -37106   -33435 
  -28618   -22814   -17045   -12461    -9549    -8257    -8191    -8521 
   -8320    -6944    -4194     -437     3626     7250     9912    11422 
   11455     9410     5641     2232      911     1502     3770     7611 
   11719    14973    17029    17559    16623    14529    11855     9864 
    9654    11260    14023    17434    21339    25711    30426    35049 
   38876    41017    40582    37234    31511    24890    19476    16811 
   17091    19581    23036    25940    27179    26697    25403    24225 
   23534    23609    24668    26442    28825    32309    37119    42812 
   48532    53453    57172    59318    59814    59531    59350    59936 
   61749    63872    64903    64587    63328    61321    58537    55020 
   51114    47780    45991    45724    46203    46252    44678    40969 
   35336    28782    22935    18998    17353    18226    21733    27044 
   32703    37889    42310    45755    48016    48737    47996    46218 
   43355    39718    36504    34192    32294    30619    28777    26235 
   23432    20992    19288    18897    20079    22915    27797    34473 
   41472    47261    51213    53655    54989    54829    52797    49288 
   45271    42008    40284    39964    40465    41185    41848    42229 
   41644    39946    37953    36157    34408    32272    29326    25518 
   20934    15933    11419     8122     6061     4980     4870     5835 
    7582     9298    10175     9874     8547     6381     3361     -147 
   -3788    -7507   -10953   -14073   -16930   -19220   -20881   -21751 
  -21538   -20229   -18180   -16086   -14151   -12282   -10832   -10034 
   -9677    -9626   -10218   -11878   -14559   -17815   -21034   -23750 
  -25973   -28064   -30288   -32645   -34920   -36476   -36484   -34632 
  -31235   -26719   -21289   -15237    -9267    -4042      378     3894 
    5825     5750     3844      615    -2914    -5715    -7275    -7425 
   -6313    -4354    -2186     -488      331       27    -1366    -3416 
   -5653    -7673    -8921    -8854    -7147    -3636     1523     7696 
   13892    18944    21999    22942    22417    21542    21009    21140 
   22381    24234    25794    27245    28395    28885    29686    31034 
   31952    31968    31064    29788    28960    28703    28718    28731 
   28504    27883    26802    25150    22832    19952    16699    13360 
   10475     8445     7473     7883     9656    12391    15878    19701 
   22946    24781    24771    23106    20844    19327    19117    19812 
   20787    21657    22224    22671    23651    25271    26644    26907 
   25800    23635    21175    19236    18275    18090    17858    16656 
   14232    11168     7957     4634     1471     -913    -1812     -747 
    1589     3747     4860     4649     3586     2857     3087     3934 
    4726     5199     5336     4860     3959     3397     3680     4825 
    6228     7149     7445     7260     6910     6696     6248     5042 
    3303     1883     1707     3241     6180     9719    12948    15257 
   16399    16040    13972    10692     7230     4625     3219     2333 
    1413      914     1436     3023     5233     7410     9122    10101 
   10206     9809     9596    10036    11089    12381    13669    14848 
   15955    17344    19546    22946    27372    31713    34537    35434 
   34767    33050    31651    31643    32623    33976    35095    35426 
   35036    34124    32885    31415    29575    27117    23750    19538 
   14987    10726     7054     3874     1356     -363    -1728    -3069 
   -4375    -5790    -7233    -8051    -7795    -6543    -4607    -2677 
   -1525    -1493    -2512    -4040    -5226    -5564    -4978    -3407 
