Origin Time       2011/03/11 14:46:00
Lat.              38.103
Long.             142.860
Depth. (km)       24
Mag.              9.0
Station Code      AKT013
Station Lat.      39.6071
Station Long.     140.3209
Station Height(m) 39
Record Time       2011/03/11 14:47:11
Sampling Freq(Hz) 100Hz
Duration Time(s)  300
Dir.              N-S
Scale Factor      3920(gal)/6182761
Max. Acc. (gal)   46.056
Last Correction   2011/03/11 14:46:56
Memo.             
[...]
   29049    30718    32682    34110    33322    29890    25546    22906 
   23674    27966    34472    41193    46766    50826    53425    54946 
   56031    56881    56726    54547    50717    47481    47094    49487 
   52357    53859    54604    56407    59688    62540    62051    57025 
   49463    42859    39507    39339    40378    40250    37881    34104 
   30787    29597    31318    35275    39340    41481    41412    40343 
   39513    39699    41306    43963    46736    48991    50621    51752 
   52693    53777    54526    53678    50773    47011    44214    43089 
   42684    41874    40913    40909    42293    44494    46861    49340 
   52075    54634    56190    56332    55053    52168    47491    41783 
   37132    35541    37088    39937    41992    42380    41735    41376 
   41837    42142    41047    38511    35619    33755    33578    34642 
   36464    39016    41979    44838    47430    49541    50766    50958 
   50043    48281    46734    46071    45920    45669    44663    42950 
   41982    42804    44730    46699    48613    51141    54579    58146 
   60741    61943    62131    61774    60609    58077    54357    50184 
   46013    42032    38694    36389    34847    33963    34342    36351 
   39909    44481    48236    48932    45931    40504    34961    31362 
   30432    32032    35729    40427    44659    47664    49612    50517 
   49625    46520    42048    37836    35416    35455    37562    41199 
   46063    51026    54273    55212    54815    54007    52674    50089 
   46091    41810    38936    38363    39832    42632    46102    49530 
   51948    52343    50750    48674    47506    47209    46861    45736 
   43866    41815    39947    38111    36108    34274    33223    33177 
   34000    35462    37331    39625    42483    45744    49130    52454 
   55130    56219    55500    53964    52873    52122    50210    46708 
   43035    40498    39900    41902    45903    49919    51948    51308 
   49316    47957    47731    47681    46794    44773    42392    41057 
   41502    43372    45806    47750    48355    47572    45907    43827 
   41741    39933    38239    36319    34427    33406    33670    34453 
   34420    32927    30868    30335    32642    36769    40095    40162 
   36692    32453    31068    34351    41630    49776    54741    54709 
   51323    48186    48068    50802    54013    55518    54908    53271 
   51571    50148    49405    49564    50308    51251    51931    51571 
   49639    46514    43361    41075    39371    37529    35750    35094 
   36447    39881    44432    48338    50281    50504    50362    50909 
   52025    52952    53193    52531    51285    50886    52631    55764 
   58123    58291    56334    53256    50277    48272    47137    45631 
   42741    39208    36798    36294    36893    37307    37039    36584 
   36759    37983    39891    41488    42179    42607    43412    44146 
   44748    45976    47761    49314    49906    48577    45056    40871 
   38470    39636    44289    50463    55560    57788    57259    55678 
   54345    52931    50351    46521    42956    41286    41456    41764 
   40811    39106    38173    38777    40470    42074    42829    43185 
   43752    44242    44129    43384    42408    41901    42662    45440 
   50469    56435    60611    60798    57010    51403    46564    43625 
   42087    41023    39851    38574    37769    38073    39627    41724 
   42766    41255    37380    33137    30655    31077    34511    39903 
   45309    48625    48661    46403    44135    43040    42981    43278 
   42612    40395    38372    38966    42514    47327    51493    53438 
   52224    48977    46505    46483    48277    50062    50154    48327 
   46306    46403    49212    52583    53385    50579    46014    42058 
   39677    39032    39870    40989    41352    41613    43029    45449 
   47153    46344    42900    38518    34949    32848    32229    33079 
   35504    39258    42857    44113    42253    38711    35652    34150 
   33780    33856    34310    35340    37243    40033    42788    44274 
   44057    42334    39323    35852    33743    34338    37297    41085 
   44004    45341    45644    45855    46654    47873    48481    47975 
   47146    47086    48118    49639    50932    52251    54597    58312 
   62497    65619    66203    63680    59075    54284    50645    48427 
   47155    46470    46631    47677    49111    50972    53714    56891 
   58874    58013    54176    49399    46429    45991    46520    46503 
   45490    43611    41584    40610    41380    43298    45330    47249 
   49491    52640    56548    59279    58747    55352    51442    48967 
   48045    47327    45888    43848    41640    40684    42761    47050 
   50755    52245    51078    47625    43906    41983    41891    42435 
   42532    41703    40447    39819    40481    42421    45138    47738 
   49042    48168    45207    40877    36015    31862    29797    30278 
   32590    35838    39679    43745    47187    49132    49207    47957 
   46768    47035    49466    53589    57683    59767    58835    55473 
   51615    49244    49097    50314    50820    48738    44190    39227 
   35799    34514    35318    37736    40257    41430    41295    40490 
   39332    38142    36990    35383    32896    29864    27547    27515 
   30557    35819    40933    43872    44794    45262    46394    47949 
   48671    47777    45449    41944    37699    33768    31516    31945 
   34364    36659    37557    37040    35724    35123    36548    39610 
   42841    44747    44606    43214    41739    40339    38893    37292 
   35153    32686    30618    29353    29557    32253    37440    43565 
   48287    49975    49408    49305    51695    56480    62051    66640 
   69702    71802    73275    74037    74049    73234    71495    68565 
   64126    59084    55610    54648    54351    52118    47799    43725 
   42032    43099    45700    47829    47964    46160    43949    42751 
   42680    43182    43794    43973    43247    42064    42169    45121 
   50223    55108    58017    58888    58945    58971    57996    54690 
   49322    43760    40257    39758    41285    43313    44817    45503 
   45891    46541    47683    49464    51358    52046    50483    46723 
   41908    37231    32942    28950    26235    26938    32208    40171 
   47142    50595    50759    49739    48985    48093    46305    43910 
   42043    41939    44042    47420    50181    50545    47943    43473 
   39089    36331    35471    35360    34831    34613    36598    41273 
   46880    50889    52246    52179    52316    53130    54523    56273 
   58110    59988    61619    62345    61827    60038    57023    53054 
   48565    44214    40703    38134    36316    35555    36175    37656 
   38600    37438    33982    30408    29596    32191    35745    37063 
   35321    32632    31867    34228    38449    42248    44519    45602 
   45966    45523    43843    40970    38233    37277    38213    39727 
   40462    39718    37599    34978    33324    34172    37959    43269 
   47561    48957    47478    44576    41762    39734    38474    37983 
   38415    39424    40192    40172    39739    40126    42192    45478 
   48783    51369    53571    56145    59181    62128    64315    64925 
   63385    60423    57863    56750    56447    55671    53660    50948 
   49232    49568    50909    51072    49035    45879    43637    43779 
   46350    49888    52483    53195    52185    49677    45834    41527 
   37993    36123    36710    40123    45308    50361    53839    54911 
   53759    52056    51478    52116    52979    53156    52379    51182 
   50597    51179    52468    53580    53586    51786    48604    45319 
   43009    42482    44063    47139    50419    52333    51813    49333 
   46399    43836    41227    37908    34184    31535    31325    33446 
   36634    39552    41407    42379    43350    45082    47929    51522 
   54476    55194    53188    49464    45734    43254    41863    40254 
   37694    34877    33007    32750    33831    35030    35023    33765 
   32530    32392    33143    34023    34981    36457    38553    41199 
   44144    46347    46555    44720    42181    40547    40838    43152 
   46135    47459    45800    42000    38217    36307    36857    39269 
   42346    44923    46312    46389    45587    44615    43580    42001 
   39961    38166    36810    35337    33241    30638    28398    27615 
   28476    30156    31835    33025    33766    34907    37277    40950 
   45197    48573    50337    51851    54980    59325    62265    61915 
   59475    58081    59528    62616    64793    64729    62759    59759 
   56529    53754    51971    51451    51876    52488    53027    53884 
   55205    56737    58288    59617    60290    60093    58956    56250 
   51609    46651    44071    45026    48127    50633    51275    51856 
   54770    59836    64558    66517    65375    62846    60356    57699 
   54451    50761    46767    43174    41598    43066    46827    50807 
   52840    51991    49468    47855    48560    50655    52494    53044 
   52063    50174    48057    45753    43254    40837    38702    36674 
   34236    31211    28234    26353    26500    28838    32585    36791 
   40592    42891    42974    41114    38042    34374    30459    26533 
   23206    21313    20927    21369    22224    23367    24437    25197 
   25878    26804    27980    29049    29726    30428    32175    35666 
   40738    46425    51264    54236    55233    54439    52419    50324 
   48763    47264    45350    43326    41918    41404    41136    40355 
   39539    39668    40159    39497    37725    36660    38256    43174 
   50249    57397    62817    65395    65154    63548    62628    63672 
   66405    69391    71140    70941    69118    66926    65642    65528 
   66166    67246    68273    68068    65174    59236    51945    45603 
   40771    36206    30923    25485    21316    19442    19773    21196 
   22947    25541    29298    33281    36640    39359    41623    43783 
   46293    49150    52167    55738    60679    67181    74167    79546 
   81177    78476    72968    66583    60496    55444    51454    47848 
   44179    40510    37475    36179    37226    40402    44934    49385 
   52387    53486    52781    50773    48112    44927    41704    39989 
   40479    41588    40800    36880    30844    24844    20581    18991 
   20215    23550    27689    31064    32872    33857    35543    38817 
   43232    47454    50190    50922    49974    47548    43506    38493 
   33883    30478    28331    27636    28909    32152    36258    39161 
   38830    35194    30503    27092    25806    26316    27893    29943 
   32075    34068    36164    38625    40637    40596    37784    33564 
   30730    31475    36126    43205    50065    54508    56393    57114 
   57799    58368    57619    54159    48085    41545    37396    37547 
   41542    46402    49149    49169    47649    46000    45080    44845 
   44598    43678    41802    39287    37032    36012    37024    40429 
   45712    51706    57171    61109    63331    64765    66617    69530 
   73395    77149    79273    79036    76923    74198    72107    70870 
   69512    66776    62291    57124    53270    52551    55289    59628 
   63070    64419    63610    61007    57090    51916    45651    39747 
   36512    37543    42591    49731    56705    62030    65188    66369 
   65928    63917    60403    55889    50959    45871    40614    35341 
   31216    30106    32705    37488    41419    41877    38545    33349 
   28912    26986    27449    28922    30235    31241    32882    36282 
   41296    46211    49051    49082    46938    43605    39659    35030 
   29426    23287    18017    15041    14773    16588    19396    22074 
   23763    23965    22970    22298    23875    28411    34476    39049 
   39596    35866    29737    24011    21147    22254    26902    33376 
   39539    44432    48586    52714    56497    58383    56971    52245 
   45062    36808    29625    25492    25097    27968    33026    38755 
   43448    45773    45285    42729    39806    38047    37658    37720 
   37772    38660    41382    45963    51611    57343    62656    67435 
   71196    73060    72324    68592    62026    53799    45283    37111 
   29956    25233    24366    27694    34005    40969    46233    48558 
   48147    46291    44832    45098    47159    50482    54402    57784 
   59543    59295    56887    52420    46852    41566    37674    35709 
   35398    35932    36651    37129    36885    35707    33965    32505 
   32424    34423    38443    43857    49359    53494    55765    56527 
   56374    55912    55412    54783    53781    51908    48712    44333 
   39310    34544    31280    29940    29579    29031    27856    26701 
   27420    31720    38937    46236    51229    53289    53006    51753 
   50978    51049    51636    52755    53918    53805    52102    49884 
   48183    47715    48769    50480    51497    51082    49264    46876 
   44865    42976    39927    35023    29362    24971    22487    20436 
   16874    11678     7452     7221    11311    17408    22945    27189 
   31239    35685    39655    42614    45082    47935    52001    57264 
   62653    66990    69239    68857    66686    64104    61459    58084 
   53196    46710    39547    33063    28091    24516    21804    19714 
   18573    19426    23598    31458    41652    51325    57568    59483 
   58720    58394    61405    68630    78508    88611    97439   104901 
  111232   115807   117529   116139   112479   107334   100631    92331 
   83441    75536    69872    66931    65896    64582    60604    52868 
   41882    29236    17297     8890     6446    10573    19291    29309 
   37679    42239    42259    39244    35972    34220    33691    33279 
   32737    32926    34753    37524    39000    37588    33602    28611 
   24013    20197    16918    13948    11603    10788    12182    15781 
   21284    28218    36147    44786    52903    58225    59502    57570 
   54297    51226    48807    46599    44390    42895    43147    45544 
   49777    55237    61021    65778    68160    67533    63975    58212 
   51793    45984    40698    35733    31725    29173    27898    27073 
   25518    22960    20300    18302    17002    16160    16055    18220 
   24756    36384    51660    67649    80439    86360    84521    77923 
   71405    68084    67514    67214    65232    61394    57366    55468 
   56968    61380    66525    69475    68508    64106    58366    53388 
   49498    45812    42306    39876    39130    40122    42545    45829 
   49180    51342    50750    46948    41905    38752    38814    40658 
   41849    41234    39926    39635    40319    40587    39350    36368 
   32518    29626    29503    32842    38197    42489    43511    41595 
   38897    37309    36656    35152    31239    24682    17086    11441 
   10383    14331    20784    26050    28102    27579    26557    26518 
   27548    29248    31084    31956    30656    26837    21464    16347 
   12743    10707    10481    13692    21728    33057    43503    49420 
   49987    46789    42407    39570    40590    46567    56593    67660 
   76222    81135    84815    90688    99568   108518   113161   111189 
  103935    94713    85602    76429    66542    56092    46061    38150 
   33959    33911    37249    42242    46269    47041    44176    39301 
   34740    31877    30750    30862    31697    33249    36149    40686 
   46529    53100    59412    64195    66362    65498    62658    60017 
   58639    57051    52573    44053    33590    25268    21906    23681 
   29215    36693    44247    50032    52631    52034    49985    48846 
   49920    52498    54753    55542    54685    52263    48850    46024 
   45385    47048    49617    51002    49727    46163    42065    39068 
   37955    39119    43025    49635    57368    62945    63319    58341 
   50814    43745    38024    32911    27887    23273    19889    18634 
   19684    22075    24407    25604    25122    23167    21097    21294 
   25604    33450    42400    50413    56443    59683    59512    56145 
   51181    47108    45805    47391    50302    52623    53358    52346 
   49905    46990    44674    43083    41277    38374    34817    32077 
   30948    30837    30765    30497    30804    32989    37854    44474 
   50008    51777    49800    46507    44255    43661    43831    43756 
   43384    43277    43780    44910    46270    46775    45516    42889 
   40099    38272    38205    39860    42314    44811    47559    51496 
   57216    63994    70104    73810    74047    71264    67658    65378 
   64711    64683    64433    63564    62516    62586    64599    67748 
   69804    68077    60825    48990    36514    27700    24155    24832 
   28001    32199    36103    38310    37507    33439    27671    22656 
   20040    20093    21838    23575    24670    26585    31104    38497 
   47443    55604    61006    63295    63094    60995    57492    52933 
   47584    41812    35917    30426    26745    26564    30301    36574 
   42990    47434    48902    47170    42280    34780    26171    18466 
   13021    10227    10142    12714    17669    24610    32726    40350 
   45606    47500    46050    41889    36128    30319    26225    25200 
   27343    31499    36380    41584    47447    54086    61194    68641 
   76127    82484    86613    88467    88441    87005    84547    80322 
   73101    64011    56720    54219    56575    61013    63976    64182 
   62996    61612    59463    55638    50547    45880    43393    43397 
   44255    43748    41253    37882    34333    30484    26898    24827 
   25340    28802    34438    40707    46165    49967    52120    52677 
   50803    45972    39371    33029    28533    26652    26819    27237 
   26545    25102    24515    26633    32373    40758    49712    57621 
   63826    68635    73171    78349    83845    88392    90988    91569 
   90317    86797    80678    73169    66885    63706    62902    61925 
   58987    54594    50405    46683    41453    32714    21420    11759 
    8020    10986    17355    22556    24141    22604    19886    18149 
   19190    23740    31068    39033    44797    46526    44715    41596 
   39310    38708    39650    41846    44989    48656    52607    56805 
   60870    63765    64242    61906    57795    53822    51833    52628 
   55535    59331    63055    65987    67777    68618    69141    69947 
   70693    69876    65902    58157    47146    34171    21421    11917 
    8194    10946    19158    30601    42258    51488    56872    58680 
   58937    59457    60342    60732    59608    56482    51946    47517 
   44959    45320    48547    53253    56788    57019    54063    49715 
   45675    42433    39515    36270    32084    27009    22523    20034 
   18973    17792    15830    13339    11247    11078    13842    18917 
   24035    26676    25825    22447    18773    16791    16962    18497 
   20438    22314    24149    25866    26814    26079    23227    18954 
   14902    12344    11169    10405     9654     9809    11900    15530 
   19184    21544    22097    21426    21252    23456    28793    36753 
   45939    54072    58834    59525    57477    55007    53817    53913 
   54447    55126    56053    57286    59161    61929    65160    68365 
   71278    73162    73106    71101    68144    65399    63721    63899 
