Origin Time       2011/03/11 14:46:00
Lat.              38.103
Long.             142.860
Depth. (km)       24
Mag.              9.0
Station Code      AKT008
Station Lat.      39.8840
Station Long.     140.0706
Station Height(m) 4
Record Time       2011/03/11 14:47:24
Sampling Freq(Hz) 100Hz
Duration Time(s)  300
Dir.              U-D
Scale Factor      3920(gal)/6182761
Max. Acc. (gal)   19.633
Last Correction   2011/03/11 14:47:09
Memo.             
[...]
  -24370   -22656   -21159   -19910   -18829   -18094   -17969   -18443 
  -19413   -20831   -22541   -24193   -25488   -26541   -27666   -29020 
  -30529   -31942   -33200   -34314   -34995   -35124   -34892   -34392 
  -33480   -31979   -30160   -28559   -27426   -26786   -26388   -25729 
  -24615   -23391   -22416   -21662   -21018   -20362   -19417   -18161 
  -16978   -16079   -15101   -13722   -12289   -11220   -10531   -10349 
  -10945   -12061   -12952   -13382   -13797   -14263   -14328   -14017 
  -13816   -13842   -13763   -13447   -13135   -12786   -12111   -11368 
  -11007   -10908   -10770   -10681   -10976   -11689   -12397   -12936 
  -13599   -14311   -14858   -15659   -17048   -18633   -19978   -21180 
  -22518   -23890   -24932   -25442   -25316   -24462   -23087   -21658 
  -20335   -18830   -17065   -15516   -14561   -14030   -13552   -12945 
  -12352   -11904   -11592   -11905   -13311   -15159   -16666   -17948 
  -19269   -20557   -21769   -23063   -24335   -25272   -26103   -27202 
  -28333   -29174   -29607   -29452   -28752   -27801   -26693   -25453 
  -24283   -23350   -22816   -22847   -23306   -23897   -24445   -24733 
  -24831   -25315   -26467   -28014   -29707   -31180   -31997   -32387 
  -32772   -33056   -33143   -33050   -32656   -32038   -31420   -30930 
  -30505   -29884   -29029   -28083   -26997   -25856   -24899   -24193 
  -23686   -23258   -22797   -22314   -21881   -21571   -21416   -21318 
  -21141   -20935   -20978   -21532   -22420   -23244   -23877   -24143 
  -23869   -23462   -23496   -24138   -25399   -27313   -29584   -31552 
  -32810   -33355   -33361   -33178   -32965   -32703   -32484   -32121 
  -31431   -30641   -29864   -28926   -27617   -26113   -24805   -23448 
  -21854   -20460   -19217   -17592   -15674   -14060   -12884   -11988 
  -11570   -11548   -11430   -11149   -11016   -11291   -11788   -11960 
  -11857   -11723   -11216   -10456    -9966    -9485    -8637    -7677 
   -7031    -6831    -6964    -7484    -8497    -9696   -10657   -11504 
  -12386   -12693   -12165   -11615   -11602   -11975   -12526   -13031 
  -13322   -13531   -13998   -15051   -16443   -17382   -17441   -16690 
  -15459   -14413   -13903   -13382   -12306   -10936    -9733    -8805 
   -8109    -7531    -6831    -5837    -4719    -3747    -2992    -2489 
   -2312    -2552    -3180    -3969    -4946    -6373    -8175    -9935 
  -11513   -13290   -15371   -17282   -18773   -19928   -20647   -20825 
  -20777   -20885   -21031   -20982   -20795   -20403   -19652   -18720 
  -17978   -17694   -17809   -18046   -18251   -18324   -18545   -19795 
  -22249   -24882   -26793   -27762   -27993   -27894   -27675   -27348 
  -26756   -25719   -24601   -23895   -23622   -23527   -23194   -22481 
  -21692   -21030   -20691   -20872   -21278   -21523   -21665   -21722 
  -21526   -21184   -20869   -20659   -20758   -21162   -21591   -21991 
  -22584   -23502   -24675   -26043   -27642   -29223   -30309   -31054 
  -31909   -32556   -32756   -33114   -33804   -34365   -34756   -35041 
  -34784   -33682   -32078   -30529   -29228   -28196   -27680   -27828 
  -28353   -28991   -29902   -31147   -32423   -33624   -34800   -35808 
  -36424   -36451   -35885   -34912   -33723   -32549   -31594   -30911 
  -30374   -29693   -28757   -27648   -26419   -25273   -24351   -23464 
  -22591   -22081   -22161   -22706   -23490   -24347   -25171   -26048 
  -27241   -28837   -30465   -31456   -31588   -31248   -30773   -30396 
  -30369   -30530   -30453   -30153   -29906   -29651   -29263   -28782 
  -28183   -27450   -26670   -26192   -26308   -26429   -26012   -25585 
  -25507   -25492   -25606   -26008   -26250   -25999   -25747   -25972 
  -26432   -26706   -26639   -26124   -25040   -23768   -22927   -22353 
  -21620   -20897   -20246   -19349   -18212   -17205   -16514   -15924 
  -15129   -14293   -13854   -13752   -13807   -14244   -14928   -15261 
  -15181   -15265   -15960   -17085   -18091   -18719   -19041   -19168 
  -19209   -19248   -19446   -19792   -19838   -19485   -19274   -19269 
  -18889   -18053   -17117   -16029   -14561   -13033   -12097   -11690 
  -11128   -10477   -10210   -10026    -9608    -9234    -9152    -9495 
  -10107   -10532   -10806   -11131   -11243   -11231   -11586   -11919 
  -11601   -11007   -10501   -10070    -9902    -9892    -9762    -9616 
   -9744   -10388   -11582   -13103   -14807   -16696   -18437   -19736 
  -21007   -22563   -24142   -25807   -27881   -30134   -32087   -33472 
  -34248   -34710   -35252   -35856   -36254   -36587   -37280   -38297 
  -39131   -39255   -38388   -36638   -34568   -33083   -32641   -32760 
  -33105   -33950   -35169   -36340   -37263   -37600   -37087   -36021 
  -34995   -34242   -33313   -31904   -30262   -28538   -26981   -25875 
  -24802   -23342   -21735   -20405   -19559   -19043   -18652   -18410 
  -18198   -17808   -17382   -17248   -17442   -17487   -17010   -16383 
  -16229   -16766   -17753   -18746   -19685   -20933   -22635   -24738 
  -27039   -28663   -28908   -28589   -28804   -29359   -29547   -29108 
  -28398   -28255   -29001   -29994   -30653   -30745   -30096   -28954 
  -27701   -26478   -25418   -24407   -23171   -21723   -20127   -18177 
  -15741   -13372   -11724   -10507    -9258    -8273    -8038    -8540 
   -9337   -10092   -10715   -11076   -11261   -11659   -12326   -12924 
  -13178   -12934   -12505   -12537   -12875   -12956   -12847   -12655 
  -12314   -12181   -12647   -13390   -13651   -13168   -12451   -12107 
  -12215   -12580   -13121   -13710   -14281   -15016   -16127   -17489 
  -18568   -19165   -19488   -19331   -18718   -18439   -18910   -19863 
  -21025   -22185   -23149   -23891   -24485   -25020   -25475   -25573 
  -25248   -24906   -24674   -24388   -24154   -23989   -23704   -23210 
  -22398   -21275   -20181   -19329   -18570   -17748   -16831   -15927 
  -15271   -14971   -14857   -14655   -14400   -14540   -15453   -16970 
  -18395   -19025   -18743   -18043   -17631   -17766   -17991   -17789 
  -16878   -15249   -13498   -12062   -10774    -9632    -8730    -8165 
   -8269    -8971    -9680   -10067   -10177   -10117   -10069   -10374 
  -11440   -13210   -14891   -16005   -16979   -18188   -19424   -20403 
  -21144   -21606   -21604   -21517   -21918   -22647   -23224   -23501 
  -23647   -23701   -23484   -23017   -22255   -20957   -19448   -18502 
  -18209   -17854   -16984   -15654   -14055   -12813   -12566   -13135 
  -14024   -14968   -15973   -17217   -18358   -18571   -17591   -15987 
  -14618   -13979   -13936   -14206   -14570   -14871   -15454   -16742 
  -18335   -19451   -19833   -19886   -20017   -20153   -20200   -20231 
  -20094   -19615   -18902   -18323   -18336   -18961   -19673   -20149 
  -20723   -21804   -23221   -24597   -25678   -26057   -25666   -25356 
  -26125   -27898   -29491   -30220   -30546   -30658   -30149   -28947 
  -27388   -25821   -24577   -23859   -23322   -22530   -21751   -21431 
  -21565   -21935   -22262   -22323   -22170   -22064   -22296   -22863 
  -23332   -23401   -23292   -23321   -23362   -23137   -22744   -22335 
  -21872   -21442   -21264   -21132   -20595   -20118   -20380   -20865 
  -21169   -21696   -22376   -22935   -23545   -24272   -24946   -25515 
  -26072   -26506   -26481   -26133   -26229   -27408   -29516   -31518 
  -32341   -32044   -31597   -31733   -32483   -33181   -33014   -31985 
  -30752   -29918   -29701   -29663   -29167   -28245   -27244   -26185 
  -25354   -25196   -25580   -26139   -26469   -26348   -26254   -26550 
  -27085   -27829   -28541   -28777   -28552   -27957   -27109   -26630 
  -26729   -26767   -26539   -26335   -26160   -26007   -25881   -25611 
  -25188   -24574   -23949   -24246   -25532   -26316   -25920   -24997 
  -24037   -23255   -22821   -22767   -22928   -23161   -23841   -24859 
  -24874   -23425   -21598   -20195   -19470   -19508   -19968   -20241 
  -19955   -19345   -18631   -17438   -15687   -13999   -12925   -12610 
  -12930   -13500   -13766   -13554   -13224   -12836   -12068   -11359 
  -11640   -12877   -14427   -16130   -17729   -18603   -18765   -18875 
  -19197   -19366   -19192   -19034   -19115   -19276   -19376   -19312 
  -19092   -18674   -17811   -17018   -17287   -18239   -18600   -18067 
  -17222   -16550   -16203   -16273   -16880   -17620   -17855   -17809 
  -18005   -18081   -17443   -16486   -16151   -16635   -17478   -18131 
  -17921   -16498   -14221   -11703    -9398    -7581    -6436    -6099 
   -6564    -7441    -8146    -8492    -8739    -9055    -9459   -10233 
  -11629   -13248   -14383   -14750   -14672   -14706   -14905   -14985 
  -15063   -15201   -15410   -16026   -16780   -17106   -17076   -16604 
  -15598   -14917   -15305   -16243   -16868   -17008   -16774   -16197 
  -15614   -15316   -15097   -14589   -13705   -13011   -13203   -14003 
  -14242   -13053   -10946    -9233    -8463    -8383    -8837    -9703 
  -10629   -11570   -12900   -14629   -16147   -17097   -17960   -19300 
  -20939   -22331   -23501   -24737   -25643   -25985   -26305   -26683 
  -26548   -25735   -24770   -24363   -24610   -24983   -25223   -25511 
  -25723   -25497   -25174   -25368   -25810   -25811   -25248   -24688 
  -24619   -24612   -24273   -24300   -25099   -25931   -26370   -26731 
  -27107   -27328   -27341   -27343   -27521   -27437   -26851   -26636 
  -27191   -27699   -27822   -28025   -28183   -27742   -26977   -26477 
  -26032   -25456   -25427   -26398   -27545   -28099   -28663   -29714 
  -30658   -31147   -31536   -32033   -32283   -32155   -32311   -32973 
  -33313   -32931   -32297   -31720   -31168   -30676   -30350   -30229 
  -30201   -30168   -30307   -30556   -30166   -28761   -26961   -25413 
  -24263   -23449   -22856   -22393   -21965   -21503   -21191   -21156 
  -20893   -19767   -18062   -16544   -15313   -14226   -13355   -12382 
  -11051    -9737    -8843    -8260    -7380    -5912    -4432    -3552 
   -3404    -3870    -4669    -5668    -6790    -7569    -7868    -7992 
   -7839    -7833    -9082   -11477   -13994   -16212   -17929   -18810 
  -18790   -18160   -17415   -16840   -16415   -16074   -15728   -15520 
  -15550   -15147   -13688   -11548    -9434    -7870    -7207    -7302 
   -7619    -7906    -8356    -9191   -10223   -10860   -11197   -12306 
  -14755   -17948   -20712   -22077   -22115   -21929   -22472   -23595 
  -24643   -25478   -26357   -27301   -27871   -27694   -26930   -25946 
  -25153   -24804   -24491   -23658   -22482   -21699   -21802   -22502 
  -23075   -23041   -22353   -21522   -21316   -21601   -21573   -21294 
  -21313   -21507   -21772   -22422   -23215   -23597   -23732   -23948 
  -24216   -24616   -25354   -26469   -27505   -27757   -27062   -25539 
  -23485   -21777   -20722   -19523   -17992   -16560   -15016   -13404 
  -12378   -11908   -11541   -11395   -11808   -12744   -13895   -15142 
  -16504   -17554   -17678   -16906   -16107   -16356   -17777   -19718 
  -22095   -24900   -27252   -28638   -29637   -30609   -31224   -31524 
  -32092   -32952   -33595   -34175   -35265   -36557   -37248   -37277 
  -36711   -35037   -32637   -31173   -31342   -32090   -32090   -30754 
  -28260   -25196   -22201   -19695   -17541   -15293   -13147   -12008 
  -12220   -12988   -13344   -13308   -13433   -13471   -13058   -12706 
  -12928   -13807   -15068   -16032   -16163   -15420   -14384   -13925 
  -14190   -14457   -14021   -12873   -11514   -10187    -8775    -7165 
   -5435    -4254    -4229    -4912    -5576    -5914    -6002    -6556 
   -8141   -10237   -11928   -12928   -13705   -14987   -17153   -19825 
  -21944   -22627   -22176   -21762   -22145   -23134   -24003   -24357 
  -24337   -24076   -23858   -23998   -24125   -23873   -23519   -23241 
  -22997   -23056   -23628   -24064   -23448   -21874   -20067   -18403 
  -17049   -16205   -15770   -15320   -14728   -14486   -15019   -15961 
  -16610   -16753   -16651   -16591   -16517   -16087   -15237   -14393 
  -13906   -13800   -14005   -14263   -14190   -13804   -13660   -14094 
  -14529   -14191   -13136   -11911   -11028   -10806   -10995   -11111 
  -10973   -10589   -10391   -11022   -12451   -14077   -15468   -16695 
  -17974   -19072   -19791   -20530   -21289   -21585   -21634   -21908 
  -22387   -23027   -23865   -24793   -25733   -26668   -27445   -27794 
  -27446   -26537   -25639   -24941   -24564   -25120   -26619   -28489 
  -30539   -32656   -34838   -37290   -39789   -41881   -43556   -45126 
  -46631   -47708   -48103   -47662   -46153   -44043   -42402   -41459 
  -40677   -40123   -40059   -39882   -38913   -37147   -34726   -32078 
  -30183   -29432   -28966   -27881   -26477   -25730   -25828   -26115 
  -26263   -26446   -26962   -28218   -30116   -31884   -32902   -32917 
  -32193   -31694   -31794   -31561   -30496   -29486   -29135   -29131 
  -29493   -30162   -30279   -29395   -27991   -26714   -25583   -24177 
  -22765   -22037   -22059   -22527   -23175   -23591   -23220   -22031 
  -20868   -20380   -20122   -19369   -18287   -17582   -17184   -16540 
  -15813   -15349   -15054   -15104   -15728   -16454   -16911   -17691 
  -19279   -20978   -21932   -22238   -22448   -22882   -23580   -24469 
  -25075   -24547   -23083   -21978   -21686   -21542   -20946   -19998 
  -19284   -19084   -19168   -19367   -19576   -19359   -18561   -17684 
  -16735   -14981   -12254    -9191    -6535    -4757    -3625    -2314 
    -462     1450     2965     4215     5519     6991     8627     9953 
   10134     9051     7367     5888     5049     4280     2849     1123 
    -340    -1672    -2976    -4223    -5743    -7630    -9339   -10514 
  -11350   -12204   -13257   -14248   -14808   -14946   -14997   -15408 
  -16342   -17280   -17638   -17827   -18625   -19983   -21289   -22049 
  -22113   -21659   -21182   -21197   -21558   -21757   -21751   -21779 
  -22033   -22624   -23466   -24502   -25659   -26666   -27413   -27933 
  -28223   -28423   -28569   -28372   -27554   -26140   -24540   -23302 
  -22766   -22935   -23427   -23695   -23395   -22598   -21700   -21000 
  -20592   -20435   -20265   -19808   -19180   -18893   -19142   -19451 
  -19694   -20309   -21150   -21961   -23065   -24238   -24721   -24295 
  -23139   -21776   -20675   -19495   -18242   -17741   -17994   -18558 
  -19723   -21423   -22607   -22593   -22205   -22489   -22925   -22716 
  -22124   -21429   -20829   -20843   -21532   -22231   -22212   -21463 
  -20761   -20527   -20456   -20299   -20206   -20698   -21899   -22994 
  -23353   -23127   -22600   -21988   -21542   -21449   -21628   -21850 
  -22050   -22167   -22034   -21719   -21377   -21040   -21045   -21815 
  -23113   -24373   -25552   -26776   -27518   -27415   -27166   -27370 
  -27735   -27928   -27800   -27221   -26379   -25713   -25521   -25454 
  -24729   -23387   -22174   -21470   -21448   -21994   -22593   -22783 
  -22087   -20515   -18747   -16954   -14970   -13147   -11827   -11061 
  -10823   -10949   -11356   -11837   -12011   -12156   -12819   -13939 
  -15512   -17772   -20363   -22394   -23209   -23010   -22596   -22507 
  -23002   -24316   -26182   -27686   -28300   -28366   -27920   -26481 
  -24435   -22835   -22073   -21796   -21502   -21088   -20703   -20283 
  -19930   -20029   -20486   -20833   -20960   -21087   -21277   -21317 
  -21260   -21527   -22188   -23020   -23794   -24145   -23839   -22924 
  -21712   -20603   -19753   -19106   -18366   -17404   -16598   -16099 
  -15773   -15574   -15469   -15697   -16210   -16468   -16669   -17164 
  -17415   -17225   -17285   -18021   -18914   -19030   -18156   -16955 
  -16021   -15630   -15916   -16696   -17508   -17988   -18279   -18826 
  -19499   -19764   -19741   -19949   -20509   -21491   -22999   -24691 
  -26180   -27516   -28675   -29193   -28846   -28252   -28068   -28094 
  -27954   -27698   -27251   -26615   -26409   -27198   -28641   -29778 
  -30133   -30103   -30283   -30774   -31192   -31252   -31015   -30718 
  -30694   -31298   -32582   -34143   -35626   -36885   -37783   -38503 
  -39447   -40641   -41656   -42216   -42530   -42767   -42686   -41960 
  -40585   -38799   -36707   -34633   -33256   -32722   -32351   -31594 
  -30503   -29139   -27369   -25249   -23243   -21787   -20651   -19560 
  -18814   -18494   -18220   -17830   -17543   -17649   -18309   -19477 
  -20723   -21527   -21743   -21559   -21352   -21271   -20996   -20279 
  -19363   -18771   -18566   -18042   -16777   -15235   -13974   -13110 
  -12722   -13137   -14291   -15419   -16203   -17252   -18742   -20274 
  -21989   -23965   -25671   -26916   -28005   -29156   -30177   -30682 
  -30740   -30749   -30891   -30862   -30104   -28753   -27364   -25956 
  -24613   -23768   -23473   -23442   -23328   -22834   -22018   -21076 
  -19940   -18556   -16946   -14862   -12184    -9528    -7676    -6528 
   -5405    -4187    -3167    -2338    -1633    -1121     -775     -602 
    -808    -1537    -2650    -4006    -5637    -7453    -9251   -10991 
  -12578   -13607   -13931   -14096   -14500   -14873   -15310   -16409 
  -17939   -18951   -19168   -19113   -19228   -19747   -20780   -21925 
  -22774   -23614   -24764   -26008   -26980   -27385   -27228   -26926 
  -26686   -26486   -26410   -26399   -26492   -26922   -27685   -28497 
  -28792   -28346   -27815   -27419   -26458   -24832   -23287   -22305 
  -21728   -21163   -20459   -19581   -18454   -17563   -17717   -18784 
  -19882   -20537   -20837   -20951   -20901   -20624   -20055   -19121 
  -17905   -16733   -15785   -14989   -14373   -13849   -13176   -12559 
  -12400   -12742   -13378   -13962   -14392   -14869   -15474   -16338 
  -17373   -17984   -18035   -17964   -17901   -17836   -17969   -18404 
  -19040   -19682   -20344   -21244   -22244   -23100   -23912   -24672 
  -25191   -25447   -25545   -25679   -25989   -26305   -26195   -25600 
  -25216   -25436   -25787   -25960   -25902   -25346   -24437   -23721 
  -23494   -23899   -24636   -25034   -25042   -24792   -24035   -22915 
  -21825   -20918   -20521   -20843   -21409   -21592   -21133   -20113 
  -18874   -17875   -17504   -17840   -18699   -19854   -20986   -21804 
  -22217   -22255   -22063   -21687   -21142   -20710   -20442   -20178 
  -20223   -20782   -21404   -21764   -22003   -22255   -22555   -23042 
  -23788   -24674   -25504   -25920   -25673   -24875   -23574   -21916 
  -20162   -18133   -15883   -13952   -12428   -11068    -9755    -8400 
   -7098    -6055    -5443    -5428    -5802    -6167    -6591    -7162 
   -7465    -7208    -6808    -7051    -8433   -10815   -13589   -16152 
  -18243   -19953   -21581   -23389   -25385   -27260   -28760   -30195 
  -31894   -33609   -35068   -36325   -37385   -37902   -37582   -36942 
  -36694   -36505   -35667   -34359   -33105   -32083   -31419   -31161 
  -31049   -30754   -30261   -29640   -28594   -26915   -25077   -23927 
  -23728   -23773   -23425   -22784   -22089   -21532   -21279   -21194 
  -20901   -20000   -18554   -17327   -16723   -16125   -15140   -14326 
  -14018   -13835   -13534   -13212   -12929   -12744   -13029   -14156 
  -15787   -17169   -17945   -18272   -18719   -19922   -21804   -23488 
  -24205   -23995   -23519   -23075   -22409   -21523   -20517   -19258 
  -17853   -16495   -15237   -14116   -13112   -12510   -12604   -12972 
  -13173   -13427   -14092   -15055   -15944   -16853   -18131   -19729 
