Origin Time       2011/03/11 14:46:00
Lat.              38.103
Long.             142.860
Depth. (km)       24
Mag.              9.0
Station Code      AKT003
Station Lat.      40.2784
Station Long.     140.2631
Station Height(m) 35
Record Time       2011/03/11 14:47:25
Sampling Freq(Hz) 100Hz
Duration Time(s)  300
Dir.              N-S
Scale Factor      3920(gal)/6182761
Max. Acc. (gal)   28.029
Last Correction   2011/03/11 14:47:10
Memo.             
[...]
  -37155   -38810   -39658   -39974   -40031   -40006   -40040   -40244 
  -40652   -41183   -41747   -42267   -42460   -41844   -40169   -37696 
  -35082   -33066   -32102   -32252   -33271   -34685   -35919   -36344 
  -35551   -33876   -32222   -31348   -31615   -33001   -34970   -36504 
  -36588   -34710   -31075   -26667   -22859   -20553   -19853   -20405 
  -21510   -22192   -21621   -19474   -16030   -12040    -8337    -5560 
   -4201    -4546    -6501    -9600   -13071   -16092   -18135   -19018 
  -18965   -18583   -18361   -18282   -18085   -17586   -16648   -15302 
  -13972   -13218   -13407   -14719   -17140   -20335   -23694   -26539 
  -28404   -29239   -29372   -29293   -29581   -30806   -33006   -35492 
  -37416   -38155   -37519   -36149   -35145   -35138   -36153   -37946 
  -39914   -41346   -41980   -41843   -41041   -39851   -38533   -37252 
  -36354   -36305   -37223   -38744   -40271   -41157   -40953   -39624 
  -37599   -35642   -34387   -33915   -33909   -33970   -33685   -32774 
  -31243   -29275   -27087   -24912   -23067   -21936   -21713   -22330 
  -23531   -24722   -25170   -24572   -23286   -22011   -21296   -21325 
  -22048   -23274   -24637   -25789   -26730   -27852   -29593   -32039 
  -34912   -37848   -40530   -42690   -44059   -44504   -44300   -43878 
  -43386   -42882   -42671   -42932   -43205   -42755   -41305   -39028 
  -36164   -33014   -30093   -28058   -27394   -28036   -29324   -30396 
  -30599   -29692   -27749   -25049   -22162   -19850   -18637   -18602 
  -19555   -21179   -23071   -24860   -26433   -27965   -29607   -31307 
  -32974   -34536   -35908   -36953   -37470   -37540   -37631   -38141 
  -39091   -40239   -41377   -42396   -43106   -43377   -43422   -43551 
  -43822   -44180   -44614   -44851   -44340   -42858   -40793   -38615 
  -36527   -34767   -33694   -33417   -33572   -33693   -33670   -33481 
  -32799   -31520   -30301   -29995   -30977   -33180   -36283   -39789 
  -43195   -46018   -47883   -48793   -48938   -48337   -47039   -45223 
  -43009   -40519   -38194   -36707   -36324   -36741   -37571   -38525 
  -39231   -39301   -38672   -37665   -36700   -36053   -35743   -35572 
  -35331   -34976   -34507   -33814   -32797   -31459   -29884   -28440 
  -27716   -27965   -28936   -30156   -31132   -31674   -31976   -32379 
  -33260   -34848   -37084   -39611   -41752   -42851   -42796   -41977 
  -40909   -40072   -39750   -39844   -40024   -40055   -39929   -39717 
  -39436   -39071   -38610   -38102   -37559   -36774   -35495   -33783 
  -31966   -30206   -28475   -27001   -26088   -25428   -24384   -22962 
  -21782   -21274   -21587   -22992   -25716   -29331   -32780   -35216 
  -36515   -36973   -36939   -36862   -37219   -38049   -38811   -38830 
  -37708   -35399   -32321   -29421   -27755   -27822   -29304   -31344 
  -33119   -34319   -35138   -35890   -36889   -38484   -40794   -43585 
  -46571   -49571   -52310   -54202   -54576   -53229   -50682   -47836 
  -45378   -43581   -42521   -42167   -42438   -43272   -44439   -45525 
  -46213   -46326   -45873   -45195   -44693   -44469   -44404   -44365 
  -44248   -43836   -42748   -40773   -38084   -35131   -32511   -30750 
  -29982   -29937   -30302   -30923   -31644   -32259   -32718   -33156 
  -33703   -34342   -34907   -35090   -34429   -32529   -29370   -25309 
  -21018   -17456   -15460   -15236   -16291   -17707   -18506   -18043 
  -16232   -13552   -10933    -9338    -9189   -10262   -12153   -14608 
  -17363   -19935   -21873   -23189   -24149   -24710   -24668   -24137 
  -23507   -23061   -22823   -22736   -22725   -22580   -21984   -20767 
  -19180   -17725   -16735   -16342   -16478   -16799   -16975   -16991 
  -17099   -17677   -19024   -21001   -22920   -24059   -24075   -22843 
  -20531   -17955   -16270   -16214   -17725   -20127   -22556   -24102 
  -23978   -22090   -19156   -16019   -13226   -11234   -10460   -10920 
  -12105   -13262   -13883   -13938   -13570   -12747   -11351    -9516 
   -7868    -7363    -8645   -11545   -15255   -18825   -21513   -22896 
  -22902   -21821   -20202   -18636   -17565   -17221   -17522   -18102 
  -18571   -18627   -18195   -17719   -17986   -19420   -21744   -24348 
  -26784   -28740   -29814   -29834   -29078   -27807   -26267   -25114 
  -24966   -26015   -28310   -31669   -35464   -38886   -41202   -41981 
  -41436   -40227   -39092   -38767   -39573   -41050   -42296   -42487 
  -41388   -39589   -37891   -36625   -35735   -35077   -34485   -33796 
  -32852   -31472   -29554   -27240   -24875   -22914   -21942   -22495 
  -24692   -28085   -31874   -35237   -37458   -37996   -36663   -33839 
  -30461   -27536   -25667   -24953   -25055   -25272   -24751   -22821 
  -19292   -14552    -9408    -4722    -1165      849     1252      244 
   -1958    -5133    -8947   -13009   -16861   -20064   -22473   -24232 
  -25586   -26771   -28045   -29694   -31756   -33756   -35053   -35428 
  -35137   -34557   -33924   -33234   -32359   -31159   -29615   -28219 
  -27717   -28207   -29140   -29884   -29879   -28974   -27691   -26787 
  -26723   -27585   -29238   -31419   -33659   -35191   -35285   -33797 
  -31227   -28366   -25974   -24502   -24095   -24923   -27080   -30159 
  -33300   -35665   -36825   -36839   -36097   -35119   -34520   -34824 
  -35968   -37310   -38255   -38522   -38150   -37473   -36944   -37022 
  -37939   -39481   -41231   -42819   -43838   -43891   -42963   -41612 
  -40565   -40082   -39850   -39410   -38647   -37830   -37234   -36879 
  -36534   -35788   -34271   -31986   -29420   -27318   -26277   -26487 
  -27785   -29811   -32189   -34654   -36975   -38852   -39945   -39979 
  -38895   -37040   -35160   -33936   -33543   -33651   -33552   -32490 
  -30049   -26251   -21706   -17478   -14329   -12323   -11092   -10115 
   -8950    -7494    -6058    -5172    -5186    -6018    -7367    -8880 
  -10088   -10713   -11000   -11335   -11794   -12215   -12469   -12585 
  -12713   -13072   -13958   -15537   -17657   -20052   -22471   -24573 
  -26092   -27110   -27952   -28747   -29216   -28853   -27415   -25335 
  -23420   -22282   -22095   -22563   -23194   -23693   -24081   -24604 
  -25471   -26657   -27932   -29096   -30290   -31901   -34250   -37394 
  -40934   -44196   -46765   -48631   -49908   -50604   -50551   -49428 
  -46962   -43288   -39071   -35237   -32683   -31961   -32733   -33693 
  -33564   -32101   -29904   -27682   -26059   -25643   -26589   -28396 
  -30445   -32319   -33705   -34359   -34106   -32887   -30872   -28571 
  -26690   -25575   -25007   -24691   -24482   -24157   -23472   -22428 
  -21157   -19746   -18426   -17736   -18243   -20046   -22750   -25903 
  -29161   -32204   -34787   -36668   -37521   -37116   -35479   -32989 
  -30307   -28036   -26512   -25801   -25714   -25905   -25939   -25493 
  -24750   -24356   -24852   -26288   -28280   -30155   -31248   -31343 
  -30639   -29391   -27797   -25878   -23561   -21057   -18845   -17464 
  -17376   -18663   -20933   -23638   -26371   -29025   -31791   -34855 
  -38167   -41550   -44776   -47521   -49428   -50237   -49803   -48018 
  -44867   -40619   -35912   -31586   -28405   -26889   -27257   -29192 
  -31679   -33455   -33628   -32105   -29807   -28202   -28342   -30362 
  -33692   -37486   -40962   -43729   -45763   -47136   -47912   -48040 
  -47328   -45720   -43500   -41323   -40008   -40126   -41609   -43765 
  -45667   -46621   -46567   -46013   -45430   -44990   -44812   -44974 
  -45435   -46271   -47775   -50111   -52931   -55563   -57440   -58133 
  -57315   -55110   -52250   -49691   -48136   -47804   -48459   -49603 
  -50641   -51013   -50441   -49022   -47073   -44982   -43207   -42244 
  -42378   -43510   -45295   -47315   -49203   -50729   -51865   -52821 
  -53832   -54830   -55446   -55235   -53723   -50688   -46596   -42353 
  -38743   -36285   -35129   -34977   -35324   -35645   -35461   -34663 
  -33698   -33183   -33404   -34277   -35646   -37178   -38241   -38436 
  -37840   -36585   -34807   -32878   -31144   -29626   -28118   -26470 
  -24783   -23214   -21646   -19816   -17603   -15208   -13148   -11949 
  -11847   -12624   -13562   -13708   -12492   -10243    -7979    -6691 
   -6875    -8552   -11322   -14165   -15762   -15366   -13049    -9374 
   -5093     -948     2327     4210     4734     4399     3878     3852 
    4808     6637     8461     9192     8298     6042     3089      137 
   -2118    -3180    -3095    -2369    -1520     -869     -792    -1698 
   -3504    -5640    -7652    -9446   -11011   -12209   -12870   -12988 
  -12746   -12337   -11940   -11901   -12586   -13919   -15331   -16184 
  -16126   -15262   -14247   -14025   -15271   -18019   -21663   -25228 
  -27809   -28870   -28303   -26406   -23720   -20828   -18310   -16620 
  -15874   -15844   -16075   -15929   -14817   -12632    -9867    -7363 
   -5956    -6060    -7488    -9752   -12366   -14853   -16925   -18622 
  -20139   -21697   -23506   -25694   -28297   -31259   -34404   -37467 
  -40111   -41966   -42720   -42199   -40509   -38018   -35082   -31858 
  -28476   -25401   -23317   -22505   -22728   -23752   -25256   -26454 
  -26583   -25447   -23256   -20391   -17280   -14310   -11976   -10863 
  -11308   -13212   -15983   -18641   -20225   -20194   -18664   -16409 
  -14444   -13559   -14122   -16089   -19108   -22665   -26279   -29623 
  -32541   -35044   -37189   -38982   -40549   -42290   -44602   -47418 
  -50214   -52494   -54064   -54945   -55401   -55927   -56996   -58926 
  -61751   -64990   -67897   -69990   -70983   -70682   -69260   -67161 
  -64802   -62554   -60673   -59200   -58050   -57064   -55982   -54526 
  -52619   -50500   -48536   -46966   -45872   -45238   -44868   -44348 
  -43258   -41431   -39069   -36700   -34862   -33821   -33587   -34015 
  -34856   -35873   -36842   -37483   -37506   -36775   -35479   -33967 
  -32323   -30417   -28320   -26286   -24472   -22890   -21506   -20349 
  -19548   -19205   -19323   -19838   -20548   -21182   -21662   -22227 
  -23285   -25068   -27351   -29533   -31074   -31822   -31974   -31801 
  -31370   -30543   -29376   -28325   -27842   -28105   -29180   -30955 
  -32888   -34263   -34735   -34314   -32972   -30694   -27799   -24985 
  -23107   -22815   -24225   -26914   -30092   -32837   -34454   -34697 
  -33769   -32254   -30917   -30454   -31226   -33066   -35403   -37471 
  -38497   -38008   -36089   -33305   -30291   -27512   -25322   -23925 
  -23286   -23183   -23252   -23105   -22599   -21941   -21582   -22012 
  -23491   -25884   -28768   -31660   -34200   -36186   -37559   -38490 
  -39194   -39550   -39273   -38300   -36810   -35137   -33681   -32724 
  -32384   -32590   -32988   -33178   -33046   -32582   -31660   -30363 
  -29071   -28002   -27247   -27184   -28251   -30482   -33477   -36538 
  -38922   -40257   -40656   -40419   -39875   -39383   -39159   -39147 
  -39180   -39215   -39247   -39138   -38720   -37873   -36499   -34631 
  -32577   -30808   -29661   -29216   -29394   -30059   -31071   -32283 
  -33571   -34877   -36173   -37487   -38878   -40315   -41660   -42819 
  -43768   -44418   -44580   -44186   -43364   -42285   -41077   -39885 
  -38946   -38466   -38385   -38485   -38572   -38422   -37872   -37046 
  -36308   -35893   -35687   -35365   -34594   -33167   -31226   -29332 
  -28096   -27697   -27902   -28402   -28952   -29332   -29327   -28867 
  -28218   -27774   -27565   -27282   -26706   -25811   -24706   -23644 
  -23011   -23184   -24274   -26045   -28076   -29849   -30851   -30828 
  -29868   -28286   -26644   -25674   -25820   -26949   -28546   -30035 
  -31038   -31577   -31948   -32426   -33121   -33911   -34618   -35315 
  -36284   -37677   -39361   -41029   -42391   -43276   -43552   -43159 
  -42192   -40727   -38823   -36734   -34839   -33349   -32211   -31356 
  -30775   -30273   -29548   -28480   -27213   -26201   -26070   -27179 
  -29361   -32089   -34862   -37381   -39383   -40598   -40913   -40357 
  -39064   -37460   -36251   -36011   -36823   -38420   -40465   -42433 
  -43619   -43671   -42896   -41930   -41355   -41487   -42244   -43326 
  -44425   -45203   -45293   -44445   -42678   -40311   -37728   -35211 
  -33015   -31312   -30022   -28895   -27749   -26571   -25468   -24522 
  -23731   -23108   -22750   -22875   -23745   -25349   -27207   -28601 
  -29021   -28423   -27147   -25635   -24239   -23152   -22295   -21370 
  -20192   -18949   -18068   -17975   -18854   -20424   -22081   -23395 
  -24251   -24612   -24440   -23709   -22402   -20676   -19041   -18173 
  -18402   -19476   -20869   -22143   -22985   -23249   -23133   -23152 
  -23876   -25601   -28187   -31152   -33945   -36206   -37789   -38678 
  -39016   -38941   -38397   -37275   -35652   -33803   -32009   -30395 
  -28977   -27759   -26761   -26110   -26108   -26846   -27887   -28642 
  -28788   -28311   -27483   -26793   -26718   -27400   -28496   -29428 
  -29710   -29135   -27936   -26618   -25479   -24522   -23616   -22662 
  -21782   -21121   -20572   -20057   -19808   -20115   -21055   -22503 
  -24166   -25668   -26650   -26818   -26076   -24626   -22911   -21449 
  -20660   -20762   -21676   -22997   -24203   -25033   -25640   -26285 
  -27083   -28096   -29340   -30698   -32022   -33263   -34376   -35161 
  -35270   -34396   -32471   -29656   -26308   -23015   -20375   -18620 
  -17520   -16606   -15480   -14020   -12323   -10444    -8328    -6008 
   -3609    -1201     1129     3215     4944     6372     7669     8922 
   10101    11259    12457    13597    14557    15172    15113    14056 
   11956     9126     6073     3266     1061     -323     -835     -644 
    -123      274       98    -1018    -3167    -6053    -9137   -11880 
  -13856   -14807   -14825   -14453   -14391   -15106   -16838   -19659 
  -23141   -26424   -28916   -30518   -31310   -31482   -31262   -30798 
  -30254   -29834   -29688   -29938   -30667   -31866   -33273   -34229 
  -34090   -32690   -30339   -27781   -25836   -24860   -24820   -25482 
  -26408   -27191   -27675   -27912   -28042   -28178   -28366   -28659 
  -29180   -30192   -31914   -34223   -36712   -38937   -40553   -41423 
  -41649   -41425   -40873   -39970   -38709   -37355   -36412   -36290 
  -37025   -38302   -39746   -41147   -42459   -43801   -45351   -47082 
  -48752   -50086   -50905   -51228   -51276   -51238   -51110   -50786 
  -50148   -49054   -47467   -45611   -43906   -42713   -42194   -42314 
  -42799   -43143   -42873   -41870   -40429   -39072   -38278   -38178 
  -38394   -38304   -37454   -35717   -33224   -30411   -27967   -26367 
  -25586   -25267   -24855   -23798   -21933   -19566   -17148   -15058 
  -13515   -12438   -11614   -10992   -10590   -10382   -10261    -9908 
   -9012    -7681    -6369    -5564    -5693    -7060    -9598   -12744 
  -15724   -17999   -19359   -19794   -19591   -19379   -19903   -21701 
  -24898   -29216   -34095   -38804   -42673   -45258   -46386   -46285 
  -45571   -45064   -45482   -47067   -49495   -52124   -54375   -56016 
  -56977   -57155   -56723   -56106   -55541   -55077   -54758   -54510 
  -54144   -53595   -52790   -51458   -49476   -47073   -44627   -42631 
  -41713   -42236   -43995   -46459   -49069   -51365   -52957   -53548 
  -53211   -52326   -51267   -50408   -49953   -49787   -49782   -49837 
  -49765   -49503   -49137   -48741   -48373   -48112   -48076   -48407 
  -49138   -50164   -51322   -52342   -52958   -53143   -53086   -52993 
  -53049   -53414   -54107   -54905   -55484   -55792   -56101   -56586 
  -57137   -57650   -58127   -58479   -58500   -58101   -57390   -56413 
  -55109   -53612   -52260   -51299   -50757   -50508   -50383   -50187 
  -49671   -48715   -47539   -46500   -45649   -44761   -43817   -43091 
  -42802   -42895   -43140   -43342   -43294   -42812   -42025   -41302 
  -40860   -40640   -40459   -40102   -39307   -37824   -35581   -32758 
  -29677   -26696   -24142   -22190   -20837   -20015   -19638   -19532 
  -19457   -19264   -18944   -18473   -17686   -16385   -14538   -12400 
  -10366    -8695    -7494    -6876    -6908    -7419    -8000    -8177 
   -7607    -6292    -4541    -2694    -1075      -70       36     -782 
   -2360    -4324    -6078    -7114    -7273    -6704    -5763    -4833 
   -4146    -3741    -3514    -3324    -3084    -2816    -2707    -3037 
   -3865    -4903    -5799    -6396    -6663    -6550    -6129    -5739 
   -5806    -6592    -8167   -10433   -13049   -15414   -16863   -16915 
  -15525   -13202   -10786    -8982    -8133    -8304    -9323   -10820 
  -12445   -13935   -14998   -15423   -15228   -14558   -13635   -12673 
  -11712   -10627    -9270    -7598    -5619    -3294     -720     1717 
    3570     4586     4741     4205     3250     2118     1093      553 
     609      930     1144      969        1    -1996    -4722    -7568 
  -10041   -11927   -13205   -13906   -14203   -14463   -14939   -15654 
  -16585   -17591   -18320   -18490   -18115   -17361   -16404   -15566 
  -15398   -16385   -18611   -21766   -25399   -29016   -31890   -33227 
  -32800   -31075   -28766   -26539   -24926   -24149   -23941   -23783 
  -23294   -22354   -21113   -19994   -19555   -20182   -21865   -24320 
  -27201   -30094   -32588   -34448   -35630   -36301   -36802   -37351 
  -37938   -38525   -39089   -39514   -39685   -39588   -39192   -38477 
  -37574   -36746   -36204   -35985   -35899   -35525   -34496   -32933 
  -31325   -30172   -29928   -30961   -33285   -36423   -39612   -42130 
  -43486   -43540   -42644   -41533   -40905   -41122   -42225   -44002 
  -46041   -47776   -48598   -48154   -46561   -44226   -41598   -39151 
  -37340   -36435   -36436   -37061   -37819   -38345   -38506   -38187 
  -37345   -36244   -35358   -34954   -34862   -34689   -34136   -33149 
  -31882   -30561   -29453   -28653   -27965   -27279   -26751   -26499 
  -26436   -26322   -26019   -25637   -25352   -25297   -25575   -26106 
  -26633   -26933   -26872   -26471   -25909   -25377   -25094   -25156 
  -25327   -25382   -25366   -25445   -25750   -26221   -26676   -27010 
  -27192   -27295   -27546   -28144   -29039   -29957   -30540   -30476 
  -29562   -27699   -24987   -21792   -18569   -15696   -13366   -11502 
   -9950    -8748    -8031    -7801    -7967    -8444    -9173   -10140 
  -11346   -12715   -14150   -15603   -17091   -18764   -20806   -23173 
  -25606   -27783   -29482   -30636   -31315   -31761   -32248   -32892 
  -33730   -34675   -35440   -35790   -35785   -35729   -35952   -36670 
  -37900   -39371   -40732   -41851   -42713   -43388   -44041   -44697 
  -45287   -45778   -46124   -46290   -46245   -45957   -45462   -44822 
  -44006   -42950   -41795   -40829   -40234   -40159   -40656   -41467 
  -42241   -42785   -43081   -43260   -43485   -43854   -44321   -44780 
  -45246   -45766   -46289   -46715   -46919   -46802   -46338   -45529 
  -44378   -42879   -41011   -38837   -36597   -34680   -33430   -32928 
  -32971   -33207   -33296   -33106   -32744   -32415   -32354   -32885 
  -34241   -36179   -38060   -39369   -39939   -39777   -38936   -37631 
  -36288   -35258   -34524   -33833   -33024   -32159   -31493   -31277 
  -31516   -31905   -31982   -31368   -29988   -28098   -26151   -24636 
  -23922   -24069   -24758   -25544   -26132   -26383   -26224   -25742 
  -25259   -25130   -25411   -25831   -26056   -25809   -24855   -23107 
