Origin Time       2011/03/11 14:46:00
Lat.              38.103
Long.             142.860
Depth. (km)       24
Mag.              9.0
Station Code      AKT009
Station Lat.      39.8869
Station Long.     139.8467
Station Height(m) 16
Record Time       2011/03/11 14:47:26
Sampling Freq(Hz) 100Hz
Duration Time(s)  300
Dir.              E-W
Scale Factor      3920(gal)/6182761
Max. Acc. (gal)   25.513
Last Correction   2011/03/11 14:47:11
Memo.             
[...]
     876      388      154      -23     -236     -489     -753    -1020 
   -1298    -1371     -842      339     1727     2892     3695     4188 
    4565     4939     5257     5551     5890     6178     6292     6157 
    5764     5306     4942     4532     3986     3508     3304     3419 
    3895     4743     5725     6446     6644     6246     5421     4517 
    3768     3239     2960     2885     2860     2725     2405     1915 
    1289      562     -249    -1176    -2265    -3484    -4697    -5809 
   -6749    -7396    -7711    -7744    -7500    -7114    -6858    -6814 
   -6960    -7380    -8057    -8687    -8871    -8452    -7553    -6388 
   -5155    -3931    -2627    -1160      410     1975     3536     5147 
    6794     8515    10457    12671    15090    17642    20154    22302 
   23799    24578    24780    24616    24315    23979    23482    22657 
   21433    19767    17681    15300    12777    10169     7488     4793 
    2173     -287    -2445    -4178    -5551    -6755    -8010    -9577 
  -11567   -13772   -15885   -17715   -19166   -20308   -21328   -22173 
  -22579   -22441   -21812   -20728   -19313   -17787   -16341   -15141 
  -14242   -13461   -12473   -11001    -8911    -6251    -3279     -379 
    2055     3743     4674     4995     4836     4323     3611     2874 
    2333     2124     2226     2536     2852     3025     3137     3311 
    3641     4251     5095     5889     6432     6635     6256     5097 
    3252      868    -1949    -4893    -7564    -9774   -11515   -12665 
  -13085   -12935   -12187   -10653    -8820    -7188    -5696    -4423 
   -3457    -2632    -1824     -876      294     1465     2476     3448 
    4478     5595     6752     7650     8039     7931     7396     6599 
    5814     5228     4945     4969     5117     5138     4859     4179 
    3114     1837      645     -118     -321     -134      176      334 
     141     -360    -1013    -1665    -2130    -2376    -2543    -2718 
   -2935    -3177    -3290    -3132    -2663    -1823     -593      904 
    2470     3869     4854     5293     5169     4542     3604     2620 
    1776     1123      602      122     -365     -842    -1219    -1406 
   -1425    -1455    -1665    -2042    -2506    -3054    -3674    -4319 
   -4961    -5564    -6055    -6396    -6617    -6686    -6504    -6063 
   -5429    -4608    -3645    -2761    -2173    -1985    -2329    -3266 
   -4516    -5564    -6018    -5694    -4622    -3135    -1617     -216 
    1034     2068     2848     3397     3758     3981     4175     4467 
    4910     5481     6049     6416     6458     6208     5965     6214 
    7202     8784    10674    12569    14167    15329    16057    16322 
   16128    15552    14603    13264    11657     9966     8300     6763 
    5526     4705     4340     4355     4392     4021     3128     1912 
     666     -368    -1135    -1767    -2418    -3181    -4081    -5018 
   -5825    -6450    -6978    -7508    -8057    -8526    -8787    -8676 
   -7990    -6716    -5070    -3293    -1525      203     1890     3499 
    4865     5719     5964     5667     4906     3847     2770     1986 
    1619     1565     1693     1860     1860     1608     1217      891 
     832     1111     1560     1892     1913     1590      998      274 
    -455    -1148    -1830    -2510    -3150    -3737    -4275    -4704 
   -5064    -5563    -6310    -7187    -8009    -8720    -9296    -9543 
   -9193    -8036    -6031    -3463     -751     1868     4276     6342 
    7989     9368    10824    12520    14247    15700    16716    17256 
   17383    17250    16992    16704    16415    15973    15141    13734 
   11612     8811     5655     2564     -115    -2125    -3380    -4021 
   -4265    -4287    -4259    -4209    -3888    -2996    -1482      519 
    2817     5078     6900     8085     8647     8700     8436     8021 
    7547     7107     6701     6222     5684     5201     4837     4644 
    4584     4513     4310     3859     3109     2181     1298      665 
     399      463      631      650      349     -370    -1486    -2872 
   -4490    -6414    -8579   -10697   -12488   -13776   -14444   -14494 
  -14019   -13109   -11829   -10147    -7999    -5382    -2374      731 
    3513     5752     7470     8787     9843    10704    11358    11835 
   12078    11881    11100     9719     7870     5799     3677     1541 
    -567    -2531    -4307    -5983    -7634    -9175   -10399   -11170 
  -11464   -11336   -10969   -10596   -10367   -10384   -10709   -11225 
  -11680   -11978   -12213   -12495   -12879   -13314   -13637   -13709 
  -13450   -12849   -12057   -11259   -10506    -9820    -9296    -9008 
   -8989    -9281    -9786   -10183   -10171    -9726    -8961    -7928 
   -6664    -5302    -3983    -2727    -1528     -498      203      489 
     350     -106     -647    -1152    -1732    -2462    -3179    -3766 
   -4338    -4989    -5688    -6397    -7063    -7622    -8073    -8437 
   -8652    -8589    -8157    -7317    -5977    -4052    -1562     1295 
    4130     6605     8577     9929    10576    10606    10213     9551 
    8706     7670     6324     4587     2524      283    -1929    -3882 
   -5364    -6217    -6425    -6089    -5244    -3937    -2344     -527 
    1579     3873     6149     8289    10225    11838    13014    13721 
   13948    13750    13304    12843    12597    12634    12871    13129 
   13128    12709    11899    10806     9590     8405     7318     6260 
    5072     3606     1815     -160    -2062    -3648    -4780    -5451 
   -5659    -5355    -4540    -3227    -1464      498     2286     3651 
    4521     4946     5109     5179     5178     5136     5192     5404 
    5696     6026     6404     6834     7236     7326     6835     5802 
    4512     3366     2723     2715     3270     4243     5389     6431 
    7249     7835     8215     8488     8702     8752     8486     7794 
    6628     5076     3308     1419     -581    -2621    -4530    -6203 
   -7689    -9056   -10270   -11202   -11709   -11687   -11133   -10123 
   -8697    -6882    -4796    -2574     -343     1699     3271     4215 
    4620     4668     4551     4473     4524     4732     5127     5609 
    6065     6512     6932     7244     7397     7309     6851     5999 
    4853     3519     2128      890      -43     -689    -1154    -1579 
   -2121    -2873    -3866    -5141    -6744    -8629   -10644   -12591 
  -14229   -15374   -16034   -16318   -16342   -16202   -15929   -15514 
  -14917   -14075   -12929   -11400    -9510    -7419    -5191    -2764 
     -99     2809     5853     8757    11287    13376    15006    16118 
   16648    16554    15861    14743    13415    12000    10710     9827 
    9390     9215     9130     8980     8678     8207     7545     6717 
    5737     4575     3313     2113     1119      531      521     1008 
    1735     2497     3210     3825     4278     4637     5110     5770 
    6555     7485     8606     9831    10944    11692    11810    11094 
    9659     7862     5950     4092     2472     1103      -85    -1038 
   -1654    -1876    -1721    -1310     -759     -102      596     1236 
    1805     2337     2788     3131     3472     3922     4456     5044 
    5687     6275     6709     7072     7425     7670     7761     7780 
    7648     7126     6135     4715     2923      995     -795    -2350 
   -3635    -4599    -5203    -5336    -4943    -4175    -3363    -2932 
   -3070    -3567    -4142    -4541    -4470    -3864    -2913    -1725 
    -221     1626     3709     5939     8206    10270    11989    13420 
   14650    15801    16972    18044    18723    18627    17430    15132 
   12070     8716     5578     3029     1105     -430    -1802    -3100 
   -4408    -5844    -7478    -9327   -11292   -13113   -14523   -15394 
  -15756   -15727   -15463   -15080   -14506   -13538   -12055   -10105 
   -7982    -6186    -4998    -4299    -3889    -3541    -3086    -2474 
   -1469      -95     1230     2459     3577     4415     5272     6443 
    7886     9590    11382    12938    14173    15047    15391    15203 
   14592    13567    12188    10518     8549     6394     4253     2259 
     455    -1167    -2603    -3856    -4928    -5737    -6180    -6211 
   -5783    -4930    -3840    -2687    -1503     -287      869     1882 
    2762     3515     4244     5139     6137     6988     7550     7697 
    7263     6248     4818     3158     1484       44    -1036    -1778 
   -2272    -2581    -2696    -2566    -2111    -1265      -85     1205 
    2350     3264     4038     4734     5360     5892     6193     6129 
    5698     4922     3829     2617     1503      426     -784    -2095 
   -3403    -4639    -5580    -5985    -5883    -5466    -4880    -4246 
   -3749    -3488    -3326    -3044    -2594    -2102    -1747    -1645 
   -1715    -1737    -1567    -1202     -723     -334     -307     -811 
   -1878    -3419    -5164    -6786    -8056    -8870    -9281    -9457 
   -9543    -9644    -9787    -9805    -9480    -8770    -7788    -6766 
   -5946    -5331    -4737    -4039    -3202    -2247    -1306     -533 
       5      309      420      389      230      -58     -399     -610 
    -539     -165      465     1210     1801     2019     1776     1005 
    -275    -1848    -3447    -4888    -6121    -7228    -8342    -9579 
  -10984   -12461   -13743   -14531   -14675   -14149   -13108   -11885 
  -10731    -9722    -8864    -8006    -6878    -5381    -3662    -1993 
    -707      -79     -182     -936    -2183    -3657    -4972    -5728 
   -5687    -4871    -3506    -1934     -553      294      376     -341 
   -1649    -3268    -4980    -6558    -7744    -8359    -8373    -7932 
   -7394    -7115    -7161    -7406    -7759    -8157    -8470    -8432 
   -7786    -6476    -4674    -2799    -1328     -493     -286     -587 
   -1161    -1628    -1638    -1114     -236      742     1584     2099 
    2167     1768      985       -5     -923    -1481    -1598    -1366 
    -813       88     1332     2966     5039     7423     9825    11918 
   13309    13636    12804    10975     8400     5331     1945    -1665 
   -5384    -8970   -12111   -14570   -16171   -16713   -16091   -14456 
  -12153    -9545    -6945    -4518    -2193       61     1994     3368 
    4168     4409     4119     3404     2421     1340      233     -924 
   -2086    -3197    -4250    -5157    -5749    -5926    -5768    -5410 
   -4917    -4323    -3555    -2444    -1000      588     2209     3823 
    5306     6580     7788     9140    10860    13131    15822    18636 
   21311    23516    24986    25669    25586    24744    23172    20892 
   17886    14250    10357     6697     3637     1351     -321    -1831 
   -3474    -5205    -6854    -8184    -8943    -9061    -8586    -7646 
   -6552    -5647    -5121    -4936    -4820    -4455    -3646    -2391 
    -894      534     1605     2210     2513     2800     3316     4173 
    5306     6577     7922     9355    10907    12511    13961    15089 
   15903    16489    16991    17593    18358    19277    20327    21340 
   22032    22168    21620    20394    18597    16318    13573    10398 
    6963     3607      666    -1714    -3563    -5102    -6601    -8175 
   -9787   -11217   -12066   -11919   -10551    -8187    -5410    -2793 
    -793      354      758      686      455      356      481      782 
    1137     1358     1420     1464     1535     1574     1523     1318 
     919      341     -384    -1234    -2206    -3329    -4613    -5988 
   -7332    -8535    -9550   -10414   -11247   -12124   -12931   -13468 
  -13587   -13208   -12392   -11349   -10257    -9242    -8512    -8274 
   -8582    -9312   -10158   -10712   -10661    -9875    -8424    -6554 
   -4603    -2931    -1734     -897     -234      248      438      251 
    -335    -1194    -2047    -2625    -2785    -2511    -1879     -980 
     146     1494     2990     4434     5651     6613     7350     7790 
    7764     7179     6121     4836     3652     2843     2464     2332 
    2261     2151     1810     1130      269     -651    -1600    -2468 
   -3183    -3716    -3918    -3568    -2553     -997      896     3022 
    5203     7116     8429     8858     8270     6845     4971     2917 
     785    -1271    -3077    -4579    -5751    -6525    -6861    -6789 
   -6439    -6011    -5640    -5354    -5097    -4812    -4528    -4309 
   -4187    -4126    -4048    -3926    -3700    -3199    -2297    -1005 
     549     2066     3224     3896     4058     3674     2789     1532 
      50    -1460    -2763    -3678    -4154    -4252    -4023    -3532 
   -2941    -2453    -2256    -2503    -3165    -4007    -4767    -5228 
   -5261    -4830    -3936    -2646    -1149      302     1532     2510 
    3404     4472     5769     7199     8678     9970    10774    10991 
   10627     9716     8414     6809     4886     2810      898     -566 
   -1398    -1528     -961      180     1628     3190     4805     6395 
    7938     9398    10575    11353    11783    11891    11686    11167 
   10403     9620     8940     8318     7755     7293     7002     6960 
    7127     7302     7252     6896     6269     5323     4022     2574 
    1202       -1     -842    -1139     -905     -220      803     1983 
    3217     4539     6066     7954    10287    12945    15595    17835 
   19432    20409    20953    21263    21428    21455    21397    21280 
   20913    20056    18755    17171    15229    12711     9409     5207 
     373    -4537    -9216   -13654   -17795   -21468   -24559   -27114 
  -29377   -31658   -34109   -36562   -38588   -39768   -39929   -39151 
  -37620   -35586   -33406   -31404   -29764   -28513   -27388   -25899 
  -23682   -20771   -17563   -14503   -11837    -9621    -7709    -5677 
   -3117      -70     3112     6032     8285     9792    10841    11538 
   11820    11832    11850    12065    12522    13095    13623    14053 
   14368    14491    14397    14100    13588    12930    12201    11309 
   10163     8929     7916     7045     6067     5157     4289     3256 
    2462     2093     1849     1806     2024     2175     2175     2239 
    2416     2654     2878     2808     2263     1386      419     -400 
    -938    -1144    -1023     -887    -1163    -1899    -2862    -3810 
   -4507    -4907    -5325    -6136    -7439    -9091   -10820   -12253 
  -13139   -13555   -13755   -13999   -14502   -15293   -16150   -16651 
  -16250   -14463   -11152    -6699    -1867     2639     6594    10236 
   13874    17613    21283    24539    27025    28398    28387    27016 
   24627    21769    19044    16744    14691    12575    10169     7230 
    3708      -70    -3748    -7134   -10115   -12721   -15032   -16964 
  -18415   -19433   -20028   -20186   -20061   -19865   -19728   -19677 
  -19620   -19503   -19420   -19322   -18813   -17566   -15718   -13613 
  -11518    -9663    -8150    -6917    -5953    -5227    -4520    -3717 
   -2908    -2146    -1448     -797     -129      407      628      721 
    1008     1635     2631     3672     4130     3861     3240     2407 
    1290      -37    -1475    -2940    -4282    -5389    -6129    -6310 
   -5975    -5405    -4721    -3829    -2682    -1308      238     1702 
    2776     3443     3844     4071     4242     4582     5318     6461 
    7832     9243    10574    11793    12887    13795    14397    14464 
   13808    12450    10462     7986     5421     3176     1459      335 
    -304     -699    -1119    -1795    -2683    -3501    -4181    -4778 
   -5086    -4983    -4700    -4401    -4160    -4192    -4561    -5183 
   -6205    -7661    -9081    -9973   -10263   -10165    -9843    -9263 
   -8364    -7252    -6151    -5314    -4801    -4359    -3812    -3333 
   -3146    -3259    -3503    -3733    -3918    -4049    -4134    -4230 
   -4300    -4219    -3852    -2957    -1271     1123     3817     6369 
    8375     9721    10826    12198    13916    15716    17327    18597 
   19458    20022    20639    21599    22880    24339    25806    26806 
   26690    25236    22751    19667    16467    13613    11132     8692 
    6098     3277      222    -2739    -5189    -7067    -8498    -9560 
  -10296   -10680   -10735   -10580   -10299   -10045   -10071   -10547 
  -11515   -12750   -13771   -14355   -14654   -14684   -14198   -13085 
  -11550    -9917    -8379    -6968    -5760    -4967    -4739    -4882 
   -5034    -5087    -5052    -4828    -4457    -3925    -2996    -1808 
    -807      -54      581     1094     1508     1785     1705     1109 
     107     -926    -1631    -1968    -1975    -1532     -658      375 
    1341     2155     2832     3508     4324     5323     6440     7492 
    8193     8341     8045     7545     6899     6167     5508     4925 
    4469     4466     4999     5738     6492     7227     7720     7795 
    7554     7090     6449     5782     5153     4511     3927     3415 
    2849     2346     2249     2736     3797     5243     6568     7262 
    7178     6415     5205     3949     3052     2700     2851     3311 
    3815     4167     4274     4169     3946     3568     3060     2660 
    2474     2390     2398     2655     3204     3793     4133     4112 
    3649     2676     1308     -224    -1683    -2794    -3306    -3199 
   -2838    -2668    -2756    -2982    -3370    -3826    -4077    -4056 
   -3781    -3255    -2743    -2480    -2386    -2390    -2533    -2803 
   -3142    -3498    -3871    -4312    -4928    -5786    -6759    -7617 
   -8189    -8331    -7893    -6872    -5506    -4152    -3111    -2501 
   -2206    -1996    -1738    -1568    -1727    -2232    -2879    -3506 
   -4065    -4559    -4988    -5270    -5237    -4699    -3631    -2306 
   -1033       -3      595      727      579      285      -80     -396 
    -636     -812     -809     -618     -375      -80      322      790 
    1135      971       52    -1401    -2908    -3997    -4409    -4234 
   -3700    -3005    -2324    -1663     -983     -323      374     1092 
    1613     1905     2189     2433     2354     1890     1135      141 
    -798    -1403    -1915    -2570    -3316    -4331    -5701    -6955 
   -7684    -7866    -7358    -6040    -4279    -2543     -968      497 
    2033     4003     6522     9187    11641    13907    15969    17687 
   19059    20130    20981    21905    23232    25005    26922    28524 
   29436    29467    28586    27017    25229    23686    22687    22284 
   22229    22162    21839    21204    20340    19278    17883    16079 
   14015    11851     9654     7550     5603     3804     2254      945 
    -371    -1938    -3932    -6402    -9171   -12035   -14836   -17282 
  -19073   -20196   -20859   -21266   -21601   -22023   -22560   -23059 
  -23238   -22941   -22199   -20938   -19110   -16990   -15002   -13371 
  -11886   -10059    -7542    -4371     -935     2338     5302     7941 
   10177    12042    13745    15540    17538    19622    21621    23283 
   24207    24093    22703    20078    17003    14372    12657    11973 
   11680    10845     9208     6874     3910      696    -2251    -4687 
   -6480    -7809    -9240   -10942   -12615   -14138   -15467   -16472 
  -17190   -17685   -17842   -17667   -17422   -17246   -17190   -17366 
  -17713   -18087   -18409   -18682   -19082   -19761   -20653   -21521 
  -21963   -21522   -19895   -17137   -13724   -10202    -6813    -3692 
    -971     1379     3537     5807     8382    11091    13650    15871 
