Origin Time       2011/03/11 14:46:00
Lat.              38.103
Long.             142.860
Depth. (km)       24
Mag.              9.0
Station Code      AKT006
Station Lat.      40.2153
Station Long.     140.7873
Station Height(m) 123
Record Time       2011/03/11 14:47:17
Sampling Freq(Hz) 100Hz
Duration Time(s)  300
Dir.              U-D
Scale Factor      3920(gal)/6182761
Max. Acc. (gal)   30.983
Last Correction   2011/03/11 14:47:02
Memo.             
[...]
  -19739   -18448   -15917   -13945   -13239   -13382   -13699   -13515 
  -13003   -13142   -14178   -15355   -15659   -14387   -12399   -12211 
  -15042   -18846   -20563   -19242   -16341   -14224   -14989   -18885 
  -23218   -24330   -20608   -13407    -6257    -3253    -6591   -14572 
  -22691   -27123   -26425   -20956   -13032    -6921    -6458   -12061 
  -20137   -25702   -25799   -20868   -14199   -10026   -10728   -15350 
  -20509   -22794   -21502   -19275   -19330   -22675   -27957   -32798 
  -35694   -36839   -36607   -34467   -30407   -26119   -23704   -23732 
  -25039   -26205   -26458   -25493   -24440   -25995   -30964   -36526 
  -39102   -37041   -31816   -27474   -26908   -29366   -32004   -32032 
  -27781   -20052   -12701    -9807   -11781   -15398   -17311   -16912 
  -16150   -17307   -20998   -25921   -30736   -35097   -38341   -39171 
  -37119   -33299   -29575   -26794   -24510   -22622   -21595   -21013 
  -19843   -18331   -18077   -20057   -23486   -26215   -26271   -23414 
  -18792   -13934   -10559    -9971   -12207   -16109   -19825   -21684 
  -21656   -20969   -20010   -18576   -17733   -18728   -20730   -21775 
  -21030   -19170   -17668   -17727   -19013   -19728   -18357   -14928 
  -10597    -6861    -4933    -4948    -5731    -5536    -3758    -1980 
   -2312    -5346   -10099   -14672   -17278   -17388   -15730   -13789 
  -13196   -14821   -18349   -22345   -25038   -25813   -25345   -24779 
  -25548   -28274   -31803   -34478   -35654   -35682   -34375   -30630 
  -24740   -19085   -16269   -17371   -20973   -24602   -26875   -27424 
  -26811   -26671   -28306   -31504   -35029   -37594   -38637   -38863 
  -39587   -41146   -42582   -42792   -41568   -39476   -36969   -34424 
  -32489   -31237   -30083   -29096   -28807   -29008   -29234   -29256 
  -28356   -25494   -20192   -13194    -6924    -4294    -6429   -11744 
  -16647   -18071   -16098   -13068   -11200   -11896   -15320   -20039 
  -23690   -24544   -23088   -21540   -21557   -23135   -25196   -26297 
  -25343   -22198   -17646   -12915    -9370    -8326   -10237   -14174 
  -18517   -21610   -22208   -20228   -17137   -15312   -16304   -19608 
  -23160   -24794   -23830   -21474   -19593   -19535   -21447   -24094 
  -25728   -25092   -21975   -17115   -11587    -6934    -4827    -5303 
   -6508    -6661    -5877    -5890    -7428    -8939    -8574    -5832 
   -1629     1784     1911    -2110    -9233   -17713   -25477   -30072 
  -30155   -27153   -24248   -23390   -24022   -24722   -24931   -24608 
  -23671   -22803   -23324   -25498   -28298   -30413   -30823   -29754 
  -28463   -27260   -25634   -24117   -23802   -24765   -26548   -29097 
  -31981   -33860   -33514   -30900   -27416   -24914   -23997   -23870 
  -23685   -23563   -24143   -25439   -27152   -29232   -30759   -30194 
  -28023   -26857   -28265   -31369   -34389   -36219   -36689   -36186 
  -35410   -35306   -36530   -38262   -38357   -35830   -31992   -28140 
  -24252   -20767   -19042   -19569   -21631   -24000   -24886   -22611 
  -17085   -10076    -3847     -274    -1029    -6170   -12811   -17442 
  -18864   -18334   -17887   -18732   -21156   -24916   -28970   -31750 
  -31968   -29518   -26333   -24879   -25486   -26848   -27698   -27008 
  -24923   -23130   -22923   -24159   -26011   -27564   -27972   -26872 
  -24902   -23147   -22107   -21760   -21971   -22543   -23527   -24863 
  -25675   -25285   -24306   -23874   -24521   -25901   -26993   -26298 
  -22823   -17688   -13497   -12132   -14265   -19127   -23904   -25443 
  -22813   -17845   -13507   -11822   -13752   -19163   -25515   -28701 
  -26282   -19507   -12006    -7198    -6918   -10365   -14495   -16606 
  -16043   -14164   -13225   -14505   -17008   -18072   -15920   -11429 
   -7053    -4897    -5697    -8560   -11528   -12877   -12530   -12003 
  -13185   -17517   -24502   -31229   -35321   -36718   -36348   -35286 
  -34026   -32324   -30622   -29799   -29976   -30900   -32271   -33717 
  -34520   -33436   -30213   -26442   -24040   -24160   -26363   -28159 
  -27433   -24422   -20468   -17004   -15445   -16220   -17808   -17524 
  -14076    -9159    -6632    -9808   -18212   -27911   -35180   -38181 
  -36761   -32716   -29384   -29342   -32184   -35551   -37344   -36183 
  -31820   -25678   -19971   -16321   -15331   -16816   -19636   -21838 
  -21950   -19972   -17150   -15051   -14621   -15476   -15815   -14041 
  -10536    -7179    -6058    -8299   -13043   -17898   -20409   -19537 
  -16390   -13119   -11348   -11665   -13765   -17092   -21454   -26725 
  -31699   -33941   -32210   -28212   -24703   -23130   -23866   -26390 
  -28519   -28059   -25170   -22094   -21599   -24783   -29799   -33257 
  -32519   -27484   -20516   -14739   -12473   -13747   -16004   -15927 
  -11987    -5924    -1273     -507    -3587    -8183   -11632   -12602 
  -11148    -8790    -7549    -7930    -9156   -10755   -12713   -15001 
  -17683   -20914   -24407   -27081   -27494   -25097   -21395   -18671 
  -17461   -16968   -16798   -16915   -17107   -16628   -14857   -12888 
  -12550   -14178   -16841   -19227   -20167   -19729   -18931   -18636 
  -19919   -23393   -27374   -28967   -27217   -24069   -21898   -20927 
  -20082   -18992   -18147   -18379   -20067   -22531   -24647   -25272 
  -23583   -20221   -17940   -19743   -25093   -29616   -29554   -24817 
  -18429   -14541   -15732   -21625   -29740   -36402   -38337   -35030 
  -28569   -22116   -18646   -19015   -21912   -25759   -29047   -30232 
  -28765   -25546   -22238   -20374   -20756   -23245   -26716   -29522 
  -30737   -30606   -29912   -29712   -31309   -35091   -39308   -41325 
  -39796   -35185   -29598   -25569   -24118   -24860   -26807   -28357 
  -28667   -28155   -26877   -25094   -23944   -23510   -22407   -19449 
  -14998   -11159   -10088   -12330   -17220   -24124   -32221   -39061 
  -41573   -39088   -33908   -29469   -27741   -27600   -27161   -26444 
  -25758   -24215   -21087   -16523   -11483    -7670    -6346    -7623 
  -10709   -13933   -15657   -15528   -14727   -15207   -17874   -21391 
  -23320   -22274   -18856   -15052   -12626   -11862   -12191   -12612 
  -11353    -8312    -6405    -7623   -10612   -12510   -10768    -5143 
    1424     5154     3910    -1445    -7353   -10847   -11821   -11789 
  -12507   -15729   -21950   -28320   -30279   -26362   -19295   -12921 
   -9468    -9460   -13102   -19494   -25648   -29035   -29938   -30345 
  -31196   -31484   -30057   -27061   -23495   -20542   -19275   -19868 
  -21036   -21279   -20293   -18391   -15620   -12366    -9677    -8511 
   -9389   -12676   -18381   -25066   -30272   -32733   -33302   -34429 
  -38648   -46194   -54265   -58918   -57863   -52279   -45864   -42118 
  -42109   -44166   -46132   -46857   -45756   -43629   -42948   -45343 
  -50054   -54956   -57518   -55639   -49270   -40742   -33143   -28681 
  -28010   -29739   -30746   -28405   -22685   -16057   -11494   -10445 
  -12456   -15541   -17475   -17237   -15005   -12414   -11649   -12865 
  -14545   -15784   -16928   -18630   -20476   -21833   -23200   -24606 
  -25201   -25203   -25656   -26915   -28364   -29196   -29538   -30293 
  -31764   -33088   -33019   -30998   -27499   -23438   -19475   -15670 
  -11216    -5200     1631     6840     8258     5695     1047    -3423 
   -6194    -6697    -6354    -7928   -12722   -18962   -23106   -22820 
  -18173   -11175    -5078    -2212    -2589    -4823    -6783    -6763 
   -5348    -4567    -5509    -7847   -10977   -14547   -17462   -17968 
  -15657   -11870    -8287    -6016    -5569    -7245   -10991   -15859 
  -20172   -22223   -21027   -17049   -12348    -9715   -10817   -14986 
  -20173   -24341   -26437   -26825   -26085   -24421   -22310   -19914 
  -16682   -12432    -8109    -5674    -6801   -11109   -16340   -20462 
  -23032   -24611   -25808   -27088   -28729   -30589   -31970   -32096 
  -31188   -30537   -31185   -33022   -34873   -35349   -34381   -34050 
  -36681   -41990   -47536   -50777   -49815   -44344   -36202   -28197 
  -22666   -20535   -21498   -24974   -29887   -34387   -37080   -38214 
  -39335   -41332   -43401   -44402   -44167   -43355   -42362   -40999 
  -39151   -36535   -32717   -28004   -23492   -20338   -19253   -20462 
  -23350   -26194   -27297   -26229   -23636   -20762   -18714   -17627 
  -17348   -17511   -17047   -15508   -13106   -10065    -7457    -6499 
   -7658   -10896   -15222   -18470   -17851   -12070    -3651     2903 
    4679     1398    -4471    -8909    -9760    -7722    -4102     -306 
    1571      194    -3488    -7257    -9693   -10269    -9194    -8427 
   -9854   -12917   -16258   -18778   -18718   -14747    -8278    -3266 
   -2496    -5073    -8227   -10059   -10358    -9835    -9411    -9645 
  -10050    -9822    -8834    -7482    -6891    -8725   -13711   -20460 
  -26103   -28771   -28926   -27820   -25769   -22611   -18881   -15497 
  -13017   -11791   -11981   -13288   -15198   -17693   -20970   -24096 
  -25399   -24540   -22851   -21431   -20399   -19790   -19371   -18031 
  -14797   -10641    -8406   -10239   -15728   -22291   -26899   -28092 
  -26405   -23513   -21491   -21484   -22872   -24544   -25746   -25387 
  -22697   -18584   -14892   -12602   -11524   -11908   -14535   -18480 
  -21826   -23918   -24327   -22883   -21072   -20050   -19087   -17174 
  -14572   -12735   -12300   -12195   -12269   -13531   -15421   -16547 
  -16578   -16171   -16742   -19385   -23511   -27525   -30445   -32368 
  -33716   -34339   -33977   -33197   -32685   -32544   -32595   -32741 
  -33567   -35395   -37199   -38870   -40965   -42014   -41223   -39721 
  -37355   -33467   -28487   -22907   -17568   -14064   -13686   -16168 
  -19256   -20417   -18974   -16182   -14106   -14258   -16563   -19418 
  -20966   -20806   -19831   -18918   -18981   -20394   -22106   -23214 
  -23598   -22770   -20595   -18244   -17432   -18998   -21894   -24329 
  -25386   -24564   -21741   -18317   -16539   -17420   -19761   -20993 
  -19727   -16791   -13644   -11970   -13112   -16338   -19976   -22774 
  -23490   -22190   -20282   -18313   -16385   -14724   -13099   -12064 
  -12430   -13606   -15002   -16786   -19078   -21840   -24075   -24308 
  -22759   -20604   -18081   -15702   -15024   -16602   -19275   -21627 
  -22478   -21030   -18471   -17618   -19254   -21759   -24109   -25539 
  -24455   -20174   -13819    -7516    -3578    -2767    -3002    -1650 
    1340     4000     4566     2699     -189    -2205    -2313    -1115 
   -1729    -7134   -16289   -25215   -30191   -29780   -26124   -23129 
  -22333   -22693   -23323   -23397   -21965   -19536   -17809   -18377 
  -21521   -25814   -29500   -31295   -30719   -29111   -28655   -29430 
  -29841   -29905   -30566   -31435   -32199   -32935   -32407   -29491 
  -24398   -17399   -10013    -5646    -5530    -7642   -10670   -14765 
  -19369   -22992   -24207   -22634   -19089   -15272   -13400   -14652 
  -18566   -23934   -29169   -32927   -34912   -35970   -37484   -40228 
  -43650   -46184   -46673   -45321   -42854   -40254   -38573   -37748 
  -37518   -38568   -41092   -43662   -44716   -43984   -41204   -35934 
  -29152   -22830   -19277   -20496   -26193   -33316   -37583   -35975 
  -28876   -19478   -12480   -12131   -18381   -27095   -34001   -36136 
  -32993   -27324   -22598   -21080   -23127   -26592   -29012   -29743 
  -29171   -27961   -26740   -25595   -24829   -25229   -26748   -28470 
  -29242   -27980   -24838   -21410   -19679   -21017   -24852   -28823 
  -30804   -30394   -28629   -26488   -24402   -22890   -22450   -22825 
  -23021   -22295   -21109   -20625   -20321   -17605   -11938    -6286 
   -2868    -2431    -5658   -10275   -12947   -14009   -14026   -12048 
   -9053    -6903    -6473    -7531    -8544    -8931    -9722   -11198 
  -12383   -12259   -11486   -12417   -15840   -19775   -22149   -22297 
  -20581   -18074   -15800   -14149   -13253   -13179   -13572   -13839 
  -13799   -13745   -13823   -14272   -16058   -19452   -22566   -22728 
  -18583   -11195    -3641      733     -369    -6444   -13658   -18255 
  -18756   -15509   -10970    -8412    -9257   -12638   -16971   -21036 
  -23374   -22819   -20606   -19643   -21495   -25100   -28279   -30039 
  -30432   -29317   -27312   -26310   -26961   -27231   -25314   -22434 
  -20236   -18090   -15500   -12441    -8084    -3501    -1473    -2802 
   -5907    -8338    -8137    -4720      575     4002     1692    -5896 
  -13450   -15606   -11037    -2581     4989     7845     5221      213 
   -2604    -1902      -38      444    -1601    -5340    -8061    -8341 
   -7363    -6035    -4844    -5412    -8193   -11404   -13752   -15036 
  -14529   -11232    -5875    -1498    -1334    -6067   -13153   -19357 
  -23171   -24289   -23386   -22514   -23427   -25971   -27950   -26468 
  -21668   -18105   -19944   -26707   -35449   -43950   -50144   -52707 
  -52789   -52377   -52221   -51695   -50578   -50293   -51303   -52590 
  -53879   -54141   -51346   -46268   -42335   -41881   -44817   -48725 
  -50348   -48840   -45857   -43219   -41929   -41693   -41789   -42102 
  -42263   -41987   -41824   -41679   -40425   -37624   -34011   -30634 
  -27943   -25287   -21910   -18342   -15671   -14307   -14086   -13932 
  -12382    -9542    -6581    -4803    -5881    -9827   -13988   -15906 
  -15738   -15107   -14558   -13975   -13831   -14188   -14285   -13425 
  -11522    -8683    -4690      171     4746     7779     8349     6887 
    5451     6313    10891    18272    25002    27794    25400    19450 
   14147    12871    15820    20483    22916    20407    13648     5594 
   -1388    -6565    -9715   -10794   -10554   -10161   -10316   -11343 
  -13911   -18268   -22811   -25569   -26508   -26779   -27246   -28269 
  -29607   -30771   -31465   -31304   -29922   -28070   -27803   -30624 
  -35881   -41446   -45456   -46669   -44344   -39344   -34673   -33488 
  -36257   -40562   -43578   -44323   -43710   -42969   -43072   -44433 
  -45806   -45339   -42807   -39755   -38031   -38146   -39287   -40233 
  -39961   -39139   -39672   -42134   -45589   -48556   -49575   -48145 
  -45027   -41725   -39292   -37366   -35093   -32448   -29907   -28079 
  -27697   -28394   -28552   -27421   -25841   -24992   -25547   -27341 
  -30042   -34019   -39151   -43758   -45783   -44514   -41162   -37408 
  -33845   -30573   -27769   -25197   -22196   -18521   -14925   -12317 
  -10976   -10806   -11109   -10622    -8659    -5172     -210     5000 
    8201     8391     6174     2802     -228    -2287    -3979    -6251 
  -10028   -14962   -18347   -17827   -14867   -13220   -14445   -17221 
  -20264   -23105   -24916   -25244   -24748   -24150   -24015   -25035 
  -27199   -29424   -30757   -31583   -32721   -33663   -32765   -29324 
  -25198   -23468   -25278   -29140   -32862   -34868   -34475   -32035 
  -28810   -26426   -25800   -26110   -25623   -23472   -19967   -16534 
  -15338   -17561   -22148   -25949   -25818   -21737   -16791   -13725 
  -12666   -12707   -13644   -15256   -17320   -19862   -21985   -22572 
  -21787   -20073   -17388   -14175   -11669   -11059   -12313   -13818 
  -13867   -11833    -7783    -3009     -223    -1152    -5422   -11629 
  -17549   -20824   -20513   -17620   -14471   -13132   -13853   -15188 
  -15935   -16299   -16706   -16883   -16539   -16024   -16136   -17360 
  -19628   -22742   -25819   -27155   -26205   -24555   -24330   -25945 
  -27572   -27331   -25008   -21347   -17328   -14497   -14727   -18206 
  -22742   -26104   -27533   -27797   -28129   -28327   -28147   -28399 
  -28717   -28280   -27627   -27549   -28130   -28824   -28752   -26583 
  -21232   -14020    -7920    -4971    -6092   -10478   -15127   -17102 
  -15163   -10059    -4181      191     1717      191    -2767    -4835 
   -4761    -2930    -1314    -2111    -6157   -12791   -20330   -26738 
  -30270   -30208   -27722   -25168   -24261   -25192   -26812   -27627 
  -26894   -25050   -23383   -23238   -25339   -28841   -31423   -31272 
  -28098   -23107   -18874   -17333   -17951   -18698   -17873   -15321 
  -12256   -10032    -9879   -12360   -16235   -19622   -21421   -21543 
  -21384   -22034   -22335   -21192   -19541   -18658   -18269   -16618 
  -12141    -5393     1454     6497     7945     4815     -663    -4448 
   -4282     -543     4351     6987     5501     1173    -2802    -3849 
   -1885     1522     4986     7306     7511     5743     3039      128 
   -3153    -7281   -12251   -17394   -21956   -26006   -30237   -34616 
  -37819   -38457   -36841   -34910   -34484   -35988   -38478   -40642 
  -41465   -40575   -38582   -36584   -35711   -36515   -38395   -40449 
  -41732   -41098   -38308   -34190   -30214   -28404   -29967   -34038 
  -38419   -41055   -41036   -39146   -37175   -36428   -36921   -36945 
  -34081   -28229   -22322   -19376   -20339   -24250   -28701   -30941 
  -29802   -26306   -22956   -21931   -22975   -24308   -25000   -25127 
  -24823   -23876   -22413   -21401   -21399   -22085   -23220   -24130 
  -23113   -19081   -12907    -6900    -3083    -1438     -334     1661 
    4772     7447     7289     3818     -729    -3577    -3422     -808 
    2610     4846     4451     1658    -2026    -4913    -6027    -6603 
   -8601   -11492   -13234   -12773   -10599    -8345    -7162    -6606 
   -6102    -5865    -5775    -5821    -6768    -8162    -8410    -7556 
   -6637    -5822    -5659    -7292   -10035   -11579   -11031    -9466 
   -8048    -7533    -8342    -9974   -11996   -14917   -18555   -21196 
  -21184   -18847   -16580   -16557   -19171   -23628   -28466   -31744 
  -31878   -29046   -25872   -25564   -29062   -34600   -39658   -43017 
  -44995   -46363   -47919   -50427   -54051   -57812   -60129   -60591 
  -60396   -60655   -61331   -61469   -60085   -57413   -54593   -52372 
  -51105   -51072   -51996   -52638   -51616   -48863   -45355   -42081 
  -39859   -38870   -38805   -39553   -40557   -40393   -38089   -34235 
  -30168   -26841   -24725   -23864   -24040   -24757   -25110   -24861 
  -24557   -23804   -21690   -18741   -16192   -14311   -12686   -10945 
   -9112    -7711    -7310    -8082    -9601   -11059   -11515   -10087 
   -7251    -5069    -4910    -6185    -7041    -5722    -2343     1100 
    2685     1812     -905    -4130    -6056    -5506    -2907      354 
    2419     1858     -964    -4373    -6629    -6783    -5335    -3590 
   -2237    -1538    -2227    -4553    -7609   -10494   -12530   -13241 
  -13037   -12591   -12056   -11661   -12488   -15379   -18947   -20528 
  -18738   -14039    -8908    -6877    -9526   -15627   -22316   -26278 
  -26094   -23625   -22228   -24096   -29036   -34622   -37797   -37679 
  -36237   -35683   -36653   -38782   -41282   -42726   -41789   -38896 
  -35908   -34108   -33284   -32350   -30693   -28570   -26100   -23002 
  -19400   -16456   -15652   -16949   -18686   -19386   -18402   -15561 
  -11774    -8941    -7952    -8093    -8295    -7474    -4723     -367 
    3723     5569     4626     1774    -1341    -3382    -4356    -4819 
   -5033    -5751    -8072   -12353   -17908   -23008   -25976   -26296 
  -23729   -19088   -16000   -17598   -22953   -29263   -34145   -36063 
  -35240   -32835   -30023   -28471   -29570   -33292   -38034   -41392 
  -41936   -40041   -36882   -33299   -29825   -26845   -23890   -20071 
