Origin Time       2011/03/11 14:46:00
Lat.              38.103
Long.             142.860
Depth. (km)       24
Mag.              9.0
Station Code      AKT002
Station Lat.      40.2676
Station Long.     140.5664
Station Height(m) 69
Record Time       2011/03/11 14:47:20
Sampling Freq(Hz) 100Hz
Duration Time(s)  300
Dir.              N-S
Scale Factor      3920(gal)/6182761
Max. Acc. (gal)   46.089
Last Correction   2011/03/11 14:47:05
Memo.             
[...]
   34876    36337    36224    35008    33297    31329    29154    26800 
   23985    20282    15792    11230     7133     3425      -19    -2885 
   -4792    -5798    -6251    -6269    -5684    -4296    -1880     1716 
    6270    11290    16295    20941    25084    28762    32104    35217 
   38098    40657    42657    43764    43786    42647    40438    37572 
   34235    30172    25397    20230    14738     8837     2717    -3087 
   -8002   -11798   -14626   -16785   -18561   -20049   -20986   -20866 
  -19203   -15859   -11179    -5694      241     6430    12557    18234 
   23303    27823    31769    34808    36388    36251    34616    31673 
   27482    22349    16643    10481     3861    -3156   -10276   -16938 
  -22524   -26474   -28352   -28134   -26250   -23034   -18557   -12916 
   -6264     1166     9177    17679    26337    34538    41782    47593 
   51232    52145    50478    46839    41842    35929    29376    22250 
   14579     6719     -771    -7411   -12775   -16593   -18716   -19068 
  -17840   -15056   -10558    -4630     2194     9495    17023    24693 
   32474    40439    48492    55913    61907    66440    69728    71579 
   72025    71610    70589    68585    65234    60675    55073    48354 
   40679    32431    24007    15981     8906     2942    -1807    -5119 
   -7153    -8203    -8289    -7468    -5685    -2764     1185     5937 
   11174    16282    20563    23744    26093    27982    29781    31903 
   34305    36352    37357    36995    35423    33177    30621    27508 
   23671    19531    15498    12041     9612     7969     6918     6537 
    6445     6361     6424     6921     8271    10583    13426    16169 
   18424    20092    21143    21953    23218    24821    25709    25210 
   23564    21362    19165    17328    15825    14207    11924     8843 
    5304     1887     -688    -1916    -1880     -977      303     1484 
    2551     3950     6121     9127    12532    15854    18832    21251 
   23141    24837    26687    28963    31571    33798    34841    34441 
   32928    30984    29225    27874    26795    25603    23913    21739 
   19370    17146    15401    14252    13863    14277    14702    14466 
   14055    14179    14971    16379    18366    20643    22781    24665 
   26455    28406    30802    33600    36486    39295    41806    43599 
   44393    44214    43326    42084    40713    39098    36900    33899 
   30052    25542    21001    17225    14642    13298    13073    13768 
   15118    16768    18343    19629    20820    22393    24455    26675 
   28658    29888    29896    28662    26475    23618    20195    16194 
   11785     7343     3169     -584    -3761    -6225    -8040    -9412 
  -10431   -10978   -10970   -10526    -9738    -8544    -6899    -4893 
   -2707     -356     2397     5722     9488    13370    17077    20548 
   23852    27008    30123    33395    36662    39353    40954    41287 
   40412    38651    36683    34969    33301    31309    28771    25571 
   21973    18453    15248    12645    10969     9991     9282     8830 
    8941     9896    11577    13467    15177    16485    17113    17167 
   17304    17959    18938    19841    20453    20884    21374    22037 
   22879    23846    24898    26039    27140    27972    28528    28863 
   28733    27990    26856    25316    22980    19741    15897    11819 
    7938     4608     1824     -485    -2132    -2924    -2830    -1826 
     171     3216     7284    12243    17754    23179    27914    31947 
   35744    39596    43431    47087    50320    52720    54039    54491 
   54480    54228    53693    52707    51254    49376    46972    44216 
   41659    39363    36619    32853    28244    23433    19093    15667 
   13280    11760    10604     9251     7659     6369     5912     6333 
    7349     8798    10631    12603    14425    15917    16836    17085 
   16851    16334    15645    14614    12928    10752     8638     7038 
    6238     6288     6787     7067     6884     6751     7304     8652 
   10453    12245    13834    15327    16756    18067    19315    20579 
   21762    22507    22508    21963    21431    21225    21167    20822 
   19734    17543    14271    10499     6896     3579      147    -3774 
   -8101   -12413   -16301   -19326   -21147   -21938   -22211   -22375 
  -22574   -22572   -21862   -20049   -17125   -13462    -9621    -6015 
   -2697      517     4003     8045    12348    16281    19321    21196 
   22059    22254    21952    21293    20399    19053    16893    14038 
   11110     8589     6491     4522     2411      161    -2193    -4745 
   -7136    -8636    -9231    -9574   -10005   -10501   -11026   -11405 
  -11366   -10892   -10345    -9899    -9199    -7992    -6374    -4336 
   -1818     1046     4110     7312    10619    14024    17394    20536 
   23565    26692    29841    32820    35545    37898    39495    39944 
   39318    38074    36625    35160    33770    32466    31115    29696 
   28484    27848    27978    28756    29911    31292    32837    34304 
   35355    35963    36427    36969    37576    38250    39049    39919 
   40595    40822    40708    40520    40338    40210    40311    40763 
   41471    42255    42838    42835    42073    40656    38680    36245 
   33696    31357    29025    26144    22488    18522    15105    12911 
   12167    12718    14248    16530    19458    22997    27054    31392 
   35907    40647    45439    49933    53726    56262    57227    56958 
   55919    54161    51490    47758    42912    36948    30034    22691 
   15558     9007     3221    -1496    -4966    -7543    -9648   -11243 
  -12153   -12314   -11683   -10233    -7962    -5060    -2103      181 
    1365     1615     1544     1720     2450     3709     5025     5977 
    6797     8028     9924    12377    15045    17673    20163    22293 
   23856    24719    24718    24110    23347    22358    20914    18971 
   16429    13397    10299     7535     5441     4204     3626     3373 
    3233     3128     3216     3778     4966     6821     9245    11872 
   14312    16421    18251    19983    21776    23574    25193    26385 
   26931    26861    26335    25530    24755    24048    23005    21508 
   19866    18216    16510    14772    13093    11571    10165     8663 
    6918     4856     2414      -22    -1660    -2107    -1469       77 
    2402     5361     8807    12721    17145    21970    26961    31772 
   36002    39457    42047    43613    44109    43535    41682    38372 
   33868    28827    23870    19161    14477     9625     4525     -775 
   -5940   -10587   -14568   -17843   -20469   -22492   -23651   -23681 
  -22585   -20326   -16880   -12598    -8092    -3962     -637     1990 
    4475     7158     9888    12160    13381    13267    12006    10220 
    8630     7496     6735     6364     6374     6714     7532     8824 
   10194    11394    12413    13164    13737    14425    15425    16659 
   17679    18173    18241    18079    18069    18622    19667    20638 
   20917    20320    19075    17635    16565    16342    17146    18641 
   20106    21009    21356    21493    21814    22619    23792    24729 
   24857    23991    22396    20707    19432    18622    18052    17304 
   15947    14085    12307    11095    10714    11249    12468    13799 
   14660    15137    15826    16914    18089    19122    19921    20429 
   20825    21390    22101    22595    22336    20993    18770    16224 
   13858    11816     9976     8308     6957     6087     5866     6453 
    7856     9955    12657    15914    19663    23725    27642    30837 
   33142    34865    36268    37458    38556    39270    38813    36711 
   33254    29113    24714    20040    15054     9903     4592     -950 
   -6414   -11225   -15154   -18411   -21226   -23587   -25369   -26546 
  -27068   -26710   -25377   -23327   -20726   -17369   -13003    -7631 
   -1541     4845    11066    16670    21399    25262    28273    30170 
   30587    29486    27232    24345    21353    18562    15838    12900 
    9775     6834     4713     4249     5956     9562    14324    19563 
   24884    30232    35759    41710    48182    54814    60921    65749 
   68822    70135    69844    68318    66214    63853    60919    56890 
   51541    45285    39040    33449    28674    24947    22469    20937 
   19866    19140    18992    19649    21004    22661    24242    25507 
   26522    27494    28298    28590    28008    26286    23586    20317 
   16670    12581     7907     2625    -3136    -9111   -14712   -19226 
  -22500   -24836   -26312   -26830   -26303   -24535   -21338   -16702 
  -10777    -3808     3992    12447    21174    29381    36132    40812 
   43146    43081    41067    38075    34878    31397    26870    20705 
   13120     4894    -3063    -9729   -14250   -16648   -17744   -18120 
  -17611   -15807   -12567    -8082    -2745     2969     8607    13810 
   18448    22788    27115    31295    35180    38666    41153    42003 
   41324    39812    38297    37338    36763    35807    33798    30568 
   26576    22607    19088    16124    13976    12936    13090    14261 
   16009    17889    19637    21225    22900    24994    27679    30663 
   33331    35623    37870    39634    40056    39054    37064    34188 
   30282    25474    20033    14069     7946     2390    -2107    -5454 
   -7640    -8550    -8051    -6185    -3286      119     3626     7173 
   10820    14582    18555    22883    27580    32393    36864    40599 
   43451    45415    46496    46752    46296    45151    43105    39735 
   34802    28616    21828    15052     8752     3138    -1968    -6960 
  -12091   -17327   -22412   -26865   -30024   -31324   -30532   -27852 
  -23999   -19918   -16068   -12192    -7846    -2667     3508    10080 
   15788    19782    22068    23078    23422    23733    24190    24276 
   23277    20963    17773    14600    12394    11638    12069    13028 
   13881    14132    13592    12563    11498    10659    10219    10219 
   10430    10569    10647    11044    12089    13723    15684    17700 
   19520    21015    22147    22999    23939    25197    26230    26066 
   24248    21295    18276    16086    15186    15632    17027    18689 
   20182    21522    22700    23415    23363    22454    20808    18713 
   16458    14160    11770     9127     6119     2843     -473    -3500 
   -5699    -6519    -5897    -4293    -2274      -63     2574     5856 
    9560    13276    16789    19934    22247    23211    22808    21426 
   19339    16684    13925    11719    10190     8934     7727     6868 
    6821     7682     9389    12062    15486    18937    21840    24133 
   26235    28495    30706    32637    34353    35761    36390    35761 
   33943    31380    28229    24401    19988    15314    10925     7396 
    4915     3473     3093     3519     4390     5522     6812     8384 
   10756    14528    19720    25505    30757    34692    37164    38524 
   39132    39127    38455    36849    34033    30099    25639    21431 
   17868    14718    11578     8438     5501     2717       29    -2426 
   -4644    -6789    -9110   -11773   -14427   -16486   -17668   -17857 
  -17141   -15875   -14285   -12394   -10104    -7085    -3020     2108 
    8044    14286    20259    25750    30952    35932    40437    44254 
   47366    49827    51649    52824    53567    54277    54860    54592 
   53179    51154    49072    47063    44875    42110    38548    34112 
   29053    24105    19979    16999    15110    13936    13176    13008 
   13966    16473    20529    25725    31489    37199    42211    46217 
   49362    51949    54173    55826    56328    55097    52000    47742 
   43496    40033    37466    35460    33526    31458    29570    28285 
   27712    27773    28230    28502    28005    26851    25749    25121 
   24829    24684    24719    24931    25135    25225    25231    24903 
   23796    21974    19842    17577    15441    13880    13040    12673 
   12302    11545    10346     8900     7586     6755     6573     7034 
    7846     8512     8656     8331     7992     7849     7620     7238 
    6985     6853     6660     6745     7764     9754    11920    13401 
   13887    13613    12912    11925    10898    10177     9589     8605 
    7013     4940     2719      713    -1010    -2530    -3757    -4517 
   -4757    -4587    -4114    -3352    -2387    -1290      130     2150 
    4842     7900    10766    12969    14224    14424    13719    12449 
   10980     9533     8085     6449     4417     1812    -1337    -4486 
   -6875    -8258    -8889    -9022    -8805    -8308    -7506    -6271 
   -4407    -1937      841     3663     6459     9392    12663    16171 
   19662    22909    25636    27675    29136    30175    30792    30899 
   30286    28676    26110    23049    20030    17356    14916    12382 
    9612     6710     4016     2021     1108     1473     3063     5509 
    8316    11137    13873    16511    18869    20602    21408    21183 
   20075    18349    16151    13429    10107     6331     2525     -960 
   -4079    -6870    -9416   -11955   -14587   -17067   -19085   -20479 
  -21296   -21800   -22187   -22614   -23385   -24484   -25414   -25924 
  -26148   -26121   -25836   -25379   -24770   -23935   -22828   -21428 
  -19766   -17982   -16181   -14326   -12425   -10679    -9301    -8271 
   -7424    -6593    -5573    -4339    -3169    -2230    -1431     -753 
    -325     -135      226     1339     3409     6316     9964    14219 
   18965    24300    30334    36982    43999    51023    57697    63870 
   69631    75057    79971    84083    87113    88740    88579    86386 
   82495    77728    72834    68247    64047    60102    56317    52591 
   48872    45359    42343    39994    38395    37462    36919    36510 
   36095    35592    35059    34764    34807    34846    34466    33531 
   32083    30298    28657    27742    27717    28390    29671    31582 
   34035    36779    39501    41966    44054    45664    46749    47414 
   47881    48257    48289    47635    46223    44018    40822    36672 
   32083    27702    23913    20793    18224    15911    13564    11330 
    9578     8414     7933     8166     8787     9622    10694    11661 
   12294    12942    13876    14895    15713    16300    16875    17632 
   18639    19905    21255    22334    22740    22188    20815    19175 
   17777    16730    15719    14427    12997    11852    11122    10423 
    9297     7673     5630     3201      669    -1436    -2649    -2831 
   -2260    -1299     -157     1021     2313     4003     6280     9134 
   12293    15413    18382    21064    23099    24241    24467    23750 
   21866    18541    13905     8562     3153    -1894    -6272    -9733 
  -12278   -14406   -16678   -18985   -20774   -21680   -21472   -19987 
  -17423   -14359   -11403    -8846    -6566    -4273    -1800      941 
    4151     7967    12186    16462    20587    24454    27988    31107 
   33704    35742    37195    37938    37822    36885    35406    33694 
   31853    29781    27432    24938    22382    19703    16716    13294 
    9704     6376     3470      958    -1385    -3859    -6381    -8607 
  -10302   -11288   -11495   -11175   -10682   -10053    -9056    -7581 
   -5793    -4075    -3065    -3394    -5063    -7386    -9595   -11258 
  -12252   -12635   -12657   -12584   -12385   -11763   -10210    -7194 
   -2781     2462     7971    13108    17411    20912    23785    26242 
   28436    29980    30374    29714    28290    26266    24001    21973 
   20349    18893    17241    15151    12542     9451     6015     2535 
    -567    -2942    -4529    -5575    -6257    -6467    -6105    -5209 
   -3763    -1723      820     3590     6240     8592    10735    12895 
   15171    17343    19101    20237    20670    20658    20629    20765 
   21058    21506    22241    23451    25087    26896    28682    30443 
   32317    34313    36323    38252    39832    40718    40787    40013 
   38404    36333    34641    34086    34668    35601    35929    35164 
   33395    30918    28027    25079    22359    19900    17632    15483 
   13203    10549     7696     5122     3168     1975     1630     2207 
    3823     6520    10097    14261    18735    23136    27011    30117 
   32533    34386    35762    36918    38214    39851    41813    43992 
   46206    48063    49139    49377    49038    48380    47492    46195 
   44191    41352    37757    33625    29230    24766    20335    16037 
   11984     8268     5040     2545     1106     1019     2325     4688 
    7514    10276    12832    15312    17750    20113    22403    24362 
   25554    25797    25144    23789    22141    20621    19443    18635 
   18207    18329    19099    20418    22275    24666    27264    29575 
   31267    32205    32327    31724    30827    30157    29878    29812 
   29750    29558    29154    28565    27991    27779    28194    29093 
   30083    31015    31960    32770    33061    32564    31313    29638 
   28014    26715    25662    24609    23303    21549    19260    16567 
   13804    11206     8823     6631     4459     2072     -589    -3353 
   -5968    -8248   -10018   -11098   -11533   -11553   -11291   -10729 
   -9727    -8184    -6240    -4191    -2302     -733      642     2217 
    4209     6403     8457    10205    11573    12427    12633    12176 
   11098     9498     7677     5998     4624     3581     2964     2941 
    3690     5331     7800    10685    13461    15942    18228    20372 
   22469    24724    27152    29299    30393    29827    27594    24250 
   20441    16514    12560     8555     4407      144    -3756    -6563 
   -8087    -8818    -9111    -8970    -8505    -7889    -7082    -5931 
   -4456    -2944    -1534      112     2421     5388     8536    11321 
   13496    15092    16204    16892    17316    17693    18091    18464 
   18683    18558    18132    17633    17077    16387    15704    15133 
   14487    13615    12646    11649    10456     9082     7799     6781 
    6027     5280     4146     2399       49    -2513    -4860    -7040 
   -9267   -11629   -14103   -16502   -18495   -19788   -20560   -21284 
  -22062   -22705   -23043   -22942   -22346   -21297   -19838   -17993 
  -15876   -13589   -11066    -8204    -5026    -1630     1930     5549 
    8948    11906    14410    16416    17825    18669    19016    18783 
   17791    16024    13716    11156     8549     6039     3765     1915 
     629      -31      169     1644     4526     8534    13286    18441 
   23714    28858    33631    37969    42042    45924    49376    52021 
   53657    54280    53794    51986    49035    45471    41530    37271 
   32874    28304    23356    18014    12573     7757     4243     2048 
     848      409      675     1732     3536     5921     8782    12068 
   15741    19774    24340    29687    35647    41730    47642    53276 
   58378    62553    65546    67440    68440    68503    67378    64892 
   61251    56960    52297    47269    41908    36192    30109    23961 
   18324    13702    10218     7629     5789     4796     4501     4517 
    4691     5088     5746     6626     7728     8991    10144    10843 
   10806     9924     8286     5886     2594    -1544    -6225   -11058 
  -15674   -19777   -23287   -26320   -28953   -31016   -32044   -31536 
  -29343   -25808   -21654   -17624   -14051   -10701    -7034    -2765 
    1809     6045     9493    12136    14215    16000    17776    19797 
