Origin Time       2011/03/11 14:46:00
Lat.              38.103
Long.             142.860
Depth. (km)       24
Mag.              9.0
Station Code      AKT018
Station Lat.      39.1937
Station Long.     140.1899
Station Height(m) 114
Record Time       2011/03/11 14:47:04
Sampling Freq(Hz) 100Hz
Duration Time(s)  300
Dir.              U-D
Scale Factor      3920(gal)/6182761
Max. Acc. (gal)   26.462
Last Correction   2011/03/11 14:46:49
Memo.             
[...]
  -22469   -21991   -22814   -23751   -22853   -20135   -17162   -14987 
  -13721   -13314   -13994   -16258   -19575   -22383   -24331   -25941 
  -26994   -27190   -27036   -27248   -27569   -27156   -26272   -25905 
  -26170   -26781   -27741   -28784   -29483   -29605   -29264   -28872 
  -28237   -27008   -25709   -24399   -22306   -19636   -17760   -17488 
  -17886   -17544   -16464   -15185   -13508   -11568   -10516   -10948 
  -11925   -12231   -11516   -10381    -9774    -9935   -10669   -11920 
  -13310   -14472   -15358   -15859   -16185   -17281   -19782   -22815 
  -24687   -24767   -24474   -25570   -27574   -28438   -27525   -26293 
  -25838   -26116   -27238   -28759   -29801   -30523   -31317   -31810 
  -31406   -29933   -27180   -23151   -19361   -17451   -17460   -18404 
  -19096   -19350   -19935   -20664   -20769   -20580   -20810   -21156 
  -20632   -18563   -15438   -12817   -11567   -11009   -10129    -8873 
   -8268    -8771    -9283    -8784    -7444    -5831    -4152    -2523 
   -1652    -2247    -3811    -5169    -5790    -5851    -5443    -4942 
   -5110    -5394    -4584    -2913    -1430     -988    -1530    -1861 
   -1491    -1617    -3370    -6290    -9534   -13028   -16589   -19510 
  -21295   -22272   -22870   -22807   -22060   -21426   -21533   -21663 
  -20769   -19506   -18628   -17088   -14086   -10867    -9502   -10283 
  -10705    -8216    -3536      703     3382     4805     5065     3946 
    1690     -498    -1591    -1978    -2656    -4190    -6701    -9752 
  -12515   -14673   -16261   -16985   -17080   -17632   -19545   -22985 
  -27330   -31712   -35400   -37732   -38913   -39947   -41349   -43060 
  -44724   -45711   -45577   -44303   -42351   -40471   -39089   -37872 
  -36189   -34279   -32984   -32136   -30484   -27090   -21878   -15591 
   -9868    -6193    -5042    -6536   -10436   -15454   -19590   -21293 
  -20394   -18389   -17439   -18052   -19061   -19959   -21021   -22218 
  -23404   -24714   -26386   -28340   -30383   -32271   -32977   -31220 
  -27426   -23723   -21599   -20811   -20753   -21959   -24854   -27843 
  -29300   -29231   -27661   -25068   -23203   -23024   -23707   -23993 
  -23539   -22533   -20835   -18593   -16652   -15547   -14546   -12492 
   -9721    -7674    -7003    -7218    -7848    -9121   -10979   -12967 
  -15043   -16901   -17856   -17792   -17197   -16621   -16560   -17217 
  -17593   -16764   -15659   -15263   -15493   -16224   -17666   -20046 
  -22491   -23445   -22972   -22803   -23883   -25305   -26225   -26997 
  -27927   -28913   -29755   -29806   -28464   -26189   -23867   -21964 
  -20955   -20874   -21017   -20846   -20025   -18645   -17234   -15749 
  -14310   -13699   -14186   -15899   -18868   -21879   -23678   -24504 
  -24863   -24420   -23103   -21801   -21521   -22599   -24343   -25831 
  -27067   -28097   -28318   -27648   -26620   -25131   -22441   -18173 
  -12967    -8510    -5994    -5035    -4731    -4265    -3153    -1402 
     756     2337     2270      573    -2370    -6499   -11290   -15321 
  -18021   -20558   -23717   -26459   -27373   -26684   -25640   -24834 
  -24341   -24206   -24293   -24257   -23983   -23647   -23200   -22679 
  -22385   -22246   -21984   -21724   -21569   -21175   -20325   -18662 
  -15675   -12046    -9078    -7500    -7892   -10406   -14100   -17370 
  -19119   -19656   -19872   -20292   -21288   -22456   -22497   -21188 
  -20201   -21238   -23912   -26279   -27335   -27570   -27474   -27005 
  -26259   -25818   -26321   -27648   -29044   -30236   -31141   -31198 
  -30062   -27911   -25341   -23271   -22497   -23012   -23986   -25005 
  -25961   -26206   -25612   -25004   -24352   -22487   -19624   -17460 
  -16713   -16413   -15164   -13503   -13002   -13083   -12685   -12368 
  -12255   -11350    -9795    -9069    -9694   -11175   -13121   -14992 
  -16181   -16349   -15507   -13931   -11597    -8539    -5887    -4535 
   -3781    -3055    -2480    -2079    -2145    -2764    -3794    -5554 
   -8318   -11844   -15321   -17492   -17733   -16923   -16240   -15704 
  -14919   -14222   -14229   -14972   -15851   -15960   -14778   -12596 
   -9805    -6669    -3757    -1734     -911    -1215    -2589    -4695 
   -6454    -7160    -7572    -8904   -11101   -13247   -15001   -16500 
  -17756   -18648   -19152   -19368   -19086   -18063   -16963   -16840 
  -17578   -18008   -17563   -16958   -17184   -18399   -20442   -23477 
  -26857   -29101   -30023   -30892   -32207   -33201   -33275   -32548 
  -31576   -30504   -28925   -27230   -26194   -25617   -24906   -23811 
  -22187   -19938   -17619   -16392   -16597   -16984   -16511   -16345 
  -18311   -21603   -23241   -21657   -17709   -13234   -10136    -9358 
  -10411   -12594   -15675   -19093   -21513   -21984   -21374   -21434 
  -22285   -22503   -21819   -21079   -19865   -17085   -13034    -9364 
   -7352    -6536    -5710    -4758    -4456    -5138    -6246    -6898 
   -6752    -6461    -7243    -9626   -12627   -14902   -15950   -15949 
  -15566   -15224   -14572   -13517   -12698   -12732   -13317   -13240 
  -12141   -10737    -8926    -6365    -3913    -2661    -2743    -3390 
   -3936    -4295    -4346    -4214    -4531    -5567    -6631    -6558 
   -5082    -3323    -2421    -2491    -3633    -6536   -11077   -15767 
  -18867   -19750   -19515   -19800   -21213   -23346   -25744   -28066 
  -29760   -30870   -32144   -33624   -34710   -35422   -36180   -37287 
  -39254   -41961   -44237   -45557   -46268   -46274   -44917   -41922 
  -38123   -34678   -31879   -29362   -26961   -24968   -23763   -23462 
  -23775   -23901   -22766   -20048   -16330   -12232    -8572    -6423 
   -6468    -8552   -11702   -14749   -16808   -18212   -20306   -22943 
  -24887   -26493   -29009   -32265   -34759   -35405   -34387   -32549 
  -30271   -27711   -25581   -24368   -23793   -23508   -23502   -23757 
  -23740   -22616   -20321   -18163   -17308   -17359   -17386   -17322 
  -17998   -19634   -21044   -21256   -20369   -18623   -15962   -12592 
   -9195    -6403    -4636    -4076    -4588    -5703    -6407    -5549 
   -2625     1464     4555     5277     3985     1368    -2046    -5272 
   -7241    -7225    -4940    -1599      667     1441     2161     3735 
    5767     7926    10484    13231    15163    15935    16116    15511 
   13432    10502     8445     8209     9276    10482    10408     8295 
    5191     2407      -14    -1996    -2987    -3531    -5100    -8325 
  -12356   -15307   -15854   -14292   -11230    -7153    -3753    -3018 
   -4971    -8488   -12677   -16334   -18286   -18321   -17365   -17068 
  -18354   -20600   -22831   -24952   -27515   -30979   -35001   -38292 
  -39766   -39340   -37747   -35986   -34910   -35324   -37244   -39633 
  -41406   -41793   -40519   -38170   -36194   -35635   -35654   -34609 
  -31906   -28157   -24175   -20136   -15959   -11696    -7548    -3774 
    -232     2675     3158      339    -4075    -7687    -9555   -10612 
  -12018   -13621   -15554   -19181   -24903   -30987   -35475   -38152 
  -39874   -40978   -40826   -38628   -34813   -30775   -27389   -24762 
  -23176   -23223   -24662   -26276   -26981   -26751   -26270   -25573 
  -24243   -22725   -22046   -22372   -22974   -23035   -21615   -18080 
  -12838    -7347    -3562    -2260    -2098    -1642    -1348    -1768 
   -1949    -1287     -402     -283    -1696    -4340    -7061    -8798 
   -9090    -8374    -7634    -7470    -7710    -8060    -8619    -9436 
   -9776    -8613    -6334    -4648    -4924    -7101    -9028    -7998 
   -4120     -187     1779     1688      236    -2072    -5255    -9027 
  -12556   -15002   -15233   -12578    -8076    -3780    -1286    -1147 
   -2528    -3582    -3589    -3578    -4393    -5421    -4944    -2379 
     675     3025     4654     4803     2504    -1713    -6477   -11017 
  -15295   -19084   -21378   -21263   -18895   -15422   -12425   -11134 
  -11840   -13926   -16307   -17765   -17236   -14615   -11353    -9183 
   -8218    -7519    -6851    -6521    -6631    -7250    -8612   -10898 
  -13405   -14854   -15054   -14464   -12952   -10979    -9993   -10283 
  -10374    -9023    -6736    -4801    -3603    -2723    -2007    -1985 
   -3279    -5983    -9514   -12482   -13611   -13162   -12707   -13499 
  -15096   -16426   -17950   -20730   -24537   -28529   -32091   -34409 
  -34703   -33240   -31367   -30302   -30316   -30932   -31925   -33861 
  -36391   -37727   -37157   -35756   -34723   -33948   -31924   -27923 
  -23380   -19991   -17958   -16499   -15166   -14811   -16669   -20017 
  -21954   -19915   -14071    -6986    -1998    -2468    -9016   -17503 
  -23186   -25765   -28488   -33263   -38450   -41023   -39271   -34108 
  -28528   -25536   -26139   -28818   -31434   -33164   -33818   -32470 
  -28144   -21721   -15705   -12000   -11118   -12437   -14529   -16676 
  -18907   -20313   -19729   -17417   -14852   -12932   -10972    -9114 
   -9484   -12662   -16301   -18689   -20223   -20906   -20261   -19793 
  -22137   -27287   -32104   -34556   -35519   -35378   -33145   -30351 
  -30597   -33442   -34260   -30445   -23825   -18446   -16754   -17367 
  -17659   -16513   -13848   -10360    -7448    -6310    -7671   -10421 
  -11280    -8797    -4859    -1522      696     2439     4072     4665 
    3308      -70    -5137   -11000   -16770   -21790   -24790   -25383 
  -25421   -26616   -28238   -28104   -25661   -22711   -20319   -17406 
  -13096    -8406    -4566    -1215     1911     4038     5724     8494 
   11818    13461    11944     7370     1058    -5202    -9936   -13001 
  -16005   -20086   -23981   -26467   -28440   -30415   -31428   -31723 
  -32760   -34716   -36734   -38778   -41525   -44576   -46545   -47282 
  -47409   -45824   -40492   -31607   -21925   -13843    -7584    -2515 
    1543     5387    10488    16622    21721    24356    24573    22807 
   18993    12985     5734    -1548    -8652   -14960   -19492   -23164 
  -28057   -34942   -42802   -49773   -54020   -54243   -49966   -42316 
  -34370   -28889   -26482   -26161   -25780   -23560   -19735   -15506 
  -11513    -7909    -5159    -3706    -3089    -2377    -1515    -1474 
   -2697    -4679    -6772    -8635   -10720   -13814   -17995   -21986 
  -24255   -25293   -26414   -27461   -28378   -30473   -34452   -39435 
  -43752   -44930   -41054   -33838   -28332   -28343   -33251   -39316 
  -42676   -42237   -40083   -38011   -35906   -33421   -31050   -30210 
  -31605   -33795   -34553   -32369   -27380   -21759   -17055   -12489 
   -7829    -4939    -5366    -8359   -11714   -13808   -13835   -10489 
   -3118     5533    11661    14622    15347    13692     9734     5064 
    1422     -918    -2015    -1056     2300     7060    11675    14978 
   16346    15306    12253     8811     5607     1373    -4637   -11214 
  -16387   -19527   -21868   -24806   -28604   -32052   -33061   -30836 
  -27204   -24831   -24037   -22911   -20724   -19286   -21220   -27185 
  -34319   -38589   -38399   -34601   -28888   -23186   -18353   -14359 
  -11982   -11335   -10715    -8411    -4108      386     3094     5092 
    8196    11303    11869     8668     3086    -1562    -3738    -4650 
   -4816    -3841    -2920    -4099    -8433   -15934   -25281   -33806 
  -38951   -39218   -34861   -27943   -20861   -16364   -17052   -21952 
  -26960   -29082   -27169   -21685   -15632   -12388   -12668   -14722 
  -16481   -16836   -15331   -12122    -8391    -5660    -4582    -5380 
   -8470   -13401   -19171   -24935   -29756   -33793   -38113   -42587 
  -45198   -43537   -37943   -31977   -28759   -28637   -30455   -33363 
  -36615   -39054   -40266   -40665   -40114   -38965   -39240   -42035 
  -45728   -48505   -50853   -53272   -53903   -51579   -47701   -43378 
  -38009   -31429   -25781   -23889   -25876   -28064   -26414   -21435 
  -17258   -16255   -17070   -17450   -17303   -17274   -15740   -10880 
   -4664     -807     -492    -2756    -5152    -4684    -1653      598 
     577     1354     6670    13840    16942    16329    15452    12661 
    4885    -6524   -17551   -24772   -27407   -26186   -20549   -11631 
   -4418    -1791    -1465     -881       62      778      641     -411 
    -325     2588     6232     8385    10437    13438    15383    14006 
    8551     -235    -9897   -17594   -22512   -26280   -30746   -35166 
  -37386   -37967   -39368   -42499   -46311   -48831   -48912   -46857 
  -42981   -36580   -27290   -17871   -12242   -10266    -7921    -3092 
     910      329    -3116    -5126    -4909    -5284    -7928   -11423 
  -13910   -14958   -14437   -12222    -9839    -9107    -9811   -11729 
  -15942   -22781   -31475   -40746   -48268   -51743   -51069   -48841 
  -48411   -49887   -49606   -46225   -43265   -42972   -42925   -40242 
  -35065   -29409   -24062   -17820   -10648    -5050    -2402     -469 
    3652     9933    15769    18666    17918    14005     8374     3979 
    2544     1846    -1808    -9615   -18882   -25762   -29485   -31131 
  -30182   -26953   -25100   -27275   -31637   -34874   -35667   -34425 
  -31208   -25740   -19517   -14853   -12692   -12965   -14269   -14805 
  -15189   -16781   -18637   -18784   -16592   -13160    -9065    -3487 
    2161     4650     4187     3428     2609      536    -2249    -5053 
   -9234   -16058   -23862   -29527   -32177   -33181   -32912   -30584 
  -26287   -19609    -9893     -323     4372     4424     3566     3064 
    2492     3249     6455    10567    13121    13391    13065    13550 
   14090    14426    16634    21263    24756    23982    19330    12618 
    6008     1480     -825    -2565    -5174    -8572   -12262   -17069 
  -23957   -30376   -31410   -26400   -19625   -14153   -10416    -9282 
  -11407   -15688   -20603   -24359   -25277   -24157   -23437   -24537 
  -27303   -29410   -28181   -24880   -22960   -23001   -22854   -20631 
  -16920   -14127   -13497   -14747   -17456   -21123   -24647   -26781 
  -26704   -23177   -16225    -9712    -8056   -11736   -17705   -22237 
  -23324   -21843   -20731   -21667   -23405   -24761   -25450   -24248 
  -21781   -21507   -24135   -26589   -27278   -27929   -29966   -31378 
  -29855   -27417   -27393   -29554   -31664   -33131   -35741   -40184 
  -43711   -44419   -43429   -42039   -41094   -40733   -40866   -42441 
  -43797   -39997   -30058   -19039   -12064   -10365   -12101   -14492 
  -16094   -17789   -19664   -18834   -13738    -6777    -1903    -1940 
   -5252    -7815    -8450    -6719    -2163     2929     6213     7697 
    7785     6094     3197      653    -2108    -5988    -8824    -8824 
   -7787    -8241    -9974   -10884    -9865    -7521    -5112    -3424 
   -2754    -4297    -9091   -15422   -20573   -23766   -26417   -30248 
  -33860   -33472   -27967   -21056   -18382   -21544   -26327   -28420 
  -26819   -21433   -12518    -2141     6205     8773     4326    -4348 
  -13703   -21402   -25046   -22969   -17219   -12068    -8859    -7674 
  -10383   -16747   -23768   -29015   -30870   -29357   -26130   -22240 
  -19344   -18917   -18670   -17293   -17517   -19360   -19503   -16474 
  -10819    -4335       99     1094     -398    -2958    -5030    -5478 
   -4570    -3807    -5819   -11048   -15873   -18261   -20282   -23472 
  -26791   -28414   -27012   -23019   -18262   -13725    -9658    -6348 
   -4511    -5572    -9220   -13037   -16194   -19677   -23389   -25855 
  -26191   -25643   -26203   -27359   -26561   -23260   -20158   -19972 
  -22973   -27921   -32872   -35553   -35165   -32742   -29493   -26841 
  -26446   -28185   -29907   -28847   -24025   -18365   -14398   -10543 
   -5549     -525     3731     6420     5994     2759     -424    -1492 
    -368     2058     4499     6319     7348     8146     9651    10145 
    7170     2238     -665      105     1229    -2382   -11105   -20751 
  -28045   -32562   -35359   -37499   -39244   -40251   -40297   -40135 
  -40867   -42320   -43215   -42113   -38356   -32798   -26154   -18284 
  -11539    -9492   -10379   -10140    -9590   -10665   -11834   -10925 
   -8216    -6060    -5425    -4558    -2407     -187     1047     1220 
     212    -1218    -1549     -771      -49     -538    -2928    -5810 
   -6718    -6322    -7503   -10304   -13428   -17195   -20225   -20123 
  -18471   -18367   -19737   -20601   -20128   -20090   -22025   -23207 
  -20503   -14911    -8860    -3972    -1497    -2258    -5848   -10786 
  -16528   -22573   -26400   -26334   -23920   -21797   -21791   -23597 
  -24852   -24885   -25688   -27612   -27934   -24534   -17982   -10249 
   -3588      970     4477     8036    11774    14803    15851    15856 
   16213    15167    10572     3386    -3538    -8271   -11213   -13440 
  -14296   -13009   -11728   -13515   -18379   -23761   -27620   -29799 
  -30809   -30684   -29761   -28974   -29244   -31207   -34714   -38793 
  -42179   -44389   -47384   -52463   -55942   -54242   -49225   -44099 
  -39707   -35875   -32687   -29660   -25273   -19672   -16192   -16520 
  -17351   -15594   -12077    -8317    -5192    -4247    -6024    -8245 
   -8342    -6617    -5407    -6728   -11012   -16774   -21897   -25480 
  -27517   -27422   -24187   -17878   -11405    -8619    -9409   -11061 
  -12916   -15066   -16106   -15093   -13003   -11566   -11633   -11888 
  -10322    -7795    -7039    -8666   -10678   -11314   -11726   -14402 
  -19357   -24762   -29551   -32998   -34213   -33498   -32905   -34351 
  -37397   -40120   -40784   -38580   -34533   -30641   -28903   -30499 
  -33412   -34569   -34523   -35274   -35508   -33277   -30275   -28487 
  -27753   -27514   -26700   -24544   -20577   -14706    -9824    -8775 
  -10451   -13092   -16215   -18179   -16871   -13285   -10811   -10767 
  -11025    -9428    -7342    -7689   -10363   -12811   -13791   -13881 
  -13601   -13233   -13675   -15580   -18187   -20000   -20234   -19607 
  -19138   -18731   -18423   -18759   -18956   -17221   -13351    -9828 
   -9363   -12052   -16287   -20513   -22646   -21064   -17513   -15349 
  -15352   -16057   -16487   -17215   -18258   -17486   -13552    -7771 
   -2447      714     1474      702     -218     -294    -1496    -6817 
  -14699   -20712   -22702   -21801   -21796   -24836   -27821   -27304 
  -23251   -17252   -12196   -10626   -11411   -11743   -10777    -9183 
   -8523   -10108   -12622   -13809   -13711   -14383   -17193   -20777 
  -22893   -23724   -24980   -26857   -28236   -28535   -27420   -24634 
  -21553   -20355   -21325   -22821   -23207   -22416   -21192   -18915 
  -15354   -13456   -15881   -20382   -21782   -18096   -12957   -10957 
  -12114   -12806   -10904    -7770    -5904    -5977    -6565    -7245 
   -9133   -11740   -13216   -12851   -11861   -11968   -13073   -14476 
  -16190   -17357   -17000   -15109   -11752    -7284    -2942     -952 
   -3321    -9492   -16324   -20707   -22451   -23994   -26741   -29847 
  -32163   -33412   -34190   -35367   -37467   -40225   -42422   -42511 
  -40192   -37334   -35342   -33256   -30630   -28906   -28762   -29282 
  -30322   -32751   -36362   -40198   -43821   -46777   -48361   -47363 
  -42791   -36542   -31397   -27182   -23107   -19389   -15961   -13155 
  -11699   -11754   -12423   -12561   -12432   -12496   -12820   -14162 
  -15762   -15223   -12637   -10626   -10883   -13031   -14923   -14250 
  -11304    -8002    -4617     -758     3068     6627     8460     5469 
