Origin Time       2011/03/11 14:46:00
Lat.              38.103
Long.             142.860
Depth. (km)       24
Mag.              9.0
Station Code      AKT017
Station Lat.      39.2978
Station Long.     140.5621
Station Height(m) 81
Record Time       2011/03/11 14:47:04
Sampling Freq(Hz) 100Hz
Duration Time(s)  300
Dir.              E-W
Scale Factor      3920(gal)/6182761
Max. Acc. (gal)   49.208
Last Correction   2011/03/11 14:46:49
Memo.             
[...]
   10866     3944    -2041    -4500    -4331    -2810      383     5042 
    8462     8007     4012     -773    -3331    -2771     -571     1935 
    4886     8047     9004     5641    -1115    -8853   -14654   -16029 
  -13264    -7838    -1886      877     -403    -2538    -2655      385 
    5555    10324    13220    13249     8963      416    -9814   -17860 
  -20766   -18409   -14023   -12690   -17378   -26537   -36995   -47055 
  -55755   -61454   -62653   -59822   -54801   -49076   -44066   -40664 
  -38637   -38440   -40580   -43328   -43426   -37447   -25337   -13913 
  -11057   -17512   -27641   -34592   -34596   -28772   -20047   -10744 
   -3431     1380     6147    11086    13505    12870    11197    10294 
   11230    13627    14428     9953      448    -8500   -10861    -7018 
   -3187    -3210    -5126    -6061    -5511    -4471    -4057    -4391 
   -5523    -7574    -8927    -8334    -6216    -2308     2650     5917 
    6272     4471     2060      833     1343     3976     9575    17214 
   24662    29811    31284    29465    25585    21170    17905    15371 
   11983     8223     5100     1790    -2584    -6921    -8531    -5510 
    -448      472    -5041   -12739   -18356   -21300   -21438   -18181 
  -12833    -7921    -5483    -6533    -9497   -12363   -16751   -23422 
  -28411   -28757   -24874   -19142   -16182   -18198   -22660   -27261 
  -30360   -30066   -27480   -25546   -25723   -28490   -34007   -40973 
  -45128   -42353   -34757   -28691   -28000   -32165   -36998   -37927 
  -35195   -32720   -32596   -33092   -30117   -21365   -10092    -2577 
   -1434    -2606     -278     4292     3987    -2503    -8849    -9982 
   -6306    -2433    -2607    -7061   -14207   -21723   -26553   -27965 
  -27262   -25267   -22271   -18414   -14408   -11215    -9474    -9786 
  -11417   -12898   -13551   -12741   -10968    -9602    -8546    -8211 
   -9575   -10948   -10274    -8029    -5467    -3465    -2686    -3440 
   -5795    -8820   -10112    -8203    -4153      721     5464     8085 
    7132     3229    -1188    -3210    -3036    -3758    -6494    -9472 
  -10050    -6428     -338     3814     4256     3739     5226     8362 
   10982    10813     6635      605    -2988    -2007      782     -384 
   -6310   -10026    -5842     4696    16199    23248    23069    16486 
    6273    -3483    -8986    -9387    -6520    -4184    -5704    -9571 
  -11587    -9942    -5699    -1594      587     1212     -464    -5624 
  -12208   -16266   -14522    -6988     1281     5317     4501      821 
   -2135    -1986     -387     -197    -3110    -7956   -10833   -10062 
   -6678    -2295      267     -148    -2077    -5374    -9989   -14235 
  -17439   -18958   -17410   -13978   -10988    -9057    -8824   -10781 
  -14487   -19527   -23240   -21690   -15213    -7927    -4649    -8194 
  -14754   -17163   -13393    -7243    -4074    -5426    -6931    -4980 
   -1140     1288       63    -4503    -9313   -12360   -15020   -18417 
  -20169   -17923   -14025   -12862   -15619   -19230   -19491   -15777 
  -10788    -5266     2606    12437    20451    23211    19983    12331 
    3154    -4927   -10303   -11363    -8059    -4135    -3213    -4880 
   -6768    -6249    -2643      290     -292    -1742     -448     4064 
    8328     7642     3431     2897     9428    19334    26524    27547 
   24162    20725    19653    21033    23806    26002    26122    23584 
   17671     9263     1761    -2995    -6209    -8690    -9457    -7544 
   -4186    -2323    -3162    -4716    -3986      452     7357    13541 
   15528    11292     2022    -7551   -12059   -10326    -6695    -6034 
   -9149   -13212   -14362   -11417    -6696    -2265      271    -1355 
   -6022    -8523    -5236     2572     9794    12139    10320     6445 
     673    -5565    -9399    -8380     -790    10511    18268    19033 
   15075     9084     2944    -1233    -1638     2189     7498     9297 
    5081    -2941   -10216   -13753   -13410   -10076    -5409    -2149 
   -1851    -4346    -9226   -14461   -16728   -15667   -12806    -8168 
   -2865      495     1319      -56    -3094    -5878    -8325   -11784 
  -14519   -14493   -13218   -13493   -16001   -18161   -17452   -15060 
  -14000   -16636   -23689   -32866   -40526   -44316   -43668   -40306 
  -37064   -35003   -32670   -28872   -25485   -24601   -24524   -22272 
  -17912   -14625   -15415   -19925   -24545   -25246   -20532   -13250 
   -8308    -7262    -8102    -9748   -12687   -16282   -17857   -15210 
  -10641    -9758   -14539   -20721   -22841   -18773   -10483    -2977 
     -88    -1017    -2327    -1492      643      710    -2224    -4909 
   -3856      896     5308     4878     -299    -5627    -6444     -883 
    8734    17325    21431    20102    14157     6753      923    -2360 
   -2676     -494     1889     2096     -572    -4921    -8723   -10025 
   -8173    -3984     1407     6645     9248     7848     4492     1619 
   -1457    -6265   -11562   -14753   -15078   -13987   -13990   -16106 
  -18428   -19494   -19432   -16985   -10633     -954     8767    13171 
   10689     5857     3114     4248     8994    13961    15425    12514 
    6063    -2276   -10418   -16673   -19386   -17821   -13935   -10959 
  -10450   -12025   -14492   -15822   -13836    -7702     1229     8471 
    8368      483    -8464   -11060    -5476     3182     7280     4581 
    -606    -3587    -3238    -2094    -3868    -8709   -12221   -10532 
   -4038     3085     5602     1189    -8233   -18141   -23508   -22040 
  -16486   -12738   -14447   -19403   -22224   -20211   -15442   -11494 
  -10087   -11146   -14458   -19563   -23532   -21789   -13512    -4086 
    -478    -5311   -15125   -22737   -22540   -14606    -2839     8606 
   15816    15630     7226    -6405   -17950   -20070   -11783     1124 
   11317    14598    10242     -148   -12105   -19792   -19901   -14723 
  -11787   -17266   -29286   -39956   -43440   -40617   -35388   -29767 
  -24959   -22075   -20805   -20852   -21476   -20446   -17686   -15546 
  -14228   -11842    -7462    -2007     1719     1056    -3000    -7124 
  -10274   -14458   -21220   -28757   -33541   -33728   -30146   -25282 
  -20956   -17894   -17484   -20282   -24502   -28564   -32417   -36427 
  -40314   -42994   -44181   -44812   -45707   -46643   -45901   -42903 
  -39981   -38074   -35381   -31126   -25895   -21013   -18686   -19204 
  -20856   -23248   -26298   -28471   -27771   -21946   -11598    -3059 
   -2075    -7663   -14918   -18906   -17062   -11627    -7271    -7055 
  -12578   -23288   -34916   -42625   -44081   -39079   -30154   -22376 
  -19828   -23156   -29372   -32602   -28427   -18525    -8069     -865 
    1321    -1426    -7867   -16742   -25458   -30185   -29095   -23605 
  -17188   -12980   -11566   -12519   -15757   -19879   -22421   -21720 
  -17831   -12359    -6756    -2297    -1270    -4145    -7639    -8326 
   -4660     3039    11592    17872    20840    19068    12924     6517 
    3297     4879    11696    20388    24616    20406    10001     -178 
   -5746    -6829    -6152    -7477   -12811   -19621   -23850   -24618 
  -23863   -23679   -24902   -26955   -28918   -30417   -31088   -30031 
  -26902   -23001   -20026   -18977   -20462   -23985   -27624   -29162 
  -27336   -23265   -20115   -19951   -21769   -23353   -24225   -25112 
  -24268   -18410    -8733    -1142      260    -3049    -6173    -6118 
   -5142    -6938   -10279   -10737    -6539      909     8054    11101 
   10398     9181     9208    11288    15131    18215    18554    16406 
   13579    12727    14707    17785    20145    19603    13981     5005 
   -2713    -6837    -8412    -9280    -9791    -9366    -8730    -9392 
  -11123   -11683    -8663    -1604     6440    10656     8967     3464 
   -2112    -5155    -5661    -5797    -7746   -11290   -14447   -15968 
  -14683    -9766    -3855    -1447    -4124    -9671   -14027   -13453 
   -7233      601     4088      479    -8099   -16036   -17725   -12877 
   -6243    -1084     2605     5243     6980     6902     3473    -1631 
   -4218    -2922      -97     1265     -126    -3112    -5285    -5079 
   -2902     -142     1710      880    -2407    -5173    -5686    -4432 
   -2041      188     1271     2582     5273     8613    12168    15340 
   16095    12213     2537   -11095   -23346   -29839   -30580   -28547 
  -27594   -29644   -31817   -29692   -23220   -15755    -9715    -6140 
   -5381    -7048   -10210   -12466   -11065    -6444     -940     4431 
    8589     9744     7163     1881    -2208     -232     7649    16164 
   21438    23114    22020    19081    14541     8239     1458    -2975 
   -2981      171     1736    -2964   -13671   -24667   -30183   -28610 
  -21595   -11254     1029    13122    20745    20319    13685     7061 
    6096    12972    24564    34557    39774    41185    40266    37857 
   34340    30114    26544    25242    26287    27230    24644    17362 
    7155    -2935   -11023   -18245   -25693   -31402   -34206   -36647 
  -41850   -49398   -54533   -53556   -49435   -48058   -50841   -54757 
  -57647   -59373   -59046   -55183   -48213   -40715   -34974   -31389 
  -29233   -27456   -24895   -20861   -15809   -11117    -8060    -7608 
   -9952   -13275   -15169   -15012   -13516   -11383    -8567    -4439 
    1047     6955    12068    16279    20922    25963    29222    29364 
   25955    18532     9412     3943     5244    11273    17132    18329 
   13860     6065    -3553   -13948   -21178   -21159   -13893    -3344 
    5006     7311     3112    -5093   -13071   -16919   -15476   -11556 
   -9492   -10286   -12485   -16769   -23995   -31838   -37363   -39079 
  -36740   -31524   -25083   -19811   -18903   -23579   -32437   -42155 
  -47738   -45878   -38151   -29807   -25734   -27220   -32398   -38855 
  -45212   -49779   -49254   -41825   -29589   -16187    -5370    -1200 
   -5455   -15138   -24120   -26740   -20983    -9966      579     7495 
   11641    14335    15543    14125     7804    -3291   -14631   -21911 
  -23629   -20377   -15097   -10937    -8749    -8044    -7764    -6551 
   -4147     -854     3234     6478     6410     2928    -1623    -4893 
   -6470    -6770    -4662      825     8506    16234    21570    24120 
   27644    35398    45860    54503    57031    52483    43672    34167 
   26245    19928    13619     8007     6809    11309    17636    20776 
   18542    12142     5509     2996     5546    10262    13340    11876 
    5393    -2866    -7709    -5883     2120    13611    24770    31428 
   32052    29463    28529    31735    37325    41977    44028    43982 
   42690    41196    41855    44914    46362    42531    33410    21703 
    9993    -1630   -13766   -25241   -33463   -36067   -33344   -28648 
  -25991   -27509   -31835   -35681   -37040   -35601   -33016   -32656 
  -35948   -41114   -45158   -45391   -42239   -39399   -39551   -42612 
  -46426   -46900   -40311   -27094   -12276    -2013      -52    -5769 
  -14295   -20398   -22348   -21175   -17840   -11544    -1868     7161 
    8957      282   -15785   -31025   -37684   -33955   -24078   -14115 
   -7357    -4537    -5995   -10776   -17046   -23837   -30963   -38474 
  -44826   -46795   -43102   -35893   -29413   -27541   -30337   -34559 
  -37576   -38491   -36883   -31728   -22085    -9326     3080    11842 
   15557    15979    16645    19713    24568    27957    26889    21929 
   15014     7291     1237      232     5499    14709    21825    20011 
    7118   -12729   -32584   -46504   -51786   -49903   -45542   -43974 
  -47938   -55149   -60006   -59416   -54571   -47787   -40383   -32649 
  -25737   -22141   -22408   -24889   -28787   -33055   -34661   -31146 
  -22623   -11184      992    13840    28116    42314    52956    56707 
   52724    44417    36721    31195    25066    14776     1097    -9616 
  -11297    -4421     4918     9962     7300    -1200   -10155   -14388 
  -11646    -3548     6298    14930    21292    26369    30380    30445 
   25337    18825    13854     9505     4533    -1687    -9329   -17268 
  -24643   -31356   -36486   -39826   -42746   -45820   -49379   -53997 
  -58371   -60461   -58944   -53242   -45650   -39937   -36022   -30189 
  -20294    -8262     1722     7486    11042    14601    17155    16361 
   10572      940    -8595   -15635   -19039   -17345   -12015    -6689 
   -4859    -9403   -18709   -26491   -26935   -18178    -4967     4053 
    4902      522    -3425    -2432     3457    10469    15849    18724 
   18465    15628    12790    13059    17770    24781    29917    30733 
   27307    21183    14916    10483     9096    12192    19707    28270 
   32841    30565    22577    12322     3799     -595    -1565     -777 
    -295    -2541    -7216   -11844   -13353    -8277     2422    12012 
   15077    12068     7465     5158     4544     2458    -2110    -8192 
  -14874   -20392   -22003   -18405   -11307    -5143    -4500    -9462 
  -15164   -16915   -13153    -5324     2752     7444     7637     4475 
      13    -3363    -2417     5038    17092    29586    38818    41981 
   39919    37602    39226    45205    51653    52377    45138    33695 
   23751    20163    23687    29181    31225    28719    22680    14966 
    8980     7089     8316    10643    12608    12285     8793     2690 
   -7074   -21362   -37633   -52393   -61891   -61735   -51399   -35525 
  -20146   -10940   -12102   -23361   -38269   -47305   -44000   -29012 
  -10398     1720     2488    -7390   -23324   -36517   -41182   -39935 
  -37552   -38089   -45270   -58061   -71180   -80448   -84352   -83000 
  -77045   -67217   -54359   -39442   -24185   -10705      345     9410 
   15967    18613    17227    15081    17231    25413    36036    43235 
   42729    34341    22328    12818    10368    15169    23041    29638 
   33112    33079    30230    25888    21218    17563    15501    14031 
   12308    10304     7449     2992    -2679    -7896   -10861   -11941 
  -12560   -11497    -6554     1437     8588    10306     4353    -7517 
  -21252   -32983   -39671   -39326   -32364   -22631   -16321   -17920 
  -26384   -37131   -45885   -49568   -47799   -43286   -38360   -33156 
  -27221   -20372   -11783     -305    12942    23669    27753    24571 
   16961     9174     3801       81    -3749    -7597    -9779    -8921 
   -6054    -5296   -10952   -22819   -35502   -43239   -43487   -36434 
  -24879   -13527    -5913    -3532    -6359   -11192   -13368   -12304 
  -11192   -11816   -13380   -15055   -17003   -19457   -22461   -25849 
  -28812   -30502   -30303   -27731   -23479   -18635   -13280    -8237 
   -5872    -7600   -11953   -14887   -12652    -6052    -1413    -6320 
  -23281   -46155   -63578   -67245   -57292   -41936   -32242   -33877 
  -44057   -56760   -67173   -72314   -71354   -64794   -53961   -41777 
  -31418   -25076   -24173   -27974   -33699   -39286   -43672   -45798 
  -45299   -42854   -40056   -39143   -40762   -41521   -35970   -22205 
   -4055    12251    21927    23596    19091    10994     1686    -5419 
   -7291    -4169      477     1587    -4582   -16705   -29161   -36461 
  -35965   -28888   -18749    -7667     3056    10273    11849     9290 
    5249     1906      942     3042     7566    12065    13658    11433 
    6513     1214    -2221    -3546    -4638    -7745   -12881   -16872 
  -17335   -15784   -14834   -15779   -18285   -19341   -15151    -5810 
    3941     9058     8515     5751     4968     6945     9610    12119 
   16622    25523    37173    46612    50523    48772    43319    37563 
   34543    35121    37374    38001    35602    30908    24172    15700 
    8110     4550     4670     4998     2341    -5062   -16359   -27390 
  -33803   -33399   -27066   -19729   -16295   -17348   -21408   -26298 
  -28267   -25384   -19773   -14179   -10116    -8897   -11201   -17635 
  -29274   -44258   -57334   -64530   -64665   -57937   -45907   -31478 
  -18088    -8489    -4057    -5118   -10431   -17258   -23299   -27386 
  -28813   -26824   -20660   -11444    -3407     -709    -3820    -9797 
  -14119   -13623    -9762    -6247    -3479     1792    11979    25087 
   35228    36700    28387    14611     2218    -3100       20     7758 
   13997    14376     9070     2069    -3009    -5593    -7653   -11748 
  -18304   -25311   -30325   -31321   -27833   -21738   -15717   -11580 
   -9170    -7257    -6056    -5758    -4616    -2484    -1323     -884 
    1061     6077    12964    16176    10869    -1090   -13909   -22949 
  -26402   -25090   -20722   -15182   -11540   -12577   -17907   -24681 
  -30228   -32880   -32309   -29859   -27699   -27427   -28138   -27202 
  -24251   -20799   -17170   -13396   -10069    -7076    -3699      515 
    5212     8741     8814     4623    -1314    -4572    -2816     2658 
    8182    10132     8425     6484     7068    10592    15683    19600 
   20061    16598    11358     8682     9755     9849     3612   -10012 
  -26285   -36754   -36314   -27241   -15847    -7957    -5902    -7968 
  -11517   -15453   -19423   -22988   -25833   -27980   -30610   -35749 
  -43665   -52512   -60333   -64816   -63407   -56064   -46492   -40273 
  -40719   -45433   -48592   -46316   -38611   -28032   -17334    -7684 
     434     5890     8428    10177    14063    21231    29923    37079 
   41103    41479    38081    33124    29847    29522    32261    37048 
   40592    39762    34132    25644    17297    11077     7221     5744 
    6705     8838     9572     7404     4133     3663     8198    16085 
   22963    24454    18683     7692    -3230    -9551   -11279   -11267 
  -12072   -15212   -20150   -24928   -28511   -30420   -30630   -30616 
  -31688   -33933   -36654   -38407   -38800   -39037   -39392   -38856 
  -37018   -34500   -32098   -29559   -26237   -23569   -23697   -26164 
  -28850   -29839   -28595   -26806   -25791   -24645   -22435   -19006 
  -14243    -8705    -3806    -1091    -1562    -4483    -6771    -5186 
     451     7443    13463    17646    19081    17017    12585     8908 
    8134     8638     7345     3270    -2340    -7402   -11238   -14448 
  -16217   -15132   -11964   -10008   -12529   -18990   -25550   -29672 
  -31425   -31181   -29052   -25492   -20558   -13972    -6476      -86 
    2957     1897    -1554    -4212    -3490      631     5647     9195 
   10957    11646    10996     7987     3065    -1940    -6128   -10505 
  -16473   -23120   -27394   -27466   -24448   -20878   -18514   -18677 
  -22955   -30101   -35069   -34715   -31062   -27725   -26591   -27500 
  -29225   -30437   -29337   -24804   -18515   -12813    -7984    -3524 
     284     2776     4218     6419    10859    16609    21284    23183 
   21792    17243    10335     2803    -3363    -7270    -9471   -11077 
  -13367   -17378   -22314   -26273   -28557   -28647   -26173   -22536 
  -18838   -15603   -14030   -13900   -14514   -15986   -16614   -14477 
  -10592    -6681    -3025      -32      948     -534    -3475    -6465 
   -7350    -4012     2865     9893    14001    14394    12767    12378 
   15183    19739    23586    25237    24171    22396    22555    24261 
   26248    28325    29550    27923    22403    14887     9165     6947 
    6650     6373     6182     7370    10705    14875    15989    10836 
     798    -9817   -16930   -17296   -11087    -3386      502    -1033 
   -6356   -12022   -15662   -17500   -18119   -18045   -18354   -18762 
