Origin Time       2011/03/11 14:46:00
Lat.              38.103
Long.             142.860
Depth. (km)       24
Mag.              9.0
Station Code      AKT023
Station Lat.      39.1464
Station Long.     140.7161
Station Height(m) 277
Record Time       2011/03/11 14:46:59
Sampling Freq(Hz) 100Hz
Duration Time(s)  300
Dir.              E-W
Scale Factor      3920(gal)/6182761
Max. Acc. (gal)   82.164
Last Correction   2011/03/11 14:46:44
Memo.             
[...]
    2078    -1263   -16405   -27479   -26661   -23533   -24498   -24347 
  -19782   -16866   -20956   -24529   -15834      589     9086     4969 
   -5127   -14395   -19577   -23315   -28907   -33056   -32943   -30791 
  -28048   -26425   -28227   -28968   -22180   -13107   -11599   -13566 
   -8762      571     7496    13523    22381    32491    38417    35853 
   26650    17784    14532    14506     9764    -1112    -8727    -7316 
   -4713   -10596   -20408   -20272    -8776     -280    -2236    -5816 
   -2467     4741     8795     9837    13957    21374    23029    14195 
    3592     1096     3984     3660       85      782     7259    10954 
    4810    -6754   -13117   -10561    -4755     -667     1994     3137 
     455    -6392   -14959   -22327   -26292   -26867   -26830   -28826 
  -32721   -35886   -34963   -29081   -21267   -13352    -3784     5642 
   10292    11588    14384    18022    18643    15867    11821     6700 
    -543    -8202   -13760   -18210   -21817   -21134   -16860   -14574 
  -13745    -8739    -1322     -339    -7643   -13145   -10131    -5504 
   -4730    -3106      376      377    -4177   -10905   -16714   -17142 
  -13513   -13562   -18512   -21352   -19162   -16097   -16813   -22274 
  -27466   -26665   -22857   -21661   -20717   -15262    -7167    -4217 
  -11147   -22001   -27546   -26490   -23288   -20757   -16066    -4822 
    9430    18869    21642    18564    10925     6196     9945    15269 
   14405    10297     8305     8067     6233     2370      917     4892 
   11664    16725    15056     4608    -5464    -3821     3840     3623 
   -2436    -2121     5377    11268    12027    11175    10454     6737 
   -1714   -12522   -22876   -30881   -35186   -35211   -31143   -25851 
  -23905   -23534   -16524    -1009    14836    22274    18883    10126 
    4679     5058     7119     7801     5972     -324    -9135   -14077 
  -14161   -13503   -11972    -8537    -7027    -9860   -14700   -18343 
  -17838   -12074    -4209      869      589    -2705    -2776     3036 
    9575     9275      564    -8830   -12846   -16566   -23903   -31751 
  -40320   -49382   -53563   -51764   -45850   -34522   -22071   -18893 
  -23676   -24126   -18802   -15684   -13876    -7965    -1386    -2267 
  -11781   -22238   -28249   -32858   -35259   -28000   -14437    -6319 
   -3313     2564    11393    18098    20708    23245    30406    38665 
   41483    38226    29888    15905    -1393   -14400   -13846     -512 
   10857    12981    17725    30544    38812    37217    34753    34792 
   32798    28073    22639    15422     6046    -1911    -7616   -16438 
  -28893   -33392   -22705    -8838    -6308   -11519   -12383    -9387 
  -13400   -23755   -25928   -14052     1574     7087    -1976   -14351 
  -17483   -16811   -23312   -33547   -37753   -34058   -27867   -24992 
  -27150   -31661   -32498   -25276   -13971    -6243    -3939    -3120 
    1034     8402    11501     6221     -116     -152     4548     9236 
    9660     3026    -6587   -10108    -6181    -2588    -3371    -5767 
   -7314    -8063    -8750    -8741    -6564    -4177    -6295   -14054 
  -24371   -33084   -34312   -24094    -9334    -2240    -3261    -2824 
    1979     5879     7513    12319    22566    31622    32481    26806 
   20159    14389     9866     7246     4701      738    -3312    -6310 
   -7067    -4436     -343     2968     5362     6442     8052    13566 
   18615    14912     4770    -1338     1575     9093    11480     2230 
  -13499   -24257   -25457   -22337   -22022   -23130   -17236    -4764 
    1620    -5491   -16005   -13267     3561    19082    24384    23101 
   19601    16538    14999    11449     3649    -4690   -11974   -22806 
  -37748   -45011   -33969   -16735   -15587   -28227   -32646   -23090 
  -14137   -12891    -9268     3196    14029    13244     5442    -2542 
  -10064   -16494   -18819   -15225   -10209   -10500   -13712   -14734 
  -18700   -30559   -42122   -43194   -35231   -25826   -17133    -5856 
    7621    17740    22512    23667    20929    16356    14596    14566 
   12606    11132    15004    22996    27975    23926    13459     8039 
   13471    20779    22363    23473    29698    38304    41817    34210 
   19942    11124    10085     7604      524    -4305    -5541   -10829 
  -21193   -28698   -31915   -36609   -43691   -49722   -52294   -50425 
  -46760   -45596   -46337   -45000   -39437   -30445   -21583   -16261 
  -13077    -7863     -875     3428     4783     9363    19821    27890 
   25491    18919    19265    23997    22634    15916    13686    16784 
   18037    15624    10833     4375      146      210      815    -2198 
   -8735   -13131   -11710   -10684   -15594   -19932   -16276   -10826 
  -11186    -8342     5565    17896    18248    14445    13060    11391 
    9190     9800    12041    11130     8079     6549     2452    -6248 
  -11189   -10171   -12391   -20455   -26202   -24156   -17220   -11239 
   -7323     -263    10888    16696    11891     6040     8776    15861 
   16940     6668   -10476   -20484   -15598    -7629   -11531   -24619 
  -32825   -31514   -32615   -44575   -54596   -49161   -38916   -41188 
  -51020   -48951   -29963    -9999    -4415   -10854   -17720   -19780 
  -17894   -13633   -11251   -15520   -24159   -27611   -19540    -6026 
    3147     7582    11363    15144    17357    14551     6036      774 
    6095    14282    15385    12964    14896    19547    20799    17637 
   11072     1102    -9227   -15353   -16191   -13690   -10465    -8243 
   -6568    -2434     6108    14089    14245     7500      297    -4246 
   -8626   -17386   -28959   -36922   -42032   -49455   -57128   -60140 
  -58277   -52623   -43743   -33910   -26132   -21082   -14812    -2764 
   11478    18897    17075    10171     2165    -2319      447     8397 
   15802    17333    10933     2345     1491     8672    12331     4862 
   -7529   -14553   -15247   -16420   -20020   -20027   -14390    -8782 
   -6511    -6911   -10435   -16441   -20251   -16972    -8823    -5972 
  -13383   -22587   -27678   -34740   -43459   -42917   -32813   -24130 
  -19709   -12956    -1283    10066    17218    23727    31499    35267 
   35008    39499    50358    57582    53519    40825    27068    15937 
    4263   -11909   -30621   -46602   -56154   -56037   -46485   -36619 
  -34204   -33827   -27667   -18591   -12006    -7175    -2048     5005 
   13218    16342    15259    19160    22811    12403    -5392   -12436 
   -8551    -8553   -19372   -34124   -45329   -51641   -51903   -45866 
  -37604   -32930   -36682   -45446   -48247   -42767   -36730   -34304 
  -33750   -33230   -34779   -40101   -43509   -39195   -29935   -21532 
  -16880   -14367   -10747    -9156   -12979   -13875    -4435     7998 
   14072    12632     5921    -1357    -5251    -9425   -19287   -31963 
  -38769   -35724   -28523   -25540   -28028   -30615   -29582   -26579 
  -24472   -22953   -19511   -13072    -6002    -2220    -2671    -5422 
   -9699   -13870   -13743    -9554    -6987    -7607    -6401     -908 
    2937     -676    -7869   -12451   -14962   -16970   -15615    -7437 
    5830    16239    17846    14209    12239    12241    11125    11474 
   16805    22409    21733    15532     9519     7823     8135     6303 
    4650     3944    -2727   -15328   -23693   -25065   -28268   -39576 
  -53315   -57302   -46351   -28213   -14398    -7385      719    15092 
   28673    33107    29708    23615    18401    15818    15456    17266 
   21552    25915    26864    24279    21703    21395    21273    19562 
   17690    14563     7901     1242    -2121    -5272   -11567   -20809 
  -30860   -39382   -45925   -50391   -49809   -41549   -28311   -16196 
   -8859    -4738     -858     1792     1937     4200    12391    21645 
   24450    18752     9234     3876     6093    10584    10867     7761 
    6022     8765    17451    28487    33411    30311    24812    17414 
    4563   -11454   -25734   -36296   -41891   -41913   -40123   -43919 
  -55535   -67142   -68889   -57294   -37550   -21098   -14781   -15002 
  -17757   -24232   -33194   -40805   -47459   -52974   -52337   -45405 
  -38750   -33740   -26721   -20440   -20492   -24188   -25357   -21908 
  -12442     3664    22085    36286    42586    41380    35115    25021 
   11334    -1357    -5253    -1519     -459    -4945    -8027    -4071 
    7239    17571    15230     2270    -8993   -14436   -18814   -25997 
  -32460   -27066    -5257    19895    34387    41560    48172    48489 
   37589    21099     7557     4235     8382     5506    -7600   -15423 
   -7203    10043    23344    27173    23607    17750    15144    14506 
    6473   -10516   -25662   -32756   -34804   -34263   -31103   -25308 
  -17836   -11874   -11821   -20285   -35221   -48228   -50033   -40408 
  -26441   -13981    -7742    -8994    -9990    -4684      -84    -4602 
  -15866   -26960   -33253   -33240   -30852   -32373   -38811   -46164 
  -50786   -52759   -54842   -55138   -47267   -32059   -18103   -10871 
   -9294    -8278    -3274     3078     3208    -4862   -14702   -18556 
  -15789   -13803   -17729   -23605   -24251   -18188   -12640   -13821 
  -16382   -11409     1165    13536    19112    18974    17219    14582 
   10140     2317    -6829    -8525    -1913      604    -7796   -21898 
  -34057   -38678   -37483   -38601   -41728   -37395   -23927   -10112 
   -3734    -5061    -7848    -8326   -10156   -15710   -22455   -26923 
  -24740   -16509   -11103   -12225   -13724   -12227    -9407    -4300 
    4406    12254    14670    15174    18083    19089    13292     4034 
   -3972   -11057   -16071   -12997     -514    13744    22761    26370 
   27268    26833    24362    18533    10903     7080    11612    20514 
   23395    18143    15422    19989    21397    13027     2795    -1014 
    1183     5300     8957    13814    22235    32114    39165    42238 
   45136    51406    56578    52837    38216    16113    -5834   -20151 
  -27629   -31505   -32194   -34212   -41983   -51837   -58509   -59979 
  -55286   -45436   -33595   -22326   -12954    -5277     3017    11922 
   17753    20456    22242    19437     7445    -9670   -21024   -22854 
  -26180   -37839   -49109   -55685   -61344   -64375   -63783   -64255 
  -68595   -75706   -82318   -84804   -81306   -71789   -56771   -37772 
  -20516   -13417   -18687   -29602   -38691   -43267   -44121   -44009 
  -44730   -43809   -37361   -25783   -14796   -10871   -14664   -18574 
  -13251     1902    17277    23369    21129    20758    30325    47589 
   63908    73304    74792    70955    67164    65346    60494    49952 
   40302    40212    49094    55122    48491    33318    18558     5901 
   -6795   -19879   -30930   -37181   -41628   -48191   -50496   -40546 
  -23512    -9291     1691    13856    28332    44284    58789    67299 
   69737    69068    63900    50881    31291    11559      -98    -2565 
   -6486   -18970   -31489   -35418   -35775   -38089   -34648   -17219 
    2995     7442    -1735    -9992   -15524   -23005   -31025   -37982 
  -44071   -48353   -49816   -49783   -53609   -63168   -72060   -75489 
  -71216   -54332   -29459   -13616   -10587    -4546     8875    15577 
   12127     8096     6753     6582     6430     6712    13256    29623 
   48649    58154    51916    35163    17620     2468   -11844   -21255 
  -18559    -8365    -5806   -15403   -24375   -22904   -18216   -18103 
  -16090    -5629    10022    25671    34751    31623    21757    15739 
   15655    16625    13451     4238    -5476    -5599     7874    25223 
   29021    14294    -5439   -18937   -27845   -35416   -41240   -44264 
  -44076   -42027   -40347   -37524   -26056    -2599    21938    33536 
   29582    19155    15020    18376    17594     9105      586    -6462 
  -15983   -22982   -17106     -289    13232    16039    11606     1334 
  -15651   -34046   -45302   -46085   -41074   -36322   -30847   -20638 
   -7258     1195    -4532   -22408   -35258   -32157   -22978   -17562 
  -10100     2022     8485     4028    -5322   -12978   -15662   -13515 
   -9637    -4591     2633     7967     7250     3989     5011    12060 
   17358    12514     4747     8364    21524    30372    29879    25565 
   20907    14018     4077    -6067   -13758   -19458   -23408   -22239 
  -14621    -6621    -3792    -2359     2989     8636     8072      -99 
  -12918   -23631   -27567   -29060   -33857   -40190   -42103   -37930 
  -32969   -31239   -30934   -31670   -34025   -32245   -21155    -5951 
    4702     9764    13817    17711    18396    15689    10957     3890 
   -2842    -2902     5938    19587    33404    44780    53049    60435 
   68485    73543    70177    58998    48213    44194    43364    36456 
   18486    -5133   -24952   -37824   -43488   -40787   -32161   -21497 
  -11726    -8035   -14224   -28260   -45666   -61283   -69481   -68991 
  -64160   -57967   -48505   -34578   -19085    -4315    10688    23749 
   26803    17358     5729     2468     5541     6003     -702   -12930 
  -24406   -26841   -17478    -1244    15197    27306    33812    33991 
   24416     6471    -9649   -18032   -24094   -34466   -47253   -51896 
  -39686   -16251     3409    10931     8649     1185   -11087   -26204 
  -37640   -48154   -67643   -91788  -107586  -110987  -101646   -81909 
  -64040   -57390   -58506   -63720   -75140   -91102  -101818   -97361 
  -76166   -46190   -21404   -10846   -10305   -14516   -25308   -35021 
  -27836    -6884     9829    16594    22791    39272    65574    90566 
  108512   120468   124625   120194   109547    93047    72514    54968 
   44396    34677    18402     -983   -15227   -25106   -36915   -49932 
  -57437   -56358   -50149   -44473   -40713   -34351   -22377    -7400 
    7569    21777    33577    38496    32328    16429    -3109   -21341 
  -34616   -37014   -24909    -5719     6998    10025    12093    18834 
   28210    38805    51467    63470    67847    58974    37038     8908 
  -14857   -27308   -30540   -31034   -30146   -24252   -13592    -3360 
    4675    14073    26177    34599    28784     6901   -19201   -40966 
  -62120   -82363   -93999   -97637   -99926  -101255   -98585   -93815 
  -92104   -91441   -83213   -65080   -42047   -18751      189     8180 
    2836    -7372   -10318    -4720     2093     7532    12899    16676 
   18476    22410    30828    39563    43766    43581    39521    30264 
   18590    10514     7141     1551   -12864   -31123   -44888   -56731 
  -71569   -85383   -89689   -81041   -68682   -67743   -80156   -92818 
  -94824   -85316   -67891   -47599   -29498   -15298    -6685    -6997 
  -11695    -9206     3110    17172    27727    36348    46468    60475 
   75865    85414    84693    74242    57038    37360    18263     3043 
   -2961     2465    18657    44160    69428    79834    73357    61979 
   50366    29468    -1228   -27798   -43798   -55158   -63595   -62378 
  -50556   -38428   -32797   -29003   -21462   -13296   -10466   -10315 
   -8590   -10500   -18983   -26724   -27276   -19978    -8795    -1767 
   -2649    -6230    -6205    -2260     1203     1497     -341    -4915 
  -13711   -22527   -24555   -21069   -21891   -31459   -41841   -43108 
  -33563   -19453    -8105    -3569    -8447   -18704   -21368   -11114 
    6250    26674    44011    48967    42090    31098    20212    11078 
    4910      905    -2100    -3645    -6088   -15277   -29966   -39890 
  -38088   -26382   -12037    -3593    -3463    -4523     -244     5474 
    6941     8840    17597    29416    38089    41656    37975    28663 
   21235    18575    18143    19916    23615    26187    27238    27791 
   26144    21027    13708     7342     6710    13095    19887    18278 
    5797   -12452   -29012   -40474   -47905   -49943   -42446   -27264 
  -11437     3214    17404    22313     9530   -10250   -21774   -26138 
  -30469   -34298   -31665   -20891   -10464    -7734    -9439    -8820 
   -1127    12227    19155     9410    -9682   -22547   -24315   -21266 
  -20873   -27039   -37212   -45283   -52405   -63677   -72908   -67619 
  -48191   -28852   -19517   -14678    -4949     8553    20159    31282 
   47389    67474    80791    75472    49461    11798   -22184   -40727 
  -47447   -52068   -51626   -40785   -29318   -29504   -38983   -46121 
  -43167   -30100   -11039     7969    22110    30151    29892    20259 
    7695      600     4389    19257    34761    41531    44864    50461 
   53441    49104    39278    31106    30863    33655    29891    19594 
    8144    -2501   -12137   -20455   -26855   -29150   -26515   -23610 
  -24423   -24131   -15277     3934    29103    49382    54835    46195 
   29802    12555     2820     2830     6089     6319     1028    -8257 
  -17601   -26344   -34976   -41873   -46349   -45740   -35300   -18497 
   -6024    -1524      895     4821     8606    13001    19654    26190 
   29512    26853    18073    13533    23355    36804    36397    26280 
   21149    22126    21023    11085    -9943   -37445   -63596   -82926 
  -94847  -103422  -110642  -112393  -106026   -96781   -90909   -86578 
  -76637   -56909   -31104   -10066    -2356    -5374    -9729   -10093 
   -9591   -14896   -27516   -41493   -49240   -45809   -31379   -14154 
   -3068     2509     7834    14599    21509    26048    29430    38810 
   55832    72264    82035    85150    83137    80452    80961    79680 
   69963    55478    43739    34237    20263    -1180   -24537   -42673 
  -55804   -67283   -75128   -74497   -64851   -52580   -47173   -51099 
  -54906   -49013   -37193   -30527   -33630   -42059   -47380   -44838 
  -36332   -25252   -15439   -12263   -15892   -17976   -11869    -2074 
    1821    -3328   -11885   -15516   -11521    -4296     3841    15462 
   28955    38791    44890    51680    60073    66142    66737    62584 
   55102    44123    29863    15154     5074     2029     1864    -2415 
  -14993   -32432   -43750   -42467   -33998   -25171   -14915    -1375 
    8867     8373      220    -7725   -12633   -17092   -25192   -35197 
  -38374   -31352   -21546   -17061   -19965   -27711   -35659   -40953 
  -43952   -44071   -37273   -20673     1539    21186    34549    41343 
   37852    22355     5576      855     6113    10235     9825     5737 
   -5773   -25308   -44403   -54749   -53878   -43926   -31811   -24218 
  -21704   -22479   -26795   -32313   -30784   -17718    -1454     5418 
     129    -9864   -16119   -14761    -8082    -2621     -500     1008 
    -494    -7402   -11788    -6362     2798     5839     5123    10456 
   21305    27941    25689    16785     7748     7172    15384    22570 
   22390    17214    12378    14005    24876    39583    51224    58335 
   61930    63546    64711    63140    54023    37601    21648    12963 
    8315     1130    -6294    -8350    -5491      548     7654     8606 
   -1024   -14779   -23457   -24246   -19863   -16441   -19044   -25166 
  -28646   -26651   -19402   -10936    -6789    -6951    -9447   -16248 
  -26838   -35197   -38610   -40160   -42077   -44911   -50275   -59169 
  -70517   -81014   -86481   -86083   -81605   -73614   -63760   -54916 
  -45351   -32890   -25381   -31202   -41295   -41187   -32987   -25599 
  -20136   -16746   -16929   -18451   -18266   -17377   -20039   -26482 
  -30882   -30818   -30437   -32695   -35245   -34393   -30816   -28470 
  -28276   -28802   -31308   -36198   -38236   -33391   -25861   -22454 
