Origin Time       2011/03/11 14:46:00
Lat.              38.103
Long.             142.860
Depth. (km)       24
Mag.              9.0
Station Code      AKT020
Station Lat.      39.2027
Station Long.     139.9088
Station Height(m) 7
Record Time       2011/03/11 14:47:20
Sampling Freq(Hz) 100Hz
Duration Time(s)  300
Dir.              N-S
Scale Factor      3920(gal)/6182761
Max. Acc. (gal)   38.052
Last Correction   2011/03/11 14:47:05
Memo.             
[...]
   11153    13242    15285    17065    18485    19338    19364    18654 
   17527    16162    14799    13849    13648    14362    15966    18258 
   20957    23682    26044    27906    29288    30112    30223    29573 
   28301    26609    24591    22301    19945    17725    15715    14054 
   12872    12172    11999    12346    12985    13679    14267    14584 
   14710    14857    14943    15090    15824    17140    18572    20024 
   21469    22588    23123    23025    22364    21253    19776    18109 
   16558    15418    15033    15672    17241    19472    22087    24663 
   26669    27684    27623    26765    25487    24135    23058    22440 
   22190    22197    22567    23408    24647    26231    28177    30364 
   32532    34394    35740    36496    36623    36061    34853    33127 
   30988    28524    25775    22848    19962    17253    14890    12962 
   11330    10133     9558     9287     9184     9422     9972    10929 
   12278    13722    15418    17588    20035    22732    25685    28648 
   31431    33880    35800    37128    37920    38218    37999    37153 
   35475    32717    28762    23812    18401    13113     8386     4515 
    1657     -141     -915     -791      -13     1151     2606     4418 
    6678     9419    12499    15579    18211    20028    21074    21671 
   21979    22054    22023    22000    22034    22003    21588    20480 
   18538    15769    12300     8501     4892     1859     -311    -1448 
   -1636    -1036      209     1874     3820     6088     8591    10966 
   12941    14568    16014    17353    18421    18898    18777    18352 
   17729    16668    14815    12124     8849     5283     1950     -520 
   -1951    -2481    -2218    -1372     -165     1390     3123     4596 
    5545     5938     5885     5671     5567     5655     5937     6468 
    7276     8356     9756    11456    13266    15019    16538    17518 
   17845    17788    17722    17941    18631    19926    21949    24648 
   27777    31005    34049    36878    39612    42134    44079    45113 
   45130    44280    42889    41282    39623    37900    35945    33652 
   31187    28797    26647    24897    23719    23244    23509    24389 
   25703    27397    29443    31799    34372    36850    38965    40746 
   42279    43573    44571    45159    45308    45152    44798    44186 
   43164    41556    39316    36646    33831    31143    28874    27224 
   26131    25299    24455    23523    22520    21494    20588    20099 
   20327    21282    22696    24182    25246    25386    24330    22126 
   18985    15244    11369     7772     4663     2143      267    -1009 
   -1670    -1619     -829      721     2890     5279     7597     9748 
   11703    13480    15021    16297    17482    18778    20280    21919 
   23475    24775    25643    25877    25461    24478    23001    21213 
   19285    17342    15583    14178    13210    12700    12505    12399 
   12267    12143    12153    12363    12708    13175    13814    14572 
   15387    16212    16866    17170    17141    16850    16386    15979 
   15838    15956    16153    16279    16271    16071    15651    14916 
   13697    11883     9447     6489     3164     -417    -4017    -7321 
  -10049   -12019   -13238   -13745   -13570   -12835   -11690   -10312 
   -8783    -6943    -4614    -1998      377     2161     3459     4652 
    6048     7609     9072    10234    11129    11952    12779    13569 
   14327    15099    15932    16785    17506    17917    17944    17692 
   17369    17233    17419    17729    17873    17755    17369    16769 
   16072    15297    14455    13697    13171    12887    12766    12774 
   12933    13259    13780    14568    15780    17562    19880    22533 
   25221    27681    29803    31562    32924    33801    34187    34211 
   33961    33509    33017    32661    32483    32498    32789    33348 
   34069    34768    35234    35466    35499    35284    34867    34236 
   33340    32146    30408    27916    24800    21482    18328    15364 
   12651    10352     8334     6372     4351     2142     -240    -2531 
   -4375    -5519    -5897    -5582    -4740    -3551    -2122     -394 
    1680     3826     5728     7376     8883    10338    11857    13520 
   15199    16644    17789    18700    19536    20659    22227    24081 
   26212    28651    31276    34023    36756    39208    41171    42522 
   43228    43364    43013    42240    41162    40002    39064    38608 
   38655    39098    39885    40912    41973    42920    43697    44282 
   44749    45158    45441    45506    45091    43890    42036    39764 
   37048    33992    30902    28128    25891    24054    22336    20540 
   18581    16565    14683    13001    11444     9915     8470     7298 
    6541     6287     6643     7660     9335    11669    14661    18299 
   22441    26735    30778    34355    37429    39919    41609    42423 
   42569    42231    41419    40171    38685    37186    35820    34749 
   34099    33811    33755    33850    33961    33845    33297    32297 
   30970    29382    27473    25161    22459    19579    16842    14389 
   12054     9593     7056     4753     2921     1619      693     -109 
    -826    -1325    -1489    -1252     -617      331     1385     2316 
    3045     3618     4028     4165     3974     3553     3075     2707 
    2585     2704     2991     3469     4143     4901     5535     5849 
    5918     6015     6348     7063     8182     9546    11014    12544 
   14209    16129    18378    20997    23892    26831    29566    31874 
   33530    34319    34191    33292    31679    29289    26167    22458 
   18423    14473    10843     7495     4433     1638    -1120    -3974 
   -6779    -9420   -11888   -14046   -15718   -16830   -17374   -17366 
  -16860   -16029   -15093   -14062   -12727   -10818    -8240    -5237 
   -2101     1230     4962     9006    13116    16991    20199    22412 
   23583    23881    23561    22658    21095    19179    17409    15937 
   14633    13404    12280    11340    10678    10438    10666    11110 
   11480    11811    12322    13073    13994    15113    16546    18377 
   20588    23062    25691    28322    30762    32939    34873    36585 
   38065    39218    39942    40184    39927    39235    38231    37026 
   35704    34376    33159    32134    31366    30910    30777    30853 
   30911    30840    30811    30936    31052    31011    30933    31059 
   31364    31671    32006    32412    32889    33487    34133    34685 
   35087    35257    35036    34374    33409    32357    31372    30572 
   30050    29785    29706    29730    29692    29447    28886    27832 
   26210    24134    21711    19018    16179    13318    10597     8201 
    6189     4588     3447     2704     2259     2093     2168     2455 
    2982     3650     4317     4914     5407     5877     6354     6813 
    7539     8786    10462    12449    14682    17095    19588    21870 
   23604    24661    25064    24962    24568    23945    23080    22109 
   21267    20775    20724    20962    21207    21115    20294    18613 
   16369    13935    11480     9142     7142     5579     4344     3334 
    2587     2270     2539     3330     4444     5755     7137     8493 
    9790    10883    11605    11952    12070    12196    12527    13238 
   14543    16482    18896    21603    24424    27125    29525    31693 
   33770    35635    37079    38098    38708    38700    37961    36658 
   34933    32936    30945    29065    27251    25557    24066    22853 
   21953    21210    20432    19521    18386    17004    15356    13380 
   11275     9486     8359     8043     8566     9882    11935    14694 
   18038    21636    25041    27861    29863    31076    31768    32207 
   32478    32538    32351    31944    31393    30738    29997    29195 
   28367    27593    26893    26159    25293    24285    23187    22085 
   21001    19876    18649    17298    15757    13908    11642     8898 
    5875     2913      176    -2240    -4266    -5870    -6881    -7165 
   -6711    -5393    -3110       69     3987     8302    12502    16211 
   19309    21820    23749    24975    25303    24634    23040    20632 
   17657    14687    12219    10350     9054     8240     7711     7352 
    7181     7060     6616     5772     4891     4246     3869     3780 
    3981     4365     4798     5166     5412     5619     6026     6879 
    8256    10105    12415    15103    17870    20385    22371    23460 
   23453    22572    21109    19295    17416    15661    14017    12323 
   10502     8672     6958     5423     4161     3224     2567     2172 
    2128     2559     3540     5103     7235     9851    12878    16309 
   20067    23896    27435    30346    32476    33820    34352    34149 
   33452    32385    30883    28939    26690    24242    21684    19361 
   17716    16887    16851    17548    18637    19776    20947    22218 
   23558    24923    26316    27633    28599    29014    28847    28101 
   26709    24586    21713    18239    14561    11231     8702     7142 
    6504     6609     7286     8466    10050    11895    13809    15419 
   16357    16492    15826    14650    13522    12696    12061    11471 
   10752     9810     8704     7450     5996     4331     2518      704 
    -789    -1612    -1714    -1201       70     2183     4705     7327 
   10135    12973    15701    18355    20700    22404    23283    23411 
   23194    23058    23200    23692    24524    25559    26567    27225 
   27210    26339    24490    21592    17732    13164     8327     3761 
     -80    -2942    -4720    -5358    -4914    -3559    -1442     1222 
    4128     7050     9941    12873    15876    18886    21825    24544 
   26865    28767    30283    31296    31614    31224    30399    29339 
   27985    26321    24471    22645    21054    19725    18558    17444 
   16231    14839    13388    12063    11010    10461    10639    11450 
   12549    13607    14447    15164    15969    16897    17855    18823 
   19927    21310    22932    24582    26075    27370    28551    29696 
   30717    31473    31923    32003    31697    31108    30203    28929 
   27498    26262    25480    25119    24976    25005    25245    25737 
   26663    28104    29835    31543    33046    34423    35746    36789 
   37428    37805    38097    38377    38497    38276    37644    36610 
   35379    34126    32806    31500    30363    29456    28918    28611 
   28059    27059    25658    23999    22398    20959    19497    17983 
   16457    14883    13350    11886    10295     8492     6574     4565 
    2427      204    -1892    -3517    -4510    -5019    -5238    -5295 
   -5296    -5324    -5482    -5917    -6726    -7822    -8981    -9916 
  -10361   -10337   -10011    -9332    -8089    -6077    -3216      347 
    4301     8354    12245    15711    18539    20668    22169    23090 
   23455    23332    22683    21353    19308    16707    13827    10975 
    8298     5779     3474     1530        1    -1156    -2059    -2850 
   -3520    -3936    -4075    -4118    -4214    -4402    -4763    -5232 
   -5552    -5502    -4956    -3990    -2823    -1577     -292      983 
    2140     3024     3456     3312     2564     1211     -652    -2756 
   -4804    -6610    -8132    -9426   -10535   -11379   -11750   -11470 
  -10497    -8962    -7151    -5308    -3524    -1832     -175     1462 
    2958     4330     5734     7226     8738    10093    11161    11944 
   12451    12640    12422    11814    11052    10528    10679    11754 
   13650    16098    18806    21413    23568    25013    25612    25435 
   24695    23675    22681    21930    21587    21791    22466    23327 
   24108    24656    24972    25129    25064    24550    23443    21864 
   20185    18891    18307    18367    18840    19639    20658    21662 
   22615    23696    24960    26386    27964    29469    30641    31466 
   31971    32166    32272    32629    33428    34509    35493    36098 
   36043    35106    33429    31240    28643    25797    22898    20159 
   17822    16115    15160    14882    15132    15780    16706    17893 
   19458    21542    24228    27401    30676    33616    36016    37922 
   39521    41053    42630    44104    45349    46512    47754    49140 
   50779    52633    54516    56317    57878    58935    59318    59034 
   58247    57106    55590    53697    51500    49077    46524    43845 
   41058    38389    36151    34678    34201    34669    36031    38255 
   40995    43846    46591    48971    50771    51999    52641    52477 
   51335    49412    47047    44325    41196    37722    34121    30695 
   27625    24962    22733    20798    18940    17075    15105    12938 
   10520     7665     4251      476    -3372    -7121   -10600   -13610 
  -16010   -17643   -18302   -17736   -15686   -12144    -7384    -1769 
    4236    10121    15460    19901    23162    25054    25632    25312 
   24494    23299    21907    20718    20058    20106    20937    22384 
   24077    25692    26863    27089    26050    23707    20248    16208 
   12165     8494     5571     3588     2425     1941     1916     2097 
    2569     3491     4676     5882     7029     7999     8658     8872 
    8430     7317     5841     4337     2968     1747      633     -299 
    -817     -646      454     2560     5557     9304    13678    18362 
   22769    26233    28192    28485    27500    25763    23673    21561 
   19558    17773    16471    15831    15896    16683    18362    21304 
   25836    32017    39396    47151    54583    61222    66766    71050 
   73981    75673    76535    77070    77557    77979    78164    77858 
   76846    75014    72236    68492    64068    59371    54720    50390 
   46678    43769    41720    40483    39622    38615    37425    36246 
   35247    34576    34254    34269    34568    34964    35257    35356 
   35313    35248    35239    35371    35610    35796    35780    35255 
   34002    32212    30211    28312    26735    25459    24476    23746 
   22995    22132    21387    21011    21174    21798    22556    23113 
   23218    22729    21613    19953    18015    16007    13930    11882 
   10058     8540     7448     6889     6761     6973     7577     8703 
   10465    12824    15673    18807    21813    24251    25808    26362 
   26019    25041    23930    23325    23707    25331    28165    31993 
   36493    41213    45664    49220    51325    51750    50548    48105 
   44924    41454    38099    34984    31997    29036    26067    23146 
   20416    18009    15981    14448    13753    14153    15619    17999 
   20945    23986    26839    29330    31348    32902    34002    34664 
   34878    34517    33555    32114    30269    28116    25965    24185 
   22946    22213    21774    21254    20377    19153    17716    16247 
   14913    13642    12296    10773     8840     6418     3726      981 
   -1582    -3655    -5123    -5986    -6148    -5672    -4844    -3849 
   -2696    -1373      110     1657     3026     4055     4857     5583 
    6172     6411     6089     5137     3699     2084      632     -445 
   -1157    -1531    -1427     -684      677     2450     4356     6162 
    7818     9412    10875    11937    12321    11890    10790     9310 
    7642     6010     4707     3818     3339     3388     3928     4647 
    5108     4851     3670     1761     -453    -2553    -4291    -5519 
   -6048    -5652    -4255    -2002      897     4234     7831    11571 
   15372    19145    22682    25686    28024    29806    31206    32315 
   33164    33687    33704    33149    32206    31154    30138    29094 
   27868    26351    24578    22892    21834    21642    22201    23281 
   24445    25202    25367    24901    23815    22298    20566    18865 
   17460    16312    15321    14618    14220    14022    14075    14562 
   15654    17302    19237    21183    22976    24462    25373    25502 
   24722    22978    20547    17725    14697    11963     9908     8513 
    7922     8248     9446    11742    15308    19991    25425    30948 
   35974    40360    44116    47398    50508    53062    54303    54348 
   53670    52190    49644    46091    41990    37834    34030    31028 
   28979    27693    27024    26917    27318    28149    29262    30357 
   31205    31802    32274    32898    33752    34558    35000    34758 
   33735    32209    30403    28338    25903    23035    19994    17048 
   14155    11151     7853     4238      717    -2182    -4185    -5097 
   -4883    -3817    -2127      -82     1820     3255     4089     4267 
    4078     3947     4011     4142     4118     3802     3189     2192 
     689    -1291    -3565    -5767    -7491    -8562    -8993    -8807 
   -8030    -6550    -4185     -992     2849     7087    11276    15018 
   18077    20384    22197    23790    25226    26529    27613    28424 
   29018    29217    28790    27751    26243    24582    23087    21745 
   20611    20031    20177    21059    22530    24132    25444    26103 
   25735    24281    21836    18574    14980    11487     8354     6016 
    4708     4313     4921     6698     9485    12761    15793    18160 
   19767    20431    20147    19150    17716    16324    15341    14824 
   14902    15554    16467    17419    18171    18427    18072    17095 
   15435    12943     9844     6863     4446     2659     1592     1255 
    1602     2576     3883     5021     5654     5757     5479     5132 
    5161     5887     7370     9501    12086    14884    17621    19907 
   21332    21766    21448    20746    20070    19785    19917    20337 
   21040    22006    23180    24445    25588    26405    26671    26193 
   24928    23014    20754    18585    16910    15927    15723    16280 
   17266    18195    18810    19075    19003    18731    18475    18360 
   18378    18396    18295    17899    16890    15131    12833    10392 
    8094     6000     4074     2162      223    -1430    -2554    -3321 
   -3933    -4405    -4954    -5763    -6493    -6799    -6506    -5435 
   -3773    -1788      521     3129     6065     9242    12246    14740 
   16444    17149    16962    16038    14640    13131    11635    10243 
    9039     7870     6565     5100     3589     2201     1010       85 
    -614    -1227    -1593    -1459     -719      678     2607     5031 
    8102    11830    16148    20730    24813    27726    29175    29170 
   28004    25936    22991    19219    14980    10798     6975     3526 
     339    -2736    -5772    -8682   -11359   -13782   -16065   -18360 
  -20546   -22384   -23746   -24493   -24627   -24192   -23151   -21823 
  -20500   -18913   -16879   -14531   -11769    -8404    -4502     -146 
    4659     9729    14713    19312    23288    26366    28300    29127 
   29121    28420    27149    25725    24505    23517    22726    22107 
   21517    20948    20604    20548    20786    21401    22351    23492 
   24728    26057    27460    28840    30139    31312    32334    33357 
   34663    36279    37837    38911    39116    38188    36304    33896 
   31291    28793    26655    24965    23935    23922    25078    27186 
   29712    32066    33913    35140    35629    35194    33619    30770 
   26789    22078    17264    13044     9862     7942     7361     7904 
    9230    11033    12955    14689    16156    17401    18545    19605 
   20345    20411    19428    17237    14038    10098     5739     1397 
   -2672    -6377    -9531   -11990   -13706   -14551   -14384   -13279 
