Origin Time       2011/03/11 14:46:00
Lat.              38.103
Long.             142.860
Depth. (km)       24
Mag.              9.0
Station Code      AKT009
Station Lat.      39.8869
Station Long.     139.8467
Station Height(m) 16
Record Time       2011/03/11 14:47:26
Sampling Freq(Hz) 100Hz
Duration Time(s)  300
Dir.              U-D
Scale Factor      3920(gal)/6182761
Max. Acc. (gal)   15.046
Last Correction   2011/03/11 14:47:11
Memo.             
[...]
   -7137    -7567    -8179    -8650    -8933    -9113    -9174    -9018 
   -8490    -7496    -6117    -4448    -2527     -558      996     1691 
    1424      579      -68      171     1204     2138     2197     1405 
     326     -478     -677     -133     1139     2809     4280     5105 
    5123     4398     3396     2839     3047     3642     3917     3378 
    2021      161    -1910    -3971    -5785    -7156    -7999    -8510 
   -9251   -10608   -12216   -13277   -13397   -12963   -12670   -12819 
  -13201   -13517   -13669   -13704   -13703   -13665   -13387   -12646 
  -11513   -10366    -9652    -9592   -10013   -10483   -10585   -10156 
   -9472    -9067    -9226    -9765   -10213   -10085    -9324    -8388 
   -7591    -6854    -6172    -5779    -5987    -6781    -7508    -7819 
   -8128    -8591    -9221   -10190   -11238   -12214   -13318   -14580 
  -15985   -17335   -18300   -18849   -19095   -19143   -19106   -19092 
  -19196   -19411   -19630   -19695   -19439   -18838   -18033   -17186 
  -16425   -15714   -14915   -14123   -13411   -12402   -10800    -8998 
   -7720    -7358    -7799    -8663    -9532    -9901    -9402    -8390 
   -7771    -7968    -8563    -8965    -9020    -8941    -8924    -8951 
   -8915    -8835    -8868    -9192    -9816   -10418   -10630   -10619 
  -10890   -11506   -12190   -12663   -12288   -10768    -9135    -8481 
   -8640    -8996    -9222    -9189    -9155    -9433    -9708    -9363 
   -8409    -7908    -8733    -9920    -9817    -8589    -7536    -6547 
   -4906    -3152    -1784     -591      181      445     1078     2539 
    4132     5180     5472     4993     4048     2899     1532      204 
    -724    -1591    -3110    -5306    -7492    -9188   -10471   -11470 
  -12055   -12172   -12094   -12165   -12375   -12358   -11970   -11453 
  -10839    -9802    -8257    -6551    -5050    -4033    -3706    -3934 
   -4306    -4606    -4788    -4790    -4775    -5075    -5697    -6289 
   -6727    -7373    -8496    -9670   -10211    -9900    -8897    -7578 
   -6552    -6073    -5694    -5068    -4446    -4027    -3541    -2692 
   -1545     -296      947     1990     2563     2676     2603     2502 
    2370     2302     2327     2175     1619      711     -418    -1631 
   -2820    -3952    -4847    -5308    -5546    -5950    -6595    -7269 
   -7606    -7387    -6856    -6314    -5742    -5108    -4624    -4577 
   -5066    -6009    -7362    -8979   -10413   -11251   -11274   -10393 
   -9026    -7962    -7470    -7309    -7261    -6994    -6241    -5181 
   -4089    -3122    -2518    -2447    -2843    -3469    -4008    -4414 
   -4938    -5633    -6255    -6555    -6556    -6534    -6675    -6923 
   -7175    -7411    -7534    -7438    -7289    -7243    -7122    -6782 
   -6323    -5718    -4717    -3292    -1880     -948     -493     -228 
      26      298      485      329     -335    -1397    -2698    -4180 
   -5760    -7263    -8479    -9228    -9423    -9185    -8856    -8776 
   -8992    -9293    -9505    -9603    -9592    -9460    -9231    -8996 
   -8908    -9112    -9568    -9992   -10166   -10119    -9878    -9432 
   -8958    -8640    -8475    -8453    -8677    -9264   -10110   -10904 
  -11491   -11852   -12110   -12612   -13136   -12945   -11941   -10497 
   -9025    -8000    -7547    -7460    -7526    -7670    -8071    -8756 
   -9398    -9694    -9505    -8861    -7986    -6958    -5652    -4164 
   -2800    -1705     -858     -230      223      590      955     1273 
    1406     1315      999      404     -439    -1462    -2635    -3820 
   -4933    -6127    -7392    -8405    -8991    -9203    -9043    -8568 
   -8065    -7846    -7953    -8220    -8485    -8578    -8350    -7810 
   -7097    -6373    -5777    -5408    -5265    -5292    -5526    -5944 
   -6231    -6038    -5355    -4539    -4089    -4209    -4493    -4256 
   -3198    -1812    -1083    -1391    -2050    -2316    -2131    -1720 
   -1307    -1161    -1445    -2137    -3173    -4355    -5269    -5685 
   -5824    -6018    -6378    -6707    -6703    -6518    -6742    -7595 
   -8710    -9678   -10364   -10856   -11273   -11699   -12348   -13390 
  -14548   -15340   -15714   -16042   -16438   -16535   -16195   -15765 
  -15520   -15461   -15492   -15458   -15185   -14591   -13802   -13040 
  -12361   -11791   -11477   -11399   -11274   -10963   -10624   -10346 
   -9908    -9088    -8022    -6990    -6210    -6085    -6919    -8198 
   -8966    -8873    -8201    -7174    -5883    -4579    -3394    -2099 
    -459     1540     3671     5518     6819     7624     8110     8456 
    8681     8605     8031     6861     5201     3368     1641       87 
   -1320    -2632    -3954    -5379    -6726    -7554    -7750    -7792 
   -8085    -8487    -8728    -8832    -8937    -9183    -9727   -10425 
  -10795   -10673   -10386   -10179    -9995    -9928   -10374   -11374 
  -12320   -12800   -13050   -13409   -14070   -15139   -16372   -17143 
  -17007   -16119   -14950   -13815   -12858   -12096   -11363   -10536 
   -9715    -9039    -8452    -7688    -6698    -5991    -6035    -6459 
   -6494    -6008    -5434    -4966    -4524    -4243    -4349    -4824 
   -5574    -6707    -8334   -10230   -11963   -13234   -13893   -13888 
  -13415   -12897   -12652   -12655   -12599   -12191   -11393   -10321 
   -9018    -7537    -6150    -5139    -4496    -4087    -3890    -3873 
   -3896    -3979    -4276    -4623    -4658    -4454    -4463    -4911 
   -5733    -6885    -8185    -9149    -9364    -8888    -8167    -7695 
   -7778    -8443    -9403   -10211   -10566   -10363    -9616    -8572 
   -7611    -6894    -6406    -6137    -6004    -5920    -5851    -5669 
   -5323    -5049    -5095    -5440    -5946    -6678    -7823    -9328 
  -10804   -11801   -12121   -11822   -11059   -10071    -9033    -7862 
   -6577    -5562    -5049    -4778    -4465    -4282    -4549    -5144 
   -5688    -6102    -6438    -6566    -6450    -6279    -6178    -6109 
   -6092    -6243    -6475    -6478    -6164    -5871    -5941    -6293 
   -6731    -7348    -8370    -9877   -11581   -12861   -13401   -13581 
  -13824   -14023   -14093   -14101   -13772   -12990   -11965   -10691 
   -9218    -7878    -7065    -6800    -6548    -5938    -4810    -3032 
    -904     1181     3002     4430     5698     7040     8244     9095 
    9795    10750    12127    13580    14423    14276    13411    12282 
   10989     9410     7559     5670     4170     3330     2792     2072 
    1317      931      932     1011      770       38     -672     -658 
      26      866     1663     2501     3441     4334     4899     5057 
    4896     4501     4029     3598     3170     2718     2233     1721 
    1297     1038      872      607      -34    -1208    -2878    -4933 
   -7132    -9164   -10983   -12718   -14293   -15420   -15922   -15892 
  -15556   -15119   -14780   -14595   -14335   -13807   -13089   -12235 
  -11138    -9730    -8129    -6712    -5900    -5697    -5801    -6053 
   -6403    -6701    -6847    -6910    -7000    -7298    -7991    -8823 
   -9083    -8488    -7609    -7016    -6564    -5890    -5007    -4120 
   -3331    -2693    -2198    -1664     -949     -196      531     1492 
    2720     3749     4206     4153     3762     3009     1682     -377 
   -2976    -5533    -7405    -8399    -8948    -9593   -10398   -11168 
  -11874   -12570   -13269   -13953   -14512   -14817   -14830   -14633 
  -14469   -14545   -14812   -15124   -15345   -15265   -14733   -13846 
  -12855   -11938   -11121   -10446    -9945    -9492    -8995    -8541 
   -8221    -8068    -8086    -8225    -8446    -8716    -8946    -9128 
   -9274    -9279    -9217    -9442   -10097   -10884   -11367   -11455 
  -11463   -11617   -11905   -12269   -12465   -12284   -11691   -10686 
   -9766    -9269    -8662    -7778    -6848    -5931    -5343    -5272 
   -5651    -6241    -6629    -6947    -7611    -8581    -9554   -10238 
  -10416    -9988    -9153    -8433    -8197    -8366    -8589    -8494 
   -7988    -7337    -6807    -6489    -6386    -6432    -6525    -6518 
   -6270    -5941    -5849    -5986    -6172    -6472    -7144    -8362 
  -10026   -11739   -13074   -13795   -14054   -14226   -14159   -13623 
  -13085   -12735   -12376   -12025   -11477   -10615    -9513    -8271 
   -7329    -6665    -5781    -4687    -3607    -2692    -2095    -1736 
   -1467    -1356    -1508    -1902    -2457    -3013    -3489    -4106 
   -5049    -6085    -6844    -7174    -7129    -6837    -6496    -6420 
   -6830    -7567    -8253    -8653    -8741    -8649    -8571    -8697 
   -9119    -9593    -9709    -9500    -9423    -9766   -10509   -11481 
  -12421   -13252   -14201   -15320   -16124   -16253   -15989   -15445 
  -14445   -13193   -11779   -10270    -9103    -8281    -7451    -6527 
   -5750    -5529    -5917    -6589    -7136    -7250    -7001    -6649 
   -6373    -6187    -5992    -5722    -5242    -4441    -3542    -2858 
   -2483    -2429    -2547    -2492    -2153    -1708    -1318    -1176 
   -1405    -1827    -2213    -2578    -3090    -3750    -4329    -4702 
   -5020    -5466    -6109    -6983    -8123    -9485   -10979   -12519 
  -13991   -15372   -16839   -18484   -20077   -21220   -21622   -21296 
  -20593   -19913   -19413   -19015   -18553   -17907   -17096   -16231 
  -15378   -14504   -13583   -12685   -11838   -10993   -10251    -9792 
   -9494    -9064    -8425    -7625    -6726    -6002    -5731    -5698 
   -5613    -5578    -5549    -5327    -4893    -4244    -3539    -3037 
   -2857    -2995    -3236    -3372    -3360    -3120    -2612    -1840 
    -860       67      707     1120     1481     1847     2151     2313 
    2140     1362      116    -1048    -1771    -2036    -2208    -2655 
   -2868    -2423    -1981    -1894    -1912    -1923    -1578     -782 
     -66      222       96       -3      470     1304     1934     2180 
    2177     2070     1829     1431     1012      642      262     -326 
   -1357    -2697    -3864    -4534    -4713    -4553    -4201    -3647 
   -2793    -1736     -712      213     1084     1787     2173     2385 
    2715     3134     3323     3200     2914     2356     1358      130 
   -1083    -2379    -3895    -5530    -7098    -8435    -9344    -9702 
   -9600    -9299    -9075    -9077    -9341    -9788   -10103    -9997 
   -9747    -9853   -10240   -10521   -10562   -10311    -9735    -9078 
   -8696    -8700    -8985    -9445    -9954   -10278   -10318   -10383 
  -10911   -11887   -12919   -13826   -14697   -15647   -16795   -18130 
  -19274   -19797   -19746   -19538   -19354   -18956   -18153   -17119 
  -16113   -15196   -14321   -13430   -12340   -10729    -8520    -6199 
   -4410    -3388    -3024    -3075    -3155    -2970    -2555    -2071 
   -1622    -1313    -1175    -1060     -817     -550     -527     -797 
   -1120    -1396    -1757    -2249    -2877    -3808    -5150    -6799 
   -8628   -10501   -12154   -13412   -14359   -15074   -15497   -15705 
  -15890   -16022   -15876   -15412   -14863   -14364   -13727   -12760 
  -11636   -10835   -10693   -11006   -11325   -11501   -11567   -11449 
  -11210   -11006   -10684    -9944    -8759    -7365    -6078    -5065 
   -4227    -3415    -2569    -1818    -1521    -1801    -2347    -3114 
   -4420    -6181    -7788    -8772    -9205    -9415    -9551    -9585 
   -9590    -9739   -10052   -10371   -10499   -10266    -9646    -8773 
   -7870    -7237    -7028    -7029    -6942    -6708    -6451    -6327 
   -6445    -6871    -7623    -8640    -9839   -11130   -12256   -12900 
  -12954   -12495   -11700   -10868   -10220    -9817    -9668    -9649 
   -9513    -9074    -8223    -6949    -5415    -3925    -2786    -2127 
   -1907    -2059    -2465    -2943    -3365    -3587    -3420    -2916 
   -2376    -1995    -1662    -1114     -324      405      868     1112 
    1103      814      500      357      332      513     1086     1898 
    2526     2661     2185     1110     -470    -2364    -4224    -5804 
   -7265    -8796   -10187   -11126   -11561   -11644   -11580   -11428 
  -11142   -10857   -10777   -10896   -11113   -11325   -11478   -11669 
  -12035   -12597   -13257   -13879   -14431   -14912   -15178   -15140 
  -14985   -14885   -14915   -15358   -16424   -17741   -18716   -19138 
  -19080   -18602   -17749   -16635   -15468   -14343   -13086   -11649 
  -10317    -9270    -8456    -7785    -7052    -6007    -4685    -3403 
   -2414    -1628     -819      -35      460      513      110     -737 
   -1916    -3123    -4037    -4488    -4429    -4042    -3685    -3543 
   -3608    -3887    -4407    -5168    -6110    -7076    -7888    -8348 
   -8286    -7856    -7489    -7584    -8459   -10133   -12200   -14201 
  -15756   -16641   -17207   -17816   -18011   -17380   -16207   -14794 
  -13274   -11653    -9974    -8598    -7717    -7335    -7413    -7598 
   -7865    -8655    -9953   -11305   -12471   -13568   -14792   -16248 
  -17938   -19629   -20950   -21741   -21988   -21604   -20574   -19150 
  -17680   -16315   -15029   -13879   -13022   -12539   -12476   -12772 
  -13043   -12882   -12367   -11894   -11622   -11306   -10742   -10197 
  -10099   -10449   -10855   -11036   -11077   -11218   -11405   -11225 
  -10365    -8924    -7178    -5317    -3490    -1893     -616      431 
    1249     1600     1261      347     -645    -1278    -1549    -1533 
   -1094     -380      117      200      161      409     1181     2448 
    3949     5339     6434     7257     7887     8545     9656    11460 
   13651    15532    16536    16629    16251    15891    15656    15351 
   14906    14407    13911    13476    13091    12558    11669    10410 
    9061     7999     7180     6121     4559     2802     1397      495 
    -266    -1094    -1680    -1777    -1624    -1586    -1772    -2103 
   -2511    -3000    -3696    -4815    -6310    -7716    -8619    -9073 
   -9410    -9854   -10378   -10722   -10599   -10068    -9503    -9168 
   -9127    -9296    -9321    -8936    -8434    -8331    -8755    -9482 
  -10370   -11416   -12429   -13096   -13464   -13875   -14424   -14855 
  -14846   -14253   -13184   -11800   -10136    -8197    -6132    -4210 
   -2616    -1403     -578     -114      -31     -412    -1154    -1985 
   -2788    -3582    -4384    -5245    -6192    -7106    -7799    -8186 
   -8331    -8394    -8492    -8551    -8466    -8278    -7942    -7281 
   -6367    -5544    -5058    -4993    -5356    -6016    -6725    -7330 
   -7946    -8850   -10101   -11457   -12700   -13777   -14701   -15531 
  -16209   -16462   -16251   -16040   -16303   -17002   -17761   -18369 
  -18881   -19332   -19675   -19881   -19849   -19338   -18330   -17280 
  -16678   -16538   -16604   -16848   -17513   -18717   -20187   -21535 
  -22573   -23150   -23173   -22898   -22590   -22083   -21239   -20360 
  -19636   -18735   -17351   -15743   -14392   -13469   -12845   -12285 
  -11601   -10830   -10148    -9564    -8936    -8286    -7801    -7555 
   -7424    -7177    -6549    -5360    -3626    -1697     -253      421 
     673      689      551      397        8     -547     -902    -1170 
   -1429    -1589    -1632    -1386     -898     -491     -346     -476 
    -756    -1118    -1606    -2161    -2663    -3104    -3589    -4234 
   -4931    -5343    -5277    -4867    -4371    -3897    -3378    -2751 
   -1984     -991      242     1585     3026     4740     6719     8696 
   10459    11884    12833    13320    13477    13210    12311    10793 
    8818     6513     4028     1631     -377    -1833    -2749    -3267 
   -3666    -4193    -4798    -5256    -5437    -5277    -4848    -4419 
   -4174    -4046    -3862    -3470    -2862    -2275    -2121    -2842 
   -4664    -7323   -10212   -12883   -15322   -17708   -19945   -21718 
  -22987   -23998   -24969   -26037   -27161   -28094   -28651   -28913 
  -29079   -29199   -29158   -28771   -27850   -26388   -24673   -23107 
  -21766   -20313   -18570   -16823   -15368   -14249   -13480   -13047 
  -12788   -12577   -12432   -12338   -12202   -12070   -12117   -12372 
  -12674   -12836   -12785   -12605   -12434   -12412   -12685   -13244 
  -13956   -14746   -15445   -15745   -15624   -15353   -15028   -14516 
  -13685   -12649   -11681   -10702    -9544    -8345    -7065    -5694 
   -4532    -3566    -2786    -2322    -1972    -1628    -1276     -796 
    -336      -69      176      687     1681     3246     5174     6853 
    7694     7654     7113     6462     5924     5416     4530     2995 
    1175     -219     -917    -1255    -1596    -1893    -1847    -1341 
    -674     -247     -173     -332     -589     -929    -1419    -2041 
   -2690    -3324    -4009    -4765    -5451    -5955    -6310    -6563 
   -6699    -6622    -6234    -5610    -4963    -4521    -4379    -4316 
   -3996    -3444    -3004    -2919    -3168    -3529    -3773    -3932 
   -4196    -4536    -4803    -5018    -5251    -5432    -5390    -4864 
   -3677    -2097     -672      309      864     1027      787      181 
    -678    -1647    -2568    -3262    -3639    -3880    -4296    -5010 
   -5892    -6778    -7764    -9114   -10819   -12566   -14071   -15149 
  -15761   -16104   -16436   -16877   -17408   -17925   -18340   -18604 
  -18610   -18258   -17568   -16567   -15261   -13821   -12537   -11448 
  -10330    -9076    -7809    -6674    -5799    -5337    -5385    -5940 
   -6890    -7990    -8983    -9786   -10594   -11671   -12923   -13911 
  -14326   -14279   -14159   -14257   -14609   -15143   -15683   -15979 
  -15952   -15689   -15304   -14997   -15006   -15342   -15752   -15946 
  -15704   -14882   -13587   -12175   -10899    -9782    -8784    -7943 
   -7367    -7053    -6672    -5757    -4208    -2442     -957       86 
     851     1486     1930     2158     2386     2756     3114     3282 
    3306     3301     3175     2673     1642       97    -1846    -3891 
   -5653    -7042    -8264    -9363   -10151   -10532   -10484    -9946 
   -9101    -8397    -8095    -8082    -8157    -8251    -8261    -7961 
   -7288    -6492    -5837    -5406    -5234    -5392    -5912    -6691 
   -7423    -7693    -7371    -6848    -6673    -7035    -7755    -8582 
   -9349   -10071   -10890   -11832   -12798   -13790   -14894   -16057 
  -17134   -18110   -19045   -19866   -20459   -20844   -21111   -21262 
  -21209   -20912   -20360   -19516   -18436   -17260   -16015   -14655 
  -13201   -11676   -10014    -8160    -6257    -4544    -3059    -1678 
    -367      811     1728     2171     2103     1707     1003      -85 
   -1331    -2394    -3132    -3464    -3258    -2453    -1155      416 
    2043     3523     4651     5261     5362     5201     5026     4859 
    4652     4400     3990     3242     2088      606     -870    -1861 
   -2227    -2259    -2257    -2230    -2037    -1671    -1236     -772 
    -311       10       98      -54     -506    -1229    -2015    -2796 
   -3748    -4985    -6296    -7194    -7429    -7292    -7189    -7175 
   -7077    -6751    -6123    -5202    -4098    -2929    -1783     -758 
      26      516      777      821      474     -402    -1707    -3282 
   -4987    -6583    -7858    -8896    -9902   -10791   -11307   -11397 
  -11120   -10545    -9797    -8883    -7722    -6522    -5725    -5502 
   -5598    -5669    -5553    -5244    -4831    -4519    -4414    -4312 
   -3992    -3531    -3126    -2884    -2877    -3120    -3533    -4054 
