Origin Time       2011/03/11 14:46:00
Lat.              38.103
Long.             142.860
Depth. (km)       24
Mag.              9.0
Station Code      AKT008
Station Lat.      39.8840
Station Long.     140.0706
Station Height(m) 4
Record Time       2011/03/11 14:47:24
Sampling Freq(Hz) 100Hz
Duration Time(s)  300
Dir.              E-W
Scale Factor      3920(gal)/6182761
Max. Acc. (gal)   35.539
Last Correction   2011/03/11 14:47:09
Memo.             
[...]
   -2982    -4060    -5269    -6986    -9150   -11261   -13025   -13952 
  -13810   -13284   -12907   -12561   -12175   -11637   -10530    -9023 
   -7914    -7223    -6547    -6071    -5869    -5728    -5663    -5648 
   -5695    -6220    -7569    -9617   -11967   -14184   -16046   -17578 
  -18625   -18785   -17958   -16590   -15245   -14152   -13033   -11538 
   -9801    -8141    -6769    -6066    -6350    -7415    -8841   -10312 
  -11415   -11798   -11418   -10590    -9770    -8984    -8068    -7111 
   -6059    -5021    -4568    -4860    -5690    -7051    -8822   -10763 
  -12614   -14065   -15066   -15782   -16237   -16336   -16101   -15822 
  -15778   -15708   -15105   -13885   -12392   -11225   -10695   -10432 
   -9963    -9098    -7906    -6635    -5531    -4980    -5401    -6740 
   -8337    -9664   -11004   -12787   -14956   -17208   -19082   -20274 
  -20858   -20839   -20030   -18639   -17269   -16339   -16081   -16509 
  -17230   -17810   -18026   -17829   -17416   -17152   -17352   -18148 
  -19483   -21151   -22824   -24144   -24912   -25304   -25664   -25944 
  -25932   -25699   -25323   -24832   -24277   -23499   -22505   -21716 
  -21353   -21205   -20960   -20480   -19728   -18564   -17040   -15539 
  -14407   -13675   -13040   -12096   -10777    -9285    -7484    -5366 
   -3485    -2117    -1050       96     1586     3280     4927     6470 
    7991     9350    10098    10126     9747     9310     9100     9023 
    8662     7801     6452     4619     2557      759     -878    -2784 
   -4802    -6808    -9116   -11901   -15223   -18901   -22458   -25598 
  -28298   -30745   -32966   -34498   -35191   -35518   -35872   -36355 
  -36947   -37435   -37571   -37384   -37046   -36618   -36173   -35751 
  -35221   -34593   -33984   -33159   -31974   -30788   -29675   -28104 
  -25759   -22985   -20366   -18252   -16658   -15418   -14441   -13715 
  -13253   -13283   -14059   -15522   -17447   -19519   -21359   -22757 
  -23602   -23881   -23879   -23894   -24003   -24136   -23939   -22916 
  -20933   -18124   -14858   -11990   -10075    -8938    -8373    -8160 
   -7943    -7541    -6898    -6028    -5216    -4919    -5249    -6038 
   -7110    -8259    -9597   -11368   -13162   -14420   -15344   -16175 
  -16606   -16618   -16649   -16936   -17375   -17633   -17192   -15787 
  -13742   -11450    -9010    -6447    -3907    -1827     -486      276 
     550      508      413      242      107      260      383     -178 
   -1470    -3033    -4583    -5991    -7364    -8950   -10613   -12148 
  -13636   -15163   -16806   -18642   -20464   -21942   -23044   -23921 
  -24611   -25120   -25565   -26012   -26298   -26151   -25365   -23854 
  -21961   -20439   -19587   -19044   -18492   -17822   -16944   -15916 
  -15035   -14441   -13976   -13655   -13601   -13582   -13237   -12259 
  -10349    -7654    -4824    -2258      108     2266     3908     4765 
    5119     5567     6182     6622     6733     6617     6562     6685 
    6809     6860     7033     7570     8380     9132     9695     9897 
    9404     8441     7586     6896     5971     4525     2807     1433 
     685      333        2     -478     -899    -1055    -1066     -978 
    -643     -129      279      263     -433    -1674    -2910    -3806 
   -4455    -5014    -5722    -6638    -7525    -8439    -9419   -10109 
  -10237    -9594    -8173    -6604    -5543    -4996    -4710    -4526 
   -4396    -4313    -4042    -3397    -2655    -2078    -1825    -2250 
   -3474    -5319    -7574    -9775   -11494   -12832   -14251   -16049 
  -18151   -20441   -22778   -24841   -26246   -26796   -26828   -26710 
  -26429   -26325   -26861   -27950   -29468   -31097   -32183   -32962 
  -34203   -35824   -37424   -38847   -39724   -39899   -39648   -39054 
  -38195   -37191   -35785   -33975   -32218   -30585   -28890   -27212 
  -25608   -24143   -23034   -22108   -20857   -19377   -18220   -17455 
  -16898   -16397   -15571   -14160   -12120    -9516    -6698    -3994 
   -1718     -323      163      121     -346    -1320    -2456    -3334 
   -4015    -4410    -4286    -3916    -3466    -2852    -2261    -1617 
    -774     -100      223      329      137     -404    -1354    -2837 
   -4677    -6684    -8844   -11015   -12941   -14374   -15264   -15822 
  -16340   -17070   -17995   -18731   -19044   -19141   -19127   -18666 
  -17456   -15715   -14050   -12852   -12128   -11839   -11977   -12560 
  -13676   -15191   -16660   -17891   -19025   -20024   -20633   -20751 
  -20641   -20796   -21533   -22705   -23805   -24428   -24704   -25106 
  -25753   -26203   -26235   -26249   -26550   -27065   -27414   -27251 
  -26953   -27100   -27585   -27986   -28368   -29080   -29985   -30834 
  -31636   -32311   -32826   -33015   -32548   -31435   -29754   -27577 
  -25258   -23099   -21244   -19901   -19197   -18946   -18918   -18988 
  -18855   -18391   -18053   -18172   -18395   -18297   -17954   -17605 
  -17085   -15981   -14279   -12470   -11052   -10209    -9816    -9670 
   -9910   -10750   -11875   -12900   -13737   -14394   -15088   -16004 
  -16934   -17454   -17411   -17099   -16772   -16439   -15997   -15332 
  -14409   -13161   -11563    -9905    -8655    -7980    -7516    -6775 
   -5774    -4983    -4660    -4750    -5154    -5593    -5879    -6268 
   -6969    -7920    -9065   -10275   -11403   -12373   -13000   -13293 
  -13465   -13492   -13372   -13287   -13175   -12757   -11755   -10181 
   -8458    -6850    -5458    -4595    -4601    -5780    -8073   -10829 
  -13489   -15882   -17957   -19625   -20755   -21545   -22387   -23254 
  -24128   -25266   -26539   -27645   -28471   -28827   -28674   -28088 
  -27090   -26050   -25296   -24711   -24283   -24147   -24159   -24198 
  -24373   -24535   -24402   -24043   -23685   -23486   -23489   -23813 
  -24488   -25031   -25185   -25139   -24700   -23887   -23241   -22612 
  -21380   -19709   -18127   -16637   -15059   -13387   -11664   -10103 
   -9049    -8632    -8791    -9405   -10157   -10689   -10907   -10945 
  -11147   -11801   -12642   -13229   -13338   -12860   -12097   -11566 
  -11344   -11130   -10602    -9600    -8362    -7496    -7352    -7819 
   -8720    -9720   -10428   -10871   -11192   -11322   -11351   -11347 
  -11131   -10806   -10471    -9844    -8681    -6709    -3733     -123 
    3406     6401     8738    10375    11422    12113    12536    12777 
   13119    13809    14880    16300    17929    19392    20433    20945 
   20692    19763    18576    17373    16320    15492    14855    14271 
   13508    12703    12090    11584    11382    11845    12663    13150 
   13095    12818    12651    12550    12290    11817    11069     9841 
    8005     5394     1760    -2586    -6869   -10761   -14239   -17179 
  -19615   -21467   -22644   -23497   -24058   -23817   -22775   -21696 
  -21138   -21020   -21157   -21173   -20599   -19603   -18464   -17035 
  -15310   -13572   -12072   -10725    -9315    -7908    -6665    -5661 
   -4799    -3983    -3359    -2904    -2528    -2386    -2486    -2710 
   -3108    -3859    -4986    -6298    -7671    -8864    -9715   -10497 
  -11317   -12024   -12294   -11841   -11077   -10412    -9793    -9278 
   -8829    -8517    -8728    -9437   -10238   -10917   -11465   -11824 
  -12021   -12393   -13197   -14327   -15511   -16413   -16892   -17178 
  -17349   -17133   -16496   -15731   -15062   -14566   -14075   -13323 
  -12426   -11688   -11113   -10572   -10100    -9784    -9452    -8781 
   -7677    -6325    -5101    -4247    -3711    -3481    -3538    -3683 
   -3722    -3582    -3237    -2612    -1718     -680      430     1462 
    2227     2701     3010     3274     3467     3560     3523     3321 
    3021     2567     1832      816     -376    -1568    -2816    -4359 
   -6172    -8064    -9855   -11605   -13578   -15584   -17107   -18046 
  -18582   -18659   -18257   -17704   -17364   -17480   -18044   -18753 
  -19428   -20130   -20856   -21505   -22016   -22463   -22914   -23263 
  -23517   -23744   -23904   -24040   -23978   -23468   -22726   -22065 
  -21596   -21369   -21339   -21347   -21298   -21277   -21374   -21478 
  -21475   -21293   -20705   -19776   -18885   -18168   -17696   -17544 
  -17619   -17783   -17873   -17812   -17581   -17204   -17110   -17911 
  -19701   -22081   -24652   -27195   -29587   -31707   -33495   -34826 
  -35368   -34986   -33965   -32666   -31406   -30469   -29781   -28905 
  -27740   -26621   -25663   -24763   -24132   -24007   -24211   -24604 
  -25380   -26735   -28602   -30632   -32378   -33559   -34236   -34707 
  -35102   -35376   -35648   -36058   -36477   -36658   -36420   -35878 
  -35324   -34793   -34355   -34226   -34307   -34338   -34148   -33528 
  -32357   -30744   -28866   -26994   -25379   -23926   -22634   -21749 
  -21294   -21282   -21743   -22447   -23210   -23850   -24092   -23920 
  -23430   -22680   -21793   -20766   -19644   -18583   -17494   -16220 
  -14849   -13703   -12960   -12399   -11900   -11770   -12087   -12386 
  -12391   -12170   -11691   -11155   -10926   -11062   -11645   -12759 
  -14045   -15005   -15567   -15898   -15829   -15058   -13603   -11665 
   -9448    -7200    -5118    -3327    -1890     -665      607     2034 
    3462     4517     4934     4735     4083     3159     1998      399 
   -1719    -3971    -5961    -7634    -8847    -9482    -9851   -10162 
  -10271   -10233   -10264   -10408   -10487   -10280   -10025   -10178 
  -10734   -11333   -11571   -11310   -10694    -9897    -9156    -8607 
   -8301    -8449    -9075    -9978   -11117   -12370   -13321   -13828 
  -14106   -14080   -13624   -12971   -12387   -11913   -11376   -10782 
  -10365   -10244   -10541   -11370   -12528   -13569   -14352   -15188 
  -16419   -18131   -19930   -21411   -22572   -23328   -23514   -23075 
  -22067   -20836   -19633   -18331   -16765   -15094   -13829   -13315 
  -13390   -13741   -14107   -14263   -14117   -13608   -12710   -11644 
  -10612    -9626    -8747    -7952    -7245    -6834    -6646    -6420 
   -6230    -6316    -6711    -7110    -7280    -7438    -7684    -7792 
   -7848    -8122    -8430    -8307    -7544    -6368    -5335    -5019 
   -5500    -6580    -8289   -10291   -11889   -12933   -13551   -13893 
  -14237   -14540   -14608   -14503   -14372   -14362   -14553   -14950 
  -15454   -15730   -15625   -15370   -15145   -14982   -14983   -15256 
  -15644   -15846   -15772   -15661   -15839   -16254   -16540   -16679 
  -17125   -18121   -19414   -20626   -21475   -21896   -22047   -22147 
  -22320   -22471   -22497   -22328   -21663   -20374   -18746   -17145 
  -15973   -15294   -14639   -13854   -13282   -12962   -12556   -11879 
  -11012   -10241    -9852    -9714    -9536    -9388    -9430    -9569 
   -9744    -9903    -9631    -8608    -7139    -5611    -4168    -2784 
   -1267      228     1257     1872     2696     4310     6451     8413 
   10137    11776    13248    14593    15716    16452    16764    16428 
   15270    13562    11782    10264     8994     7866     7105     7042 
    7779     9158    10815    12389    13587    14208    14327    14209 
   14113    14269    14668    14914    14759    14407    14041    13519 
   12687    11620    10331     8748     6967     5092     3121      975 
   -1264    -3298    -5204    -7217    -9289   -11492   -13830   -16140 
  -18345   -20270   -21808   -22979   -23686   -23986   -24133   -24248 
  -24413   -24537   -24304   -23777   -23271   -22845   -22444   -21973 
  -21313   -20367   -19130   -17927   -17105   -16666   -16331   -15713 
  -14788   -13693   -12173   -10028    -7391    -4617    -2173     -150 
    1521     2712     3503     4098     4726     5715     7029     8371 
    9546    10313    10656    10739    10536    10274    10338    10653 
   11135    11796    12335    12350    11509     9874     7976     6248 
    4881     3919     3390     3339     3651     4081     4329     4448 
    4915     5869     7026     7998     8407     8169     7354     6038 
    4547     3073     1481     -277    -2249    -4567    -7249   -10267 
  -13450   -16594   -19682   -22607   -25176   -27257   -28682   -29526 
  -30065   -30446   -30721   -30816   -30856   -31102   -31440   -31758 
  -32014   -32011   -31664   -31003   -30406   -30513   -31533   -33305 
  -35442   -37578   -39847   -42210   -44113   -45264   -45564   -44920 
  -43527   -41632   -39397   -36937   -34327   -31739   -29146   -26530 
  -24265   -22662   -21914   -21895   -22000   -22069   -22295   -22601 
  -23028   -23621   -24125   -24507   -24937   -25214   -24941   -24065 
  -22832   -21362   -19746   -18120   -16436   -14692   -13053   -11594 
  -10355    -9448    -9063    -9238    -9571    -9629    -9314    -8550 
   -7328    -5900    -4504    -3100    -1548      104     1656     2932 
    3881     4545     5020     5356     5349     4892     4154     3332 
    2751     2681     3085     3826     4675     5334     5628     5548 
    5190     4664     4012     3210     2307     1396      384     -874 
   -2362    -3995    -5652    -7290    -9044   -10775   -12039   -12613 
  -12480   -11833   -11027   -10083    -8796    -7136    -5160    -3183 
   -1766    -1129    -1146    -1573    -2119    -2838    -3942    -5346 
   -6835    -8280    -9720   -11136   -12337   -13430   -14783   -16583 
  -18738   -20899   -22869   -24844   -26890   -28961   -31121   -33134 
  -34821   -36247   -37311   -38249   -39328   -40465   -42137   -44918 
  -48521   -52263   -55810   -59127   -62045   -64415   -66192   -67394 
  -68125   -68481   -68552   -68209   -67355   -66112   -64464   -62514 
  -60488   -58399   -56327   -54343   -52400   -50680   -49233   -47566 
  -45396   -43022   -40668   -38383   -36431   -34937   -33679   -32600 
  -31816   -31201   -30477   -29722   -29147   -28411   -27062   -25190 
  -23173   -21160   -19021   -16875   -15146   -14030   -13418   -13045 
  -12661   -12465   -12840   -13638   -14632   -15934   -17365   -18374 
  -18744   -18729   -18647   -18608   -18271   -17287   -16035   -14835 
  -13527   -12303   -11362   -10424    -9356    -8344    -7364    -6249 
   -5140    -4142    -3336    -3177    -3799    -4761    -5707    -6559 
   -7435    -8416    -9396   -10297   -11076   -11738   -12350   -12926 
  -13502   -13888   -13904   -14068   -14918   -16439   -18560   -21122 
  -23760   -26182   -28232   -30025   -31853   -33736   -35407   -36502 
  -36886   -36844   -36484   -35614   -34350   -32809   -30827   -28282 
  -24971   -20931   -16679   -12427    -8217    -4642    -2298    -1090 
    -767    -1358    -2488    -3585    -4712    -5810    -6547    -7166 
   -7808    -8192    -8250    -8088    -7801    -7444    -7040    -6558 
   -5821    -4789    -3839    -3464    -3762    -4381    -4860    -4848 
   -4312    -3547    -2750    -1893     -961       67     1140     2146 
    3081     3953     4767     5292     5069     4057     2552      787 
   -1075    -2965    -4644    -5792    -6435    -6797    -7064    -7327 
   -7623    -7984    -8405    -8729    -8543    -7717    -6575    -5216 
   -3728    -2567    -2020    -2131    -2807    -3695    -4617    -5699 
   -6922    -8141    -9444   -11080   -12944   -14573   -15788   -16701 
  -17197   -17056   -16518   -16088   -15907   -15840   -15753   -15551 
  -15183   -14506   -13430   -12234   -11304   -10716   -10200    -9518 
   -8808    -8226    -7617    -6915    -6336    -6057    -6012    -6031 
   -6100    -6430    -7191    -8286    -9422   -10465   -11472   -12214 
  -12223   -11461   -10550   -10011    -9709    -9502    -9370    -9053 
   -8469    -7657    -6353    -4403    -2112      126     1987     3201 
    3822     4167     4404     4375     3956     3308     2616     2241 
    2625     3618     4878     6492     8453    10439    12104    13094 
   13489    13784    13983    13659    12768    11724    10908    10377 
    9976     9715     9865    10610    11742    12875    14007    15363 
   16685    17576    18100    18384    18454    18412    18295    18145 
   17985    17607    16833    15746    14466    12954    11110     8885 
    6332     3794     1637      -63    -1278    -2201    -3302    -4823 
   -6875    -9494   -12325   -14878   -16854   -18187   -19299   -20873 
  -23082   -25432   -27548   -29434   -30769   -31128   -30565   -29214 
  -27318   -25390   -23659   -22172   -21158   -20577   -20061   -19529 
  -19137   -18781   -18301   -17756   -17079   -16070   -14662   -12952 
  -11353   -10163    -9130    -8009    -6856    -5756    -4567    -3044 
   -1274      467     2021     3245     4016     4348     4422     4418 
    4321     3958     3155     1918      426    -1173    -2826    -4453 
   -5852    -6860    -7633    -8541    -9807   -11492   -13490   -15451 
  -17148   -18596   -19798   -20847   -21802   -22422   -22535   -22395 
  -22274   -22053   -21632   -21273   -21170   -21371   -22040   -23317 
  -25167   -27318   -29581   -32077   -34898   -38103   -41612   -44940 
  -47696   -49857   -51393   -52175   -52310   -52108   -51723   -51214 
  -50671   -50169   -49872   -50025   -50650   -51396   -51913   -52185 
  -52283   -52073   -51359   -50104   -48566   -47030   -45389   -43590 
  -42068   -41125   -40496   -39917   -39406   -38790   -37825   -36566 
  -35136   -33582   -31854   -29882   -27773   -25700   -23814   -22286 
  -21015   -19577   -17749   -15680   -13547   -11464    -9574    -7787 
   -5807    -3569    -1040     1974     5331     8565    11264    13139 
   14103    14285    13920    13130    12017    10866     9761     8597 
    7306     5643     3553     1259    -1193    -3511    -5459    -7223 
   -8479    -9087    -9770   -10962   -12727   -14843   -16681   -17800 
  -17954   -17142   -15764   -14268   -13085   -12373   -11749   -10889 
   -9905    -8958    -8031    -7059    -5957    -4764    -3858    -3460 
   -3505    -4004    -4655    -5032    -5005    -4528    -3756    -2959 
   -2389    -2172    -2136    -2172    -2459    -3282    -4583    -5998 
   -7399    -8807   -10270   -11837   -13407   -14987   -16832   -19212 
  -22071   -24983   -27537   -29617   -31273   -32334   -32573   -32158 
  -31503   -30938   -30467   -29797   -28631   -26812   -24432   -21630 
  -18540   -15560   -13117   -11464   -10627   -10345   -10473   -11095 
  -12401   -14650   -17726   -21043   -23859   -25662   -26516   -26787 
  -26773   -26745   -26828   -26707   -25984   -24865   -23829   -22970 
  -22138   -21282   -20404   -19359   -17839   -15683   -13085   -10315 
   -7427    -4382    -1349     1549     4412     7004     9094    10860 
   12095    12293    11388     9570     7115     4559     2505     1298 
     879      974     1384     1815     1924     1883     2080     2570 
    3221     3736     3945     4053     4314     4933     5829     6654 
    7280     7546     7134     6223     5317     4490     3732     3282 
    3207     3378     3801     4477     5096     5423     5455     4932 
    3626     1880      347     -468     -607     -558     -659     -923 
   -1277    -1814    -2588    -3384    -4081    -4751    -5437    -6206 
   -7184    -8495   -10069   -11596   -12858   -13978   -15231   -16737 
  -18570   -20955   -23936   -27104   -29953   -32140   -33626   -34810 
  -36047   -37371   -38645   -39521   -39918   -40165   -40297   -40148 
  -39957   -40091   -40641   -41670   -43080   -44297   -44844   -44683 
  -43898   -42482   -40456   -37973   -35120   -32029   -29099   -26609 
