Origin Time       2011/03/11 14:46:00
Lat.              38.103
Long.             142.860
Depth. (km)       24
Mag.              9.0
Station Code      AKT003
Station Lat.      40.2784
Station Long.     140.2631
Station Height(m) 35
Record Time       2011/03/11 14:47:25
Sampling Freq(Hz) 100Hz
Duration Time(s)  300
Dir.              U-D
Scale Factor      3920(gal)/6182761
Max. Acc. (gal)   20.051
Last Correction   2011/03/11 14:47:10
Memo.             
[...]
  -23739   -23626   -24276   -25178   -25892   -25896   -24893   -23119 
  -21483   -20960   -21389   -21887   -22102   -21965   -21261   -20072 
  -18852   -17990   -17457   -16790   -15681   -14545   -14032   -14233 
  -14909   -16023   -17596   -19383   -20928   -21899   -22326   -22353 
  -22101   -22027   -22773   -24223   -25291   -25095   -23782   -21800 
  -19293   -16734   -15101   -14642   -14556   -14297   -13887   -13248 
  -12378   -11669   -11465   -11611   -11813   -12119   -12604   -13211 
  -14058   -15150   -16097   -16468   -15971   -14669   -13252   -12261 
  -11333    -9889    -7954    -6058    -4639    -3451    -2093     -993 
    -752    -1078    -1385    -1796    -2815    -4617    -7100    -9914 
  -12478   -14466   -15813   -16542   -16898   -17091   -17270   -17630 
  -18053   -18394   -18899   -19707   -20593   -21435   -22536   -24340 
  -26743   -29008   -30572   -31473   -31762   -31266   -30378   -29951 
  -29975   -29744   -29152   -28492   -27751   -26975   -26573   -26760 
  -26907   -26085   -24394   -22739   -21402   -20171   -19438   -19458 
  -19481   -19105   -19037   -19670   -20367   -20493   -20034   -19055 
  -17574   -16055   -15226   -15303   -15802   -16177   -16319   -16016 
  -14794   -12949   -11182    -9286    -6895    -4467    -2575    -1308 
    -407      525     1461     1852     1616     1268      903      426 
     198      415      885     1522     2159     2496     2566     2437 
    2008     1539     1444     1789     2432     3125     3651     4215 
    5201     6301     6663     6101     5288     4914     5234     5968 
    6664     7257     7727     7814     7659     7611     7240     5918 
    3872     1486    -1413    -4779    -8011   -10770   -13048   -14705 
  -15757   -16628   -17619   -18544   -19115   -19248   -18960   -18267 
  -17137   -15732   -14545   -13930   -13901   -14435   -15552   -17115 
  -18643   -19616   -20052   -20388   -20887   -21614   -22715   -24126 
  -25256   -25562   -25037   -23742   -21487   -18399   -15223   -12506 
  -10125    -7994    -6517    -6056    -6420    -7161    -8091    -9234 
  -10447   -11386   -11838   -11653   -10659    -9169    -7830    -6793 
   -5851    -4897    -3688    -2035     -386      507      331     -849 
   -2755    -4704    -6038    -6787    -7433    -8315    -9535   -11221 
  -13417   -15676   -17363   -18362   -18938   -19083   -18527   -17423 
  -16535   -16356   -16576   -16736   -16792   -16895   -17194   -17992 
  -19348   -20542   -20768   -20015   -18793   -17538   -16478   -15782 
  -15567   -15634   -15492   -14975   -14448   -14143   -14010   -14173 
  -14573   -14537   -13538   -11638    -9050    -6231    -3946    -2531 
   -1715    -1006       33     1298     2428     3596     4946     5962 
    6271     6066     5449     4234     2560     1013      -64     -842 
   -1638    -2743    -4210    -5652    -6706    -7309    -7578    -7962 
   -8960   -10538   -12284   -13813   -15037   -16274   -17803   -19605 
  -21648   -23772   -25623   -26978   -27764   -28121   -28500   -29317 
  -30657   -32176   -33321   -33972   -34416   -34719   -34750   -34541 
  -34178   -33541   -32463   -30886   -28768   -26317   -24030   -22005 
  -20008   -18199   -16845   -15690   -14359   -12935   -11734   -10728 
   -9624    -8552    -7893    -7400    -6739    -6368    -6691    -7518 
   -8722   -10197   -11484   -12119   -12121   -11877   -11626   -11598 
  -12220   -13403   -14546   -15425   -15914   -15654   -14858   -14091 
  -13217   -11749    -9757    -7681    -5674    -3737    -2250    -1696 
   -1880    -2148    -2314    -2561    -2809    -3214    -4367    -6109 
   -7756    -9492   -11726   -13931   -15323   -15806   -15759   -15515 
  -15440   -15776   -16249   -16503   -16467   -16064   -15200   -13902 
  -12246   -10360    -8413    -6434    -4279    -1876      611     2686 
    3666     3397     2481     1542      844      401     -203    -1579 
   -3783    -6273    -8495   -10165   -11326   -12075   -12388   -12586 
  -13117   -13907   -14783   -15668   -16292   -16657   -16975   -17140 
  -17206   -17549   -18251   -19068   -19699   -20014   -20322   -20861 
  -21222   -20892   -19881   -18679   -17894   -17669   -17791   -18418 
  -19724   -21285   -22776   -24357   -25923   -27100   -27862   -28399 
  -28904   -29434   -29594   -29003   -27809   -26252   -24682   -23894 
  -24338   -25402   -26280   -26887   -27267   -27066   -26189   -25185 
  -24497   -23967   -23467   -23366   -23985   -25001   -25762   -26144 
  -26709   -27783   -28869   -29275   -28796   -27647   -26065   -24072 
  -21712   -19300   -17059   -14920   -12864   -10871    -8871    -7025 
   -5469    -4118    -3066    -2496    -2170    -1493     -183     1089 
    1257      373     -569    -1199    -1608    -1531    -1087     -949 
   -1469    -2464    -3395    -3839    -3754    -3055    -2177    -2230 
   -3222    -4126    -4814    -5850    -7272    -8773   -10231   -11777 
  -13426   -14776   -15406   -15142   -13988   -12348   -10891    -9983 
   -9581    -9460    -9365    -9129    -8817    -8818    -9512   -10699 
  -11735   -12154   -12054   -12009   -12321   -12530   -12238   -11856 
  -11869   -12143   -12442   -12900   -13677   -14639   -15621   -16601 
  -17456   -17960   -18122   -18095   -17826   -17314   -16913   -16665 
  -16135   -15488   -15321   -15420   -15191   -14618   -13957   -13382 
  -13079   -13175   -13643   -14240   -14691   -15063   -15661   -16363 
  -16719   -16787   -16919   -17082   -17308   -17917   -18664   -18685 
  -17712   -16398   -15257   -14299   -13584   -13264   -13340   -13763 
  -14460   -15249   -15986   -16646   -17309   -18346   -20184   -22621 
  -24920   -26561   -27520   -28030   -28364   -28875   -29920   -31485 
  -33211   -34939   -37001   -39430   -41401   -42391   -42698   -42330 
  -41084   -39225   -36960   -34318   -31467   -28453   -25342   -22425 
  -19807   -17495   -15702   -14639   -14451   -15148   -16276   -17227 
  -17668   -17397   -16495   -15300   -13667   -11049    -7475    -3738 
    -507     2147     4190     5492     6309     7169     8525    10501 
   12605    14074    14555    14193    13269    11935    10302     8659 
    7200     5579     3558     1643      130    -1104    -1597    -1010 
      28     1029     2005     2677     2728     2091      654    -1533 
   -4274    -7389   -10385   -12992   -15560   -18159   -20422   -22084 
  -22907   -22908   -22559   -22138   -21547   -20999   -20869   -21070 
  -21480   -22115   -22626   -22766   -22846   -23046   -22981   -22225 
  -20968   -19816   -18980   -18160   -17301   -16784   -16669   -16679 
  -17025   -18183   -20157   -22709   -25530   -27916   -29348   -30132 
  -30596   -30647   -30431   -30053   -29111   -27206   -24087   -19778 
  -14981   -10684    -7506    -5471    -4084    -2891    -1949    -1377 
    -894     -343      107      392      466      358      301      276 
     127      -63     -291     -748    -1461    -2271    -3109    -3935 
   -4675    -5445    -6357    -7289    -8237    -9317   -10299   -10903 
  -11372   -12069   -12940   -13819   -14764   -15834   -16924   -17979 
  -19288   -21189   -23525   -25835   -27817   -29408   -30643   -31377 
  -31331   -30569   -29579   -28736   -27897   -26794   -25648   -24841 
  -24271   -23750   -23529   -23729   -23925   -23725   -23060   -22236 
  -21894   -22175   -22630   -22974   -23012   -22483   -21367   -20069 
  -18884   -17467   -15751   -14152   -12622   -11093    -9630    -8046 
   -6937    -7146    -8044    -8818    -9682   -10675   -11521   -12094 
  -12060   -11249    -9922    -8194    -6213    -4617    -3832    -3516 
   -3436    -3784    -4433    -5529    -7656   -10333   -12594   -14347 
  -15467   -15574   -14873   -13842   -12805   -11960   -11296   -10637 
   -9808    -8757    -7460    -5861    -4306    -3352    -2877    -2257 
   -1171       70     1025     1822     2409     2070      744     -791 
   -2383    -4338    -6175    -7334    -8287    -9584   -10690   -10815 
  -10256    -9813    -9459    -8890    -8423    -8145    -7393    -6089 
   -5227    -5458    -6330    -6958    -7034    -6982    -7192    -7723 
   -8577    -9629   -10694   -11871   -13302   -14894   -16697   -18839 
  -20962   -22550   -23565   -24392   -25612   -27417   -29129   -30094 
  -30319   -30087   -29755   -29397   -28775   -28011   -27565   -27685 
  -28263   -29001   -29770   -30433   -30571   -30199   -29894   -29772 
  -29301   -28134   -26653   -25592   -25333   -25902   -27044   -28269 
  -29459   -30714   -31618   -31747   -31366   -30851   -29936   -28069 
  -25291   -22199   -19325   -17009   -15467   -14577   -13771   -12451 
  -10503    -8310    -6356    -4951    -4184    -3986    -4176    -4483 
   -4699    -4830    -5021    -5351    -5642    -5662    -5589    -5909 
   -6809    -7960    -8855    -9196    -8868    -7688    -5886    -4411 
   -3840    -3824    -4228    -5299    -6514    -7218    -7864    -9077 
  -10666   -12160   -13371   -14461   -15439   -15982   -16325   -17175 
  -18415   -19315   -19909   -20682   -21407   -21691   -21692   -21537 
  -21282   -21063   -20879   -20954   -21529   -22357   -23167   -23866 
  -24350   -24610   -24763   -25021   -25517   -26256   -27132   -27709 
  -27605   -26969   -25900   -24319   -22603   -21270   -20325   -19537 
  -18862   -18354   -17915   -17440   -17154   -17387   -18135   -19272 
  -20793   -22449   -23902   -25244   -26399   -26789   -26347   -25495 
  -24072   -21781   -19395   -17913   -16945   -15802   -14931   -14674 
  -14489   -14081   -13911   -14381   -15103   -15582   -16090   -16908 
  -17577   -17635   -17352   -17168   -16909   -16310   -15381   -13983 
  -12231   -10471    -8687    -7173    -6460    -6327    -6477    -7106 
   -7939    -8313    -8353    -8559    -8971    -9560   -10105   -10071 
   -9417    -8513    -7709    -7202    -6574    -5368    -3818    -2181 
    -343     1794     4009     5991     7806     9419    10493    11132 
   11582    11657    11274    10538     9354     7828     6549     5954 
    5832     5680     5288     4823     4272     3274     1927      833 
     163      -78      471     1653     2726     3455     4042     4597 
    5198     5569     5039     3450     1240    -1288    -3794    -5759 
   -7163    -8525   -10126   -11742   -13066   -13918   -14110   -13608 
  -12716   -11810   -11079   -10622   -10539   -10676   -10635   -10252 
   -9674    -9044    -8534    -8408    -8853    -9903   -11391   -12970 
  -14300   -15278   -16128   -17182   -18528   -19938   -21285   -22670 
  -23917   -24751   -25211   -25190   -24502   -23579   -23041   -22902 
  -22814   -22470   -21686   -20525   -19126   -17887   -17621   -18499 
  -19670   -20494   -20995   -21129   -20664   -19745   -18801   -18038 
  -17502   -17206   -17097   -16971   -16413   -15376   -14387   -13686 
  -12883   -11825   -11121   -11306   -12223   -13394   -14196   -14113 
  -13089   -11407    -9671    -8531    -7849    -6821    -5152    -3243 
   -1297      710     2463     3522     3495     2104     -104    -1939 
   -2865    -3211    -3499    -4022    -4681    -5414    -6494    -7900 
   -9144   -10029   -10790   -11464   -11871   -12181   -12809   -13850 
  -14909   -15426   -15223   -14465   -13282   -11812   -10252    -8882 
   -7830    -6679    -5170    -3734    -2768    -2531    -3370    -5108 
   -7011    -8633   -10003   -10960   -11187   -11031   -11200   -11880 
  -12907   -14263   -16026   -17954   -19384   -20099   -20646   -21197 
  -21365   -21234   -21134   -20860   -20110   -19013   -17881   -17125 
  -17240   -18318   -19875   -21313   -22336   -22879   -22855   -22291 
  -21427   -20588   -20048   -19656   -18987   -18065   -17296   -16839 
  -16627   -16656   -16889   -17259   -17771   -18302   -18776   -19324 
  -19923   -20471   -20780   -20493   -19830   -19438   -19370   -19573 
  -20330   -21122   -20924   -19964   -19104   -18448   -18121   -18481 
  -19194   -19757   -20024   -19857   -19491   -19475   -19972   -20919 
  -22267   -23873   -25629   -27310   -28508   -29197   -29656   -29783 
  -29295   -28219   -26794   -25411   -24346   -23461   -22752   -22409 
  -22187   -21672   -20820   -19979   -19502   -19124   -18363   -17377 
  -16588   -16013   -15387   -14399   -12711   -10251    -7592    -5377 
   -3531    -1696       17     1286     2052     2259     1862     1393 
    1453     1983     2761     3632     4240     4435     4492     4586 
    4562     4217     3548     2720     1834      906      149     -223 
    -534    -1183    -1985    -2665    -3465    -4935    -7243    -9866 
  -12226   -14052   -15040   -15093   -14521   -13616   -12440   -10933 
   -9178    -7663    -6780    -6260    -5693    -5313    -5679    -6826 
   -8456   -10593   -13191   -15683   -17712   -19511   -21092   -21997 
  -21977   -21301   -20439   -19549   -18584   -17911   -17872   -17946 
  -17641   -17500   -18029   -18813   -19491   -20234   -21169   -22283 
  -23420   -24333   -25063   -25778   -26421   -26956   -27637   -28636 
  -29643   -30229   -30223   -29801   -29470   -29485   -29608   -29804 
  -30199   -30592   -30890   -31232   -31347   -30862   -30017   -29206 
  -28540   -28131   -27987   -27925   -27927   -28045   -28060   -27572 
  -26547   -25508   -24886   -24624   -24374   -23773   -22858   -21948 
  -21153   -20523   -20027   -19217   -17504   -14601   -10674    -6357 
   -2337     1038     3619     5552     7378     9177    10334    10813 
   11163    11328    11095    10889    11038    11377    11968    13147 
   14818    16501    17786    18370    17942    16181    13284    10236 
    7538     4713     1759     -751    -2823    -4679    -6329    -7865 
   -9178   -10123   -10933   -11510   -11432   -10852   -10198    -9622 
   -9383    -9784   -10714   -11888   -13037   -14017   -15045   -16293 
  -17751   -19440   -21177   -22860   -24538   -25754   -25905   -25024 
  -23555   -21986   -20665   -19592   -18685   -17994   -17382   -16507 
  -15215   -13724   -12515   -11988   -12167   -12856   -13950   -15347 
  -16742   -17928   -18837   -19414   -20040   -21094   -22181   -22972 
  -23657   -24199   -24685   -25726   -27344   -28752   -29514   -29662 
  -29246   -28412   -27497   -26974   -26756   -25916   -23879   -21002 
  -17882   -15053   -13150   -12481   -12599   -13012   -13546   -13810 
  -13599   -13205   -12704   -12086   -11645   -11465   -11221   -10673 
  -10079   -10068   -10905   -12176   -13646   -15533   -17356   -18196 
  -18244   -18316   -18683   -19376   -20391   -21457   -21989   -21417 
  -20053   -19013   -18771   -18731   -18292   -17255   -15436   -12914 
  -10143    -7657    -5935    -4923    -4088    -3385    -2953    -2315 
   -1250     -329       97      128     -184     -546     -535     -287 
    -131       49      543     1235     1435      626     -625    -1416 
   -1689    -1716    -1470    -1112    -1163    -1940    -3152    -4177 
   -4633    -4577    -4343    -4410    -5112    -6337    -7929    -9905 
  -11925   -13403   -14155   -14494   -14873   -15402   -15916   -16350 
  -16462   -15784   -14367   -12801   -11426   -10376    -9773    -9276 
   -8644    -8569    -9550   -10908   -12142   -13785   -16135   -18585 
  -20615   -22469   -24468   -26267   -27475   -28365   -29189   -29648 
  -29716   -29838   -29983   -29818   -29505   -29221   -28992   -29117 
  -29724   -30715   -32000   -33092   -33524   -33302   -32418   -31004 
  -29634   -28704   -27964   -26772   -24843   -22669   -20776   -19098 
  -17555   -16390   -15567   -14681   -13562   -12274   -10801    -9302 
   -8227    -7798    -7751    -7723    -7466    -6774    -5686    -4528 
   -3543    -2708    -1921    -1260     -933     -956    -1072    -1048 
   -1026    -1468    -2646    -4402    -6368    -8314   -10399   -12845 
  -15353   -17350   -18776   -19970   -20825   -20966   -20768   -21046 
  -21874   -22575   -22661   -22230   -21593   -21061   -21019   -21499 
  -22162   -23048   -24204   -25052   -25515   -26430   -27800   -28508 
  -28160   -27435   -26627   -25308   -23428   -21650   -20546   -20104 
  -19983   -19982   -19983   -19708   -19059   -18177   -16987   -15464 
  -14122   -13399   -12987   -12396   -11602   -10723    -9707    -8540 
   -7426    -6612    -6143    -5858    -5492    -4810    -3882    -3167 
   -3199    -4128    -5610    -7277    -9011   -10609   -11775   -12708 
  -13966   -15612   -17269   -18733   -19920   -20738   -21248   -21583 
  -21887   -22208   -22340   -22246   -22088   -21474   -19983   -18295 
  -17484   -17733   -18564   -19424   -19707   -19301   -18757   -18508 
  -18949   -20439   -22373   -23779   -24593   -25210   -25772   -26212 
  -26488   -26784   -27148   -27089   -26186   -24600   -22726   -21028 
  -19917   -19358   -19085   -18972   -18855   -18615   -18514   -18822 
  -19458   -20430   -21783   -23006   -23509   -23298   -22505   -21189 
  -19771   -18574   -17472   -16353   -15050   -13465   -12008   -10956 
  -10063    -9136    -8190    -7322    -6478    -5440    -4386    -3708 
   -3226    -2468    -1454     -718     -556     -663     -779    -1176 
   -2122    -3289    -4216    -5174    -6832    -9201   -11733   -14313 
  -17155   -19749   -21096   -20961   -19741   -17632   -14917   -12364 
  -10558    -9266    -8024    -6755    -5535    -4650    -4607    -5435 
   -6551    -7458    -8079    -8418    -8380    -8155    -8326    -9014 
   -9451    -9133    -8498    -7910    -7449    -7420    -7956    -8971 
  -10422   -12003   -13477   -14973   -16289   -17010   -17492   -18421 
  -19690   -20859   -22025   -23311   -24241   -24256   -23339   -21855 
  -20257   -19012   -18315   -17830   -17089   -16120   -15263   -14691 
  -14523   -14931   -16023   -17640   -19175   -20232   -21155   -22266 
  -23272   -23814   -24056   -24373   -24551   -24013   -22872   -21931 
  -21653   -21847   -22386   -23304   -24201   -24671   -24933   -25285 
  -25717   -26151   -26349   -25961   -24818   -22954   -20668   -18560 
  -16899   -15345   -13769   -12477   -11503   -10748   -10450   -10631 
  -10739   -10308    -9444    -8660    -8221    -7530    -5996    -4148 
   -2790    -2009    -1533    -1219    -1132    -1258    -1332    -1375 
   -1629    -1785    -1500    -1211    -1349    -1741    -2208    -2735 
   -3214    -3521    -3717    -4266    -5608    -7320    -8592    -9320 
   -9851   -10196   -10330   -10706   -11627   -12909   -14297   -15269 
  -15351   -15000   -14795   -14452   -13583   -12363   -11155   -10200 
   -9603    -9279    -8905    -8075    -6637    -4892    -3227    -1552 
     391     2331     3833     4951     5882     6632     7314     7989 
    8436     8610     8632     8361     7660     6594     5178     3525 
    2000      981      582      521      493      633     1215     2020 
    2592     2968     3428     3864     3991     3639     2647      999 
   -1119    -3509    -5771    -7352    -8170    -8630    -9093    -9765 
  -10647   -11545   -12425   -13289   -13917   -14347   -14887   -15399 
  -15473   -15008   -14085   -12835   -11567   -10615   -10083    -9932 
  -10199   -10985   -12216   -13538   -14534   -14908   -14724   -14730 
  -15610   -17053   -18384   -19352   -19986   -20424   -20734   -20888 
  -20894   -20644   -20081   -19494   -18917   -17816   -16146   -14724 
  -13870   -12991   -11873   -10993   -10665   -10816   -11254   -11965 
  -13035   -14050   -14209   -13343   -12032   -10633    -9087    -7554 
