Origin Time       2011/03/11 14:46:00
Lat.              38.103
Long.             142.860
Depth. (km)       24
Mag.              9.0
Station Code      AKT023
Station Lat.      39.1464
Station Long.     140.7161
Station Height(m) 277
Record Time       2011/03/11 14:46:59
Sampling Freq(Hz) 100Hz
Duration Time(s)  300
Dir.              U-D
Scale Factor      3920(gal)/6182761
Max. Acc. (gal)   56.912
Last Correction   2011/03/11 14:46:44
Memo.             
[...]
   -3773    -3218     2739    12800    20882    22979    19037    12797 
    5595    -5909   -19497   -28818   -32049   -28585   -22221   -23453 
  -33949   -43869   -46135   -39788   -27609   -14888    -5763    -4311 
  -14243   -33123   -53635   -66689   -64163   -49832   -38259   -35540 
  -33886   -25175   -11172     -690      704    -4179    -8114    -7433 
   -4585    -1226     3719     9592    14582    16847    15795    13822 
   12367    10790     9807     8495     3137    -5820   -12618   -12484 
   -6888    -4568   -13384   -30491   -46157   -53849   -51929   -42691 
  -33164   -28720   -27139   -25073   -22618   -19805   -17665   -18153 
  -19171   -17375   -13368    -8963    -4966    -3069    -4191    -7348 
  -12731   -18923   -20332   -13310     -312    11281    15685    14054 
    9646     5270     2872     -589    -6860   -10610    -9298    -5780 
     349     9041    12674     4585   -12070   -30233   -45505   -55366 
  -59159   -58077   -54981   -53494   -53083   -50312   -46166   -43523 
  -41235   -38711   -38350   -39917   -41070   -39183   -30958   -19833 
  -14321   -13991   -12252    -7936    -3193     1088     4459     5734 
    4267     5420    16164    30558    35771    30372    21265    13018 
    8072     6132     3632     1046     3517     9856    13085    11054 
    6642     4616     5541      425   -14830   -30038   -36423   -36648 
  -36998   -38293   -35542   -27457   -20961   -21913   -27621   -29049 
  -21654   -13712   -14100   -19151   -20055   -12504      842    12462 
   18332    21318    24277    24024    15598     1298   -10035   -10791 
    -529    12010    16820    13639    10242    10967    12787    12520 
   10918    10828    14795    21240    22886    13921     -948   -11788 
  -14105    -8730     -695     2959     -502   -10095   -22574   -30481 
  -27438   -14715      358     7727      291   -17117   -29186   -25231 
  -11217    -1960    -4134   -13953   -24775   -32347   -36875   -38753 
  -36117   -29939   -23810   -18765   -15048   -14011   -14682   -15487 
  -15822   -13509    -8643    -3859      125     1660     -273    -3321 
   -7812   -13539   -13670    -4876     6832    14156    13097     6164 
    2968     7856    13608    12910     7078     3870     9153    18262 
   21690    18998    17683    20895    22214    13005    -5180   -21049 
  -26109   -20612   -12475   -10080   -12113   -12716   -12167   -13725 
  -17446   -19879   -19518   -22347   -32535   -40862   -36380   -23049 
  -13132   -11670   -15278   -20104   -25330   -29968   -28948   -18062 
   -1872    10362    13518     8930      122   -11107   -20822   -24757 
  -24775   -21521   -10828     5557    18208    20308    14040     7514 
    7103    12157    16654    15902    10627     4473    -3266   -17441 
  -35728   -48049   -48024   -37309   -23594   -15477   -14462   -14681 
  -13251   -13386   -14142   -10295    -2314     4281     3785    -4518 
  -11351    -7849     -140    -1418   -12494   -22829   -26196   -23182 
  -15039    -3301     7328    11058     7701     1373    -4527    -7980 
  -11932   -20114   -28504   -34692   -42383   -50181   -53804   -53117 
  -49289   -45264   -45768   -50866   -53851   -49124   -40643   -36663 
  -37121   -35199   -29986   -26746   -26724   -25064   -15781     1897 
   20886    33217    35568    29562    20974    13084     6129     3127 
    5869    12325    17020    11373    -3920   -17522   -25545   -32745 
  -38525   -36567   -26760   -17905   -14546   -12725   -11706   -14086 
  -18794   -26082   -37522   -49328   -56351   -57309   -53259   -44557 
  -32056   -21918   -18400   -15030    -6535     2284     5105     -864 
  -11329   -14172    -4875     6879    13144    14806    13457     9430 
    4095     -435      595    10805    22718    22731     8846    -5466 
   -7285     1631     9123     7845     4366     7011     8889     1632 
   -6834    -7794    -5561    -9458   -25269   -47487   -61779   -63931 
  -62780   -64309   -68498   -72820   -70674   -58356   -42096   -30437 
  -24435   -18890   -10573    -1293     3925     -742   -12724   -18360 
  -11707    -3625    -1562    -1010     -308    -1677    -4072    -5597 
   -3446     4032    11551    11451     2876    -7777   -14138   -14938 
  -13966   -15799   -19769   -22551   -22248   -15395    -2362     7281 
    5792    -5269   -17657   -22196   -19754   -16910   -12187    -4810 
    -171     2209     5459     8508    11686    15251    16050    11737 
    1688   -12248   -23133   -25341   -21322   -16445   -14299   -16993 
  -22933   -28350   -31069   -28200   -18424    -9778   -12596   -25107 
  -36671   -40194   -37022   -33629   -31572   -24238    -9741     3578 
   10113    10879     7516     3688      924    -6284   -21002   -38718 
  -52780   -57814   -54442   -48824   -41680   -29919   -17349    -8696 
   -1690     6514    14830    20276    19746    13529     5843      983 
    3447    15305    28977    34229    31194    26633    24783    24080 
   19302    10885     4360      754    -1905    -6231   -15082   -25706 
  -31071   -27982   -20482   -14932   -13354   -14788   -17599   -20563 
  -27694   -43640   -61408   -69557   -70519   -70621   -63180   -46248 
  -32945   -29010   -27867   -24055   -13301     3931    15977    13606 
    1481   -11793   -20446   -18231    -4952     6856     6184    -3379 
  -12463   -15038   -10140    -2632     3002     5007      136   -12223 
  -25678   -31319   -26408   -18775   -16064   -16140   -16181   -16943 
  -15382    -9540    -3745     1063     5872     5855      539    -3460 
   -3917    -3796    -6388   -11309   -13770   -11768    -8431    -7954 
  -13197   -21410   -25315   -22959   -19224   -16557   -11770    -2686 
    8432    16811    16530     5875    -8812   -19619   -24339   -26818 
  -31945   -39302   -42626   -38106   -30541   -26342   -25512   -25282 
  -25316   -27912   -35350   -44262   -47352   -43340   -36720   -31095 
  -28695   -29045   -27972   -23032   -16572   -11557    -9706   -12430 
  -15666   -12528    -5144      853     4543     2274    -8472   -19581 
  -22636   -16808    -6380    -3022   -15150   -33392   -43185   -41488 
  -34878   -29909   -25833   -18112    -6056     6272    13330    13065 
    7278    -1952   -11974   -19828   -23868   -23659   -21038   -19887 
  -21922   -23969   -21921   -15194    -7227    -5129   -11730   -17922 
  -13833      718    20010    33793    34768    28095    21078    15854 
   13740    12637     8697     3063     -179     1162     5104     6121 
      81   -10429   -17779   -18277   -15457   -13356   -12484   -11576 
   -9481    -7079    -6619    -8972   -13211   -14964    -9104     1413 
    9924    15262    17629    18057    20026    22613    22953    22420 
   22397    22427    22547    22298    19288    12367     5549     1716 
   -3416   -12433   -22369   -32968   -44601   -52542   -52836   -46450 
  -36800   -27727   -22552   -23439   -28246   -30351   -25347   -13898 
    -664     6243     2198    -8324   -18350   -24078   -24287   -21597 
  -20036   -18730   -14273    -8202    -4500    -1995     2893    10094 
   16821    18417    11455      862    -5356    -8478   -14385   -21479 
  -22308   -11864     3977     9032    -2913   -20809   -34868   -40544 
  -34002   -20553    -9420    -1846     2124     1424      501     2137 
     153   -12392   -32904   -49041   -48454   -30336    -5910    11625 
   16313    14075    14533    16018    10919    -1458   -17402   -30800 
  -34415   -27922   -16812    -4750     5459    10825    12586    13726 
   13957    12404     8401      558    -8961   -16323   -22627   -28758 
  -31492   -32051   -33959   -35085   -32811   -24653    -7510    12418 
   22912    19078     4854    -8803   -12351   -10850   -14120   -22075 
  -30618   -35153   -31001   -21669   -16056   -16693   -20574   -25715 
  -29791   -30072   -27046   -21715   -14226    -7843    -6671    -8972 
   -8385    -4310    -3509    -9600   -22028   -37116   -44322   -38338 
  -27307   -18557   -13020   -11225   -12602   -15138   -16365   -14738 
  -13182   -15588   -21343   -24698   -14320    15253    49512    68056 
   64952    47661    29597    20575    18771    17185    12427     5743 
    1020    -2381   -10252   -20760   -25703   -22950   -13244     1917 
   14310    16312     9730      101    -9628   -17325   -19737   -15917 
   -9170    -4097    -4641   -10874   -17709   -20558   -17401    -8817 
    -722     1408    -1865    -9063   -18513   -26111   -29502   -30468 
  -30640   -25868   -11936     4102     9000    -1640   -18459   -26820 
  -20815    -7485     3568     9026     9482     4118    -7814   -22026 
  -31257   -31860   -26739   -21827   -19199   -17124   -15487   -16479 
  -20898   -25416   -26224   -25004   -26337   -31606   -37847   -38388 
  -27299    -6614    14805    28152    28212    16077     -253   -12751 
  -18879   -18270   -11753    -4446     -479     2586     8468    17276 
   26281    31873    32888    30822    26041    18343     9937     3728 
    1472     2687     3394      825    -4227   -11122   -18356   -24044 
  -29785   -37673   -46158   -51349   -51924   -51132   -51896   -54975 
  -57291   -49312   -28378    -5561    11053    19915    18911    12401 
    9093     8149     2428    -9608   -23506   -31399   -26834   -13925 
   -1793     6319    10243    10204     6570    -1764   -13110   -20291 
  -16957    -4247     9768    14622     6090    -7351   -15497   -18583 
  -22401   -30632   -40261   -43339   -37901   -27715   -14944    -4846 
   -5268   -16489   -31651   -43781   -48269   -44539   -38559   -37009 
  -36931   -31727   -22719   -13707    -6835    -5707    -8477    -6780 
    3198    19797    39561    53929    53209    39924    28867    27669 
   27921    21716    12764     7309     6161     6235     4378     -546 
   -6922   -13122   -21803   -34747   -46905   -51680   -47818   -40585 
  -35643   -35255   -43400   -61290   -79056   -87783   -90087   -88225 
  -79230   -64381   -45690   -23384    -4475     4972     7751     5690 
   -1744   -11974   -19466   -18108    -8397     2007     9753    19843 
   34667    44894    40888    27995    17335    11423     7678     5098 
    5807    12138    20622    24623    20882    11514     4481     3372 
     -52   -10858   -24368   -36179   -42058   -39531   -34430   -33233 
  -34694   -33920   -28710   -21145   -14038    -7832    -2118     2535 
    4096     -683   -11898   -22918   -27439   -27327   -28357   -32816 
  -37998   -39642   -37650   -38221   -46048   -53454   -49431   -37032 
  -25974   -19822   -17915   -17855   -19181   -23979   -29503   -29714 
  -21861    -7767     4293     6371     -385   -13303   -29413   -40517 
  -44329   -45934   -46404   -41754   -25865      -51    24358    42100 
   52816    52025    39117    17059    -8820   -27017   -33048   -34806 
  -37037   -35282   -24746    -9858    -2231    -7215   -19734   -32683 
  -42881   -49617   -49830   -42620   -35236   -33928   -36949   -38127 
  -31788   -17984    -1270    13697    22374    22175    15512     9831 
   11414    17949    23592    26164    23508    13774      627   -10841 
  -18079   -17623   -10376    -5453    -4806     -469     8965    17617 
   20124    15246     8717     6510     9018    13860    15311     6908 
  -11835   -35572   -56474   -70179   -79068   -85695   -89167   -87901 
  -80723   -68505   -54888   -43054   -35066   -32335   -33023   -35091 
  -39162   -42166   -38695   -27822   -10538     9401    24756    34837 
   44971    55633    62366    61966    56872    52667    50245    46357 
   37355    21529     5375    -1384      370     3376     3531    -3151 
  -15934   -24254   -22263   -17875   -21475   -35017   -51628   -61962 
  -61021   -49184   -30655   -13013    -2579     2254     6901    12858 
   21286    31200    33047    21559     3461   -13775   -23393   -19759 
   -7192     6209    18472    28029    31189    28230    23479    21222 
   21388    17398     5294    -7969   -15597   -19415   -21692   -22261 
  -21525   -20390   -20434   -22777   -26530   -29408   -29630   -27831 
  -27665   -31087   -34057   -33330   -28052   -13247    12332    39875 
   60719    70373    65868    49847    29202     7546   -12011   -22580 
  -20419   -11764    -7233    -8899    -9418    -6538    -7670   -18941 
  -39277   -59601   -67070   -57983   -40311   -24598   -15091    -8171 
   -3068    -3006    -5911    -7736    -8546   -11030   -14850   -14817 
  -10072    -7623   -14064   -28631   -40888   -38915   -23298    -6659 
    -291    -5878   -16538   -23372   -22972   -17406   -10026    -4383 
   -1103     1784     2493     -832    -5481   -11935   -23517   -36848 
  -44055   -39672   -22991    -1304    13865    17502    14151    13903 
   23954    40544    52933    54355    47239    36692    22482     4542 
   -9878   -11677      273    16653    25066    20685     9016    -2896 
  -11473   -14429   -15984   -25085   -41666   -58016   -68832   -72700 
  -70017   -60305   -45336   -31805   -23118   -17605   -17146   -24706 
  -34316   -37673   -34712   -27404   -17827   -11806   -11759   -13871 
  -12807    -5032     7765    20792    31388    37395    36180    29079 
   21212    16605    16197    18782    22272    24795    24385    18575 
    7546    -3799    -9986   -10883   -12394   -19382   -28923   -33105 
  -28718   -21038   -16676   -18148   -24222   -31199   -35421   -33529 
  -22580    -4676    11870    20133    20760    19254    19957    21484 
   16203     -592   -21615   -35288   -35925   -23610    -4689    12323 
   25180    34094    36475    30928    15982   -11087   -44729   -72476 
  -90319   -99631   -93609   -68632   -35695    -6364    14879    26989 
   32792    34525    30668    21789    11987     3717    -1044     2362 
   14494    28094    35945    35382    26373    11983    -3360   -19156 
  -34686   -43437   -42477   -38736   -37980   -37583   -34449   -31416 
  -32192   -36268   -41625   -47634   -54719   -63349   -72624   -80274 
  -82221   -74790   -61825   -51225   -45871   -44482   -41936   -32397 
  -18087    -5133     2166     -525   -10938   -20075   -24397   -23588 
  -16297    -7930    -3580     1857     9627    14071    16677    18088 
   11857     -590   -12595   -23973   -32045   -28809   -16333    -6216 
   -2232    -1015    -3793   -10740   -14980   -12638    -6096     1788 
    5995     2595    -2516    -1654     3451     8341    13399    19549 
   24566    25774    21470    11312    -1124   -10410   -14081   -13055 
  -10511    -9539   -10029    -9691    -7540    -3249     4070     9998 
    6055    -9134   -30683   -51281   -59989   -52452   -37396   -25291 
  -19253   -17504   -18889   -23520   -30037   -37141   -43927   -47713 
  -49470   -54827   -64792   -73396   -73133   -63213   -51129   -42123 
  -36692   -34497   -32057   -27570   -26483   -30993   -32605   -24394 
  -12168    -5574    -4798    -3188     2856    10703    14708    13380 
   11752    13371    15062    12681     6775     1564     2711    11742 
   21692    27404    30954    30181    20270     4996    -6642    -7426 
    2911    15660    23568    26323    24629    18755     8392    -4041 
  -11304   -11587    -8419    -4331    -5311   -12061   -14135    -9142 
   -5327    -6547   -12168   -17013   -14227    -8264    -6794    -7257 
   -6632    -6455    -7988   -13366   -21416   -26026   -28357   -38310 
  -57217   -72949   -76478   -70198   -60526   -53608   -53091   -55554 
  -55294   -52228   -46094   -34080   -19383    -7109     2366     9869 
   16751    22931    26854    28592    25495    17213    11863    12423 
   15237    20470    25719    25844    21930    17524    15023    16120 
   19455    21506    22131    28305    43577    57121    57972    48083 
   32406    13398    -3999   -15248   -20933   -22490   -20917   -20538 
  -24100   -29433   -35365   -41611   -46672   -50021   -48804   -40298 
  -30175   -25134   -25428   -29775   -34946   -35529   -30995   -26105 
  -23984   -22721   -18467   -10039      368    10071    17658    21400 
   20056    15502    10892     8812     9117     6679    -1363   -10225 
  -16097   -20577   -23946   -24115   -19425    -8276     6015    15470 
   18999    20530    18284    10017      570    -2661     5311    22539 
   36948    37850    27792    15918     9981    13298    20575    24008 
   22431    18390    12584     4399    -5216   -14219   -22078   -29824 
  -38953   -48843   -55389   -55968   -51230   -42255   -32715   -26903 
  -24342   -22916   -19691   -10943      308     6718     7492     7194 
    6661     2877    -3610    -9801   -14725   -16881   -16496   -17866 
  -21490   -21705   -14152     -540    13017    20425    18405     8152 
   -4641   -13744   -16769   -15774   -12738    -5388     7562    18940 
   19268     8383    -6168   -16507   -18242   -14767   -13329   -14399 
  -12250    -4146     5229     9136     6215      138    -3422    -1436 
    3150     7578    11439    12169     7870      108    -8396   -15458 
  -20976   -24148   -20841   -10603      741    10234    20209    30147 
   35404    34887    30853    23763    16361    12597    10387     8011 
    6722     3302    -4836   -13779   -18100   -16395   -14186   -18166 
  -27774   -37166   -40062   -33607   -22780   -16732   -19589   -28644 
  -39368   -46845   -46369   -40581   -38743   -43571   -49879   -54263 
  -57107   -59735   -60986   -57115   -47449   -35111   -23985   -17492 
  -14973   -13703   -14829   -19198   -24318   -28620   -31978   -36139 
  -43507   -50974   -52489   -46432   -34521   -20221    -8071      524 
    6745    11892    17957    23844    24660    20252    15672    14463 
   20604    35852    51402    57245    53603    44214    32453    24121 
   21300    19873    17550    14586    10287     6495     6423     9581 
   15132    22856    27833    24634    15582     7482     3795     2809 
      69    -7572   -19147   -31542   -42771   -52039   -58254   -59552 
  -54138   -43383   -33686   -29584   -27514   -22977   -15757    -4225 
   12839    29501    38749    39218    31761    19167     7208      218 
    -724     2483     6072     7420     4237    -4754   -16105   -24371 
  -25636   -19596   -12616   -10187   -10528   -12800   -17851   -22675 
  -26316   -30939   -34234   -32713   -26311   -15137    -3322       65 
   -7599   -21220   -35868   -46659   -49435   -44552   -33649   -19176 
   -7050     -256     2640     1194    -4333   -12028   -23037   -35159 
  -39703   -34217   -25158   -17982   -16049   -19641   -20885   -12917 
    -841     7799    12862    15477    15818    17124    21046    24958 
   27026    26688    24032    21575    22058    24536    25062    21807 
   16555    11132     6512     3931     3620     4402     5392     6492 
    8505    12632    17428    18326    13354     5598    -2693   -12090 
  -21181   -26287   -26380   -25527   -27892   -31726   -33009   -30743 
  -24992   -17275   -12735   -13371   -15283   -17121   -18550   -14627 
   -4606     4903    10055    11213     8477     4013     3035     6844 
    8673     2266   -10297   -23083   -29808   -25947   -15461    -7792 
   -6918   -10438   -16638   -24678   -31145   -35496   -40617   -43764 
  -38794   -23804    -3310    11036    10335      335    -7697   -11638 
  -14634   -16554   -16099   -13097    -7718    -2022     1749     4184 
    6259     7465     7605     8267    10880    13854    15441    15860 
   14596    10937     5376    -1496    -8418   -13102   -15870   -20467 
  -28116   -35010   -36857   -34685   -33851   -35268   -35015   -31415 
