Origin Time       2011/03/11 14:46:00
Lat.              38.103
Long.             142.860
Depth. (km)       24
Mag.              9.0
Station Code      AKT007
Station Lat.      40.0460
Station Long.     140.0813
Station Height(m) 5
Record Time       2011/03/11 14:47:28
Sampling Freq(Hz) 100Hz
Duration Time(s)  300
Dir.              E-W
Scale Factor      3920(gal)/6182761
Max. Acc. (gal)   25.545
Last Correction   2011/03/11 14:47:13
Memo.             
[...]
  -33442   -34836   -35417   -34998   -33662   -31873   -30058   -28169 
  -25915   -23137   -19889   -16465   -13308   -10778    -9035    -7888 
   -6894    -5915    -4889    -3511    -1817     -146     1249     2250 
    2937     3464     3991     4554     5103     5859     7142     8831 
   10434    11661    12437    12718    12576    12075    11233     9857 
    7708     4976     1936    -1184    -3999    -6363    -8458   -10227 
  -11442   -12298   -13127   -13940   -14577   -14928   -15105   -15384 
  -16017   -17098   -18511   -19841   -20684   -20995   -20765   -20092 
  -19347   -18597   -17608   -16328   -14852   -13275   -11758   -10578 
  -10074   -10268   -10592   -10459    -9707    -8381    -6657    -4841 
   -3183    -1671     -253      814     1221      730     -711    -2765 
   -4876    -6541    -7603    -8119    -8280    -8579    -9139    -9463 
   -9109    -7887    -5694    -2694      538     3441     5695     7134 
    7863     8163     8328     8531     8635     8349     7428     5770 
    3466      824    -1665    -3772    -5688    -7455    -8797    -9512 
   -9582    -8960    -7668    -5970    -4119    -2298     -651      846 
    2246     3481     4519     5534     6708     7924     8754     8861 
    8407     7665     6745     5841     4909     3684     2153      430 
   -1315    -2811    -3834    -4263    -4028    -3148    -1838     -267 
    1498     3249     4743     5884     6913     8163     9534    10644 
   11233    11241    10575     9062     6901     4771     3385     3131 
    3786     4560     4724     3896     1986     -698    -3607    -6105 
   -7510    -7536    -6524    -5016    -3524    -2504    -2118    -2225 
   -2536    -2882    -3364    -3991    -4824    -6158    -7972    -9848 
  -11327   -12188   -12352   -11710   -10437    -8874    -7416    -6513 
   -6313    -6741    -7563    -8274    -8274    -7293    -5595    -3674 
   -2007     -912     -417     -277     -323     -604    -1046    -1644 
   -2577    -3813    -5223    -6700    -7942    -8671    -8909    -8709 
   -8019    -6881    -5383    -3746    -2339    -1375    -1029    -1272 
   -1647    -1804    -1639    -1144     -590     -330     -471     -942 
   -1436    -1530    -1138     -277     1151     2914     4409     4908 
    4003     2048     -424    -3132    -5766    -8206   -10386   -11965 
  -12844   -13199   -13258   -13327   -13564   -13898   -14162   -14259 
  -14192   -13947   -13592   -13353   -13421   -13757   -14136   -14472 
  -14674   -14478   -13676   -12384   -11091   -10021    -9251    -9028 
   -9221    -9646   -10231   -10811   -11326   -11451   -10820    -9608 
   -8160    -6772    -5726    -5219    -5483    -6599    -8310   -10300 
  -12157   -13157   -12705   -10840    -8261    -6051    -5084    -5627 
   -7332    -9426   -11192   -12354   -13024   -13490   -13989   -14470 
  -14733   -14660   -13937   -12189    -9571    -6606    -3784    -1608 
    -538     -645    -1482    -2472    -3251    -3648    -3656    -3304 
   -2588    -1750    -1171     -895     -744     -557     -150      481 
     948      677     -615    -2835    -5685    -8570   -10876   -12404 
  -13077   -12782   -11797   -10459    -8817    -7097    -5579    -4182 
   -2684     -853     1327     3487     5336     6663     7269     7347 
    7166     6863     6605     6329     5836     4994     3629     1840 
     104    -1381    -2762    -4000    -4974    -5745    -6638    -7834 
   -8929    -9711   -10173   -10072    -9496    -8504    -6979    -5177 
   -3524    -2543    -2624    -3647    -5118    -6342    -6886    -6912 
   -6669    -6110    -5367    -4896    -4673    -4119    -2800     -599 
    2150     4722     6467     7037     6432     4965     3148     1566 
     593       75     -451    -1354    -2912    -5370    -8680   -12279 
  -15418   -17544   -18333   -17848   -16500   -14752   -12948   -11088 
   -8910    -6358    -3566     -682     2046     4344     5947     6632 
    6363     5435     4605     4433     4895     5872     6993     7711 
    7822     7326     6396     5066     3189      988    -1282    -3465 
   -5175    -6275    -7008    -7573    -8019    -8301    -8543    -9018 
   -9782   -10889   -12533   -14689   -17219   -20146   -23445   -26933 
  -30388   -33624   -36427   -38438   -39404   -39289   -38086   -35853 
  -32777   -29198   -25558   -22287   -19731   -18055   -17224   -17166 
  -17779   -18851   -20154   -21298   -21913   -22057   -21793   -21288 
  -21080   -21375   -21912   -22319   -22236   -21533   -20533   -19671 
  -19000   -18509   -18304   -18216   -17814   -16745   -15116   -13374 
  -11767   -10273    -8738    -6893    -4566    -2033      114     1411 
    1643      909     -287    -1126     -889      570     2892     5378 
    7236     8129     8204     7654     6786     6134     5869     5682 
    5334     4862     4458     4191     4059     4190     4474     4446 
    3742     2322      462    -1505    -3420    -5019    -5967    -6160 
   -5593    -4523    -3469    -2624    -2049    -1961    -2357    -2980 
   -3524    -3983    -4519    -4872    -4940    -5015    -4886    -4200 
   -3098    -1830     -538      553     1122     1309     1608     1939 
    2013     1994     1981     1819     1341      499     -607    -1801 
   -2785    -3382    -3651    -3569    -3197    -2707    -2016    -1033 
      72      915     1125      702     -213    -1500    -2752    -3473 
   -3480    -3111    -3004    -3545    -4893    -6978    -9398   -11844 
  -14095   -15940   -17296   -18044   -18213   -18064   -17691   -17091 
  -16235   -14950   -13172   -11040    -8828    -6794    -5095    -3965 
   -3420    -3171    -2996    -2756    -2392    -1762     -802      146 
     801     1117     1116      797       52     -932    -1934    -2894 
   -3439    -3272    -2410    -1015      452     1585     2277     2547 
    2622     2799     3117     3346     3432     3475     3225     2549 
    1801     1252     1081     1411     2258     3593     4956     5821 
    5901     4905     2981      513    -2084    -4152    -5336    -5713 
   -5544    -4995    -4174    -3679    -4049    -5279    -7069    -8994 
  -10875   -12632   -14196   -15662   -17000   -17978   -18148   -17384 
  -16127   -14789   -13785   -13195   -12725   -12515   -12678   -12957 
  -13212   -13430   -13611   -13606   -13400   -13429   -13961   -14966 
  -16362   -17936   -19591   -21119   -22095   -22343   -21891   -21016 
  -20178   -19585   -19192   -18841   -18535   -18303   -18054   -17938 
  -18118   -18827   -20198   -21900   -23870   -26057   -27884   -28921 
  -29096   -28571   -27595   -26434   -25418   -24642   -24065   -23624 
  -22966   -21859   -20483   -19051   -17658   -16350   -15255   -14434 
  -13662   -12789   -11707   -10256    -8531    -6717    -5208    -4437 
   -4292    -4515    -4831    -4843    -4417    -3582    -2564    -1749 
   -1244     -906     -554     -187      135      748     1945     3476 
    4880     5723     5861     5567     5203     5103     5397     5936 
    6445     6619     6403     5925     5388     5123     5291     5989 
    7368     9392    11790    14009    15604    16308    15807    14230 
   11948     9159     6202     3377      923     -891    -2091    -2856 
   -3426    -3930    -4119    -3816    -3226    -2725    -2507    -2540 
   -2883    -3362    -3555    -3432    -3233    -3222    -3568    -4213 
   -4945    -5215    -4495    -2755     -135     2988     5907     8038 
    9176     9544     9522     9316     8927     8093     6652     4784 
    2763     1051      -65     -640     -638     -247      160      337 
      86     -622    -1598    -2311    -2360    -1988    -1615    -1642 
   -2432    -4119    -6408    -8837   -11195   -13171   -14490   -15205 
  -15380   -15013   -13921   -12098   -10015    -8227    -7141    -6728 
   -6789    -7381    -8365    -9392   -10177   -10432    -9948    -8642 
   -6617    -4156    -1653      382     1693     2410     2707     2882 
    3211     3534     3503     3027     2350     1531      385    -1032 
   -2650    -4315    -5726    -6630    -6736    -6019    -4737    -3485 
   -2966    -3336    -4584    -6410    -8171    -9577   -10356   -10398 
  -10042    -9499    -9038    -9131   -10118   -11995   -14313   -16579 
  -18329   -18950   -18117   -16207   -13944   -11744    -9905    -8701 
   -7920    -7365    -7031    -6566    -5564    -4080    -2793    -2291 
   -2445    -2905    -3175    -2846    -1957     -442     1575     3555 
    5002     5464     4906     3735     2386     1178      109     -925 
   -1958    -2899    -3401    -3362    -3080    -2902    -3227    -4272 
   -6008    -8251   -10589   -12727   -14597   -16167   -17415   -18263 
  -18741   -18949   -18968   -18967   -18917   -18640   -18164   -17746 
  -17729   -18142   -18933   -20244   -21839   -23196   -23936   -23791 
  -22716   -21098   -19587   -18410   -17311   -16147   -14927   -13753 
  -12865   -12582   -13163   -14369   -15702   -16763   -17090   -16556 
  -15270   -13353   -11367    -9859    -8944    -8268    -7176    -5456 
   -3365    -1345       51      373     -643    -2681    -5105    -7423 
   -9097    -9902    -9857    -8853    -7023    -4663    -2066      549 
    3111     5527     7631     9150    10049    10637    11261    12309 
   13724    14910    15367    14964    14001    12757    11337     9907 
    8377     6490     4031      958    -2397    -5533    -7941    -9276 
   -9347    -8097    -6072    -3977    -2150     -871     -324     -532 
   -1272    -2006    -2302    -1884     -784      606     1918     2810 
    3236     3529     4152     5510     7490     9839    12187    13766 
   14379    14255    13572    12651    11500     9918     7609     4340 
     591    -3046    -6204    -8537   -10010   -10772   -11056   -11149 
  -11528   -12710   -14499   -16250   -17464   -17993   -17987   -17546 
  -16886   -16158   -15411   -14889   -14474   -13756   -12697   -11601 
  -10560    -9328    -8017    -6994    -6330    -5906    -5517    -5000 
   -4452    -4336    -5030    -6271    -7555    -8502    -9055    -9573 
  -10289   -11204   -12259   -13326   -14279   -14910   -15125   -15057 
  -14890   -14802   -14885   -15096   -15120   -14746   -14203   -13726 
  -13550   -13742   -14059   -14459   -14968   -15533   -16177   -16783 
  -17117   -16982   -16293   -15052   -13349   -11490    -9698    -8170 
   -7088    -6225    -5419    -4607    -3658    -2727    -2084    -2102 
   -2944    -4501    -6788    -9501   -12261   -14971   -17653   -20524 
  -23556   -26509   -29139   -31107   -32342   -32965   -33019   -32313 
  -30703   -28592   -26470   -24567   -22956   -21619   -20616   -19894 
  -19233   -18342   -16973   -15151   -12970   -10656    -8582    -6911 
   -5586    -4394    -3275    -2348    -1481     -587      277     1186 
    2140     3053     3776     4245     4604     4859     4874     4584 
    4052     3356     2569     1998     1811     1841     1932     1933 
    1720     1262      828      946     1760     3129     4811     6337 
    7111     6612     5033     3028     1089     -357    -1249    -1725 
   -1685     -897      818     3111     5408     7453     9026     9990 
   10295     9894     8924     7549     5857     3742     1188    -1417 
   -3700    -5442    -6678    -7630    -8308    -8734    -8968    -9103 
   -9245    -9168    -8812    -8436    -8217    -8230    -8248    -7923 
   -7109    -5797    -4050    -1991        4     1542     2454     2630 
    2269     1776     1429     1391     1375      825     -518    -2580 
   -4813    -6479    -7036    -6127    -4120    -1849      200     1856 
    3145     4114     4807     5366     5775     5922     5649     4842 
    3595     1988      212    -1370    -2362    -2642    -2688    -2778 
   -2780    -2785    -2777    -2730    -2745    -2684    -2417    -1894 
   -1131     -379       -6     -232     -869    -1703    -2757    -4029 
   -5668    -7657    -9527   -11075   -12409   -13455   -14119   -14621 
  -15224   -15745   -15803   -15250   -14093   -12335    -9965    -7235 
   -4628    -2385     -486     1215     2844     4305     5578     6822 
    8155     9611    11020    12155    12820    12884    12462    11541 
    9998     8053     6017     4128     2476      923     -588    -2096 
   -3514    -4444    -4636    -4184    -3366    -2397    -1466     -765 
    -133      522     1124     1912     2947     4000     4874     5481 
    6121     6944     7801     8688     9362     9673     9834     9821 
    9554     9056     8407     7788     7262     6883     6614     6362 
    6229     6192     6143     6098     5941     5464     4535     3202 
    1563     -355    -2378    -4381    -6477    -8610   -10591   -12243 
  -13291   -13780   -14081   -14405   -14900   -15512   -16035   -16458 
  -16746   -16995   -17513   -18382   -19598   -21118   -22690   -23919 
  -24389   -23952   -22615   -20540   -18304   -16317   -14870   -14379 
  -14654   -15110   -15251   -14804   -13928   -12758   -11419   -10087 
   -8696    -7385    -6388    -5835    -5841    -6158    -6499    -6620 
   -6296    -5855    -5734    -6206    -7498    -9419   -11503   -13205 
  -14113   -14261   -13871   -13327   -13098   -13344   -14054   -15134 
  -16224   -17011   -17400   -17238   -16495   -15362   -13975   -12634 
  -11740   -11263   -10852   -10228    -9451    -8628    -7603    -6472 
   -5399    -4339    -3471    -2937    -2750    -2932    -3309    -3787 
   -4292    -4630    -4861    -5064    -5178    -5165    -4734    -3606 
   -1764      733     3750     7286    11293    15538    19927    24240 
   28131    31366    33600    34558    34204    32694    30458    27891 
   25135    22257    19369    16705    14475    12698    11307    10192 
    9126     7785     5982     3794     1296    -1434    -4081    -6388 
   -8372   -10111   -11689   -13102   -14183   -14867   -15081   -14706 
  -13904   -12917   -11980   -11369   -11074   -10918   -10780   -10434 
   -9689    -8667    -7705    -7070    -6769    -6803    -7157    -7383 
   -7219    -7108    -7247    -7425    -7774    -8486    -9433   -10431 
  -11407   -12401   -13582   -15182   -17153   -19146   -20918   -22248 
  -22840   -22589   -21675   -20344   -18675   -16860   -15363   -14445 
  -14094   -14209   -14546   -14811   -14779   -14487   -14096   -13607 
  -13035   -12421   -11674   -10766    -9953    -9490    -9516   -10138 
  -11130   -12031   -12586   -12894   -13288   -14022   -15122   -16455 
  -17740   -18767   -19393   -19391   -18730   -17688   -16486   -15173 
  -13789   -12460   -11441   -10948   -11127   -12052   -13545   -15202 
  -16594   -17423   -17602   -17248   -16683   -16215   -15854   -15327 
  -14304   -12708   -10753    -8759    -7154    -6240    -5996    -6241 
   -6654    -6890    -6857    -6622    -6197    -5654    -5266    -5182 
   -5327    -5693    -6295    -7123    -8168    -9238   -10163   -10865 
  -11067   -10810   -10582   -10679   -11243   -12314   -13696   -15155 
  -16448   -17408   -18047   -18417   -18573   -18613   -18612   -18537 
  -18320   -17877   -17284   -17027   -17476   -18458   -19657   -20679 
  -21029   -20437   -19010   -17238   -15698   -14637   -14043   -13764 
  -13604   -13514   -13401   -13043   -12370   -11478   -10572    -9892 
   -9449    -9058    -8464    -7456    -6175    -5029    -4324    -4214 
   -4663    -5339    -5833    -5815    -5078    -3734    -1993      106 
    2420     4754     7083     9282    11153    12619    13484    13420 
   12278    10246     7749     5141     2624      355    -1588    -3263 
   -4763    -6096    -7350    -8813   -10654   -12846   -15295   -17700 
  -19563   -20455   -20204   -18862   -16737   -14490   -12646   -11101 
   -9592    -8176    -6815    -5185    -3222    -1110      997     2795 
    4072     5004     5887     6838     7735     8478     9161     9921 
   10947    12335    13959    15704    17564    19421    20944    21886 
   22231    22086    21655    21126    20627    20286    20068    19668 
   18714    17145    15105    12667     9969     7150     4346     1862 
     -51    -1313    -1935    -1892    -1118      241     1789     3212 
    4321     4778     4330     3291     2036      655     -454     -866 
    -639       13      722     1029      837      330     -308    -1022 
   -1914    -3002    -4071    -5011    -5890    -6643    -7242    -7797 
   -8363    -8980    -9612   -10194   -10753   -11302   -11869   -12545 
  -13415   -14452   -15492   -16397   -17017   -17131   -16620   -15397 
  -13514   -11489    -9952    -9165    -9079    -9534   -10218   -10715 
  -10864   -10808   -10637   -10263    -9616    -8841    -8053    -7170 
   -6212    -5313    -4622    -4300    -4270    -4153    -3726    -3104 
   -2409    -1770    -1454    -1609    -2161    -2830    -3268    -3472 
   -3731    -4169    -4773    -5625    -6757    -8028    -9266   -10301 
  -10937   -11137   -11034   -10824   -10784   -11125   -11704   -12093 
  -12024   -11433   -10332    -9075    -8208    -7991    -8451    -9357 
  -10226   -10736   -10798   -10480   -10029    -9601    -9148    -8543 
   -7633    -6276    -4414    -2282     -365      992     1559     1193 
      87    -1309    -2614    -3638    -4235    -4297    -4016    -3770 
   -3821    -4357    -5365    -6628    -7966    -9217   -10313   -11190 
  -11763   -12232   -12891   -13824   -15022   -16465   -18025   -19534 
  -20879   -22001   -22861   -23448   -23867   -24242   -24623   -25050 
  -25464   -25705   -25704   -25514   -25206   -24878   -24564   -24231 
  -23852   -23326   -22536   -21430   -20037   -18514   -17025   -15745 
  -14958   -14924   -15559   -16418   -17109   -17496   -17576   -17481 
  -17500   -17776   -18157   -18500   -18755   -18801   -18667   -18624 
  -18775   -19009   -19245   -19406   -19340   -18933   -18220   -17284 
  -16176   -15058   -14122   -13433   -13037   -12932   -12937   -12797 
  -12262   -11176    -9632    -7870    -6084    -4431    -2943    -1497 
      18     1587     3074     4276     4969     5135     5020     4824 
    4697     4817     5231     5846     6630     7617     8754     9939 
   11009    11751    12179    12432    12305    11559    10506     9598 
    8985     8727     8813     8943     8646     7670     6088     4297 
    2906     2278     2338     2871     3674     4460     5019     5427 
    5927     6786     8185     9989    11773    12974    13094    12113 
   10481     8712     7205     6142     5422     4886     4547     4557 
    4864     5054     4725     3863     2739     1707     1076      920 
    1144     1591     1912     1802     1255      447     -370    -1011 
   -1441    -1671    -1679    -1481    -1285    -1390    -1808    -2235 
   -2544    -2883    -3319    -3795    -4169    -4227    -3958    -3548 
   -3132    -2841    -2812    -3027    -3316    -3480    -3453    -3356 
   -3362    -3541    -3796    -3895    -3716    -3358    -2876    -2185 
   -1268     -331      343      648      649      390     -118     -804 
   -1663    -2742    -3878    -4777    -5156    -4865    -4116    -3338 
   -2971    -3417    -4786    -6789    -8960   -10926   -12570   -13942 
  -15138   -16305   -17558   -18847   -19912   -20456   -20291   -19414 
  -18138   -16940   -16108   -15759   -15922   -16403   -16845   -16918 
  -16505   -15737   -14809   -13908   -13106   -12331   -11542   -10790 
  -10114    -9503    -9081    -9137    -9861   -11431   -13944   -17038 
  -20074   -22474   -23929   -24513   -24521   -24324   -24091   -23714 
