Origin Time       2011/03/11 14:46:00
Lat.              38.103
Long.             142.860
Depth. (km)       24
Mag.              9.0
Station Code      AKT015
Station Lat.      39.3844
Station Long.     140.0519
Station Height(m) 5
Record Time       2011/03/11 14:47:16
Sampling Freq(Hz) 100Hz
Duration Time(s)  300
Dir.              E-W
Scale Factor      3920(gal)/6182761
Max. Acc. (gal)   74.207
Last Correction   2011/03/11 14:47:01
Memo.             
[...]
    6966    10966    13634    15414    16788    18170    19880    21802 
   23119    22789    20157    15355     9688     5230     3449     4290 
    6616     9168    11058    11976    12307    12684    13478    14687 
   15666    15381    13624    11399     9785     8938     8315     7586 
    7020     6947     7035     6388     4403     1107    -3031    -7342 
  -11461   -15395   -19086   -22334   -24986   -27029   -28489   -29298 
  -29173   -27481   -23714   -18220   -12183    -6868    -2698      683 
    3571     6239     9353    13468    18098    21792    23564    23860 
   23992    24954    26741    28726    30329    31073    30771    30065 
   29972    30713    31585    31754    30746    28459    24852    19864 
   13851     7649     2160    -2143    -5476    -8146   -10172   -11737 
  -13104   -14162   -14403   -13231   -10530    -6920    -3705    -2195 
   -2574    -3736    -4107    -2689      474     4714     8958    12092 
   13786    14451    14386    13521    11937    10254     9429    10104 
   12173    14824    16743    16982    15962    15175    16021    18803 
   22611    26109    28284    28741    27690    25690    23390    21229 
   19074    16321    12550     7849     2591    -2599    -6914    -9963 
  -12371   -15456   -19989   -25562   -31343   -36792   -41840   -46797 
  -51780   -56320   -59612   -60928   -60167   -57973   -55117   -52113 
  -49461   -47686   -46835   -46271   -45209   -43139   -39889   -35949 
  -32603   -31146   -31754   -33117   -33671   -32978   -31418   -29374 
  -27167   -24957   -22372   -18696   -13755    -8194    -2753     2141 
    6168     9094    10997    12403    14019    16122    18323    20064 
   21017    20945    19988    19064    19251    20889    23257    24998 
   25094    23405    20346    16425    11962     7250     3050      196 
   -1276    -1864    -2112    -2671    -4047    -6043    -7636    -7817 
   -6746    -5525    -4626    -3206     -412     3588     8072    12168 
   15128    16628    16529    15055    13089    11441    10052     7932 
    3795    -2760   -10754   -18677   -25566   -31208   -35688   -39119 
  -41612   -43313   -44570   -45731   -46646   -46764   -45670   -43400 
  -40550   -38001   -36190   -34859   -33476   -31542   -28884   -25944 
  -23561   -22592   -23540   -26133   -29651   -33535   -37134   -39399 
  -39492   -37297   -33311   -28565   -24424   -21715   -19862   -17419 
  -13567    -8626    -3598      355     2654     3719     4500     5631 
    6889     7382     6338     3786      657    -1768    -2652    -2035 
    -712      510     1503     2535     3753     5263     7078     8851 
   10431    12227    14475    16908    19016    20195    19991    18328 
   15731    13271    11678    10648     9193     6643     3251     -331 
   -3750    -7120   -10864   -15029   -18968   -21715   -22533   -21523 
  -19673   -18016   -16729   -15175   -12876   -10358    -8882    -8911 
   -9339    -8840    -7106    -4909    -3596    -3788    -4437    -3568 
     255     7035    15280    22931    28896    33556    37349    39871 
   40965    41315    41484    41538    41399    40782    39191    36153 
   31397    25039    17659    10326     4282      -94    -3751    -7977 
  -13027   -17730   -20553   -20939   -19742   -18489   -17923   -17256 
  -14980   -10398    -4414     1234     5404     7986     9353     9972 
   10255    10220     9389     7155     3306    -1616    -6615   -10844 
  -13927   -15985   -17500   -18967   -20497   -21791   -22562   -22641 
  -21701   -19376   -15803   -11838    -8663    -7165    -7517    -8931 
   -9973    -9804    -8977    -8638    -9281   -10284   -10577    -9799 
   -8525    -7786    -8473   -10675   -13606   -15963   -16768   -16229 
  -15155   -14018   -13034   -12400   -12065   -11663   -11012   -10316 
   -9736    -8884    -7119    -4747    -2927    -2102    -1467       31 
    2496     4991     6459     6231     4203     1186    -1467    -2872 
   -3082    -2805    -2703    -2851    -2773    -1864       -7     2172 
    3944     5290     6676     8195     9363     9510     8323     6201 
    3854     1730     -302    -2841    -6245   -10049   -13150   -14751 
  -15160   -15503   -16762   -19161   -22322   -25715   -28944   -31865 
  -34441   -36682   -38684   -40478   -41988   -43075   -43521   -43264 
  -42487   -41094   -38686   -35148   -30768   -26087   -21465   -16684 
  -11383    -5776     -794     2617     4398     5234     5608     5609 
    5460     5618     6592     8835    12622    17701    23059    27526 
   30637    32668    34259    35958    37857    39809    41721    43389 
   44419    44427    43089    40189    35917    30870    25559    20134 
   14650     9677     6471     5886     7222     8846     9802    10218 
   10360    10013     8954     7586     6607     6322     6616     7159 
    7639     7972     8097     7831     7285     6913     6755     6074 
    4056      764    -2619    -4576    -4420    -2820    -1386    -1662 
   -4176    -8143   -11794   -13135   -11174    -6721    -1893     1229 
    1787      422    -1683    -3931    -6322    -8894   -11775   -15368 
  -19885   -24915   -29762   -33845   -36360   -36196   -32921   -27525 
  -21834   -17161   -13422    -9688    -5365     -505     4459     8906 
   12275    14213    14566    13279    10260     5736      298    -5672 
  -11914   -17793   -22503   -25696   -27674   -28941   -29939   -31073 
  -32565   -34421   -36510   -38362   -39219   -38704   -37194   -35528 
  -34397   -33714   -32983   -32037   -30824   -29413   -28454   -28643 
  -29735   -30625   -30351   -28740   -26205   -23189   -19725   -15583 
  -10846    -5855     -719     4421     8685    10613     9290     5142 
    -409    -5932   -10521   -13780   -15892   -17277   -18007   -18018 
  -17663   -17628   -18247   -19230   -20425   -22177   -24667   -27555 
  -30205   -32021   -32749   -32574   -31800   -30390   -28119   -24927 
  -20949   -16778   -13290   -10860    -9187    -7691    -6152    -4984 
   -4640    -5289    -6866    -9010   -11160   -12772   -13753   -14287 
  -13958   -11898    -7912    -3088      869     3175     4635     6847 
   11015    17064    23418    27950    29421    27810    23682    18112 
   12692     8598     5818     3573     1115    -1787    -4940    -8154 
  -11113   -13042   -13247   -11825    -9422    -6783    -4499    -2750 
   -1531     -953    -1187    -2271    -3858    -5527    -7268    -9252 
  -11410   -13338   -14563   -14929   -14771   -14820   -15605   -16766 
  -17306   -16473   -14185   -11081    -8187    -5877    -3390      287 
    5311    10594    14542    16373    16554    16215    16235    16611 
   16852    16786    16696    16815    16866    16295    14934    13322 
   12417    13004    15151    17967    20087    20648    19460    16690 
   13021     9455     6687     4705     2808      296    -2975    -6887 
  -11607   -17409   -23956   -30145   -34591   -36496   -36187   -34444 
  -31659   -28030   -24035   -20272   -16990   -14060   -11191    -8010 
   -4293     -264     3455     6361     8520    10311    12195    14768 
   18279    22344    26361    29926    32851    34897    35902    36068 
   35703    34915    33605    31574    28694    24880    20010    14174 
    7746     1039    -5875   -12951   -19939   -26428   -32051   -36572 
  -39800   -41483   -41567   -40524   -39091   -37962   -37624   -37918 
  -38029   -37392   -36361   -35600   -35012   -34168   -33192   -31915 
  -29764   -26653   -22299   -16599   -10657    -5823    -3019    -2569 
   -3845    -5503    -5881    -3962     -341     3664     7433    10648 
   12827    14293    16046    18454    20972    22630    22668    21161 
   18714    15687    12403     8981     4198    -3219   -12552   -22551 
  -32011   -39041   -43032   -44650   -44399   -43120   -41131   -38323 
  -35664   -33491   -30899   -27957   -25412   -23523   -22445   -22220 
  -22589   -23318   -24265   -24635   -24012   -23753   -24184   -23908 
  -22533   -20284   -17942   -16922   -16921   -16569   -15542   -13345 
   -9493    -5379    -1617     2796     6950     9616    10540     8918 
    5703     2373    -1552    -5130    -6914    -7587    -7015    -4878 
   -2318      157     1922     2173     1520      572     -656    -1586 
   -1466     -718     -191      493     1957     4206     6783     8117 
    7010     3979     -753    -7076   -13270   -18064   -21346   -22783 
  -23139   -24061   -26162   -29269   -32528   -34589   -34818   -33342 
  -31258   -30180   -30359   -31447   -33224   -34620   -34523   -32542 
  -28998   -24891   -21069   -17663   -14481   -11382    -8007    -3864 
    1096     6198    10450    13569    16166    18818    21501    23543 
   24588    25618    27348    28816    28790    26624    21942    15432 
    9409     6090     5715     7009     8680     9960    10212     9007 
    6954     5567     5723     7161     9364    11551    12707    12719 
   12737    13518    14132    13734    12913    12348    11925    11085 
    9547     7633     5689     4297     4059     4162     3379     1745 
    -808    -4911   -10217   -15396   -18835   -19258   -16783   -13114 
  -10395    -9706   -10816   -12971   -15400   -17393   -18557   -19602 
  -21681   -24609   -27317   -29249   -30438   -31213   -31958   -33136 
  -35359   -38599   -41802   -43972   -45081   -45751   -46499   -47180 
  -47060   -45692   -43597   -41813   -40878   -40330   -38846   -35179 
  -29275   -22213   -15149    -8456    -1881     4478    10036    14573 
   18359    21459    23523    24204    23460    21476    18667    15621 
   12463     8701     4144     -823    -5800   -10565   -14814   -17659 
  -17970   -15727   -12446   -10117    -9961   -11905   -14761   -17019 
  -17648   -16462   -14271   -12496   -12329   -14075   -16878   -19418 
  -21112   -22175   -22790   -22770   -21971   -20600   -18964   -17304 
  -16040   -15701   -16386   -17846   -20078   -22939   -25418   -26092 
  -24199   -20215   -15437   -10941    -7212    -4487    -2680    -1091 
    1085     3949     6967     9782    12724    16154    19638    22442 
   24222    24768    23981    22546    21729    22173    23450    24753 
   25573    25625    24627    22685    20341    17815    14981    12070 
    9715     8455     8201     8460     9055     9655     9369     7579 
    4607     1850      675      706      272    -1927    -5897   -10448 
  -14526   -18080   -21504   -25055   -28735   -32453   -35937   -38445 
  -39276   -38525   -37012   -35570   -34524   -33861   -33239   -31862 
  -29351   -26242   -23167   -20318   -17622   -15067   -12933   -11424 
  -10108    -8072    -4683     -204     4582     9097    12679    14177 
   12690     8494     2996    -2134    -5942    -8703   -11360   -14508 
  -18310   -22631   -26574   -28876   -29167   -28150   -26631   -24867 
  -22658   -19621   -15558   -10998    -7161    -5038    -4650    -5183 
   -5694    -5680    -5121    -4075    -2231      813     4794     8894 
   12356    14876    16843    19024    21861    25025    27601    28960 
   29354    29714    30926    33130    35653    37355    37296    35459 
   32661    29949    27984    26574    25303    24234    23307    21859 
   19193    15279    10925     7321     5133     3940     2602      142 
   -3641    -8351   -13510   -18808   -24180   -29597   -34773   -39317 
  -43101   -46338   -49350   -52179   -54404   -55359   -54576   -52465 
  -50312   -48989   -48090   -46528   -43492   -38815   -32621   -25165 
  -17560   -11813    -9350    -9784   -11445   -13189   -14957   -16598 
  -17756   -18560   -18914   -17956   -14916    -9882    -3939     1397 
    5346     8244    10722    13061    15360    17747    20357    23410 
   26932    30171    31999    32086    30962    29297    27582    25975 
   24376    22715    21096    19701    18467    17264    16195    15236 
   14304    13517    12752    11687    10183     8400     7101     7143 
    8236     9165     9232     8910     9272    11036    14097    17900 
   21891    25463    28020    29451    30081    29958    28748    26453 
   23547    20284    16548    12397     8098     3617    -1398    -6908 
  -12113   -16124   -18777   -20628   -22550   -25155   -27946   -29474 
  -28887   -26516   -22954   -18537   -13784    -9792    -7678    -7482 
   -8099    -8550    -8800    -9061    -9345   -10202   -12628   -16683 
  -21072   -24165   -24993   -23663   -20984   -17680   -14191   -10603 
   -6631    -1807     4150    10315    14686    16169    15337    13465 
   11898    11681    12937    14783    16191    16939    17701    19355 
   22061    24871    26475    26394    25160    23549    21909    20230 
   18589    16870    14389    10632     5725     -292    -7782   -16542 
  -25103   -31764   -36008   -38405   -39751   -40614   -41163   -41186 
  -40483   -39163   -37550   -36204   -35887   -36856   -38587   -40399 
  -41691   -42080   -41792   -41345   -40892   -40082   -38535   -36328 
  -33956   -31921   -30397   -29330   -28792   -28833   -29240   -29920 
  -30932   -31902   -32061   -30781   -28015   -24405   -20726   -17347 
  -14024   -10020    -5147     -557     2106     1744    -1822    -7554 
  -13432   -17538   -19205   -19195   -18928   -19760   -22369   -26393 
  -30860   -34766   -37383   -38621   -39096   -39392   -39295   -38166 
  -36036   -33797   -32119   -30816   -29758   -29683   -31293   -34110 
  -37092   -39835   -42346   -44210   -44769   -44163   -43442   -43220 
  -42685   -40141   -34361   -25440   -14466    -2769     8694    19595 
   29894    39953    50414    61150    71806    82564    92842   101175 
  106630   109333   110491   111312   111466   110092   107585   104949 
  102470    99855    96932    93571    89141    82845    74858    66767 
   60381    55939    52187    47939    42837    37082    30901    24393 
   17787    11541     6014     1069    -3610    -7861   -11231   -13561 
  -14997   -15824   -16442   -17225   -18393   -20041   -22117   -24151 
  -25076   -24221   -22568   -21644   -21667   -21806   -21124   -19222 
  -16386   -12806    -8635    -4259     -149     3941    11509    21932 
   24388    20654    24621    30133    29801    30541    28629    19914 
   11884     8409     4561    -1634    -6864   -14431   -24630   -31872 
  -36850   -40096   -40137   -38883   -38487   -38245   -37436   -35904 
  -31842   -26321   -23694   -23349   -21043   -17830   -17495   -20054 
  -24650   -30872   -36908   -41851   -46026   -49502   -52950   -57293 
  -62041   -65147   -65115   -62460   -58546   -54705   -51870   -49664 
  -46909   -42878   -37481   -31461   -26386   -23418   -22259   -21523 
  -19857   -16584   -11543    -5083     1445     6268     8800    10039 
   11410    13525    15887    17694    18885    20159    22087    24722 
   28058    32206    36991    41700    45614    48821    51767    54374 
   56359    57386    56902    54507    50094    44077    37281    30162 
   23016    16538    11474     7891     5048     2434      600      902 
    4552    11177    18583    24499    28292    30699    32302    32857 
   31652    28198    22880    16379     8802      398    -7913   -15500 
  -22341   -28377   -33352   -36994   -39414   -41513   -44126   -46728 
  -47958   -47030   -44139   -40224   -36435   -33418   -31224   -29907 
  -29793   -31239   -34238   -38183   -42338   -46606   -51251   -55915 
  -59877   -63083   -66030   -68941   -71462   -72966   -73029   -71604 
  -68976   -65474   -60940   -54971   -47834   -40614   -34537   -30090 
  -26427   -22180   -17184   -12636    -9512    -7934    -7970    -9739 
  -12790   -16253   -19088   -19918   -17747   -12951    -7091    -1962 
    1254     2117      604    -2969    -7978   -13661   -19273   -24208 
  -28227   -31539   -33995   -34475   -31920   -26583   -19896   -13399 
   -7725    -2378     3570    10649    18746    26823    33170    36626 
   36920    34267    29497    23999    18791    13859     8695     3054 
   -2540    -6643    -8015    -6667    -3237     1481     6114     9200 
   10221     9866     9289     8921     8338     7078     4681      487 
   -5770   -13578   -21751   -28804   -34008   -37821   -40786   -43058 
  -44953   -46638   -47449   -46236   -42168   -35264   -26778   -18468 
  -11131    -4757      424     4020     6204     7864     9847    11996 
   13194    12610    10654     8451     6998     7112     9108    11969 
   14022    14544    13860    12729    11989    12138    13338    15358 
   17471    19149    20401    21268    21598    21455    21320    21400 
   21172    19934    17542    14483    11343     8314     5393     2964 
    1401      376     -726    -2058    -2983    -2488     -400     2277 
    4333     4872     3194     -847    -6253   -11075   -13622   -13819 
  -13135   -12954   -13730   -15659   -18862   -22884   -26489   -28341 
  -28582   -28622   -28830   -28636   -28457   -29009   -29930   -30311 
  -29122   -25807   -20991   -15707   -10771    -6938    -4661    -3713 
   -3276    -2863    -2861    -3892    -6359   -10137   -14160   -17137 
  -18637   -19340   -20576   -23076   -26168   -28474   -28991   -27413 
  -23617   -17639   -10440    -3472     2372     6694     9711    12443 
   15777    19609    22755    23787    22426    19727    17086    15165 
   13397    10926     7566     3232    -2464    -9270   -15770   -20623 
  -23638   -24889   -23978   -21012   -17365   -14896   -14616   -16112 
  -17909   -18402   -17072   -15163   -14968   -18088   -24264   -31767 
  -38576   -43129   -44801   -44172   -42287   -39655   -36280   -32103 
  -27309   -22491   -18272   -14769   -11674    -8925    -7158    -6876 
   -7452    -7739    -7454    -7621    -9428   -12531   -15011   -15075 
  -12166    -6681      575     8755    16909    23979    29606    34183 
   37886    40786    43356    45775    47374    47248    45321    42522 
   39841    37493    34664    30284    24337    17750    11137     3948 
   -4789   -14628   -23671   -30498   -35406   -39727   -44249   -48691 
  -52293   -54334   -54292   -51725   -46284   -38527   -30535   -24670 
  -21727   -20914   -21064   -21224   -20813   -19669   -17661   -14867 
  -12257   -11106   -11984   -14716   -18461   -21888   -23761   -23191 
  -20141   -16043   -12783   -11353   -11699   -12767   -13344   -13370 
  -13405   -13216   -11789    -8492    -3897      558     3354     3584 
    1762     -520    -2294    -3963    -6370    -9611   -12710   -14665 
  -16009   -18385   -21816   -23941   -22928   -19496   -15355   -11428 
   -8158    -5908    -4506    -2976     -252     3426     6689     8850 
   10229    11110    11627    12232    13594    16035    19397    23175 
   26548    28886    30064    30238    29882    29524    29237    28775 
   28056    27220    26016    23849    20761    17484    14826    13639 
   14622    17700    21854    25341    26567    25647    24400    24288 
   25282    26638    27649    27475    25197    20819    15672    10984 
    6482     1056    -5669   -12976   -19820   -25579   -30355   -34636 
  -38760   -42712   -46399   -49898   -53002   -54917   -54946   -53321 
  -50980   -48489   -45765   -42767   -39969   -38282   -38050   -38371 
  -38261   -37692   -37114   -36510   -35124   -31994   -26421   -18354 
   -8745      750     8933    16103    23296    30548    36969    42015 
   45502    47248    47460    46474    43991    39487    33042    25587 
   18517    12433     6704      766    -5238   -11103   -16590   -20801 
  -22702   -22665   -22361   -22691   -22985   -22398   -20607   -17286 
