Origin Time       2011/03/11 14:46:00
Lat.              38.103
Long.             142.860
Depth. (km)       24
Mag.              9.0
Station Code      AKT014
Station Lat.      39.5950
Station Long.     140.5573
Station Height(m) 56
Record Time       2011/03/11 14:47:05
Sampling Freq(Hz) 100Hz
Duration Time(s)  300
Dir.              U-D
Scale Factor      3920(gal)/6182761
Max. Acc. (gal)   29.208
Last Correction   2011/03/11 14:46:50
Memo.             
[...]
   25949    26538    31797    36037    32726    25904    22047    25107 
   32004    34108    32777    34049    34430    32145    30735    28077 
   21547    14156    11140    15583    22516    25324    25030    24195 
   25087    29672    32314    27997    23360    24458    27482    27333 
   21971    15831    18948    29383    35097    35031    34255    32262 
   28066    22792    19499    20945    22622    19141    13912    11942 
   14176    18566    21234    23199    27110    29448    28236    24952 
   19968    17224    20203    23567    21934    18667    18197    20353 
   23904    27711    31328    35599    38981    37183    29491    21010 
   15860    12973    11600    13264    13982     8254     2166     3269 
    7761    11719    14933    14831    10957     6792     6783    13977 
   24680    31022    31151    29020    27066    25380    24282    25285 
   29288    32020    28268    22695    23548    27856    27074    21171 
   16825    16905    18450    20628    25737    31340    32648    28206 
   20004    16165    21616    27079    26758    28730    35053    37914 
   36296    34746    31968    25754    20423    18872    17821    14554 
    9838     7387    10645    15993    17400    17624    22482    28714 
   29344    25004    22432    25261    29701    27985    16148     1868 
   -1117    10524    25598    30768    27593    28657    32625    28687 
   19903    14704    14426    18226    21040    17437    12920    14194 
   18039    20842    24148    29541    36127    39385    33775    21587 
   14482    17326    18559    10204     2303     4029    10911    18639 
   28403    37418    38554    28800    15517     8970     8836     9881 
   12973    20320    28136    30340    29673    33857    38334    33293 
   23579    20643    24291    25230    20275    18470    25217    30630 
   28968    28553    31657    30943    25331    21126    22348    24913 
   21883    16071    16419    20139    16899    11520    15760    23578 
   25281    25289    27327    29700    32539    35148    35341    30582 
   22543    17814    15570    11427    10070    16448    26231    29869 
   26348    27563    35045    36851    32122    28343    29870    35202 
   32511    17785     4304    -1554    -1661     7158    20965    27884 
   25497    20561    20180    26113    31481    30133    25816    25063 
   26761    25432    22942    24873    28469    28422    24638    19271 
   17325    21009    21926    15310     8487     3891     -365     1919 
    9512     9981     3178    -1266     1217    10689    19281    19401 
   18297    24293    33657    37219    29630    19197    18177    23996 
   29994    34030    29509    17129    10480    13354    19100    25687 
   29144    24956    19831    21210    26249    28831    26825    23084 
   20951    19737    17411    13193     8040     6345    11824    21836 
   29575    30391    28000    30051    34309    32609    26172    21288 
   19557    20756    23681    25526    25463    24676    25394    29076 
   31535    27871    23140    22438    19019    13488    17858    26688 
   25538    20191    21593    27738    34910    40965    39966    28838 
   14542     7577     9776    12779     9691     5056     6321     9882 
    9845    10075    14764    21060    24862    27439    34740    45774 
   51498    48016    37167    23184    12730     5769    -1486    -3554 
    3036     9559    11361    12032    12252    11905    13204    18731 
   29562    40302    43247    37105    25936    15603    10722    11927 
   15060    16331    20542    31254    39162    37353    32716    32471 
   34312    33763    30340    24455    18549    18005    23530    31214 
   38747    43069    39588    30290    24092    23925    24402    23229 
   21407    20247    23772    29268    29210    29997    38501    43069 
   35636    22970     9923    -1051    -7134    -9477    -7200      368 
    6659    10011    16349    22438    20609    15279    15712    22062 
   25793    21116    14016    12234    12659    10003     7511     9792 
   14224    15662    13734    13582    19671    26973    26453    18029 
    7120     1245    10642    31497    45627    48012    45866    40019 
   32300    29596    33523    40754    43918    36972    27285    24460 
   25834    24888    18943    11828    11638    17107    19583    19571 
   21947    24155    24137    26415    33144    39905    41820    37184 
   26749    16142    12758    14468    14941    14805    13134     8276 
    6960    12804    21369    28022    28990    23907    15714     8086 
    6049     9909    13706    15879    20709    27320    31031    33937 
   37526    36605    33102    32376    29609    23977    25442    35624 
   44584    44445    35219    24759    22554    29042    36278    38660 
   36806    33151    29329    25674    21598    19700    24545    34868 
   43614    43144    31589    19394    17665    21963    24876    28580 
   31715    28516    23292    25258    32428    32907    22519     9060 
   -1431    -7118    -6012     1399    11550    17390    14938    11623 
   13654    18364    24246    28702    25844    15664     3125    -6366 
   -8089    -3063     4192    12077    19063    23479    26070    26952 
   27433    30417    33536    32311    28084    25171    23790    21376 
   20696    26160    33968    37105    33179    26313    24688    29356 
   32329    29411    22827    15602    11399    12481    19868    32864 
   41092    36276    27362    22492    18860    16121    14415     8566 
     453     1256    10662    15963    17703    25492    34775    37814 
   37296    36210    35346    33288    26416    18978    15825    13104 
   12202    18963    28488    31267    26575    20169    15239    11207 
    8714    11863    21946    32882    40172    42437    36204    25099 
   17805    14513    12790    13652    15471    14197     8476     2273 
    1232     3013      947    -1298     2567     7850    10540    11660 
    8433     2509     1084     3553     6839    12081    15550    13930 
   14565    21761    29435    36543    46717    54262    53729    52332 
   54646    53160    44170    33887    28280    28455    29985    27984 
   25178    24561    24126    26090    33913    43598    48492    45556 
   37484    31027    31980    40665    48574    46036    34957    25467 
   22692    22947    23427    26479    28630    23504    17675    19505 
   20959    13290     4997     7091    14489    14783     7533     3749 
    8510    13303    10690     6471     4691     -127    -4876     -343 
    9633    15878    17929    18898    19908    21132    21653    21359 
   22255    23110    19987    14665    12023    12617    15443    19527 
   22285    24021    29295    40197    52242    59087    60652    60989 
   60121    56706    52988    50315    46583    41361    36539    30885 
   21013     7345    -3531    -4030     3954    10302    11250    11723 
   15048    20703    25640    26896    28069    32395    33700    27783 
   21586    21202    20985    15635    10702     9533     8930     8363 
    7203     4136     2602     6643    14751    20263    18477    12507 
    7701     5924     8813    17760    29088    36249    36919    34113 
   30918    29264    32293    37944    36457    25231    14479    11373 
   10679     6542     4183    10781    20925    22721    16313    13257 
   16825    20039    21624    24266    25615    26900    34658    45657 
   48742    43098    37404    34732    34052    37302    42795    45572 
   45983    44612    39414    34172    33964    34333    28092    16742 
    9155    13336    25742    29868    18726     9247    15312    26288 
   28803    24307    17614     7990    -3477    -6907     4345    22244 
   35322    38411    31859    21601    16083    20056    27344    25654 
   15081     6674     5388     8900    12915    15083    18188    23733 
   29018    32485    32602    28401    23541    18630    10028     4236 
   11753    27652    37551    35414    29602    32264    41012    44577 
   41833    35650    25848    19054    21592    27574    29270    27147 
   26873    29023    27604    26280    32902    38131    31797    23397 
   23007    26495    27673    27361    29952    33206    27228    13629 
    7497    10806     9965     2433      857     9575    18069    20865 
   23214    26909    29914    32102    31678    28831    26735    21811 
   12108     8198    15438    24030    25949    22738    16745     8340 
    1908     3058    10064    17055    20703    21246    20447    18209 
   14347    11701    13461    18410    21916    22514    21210    18899 
   17328    15254    12753    15662    23764    29749    32123    34474 
   35718    31263    21571    13192    13431    20942    21510    10841 
    7402    18051    25867    24796    24214    26784    27988    24811 
   21038    22596    27170    32189    39230    42325    37484    35498 
   41723    44122    35917    24435    15527    11036    11062    11872 
   13418    18597    22921    21770    21160    24696    22738    12147 
    5256     5178     2301    -2788    -1787     6087    15399    21225 
   25476    33284    41670    44761    43189    40130    36913    32903 
   29438    29462    27739    19099    13186    18052    26761    31355 
   31231    29945    29190    26465    22754    22743    27356    34011 
   39012    40140    37942    33274    29830    32842    39313    40969 
   35451    26171    17618    12198     9413    10226    14857    18972 
   21374    22498    18588    12908    12274    11634     7883     8904 
   15285    19208    18509    17780    22099    29043    31441    32275 
   37071    37406    30322    27802    29204    26664    25182    24082 
   17343    13632    19134    25229    26742    25428    21779    17879 
   17173    17843    14637     7582     2849     3820     7712    10911 
   10644     6599     4136     6506     9883    13053    17440    19639 
   19113    22177    30354    36763    35208    27752    20725    15194 
   10977    12622    19186    21029    15940    14213    20873    29153 
   34508    37235    36844    34450    30907    25744    20660    15358 
    9000     5328     4480     3726     7615    17070    21721    19846 
   22167    28477    28350    22969    21886    24667    23575    18607 
   15156    14058    16001    22161    26350    23832    20005    17252 
   11489     6669    11074    21277    26701    24056    17052     9782 
    6370     8335    10978    10580     8635     4907      254      664 
    6146    12710    23023    35123    39577    35729    30930    31054 
   36166    39153    36403    32304    29842    29156    29373    28953 
   28600    28765    29365    33837    43495    51748    51554    44350 
   36772    32472    30569    27869    22846    18141    15502    13762 
   14419    19219    23101    21049    16651    15136    18609    27512 
   33503    26116    12627     5659     3181     3052     9508    18414 
   22453    21963    18604    12659     7666     7416    10259    11936 
   12128    14615    20497    24456    22993    20294    19914    20289 
   19064    17342    20272    27359    30755    29793    28685    25777 
   22997    26308    29600    24957    20845    24261    27230    24741 
   19018    10899     3739     1904     4023     5908     5642     3842 
     564    -2133     1622    10453    16116    17881    19800    21775 
   21886    19724    18393    22261    28866    30187    25184    21142 
   21596    24118    26325    26706    26031    27356    30473    33047 
   36006    37569    31480    20313    11897     5811     2450     5572 
    9991     9830     9070    10254     9222     6662     8355    13948 
   19780    24158    23341    16133     7696     1856      696     4999 
    8252     5904     5353    13634    27431    37842    39850    37997 
   36504    33345    31427    35817    39993    32631    14433    -2151 
   -7334     -341    13991    28125    37682    43563    44466    38972 
   33506    31197    24538    13445     8267    10914    15516    18178 
   14874     6814     4290    10630    16570    16300    13038    10351 
    8782     8624     9945     9491     4447     -893    -1702      868 
    6312    15221    23796    27456    26048    24165    26175    29926 
   30710    28892    27827    28627    30521    32609    32625    29829 
   29609    35751    41546    38404    29986    28125    34534    39538 
   38642    35871    33977    30499    23672    18384    19813    25204 
   28038    25838    20757    16536    17842    24606    27696    21942 
   14958    14545    17986    17902    12619     6423     2872     2700 
    5288    10075    16719    24268    31821    36333    32392    21816 
   14941    17301    24619    30101    31822    33270    34115    29237 
   23033    25252    31811    33690    33338    33721    31518    27773 
   27149    30503    36536    41959    41464    35776    30899    28745 
   30119    35535    37821    31771    23459    18298    15085    11298 
    5343     -270    -2428    -4088    -7093    -5998     2846    12273 
   12580     6499     3491     4564     4967     3558     4172    10933 
   21946    32377    41597    48383    48410    43538    40057    37994 
   33865    27875    22125    17936    17865    24170    31282    30546 
   24620    21457    20409    18058    15580    15477    17364    16718 
   11954     6688      700    -6509    -8879    -2404     9739    20084 
   21385    16446    17582    27556    34063    30872    24839    19972 
   15799    14432    15982    16906    16145    15603    15874    16367 
   16741    17219    20892    30123    38735    39031    34593    33243 
   35936    42433    53792    65050    68264    60795    44993    27157 
   16128    15234    17998    16598    12773    13777    20656    30487 
   42141    50577    47810    34328    18477     6919     2082     2941 
    7764    15545    21416    21326    20874    27436    39776    49534 
   48183    35827    21140    10247     4692     6437    13181    17461 
   16812    15495    16493    18612    19929    21006    24954    32719 
   39667    42896    44517    42032    31300    18569    13733    17835 
   22995    21052    13900     8878     6154     3482     2629     3854 
    6118     8884     9536     7643     7834    12696    18040    20724 
   26531    37530    43701    42408    42220    44466    44967    41824 
   33002    21443    15913    20205    31793    45459    52874    49253 
   38822    29641    26691    26562    23506    22268    27208    28109 
   19646    12792    13884    17523    17568    12759     9649    14163 
   19792    18578    14226    12645    12212    10485    10824    15680 
   20390    20692    17174     9648      917     -995     2119     -451 
   -6449    -4855     1233     1599    -1802    -1348     5601    16140 
   22020    21122    22508    28445    29645    22787    16605    16916 
   15970     8734     7373    18622    27962    26634    24274    25750 
   26033    25479    28714    33317    32196    24826    18808    21578 
   31991    39699    36364    25465    16702    14380    16340    20810 
   26829    31885    34461    33403    27849    22731    24210    29597 
   33828    38809    45222    46367    37124    22847    15637    18220 
   22411    27288    35487    38555    31060    22892    21826    22074 
   17632    11609     9427    12009    15706    16606    13934     9968 
    8434     9255     8104     5040     4877     9185    15066    19240 
   21744    25536    30394    31362    25420    15394     7624     8025 
   17168    28330    34916    37647    39897    40928    38655    36750 
   40923    47366    46774    37863    27751    23325    23597    21303 
   15766    15095    19775    20263    16077    16245    20650    21179 
   17465    15987    16186    11803     4241      375     1424     3940 
    7981    15565    21260    19850    17937    19898    21351    21461 
   18916     9704     -937    -4428    -1729     1812     5017    10524 
   18144    21810    20304    20232    21340    19253    17842    19090 
   18856    17351    14574     9015     7612    16020    27106    33657 
   37288    40319    42607    44935    46494    44406    39838    35945 
   30409    19160     4935    -5423    -9188    -7287    -1638     3131 
    3836     2752     2147     3383     9078    16658    18928    15725 
   13604    15766    22226    31764    38575    39004    37454    37477 
   38950    42362    46924    50726    51653    47866    41928    37541 
   33770    29889    29319    33652    38623    40936    42769    44257 
   42230    37759    34274    33814    36878    40335    41730    41672 
   38934    33390    27005    18963    10359     4487      750     -415 
    3013     7827     9111     6696     3333     -850    -5861    -5939 
    3577    18016    29978    37553    41236    40656    37121    31872 
   24970    19364    17605    17023    14204     9866     8153    10814 
   13939    14232    12249     9615     9533    13439    15548    11685 
    8299     9973    11320    10872    14578    22633    28075    26925 
   22514    21071    24454    28591    29645    28016    25921    24508 
   22140    16676    11545    11476    14078    16609    20114    21338 
   17756    14811    15231    16233    17772    19239    18628    19268 
   22393    21743    17915    18093    19688    17477    13294     6875 
     292     2911    12464    15435    11889    10345     9516     8095 
    9495    10666     8582    10276    20202    28694    27727    23939 
   22471    20452    20997    26819    30053    27089    24419    25859 
   29830    34434    37931    38868    37499    35748    35166    34549 
   32196    29791    30798    35076    36841    33348    30879    32443 
   31970    28041    25664    24559    22269    20087    16585     8404 
   -1593    -7990   -11045   -13288   -14417   -14583   -13507    -8885 
   -3064      -37     3300     8939    11400     8628     5093     4103 
    6271    10279    15037    22465    30649    31869    26903    24160 
   22550    18534    17907    22630    27036    29036    29351    28937 
   30338    34394    39151    41479    39272    35201    33217    34265 
   39279    46254    49384    49034    49977    52173    53748    52325 
   44519    34263    29704    30790    32409    32880    33327    32825 
   27966    19827    14494    14305    13975     6781    -2818    -2296 
    7646    15116    18048    21978    26659    28094    25949    22340 
   18720    17457    16873    10499     1872      888     7322    17956 
   30839    37891    36949    36600    36579    29285    17745    10458 
   10774    16560    21365    22753    25364    29888    31951    31206 
   31289    33938    35955    34351    33125    34327    32131    25795 
   20815    19037    20325    22990    23801    23697    25112    28218 
   32917    37501    38271    33518    26608    22863    22376    22384 
   24818    31465    37247    37633    36757    40511    45887    46333 
   43417    42386    42889    41180    35747    30597    30600    32749 
   33207    35641    39951    38926    32576    27016    22282    16348 
   10517     5340      624    -4801   -12696   -18726   -15585    -4912 
    5533    14814    25836    33664    32122    25225    19681    16780 
   16387    17559    17808    16336    12078     5497     4988    15674 
   29962    42538    54529    61497    59285    54801    55680    57125 
   51651    42482    34791    26305    14916     5173     3136     8226 
   14714    20006    24834    28849    30976    31555    32645    35638 
