Origin Time       2011/03/11 14:46:00
Lat.              38.103
Long.             142.860
Depth. (km)       24
Mag.              9.0
Station Code      AKT021
Station Lat.      39.9940
Station Long.     140.4035
Station Height(m) 119
Record Time       2011/03/11 14:47:20
Sampling Freq(Hz) 100Hz
Duration Time(s)  287
Dir.              U-D
Scale Factor      3920(gal)/6182761
Max. Acc. (gal)   11.164
Last Correction   2011/03/11 14:47:05
Memo.             
[...]
  -18072   -18332   -18323   -18969   -20336   -21653   -22023   -21152 
  -19552   -17946   -17137   -17312   -17701   -17716   -17614   -17819 
  -18226   -18417   -17966   -17058   -16523   -16429   -16150   -15189 
  -13346   -11307    -9545    -7711    -6215    -5709    -5985    -6259 
   -6279    -7392    -9994   -12160   -13190   -14153   -15130   -15247 
  -14205   -12597   -11251   -10250    -8974    -7574    -7015    -7134 
   -6832    -6041    -5634    -6067    -6719    -6531    -5773    -5671 
   -6364    -7460    -8986   -10851   -12835   -14539   -15631   -16250 
  -16333   -15768   -14722   -13365   -12750   -13634   -14914   -16320 
  -18524   -20367   -20608   -19582   -18017   -16734   -15957   -15475 
  -15920   -17567   -19514   -20903   -21605   -22220   -23048   -23710 
  -24147   -24727   -25772   -27055   -27866   -27912   -27340   -26226 
  -25116   -25042   -26147   -27831   -29410   -30015   -29775   -29208 
  -28117   -26855   -25972   -25637   -25628   -25018   -23865   -23059 
  -22430   -21651   -21005   -20589   -20128   -19573   -18862   -17453 
  -15598   -14089   -12917   -12130   -11818   -11567   -11289   -11195 
  -11144   -10743   -10004    -9306    -9150   -10125   -11802   -13007 
  -13483   -13519   -13427   -13552   -13571   -13167   -12633   -12202 
  -12278   -13024   -14021   -15154   -16067   -16360   -16609   -17255 
  -18416   -20381   -22243   -22326   -20681   -18776   -17344   -16292 
  -15718   -15868   -16728   -18155   -19416   -19671   -19574   -19474 
  -18022   -15440   -13817   -13627   -13803   -13592   -13089   -13192 
  -14032   -14323   -13771   -13577   -13854   -13820   -14018   -14906 
  -15432   -15197   -15246   -16399   -18051   -18934   -19397   -20569 
  -21991   -22910   -23394   -24096   -25944   -28208   -29208   -29179 
  -29436   -30234   -30893   -30840   -30096   -29292   -28677   -27509 
  -25814   -24253   -22348   -20040   -18573   -18132   -17445   -15468 
  -12248    -9305    -7870    -7041    -6262    -6198    -7100    -8895 
  -10341   -10371   -10259   -10614   -11042   -12126   -13405   -14223 
  -15528   -17211   -18277   -19065   -19762   -19943   -20102   -20716 
  -21173   -20782   -19802   -19138   -18752   -17334   -14806   -12933 
  -12546   -13197   -14552   -16143   -17502   -18236   -17723   -16109 
  -14440   -13210   -12061   -11038   -10761   -10935   -10969   -11385 
  -12255   -12890   -13127   -12915   -12527   -12362   -12058   -11568 
  -11181   -10645    -9991    -9499    -9412    -9980   -10652   -11044 
  -11612   -12366   -12816   -12469   -11641   -11752   -13424   -15388 
  -16135   -15915   -15565   -14723   -13159   -11585   -10694   -10669 
  -11243   -12174   -13242   -14025   -14283   -14083   -13822   -13828 
  -14080   -14723   -15294   -14908   -14027   -13348   -12918   -12755 
  -12240   -11370   -11009   -10745   -10121    -9628    -9348    -9166 
   -8772    -7932    -7257    -7339    -8378    -9776   -10311   -10104 
   -9956    -9974   -10241   -10915   -12293   -14413   -16570   -18019 
  -18357   -17711   -16428   -14636   -12675   -11137    -9817    -8067 
   -6460    -5561    -4814    -4095    -3396    -2685    -2491    -2433 
   -2021    -2055    -2623    -2939    -3138    -3759    -4931    -6672 
   -8936   -11261   -12889   -13603   -14049   -14966   -16495   -18130 
  -18891   -18501   -17977   -17752   -17470   -17236   -16811   -15981 
  -15402   -15191   -14806   -14114   -13460   -13651   -14801   -15745 
  -15992   -16201   -17029   -18592   -20145   -20993   -21137   -20596 
  -19432   -18064   -17106   -16785   -16854   -17106   -17139   -16488 
  -15359   -14303   -13385   -12526   -12326   -12959   -13773   -14892 
  -16376   -17388   -17479   -16556   -14621   -12394   -10880   -10080 
   -9779   -10673   -12510   -14057   -15261   -16594   -17751   -18068 
  -17520   -16852   -16518   -16084   -15045   -13679   -12439   -11180 
   -9664    -8074    -6574    -5252    -4676    -5002    -5289    -5321 
   -5816    -6402    -6100    -5042    -3899    -2957    -2636    -3441 
   -5431    -8211   -10885   -13113   -15413   -17301   -17734   -16532 
  -14197   -12166   -11494   -11229   -10351    -9362    -8784    -8309 
   -8072    -8124    -7601    -6861    -6996    -7496    -7896    -8674 
   -9644   -10192    -9779    -8138    -6307    -5180    -4143    -3149 
   -2866    -3217    -3891    -4821    -6121    -7892    -9991   -12013 
  -13451   -14337   -14752   -14372   -13656   -13306   -13289   -13745 
  -14741   -15758   -16310   -16584   -17451   -18899   -20021   -20786 
  -21370   -21425   -20764   -19564   -18781   -19039   -19548   -20030 
  -20804   -21603   -22246   -22598   -22936   -23804   -24222   -23098 
  -21485   -20945   -21442   -22028   -22453   -22794   -22657   -21669 
  -19407   -15959   -12717   -10619    -9577    -9690   -10562   -11297 
  -11740   -12093   -12298   -12319   -12210   -11785   -10862    -9760 
   -8934    -8696    -9022    -9295    -9095    -8871    -9081    -9304 
   -8992    -8411    -8357    -9443   -11383   -13457   -15386   -16837 
  -17532   -17499   -16747   -15935   -15739   -15422   -14362   -13430 
  -13161   -13068   -12787   -12267   -11712   -11242   -10685   -10072 
   -9602    -9557   -10048   -10474   -10530   -10810   -11428   -12136 
  -12865   -13101   -12781   -12371   -12043   -11969   -11600   -10573 
   -9878    -9825   -10142   -10969   -12019   -13005   -13908   -14698 
  -15000   -14366   -13330   -12335   -11492   -11374   -11845   -12552 
  -13653   -15065   -16806   -18439   -19159   -19187   -19135   -19190 
  -19274   -19426   -19742   -19627   -18714   -17504   -16021   -14213 
  -12581   -11188    -9888    -8730    -7619    -6698    -6210    -6316 
   -7415    -9350   -11199   -12337   -12698   -12649   -12524   -12299 
  -12431   -13307   -14636   -16653   -18984   -19969   -19481   -18602 
  -17538   -16478   -15739   -15049   -14332   -13897   -13479   -12730 
  -12059   -11544   -11012   -10950   -11546   -12418   -13232   -14067 
  -15137   -15613   -14579   -12775   -11711   -12133   -13442   -14526 
  -15142   -15609   -15738   -15010   -13399   -11478   -10364   -10396 
  -10372   -10474   -11668   -12645   -12644   -12763   -13443   -14548 
  -15465   -15147   -14117   -14080   -14791   -14646   -13763   -12852 
  -11925   -11485   -11850   -12846   -14399   -15857   -16726   -17656 
  -18913   -19732   -19695   -19062   -18395   -18185   -18322   -18583 
  -18851   -18761   -18204   -17521   -17055   -17000   -17329   -17643 
  -17530   -17228   -16939   -16484   -16248   -16550   -17255   -18246 
  -18859   -18747   -18418   -18100   -17808   -17201   -15598   -13051 
  -10144    -7680    -6283    -5764    -6069    -7053    -8088    -9270 
  -10358   -10537   -10407   -11068   -12441   -13746   -14500   -14868 
  -15107   -15122   -14835   -14681   -15011   -15386   -15629   -16404 
  -17824   -19056   -19677   -19956   -19872   -19334   -18594   -17665 
  -16669   -15906   -15307   -15056   -15344   -15850   -16629   -17758 
  -18717   -19157   -19232   -19271   -19498   -19828   -19732   -18707 
  -17052   -15455   -14308   -13722   -13562   -13720   -14021   -13964 
  -13388   -12725   -12472   -12678   -12627   -11878   -11006   -10266 
   -9436    -8912    -9164    -9959   -10594   -10517    -9793    -9143 
   -9363   -10254   -10902   -11124   -11277   -11159   -10796   -11064 
  -12410   -14425   -16373   -17948   -19621   -21189   -22210   -23530 
  -25280   -26099   -25287   -23273   -21003   -19226   -17670   -16092 
  -15233   -15062   -14240   -12608   -11457   -11368   -12155   -13110 
  -13006   -12166   -12251   -13398   -14393   -14573   -14165   -13801 
  -13719   -13300   -12065   -10403    -8889    -7830    -7363    -7673 
   -8837   -10341   -11580   -12459   -13157   -13971   -14814   -15122 
  -15008   -15197   -15546   -15368   -14850   -14443   -13874   -12975 
  -11986   -11050   -10535   -10665   -10938   -10847   -10298    -9612 
   -9183    -8908    -8813    -9384   -10683   -11978   -12593   -12793 
  -13293   -14513   -16296   -17924   -18956   -19383   -19263   -18794 
  -17848   -16134   -13866   -11661   -10211    -9311    -8165    -7086 
   -6627    -6612    -6947    -7176    -7126    -7619    -8671    -9730 
  -10752   -11455   -11715   -11917   -12078   -11806   -11238   -11287 
  -12092   -12799   -13401   -14157   -14415   -14142   -14035   -14124 
  -14565   -15510   -16136   -16546   -17814   -19380   -20171   -20394 
  -20224   -19542   -18487   -17035   -15312   -13574   -12172   -11575 
  -11119   -10164    -9397    -8698    -7849    -7776    -7984    -7338 
   -6656    -6656    -6565    -6428    -7127    -8499   -10104   -11668 
  -12595   -13091   -13715   -14218   -14787   -15862   -16928   -17588 
  -17868   -18008   -18561   -19176   -19374   -19593   -20020   -20973 
  -22674   -24279   -25293   -25966   -26093   -25083   -22997   -20806 
  -19485   -19325   -19834   -20383   -20847   -21168   -21055   -20335 
  -19468   -18851   -18093   -17415   -17547   -18173   -18711   -19210 
  -19802   -20319   -20418   -20028   -19686   -19895   -20485   -20983 
  -20903   -20399   -20195   -20020   -19287   -18346   -17664   -17725 
  -18618   -19520   -20190   -21063   -21999   -22823   -23548   -23757 
  -23173   -21915   -20203   -18604   -17680   -17444   -17629   -18016 
  -18409   -18697   -18851   -18711   -18118   -16936   -15429   -14598 
  -15041   -16357   -17828   -18962   -19376   -18708   -17398   -16326 
  -15752   -15453   -14799   -13523   -12278   -11436   -10652   -10036 
  -10226   -10802   -11122   -11774   -12764   -13358   -13675   -14088 
  -14489   -14488   -14179   -14261   -14828   -15240   -14980   -14173 
  -13456   -13159   -13269   -13707   -14346   -15261   -16353   -17473 
  -18651   -19412   -19508   -19681   -20428   -21144   -21190   -20942 
  -20896   -21012   -21184   -21377   -21937   -23160   -24485   -25330 
  -25931   -26572   -26687   -25554   -23565   -21789   -20650   -19748 
  -18817   -18280   -17978   -17123   -15926   -14807   -13683   -12750 
  -12241   -12464   -13307   -13979   -14566   -15402   -15814   -15686 
  -15568   -15502   -15759   -16729   -18090   -19702   -21757   -23895 
  -25730   -27266   -28306   -28346   -27150   -25233   -23309   -21698 
  -20508   -19734   -19489   -19494   -18993   -18144   -17447   -16668 
  -15572   -13987   -11944   -10040    -8515    -6869    -4928    -3533 
   -3250    -3336    -3250    -3211    -3587    -5147    -7862   -10558 
  -12955   -15293   -16938   -17818   -18686   -19246   -19078   -18768 
  -18685   -18993   -19622   -19964   -19754   -18728   -16827   -14897 
  -13287   -11783   -10741   -10568   -11325   -12372   -12959   -13778 
  -15404   -16855   -17689   -18511   -19862   -22066   -24539   -26402 
  -27878   -29332   -30485   -30762   -29715   -27933   -26360   -25236 
  -24490   -23859   -23320   -22922   -21864   -19690   -17050   -14483 
  -12066    -9729    -7646    -6238    -5342    -4690    -4884    -6211 
   -8102   -10317   -12693   -14948   -17118   -18796   -19530   -19743 
  -19802   -19606   -19150   -18529   -17913   -17415   -16942   -16643 
  -16924   -17845   -19011   -20031   -20743   -20824   -20059   -18998 
  -18186   -17390   -16443   -15938   -16314   -17038   -17252   -16584 
  -15699   -15533   -15690   -15459   -15212   -15336   -15424   -14954 
  -14081   -13357   -13082   -13174   -12994   -12098   -11194   -11020 
  -11228   -11083   -10520   -10191   -10356   -10723   -11327   -12050 
  -12323   -12047   -11531   -11018   -10775   -10810   -10803   -10863 
  -11404   -12076   -12267   -12204   -12418   -12843   -12860   -12187 
  -11325   -10519    -9189    -7285    -5605    -4232    -3131    -3138 
   -4208    -5557    -7127    -8645    -9897   -11313   -12440   -12662 
  -12698   -13049   -13297   -13236   -12951   -12631   -12462   -12310 
  -11904   -11250   -10976   -11573   -12260   -12479   -12819   -13401 
  -13952   -14297   -14076   -13472   -13009   -12788   -12709   -12736 
  -12880   -12889   -12739   -13254   -14615   -15822   -16527   -16890 
  -16771   -16404   -16077   -15651   -14930   -13986   -13031   -12077 
  -11340   -10962   -10490    -9737    -9102    -8745    -8454    -8362 
   -8550    -8648    -8539    -8248    -7898    -7634    -7097    -6242 
   -5554    -5328    -5661    -5938    -5352    -4306    -3538    -3239 
   -3631    -4690    -6031    -7512    -8879    -9732   -10434   -11763 
  -13510   -14576   -14633   -14456   -14625   -15047   -15389   -15594 
  -15859   -16084   -16140   -16042   -15736   -15535   -15775   -16064 
  -15880   -15306   -14698   -14252   -14062   -14092   -14138   -14221 
  -14421   -14236   -13296   -12192   -11516   -11266   -11163   -10771 
  -10205   -10187   -10896   -11896   -12615   -12996   -13804   -15045 
  -15854   -16305   -16968   -17650   -18018   -18420   -19136   -19772 
  -20225   -20810   -21622   -22436   -22655   -22039   -20949   -19576 
  -18216   -17218   -16636   -16714   -17242   -17638   -17978   -18120 
  -17664   -17054   -16825   -16954   -17310   -17809   -18583   -19695 
  -20474   -20251   -19436   -18795   -18362   -17861   -17302   -16703 
  -16259   -16516   -17278   -17712   -17510   -16632   -15232   -13834 
  -12743   -12035   -11884   -12512   -13770   -15321   -17297   -19580 
  -21363   -22213   -22515   -22864   -23228   -23216   -23029   -23139 
  -23753   -24856   -26074   -27204   -28568   -30045   -30899   -31080 
  -31392   -32035   -32292   -31898   -31336   -30778   -29926   -28713 
  -27402   -26118   -24725   -23102   -21366   -19866   -18677   -17437 
  -16329   -15979   -16303   -16763   -17055   -17458   -18511   -19685 
  -20291   -20934   -21976   -22963   -23511   -23431   -23317   -23683 
  -23868   -23672   -23620   -23396   -22310   -20604   -19132   -18272 
  -17852   -17634   -17476   -17309   -16846   -16049   -15429   -15192 
  -15198   -15222   -15117   -15202   -15672   -16428   -17525   -18752 
  -19672   -20278   -20855   -21500   -22179   -22895   -23624   -24231 
  -24341   -23731   -22709   -21547   -20504   -19949   -19669   -19312 
  -19146   -19438   -19943   -20612   -22016   -23961   -25234   -25760 
  -26353   -27057   -27735   -28314   -28449   -28093   -27370   -26268 
  -24884   -23685   -23163   -22934   -22483   -22022   -21565   -21022 
  -20596   -20107   -19193   -18053   -17106   -16170   -15208   -14955 
  -15488   -16096   -16658   -17706   -19420   -21115   -22254   -23204 
  -24146   -24675   -24799   -24629   -23860   -22834   -22272   -22206 
  -22502   -22769   -22296   -21233   -20043   -18601   -17046   -15586 
  -14093   -12757   -11509   -10023    -8569    -7455    -6848    -6973 
   -7571    -8193    -8724    -9261   -10176   -11600   -13033   -14186 
  -15297   -16464   -17279   -17659   -18269   -19120   -19530   -19671 
  -20110   -20672   -21013   -21295   -21674   -22016   -22424   -22760 
  -22456   -21818   -21372   -20793   -19877   -18778   -17738   -16657 
  -15035   -13120   -11327    -9642    -8541    -8316    -8705    -9606 
  -10647   -11297   -11590   -11850   -12320   -13169   -14421   -16026 
  -17781   -19308   -20437   -21174   -21752   -22512   -23162   -23348 
  -23329   -23265   -23193   -23212   -23100   -22612   -21766   -20535 
  -19181   -18344   -17902   -17083   -15801   -14590   -13676   -12906 
  -12342   -11925   -11225   -10392   -10090   -10462   -11098   -11692 
  -12344   -13295   -14471   -15365   -15822   -16219   -16357   -15905 
  -15684   -16377   -17224   -17470   -17468   -17799   -18401   -18727 
  -18538   -18311   -18384   -18330   -17762   -16767   -15677   -14870 
  -14272   -13514   -12612   -12044   -12007   -11983   -11573   -10843 
  -10012    -9269    -8235    -6512    -4681    -3414    -2686    -2314 
   -1994    -1357     -626     -416     -865    -1557    -2278    -3419 
   -5188    -7029    -8373    -9081    -9272    -9259    -9039    -8644 
   -8605    -8898    -9131    -9314    -9369    -9115    -8458    -7518 
   -6737    -6237    -6000    -6186    -6604    -7002    -7229    -7120 
   -6908    -6789    -6639    -6372    -5859    -5255    -4988    -4973 
   -5098    -5775    -6957    -8022    -8785    -9494   -10384   -11387 
  -11836   -11409   -10864   -10690   -10551   -10192    -9794    -9776 
   -9950    -9765    -9646   -10223   -11073   -11418   -11010   -10235 
   -9796    -9927   -10253   -10666   -11349   -12001   -12101   -11612 
  -10860    -9993    -9033    -8124    -7385    -6991    -7038    -7330 
   -7764    -8434    -9520   -10875   -11867   -12287   -12432   -12772 
  -13587   -14307   -14452   -14213   -13709   -13001   -12022   -10714 
   -9571    -8887    -8321    -7824    -7676    -7922    -8502    -9013 
   -8851    -8190    -7514    -6748    -5965    -5563    -5623    -5893 
   -6031    -6117    -6646    -7759    -9218   -10738   -12148   -13306 
  -13921   -14139   -14394   -14728   -14913   -14323   -12843   -11342 
   -9869    -8140    -6819    -6137    -5811    -5879    -6134    -6232 
   -6189    -6147    -6222    -6445    -6961    -8011    -9412   -10988 
  -12812   -14549   -15895   -16837   -17008   -16211   -14849   -13267 
  -11734   -10425    -9287    -8569    -8320    -7941    -7193    -6380 
   -5748    -5186    -4494    -3896    -3518    -3177    -3047    -3286 
   -3714    -4139    -4382    -4585    -5055    -5661    -6207    -6707 
   -7101    -7405    -7676    -7935    -8340    -8860    -9353    -9932 
  -10440   -10578   -10427    -9933    -9048    -8349    -8272    -8521 
   -8776    -9001    -8868    -8076    -7063    -6397    -6269    -6629 
   -7181    -7769    -8489    -9067    -9058    -8718    -8703    -9263 
  -10192   -11224   -12391   -13668   -14743   -15392   -15542   -15459 
  -15473   -15249   -14702   -14569   -15049   -15874   -17119   -18436 
  -19231   -19580   -19850   -20126   -20190   -20089   -20112   -20086 
  -19709   -18888   -17924   -17505   -17454   -16798   -15444   -13984 
  -12685   -11856   -11632   -11651   -11801   -11968   -11642   -10682 
   -9764    -9627   -10023   -10417   -10999   -11933   -12839   -13284 
  -13173   -12952   -13274   -14104   -14855   -15493   -16218   -16901 
  -17533   -18013   -18227   -18266   -18161   -18270   -18962   -19855 
  -20423   -20478   -20003   -19330   -19010   -19207   -19666   -20206 
  -20590   -20372   -19683   -19153   -19118   -19557   -20008   -20146 
  -20346   -20646   -20510   -19824   -18829   -17867   -17238   -16575 
  -15542   -14473   -13561   -12823   -12396   -12264   -11997   -11382 
  -11023   -11213   -11820   -12923   -13881   -14019   -13875   -14159 
  -14743   -15091   -15281   -15780   -16438   -16969   -17299   -17380 
  -17442   -17316   -16414   -14889   -13505   -12734   -12273   -11786 
  -11718   -12389   -13568   -14811   -15778   -16770   -17768   -18103 
  -18086   -18250   -18328   -18538   -18786   -18383   -17777   -17540 
  -17476   -17472   -17344   -16929   -16351   -15633   -14759   -13940 
  -13369   -13179   -13409   -13721   -14089   -14903   -15907   -16648 
  -17095   -17250   -17311   -17485   -17562   -17637   -18254   -19383 
  -20557   -21419   -21630   -21152   -20129   -18763   -17531   -16840 
  -16940   -17488   -17816   -18108   -18340   -17806   -16577   -15096 
  -13611   -12624   -12211   -11985   -11753   -11450   -11330   -11614 
