Origin Time       2011/03/11 14:46:00
Lat.              38.103
Long.             142.860
Depth. (km)       24
Mag.              9.0
Station Code      AKT021
Station Lat.      39.9940
Station Long.     140.4035
Station Height(m) 119
Record Time       2011/03/11 14:47:20
Sampling Freq(Hz) 100Hz
Duration Time(s)  287
Dir.              N-S
Scale Factor      3920(gal)/6182761
Max. Acc. (gal)   21.540
Last Correction   2011/03/11 14:47:05
Memo.             
[...]
   12799    13089    13161    12942    12193    10982     9457     7600 
    5575     3721     2217     1227      820      717      733     1017 
    1668     2754     4402     6328     7884     8776     9145     9260 
    9448    10014    10925    11693    11908    11656    11061     9867 
    7999     6349     5900     6517     7769     9812    12609    15374 
   17304    18351    19048    19792    20428    20524    20027    19159 
   18049    17075    16408    15271    13097    10471     8179     6726 
    6517     7167     7635     7618     7527     7673     8359     9526 
   10287    10052     9352     8790     8396     8073     7674     7219 
    7104     7313     7319     7081     6995     7055     7342     8493 
   10671    13241    15584    17245    17923    17984    17835    16993 
   15261    13293    11331     9356     7512     5478     2927      195 
   -2055    -3360    -3800    -3775    -3776    -4130    -4359    -3831 
   -2779    -1726     -998     -642     -129      862     1818     2234 
    2141     1967     2117     2302     2042     1428      677      -50 
    -424     -108      875     1841     2116     1826     1473     1453 
    1770     2220     3020     4334     5584     6055     5607     4642 
    3956     4209     5449     7321     9121    10181    10380    10017 
    9826    10433    11421    11790    11258    10309     9212     8099 
    7487     7751     8554     9042     8607     7550     6625     6247 
    6396     6929     7845     9183    10926    12754    13716    13247 
   12098    11172    10542    10048     9775     9886    10451    11016 
   10640     8883     6075     2932      552     -219      204      547 
     -51    -1495    -2982    -3784    -3636    -2394     -106     2754 
    5517     7931    10122    11585    11683    10961    10441    10468 
   10639    10431     9762     8725     7461     6385     5658     4833 
    3723     2993     3156     3545     3205     2049      517     -677 
    -651      666     2631     4772     6617     7764     8362     8677 
    8767     8673     8461     8455     9155    10438    11503    11871 
   11741    11564    11865    12852    14061    15110    16120    17029 
   17643    17991    17912    16950    14929    12504    10797    10296 
   10483    10675    10737    10656    10039     8909     8064     7984 
    8552     9574    10545    10734     9885     8375     6743     5486 
    5156     5862     6863     7249     6759     5799     4845     4006 
    3219     2651     2663     3228     3834     4035     3315      987 
   -2874    -6952    -9695   -10471    -9740    -8644    -8179    -8331 
   -8357    -7698    -6006    -3147      314     3615     6588     9284 
   11481    12859    13448    13739    13977    13929    13659    13474 
   13326    13149    13187    13578    14252    15261    16603    17902 
   18645    18657    18271    17794    17098    16074    14897    13736 
   12722    12373    13389    15708    18456    20557    21005    19572 
   17200    14816    12573    10490     8817     7975     8450    10086 
   11792    12347    11114     8406     5436     3325     2159     1405 
     837      338     -554    -2155    -4332    -6694    -8626    -9827 
  -10616   -11236   -11554   -11509   -11179   -10346    -8656    -6115 
   -2992       -9     1761     2140     1957     1869     2057     2469 
    2832     3121     3803     4835     5346     4718     2823     -172 
   -3357    -5454    -5740    -4177    -1426     1331     3302     4132 
    3446     1572     -177     -872     -681       32     1071     2011 
    2647     3218     3689     3854     3891     4028     4182     4143 
    3675     2745     2000     2066     2764     4002     5791     7218 
    7512     7156     6866     6979     7828     9508    11488    13069 
   14038    14625    15217    15969    16477    16370    15793    14893 
   13608    12045    10618     9913    10490    12264    13928    13832 
   11575     8254     5493     4384     4850     5725     5653     4278 
    2319      789      299      527     1050     2364     4670     7166 
    9346    11198    12411    12820    12965    13388    13862    13851 
   13619    14213    16063    18303    19829    20326    20080    19504 
   18938    18456    17858    16972    15780    14472    13561    13431 
   13622    13228    11806     9373     6266     3345     1527     1300 
    2956     6504    11346    16318    19843    20595    18522    15011 
   12004    10590    10498    11137    12131    12951    13180    12904 
   12517    12357    12665    13506    14343    14382    13391    11749 
   10270     9928    10961    12470    13498    13714    12950    11313 
    9393     7820     7091     7593     9408    11966    14154    15149 
   14787    13360    11496     9803     8631     8164     8281     8519 
    8444     7718     5860     2879     -208    -2240    -2582    -1343 
     333     1169     1022      638      750     1720     3338     5060 
    6772     8649    10505    11992    12890    13033    12626    12426 
   13209    15093    17403    19286    20346    20789    21348    22612 
   24234    25306    25241    23963    21970    20116    18558    16704 
   14564    12884    12009    11805    12155    12896    13903    15177 
   16446    17236    17308    16461    14525    11984     9777     8561 
    8554     9296     9929    10144    10069     9744     9343     8906 
    7926     6161     4328     3267     3018     3275     4023     5205 
    6183     6216     5538     5043     5131     5680     6646     8118 
    9843    11254    12034    12162    11714    11080    11066    12102 
   13453    13914    13032    11440    10236     9911     9879     9145 
    7359     4941     2352     -256    -2878    -5525    -8089    -9838 
   -9632    -7365    -4126    -1182      450      649      186     -268 
    -211      488     1031      767      160     -186     -264     -181 
     234     1219     2993     5772     9117    11773    13053    13457 
   13506    13231    12748    12175    11314    10249     9736    10109 
   10502     9865     7957     5291     2748      954       51      124 
    1036     2101     2921     3839     5086     6428     7726     9137 
   10650    11768    12086    11784    11126    10295     9694     9644 
   10049    10373    10066     9182     8199     7578     7510     7834 
    8448     9398    10426    10959    10639     9645     8402     7298 
    6552     5913     4772     2860      763     -471     -430      264 
     677      310     -674    -1622    -1881    -1431     -964    -1056 
   -1550    -1892    -1736    -1198     -515      250      755      352 
    -834    -1745    -1688     -656     1379     4289     7328     9713 
   11226    11905    11882    11465    10905    10371     9993     9660 
    9051     7948     6411     4759     3573     3382     4176     5373 
    6360     6891     6910     6574     6376     6822     8226    10475 
   12901    14920    16057    15495    13051     9952     7607     6507 
    6706     7994     9333     9810     9763     9644     9216     8323 
    7240     6495     6636     7797     9649    11745    13666    14861 
   14649    12587     8801     4139       68    -2212    -2688    -2439 
   -2587    -3296    -3979    -3928    -2543      178     3501     6693 
    9439    11598    12993    13393    12757    11565    10446     9678 
    9582    10300    11032    10817     9773     8897     9012    10338 
   12646    15151    16961    17892    18045    17150    15144    12649 
   10310     8455     7188     6189     5054     3752     2494     1720 
    2017     3485     5445     7158     8411     9199     9359     8870 
    8305     8487     9587    10971    12048    12624    12309    10898 
    9305     8567     8821    10008    11982    14008    15106    14666 
   12795    10205     7612     5500     4252     3718     3231     2786 
    3104     4410     6226     7874     8645     8141     6600     4620 
    2688     1205      508      946     2877     5858     8685    10595 
   11441    11322    10792    10574    10810    11235    11856    12932 
   14234    14521    12534     8668     4656     1551     -809    -2783 
   -4635    -6556    -8196    -8969    -8684    -7656    -6713    -6512 
   -6845    -7095    -6646    -4987    -2152     1138     3920     5547 
    5841     4943     3408     2058     1284      684     -550    -2741 
   -5304    -7503    -8793    -8568    -6747    -4077    -1529      127 
     789     1059     1251     1210     1254     2067     3858     6637 
   10512    15000    19159    22510    24923    26122    25577    22719 
   17846    12496     8258     5573     4032     3190     2680     2160 
    1281     -440    -3161    -6326    -9018   -10248    -9199    -5768 
    -647     5206    10861    15440    18462    20045    20554    20154 
   19019    17758    16986    16829    17046    17225    17088    16622 
   15592    13487    10336     7034     4673     3942     4876     6771 
    8400     8737     7707     5892     3523      520    -3026    -6945 
  -10564   -12602   -12489   -10872    -8740    -6752    -4913    -2750 
     113     3333     5832     6956     7005     6628     6650     7843 
   10360    13643    16795    18991    19465    17563    13310     7736 
    2585     -751    -2161    -2630    -3389    -4955    -6874    -8200 
   -7978    -5877    -2534      796     3043     4020     4188     4104 
    4445     5677     7606     9816    11871    12862    11765     8660 
    5090     2796     2502     3971     6345     8427     9146     7978 
    5497     3166     1955     2066     3541     5576     6743     6893 
    6883     6965     7024     7171     7458     7953     8852     9930 
   10437     9856     8315     6476     5153     4734     5148     6038 
    6710     6417     4801     2246     -305    -2171    -3346    -4155 
   -4790    -5260    -5417    -4863    -3522    -1943     -507     1011 
    2915     5249     7970    10710    12831    14216    14817    13857 
   10977     7255     4300     3030     3217     3812     4061     3899 
    3247     2229     1345      536     -489    -1092     -142     2690 
    6529     9988    12323    13914    15554    17565    19487    20206 
   18759    15381    11350     7940     5852     5259     5894     7178 
    8509     9455     9931    10254    10965    12557    15010    17814 
   20483    22525    23310    22408    19986    16856    13784    10933 
    8293     6039     4296     2983     2098     1998     2863     4366 
    6021     7198     7429     6844     5597     3547      958    -1325 
   -2396    -1711      462     2942     4610     5254     5392     5920 
    7277     8605     8723     7395     4810     1168    -2812    -6132 
   -8078    -8242    -6798    -4719    -2999    -1879    -1015       37 
    1642     4033     7156    10784    14576    17722    19250    18812 
   16685    13433     9839     6672     4452     3404     3277     3384 
    3144     2513     1811     1450     1769     2662     3632     4404 
    5069     5998     7759    10592    14085    17611    20700    22859 
   23543    22487    19884    16325    12686     9868     8445     8555 
    9915    11845    13608    14704    14875    14180    13178    12845 
   13652    14769    15083    14501    13592    12816    12261    11592 
   10352     8317     5614     2938     1268      725      656     1136 
    2708     4985     6970     7766     6844     4607     2200      391 
    -879    -2014    -3248    -4431    -5156    -5118    -4207    -2558 
    -756      701     2264     4800     8278    11831    14826    17261 
   19486    21779    23893    25166    25039    23149    19390    14334 
    9212     5245     3107     2876     3884     4853     4824     3712 
    1981      244     -992    -1461    -1264     -965    -1096    -1525 
   -1799    -1783    -1566    -1225     -805     -214      728     1934 
    3031     3986     5279     7179     9287    10775    10965    10023 
    8762     7665     6768     6212     6193     6771     7791     8708 
    8876     8043     6455     4669     3108     1697      192    -1154 
   -1869    -2137    -2515    -3176    -4164    -5310    -5725    -4752 
   -2865     -681     1622     3836     5772     7285     8195     8646 
    8967     9157     9218     9525    10154    10422     9776     8728 
    8315     8936    10279    11997    14138    17079    20693    23830 
   25285    24547    21659    17525    13602    10463     7812     5508 
    3519     1931     1247     1798     3226     4852     6017     6422 
    6585     7289     8520     9434     9290     8222     6701     4699 
    2232      -13    -1123     -737      651     2011     2339     1574 
     811      880     1539     2326     3005     3225     2777     1897 
     786     -661    -2420    -3961    -4531    -3975    -2912    -2071 
   -1624    -1130      -28     2061     5116     8474    11325    13354 
   14438    14302    12853    10438     7858     6135     5836     6847 
    8691    10698    12229    12863    12395    11170    10062     9682 
   10122    11284    12808    14116    14578    13564    11075     8131 
    6088     5828     7413    10075    12653    14338    14888    14406 
   13180    11447     9417     7495     6096     5323     5066     5176 
    5214     4699     3705     2570     1474      394    -1065    -3390 
   -6390    -9118   -10485    -9701    -6963    -3846    -1953    -1544 
   -2043    -2971    -4010    -4798    -5069    -4678    -3350     -862 
    2621     6699    11007    15389    19884    24485    29091    33528 
   37427    40179    41066    39819    36968    33202    29002    25183 
   22456    20389    18129    15353    11868     7559     2884    -1215 
   -3869    -4925    -4977    -4614    -4116    -3650    -3251    -2845 
   -2302    -1476     -382      840     2179     3583     4711     5494 
    6555     8573    11340    13704    14614    13869    11770     8943 
    6462     5097     4640     4456     4276     4108     3851     3294 
    2194      320    -2338    -5322    -7843    -9274    -9391    -8224 
   -5850    -2326     2079     6747    10933    14188    16537    18152 
   19158    19687    19678    18877    17326    15475    13772    12436 
   11578    11218    11279    11632    11790    11121     9754     8565 
    8464     9929    12599    15526    17906    19110    18554    16181 
   12692     9234     6844     5849     5811     5996     5860     5365 
    4762     4214     3770     3353     2844     2301     1890     1757 
    1906     2157     2513     3314     4687     6157     7113     7355 
    6986     6222     5462     5141     5487     6580     8324    10437 
   12805    15333    17548    19070    20068    21086    22779    25372 
   28341    30960    32941    34302    34885    34493    33282    31584 
   29762    28375    27969    28534    29360    29490    28308    25819 
   22405    18508    14651    11348     8813     7003     5778     5012 
    4701     4883     5566     6683     7904     8751     8983     8709 
    8090     7075     5789     4692     3842     2576      276    -3140 
   -7513   -12340   -16576   -19257   -19955   -18777   -16488   -14036 
  -11742    -9472    -7236    -5129    -3096     -985     1318     3877 
    6602     9183    11363    13167    14862    16619    18122    18761 
   18226    16747    14889    13081    11270     9245     7275     5970 
    5652     6118     6808     7320     7559     7411     6815     5876 
    4736     3668     3046     3089     3754     4634     5134     5178 
    5090     4731     3895     3078     2888     3434     4509     5747 
    6832     7745     8603     9476    10390    11272    11941    12309 
   12531    12967    13987    15738    18006    20290    22190    23490 
   23825    22898    20758    17568    13681     9819     6592     3973 
    1599     -529    -2004    -2572    -2265    -1358     -327      529 
    1013      825     -182    -2020    -4575    -7334    -9442   -10266 
   -9831    -8508    -6682    -4802    -3264    -2206    -1486     -800 
     216     1801     3743     5557     6980     7701     7168     5417 
    3275     1503      473       97     -145     -439     -515     -243 
     583     2275     4592     6757     8157     8771     9039     9373 
    9692     9489     8677     7972     7949     8509     9399    10244 
   10573    10357     9922     9463     8830     7761     6477     5541 
    4944     4098     2739     1114     -475    -1885    -3111    -4260 
   -5379    -6297    -6685    -6329    -5318    -4014    -2816    -1794 
    -672      720     2183     3313     3784     3548     2891     2287 
    2129     2524     3232     3853     4140     4053     3550     2361 
     246    -2255    -3833    -3665    -2163     -285     1204     1841 
    1610      921       22    -1247    -2865    -4324    -5123    -5188 
   -4674    -3640    -2252     -933       86      949     1757     2426 
    2909     3261     3659     4357     5403     6512     7301     7597 
    7480     7152     6822     6576     6549     7152     8661    10703 
   12434    13165    12635    10974     8828     6900     5281     3856 
    2828     2515     3008     3942     4599     4586     4218     4001 
    4077     4362     4826     5426     6041     6663     7430     8456 
    9730    11146    12691    14420    16056    16958    16901    16705 
   17539    19624    22117    24019    24734    24011    21998    19493 
   17453    16030    14684    13170    11749    10631     9759     8927 
    7975     7122     6659     6329     5810     5203     4578     3912 
    3414     3327     3693     4305     4827     5079     5044     4495 
    3079     1127     -406    -1112    -1255    -1014     -557     -410 
   -1124    -2780    -5010    -7115    -8211    -7735    -5848    -3327 
   -1003      872     2518     4061     5460     6664     7601     8250 
    8672     8916     9163     9586     9934     9842     9189     7843 
    5794     3377      902    -1544    -3699    -5117    -5736    -5670 
   -4626    -2525      -73     2037     3567     4375     4537     4610 
    5341     7206    10069    13239    15933    17776    18877    19502 
   19879    20102    20083    19613    18576    17193    15873    14923 
   14349    13673    12317    10287     8090     6007     3956     2057 
     625     -311     -812     -736     -228      114       32      -47 
     394     1522     3318     5630     8043    10138    11879    13500 
   15176    16955    18771    20449    21821    22715    22922    22491 
   21767    20967    20142    19305    18234    16484    13717    10021 
    5934     2073    -1257    -3940    -5790    -6749    -7070    -6894 
   -6151    -5148    -4407    -3739    -2481     -500     1836     4313 
    6905     9493    12073    14727    17221    19330    21189    22967 
   24540    25584    25796    25029    23290    20754    17833    15116 
   13145    12255    12476    13437    14543    15369    15919    16478 
   17221    17943    18104    17295    15594    13323    10698     7697 
    4240      594    -2659    -5123    -6870    -8331    -9739   -10416 
   -9202    -5649     -421     5090     9501    12303    14043    15535 
   17167    18921    20482    21493    21928    21726    20422    17943 
   15155    13006    11739    11050    10322     8925     6771     4463 
    2786     2069     2046     2383     3080     4170     5358     6307 
    7011     7495     7704     7888     8502     9673    10976    11810 
