Origin Time       2011/03/11 14:46:00
Lat.              38.103
Long.             142.860
Depth. (km)       24
Mag.              9.0
Station Code      AKT017
Station Lat.      39.2978
Station Long.     140.5621
Station Height(m) 81
Record Time       2011/03/11 14:47:04
Sampling Freq(Hz) 100Hz
Duration Time(s)  300
Dir.              N-S
Scale Factor      3920(gal)/6182761
Max. Acc. (gal)   56.665
Last Correction   2011/03/11 14:46:49
Memo.             
[...]
    1062    12004    14990    10201     2876    -1549     -561     3657 
    5516     1657    -5999   -13701   -18901   -20654   -20059   -18910 
  -17871   -17048   -17063   -18117   -17854   -13380    -6471    -2526 
   -4453   -10007   -13590   -10781    -2853     3812     4139     -463 
   -4637    -4418      917     8552    13848    14346    10703     4661 
   -2188    -8931   -15538   -22081   -27806   -31874   -33831   -32319 
  -26716   -19700   -14467   -11527    -9486    -6822    -3128      830 
    3473     2635    -2533   -10441   -18199   -22796   -22792   -18701 
  -12309    -7438    -7407   -10881   -13261   -10753    -2776     7784 
   16008    17117     9177    -5403   -20563   -29179   -27701   -19043 
  -10211    -7804   -13993   -24582   -33001   -35120   -28911   -15188 
     742    11995    14741    11168     6363     2094    -1784    -3488 
   -1553     1911     2248    -3333   -12715   -20325   -21645   -16418 
   -7897     -486     3227     4319     4731     4178     1853     -796 
   -1601    -1161    -2815    -9351   -19609   -29403   -35833   -38003 
  -35709   -29739   -21216   -11373    -3374    -1605    -7582   -17895 
  -25764   -25043   -15598    -4231      794    -4135   -14768   -22088 
  -20881   -13469    -5674    -1660     -907      554     5459    12465 
   17084    15354     7545     -883    -2896     2511     8530     8709 
    2730    -5383   -11393   -14546   -16731   -18443   -18601   -16522 
  -12549    -8015    -3804      607     5477     9073     8362     1723 
   -9171   -19924   -25882   -26024   -24051   -22920   -21115   -17281 
  -12830    -8598    -5215    -4764    -8077   -13256   -16694   -14164 
   -4437     6894    11527     7356     -427    -5281    -3984     1512 
    6202     6654     2726    -3576    -9082   -11181    -9647    -5324 
     168     2673    -1046    -9145   -17443   -22863   -23237   -17968 
   -9384    -1226     3342     2895    -1028    -5716    -9629   -11094 
   -8805    -4724    -2777    -4914    -9886   -14895   -16821   -13225 
   -5033     3802    10248    12960    11568     7437     2551    -1881 
   -5138    -7061    -7542    -5960    -2749      178      977    -1205 
   -5242    -8901   -11333   -12185   -10856    -8827    -8585   -10305 
  -12355   -12992   -11078    -6727    -1726      313    -3370   -10034 
  -12761    -8304     -805     3337     1623    -3539    -7501    -7055 
   -2236     4631     9651     9328     4244    -2615    -9753   -15342 
  -15969   -10765    -3707       70    -1501    -6847   -11668   -11646 
   -6790    -1541     -245    -3604    -8588   -11331   -10564    -7970 
   -5558    -4075    -3671    -4333    -5756    -7385    -8104    -6558 
   -2256     3790     8112     5911    -3725   -16186   -25821   -29114 
  -25879   -20273   -18375   -23026   -31651   -38558   -38413   -29366 
  -14479       78     8117     7541     2969      620     1613     3235 
    2632    -1862    -9329   -16976   -22659   -25044   -23602   -19580 
  -14568    -9220    -4631    -2214    -1580    -1244    -1598    -4024 
   -7438    -8890    -7112    -3563       19     3598     7307     9861 
    9574     5590     -863    -6053    -6934    -4059     -183     2293 
    2129    -1337    -8133   -16591   -23610   -26036   -22216   -13946 
   -6337    -4172    -8112   -14080   -16192   -11774    -3996     1835 
    4027     4633     4753     2880    -2234    -9146   -13655   -12211 
   -6071     -358      306    -4466   -10107   -11807    -9375    -5205 
    -427     4194     7239     7774     5360      769    -3144    -3990 
   -1750     2469     6723     8527     7238     4159      -44    -5374 
  -10492   -13205   -12334    -8561    -5143    -6120   -12075   -19564 
  -24432   -23955   -17549    -7874     -374      103    -7048   -16668 
  -21011   -17101    -9332    -3855    -3341    -6732   -11348   -15484 
  -18614   -19348   -16402   -10520    -3997     -843    -4647   -14236 
  -24120   -28339   -24886   -17757   -12238    -9817    -9135    -9186 
  -10422   -13405   -17555   -21280   -22839   -22107   -20889   -20875 
  -23070   -27918   -33478   -35861   -32909   -25818   -17715   -11709 
   -9488   -10708   -14164   -19161   -23338   -21978   -13145     -591 
    8818     9977     3631    -5006   -10463   -10021    -5499     -938 
    1179     -294    -5975   -14686   -22932   -26032   -21574   -13191 
   -7769    -8864   -14681   -19979   -19788   -13274    -5300    -3874 
  -12185   -23964   -29818   -25540   -14345    -3976     -423    -3527 
   -8546   -10659    -8262    -3398      390      862    -2079    -7407 
  -13145   -16604   -16099   -11747    -4860     1959     5152     2634 
   -4970   -14759   -21789   -22661   -19874   -19129   -22352   -25803 
  -25489   -21350   -15753   -11293    -8721    -5722      135     8049 
   14326    14994     8774     -827    -7255    -6905    -1973     2608 
    2428    -3822   -12397   -17286   -16067   -10988    -4738     1551 
    7033    10601    10541     5052    -4847   -14294   -18041   -14584 
   -7290    -1547     -505    -4303   -11297   -17934   -20926   -21005 
  -21079   -21471   -20164   -16644   -13142   -11364    -9604    -5201 
    1858     9111    12790     9811     1373    -7010    -9517    -4043 
    5497    11842    10861     4596    -1392    -3257    -1330     2144 
    4562     3226    -2617   -10801   -17418   -19008   -14392    -4851 
    5434    10607     8184     1809    -2166     -532     4333     7984 
    7804     2556    -7084   -16582   -21376   -22128   -22927   -26164 
  -30439   -32408   -30025   -23560   -14845    -6976    -2997    -3517 
   -6234    -8106    -7713    -5567    -3596    -3699    -4807    -4078 
    -972     3125     6182     6067     3084     -111    -1079      731 
    2729     1580    -2523    -7125   -10650   -12017   -10889    -8836 
   -7758    -8036    -8926    -9127    -7220    -2855     2743     6894 
    6553     1598    -4392    -8388   -10319   -11454   -13212   -16358 
  -20360   -24314   -27559   -28994   -27653   -24688   -22325   -20948 
  -19477   -16392   -10519    -3593      753     1231     -311     -996 
     904     4788     8324     9450     8576     7609     6425     2872 
   -3670   -10612   -14382   -13497    -9650    -7192    -9776   -15771 
  -19972   -19899   -17261   -14670   -12871   -11067   -10403   -14020 
  -21761   -29127   -31392   -26914   -19300   -15158   -17038   -21079 
  -22254   -19034   -13162    -7604    -4037     -931     3860     8732 
    9643     5347    -1313    -6162    -5791      297     8535    15092 
   19251    21258    20599    17127    11693     6738     5432     8594 
   13830    17040    14548     5613    -6456   -15701   -17890   -14381 
   -9969    -7942    -8373    -9553   -10054    -9707    -9196    -8858 
   -7934    -5394     -979     4158     7696     8372     6459     2319 
   -1928    -1826     4196    11585    14336    10821     3566    -4449 
  -11314   -15210   -15081   -13051   -12771   -15115   -18154   -20137 
  -20864   -20637   -19045   -15857   -12367   -10574   -10739   -11331 
  -11966   -13271   -14645   -15233   -14752   -13026   -11045   -10525 
  -11465   -11837    -9524    -4075     2451     5889     3492    -2689 
   -8815   -13020   -14524   -14146   -14593   -16657   -18950   -21324 
  -24092   -25790   -24943   -22331   -19354   -16033   -12076    -7815 
   -3791     -379     2298     3723     3718     3884     5611     7984 
    9064     7348     2794    -2564    -6429    -7805    -6632    -4275 
   -2572    -1293      387     1173     -700    -4692    -8817   -11804 
  -13076   -12966   -12956   -13459   -13511   -12946   -12469   -12832 
  -14459   -16626   -17934   -17959   -17143   -15466   -13260   -12450 
  -14151   -16839   -19151   -21390   -22880   -21209   -15492    -8104 
   -2437      -59      401     1183     2167     2283     2829     5885 
   10805    14905    16491    15264    11792     8077     5826     4217 
     892    -5705   -14311   -21910   -27223   -30184   -29728   -25322 
  -19167   -14676   -12549   -10593    -7220    -2378     2759     5976 
    6445     5723     5795     7625    10018    10224     7257     3459 
    2341     4401     6012     4463      781    -2977    -5138    -4963 
   -3393    -1837    -1193    -1539    -2014    -1933    -1455    -1339 
   -2335    -4492    -7798   -12081   -15597   -16301   -14014   -10074 
   -6904    -6847    -8910    -9464    -7568    -5802    -6002    -6957 
   -5745    -1222     3982     5613     1508    -5710   -10087    -8027 
    -910     6902    11057    10544     7729     4798     2512     1277 
    1457     2956     5237     8064    11289    13837    14176    11535 
    6240     -225    -5721    -8791    -9762   -10805   -13766   -17571 
  -19529   -18598   -16346   -15503   -16881   -18523   -19133   -19368 
  -20080   -21608   -22476   -19543   -11827    -2514     3620     4838 
    4324     6170    10201    12389    10246     5965     3159     2205 
     730    -2642    -7004   -10016    -9661    -6724    -4025    -3049 
   -2559      122     5586    10866    13180    12743    11602    10921 
    9012     4589      527      515     5145    11366    13327     7006 
   -5273   -16401   -19711   -13672    -2998     4907     4992    -2291 
  -10710   -13198    -9342    -4859    -4349    -8217   -13804   -17784 
  -19215   -19162   -18387   -17440   -16787   -16998   -19369   -23649 
  -26805   -25643   -18973    -9420    -3340    -5309   -12760   -18029 
  -15919    -7801     1477     8337    12333    14549    15258    13877 
    9894     4626     1917     4042     8378    10425     8461     3882 
   -1485    -6169    -8669    -7798    -3011     3982     8542     7444 
    3156      928     2619     5323     5214     2271      914     4451 
    9935    11243     6343    -1123    -6087    -6616    -5323    -5153 
   -4982    -2162     3359     9270    12870    12996    10999     9193 
    8891     9991    11066    10038     6026      332    -4926    -8492 
  -10361   -11515   -12852   -14285   -15790   -18033   -20849   -22938 
  -23399   -22032   -18727   -14242   -10379    -7818    -6011    -5580 
   -7235    -9166    -8967    -6736    -5047    -7475   -15757   -26722 
  -34573   -37348   -38029   -39179   -40200   -39285   -35907   -32904 
  -35075   -42341   -46839   -41272   -28049   -16523   -13237   -17354 
  -23540   -27110   -27027   -24571   -20155   -13559    -6511    -3025 
   -6989   -18838   -33603   -43029   -41783   -31961   -20113   -10785 
   -4191     1833     8839    15884    21233    24754    27047    28744 
   30091    29502    25727    20313    15052    10895     9362    10101 
    9872     6899     2441    -1532    -3779    -3864    -1482     2961 
    7524    10099     9985     9011    10544    15149    19262    18947 
   12897     2835    -7669   -15298   -18388   -17531   -15275   -14044 
  -13634   -10465    -1215    12002    23121    27363    23642    15500 
    8090     3136     -184    -3001    -7239   -14381   -23578   -31568 
  -34818   -32648   -26922   -20052   -14918   -13463   -14372   -14694 
  -13372   -11441    -9907    -8572    -6619    -4783    -5263    -8534 
  -13305   -18627   -23404   -26206   -26839   -26338   -25669   -25558 
  -25906   -24686   -19490   -10365     -482     6322     8708     7677 
    5483     5192     7718    10812    12280    11490     9055     5883 
    1713    -3689    -8842   -11094    -8188     -609     7820    12150 
    8622    -2512   -15757   -25193   -30227   -34304   -39038   -42384 
  -42642   -41536   -42382   -46484   -51930   -55127   -53384   -47912 
  -43427   -42875   -44468   -44148   -39351   -30062   -17012    -1500 
   13839    26489    34823    38140    37730    36413    36077    36188 
   34790    30966    26470    24533    26018    27358    24221    16608 
    7977      309    -6309   -10378    -9663    -4140     4503    14452 
   23405    28926    29585    24357    13506      557   -10096   -15783 
  -15490   -11601    -9910   -14513   -24610   -36734   -47562   -55314 
  -60434   -63824   -65247   -64550   -61932   -57215   -50381   -41738 
  -31860   -22451   -16118   -14600   -17716   -23519   -28400   -28211 
  -21362   -10799    -2193      906     -117    -2039    -3046    -2021 
    1649     6957    11774    13954    11484     3755    -6592   -15065 
  -18564   -15862    -6272     9190    26153    38572    40995    31396 
   14960     2347     1691    12125    25718    35773    39549    35295 
   23961    10222    -1264    -7088    -6253    -1721     1168    -3525 
  -17725   -35853   -50069   -55177   -49435   -35650   -19000    -4579 
    1087    -6334   -21244   -31885   -31206   -18848      711    18631 
   26697    22078     6959   -13175   -31588   -43104   -46770   -45404 
  -42124   -39209   -38279   -38871   -39082   -37117   -32520   -28552 
  -29917   -37909   -50563   -63409   -69660   -64884   -50982   -33717 
  -19211   -12269   -13008   -15829   -14967    -8771     1808    14805 
   27556    36868    39266    33375    21574     9222     2288     1701 
    2286       60    -4391    -8404    -8901    -4539     2705     9300 
   12831    13163    11641     9141     4613    -3187   -11874   -17143 
  -18972   -21149   -25394   -30284   -33776   -33304   -25345    -8396 
   14107    35974    52923    64305    70976    72871    69848    63390 
   55915    49641    46714    48419    52535    54007    50385    43851 
   37669    33372    30257    26034    18321     5882   -10314   -27340 
  -42447   -54120   -61864   -65926   -67524   -70135   -77030   -86268 
  -93222   -96337   -96573   -94970   -91745   -85640   -74722   -57851 
  -36697   -16755    -2797     5818    12502    19876    28996    37918 
   43294    43903    40026    31960    20589     8385     -958    -5389 
   -5734    -3834    -1775    -1528    -3888    -8760   -15709   -23165 
  -27486   -24410   -12861     2895    15206    18883    15623    10354 
    6520     6289     8971     9988     5453    -4621   -17481   -30226 
  -41443   -49583   -52320   -49400   -43673   -39773   -42587   -53284 
  -65489   -69724   -62411   -47829   -33966   -27891   -32010   -43170 
  -54048   -57129   -50055   -36224   -20432    -5160     7884    16327 
   21127    26301    33276    39642    41723    37070    25974    12067 
     968    -3567    -1471     4638    10631    13255    11701     6749 
     794    -2688    -2002     1508     5275     8274    11954    17674 
   24301    29558    31448    27833    18201     6341    -1834    -3426 
    -234     3315     3096    -3002   -14743   -29260   -42430   -51341 
  -54606   -52070   -44843   -35289   -27315   -24061   -25060   -28160 
  -32379   -37228   -41790   -45478   -47760   -47919   -46908   -46965 
  -48096   -47597   -42900   -33102   -19565    -5723     4955    10355 
   10682     8755     7995    10897    17195    22253    20778    11123 
   -4199   -19022   -27058   -26319   -17646    -1832    18287    35880 
   43946    40762    30715    21285    18567    22142    24896    19943 
    6460   -10538   -23773   -27584   -20217    -3728    17425    37399 
   50162    52589    46828    38442    32871    32906    37571    43246 
   45091    39632    28799    18092    11106     8769     9525     8928 
    3680    -4380   -10570   -12243   -10719    -9189    -9901   -12977 
  -16550   -18995   -20461   -21569   -22796   -24208   -24672   -23296 
  -20963   -18557   -15063    -9129    -1279     5753     7738     2224 
   -7548   -14582   -14341    -7981     -924      636    -6320   -19202 
  -32166   -41647   -47227   -48112   -43656   -35919   -28414   -24155 
  -24389   -26917   -27519   -23395   -13518     1254    16951    28381 
   32390    29408    22882    16994    14461    14930    15151    11944 
    4533    -6080   -17866   -27538   -31803   -29225   -21649   -14752 
  -13956   -18659   -23188   -22612   -16324    -7631    -1367    -1434 
   -8266   -18238   -26433   -29131   -24975   -15696    -4287     7073 
   16431    22466    24989    23060    15831     5499    -3450    -7275 
   -5434    -1002     2109     2550     2074     2972     5536     7690 
    6814     2830    -2238    -7713   -13000   -15608   -15301   -15625 
  -19019   -24733   -30617   -35108   -38935   -43599   -48891   -53333 
  -54426   -49812   -39968   -27411   -14558    -3166     6404    13785 
   16199    11080      787    -8862   -14403   -15545   -12492    -6388 
    1138     9607    17294    20696    18918    14790    11524    11140 
   14382    19225    22013    22016    21060    19296    15615     9396 
     402   -10421   -20428   -26196   -26225   -23179   -21319   -22908 
  -27972   -34906   -41054   -44288   -43818   -39096   -29503   -15793 
    -563    12889    21911    25086    23220    19658    17396    17608 
   20650    25299    28387    26116    17255     5827    -2282    -3391 
    3537    15632    27021    33432    34122    30228    22411    11647 
    2302    -1189      379     3485     6072     7994     9200     8751 
    7599     8065     9547    10046     8379     2818    -7310   -20162 
  -32760   -42026   -46753   -48006   -46837   -44083   -40013   -33440 
  -23837   -12773    -3626     -636    -5281   -14637   -23950   -27980 
  -23053   -11597    -1561       10    -8543   -22965   -35750   -40669 
  -36066   -26391   -18753   -16452   -18380   -21714   -24246   -25715 
  -25061   -20763   -14023    -6598     -981    -2503   -14016   -31864 
  -49174   -59836   -61285   -55839   -48585   -42693   -37313   -31056 
  -24781   -19888   -16702   -14641   -12371    -7535     2209    15873 
   28008    32382    26555    13749       56   -10489   -17195   -21021 
  -23016   -23911   -24285   -23184   -18425   -10331    -2223     2010 
    -781   -10251   -21211   -27487   -26396   -20846   -17559   -21052 
  -29633   -37527   -39944   -36297   -29416   -22832   -18593   -16153 
  -13313    -9130    -4496      700     7435    14476    19413    21498 
   21943    23286    27118    32475    37962    42329    43083    38643 
   30704    22113    14085     6852     1901     1481     5669    11646 
   15654    14787     8485     -996   -10641   -18492   -23448   -25335 
  -25068   -23754   -22279   -21360   -20774   -19305   -16688   -14173 
  -12604   -12127   -12912   -14492   -16071   -18148   -21972   -26203 
  -26204   -18971    -6746     4850    10618     9397     4530      240 
    -982     1596     7304    14750    22758    29923    33354    29934 
   19736     7766     1396     4153    12566    20300    23362    21300 
   16273    10900     6053     1425    -2956    -6730   -10227   -15780 
  -25463   -36687   -44032   -43929   -35635   -22445   -11786    -9084 
  -12275   -15044   -13790    -9626    -5217    -2393    -2316    -4700 
   -7238    -7943    -6835    -4901    -3387    -3106    -3376    -3612 
   -4547    -6473    -9143   -12666   -16324   -18429   -18133   -16197 
  -14534   -16101   -23332   -34193   -43108   -47371   -48037   -46065 
  -41468   -33521   -22023    -9929    -1692      728    -1367    -4341 
   -4697    -2501     -599    -1068    -3170    -3846    -1761      237 
   -1377    -6781   -12960   -16904   -17845   -16583   -14818   -14826 
  -17133   -19034   -17699   -13935   -10999   -10734   -11995   -11722 
   -7113     1905    11450    15869    11788     -338   -17116   -33201 
  -43294   -44704   -38154   -27431   -18520   -16320   -20546   -26307 
  -28460   -24147   -13772    -1650     5857     4488    -4880   -17595 
