Origin Time       2011/03/11 14:46:00
Lat.              38.103
Long.             142.860
Depth. (km)       24
Mag.              9.0
Station Code      AKT002
Station Lat.      40.2676
Station Long.     140.5664
Station Height(m) 69
Record Time       2011/03/11 14:47:20
Sampling Freq(Hz) 100Hz
Duration Time(s)  300
Dir.              E-W
Scale Factor      3920(gal)/6182761
Max. Acc. (gal)   57.725
Last Correction   2011/03/11 14:47:05
Memo.             
[...]
    6762     9711    12372    14896    17270    19610    21919    23958 
   25498    26285    25936    24323    21806    18944    16235    13988 
   12322    11175    10269     9362     8460     7623     6867     6304 
    6213     6903     8549    11176    14549    18058    21059    23246 
   24578    25167    25212    24862    24163    23049    21549    19945 
   18468    17076    15556    13758    11801     9820     7599     4953 
    2434      908      511      814     1528     2316     2627     2181 
    1142     -234    -1697    -2893    -3660    -4232    -4953    -5977 
   -7091    -7867    -8190    -8477    -9410   -11510   -14728   -18280 
  -20859   -21398   -19930   -17477   -15113   -13303   -11880   -10242 
   -7645    -3775      730     4609     7037     8090     8159     7458 
    6234     4700     2579     -619    -4928   -10066   -15751   -21382 
  -26052   -29254   -31009   -31443   -30881   -29902   -28724   -26961 
  -24228   -20507   -15986   -11016    -6204    -2055     1404     4164 
    5926     6862     7582     7972     7373     5725     3447      781 
   -2099    -4763    -6591    -7157    -6542    -5268    -4031    -3317 
   -3041    -2841    -2532    -1917     -877      108      316     -452 
   -1959    -4017    -6436    -8940   -11445   -13967   -16180   -17518 
  -17647   -16571   -14441   -11550    -8413    -5567    -3241    -1272 
     735     3156     6119     9356    12283    14453    15922    16930 
   17368    17087    16395    15611    14565    13067    11312     9609 
    8166     7018     5855     4302     2454      671     -846    -1767 
   -1580     -186     2052     4687     7114     8798     9920    11120 
   12620    14153    15628    17311    19228    21080    22796    24346 
   25178    24692    23149    21415    19957    18770    17978    17655 
   17402    16881    16280    15856    15863    16661    18034    19140 
   19416    18861    17629    15908    14070    12464    11094     9640 
    7575     4519      833    -2442    -4335    -4437    -2580     1411 
    6974    12609    17251    21006    24374    27705    31231    34816 
   37740    39242    39193    37789    34897    30421    24853    18588 
   11293     2676    -6900   -16979   -27398   -37779   -47461   -55999 
  -63094   -68412   -71825   -73450   -73415   -71758   -68499   -63765 
  -57748   -50821   -43478   -35875   -28265   -21271   -14989    -8984 
   -2987     3066     8921    13969    17777    20382    21969    22661 
   22820    22959    23170    23174    22658    21380    19337    16690 
   13583    10202     6667     2945    -1165    -5881   -11046   -16388 
  -21777   -26521   -29659   -31229   -31930   -32236   -32499   -32910 
  -33381   -33588   -33023   -31566   -29729   -28152   -27169   -26638 
  -26121   -25195   -23665   -21486   -18361   -13979    -8754    -3693 
     401     3296     5243     6785     8475    10667    13340    15756 
   16649    15110    11049     5067    -1800    -8483   -14314   -19287 
  -23924   -28502   -32595   -35610   -36992   -36083   -32685   -27432 
  -21307   -15063    -9028    -3307     1990     6763    11072    15003 
   18261    20307    20952    20445    19012    16691    13645     9982 
    5518      402    -4749    -9476   -13532   -16548   -17944   -17216 
  -14481   -10555    -6544    -3367    -1344     -224      490     1211 
    1912     2181     1866     1367     1057      878      830     1079 
    1437     1537     1147     -180    -2939    -6983   -11627   -16266 
  -20414   -23551   -25420   -26256   -26168   -24793   -22157   -18854 
  -15127   -10823    -5946     -773     4273     8832    12425    14538 
   15154    14301    11714     7764     3384    -1104    -5909   -10967 
  -15811   -19858   -22718   -24289   -24545   -23412   -20944   -17362 
  -12929    -7983    -2837     2385     7423    11781    15197    17696 
   19210    19628    19208    18506    17820    17070    16281    15726 
   15357    14840    14438    14778    16041    18117    20538    22323 
   22786    22014    20514    18790    17051    15254    13212    10623 
    7487     4400     1986      366     -629    -1144    -1306    -1282 
   -1201    -1037     -531      514     1761     2478     2081      386 
   -2277    -5144    -7521    -9138   -10108   -10831   -11674   -12598 
  -13131   -12553   -10208    -6017     -853     3816     7042     8930 
   10046    11011    12506    14757    17210    19309    21170    23219 
   25580    28005    30131    31708    32732    33420    34053    34669 
   34579    32784    29229    24918    20771    17076    13783    10763 
    7862     5189     3357     2999     4400     7502    11226    13848 
   14715    14160    12449     9825     6624     2971    -1214    -5836 
  -10691   -15915   -21709   -27810   -33795   -39240   -43302   -45158 
  -44943   -43265   -40291   -36204   -31620   -26827   -21473   -15341 
   -8833    -2537     3078     7456    10276    11919    12934    13404 
   13076    11602     8484     3374    -3344   -10700   -17826   -24233 
  -29779   -34755   -39572   -44121   -48019   -51272   -53838   -55017 
  -54020   -50627   -44972   -37433   -28849   -20015   -11046    -1773 
    7830    17787    28027    38023    46770    53477    58165    61358 
   63562    65124    66009    65538    62709    56973    48590    38281 
   27008    16064     6487    -1552    -8600   -15417   -22096   -27997 
  -32654   -35792   -37078   -36664   -35551   -34915   -35018   -35147 
  -34508   -32847   -30422   -27473   -24030   -20419   -17185   -14429 
  -11985    -9962    -8646    -8292    -9163   -11358   -14550   -18167 
  -21740   -24943   -27641   -30025   -32263   -33909   -34191   -33169 
  -31975   -31435   -31222   -30668   -29458   -27421   -24448   -20762 
  -17124   -14601   -13762   -14252   -15239   -15983   -16217   -16278 
  -16634   -17271   -17535   -16462   -13426    -8521    -2472     3575 
    8635    12653    16485    21175    27120    33682    39820    44824 
   48148    49276    48216    45655    42390    38821    35042    31072 
   26765    21907    16663    11456     6316      992    -4367    -9143 
  -12795   -15296   -17108   -18627   -19658   -19482   -17384   -13160 
   -7231     -301     7006    14326    21572    28687    35341    41118 
   45685    48552    49434    48583    46019    41275    34154    25025 
   14715     4260    -5532   -14286   -21995   -28684   -34079   -37922 
  -40084   -40256   -38259   -34212   -28364   -21286   -13582    -5524 
    2584    10400    17918    25148    31445    35801    37963    38311 
   36848    33583    28991    23227    16132     8114       24    -7685 
  -14921   -21358   -26719   -31184   -34889   -37578   -39142   -39873 
  -39782   -38281   -34806   -29299   -22154   -14150    -6281      856 
    7357    13384    19029    24801    31126    37701    43815    48650 
   51420    51690    49532    45717    41278    36524    30979    24155 
   16257     8270     1363    -3821    -7592   -10763   -13663   -16081 
  -17777   -18456   -17700   -15391   -12011    -8363    -5070    -2343 
    -221     1183     2001     2667     3351     3984     4554     4866 
    4842     4753     4490     3706     2703     1887     1090      293 
    -255     -745    -1662    -3090    -4418    -4993    -4755    -3733 
   -2064     -503      339      604      496     -195    -1530    -2990 
   -4147    -5248    -6725    -8791   -11679   -15338   -19119   -22536 
  -25535   -27808   -29031   -29400   -29036   -27587   -24796   -20838 
  -16121   -10995    -5539      199     6000    11886    17836    23159 
   27191    29774    30673    29588    26475    21315    14045     4885 
   -5471   -16227   -26768   -36336   -44221   -50301   -54776   -57745 
  -58998   -58266   -55980   -52771   -48351   -42200   -34742   -27200 
  -20532   -14768    -9550    -4596      398     5509    10600    15656 
   20579    24935    28131    29885    30419    29935    28369    25779 
   22349    18170    13379     8524     4500     1757      -31    -1299 
   -2234    -2932    -3277    -2884    -1344     1587     5870    11047 
   16365    21165    25224    28737    31927    34646    36341    36579 
   35424    33028    29499    25174    20422    15572    11038     7061 
    3467     -266    -4534    -9027   -13039   -16223   -18566   -20041 
  -20815   -21431   -22396   -23748   -25122   -26133   -26574   -26354 
  -25655   -25050   -24985   -25228   -25043   -23823   -21456   -18263 
  -14769   -11460    -8641    -6241    -3727     -467     3738     8490 
   13041    16812    19731    21975    23505    24232    24198    23378 
   21715    19312    16674    14510    12857    11174     9356     7718 
    6313     4893     3225     1360     -351    -1516    -1852    -1142 
     824     4027     7981    12045    15757    18677    20330    20641 
   19878    17873    14197     9095     3339    -2646    -8915   -15415 
  -21768   -27660   -32900   -37084   -39690   -40508   -39595   -36971 
  -32725   -27150   -20586   -13398    -6212      202     5673    10573 
   14849    18310    21287    24063    26765    29683    32689    35030 
   36015    35461    33708    31327    28635    25484    21419    16109 
    9693     2599    -4736   -11977   -19033   -25851   -32104   -37300 
  -41078   -43309   -44013   -43288   -41400   -38805   -35859   -32542 
  -28714   -24587   -20729   -17747   -16034   -15648   -16200   -16920 
  -17142   -16714   -15811   -14714   -13686   -12741   -11655   -10289 
   -8728    -7204    -5974    -5298    -5263    -5708    -6474    -7442 
   -8586   -10176   -12533   -15622   -18837   -21449   -23295   -24497 
  -24955   -24521   -23244   -21379   -19158   -16605   -13741   -10664 
   -7288    -3332     1324     6470    11705    16476    20192    22534 
   23526    23373    22179    19922    16925    13615     9947     5948 
    2014    -1673    -5086    -8087   -10541   -12219   -12914   -12835 
  -12281   -11129    -9097    -6208    -2787      807     4269     7335 
   10036    12738    15640    18512    20944    22448    22599    21488 
   19688    17713    15747    13739    11585     9304     7213     5741 
    5016     5015     5903     7810    10503    13451    16178    18639 
   21205    24176    27355    30127    32058    33405    34695    35912 
   36599    36443    35280    32877    29327    25217    20834    16035 
   11055     6420     2305    -1417    -4829    -7792   -10013   -11231 
  -11427   -10914   -10015    -8900    -7697    -6262    -4210    -1399 
    2001     5759     9663    13486    16949    19876    22278    23975 
   24472    23431    20938    17364    13113     8294     2841    -2937 
   -8480   -13410   -17353   -19932   -21289   -21936   -21963   -20875 
  -18191   -13885    -8236    -1711     4885    10709    15490    19427 
   22484    24447    25637    26540    26864    25976    23819    20624 
   16453    11459     5962      227    -5566   -11036   -15355   -17941 
  -19305   -20229   -20796   -20965   -20934   -20767   -20528   -20380 
  -20343   -20213   -19767   -19085   -18449   -17954   -17629   -17642 
  -17884   -17882   -17250   -15873   -14094   -12664   -11990   -11806 
  -11605   -11017   -10028    -9057    -8679    -9170   -10338   -11841 
  -13480   -15075   -16527   -18050   -19996   -22473   -25286   -28218 
  -31106   -33710   -35884   -37729   -39429   -41114   -42766   -44297 
  -45658   -46586   -46698   -45848   -43935   -40869   -36905   -32509 
  -27995   -23379   -18445   -13077    -7513    -2226     2428     6362 
    9512    11741    13164    14150    14948    15522    15653    15080 
   13621    11446     9020     6585     4305     2627     1743     1311 
    1211     1931     3912     7047    10917    14980    18649    21597 
   23962    26171    28547    31039    33244    34679    35089    34596 
   33528    32108    30415    28477    26105    22991    19418    16146 
   13588    11957    11466    11871    12613    13233    13558    13835 
   14475    15734    17536    19346    20523    20728    19869    18093 
   15824    13645    12024    10762     9067     6532     3498      585 
   -1839    -3970    -6087    -7957    -9374   -10682   -12356   -14702 
  -17630   -20559   -22997   -24822   -25985   -26638   -27379   -28716 
  -30421   -31909   -32756   -32587   -31210   -28949   -26267   -23171 
  -19405   -14996   -10163    -5045      196     5166     9334    12475 
   14708    15985    16122    15108    12899     9241     4037    -2280 
   -9036   -15796   -22306   -28175   -33004   -36649   -38878   -39177 
  -37491   -34275   -29677   -23819   -17181    -9964    -1989     6580 
   14856    21783    27056    31031    33827    35483    36593    37730 
   38851    39725    40215    40188    39614    38576    37064    34972 
   32333    29259    25643    21311    16613    12380     9256     7566 
    7483     8650     9994    10509    10039     9058     8082     7498 
    7346     7016     5770     3633     1337     -372    -1086     -772 
     179     1202     2181     3626     5935     8872    11995    15011 
   17680    19882    21660    23089    24316    25459    26237    26121 
   24988    23192    20950    18277    15256    11732     7355     2164 
   -3281    -8250   -12158   -14446   -14637   -12973   -10296    -7148 
   -3769     -582     2208     5171     8954    13239    17014    19622 
   21052    21490    21092    20074    18714    17196    15391    12764 
    8845     3691    -2292    -8629   -14955   -21252   -28009   -35727 
  -44156   -52664   -61097   -69443   -77185   -83466   -87774   -90377 
  -91667   -91426   -89406   -85664   -80125   -72770   -63994   -54264 
  -43725   -32504   -21286   -10913    -1469     7487    15981    23688 
   30564    36663    41853    45905    48439    49214    48642    47511 
   46265    44760    42631    39667    35877    31444    26809    22649 
   19276    16262    13118     9756     6298     3049      412    -1515 
   -3162    -5097    -7566   -10270   -12317   -12895   -11974   -10053 
   -7738    -5482    -3553    -2490    -2789    -3921    -4831    -5215 
   -5588    -6557    -8249   -10219   -11888   -12769   -12400   -10633 
   -7913    -4867    -1824     1134     3954     6614     9132    11460 
   13478    15018    15841    15752    14777    13065    10584     7061 
    2422    -2894    -8237   -13032   -16780   -19245   -20589   -21087 
  -20865   -19931   -18248   -15867   -12916    -9456    -5570    -1404 
    3012     7756    12742    17497    21322    23885    25590    26960 
   27912    28154    27495    25448    21555    16128    10013     3927 
   -1670    -6566   -11004   -15405   -19685   -23311   -25961   -27627 
  -28172   -27464   -25958   -24567   -23835   -23552   -23202   -22481 
  -21380   -20041   -18691   -17609   -16925   -16484   -15971   -15083 
  -13528   -11180    -8181    -4690     -876     3095     7129    10985 
   14468    17910    21759    25924    29825    32799    34445    34632 
   33426    31168    28261    24907    21178    17119    12738     8092 
    3484     -624    -4096    -7204   -10136   -12943   -15762   -18617 
  -21341   -23751   -25720   -27210   -28074   -28006   -27091   -25883 
  -24862   -24285   -24054   -23612   -22493   -20790   -18852   -16862 
  -14827   -12898   -11305    -9871    -8078    -5677    -2850       72 
    2751     5012     7039     9061    11054    13217    16156    20083 
   24349    28247    31692    34764    37374    39709    42235    44839 
   46504    46242    43985    40368    36132    31878    27877    23974 
   19883    15741    12181     9505     7322     5460     4237     3542 
    2865     2211     1793     1189      -56    -1595    -2883    -3923 
   -4916    -5838    -6701    -7684    -8954   -10599   -12523   -14465 
  -16226   -17749   -19238   -21059   -23380   -26333   -30074   -34295 
  -38405   -42033   -44971   -47126   -48537   -49290   -49537   -49338 
  -48540   -46964   -44487   -41103   -36920   -31938   -26189   -20144 
  -14453    -9308    -4479       15     3860     7092    10017    12570 
   14501    15812    16596    16822    16273    14537    11395     7191 
    2637    -1530    -4811    -7241    -9166   -10760   -12031   -12806 
  -12699   -11644   -10021    -7957    -5241    -1955     1342     4162 
    6604     9198    12331    16138    20463    24651    28154    31135 
   33858    36200    38027    39404    40335    40639    40216    39280 
   37927    35734    32358    28157    23628    18830    13775     8773 
    3953     -932    -5854   -10309   -13959   -16736   -18462   -19119 
  -19144   -18998   -18846   -18739   -18783   -18938   -18837   -18140 
  -17073   -16341   -16393   -17112   -18243   -19401   -20011   -19801 
  -18847   -17289   -15421   -13572   -11827   -10036    -8004    -5643 
   -3049     -515     1636     3257     4395     5239     5996     6725 
    7287     7319     6511     5155     3860     2681     1345       62 
    -709     -941     -925     -760     -310      500     1612     2926 
    4236     5366     6472     7850     9559    11399    12939    13710 
   13511    12422    10709     8698     6665     4735     2788      699 
   -1470    -3615    -5611    -7273    -8475    -9160    -9032    -7680 
   -5437    -3373    -2134    -1483     -856      194     1810     3741 
    5563     7020     8203     9303    10148    10538    10751    10922 
   10607     9670     8668     7918     7140     6170     5336     5102 
    5551     6462     7616     8595     8967     9051     9579    10734 
   12289    13992    15508    16627    17390    17991    18802    20057 
   21567    22886    23514    23275    22443    21144    19101    16196 
   12807     9472     6555     4248     2555     1185     -213    -1624 
   -2791    -3635    -4076    -3951    -3464    -3017    -2427    -1119 
     927     3147     5126     6720     7781     8395     9006     9920 
   11156    12850    15104    17459    19198    20196    20942    21844 
   23084    24712    26161    26567    25976    25025    23727    21889 
   19904    17945    15352    11652     7267     2836    -1405    -5300 
   -8485   -10738   -12127   -12822   -13107   -13092   -12523   -11379 
   -9993    -8507    -6994    -5701    -4517    -2899     -803     1023 
    2055     2462     2439     1909      842     -524    -1845    -3096 
   -4481    -5881    -7082    -8287    -9565   -10451   -10644   -10396 
  -10030    -9628    -9258    -9135    -9341    -9508    -9247    -8791 
   -8557    -8303    -7511    -6201    -4643    -2886    -1167     -132 
    -104     -632    -1116    -1458    -1713    -1743    -1660    -1894 
   -2435    -2759    -2577    -1881     -558     1216     2692     3295 
    3168     2725     2303     2233     2580     3040     3378     3466 
    3062     2165     1133       87    -1228    -2846    -4457    -5887 
   -7140    -7964    -8031    -7670    -7779    -8950   -11130   -13821 
  -16261   -17824   -18436   -18505   -18523   -18569   -18253   -17308 
  -15831   -14141   -12747   -11908   -11325   -10517    -9051    -6847 
   -4563    -3017    -2335    -2087    -1941    -1803    -1553    -1093 
    -549      -84      383     1036     1842     2662     3369     3678 
    3357     2531     1425      -50    -2174    -4716    -6933    -8306 
   -8767    -8444    -7622    -6699    -5789    -4627    -3083    -1421 
     -28      807     1011      843      816     1482     3175     5700 
    8340    10524    12271    13681    14693    15781    17782    20620 
