Origin Time       2011/03/11 14:46:00
Lat.              38.103
Long.             142.860
Depth. (km)       24
Mag.              9.0
Station Code      AKT020
Station Lat.      39.2027
Station Long.     139.9088
Station Height(m) 7
Record Time       2011/03/11 14:47:20
Sampling Freq(Hz) 100Hz
Duration Time(s)  300
Dir.              E-W
Scale Factor      3920(gal)/6182761
Max. Acc. (gal)   28.370
Last Correction   2011/03/11 14:47:05
Memo.             
[...]
    6113     8821    10669    11385    11006     9765     7918     5712 
    3406     1226     -821    -2866    -4958    -7196    -9727   -12498 
  -15419   -18465   -21460   -24173   -26447   -28101   -29019   -29145 
  -28403   -26828   -24518   -21590   -18243   -14668   -11114    -7938 
   -5372    -3448    -2145    -1425    -1168    -1293    -1704    -2036 
   -1901    -1107      489     2898     5982     9492    13061    16372 
   19165    21176    22299    22649    22427    21757    20684    19280 
   17733    16268    15127    14641    14968    15858    17071    18625 
   20476    22443    24363    26093    27472    28337    28596    28244 
   27267    25689    23675    21529    19591    18103    17158    16768 
   16828    17126    17562    18156    18922    19909    21140    22532 
   23937    25111    25802    25987    25766    25181    24285    23038 
   21318    19224    17044    15072    13569    12661    12334    12573 
   13323    14408    15577    16552    17143    17308    17082    16593 
   16073    15701    15517    15510    15639    15835    16017    16117 
   16212    16407    16617    16705    16509    15780    14388    12330 
    9658     6528     3152     -251    -3513    -6578    -9369   -11719 
  -13488   -14540   -14694   -13757   -11662    -8611    -4949    -1019 
    2775     6112     8901    11006    12278    12900    13051    12630 
   11649    10347     8931     7447     5762     3747     1599     -310 
   -1866    -3078    -4039    -5130    -6463    -7715    -8926   -10345 
  -11676   -12447   -12574   -12261   -11893   -11789   -12078   -12848 
  -13950   -14992   -15761   -16181   -16059   -15404   -14588   -13843 
  -13059   -12006   -10579    -8884    -7032    -5136    -3422    -1983 
    -733      439     1668     2949     4051     4690     4622     3692 
    2028      -28    -2232    -4463    -6485    -7859    -8246    -7641 
   -6193    -4049    -1426     1389     4129     6533     8364     9489 
    9784     9168     7730     5663     3196      621    -1701    -3374 
   -4117    -3903    -2947    -1576     -192      793     1306     1691 
    2237     2866     3450     4039     4540     4708     4390     3436 
    1803     -336    -2722    -5060    -7126    -8814   -10051   -10746 
  -10834   -10331    -9274    -7727    -5796    -3659    -1607      196 
    1737     2888     3552     3876     4152     4688     5662     7034 
    8638    10341    12025    13512    14776    15833    16360    15972 
   14611    12351     9294     5733     2087    -1200    -3760    -5518 
   -6648    -7313    -7560    -7387    -6724    -5389    -3288     -575 
    2474     5555     8414    10919    12989    14526    15488    15985 
   16240    16425    16644    16889    16993    16784    16206    15245 
   13814    11769     9131     6232     3460     1028     -946    -2408 
   -3396    -3954    -4112    -3883    -3267    -2292     -853     1190 
    3596     6164     9148    12344    14996    16959    18492    19324 
   19164    18263    16839    14950    12917    11029     9288     7716 
    6287     4851     3294     1465     -759    -3390    -6505   -10209 
  -14416   -18876   -23390   -27816   -31818   -35005   -37186   -38311 
  -38485   -37881   -36530   -34378   -31431   -27815   -23728   -19308 
  -14584    -9532    -4258      949     5811    10117    13669    16315 
   17940    18508    18120    17008    15457    13740    12116    10757 
    9658     8716     7857     7033     6201     5433     4969     5022 
    5581     6465     7505     8588     9682    10831    12063    13427 
   15060    17078    19412    21796    23990    25857    27246    28058 
   28280    27941    27235    26374    25409    24278    22801    20885 
   18646    16191    13743    11697    10265     9424     9038     8938 
    9087     9500    10095    10831    11705    12649    13566    14457 
   15387    16370    17383    18337    19178    19970    20714    21400 
   22079    22709    23204    23480    23398    22859    21899    20741 
   19727    19054    18762    18798    19091    19732    20519    20841 
   20494    19658    18462    17078    15726    14731    14379    14564 
   14874    14930    14548    13602    12111    10339     8478     6504 
    4395     2135     -300    -2756    -4931    -6657    -7881    -8537 
   -8711    -8720    -8868    -9283    -9897   -10515   -10943   -11041 
  -10757   -10087    -9102    -8028    -7074    -6318    -5732    -5159 
   -4503    -3895    -3570    -3737    -4453    -5542    -6747    -7931 
   -9014    -9965   -10833   -11577   -12057   -12211   -12062   -11704 
  -11245   -10730   -10115    -9260    -8166    -7143    -6430    -5982 
   -5721    -5627    -5873    -6603    -7467    -8361    -9668   -11348 
  -13181   -15243   -17540   -19894   -22159   -24206   -25768   -26662 
  -26984   -26818   -26057   -24555   -22286   -19260   -15527   -11295 
   -6878    -2525     1648     5541     9041    12096    14636    16512 
   17569    17723    17009    15532    13466    11093     8710     6558 
    4787     3387     2221     1145       16    -1298    -2797    -4337 
   -5732    -6804    -7434    -7630    -7491    -7098    -6501    -5734 
   -4878    -4041    -3160    -2095     -844      541     2032     3603 
    5232     6847     8377     9817    11251    12775    14350    15888 
   17321    18550    19621    20701    21832    22960    23943    24490 
   24389    23617    22218    20288    17972    15377    12655    10062 
    7825     6163     5296     5382     6522     8691    11746    15468 
   19499    23391    26763    29479    31590    33097    33997    34307 
   34075    33515    32915    32525    32563    33072    33873    34772 
   35685    36466    36897    36824    36183    35003    33357    31321 
   29022    26583    24145    21993    20427    19632    19609    20137 
   20923    21821    22907    24294    25929    27540    28784    29426 
   29302    28286    26302    23426    20140    17123    14686    12688 
   10835     8842     6595     4292     2255      598     -741    -1853 
   -2851    -3825    -4813    -5729    -6379    -6737    -6892    -6855 
   -6686    -6492    -6257    -5880    -5354    -4769    -4131    -3366 
   -2467    -1471     -350      980     2543     4160     5451     6074 
    5895     5013     3712     2251      752     -739    -2289    -4002 
   -5837    -7734    -9635   -11376   -12859   -14023   -14663   -14706 
  -14439   -14202   -14094   -13998   -13796   -13550   -13435   -13497 
  -13579   -13479   -13108   -12553   -12039   -11700   -11484   -11245 
  -10741    -9840    -8635    -7265    -5837    -4331    -2648     -648 
    1873     4869     7888    10417    12119    12794    12438    11322 
    9760     8025     6448     5234     4332     3409     1948     -324 
   -3250    -6389    -9285   -11708   -13508   -14457   -14417   -13331 
  -11263    -8608    -5942    -3739    -2270    -1515    -1195    -1051 
    -914     -591      -10      726     1585     2497     3298     4007 
    4677     5214     5527     5489     4977     4009     2601      765 
   -1281    -3235    -4844    -5855    -6105    -5658    -4780    -3725 
   -2555    -1266       98     1559     3225     5114     7035     8711 
   10001    10894    11387    11590    11693    11713    11570    11283 
   10876    10288     9378     7992     6153     4083     1998       17 
   -1760    -3175    -4011    -4183    -3956    -3780    -3881    -4134 
   -4197    -3723    -2583     -849     1385     4057     7143    10526 
   13941    17113    19737    21556    22604    23119    23340    23381 
   23104    22311    20965    19040    16471    13357    10008     6762 
    3924     1703     -134    -1943    -3378    -4145    -4633    -4810 
   -4482    -3997    -3424    -2757    -2195    -1549     -428     1066 
    2092     2380     2646     3003     3646     5176     7163     9266 
   11667    14060    16131    17517    17967    17820    17368    16869 
   16723    16900    16964    16401    14941    12901    10825     9036 
    7616     6573     5910     5562     5482     5650     5950     6320 
    6844     7567     8462     9546    10845    12153    12974    12827 
   11660     9814     7553     5180     3160     1714      928      831 
    1230     1904     2620     3172     3582     3987     4376     4414 
    3761     2436      560    -1735    -4234    -6738    -8955   -10513 
  -11061   -10439    -8900    -6796    -4281    -1523     1261     3856 
    6022     7682     8977    10103    11223    12370    13319    13806 
   13814    13363    12337    10765     8792     6362     3458      459 
   -2053    -3818    -5057    -5908    -6315    -6493    -6646    -6742 
   -6819    -6826    -6690    -6593    -6719    -7173    -8099    -9479 
  -11156   -12890   -14294   -14980   -14548   -12645    -9293    -4893 
     -19     4746     8981    12521    15298    17140    17882    17429 
   15725    13011     9881     6942     4581     2871     1687     1043 
    1099     1987     3649     5862     8440    11136    13593    15500 
   16575    16788    16432    15623    14302    12660    10968     9399 
    8131     7289     6911     6967     7315     7725     7980     7988 
    7710     7073     6198     5661     6158     7857    10421    13482 
   16698    19658    22004    23596    24424    24410    23533    21974 
   19986    17990    16428    15341    14593    14338    14790    15832 
   17240    18896    20731    22740    24836    26791    28430    29639 
   30187    29769    28238    25713    22547    19206    16083    13503 
   11789    11189    11797    13537    16176    19485    23334    27461 
   31366    34557    36733    37913    38338    38137    37222    35526 
   33201    30714    28612    27094    26082    25526    25476    26059 
   27370    29241    31291    33147    34481    35116    35047    34316 
   33183    32115    31388    31077    31158    31318    31236    30972 
   30727    30611    30560    30373    29978    29421    28729    28031 
   27465    27010    26556    26028    25434    24702    23446    21278 
   18285    14808    11085     7346     3939     1099    -1127    -2712 
   -3801    -4713    -5655    -6747    -7953    -9160   -10557   -12304 
  -14161   -15888   -17435   -18781   -19779   -20254   -20407   -20483 
  -20403   -20271   -20418   -20991   -21931   -22972   -23713   -23952 
  -23850   -23489   -22613   -21244   -19717   -18087   -16235   -14105 
  -11687    -8976    -6023    -3195     -859      983     2364     3194 
    3426     3169     2632     2030     1574     1226      736     -114 
   -1580    -3777    -6526    -9605   -12814   -15960   -18863   -21311 
  -23178   -24576   -25735   -26760   -27580   -28043   -28032   -27511 
  -26446   -24808   -22709   -20360   -17749   -14672   -11173    -7468 
   -3733     -289     2584     4885     6700     8103     9016     9269 
    8914     8121     7104     6109     5262     4712     4667     5168 
    6204     7861    10242    13385    17146    21283    25462    29158 
   31952    33630    33924    32713    30168    26451    21633    15793 
    9096     1897    -5316   -12013   -17683   -22005   -24932   -26511 
  -26785   -25823   -23687   -20530   -16655   -12318    -7629    -2835 
    1513     4852     6963     8034     8387     8132     7286     5946 
    4267     2524      899     -622    -1941    -2873    -3292    -3176 
   -2651    -1682        6     2308     4544     5953     6187     5499 
    4379     3040     1597      321     -597    -1282    -1942    -2569 
   -2955    -2893    -2335    -1355      -41     1472     3079     4632 
    5708     5816     4839     3065      939    -1044    -2504    -3375 
   -3814    -3974    -3791    -3028    -1499      930     4211     7916 
   11435    14272    16087    16780    16451    15220    13219    10698 
    7988     5421     3264     1714      869      729     1344     2754 
    4698     6704     8478    10118    11954    14119    16298    17885 
   18400    17914    16854    15539    14223    13131    12297    11709 
   11341    11211    11525    12354    13432    14419    15110    15514 
   15787    16047    16303    16479    16424    15979    15074    13658 
   11753     9614     7614     6080     5195     4919     5126     5696 
    6544     7654     9069    10845    13025    15648    18678    21788 
   24473    26336    27068    26397    24279    20943    16742    12098 
    7443     3199     -284    -2883    -4599    -5437    -5570    -5279 
   -4694    -3701    -2226     -484     1379     3404     5512     7598 
    9579    11369    13031    14517    15473    15671    15160    13987 
   12234    10172     8186     6614     5579     4917     4423     4158 
    4378     5242     6682     8432    10275    12274    14640    17396 
   20263    22818    24630    25386    25045    23754    21717    19326 
   17155    15673    15062    15248    16006    17115    18579    20513 
   22859    25472    28158    30550    32230    32947    32714    31624 
   29732    27279    24582    21842    19287    17069    15196    13651 
   12390    11516    11374    12144    13630    15472    17265    18648 
   19306    19055    18028    16581    15066    13574    11916    10005 
    7832     5295     2477     -290    -2666    -4450    -5617    -6244 
   -6427    -6219    -5546    -4364    -2778     -969      730     1965 
    2657     2954     3007     2782     2150     1138      -98    -1443 
   -2939    -4714    -6704    -8568    -9902   -10622   -11091   -11659 
  -12499   -13732   -15196   -16589   -17939   -19535   -21699   -24700 
  -28493   -32483   -35896   -38285   -39521   -39566   -38499   -36694 
  -34503   -31828   -28534   -24854   -20998   -16964   -13017    -9599 
   -6818    -4727    -3500    -3043    -3097    -3468    -3989    -4625 
   -5372    -6173    -7010    -7815    -8473    -8896    -8836    -7891 
   -5765    -2533     1183     4500     6730     7446     6650     4840 
    2538      172    -1885    -3514    -4747    -5649    -6360    -6881 
   -7008    -6574    -5628    -4500    -3660    -3390    -3685    -4422 
   -5427    -6557    -7822    -9109   -10043   -10389   -10181    -9526 
   -8631    -7616    -6410    -5075    -3868    -2978    -2350    -1778 
   -1249     -978    -1078    -1527    -2260    -3128    -3970    -4665 
   -5163    -5614    -6281    -7119    -7744    -7913    -7756    -7593 
   -7695    -8142    -8929   -10087   -11480   -12686   -13338   -13313 
  -12630   -11313    -9349    -6752    -3610     -105     3478     6762 
    9348    10993    11637    11240     9754     7207     3662     -671 
   -5372    -9914   -13726   -16361   -17605   -17479   -16306   -14510 
  -12317    -9864    -7321    -4721    -1987      858     3681     6354 
    8710    10538    11760    12599    13477    14715    16279    17806 
   18936    19541    19649    19335    18746    18089    17539    17161 
   16925    16805    16737    16488    15771    14542    13029    11447 
    9790     7924     5702     3040      110    -2586    -4511    -5424 
   -5382    -4557    -3064     -945     1532     4021     6455     8797 
   10846    12492    13732    14451    14586    14421    14426    15084 
   16738    19430    22893    26638    30204    33292    35591    36716 
   36415    34735    31932    28460    24892    21606    18743    16412 
   14667    13438    12696    12510    12947    14000    15364    16413 
   16687    16072    14585    12461    10248     8318     6663     5346 
    4533     4376     4938     5920     6877     7559     7789     7441 
    6550     5241     3679     2115      761     -387    -1475    -2597 
   -3758    -4895    -5816    -6294    -6161    -5424    -4302    -2935 
   -1395      221     2043     4223     6653     9206    11766    14144 
   16311    18242    19707    20562    20892    20908    20809    20561 
   20104    19692    19312    18345    16548    14231    11360     7809 
    3973      391    -2648    -5119    -7064    -8366    -8872    -8486 
   -7173    -4909    -1633     2403     6544    10285    13400    15744 
   17369    18391    18820    18646    17702    15812    13129    10037 
    7000     4327     1969     -137    -1900    -3190    -3787    -3551 
   -2527     -891     1028     3115     5555     8332    11306    14492 
   17850    21135    23993    26174    27621    28358    28387    27635 
   26117    24036    21659    19217    16730    14037    11102     8130 
    5538     3739     2746     2205     1858     1749     2071     2961 
    4314     5799     7307     9067    11202    13639    16056    17881 
   19003    19907    20854    21647    22000    21757    20981    19838 
   18348    16341    13600    10160     6449     3005      183    -1887 
   -3186    -3620    -3112    -1735      450     3262     6244     9000 
   11536    14005    16078    17303    17831    17690    16503    14372 
   11739     8857     6006     3491     1466       36     -892    -1595 
   -2229    -2790    -3241    -3646    -4150    -4845    -5813    -7059 
   -8336    -9300    -9779    -9794    -9379    -8597    -7706    -6925 
   -6122    -4895    -2892     -134     2997     6001     8472    10234 
   11160    11169    10446     9265     7829     6228     4390     2368 
     364    -1511    -3082    -4130    -4504    -4088    -2984    -1548 
    -112     1243     2732     4556     6631     8762    10762    12325 
   13131    13132    12521    11505    10171     8531     6692     4886 
    3203     1467     -520    -2812    -5326    -7809   -10026   -11963 
  -13712   -15246   -16480   -17459   -18248   -18834   -19237   -19478 
  -19635   -19884   -20077   -19674   -18249   -15756   -12501    -8954 
   -5418    -2002     1182     3988     6351     8438    10577    12939 
   15391    17712    19788    21572    23034    24114    24686    24676 
   24158    23272    22100    20545    18478    15985    13310    10642 
    8017     5450     3130     1373      407      255      916     2509 
    4865     7407     9731    11749    13510    15169    16797    18320 
   19752    21123    22384    23603    24898    26193    27324    28184 
   28753    29060    29091    28792    28108    26931    25143    22773 
   20017    17087    14092    11125     8357     5927     3896     2369 
    1505     1320     1693     2556     3726     4766     5372     5546 
    5423     5257     5394     6151     7695     9885    12233    14226 
   15725    16819    17535    17928    18241    18715    19273    19654 
   19631    18923    17475    15708    14052    12646    11406    10121 
    8705     7217     5636     3871     1957      115    -1467    -2664 
   -3422    -3998    -4862    -6265    -8074    -9916   -11370   -12016 
  -11468    -9656    -7009    -4101    -1203     1740     4910     8353 
   11885    15234    18126    20340    21806    22457    22014    20244 
   17289    13584     9744     6336     3497      964    -1510    -3865 
   -5867    -7340    -8203    -8341    -7499    -5492    -2419     1374 
    5221     8564    11581    14461    16770    18198    18931    19345 
   19663    19469    18133    15863    13319    10586     7643     5001 
    3086     1858     1018      204     -772    -1923    -3072    -3718 
   -3467    -2542    -1478     -637     -240     -424    -1138    -2279 
   -3827    -5702    -7698    -9580   -11136   -12272   -13193   -14311 
  -15769   -17418   -19168   -20806   -21983   -22626   -22919   -23121 
  -23462   -23865   -24038   -23731   -22672   -20723   -18093   -15169 
