Origin Time       2011/03/11 14:46:00
Lat.              38.103
Long.             142.860
Depth. (km)       24
Mag.              9.0
Station Code      AKT015
Station Lat.      39.3844
Station Long.     140.0519
Station Height(m) 5
Record Time       2011/03/11 14:47:16
Sampling Freq(Hz) 100Hz
Duration Time(s)  300
Dir.              U-D
Scale Factor      3920(gal)/6182761
Max. Acc. (gal)   27.119
Last Correction   2011/03/11 14:47:01
Memo.             
[...]
    2116     2531     2709     2677     2366     1938     1893     2642 
    3946     4953     4778     2952     -345    -4197    -7351    -9017 
   -9213    -8649    -8514    -9564   -11348   -12984   -14138   -14957 
  -15520   -15591   -15001   -14019   -13022   -12107   -11334   -10984 
  -11076   -11050   -10473    -9450    -8065    -6475    -5244    -4531 
   -3785    -2496     -548     1792     3903     5223     5677     5579 
    5339     5331     5754     6352     6386     5348     3536     1669 
     427       90      103     -465    -1709    -2813    -3395    -4014 
   -5243    -7080    -9142   -11033   -12674   -14230   -15679   -16649 
  -16741   -15924   -14584   -13279   -12455   -12146   -11924   -11498 
  -11187   -11324   -11632   -11701   -11596   -11538   -11530   -11737 
  -12668   -14513   -16616   -17946   -17928   -16701   -14836   -12992 
  -11700   -11264   -11695   -12635   -13405   -13457   -12795   -11790 
  -10903   -10468   -10469   -10616   -10378    -9009    -6387    -3810 
   -2985    -4187    -6180    -7777    -8630    -8871    -8994    -9756 
  -11439   -13667   -16181   -18868   -21257   -23110   -24828   -26562 
  -27938   -28844   -29393   -29387   -28752   -28017   -27723   -27827 
  -27855   -27353   -26424   -25777   -25800   -26030   -25775   -24698 
  -22967   -21088   -19341   -17703   -16303   -15301   -14507   -13645 
  -12670   -11647   -10547    -9298    -8050    -7010    -6064    -4963 
   -3610    -2044     -461      818     1484     1542     1406     1361 
    1264      965      443     -484    -2171    -4876    -8354   -11798 
  -14500   -16364   -17753   -19135   -20605   -21646   -21585   -20262 
  -18202   -16213   -14979   -14737   -15080   -15408   -15486   -15460 
  -15839   -17091   -18839   -20091   -20433   -20446   -20727   -21199 
  -21736   -22351   -22780   -23003   -23538   -24372   -24744   -24517 
  -24340   -24436   -24526   -24372   -23870   -23032   -21755   -19724 
  -16904   -13937   -11711   -10426    -9748    -9698   -10360   -11248 
  -11804   -11985   -11966   -11540   -10206    -7965    -5611    -4028 
   -3629    -4380    -5806    -7175    -7957    -7944    -7416    -7025 
   -6840    -6285    -5320    -4684    -4676    -4651    -4261    -4096 
   -4563    -5430    -6443    -7524    -8765   -10203   -11564   -12646 
  -13492   -14177   -14857   -15574   -16101   -16229   -15882   -15209 
  -14544   -14080   -13700   -12904   -11289    -9237    -7332    -5647 
   -4227    -3290    -2842    -2714    -2615    -2142    -1266     -467 
    -272    -1100    -3185    -6042    -8527    -9837    -9898    -9116 
   -8240    -7882    -8056    -8420    -8682    -8619    -8089    -7240 
   -6428    -5873    -5553    -5054    -3756    -1814     -258      280 
     -85    -1258    -3107    -4942    -6093    -6892    -8260   -10461 
  -12959   -15177   -16967   -18651   -20599   -22912   -25361   -27041 
  -26989   -25574   -23944   -22550   -21211   -19808   -18479   -17205 
  -15434   -12913   -10283    -7969    -5486    -2526      270     2257 
    3731     5108     5694     4415     1663     -865    -2166    -2580 
   -2736    -3000    -3651    -4782    -6027    -6933    -7591    -8349 
   -9113    -9408    -9170    -8979    -9083    -9139    -9075    -9153 
   -9528    -9990   -10038    -9635    -9194    -8660    -7831    -6954 
   -6354    -6090    -5873    -5446    -5037    -4971    -5366    -6221 
   -7328    -8478    -9740   -11391   -13805   -17005   -20233   -22702 
  -24332   -25190   -25233   -24951   -25034   -25465   -25719   -25462 
  -24691   -23474   -21847   -20240   -19483   -19663   -19736   -18976 
  -17707   -16345   -14890   -13296   -11707   -10440    -9847   -10103 
  -10970   -11793   -11986   -11409   -10294    -9117    -8218    -7409 
   -6340    -5158    -4270    -3655    -3068    -2523    -2045    -1448 
    -624      247      942     1481     1993     2649     3675     5042 
    6200     6301     4802     2001    -1109    -3614    -5380    -7175 
  -10078   -14335   -18732   -21819   -23670   -25561   -28212   -31191 
  -33645   -34780   -34140   -32323   -30653   -29629   -28767   -27760 
  -26605   -25162   -23254   -20920   -18644   -17108   -16425   -16207 
  -16539   -17967   -20356   -22588   -23664   -23539   -22650   -21243 
  -19430   -17421   -15431   -13440   -11125    -8180    -4967    -2636 
   -2042    -2824    -3941    -4555    -4286    -3245    -2018    -1392 
   -1777    -2712    -3225    -2842    -1809     -529      532      857 
     328     -660    -1782    -3081    -4334    -4865    -4596    -4268 
   -4243    -4127    -3542    -2600    -1765    -1378    -1353    -1325 
    -875       70      984     1106       -2    -2166    -4754    -7160 
   -9176   -10922   -12521   -14037   -15619   -17388   -19159   -20736 
  -22367   -24209   -25995   -27510   -28448   -28548   -28200   -27660 
  -26361   -24030   -21404   -19120   -16925   -14529   -12328   -10676 
   -9161    -7387    -5883    -5306    -5223    -4595    -3331    -2473 
   -2730    -3799    -5035    -5796    -5760    -5543    -6099    -7528 
   -9251   -10872   -12344   -13682   -14940   -16330   -17931   -19595 
  -21180   -22486   -23292   -23463   -22982   -22114   -21099   -19919 
  -18923   -18897   -19981   -21426   -22774   -24457   -26870   -29556 
  -31564   -32171   -31394   -29960   -28567   -27454   -26515   -25274 
  -23327   -21125   -19733   -19708   -20605   -21597   -22226   -22479 
  -22455   -22117   -21341   -20057   -18436   -17008   -16239   -16101 
  -16186   -15966   -15085   -13870   -13402   -14555   -16973   -19403 
  -20761   -20747   -19875   -18777   -17623   -16518   -15682   -15022 
  -14221   -13201   -12322   -12024   -12171   -12413   -12851   -13393 
  -13491   -12992   -12356   -12228   -12750   -13359   -13519   -13035 
  -12171   -11776   -12419   -13890   -15769   -17818   -19881   -21595 
  -22515   -22561   -21841   -20425   -18618   -16920   -15566   -14519 
  -13730   -13096   -12534   -12398   -13274   -15017   -16444   -16243 
  -14036   -10590    -7176    -4832    -3915    -3797    -3529    -3273 
   -3896    -5230    -6402    -7209    -8035    -9286   -11086   -13074 
  -14602   -15022   -14125   -12540   -11334   -11087   -11263   -10808 
   -9461    -7674    -5756    -3996    -3001    -3347    -4947    -6922 
   -8341    -9106   -10023   -11875   -14638   -17676   -20187   -21327 
  -20633   -18737   -16789   -15054   -13263   -11462    -9395    -6599 
   -3613    -1704    -1418    -2215    -3275    -4108    -4536    -4584 
   -4530    -4608    -4527    -3719    -2090     -130     1763     3397 
    4235     3987     3535     3737     3816     2427     -517    -4098 
   -7547   -10559   -13298   -16381   -20191   -24229   -27587   -29665 
  -30331   -29845   -28844   -28015   -27631   -27712   -28039   -27670 
  -25653   -22394   -19417   -17555   -15896   -13356   -10153    -6436 
   -2315      752     1977     2566     3896     6120     8199     9160 
    8705     7116     5175     3433     2165     1336      363    -1287 
   -3814    -6722    -9055   -10816   -12693   -14983   -17579   -19907 
  -21759   -23493   -24197   -22818   -20357   -17577   -14735   -13828 
  -15160   -15947   -15352   -14620   -13877   -13191   -13413   -14559 
  -15827   -16614   -17163   -18349   -19715   -19920   -18992   -17946 
  -17211   -16298   -15205   -14545   -14433   -14587   -14235   -13024 
  -11672   -10196    -8121    -6084    -4645    -3762    -3541    -3300 
   -2799    -2589    -1910    -1346    -2500    -4442    -6740    -9448 
  -10825   -11023   -11772   -13175   -15302   -18093   -20325   -22060 
  -23722   -24032   -22954   -22202   -22122   -21900   -21621   -21851 
  -22380   -23023   -23559   -22824   -20766   -18755   -17028   -15368 
  -14105   -13128   -12683   -13177   -13704   -13011   -11238    -9643 
   -8262    -6448    -4956    -4221    -3829    -3968    -4731    -6015 
   -7735    -8958    -8979    -8514    -8570    -9658   -11656   -13825 
  -15731   -17483   -18982   -19768   -19735   -19404   -19049   -18509 
  -17887   -17210   -16136   -14633   -13096   -11933   -11204   -10632 
  -10155    -9869    -9688    -9516    -9371    -9777   -11518   -14414 
  -17408   -19434   -20160   -20380   -20464   -19654   -17940   -16129 
  -14606   -13732   -13533   -13187   -12520   -12141   -12158   -12700 
  -13612   -13494   -11929   -10415    -9761    -9869   -10855   -12040 
  -11855    -9579    -6427    -4107    -2592    -1059      752     2991 
    5315     7231     8654     9226     8921     8335     7915     7808 
    7933     8270     8692     8853     8959     9302     9305     8118 
    5919     4088     3382     3232     3173     2930     2300     1196 
    -811    -3218    -4552    -4444    -3758    -3540    -4274    -5702 
   -7565    -9854   -12220   -14179   -16018   -18326   -20587   -21701 
  -21728   -21783   -22402   -23075   -23388   -23438   -23066   -22055 
  -20953   -20429   -20208   -19550   -18299   -16988   -15960   -14760 
  -12890   -10602    -8577    -7363    -6992    -7258    -8032    -8691 
   -8488    -7832    -7950    -9368   -11321   -12726   -13350   -13660 
  -14047   -14512   -14864   -15202   -15885   -16968   -18052   -18585 
  -18286   -17568   -17273   -17758   -18616   -19251   -19119   -17656 
  -14774   -11383    -8774    -7412    -6785    -6085    -4588    -2219 
     198     1889     2662     2707     2675     2955     2819     1648 
     128     -645     -194     1248     2943     4058     4208     3723 
    3253     3216     3696     4417     4694     4032     2717     1384 
     291     -849    -2626    -5131    -7700   -10048   -12585   -15475 
  -18487   -21146   -22701   -22786   -21834   -20781   -20765   -22260 
  -24295   -25454   -25563   -25539   -25860   -26229   -26368   -26066 
  -25085   -23385   -20963   -18347   -16988   -17812   -20187   -23029 
  -25785   -28119   -29607   -30157   -30267   -30255   -29738   -28563 
  -27334   -26229   -24563   -22155   -19668   -17164   -14036   -10632 
   -7950    -5892    -4035    -3144    -3703    -4396    -3736    -1974 
    -591     -611    -1833    -3601    -5563    -7138    -7257    -5604 
   -3581    -3150    -4714    -6911    -8300    -8463    -7808    -7014 
   -6430    -5682    -4091    -1347     2164     5547     8184    10046 
   11230    11914    12403    12556    11708     9710     7452     5742 
    4331     2642      750     -964    -2581    -4388    -6278    -8134 
  -10177   -12164   -13305   -13452   -13293   -13225   -13029   -12700 
  -12777   -13696   -15262   -16601   -16554   -14934   -13216   -12970 
  -14335   -16444   -18250   -19236   -19944   -21158   -22746   -23850 
  -23783   -22772   -21925   -22071   -23031   -24150   -24926   -25293 
  -25407   -24960   -23524   -21566   -19725   -17575   -14576   -11500 
   -9525    -8695    -8471    -8756    -9534   -10731   -12319   -13782 
  -14413   -14052   -12898   -11335    -9971    -9396    -9713   -10075 
   -9708    -9333   -10058   -11934   -14573   -17502   -19881   -21082 
  -21320   -21460   -22035   -22239   -20788   -17877   -14718   -11422 
   -7258    -2488     1754     4893     7072     8532     9654    10495 
   10187     8424     6660     5942     5093     2722     -395    -2327 
   -2532    -2127    -2161    -3094    -5228    -7818    -8791    -7277 
   -5152    -4370    -4537    -4461    -4050    -3660    -3023    -1674 
     -79      458     -329     -788      184     1086      202    -1881 
   -4070    -6739   -10359   -13897   -15708   -15403   -14119   -12938 
  -12060   -11479   -11110   -10672   -10259   -10110   -10106   -10355 
  -11330   -13205   -15600   -17697   -18856   -19345   -19854   -20645 
  -21824   -23682   -25975   -27497   -27374   -26293   -25483   -25529 
  -26728   -28574   -29307   -27997   -25675   -23861   -23334   -23581 
  -23316   -21940   -19534   -16465   -13696   -11948   -11015   -10880 
  -12196   -14872   -17276   -17888   -17130   -16358   -15758   -14728 
  -13620   -13494   -14625   -16167   -16907   -16476   -15862   -15874 
  -15689   -13950   -10515    -6443    -2916     -607      342      141 
    -756    -1441     -720     1405     2994     2445      423    -1783 
   -4062    -6788   -10052   -13846   -17852   -21261   -23683   -25513 
  -26841   -27469   -27814   -28041   -27490   -25879   -23318   -19786 
  -15980   -13018   -11004    -9284    -7279    -4400     -434     4032 
    8241    11782    14526    16569    17827    17911    17288    17508 
   18922    19943    19767    19485    19654    19139    16879    12768 
    7105     1185    -2561    -3101    -2088    -1227     -687     -671 
   -1766    -3565    -4922    -5547    -6250    -7094    -6654    -4526 
   -2658    -2861    -4609    -5824    -5329    -4052    -3270    -2946 
   -2773    -3233    -4898    -7381    -9561   -11068   -12423   -13389 
  -13001   -11486   -10679   -11562   -12210   -10358    -7152    -5488 
   -5928    -6719    -6762    -6687    -7181    -7747    -7630    -6728 
   -5321    -3846    -2910    -3314    -5600    -8910   -11370   -12597 
  -14286   -17236   -19791   -20722   -21483   -23797   -26850   -28389 
  -27501   -25367   -23889   -24107   -25700   -27515   -28328   -27623 
  -26258   -25695   -26123   -26441   -26139   -25907   -26545   -28046 
  -29835   -31544   -33162   -34612   -35455   -35399   -35205   -35899 
  -37137   -37574   -36349   -33871   -31280   -28723   -25382   -21348 
  -17348   -13721   -10629    -5987     3330    10739     5408    -1136 
   10716    28765    31385    23071    16534    14378    13339    10031 
    3901    -1311    -1949    -2223    -6402   -11053   -13864   -16189 
  -18135   -19184   -19998   -21213   -21948   -21543   -20613   -19668 
  -18749   -17110   -15022   -14445   -15016   -14623   -13608   -13478 
  -14046   -14272   -13938   -13536   -13209   -12713   -12543   -13363 
  -14588   -15619   -16774   -18047   -18949   -19266   -19388   -20014 
  -20923   -20805   -19125   -16934   -15293   -14245   -13547   -13170 
  -12990   -12689   -11926   -10464    -8609    -7224    -6346    -4630 
   -1107     3341     6716     7542     5840     3346     2225     2832 
    3758     3790     2610      486    -1670    -3100    -4444    -6421 
   -8111    -8631    -8734    -9788   -12489   -16054   -18464   -18616 
  -17820   -17658   -17466   -15781   -12649    -9314    -6995    -5914 
   -5283    -4323    -2685     -638      772      942      462      -71 
    -554     -661     -190      -59    -1571    -4519    -7444    -9793 
  -12118   -14605   -16980   -18911   -19951   -20234   -20415   -20452 
  -19866   -18652   -17001   -15310   -14569   -15220   -16189   -16457 
  -16310   -16167   -15860   -15314   -14727   -14441   -14754   -15551 
  -16522   -17264   -16970   -15103   -12333   -10197    -9848   -11234 
  -13218   -14245   -13707   -12935   -13746   -16352   -19667   -22654 
  -24842   -26257   -26975   -26969   -26542   -26270   -26111   -25062 
  -22669   -20345   -19562   -19744   -19615   -18948   -17967   -16699 
  -15111   -13436   -12737   -13561   -14421   -14048   -13292   -13330 
  -14311   -15671   -16263   -14854   -11513    -8038    -5894    -4626 
   -3356    -2031     -421     2074     5205     8180    10749    12701 
   13614    13560    12576    10573     8541     7703     7814     7550 
    5664     2161    -1235    -2722    -1950      229     2367     3190 
    2647     1844     1461      946        3     -619     -990    -2510 
   -5532    -8789   -11451   -13813   -16010   -17652   -18566   -18508 
  -17088   -15328   -14988   -15572   -15131   -14024   -14492   -16522 
  -17413   -15751   -12957   -10730    -9188    -7601    -5504    -3248 
   -1998    -2457    -3703    -4214    -3682    -2966    -2424    -1590 
    -681     -796    -2192    -3443    -2891     -518     2166     3651 
    3301     1576     -432    -2141    -3367    -3731    -3274    -2657 
   -2787    -4770    -8597   -12055   -13109   -12151   -10430    -8617 
   -7354    -7126    -7836    -9032    -9860    -9536    -8183    -6184 
   -3489     -575     1239     1183     -120    -1691    -3581    -6469 
  -10246   -13770   -16241   -18296   -20651   -22526   -23508   -25384 
  -29537   -34409   -37653   -39162   -40537   -42552   -44554   -45959 
  -46568   -45959   -44066   -41575   -39270   -37363   -35366   -32861 
  -30077   -27274   -24664   -22990   -22596   -22671   -22718   -23124 
  -23678   -23564   -22540   -20605   -17990   -16316   -17328   -19985 
  -21282   -20156   -18227   -17103   -17027   -17530   -18004   -17799 
  -16463   -14440   -13180   -13780   -15632   -16940   -16735   -15978 
  -16153   -17148   -17537   -16691   -15226   -13873   -13408   -14763 
  -17778   -20290   -19562   -15189    -9726    -5736    -3672    -3002 
   -3171    -3216    -2055      705     4508     8212    10819    11919 
   11757    11155    10690    10101     9265     8564     7789     6489 
    5317     5231     5859     5847     4698     3608     3603     3989 
    4484     6316     9287    10919     9440     5600     1326    -2465 
   -5921    -8887   -11066   -12759   -14273   -15309   -15287   -13953 
  -11674    -9081    -6582    -4332    -2400     -871       48       60 
    -865    -2427    -4514    -7360   -10701   -13532   -15400   -16884 
  -18625   -20685   -22394   -22667   -20984   -18304   -16360   -15733 
  -15819   -16613   -18507   -20272   -19636   -16221   -11536    -6517 
   -1433     2968     5851     7002     7035     7248     8313     9295 
    8911     7038     4319     1129    -2505    -6483   -10540   -14493 
  -18290   -21253   -22291   -21505   -19733   -17093   -14003   -11646 
  -10035    -8019    -5584    -3802    -2645     -840     1870     3997 
    4618     4469     4027     2865      721    -2613    -7119   -12106 
  -17283   -22842   -28347   -32893   -35982   -37926   -38935   -38446 
  -36786   -35596   -35165   -33769   -30490   -26459   -22785   -19480 
  -16892   -15862   -16066   -16285   -16113   -15945   -16184   -17178 
  -18839   -20160   -19946   -18193   -16070   -14381   -13023   -11834 
  -10826    -9991    -9562    -9703   -10097   -10507   -10802   -10498 
   -9380    -7726    -5637    -3367    -1655     -659      194      899 
     900      281     -390    -1084    -2253    -4265    -7332   -10923 
  -13904   -16485   -19745   -22653   -22871   -20295   -16901   -13974 
  -11403    -8831    -6535    -5289    -5401    -6236    -7006    -7478 
   -7736    -7904    -8195    -8889   -10097   -11391   -12176   -12304 
  -11976   -11863   -12846   -14632   -15932   -16359   -16584   -16962 
  -17100   -16458   -14890   -12722   -10749    -9876   -10334   -11550 
  -12734   -13373   -13558   -13760   -14017   -13994   -13890   -14226 
  -15258   -17367   -20735   -24681   -28299   -30989   -32058   -30972 
  -28247   -25311   -23260   -22157   -21275   -19832   -17689   -15469 
  -14157   -14345   -15623   -17116   -18432   -19778   -21615   -24177 
  -26850   -28264   -27527   -24888   -20958   -16558   -12940   -10536 
   -8527    -6749    -6411    -7877    -9518   -10237   -10889   -11973 
  -12876   -13632   -14829   -16633   -18737   -20467   -21429   -21937 
  -22183   -21782   -20526   -18739   -16431   -13026    -8655    -4470 
   -1099     1775     4289     6111     7115     7366     6678     5392 
    5076     6917    10239    13416    15303    15630    14720    13056 
