Origin Time       2011/03/11 14:46:00
Lat.              38.103
Long.             142.860
Depth. (km)       24
Mag.              9.0
Station Code      AKT001
Station Lat.      40.3280
Station Long.     140.7429
Station Height(m) 166
Record Time       2011/03/11 14:47:18
Sampling Freq(Hz) 100Hz
Duration Time(s)  300
Dir.              E-W
Scale Factor      3920(gal)/6182761
Max. Acc. (gal)   32.657
Last Correction   2011/03/11 14:47:03
Memo.             
[...]
   13524    11098     6590     1246    -2819    -4093    -2406      972 
    4531     7740    10735    13449    15488    16874    18136    19304 
   19855    19883    20236    20755    19918    17187    13954    12180 
   12749    14189    14075    11993     9433     7721     6929     6258 
    5515     5160     5038     4580     3648     2532     1496      675 
     345      811     2165     4191     6422     8428     9886    10650 
   10939    11058    11123    11274    11861    13128    14879    16796 
   18780    20784    22318    22152    19507    15431    11939    10350 
   10582    11454    11755    11015     9742     9029     9440    10826 
   13152    16700    21102    24837    26463    25730    23516    21389 
   20276    19204    16237    10872     5089     1672     1801     4315 
    6842     8240     9780    13266    18736    24055    26357    24471 
   19765    14096     8035     1347    -5852   -12289   -16123   -16561 
  -14200   -10286    -5846    -1194     3603     8375    13165    17924 
   21519    22024    18406    11589     4197    -1140    -3622    -3862 
   -2368      720     5308    11219    17598    22733    25597    26871 
   27473    26994    24402    19962    15499    12201     9605     7280 
    5650     5288     6341     7981     9037     9793    11755    15159 
   18492    20871    22682    23700    22812    19607    14954    10040 
    5538     2043      -52    -1392    -2612    -3136    -2056      686 
    4051     6966     9660    12663    15082    15897    15963    16725 
   18438    19845    18493    13554     7308     2243     -660    -1626 
   -1294      859     5516    11272    15899    18690    20057    20016 
   18427    16326    15381    15932    16526    15689    14253    14372 
   15700    15715    13248     9471     6952     7105     8234     8250 
    7618     7925     9274    10339    10335     9631     8566     6744 
    4088     2078     2716     6324    10976    14199    14972    13972 
   12672    11881    10686     8038     4564     2032     2044     4426 
    7149     8774     9709    11033    12711    13135    11776    10979 
   12818    16319    19434    21718    23606    25010    26035    26892 
   27354    27457    27052    26037    25266    24996    24618    23808 
   22041    19033    15520    12961    13000    15776    19293    21656 
   22659    22867    22261    20303    17124    13977    12253    12380 
   13554    14590    15156    15787    17057    18935    20495    20909 
   20564    20335    20727    21940    23600    24741    24425    22744 
   21109    20665    20902    20420    19187    18901    19875    19844 
   16746    11097     5337     1191    -1264    -2325    -1921      319 
    4542    10050    15463    19637    22377    23700    23258    21467 
   19060    15737    11714     8523     7089     6971     7162     7360 
    8445    10973    14405    18403    22941    26999    29254    29619 
   28443    25589    21494    17398    14254    12357    11375    10626 
    9665     8394     6916     5550     4618     4129     4462     6579 
   10391    14254    16509    16953    16802    16563    15328    13226 
   12164    13695    17277    20538    21837    21968    22438    23543 
   24669    25040    24203    22497    20415    17824    14764    11889 
    9703     8222     7231     6561     6155     5438     3498      778 
    -469     2150     9019    17707    24856    28930    30787    31909 
   32887    33784    34557    34625    33063    29619    25190    21144 
   18141    15611    13021    11221    11470    13840    16827    18519 
   18585    18053    17449    16702    15945    15601    16357    18512 
   20728    20692    17678    13524    11024    11630    14419    17490 
   19883    21597    22903    23574    22345    18553    13647     9780 
    7864     7163     6115     3944     1432     -439    -2220    -5435 
   -9776   -12122    -9749    -3319     4323    10902    15535    18071 
   18477    16758    13499    10383     9594    11790    14670    14824 
   11335     6293     2243      268     -163      490     3189     8184 
   13365    16425    16832    15850    14961    14043    12231     9631 
    7541     7387     9089    11238    12611    13217    14325    16480 
   18630    20255    21926    23665    24503    23287    19746    15027 
   10781     8031     6917     6824     6809     6147     4663     3031 
    2188     2021     1618      610     -675    -1607    -1543     -362 
    1282     2390     2530     2372     2951     4491     6387     8303 
   10146    11122    10449     8488     6285     4827     4586     5576 
    7872    11351    15335    18801    20695    20537    18729    16074 
   13690    12948    13852    14888    15547    16402    17320    17699 
   17073    15508    14082    13765    14259    14920    15742    16715 
   17283    16729    14471    10591     5812      275    -5511    -9193 
   -8820    -4703     1642     8220    13346    16436    17332    16197 
   13841    10686     6191       29    -6917   -12814   -15995   -16388 
  -15433   -13774   -10397    -4619     2774    10165    15914    19487 
   21185    20867    18664    15669    12817    10010     6639     3063 
     667       76      778     2709     6879    13590    21261    28121 
   33824    38963    43523    46572    47871    48134    47901    47640 
   47372    46159    43370    39409    35071    30708    25746    19857 
   14225    10246     7777     5753     3972     3173     3429     4057 
    5008     6778     9688    13377    16173    16195    12916     7176 
     995    -3541    -6014    -7187    -7296    -5626    -1475     4428 
    9926    13516    16045    19406    23863    27805    29929    30750 
   31562    32241    31213    27515    21692    14824     8092     3222 
    1388     1908     3326     4801     6757    10109    14063    16490 
   16408    14928    14401    16212    19619    22967    25028    25512 
   24933    23526    20608    15914    10731     6773     4966     5524 
    8302    12805    17621    20624    20706    18308    14153     8716 
    2778    -2484    -6243    -7980    -6643    -2074     3073     5370 
    4109     1647      494      406     -490    -2378    -3344    -1538 
    2756     7232     9971    10824    10838    11095    11799    12319 
   11615     9055     5313     1727     -668    -1261     -108     2133 
    4613     6550     7695     8406     9166    10293    11652    12707 
   13051    12851    12635    12284    11323     9869     8070     6137 
    4485     3160     2360     2292     2773     3957     6119     9170 
   12504    14880    15660    15754    16196    16479    15470    13465 
   11731    10832    11027    12602    15081    17820    20319    21702 
   21774    21351    20946    20395    19044    16021    11264     6064 
    2021     -293    -1685    -3302    -4730    -4008       86     6739 
   13426    17578    18884    19000    19058    18703    17352    15552 
   14746    15772    18082    20588    22645    23942    23712    20991 
   16303    12031    10405    11711    14836    18977    23806    28677 
   32479    33989    32898    30250    27298    24558    21792    18643 
   15581    14064    15208    18136    20634    21344    20239    18042 
   15859    14243    12702    10432     7376     4577     3074     2995 
    4119     6168     8319     9066     7203     3462      395      210 
    3095     7299    10697    12221    11979    10931    10019     9561 
    9870    10998    12026    11833     9973     6758     3221      869 
     846     3270     7360    11870    16046    19726    22261    23365 
   24088    25121    25577    23864    19360    13347     7864     3788 
     525    -1984    -1996     2102     9899    18769    25100    27575 
   27849    26830    23159    15311     3964    -7050   -13521   -14512 
  -11872    -7988    -4388     -702     4476    11488    19267    26470 
   32447    37324    40985    42329    39761    32328    21321    10505 
    3217       -8     -214     1871     6014    11152    14914    16023 
   15763    15616    15128    12947     8949     4530      896    -1586 
   -1965     1553     9478    19634    28708    34895    38737    41410 
   42473    40080    32900    21201     6948    -7007   -18241   -25634 
  -29371   -29825   -26748   -20050   -10486      792    12646    24073 
   34192    41880    45399    43128    35577    25546    15829     7717 
    1158    -3815    -6386    -6793    -6849    -7053    -5300      -43 
    6707    11258    12320    11444     9961     7764     5436     4968 
    7198    10634    13228    14559    16165    19196    23221    27659 
   31733    33564    31504    25805    18184    10139     2294    -5005 
  -11641   -17452   -21422   -22518   -20455   -15290    -7161     4261 
   18482    32665    43889    50924    53688    52653    47230    36170 
   20386     2593   -14137   -26054   -29981   -25375   -14772    -2067 
    9875    19653    27473    34202    38895    39991    37176    30890 
   23053    16208    11147     7019     2274    -3820   -10257   -15451 
  -18180   -17726   -13217    -4384     6131    14585    19675    22041 
   22236    20237    16732    13904    13278    14033    14058    11765 
    7379     2165    -2775    -6228    -7462    -6167    -1572     5843 
   13428    18426    20150    20616    22078    24509    26424    26807 
   26277    26231    27157    28672    29976    29942    27506    22597 
   16533    10480     4626     -829    -5063    -6480    -4179      513 
    6045    12411    20036    28701    37285    44093    47453    46486 
   42261    36753    30894    25029    19409    14270    10203     7116 
    4279     1901      831     1457     3405     5924     8180     9337 
    9246     7769     4250     -629    -4620    -5740    -3466     1324 
    7221    12692    16654    18769    18950    17641    15810    14132 
   13103    13311    14150    13207     8833     2207    -4181    -8651 
  -11206   -13106   -14960   -15595   -13183    -7118      923     8309 
   13976    18605    22777    25615    25250    20832    13717     6661 
    2118      791     1625     3229     5093     7761    11858    16817 
   21162    24242    26586    28001    27351    24966    23098    23408 
   24826    24375    19830    11282     1262    -6755   -10684   -10414 
   -6877    -1266     5572    13262    21149    28084    33389    37156 
   39649    41027    40840    37495    29722    18761     7875      166 
   -2948    -1987     2052     8687    16896    24555    29452    30423 
   27881    23177    17718    13059    10743    11434    14611    19072 
   23425    26496    27809    27423    25421    22220    18900    16533 
   15304    14209    11957     9021     8047    10955    16417    21155 
   23116    22834    21932    20883    18985    16053    12733     9524 
    6512     3592      546    -2544    -4860    -5666    -5291    -4493 
   -3312    -1011     2842     7532    12064    16257    20103    23222 
   25742    28136    29800    29313    26282    22141    18825    16925 
   15631    14348    13591    13734    14004    13823    14205    16602 
   20491    23303    23081    20274    17048    15467    15952    17428 
   18885    20429    23003    27061    31515    34719    36464    37789 
   38791    38050    34436    28363    20899    12827     5331       64 
   -2453    -3469    -4500    -5580    -5474    -3098     1664     7895 
   14168    19247    22597    24499    25168    24032    20189    13292 
    4381    -3947    -8334    -6514      487     8909    15934    21560 
   26591    30453    31839    30799    28831    26780    24028    19786 
   13877     6548    -1659    -9867   -16674   -20495   -20333   -16138 
   -8955     -673     6862    12863    17690    21264    22130    19322 
   14193     9399     6576     5559     5217     4238     2042     -645 
   -2809    -3817    -3396    -1969      129     3106     6698    10365 
   14150    18117    21498    23205    22730    20169    16532    13592 
   12141    11496    11107    11420    13404    17458    21966    24079 
   22733    19046    14363     9454     4383     -933    -5624    -8335 
   -8590    -6715    -2966     2480     9519    17802    25626    30683 
   32000    29889    24829    17199     7918    -1200    -8423   -13117 
  -15329   -14801   -11002    -4079     4818    14193    22564    28756 
   32850    35907    38339    39193    36958    31017    22329    12899 
    4752     -696    -2653    -1295     2557     8449    15456    21451 
   24681    24910    23113    21039    20042    19825    18993    16278 
   11081     3723    -4713   -12541   -17584   -17930   -13057    -4359 
    5718    15057    22605    28168    31359    31406    28713    25520 
   23617    22149    19026    13770     7990     3150    -1319    -6673 
  -12589   -17229   -18821   -17277   -14194   -10768    -6922    -2576 
    1784     5539     8364    11133    15569    22006    28919    34507 
   37770    38796    38015    35252    30499    24920    19800    15404 
   11734     9092     7512     6843     7237     8798    11433    14993 
   18652    20951    21042    19303    16993    15464    15423    16531 
   17321    16061    12027     6034       30    -3975    -4840    -2771 
     987     5196     9247    13161    16703    18575    17853    15338 
   12776    11751    12562    13852    14162    13182    11334     9013 
    6228     2817    -1024    -3895    -3304     1747     9317    16201 
   19909    20157    18610    16772    15548    15839    18020    21496 
   24452    24324    19487     9971    -2909   -16709   -28536   -36284 
  -38977   -36245   -28460   -16997    -3709     9428    20707    29463 
   35728    39242    39377    35690    28841    20679    12869     6016 
     -54    -5118    -7726    -6862    -3249     1970     8182    15041 
   21900    27489    30668    31383    30651    29619    28481    26418 
   22752    18138    14257    12248    12021    13253    16029    19989 
   24040    27635    31338    35325    38379    39039    36903    32987 
   28785    24518    19272    12415     4313    -3661   -10041   -13656 
  -13639   -10049    -3409     5418    14427    21788    26980    30084 
   31832    32810    32639    31296    29328    27171    25267    23952 
   23388    23424    23714    24287    25486    27329    29017    29580 
   28604    25763    21059    15430    10126     6078     3588     2875 
    5028    10510    17740    24205    27578    26953    23453    18949 
   15323    14200    15935    19193    21714    21946    20066    17231 
   14139    10495     6550     3945     3757     5396     7126     7373 
    6252     4916     4297     4781     6059     7694     9564    11573 
   13546    15135    15977    16478    17508    19073    20579    21774 
   22698    23573    24550    25336    25572    25443    25354    25456 
   26039    27354    29134    31172    33174    33847    31474    25600 
   17806    10431     4508     -661    -6291   -12349   -16953   -18180 
  -16098   -12536    -9089    -5662    -1266     4209     9776    14489 
   17721    18963    18343    16658    14769    13324    12767    13268 
   14170    14197    13025    11457     9906     8316     7167     7313 
    9005    11480    13804    15805    17565    18840    19341    18843 
   17283    15034    12859    11639    12204    15186    20182    25092 
   27405    25889    20919    14390     8859     5629     4205     3918 
    5046     7854    11458    14215    14978    13694    10967     7637 
    4397     1589     -236      -28     2943     8023    13260    16754 
   17892    17363    16267    15575    15965    17243    18187    17555 
   15509    13815    13603    13602    12326    10396     9423    10447 
   13410    17333    21305    24652    26687    27349    27115    26059 
   23987    20870    16550    11112     5528      913    -2430    -4581 
   -5347    -4458    -1700     2962     8963    15549    22282    28633 
   33992    37838    39362    37998    34301    29106    22509    14508 
    5905    -1712    -6728    -8540    -7772    -5380    -1741     3532 
   10956    19908    28251    33866    36329    36745    36137    34469 
   31279    26557    20877    15181    10556     7833     7012     7316 
    8184     9851    12432    15000    16455    16881    17330    18461 
   19740    20122    19457    18630    18290    18176    17561    16003 
   13557    10111     5393      -91    -4845    -7238    -6786    -4367 
    -754     4202    10577    17547    23865    28411    30501    30507 
   29687    28703    26858    23349    18694    14403    11885    11755 
   13484    15724    17068    16598    14482    11993    10298     9514 
    8880     7357     4757     2222      962     1210     2238     2949 
    3065     3477     5016     7194     8754     9609    11079    13985 
   17674    20739    22279    22749    23374    24821    26544    27251 
   26379    24824    23427    21578    18445    14810    12588    12893 
   15082    17420    18502    18169    17285    16920    17676    19482 
   21570    22694    21914    18979    13941     7306      628    -3633 
   -3204     2536    11928    22204    31270    38388    43519    46139 
   45269    40760    33536    24538    14414     4274    -4480   -11310 
  -16324   -19237   -19193   -15318    -7822     1634    11217    19841 
   26715    31229    33383    33469    31589    27822    22218    14777 
    6142    -2400    -9738   -15058   -17863   -18005   -15044    -8359 
    1774    13597    24343    31467    33834    32105    28238    24290 
   21097    18220    15105    11604     7753     3902      789     -613 
     809     5636    12935    20616    26969    31416    34125    35196 
   34109    30518    25134    19044    13073     7832     3543      403 
    -722     1150     5995    12651    19641    25967    31172    35160 
   38090    39963    40519    39631    37320    33406    27651    20429 
   13022     6899     2710      359     -105     1297     3715     6383 
    9559    13774    19074    25003    30935    36402    40931    44031 
   45447    44895    41830    35954    28108    20090    13079     6959 
    1705    -1333     -762     2622     6642    10287    13868    17713 
   21712    25075    26667    26256    24932    23939    23550    23470 
   23700    24713    26827    29437    31627    33147    33901    33463 
   31542    28498    25348    23003    21422    19835    17638    14550 
   10459     5763     1292    -1766    -1735     2669    11123    21680 
   31769    39062    42076    40750    36312    30621    25349    21313 
   18651    17429    17754    19473    21749    23114    22713    21231 
   19681    18106    15985    13277    10970    10113    10269     9651 
    6889     2736     -589    -1692     -217     3715     9031    14469 
   19631    24450    28490    30868    30664    27692    22687    16471 
    9680     3176    -2459    -7282   -11486   -15263   -18498   -20444 
  -20395   -18458   -15292   -11389    -6973    -2271     2538     7217 
   11429    15022    17452    17646    15343    11351     6701     2456 
    -295     -888      224     2046     4476     8092    13195    19445 
   25318    28563    28258    25545    22218    19239    16654    14346 
   11974     9073     5746     2265    -1308    -4716    -7247    -7586 
   -4530     2017    10872    19925    27002    30618    30635    28414 
   25526    22792    20219    17549    15114    12968    10129     5936 
     908    -3534    -5823    -5399    -2622     1963     7541    13087 
