Origin Time       2011/03/11 14:46:00
Lat.              38.103
Long.             142.860
Depth. (km)       24
Mag.              9.0
Station Code      AKT014
Station Lat.      39.5950
Station Long.     140.5573
Station Height(m) 56
Record Time       2011/03/11 14:47:05
Sampling Freq(Hz) 100Hz
Duration Time(s)  300
Dir.              N-S
Scale Factor      3920(gal)/6182761
Max. Acc. (gal)   59.778
Last Correction   2011/03/11 14:46:50
Memo.             
[...]
  -30981   -28503   -21291   -13474    -7571    -3285     -467      155 
    -357      914     5012     9596    11856    10637     5803    -1527 
   -8258   -11982   -14102   -16914   -19756   -21713   -25143   -32027 
  -38392   -38727   -33627   -25899   -14829     -308    12866    19009 
   17881    13209     6768     -315    -3588       -3     6471    10617 
   13320    16579    17774    15260    11315     7034     2519     -164 
    -344     -741    -3033    -5668    -6479    -4472     -816      998 
    -767    -3745    -5825    -7457    -8660    -8364    -6870    -5909 
   -6606    -9264   -13278   -16758   -19035   -20582   -19483   -13837 
   -5901     1132     6552     9147     6436     -778    -8444   -13286 
  -13825   -10757    -6758    -4684    -6469   -11527   -16887   -20892 
  -23893   -24916   -22527   -18764   -15881   -12272    -7997    -6528 
   -7760    -8760    -9256    -9971   -10384   -10201   -10292   -11983 
  -15121   -18949   -24599   -31306   -33722   -28204   -16424    -2188 
   10875    20393    25382    24978    20584    17384    17809    18291 
   15692     9718      776    -8397   -13547   -13934   -12097    -9383 
   -6038    -3754    -4020    -6052    -8507   -10658   -12307   -14446 
  -17884   -21358   -22968   -21817   -17276    -9053      382     6447 
    7495     5806     3690     1829       25    -1630    -2413    -2764 
   -3416    -2537     1368     5988     8261     7682     5804     4214 
    2482     -920    -6062   -12499   -20223   -26986   -29004   -26235 
  -22664   -20366   -16778    -9250      460     8624    13002    12410 
    7736     2287    -1730    -3826    -4152    -3941    -3750    -2328 
    1556     7743    14642    20799    25340    26442    23636    19805 
   16395    11835     6389      833    -7001   -17201   -26806   -35376 
  -41921   -42715   -38213   -32697   -27751   -23111   -19414   -15631 
   -8790      324     6558     7082     2663    -5683   -15614   -23314 
  -27074   -26627   -21180   -12481    -4893       53     3483     4561 
    1885    -2985    -6860    -8199    -8667   -10627   -13751   -17343 
  -22472   -28612   -33390   -36302   -37846   -36716   -31372   -22496 
  -12920    -6150    -3664    -3864    -4294    -2945     1263     6883 
   11430    14934    18524    20946    20147    16128    10237     4674 
    1633     -111    -3224    -5870    -4668     -699     3258     6148 
    6041      243   -10249   -21085   -29002   -32755   -32289   -29286 
  -26078   -23928   -23425   -24224   -24574   -23991   -24665   -27062 
  -27247   -21771   -11134     2668    16581    26831    33300    37955 
   39083    34061    23902    11123    -2568   -16386   -29274   -38926 
  -45050   -49792   -52798   -52199   -47680   -38354   -23471    -5480 
   11289    22968    27028    23370    15467     8629     5287     4213 
    4065     4230     3592      297    -6658   -15082   -22337   -28319 
  -30814   -25927   -15863    -5936     2956    10988    15981    16816 
   14088     8917     3647     -583    -4385    -5349     -892     4931 
    6449     3059    -3508   -11636   -19393   -25470   -28804   -27797 
  -22367   -15778   -12053   -11553   -11624   -10765    -8570    -4020 
    2144     6660     7594     5227       91    -6911   -15413   -26048 
  -36982   -42989   -39435   -25777    -7184     7354    12668    11230 
    6129    -2169   -10287   -13323   -11078    -7075    -4582    -4552 
   -6102    -9259   -14270   -19591   -23842   -25696   -22405   -13460 
   -2309     7979    16451    21917    22563    17406     8035    -1172 
   -7990   -14577   -21319   -25077   -24618   -21553   -16850    -9873 
    -933     7266    13028    17470    20068    18028    11680     4505 
    -872    -3611    -5370    -8783   -12887   -14764   -14561   -12896 
   -7914    -1092     1372    -2957   -10778   -18337   -22683   -22312 
  -18973   -15930   -15612   -17955   -19600   -18652   -17674   -18485 
  -19389   -17850   -12664    -5477       53     1558     -641    -4079 
   -5514    -4129    -2197     -579     1876     4100     3383    -1165 
   -8005   -15230   -22610   -29265   -31841   -29296   -25781   -25648 
  -28577   -30895   -29541   -24388   -17576   -10520    -3380     2105 
    3086     -940    -8065   -15591   -19669   -17190   -10405    -5392 
   -5083    -7813   -11059   -13010   -13179   -13440   -15528   -17806 
  -17652   -15268   -12854   -12613   -15642   -19992   -21807   -19622 
  -14651    -8361    -2272     1799     2025    -2161    -7931   -11282 
  -12126   -13103   -14418   -15253   -16553   -17081   -13948    -9039 
   -6281    -5134    -3803    -3760    -5753    -6244    -1978     4894 
    9229     9532     8800     8797     8295     6420     3315    -1150 
   -6719   -12007   -15571   -17284   -17758   -16150   -10414    -1411 
    6016     8784     7941     3504    -5215   -14419   -19788   -21551 
  -19580   -11370     2472    18379    33659    45367    49654    44831 
   32833    17465     1521   -14091   -27382   -33950   -31620   -24115 
  -17978   -16621   -17991   -18608   -17896   -16473   -13876   -10596 
   -8775    -8894    -8820    -6411      -12    10791    22476    29519 
   28405    17950      433   -17852   -32996   -45911   -54791   -55851 
  -51263   -46045   -41434   -36193   -30040   -23974   -18521   -13285 
   -7989    -2824     2013     7141    12946    17892    19633    16228 
    6425    -8546   -24227   -36421   -44150   -47328   -44963   -36986 
  -24808   -10862     1526     8956     7884    -2854   -17139   -26123 
  -28208   -27823   -28104   -29646   -31195   -30166   -26112   -19677 
   -7627    12203    33724    47979    49849    37516    14556    -8461 
  -23531   -31449   -33051   -27049   -18373   -13698   -13054   -14310 
  -17362   -22665   -29793   -36132   -39235   -39226   -35702   -27783 
  -18033   -10116    -5301    -3690    -4205    -5128    -6536    -8285 
   -8425    -6236    -1705     6056    15810    24657    30364    30442 
   25270    19294    14437     9532     5633     5264     8713    13079 
   14753    13458    11407     8306     2144    -5654   -11071   -11546 
   -6936     -223     3102    -1176   -13604   -31099   -48602   -62130 
  -69847   -71164   -67430   -61766   -55755   -49525   -44880   -42561 
  -38686   -28439   -10670    11522    32794    48476    55321    51337 
   38349    22881    11290     5609     3487     -978   -12827   -30133 
  -45431   -51917   -45950   -26635     3280    36096    62007    75040 
   75440    66054    49259    28792     8808    -9766   -26667   -39913 
  -48966   -53893   -51739   -39770   -20221     1915    23235    42485 
   58299    66840    64218    52478    38319    25531    13911     2959 
   -9020   -25001   -43510   -58323   -66792   -72302   -76781   -76960 
  -69660   -54912   -33865    -9775    10948    23415    26857    22016 
   10503    -4377   -18769   -29431   -35018   -36976   -37276   -36296 
  -33724   -28480   -18398    -3565    10872    18181    16982    11970 
    7699     6767    11464    20593    28560    30899    27717    22318 
   17394    12538     7016     2105    -1902    -7150   -15056   -23922 
  -30276   -32174   -29653   -22528   -11416      276     9149    15463 
   20372    21122    14517     2276   -12042   -26749   -40302   -50531 
  -55603   -53512   -44023   -31873   -23098   -18931   -16280   -12082 
   -5133     4994    17452    28286    33012    31609    27463    22330 
   16811    13257    13274    14884    15456    15688    18382    24599 
   33195    42160    48217    47333    38295    25149    13691     5542 
   -2001   -11618   -23582   -35792   -45872   -52943   -56081   -54815 
  -51805   -50539   -50915   -49680   -44936   -38698   -34562   -34390 
  -37559   -41310   -41389   -35982   -29264   -26007   -25065   -22991 
  -18730   -12111    -3295     5502    11455    14364    15760    14720 
    8137    -3820   -16455   -26325   -33854   -39119   -40047   -35344 
  -26162   -14982    -4059     4764     9693    10355     9248     9276 
   10601    11303     8472      491    -9368   -16383   -18838   -14844 
   -2898    13429    29071    41021    45019    37972    23685     9655 
     764    -3580    -8525   -17689   -29593   -41029   -49692   -54583 
  -56359   -56333   -54914   -50523   -41525   -30293   -21638   -17942 
  -18953   -23444   -29227   -33713   -34086   -27192   -14026    -2460 
    1217       -9      342     4248     9788    14222    15213    11153 
    1085   -13425   -26741   -32006   -25838   -10982     5381    15719 
   15022     3147   -15339   -34697   -50005   -56949   -52470   -37949 
  -20741    -7437     2652    12944    23097    30351    33511    33339 
   30631    26241    21653    16791     9769     1088    -5077    -5805 
   -2935      -10     1708     2215     -656   -10256   -25723   -40642 
  -48301   -46065   -35902   -22464    -9121     3313    13851    20460 
   22301    20811    18275    16696    16471    14543     6823    -7633 
  -26161   -43603   -55605   -61180   -58390   -43739   -20184     2914 
   19603    29852    33704    29895    20781    13127    10334     8982 
    6759     6009     7966    11453    15867    20676    23347    21194 
   15483     9920     6391     5150     5420     4636     -436   -11935 
  -29211   -48013   -63046   -71174   -71540   -64488   -52044   -38008 
  -24678   -11249     2739    16841    31214    43551    48872    44588 
   30664     8133   -17505   -37382   -46047   -42886   -29664   -10916 
    6449    17769    22633    21210    13865     3794    -5477   -11928 
  -14126   -14045   -16249   -21557   -27805   -34528   -41645   -47533 
  -49833   -45496   -33428   -17938    -5261     2683     8236    12307 
   13136    11168     8890     6610     2434    -6351   -21817   -42209 
  -61454   -72569   -69914   -51056   -21234     7808    28248    40317 
   45201    43346    38182    32980    27682    20247     7496   -10442 
  -27195   -37885   -44166   -47907   -47353   -41181   -31140   -19662 
   -7923     2317     8162     8672     6429     5599     8433    13727 
   19293    23407    24269    21940    18323    13769     8433     5468 
    8444    17864    30051    37170    32631    17711     -104   -13456 
  -19959   -22753   -25402   -28820   -32682   -34950   -32964   -27247 
  -21175   -18480   -21477   -29453   -39995   -50528   -57039   -56135 
  -48414   -35134   -16440     3475    18159    26623    31634    34378 
   35333    34832    31597    25057    18349    15154    14705    13382 
    8772      -58   -12691   -26764   -39315   -48477   -53546   -54618 
  -51868   -43849   -28490    -6868    16939    38157    51831    55977 
   53793    48851    41765    33369    25951    20185    14463     8356 
    4334     3652     3791     2715      476    -4361   -14173   -28409 
  -44461   -60959   -76368   -86500   -87620   -80980   -70945   -59121 
  -44561   -29367   -17531    -8942    -1466     4006     5797     4186 
    -175    -6029   -10273   -10429    -6439      460     7493    11011 
    9597     4261    -3121   -10244   -15532   -17440   -13432    -3444 
    8540    17874    21843    19467     9930    -5484   -20303   -28536 
  -31283   -32642   -33907   -33976   -32317   -29663   -24581   -13134 
    5099    24652    38915    44591    42149    34339    24411    14641 
    6798     2665     1642     1815     4059     8582    10735     4665 
  -12199   -37455   -64579   -85207   -91806   -82532   -63032   -40989 
  -21182    -5617     4876    10389    12172    12434    13976    17633 
   21016    22095    20768    17921    15889    16835    20795    27856 
   38956    52753    65726    74851    76101    63532    36141     3250 
  -23332   -40335   -50835   -55680   -54359   -50036   -46767   -44116 
  -39132   -32995   -31116   -35455   -42106   -47441   -50769   -51336 
  -48181   -42516   -36002   -27667   -17164    -8731    -6583    -9115 
  -11866   -12978   -13090   -13506   -14483   -13576    -8948    -2674 
    3081     9060    15680    20811    22248    20545    18903    20570 
   25495    29364    28007    21944    13398     2620    -9369   -20087 
  -29084   -37351   -44567   -49037   -48265   -40244   -26605   -13378 
   -6160    -5386    -7587    -8766    -5841     1340     9268    14769 
   17544    17844    15693    12820    12222    14412    15794    12662 
    4536    -7218   -20671   -33403   -43874   -52273   -59390   -65255 
  -68400   -66926   -61072   -52510   -42284   -32406   -25770   -22736 
  -21329   -19961   -18369   -17487   -18728   -22136   -24838   -22979 
  -15767    -4736     9717    26003    38784    43486    38764    24052 
    1570   -21154   -35932   -39360   -33283   -22131   -10443    -2525 
   -1319    -6446   -15396   -24660   -29788   -28435   -22313   -15637 
  -12522   -13560   -16744   -21227   -25011   -24281   -19523   -15050 
  -12319   -10029    -7631    -4007     3537    15308    27406    36000 
   40739    44050    48060    49961    43607    28708    12019    -2258 
  -16169   -31357   -44840   -53212   -56485   -55266   -48898   -38997 
  -29788   -23400   -19263   -17403   -17847   -19033   -20199   -21424 
  -20897   -16884   -10415    -4047    -1340    -5496   -14598   -21522 
  -20980   -12599     2553    22178    41284    55945    65128    67055 
   58482    38435    11041   -16483   -39547   -58022   -72784   -84227 
  -93024   -99015  -100536   -95360   -81450   -58808   -31451    -5824 
   13399    25589    32685    36897    39796    41593    41387    39209 
   36487    34251    33229    35838    44836    58809    72486    82190 
   86659    83600    70853    50262    26740     4284   -15238   -31801 
  -46869   -60886   -71891   -77730   -77937   -73970   -68120   -60360 
  -48299   -32857   -19301   -10442    -4403     1432     9050    19998 
   33592    45321    49005    42953    32150    22458    16095    13109 
   13198    15159    17100    18391    19226    18760    15685     9177 
    -716   -13088   -26951   -39520   -45560   -43470   -39011   -38706 
  -42823   -47483   -49123   -44773   -34179   -22324   -14018    -9842 
   -9314   -10281    -8600    -4255    -1064     -290    -1077    -2753 
   -2497     3740    16128    29851    39346    42621    40229    32236 
   19827     6121    -8389   -26758   -49565   -71388   -84317   -83029 
  -67591   -44063   -21354    -6045     -692    -4519   -13494   -22619 
  -29321   -33738   -36968   -38815   -36823   -28508   -13942     3919 
   20111    29358    28873    20504    10083     3500     2674     5711 
    9127     9041     3611    -5427   -15722   -25925   -33765   -36944 
  -35656   -31469   -25354   -18928   -14901   -14124   -15489   -18467 
  -22490   -25699   -25594   -21047   -14735   -11694   -14792   -22011 
  -27205   -25653   -18763   -10353    -1842     6079    11683    13549 
   11331     6270     1902     2335     8886    18967    27739    30424 
   25107    13753     -523   -14816   -26177   -33445   -37377   -38448 
  -36463   -32140   -28065   -26152   -25393   -24899   -25803   -27863 
  -28155   -24299   -16404    -6145     3714     9970    11646    10691 
    9741    10295    11176    10047     7854     7883    11151    16388 
   21660    23696    19175     7536    -9292   -28114   -45733   -60701 
  -72019   -77470   -75491   -66686   -53138   -37629   -22604    -8688 
    4370    15050    21054    22468    22034    23650    29478    36143 
   36934    28507    11399   -12641   -38480   -58733   -70030   -72421 
  -65986   -52619   -35840   -18202    -1708    11482    20139    24939 
   27882    29951    29787    25454    16447     3868   -10309   -23873 
  -34928   -42044   -43477   -37850   -26340   -12300     1207    12365 
   20224    24552    25252    22301    17718    15386    16613    18694 
   19285    18887    18421    16951    12270     3966    -4409    -8194 
   -5945     -476     2548    -1440   -10864   -19140   -21559   -17442 
   -7634     5529    18413    27477    29004    21439     8730    -2945 
  -10314   -13353   -13990   -14828   -16597   -17220   -14384    -7704 
    1461    11352    21616    31504    37435    37753    34871    28887 
   18017     4663    -7638   -18420   -26183   -26937   -20015   -11131 
   -8318   -15143   -27283   -37406   -43554   -48505   -52476   -53493 
  -52537   -51313   -47813   -39504   -27689   -15492    -5426      441 
    1856     1250      998      843     -843    -4680   -10276   -16684 
  -22838   -28328   -32130   -32740   -30826   -28762   -28427   -29712 
  -29855   -26336   -19457   -11017    -3480     1053     3062     4454 
    6596    10926    17829    24770    28419    27002    19194     3885 
  -17160   -38231   -53406   -60637   -60178   -52594   -40892   -28827 
  -16508    -3068     9620    19783    26596    27620    21074     8363 
   -6869   -18837   -21814   -14120     1321    17755    27397    27839 
   23351    18967    17865    21772    27800    28030    16447    -4362 
  -24760   -36843   -40010   -38221   -35506   -33828   -32194   -28107 
  -20530   -10633     -687     7629    14030    18123    19273    16936 
    9174    -4722   -20665   -33703   -42166   -45030   -40116   -27019 
   -9631     4541     9487     5724    -1749    -8002   -10044    -7653 
   -3340    -1104    -3436    -9354   -16801   -24006   -27763   -24784 
  -15382    -4481     1103    -1661    -8577   -12883   -12301    -8826 
   -4126     1454     6756     9162     6590     -364    -8674   -15419 
  -19900   -22903   -25955   -31813   -41370   -51123   -57003   -57113 
  -51311   -42451   -34484   -27909   -21358   -14416    -5674     5574 
   15561    20404    21127    21365    23430    26117    25752    20356 
   11233     1205    -7260   -13486   -18928   -26023   -35284   -43302 
  -46807   -46415   -42935   -35493   -25406   -16241    -9813    -5706 
   -3750    -4709    -8917   -15043   -20255   -21714   -18420   -12018 
   -5723    -2278    -2689    -6315   -10840   -12447    -8025     2244 
   14839    25931    33492    35827    32189    25219    18525    13467 
    9415     4314    -3412   -12769   -22735   -33880   -45193   -53450 
  -55793   -51202   -41102   -28646   -16872    -7457    -1426      -20 
   -2911    -7344   -10255   -10244    -8739    -8979   -13009   -20263 
  -27370   -29577   -25464   -19278   -16430   -18058   -21343   -23172 
  -21916   -17450   -10056      131    10599    16543    16109    12250 
    8668     5816     1146    -6401   -14324   -20865   -27639   -35683 
  -41774   -40486   -29709   -13740      232     8435    11505    10865 
    7615     3342    -1120    -5895    -9994   -11849   -11159    -8296 
   -3906     1129     6740    12793    17269    17079    10400    -2194 
  -18676   -35987   -49468   -55245   -52546   -42690   -29191   -17001 
   -8305    -2775    -1462    -5052   -10444   -12887   -10173    -4320 
     146      721    -1201    -3890    -7089   -10813   -15587   -21197 
  -25433   -26785   -25508   -21886   -16477   -10779    -6487    -4604 
   -4597    -4094     -162     7766    16641    22214    21553    15125 
    7937     5083     6384     8567     9222     6171    -1944   -12658 
  -21225   -25165   -24449   -19125    -9730     2378    16149    29845 
   40333    44983    43149    35963    25035    12393     1670    -3698 
   -4324    -5093   -10736   -21608   -34379   -45801   -54231   -58364 
  -57315   -53033   -50077   -51207   -54864   -57262   -55271   -47877 
  -36725   -24823   -13408    -1819     9059    16874    21065    22951 
