Origin Time       2011/03/11 14:46:00
Lat.              38.103
Long.             142.860
Depth. (km)       24
Mag.              9.0
Station Code      AKT010
Station Lat.      39.7223
Station Long.     140.0998
Station Height(m) 6
Record Time       2011/03/11 14:47:18
Sampling Freq(Hz) 100Hz
Duration Time(s)  300
Dir.              U-D
Scale Factor      3920(gal)/6182761
Max. Acc. (gal)   19.327
Last Correction   2011/03/11 14:47:03
Memo.             
[...]
  -22047   -21058   -20730   -20836   -20829   -20157   -18538   -16367 
  -14108   -12112   -11046   -10889   -10676   -10038    -9406    -9072 
   -9171    -9874   -10879   -11383   -11079   -10422    -9824    -9163 
   -8021    -6491    -5267    -4796    -5441    -7361    -9682   -11740 
  -13777   -15677   -17302   -18722   -19335   -19254   -19856   -20964 
  -21054   -20356   -19989   -19853   -19352   -18180   -16199   -13601 
  -10904    -8403    -6300    -5033    -4643    -4933    -5892    -7433 
   -9570   -12179   -14675   -16510   -17582   -18174   -18411   -18326 
  -18234   -18118   -17859   -18014   -18835   -19948   -21123   -21922 
  -22062   -21880   -21167   -19788   -18471   -17170   -15320   -13164 
  -11036    -9216    -8197    -8055    -8481    -9096    -9648   -10213 
  -10491    -9844    -8392    -6690    -5045    -3715    -3020    -3313 
   -4585    -6065    -6889    -7018    -6987    -7331    -8341    -9650 
  -10601   -11243   -12094   -13179   -14162   -15182   -16372   -16966 
  -16224   -14617   -12907   -10895    -8131    -4809    -1481     1192 
    2708     3116     2631     1275     -778    -2878    -4176    -4527 
   -4585    -4931    -5731    -6817    -8156    -9908   -11667   -12936 
  -13895   -14819   -15718   -16597   -17375   -17677   -17250   -16430 
  -15489   -14163   -12462   -11034   -10610   -11197   -11925   -12320 
  -12917   -14025   -14710   -14116   -13224   -13145   -13324   -12906 
  -11778   -10485    -9732    -9478    -9338    -9342    -9683   -10498 
  -11550   -12195   -12511   -13166   -14291   -15803   -17599   -19495 
  -21526   -23301   -24022   -23595   -22852   -22924   -23935   -25052 
  -26580   -28801   -30084   -30151   -30446   -30529   -29784   -29178 
  -29234   -30220   -32288   -34556   -36218   -36729   -35230   -32042 
  -28166   -23637   -19170   -15981   -14414   -14898   -16671   -18110 
  -19374   -20546   -20413   -18635   -16100   -13762   -12221   -11789 
  -12408   -13885   -15756   -17229   -18592   -19918   -19617   -18085 
  -17094   -16109   -14822   -14069   -14156   -15367   -17242   -18495 
  -18515   -17651   -16450   -15465   -15386   -16199   -17540   -19088 
  -19673   -18881   -17934   -17501   -17659   -18536   -19697   -20885 
  -21824   -21368   -19127   -16331   -13955   -11747    -9314    -6810 
   -4787    -3736    -3641    -3935    -3742    -2805    -1831    -1379 
   -1559    -2251    -2852    -2814    -2308    -2272    -3449    -5308 
   -7227    -8833    -9364    -9488   -10350   -10920   -10138    -8486 
   -6606    -4919    -3498    -2307    -1668    -1660    -1971    -2332 
   -2469    -2148    -1608    -1182     -608      451     1834     3081 
    3757     3912     4195     4766     4467     3080     2457     3356 
    4924     6652     8269     9637    10486    10581    10610    11054 
   11261    10349     7961     4739     1917     -237    -2241    -3787 
   -4497    -5103    -6028    -6901    -7901    -9409   -11019   -12117 
  -12731   -13299   -13848   -13884   -13267   -12824   -13475   -14895 
  -15985   -16036   -14731   -12133    -8992    -6508    -5289    -4841 
   -4693    -4762    -4929    -5422    -6451    -7720    -8731    -9214 
   -9563   -10026   -10335   -10752   -11516   -12284   -12878   -13347 
  -13757   -13849   -13013   -11111    -8650    -6567    -5852    -6261 
   -6713    -7192    -7843    -8108    -8269    -8945    -9932   -11109 
  -12606   -14085   -15211   -16068   -16463   -16261   -16051   -16108 
  -16292   -16948   -18178   -19223   -19332   -18652   -17919   -17550 
  -17481   -17408   -17043   -16482   -16036   -15836   -15650   -14989 
  -13725   -12307   -11349   -11235   -11656   -11896   -11905   -12060 
  -11905   -10599    -8455    -6502    -5349    -5385    -6488    -7795 
   -8735    -9435   -10081   -10522   -10602   -10471   -10199    -9762 
   -9389    -9218    -9147    -9175    -9587   -10831   -12794   -14751 
  -16399   -17945   -19498   -20814   -21467   -21359   -20704   -19713 
  -18524   -17122   -15662   -14449   -13207   -11444    -9537    -8094 
   -6718    -5011    -3560    -2823    -2719    -3140    -3853    -4676 
   -5515    -5958    -5856    -5655    -5390    -4740    -4069    -4002 
   -4573    -5480    -6450    -7162    -7574    -8341    -9894   -11702 
  -13135   -13919   -14152   -14700   -16285   -18510   -20868   -23436 
  -25934   -27486   -27593   -26610   -25378   -24467   -23816   -23240 
  -22655   -21660   -19911   -17714   -15514   -13541   -12069   -11233 
  -10944   -11013   -11289   -11825   -12433   -12599   -12005   -10720 
   -9208    -8033    -7635    -8081    -8853    -9628   -10636   -12125 
  -14335   -17205   -20088   -22478   -24152   -24740   -24540   -24736 
  -25683   -26801   -27985   -29121   -29552   -29069   -28301   -28100 
  -28706   -29546   -30065   -30279   -30456   -30605   -30428   -29837 
  -28968   -27787   -26420   -25177   -24128   -23394   -23205   -23219 
  -22432   -20439   -18264   -16695   -15293   -14073   -13617   -13960 
  -14908   -16010   -16856   -17768   -18947   -20230   -21787   -23782 
  -26050   -28300   -30339   -32291   -34260   -35863   -36682   -36728 
  -36285   -35694   -35158   -34717   -34377   -33941   -32898   -30984 
  -28653   -26688   -25580   -24970   -23973   -22679   -22040   -22412 
  -23705   -25483   -26473   -25958   -24652   -23170   -21772   -20926 
  -20341   -19068   -16699   -13828   -11769   -10844   -10113    -9204 
   -8368    -7878    -7872    -7927    -7770    -7576    -7419    -7725 
   -9116   -11385   -13753   -15468   -15880   -15051   -13957   -13130 
  -11993   -10352    -8938    -8087    -7417    -6693    -6183    -6032 
   -6077    -6350    -6538    -6101    -5186    -4100    -2998    -2283 
   -2251    -2838    -3839    -5070    -6370    -7291    -7253    -6334 
   -5513    -5874    -7363    -8939    -9987   -10522   -10614   -10349 
   -9960    -9992   -11094   -13411   -16405   -19103   -20717   -21300 
  -21498   -21832   -22391   -22950   -23309   -23495   -23560   -23289 
  -22331   -20531   -18071   -15600   -13571   -11646    -9575    -7458 
   -5391    -3825    -3118    -2901    -2414    -1297      -56      622 
     568       91     -444    -1117    -2104    -3333    -4746    -6236 
   -7651    -8845    -9654   -10415   -11284   -11582   -11596   -11723 
  -10798    -9428    -9594   -10657   -11776   -13582   -15504   -16586 
  -17278   -18190   -19173   -19954   -20448   -20637   -20885   -21818 
  -23294   -24434   -24756   -24300   -23265   -22206   -21841   -22156 
  -22235   -21473   -20356   -19836   -20338   -21383   -22422   -23580 
  -24864   -25769   -26159   -26542   -27345   -28122   -28108   -27516 
  -27049   -27056   -27546   -27764   -27112   -26801   -28120   -29931 
  -30512   -29774   -27899   -24996   -21805   -18749   -16406   -15618 
  -15491   -14816   -14140   -13548   -12411   -11159    -9859    -8075 
   -6193    -4486    -3005    -1807     -683      120      666     1729 
    3079     3989     4883     6146     6934     6582     5435     3921 
    2518     2008     2596     3675     4704     5830     7538     9587 
   10955    11014     9677     6922     3116     -844    -3990    -5661 
   -5852    -5322    -5176    -6118    -8126   -10698   -12917   -14098 
  -14433   -14138   -13031   -11227    -9198    -7692    -7398    -7940 
   -8281    -8111    -7798    -7700    -7954    -8224    -8101    -8026 
   -8553    -9361    -9899    -9785    -8910    -7814    -7194    -7308 
   -7830    -7806    -6541    -4282    -1585     1086     3237     4392 
    4184     2845     1190     -432    -1886    -2511    -1903     -223 
    1924     3282     3218     2434     1509      589      277      876 
    1796     2332     1868      174    -2077    -4191    -6139    -8178 
  -10641   -13524   -16464   -19530   -22713   -25137   -26463   -27470 
  -28647   -29679   -29864   -28805   -27042   -25531   -24666   -23948 
  -22424   -19562   -15893   -12676   -10615    -9247    -8030    -7084 
   -6570    -6426    -6539    -6670    -6608    -6394    -6329    -6658 
   -7292    -8016    -8579    -8787    -8594    -8087    -7778    -8201 
   -9773   -12574   -14895   -15154   -14569   -14479   -14461   -14272 
  -14646   -16403   -19474   -22893   -25788   -27845   -29109   -29903 
  -30734   -31674   -32383   -33088   -34565   -36885   -38861   -39327 
  -38502   -37269   -35955   -34369   -32316   -29923   -27734   -26265 
  -25323   -24144   -22373   -20384   -18677   -17545   -17133   -17351 
  -17879   -18389   -18460   -17745   -16452   -15267   -14869   -15311 
  -15888   -16092   -16196   -16445   -16543   -16499   -16539   -16362 
  -15923   -15655   -15744   -16415   -17730   -19153   -20285   -21111 
  -21578   -21946   -22678   -23303   -22864   -21459   -19344   -16251 
  -13185   -11406   -10081    -8329    -6784    -5984    -5948    -6591 
   -7642    -8830    -9957   -10887   -11463   -11566   -11395   -11297 
  -11711   -13310   -16131   -18930   -20187   -19383   -17300   -15361 
  -14379   -14156   -14368   -15116   -16326   -17474   -18326   -19025 
  -19306   -18695   -17320   -15764   -14686   -14323   -14100   -13550 
  -12863   -12153   -11403   -10723    -9884    -8671    -7620    -7267 
   -7433    -7805    -8420    -9336   -10268   -10970   -11440   -11557 
  -11287   -10761   -10012    -9407    -9162    -8518    -7060    -5701 
   -5401    -6332    -8244   -10844   -13937   -16949   -18871   -19292 
  -18491   -16920   -15067   -13164   -11685   -11284   -11431   -11061 
   -9955    -8307    -6826    -6778    -8406   -10457   -11841   -12804 
  -14084   -15921   -18177   -20230   -21341   -21793   -22237   -22458 
  -22226   -21848   -21317   -20668   -20480   -20766   -20641   -19527 
  -17671   -15386   -12907   -10633    -8464    -6313    -4816    -4141 
   -3803    -3573    -3359    -2929    -1857       53     2200     3891 
    4929     5086     4068     1651    -1799    -4745    -6162    -6482 
   -6220    -5401    -3567     -646     2292     4325     5319     5288 
    4214     2651     1424      417     -720    -1775    -2693    -3709 
   -4962    -5940    -5831    -4726    -3372    -2451    -2338    -3058 
   -4595    -6607    -8207    -8701    -8256    -7699    -7182    -5813 
   -3238     -188     2564     4729     6245     7013     6772     5353 
    3228     1090    -1019    -3349    -5650    -7404    -8716    -9887 
  -10217    -9149    -7715    -6815    -5831    -4096    -1787      420 
    1644     1600      730     -775    -3153    -6044    -8237    -9101 
   -9150    -9080    -9253    -9475    -9316    -9077    -9327   -10032 
  -10955   -11966   -12940   -13745   -14293   -14609   -14603   -14237 
  -13620   -12443   -10701    -9699   -10856   -14128   -18303   -22341 
  -25760   -28242   -29934   -31156   -31560   -31069   -30436   -30017 
  -29494   -28551   -27374   -26454   -25889   -25537   -25293   -24963 
  -24425   -23937   -24045   -24679   -25334   -26105   -26863   -27310 
  -28292   -30453   -33200   -35859   -37785   -38436   -38110   -37254 
  -35674   -33633   -32454   -32487   -32446   -31884   -31470   -31171 
  -30429   -28954   -26763   -24376   -22742   -22255   -22126   -21726 
  -21724   -22620   -23750   -24539   -24740   -23847   -21993   -20357 
  -19862   -20118   -19722   -17648   -14180   -10508    -7778    -5964 
   -4155    -2418    -1428     -749        6      206     -487    -1880 
   -3262    -3884    -4609    -6596    -9242   -11512   -13099   -14033 
  -14367   -14014   -13227   -12791   -13186   -14145   -14909   -14647 
  -13097   -10895    -9016    -8130    -8490    -9713   -10777   -10960 
  -10320    -9191    -7573    -5117    -2228      -99      762      618 
    -224    -1289    -2250    -3356    -4705    -6004    -7233    -8473 
   -9713   -11006   -12066   -12509   -12635   -13241   -14532   -15652 
  -15852   -15444   -15015   -14882   -15395   -16446   -17189   -16899 
  -15704   -14624   -14354   -14356   -14267   -14641   -15716   -16880 
  -17175   -16191   -14838   -14420   -14671   -14043   -11951    -9399 
   -7722    -7481    -8271    -9166    -9270    -8370    -7185    -6758 
   -7682    -9540   -11285   -12559   -13648   -14437   -14957   -15482 
  -15414   -14415   -13316   -12360   -11077    -9759    -8885    -8075 
   -7074    -6366    -6142    -6319    -7020    -8298   -10037   -11797 
  -13009   -13454   -13072   -11846   -10262    -9034    -8059    -6864 
   -5668    -4861    -4567    -5171    -7142   -10035   -12743   -14685 
  -15749   -15772   -14676   -12731   -10359    -7662    -4893    -2651 
   -1063       32      453     -115    -1467    -2749    -3408    -3521 
   -3292    -3292    -4153    -5649    -7117    -8488   -10402   -13423 
  -17352   -21252   -24042   -25083   -24463   -23051   -21690   -20431 
  -18808   -16812   -15683   -15840   -15271   -13176   -11205    -9395 
   -6486    -3282    -1389    -1137    -2330    -4363    -6044    -7270 
   -8790   -10281   -11393   -12411   -12842   -12220   -11135   -10455 
  -10704   -11579   -12107   -11987   -12118   -12618   -11854    -9663 
   -8181    -8381    -9830   -12194   -14816   -16755   -16999   -15093 
  -11955    -8854    -6721    -5983    -6033    -6281    -6921    -7983 
   -8925    -9430    -9918   -10661   -11597   -12996   -14989   -17394 
  -19936   -21995   -23056   -23226   -22919   -22341   -21488   -20414 
  -19128   -17711   -16093   -13931   -11732   -10232    -8805    -6564 
   -3554     -740      598      606      532      991     2025     3019 
    3402     4013     5783     8565    11859    14962    16991    17484 
   16863    15996    15306    14850    14644    14516    14129    13107 
   11455     9676     7917     5922     4061     3225     3802     5144 
    6255     6897     7035     6361     4996     3271     1513      108 
   -1259    -3357    -6058    -8198    -8943    -8765    -8821    -9776 
  -11481   -13653   -16150   -18453   -20186   -21890   -23916   -25590 
  -26199   -25810   -24916   -23709   -22205   -20688   -19165   -17563 
  -16363   -15708   -15475   -16165   -17962   -20091   -21674   -22234 
  -21730   -20567   -19426   -19025   -19651   -20735   -21581   -22330 
  -23134   -23287   -22296   -20744   -19490   -18658   -17863   -16984 
  -15979   -14446   -12232   -10266    -9672   -10091   -10421   -10566 
  -10989   -11864   -13234   -14659   -15492   -16305   -18126   -20616 
  -23021   -25299   -27076   -27444   -26101   -23700   -21557   -21087 
  -22644   -25156   -27603   -29942   -32484   -35491   -38680   -40885 
  -41330   -40205   -37987   -35499   -33349   -31297   -28983   -26389 
  -23920   -21884   -20116   -18874   -18887   -20101   -20984   -19885 
  -17315   -15106   -13927   -13199   -12306   -11375   -10774   -10499 
  -10639   -11025   -11167   -10844    -9921    -8863    -8642    -9311 
  -10116   -10682   -11006   -10760    -9510    -7731    -6699    -7170 
   -8847   -10859   -12233   -12751   -13311   -14380   -15253   -15451 
  -15111   -14401   -13576   -13008   -12584   -11656   -10450    -9968 
  -10105    -9828    -8709    -7338    -6795    -7883   -10392   -13229 
  -15884   -18595   -21105   -23250   -25373   -27081   -27823   -28017 
  -27987   -27360   -26077   -24617   -23313   -22361   -21997   -22086 
  -22271   -22386   -22171   -21383   -20127   -18355   -16124   -14015 
  -12108   -10367    -9409    -9222    -9133    -8890    -8859    -9821 
  -11975   -14512   -16346   -16789   -16177   -15269   -14337   -13509 
  -12888   -12615   -12691   -12418   -11356   -10305   -10139   -10590 
  -10615    -9509    -7890    -7098    -7609    -9202   -11395   -13344 
  -14994   -17170   -19898   -22256   -23509   -23495   -22253   -19878 
  -16856   -13626   -10179    -7230    -6015    -6331    -6921    -7291 
   -7832    -8899   -10383   -11934   -13264   -14122   -14136   -13055 
  -11376   -10121    -9619    -9227    -8466    -7611    -6972    -6798 
   -7631    -9513   -11712   -13643   -15212   -16364   -16883   -16757 
  -16144   -15056   -13870   -13418   -13828   -14222   -14130   -14006 
  -14124   -14277   -14043   -12775   -10478    -8138    -6595    -5936 
   -5773    -5676    -5197    -3947    -2427    -1868    -2732    -4040 
   -4489    -3885    -2546     -355     2445     5084     7123     8342 
    8532     7955     7123     6305     5506     4512     3336     1983 
      55    -2013    -3123    -3266    -3060    -2573    -1868    -1656 
   -2579    -4392    -6577    -8939   -10984   -11980   -12038   -11942 
  -12036   -12222   -12649   -13953   -16341   -18733   -20380   -21964 
  -23966   -26087   -28123   -30096   -32139   -34361   -36251   -36775 
  -35844   -34396   -32491   -29503   -25896   -22818   -20763   -19347 
  -17713   -15443   -13133   -11518   -10228    -8230    -5632    -3699 
   -3147    -3629    -4334    -4844    -5447    -6261    -6698    -6068 
   -4287    -1696     1258     3830     5527     6553     6999     6537 
    5176     3645     2701     2709     3820     5502     6867     7576 
    7361     6064     4247     2533      907     -897    -2822    -4553 
   -5683    -6090    -6427    -7396    -8940   -10685   -12379   -13846 
  -15247   -17176   -19803   -22332   -23978   -24790   -25102   -25014 
  -24460   -23332   -21873   -20670   -20179   -20528   -21376   -22587 
  -24461   -26581   -27956   -28019   -26955   -25567   -24312   -23021 
  -21914   -21329   -21115   -21470   -22596   -23548   -23344   -22222 
  -20919   -19945   -19580   -19634   -19485   -18906   -18681   -19526 
  -20667   -21498   -23009   -25206   -26708   -27479   -28156   -28400 
  -27892   -26904   -25870   -25196   -25028   -24799   -23619   -21615 
  -19626   -17981   -16879   -16658   -17114   -17988   -19630   -21474 
  -21777   -20264   -18302   -16642   -15385   -14612   -14211   -14486 
  -15930   -18335   -21191   -23845   -25755   -27319   -28899   -30149 
  -31227   -32514   -33639   -34207   -33949   -32500   -30504   -29397 
  -29640   -30579   -31267   -30923   -29574   -27690   -25255   -22495 
  -20202   -18506   -16961   -15487   -14073   -12413   -10514    -8925 
   -7820    -7002    -6531    -6069    -4953    -3345    -1758      -80 
    1721     2895     2864     2241     2055     2344     2530     2535 
    2596     3021     4067     5254     5643     5090     4158     2762 
     581    -1582    -3381    -5882    -9248   -12542   -15097   -16354 
  -16087   -14666   -12636   -10298    -7757    -5460    -3696    -2354 
   -1869    -2674    -4238    -5730    -6676    -6986    -6925    -6943 
   -7181    -7222    -7069    -7231    -7453    -7102    -6191    -5339 
   -5194    -5626    -5722    -4717    -2985    -1816    -1648    -1641 
   -1332    -1359    -2448    -4280    -5943    -7391    -9273   -11491 
  -13199   -13940   -13986   -13960   -14146   -14058   -13184   -11870 
  -11003   -11195   -12568   -14206   -14428   -13616   -13295   -12574 
  -10928   -10026   -10104   -10199   -10272   -10509   -10955   -11741 
  -12745   -13553   -14063   -14295   -13909   -12970   -12360   -12657 
  -13419   -14131   -14926   -16131   -18178   -21507   -25492   -28727 
  -30716   -31844   -32249   -31576   -29813   -27756   -25811   -23701 
  -21868   -20983   -20511   -19642   -18534   -17507   -16302   -15004 
  -14317   -14225   -13925   -12937   -11469   -10455   -10692   -12084 
  -14415   -17445   -20724   -24163   -27576   -30256   -31555   -31418 
