Origin Time       2011/03/11 14:46:00
Lat.              38.103
Long.             142.860
Depth. (km)       24
Mag.              9.0
Station Code      AKT022
Station Lat.      39.7739
Station Long.     140.6669
Station Height(m) 270
Record Time       2011/03/11 14:47:10
Sampling Freq(Hz) 100Hz
Duration Time(s)  300
Dir.              E-W
Scale Factor      3920(gal)/6182761
Max. Acc. (gal)   61.345
Last Correction   2011/03/11 14:46:55
Memo.             
[...]
  -19854   -17581   -16532   -17995   -22456   -27715   -30841   -31295 
  -30254   -28835   -27149   -23184   -15998    -8826    -5145    -6078 
  -11959   -21111   -28728   -31137   -29435   -26603   -24450   -23451 
  -22047   -18675   -14419   -11362   -11136   -13773   -16702   -17831 
  -17647   -17498   -18362   -20052   -21270   -21300   -20296   -18324 
  -15472   -12220    -9835   -10311   -13713   -16784   -16582   -13560 
  -10175    -7852    -6388    -5801    -6013    -6576    -9186   -15944 
  -25067   -32438   -35469   -34256   -30656   -25851   -19924   -14536 
  -12330   -13141   -13773   -12350   -11664   -14814   -19091   -19280 
  -13651    -5035      332    -2341   -11825   -23228   -31419   -32944 
  -29058   -24739   -23579   -25358   -27357   -27333   -25392   -22624 
  -19507   -16486   -14393   -13954   -15395   -18448   -23397   -29979 
  -34555   -32792   -25223   -16709   -10549    -5767    -1110     1210 
   -2872   -14164   -26925   -33684   -32594   -27332   -22551   -20223 
  -18817   -16390   -13457   -12674   -16671   -24894   -32468   -34607 
  -31970   -28886   -27551   -26191   -21750   -14504    -8497    -6061 
   -5738    -5702    -5592    -5891    -8080   -13494   -20269   -25110 
  -26954   -25591   -21447   -16707   -12959   -11127   -12062   -14011 
  -14785   -15768   -18932   -23301   -26534   -27355   -26051   -23914 
  -22476   -22446   -23360   -24494   -25158   -24317   -21834   -19534 
  -18678   -17985   -16154   -13988   -13410   -15204   -17465   -17741 
  -15855   -13406   -12538   -14484   -18054   -20873   -22198   -23541 
  -25882   -27666   -26619   -22224   -17080   -15986   -21096   -29530 
  -37148   -41038   -39330   -32431   -23255   -16296   -16034   -22463 
  -30055   -33954   -33870   -31311   -27193   -22627   -18964   -16632 
  -15425   -15393   -16555   -18738   -21609   -24070   -24883   -23495 
  -19760   -15119   -12904   -15603   -22921   -31635   -37668   -39235 
  -36918   -32790   -29116   -25728   -21687   -17626   -14060   -12321 
  -13964   -16607   -16833   -14324   -10010    -5244    -1512      900 
    1135    -2669    -9314   -15065   -18924   -21929   -24050   -24367 
  -21446   -16148   -12748   -13283   -15315   -16018   -15156   -14957 
  -17497   -22311   -26086   -25040   -20039   -15627   -12816    -9556 
   -5833    -3705    -5050    -9088   -12987   -15633   -17947   -21038 
  -24222   -24232   -19473   -12790    -8230    -8363   -13388   -20259 
  -24932   -26517   -26752   -26338   -24769   -21994   -18786   -16536 
  -15853   -16656   -20054   -26087   -31196   -31621   -27261   -21396 
  -16866   -13391   -10868   -11153   -14212   -17895   -21752   -27163 
  -34063   -39446   -40130   -36880   -34097   -35142   -39362   -42792 
  -41381   -34846   -26271   -18349   -12238    -9134   -10506   -16117 
  -23484   -29833   -33511   -34011   -31289   -25420   -17406    -9757 
   -5481    -6059   -10094   -14654   -18728   -23020   -26432   -27391 
  -25728   -21342   -16558   -15172   -16481   -17170   -15922   -14199 
  -15483   -20281   -24645   -26314   -26408   -25865   -23828   -19068 
  -12762    -8000    -6170    -5704    -4786    -5412   -12115   -25364 
  -39573   -47232   -44630   -35045   -24234   -14608    -6134     1571 
    8001    10227     6330     -493    -5467    -7482    -9091   -12651 
  -17086   -19669   -19721   -19112   -20623   -25696   -32908   -38605 
  -39690   -36400   -31341   -26603   -23091   -20690   -18392   -15470 
  -12661   -10898   -10061   -11211   -15501   -20744   -24700   -26947 
  -26380   -23036   -18883   -15084   -12409   -11546   -11563   -11720 
  -13184   -16341   -19451   -20921   -21323   -22627   -24966   -26685 
  -27218   -26110   -22745   -18291   -14473   -13355   -17231   -24513 
  -30105   -31598   -30858   -29782   -27743   -23489   -17214   -11045 
   -8981   -13358   -21146   -27477   -31114   -33977   -37917   -42841 
  -45699   -42754   -34235   -23473   -13374    -6408    -3239    -1674 
    -913    -3272    -9352   -15456   -17573   -15325   -11001    -7738 
   -9050   -15607   -23691   -30282   -35411   -39294   -41475   -40587 
  -34932   -25804   -17603   -13663   -13855   -15860   -17787   -19090 
  -19561   -18622   -15888   -12443   -10583   -12019   -17367   -25321 
  -32265   -35341   -33787   -28668   -23923   -21978   -20062   -15986 
  -11117    -7860    -8653   -12892   -16640   -17768   -16621   -14943 
  -15805   -19319   -21833   -21286   -18575   -15429   -12693    -9366 
   -5184    -2427    -3372    -8623   -16446   -23080   -26457   -27532 
  -27637   -27114   -25229   -21678   -18664   -19006   -23012   -28404 
  -32199   -33271   -32749   -31523   -29260   -25602   -20445   -14183 
   -9066    -8130   -11716   -16779   -19684   -19253   -16618   -13075 
   -9989    -7943    -5624    -2874    -1809    -3985    -9383   -16401 
  -22978   -29346   -36656   -42715   -43080   -36199   -25489   -16712 
  -12853   -12663   -14778   -18700   -22825   -26428   -30551   -35238 
  -38162   -35723   -26502   -13704    -2678     2532       45    -9350 
  -21216   -29628   -31791   -29438   -26365   -24788   -23798   -21696 
  -18282   -15435   -16903   -24843   -35971   -44072   -45909   -42450 
  -36485   -31019   -27388   -25615   -26358   -28316   -27845   -24359 
  -20384   -17121   -14275   -11890   -10142    -8854    -8246    -8565 
   -9280   -10786   -14297   -18753   -21756   -22706   -23035   -25204 
  -29818   -33623   -33374   -29072   -22718   -16780   -12552    -9885 
   -8917   -10150   -13551   -17949   -20922   -20370   -16475   -11640 
   -7559    -3604     -331     -869    -6872   -16435   -25627   -31638 
  -34258   -33440   -29055   -23080   -19095   -20089   -24783   -27497 
  -24957   -18951   -11815    -4464     2100     6881     9057     6848 
    -464   -10007   -18239   -24238   -29275   -35231   -41774   -44806 
  -40631   -30841   -20250   -11616    -5546    -3180    -5074   -10031 
  -16146   -20450   -20909   -19409   -18358   -17293   -15444   -13444 
  -11253    -7984    -4552    -3326    -5259    -9083   -12393   -13624 
  -13006   -11171    -8907    -8473   -11915   -17029   -18075   -12437 
   -3983     1302      675    -4454   -11074   -17139   -22177   -26315 
  -29511   -31682   -31934   -29329   -26013   -24870   -25042   -23975 
  -20170   -14330   -10517   -11635   -15327   -18260   -19799   -21370 
  -25292   -31645   -37024   -38026   -34548   -30409   -30246   -34567 
  -39762   -42741   -43205   -42602   -41725   -38786   -32103   -23687 
  -17310   -15220   -16948   -19341   -19776   -19807   -22891   -28899 
  -33435   -32240   -25089   -15914    -8920    -5021    -3669    -5248 
   -9066   -13206   -17402   -22157   -26513   -28869   -28142   -24748 
  -21552   -21663   -25085   -29996   -35025   -38115   -38307   -38337 
  -40351   -42956   -44139   -42627   -37858   -30790   -23237   -16972 
  -14165   -15944   -19779   -20708   -15077    -3526     8473    14636 
   12861     6193     -256    -3941    -6029    -8353   -11605   -15271 
  -18698   -23026   -28982   -34082   -36267   -36588   -36188   -34316 
  -29711   -22576   -15026    -9763    -8134    -8820    -9460    -9015 
   -7547    -6337    -7209    -9514   -11814   -15263   -20699   -25849 
  -27237   -23333   -16471   -10007    -4331     1598     7680    13167 
   17131    18232    15432     8869     -274   -10089   -18576   -24559 
  -27638   -28506   -28861   -29946   -32482   -36113   -38346   -37046 
  -32242   -25396   -19139   -14672   -10486    -6436    -4601    -6174 
  -11009   -17576   -23061   -25965   -26776   -25341   -20977   -15067 
  -10215    -8397   -10348   -14077   -16681   -18053   -18999   -18560 
  -16086   -13301   -13313   -17732   -24564   -29960   -31787   -31167 
  -30855   -31245   -29339   -23533   -16714   -13036   -14222   -18648 
  -22701   -24074   -23038   -20998   -19275   -18233   -17720   -18197 
  -20285   -24026   -28399   -31275   -31898   -32420   -33772   -32957 
  -28490   -23836   -22228   -23655   -26744   -28254   -24602   -16281 
   -6754       19      285    -5885   -14231   -21269   -25567   -26101 
  -23051   -18703   -15629   -14942   -16713   -20496   -26138   -33987 
  -42524   -47835   -46942   -40366   -30699   -19463    -7001     5877 
   17137    23327    21540    11984    -1594   -13697   -21154   -23867 
  -21820   -15942    -8411     -499     6269    10779    13545    13659 
    9174      337   -10487   -20675   -29256   -36254   -41337   -45299 
  -48711   -48757   -42014   -29631   -17636   -11682   -12248   -16027 
  -19799   -22035   -22165   -20017   -16934   -13990   -10844    -8999 
  -10502   -15542   -22966   -28549   -28946   -26214   -22208   -16927 
  -11938    -8417    -6704    -8234   -14084   -23197   -32482   -38628 
  -40227   -37587   -31331   -22129   -12107    -4847    -2388    -4691 
  -10225   -14363   -13160    -8332    -4231    -4099    -7857   -10996 
  -10214    -7431    -5735    -5728    -5689    -4446    -3943    -7281 
  -15079   -24500   -32317   -38465   -44163   -48264   -47092   -37258 
  -20304    -3432     6041     5052    -4464   -15880   -22224   -22160 
  -18828   -15462   -13914   -13235   -11788   -11894   -17205   -28010 
  -41510   -52366   -54389   -44598   -25434    -4560     9978    15557 
   12565     1874   -12734   -26580   -36744   -40852   -38405   -31730 
  -22725   -12155    -1519     8062    15795    19200    15860     5746 
   -8535   -22084   -30676   -33160   -30385   -24783   -19643   -16759 
  -16127   -17347   -20462   -25098   -28685   -27098   -17936    -3618 
    9440    16154    15776     9674    -1160   -16779   -36945   -59063 
  -78755   -92177   -98053   -96835   -87774   -70937   -50554   -31606 
  -16188    -5337      -11      447    -2537    -7580   -12931   -18302 
  -24146   -28573   -29124   -24842   -15531    -2789     9519    16505 
   14318     4070    -9062   -21447   -31954   -40591   -47238   -48953 
  -42155   -27512    -9379     6788    16205    17272    12044     3962 
   -4317   -11787   -18722   -25551   -32113   -38366   -44389   -49452 
  -52960   -54784   -53857   -48626   -38711   -25997   -14368    -7694 
   -8054   -13687   -19793   -25979   -37352   -54154   -68675   -72819 
  -62985   -42126   -19009      -98    14668    25034    27107    17296 
   -4375   -30526   -50943   -63857   -72771   -77537   -74353   -58408 
  -31164    -3807    13206    16041     4357   -16973   -38884   -56553 
  -69500   -75437   -71889   -58526   -36265   -10463    10311    22027 
   25972    25382    23431    20580    15813     9601     4228     2986 
    6529    10623    10843     7556     3980     1189    -1280     -782 
    6601    19920    33058    37967    28820     7635   -16367   -34040 
  -41397   -40325   -35790   -30906   -25054   -17929   -12533   -10845 
  -10804   -10411   -10242   -11725   -15268   -19409   -22261   -23030 
  -21779   -19724   -19447   -23958   -34189   -46138   -52936   -50422 
  -39314   -24279   -11912    -6051    -4524    -2666     1209     4837 
    5181     2332     -285      595     6412    17007    29458    38278 
   38882    30771    17940     5488    -5501   -18684   -37249   -58877 
  -75849   -79581   -67587   -47936   -33758   -31111   -34505   -35765 
  -33994   -34856   -41933   -51687   -58887   -62691   -65170   -68124 
  -70439   -66931   -52804   -29712    -5900     9396    11532     2711 
   -9330   -16235   -15071    -9812    -6201    -6259    -7913    -8170 
   -7794   -12490   -25313   -40411   -47912   -41478   -22688    -3072 
    3842    -4048   -17129   -24345   -22013   -17333   -20412   -32654 
  -46373   -52336   -46361   -31146   -13884     -446     8533    13066 
   13531    14365    17271    19600    21176    21756    18238     9079 
   -2547   -10078   -10039    -5412     -697     1492      795    -1049 
   -4113   -11480   -24190   -38823   -50517   -56111   -55019   -49287 
  -42863   -39194   -39112   -41171   -43724   -45574   -44623   -38153 
  -25698   -10930      436     4509      574    -8621   -17234   -20918 
  -19329   -12646    -1545    11340    24260    35513    40273    32729 
   10698   -20799   -52011   -75488   -86712   -83343   -68624   -48856 
  -29339   -15323    -9738   -11405   -17791   -26806   -38062   -51977 
  -67176   -79982   -84440   -75821   -56504   -35074   -20132   -15250 
  -17984   -23002   -25371   -23923   -21682   -20433   -19841   -20332 
  -21542   -23880   -31021   -44843   -61089   -71546   -70341   -59402 
  -46086   -37096   -35025   -35974   -31795   -18209      834    16166 
   19685    11015    -2966   -16608   -29136   -40348   -48084   -50756 
  -48540   -41362   -29714   -16576    -5231     2971     7427     7691 
    5426     3898     3708     1564    -5413   -14992   -19786   -13016 
    4269    23010    35104    39164    35702    24796     9005    -9616 
  -29731   -45836   -53643   -54968   -51434   -42490   -28229    -9480 
    9740    21739    21573    11122    -3444   -16506   -26798   -36469 
  -46425   -54499   -57218   -52040   -38954   -20374    -1029    13445 
   21934    27936    31455    26519     8707   -17586   -41491   -54538 
  -53635   -38436   -12298    16716    38924    46632    37467    15108 
  -14338   -45276   -71467   -84855   -79531   -56645   -24216     5628 
   21322    18078     -706   -26466   -50674   -69831   -82994   -88586 
  -86927   -78344   -60554   -33247     -720    30157    50326    50130 
   26828   -10960   -49342   -76274   -85034   -75131   -49407   -13578 
   22684    51054    69168    77247    74588    59076    29299    -9581 
  -47686   -76739   -88605   -79108   -54820   -27298    -5934     4106 
    2704    -7859   -24983   -45099   -63041   -73184   -72115   -58806 
  -35356    -8718    13858    29374    37737    40516    37537    24738 
    2093   -22487   -39524   -41648   -26802    -2616    17223    23029 
   15535     2943    -6624   -11217   -15876   -25108   -36953   -45642 
  -46998   -41724   -32742   -21641    -9298     2576     8667     3466 
   -9170   -18324   -16609    -5115     6669     7923    -3197   -18843 
  -31308   -41878   -55878   -71259   -79552   -72907   -49300   -19030 
    1582     5725    -2610   -14312   -20215   -20587   -22795   -28982 
  -36320   -42055   -45375   -49231   -55248   -60005   -60645   -58825 
  -57691   -57387   -56338   -54418   -51609   -47931   -44786   -42811 
  -40825   -38198   -35913   -34972   -34062   -29433   -19376    -7139 
    3583    12886    22404    31635    36869    32468    15097    -9841 
  -29098   -33979   -27402   -18959   -18328   -27162   -38174   -45729 
  -48943   -48937   -47712   -43987   -34867   -21494    -8408      214 
    3417     1926    -3783   -11352   -17387   -20887   -23277   -26051 
  -28975   -30155   -27052   -18375    -6295     4297     9181     6925 
    -680    -9238   -15587   -20748   -26745   -33868   -41365   -46972 
  -47170   -39719   -25203    -6387    12562    26377    31694    30178 
   25616    18851     7584    -9344   -28526   -44120   -52505   -52813 
  -45449   -31869   -13686     6550    23639    31530    25521     4931 
  -23782   -50681   -68527   -74282   -69346   -57946   -43441   -27577 
  -10597     8198    26611    39484    43337    36999    21862     3962 
  -10766   -22505   -33956   -45005   -53858   -58883   -58878   -53937 
  -44651   -31958   -19632   -12747   -12383   -14927   -16134   -13727 
   -7080     3391    15751    26201    30031    23248     5642   -16860 
  -35918   -46425   -47088   -39662   -28928   -19209   -11786    -6724 
   -3493    -1673    -2819    -8326   -16362   -23329   -26822   -25488 
  -18383    -6959     4567    11865    12813     9746     8526    12540 
   20530    29186    33403    28546    15292    -1335   -17023   -31203 
  -45822   -61161   -74451   -81830   -80605   -71038   -56061   -40179 
  -27374   -16899    -4632     9830    20900    21364     9597    -7352 
  -21004   -29236   -33927   -35656   -34257   -31082   -29116   -32556 
  -42843   -55125   -63649   -67816   -69948   -70848   -68876   -61736 
  -49473   -35565   -23405   -13110    -3328     5704    11540    11648 
    6717     1181    -1081     -837    -1889    -7634   -18695   -29922 
  -33426   -28258   -22162   -23140   -32915   -46759   -57896   -62504 
  -60517   -53686   -43326   -29809   -15773    -6438    -5259   -11840 
  -21857   -30528   -38198   -46985   -54419   -55444   -46839   -30272 
  -12427      815     7616     7073    -1553   -16569   -33832   -49172 
  -60696   -67602   -68092   -61360   -49971   -38573   -30112   -24385 
  -20711   -18376   -15048    -8406     1837    14093    26082    35284 
   38263    32565    20466     8765     3144     2882     3486     2635 
    1124      627     -320    -6518   -18779   -32472   -43834   -51362 
  -54901   -56240   -55439   -48353   -31652    -7335    16991    31229 
   29635    14621    -5598   -23011   -35110   -42801   -46575   -47133 
  -44845   -40031   -34928   -31104   -28190   -27051   -29253   -34575 
  -41703   -48795   -52961   -51696   -45173   -35869   -25550   -14638 
   -5196     -844    -3140   -10228   -18287   -24899   -30488   -35149 
  -37661   -37250   -34038   -29775   -26473   -23670   -20050   -15425 
  -10230    -6140    -5579    -9676   -17474   -25634   -30956   -33804 
  -35614   -35668   -32411   -24912   -14082    -3026     5133     8334 
    5332    -3273   -13768   -21108   -22949   -20032   -14766   -11515 
  -13224   -17787   -21124   -21080   -18553   -16244   -14543   -11312 
   -6965    -5473   -10162   -20357   -31029   -36545   -35197   -28890 
  -21320   -16127   -13879   -13657   -16163   -21091   -25146   -25498 
  -22930   -20563   -20911   -24429   -29000   -30739   -26527   -16565 
   -4857     4049     9064    12781    17760    22771    24310    21238 
   15587     9754     3860    -4193   -15552   -28410   -39197   -44476 
  -42744   -35891   -28540   -24018   -20839   -15435    -7414     -387 
    1117    -4035   -11897   -17905   -21391   -23258   -23221   -21419 
  -18872   -17367   -19742   -26024   -31833   -33180   -29035   -21145 
  -14230   -13238   -18688   -25832   -29072   -26766   -22211   -20752 
  -24571   -31104   -37157   -40641   -39814   -35922   -33006   -31989 
  -28889   -20178    -7485     4076    10768    12561    11898    10641 
    8850     6896     5328     1358    -9280   -26468   -45396   -59449 
  -63647   -59425   -54145   -54051   -57447   -55672   -43329   -24404 
   -7746      124      300     -847      176     1715      254    -6296 
  -16683   -27346   -34959   -37320   -33091   -23779   -14944   -11510 
  -14080   -21110   -29823   -36546   -40264   -41437   -37492   -26332 
  -11692     -318     3176    -2126   -12606   -20856   -22313   -20014 
  -18985   -19790   -18896   -12369     -942     9668    16142    20588 
   24566    25490    19668     6617    -9623   -24525   -37198   -48337 
  -56475   -57829   -49204   -31352    -8785    14378    35889    51446 
   54188    40598    14837   -11670   -28296   -35217   -39162   -43911 
  -49564   -53699   -53889   -49963   -42300   -32307   -21963   -10469 
    4048    18510    23987    14611    -4989   -24886   -38947   -47362 
  -53569   -59108   -60965   -55086   -41597   -25116   -11428    -4931 
   -7908   -19278   -33457   -44881   -52280   -55203   -53317   -49047 
  -44225   -38965   -33643   -26823   -16730    -4336     8023    15779 
