Origin Time       2011/03/11 14:46:00
Lat.              38.103
Long.             142.860
Depth. (km)       24
Mag.              9.0
Station Code      AOM021
Station Lat.      40.6150
Station Long.     141.2083
Station Height(m) 71
Record Time       2011/03/11 14:47:24
Sampling Freq(Hz) 100Hz
Duration Time(s)  300
Dir.              E-W
Scale Factor      3920(gal)/6182761
Max. Acc. (gal)   80.283
Last Correction   2011/03/11 14:47:09
Memo.             
[...]
   21668    16314    14281    14246    15749    18808    23345    28965 
   34784    39694    42740    43086    40168    34368    27083    19496 
   11800     3985    -3783   -11426   -18664   -24920   -29595   -32425 
  -33843   -34693   -35388   -35576   -34714   -32727   -30215   -28407 
  -28819   -32060   -36888   -41253   -43787   -44153   -43338   -42963 
  -43175   -42703   -40888   -37787   -33480   -28384   -22725   -15994 
   -8117      -20     7256    13011    17125    20522    24804    30770 
   37697    44407    50323    55770    61396    66628    69850    70447 
   69220    67472    66295    65701    64948    63881    62972    63069 
   65283    69758    75457    81479    87165    91584    94058    94795 
   94696    94429    93978    93361    92932    92950    93767    95776 
   98573   100930   101831   100856    98021    94007    89704    85134 
   79431    71754    62091    51380    40841    31259    23299    17603 
   13923    11117     8045     4218      -26    -4052    -7258    -9032 
   -9099    -7991    -7053    -7457    -9110   -11178   -13160   -14842 
  -16025   -16606   -16759   -17082   -18354   -21273   -26255   -32917 
  -40112   -46828   -52204   -54959   -53972   -49095   -41223   -32144 
  -24026   -18375   -15374   -14256   -14083   -14515   -16006   -18770 
  -22051   -24741   -26141   -26240   -25459   -23957   -21247   -16682 
  -10392    -3655     2106     6530     9812    11963    13405    14548 
   14761    13391    10754     7527     4425     1930      107     -767 
    -632     -266     -222     -576    -1715    -3487    -4242    -2335 
    2086     7705    13734    20159    26784    32843    37645    40685 
   41269    39227    35661    32254    30059    29283    29876    31500 
   33198    34316    35251    36431    37623    38419    38251    36252 
   31904    25751    19367    14301    10656     7419     4087     1194 
    -132     1018     4641     9852    15164    19475    23155    27033 
   31021    34836    38551    41833    43878    44010    42160    39046 
   35562    32444    30608    30657    32035    33640    35170    37181 
   39881    42195    42218    38698    31998    23726    15315     7128 
    -795    -8035   -14033   -18335   -20923   -22069   -21661   -19624 
  -16507   -12724    -7974    -1914     4928    10934    14216    13981 
   11032     6841     2746       54     -421      818     2696     4820 
    7415    11044    16291    22726    29076    34416    37937    38725 
   36637    32335    26836    21681    18156    15927    13709    11019 
    8166     5569     4051     4295     5827     7421     7793     5948 
    1851    -3432    -8484   -12267   -14230   -14279   -13109   -11644 
  -10155    -8987    -8981   -10651   -13867   -17693   -20429   -20804 
  -18727   -14692    -9375    -3597     1936     6209     7800     6589 
    4039     1020    -2612    -6543    -9860   -12075   -13312   -13423 
  -11699    -7842    -2717     1800     3991     4062     3579     3263 
    3347     4448     6330     8136     9844    11567    13152    15043 
   17676    20984    25034    29384    32590    33600    32204    28464 
   23801    21262    23142    29531    38519    47200    54015    59529 
   64443    68616    71837    74139    75186    73861    69362    62265 
   53405    42894    31094    19382     9498     2643     -923    -1728 
    -759      776     2017     2997     4244     6185     9273    13477 
   17096    17582    13928     7100    -1346   -10165   -18602   -26280 
  -33318   -40211   -46869   -52465   -56550   -59449   -61405   -61890 
  -59884   -54838   -47330   -38791   -31067   -25877   -23569   -23012 
  -23184   -23393   -22375   -19319   -14883    -9845    -4250     2015 
    9002    16522    24216    32039    39814    46845    52343    55089 
   53405    46831    37065    26809    18405    13352    12240    14726 
   19851    26480    33489    40167    46488    52134    55852    56631 
   54327    49369    42947    36385    30541    26183    23298    20954 
   19200    19253    21776    26632    33098    39623    44704    47380 
   46652    41881    33236    21130     6415    -8879   -22414   -33039 
  -40619   -45488   -48124   -48444   -46130   -41401   -34959   -27989 
  -21638   -15899   -10304    -5733    -3933    -5421    -9158   -13591 
  -17430   -20378   -22942   -25441   -27899   -29851   -30158   -28791 
  -27408   -26925   -26669   -26013   -24836   -22696   -19067   -14194 
   -8967    -4229     -270     2975     5013     5502     5523     6244 
    7800    10185    13423    17744    23897    31886    40474    48110 
   53695    57264    59561    60835    60934    59639    56337    50603 
   43286    36083    30458    27244    26324    26765    27255    26276 
   23214    19091    14993    10702     5594     -162    -5903   -11133 
  -15182   -17122   -16750   -15011   -13304   -12457   -12214   -11998 
  -11881   -12573   -14667   -17959   -21932   -26658   -32440   -39209 
  -46744   -54694   -62447   -69102   -73343   -74014   -70891   -64354 
  -55291   -45406   -35976   -26818   -17638    -9205    -2912     -341 
   -2729    -9916   -20006   -30308   -38469   -42909   -43018   -39299 
  -32995   -25652   -18462   -11409    -3803     4403    12667    20572 
   27669    33224    36697    38567    40442    43358    46743    49828 
   52335    54354    57109    62021    69092    77426    85542    91609 
   94730    94793    92010    87136    80801    73307    65202    57339 
   50898    47047    46101    47503    50387    53743    56573    58329 
   58908    58307    56763    54828    52919    50979    48785    46524 
   44542    42886    41685    41163    41057    40806    39847    37697 
   34451    30471    25863    21250    17747    15911    16213    19654 
   26672    36282    46588    55762    62864    67908    71109    72380 
   71434    67670    60149    48145    32115    14738      101    -9151 
  -13225   -14071   -13881   -13956   -14353   -14957   -16196   -18413 
  -21892   -26851   -32137   -35530   -35779   -33149   -28941   -25099 
  -23060   -22979   -24232   -25609   -25951   -25428   -24853   -24273 
  -23364   -21717   -18323   -12683    -6061     -378     3099     4137 
    3702     3166     3448     4890     7165    10002    14137    20720 
   30354    42738    56616    70603    83934    95835   105210   111440 
  114528   114697   112597   109265   105751   103261   102484   102219 
  100331    96078    90251    84189    79335    76310    74693    74198 
   74400    73756    70917    65989    59805    53236    46665    39940 
   33511    28403    25123    23594    23020    22143    20513    17945 
   13864     8841     4110     -230    -4214    -7275    -9233   -10269 
  -10956   -12700   -16734   -22997   -30338   -37124   -42084   -45314 
  -48210   -52073   -56834   -61187   -63504   -62640   -59046   -54740 
  -51086   -47639   -43356   -37713   -31156   -24574   -17960   -10378 
   -1115     9751    21224    31544    39020    42773    42980    40757 
   37616    35070    34422    36362    40818    47159    54491    61914 
   68433    72762    73610    70495    64187    56525    49549    43963 
   38404    30707    19958     7140    -5730   -16728   -24846   -29698 
  -30745   -27680   -20771   -10662      705    10091    15303    16234 
   13919     9774     4900     -333    -6021   -12109   -17763   -22027 
  -24665   -25538   -24692   -23100   -21722   -20757   -20311   -20552 
  -21432   -22767   -24168   -24998   -24725   -23181   -20388   -16456 
  -11741    -7043    -3277     -717     1302     4110     8542    14139 
   20449    27578    35007    41670    46635    49108    48938    46812 
   43488    39374    34441    28504    22226    16945    13357    11412 
   10814    11144    12127    13651    15484    17252    18383    18132 
   16184    13090     9645     5731      439    -6163   -12377   -16401 
  -17480   -16157   -13830   -11006    -7054    -1919     3833     9786 
   15239    19145    20527    18515    13123     5787    -1833    -8715 
  -14218   -18260   -21244   -23260   -23922   -22855   -20282   -16991 
  -13437    -9799    -6380    -2916      665     3118     3250      944 
   -3197    -7770   -11388   -13874   -15301   -14868   -12005    -7447 
   -2552     1516     4255     6081     7586     9047    10761    12684 
   14131    14539    13755    11669     8274     3960     -188    -2680 
   -2464      705     6245    13004    20000    27063    34514    42305 
   49880    56302    60445    61881    61215    59197    56179    52444 
   48172    43228    37274    29925    21555    13883     8926     7553 
    9232    12680    16896    21672    26603    30619    33055    33472 
   31240    26696    21310    16587    13578    12431    11977    10745 
    8227     4831     1211    -2277    -5505    -8260   -10794   -14036 
  -18355   -23007   -26889   -29063   -29368   -28528   -27000   -24756 
  -21789   -17853   -13080    -9058    -7612    -9165   -13175   -18541 
  -23532   -26667   -27416   -26078   -23409   -19807   -15300   -10756 
   -7538    -5844    -5045    -5161    -6874   -10560   -15736   -21489 
  -27645   -34694   -42369   -49778   -56107   -60045   -60502   -58012 
  -53748   -48553   -43585   -39733   -37002   -35625   -36059   -38316 
  -42377   -47794   -53442   -58604   -62882   -65108   -63745   -58433 
  -50448   -41408   -32049   -22398   -12780    -4391     1574     5244 
    7759     9879    11715    13250    14429    15414    16830    19248 
   22630    26337    29538    31820    33275    34190    34527    33318 
   29595    24019    18464    14377    11982    10477     9317     9262 
   11237    14958    19441    23626    26288    26808    25743    23580 
   20031    14760     7836       50    -7500   -14291   -19699   -22217 
  -20477   -14384    -5388     3878    10783    13473    10947     3224 
   -9067   -24926   -42278   -58052   -69615   -75780   -76534   -72551 
  -64633   -53082   -38343   -22093    -6820     5399    13780    19066 
   22777    26431    31413    38441    47232    57300    68365    79953 
   91186   100877   108203   113264   116516   118205   118623   118251 
  117397   115782   112568   107068    99593    91485    84469    80001 
   78591    79167    79801    79574    78787    77567    75740    73546 
   71764    71538    73749    78638    85724    93313    99190   102047 
  101394    97122    89974    81263    71986    62549    52890    43150 
   34267    27432    22815    19357    16315    13808    12151    11991 
   13766    16539    18728    19561    18890    16748    13981    11830 
   10553     9385     7534     5126     2836      866      -77     1556 
    5884    11282    16111    19419    21452    22629    21863    18151 
   12040     4503    -2956    -8298   -10926   -11766   -11699   -11479 
  -11776   -12531   -13080   -12456    -9435    -3714     3405    10497 
   16916    22279    26400    29281    31173    32765    34545    36419 
   38249    40311    43033    45898    47277    45915    41961    36840 
   32358    29605    28657    28612    28080    26365    23899    21812 
   21191    22160    23881    25481    26587    27219    27289    26434 
   24466    21340    16834    10753     3427    -3768    -8935   -11226 
  -11253    -9985    -7777    -4303      959     8289    17524    27785 
   37737    46513    53880    59596    63342    65156    65311    63923 
   61241    58010    55149    53310    52591    52518    52661    53038 
   53987    56352    61082    67986    75403    81277    84710    86188 
   86256    84740    81094    75350    68610    62274    57244    53594 
   50682    47971    45493    43372    41472    39775    38462    37154 
   34725    30176    23462    15508     7321     -595    -7317   -11263 
  -11680    -9312    -5914    -3054     -835     1569     4685     8566 
   12971    17360    20789    22134    20678    16491    10531     4094 
   -2207    -8506   -14996   -21510   -27312   -31582   -34497   -36963 
  -39294   -41143   -42267   -42645   -42325   -41645   -41370   -41975 
  -42752   -42223   -39474   -35108   -30996   -28877   -29307   -31900 
  -35986   -40946   -46184   -50691   -53185   -53251   -51364   -47793 
  -42604   -36156   -29049   -22150   -16241   -11105    -5919     -579 
    4531     8994    11998    13210    13199    12231    10737    10333 
   12521    17631    25111    33595    41521    47737    50964    50382 
   47253    44369    43603    45020    48147    52235    55825    57645 
   57147    54501    51055    48482    47356    47505    48155    47933 
   46370    44162    42354    42459    45898    52808    61813    70817 
   78224    83464    86567    87524    85860    80728    71047    55987 
   36443    15737    -2237   -15571   -24784   -31000   -34431   -34572 
  -31145   -25307   -19971   -17866   -19661   -23957   -28274   -30582 
  -30290   -27616   -23092   -17891   -13138    -9292    -6969    -6858 
   -8880   -12376   -16408   -20256   -24012   -27488   -29377   -28660 
  -25098   -18643   -10295    -2153     4068     7434     7954     6657 
    4186      338    -4982   -11994   -21078   -31650   -42163   -51156 
  -57816   -62107   -64311   -64032   -60409   -53407   -44177   -34649 
  -27163   -23910   -26011   -32696   -42081   -52663   -63310   -72915 
  -80588   -85394   -86700   -84927   -80759   -74347   -65783   -55441 
  -44168   -33547   -25384   -20725   -19077   -18730   -18233   -16767 
  -13811    -9811    -5928    -2622      303     2841     5050     7145 
    9109    11459    15333    21005    27945    35630    43542    52155 
   63030    76551    91351   105827   118562   128489   135253   138629 
  138298   134134   126008   113730    97474    77989    56628    35279 
   15622    -1399   -15263   -25609   -31894   -33454   -30388   -23699 
  -14778    -5191     3713    11157    16900    21299    24914    27936 
   30498    32610    33832    33856    32694    30402    27103    23013 
   18398    13496     8607     4272     1052     -722    -1007      -99 
    1552     3273     3754     1947    -1729    -6050    -9873   -12147 
  -11998    -8956    -3217     4383    12619    19770    24324    26483 
   27978    30773    36251    44185    52664    59501    63010    62468 
   58428    51859    43585    34835    26988    20660    16061    13161 
   10753     7036     1485    -5258   -12855   -20839   -28123   -33984 
  -37995   -40153   -41291   -41500   -39836   -36001   -29882   -20783 
   -9178     3086    14830    25372    33990    41016    47073    51741 
   54526    55392    54342    52017    49190    45619    41190    36276 
   30490    23732    16944    10581     4818      353    -2417    -3482 
   -2934    -1260     1053     3833     6884     9801    12168    13944 
   14945    14355    12093     9464     7463     5877     4101     2116 
     669      621     2528     6458    12036    18876    26591    34434 
   41250    45822    47243    45196    40284    33700    26771    20895 
   16420    12324     8285     4926     2272       29    -2060    -4438 
   -7141    -9984   -13239   -17324   -22626   -29025   -35005   -38590 
  -38693   -34844   -26986   -15675    -1986    12217    24517    33263 
   38214    39756    38257    34268    28670    22771    17977    14913 
   13603    14149    16507    20280    24890    29336    32376    33612 
   33578    32742    31183    28720    25000    19883    13655     6697 
    -618    -7576   -12977   -15342   -13722    -8690    -2232     3344 
    6583     7270     5899     3423      901    -1570    -4587    -8028 
  -11228   -13767   -15449   -16569   -17503   -17704   -16212   -12635 
   -7176     -443     6899    14535    22370    30175    37630    44455 
   50473    55783    60572    64722    67691    68770    67789    65188 
   61032    54976    47139    38281    30086    24951    24187    27404 
   33790    42432    51765    59820    64988    66631    65119    61573 
   57672    54944    54040    54626    55443    54984    52204    46142 
   36217    23421     9753    -3226   -14306   -22441   -27419   -29583 
  -28729   -24482   -17494    -9041      -21     8816    16670    22982 
   27441    30092    31080    30080    26719    21114    13726     5756 
    -743    -4468    -6151    -7521    -9403   -11002   -10603    -6787 
     679    10900    22584    34741    46987    59022    69928    78526 
   83920    85598    84003    80584    76788    73387    70457    67683 
   64627    60745    55562    49308    43485    39880    38856    39424 
   40381    40736    39890    37925    35325    32808    31459    31746 
   33088    34959    36789    37647    36885    33938    28460    20931 
   12147     2897    -6254   -15310   -23902   -30899   -35560   -37645 
  -36950   -33800   -29004   -23288   -17523   -12787    -9865    -8887 
   -9223   -10366   -12921   -17542   -23877   -31318   -38927   -44605 
  -45957   -41804   -32836   -21381   -10025     -349     7047    12439 
   16843    21196    25823    30752    36158    42126    47996    52569 
   55305    56770    57837    59482    62714    67546    72768    77054 
   79982    82323    85162    88654    92097    94828    96287    95936 
   93818    90098    84314    76397    67279    57928    48897    40648 
   33733    28790    26105    25303    26168    29185    34390    40585 
   46091    49691    51081    50487    47840    42976    35990    26849 
   15880     3972    -8624   -21877   -34820   -46201   -55097   -61268 
  -65638   -69342   -72859   -76514   -79933   -81476   -79997   -75717 
  -69033   -60328   -50171   -39079   -28063   -18711   -12190    -8917 
   -8806   -11264   -15751   -22447   -31495   -41838   -51219   -57191 
  -58599   -55701   -49055   -39911   -30435   -22099   -15460   -10979 
   -8321    -6570    -5446    -4737    -4007    -3247    -2485    -1784 
   -1715    -2690    -4682    -7478   -10002   -10236    -6850     -703 
    5777    10686    13341    13358    10377     4442    -4065   -14906 
  -27956   -42667   -58044   -72830   -85769   -95775  -101807  -103477 
 -101305   -95649   -86664   -75068   -61454   -45721   -28074    -9631 
    8090    23631    36072    45389    51927    55861    57489    56926 
   53654    47856    41473    36880    35305    36266    37844    38143 
   36444    32708    27269    21082    14806     8517     2798    -1649 
   -4746    -6339    -6273    -5011    -3090     -732     2099     6148 
   12353    20386    29132    37808    45095    49028    48803    44738 
   37055    26316    13335     -809   -13732   -23639   -30864   -35492 
  -37053   -36104   -32947   -27242   -19800   -11842    -3818     3526 
    9199    12886    14825    15977    17561    19387    20155    19036 
   15649    10022     3178    -3645    -9938   -15785   -21320   -25799 
  -27264   -23821   -15274    -3310     9918    23150    35823    46918 
   54450    56393    52303    43761    32963    21561    11295     3905 
    -453    -3130    -5485    -8105   -10626   -12597   -14527   -16885 
  -19366   -22005   -24715   -26193   -25097   -21393   -16137   -10502 
   -4959     1121     8834    18251    28353    38144    46858    54239 
   60899    67067    71915    74935    76313    76086    73940    69543 
   63239    56049    48776    41785    35291    29657    25545    23254 
   22385    22271    22056    20957    18749    15444    11105     6067 
     570    -5367   -11617   -17886   -23257   -25955   -24560   -18982 
  -10335     -723     7748    13768    16247    15134    12156     8490 
