Origin Time       2011/03/11 14:46:00
Lat.              38.103
Long.             142.860
Depth. (km)       24
Mag.              9.0
Station Code      AOM028
Station Lat.      40.7004
Station Long.     140.9190
Station Height(m) 568
Record Time       2011/03/11 14:47:17
Sampling Freq(Hz) 100Hz
Duration Time(s)  300
Dir.              N-S
Scale Factor      3920(gal)/6182761
Max. Acc. (gal)   69.920
Last Correction   2011/03/11 14:47:02
Memo.             
[...]
   46945    47292    47491    47505    48000    49580    52727    57227 
   61790    65146    67004    67773    68098    68456    67997    64785 
   58867    52895    48350    44290    40464    38037    37225    37467 
   38834    41219    44272    48286    53019    57034    59663    61859 
   64309    66378    67304    66689    63830    58292    51081    43767 
   36708    29341    21491    13519     5810    -1706    -9511   -17638 
  -25283   -31309   -34721   -35453   -34584   -32868   -29758   -24267 
  -16633    -8839    -2515     2613     7018    10077    11452    11650 
   10961     9786     9438    10724    12300    12218    10835    10355 
   11628    13260    13684    12529    10357     8085     6309     5115 
    4414     3895     3261     2778     2795     3244     4272     6556 
   10416    15184    19867    24019    27779    31105    33190    33373 
   32389    31387    30393    29028    27438    25753    23804    21399 
   18476    15221    11752     7949     3924      -86    -3999    -7427 
   -9579    -9984    -9127    -7749    -5395    -1435     2961     6476 
    9657    13479    17949    22346    25762    28029    29581    30286 
   30096    30058    30868    31783    31872    31272    31063    31989 
   33578    35102    36236    36355    34800    31845    28336    25034 
   22758    21908    21782    21785    22478    24038    25477    26233 
   26718    27293    27835    28029    27578    26220    23960    21286 
   18795    16960    16381    17359    19189    20508    20675    20388 
   20207    19342    17073    14094    11614    10267     9904    10138 
   11490    14965    20198    25624    30189    33852    36881    38960 
   39307    38063    36407    34870    33083    31106    29522    28848 
   29517    31476    33965    36163    37677    38802    40185    41638 
   42000    40733    39181    39369    41366    43441    45061    47095 
   49179    50080    49723    48114    44518    39341    34136    29281 
   24071    18991    15521    13776    12699    12311    13625    16666 
   20236    23681    27337    31192    35048    39388    44500    50031 
   55608    60459    63546    64698    64277    62208    58339    53035 
   46922    40360    33822    28644    25886    24951    24988    25811 
   26525    25952    24278    22418    20541    17755    13227     7732 
    2800    -1199    -4377    -6248    -6377    -4540     -411     5823 
   13012    19508    23820    25292    24695    23545    22532    21153 
   18641    14986    11256     8686     7519     7195     7391     8198 
    9302     9776     9056     7604     6242     5229     4333     3199 
    1298    -1490    -3910    -4146    -1925     1433     4928     8691 
   13030    17518    21461    24684    26911    27042    24399    20114 
   16113    13452    12441    12899    13838    14569    15663    17812 
   20818    23995    26723    28770    30664    33625    38427    44384 
   50016    54415    57507    59146    58677    55633    50631    45549 
   42116    40104    37950    34799    31041    27334    23810    20314 
   16779    13261    10361     9002     9046     9242     8711     7561 
    6333     5127     3591     1876      335    -1342    -3196    -4477 
   -4590    -3223     -424     2910     5889     8321     9972    10264 
    8722     5632     2379      345     -492    -1180    -2391    -3740 
   -4333    -3923    -3166    -2853    -3649    -6243   -10637   -15468 
  -19176   -21509   -22968   -23699   -23561   -22449   -20604   -18875 
  -18074   -18033   -17781   -16525   -14245   -11365    -7865    -3031 
    3394    10262    16172    20949    25380    30422    36631    43457 
   49442    53468    55662    57200    58755    59236    57509    54765 
   53316    53898    55403    56524    57097    57869    59573    62672 
   66595    69181    69012    67283    65739    64736    63850    62567 
   60598    58283    56325    55174    54764    54785    55159    55675 
   55306    53025    49072    44528    40308    36821    33753    30422 
   26691    23310    21351    21207    22345    24209    26280    27399 
   26817    25341    24051    22979    21810    20918    20967    21585 
   21592    20729    19684    18572    16744    13424     8053      950 
   -6622   -13668   -20444   -27691   -34610   -38842   -39272   -37177 
  -34311   -31311   -27464   -21578   -13660    -5299     1581     6370 
   10693    16470    23296    29765    35539    40348    43518    45333 
   46975    49065    50870    50997    48986    45774    42691    40445 
   38590    36354    34290    33695    34440    35087    35097    35345 
   36312    37381    38229    39147    40040    40816    41991    43895 
   46379    49013    51031    52140    52893    53761    54800    55619 
   55353    53829    51930    50075    47595    43891    39400    35176 
   31697    28715    26238    24356    22688    21366    21011    21278 
   21203    20695    20916    23117    26879    30486    33067    34860 
   36216    37508    38703    39095    38366    36782    34675    32195 
   28711    23409    16527     8839      762    -7764   -16991   -26334 
  -33984   -38571   -40707   -41687   -41437   -39243   -35491   -31061 
  -25887   -19222   -10989    -2351     5249    11397    16753    21952 
   26825    30841    33746    35445    35793    34625    31909    28343 
   25088    22247    19050    15360    11350     6710     1291    -4454 
  -10029   -15213   -19663   -22634   -23632   -23087   -21582   -18782 
  -14268    -8879    -4049     -171     3431     6783     8487     7375 
    3980     -156    -3725    -6108    -7355    -7619    -6419    -2881 
    3185    10658    17701    23044    26289    27355    26631    25171 
   23887    23155    23450    25375    28699    32067    34505    36856 
   40317    43904    45530    45185    44687    44909    45368    45659 
   45722    45632    45810    46964    49598    53206    56261    57847 
   58531    59204    60396    62438    65059    67558    69622    71107 
   71681    71252    70021    68080    65376    61970    58207    54865 
   52996    52946    53843    54674    55421    56786    58919    61171 
   63405    65947    68610    71396    74394    76358    75395    70931 
   64249    56993    49041    39001    27153    15927     6906     -337 
   -5985    -9397   -10809   -10995    -9833    -7035    -3461     -742 
    -133    -1971    -5711   -10297   -15000   -19757   -24178   -27053 
  -27482   -25825   -23122   -19976   -16585   -13592   -11644   -10219 
   -8336    -6187    -4716    -4083    -3464    -1757     1466     5243 
    8197     9995    10849    10583     9412     8155     6869     5314 
    4412     4914     5771     5673     5168     5905     8383    11792 
   15647    20154    25449    31331    37601    44127    50176    54419 
   56379    56836    56004    52966    47710    41653    35384    27851 
   18678     9592     2490    -2410    -5719    -7585    -7684    -5799 
   -2603      481     2592     3697     4019     4315     5407     7023 
    8527    10101    12026    13740    14259    13121    10644     7607 
    4847     2776     1197     -395    -2447    -5013    -7601    -9110 
   -7958    -3209     4262    12562    20671    28686    36341    42512 
   46781    50443    54905    59629    62875    64147    64447    64400 
   63675    62216    60451    58164    54665    49933    44396    38587 
   33695    30762    29175    27477    25283    22869    19697    15229 
   10383     6604     4281     2911     1888      892      386     1514 
    5040    10401    15733    19370    21669    24269    27435    29771 
   30567    30514    30114    29148    27278    23964    18725    12346 
    6970     4064     2890     1841      634      399     2023     4892 
    7336     8409     8989    10305    11840    12271    11448     9650 
    7077     5107     4885     5097     3952     1545    -1193    -3546 
   -4705    -4248    -2743    -1173      188     2131     5524    10358 
   15904    20967    24754    28433    33791    40113    45183    48403 
   50357    50919    49255    44731    37841    30438    24140    18673 
   13088     8080     4863     2975     1514      541      184       82 
      26      445     1663     3206     4457     5448     6994     9749 
   12897    15326    17763    21529    25958    29014    30252    31707 
   34945    38845    41879    44426    47179    49485    50489    50370 
   49893    49792    50509    51896    53382    54429    54692    54501 
   55055    57031    59438    60679    60151    58300    55796    53275 
   51247    49650    48173    46836    45110    41732    36756    31915 
   28343    25847    23850    22008    20768    20719    21453    22543 
   24210    26094    27438    28397    29791    31841    33540    34068 
   34451    35973    37978    39147    39315    38914    38131    36828 
   34769    32324    30263    28585    27040    26151    26280    27062 
   28327    30040    31595    32235    31542    29537    27188    25923 
   25858    25984    26166    26990    28195    28997    29230    29194 
   28815    27469    24602    20439    16004    12446    10532    10508 
   12090    15283    20723    27984    35263    41701    47885    54002 
   59254    62670    63952    64066    64381    64948    64811    63435 
   60632    56090    49486    40952    31811    23552    15719     6982 
   -2165    -9497   -13136   -13062   -10645    -6915    -2175     3092 
    7943    11338    12423    11118     8820     7623     8197     9311 
    9697     9464     9535    10326    11385    12157    12614    13427 
   15708    19820    24650    28740    31229    31920    31423    30291 
   28208    25222    22794    22538    24061    25296    25564    25904 
   26118    24769    21951    19363    17772    16001    13071    10103 
    8744     9313    11539    14970    18408    20842    22626    24675 
   27015    28724    29331    29752    30872    31991    32003    31058 
   30381    31063    32797    34339    35517    37077    38930    40719 
   42910    45827    49013    51745    53254    53148    51978    50776 
   50189    50161    50096    49360    47671    45256    42781    40230 
   36240    30310    24313    20123    17760    16334    14922    12824 
   10061     7443     5657     4454     3260     2141     1422     1004 
     491     -321    -1182    -1574    -1048      339     1902     3185 
    4781     7816    12510    17559    21580    24510    26696    27878 
   27747    26092    22243    15666     7251     -912    -7253   -11736 
  -15458   -19739   -24690   -28448   -29239   -27746   -25907   -24418 
  -22863   -20996   -18860   -16746   -15151   -14148   -13478   -13038 
  -12469   -11058    -8493    -5031    -1012     3391     8146    13043 
   17430    21109    25168    30362    35498    39069    41029    42139 
   43171    44483    45313    44637    42967    41864    42220    44253 
   47737    51211    52989    53340    53712    54363    54256    52235 
   47727    41234    34018    26780    19217    11274     4093    -1129 
   -4493    -6429    -6379    -3787      623     5403     9539    13007 
   16540    20738    25261    28982    31231    32500    33581    34792 
   35798    35716    34319    32617    31428    30501    28926    25807 
   21410    17092    13711    11058     8297     4924     1935      847 
    1607     2901     3984     5390     7923    11103    13133    12818 
   11387    11611    14542    18418    21248    22777    23987    25654 
   27160    26998    24544    20718    16869    13391     9921     6679 
    4336     2921     2174     1938     1593      632     -285       89 
    2173     5097     7882    10435    12763    14319    14804    14781 
   14952    15215    14759    12834     9476     5612     2291      154 
    -261     1378     4542     7955    10575    12031    12029    10324 
    7690     5647     5041     5469     5876     6146     7626    10794 
   13987    15933    17465    19740    22528    24721    25990    27277 
   28931    29812    29180    27469    25261    23227    22288    23009 
   25235    28437    32581    38006    44126    49890    55393    61430 
   68123    74748    80273    84200    87070    89800    92604    94811 
   95973    96440    96149    94316    91096    87571    83841    79294 
   74627    71200    68548    64907    60055    55478    52040    49489 
   47743    46618    44983    41805    37187    32136    28079    26061 
   26394    28984    32890    36659    40231    44758    50261    55454 
   59308    61346    61508    60414    58957    57506    55845    53706 
   51192    48728    46522    44239    41595    39041    37380    36814 
   36372    34571    31271    28220    27111    27719    28306    27752 
   26700    26158    25980    25411    24097    21973    19018    15457 
   11610     7621     3881     1202     -241    -1129    -1539    -1281 
   -1683    -4414    -9169   -14428   -19243   -23172   -25554   -25904 
  -24835   -23603   -22496   -20238   -15314    -7974     -283     5848 
    9321     9396     6470     2151    -2143    -5618    -8109   -10395 
  -13422   -17160   -20838   -24109   -27437   -31163   -34406   -35533 
  -34273   -32058   -29190   -24206   -16954    -9406    -3181     1568 
    5287     8468    11528    14659    17802    20574    22506    23788 
   25200    27134    29289    31187    32426    32551    31002    27635 
   23327    19196    15538    12541    10690     9390     7121     3751 
     978      -61     -398    -1623    -3419    -4392    -4991    -7197 
  -11577   -17108   -23570   -32017   -42930   -55218   -67091   -76840 
  -83183   -86260   -87414   -87264   -85132   -80101   -72002   -61991 
  -51957   -42864   -33799   -22880    -9767     3244    14100    23860 
   34500    45606    55355    62880    68486    72750    75837    77341 
   76701    73904    69466    63854    57533    51204    45952    42989 
   42051    41022    38380    34766    31663    29504    27546    25341 
   23262    21425    19680    18668    19538    22866    28333    34667 
   40297    45085    50180    55614    60268    63791    66291    67425 
   67134    66150    65383    65317    66295    68748    72400    76415 
   80868    86243    91566    95299    97223    97574    96111    93159 
   89808    87160    85749    84854    83121    80104    76243    72017 
   67637    62925    57519    51513    45629    40478    35873    31267 
   26448    21753    17920    15124    12611    10062     8184     7556 
    7854     8453     9558    12173    16620    21928    27016    31588 
   35784    39612    42873    45695    48646    51702    54165    55979 
   57748    59671    61583    63370    64798    65657    65816    64763 
   61937    57537    52291    46581    40484    34453    28907    23538 
   17866    11924     6380     2371      330     -931    -2752    -4862 
   -5814    -4714    -2426     -720     -259     -336     -157      256 
     207     -255       24     1312     2767     4591     7657    11907 
   17068    23017    28889    33786    37811    41401    44398    46041 
   45712    43667    40900    38372    36074    33195    29761    26642 
   23881    21027    18325    16265    15143    15102    15941    17702 
   20887    25190    29297    32323    34602    37129    40241    42953 
   43892    42085    36796    28262    18505     9888     3068    -3090 
   -9642   -15933   -20686   -24015   -26795   -28979   -29725   -28404 
  -25139   -20802   -16207   -11499    -6856    -2629     1501     5892 
   10102    13951    17827    21615    24643    26226    26030    24386 
   21774    18089    12807     5938     -975    -5400    -5799    -2844 
    1127     4152     6373     8878    11853    14970    17868    19839 
   20436    19942    19059    18573    18775    19141    18463    15428 
   10206     4752      441    -3058    -6069    -8408   -10790   -14394 
  -19153   -24136   -28902   -33549   -38100   -42346   -46217   -49691 
  -52139   -53053   -53085   -52809   -51844   -50246   -48725   -47473 
  -46576   -46901   -49042   -51760   -53125   -53164   -53362   -53960 
  -53771   -51920   -48554   -44264   -39105   -32732   -25695   -19326 
  -13740    -7390      542     8980    17028    25390    34842    44640 
   53483    61388    69419    77944    85975    92033    95752    98251 
  100519   102613   104190   104414   101937    96269    89103    82872 
   77837    72457    65929    58596    51085    43767    36393    28940 
   22502    18081    15161    12555    10023     8422     9187    13695 
   21852    31906    42086    51250    58969    66018    73314    80286 
   85100    86099    83131    77599    71154    65311    61807    61272 
   62450    64161    66203    68133    69412    70198    70646    70410 
   69170    67050    64708    63078    62707    63429    64765    66278 
   67572    68399    68791    68906    68556    67154    64719    62284 
   60625    59655    59132    59027    59438    60312    61525    63477 
   66591    70142    72811    73881    73431    72492    72662    74394 
   76437    77378    76667    74384    70787    65875    59654    52941 
   46894    41903    37730    34054    30663    27621    24928    22214 
   19220    16087    13325    11674    11243    11149    10665     9853 
    8925     7999     7127     5824     3462      522    -1937    -3773 
   -5281    -6444    -7475    -8867   -11080   -14454   -18264   -20503 
  -20665   -21494   -24804   -28010   -28983   -30359   -35049   -41791 
  -47815   -52190   -54658   -55103   -55283   -56718   -57847   -56447 
  -52229   -46002   -38767   -31437   -24416   -18052   -12807    -8383 
   -3681     2320     9509    16455    21849    25414    27343    27907 
   27638    27053    25759    22718    17807    12174     7335     4345 
    3138     2939     3612     5597     8776    12584    16806    21352 
   25706    29192    31499    32683    32928    32598    32167    31796 
   31323    30877    30865    31163    31131    30638    30338    30808 
   31588    31406    29821    27706    25729    23924    22765    23076 
   24898    27424    30092    33060    36852    41826    47309    51849 
   54809    56192    55786    53830    50506    45007    37273    29219 
   22815    18317    14908    12078     9902     8396     7204     6123 
    5424     5183     4843     4131     3677     4049     5186     7106 
   10315    15141    20925    26511    31283    34951    37029    37311 
   36454    35420    34146    31733    28420    25797    24387    22768 
   19685    15552    11555     8410     6092     4179     2494     1405 
    1263     1831     2689     3689     4681     5556     6643     8021 
    8876     8869     9312    11797    16393    21695    26262    29634 
   31749    32424    31959    30866    28975    26160    23337    21617 
   21110    21388    22715    26179    32370    40183    47712    54503 
   61600    69272    76553    82593    86951    89711    91327    91477 
   89628    86395    82710    78867    74543    68768    61119    52921 
   45675    39118    32093    24610    18138    13868    11530    10502 
   10993    13022    15495    17446    18902    20455    22961    26293 
   28695    29278    29259    29510    29464    28511    26570    23642 
   19869    15788    12163     9730     9028     9792    10586    10209 
    9349     9368    10090    10630    11376    13189    15645    17793 
   19947    23407    28378    32994    35588    36986    38498    39522 
   39015    36681    32125    25459    18124    11360     5140     -632 
