Origin Time       2011/03/11 14:46:00
Lat.              38.103
Long.             142.860
Depth. (km)       24
Mag.              9.0
Station Code      AOM017
Station Lat.      40.6388
Station Long.     139.9295
Station Height(m) 24
Record Time       2011/03/11 14:47:37
Sampling Freq(Hz) 100Hz
Duration Time(s)  271
Dir.              E-W
Scale Factor      3920(gal)/6182761
Max. Acc. (gal)   7.681
Last Correction   2011/03/11 14:47:22
Memo.             
[...]
   -4658    -4912    -5385    -5945    -6242    -6264    -6127    -5815 
   -5435    -5084    -4705    -4436    -4433    -4565    -4677    -4605 
   -4311    -4105    -4032    -3894    -3852    -3969    -4013    -3877 
   -3519    -3003    -2416    -1792    -1392    -1273    -1086     -614 
     139      892     1304     1486     1604     1539     1309     1012 
     589      -46     -926    -1968    -3057    -4147    -5041    -5567 
   -5857    -5979    -5992    -6220    -6687    -7163    -7724    -8318 
   -8654    -8755    -8792    -8791    -8965    -9495    -9951   -10008 
   -9914    -9778    -9567    -9358    -9194    -9162    -9280    -9536 
   -9936   -10203   -10130    -9854    -9522    -9329    -9378    -9633 
  -10214   -10996   -11649   -12244   -12823   -13138   -13242   -13308 
  -13322   -13345   -13403   -13384   -13249   -12970   -12626   -12493 
  -12660   -12947   -13150   -13160   -12965   -12595   -12216   -12055 
  -12107   -12136   -12021   -11800   -11499   -11164   -10728   -10082 
   -9316    -8564    -7878    -7181    -6423    -5742    -5252    -5061 
   -5236    -5681    -6163    -6395    -6383    -6401    -6533    -6598 
   -6300    -5528    -4593    -3890    -3504    -3231    -2879    -2450 
   -2036    -1765    -1800    -2182    -2699    -3150    -3656    -4297 
   -4904    -5406    -5850    -6186    -6421    -6744    -7178    -7536 
   -7768    -7882    -7756    -7277    -6425    -5417    -4554    -3827 
   -3117    -2444    -1909    -1701    -1741    -1759    -1961    -2568 
   -3421    -4585    -6083    -7624    -9137   -10528   -11561   -12345 
  -13051   -13727   -14491   -15307   -15977   -16260   -16036   -15503 
  -14814   -14056   -13557   -13377   -13277   -13163   -12896   -12514 
  -12411   -12764   -13399   -14087   -14770   -15510   -16158   -16657 
  -17148   -17525   -17616   -17296   -16536   -15613   -14727   -13856 
  -12981   -12179   -11683   -11583   -11806   -12274   -12791   -13269 
  -13764   -14216   -14530   -14681   -14708   -14624   -14337   -13827 
  -13283   -12867   -12665   -12688   -12739   -12589   -12072   -11159 
  -10263    -9742    -9352    -8850    -8253    -7581    -6957    -6434 
   -5808    -5053    -4434    -4151    -4207    -4365    -4368    -4229 
   -3981    -3631    -3235    -2731    -2166    -1702    -1293     -880 
    -500      -99      355      814     1232     1479     1431     1184 
     825      398        3     -268     -240       75      359      457 
     403       75     -655    -1593    -2435    -3017    -3232    -3158 
   -3085    -3104    -3110    -3064    -2947    -2868    -2993    -3172 
   -3290    -3596    -4182    -4921    -5665    -6221    -6644    -7118 
   -7726    -8539    -9359    -9899   -10147   -10137    -9991    -9896 
   -9834    -9707    -9587    -9662    -9990   -10528   -11170   -11698 
  -12053   -12363   -12678   -12992   -13244   -13327   -13274   -13285 
  -13522   -13828   -13906   -13669   -13095   -12193   -11082    -9917 
   -8903    -8080    -7317    -6707    -6411    -6312    -6216    -6174 
   -6339    -6597    -6783    -6979    -7250    -7531    -7699    -7738 
   -7932    -8502    -9119    -9268    -8886    -8230    -7518    -6889 
   -6381    -5940    -5483    -5015    -4723    -4804    -5301    -5928 
   -6287    -6383    -6349    -6218    -6202    -6393    -6669    -7064 
   -7624    -8240    -8772    -9167    -9446    -9616    -9793   -10098 
  -10501   -10995   -11391   -11396   -11047   -10497    -9870    -9274 
   -8666    -8037    -7519    -7205    -7081    -7059    -6977    -6722 
   -6360    -6110    -6182    -6560    -7090    -7688    -8245    -8583 
   -8603    -8331    -7897    -7459    -7042    -6630    -6230    -5712 
   -5000    -4341    -4032    -4118    -4402    -4738    -5296    -6081 
   -6852    -7524    -7956    -8168    -8448    -8808    -9037    -8993 
   -8640    -8105    -7559    -7119    -6848    -6704    -6619    -6610 
   -6696    -6786    -6795    -6701    -6524    -6351    -6249    -6204 
   -6208    -6239    -6237    -6216    -6261    -6350    -6470    -6652 
   -6756    -6705    -6616    -6671    -6973    -7375    -7790    -8164 
   -8172    -7836    -7568    -7406    -7300    -7411    -7750    -8228 
   -8606    -8637    -8529    -8505    -8487    -8464    -8362    -8191 
   -8222    -8459    -8746    -9058    -9176    -8956    -8600    -8217 
   -7753    -7279    -7012    -7117    -7563    -8194    -8723    -8930 
   -9006    -9106    -8976    -8505    -8001    -7831    -8025    -8235 
   -8217    -8128    -8184    -8351    -8469    -8414    -8147    -7687 
   -7168    -6744    -6260    -5684    -5337    -5224    -5297    -5719 
   -6369    -7029    -7564    -7974    -8385    -8614    -8630    -8790 
   -8958    -8848    -8694    -8641    -8432    -7920    -7453    -7348 
   -7244    -6690    -5829    -4914    -4114    -3766    -3853    -3981 
   -4035    -4197    -4701    -5476    -6221    -6837    -7138    -7040 
   -6964    -7011    -6832    -6351    -5749    -5184    -4689    -4252 
   -3949    -3903    -4076    -4158    -4036    -3920    -3692    -3198 
   -2721    -2458    -2545    -3244    -4427    -5520    -6085    -6252 
   -6528    -7129    -7789    -8246    -8306    -7875    -7314    -6908 
   -6419    -5811    -5251    -4790    -4696    -4987    -5284    -5503 
   -5765    -6099    -6482    -6821    -7057    -7218    -7230    -7098 
   -7293    -7918    -8328    -8375    -8358    -8161    -7680    -7184 
   -6949    -6938    -6953    -6952    -6995    -6999    -6794    -6545 
   -6600    -6891    -7219    -7673    -8243    -8802    -9365    -9852 
  -10249   -10763   -11349   -11794   -12072   -12241   -12453   -12743 
  -13017   -13411   -14036   -14649   -14934   -14930   -14906   -14999 
  -15489   -16510   -17463   -17871   -17925   -17850   -17622   -17104 
  -16339   -15523   -14630   -13779   -13237   -12785   -12274   -11987 
  -11867   -11747   -11881   -12279   -12526   -12578   -12694   -12874 
  -13056   -13299   -13643   -14050   -14302   -14178   -13735   -13148 
  -12528   -11921   -11209   -10357    -9628    -9273    -9280    -9343 
   -9243    -9123    -8998    -8707    -8290    -7877    -7570    -7406 
   -7280    -7175    -7071    -6844    -6661    -6731    -6781    -6487 
   -5882    -5115    -4221    -3244    -2309    -1508     -914     -606 
    -738    -1487    -2745    -4156    -5353    -6130    -6562    -6859 
   -7192    -7667    -8222    -8578    -8506    -8181    -7888    -7654 
   -7544    -7648    -7830    -7902    -7816    -7703    -7635    -7533 
   -7474    -7536    -7650    -7928    -8415    -9032    -9726   -10136 
  -10077    -9876    -9823   -10076   -10550   -10837   -10663    -9981 
   -8814    -7409    -6197    -5254    -4353    -3553    -2999    -2713 
   -2847    -3396    -4072    -4625    -4816    -4558    -4281    -4400 
   -4668    -4687    -4419    -3965    -3524    -3250    -3066    -2895 
   -2691    -2380    -2096    -2165    -2649    -3215    -3519    -3423 
   -3153    -3135    -3531    -4245    -5035    -5603    -5904    -6091 
   -6168    -6066    -5924    -5993    -6374    -6922    -7436    -7803 
   -7923    -7891    -7951    -8051    -7927    -7558    -7324    -7448 
   -7597    -7585    -7691    -8126    -8769    -9439   -10158   -10945 
  -11662   -12104   -12144   -11923   -11713   -11562   -11333   -10908 
  -10265    -9497    -8800    -8328    -8023    -7783    -7674    -7814 
   -8141    -8446    -8643    -8720    -8678    -8668    -8932    -9620 
  -10487   -11161   -11705   -12196   -12507   -12662   -12654   -12514 
  -12428   -12350   -12204   -12122   -12158   -12262   -12246   -11978 
  -11671   -11436   -11143   -10879   -10883   -11203   -11657   -12090 
  -12550   -13050   -13400   -13537   -13674   -13852   -13736   -13202 
  -12606   -12195   -11856   -11497   -11248   -11226   -11192   -10801 
  -10147    -9559    -9098    -8675    -8312    -8117    -8163    -8369 
   -8647    -8844    -8590    -7941    -7391    -7044    -6866    -6932 
   -7032    -6995    -6849    -6442    -5680    -4850    -4231    -3782 
   -3338    -2844    -2490    -2602    -3135    -3725    -4237    -4673 
   -4971    -5196    -5330    -5156    -4615    -3932    -3357    -2903 
   -2517    -2321    -2433    -2783    -3285    -3835    -4220    -4412 
   -4617    -4938    -5373    -5886    -6333    -6564    -6691    -6753 
   -6402    -5558    -4682    -4149    -3990    -3927    -3660    -3335 
   -3217    -3256    -3264    -3011    -2520    -2100    -1783    -1550 
   -1518    -1592    -1748    -2043    -2339    -2660    -3222    -4040 
   -4793    -5199    -5445    -5736    -6004    -6312    -6645    -6680 
   -6108    -5093    -4405    -4572    -5374    -6501    -7832    -9316 
  -10861   -12137   -12786   -12674   -11970   -11137   -10489   -10068 
   -9852    -9729    -9768   -10080   -10372   -10528   -10723   -10794 
  -10648   -10526   -10532   -10755   -11251   -11717   -11886   -11861 
  -11961   -12337   -12673   -12680   -12461   -12200   -12078   -12080 
  -11848   -11294   -10791   -10544   -10573   -10953   -11493   -11911 
  -12227   -12481   -12623   -12612   -12430   -12119   -11668   -11201 
  -11069   -11305   -11506   -11399   -11018   -10485   -10016    -9818 
   -9732    -9392    -8834    -8422    -8295    -8414    -8641    -8675 
   -8500    -8253    -7702    -6808    -5853    -4956    -4299    -4025 
   -3996    -4184    -4647    -5273    -5935    -6562    -7224    -7997 
   -8663    -8994    -8978    -8617    -8076    -7689    -7482    -7373 
   -7589    -8108    -8545    -8762    -8751    -8537    -8384    -8456 
   -8633    -8844    -9137    -9509    -9942   -10385   -10554   -10248 
   -9721    -9264    -8867    -8416    -7847    -7200    -6695    -6554 
   -6735    -7045    -7407    -7919    -8623    -9296    -9744   -10072 
  -10352   -10356    -9976    -9407    -8760    -8130    -7746    -7596 
   -7430    -7197    -7109    -7334    -7725    -7937    -7734    -7103 
   -6283    -5558    -4998    -4628    -4526    -4562    -4578    -4675 
   -4910    -5188    -5455    -5575    -5405    -5006    -4545    -4183 
   -3959    -3768    -3579    -3431    -3381    -3467    -3627    -3880 
   -4315    -4811    -5186    -5268    -4934    -4465    -4254    -4398 
   -4932    -5765    -6546    -7054    -7340    -7437    -7267    -6811 
   -6103    -5226    -4483    -4118    -4061    -4292    -4880    -5647 
   -6378    -7129    -7967    -8742    -9361    -9869   -10257   -10602 
  -11168   -11981   -12695   -13114   -13352   -13467   -13380   -13135 
  -12900   -12666   -12276   -11760   -11317   -11077   -11090   -11383 
  -11900   -12429   -12765   -12891   -12822   -12498   -11932   -11220 
  -10576   -10329   -10598   -11117   -11467   -11411   -10998   -10342 
   -9449    -8429    -7525    -6807    -6245    -5850    -5505    -5104 
   -4742    -4588    -4701    -4978    -5285    -5476    -5429    -5272 
   -5220    -5290    -5466    -5738    -5917    -5826    -5496    -5073 
   -4740    -4686    -5007    -5537    -6054    -6490    -6800    -7023 
   -7270    -7587    -8047    -8650    -9221    -9594    -9669    -9384 
   -8862    -8282    -7554    -6506    -5188    -3838    -2837    -2477 
   -2592    -2792    -2977    -3244    -3585    -3851    -3903    -3836 
   -3853    -4074    -4556    -5123    -5543    -5959    -6535    -7129 
   -7563    -7881    -8300    -8860    -9329    -9442    -9152    -8863 
   -8961    -9276    -9550    -9774    -9986   -10163   -10250   -10166 
   -9759    -9023    -8241    -7653    -7290    -7078    -7007    -7137 
   -7471    -7998    -8625    -9103    -9242    -9063    -8731    -8320 
   -7844    -7420    -7155    -7072    -7215    -7697    -8479    -9281 
   -9923   -10322   -10289    -9774    -8980    -8225    -7802    -7820 
   -8198    -8759    -9266    -9522    -9468    -9149    -8687    -8363 
   -8431    -8829    -9388   -10016   -10576   -10984   -11391   -11980 
  -12518   -12571   -12129   -11373   -10338    -9116    -7911    -6965 
   -6424    -6129    -5839    -5571    -5485    -5685    -6137    -6630 
   -7014    -7377    -7764    -8091    -8340    -8463    -8315    -7851 
   -7236    -6716    -6340    -6064    -5987    -6134    -6405    -6763 
   -7198    -7692    -8270    -8825    -9111    -9124    -9141    -9327 
   -9678   -10141   -10613   -11003   -11272   -11500   -11822   -12276 
  -12844   -13343   -13545   -13597   -13708   -13737   -13453   -12755 
  -11715   -10470    -9009    -7391    -5956    -5011    -4659    -4831 
   -5373    -6142    -6947    -7565    -7875    -7896    -7796    -7796 
   -7996    -8405    -8988    -9554    -9881    -9897    -9604    -9101 
   -8590    -8227    -8063    -8052    -8113    -8209    -8260    -8119 
   -7713    -7181    -6770    -6578    -6551    -6651    -6762    -6680 
   -6392    -6121    -6090    -6451    -7166    -8013    -8824    -9481 
   -9842    -9884    -9680    -9243    -8612    -7911    -7248    -6687 
   -6281    -6039    -5961    -5975    -5831    -5336    -4660    -4140 
   -3964    -4118    -4458    -4849    -5216    -5463    -5609    -5854 
   -6263    -6684    -6997    -7199    -7328    -7441    -7550    -7680 
   -8013    -8746    -9765   -10786   -11678   -12382   -12819   -13008 
  -13092   -13260   -13618   -14129   -14657   -15082   -15356   -15401 
  -15095   -14431   -13658   -13220   -13373   -13977   -14712   -15335 
  -15816   -16236   -16587   -16894   -17246   -17630   -17933   -18034 
  -17896   -17703   -17717   -18060   -18615   -19078   -19296   -19428 
  -19602   -19798   -20014   -20160   -20151   -20096   -20010   -19791 
  -19491   -19179   -18806   -18337   -17858   -17538   -17409   -17258 
  -16834   -16106   -15232   -14410   -13808   -13481   -13351   -13220 
  -12885   -12284   -11400   -10338    -9434    -8851    -8503    -8435 
   -8646    -8902    -9039    -9018    -8811    -8480    -8069    -7573 
   -7123    -6831    -6643    -6453    -6122    -5617    -5123    -4811 
   -4698    -4724    -4864    -5089    -5281    -5379    -5501    -5738 
   -6086    -6475    -6746    -6815    -6717    -6488    -6218    -5974 
   -5712    -5445    -5341    -5567    -6072    -6545    -6720    -6648 
   -6488    -6245    -5809    -5168    -4563    -4227    -4108    -4133 
   -4315    -4519    -4590    -4497    -4189    -3694    -3222    -2898 
   -2768    -2944    -3445    -4215    -5196    -6190    -6952    -7429 
   -7796    -8221    -8693    -9127    -9424    -9474    -9237    -8741 
   -8054    -7341    -6781    -6389    -6038    -5577    -4961    -4299 
   -3731    -3377    -3311    -3429    -3526    -3517    -3478    -3505 
   -3581    -3595    -3513    -3408    -3266    -3026    -2766    -2563 
   -2470    -2554    -2756    -2969    -3186    -3442    -3706    -3853 
   -3790    -3569    -3323    -3146    -3010    -2897    -2894    -2971 
   -3002    -3011    -3054    -3180    -3491    -3963    -4486    -4958 
   -5189    -5064    -4719    -4413    -4343    -4543    -4908    -5327 
   -5767    -6185    -6489    -6680    -6847    -6987    -7032    -7004 
   -6944    -6796    -6552    -6357    -6378    -6722    -7338    -8040 
   -8720    -9294    -9667    -9843    -9885    -9892    -9960   -10058 
  -10125   -10166   -10196   -10282   -10549   -10984   -11376   -11543 
  -11450   -11146   -10745   -10327    -9857    -9406    -9193    -9331 
   -9780   -10414   -10996   -11280   -11098   -10418    -9513    -8771 
   -8285    -7926    -7640    -7436    -7347    -7458    -7742    -8041 
   -8262    -8380    -8354    -8172    -7880    -7559    -7324    -7229 
   -7220    -7250    -7344    -7516    -7813    -8307    -8859    -9162 
   -9141    -8886    -8434    -7864    -7232    -6552    -5864    -5193 
   -4631    -4251    -3942    -3580    -3064    -2301    -1373     -450 
     361      997     1447     1661     1521     1018      291     -455 
   -1044    -1437    -1666    -1708    -1511    -1104     -593     -122 
      85      -94     -523    -1095    -1796    -2480    -3036    -3482 
   -3839    -4164    -4477    -4713    -4890    -5076    -5236    -5290 
   -5197    -4960    -4669    -4447    -4359    -4433    -4641    -4914 
   -5216    -5496    -5670    -5699    -5620    -5584    -5758    -6110 
   -6496    -6895    -7318    -7660    -7805    -7770    -7686    -7656 
   -7693    -7761    -7810    -7807    -7757    -7701    -7646    -7570 
   -7544    -7674    -7922    -8108    -8078    -7937    -8005    -8388 
   -8880    -9225    -9341    -9397    -9561    -9833   -10206   -10603 
  -10890   -11069   -11175   -11228   -11254   -11169   -10927   -10687 
  -10555   -10433   -10196    -9881    -9608    -9359    -9108    -9001 
   -9091    -9200    -9176    -8964    -8581    -8138    -7739    -7476 
   -7453    -7718    -8282    -9102   -10051   -10912   -11362   -11278 
  -10908   -10528   -10223    -9961    -9673    -9334    -8953    -8503 
   -8063    -7847    -7914    -8140    -8490    -8986    -9573   -10162 
  -10665   -11060   -11384   -11531   -11343   -10857   -10236    -9544 
   -8732    -7825    -7000    -6415    -6144    -6231    -6628    -7161 
   -7580    -7735    -7687    -7465    -6985    -6312    -5638    -5080 
   -4691    -4459    -4249    -3911    -3447    -2993    -2696    -2619 
   -2698    -2794    -2800    -2744    -2748    -2856    -2980    -3117 
   -3397    -3894    -4619    -5524    -6416    -7074    -7437    -7596 
   -7693    -7843    -8034    -8101    -7902    -7448    -6863    -6313 
   -5890    -5507    -4997    -4310    -3561    -2924    -2552    -2537 
   -2863    -3374    -3879    -4337    -4824    -5344    -5785    -6065 
   -6257    -6515    -6874    -7257    -7615    -7838    -7773    -7456 
   -7027    -6564    -6143    -5823    -5641    -5613    -5719    -5919 
   -6036    -5864    -5484    -5142    -4994    -5078    -5252    -5260 
   -4969    -4452    -3909    -3493    -3185    -2891    -2587    -2279 
   -1988    -1820    -1898    -2240    -2747    -3194    -3379    -3370 
   -3382    -3507    -3789    -4288    -4989    -5873    -6880    -7813 
   -8505    -8908    -9029    -8949    -8801    -8675    -8650    -8809 
   -9144    -9555    -9942   -10235   -10472   -10773   -11219   -11777 
  -12362   -12945   -13479   -13861   -14037   -13998   -13749   -13383 
  -13007   -12629   -12227   -11866   -11619   -11480   -11427   -11477 
  -11595   -11652   -11486   -11057   -10555   -10234   -10139   -10100 
   -9953    -9638    -9170    -8690    -8418    -8420    -8579    -8729 
   -8722    -8477    -8024    -7514    -7146    -7003    -7030    -7197 
   -7550    -8036    -8417    -8391    -7873    -7062    -6247    -5622 
   -5264    -5224    -5507    -6013    -6622    -7177    -7483    -7433 
   -7089    -6683    -6491    -6571    -6748    -6884    -6983    -7040 
   -6990    -6885    -6901    -7044    -7099    -6912    -6566    -6345 
   -6498    -7004    -7635    -8169    -8495    -8647    -8757    -8930 
   -9206    -9595   -10052   -10466   -10712   -10676   -10348    -9905 
   -9599    -9582    -9826   -10100   -10152    -9864    -9218    -8342 
   -7468    -6771    -6331    -6180    -6318    -6687    -7159    -7694 
   -8311    -8994    -9741   -10503   -11190   -11791   -12262   -12546 
  -12733   -12891   -12941   -12837   -12613   -12262   -11791   -11246 
  -10619    -9926    -9311    -8944    -8915    -9184    -9601   -10077 
  -10562   -10979   -11337   -11654   -11856   -11932   -12023   -12283 
