Origin Time       2011/03/11 14:46:00
Lat.              38.103
Long.             142.860
Depth. (km)       24
Mag.              9.0
Station Code      AOM005
Station Lat.      41.2949
Station Long.     141.1972
Station Height(m) 10
Record Time       2011/03/11 14:47:53
Sampling Freq(Hz) 100Hz
Duration Time(s)  261
Dir.              N-S
Scale Factor      3920(gal)/6182761
Max. Acc. (gal)   61.962
Last Correction   2011/03/11 14:47:38
Memo.             
[...]
   11080     9912     9716     8790     7295     6571     6653     6528 
    5850     5478     6420     8430    10461    11951    13107    14528 
   16380    17920    18337    17861    17417    17412    18013    19729 
   22054    23577    24735    27424    31694    35741    38393    39819 
   40616    40655    38961    34769    28400    21123    13986     7476 
    2166    -2035    -5765    -8466    -9298    -8471    -6259    -3326 
   -1012      346     1219     1773     2397     3660     5612     7656 
    8467     7064     3999      311    -3347    -6968   -11167   -15523 
  -18536   -19382   -18410   -16930   -15687   -13699   -10065    -5295 
    -439     3138     3798     1107    -3598    -8522   -12481   -14813 
  -14908   -12553    -8762    -5016    -1668     1169     2596     2900 
    3749     5755     8710    12420    15679    17692    19713    22452 
   24680    25471    25402    25622    26355    26249    23668    18733 
   13532    10081     8801     9315    11247    13868    16548    19039 
   20787    21360    21319    21645    22439    22496    20019    13855 
    5148    -2440    -6001    -5650    -2469     2705     8658    14437 
   19157    21393    20580    17807    14599    11896     9786     8103 
    7605     8703     9711     9532     9753    11783    14845    17447 
   18806    19014    18795    18991    20095    22280    25717    30403 
   35146    37869    38194    37866    37871    37711    37332    37200 
   37050    36034    32855    25602    13800      -56   -12899   -22771 
  -28212   -29441   -28665   -26958   -23607   -18699   -13518    -9794 
   -9537   -13246   -18551   -22542   -24614   -25306   -23669   -18375 
  -10689    -3844      137     1592     2018     2384     2656     2559 
    2556     4037     7145     9756    10649    11109    12394    14207 
   16015    17530    17757    15516    10709     4157    -3242    -9989 
  -13262   -11206    -5107     2293     8671    11914    11122     7902 
    4145      146    -3303    -4256    -2182     1752     6342    10283 
   12140    11711    10229     9323    10057    11979    14467    18919 
   25848    32441    36531    38304    37709    34895    31111    26957 
   22623    19471    18537    19048    19775    20143    19935    18991 
   16907    13199     8659     5273     4082     4221     3993     2537 
     213    -2384    -4726    -6162    -6329    -5845    -6025    -7311 
   -8455    -7689    -4531     -476     2665     5252     9020    14076 
   18862    22095    23450    23477    23136    23103    23021    21866 
   19505    16191    11484     5823     1247    -1173    -2391    -3503 
   -5615   -10129   -16491   -21824   -23690   -21671   -17275   -12646 
   -8708    -5416    -3006    -2342    -4147    -7446   -10839   -14565 
  -18364   -19705   -16009    -7336     3412    12954    19658    23666 
   26260    28611    30990    32194    30531    26658    22337    17878 
   13885    11702    11321    11296    10756     9958     8397     5316 
    1352    -2442    -5112    -5699    -3375     2365    10187    17101 
   20781    20983    19929    20314    22208    23350    21619    16569 
    9670     3134    -2232    -7057   -11025   -13166   -14154   -15464 
  -17322   -19131   -20496   -21169   -20961   -19420   -15873   -10648 
   -5072      -25     3844     5520     5274     4677     4214     3952 
    4608     5721     6544     8316    11695    15002    17571    20701 
   24985    29800    34182    37523    40415    43781    47523    51114 
   53891    54801    53287    49174    42126    32991    23672    15098 
    7445     1592    -1317    -1321      230     1562     1048    -2071 
   -7450   -14770   -23755   -32309   -37001   -36708   -33679   -30321 
  -26766   -21747   -14495    -5736     2865    10065    14792    16194 
   15819    16253    17387    17763    16681    13565     8653     3015 
   -2884    -8826   -13658   -15490   -13229    -7483     -139     6395 
   10418    12055    12802    13885    15464    17189    18589    19352 
   19459    18601    16550    13483     8974     2204    -6768   -16236 
  -22909   -24246   -21067   -16240   -11513    -7767    -6374    -7365 
   -8892    -9742    -9465    -7694    -5189    -2761      -34     2851 
    4870     5619     5700     6346     8473    11454    13450    13317 
   11603     9284     6493     2868    -2253    -9286   -16662   -21357 
  -21761   -18656   -14013    -9619    -6029    -2586     1085     3948 
    5171     6088     8294    11076    12537    11470     7447     1081 
   -5295    -8495    -7064    -2506     2921     7697    10271    10465 
   10525    11749    12838    12992    12943    12905    12404    11540 
   11048    11826    15147    21798    30240    37780    43236    46682 
   47976    46400    41051    32493    23989    18826    16779    15511 
   13832    12008    10724    10244    10478    12337    17067    23415 
   27869    27902    23494    16617     9864     4889     2416     2733 
    5362     9572    14144    16681    16149    14153    11718     8315 
    4110      299    -2150    -3256    -3653    -3650    -3413    -2691 
    -221     4780    11842    19905    26931    30838    31855    31994 
   32361    32394    31651    31075    31662    32862    33170    31006 
   24554    13023    -1333   -14595   -24083   -28808   -29009   -25945 
  -20925   -15078    -9940    -6596    -4619    -3155    -2185    -1951 
   -2324    -3346    -5080    -6625    -7137    -7388    -8084    -7929 
   -5579    -1979      479       90    -2742    -6061    -8411    -9162 
   -7528    -3259     2921    10609    20071    31411    43803    55429 
   64357    68942    68293    63750    58515    54722    51923    49018 
   45749    41712    36590    31220    26514    21988    15636     5204 
   -9019   -22648   -31189   -35291   -38990   -44437   -50688   -55445 
  -56642   -53251   -45100   -33107   -20288   -10822    -6938    -7395 
   -9467   -11774   -15109   -20631   -27318   -32276   -33581   -31432 
  -27315   -23145   -19728   -16375   -13642   -13353   -14320   -12814 
   -7720    -1238     3712     5271     4482     4672     8147    14496 
   20713    23026    20289    14743     9228     4974     1707    -1057 
   -2831    -2660     -901      577      355    -1007    -1842    -1249 
     747     3976     7741    10864    12818    13334    12395    11857 
   14007    17918    20083    18618    14516    10039     7408     7606 
   10571    15864    21810    26320    29208    31575    33750    35405 
   36061    34689    30969    26782    24577    24296    23092    18944 
   12904     7052     2581     -499    -3003    -5082    -6107    -6632 
   -8184   -11217   -15484   -20319   -23274   -21681   -15725    -8510 
   -3507    -2513    -5963   -12770   -19693   -23393   -22565   -17510 
   -9575    -1536     3635     5342     4990     3828     2782     2391 
    2380     2320     2540     4459     8739    13754    17794    20503 
   22051    23571    27110    33949    43516    53418    61148    65509 
   65803    62252    57090    52978    51338    51454    50407    46143 
   39451    32401    26977    23532    20201    15932    12122    10642 
   12456    15933    16294    10759     2103    -5652   -11053   -13754 
  -13759   -12102    -9283    -4862      114     3136     3409     3092 
    4456     7264    10025    12499    15595    19133    21705    22735 
   22691    22012    20804    19012    16643    13369     8802     3787 
    -606    -4839    -9746   -15341   -20457   -22288   -18923   -12139 
   -5732    -2042     -355      523       23    -1669    -3785    -6622 
   -9337   -10773   -11128   -10276    -8441    -7116    -7054    -7480 
   -6340     -744     9588    20991    29998    35328    37781    40027 
   42925    43828    40408    33470    25680    19448    16010    15315 
   16798    19871    24205    29884    35882    40394    43377    45854 
   47829    48634    48119    46444    42831    35585    24161    11284 
    1859    -1323      481     4270     7390     7873     4584    -1939 
   -9193   -15085   -19939   -24851   -30158   -35714   -40128   -40987 
  -38096   -33760   -29047   -23719   -18952   -16207   -14988   -14094 
  -13332   -13202   -14378   -17377   -21317   -23839   -23698   -21365 
  -16753    -9662    -1794     4619     8826    11299    13381    16539 
   20783    24820    27329    27389    25444    23483    22916    23200 
   22515    19306    13375     6127      154    -2787    -3744    -5542 
   -9920   -16447   -24023   -31262   -35515   -34424   -28198   -19019 
   -9479    -1179     6896    16715    27422    36085    41180    43092 
   42824    41722    41177    41213    39689    34116    25166    16888 
   12328    10866    10494    10646    11891    14509    18232    22145 
   25088    26930    28461    29958    30868    30870    30298    29425 
   28156    26065    22646    18369    14455    11089     8194     7383 
    9854    14212    18367    21117    21833    20284    16734    12258 
    8945     8871    12236    16673    18992    17852    13899     7687 
    -103    -7646   -13412   -16516   -16157   -12966    -9681    -9084 
  -11647   -15988   -20027   -21190   -18116   -12195    -6058    -1431 
    1291     2468     3110     4955     8873    13119    15430    16125 
   16792    17171    15046     9039      590    -7552   -13093   -14549 
  -12444    -8782    -4900    -2369    -3488    -7900   -12173   -14013 
  -13645   -12214   -10928   -10387   -10549   -11401   -13185   -16146 
  -19955   -23753   -26893   -29371   -31752   -34271   -36510   -38301 
  -39474   -39624   -38820   -37099   -34133   -30036   -25746   -21981 
  -18826   -17659   -19416   -21319   -20697   -18692   -18127   -21364 
  -28734   -37289   -42792   -43337   -39907   -33862   -26282   -18495 
  -10577    -1435     8212    16113    22204    27862    32830    36852 
   41032    45939    50624    53146    52927    52025    51747    50845 
   48438    45160    41888    39556    38818    39552    41484    44402 
   48002    51838    54439    53693    49002    41378    31496    19728 
    7886    -1286    -6635    -9243   -10876   -12281   -12792   -11710 
   -9248    -5958    -2086     2157     5714     7363     7041     5243 
    2758     1104     1533     4551    10077    16844    23084    27032 
   26257    19920    10044    -1440   -13100   -23570   -32754   -40270 
  -45365   -48447   -49414   -47909   -45132   -42512   -40395   -38293 
  -35950   -34174   -33513   -33114   -32302   -31068   -28615   -24852 
  -20943   -15893    -7459     3809    15349    24986    30531    30124 
   24927    18892    14718    12540    12054    13216    15809    19628 
   24264    29197    34129    38671    43242    49038    55827    62334 
   67998    72209    73728    71676    66103    57971    49204    41806 
   35776    29273    21854    15022     9139     2639    -5619   -15016 
  -23949   -30546   -33058   -30789   -24173   -14411    -4060     3422 
    5719     2929    -2894    -9098   -13659   -15650   -14794   -10823 
   -4035     3284     7565     7173     3326    -1900    -6078    -6623 
   -2194     6701    17373    25779    29511    29390    27961    26888 
   25904    24466    22997    21449    18736    14269     8382     1801 
   -4383    -8692    -9715    -7403    -3062     2099     6089     5691 
    -196    -9069   -17091   -21105   -20107   -15149    -7551      705 
    6646     8824     7910     5079     1889     -209     -981     -901 
    -244      740     1380     1470     2202     4355     6469     6376 
    3571     -468    -3454    -4207    -3734    -3944    -5847    -8920 
  -12058   -14889   -16888   -16261   -11213    -1469    11241    24270 
   36324    47366    56983    64235    68304    68937    66810    63978 
   63078    65047    67875    67893    62711    52790    40207    26655 
   13083      750    -9196   -17321   -25301   -33452   -39915   -42962 
  -43177   -42333   -41439   -39992   -36735   -31718   -26337   -21399 
  -16835   -12482    -8600    -5934    -4792    -5354    -8600   -15100 
  -23693   -31493   -35874   -37040   -36692   -35512   -33816   -31699 
  -27693   -20355   -11151    -3705     -552     -839     -991     1447 
    5159     7656     8862    10235    12583    16206    20816    25179 
   28750    32350    36277    39998    43450    46679    48960    49876 
   50231    50109    48292    44517    39412    33572    27978    22859 
   17419    11998     8331     7377     7968     7952     6468     4784 
    4712     6483     9193    12525    16576    20980    24855    27305 
   27743    25461    20330    14040     8302     3020    -1757    -4846 
   -5824    -5156    -3499    -1875     -613      784     2541     5293 
    9710    14608    18495    21984    26493    32388    39339    46534 
   52630    56844    59019    58470    54575    48059    40596    34443 
   31814    32265    32832    31705    28835    24331    19336    16589 
   17719    21460    25457    28228    29489    30091    31053    32003 
   31799    30085    27075    23095    18700    14436    10331     5529 
    -813    -7730   -13945   -20479   -28064   -34573   -38025   -38759 
  -37597   -34682   -30095   -24034   -17407   -12353   -10455   -11829 
  -16701   -25406   -36887   -48656   -58240   -64594   -68125   -69723 
  -69999   -69185   -67936   -67187   -66888   -65901   -62379   -54758 
  -43393   -30344   -17861    -7080     2001     9094    13738    16464 
   18164    19066    18999    18006    16022    12511     7717     3772 
    3582     8920    19328    32440    45620    57483    68314    78593 
   87339    93605    98300   102236   104330   103579   100250    94223 
   85962    78285    72878    67702    60179    49903    37943    25044 
   11109    -3380   -17019   -28881   -38690   -46284   -51992   -56132 
  -58100   -57279   -54182   -49811   -44688   -39744   -36206   -33679 
  -31218   -28873   -26228   -22276   -17412   -13808   -12795   -13130 
  -13557   -14367   -15845   -17809   -19424   -19139   -16091   -11168 
   -6857    -5482    -7460   -11288   -14377   -14462   -11192    -6529 
   -2648      188     2694     5017     7251    10314    15143    20843 
   24982    26586    26407    24676    21240    16471    11184     6399 
    3120     1882     1898     2271     4378    10105    18443    26642 
   32946    36907    39061    40284    41027    41657    42816    45355 
   49497    53665    55266    52146    43311    30245    16598     4949 
   -5036   -14729   -23975   -30937   -34043   -33246   -29785   -25361 
  -21129   -17379   -13682    -9844    -6749    -4155       18     6715 
   15956    27726    39694    47893    50602    49883    48826    47792 
   45243    40949    35831    30414    24664    18011    10394     3576 
    -182     -212     2565     6684    10858    14238    15834    14071 
    8121     -471    -8273   -12594   -13640   -12954   -10722    -6848 
   -2796      141     2558     5443     8728    12224    17013    24419 
   33305    40393    43412    42666    40475    38924    37602    35160 
   31697    27717    23298    18898    15094    11921     9448     8495 
    9324    10928    13124    16681    20871    23770    24280    22058 
   17174    10892     5132     1029    -1404    -2864    -3550    -2662 
      56     3438     6040     7481     8212     8313     7288     4789 
     835    -4493   -10525   -15529   -18003   -17873   -16066   -13136 
   -8909    -3902      669     4547     8550    13181    17787    21737 
   25694    30407    34915    37089    35915    32243    27637    23064 
   18296    12925     7628     3570      923    -1358    -4242    -7817 
  -11542   -14557   -16502   -17992   -19315   -19543   -17786   -14702 
  -12425   -12744   -15391   -18733   -21480   -22711   -21954   -20403 
  -19397   -17834   -14619   -11479   -10310   -11256   -13323   -14661 
  -14290   -12729   -10690    -8699    -6775    -4633    -2715    -2630 
   -5943   -12071   -19057   -25973   -32613   -38420   -42789   -45430 
  -46610   -46917   -46157   -43120   -36929   -28278   -18841   -10281 
   -4239    -1390     -643     -661     -544      947     4480     8941 
   12688    15259    16902    18190    20238    23383    26561    28911 
   30801    33105    36452    40683    44405    46160    45886    44371 
   41838    37970    33226    29525    28615    29255    28480    25985 
   24252    25184    28364    31773    33384    32396    29268    24900 
   21161    20449    22938    26888    30649    32654    32003    28985 
   24236    18730    14005    11539    12368    16114    20449    23180 
   23627    22016    19239    16245    13370    10855     9378     9624 
   11593    14867    19023    23022    25711    27019    27274    26633 
   25770    25618    26463    28050    30244    32512    33197    30922 
   26241    20373    13860     7794     3367     -336    -4648    -8720 
  -11562   -13965   -16692   -19058   -19746   -18308   -15665   -12843 
   -9907    -6490    -2779       68      807     -548    -2861    -5482 
   -9086   -14246   -20181   -25569   -29498   -31925   -33772   -35745 
  -37208   -37087   -35780   -34902   -34969   -35385   -36183   -37066 
  -36162   -32116   -25766   -18758   -12190    -6832    -3344    -2166 
   -3222    -5064    -5478    -3772     -999     1584     2924     2546 
    1259      573     1434     3169     3927     2824      628    -1635 
   -3196    -3163    -1267     1693     5288     9772    14652    18729 
   20816    19857    15829    10073     4517     1447     2576     7577 
   14385    20435    24040    25350    25627    25444    23725    19526 
   14007     8644     3587     -792    -3760    -5759    -7615    -9065 
   -9275    -7548    -3859      302     3230     4619     4578     3013 
      84    -3922    -8860   -14226   -18524   -20520   -20406   -18864 
  -16602   -14215   -11704    -8720    -4934     -594     3581     7337 
   10707    13651    16057    17514    18073    18803    20483    22615 
   24120    24706    25132    25735    25783    24639    22240    19027 
   16540    16540    18826    21890    25016    28032    30733    33425 
   36434    39499    42783    46604    49999    52053    53536    55042 
   55284    52873    47781    41042    34251    28451    24148    21794 
   20937    20959    21831    22610    22031    20678    20029    20459 
   21336    21712    21163    20486    20454    20388    18982    15673 
   10930     6126     2546       52    -1717    -2196    -1718    -1771 
   -2466    -2178     -484      554     -880    -4570    -9631   -15221 
  -20246   -24176   -26964   -27954   -26854   -24135   -19789   -14072 
   -8211    -3235      387     2452     3186     2897     1790      771 
    1122     2499     3261     3212     3396     4473     6698     9665 
   12767    15953    19100    22096    25410    29477    34030    38225 
   41213    42689    43077    43049    42529    40955    38549    36110 
   33833    31093    27264    22287    16657    11371     7219     4011 
    1206    -1387    -4012    -6620    -8398    -8879    -8234    -7054 
   -6787    -8623   -11932   -15065   -16958   -17613   -17960   -18405 
  -18278   -17983   -18548   -19774   -21292   -23288   -25721   -27946 
  -29333   -29857   -29217   -26700   -22857   -19340   -17182   -16273 
  -15303   -12752    -8402    -2910     3277     9699    15260    19105 
   21177    21213    19306    16251    12589     8998     6145     4115 
    2761     1643      241    -1077    -1155      442     3101     6260 
