Origin Time       2011/03/11 14:46:00
Lat.              38.103
Long.             142.860
Depth. (km)       24
Mag.              9.0
Station Code      AOM004
Station Lat.      41.4064
Station Long.     141.4477
Station Height(m) 29
Record Time       2011/03/11 14:47:43
Sampling Freq(Hz) 100Hz
Duration Time(s)  285
Dir.              U-D
Scale Factor      3920(gal)/6182761
Max. Acc. (gal)   9.035
Last Correction   2011/03/11 14:47:28
Memo.             
[...]
  -20753   -19473   -19450   -20557   -20980   -20030   -18905   -19112 
  -20308   -20566   -19589   -19010   -19134   -19239   -19869   -21097 
  -21404   -20721   -20965   -22400   -22873   -21461   -19918   -19498 
  -19386   -18779   -17755   -16686   -16268   -16845   -17622   -17534 
  -16609   -16024   -16461   -17069   -16841   -16066   -15618   -15659 
  -15942   -16403   -16561   -15775   -14821   -15271   -16657   -17086 
  -16958   -18082   -19629   -19529   -18532   -18488   -18721   -18058 
  -17633   -18512   -19556   -19735   -20067   -21623   -23257   -23549 
  -23439   -23944   -24021   -23302   -22874   -22549   -21417   -20174 
  -20032   -20783   -21309   -21138   -21044   -21896   -23164   -23704 
  -23298   -22336   -21422   -21050   -20442   -18817   -17373   -17205 
  -17335   -16801   -16370   -16953   -18195   -19383   -20078   -20002 
  -19634   -19741   -20038   -19744   -19057   -19136   -20263   -21032 
  -20742   -20590   -21358   -22461   -23454   -24222   -24322   -23846 
  -23839   -24526   -24615   -23513   -22154   -21128   -20392   -20180 
  -20364   -20265   -19700   -18961   -18402   -18285   -18179   -17784 
  -18099   -19440   -20210   -19760   -19424   -19710   -19631   -19085 
  -19103   -19623   -19664   -19457   -19942   -20782   -20942   -20663 
  -21083   -22235   -22812   -22133   -21292   -21345   -21513   -20651 
  -19282   -18832   -19454   -19546   -18053   -16404   -16356   -17381 
  -18159   -18468   -18608   -18999   -20028   -21200   -21558   -21156 
  -21121   -22238   -23556   -23358   -22379   -22861   -23957   -23194 
  -21508   -21529   -22762   -22931   -22126   -22071   -22856   -23209 
  -23182   -23689   -23784   -22240   -20772   -21093   -21512   -20521 
  -19266   -18494   -17727   -17239   -17850   -19319   -19798   -17913 
  -15362   -14897   -16297   -17305   -17049   -16315   -16097   -16816 
  -18056   -19114   -19890   -20911   -22546   -23987   -23681   -21769 
  -20662   -21625   -22586   -21480   -19689   -19556   -20736   -21443 
  -21496   -21951   -22827   -23740   -25153   -26499   -26123   -24469 
  -23692   -24080   -23956   -22685   -21425   -21203   -21703   -22001 
  -21856   -21782   -22109   -22595   -22502   -21332   -19866   -19306 
  -19687   -20043   -19681   -19211   -19866   -21313   -21730   -20893 
  -20570   -21295   -22209   -23122   -23411   -22011   -20081   -19262 
  -18757   -17918   -17822   -18455   -18378   -17236   -15994   -15239 
  -14848   -14646   -14544   -14693   -15441   -16317   -16210   -15428 
  -15594   -17064   -18616   -19536   -20377   -21422   -21769   -21536 
  -22680   -24983   -25392   -23561   -22691   -24213   -26391   -27178 
  -25965   -24317   -24612   -26610   -27738   -26964   -25535   -24684 
  -24387   -23601   -21700   -19780   -19314   -20056   -20527   -20054 
  -19576   -20159   -21036   -20554   -18852   -17465   -16757   -15754 
  -14229   -13274   -13484   -14129   -14450   -14152   -13299   -12992 
  -14326   -16444   -17753   -18166   -18633   -19765   -21298   -22115 
  -21605   -20873   -21161   -21945   -22016   -21520   -21384   -21378 
  -21052   -21317   -22387   -22886   -22831   -23525   -24383   -24128 
  -23558   -23626   -23396   -22323   -21418   -20864   -19905   -19170 
  -19470   -19516   -18366   -17665   -18591   -19714   -19718   -19109 
  -18551   -18369   -18880   -19335   -18873   -18508   -19320   -20520 
  -21210   -21430   -21153   -20468   -20057   -20175   -19910   -18489 
  -17265   -18374   -20772   -21409   -20646   -21107   -22377   -22317 
  -21145   -20339   -20163   -20129   -20033   -20073   -20332   -20225 
  -19591   -19459   -19934   -19631   -18579   -18167   -18371   -18398 
  -18393   -18570   -18579   -18407   -18707   -19546   -19653   -18365 
  -17098   -16971   -16931   -16293   -16088   -16354   -15985   -15493 
  -16022   -16743   -16149   -14419   -12890   -12407   -12735   -13125 
  -13451   -14339   -15989   -18074   -20381   -22169   -22487   -22310 
  -23432   -25025   -25043   -23770   -22906   -22879   -22766   -21991 
  -21007   -20404   -20393   -21013   -21930   -22485   -22352   -21642 
  -20655   -20154   -20739   -21388   -20631   -18993   -18004   -17892 
  -18100   -18575   -18818   -17681   -16011   -16098   -17339   -17253 
  -16338   -16714   -17939   -18476   -18435   -18501   -18627   -18493 
  -18570   -19460   -20119   -19845   -20229   -21458   -21401   -20438 
  -20795   -22121   -23061   -23486   -23192   -22294   -21871   -22205 
  -22140   -21065   -20146   -20390   -20651   -19684   -18928   -19999 
  -21548   -21740   -20807   -19807   -19417   -19797   -20624   -21333 
  -21503   -21285   -21340   -22056   -22853   -22989   -22843   -23157 
  -23662   -23605   -22919   -22160   -21701   -21360   -20699   -19726 
  -19030   -18643   -17847   -16800   -16431   -16292   -15124   -13645 
  -13997   -16520   -19263   -20335   -19858   -19506   -19992   -20215 
  -19237   -17765   -17096   -17339   -17681   -17954   -18475   -18927 
  -19119   -19755   -21033   -22057   -22314   -22248   -22134   -21576 
  -20544   -19834   -19891   -20011   -19563   -19327   -20020   -20766 
  -20690   -20030   -19332   -18947   -18687   -18196   -17873   -18311 
  -19014   -19099   -19115   -19849   -20456   -20452   -20478   -20209 
  -19347   -18975   -19334   -19414   -19417   -20085   -20633   -20511 
  -20664   -21331   -21489   -20777   -20170   -20424   -20342   -18627 
  -16861   -16938   -17600   -17140   -16421   -17064   -18986   -20737 
  -21549   -21930   -21752   -20310   -18974   -19347   -19891   -19241 
  -18608   -18537   -18580   -18773   -18542   -17611   -17146   -17183 
  -16521   -15725   -15698   -15425   -14693   -15196   -17284   -19178 
  -19641   -19329   -19475   -20214   -20656   -20168   -19319   -19476 
  -20672   -21067   -19975   -18883   -18494   -17871   -16660   -15689 
  -15562   -16128   -17190   -18886   -20691   -20966   -19852   -20232 
  -22513   -23328   -21857   -20530   -19881   -19287   -19515   -20230 
  -19397   -16966   -15170   -14933   -15179   -15165   -15180   -15578 
  -16350   -17596   -19535   -21309   -21388   -20205   -20101   -21867 
  -23725   -24037   -22943   -21866   -22427   -24565   -26474   -27402 
  -28092   -28626   -28646   -28170   -27009   -25534   -24634   -23871 
  -22361   -20731   -19861   -19004   -16967   -14503   -13535   -14287 
  -15198   -15140   -14305   -13760   -14577   -16500   -17716   -17140 
  -16336   -17084   -18121   -17540   -16617   -17420   -18915   -19143 
  -18641   -18526   -18272   -17441   -16529   -15628   -14417   -13002 
  -12058   -12331   -13320   -13532   -12936   -12849   -13542   -14087 
  -13742   -12912   -12663   -12898   -12603   -12231   -13274   -15132 
  -15789   -16032   -18192   -21222   -22556   -22605   -23109   -24124 
  -24978   -25688   -26429   -27001   -27243   -27375   -27481   -26834 
  -24960   -22728   -20978   -19645   -18591   -17815   -17388   -17527 
  -17896   -17630   -16806   -16446   -16833   -17486   -18180   -18460 
  -17732   -16707   -16823   -17891   -18271   -17745   -17899   -19048 
  -19610   -19028   -18602   -19436   -21083   -22118   -21975   -21639 
  -21900   -22142   -21692   -21150   -21342   -21848   -21640   -20657 
  -19568   -18507   -17718   -18077   -19157   -19423   -18994   -18993 
  -19490   -20485   -21961   -22560   -21727   -21496   -22887   -23713 
  -22860   -22959   -25814   -29020   -30024   -29742   -29763   -29450 
  -28097   -26958   -26570   -25453   -23466   -22215   -21897   -21822 
  -22267   -23157   -23433   -22537   -21077   -19987   -19529   -19490 
  -19538   -19021   -17704   -16791   -17651   -19450   -20437   -20920 
  -22068   -23612   -24677   -25256   -25758   -25709   -24720   -24377 
  -25646   -25935   -23534   -21150   -20624   -19911   -18111   -17126 
  -17330   -17314   -17476   -18998   -20668   -20592   -19397   -18822 
  -19012   -19405   -20283   -21463   -21789   -21335   -21382   -22118 
  -22866   -23292   -23081   -22132   -21468   -22326   -24037   -24621 
  -23741   -23112   -23545   -23603   -22357   -21441   -22283   -23119 
  -21741   -19548   -19243   -20157   -19418   -16550   -14092   -13871 
  -14809   -14931   -14106   -13701   -14342   -15274   -15594   -15583 
  -16690   -19466   -22359   -24015   -25175   -26679   -27769   -27889 
  -27869   -28147   -28042   -27559   -27507   -27510   -26629   -25587 
  -25752   -26667   -26633   -25040   -23011   -22008   -21844   -20984 
  -19307   -18308   -18330   -18271   -17885   -17982   -18528   -18485 
  -17897   -18384   -20474   -22303   -22490   -22023   -21816   -21275 
  -20397   -19940   -19666   -19076   -18202   -16840   -15327   -15002 
  -16071   -16973   -17010   -17504   -19582   -22095   -22823   -21833 
  -21126   -20782   -19862   -19937   -22173   -23805   -22985   -22555 
  -24617   -26739   -26295   -24385   -23279   -22389   -20080   -17416 
  -15949   -14854   -13442   -12508   -11989   -11197   -10977   -12315 
  -14137   -15375   -16940   -18973   -19864   -19633   -19464   -18544 
  -16245   -14723   -15870   -18563   -20321   -20062   -19385   -20546 
  -22880   -23914   -23512   -23464   -24451   -25893   -26951   -26871 
  -25820   -24943   -25115   -26081   -26411   -24992   -22872   -21964 
  -22082   -21272   -19216   -17968   -18135   -17944   -17383   -18263 
  -20048   -20874   -21196   -21719   -20890   -18360   -16743   -17319 
  -18042   -17308   -16565   -17676   -19669   -20318   -19567   -18957 
  -19346   -20516   -21516   -22043   -22864   -23743   -23874   -24081 
  -25130   -25638   -24654   -23953   -25262   -27532   -28688   -28596 
  -29060   -30965   -32858   -32782   -30495   -28260   -28598   -30230 
  -29491   -26331   -23998   -23178   -21926   -20264   -19836   -20421 
  -20573   -20104   -19439   -18455   -17617   -18031   -19252   -19559 
  -18788   -18450   -19052   -19397   -18741   -17846   -17314   -16471 
  -14824   -12794   -10898   -10009   -10941   -12942   -14677   -16008 
  -17239   -18303   -19284   -20121   -20566   -21030   -21614   -21427 
  -20612   -20266   -19988   -18995   -18397   -19133   -20052   -20035 
  -19469   -19112   -18955   -18387   -17333   -16339   -15696   -15478 
  -15766   -16374   -17205   -18656   -20264   -20602   -20165   -20728 
  -21667   -21618   -21817   -23639   -25804   -26720   -26966   -27952 
  -29578   -30358   -29478   -27815   -27002   -27711   -28870   -28802 
  -26987   -24668   -23515   -23537   -23253   -22217   -21156   -19789 
  -17911   -16708   -16328   -15883   -15919   -17010   -17892   -17509 
  -16538   -15911   -15693   -15401   -14822   -14692   -15438   -15873 
  -15464   -15453   -16222   -17328   -19231   -21727   -23342   -23579 
  -23482   -24034   -24879   -24757   -23343   -21802   -21062   -20711 
  -19962   -18694   -17529   -17105   -17196   -17331   -17777   -18631 
  -19110   -18374   -16373   -14685   -15591   -18688   -21152   -22106 
  -22782   -23378   -23558   -24132   -25792   -27641   -27942   -26262 
  -24496   -24640   -25995   -25859   -23017   -19881   -19541   -20963 
  -20685   -18489   -17093   -17569   -18372   -17903   -15980   -13340 
  -11145   -10559   -11522   -12205   -11483   -10955   -11696   -11897 
  -11132   -12092   -15044   -16456   -15373   -14927   -16367   -17444 
  -16722   -15271   -14664   -15314   -16538   -17343   -17469   -17982 
  -19768   -21847   -22699   -22270   -21894   -22891   -24816   -25580 
  -24368   -22921   -22901   -23914   -24764   -25081   -25069   -24496 
  -23237   -22139   -21481   -20213   -18388   -17437   -17211   -16220 
  -14555   -13619   -14084   -15822   -18306   -20598   -22249   -23377 
  -23775   -23694   -24192   -25340   -25997   -25694   -25113   -24834 
  -24651   -24154   -23440   -22996   -23271   -24463   -26144   -27120 
  -26695   -25767   -25575   -25729   -24971   -23534   -22412   -21214 
  -19546   -18311   -17807   -17311   -16789   -16828   -17443   -18103 
  -18968   -20794   -22688   -22869   -22051   -21764   -21120   -19253 
  -17745   -17986   -18727   -18403   -18058   -19268   -21000   -21987 
  -23619   -26952   -30207   -31420   -30601   -29324   -29377   -30397 
  -30236   -28610   -27016   -25830   -24665   -23224   -21085   -19097 
  -18471   -17783   -14970   -11097    -8916    -9396   -10774   -10616 
   -9489   -10355   -13096   -14526   -14166   -14274   -15506   -17320 
  -19682   -21441   -21042   -19817   -20230   -21758   -22451   -22245 
  -21913   -21687   -21802   -22091   -21969   -21163   -19432   -17106 
  -15735   -16304   -17833   -18686   -18711   -19366   -21246   -22689 
  -21910   -19610   -18298   -19257   -21247   -22181   -21495   -20595 
  -20827   -21738   -21850   -20627   -18931   -17487   -16231   -15107 
  -13958   -12255   -10237    -9096    -9099    -9197    -8993    -9501 
  -11349   -13455   -14474   -14732   -15774   -18297   -21084   -22597 
  -23179   -23873   -24214   -23722   -23575   -24490   -25318   -25357 
  -25407   -25719   -25602   -25250   -25804   -27010   -26787   -24579 
  -22483   -21826   -21614   -20663   -19005   -17544   -17373   -18306 
  -18351   -16811   -15804   -16298   -16702   -16430   -16371   -16670 
  -17211   -18272   -19116   -18217   -15594   -12912   -11240   -10408 
  -10071    -9905    -9330    -8446    -8585   -10485   -13062   -14991 
  -16208   -17447   -19118   -21101   -23201   -25078   -26366   -27182 
  -27868   -28197   -27899   -28041   -29607   -31431   -32238   -32743 
  -33761   -34268   -32916   -30498   -28806   -27766   -26284   -24429 
  -22758   -21610   -21115   -20253   -17550   -13736   -11456   -11581 
  -12236   -11718   -10268    -9001    -8110    -7223    -6925    -7597 
   -8573    -9961   -11957   -13517   -14686   -16210   -16878   -16187 
  -16330   -18319   -20211   -20328   -19708   -20654   -23215   -24885 
  -24754   -24594   -24977   -25001   -25030   -25267   -24538   -22709 
  -21083   -20502   -20560   -20300   -19472   -18650   -18200   -17539 
  -16174   -15468   -16616   -17643   -16583   -15336   -16102   -17525 
  -17756   -17567   -18186   -19231   -19992   -20740   -21644   -21287 
  -18440   -14779   -12695   -12002   -11648   -11700   -12133   -12588 
  -13233   -13961   -14090   -13963   -14957   -17187   -18814   -18396 
  -17002   -17199   -19942   -22701   -22631   -21133   -21041   -21769 
  -22060   -23088   -25130   -26347   -26598   -27060   -27130   -26433 
  -26284   -26501   -25490   -23591   -22392   -22019   -21334   -19912 
  -18671   -18010   -17198   -16498   -16758   -17112   -16361   -15320 
  -15393   -16419   -17177   -16912   -16132   -16021   -16726   -17289 
  -17570   -18005   -17827   -16666   -16337   -17487   -17475   -14899 
  -12294   -12135   -13959   -16040   -17423   -18236   -18952   -19932 
  -21035   -21316   -20518   -19800   -19613   -19467   -19775   -20486 
  -20100   -19147   -20081   -22269   -23152   -23144   -23695   -23990 
  -23418   -23398   -24204   -23743   -21711   -20714   -21735   -22800 
  -22300   -20897   -20511   -21720   -22396   -20870   -19195   -19485 
  -19745   -18138   -17102   -18768   -20972   -20945   -19136   -17686 
  -17565   -17851   -17441   -16967   -17269   -17593   -17750   -18735 
  -20125   -20679   -20330   -19493   -18828   -18885   -18518   -16344 
  -13514   -12688   -14620   -16904   -17111   -16181   -16388   -17797 
  -19268   -20345   -20877   -21015   -21366   -22191   -23155   -23618 
  -23045   -22156   -22489   -23399   -22637   -20938   -20953   -22116 
  -22181   -21365   -20897   -20900   -21291   -21857   -21828   -21210 
  -20940   -21018   -20721   -20138   -19380   -17863   -16015   -15551 
  -16597   -17026   -15970   -15001   -15122   -15471   -15172   -14603 
  -14434   -14467   -14069   -13285   -13076   -13786   -14177   -13663 
  -13442   -14180   -15393   -16794   -17913   -18121   -18234   -19657 
  -21881   -23576   -24962   -26531   -27281   -26010   -23247   -21114 
  -21113   -22234   -22466   -21924   -22041   -22730   -23250   -23388 
  -22433   -20674   -20449   -21987   -22310   -20608   -18930   -17573 
  -15742   -14407   -14315   -14448   -13904   -12957   -12566   -13217 
  -14074   -14268   -14380   -15529   -17617   -19509   -20682   -21616 
  -22453   -22483   -21504   -20660   -21093   -22442   -23503   -23936 
  -24344   -25158   -26352   -27525   -27927   -27273   -26309   -26002 
  -26339   -26260   -25344   -24438   -23645   -22184   -20347   -18433 
  -15629   -12728   -11923   -12325   -11681   -11523   -13639   -15526 
  -15134   -14283   -14581   -15105   -14800   -14621   -16129   -18455 
  -19467   -19419   -20110   -21756   -23285   -24274   -24838   -25209 
  -26398   -28457   -28834   -26519   -24579   -24891   -25235   -24101 
  -23411   -24464   -25687   -25765   -25080   -23981   -22827   -22883 
  -24725   -26725   -27142   -26892   -27946   -29692   -29613   -26919 
  -23381   -20877   -19490   -18092   -16161   -14744   -14827   -15334 
  -14811   -13925   -13955   -14634   -14946   -14497   -13981   -14425 
  -15783   -17675   -19862   -21051   -20929   -21489   -23305   -24585 
  -24365   -23197   -21947   -21519   -21854   -21422   -20120   -20282 
  -22390   -23871   -23341   -21873   -20207   -18342   -17411   -18214 
  -18306   -15563   -13217   -15055   -18452   -18740   -16765   -16104 
  -17060   -18075   -18588   -18558   -18752   -20375   -22998   -25077 
  -25791   -25407   -25325   -26548   -27424   -25772   -22602   -20253 
  -18581   -16578   -14997   -14320   -13443   -11808   -10628   -11126 
  -12395   -13095   -13977   -15643   -16674   -16615   -16632   -16520 
  -15578   -15122   -16080   -16753   -15643   -13889   -13823   -16128 
  -18649   -19402   -19714   -21321   -23062   -23514   -23404   -23704 
  -24202   -24214   -23581   -22988   -22791   -22600   -22929   -24682 
  -26789   -27750   -28031   -28164   -27656   -26409   -24569   -22639 
  -21918   -22567   -22978   -22511   -22302   -22813   -23476   -24345 
  -25525   -26248   -25982   -25230   -24781   -24853   -25028   -24750 
  -23999   -23313   -22965   -22789   -22518   -21532   -19441   -17452 
  -17069   -17165   -15645   -13766   -14225   -16278   -17352   -16925 
  -15914   -15313   -16032   -17247   -16677   -14347   -12871   -13704 
  -15853   -17658   -18650   -19582   -20603   -20987   -21033   -21808 
  -22975   -23201   -22229   -21184   -21207   -21923   -21905   -20967 
  -20074   -19521   -19463   -20329   -21514   -21571   -20032   -18247 
  -17884   -18746   -19398   -19440   -19438   -19785   -20572   -21019 
  -20117   -19086   -19828   -21191   -21292   -21151   -21970   -22965 
  -23735   -24513   -24677   -23961   -23380   -23357   -23002   -22202 
  -22076   -22649   -22656   -21700   -20376   -18773   -16617   -14638 
  -13886   -13818   -13455   -13148   -13191   -13558   -14766   -16222 
  -16946   -17982   -19703   -20239   -19419   -18991   -18994   -18681 
  -18691   -19120   -18639   -16911   -15591   -16063   -17099   -16976 
  -16757   -17934   -19506   -20240   -20144   -19207   -18170   -18735 
  -20875   -22317   -21752   -20694   -20776   -20996   -20276   -20261 
  -21858   -22600   -21451   -21236   -23055   -24026   -22897   -22232 
  -23581   -25522   -26683   -26544   -24670   -22236   -21444   -21805 
  -20935   -18846   -17222   -16261   -15923   -16811   -17741   -17141 
