Origin Time       2011/03/11 14:46:00
Lat.              38.103
Long.             142.860
Depth. (km)       24
Mag.              9.0
Station Code      AOM016
Station Lat.      40.6021
Station Long.     140.4982
Station Height(m) 28
Record Time       2011/03/11 14:47:32
Sampling Freq(Hz) 100Hz
Duration Time(s)  300
Dir.              U-D
Scale Factor      3920(gal)/6182761
Max. Acc. (gal)   16.548
Last Correction   2011/03/11 14:47:17
Memo.             
[...]
   -4572    -5068    -5804    -6821    -8089    -9252   -10442   -12086 
  -13491   -13870   -13992   -14569   -14946   -14769   -14791   -15467 
  -16583   -18214   -20239   -21877   -22866   -23493   -23607   -22822 
  -21305   -19755   -18596   -17768   -17153   -16621   -16158   -15967 
  -15964   -15905   -15926   -16037   -16015   -15928   -15786   -15428 
  -14960   -14410   -13520   -12275   -10906    -9414    -7711    -6072 
   -4894    -4324    -4374    -4896    -5632    -6462    -7135    -7289 
   -6903    -6141    -5272    -4668    -4417    -4441    -4748    -5245 
   -5651    -5744    -5594    -5232    -4613    -4103    -3949    -3838 
   -3602    -3432    -3489    -3701    -3918    -4313    -5090    -6006 
   -6983    -8167    -9241    -9974   -10675   -11406   -11913   -12221 
  -12380   -12136   -11329   -10098    -8706    -7455    -6426    -5361 
   -4320    -3884    -4290    -5305    -6779    -8538   -10341   -12020 
  -13253   -13890   -14306   -14712   -14959   -15240   -15831   -16455 
  -16749   -16724   -16450   -15932   -15261   -14596   -13972   -13308 
  -12611   -11914   -11105   -10064    -8924    -7998    -7430    -7133 
   -6974    -6729    -6279    -5832    -5542    -5507    -5936    -6556 
   -6850    -6704    -5977    -4678    -3455    -2823    -2751    -3101 
   -3943    -5337    -6816    -7846    -8543    -9186    -9860   -10552 
  -11038   -11334   -11774   -12228   -12432   -12578   -12858   -13322 
  -13889   -14312   -14735   -15484   -16305   -16903   -17544   -18446 
  -19379   -20129   -20736   -21206   -21595   -22100   -22633   -23095 
  -23649   -24001   -23823   -23637   -23754   -23673   -23325   -23229 
  -23519   -23950   -24238   -24041   -23261   -22172   -21039   -19956 
  -18941   -18045   -17365   -16782   -15881   -14517   -13089   -11872 
  -10863   -10187    -9641    -8686    -7323    -6060    -5357    -5365 
   -5850    -6416    -6670    -6446    -6019    -5727    -5733    -6090 
   -6485    -6504    -6288    -6061    -5577    -4692    -3678    -2776 
   -1991    -1207     -292      700     1541     2206     2865     3499 
    4124     4988     6045     6902     7307     6936     5470     3257 
     844    -1593    -3712    -5195    -6271    -7093    -7581    -7871 
   -8000    -7845    -7566    -7302    -7019    -6952    -7336    -8011 
   -8749    -9372    -9834   -10418   -11335   -12430   -13489   -14389 
  -15124   -15674   -15962   -16141   -16276   -16178   -16064   -16183 
  -16159   -15732   -15102   -14430   -13913   -13731   -13654   -13329 
  -12792   -12354   -12140   -11905   -11448   -10937   -10614   -10569 
  -10722   -10926   -11219   -11716   -12474   -13450   -14387   -15197 
  -16123   -17289   -18505   -19373   -19782   -20171   -20747   -21181 
  -21244   -21092   -20781   -19911   -18366   -16698   -15215   -13844 
  -12679   -11866   -11754   -12575   -13607   -14147   -14326   -14145 
  -13486   -12794   -12490   -12347   -12119   -12090   -12388   -12740 
  -13059   -13216   -13023   -12598   -11976   -11229   -10679   -10269 
   -9845    -9835   -10255   -10236    -9818    -9831    -9900    -9760 
  -10036   -10154    -9650    -9330    -9463   -10000   -10939   -11935 
  -12877   -13701   -14080   -13880   -13215   -12338   -11813   -11982 
  -12452   -12783   -12934   -13028   -13343   -13884   -14111   -13876 
  -13583   -13248   -12693   -12096   -11710   -11602   -11688   -11924 
  -12283   -12510   -12412   -12191   -12119   -12153   -12208   -12487 
  -13102   -13878   -14681   -15456   -16096   -16528   -16775   -16851 
  -16585   -15879   -14990   -14050   -12988   -11945   -10900    -9648 
   -8449    -7684    -7338    -7413    -7980    -8767    -9422    -9784 
   -9939   -10301   -10955   -11435   -11509   -11127   -10255    -9289 
   -8559    -8042    -7809    -7780    -7722    -7744    -7958    -8201 
   -8427    -8653    -8609    -8077    -7272    -6543    -6251    -6735 
   -7363    -7031    -6185    -5676    -5067    -4382    -4806    -6535 
   -8237    -9411   -10676   -11703   -11895   -11706   -11717   -11932 
  -12240   -12660   -12803   -12380   -11958   -11858   -11775   -11804 
  -12247   -12994   -13877   -14711   -15011   -14591   -13794   -12694 
  -11336   -10324    -9946    -9852   -10091   -10935   -12190   -13646 
  -15153   -16381   -17246   -17927   -18372   -18328   -17737   -16745 
  -15548   -14462   -13742   -13322   -13034   -12837   -12785   -12878 
  -13038   -13306   -13674   -14066   -14710   -15727   -16826   -17861 
  -18826   -19578   -20080   -20376   -20441   -20243   -19699   -18865 
  -18007   -17166   -16297   -15649   -15375   -15489   -16061   -16788 
  -17279   -17560   -17538   -17094   -16573   -16232   -16095   -16304 
  -16768   -17136   -17273   -17295   -17210   -16727   -15629   -14167 
  -12832   -12021   -11841   -12172   -12831   -13406   -13569   -13551 
  -13649   -13848   -14121   -14471   -14926   -15411   -15722   -15893 
  -15904   -15589   -15342   -15604   -16067   -16388   -16724   -17036 
  -16888   -16382   -16093   -16044   -15890   -15514   -14924   -14042 
  -12854   -11785   -11354   -11451   -11770   -12261   -12674   -12701 
  -12364   -11806   -11323   -11188   -11268   -11311   -11159   -10783 
  -10481   -10369   -10116    -9647    -9226    -8960    -8822    -8939 
   -9490   -10250   -10795   -11074   -11099   -10710    -9953    -9085 
   -8442    -8294    -8455    -8615    -8863    -9190    -9198    -8721 
   -8120    -7769    -7754    -8132    -8905    -9875   -10755   -11231 
  -11131   -10650   -10258   -10279   -10668   -11262   -11936   -12550 
  -12890   -12832   -12583   -12381   -12294   -12401   -12697   -13208 
  -13909   -14418   -14470   -14114   -13332   -12233   -11235   -10762 
  -10951   -11623   -12529   -13455   -14104   -14268   -13971   -13195 
  -12040   -11057   -10640   -10715   -11294   -12278   -13150   -13606 
  -13751   -13704   -13614   -13509   -13278   -13107   -13135   -13246 
  -13553   -13843   -13526   -12743   -12013   -11463   -11291   -11656 
  -12318   -13012   -13406   -13188   -12629   -12128   -11667   -11310 
  -11283   -11444   -11631   -12095   -12736   -13115   -13400   -13942 
  -14604   -15131   -15441   -15574   -15525   -15206   -14731   -14239 
  -13672   -13088   -12617   -12309   -12073   -11587   -10794   -10015 
   -9479    -9321    -9489    -9722    -9956   -10264   -10574   -10761 
  -10918   -11299   -11988   -12710   -13060   -12992   -12869   -12855 
  -12635   -12096   -11745   -11726   -11380   -10453    -9504    -8814 
   -8115    -7534    -7519    -7882    -8392    -9413   -10948   -12508 
  -13988   -15280   -15913   -16164   -16590   -16672   -16175   -15791 
  -15643   -15525   -15503   -15339   -14942   -14523   -13994   -13447 
  -13056   -12946   -13263   -13595   -13977   -14787   -15365   -15625 
  -16408   -17358   -17812   -18078   -17994   -17118   -16154   -15707 
  -15327   -14798   -14324   -13599   -12503   -11880   -12018   -12125 
  -12021   -12077   -12441   -13133   -13706   -13883   -14058   -14353 
  -14654   -15039   -15239   -14768   -13699   -12581   -11556   -10199 
   -8700    -7690    -6934    -6237    -5880    -5474    -4697    -3963 
   -3591    -3611    -3983    -4520    -5202    -6240    -7388    -8173 
   -8638    -8835    -8701    -8658    -8827    -8719    -8368    -8135 
   -7963    -7755    -7547    -7330    -7099    -6929    -6984    -7100 
   -6849    -6881    -7856    -8507    -8579    -9454   -10498   -10787 
  -11112   -11665   -12031   -12200   -12337   -12489   -12646   -13256 
  -14483   -15659   -16571   -17395   -17867   -18093   -18576   -19005 
  -18994   -18868   -18633   -18169   -17609   -16866   -16100   -15395 
  -14842   -14971   -15393   -15806   -16867   -18255   -19475   -20684 
  -21649   -22215   -22226   -21543   -20686   -19840   -18778   -17943 
  -17423   -16753   -16540   -17061   -17077   -16484   -16302   -16268 
  -15915   -15936   -16408   -16363   -16075   -16314   -16294   -15712 
  -15402   -15084   -14178   -13105   -12326   -11741   -11045   -10238 
   -9487    -8971    -8964    -9255    -9515    -9890   -10439   -11174 
  -12108   -12927   -13456   -13758   -13840   -13965   -14298   -14471 
  -14418   -14351   -14092   -13492   -12696   -11757   -10581    -9627 
   -9505    -9886   -10515   -11608   -12686   -13108   -12909   -12319 
  -11246   -10055    -9983   -10698   -10378    -9516    -9597    -9796 
   -9274    -8530    -7640    -6786    -6606    -6754    -6763    -7055 
   -7772    -8783   -10021   -11448   -13180   -14508   -14824   -14822 
  -14785   -14394   -13910   -13664   -13690   -13988   -14231   -14257 
  -14694   -15509   -15833   -15918   -16404   -16957   -17422   -17890 
  -17890   -17429   -17159   -17093   -17109   -17523   -18257   -18886 
  -19233   -19542   -20089   -20717   -21347   -22035   -22613   -23190 
  -23901   -24333   -24198   -23728   -23116   -22280   -21262   -20400 
  -19886   -19413   -18606   -17722   -17211   -16833   -16398   -16321 
  -16636   -17014   -17439   -17902   -18040   -17629   -17148   -16835 
  -16250   -15539   -14987   -14269   -13512   -13096   -12845   -12699 
  -12697   -12471   -11907   -11405   -10982   -10123    -9087    -8770 
   -8776    -8453    -8514    -9013    -9280    -9812   -10750   -11356 
  -11993   -13003   -13546   -13695   -14188   -14600   -14542   -14299 
  -13877   -13283   -12664   -12069   -11376   -10441    -9571    -8982 
   -8706    -8898    -9134    -9336   -10074   -10951   -11523   -11878 
  -11905   -12000   -12300   -12476   -12988   -13678   -13787   -13759 
  -13813   -13478   -13231   -13331   -13234   -13219   -13546   -13755 
  -13923   -14020   -13669   -13284   -13072   -12895   -13525   -14609 
  -14375   -13796   -14794   -15757   -15494   -15480   -15837   -16136 
  -16662   -16412   -15245   -14700   -14655   -14338   -14386   -14994 
  -15473   -15581   -15428   -15319   -15592   -15945   -15744   -15051 
  -14877   -15322   -15189   -14653   -14716   -15544   -16777   -17600 
  -18075   -18337   -17389   -15876   -15062   -14028   -12795   -12908 
  -13318   -12830   -12880   -13322   -13081   -12730   -12407   -12238 
  -12308   -11923   -11292   -11041   -11390   -11748   -11110   -10391 
  -10801   -11487   -11890   -12506   -13226   -13799   -14083   -13695 
  -13234   -13397   -13225   -12341   -11754   -11371   -11156   -12131 
  -13447   -14234   -15790   -17436   -17631   -17718   -18453   -18680 
  -18817   -19492   -19204   -18036   -17856   -18280   -18650   -18943 
  -18468   -18126   -18161   -17099   -16097   -16388   -17340   -19125 
  -20693   -21121   -21830   -22259   -21604   -21416   -21468   -21413 
  -22120   -22474   -22013   -21798   -21408   -20499   -19748   -19160 
  -18704   -18925   -19434   -19611   -19847   -20048   -19964   -19925 
  -19730   -19056   -17678   -15787   -14630   -14018   -12966   -12721 
  -13357   -13168   -12709   -12753   -12681   -12621   -12928   -13103 
  -12551   -11711   -10865    -9298    -7499    -6213    -4991    -3679 
   -2062     -410      564     1331     1711     1094      338       -3 
      24      426     1007     1866     2209     1509     1430     1885 
    1447     1601     2834     3329     3799     4744     4449     4125 
    5445     6456     6441     6830     7426     7510     7256     6734 
    5987     5492     5262     4656     3491     2146     1237     1036 
     929      452       42      346      986      514     -915    -1527 
   -2004    -3882    -5879    -7214    -8479    -9022    -9174   -10042 
  -10906   -11818   -13542   -14956   -15918   -17192   -17504   -16822 
  -16663   -16291   -15641   -15894   -15369   -13467   -12354   -11478 
   -9945    -9064    -8633    -8561   -10000   -11904   -12966   -14179 
  -15811   -16483   -16277   -16481   -16567   -15935   -15954   -16806 
  -17499   -18393   -19570   -20407   -20872   -20775   -20305   -20466 
  -21427   -22763   -24302   -25864   -27499   -28807   -28702   -27740 
  -27648   -27729   -26780   -25934   -25423   -24781   -25174   -26195 
  -26605   -27231   -27960   -28091   -28188   -27648   -26493   -26085 
  -25638   -24753   -24355   -23688   -22443   -21101   -19256   -17146 
  -15017   -12840   -11265    -9841    -8340    -8148    -8600    -8324 
   -8328    -8516    -8014    -7793    -7890    -7510    -7050    -6928 
   -7520    -8262    -7833    -7569    -8602    -9071    -9129   -10224 
  -11399   -12654   -14779   -16200   -16015   -15795   -16657   -17714 
  -17877   -17985   -18845   -19596   -19872   -19650   -18911   -18591 
  -18626   -18223   -18046   -18316   -18337   -18761   -19938   -20318 
  -19604   -19593   -20494   -20915   -20900   -20895   -20424   -19736 
  -19545   -19874   -20325   -20322   -20121   -20231   -19919   -19319 
  -19323   -19167   -18717   -19084   -19830   -19925   -19859   -20449 
  -20892   -20642   -21118   -22259   -22158   -21040   -20469   -20394 
  -19791   -18378   -16266   -14027   -12895   -12243   -10784    -9401 
   -8736    -8599    -8460    -7699    -7738    -9166   -10154   -10241 
  -10286   -10558   -10548    -9848    -8861    -8224    -8408    -8577 
   -7439    -5872    -5184    -5166    -5356    -5380    -5054    -4643 
   -4195    -3739    -3401    -2934    -2237    -1403     -553       57 
     589      895      315     -704    -1455    -1909    -2073    -2164 
   -2207    -2314    -2658    -2875    -3360    -4084    -4117    -4037 
   -3968    -3126    -2693    -2949    -2202    -1156     -599     1216 
    3677     4966     6376     8442     9869    11154    12674    13331 
   13231    13069    12382    11134    10057     8694     6755     5397 
    4772     4488     4581     4304     3766     3483     2851     2158 
    1951     1766     1037     -312    -1325    -1784    -2961    -4890 
   -6345    -7128    -7761    -8267    -9031   -10219   -10709   -10776 
  -11676   -12749   -13299   -13702   -14619   -16844   -19388   -20557 
  -20867   -21042   -21072   -21746   -23046   -24060   -24781   -25411 
  -26054   -26282   -25276   -24183   -24435   -25065   -25278   -25259 
  -24753   -24480   -24887   -24744   -24360   -24347   -23700   -22636 
  -21509   -20350   -20336   -21203   -21897   -22350   -22193   -21522 
  -20833   -19923   -18765   -17659   -16534   -15603   -15233   -14633 
  -13144   -11571   -10468    -9767    -9778   -10539   -12188   -15113 
  -18150   -20338   -21946   -22353   -21916   -21913   -21939   -21396 
  -20428   -20092   -20958   -21100   -20304   -20282   -20021   -19414 
  -20185   -21051   -21266   -22434   -23945   -24970   -25895   -25823 
  -25150   -25421   -25760   -25310   -25239   -26314   -27415   -27404 
  -26932   -26113   -24296   -22492   -21612   -20986   -19806   -18462 
  -18303   -18968   -18722   -18226   -18756   -18970   -18469   -18540 
  -18553   -18140   -18488   -19224   -19308   -19190   -19482   -20065 
  -21056   -22240   -22758   -23181   -24200   -24215   -22770   -21564 
  -20516   -18777   -17354   -16712   -15659   -13913   -12388   -11579 
  -11195   -10387    -9313    -9254    -9742    -9951   -10604   -11517 
  -12224   -12479   -11769   -11094   -10582    -9179    -7835    -6975 
   -5883    -4991    -4340    -4297    -5508    -6006    -5278    -5589 
   -6106    -5717    -6071    -6407    -5511    -5329    -6488    -7390 
   -7664    -8614   -10434   -11447   -12101   -13669   -15186   -16822 
  -18799   -19775   -20220   -20899   -21360   -21884   -22339   -22047 
  -21345   -20329   -18995   -18000   -17146   -16092   -15324   -14788 
  -14255   -14208   -14374   -13768   -12651   -11713   -10993   -10541 
  -10308   -10465   -11191   -12139   -13460   -14854   -15080   -14883 
  -15522   -15720   -15231   -15453   -15579   -15140   -15644   -16438 
  -16409   -17268   -19116   -19725   -19886   -21073   -21606   -20934 
  -20362   -19995   -20031   -20376   -20286   -20385   -21330   -22489 
  -23342   -24178   -24980   -25460   -25946   -25725   -24342   -23382 
  -22416   -20789   -20449   -20129   -18202   -17374   -17601   -17185 
  -17623   -18551   -18744   -19461   -20471   -20621   -20261   -19520 
  -18422   -17307   -16308   -15551   -14895   -14343   -14039   -13675 
  -12942   -12127   -12039   -12324   -11945   -11670   -12117   -12593 
  -13030   -13338   -13223   -13060   -13219   -13459   -13140   -12341 
  -11585   -11039   -11171   -11329   -10302    -9178    -8682    -7792 
   -6815    -6346    -5685    -4812    -4223    -3570    -2888    -2910 
   -3530    -3844    -3654    -3367    -2635    -1388     -406      653 
    2000     2536     2303     2119     1843     1222      725      798 
    1014     1102     1102      489     -430     -939    -1701    -2886 
   -3762    -4607    -5748    -7007    -8405    -9801   -10799   -11103 
  -11414   -12271   -13015   -13815   -14555   -14554   -14560   -14734 
  -14594   -14367   -14317   -14637   -14669   -14277   -14373   -14222 
  -13408   -13044   -12943   -12919   -13514   -13976   -13565   -12835 
  -12591   -13148   -13871   -14065   -14178   -14502   -14364   -13844 
  -13755   -14120   -14729   -15392   -15444   -14821   -14078   -13396 
  -13039   -13007   -12664   -11894   -11089   -10524   -10360   -10243 
   -9768    -9558   -10088   -10606   -11004   -11853   -12680   -13150 
  -13549   -13682   -13619   -13513   -13271   -13371   -13879   -14382 
  -14690   -14387   -13806   -13663   -13563   -13370   -13621   -14043 
  -14206   -14540   -15313   -16039   -16370   -16325   -16045   -16029 
  -16332   -16357   -16231   -16222   -15928   -15244   -14389   -13417 
  -12090   -10723   -10355   -10522   -10218   -10194   -10724   -11025 
  -11508   -12515   -13595   -15251   -17574   -19581   -21151   -22497 
  -23617   -24621   -25396   -26115   -26927   -27584   -27991   -27776 
  -26866   -26099   -25567   -24745   -24211   -24331   -24184   -23626 
  -23509   -23524   -22758   -21780   -21593   -21662   -21289   -21064 
  -21303   -21224   -20857   -21110   -21478   -21143   -20779   -20391 
  -19234   -18219   -18155   -18009   -17353   -16705   -15604   -13947 
  -12718   -11875   -10999   -10449   -10182   -10159   -10378   -10197 
   -9768    -9673    -9476    -8964    -8641    -8399    -7996    -7719 
   -7364    -7012    -7230    -7374    -6953    -6478    -5872    -5159 
   -4909    -5195    -5736    -6276    -6596    -6665    -6597    -6468 
   -6406    -6492    -6499    -6360    -6437    -6921    -7570    -8107 
   -8467    -8704    -8820    -8631    -8403    -8764    -9194    -9195 
   -9392    -9470    -8969    -8742    -9083    -9318    -9246    -9393 
   -9781    -9778    -9545    -9503    -9373    -9044    -8808    -8787 
   -8848    -8869    -8700    -8353    -8378    -8679    -8550    -8517 
   -8961    -9300    -9938   -11094   -11792   -11785   -11375   -10403 
   -9083    -8014    -7310    -6911    -6711    -6524    -6622    -7135 
   -7723    -8276    -8766    -9369   -10269   -10994   -11445   -11803 
  -11752   -11704   -11863   -11365   -10871   -11396   -11817   -11952 
  -13093   -14532   -15280   -15928   -16510   -16970   -17649   -18004 
  -17861   -17755   -17813   -18148   -18675   -19084   -19383   -19316 
  -18730   -18017   -17004   -15517   -14274   -13379   -12473   -11849 
  -11395   -10622    -9510    -8177    -6865    -5547    -4071    -3004 
   -2627    -2721    -3572    -5142    -6912    -8695   -10411   -12034 
