Origin Time       2011/03/11 14:46:00
Lat.              38.103
Long.             142.860
Depth. (km)       24
Mag.              9.0
Station Code      AOM003
Station Lat.      41.4053
Station Long.     141.1691
Station Height(m) 4
Record Time       2011/03/11 14:47:34
Sampling Freq(Hz) 100Hz
Duration Time(s)  300
Dir.              U-D
Scale Factor      3920(gal)/6182761
Max. Acc. (gal)   20.972
Last Correction   2011/03/11 14:47:19
Memo.             
[...]
  -23900   -25526   -26778   -27194   -26340   -24243   -21969   -20626 
  -20192   -20294   -20703   -20727   -19922   -19162   -19187   -18957 
  -17469   -15938   -15614   -15175   -13563   -11692   -10163    -9696 
  -10223    -9555    -7392    -5680    -4991    -4652    -4065    -3271 
   -2801    -2885    -3763    -5685    -8280   -10844   -12865   -14440 
  -16108   -17918   -19369   -20071   -20158   -20240   -20562   -20551 
  -19870   -19119   -18654   -17893   -16417   -14569   -12739   -10926 
   -9020    -6961    -4933    -3539    -3203    -3905    -5553    -7912 
  -10372   -12083   -12642   -12478   -11884   -10628    -9207    -8578 
   -8553    -8434    -8017    -7138    -5803    -4404    -3452    -3436 
   -4389    -5693    -6518    -6571    -6665    -7947   -10022   -11120 
  -10789   -10174   -10042   -10558   -11493   -12401   -13373   -14785 
  -16449   -17728   -18577   -19226   -19252   -18648   -18150   -17817 
  -17082   -15836   -14671   -14245   -14267   -13446   -11195    -8868 
   -8407   -10029   -11809   -12157   -11385   -10078    -8592    -7411 
   -6611    -6715    -8254   -10362   -12100   -13609   -15553   -17719 
  -18720   -18252   -17587   -17364   -16857   -15363   -13683   -13025 
  -12916   -12186   -10722    -9048    -7877    -7930    -9206   -11380 
  -14205   -16834   -18435   -19106   -19189   -18898   -18358   -17280 
  -15600   -14164   -13651   -13606   -13282   -12766   -12771   -13617 
  -14695   -14934   -13615   -11077    -8846    -7998    -7932    -7729 
   -6785    -4613    -2233    -1498    -2302    -3062    -2880    -2013 
   -1617    -2349    -3303    -3681    -3861    -4186    -5047    -6497 
   -6685    -4928    -3205    -2289    -2605    -5059    -8373   -10736 
  -11960   -13158   -15442   -18267   -20530   -22154   -22969   -22078 
  -19318   -16035   -14040   -13976   -14757   -14932   -13950   -12228 
  -10585    -9346    -8730    -9445   -11449   -13588   -15106   -16312 
  -17955   -20092   -21570   -21454   -20571   -20287   -20325   -19572 
  -18490   -18492   -19341   -19348   -17905   -16104   -15082   -15010 
  -15649   -16853   -18353   -19535   -19327   -16870   -12798    -8557 
   -4806    -1788      107      882      925      416     -990    -4002 
   -8465   -12502   -14628   -15756   -17455   -19786   -21923   -23339 
  -23450   -22010   -20080   -18529   -16675   -13830   -10699    -8316 
   -6820    -6018    -5627    -5037    -4427    -5025    -7149    -9671 
  -11701   -13071   -13630   -13220   -12102   -11018   -10224    -9293 
   -8416    -8428    -9878   -12655   -15685   -17681   -18227   -17525 
  -16144   -14827   -14056   -13946   -13726   -12121    -9391    -7327 
   -6706    -6468    -5537    -4101    -2806    -1731     -381     1469 
    2871     2923     2374     2383     2950     2930     1321    -1367 
   -4010    -5967    -6902    -7397    -8850   -11950   -16116   -20291 
  -23676   -25804   -26660   -26547   -25584   -23726   -20985   -17547 
  -14048   -11224    -9259    -8251    -8755   -10819   -13219   -14391 
  -13747   -12210   -11237   -11059   -11084   -10998   -10138    -7981 
   -5955    -6269    -8947   -12303   -15173   -16863   -17201   -17041 
  -17221   -17888   -18646   -18686   -17128   -13832    -9893    -6840 
   -5584    -5988    -6945    -7323    -6923    -6514    -7254    -9478 
  -12023   -13615   -14040   -13625   -13082   -13180   -13671   -13906 
  -14253   -15146   -16027   -16794   -17815   -18722   -19673   -21237 
  -23014   -24593   -25992   -27349   -28635   -28987   -27501   -24121 
  -19336   -14265   -10407    -8427    -7950    -8528    -9699   -10628 
  -10823   -10534   -10112    -9518    -8441    -6776    -4820    -2863 
    -979      789     2478     4229     5824     6645     6083     3612 
    -472    -4423    -6760    -7783    -8422    -9273   -10842   -13228 
  -15806   -17617   -17996   -17266   -16682   -17017   -17458   -16767 
  -15042   -13616   -13799   -16052   -19709   -22664   -22707   -19971 
  -16531   -14459   -14628   -15992   -17082   -17526   -17024   -15778 
  -15418   -16820   -19119   -21112   -21953   -21527   -20056   -17449 
  -13941   -10321    -7154    -4308    -1514      760     1312     -587 
   -4005    -7314    -9824   -11801   -13798   -16146   -18767   -21237 
  -23135   -24224   -24227   -23352   -22371   -21489   -20119   -17908 
  -15551   -14163   -14031   -14648   -15587   -16656   -17606   -18338 
  -18419   -16650   -12782    -7944    -3426     -637      236      526 
     448     -629    -2615    -5460    -8834   -11550   -13064   -13930 
  -14619   -15659   -17613   -20069   -22458   -24424   -24870   -23319 
  -20449   -16868   -13543   -10987    -8393    -5598    -3409    -2447 
   -3022    -4784    -6806    -8387    -9279    -9634    -9883   -10010 
   -9507    -8182    -5887    -3129    -1820    -2268    -2268    -1083 
    -439    -1603    -3823    -5338    -5228    -4067    -3079    -2921 
   -3450    -4524    -6148    -8259   -10865   -13548   -15200   -15348 
  -15037   -15289   -15696   -15491   -14736   -14226   -14753   -16017 
  -17122   -17982   -19009   -20322   -21564   -21691   -20014   -17614 
  -15657   -13871   -12309   -11472   -11169   -11352   -12311   -13767 
  -14874   -15010   -14258   -13251   -12762   -12857   -12938   -12981 
  -13670   -15854   -19539   -22989   -24535   -24460   -23833   -23118 
  -22278   -21186   -20075   -19380   -18798   -17538   -15362   -12543 
   -9674    -7497    -6178    -5575    -5749    -6163    -6189    -6304 
   -7025    -8007    -8821    -9261    -9214    -9161    -9977   -11650 
  -13694   -16288   -18897   -19685   -17765   -14013   -10060    -7230 
   -5539    -4081    -2201     -251      373     -770    -2404    -4180 
   -6631    -8971   -10403   -11298   -12162   -13134   -13821   -13848 
  -13398   -12679   -11992   -11665   -11509   -11605   -12558   -14154 
  -15294   -15054   -13436   -11510    -9947    -8224    -6385    -5472 
   -6056    -7892   -10036   -11891   -14080   -16255   -17391   -18158 
  -18814   -18579   -17632   -16497   -15942   -16881   -19219   -22211 
  -24311   -23490   -19754   -15356   -12336   -11189   -10957   -10381 
   -9512    -9436   -10425   -11921   -13866   -15964   -16857   -15481 
  -12036    -7890    -4840    -3380    -2442    -1284     -460     -728 
   -2213    -5021    -9248   -14356   -19290   -22873   -24768   -25764 
  -26597   -27777   -29058   -29143   -27561   -24121   -18329   -11735 
   -6972    -5212    -5632    -6453    -7430    -9454   -12569   -16193 
  -19087   -19996   -19128   -17237   -14533   -11389    -8595    -6661 
   -5399    -4310    -3333    -2780    -2530    -2659    -4463    -8427 
  -13116   -17254   -19933   -20893   -21868   -23922   -25423   -25130 
  -23901   -22781   -21737   -20109   -17756   -15555   -14241   -13474 
  -12386   -10804    -9783   -10427   -12483   -14333   -14336   -12130 
   -8379    -4248    -1346    -1219    -4313    -9333   -14827   -20387 
  -25198   -28463   -30591   -31919   -32708   -33276   -32588   -29776 
  -25668   -20813   -15533   -11344    -9137    -7912    -6545    -5163 
   -4785    -6441   -10801   -17252   -22564   -24367   -25312   -27535 
  -28495   -27512   -27052   -26959   -25472   -22619   -19159   -15915 
  -13627   -12001   -10622    -9741    -9488    -9863   -10762   -11539 
  -12135   -13377   -15006   -16157   -17148   -18186   -18558   -17989 
  -16387   -13737   -10738    -7323    -2969     1284     4099     5368 
    5389     4312     2114    -1365    -5827    -9997   -12351   -13353 
  -14753   -15572   -13993   -11010    -7446    -3848    -2360    -2505 
   -1496     -390    -2373    -6909   -11635   -16076   -19882   -22194 
  -23191   -23430   -23187   -22803   -22749   -23212   -23581   -23283 
  -22407   -20466   -16599   -11030    -4662     1495     6144     8243 
    7876     6273     4305     1774     -897    -2376    -2124     -785 
     556     1327     1765     2001     1851      961    -1020    -3434 
   -5229    -6597    -8495   -11451   -15077   -18101   -19264   -18529 
  -17136   -16053   -15337   -14792   -13887   -12136    -9888    -8142 
   -7994    -9539   -11417   -12000   -10689    -8705    -8192   -10013 
  -13057   -15574   -16825   -17195   -17222   -16861   -15754   -14196 
  -12500   -10604    -9051    -8684   -10160   -13459   -17299   -20281 
  -22025   -22786   -22615   -21496   -20037   -18822   -17771   -17208 
  -17943   -19706   -21983   -25177   -28580   -30574   -30976   -29895 
  -26415   -20299   -13234    -7220    -2409     1752     4280     4614 
    4046     2811      637    -1436    -3210    -4814    -5503    -5244 
   -4299    -2397      458     3603     5801     6029     4950     4357 
    4780     5243     4734     3203     1457     -326    -2553    -5196 
   -8417   -12233   -16186   -20130   -22964   -22797   -19606   -15055 
  -10859    -7840    -5402    -2898     -907     -708    -3023    -6718 
   -9793   -11737   -13172   -14438   -15401   -15726   -15734   -16480 
  -17932   -18506   -17287   -15202   -13826   -14400   -16864   -19567 
  -21484   -23032   -24238   -24460   -23652   -22552   -21132   -18323 
  -14708   -12536   -12766   -14533   -15781   -14600   -11582    -9097 
   -8683   -10059   -11635   -12712   -14412   -16756   -18488   -19960 
  -20959   -20180   -18933   -18825   -19669   -21444   -23404   -24061 
  -23118   -21501   -20157   -19025   -17822   -17183   -17831   -19748 
  -22170   -23889   -24051   -22888   -21300   -19255   -15887   -11429 
   -7168    -4072    -2381    -1402      151     2711     5369     6918 
    6450     3838      386    -2254    -3388    -3307    -3034    -3684 
   -6025    -9762   -13475   -16518   -19065   -21128   -23394   -26409 
  -28819   -28509   -25063   -20367   -16518   -14080   -12857   -12376 
  -11583   -10200    -9456   -10342   -12652   -15737   -18765   -21004 
  -23021   -26190   -30103   -32791   -33353   -32128   -29554   -26022 
  -21924   -17260   -11950    -7224    -4861    -5019    -6825    -9636 
  -12455   -13829   -13003   -10371    -7205    -4884    -3409    -1881 
    -449     -206    -2051    -5633    -9285   -12118   -14386   -15796 
  -15808   -14174   -11129    -7760    -4722    -2164     -797     -703 
   -1214    -2124    -3321    -4811    -6592    -7849    -7797    -6690 
   -6217    -8717   -14082   -19674   -23824   -26348   -27403   -27487 
  -26895   -25660   -23791   -21063   -17549   -13815   -10845   -10121 
  -12022   -14621   -15963   -16111   -15920   -15940   -16200   -15979 
  -14911   -12791    -8651    -3647     -829     -390    -1296    -3702 
   -6944   -10313   -13551   -16243   -18562   -20760   -23108   -25443 
  -26688   -26697   -26368   -25902   -25077   -24141   -23261   -22171 
  -21072   -20420   -19384   -16520   -12171    -8168    -5477    -3871 
   -2962    -2111     -601     1160     2095     2062     1217     -403 
   -1582    -1352     -625       50      484     -580    -3070    -5667 
   -8494   -12039   -15974   -20320   -25259   -30015   -33443   -34729 
  -33039   -28584   -23114   -17884   -13540   -10978    -9700    -7954 
   -5170    -2127      308     1958     3499     5690     8722    11737 
   13131    12697    11877    10393     6429      746    -5399   -12317 
  -17675   -19631   -20352   -20747   -20941   -21876   -22166   -20492 
  -18547   -18404   -19753   -20630   -20097   -18840   -18031   -18358 
  -19059   -18223   -14420    -8132    -1527     3316     5635     5662 
    3793     1000    -1334    -3729    -7945   -13084   -16456   -17577 
  -17645   -17440   -17269   -16683   -15042   -13054   -11910   -11189 
   -9482    -6534    -3341     -822      467      501       67     -429 
   -1284    -2324    -2877    -3117    -3953    -4170    -1637     2455 
    5850     8512    10737    11742    10596     6947     1027    -6687 
  -15637   -24413   -31218   -35768   -38637   -39990   -39796   -37611 
  -33800   -30066   -26429   -21501   -16233   -12181    -8422    -4903 
   -3332    -3079    -2945    -3463    -4126    -3986    -3608    -3839 
   -4739    -5247    -3770     -384     3082     5667     6743     5403 
    2957     1236     -168    -1994    -4145    -6393    -8130    -8414 
   -7399    -6640    -6689    -6290    -4780    -3058    -2238    -2702 
   -4493    -7312   -10095   -12475   -15549   -19952   -24961   -29217 
  -31388   -30897   -28561   -25995   -24042   -22676   -21685   -20204 
  -17091   -12564    -8324    -5845    -5518    -6980    -9090   -10882 
  -12855   -15700   -19109   -22406   -24899   -26283   -26356   -24605 
  -21901   -20330   -20208   -19869   -18438   -16877   -15698   -14293 
  -13507   -14179   -14421   -12722    -9795    -7325    -6918    -7636 
   -7332    -6124    -5039    -4938    -6311    -7756    -7945    -8053 
   -9461   -11424   -12817   -14037   -15689   -17572   -19606   -21582 
  -22811   -23092   -22470   -20761   -18783   -18116   -18711   -18787 
  -17168   -14187   -10965    -8339    -6251    -5122    -6885   -12102 
  -17986   -22080   -24732   -26530   -27033   -26264   -25134   -24250 
  -23169   -21189   -18846   -17976   -19271   -20878   -20782   -18890 
  -16545   -15361   -15851   -17194   -18602   -19752   -20236   -19751 
  -18467   -16915   -15578   -14587   -13663   -12404   -11183   -10803 
  -11311   -12878   -15650   -18161   -19064   -18744   -17588   -15199 
  -11358    -6845    -3027     -518      673      577     -865    -4290 
   -9404   -14538   -19675   -25511   -30911   -35698   -40509   -43990 
  -45390   -45296   -43699   -41354   -39166   -36475   -32646   -28241 
  -24674   -22629   -20860   -17819   -12876    -6755    -1474     2054 
    4180     4707     4251     3849     2849     1436      766     -205 
   -1834    -2177     -984      744     3090     5388     6156     5738 
    5585     5733     5206     3120    -1063    -6590   -12454   -18830 
  -25013   -29252   -31092   -31003   -29456   -26681   -22255   -16217 
  -10389    -6969    -6358    -7936   -10733   -12432   -11974   -11520 
  -12438   -13809   -15072   -15492   -13774   -10676    -8448    -7810 
   -7892    -7714    -6965    -6183    -6051    -6757    -7677    -6978 
   -3160     2183     5571     5909     4810     3205      862    -1817 
   -4005    -5130    -5116    -4505    -3828    -3521    -3897    -4836 
   -6428    -8596   -10503   -12003   -13927   -16420   -18492   -19218 
  -18794   -18231   -18492   -19786   -21270   -21701   -20197   -17312 
  -15337   -15313   -15635   -14848   -13045   -11554   -11747   -12825 
  -13110   -12477   -11426   -10474    -9940    -9014    -7082    -4499 
   -1276     2312     5222     7033     8106     9264    11525    14217 
   14940    12815     9469     6326     2987    -1605    -7590   -13905 
  -18957   -21681   -22374   -22154   -21356   -19320   -15893   -12102 
   -9512    -9077   -10236   -11614   -12566   -13567   -15000   -16484 
  -17975   -19629   -20760   -20655   -19242   -17093   -15038   -13048 
  -10667    -8028    -5921    -5220    -5862    -7581   -10679   -14831 
  -18751   -21178   -21872   -21405   -20497   -20038   -20005   -19773 
  -20229   -22001   -23598   -23834   -22898   -21079   -18609   -16148 
  -14476   -13903   -13737   -12497    -9891    -7285    -5680    -5350 
   -6345    -7772    -8219    -7393    -6302    -6402    -8778   -13032 
  -17453   -20578   -21869   -21726   -21200   -20936   -20528   -19193 
  -16691   -12757    -7425    -2868    -1152    -1547    -3106    -5566 
   -7965    -9763   -11011   -11518   -11055    -9548    -7551    -6027 
   -5084    -4158    -3283    -3335    -4969    -7365    -9071    -9597 
   -9127    -8372    -8302    -9068   -10370   -11969   -13643   -15403 
  -17138   -18565   -19537   -19981   -20060   -19841   -18943   -16871 
  -13326    -8418    -2853     1902     4590     5061     3076    -1571 
   -7758   -13931   -19248   -23735   -27504   -29764   -30090   -29279 
  -27996   -26902   -26660   -26492   -25323   -23665   -22832   -23528 
  -24775   -24766   -23872   -23727   -24541   -25951   -27061   -27020 
  -26393   -25103   -22404   -19056   -15977   -12881    -9598    -6384 
   -3433    -1460    -1161    -1653    -1439     -783     -884    -1711 
   -2675    -3889    -5632    -7875   -10170   -11319   -10545    -8830 
   -7842    -8400    -9944   -11215   -11998   -13163   -14651   -15495 
  -15570   -15260   -14858   -15015   -15590   -15331   -13740   -11266 
   -8395    -5588    -3426    -2209    -1692    -2267    -4475    -7661 
  -11453   -15843   -20085   -24047   -28120   -31503   -32980   -32010 
  -28512   -23773   -20420   -19411   -19041   -17558   -14637   -11370 
   -9486    -9229    -9611   -10151   -10269    -9631    -9394   -10790 
  -13572   -16187   -17159   -16399   -14260   -10880    -7129    -4317 
   -3354    -4211    -5635    -6430    -6585    -6365    -5700    -4877 
   -4306    -3562    -2027       -1     2146     4434     6109     6217 
    4604     1621    -1791    -4647    -6679    -8358   -10849   -14762 
  -19228   -23089   -25804   -27256   -27965   -28809   -29546   -28908 
  -26221   -22095   -18006   -15068   -13324   -12643   -13330   -14387 
  -13135    -9935    -8174    -8051    -8250    -8892    -8783    -7051 
   -4899    -3452    -3420    -5024    -7469    -9383    -9885    -9443 
   -9472   -11067   -13594   -14922   -13761   -10899    -7509    -3698 
     -14     2113     2943     4073     5427     5522     3601      369 
   -2560    -4056    -4038    -3012    -1929    -1571    -1668    -1412 
    -893    -1150    -2663    -4928    -7368    -9901   -12939   -16557 
  -19837   -21882   -22354   -20893   -18072   -15419   -13394   -11504 
   -9536    -8198    -8668   -10364   -11182    -9965    -7232    -4918 
   -4521    -5042    -4504    -2577     -662      278      349     -454 
   -1452    -1367       40     2281     4033     3555     1294     -794 
   -2050    -3230    -5631    -9054   -11982   -15385   -20088   -23760 
  -25247   -25529   -25763   -26800   -27808   -26808   -22994   -17739 
  -13237   -10403    -9026    -8864    -9942   -12167   -14662   -16500 
  -17542   -17961   -18232   -19211   -21337   -23629   -24103   -22402 
  -20591   -20237   -21122   -22831   -24983   -26928   -28876   -31216 
  -33094   -33453   -31642   -27503   -22230   -17693   -14543   -11734 
   -7993    -3251     1093     3794     5689     7884    10198    12555 
   14219    13826    11907     9764     7422     4608     1399    -2196 
   -6227    -9994   -12299   -13455   -14852   -16831   -18989   -20932 
  -21871   -20900   -18270   -15246   -12362    -9320    -5922    -2694 
    -821     -669    -1753    -3813    -5971    -6805    -6121    -4558 
   -2336      113     2013     2998     2580      517    -2018    -3996 
   -5720    -7549    -9565   -11831   -14419   -17378   -20027   -21367 
  -21101   -19541   -17421   -15789   -15241   -15156   -14718   -14175 
  -13552   -11963    -9346    -6705    -4903    -4599    -6090    -8833 
  -11856   -14129   -14840   -13176    -9161    -5924    -5720    -5376 
   -2153     2024     3944     2067    -2430    -7514   -12068   -15652 
  -19309   -24217   -29502   -33752   -36314   -36994   -36197   -34072 
  -30274   -26157   -24032   -23446   -22751   -22180   -21668   -20548 
  -19142   -17306   -14151    -9199    -3471      552      992    -2314 
   -7369   -11337   -13615   -15475   -18064   -21485   -23976   -23951 
