Origin Time       2011/03/11 14:46:00
Lat.              38.103
Long.             142.860
Depth. (km)       24
Mag.              9.0
Station Code      AOM029
Station Lat.      40.5764
Station Long.     140.2968
Station Height(m) 123
Record Time       2011/03/11 14:47:26
Sampling Freq(Hz) 100Hz
Duration Time(s)  300
Dir.              U-D
Scale Factor      3920(gal)/6182761
Max. Acc. (gal)   14.174
Last Correction   2011/03/11 14:47:11
Memo.             
[...]
  -10994   -10395   -10365   -10809   -11380   -12027   -12627   -12888 
  -12975   -13366   -13931   -14307   -14712   -15303   -15887   -16370 
  -16628   -16623   -16558   -16521   -16504   -16483   -16186   -15358 
  -14244   -13407   -13189   -13670   -14761   -16078   -17306   -18447 
  -19336   -19754   -19779   -19367   -18333   -16794   -15190   -14118 
  -13652   -13121   -12155   -10934    -9390    -7428    -5600    -4574 
   -4288    -4341    -4680    -5245    -5554    -5257    -4487    -3453 
   -2302    -1168     -114      661     1059     1479     2160     2776 
    3186     3498     3574     3499     3616     3720     3417     2823 
    2198     1672     1353     1202     1036      714      147     -684 
   -1675    -2812    -4273    -6133    -8321   -10849   -13600   -16137 
  -18111   -19373   -19740   -19436   -19070   -18880   -19030   -19912 
  -21408   -23075   -24778   -26211   -26816   -26716   -26518   -26229 
  -25625   -25036   -24682   -24248   -23453   -22307   -20865   -19169 
  -17530   -16489   -16289   -16683   -17196   -17448   -17314   -16795 
  -16030   -15412   -15159   -15022   -14734   -14421   -14449   -15031 
  -16066   -17273   -18341   -18969   -19155   -19245   -19404   -19576 
  -19664   -19515   -19350   -19630   -20309   -21117   -21870   -22255 
  -22120   -21559   -20929   -20824   -21360   -22104   -22724   -23006 
  -22680   -21795   -20872   -20209   -19663   -19165   -18664   -17982 
  -17116   -16119   -15065   -14326   -14149   -14401   -15108   -16369 
  -17806   -18939   -19709   -20121   -19985   -19186   -17776   -15936 
  -13857   -11781   -10152    -9300    -9239    -9819   -10611   -11289 
  -12120   -13303   -14522   -15594   -16500   -17082   -17376   -17519 
  -17438   -17134   -16767   -16284   -15517   -14740   -14422   -14492 
  -14668   -14933   -15218   -15427   -15549   -15437   -15031   -14461 
  -13691   -12748   -12053   -11909   -11966   -11653   -10953   -10232 
   -9574    -8935    -8405    -7973    -7671    -7500    -7076    -6368 
   -5926    -5899    -6211    -6921    -7784    -8653    -9631   -10504 
  -11052   -11217   -10803    -9821    -8638    -7432    -6233    -5495 
   -5632    -6323    -6986    -7269    -6990    -6288    -5618    -5212 
   -5025    -5055    -5275    -5637    -6199    -7178    -8763   -10349 
  -10999   -10871   -10566   -10323   -10679   -11825   -13290   -14923 
  -16424   -17271   -17720   -18040   -17875   -17291   -16856   -16973 
  -17760   -18820   -19618   -20003   -19825   -18995   -17755   -16294 
  -14818   -13574   -12560   -11814   -11506   -11609   -11816   -11542 
  -10566    -9523    -8988    -8946    -9426   -10570   -12295   -14342 
  -16357   -17921   -18831   -19261   -19477   -19848   -20887   -22541 
  -24026   -24868   -25350   -25902   -26566   -27153   -27725   -28459 
  -29149   -29423   -29192   -28612   -27712   -26366   -24694   -22920 
  -21182   -19830   -18926   -18070   -17100   -16008   -14942   -14090 
  -13193   -12154   -10945    -9271    -7583    -6618    -6344    -6442 
   -6571    -6372    -5721    -4908    -4400    -4121    -3536    -2316 
    -616     1066     2229     2569     2293     1771      985      372 
     610     1166     1010       70    -1124    -2382    -3715    -4589 
   -4441    -3645    -2911    -2595    -2973    -3907    -4766    -5359 
   -5700    -5523    -4920    -4317    -4010    -3955    -3768    -3626 
   -4369    -6104    -8266   -10573   -12669   -14019   -14566   -14624 
  -14539   -14741   -15498   -16292   -16326   -15901   -15721   -15605 
  -15357   -15236   -15340   -15624   -15889   -15968   -16050   -16029 
  -15662   -15560   -16175   -17100   -18145   -19069   -19547   -19957 
  -20496   -21066   -21927   -22894   -23351   -23228   -22913   -22536 
  -21988   -21458   -21226   -21293   -21460   -21621   -21988   -22577 
  -23023   -23192   -23146   -22902   -22423   -21509   -20257   -19040 
  -17695   -15954   -14474   -13840   -13404   -12600   -11660   -10685 
   -9963   -10121   -11229   -12831   -14178   -14677   -14386   -13566 
  -12861   -12953   -13434   -13884   -14655   -15634   -16457   -17318 
  -18333   -19147   -19411   -19097   -18321   -17226   -16181   -15624 
  -15532   -15607   -15684   -15544   -14856   -13405   -11307    -9103 
   -7203    -5498    -4134    -3502    -3140    -2320    -1266     -533 
     -55      472      683       93     -779    -1345    -1947    -2950 
   -4089    -4978    -5739    -6712    -7754    -8699    -9801   -11054 
  -12317   -13665   -14706   -14915   -14416   -13412   -12076   -11087 
  -11136   -12057   -12975   -13412   -13501   -13113   -12193   -11383 
  -11314   -12047   -13154   -14345   -15862   -17430   -18288   -18512 
  -18397   -17714   -16497   -15164   -14099   -13454   -12864   -11829 
  -10418    -8995    -7630    -6608    -6708    -7868    -9142   -10283 
  -11507   -12644   -13337   -13421   -13311   -13338   -13197   -12993 
  -13229   -13753   -14178   -14611   -15266   -16014   -16546   -16830 
  -17101   -17169   -16737   -16080   -15444   -14775   -14104   -13530 
  -13272   -13485   -13949   -14535   -15288   -16030   -16752   -17494 
  -17938   -18155   -18433   -18493   -18179   -17835   -17468   -16833 
  -16148   -15605   -14915   -13769   -12235   -10784    -9709    -8873 
   -8282    -8062    -8035    -7949    -7823    -7789    -7821    -7678 
   -7190    -6724    -6692    -7045    -7865    -9248   -10878   -12370 
  -13437   -14095   -14750   -15522   -16056   -16276   -16470   -16730 
  -16957   -16980   -16799   -16812   -17007   -16822   -16382   -16397 
  -16756   -16819   -16710   -16716   -16504   -15888   -15137   -14539 
  -14219   -14082   -13905   -13620   -13404   -13394   -13518   -13731 
  -14086   -14495   -14798   -15084   -15608   -16412   -17419   -18685 
  -20146   -21552   -22755   -23743   -24597   -25293   -25579   -25384 
  -24897   -24255   -23565   -22910   -22391   -22147   -22092   -21912 
  -21386   -20506   -19312   -17805   -16198   -14904   -14108   -13757 
  -13870   -14429   -15069   -15458   -15678   -15635   -15111   -14473 
  -14110   -13978   -14061   -14257   -14481   -14851   -15064   -14767 
  -14254   -13818   -13428   -13159   -13074   -12932   -12395   -11324 
   -9882    -8565    -7888    -7864    -8260    -9046   -10184   -11408 
  -12363   -12899   -12930   -12210   -10895    -9632    -8780    -8304 
   -7972    -7522    -7023    -6553    -5971    -5412    -5157    -5230 
   -5488    -5740    -5868    -5882    -5881    -5958    -6050    -6167 
   -6513    -7116    -7782    -8470    -9091    -9278    -9079    -9028 
   -9257    -9609   -10057   -10383   -10414   -10460   -10894   -11690 
  -12478   -12811   -12325   -10874    -8837    -6917    -5382    -4106 
   -3026    -2026    -1019     -208      116     -229    -1239    -2632 
   -4045    -5309    -6450    -7576    -8839   -10271   -11585   -12376 
  -12620   -12650   -12718   -12867   -13027   -13038   -12729   -12151 
  -11668   -11452   -11311   -11132   -10832   -10223    -9439    -8870 
   -8569    -8320    -8083    -7965    -8123    -8773   -10021   -11687 
  -13331   -14530   -15268   -15797   -16221   -16484   -16555   -16498 
  -16466   -16587   -16892   -17422   -18110   -18623   -18847   -19071 
  -19433   -19818   -20135   -20428   -20858   -21470   -22030   -22297 
  -22293   -22019   -21358   -20405   -19437   -18774   -18666   -18970 
  -19357   -19677   -19919   -20163   -20474   -20802   -21063   -21194 
  -21294   -21529   -21958   -22618   -23409   -24003   -24210   -24088 
  -23711   -23143   -22508   -21813   -20817   -19293   -17303   -15154 
  -13179   -11563   -10341    -9547    -9230    -9320    -9580    -9696 
   -9481    -9116    -8949    -9077    -9534   -10454   -11681   -12834 
  -13651   -13925   -13571   -12791   -11946   -11454   -11599   -12238 
  -12964   -13464   -13590   -13395   -13018   -12493   -11836   -11037 
   -9924    -8387    -6663    -5057    -3566    -2167    -1021     -123 
     576      783      186    -1139    -2797    -4283    -5333    -6036 
   -6488    -6778    -7229    -7971    -8645    -8990    -9097    -9151 
   -9320    -9614   -10030   -10778   -11903   -13142   -14298   -15230 
  -15603   -15186   -14268   -13376   -12891   -13024   -13631   -14332 
  -14881   -15093   -14811   -14184   -13574   -13245   -13411   -14278 
  -15748   -17450   -19050   -20413   -21556   -22450   -23017   -23233 
  -23053   -22535   -21849   -20974   -19810   -18390   -16725   -14771 
  -12660   -10744    -9300    -8319    -7600    -6922    -6248    -5759 
   -5511    -5318    -5028    -4536    -3735    -2723    -1865    -1500 
   -1677    -2275    -3231    -4563    -6216    -7931    -9488   -10845 
  -11855   -12312   -12302   -12179   -12266   -12621   -13202   -14092 
  -15276   -16419   -17081   -17087   -16553   -15588   -14241   -12728 
  -11355   -10247    -9272    -8187    -6889    -5391    -3791    -2420 
   -1643    -1581    -2127    -3073    -4336    -5964    -7774    -9347 
  -10568   -11607   -12418   -12934   -13393   -13902   -14247   -14212 
  -13752   -13124   -12803   -13032   -13667   -14307   -14526   -14136 
  -13060   -11324    -9385    -7804    -6660    -5820    -5426    -5559 
   -5893    -6164    -6488    -6899    -7237    -7546    -8056    -8850 
   -9776   -10619   -11393   -12333   -13471   -14512   -15173   -15391 
  -15275   -15000   -14700   -14478   -14284   -13788   -12782   -11515 
  -10380    -9577    -9051    -8558    -7856    -6758    -5171    -3474 
   -2402    -2307    -2950    -3904    -4840    -5555    -5942    -6100 
   -6310    -6748    -7342    -7969    -8620    -9243    -9686    -9932 
  -10095   -10218   -10230   -10053    -9735    -9391    -9043    -8708 
   -8482    -8344    -8156    -7957    -7882    -7958    -8142    -8271 
   -8100    -7599    -7033    -6737    -6927    -7619    -8584    -9508 
  -10280   -11075   -12223   -13786   -15356   -16547   -17274   -17528 
  -17431   -17329   -17477   -17762   -17894   -17658   -16985   -16060 
  -15159   -14332   -13624   -13231   -13208   -13427   -13718   -13861 
  -13829   -13851   -13910   -13666   -13008   -12109   -11095   -10055 
   -9167    -8480    -7712    -6581    -5225    -4084    -3516    -3589 
   -4128    -4879    -5547    -5875    -5878    -5802    -5847    -6062 
   -6336    -6540    -6670    -6789    -6930    -7032    -6936    -6489 
   -5669    -4624    -3593    -2774    -2330    -2435    -3029    -3867 
   -5003    -6675    -8713   -10606   -12093   -13285   -14292   -15198 
  -16150   -17077   -17641   -17550   -16779   -15675   -14748   -14307 
  -14481   -15301   -16536   -17816   -18865   -19462   -19464   -18935 
  -18078   -17191   -16592   -16314   -16115   -15734   -14902   -13484 
  -11681    -9899    -8446    -7301    -6313    -5593    -5346    -5620 
   -6432    -7670    -8926    -9713    -9760    -9191    -8460    -8030 
   -8160    -8798    -9635   -10439   -11133   -11584   -11765   -11896 
  -12168   -12510   -12718   -12736   -12576   -12061   -11021    -9580 
   -7994    -6453    -5158    -4275    -3823    -3770    -4082    -4641 
   -5357    -6236    -7175    -7985    -8603    -9056    -9362    -9535 
   -9611    -9720   -10105   -10918   -12128   -13687   -15534   -17410 
  -18909   -19694   -19647   -18887   -17650   -16181   -14768   -13736 
  -13219   -13034   -12903   -12630   -12090   -11349   -10714   -10391 
  -10238   -10125   -10187   -10533   -11140   -12031   -13254   -14644 
  -15759   -16207   -15976   -15383   -14871   -14742   -14970   -15407 
  -15963   -16502   -16872   -17154   -17568   -18128   -18658   -19068 
  -19347   -19407   -19063   -18157   -16774   -15222   -13723   -12372 
  -11295   -10607   -10330   -10395   -10704   -11242   -11966   -12667 
  -13156   -13486   -13792   -14070   -14249   -14413   -14726   -15207 
  -15760   -16213   -16267   -15721   -14774   -13892   -13359   -13092 
  -12871   -12546   -12018   -11260   -10405    -9799    -9774   -10289 
  -11016   -11650   -11963   -11958   -11928   -12141   -12633   -13267 
  -13823   -14101   -14025   -13770   -13623   -13632   -13647   -13590 
  -13445   -13184   -12771   -12239   -11770   -11536   -11600   -12008 
  -12688   -13470   -14251   -14842   -15054   -15041   -15046   -15078 
  -15142   -15379   -15915   -16727   -17595   -18278   -18745   -19057 
  -19137   -18889   -18401   -17854   -17302   -16663   -15919   -15174 
  -14432   -13599   -12724   -12018   -11690   -11825   -12404   -13330 
  -14369   -15280   -16092   -16939   -17743   -18345   -18663   -18700 
  -18596   -18526   -18454   -18120   -17320   -16105   -14729   -13576 
  -12855   -12359   -11751   -10888    -9761    -8466    -7183    -6043 
   -5106    -4440    -4073    -3949    -4005    -4243    -4649    -5254 
   -6207    -7578    -9243   -10994   -12529   -13564   -14092   -14334 
  -14524   -14804   -15103   -15207   -15010   -14673   -14481   -14565 
  -14877   -15299   -15610   -15557   -15120   -14494   -13807   -13059 
  -12302   -11736   -11578   -11838   -12263   -12552   -12497   -11976 
  -11083   -10192    -9575    -9143    -8730    -8267    -7646    -6750 
   -5594    -4312    -3153    -2451    -2377    -2789    -3350    -3628 
   -3360    -2779    -2354    -2274    -2466    -2793    -3007    -2912 
   -2723    -2807    -3253    -3995    -4978    -6071    -7188    -8456 
  -10017   -11823   -13692   -15435   -17062   -18838   -20966   -23377 
  -25760   -27716   -28985   -29548   -29632   -29671   -30038   -30804 
  -31806   -32864   -33824   -34461   -34563   -34134   -33340   -32448 
  -31802   -31387   -30708   -29387   -27476   -25288   -23239   -21631 
  -20513   -19783   -19350   -19113   -18932   -18682   -18177   -17222 
  -15927   -14655   -13635   -12921   -12587   -12631   -12913   -13357 
  -13841   -14176   -14524   -15228   -16278   -17485   -18715   -19704 
  -20159   -20064   -19620   -19034   -18415   -17754   -16983   -16125 
  -15291   -14521   -13810   -13120   -12230   -10957    -9484    -8249 
   -7689    -8020    -9135   -10651   -12087   -13088   -13514   -13429 
  -13046   -12475   -11744   -11066   -10601   -10201    -9782    -9470 
   -9320    -9233    -9006    -8456    -7566    -6437    -5189    -4037 
   -3339    -3321    -3820    -4458    -4911    -5048    -5003    -4994 
   -5107    -5370    -5786    -6210    -6534    -6870    -7368    -7999 
   -8618    -9069    -9273    -9297    -9294    -9412    -9710   -10143 
  -10646   -11162   -11597   -12014   -12624   -13438   -14240   -14837 
  -15241   -15672   -16237   -16803   -17288   -17708   -18098   -18635 
  -19581   -21014   -22725   -24377   -25643   -26384   -26753   -26940 
  -27050   -27214   -27485   -27740   -27763   -27426   -26877   -26329 
  -25810   -25326   -24947   -24696   -24486   -24104   -23335   -22116 
  -20596   -19070   -17748   -16659   -15725   -14832   -14022   -13488 
  -13260   -13216   -13288   -13360   -13211   -12673   -11752   -10686 
   -9953    -9908   -10404   -10987   -11206   -10768    -9813    -8781 
   -7926    -7389    -7380    -7991    -9159   -10796   -12748   -14771 
  -16596   -17985   -18775   -19036   -19149   -19405   -19669   -19607 
  -18998   -17909   -16611   -15275   -14020   -12998   -12123   -11140 
  -10031    -9027    -8346    -7937    -7472    -6725    -5840    -5181 
   -5057    -5555    -6487    -7395    -7821    -7703    -7429    -7459 
   -8007    -8961    -9965   -10702   -11196   -11667   -12193   -12681 
  -12922   -12681   -12016   -11357   -11107   -11325   -11836   -12332 
  -12423   -11947   -11119   -10235    -9542    -9295    -9627   -10429 
  -11441   -12324   -12732   -12451   -11557   -10394    -9323    -8606 
   -8480    -8999    -9848   -10666   -11350   -11927   -12432   -12909 
  -13428   -13988   -14448   -14768   -15081   -15459   -15871   -16260 
  -16629   -17122   -17876   -18785   -19605   -20227   -20615   -20718 
  -20599   -20386   -20109   -19711   -19112   -18350   -17555   -16762 
  -15993   -15222   -14190   -12769   -11295   -10188    -9651    -9680 
  -10060   -10451   -10558   -10256    -9644    -8928    -8268    -7796 
   -7637    -7835    -8333    -8950    -9439    -9779   -10231   -10989 
  -12021   -13263   -14692   -16173   -17444   -18262   -18527   -18339 
  -17890   -17343   -16863   -16578   -16548   -16792   -17290   -17992 
  -18757   -19344   -19599   -19577   -19384   -19142   -19027   -19115 
  -19296   -19455   -19612   -19839   -20070   -20115   -19856   -19318 
  -18610   -17926   -17497   -17412   -17527   -17508   -16948   -15632 
  -13659   -11424    -9548    -8454    -8058    -8048    -8193    -8395 
   -8570    -8550    -8261    -7819    -7360    -6958    -6647    -6463 
   -6516    -6876    -7410    -7902    -8198    -8158    -7826    -7593 
   -7800    -8305    -8765    -9053    -9172    -9172    -9203    -9399 
   -9743   -10124   -10506   -11014   -11769   -12707   -13694   -14666 
  -15512   -15984   -15969   -15720   -15588   -15705   -16015   -16364 
  -16613   -16742   -16781   -16794   -16777   -16562   -16137   -15755 
  -15483   -15171   -14795   -14405   -13960   -13415   -12763   -12044 
  -11337   -10678   -10060    -9459    -8839    -8251    -7862    -7828 
   -8159    -8624    -8882    -8830    -8572    -8246    -8078    -8204 
   -8456    -8607    -8581    -8345    -7921    -7516    -7359    -7418 
   -7389    -6954    -6058    -5007    -4195    -3754    -3582    -3567 
   -3615    -3629    -3647    -3799    -4137    -4524    -4658    -4426 
   -4177    -4354    -5036    -6052    -7181    -8163    -8883    -9422 
   -9860   -10283   -10751   -11210   -11669   -12226   -12802   -13190 
  -13321   -13331   -13407   -13671   -14102   -14491   -14707   -14852 
  -14970   -14975   -14986   -15237   -15778   -16582   -17543   -18313 
  -18523   -18068   -17115   -15999   -15060   -14438   -14002   -13543 
  -12939   -12087   -10981    -9815    -8727    -7718    -6920    -6511 
   -6530    -6942    -7660    -8492    -9186    -9558    -9627    -9663 
   -9930   -10353   -10743   -11108   -11402   -11531   -11595   -11707 
  -11835   -11914   -11963   -12130   -12500   -12958   -13358   -13613 
  -13680   -13597   -13437   -13204   -12852   -12361   -11737   -10945 
   -9917    -8681    -7416    -6379    -5755    -5537    -5508    -5393 
   -5057    -4551    -4062    -3747    -3618    -3620    -3677    -3731 
   -3769    -3785    -3826    -3979    -4195    -4411    -4710    -5180 
   -5812    -6462    -6889    -7047    -7136    -7313    -7654    -8245 
   -8956    -9472    -9702    -9801    -9954   -10323   -10991   -11892 
  -12802   -13429   -13624   -13469   -13137   -12740   -12312   -11821 
  -11189   -10397    -9585    -8949    -8566    -8306    -7916    -7229 
   -6287    -5344    -4752    -4734    -5224    -5905    -6479    -6931 
   -7314    -7570    -7747    -7914    -8013    -8067    -8163    -8219 
   -8001    -7370    -6464    -5574    -4950    -4659    -4512    -4258 
   -3798    -3191    -2622    -2308    -2336    -2558    -2830    -3272 
   -4032    -4987    -5873    -6460    -6622    -6501    -6473    -6852 
   -7716    -8930   -10091   -10684   -10548    -9911    -9097    -8514 
   -8455    -8803    -9251    -9608    -9821    -9901    -9934   -10069 
  -10358   -10615   -10625   -10546   -10823   -11668   -12909   -14235 
  -15404   -16387   -17333   -18321   -19227   -19867   -20109   -19797 
