Origin Time       2011/03/11 14:46:00
Lat.              38.103
Long.             142.860
Depth. (km)       24
Mag.              9.0
Station Code      AOM001
Station Lat.      41.5269
Station Long.     140.9246
Station Height(m) 38
Record Time       2011/03/11 14:47:46
Sampling Freq(Hz) 100Hz
Duration Time(s)  300
Dir.              U-D
Scale Factor      3920(gal)/6182761
Max. Acc. (gal)   6.138
Last Correction   2011/03/11 14:47:31
Memo.             
[...]
  -10502   -10181   -10150   -10291   -10390   -10359   -10182    -9943 
   -9738    -9556    -9439    -9502    -9758   -10067   -10229   -10262 
  -10443   -10806   -11066   -11093   -11045   -11057   -11042   -10940 
  -10884   -10947   -11092   -11328   -11669   -12100   -12581   -13025 
  -13369   -13643   -13893   -14011   -13846   -13496   -13250   -13287 
  -13525   -13734   -13703   -13454   -13260   -13203   -13030   -12616 
  -12078   -11524   -11069   -10803   -10681   -10573   -10380   -10088 
   -9784    -9650    -9800   -10099   -10377   -10607   -10784   -10940 
  -11075   -11051   -10829   -10501   -10100    -9752    -9620    -9536 
   -9283    -9086    -9244    -9683   -10172   -10574   -10862   -11137 
  -11385   -11308   -10848   -10438   -10353   -10343   -10117    -9777 
   -9495    -9204    -8955    -8953    -9120    -9274    -9508    -9916 
  -10346   -10723   -11095   -11416   -11713   -12112   -12554   -12941 
  -13298   -13528   -13502   -13302   -13033   -12660   -12113   -11490 
  -10970   -10456    -9742    -8954    -8349    -7938    -7634    -7400 
   -7125    -6749    -6497    -6586    -6914    -7292    -7654    -7959 
   -8212    -8538    -8972    -9374    -9744   -10152   -10476   -10747 
  -11138   -11487   -11646   -11832   -12146   -12490   -12768   -12819 
  -12642   -12441   -12258   -12017   -11775   -11586   -11353   -11025 
  -10692   -10373   -10033    -9737    -9586    -9704   -10057   -10282 
  -10117    -9800    -9648    -9556    -9343    -9150    -9074    -8957 
   -8701    -8394    -8209    -8177    -8208    -8419    -8944    -9613 
  -10180   -10603   -11048   -11641   -12256   -12645   -12685   -12570 
  -12588   -12713   -12841   -13014   -13130   -12990   -12604   -12148 
  -11792   -11606   -11610   -11784   -11992   -12074   -11978   -11819 
  -11753   -11706   -11476   -11183   -11130   -11231   -11200   -11175 
  -11494   -12107   -12644   -12782   -12550   -12241   -11930   -11574 
  -11335   -11243   -11138   -11001   -10832   -10573   -10277   -10030 
   -9817    -9548    -9191    -8845    -8523    -8168    -7919    -7863 
   -7816    -7603    -7167    -6604    -6203    -6106    -6165    -6279 
   -6447    -6558    -6510    -6339    -6160    -6169    -6471    -6925 
   -7376    -7842    -8354    -8815    -9145    -9371    -9506    -9617 
   -9864   -10269   -10677   -10886   -10778   -10513   -10414   -10566 
  -10706   -10551   -10127    -9654    -9202    -8757    -8497    -8545 
   -8671    -8658    -8573    -8513    -8490    -8484    -8470    -8491 
   -8556    -8598    -8621    -8629    -8594    -8571    -8553    -8517 
   -8520    -8441    -8164    -7941    -8066    -8511    -9016    -9372 
   -9657    -9955   -10134   -10224   -10380   -10567   -10682   -10611 
  -10267    -9869    -9763    -9943   -10127   -10223   -10399   -10704 
  -10954   -11096   -11352   -11888   -12614   -13284   -13686   -13878 
  -14068   -14293   -14428   -14351   -14084   -13824   -13737   -13839 
  -13927   -13747   -13479   -13381   -13153   -12606   -12174   -12102 
  -12195   -12398   -12688   -12843   -12843   -12828   -12741   -12534 
  -12261   -11810   -11050   -10145    -9350    -8757    -8403    -8239 
   -8107    -7966    -7888    -7927    -8149    -8525    -8949    -9445 
  -10035   -10658   -11347   -12085   -12710   -13209   -13663   -13956 
  -13975   -13790   -13506   -13156   -12691   -12071   -11297   -10366 
   -9464    -8923    -8705    -8506    -8256    -8017    -7829    -7746 
   -7726    -7720    -7847    -8280    -9031    -9829   -10421   -10881 
  -11437   -12179   -12881   -13238   -13305   -13264   -13083   -12728 
  -12296   -11880   -11503   -11092   -10606   -10171    -9882    -9763 
   -9848    -9938    -9766    -9324    -8711    -8079    -7649    -7492 
   -7464    -7340    -7039    -6753    -6669    -6655    -6528    -6382 
   -6357    -6403    -6464    -6577    -6752    -6966    -7242    -7616 
   -8017    -8338    -8514    -8523    -8490    -8547    -8614    -8537 
   -8257    -7936    -7843    -7972    -8180    -8510    -9018    -9691 
  -10623   -11783   -12808   -13467   -13994   -14549   -14897   -14976 
  -15116   -15452   -15782   -16013   -16164   -16201   -16151   -16045 
  -15844   -15592   -15347   -15006   -14476   -13868   -13264   -12544 
  -11716   -11031   -10605   -10385   -10358   -10546   -11012   -11683 
  -12275   -12635   -12878   -13156   -13387   -13287   -12784   -12084 
  -11373   -10779   -10348   -10020    -9851    -9976   -10355   -10791 
  -11093   -11148   -11034   -10950   -10930   -10828   -10461    -9815 
   -9169    -8712    -8335    -8043    -7905    -7858    -8000    -8480 
   -9092    -9478    -9565    -9552    -9541    -9478    -9407    -9367 
   -9232    -9013    -8874    -8763    -8509    -8183    -7988    -7947 
   -7940    -7913    -7906    -8052    -8569    -9483   -10498   -11322 
  -11908   -12291   -12546   -12824   -13029   -12907   -12570   -12309 
  -12128   -11880   -11523   -11126   -10799   -10640   -10581   -10410 
  -10101    -9858    -9805    -9907   -10085   -10248   -10249   -10038 
   -9833    -9685    -9347    -8992    -8998    -9204    -9431    -9821 
  -10307   -10774   -11305   -11828   -12156   -12364   -12690   -13041 
  -13117   -12976   -12787   -12461   -12081   -11883   -11786   -11666 
  -11498   -11082   -10368    -9685    -9253    -8955    -8805    -8993 
   -9377    -9607    -9615    -9486    -9196    -8811    -8517    -8270 
   -7897    -7483    -7244    -7264    -7576    -8155    -8796    -9207 
   -9262    -9162    -9204    -9347    -9321    -9069    -8779    -8599 
   -8490    -8307    -8073    -8021    -8272    -8695    -9228    -9918 
  -10613   -11110   -11423   -11605   -11725   -11924   -12125   -12170 
  -12211   -12477   -12846   -12947   -12753   -12700   -12976   -13215 
  -13096   -12658   -12077   -11604   -11456   -11589   -11937   -12442 
  -12801   -12848   -12814   -12860   -12910   -12924   -12848   -12647 
  -12593   -12857   -13045   -12901   -12722   -12638   -12498   -12318 
  -12194   -12141   -12206   -12381   -12493   -12417   -12227   -12028 
  -11919   -11980   -11968   -11574   -11036   -10790   -10889   -11118 
  -11371   -11742   -12218   -12646   -13031   -13415   -13747   -14019 
  -14237   -14395   -14460   -14344   -14053   -13799   -13749   -13712 
  -13450   -13105   -12892   -12733   -12563   -12514   -12608   -12766 
  -13020   -13345   -13572   -13596   -13439   -13133   -12761   -12498 
  -12321   -12016   -11681   -11610   -11787   -11944   -11860   -11496 
  -10976   -10483   -10114    -9891    -9829    -9860    -9933   -10174 
  -10606   -10977   -11093   -10998   -10831   -10685   -10586   -10466 
  -10240   -10049   -10054   -10042    -9840    -9685    -9664    -9509 
   -9167    -8993    -9297   -10056   -11003   -11798   -12324   -12778 
  -13263   -13650   -13838   -13767   -13431   -13071   -12855   -12494 
  -11789   -11087   -10788   -10794   -10644   -10188    -9708    -9350 
   -9023    -8656    -8256    -7982    -8014    -8226    -8351    -8499 
   -8967    -9611   -10041   -10064    -9688    -9205    -9016    -9113 
   -9152    -9023    -8948    -9123    -9529   -10025   -10492   -10908 
  -11283   -11611   -11895   -11993   -11701   -11229   -11006   -10987 
  -10866   -10681   -10510   -10181    -9749    -9489    -9352    -9082 
   -8536    -7679    -6702    -5954    -5534    -5357    -5470    -5884 
   -6445    -7048    -7686    -8440    -9386   -10272   -10828   -11236 
  -11707   -12218   -12736   -13096   -13093   -12899   -12740   -12384 
  -11645   -10954   -10694   -10489    -9930    -9312    -9005    -8883 
   -8678    -8412    -8293    -8313    -8270    -8218    -8389    -8792 
   -9217    -9403    -9288    -9087    -8881    -8679    -8690    -8896 
   -9050    -9196    -9517    -9916   -10094   -10116   -10436   -11046 
  -11485   -11565   -11341   -10937   -10471    -9901    -9309    -8892 
   -8550    -8066    -7477    -6993    -6726    -6609    -6659    -7000 
   -7550    -8162    -8859    -9591   -10198   -10610   -10815   -10827 
  -10733   -10606   -10499   -10516   -10661   -10826   -10900   -10796 
  -10574   -10383   -10258   -10161   -10036    -9899    -9828    -9740 
   -9554    -9491    -9700    -9812    -9454    -8842    -8384    -8183 
   -8196    -8422    -8767    -9035    -9259    -9608    -9996   -10387 
  -10928   -11552   -12101   -12534   -12783   -12864   -12883   -12893 
  -12888   -12766   -12469   -12126   -11930   -11997   -12264   -12551 
  -12716   -12805   -12985   -13136   -12988   -12770   -12832   -13020 
  -13062   -12828   -12211   -11368   -10730   -10387    -9959    -9320 
   -8768    -8473    -8371    -8239    -7834    -7243    -6764    -6646 
   -7142    -8165    -9239   -10071   -10696   -11355   -12183   -12845 
  -13118   -13258   -13410   -13449   -13269   -12864   -12346   -11891 
  -11703   -11850   -12040   -11896   -11312   -10388    -9411    -8689 
   -8079    -7423    -7093    -7371    -8093    -9053   -10093   -11169 
  -12204   -12834   -12989   -13068   -13143   -12988   -12659   -12394 
  -12328   -12500   -12858   -13235   -13491   -13597   -13469   -13159 
  -12866   -12460   -11768   -11046   -10451    -9743    -8795    -7809 
   -7003    -6436    -6128    -6075    -6212    -6498    -6934    -7543 
   -8399    -9483   -10531   -11238   -11568   -11660   -11560   -11288 
  -10928   -10524   -10069    -9587    -9182    -9028    -9220    -9683 
  -10259   -10711   -10879   -10879   -10845   -10758   -10619   -10383 
   -9926    -9324    -8749    -8125    -7357    -6614    -6085    -5798 
   -5702    -5731    -5891    -6268    -6835    -7400    -7779    -7943 
   -8064    -8410    -9003    -9558   -10076   -10881   -11808   -12372 
  -12651   -12848   -12736   -12213   -11388   -10141    -8494    -6813 
   -5368    -4259    -3589    -3354    -3313    -3240    -3263    -3656 
   -4319    -4881    -5218    -5455    -5722    -6112    -6680    -7441 
   -8287    -9075    -9854   -10618   -11197   -11622   -12120   -12740 
  -13282   -13539   -13508   -13375   -13249   -12977   -12495   -12084 
  -11935   -11772   -11274   -10731   -10569   -10532   -10295   -10064 
  -10026   -10154   -10387   -10586   -10730   -10922   -11129   -11384 
  -11794   -12258   -12617   -12765   -12621   -12294   -11950   -11542 
  -10982   -10399    -9952    -9501    -8920    -8469    -8297    -8225 
   -8256    -8529    -8978    -9437    -9813   -10086   -10241   -10239 
  -10051    -9722    -9367    -9055    -8683    -8175    -7727    -7595 
   -7776    -8127    -8587    -9130    -9753   -10499   -11309   -11924 
  -12110   -11940   -11726   -11607   -11470   -11406   -11644   -12030 
  -12273   -12371   -12244   -11735   -11013   -10346    -9773    -9255 
   -8749    -8208    -7809    -7847    -8265    -8636    -8576    -8116 
   -7746    -7877    -8372    -9005    -9737   -10342   -10639   -10872 
  -11253   -11715   -12175   -12457   -12441   -12400   -12624   -12959 
  -13039   -12841   -12589   -12254   -11686   -10911    -9953    -8886 
   -8093    -7748    -7604    -7608    -7773    -7982    -8387    -8973 
   -9340    -9517    -9987   -11037   -12487   -13814   -14681   -15280 
  -15821   -16115   -15931   -15266   -14352   -13518   -12936   -12565 
  -12309   -12178   -12155   -12061   -11843   -11437   -10783   -10169 
   -9863    -9842    -9852    -9593    -9197    -9088    -9278    -9333 
   -9219    -9349    -9676    -9975   -10332   -10768   -11152   -11318 
  -11413   -11679   -11965   -12191   -12267   -12097   -11936   -11657 
  -10980   -10145    -9493    -9206    -9021    -8645    -8286    -8134 
   -8430    -9208   -10043   -10774   -11329   -11715   -12094   -12371 
  -12758   -13459   -13912   -13648   -12828   -12027   -11649   -11387 
  -10986   -10599   -10164    -9561    -8890    -8305    -7955    -7885 
   -7946    -7925    -7826    -7764    -7613    -7345    -7100    -6715 
   -6120    -5647    -5494    -5632    -5988    -6437    -6928    -7535 
   -8416    -9460   -10136   -10214   -10015    -9856    -9826    -9865 
   -9905    -9959    -9966    -9815    -9455    -8822    -8003    -7322 
   -6875    -6425    -5894    -5372    -4976    -4971    -5442    -6029 
   -6376    -6388    -6184    -6127    -6538    -7262    -7895    -8440 
   -9204   -10059   -10606   -10860   -10976   -10780   -10234    -9720 
   -9345    -8732    -7767    -6766    -5962    -5316    -4761    -4412 
   -4365    -4562    -4911    -5251    -5545    -6071    -6874    -7607 
   -8204    -8863    -9551   -10146   -10730   -11421   -12142   -12790 
  -13478   -14249   -14841   -14988   -14753   -14633   -15057   -15763 
  -16173   -16033   -15511   -15031   -14771   -14591   -14525   -14582 
  -14592   -14558   -14490   -14216   -13596   -12703   -11761   -10850 
   -9890    -8875    -7978    -7525    -7660    -8067    -8380    -8630 
   -9028    -9642   -10420   -11212   -11855   -12364   -12801   -13105 
  -13198   -13080   -12836   -12560   -12163   -11483   -10545    -9424 
   -8158    -7030    -6377    -6003    -5470    -4875    -4585    -4492 
   -4351    -4332    -4676    -5428    -6393    -7136    -7577    -8096 
   -8758    -9273    -9402    -9057    -8439    -7778    -7041    -6281 
   -5805    -5845    -6219    -6457    -6418    -6449    -6841    -7580 
   -8446    -9132    -9519    -9763    -9972   -10111   -10222   -10349 
  -10411   -10422   -10463   -10473   -10532   -10965   -11790   -12611 
  -13203   -13655   -14077   -14577   -15250   -16041   -16853   -17755 
  -18810   -19701   -20086   -20137   -20009   -19559   -18864   -18077 
  -17251   -16624   -16262   -15852   -15317   -14889   -14571   -14176 
  -13740   -13435   -13281   -13199   -13184   -13131   -12768   -12209 
  -12047   -12456   -12878   -12879   -12719   -12712   -12624   -12250 
  -11805   -11564   -11745   -12295   -12750   -12858   -12925   -13255 
  -13649   -13772   -13646   -13375   -12994   -12784   -12917   -12984 
  -12716   -12453   -12401   -12430   -12492   -12432   -12009   -11418 
  -11099   -11141   -11286   -11200   -10797   -10444   -10460   -10611 
  -10577   -10390   -10146    -9799    -9336    -8926    -8719    -8638 
   -8576    -8568    -8622    -8664    -8660    -8688    -8931    -9449 
  -10064   -10612   -11029   -11206   -11125   -10953   -10844   -10869 
  -10892   -10662   -10351   -10380   -10736   -11090   -11289   -11354 
  -11272   -11020   -10708   -10569   -10799   -11342   -11865   -12085 
  -11998   -11780   -11544   -11277   -10971   -10642   -10274   -10020 
  -10126   -10518   -10929   -11331   -11795   -12155   -12204   -12120 
  -12081   -11865   -11404   -10966   -10673   -10494   -10327   -10052 
   -9648    -9150    -8715    -8520    -8537    -8675    -8817    -8875 
   -9042    -9535   -10231   -10920   -11560   -12125   -12582   -13067 
  -13695   -14333   -14939   -15606   -16083   -16049   -15602   -15032 
  -14578   -14297   -13964   -13459   -12962   -12581   -12125   -11435 
  -10647    -9988    -9517    -9006    -8171    -7278    -6849    -6769 
   -6543    -6065    -5713    -5880    -6395    -6737    -6756    -6668 
   -6726    -6969    -7195    -7252    -7025    -6521    -6131    -6163 
   -6437    -6744    -7071    -7332    -7385    -7215    -6969    -6801 
   -6734    -6757    -6845    -7005    -7311    -7668    -8013    -8557 
   -9393   -10352   -11177   -11611   -11683   -11660   -11592   -11365 
  -11079   -10930   -10874   -10844   -10935   -11097   -11153   -11059 
  -10799   -10289    -9587    -9001    -8638    -8197    -7595    -7122 
   -6994    -7243    -7549    -7518    -7349    -7436    -7755    -8096 
   -8323    -8468    -8629    -8745    -8870    -9272    -9941   -10616 
  -11237   -11861   -12447   -12781   -12592   -12039   -11582   -11221 
  -10615    -9742    -8947    -8573    -8548    -8591    -8809    -9339 
   -9841   -10056   -10154   -10333   -10493   -10369   -10032    -9843 
   -9807    -9698    -9492    -9256    -9063    -8925    -8750    -8523 
   -8236    -7960    -7947    -8153    -8232    -8042    -7668    -7283 
   -7009    -6844    -6889    -7378    -8281    -9207    -9851   -10192 
  -10311   -10408   -10561   -10470    -9947    -9265    -8770    -8434 
   -7930    -7291    -6868    -6585    -6122    -5455    -4703    -3997 
   -3556    -3591    -3992    -4366    -4674    -5247    -6104    -6970 
   -7602    -7918    -8146    -8530    -9001    -9381    -9609    -9791 
   -9994   -10144   -10260   -10266    -9961    -9488    -9069    -8622 
   -8148    -7686    -7104    -6415    -5842    -5583    -5612    -5744 
   -6007    -6536    -7248    -8061    -9022    -9981   -10684   -11173 
  -11577   -11864   -12053   -12082   -11769   -11357   -11178   -10952 
  -10402    -9792    -9352    -9003    -8658    -8366    -8180    -8101 
   -8084    -8003    -7775    -7544    -7495    -7576    -7666    -7801 
   -7971    -8111    -8368    -8817    -9262    -9685   -10118   -10312 
  -10163    -9922    -9763    -9551    -9110    -8550    -8079    -7633 
   -7153    -6852    -6843    -6932    -6932    -6922    -7136    -7693 
   -8418    -9032    -9550   -10140   -10687   -10989   -11096   -11047 
  -10767   -10415   -10155    -9846    -9440    -9131    -9002    -8958 
   -8865    -8746    -8831    -9146    -9348    -9198    -8981    -9202 
   -9891   -10656   -11197   -11296   -11050   -10914   -11011   -11156 
  -11224   -10956   -10265    -9443    -8646    -7848    -7095    -6471 
   -6049    -5812    -5665    -5628    -5776    -5992    -6075    -6019 
   -5918    -5805    -5704    -5681    -5895    -6442    -7097    -7605 
   -8014    -8430    -8758    -8822    -8752    -8812    -8931    -8939 
   -8757    -8390    -8033    -7807    -7726    -7864    -8056    -8005 
   -7873    -7999    -8278    -8490    -8814    -9378    -9874   -10127 
  -10250   -10203    -9946    -9701    -9686    -9829    -9931   -10038 
  -10291   -10625   -10918   -11133   -11336   -11572   -11647   -11468 
  -11243   -11125   -11013   -10598    -9794    -9086    -8998    -9565 
  -10461   -11317   -12063   -12829   -13580   -14211   -14675   -14944 
  -14960   -14639   -14073   -13508   -13004   -12404   -11651   -10863 
  -10110    -9372    -8803    -8638    -8725    -8564    -8073    -7819 
   -8208    -8991    -9750   -10416   -11204   -12126   -12842   -13161 
  -13317   -13562   -13848   -14010   -13984   -13698   -13062   -12247 
  -11569   -11076   -10643   -10216    -9839    -9688    -9766    -9756 
   -9653    -9795   -10181   -10512   -10658   -10685   -10613   -10389 
  -10105    -9860    -9530    -9116    -8875    -8977    -9350    -9665 
   -9570    -9035    -8338    -7777    -7373    -6890    -6195    -5538 
   -5281    -5457    -5864    -6357    -6814    -7177    -7494    -7723 
   -7809    -7830    -7771    -7604    -7428    -7123    -6534    -5941 
   -5698    -5881    -6422    -7080    -7577    -7935    -8296    -8580 
   -8636    -8504    -8381    -8392    -8585    -9063    -9692   -10041 
   -9971    -9829    -9874    -9962    -9941    -9903    -9798    -9459 
   -8974    -8416    -7872    -7695    -7890    -8075    -8256    -8716 
   -9404   -10017   -10398   -10574   -10726   -10992   -11014   -10426 
   -9596    -9018    -8699    -8542    -8651    -9165    -9945   -10780 
  -11670   -12540   -13209   -13642   -13950   -14401   -15084   -15667 
  -15942   -16158   -16491   -16739   -16789   -16659   -16170   -15263 
