Origin Time       2011/03/11 14:46:00
Lat.              38.103
Long.             142.860
Depth. (km)       24
Mag.              9.0
Station Code      AOM004
Station Lat.      41.4064
Station Long.     141.4477
Station Height(m) 29
Record Time       2011/03/11 14:47:43
Sampling Freq(Hz) 100Hz
Duration Time(s)  285
Dir.              N-S
Scale Factor      3920(gal)/6182761
Max. Acc. (gal)   17.502
Last Correction   2011/03/11 14:47:28
Memo.             
[...]
   -5184    -5162    -6482    -8924   -11473   -13105   -13439   -13016 
  -12382   -11432    -9974    -8102    -6339    -5244    -4794    -4808 
   -5036    -4878    -4363    -4249    -4294    -3403    -1947    -1622 
   -2836    -4388    -5453    -6110    -6553    -7035    -7739    -8401 
   -8758    -9049    -9556   -10140   -10676   -11165   -11289   -10950 
  -10512    -9825    -8317    -6254    -4830    -5018    -6595    -8330 
   -9381    -9840    -9653    -8479    -6817    -6046    -6928    -8679 
   -9992   -10419   -10368   -10149    -9723    -9439    -9669    -9776 
   -9011    -7831    -7363    -8150    -9549   -10311    -9963    -9297 
   -9396   -10113   -10006    -8479    -6887    -6713    -7889    -9133 
   -9346    -8786    -8347    -7863    -6761    -5698    -5432    -5266 
   -4618    -4501    -5896    -8181    -9955   -10345    -9515    -8496 
   -8380    -9524   -11392   -12874   -12983   -11878   -10976   -11234 
  -12008   -12372   -12166   -11340    -9915    -8611    -8221    -8558 
   -8766    -8315    -7238    -5903    -4972    -5019    -5773    -6380 
   -6315    -5351    -3771    -3057    -4339    -6400    -7131    -6142 
   -4840    -4692    -5968    -7803    -8958    -8841    -8019    -7584 
   -8431   -10553   -12473   -12618   -11296   -10049    -9579    -9403 
   -8967    -8222    -7624    -7929    -9242   -10660   -11504   -11853 
  -11655   -10861   -10350   -10704   -10702    -9289    -7444    -6343 
   -5847    -5549    -5401    -5246    -5054    -5256    -5981    -6470 
   -5882    -4505    -3751    -4765    -7089    -8901    -9129    -8557 
   -8142    -7975    -8039    -8160    -7947    -7808    -8771   -10646 
  -11851   -11533   -10089    -8018    -6236    -5789    -6195    -6212 
   -5731    -5407    -5894    -7762   -10449   -11914   -11029    -9335 
   -8835    -9442    -9881    -9516    -8568    -7796    -7748    -7801 
   -7163    -6396    -6355    -6835    -7411    -7999    -8306    -8210 
   -8138    -8268    -8006    -6503    -3929    -1974    -2217    -4379 
   -6672    -7632    -7171    -6090    -5577    -6708    -9417   -12143 
  -12987   -11513    -9218    -8156    -9121   -10923   -11966   -12032 
  -11605   -11083   -11026   -11482   -11437    -9995    -7852    -6883 
   -8016   -10284   -11964   -11903   -10307    -8584    -8151    -9393 
  -11194   -11726   -10602    -9282    -8929    -9303    -9708    -9825 
   -9387    -7718    -4664    -1807    -1300    -3127    -4747    -4173 
   -2195     -883    -1178    -2450    -3595    -3966    -3502    -2751 
   -2764    -4353    -7142    -9492   -10122    -9523    -8956    -9039 
   -9697   -10462   -10761   -10382    -9770    -9660   -10011   -10012 
   -9670    -9861   -10510   -10492    -9232    -7408    -6075    -5308 
   -4333    -2983    -2157    -2483    -3192    -3423    -3468    -3299 
   -2158     -448      386     -391    -2235    -4083    -5676    -7334 
   -8741    -9467    -9961   -10874   -12034   -12793   -12975   -13136 
  -13856   -14845   -15352   -15037   -13864   -12158   -10626    -9771 
   -9895   -10991   -12026   -11631    -9887    -8484    -9012   -11303 
  -13379   -13332   -11395    -9489    -8736    -8743    -9129    -9956 
  -10830   -10769    -9198    -7107    -6438    -7663    -9231    -9643 
   -8690    -7110    -5833    -5255    -5447    -6333    -7485    -8638 
   -9632    -9962    -9843   -10648   -12967   -15422   -16056   -14143 
  -11053    -9236    -9595   -10851   -11348   -10149    -7563    -5431 
   -5374    -6777    -7822    -7661    -6512    -5107    -4828    -6451 
   -8816   -10410   -10819   -10030    -8451    -7300    -7278    -7431 
   -6791    -6091    -6308    -7031    -7288    -6649    -5231    -3901 
   -3951    -5236    -6095    -5888    -5547    -5815    -6757    -8169 
   -9302    -9437    -8920    -8538    -8560    -8870    -9269    -9446 
   -9352    -9519    -9940    -9308    -6974    -4497    -3777    -4873 
   -6478    -7533    -8194    -9333   -10734   -10846    -9169    -7205 
   -6185    -5804    -5744    -6190    -6511    -5631    -3756    -2144 
   -1591    -2037    -2867    -3170    -2662    -2296    -3070    -4749 
   -6179    -6439    -5641    -4674    -4413    -5246    -6586    -7045 
   -6208    -5477    -6218    -8060    -9652   -10241   -10021    -9496 
   -9214    -9483    -9745    -9214    -8237    -7773    -8298    -9894 
  -11990   -13231   -12799   -11452   -10497    -9838    -8228    -5623 
   -3464    -2684    -3006    -3754    -4511    -5356    -6353    -6771 
   -5898    -4578    -4315    -5152    -5907    -5942    -5368    -4436 
   -3841    -4317    -5577    -6942    -8221    -8961    -8510    -7517 
   -7490    -8560    -9232    -8475    -7115    -6730    -7633    -8742 
   -9039    -8321    -7047    -6294    -7077    -8916    -9934    -8955 
   -6920    -5950    -6976    -8564    -8827    -7866    -7039    -6817 
   -6740    -6618    -6780    -7349    -7623    -6920    -5829    -5507 
   -6149    -6831    -6415    -4831    -3665    -4281    -5825    -6830 
   -7315    -7624    -7290    -6245    -5531    -6094    -7481    -8268 
   -7831    -6869    -6338    -6640    -7262    -7504    -7491    -7220 
   -6167    -4758    -4143    -4380    -4212    -3074    -2202    -2388 
   -2811    -3146    -3926    -5198    -7027    -9601   -11934   -12886 
  -12913   -12772   -12537   -12651   -13000   -12040    -9666    -8056 
   -8066    -8536    -8958    -9623    -9946    -8651    -5876    -3925 
   -4563    -6623    -7823    -7731    -7333    -7109    -6945    -6994 
   -7819    -9661   -11809   -12841   -11915   -10140    -9430   -10178 
  -11292   -11292    -9136    -5316    -1977    -1420    -3993    -7515 
   -9368    -8797    -7032    -5855    -6117    -7406    -8933   -10101 
  -10412   -10052   -10054   -10944   -12100   -12719   -12380   -10908 
   -8981    -8323    -9811   -12312   -14066   -13829   -11316    -7909 
   -6062    -7366   -11157   -14791   -15490   -12476    -7970    -5498 
   -6304    -8426    -9369    -8252    -5870    -3959    -3907    -5684 
   -8164    -9839    -9655    -8107    -6376    -4635    -2802    -1841 
   -2535    -3641    -3537    -2844    -2909    -3747    -5115    -7015 
   -8859    -9750    -9401    -8637    -8596    -9081    -8943    -7918 
   -6756    -6009    -5872    -6610    -8007    -9232   -10014   -10868 
  -11947   -12680   -12540   -11613   -10538    -9879    -9429    -8687 
   -7892    -7566    -7534    -7266    -6743    -6664    -7551    -8719 
   -9199    -8972    -8463    -8056    -7698    -6532    -4237    -2244 
   -2465    -5091    -8361   -10738   -11901   -11772   -10583    -9164 
   -8249    -8034    -8099    -7852    -7125    -6238    -5969    -6693 
   -7414    -7343    -7510    -8800    -9891    -9002    -6514    -4408 
   -3913    -4598    -5317    -5599    -5840    -6148    -6122    -5976 
   -6366    -6935    -6710    -5940    -5609    -5491    -4680    -3167 
   -1802    -1722    -3567    -6455    -8856   -10316   -11210   -12022 
  -13069   -13959   -13965   -12770   -10655    -8707    -8029    -8366 
   -8296    -6403    -2483     1502     2642       52    -4288    -7739 
   -9122    -8831    -8137    -8155    -8750    -9260    -9700   -10201 
  -10612   -10937   -11251   -11579   -12077   -12457   -11846   -10531 
  -10119   -11113   -12309   -12335   -10657    -7866    -5267    -3842 
   -3590    -3752    -4045    -5217    -7404    -9481   -10620   -10819 
  -10032    -8013    -5444    -4048    -4671    -6357    -7128    -5639 
   -3108    -2099    -3150    -4686    -5325    -4988    -4574    -4755 
   -5522    -7012    -9309   -11559   -12524   -11697    -9902    -8935 
   -9527   -10197    -9201    -6699    -4619    -4477    -5643    -6408 
   -5930    -4515    -2805    -1275     -550    -1472    -4169    -7192 
   -8307    -6866    -4827    -4511    -6197    -8472    -9797    -9477 
   -8089    -7068    -7262    -8220    -9144    -9718    -9766    -8819 
   -6963    -5545    -5855    -7885   -10541   -12474   -13275   -13468 
  -13227   -12633   -12307   -12101   -11136    -9844    -9252    -8649 
   -6955    -5253    -4957    -5365    -5171    -4101    -2766    -2612 
   -4419    -6590    -7228    -6382    -4749    -2896    -1748    -1790 
   -2394    -2270     -762      936      902    -1413    -4969    -7868 
   -8194    -5762    -3088    -2871    -4666    -5950    -5390    -3400 
   -1493    -1451    -3291    -5219    -6146    -6448    -6772    -7484 
   -8694   -10033   -10691   -10038    -8129    -5726    -4083    -4388 
   -6646    -9172    -9625    -7233    -4235    -3710    -6017    -8912 
  -10340    -9970    -8900    -8424    -8977   -10249   -11728   -12637 
  -12242   -10906    -9811    -9544   -10077   -11116   -11451    -9604 
   -5884    -2234      257     1786     2117     1014     -474    -1057 
    -646     -207     -731    -2392    -4260    -4930    -4616    -5629 
   -8933   -12394   -13771   -12844   -10498    -8110    -7253    -8051 
   -8579    -7542    -5944    -5005    -5181    -6863    -9245   -10583 
  -10695   -10472    -9877    -8880    -8496    -9312   -10694   -12019 
  -12873   -12186    -9461    -6441    -5294    -5957    -7018    -8045 
   -9334   -10135    -8999    -6101    -3674    -3449    -4987    -6795 
   -7734    -7683    -7343    -6933    -6137    -5529    -6107    -7753 
   -9579   -10850   -11142   -10651   -10345   -10814   -11429   -11329 
  -10166    -8090    -6089    -5417    -6322    -7893    -9076    -9732 
  -10040    -9512    -7912    -5834    -3989    -3302    -4634    -7335 
   -9687   -10922   -11173   -10390    -9022    -8460    -9084    -9351 
   -8089    -5837    -3976    -4107    -6658    -9711   -10696    -8547 
   -4115       22      318    -4748   -11989   -16001   -14550   -10732 
  -10045   -14801   -21438   -24174   -20903   -14480    -9154    -7405 
   -9228   -12400   -13373    -9497    -2160     3423     3821      997 
    -797      640     4163     6722     6289     3515      266    -2207 
   -3179    -2409     -726      106    -1216    -4320    -8181   -11844 
  -13612   -12478   -10193    -9754   -12269   -15886   -17779   -17243 
  -15854   -15266   -16084   -17079   -16287   -14218   -13009   -13149 
  -13406   -12431    -9965    -7007    -4839    -4141    -4896    -6762 
   -9000   -10304    -9652    -7530    -5173    -2663       77     1664 
    1126     -429    -1098     -169     1192     1389      205    -1453 
   -2894    -4039    -5030    -6093    -7212    -7789    -7566    -7483 
   -8492   -10105   -11034   -10655    -9201    -7171    -5030    -3112 
   -1855    -2001    -3835    -6424    -8905   -11784   -15256   -17808 
  -18187   -17002   -15237   -12737    -9151    -5386    -3244    -3783 
   -6409    -9117    -9472    -6667    -2659     -303     -740    -2595 
   -3450    -2087      720     2869     2454     -515    -3864    -5006 
   -3505    -1611    -1910    -5089    -9345   -11942   -11786    -9555 
   -6849    -5900    -7580   -10077   -10881    -8807    -4445     -363 
     389    -2493    -5940    -6415    -2994     1666     3491      680 
   -4690    -8613    -8771    -6309    -4197    -4239    -5854    -7035 
   -6076    -3105     -431     -819    -4600    -8591    -8921    -5614 
   -2604    -2478    -4330    -6303    -7054    -6359    -5614    -6428 
   -9060   -12412   -14396   -12829    -8242    -4695    -5199    -8297 
  -10685   -10567    -7890    -4002    -1461    -1919    -4598    -7932 
  -10773   -12141   -12041   -11323   -10459   -10191   -11549   -14226 
  -16594   -17209   -16037   -14308   -13097   -12595   -12378   -12006 
  -11101    -8999    -5865    -3362    -2514    -2658    -2891    -2299 
      95     3328     4604     2964      -30    -3037    -5396    -6965 
   -9122   -12902   -16499   -17205   -14438    -9858    -6210    -5587 
   -7328    -8917    -9100    -8203    -6603    -4629    -2895    -1720 
    -488     1648     4188     5347     4617     3895     4688     5937 
    5890     4603     3436     3044     2817     1533    -1261    -4445 
   -6990    -8947   -10267   -11550   -14834   -20723   -26630   -29287 
  -27656   -23632   -20323   -19549   -20866   -22201   -21785   -19779 
  -17384   -15264   -13623   -12850   -13056   -13520   -13749   -14166 
  -14554   -13424   -10145    -6270    -4250    -5427    -8417    -9746 
   -7302    -2285     2353     4325     3476     1866     1956     3925 
    5371     4165      976     -913     1155     5734     8571     6792 
     886    -5609    -8693    -8074    -7918   -12243   -20355   -27647 
  -29852   -26252   -20234   -16628   -17364   -19965   -20817   -18576 
  -14404   -11053   -10754   -12768   -14385   -13501    -9459    -3204 
    2790     5521     3599     -875    -3971    -4206    -3354    -3328 
   -4563    -6604    -8263    -8106    -6304    -5354    -7854   -13863 
  -20476   -23812   -22580   -19296   -17020   -16780   -18284   -20299 
  -20321   -16480   -10461    -6615    -7326   -10864   -13787   -14052 
  -12260   -10590   -10585   -11910   -12692   -11516    -8797    -5545 
   -2567     -560      607     1222      559    -1661    -4110    -5406 
   -5167    -3317       10     3366     4172     1605    -2041    -3993 
   -3087     -118     2103      879    -3561    -8151   -10058    -9733 
   -9637   -10594   -11845   -12852   -13393   -13484   -13135   -12405 
  -11964   -12382   -13422   -14615   -16000   -17864   -19585   -19552 
  -16834   -12751   -10016    -9762   -10403    -9733    -7036    -2985 
    1396     4521     4550     2375     1980     5842    12439    18203 
   19928    16758    11186     7058     5723     4509      130    -7415 
  -15511   -21017   -21768   -19026   -16641   -16541   -17449   -17277 
  -15381   -12960   -11594   -11998   -13601   -15004   -15598   -15820 
  -15782   -15049   -13221   -10459    -7912    -6469    -5281    -2725 
    1676     6222     7915     5140     -696    -6125    -8133    -6652 
   -4546    -4779    -7997   -11941   -12904    -9132    -2859     1234 
    -183    -5903   -11195   -12432    -9998    -6711    -4513    -3446 
   -3037    -3378    -4933    -7515    -9816   -11001   -12022   -13711 
  -15081   -14861   -13143   -11351   -10796   -11008   -10347    -7928 
   -4598    -2349    -2150    -2934    -3095    -2037     -730     -940 
   -3572    -8380   -14388   -19899   -22876   -22145   -19214   -17581 
  -18942   -22053   -25006   -26338   -24727   -20034   -14189    -9294 
   -5775    -2962     -530      951     1173      937      734     -308 
   -2779    -5711    -7774    -8130    -6635    -4730    -5065    -9152 
  -15560   -21020   -23112   -21579   -18212   -15394   -13919   -12875 
  -11442    -9960    -9347    -9775   -10723   -12152   -13768   -14224 
  -13406   -12812   -12469   -11149    -9495    -9589   -11762   -13959 
  -14137   -12028    -9028    -7140    -7076    -7711    -8192    -8564 
   -8252    -6650    -4367    -2188     -535     -585    -4076   -11231 
  -19582   -25170   -25389   -21039   -14973    -9612    -6357    -5282 
   -5027    -4332    -3383    -3143    -3727    -4538    -5685    -6958 
   -6942    -5546    -4723    -6146   -10156   -15113   -17960   -17516 
  -15435   -13799   -13524   -14528   -16300   -17328   -15661   -11347 
   -5954     -573     3897     6371     6671     6068     5725     5686 
    5684     5346     4135     2306     1278     1525      771    -3258 
   -9497   -14806   -16943   -16138   -14897   -15665   -18491   -21479 
  -23252   -23758   -22688   -19559   -15224   -10932    -6984    -3528 
    -708     2163     5515     8178     8922     8273     7292     5709 
    2702    -1223    -4253    -5114    -4294    -3110    -2338    -2493 
   -4273    -7533   -10711   -11949   -10384    -6915    -3927    -3089 
   -3652    -3819    -2558      -70     2008     2143      740    -1338 
   -3749    -5306    -4507    -1150     3274     5943     4315    -1543 
   -8343   -12303   -12563   -11174   -10645   -11855   -13950   -15737 
  -16303   -15426   -14061   -13168   -12879   -13241   -13996   -13755 
  -11112    -6616    -2604    -1025    -1728    -2480    -1077     1759 
    3032     1189    -2944    -7624   -10591    -9962    -6249    -2772 
   -3244    -8069   -13238   -14344   -11166    -7097    -5178    -5539 
   -6334    -6111    -4920    -4673    -7523   -12816   -17883   -20834 
  -20995   -19466   -18816   -19912   -20996   -20201   -17111   -12453 
   -7484    -3384     -375     2161     4356     5796     6568     7330 
    8590     9509     8029     3706    -1442    -5505    -7765    -8229 
   -7851    -7979    -8928   -10066   -11118   -12141   -13049   -13954 
  -14537   -13958   -12312   -10195    -7332    -3675    -1071    -1868 
   -5544    -8948   -10369   -11210   -13459   -16913   -19414   -19321 
  -17340   -16033   -17405   -21636   -27684   -32945   -33748   -29110 
  -22981   -20222   -21091   -21942   -19943   -15257   -10498    -9088 
  -12468   -18004   -20458   -16648    -8890    -2855    -1550    -3228 
   -4810    -4176     -798     3371     5605     4941     1950    -1926 
   -4329    -3648    -1300     -178     -757    -1025      497     3418 
    5695     4770     -181    -7387   -13833   -16842   -15193   -10272 
   -6552    -8657   -15981   -22735   -24648   -22985   -21914   -23876 
  -27197   -27701   -22690   -13244    -3319     3093     4180      613 
   -4161    -5033     -212     6568    10366     8920     3269    -3098 
   -6967    -7814    -7125    -6374    -6394    -7410    -8653    -8898 
   -7881    -6848    -7580   -10445   -13434   -13694   -10519    -6595 
   -5425    -7392    -9490    -9252    -7505    -6665    -7395    -7960 
   -6876    -4700    -3037    -3331    -6122   -10118   -13012   -13858 
  -13246   -11703    -9574    -7650    -6677    -6664    -7220    -8023 
   -8414    -7226    -4427    -2246    -2558    -4493    -6008    -5847 
   -4130    -2103     -612      333      483     -285    -1015     -673 
     268        3    -2712    -7185   -11226   -12688   -11309    -8751 
   -6588    -5697    -6450    -7790    -8057    -7067    -5719    -4608 
   -3739    -2126     1707     7186    11246    11545     8583     4778 
    2815     3590     4852     3889      830    -2670    -5526    -6885 
   -6556    -6192    -7960   -11675   -14680   -14465   -10317    -4281 
    -621    -1525    -4907    -7658    -8249    -6263    -1819     4059 
    9382    11976    10479     5248    -1667    -8140   -13489   -18031 
  -21866   -24907   -27204   -28522   -28039   -24733   -18919   -12969 
   -9073    -7571    -8302   -11067   -14160   -15269   -14084   -12222 
  -11450   -12247   -13089   -12298   -10131    -7561    -4930    -2659 
   -1588    -2052    -3124    -2935     -107     4478     7504     5543 
   -1778   -10907   -17489   -19567   -18002   -16118   -17494   -22310 
  -26986   -27517   -23137   -17267   -14732   -17333   -21376   -21090 
  -15269    -8139    -4143    -4510    -8039   -12549   -15419   -15091 
  -12563    -9865    -7843    -6554    -5943    -5167    -3119       87 
    3714     7292     9980    11059    10884     9920     7519     2564 
   -4577   -11741   -16709   -18442   -17393   -14860   -12207   -10783 
  -11106   -12604   -14523   -15751   -14958   -12252    -9671    -9046 
  -10010   -11219   -12189   -12942   -13543   -14178   -14752   -14764 
  -13640   -11089    -7457    -4185    -3231    -4777    -6678    -6924 
   -5656    -4862    -6202    -9248   -12168   -13136   -11661    -9555 
