Origin Time       2011/03/11 14:46:00
Lat.              38.103
Long.             142.860
Depth. (km)       24
Mag.              9.0
Station Code      AOM009
Station Lat.      40.9658
Station Long.     141.3730
Station Height(m) 13
Record Time       2011/03/11 14:47:31
Sampling Freq(Hz) 100Hz
Duration Time(s)  300
Dir.              N-S
Scale Factor      3920(gal)/6182761
Max. Acc. (gal)   51.055
Last Correction   2011/03/11 14:47:16
Memo.             
[...]
   13428    13185    11798    10661    10192    10223    11098    12169 
   12354    11929    11763    12261    12315    10413     7987     6977 
    6305     5123     4328     4285     4668     5175     6022     7694 
    9654    11090    11827    11333     9850     8828     8356     7812 
    6981     5181     3377     3288     3340     1835      289     -183 
    -517    -1683    -3210    -3355    -2038    -1010     -191     1390 
    3245     5223     7707    10047    11613    12693    13319    12945 
   11464     9516     7818     6628     5833     5196     4606     4816 
    7037    10364    12183    12158    11489     9851     7560     6187 
    5300     3546     1381     -102     -784    -1057     -696      712 
    2773     5137     7821    10481    12704    14058    14548    14882 
   14906    14540    14780    14965    13985    13016    12700    12342 
   11947    11400    10697    10504    10399     9638     8914     8754 
    8463     7522     6058     4609     4137     4644     4673     3832 
    3242     2853     1805      339    -1078    -1974    -1488      118 
    1735     2936     3308     2682     2057     1898     1453      777 
    1085     2762     4721     6638     9519    12867    14701    14580 
   13845    13757    14263    14440    14148    13692    12580    10477 
    7872     5283     3351     2671     2860     3044     2914     3047 
    4366     6662     8915    10784    11734    11256    10645    11012 
   11439    10935     9162     6033     2706     1246     2298     4071 
    4645     4688     5991     8531    11156    13458    15401    16530 
   16627    16529    17076    17843    18249    18346    17824    16281 
   14266    13144    13949    16084    18096    19247    19365    19051 
   19501    20677    21666    22296    22547    22168    21422    20210 
   17376    13078     9544     7592     5971     4385     3451     3051 
    2868     2768     2203      416    -2239    -4009    -3868    -2791 
   -2168    -2488    -3558    -4897    -6086    -6788    -6760    -6073 
   -4406    -1529     1179     2748     4257     6013     7331     9084 
   12100    15243    17458    18962    19658    18336    14606    10478 
    8068     7103     6050     4245     2491     1765     1964     2945 
    4806     6594     7324     7441     7554     7115     5000     1096 
   -2712    -4620    -5377    -6170    -6405    -5479    -3612    -1150 
     962     1715     1267      418     -215     -615    -1335    -2367 
   -2732    -1344     2040     6190     9603    11873    13245    14536 
   16186    17090    16667    15563    14050    12688    12101    11552 
   10538    10140    11510    14217    16245    16648    16874    17323 
   16823    15461    13626    11718    11186    12422    14476    16412 
   16959    15556    12860     9753     7481     6549     6219     6393 
    6746     5999     4703     4360     4759     6037     8891    12457 
   16051    19908    23756    27118    28584    26374    21444    16175 
   11586     8378     6602     4861     2675      816     -397     -602 
     491     1878     2513     2947     4099     5069     4038     1705 
     530      904     2384     5541     9506    12284    13102    12143 
   10683     9697     8070     6047     5441     4956     2633     -371 
   -2660    -3942    -4167    -3844    -2963    -1396     -323      252 
    1843     3923     4776     4326     3640     3907     5290     6677 
    7717     8585     8739     8225     7474     6420     5503     5484 
    6597     8324     9613    10697    13029    16403    19072    19934 
   18989    17269    15966    15511    16215    17572    18117    18006 
   18452    19645    21837    24541    25277    22841    18675    13999 
    9311     5370     2162     -904    -3303    -3823    -2211      403 
    2744     4415     5326     5626     5989     6486     5900     3039 
   -1492    -5601    -8119    -9669   -10940   -11764   -11976   -11571 
   -9840    -6280    -2620    -1105     -871      807     4636     9264 
   13545    16792    18242    18304    18833    21075    24685    27990 
   29151    27996    25198    21236    17265    14013    10994     7923 
    5275     4654     7111    10340    11839    12825    14688    16320 
   17289    18527    19784    20132    19734    19269    19015    18965 
   19032    19053    18545    17011    14969    13846    14508    15914 
   16153    15278    14399    13148    11271     9449     7672     5859 
    4373     3061     2092     2629     5067     8556    12384    15570 
   17002    17825    19742    20634    17268    10956     5433     1707 
   -1282    -4108    -7250   -10636   -12100    -9820    -5167     -287 
    4190     7733     9995    11520    12131    11641    10963     9962 
    8580     8808    11588    16103    21503    25703    27073    26911 
   26652    26210    25140    23069    20421    17909    15336    12606 
   10114     7828     5681     3701     1716      -65    -1719    -3791 
   -5780    -7112    -8182    -8660    -7727    -5589    -2942     -374 
    1637     2938     3505     3573     3881     4592     4912     4152 
    2299      269     -632      -69     1258     2247     2029     1194 
    1329     2860     4852     6498     7424     7046     4725      593 
   -4193    -8362   -11504   -13353   -13023    -9969    -4318     3129 
   10367    15734    19153    20502    19299    15947    11300     6176 
    1813     -813    -1559       40     4575    11612    20645    30649 
   38423    41672    41698    39958    36422    31587    25566    17386 
    7176    -3043   -10617   -14074   -13977   -11915    -9552    -7518 
   -4340     1523     8865    14741    17599    18151    17006    13807 
    9640     6026     2080    -2656    -6174    -7173    -5419     -633 
    5288     9397    12115    15681    19669    22291    23773    25456 
   27529    28767    27611    24057    19886    16105    12325     8889 
    6771     6040     6347     7645    10056    13155    15572    17054 
   18595    19649    19455    19069    18723    16949    13586     9842 
    5505      303    -3718    -5611    -7772   -11555   -14928   -16166 
  -15738   -13592    -8496     -581     8367    16160    20903    22506 
   21936    18981    14373    10523     7914     6217     6467     7537 
    6740     5054     5284     7755    11342    15105    18047    18894 
   17151    14112    10435     5088     -933    -4774    -5981    -5980 
   -5106    -2594     2129     8457    14972    21088    26773    31272 
   33367    31990    27527    21898    16243    11640     9861    10556 
   12629    16432    20573    22460    22208    20867    17826    12347 
    5332     -907    -5105    -8241   -10725   -11948   -12753   -13945 
  -14548   -13646   -11623    -9946    -9636    -9492    -8175    -6169 
   -3915    -1498     1220     5691    12484    20173    27343    32101 
   33326    33001    32288    29431    24374    19880    17379    15243 
   11427     6174     1571     -289     1461     5774    10262    12970 
   13457    12529    11062     8723     4312    -2138    -8377   -12018 
  -13142   -13429   -13405   -12272    -9477    -5546    -1781     1273 
    4365     7968    11540    14507    16688    17876    17947    17067 
   15302    12991    11833    13206    15602    17019    18018    19729 
   21525    22153    21463    20142    18939    18395    18062    16566 
   13056     8131     3356      -63    -2069    -3132    -3705    -4781 
   -7342   -10672   -12555   -11630    -9123    -7384    -7016    -6708 
   -5446    -3891    -3333    -4161    -5870    -7187    -6819    -5322 
   -4690    -5686    -6613    -5183    -1412     3324     8981    15406 
   20778    23922    25571    26354    25526    22794    19619    16692 
   12488     6686     1473    -2026    -4300    -5349    -5447    -4959 
   -2773     2077     8773    15110    18737    20175    22256    24682 
   24634    21964    18124    13510     8337     2651    -3015    -6474 
   -6394    -3641     1227     8404    17682    28870    40706    49695 
   53406    53002    49958    43589    33892    22508    10478     -771 
   -8732   -12431   -12250    -8348    -1417     7561    17421    25493 
   29349    29066    26243    22934    20383    18134    15931    14462 
   13863    13418    12566    11966    12796    15124    18372    22206 
   26852    33212    40669    46071    47168    44852    41622    38708 
   34922    29715    24215    17722     9232     1277    -3513    -6106 
   -8655   -11239   -11674    -8785    -4315     -372     1890     1990 
    1018      691     1526     2679     2998     2793     3227     3726 
    2950     1372      112     -906    -2488    -5178    -7416    -6232 
   -1837     3158     8477    14869    21666    28224    33967    37249 
   36576    31881    23783    13545     3629    -4477   -12296   -21779 
  -31522   -38275   -41329   -41420   -37777   -30646   -22888   -16809 
  -12799   -10673   -10003   -10087   -10623   -11265   -10949    -9020 
   -5882    -2526       81     2154     4667     7584     9990    11843 
   14680    20066    27823    35894    41496    42691    39023    31620 
   23195    16105    10536     5785     1720    -1638    -4291    -6248 
   -8010    -9936   -11264   -10784    -8260    -4530     -483     2698 
    3840     4049     5578     9171    14877    21452    25658    26811 
   28430    32541    37064    39537    38613    33235    24741    16558 
   10412     6585     4925     4184     3946     5225     8527    13107 
   16626    16670    13640    10443     9111     8054     4304    -1730 
   -7894   -14361   -21084   -25992   -28461   -29247   -28212   -25338 
  -20554   -13240    -4695     2251     6448     8283     8450     8180 
    7843     5854     1430    -3352    -5829    -5426    -3529    -1940 
   -1795    -2890    -3542    -2540    -1421    -2913    -7435   -12607 
  -16059   -17840   -19041   -19090   -17134   -14187   -10757    -5589 
    1615     9146    14950    18686    21072    21679    20566    18674 
   14705     7721      603    -3824    -4934    -2279     3544     9752 
   13136    12831    11344    10990    10639     8529     5220     1729 
   -2380    -7996   -15000   -21869   -26370   -27154   -25224   -22920 
  -20250   -15347    -9174    -3939     1088     6434     9967    10046 
    6685     1175    -3592    -5343    -3974     -127     5300    11667 
   19094    26843    33444    38753    43227    46082    46495    45399 
   44038    42233    39528    35939    30967    24757    19327    15779 
   12853     9735     7575     7665     9610    12153    15244    20110 
   26977    33793    38863    43307    48628    54087    58050    59990 
   60372    58851    54176    47299    40709    33299    22136     8474 
   -4189   -13872   -18994   -19148   -16447   -13367   -11220   -10151 
   -9610    -9745   -11502   -15225   -19689   -22015   -19500   -12315 
   -2980     6752    16962    27915    38587    47330    53385    56613 
   56492    52411    44575    33996    21801    10189     2597       80 
     131       23    -1147    -2876    -4831    -7152    -8846    -9187 
   -9531   -10723   -11989   -12847   -12780   -10545    -6361    -3138 
   -3005    -4381    -5463    -7016    -9412   -11703   -13140   -13143 
  -12255   -11368    -9923    -8220    -7835    -9310   -12581   -16450 
  -18305   -16777   -11654    -3250     5616    12171    17510    23096 
   28434    34127    39923    42602    41433    39043    35872    30346 
   22407    13780     6366     1208    -1071     -484     1418     2871 
    3274     3223     4294     7879    14633    24596    35902    45178 
   50311    51401    49889    46895    42665    38281    34697    30851 
   25939    20707    16115    13008    11368     9796     7233     4065 
     916    -2262    -5285    -8175   -12335   -17512   -19882   -17014 
  -11098    -5075      387     5023     8452    12040    17149    22640 
   26790    29531    32155    35582    38647    39316    36755    31245 
   24136    17335    11668     7179     4020     1879      821     2263 
    6785    13119    19985    26226    30913    34702    38827    43815 
   49493    54105    55344    53352    50120    46377    41152    33646 
   24215    13908     3578    -6443   -15741   -23931   -31820   -40212 
  -47617   -51795   -52442   -50865   -49026   -48531   -48513   -46399 
  -41465   -35192   -29328   -25043   -22251   -19987   -17120   -12219 
   -5760     -849     1950     5703    11403    17470    23058    27274 
   28857    27799    24930    21209    17359    13364     9663     7361 
    5988     4152     2172     1074      928     1699     3309     4505 
    3559      427    -2844    -4523    -5042    -5237    -4290    -1427 
    2374     6007     9001    10855    11931    13569    16407    19954 
   23545    26424    27576    27030    26102    25533    25038    24336 
   23635    22715    20090    15242     9944     5738     2951     1825 
    1889      766    -3623    -9300   -12383   -12018    -9575    -6547 
   -4417    -3282    -2366    -1919    -2699    -5414   -10135   -15908 
  -21565   -25239   -25874   -25529   -25090   -22189   -16323    -8562 
    1560    13780    26744    39487    50698    59584    65833    68323 
   66756    61901    54441    46070    38739    32555    27141    22916 
   19383    15483    11815     9225     6641     3011     -851    -4101 
   -7197   -10503   -13493   -15606   -16670   -16411   -14535   -11267 
   -7001    -2250     2023     4943     5378     2550    -1504    -4146 
   -5669    -7130    -8759   -10787   -12850   -14719   -16432   -17380 
  -18833   -23501   -31437   -41486   -53080   -63760   -70434   -72784 
  -71800   -67384   -59375   -49253   -39424   -30897   -23560   -17816 
  -13164    -7565      -92     7960    14684    19459    22968    25625 
   27720    29421    29595    28032    27364    29682    33984    38055 
   40521    41264    41206    41527    42522    43226    42499    40041 
   36392    32483    29081    26502    23830    19472    14452    11757 
   11388    10833     9194     6712     3104    -1229    -5272    -8535 
  -10219    -9631    -7754    -5479    -1995     2919     7594    10187 
    9851     7242     4713     4584     7217    10965    13754    15300 
   17105    20556    25952    31939    36581    39403    40213    38435 
   34871    30142    23122    13674     3363    -6604   -15674   -23536 
  -29713   -33475   -34899   -34641   -32976   -30404   -27732   -25164 
  -22274   -18464   -14113   -10601    -7780    -3996     1228     7325 
   13847    20672    28133    35346    39928    41828    43518    45483 
   46763    48462    51407    53366    52133    47979    41868    33950 
   24223    13502     2975    -6395   -13135   -16078   -16496   -17033 
  -18814   -20313   -19274   -16341   -14245   -13663   -13689   -14114 
  -14771   -15432   -16254   -17209   -18700   -20567   -20313   -17246 
  -14520   -13038    -9847    -3126     6089    16090    26631    38267 
   49766    58834    65023    69045    70690    69588    66269    61645 
   56407    50583    43875    36831    30698    25890    21373    15619 
    7956     -512    -7406   -11499   -13898   -15830   -17117   -17488 
  -17150   -16199   -14883   -13126    -9881    -4746     1008     6280 
   11684    18120    24992    31333    36761    40358    41334    40195 
   37820    34899    31652    27494    22335    17272    13186     9528 
    4939     -442    -4638    -7337   -10433   -13821   -15674   -16059 
  -16127   -16194   -15508   -13003    -9043    -4558     -415     1060 
    -919    -3637    -5389    -6272    -5289    -1278     5691    14125 
   21599    27491    32988    37779    40772    42529    44007    45691 
   48513    52678    56943    60287    62458    63382    62818    59842 
   54024    46569    38793    31893    27430    25343    23719    20910 
   15956     8435    -1213   -12257   -23663   -33877   -42832   -51520 
  -58364   -61059   -60647   -59127   -56682   -53444   -50364   -47596 
  -44225   -39906   -34813   -28071   -18600    -7412     2566     9222 
   12457    12979    12102    11451    11296    10893     9782     7864 
    5558     3313     1078     -739    -1461    -1147      -77     1366 
    2369     2505     1911      587    -1550    -4236    -6502    -6992 
   -5282    -2405      118     1673     2924     4141     4154     2800 
    2510     5380    10876    17184    23078    28440    33272    36673 
   37464    35578    32374    28795    24153    18088    11655     5961 
    1752     -618    -1331     -221     2426     5035     7283     9750 
   10173     5482    -3464   -12834   -19595   -23371   -25504   -26586 
  -25755   -22049   -15584    -7834     -550     5259     9261    11883 
   13854    15722    17992    20210    21585    22772    23999    23898 
   22425    21055    19749    17750    15939    15463    16819    20612 
   26426    32588    37956    42628    47060    50583    51640    50138 
   47929    46301    44512    41505    37864    34469    30639    25482 
   19227    12590     6226      352    -4863    -8387    -8985    -6746 
   -3297       -1     3529     7828    11833    14250    14706    13088 
    9791     6382     4568     4297     3792     2259      909      761 
    1952     4417     6866     7212     5558     4133     3804     3178 
     785    -3235    -7048    -9153    -9908    -9776    -8385    -6004 
   -3570    -1746     -550      614     1729     2115     1907     1386 
     504      125      641      781      130      -36     1383     4538 
    8598    12219    14494    15139    14508    13720    13897    14965 
   15815    15871    15713    16203    17673    19784    21601    22011 
   21000    20208    20806    21752    21994    22008    21590    19580 
   15705    10219     3785    -2400    -8081   -13351   -17047   -18296 
  -17714   -15779   -13148   -11837   -12517   -13223   -12620   -11149 
   -9489    -8461    -8184    -7225    -4904    -2167      697     4208 
    8038    11409    14292    16828    18401    18351    17200    16749 
   18767    23480    29614    35085    38526    41314    45106    48330 
   48923    47007    43399    39120    35065    31201    27431    23506 
   19169    15858    14630    14020    13189    12988    13918    16415 
   20337    24135    26684    27888    28082    27966    27346    25348 
   22508    19167    13848     6622     -523    -7071   -13288   -19221 
  -25799   -32709   -37523   -39704   -41259   -43383   -45812   -47028 
  -45019   -40350   -35057   -29105   -22404   -16171   -10200    -3836 
    1665     4841     5288     3236      662      152     1118     1583 
    2209     4080     6611     9224    11487    13221    15101    17436 
   19950    22224    23424    23426    22601    20784    19204    19221 
   18785    15807    11368     6833     2754     -365    -2674    -4522 
   -5913    -6996    -8678   -12699   -19378   -26212   -31056   -33929 
  -34944   -34314   -33406   -33351   -34180   -35057   -34794   -33457 
  -31676   -28757   -24339   -19091   -13052    -6963    -2782     -455 
    1952     5109     8636    12529    16946    21826    26596    30444 
   33216    35358    36869    37083    35719    33123    29308    24121 
   18070    11603     4618    -1837    -5119    -3763     1306     8131 
   14361    18434    21061    23703    26256    27828    28786    30132 
   31435    31340    29554    26812    23618    20202    16750    12735 
    7613     2509    -1212    -4470    -8781   -13769   -18253   -21619 
