Origin Time       2011/03/11 14:46:00
Lat.              38.103
Long.             142.860
Depth. (km)       24
Mag.              9.0
Station Code      AOM021
Station Lat.      40.6150
Station Long.     141.2083
Station Height(m) 71
Record Time       2011/03/11 14:47:24
Sampling Freq(Hz) 100Hz
Duration Time(s)  300
Dir.              N-S
Scale Factor      3920(gal)/6182761
Max. Acc. (gal)   97.284
Last Correction   2011/03/11 14:47:09
Memo.             
[...]
   -1214    -5440    -8791   -11270   -13348   -15055   -16070   -16229 
  -15288   -13119   -10040    -6246    -1964     1733     3755     4381 
    4979     6809    10287    14851    19371    22862    24943    25667 
   25138    23549    21433    19511    18459    18848    20838    23660 
   25648    25195    21990    17253    12877    10478    10724    12988 
   15569    16629    15371    12469     9486     7886     8121     9468 
   11023    12476    13433    12908    10267     6135     1884    -1419 
   -3249    -3415    -2198     -489      856     1997     3983     7316 
   11257    14914    18161    20763    21502    19297    14774    10004 
    6948     6553     8797    12454    15282    15691    13957    11269 
    8220     4871     1940      907     2575     6052     9361    10796 
    9810     6876     2824    -1426    -5031    -7662    -9296    -9514 
   -7775    -4490    -1155     1016     2138     2938     3548     3603 
    3029     2139     1293      725      424      188       49      431 
    1463     2192     1202    -1871    -6281   -11319   -16394   -20568 
  -23237   -24756   -25473   -24849   -22514   -19358   -16596   -14435 
  -12153    -8893    -4354      652     4595     6622     7097     6778 
    6320     6224     6352     5885     4281     2024       27    -1608 
   -3446    -5366    -6544    -6788    -6713    -6474    -5473    -3729 
   -2312    -2035    -2700    -3693    -4461    -4327    -2395     1890 
    8209    15669    23173    29398    33202    34160    32413    28420 
   22958    16973    11579     8154     7475     8717    10128    10518 
    9765     8580     8037     8703    10016    10831    10398     8552 
    5391     1410    -2439    -5514    -8008   -10437   -13121   -16289 
  -19906   -23074   -24399   -23265   -20366   -17391   -16323   -17999 
  -21048   -22890   -21763   -17683   -12084    -6945    -3981    -3983 
   -6334    -9561   -12691   -15409   -17167   -17170   -15130   -11471 
   -6996    -2836      -65     1272     1780     1564      888      804 
    1572     1756      104    -2800    -5415    -6753    -6493    -4527 
   -1009     3601     8706    13802    18641    23142    27358    31409 
   34950    36634    34711    28904    21446    15570    13307    14706 
   18340    22695    27175    31424    34778    37089    38944    40602 
   41606    41436    39884    36883    32252    25726    17598     9234 
    2642     -366     1033     5999    12384    17848    20792    21357 
   21263    21716    22008    20488    16336    10355     4413      177 
   -1924    -2607    -2732    -2824    -3415    -4842    -6601    -7964 
   -8822    -8978    -7804    -5411    -2831     -558     2218     6417 
   11590    16347    19800    21791    22466    22290    21652    20377 
   18277    15437    11562     6330      351    -5511   -11250   -17259 
  -23418   -29093   -33617   -36500   -37408   -36405   -34152   -31349 
  -28162   -24897   -22593   -21834   -21804   -21317   -19486   -15595 
  -10174    -5265    -2189     -446      929     2638     5437     9781 
   15231    20628    24920    27842    29536    29805    28413    25895 
   23380    21794    21914    24463    29132    34244    38024    39719 
   39654    38732    37806    37330    37373    37591    37373    36238 
   33947    30509    26436    22429    18709    15467    13435    12994 
   13571    14440    14827    13471     9506     3256    -4414   -12672 
  -20546   -26962   -31066   -32570   -32042   -30599   -28985   -27241 
  -25365   -23499   -21385   -18746   -16113   -14149   -12637   -11163 
   -9974    -9171    -7895    -5268    -1305     3571     8875    13881 
   18011    21237    23536    24028    21388    15312     7116     -952 
   -6917    -9999   -10434    -8679    -4858     1246     9454    18697 
   28018    37374    46368    53329    56634    55572    49666    39155 
   26023    12533     -776   -14064   -26092   -34553   -38118   -37334 
  -33744   -29291   -26275   -26097   -28025   -30138   -31274   -31379 
  -30275   -27475   -23323   -18899   -14793   -11078    -8104    -6310 
   -5587    -5094    -3650     -749     2646     4487     3629     1528 
     911     3555    10101    19757    29411    35059    34482    28148 
   18363     7938     -583    -5304    -5968    -4445    -3057    -2450 
   -1473     1563     7685    16268    24889    30642    31530    26708 
   16799     4203    -8040   -17539   -23065   -25033   -25113   -24553 
  -23163   -19979   -14444    -7042      652     6614     9419     8766 
    4963    -1788   -11127   -21266   -28702   -30097   -24143   -11644 
    4730    20763    32534    38654    40329    39735    38955    39467 
   41185    42030    39436    32539    23005    14061     8175     5408 
    4257     3610     3715     5440     8863    13090    16823    18317 
   16254    11434     6154     2185      441     1109     3254     5694 
    8137    10371    11299     9428     3576    -6435   -19106   -31730 
  -41592   -46873   -47182   -43506   -37182   -28697   -18158    -6911 
    2933    10243    14327    13939     8855     1059    -6958   -13599 
  -17058   -14887    -6266     6697    21204    35686    48793    58739 
   64256    64712    59800    50278    38478    27102    17598     9995 
    3585    -2599    -8921   -14065   -15497   -11568    -2904     8182 
   18720    25516    25978    19711     9121    -2122   -11084   -15930 
  -15425    -9405      449    11443    21422    28998    33139    33513 
   30540    24758    16829     7466    -2930   -13530   -22598   -28483 
  -30656   -29734   -26743   -22788   -19536   -19014   -22286   -28720 
  -36671   -44241   -49314   -50276   -47058   -40620   -31939   -21775 
  -10903     -502     8151    14186    17024    16737    14586    12069 
    9659     7015     3921      739    -1684    -2488    -1765    -1163 
   -2813    -7723   -15194   -22797   -27360   -26999   -21839   -12950 
   -1527    11123    23568    34289    41699    44364    41703    34458 
   24200    12939     3189    -2662    -3250     1477    10470    22050 
   34484    46559    57646    67159    74323    78389    78806    75464 
   68500    57892    44363    30112    17023     5121    -5911   -15028 
  -20850   -23025   -21361   -14957    -3088    13628    32736    50292 
   62236    66053    61860    52344    41070    30539    21899    15271 
    9559     3062    -5308   -15689   -27617   -40201   -51876   -60551 
  -64578   -63444   -57907   -49960   -41845   -34368   -26362   -15851 
   -1653    15716    34230    51166    63628    69306    67900    61510 
   53389    46796    43968    44380    44978    43514    40435    37477 
   36070    36777    39337    43212    47589    51319    53751    54649 
   53286    49479    44826    41441    40362    41111    41557    38753 
   31278    20424     8732    -1635    -9709   -16234   -22740   -29744 
  -36459   -41933   -45515   -46473   -44438   -40003   -34192   -28127 
  -23474   -21986   -24199   -28816   -33290   -35408   -34996   -33990 
  -34580   -37789   -43544   -50698   -57084   -60638   -60542   -57207 
  -51899   -46337   -41520   -37339   -33340   -28642   -22192   -13939 
   -4675     4721    13100    19149    22279    22765    21033    17679 
   13908    11159    10375    11388    13075    14822    17569    22978 
   31936    44027    57972    71978    83960    92244    96099    95438 
   90453    81699    70397    58654    48885    42468    39067    37395 
   36512    36482    38049    41643    46409    50267    50963    47238 
   39328    28250    15126     1205   -12597   -26284   -40456   -55342 
  -70300   -84350   -96541  -106142  -113314  -118638  -121742  -121692 
 -118156  -111382  -102097   -91561   -80759   -69468   -56947   -43483 
  -30185   -17804    -6767     2203     8076    10221     8646     3517 
   -4172   -11978   -17940   -22006   -24483   -24496   -20273   -10366 
    5002    23367    40984    55412    67014    76737    83023    82517 
   74029    60109    44831    31757    22703    17525    15480    15588 
   16780    18701    21181    24281    28767    34422    39860    44381 
   47167    46559    42516    37490    34034    32738    32442    31676 
   29362    24605    17055     7564    -2646   -13273   -24138   -34157 
  -42208   -47870   -51287   -53006   -53550   -53139   -51490   -47928 
  -42524   -36491   -31076   -26912   -23868   -21097   -17777   -13549 
   -8354    -2000     6437    18001    32214    46601    57721    62984 
   62247    57782    52830    50045    50277    52401    54759    56521 
   57686    58666    59316    58342    54882    49886    45307    43194 
   45094    50661    57093    60900    60057    54195    43626    29184 
   12345    -5339   -22579   -38548   -52970   -65296   -74326   -79090 
  -79482   -76510   -72594   -70868   -73046   -78199   -83984   -88447 
  -90772   -91182   -90276   -88740   -87603   -87521   -87935   -87777 
  -85784   -79977   -68945   -53147   -33957   -12779     8611    28182 
   44563    57299    66380    72365    76727    80965    85274    88781 
   90862    91771    92535    94394    97820   102125   105700   106057 
  100700    88736    71326    51597    34166    22950    18946    20186 
   23257    24901    23501    20225    17881    18340    22151    29621 
   40226    51567    60510    65087    64481    58296    47194    33139 
   17929     2798   -10463   -20218   -26696   -31028   -33574   -34399 
  -33402   -29626   -22467   -13603    -6561    -4276    -7284   -13800 
  -21218   -27679   -32319   -35194   -37614   -41130   -46250   -53043 
  -61450   -70205   -76972   -79690   -76958   -68109   -53890   -36742 
  -20093    -7158       57     1091    -3244   -11006   -18701   -21775 
  -17036    -4893    11141    27407    42376    55684    67024    77063 
   86590    94690    99514    99600    94704    86297    76408    66462 
   57425    49913    44081    39804    37073    35971    35991    36140 
   36054    36153    36993    38957    41487    42648    40659    35504 
   28871    23360    21350    23654    28879    33918    35520    32046 
   23673    11756    -1512   -14146   -25461   -35964   -46279   -55805 
  -62941   -66156   -64191   -56929   -46651   -37073   -31160   -30109 
  -33047   -37585   -42075   -46699   -52163   -58536   -64982   -69734 
  -70461   -65161   -52942   -34169   -10517    15116    39689    61517 
   80151    94932   104727   108942   107608   100904    89534    74720 
   57424    38207    17877    -1457   -16102   -22389   -19445   -10336 
     497    10396    18543    24749    29206    32110    33043    31640 
   28635    25459    23341    22842    23845    26114    28955    30584 
   29241    23905    13966     -193   -16916   -34114   -50071   -63675 
  -74371   -82180   -87289   -89745   -89862   -88171   -84771   -79439 
  -72591   -65423   -58773   -52781   -47732   -44576   -44635   -48549 
  -55274   -62700   -69168   -73744   -75609   -73783   -67366   -56514 
  -42822   -28368   -14980    -3625     5902    14291    22197    29702 
   35501    37652    36008    33096    31791    33319    37599    43500 
   48685    50322    46060    35096    19014     1094   -15017   -26163 
  -30407   -27273   -17886    -4597    10447    26052    41834    57485 
   71475    81111    84230    80479    71234    58962    46652    36858 
   30448    26543    23857    21249    17480    11736     4156    -4497 
  -13068   -20110   -24805   -27689   -30012   -32773   -35891   -37712 
  -35989   -30142   -22297   -15798   -13428   -16428   -23810   -33097 
  -42313   -50584   -57158   -61374   -63371   -63559   -62051   -59127 
  -55148   -49908   -42890   -34127   -24604   -16072   -10358    -8105 
   -7578    -5466      473    10336    22603    34721    44499    51081 
   54525    55305    53877    50057    43052    32757    20645     8599 
   -2402   -12213   -21252   -30048   -38712   -47501   -57113   -67777 
  -79013   -90115  -100060  -107065  -108554  -101924   -85686   -60402 
  -29275     2500    29930    50200    63376    72052    79314    86262 
   91840    94513    93697    90210    85738    81986    80038    80293 
   82981    88116    94876   101625   106308   106682   100880    88665 
   72548    57051    45874    39598    36473    34850    34127    34139 
   34910    36964    40965    46634    52740    58513    64145    69335 
   72478    72130    68219    61806    54777    49204    46128    45037 
   44274    41531    34792    24025    11407     -580   -10388   -17188 
  -20732   -21631   -21454   -22232   -25421   -31266   -39030   -47128 
  -53507   -57320   -59744   -62191   -64915   -67570   -69287   -68355 
  -63381   -54587   -43536   -32516   -24000   -19379   -18455   -20166 
  -23043   -25476   -26376   -26043   -26306   -29126   -34696   -40949 
  -45092   -45295   -40719   -31491   -19426    -7033     4369    14534 
   23403    30940    37102    41918    45516    48044    49747    51039 
   52388    53922    55515    57231    58822    59502    59045    58003 
   56538    54088    50165    44959    39425    34989    32800    32938 
   34623    37282    40709    43922    44873    42073    36007    28631 
   22161    18139    16729    16448    14649     9017     -873   -13428 
  -25792   -34735   -38074   -35931   -30484   -24939   -22462   -24740 
  -31486   -41295   -52373   -62989   -71838   -78026   -80878   -79977 
  -75637   -68607   -58940   -46533   -32761   -20101   -10387    -4266 
   -1915    -3258    -7709   -14847   -24601   -35805   -45712   -51650 
  -52587   -49124   -42345   -32870   -20805    -5628    13280    34865 
   56970    78822   100731   122116   140831   153590   157720   153175 
  141998   126531   108690    89774    71105    54655    41804    32576 
   26909    25039    25800    26619    26118    24516    22093    19118 
   15787    11524     5455    -2178    -9709   -15201   -17459   -16498 
  -13362    -9238    -5173    -2129     -382      405      218    -1177 
   -3608    -6952   -11163   -15614   -19355   -21424   -21276   -19664 
  -17451   -13527    -5790     6362    21196    35463    45893    50603 
   50032    46646    43072    40495    38707    36727    33597    29295 
   24543    20121    16864    15230    14617    13793    11740     8134 
    3566     -765    -3660    -4607    -4388    -4613    -6077    -8125 
  -10125   -12592   -16492   -22157   -28988   -35884   -41906   -46613 
  -50082   -53117   -57238   -63461   -71489   -81042   -92347  -104575 
 -115820  -124593  -129667  -129473  -123200  -111667   -96652   -80055 
  -63213   -46671   -30811   -15801    -1086    13896    28569    41232 
   50339    55177    54850    48132    35639    20974     8928     3038 
    4289    11005    19649    26471    29476    29282    28506    29954 
   34759    42698    53075    64334    74337    82055    88370    94085 
   98165    99141    96277    89608    80339    69908    58512    45970 
   33811    24956    21146    22174    26831    33143    38720    41602 
   41074    38309    35480    33653    31958    28276    20351     7410 
   -8820   -25205   -39051   -48763   -53692   -53915   -50049   -43724 
  -37936   -35649   -38242   -45499   -55990   -67392   -77401   -84731 
  -89264   -91556   -92078   -90437   -85495   -76067   -61384   -42073 
  -20958    -1761    13068    23145    29772    35064    40754    47731 
   55890    63564    68368    69073    65630    58405    48602    38212 
   29272    24032    24427    30262    39327    49261    58050    64259 
   68003    70364    71812    71861    69480    63241    51951    36059 
   18199     1891   -10570   -19181   -25202   -29742   -33515   -36581 
  -38102   -37271   -34452   -30912   -27452   -23762   -19608   -16155 
  -15637   -20463   -32046   -49338   -69295   -88841  -105878  -119353 
 -128965  -134636  -136244  -133620  -126961  -117167  -105007   -90611 
  -74412   -57617   -41413   -26490   -13629    -4111      989     1835 
      12    -2443    -4226    -4942    -4620    -3657    -2750    -2023 
    -492     3006     8618    15636    23178    30184    35583    38537 
   38403    34960    28585    20228    11275     2925    -4421   -10812 
  -16118   -20422   -24345   -28551   -33630   -39973   -46898   -52439 
  -54723   -53316   -48774   -41629   -32687   -23220   -13913    -5143 
    1564     4588     3982      752    -4132    -9826   -15920   -22283 
  -28413   -33327   -35959   -35735   -32965   -28236   -21373   -12186 
   -1827     8339    18071    27140    34519    39798    44124    48820 
   54204    60086    65979    70824    73841    75613    77347    79336 
   81244    83302    85641    87305    87228    84810    79534    71747 
   62975    54845    48507    44310    41593    39717    39058    40254 
   42850    45466    46796    45637    41204    34262    26891    20635 
   15446    10379     4562    -2334    -9707   -16221   -20812   -23219 
  -23529   -21440   -16137    -7134     4880    18362    31644    42855 
   49903    51600    48571    42643    35614    28545    21614    14657 
    8001     2295    -1988    -4099    -3312     -143     4164     9013 
   14535    21084    28640    36457    43617    49498    53462    54808 
   53246    49276    43903    37916    32145    27649    24449    21540 
   18545    15872    13530    10887     7517     3677       62    -2198 
   -1689     2176     8584    16006    22985    28869    34096    39336 
   44820    50587    56283    60827    62866    61182    55163    45556 
   33804    20732     6983    -5999   -16511   -23667   -27485   -28466 
  -27298   -24989   -22703   -20425   -16780   -11121    -4596     1044 
    4750     6449     6732     6314     5523     4215     1958    -1686 
   -6714   -12587   -18751   -24938   -30763   -35450   -38236   -38696 
  -36869   -33596   -30286   -27878   -26493   -26155   -27129   -29537 
  -33276   -38280   -44409   -51190   -57983   -64373   -70053   -74158 
  -75144   -71930   -64808   -54590   -41828   -27651   -14015    -2585 
    6106    12506    17367    21254    24219    25616    24387    19763 
   12311     4195    -2252    -6180    -8374   -10260   -13072   -17512 
  -23525   -30574   -38139   -45716   -52649   -57940   -60220   -58731 
  -54136   -47443   -38999   -29280   -19540   -10739    -2812     4338 
   10334    15143    19392    23564    27252    29726    30986    31650 
   32068    32030    31284    29995    28684    28120    29052    31556 
   34858    38055    40854    43667    47118    51467    56423    61291 
   65414    68544    70611    71357    70549    68620    66694    65617 
   65378    65751    66406    66068    62960    56308    47159    37913 
   30656    25968    23097    20449    16227     9522      956    -7943 
  -15639   -21032   -23894   -24777   -24813   -25492   -27356   -29767 
  -32681   -36626   -41219   -45708   -49827   -52937   -53505   -50440 
  -44371   -36930   -29537   -23247   -18723   -15897   -14235   -14004 
  -16215   -20618   -25467   -29269   -31516   -32486   -32698   -32535 
  -32479   -32564   -32114   -31031   -30044   -29545   -29307   -28797 
  -27237   -23854   -18632   -12773    -7754    -3953     -673     2890 
    6909    10540    12268    11075     6970      494    -7333   -14907 
  -20849   -24782   -27010   -27650   -26215   -22025   -15136    -6412 
    3717    15554    28758    41934    53775    63521    70337    73032 
   70792    63979    53995    42516    30575    18116     5046    -7732 
  -19041   -28205   -35084   -40338   -44870   -48647   -51055   -51978 
