Origin Time       2011/03/11 14:46:00
Lat.              38.103
Long.             142.860
Depth. (km)       24
Mag.              9.0
Station Code      AOM013
Station Lat.      40.4126
Station Long.     141.2813
Station Height(m) 29
Record Time       2011/03/11 14:47:17
Sampling Freq(Hz) 100Hz
Duration Time(s)  300
Dir.              U-D
Scale Factor      3920(gal)/6182761
Max. Acc. (gal)   28.001
Last Correction   2011/03/11 14:47:02
Memo.             
[...]
  -25806   -29232   -29433   -25877   -20818   -16312   -12464    -9011 
   -7562   -10718   -17996   -24167   -24489   -20410   -17410   -18474 
  -21811   -24585   -26292   -27516   -28293   -28040   -25740   -21952 
  -18931   -17224   -16058   -15617   -15413   -13020    -6694     1272 
    5360     2314    -5700   -13957   -18286   -16262    -9670    -3989 
   -3231    -7746   -15440   -22270   -23942   -19508   -12468    -8177 
  -10371   -18044   -25532   -27570   -24132   -19874   -19030   -21749 
  -25852   -29712   -32177   -32454   -30695   -27272   -23079   -20506 
  -21654   -25922   -30192   -31097   -27661   -22061   -17923   -17090 
  -17352   -15704   -13429   -14121   -18095   -21290   -19029   -11101 
   -2852     -631    -6242   -15606   -22509   -23373   -19656   -15898 
  -14573   -14529   -13716   -11385    -9415   -10622   -14028   -15307 
  -12261    -6990    -3755    -4922    -8645   -11656   -12808   -12993 
  -13405   -15168   -19298   -25246   -30382   -31882   -29339   -25172 
  -22141   -20978   -20174   -18857   -18621   -20153   -21797   -22985 
  -24825   -27547   -29829   -29809   -26674   -22064   -18691   -17455 
  -17300   -16295   -12589    -7051    -3394    -4038    -7827   -11447 
  -12287   -10367    -7911    -7617   -10059   -12568   -11930    -8007 
   -4443    -4770    -8504   -12393   -13539   -11554    -9335   -10576 
  -15708   -20977   -22577   -20793   -18140   -15822   -14121   -12971 
  -11726   -10651   -10564   -10731    -9578    -6625    -2878     -424 
   -1211    -4866    -8339    -8863    -6624    -4109    -3500    -5251 
   -8670   -12382   -14377   -13674   -12134   -12257   -13998   -15825 
  -16708   -16770   -17838   -21491   -26649   -31290   -34469   -35190 
  -32779   -29347   -28197   -29972   -32890   -34599   -33189   -29114 
  -24893   -21640   -18445   -15290   -13697   -14528   -17272   -20558 
  -22210   -21117   -19097   -18643   -19881   -21110   -21091   -19516 
  -16278   -12167    -9462   -10093   -13846   -18742   -22189   -23225 
  -23784   -24953   -25131   -24186   -24069   -25075   -25422   -23369 
  -18414   -11646    -6051    -5114    -9278   -15431   -20030   -20979 
  -18448   -14847   -12696   -13146   -15775   -18257   -17429   -12106 
   -4974     -364      -16    -2747    -6200    -7567    -6189    -5185 
   -7700   -12887   -17288   -19099   -19336   -19331   -19514   -20306 
  -21987   -24131   -26228   -27768   -27878   -26249   -23806   -22155 
  -22539   -24323   -25128   -23175   -18628   -13348   -10311   -11764 
  -16694   -21212   -22105   -19169   -14573   -11114   -10365   -12143 
  -15523   -19466   -22834   -24206   -22095   -16343    -9731    -7045 
  -10233   -15934   -19587   -19438   -16872   -15360   -17982   -24344 
  -30836   -34780   -35965   -33995   -28483   -21612   -16815   -15433 
  -16140   -16644   -15959   -15522   -16233   -16387   -14995   -13421 
  -13631   -17045   -22675   -26146   -23580   -16127    -8699    -5595 
   -7977   -13648   -18765   -20781   -20356   -19972   -21118   -22878 
  -22470   -18473   -12991    -9901   -11715   -16564   -19263   -16566 
   -9982    -4404    -3755    -7004    -9758    -9541    -8444    -9307 
  -10704    -9494    -5932    -3244    -4198    -8816   -15138   -20728 
  -22927   -21060   -18212   -17686   -19004   -19703   -19135   -19002 
  -21499   -26400   -30022   -29160   -25330   -23042   -23950   -25039 
  -23398   -19928   -17388   -17197   -18790   -20407   -20434   -19145 
  -18342   -18263   -16584   -12044    -7311    -6534   -11002   -17400 
  -20231   -17000   -10726    -6958    -8584   -13248   -16249   -15651 
  -13437   -12601   -13869   -15275   -15616   -16275   -18424   -21282 
  -23478   -24335   -23675   -21094   -16624   -11903    -9655   -11500 
  -15888   -19026   -18295   -13967    -8983    -7669   -11308   -16069 
  -18015   -16929   -15044   -14267   -14075   -13222   -12288   -12580 
  -14567   -17423   -19572   -20086   -19106   -18496   -20876   -25469 
  -27688   -24307   -17167   -11314   -10485   -14514   -19583   -21113 
  -18003   -13255   -10279   -10368   -12688   -15225   -16870   -17561 
  -16857   -15412   -15592   -18435   -22180   -24213   -23268   -19764 
  -15462   -12632   -12495   -15201   -20037   -24899   -28093   -29436 
  -28821   -27008   -26429   -28643   -32433   -35012   -34375   -30674 
  -26191   -23943   -25340   -29109   -32230   -31889   -27316   -20726 
  -16158   -15456   -16233   -15038   -10744    -5297    -2193    -3478 
   -7884   -11321   -10549    -7220    -6121    -9515   -15067   -18954 
  -19347   -18085   -20328   -29033   -39539   -43750   -39508   -33260 
  -32543   -38076   -44177   -44846   -39610   -33366   -30213   -29179 
  -26481   -20852   -15148   -12886   -14215   -14680    -9561     -504 
    5342     3424    -3448    -8972    -9590    -5491     1089     6269 
    6839     3794      405    -2573    -6815   -13046   -19142   -21757 
  -20353   -17991   -17764   -20527   -25090   -28074   -26163   -20608 
  -15913   -14335   -15427   -18373   -21348   -21543   -17893   -12006 
   -6899    -5671    -9075   -14212   -17586   -18654   -19333   -21404 
  -24991   -28732   -31272   -32095   -31131   -29074   -27091   -25626 
  -24604   -23416   -21151   -18716   -18508   -20778   -22653   -21726 
  -18365   -14207   -11515   -12328   -15587   -18339   -19288   -18781 
  -18319   -19696   -22204   -22855   -20081   -15917   -13986   -15434 
  -18136   -19109   -16847   -13121   -11504   -12596   -13690   -13415 
  -12976   -13486   -14442   -14063   -10734    -5110     -950    -2321 
   -9265   -17375   -21461   -19685   -15027   -12231   -13413   -16744 
  -18301   -15774   -11089    -8546   -10098   -13250   -14128   -11873 
   -9189    -8617    -9510    -9849    -9192    -8624    -9498   -11741 
  -12943   -11557   -10093   -12028   -17143   -22052   -23594   -21343 
  -17637   -14730   -13471   -14576   -18036   -22395   -25659   -25499 
  -20926   -14769   -11582   -12930   -16235   -18405   -19020   -18902 
  -18862   -20152   -22639   -24906   -26961   -29182   -30333   -28793 
  -24494   -19382   -16205   -16454   -18937   -20731   -19926   -17314 
  -15159   -14839   -16674   -19889   -21669   -19182   -13049    -7398 
   -5880    -8271   -11949   -14466   -13770    -9324    -3677     -851 
   -3164    -9302   -15072   -17218   -15917   -13462   -12457   -14098 
  -16916   -19064   -20975   -23589   -25899   -26039   -23874   -21512 
  -20668   -21213   -22712   -24340   -24273   -22198   -20502   -20860 
  -21928   -21276   -17899   -13774   -12753   -15859   -19543   -19557 
  -15184    -9984    -7930    -9495   -13125   -17531   -20660   -19780 
  -14580    -8736    -7157   -11839   -20139   -26577   -27130   -22734 
  -18141   -16899   -18323   -19265   -17955   -16308   -17660   -22607 
  -28768   -33124   -33961   -32423   -31388   -31968   -32423   -30698 
  -27224   -23959   -21364   -18616   -15253   -11339    -8262    -8888 
  -14621   -22588   -27011   -24079   -15315    -6185    -2546    -6622 
  -14302   -18925   -17979   -13877   -10989   -12794   -18397   -23336 
  -24975   -23836   -21591   -19940   -18583   -15842   -12775   -12997 
  -18338   -26137   -30869   -29415   -23733   -18243   -16105   -17143 
  -18931   -19772   -19464   -18195   -16435   -14905   -13491   -11407 
   -9243    -9036   -11673   -16359   -21996   -26955   -29201   -27951 
  -24547   -21669   -21317   -23349   -25972   -27249   -26458   -24198 
  -20598   -15215   -10152    -9378   -14038   -22000   -29426   -31359 
  -25888   -17403   -12180   -12693   -17352   -22664   -24974   -22613 
  -17285   -12781   -12035   -14773   -18155   -20396   -21970   -23125 
  -23561   -23685   -23907   -23891   -23049   -21395   -19314   -16999 
  -15529   -16320   -18531   -20246   -21698   -24102   -26726   -27863 
  -27141   -24998   -21565   -17149   -12904   -10315    -9851   -10635 
  -11273   -11053   -10809   -11221   -11041    -9179    -6304    -3810 
   -3561    -6382    -9108    -7145     -695     5222     5936      210 
   -9426   -19050   -26809   -31961   -32667   -28968   -25349   -26321 
  -31105   -35158   -34902   -29480   -21193   -14970   -13974   -16109 
  -17263   -16459   -15279   -14614   -14673   -14757   -12897    -9352 
   -7479    -9131   -12098   -12910   -11062    -9026    -8899   -10890 
  -13716   -15634   -16417   -18490   -24268   -31562   -34580   -30809 
  -23785   -18726   -18152   -20863   -23609   -24028   -21794   -18566 
  -17063   -17593   -17841   -17041   -16495   -16841   -17057   -15873 
  -13436   -10613    -8726   -10019   -14593   -18520   -18147   -14361 
  -10889   -10022   -11515   -13948   -16116   -17756   -18888   -19325 
  -18487   -15240   -10036    -6138    -6493   -10448   -14232   -14901 
  -13211   -11715   -12422   -16327   -22143   -26707   -28156   -27114 
  -25376   -24994   -26634   -28075   -27584   -27163   -29211   -33432 
  -37237   -37055   -32245   -26383   -22786   -21548   -20276   -16450 
  -10195    -4856    -4139    -8293   -13165   -13782   -10062    -7155 
   -9315   -16337   -24634   -29408   -28019   -22636   -18413   -18350 
  -21244   -24220   -25190   -23961   -21657   -19142   -16777   -14087 
  -10346    -6957    -6247    -7948    -9961   -11491   -13312   -15142 
  -14828   -11576    -8011    -7249    -9113   -10677   -10099    -8240 
   -6489    -5320    -4497    -2842     -193      475    -3331   -10188 
  -16663   -19568   -17610   -13108   -10686   -13298   -19965   -26677 
  -29428   -27758   -24484   -21921   -20338   -19957   -21603   -24251 
  -25199   -23295   -19157   -13975   -10247   -10276   -12879   -14863 
  -14860   -13086    -9682    -5942    -4779    -7698   -13057   -17530 
  -17931   -13744    -9147    -9454   -15064   -21568   -24335   -21939 
  -17769   -16683   -18607   -19108   -16220   -12637   -11392   -13442 
  -18278   -22460   -21581   -16523   -12557   -12098   -12373   -10877 
   -8840    -7829    -8428    -9470    -7964    -5281    -4745    -5075 
   -4439    -1970     2581     5840     3607    -4245   -12930   -16825 
  -15479   -13342   -13742   -16039   -18477   -20462   -21947   -22951 
  -22820   -20995   -18868   -18255   -20017   -23499   -25891   -26179 
  -26332   -27358   -30106   -35582   -42480   -49020   -54017   -55647 
  -52833   -47070   -41197   -36002   -30594   -25643   -22227   -19815 
  -17816   -15943   -12617    -7332    -3561    -4155    -7834   -12774 
  -18147   -22834   -25695   -26492   -26095   -25793   -26719   -28984 
  -30859   -29327   -22289   -11432    -1545     3422     2901     -334 
   -3173    -5132    -7172    -9312   -10841   -12210   -14873   -19016 
  -23510   -27529   -30793   -32693   -31856   -27423   -21137   -16576 
  -14772   -13402   -11502   -10380   -10736   -12575   -14799   -14646 
  -11190    -7498    -6663    -8179   -10339   -13410   -18359   -24139 
  -28160   -29659   -30565   -32262   -33647   -33166   -31492   -30712 
  -31744   -34210   -37059   -38620   -37775   -34721   -30475   -26843 
  -25934   -27950   -30080   -28468   -21916   -13504    -7159    -4691 
   -6593   -10688   -11934    -9210    -7162    -8631   -12692   -18329 
  -23902   -26855   -26620   -25307   -24500   -22999   -19453   -15405 
  -13481   -13827   -13742   -11080    -7452    -6148    -8033   -12013 
  -16532   -19361   -19425   -17843   -15960   -14301   -12814   -11345 
  -10477   -11681   -15926   -21999   -26978   -28601   -26680   -22395 
  -17396   -14039   -14145   -16246   -17745   -19119   -21015   -21841 
  -21256   -21071   -23407   -28824   -35655   -42490   -47888   -48327 
  -42300   -33601   -27759   -27832   -31864   -34037   -30818   -23549 
  -15175    -8818    -7168   -10054   -14886   -18555   -18188   -12956 
   -4275     5290    11825    12734     9479     5321     3107     4484 
    8364    11406    11003     7444     3197     -265    -3868    -8173 
  -11900   -13801   -13516   -11390    -9265    -9793   -13014   -15631 
  -15179   -12095    -8052    -5719    -7772   -13449   -18521   -19064 
  -14321    -6732      182     3886     4247     2976     1051    -2225 
   -7918   -14989   -19679   -18782   -12137    -3255     1823     -348 
   -7518   -15012   -19392   -19666   -17499   -15188   -13063   -10030 
   -5608     -669     3401     6417     9147    11228    11630     9906 
    5644     -548    -6138    -9375   -11478   -14919   -20427   -25681 
  -26849   -22618   -16622   -14612   -19019   -26183   -29238   -24395 
  -14442    -5569    -1096     -234    -1698    -4896    -8967   -13003 
  -15615   -14895   -10656    -5468    -2496    -2632    -4772    -7513 
   -8371    -5278       85     4003     4030      104    -5267    -9507 
  -12812   -16100   -18885   -21322   -24396   -27451   -29222   -30635 
  -32895   -35035   -35668   -33388   -27273   -19699   -14656   -14176 
  -17611   -21226   -20802   -16532   -11908    -9220    -9032    -9866 
   -7576     -449     8013    14266    16130    12213     5548      889 
   -1541    -4810   -10133   -14304   -14067   -11357   -10293   -12548 
  -16827   -20460   -22241   -23682   -27022   -31869   -34439   -32196 
  -27711   -25830   -28784   -34591   -38819   -38471   -33975   -27349 
  -21179   -17758   -17456   -19753   -23306   -24974   -22368   -16408 
   -9971    -4654      -18     4411     8381    10528     7979     -106 
   -9631   -15024   -14753   -13112   -16639   -27358   -38973   -42293 
  -35642   -26924   -24751   -30827   -40214   -45529   -43634   -38923 
  -37895   -43537   -53699   -60973   -57767   -46386   -38794   -40672 
  -45217   -45459   -41512   -37608   -37312   -39352   -39427   -34776 
  -26959   -21388   -20845   -22487   -21916   -16169    -5650     5258 
   11800    12827    10388     7175     5576     6398     6737     2574 
   -4633    -8490    -6241    -2015    -1406    -5895   -11903   -14188 
  -11092    -6520    -5070    -7093   -10435   -13680   -17069   -22007 
  -29404   -38103   -45050   -47635   -45898   -42318   -38891   -35884 
  -34690   -37068   -41291   -43906   -43851   -41791   -37515   -32228 
  -30201   -33643   -39464   -41627   -35849   -23868   -12461    -8377 
  -13017   -20585   -23241   -18357   -10256    -5320    -6219   -10686 
  -13890   -12662    -8874    -7162    -8813   -10419    -8256    -1580 
    5958     8151     2665    -7126   -15809   -17900   -12862    -8604 
  -10908   -16236   -20533   -22589   -21305   -20347   -25701   -34861 
  -39854   -37565   -29633   -19939   -14042   -13792   -14353    -9937 
      88    10803    16235    14760     9354     2897    -4603   -13561 
  -22258   -28157   -29513   -26057   -20877   -19815   -25000   -31382 
  -32714   -28127   -21665   -17091   -15026   -14958   -15434   -13906 
  -11562   -13068   -18795   -24561   -27506   -26965   -23971   -21348 
  -20752   -20652   -19276   -17023   -14083   -10700    -8845    -8861 
   -9346    -9579    -8570    -6572    -6210    -9235   -13553   -14350 
   -9692    -2287     4096     6191     3175    -1662    -4645    -5008 
   -3734    -2895    -4909    -9729   -14683   -16610   -14049    -9109 
   -4903    -2106     -597    -1302    -5053   -11138   -17704   -22832 
  -24545   -21967   -16605   -10955    -7534    -8604   -13922   -19671 
  -21922   -20810   -18866   -16736   -15040   -16536   -21408   -25247 
  -24883   -21968   -19313   -17597   -17048   -18752   -22162   -24755 
  -26100   -27796   -30245   -33177   -34890   -32554   -27248   -22184 
  -17139   -10775    -4348     -234      601    -1108    -3052    -1832 
    3308     8245     8333     4325     1347     1559     1863    -1168 
   -7611   -14520   -19230   -21891   -23411   -23204   -20798   -17928 
  -16925   -17791   -19610   -22851   -27509   -31591   -33014   -31676 
  -28843   -25854   -23981   -23026   -21887   -21624   -22658   -22030 
  -18624   -15330   -14754   -17202   -20306   -19195   -11764    -2671 
    1555    -1462    -9018   -16391   -21069   -22642   -20549   -15210 
   -9654    -7652   -10267   -15328   -19242   -19110   -15942   -13672 
  -14044   -17244   -23680   -31395   -37852   -42822   -45386   -43359 
  -37091   -29466   -22434   -15678    -8777    -4037    -4967   -11419 
  -19509   -25066   -25397   -21827   -19104   -19198   -19301   -16783 
  -13305   -12441   -15134   -19785   -23732   -24334   -22108   -20200 
  -19988   -20814   -20798   -16313    -6750     2141     5137     3634 
    1989     2261     3595     3627      592    -4863   -10099   -12304 
  -10728    -7104    -3214      319     3320     6504    10426    13356 
   13826    12375     9341     5657     3016     1598      281    -2456 
   -7041   -11617   -14302   -15189   -15658   -17141   -20115   -23440 
  -25074   -25224   -26388   -28696   -29745   -28392   -26627   -27823 
  -31441   -33706   -34648   -36000   -36013   -34327   -33047   -32317 
  -32278   -33291   -33609   -32186   -30046   -27686   -24910   -21693 
  -17663   -13621   -11346   -10942   -11938   -13496   -13196    -9516 
   -3190     2911     4889     1830    -3012    -5427    -4382    -3104 
   -4765    -9091   -13871   -17233   -18849   -19847   -20347   -18574 
  -15067   -14020   -17675   -24365   -31707   -37262   -38898   -36833 
  -33141   -28679   -23153   -17772   -14812   -16412   -22397   -28090 
  -30155   -30496   -30894   -31881   -33725   -33812   -29661   -23559 
  -19703   -20049   -24293   -30659   -36134   -38450   -39083   -41139 
  -43910   -44467   -42287   -38276   -33555   -30336   -30639   -33646 
  -35529   -33202   -27774   -22611   -18746   -14892   -11256    -9584 
   -9941   -11180   -13933   -19152   -24736   -27751   -28500   -28399 
  -26263   -21341   -16783   -15745   -17625   -20149   -21380   -20856 
  -21200   -25194   -31882   -37694   -39294   -35472   -27306   -17419 
   -9200    -4776    -3961    -5350    -7342    -8996   -10672   -12815 
  -14708   -16124   -17982   -20066   -21017   -20540   -19495   -18274 
  -16237   -13090    -9601    -6599    -5291    -7449   -13040   -18525 
  -19553   -16392   -13737   -14845   -19956   -27270   -32224   -31114 
  -26120   -23091   -25380   -31182   -35670   -34189   -25458   -14746 
  -10067   -13211   -18873   -20801   -16551    -9124    -2925      140 
    -740    -4113    -5810    -4303    -2013    -1128    -1476    -2061 
   -3185    -5794    -9611   -12909   -13203    -8647     -244     7091 
    7131    -1887   -14220   -22317   -24399   -22875   -19608   -16089 
  -15029   -18273   -22488   -22085   -15678    -5588     4520    10673 
   10320     4221    -2247    -3594     -256     4075     6417     4940 
    1111    -2025    -5068   -10286   -16602   -21517   -24066   -24142 
  -22860   -21572   -21511   -25095   -31571   -35967   -36054   -33190 
  -28358   -23074   -19291   -16338   -12919   -10726   -11472   -13344 
  -13115    -9444    -4264     -790     -711    -4501   -10235   -13007 
  -10627    -5647      532     7984    13908    15306    12418     7275 
    2419      564     1659     1610    -1604    -6061    -9791   -10792 
   -8758    -6367    -5551    -5894    -6434    -7278    -9565   -13705 
  -17571   -17248   -11033    -2600     1833      472    -2271    -2259 
     439     3903     4794       40    -8782   -17625   -25224   -32752 
  -40435   -46230   -47336   -43122   -36730   -33179   -34811   -39218 
  -42640   -42556   -38039   -31160   -25120   -21691   -22158   -26223 
