Origin Time       2011/03/11 14:46:00
Lat.              38.103
Long.             142.860
Depth. (km)       24
Mag.              9.0
Station Code      AOM007
Station Lat.      41.2256
Station Long.     141.3958
Station Height(m) 10
Record Time       2011/03/11 14:47:24
Sampling Freq(Hz) 100Hz
Duration Time(s)  300
Dir.              U-D
Scale Factor      3920(gal)/6182761
Max. Acc. (gal)   62.304
Last Correction   2011/03/11 14:47:09
Memo.             
[...]
  -24982   -19270   -12969    -7894    -4034     -129     5156    11550 
   16667    18588    17693    15448    13353    12754    14054    16168 
   17493    17158    14964    11286     7426     5033     5333     9012 
   15899    24534    32366    37236    39417    41151    43350    44009 
   40760    33758    25326    18053    13105     9259     4447    -2023 
   -8710   -12188    -9904    -3373     3336     6835     6014     2928 
    1506     4443    11774    21095    28843    32389    31188    27388 
   24661    24488    25121    24315    21363    17471    14843    14905 
   17321    20359    22497    23928    25772    28369    30715    31025 
   28126    22389    15615    10023     6332     3267     -702    -6409 
  -14075   -22259   -27247   -25557   -17303    -6283     2943     7611 
    7757     5948     5636     9015    15659    22864    27237    26137 
   19420    10193     2436    -1882    -3449    -4426    -6300    -8614 
   -9316    -6365      266     8588    15773    19538    20487    21775 
   25604    31632    37641    40895    40620    38717    36858    34764 
   31470    25789    16786     5733    -4161   -10422   -12863   -13649 
  -15526   -19154   -22744   -23127   -17628    -6988     4841    14141 
   19017    19052    15644    11717     9447     8792     8779     8836 
    8679     8475     8870    10063    11681    13264    14555    15646 
   16300    16023    15073    14097    13949    16000    20762    26831 
   32050    35087    35688    34150    31669    30308    31230    33782 
   36207    36600    34288    30240    25820    22229    20483    20420 
   20175    18346    16358    16472    18801    22237    25841    28737 
   30628    32097    33967    36058    36772    34995    31084    25931 
   20439    14706     8363     1821    -4674   -11246   -17145   -21075 
  -21605   -17805   -10347     -822     9108    17704    24382    30113 
   35350    39861    43753    45938    45002    41772    36972    30241 
   23156    17430    11739     4696    -2688    -8907   -12901   -14213 
  -13873   -13074   -11118    -6977    -1690     3263     7587    10693 
   11747    11263    10689    10794    11053    10563     9158     7601 
    6824     6816     6765     6081     4853     3881     3871     4636 
    5385     4964     2618    -1075    -5315    -9407   -11579   -10731 
   -8528    -7147    -6665    -6572    -7213    -7706    -6805    -6047 
   -6968    -8519    -9351    -8843    -7679    -7625    -8628    -8071 
   -3214     6592    18639    27263    28337    23966    20483    22934 
   31662    42485    50610    53362    50583    45634    42667    42192 
   42652    42848    41163    36879    31160    25237    20909    19936 
   20289    18479    14679    10642     7004     4924     5426     7347 
    8327     6563     2591     -595    -1900    -3687    -7635   -13771 
  -21754   -29514   -33734   -32364   -25616   -15753    -4966     5850 
   15942    25779    36591    46571    52405    53055    48821    41007 
   32808    26205    20272    14409     8891     3144    -2975    -8292 
  -11184   -10509    -6525     -521     6368    13373    19882    25726 
   30700    34138    36045    36519    34941    31705    27690    22588 
   16016     8198     -315    -8318   -14104   -16430   -15760   -14161 
  -13501   -14232   -15419   -15163   -11680    -4990     1934     4743 
    2271    -1744    -2924      137     6770    15394    23939    31341 
   37636    42679    46254    48520    49788    50002    48600    45185 
   40000    33617    25940    16780     7611       77    -6006   -10843 
  -13408   -12998    -9765    -4667      766     6297    12389    18200 
   22388    23351    19533    11888     3790    -2267    -6208    -8497 
   -8679    -6808    -4157    -1186     2948     8416    14442    19820 
   22954    23653    23743    25061    28645    34758    42127    47825 
   49053    45789    40412    35236    32099    31333    30350    26155 
   18135     7948    -1223    -5837    -4359     1193     7265    12233 
   16497    20462    24717    30535    37858    44266    47380    46735 
   42698    36482    30832    26941    23128    18451    13977    11361 
   11975    15110    17985    18448    16272    13275    11783    12464 
   14890    18213    21606    25137    28866    32555    36335    39984 
   42809    44284    44047    42050    38634    34242    28939    22654 
   16348    11627     9781    11344    15126    18744    20280    19745 
   19383    20529    21885    21787    19125    13395     5393    -2913 
   -8598    -9424    -7364    -7494   -12173   -20941   -32963   -44847 
  -52235   -53396   -48812   -41688   -35601   -30800   -26178   -20049 
  -10289     1562    11575    18491    22582    24479    26570    30533 
   34716    36358    34885    31203    26111    22123    22096    24934 
   28112    30681    31403    31534    34042    37333    39945    42177 
   41938    39695    36645    31337    25296    20796    16996    13469 
   11903    13288    13900     8295    -3024   -16221   -29180   -39216 
  -44951   -48479   -51192   -52647   -51897   -47844   -39845   -28342 
  -16376    -7524    -1460     4041    10292    19118    31019    42691 
   50213    52168    49094    43640    39733    38448    38736    40281 
   41015    39235    37172    36406    37373    42188    50572    58674 
   63665    64864    62314    56972    50760    44990    39686    34043 
   26734    17865     9859     4322     1018     -252      -27      221 
    -551    -2094    -4056    -6770    -9543   -10940   -12213   -16011 
  -21726   -27514   -32950   -36499   -37334   -37776   -39664   -42458 
  -44136   -41791   -34335   -24173   -13875    -4679     1732     5550 
   10429    19063    30872    43316    52677    57264    59456    62012 
   66001    70969    74628    75475    73012    65373    52903    40338 
   31576    27045    24978    22324    17195     9937     1803    -5853 
  -13789   -24749   -37937   -47697   -49620   -44983   -39900   -40335 
  -45451   -49217   -49809   -49314   -45188   -33075   -14674     6291 
   28320    48647    64331    74678    79260    78300    73266    66209 
   60109    55885    50485    41459    29351    15771     3588    -3666 
   -4750    -1095     4335     8321     9451     8459     7540     9208 
   13690    18260    19655    16037     8157      178    -3239    -1253 
    3346     6744     6858     4856     2779     1519     2117     5499 
   10265    14032    16261    17741    19518    22170    25367    29280 
   33945    37874    40120    40651    39253    36788    34767    34022 
   35254    38126    40183    38840    33626    26062    18240    12315 
   10379    12229    14426    13802     9751     3511    -2048    -4372 
   -3870    -2229     -750     -931    -2384    -2220      949     6446 
   14167    23780    33955    43345    50653    55097    56682    56312 
   55573    53925    48556    38701    26449    14344     4654    -1549 
   -5829   -11596   -21365   -34800   -48800   -58628   -60291   -53295 
  -40977   -28873   -21514   -18828   -16784   -11065      297    15068 
   27292    31441    26537    16959     9566     8720    13899    21453 
   26966    27492    23572    18776    16575    17099    17807    17194 
   15040    10485     3805    -2547    -6962    -9532   -10615   -10622 
   -9841    -9111    -9813   -11323   -11480   -10135    -8810    -8276 
   -8845   -10452   -11571   -10314    -6164       70     6864    12780 
   17329    21119    25274    30091    34642    38358    41498    44230 
   46859    49699    52223    53654    53884    53163    51072    47091 
   42444    38554    35127    32187    29851    26279    19743    10754 
    1558    -5300    -9079   -10236    -8539    -4178     1898     9009 
   16012    21198    24176    26571    29857    33910    37832    39576 
   36573    28681    17827     5767    -5601   -14056   -18784   -21297 
  -23649   -25979   -26970   -25938   -22591   -16375    -7904     1148 
    9554    16500    21881    26205    29318    31587    34943    40507 
   47583    54926    60449    61663    58190    51858    45212    40947 
   39800    39818    39317    38082    36760    36604    37789    38977 
   38728    35453    28596    20333    13628     9942     9213    10098 
   10530     9314     7183     5529     4581     3332      820    -2768 
   -6790   -11304   -15996   -18764   -17690   -14113   -10461    -6438 
   -1226     4377    10402    17503    25424    34153    42520    47470 
   47903    44629    37981    29630    22768    19461    19956    22345 
   23420    21863    18490    13984     8976     4887     2739     1749 
     498    -1259    -3153    -5008    -6355    -6669    -6263    -5734 
   -5453    -6736   -10645   -15467   -18146   -16543    -9967      507 
   12607    23887    32665    38612    41992    42858    41356    38078 
   34072    30771    28643    25871    21089    15838    10986     5380 
      14    -2874    -3312    -1963      921     4707     9342    14981 
   20454    24220    25989    26083    24785    22670    19857    16666 
   14760    14702    15070    15223    15574    16029    16321    16310 
   15134    12075     8132     4836     3054     3174     4623     6014 
    6330     5693     4959     4408     3579     2321      870     -606 
   -1537    -1085      956     3758     5047     2645    -2301    -5866 
   -5715    -2353     3430    10357    16412    21705    27396    33022 
   37651    40260    39518    35698    30915    26405    21448    14879 
    6510    -2276    -9767   -15417   -19364   -22093   -23962   -24550 
  -23610   -21188   -16989   -10980    -4035     2017     5896     8525 
   11676    16458    23275    30558    35067    34957    30052    20465 
    7979    -3906   -13348   -21148   -28183   -33552   -35749   -35795 
  -36117   -35633   -31960   -25354   -15799    -3597     9102    22055 
   35594    48077    58172    65102    68165    67588    64206    59176 
   53621    47866    41946    35732    28446    19833    11011     3503 
   -1391    -2789    -1023     2405     6230    10237    14942    20721 
   27147    33544    39605    44554    46844    46420    45494    45634 
   46627    47774    48035    46597    43814    40013    34725    27803 
   19601    10485     1279    -6905   -13881   -19900   -24399   -26809 
  -26807   -23525   -16577    -6903     3696    13498    21898    28675 
   33364    36271    38104    39496    41064    42490    42901    41838 
   39176    35106    30304    25781    21973    19016    17837    18458 
   19428    20690    22982    25033    25199    23755    21835    19708 
   16786    13380    10801     9456     8461     6098     1279    -4293 
   -7875    -8700    -7192    -4130    -1548    -1484    -3764    -6455 
   -7575    -6168    -2699     1749     6207     9417    10493    10202 
   10341    11955    14731    17873    20098    19496    15969    11954 
    9521     9306    10810    12716    14972    18357    22291    26343 
   30889    35264    38282    39479    39070    37912    36899    36200 
   35456    34145    31612    27526    23034    20228    19659    19607 
   17329    10995     1713    -7626   -14976   -18959   -19823   -20600 
  -23553   -28258   -33391   -36643   -35784   -31360   -25640   -20498 
  -17089   -15103   -12952    -9485    -4939     -857     1461     2625 
    3992     6349    10103    14195    16487    16917    17183    17968 
   19501    22328    25828    28742    31204    34506    39402    45032 
   49907    53868    57332    59867    61325    61793    60600    57991 
   55236    52168    47577    40731    31325    20448    10756     4060 
     126    -3099    -8130   -14654   -19907   -23129   -25688   -28166 
  -30754   -33545   -35319   -34674   -30785   -23752   -16542   -11847 
   -8017    -3442      836     4629     8327    11966    16342    21233 
   25185    27647    28373    27099    25056    24452    26135    29213 
   32441    34396    34356    33976    35762    40239    46023    52014 
   57404    60588    61618    62708    64468    65837    66080    63858 
   57076    45447    31657    18404     6000    -5232   -14069   -21479 
  -29548   -37438   -42797   -45057   -44459   -40291   -31723   -19301 
   -5269     7540    17401    24352    30255    37331    44703    49085 
   49414    46716    41226    32992    23040    12633     2891    -5017 
  -10198   -12115   -11064    -8731    -6391    -3644      455     6342 
   12654    17369    20683    23166    24231    24239    24022    23758 
   23657    23793    23742    22588    19500    15280    12382    13147 
   18130    25464    32687    38665    43134    46466    49979    54385 
   57910    57875    53838    47025    38225    28577    20343    14988 
   12094    10071     6944     1705    -4991   -12001   -18690   -24466 
  -28561   -31389   -34699   -39159   -43264   -45575   -45964   -43342 
  -36431   -27992   -22159   -18667   -14980   -10203    -4172     2885 
    9992    17364    26385    36627    45831    53227    58836    61050 
   59732    57115    53497    47662    40083    32677    27464    24853 
   22479    18050    11839     4868    -1563    -5328    -6565    -8456 
  -13334   -20959   -30000   -38958   -44862   -44742   -40842   -38896 
  -41846   -47605   -50423   -46737   -36998   -21668    -2469    17421 
   36497    53583    68075    80833    90240    93267    90268    83315 
   74338    66086    59994    55925    53828    50900    43112    31756 
   21555    15771    16414    22850    30824    36643    39022    37997 
   34838    29223    19521     7338    -5980   -21538   -38103   -54185 
  -69155   -80233   -85363   -84139   -77018   -67091   -56845   -44376 
  -27096    -6149    15316    34811    49890    58831    62318    61463 
   56656    49196    39824    27854    14108      296   -12693   -22165 
  -25056   -22725   -18007   -10772      -58    14380    32041    49744 
   62757    68836    69248    66978    64455    62064    58346    51169 
   39272    23874     8418    -3955   -12272   -17553   -21217   -23408 
  -23262   -20028   -13989    -7109    -1532     2418     5555     8888 
   13732    19879    24522    26142    26634    27714    29298    30766 
   31037    29732    27961    26765    26673    27652    28680    28934 
   28538    27640    26100    23923    20806    16132    10464     5494 
    2904     3913     7605    11259    13780    16112    19243    23211 
   27206    31442    37251    44386    51156    55915    56722    52800 
   46447    40823    37118    34594    31465    26328    19208    10851 
    2637    -3499    -6602    -7576    -8413   -10305   -12825   -14907 
  -15440   -13926   -11331    -9318    -9086   -10974   -13788   -15001 
  -13344   -10317    -8045    -7340    -7937    -8812    -8388    -5590 
    -650     5188     9979    12393    13259    14286    16741    21340 
   27047    32247    36652    39141    38300    35500    33082    32132 
   32280    32257    32945    36454    41297    44398    45092    43147 
   38043    31404    26265    24075    23331    21368    16684     8859 
   -1068   -10531   -17605   -21230   -21500   -21364   -24004   -29516 
  -35992   -40129   -38571   -32164   -24850   -18950   -15164   -12655 
   -8433     -858     8476    17128    23073    25593    26222    26834 
   27974    29673    31251    30651    26581    21082    18045    18804 
   21791    26026    30228    31643    29742    26815    25026    25206 
   25972    24418    19688    14569    12188    12619    14384    16387 
   17327    16688    15352    13825    11700     8399     4595     2920 
    5411    11444    18227    21782    19875    14145     7954     4255 
    4119     5454     5131     1798    -3397    -7685    -8926    -6554 
   -1424     4186     8221    10036     9667     8073     6893     7201 
    9609    13467    16400    16936    15471    13090    11513    12053 
   14213    16235    16148    13664    11780    13835    19508    25750 
   29807    30533    28555    25608    23281    22006    21373    20987 
   20131    17931    14091     8413      975    -7208   -14821   -20846 
  -24345   -24644   -22471   -19704   -17565   -15903   -13718   -10335 
   -6365    -2960      -60     3801     9948    18344    27081    32946 
   33386    28601    22095    17844    16977    18087    18738    16864 
   13147    10723    11406    14685    19723    24798    27667    28732 
   29722    30640    31029    30940    29737    26836    23423    20795 
   17831    12652     5000    -4246   -13565   -20947   -25459   -27612 
  -28273   -29030   -31144   -33253   -33012   -29442   -22842   -14949 
   -7540     -446     6789    13729    20201    25902    30478    34408 
   37553    38869    38426    37133    35760    35387    36335    37543 
   38023    37101    35381    36069    41009    47238    50816    50509 
   47651    45332    45380    46113    44636    38715    27971    15483 
    5022    -2218    -6939   -11178   -16635   -21854   -24156   -22894 
  -18618   -12062    -4299     3859    11800    18772    24187    27734 
   29613    30581    31380    32184    32451    31225    27691    22152 
   16328    11524     7196     2184    -3233    -7021    -7515    -4982 
    -597     4295     8061    10011    11034    12040    13142    13994 
   13920    12983    12223    11737    10971    10693    11453    11474 
    8828     3723    -2458    -7623    -9252    -6692    -1633     3902 
    8872    13431    17889    22077    25829    28117    27451    24380 
   20951    18696    18140    18442    18270    17200    15362    13060 
   10820     8907     7444     6491     5554     4335     3567     4089 
    6090     9344    13291    17061    19631    20233    19278    18581 
   19617    21969    24069    24434    22414    19158    17111    17124 
   17625    17600    17158    15590    12926    10890     9950     8971 
    7466     5729     3966     1618    -1978    -5932    -8789   -10544 
  -11889   -12489   -11649   -10259    -9537    -8916    -7921    -7365 
   -7375    -7267    -6725    -5640    -3632     -145     3993     6168 
    5448     4282     5657    10901    19922    30984    40275    44528 
   44396    43053    42624    43400    44185    43020    39388    34805 
   31019    29358    30538    33470    35608    34816    30437    23813 
   17959    15151    14486    12704     7289    -1487   -10368   -15227 
  -14467    -9479    -3160      846      223    -4153    -9200   -11544 
   -9407    -4067      917     2453     -114    -5158   -10115   -13020 
  -13310   -11913   -10523    -9755    -9259    -9589   -10909   -11237 
   -8979    -4761      962     8779    17663    25221    30694    34321 
   36075    36782    37458    38553    40137    40675    38469    34316 
   29523    24443    20451    19376    21228    24257    26048    25134 
   21903    17448    13509    12694    15950    21067    24731    25080 
   22248    17468    12691     9994    10047    11767    13110    12216 
    9402     6946     6174     7039     9542    12851    14765    14075 
   11924    10026     8823     7645     6478     6516     8448    12236 
   17440    22340    25463    27041    27523    27442    28208    30694 
   34290    37548    38823    37455    34563    31898    30409    29877 
   28996    26302    22044    18251    16274    15385    13704     9625 
    3142    -3896    -9231   -11488   -10327    -6396    -1008     4518 
    8861    10590     9159     6053     4156     5336     8763    11502 
   10908     7180     3384     2280     3914     6633     8786     9396 
