Origin Time       2011/03/11 14:46:00
Lat.              38.103
Long.             142.860
Depth. (km)       24
Mag.              9.0
Station Code      AOM008
Station Lat.      41.0844
Station Long.     141.2554
Station Height(m) 16
Record Time       2011/03/11 14:47:30
Sampling Freq(Hz) 100Hz
Duration Time(s)  300
Dir.              N-S
Scale Factor      3920(gal)/6182761
Max. Acc. (gal)   62.340
Last Correction   2011/03/11 14:47:15
Memo.             
[...]
   41547    45388    45877    42309    34756    24240    13481     6305 
    5139     8561    13351    17699    19777    17243    10810     4069 
   -1068    -5033    -7474    -7661    -7289    -8383    -9589    -8601 
   -6090    -4592    -5121    -6159    -5684    -2724     2462     7797 
   10175     8589     5709     4121     2571     -232    -1375     2297 
    8854    13154    13204    11662    10727     9901     8657     7393 
    7256     9899    15414    22582    31485    41878    50085    51634 
   45911    36731    29451    27022    28173    29603    28973    26035 
   21844    16894    11328     7099     7517    13276    20352    24088 
   24437    24329    25155    27251    30631    32167    27439    17084 
    6202    -1803    -6541    -8427    -8116    -6211    -3114      664 
    5381    12023    20425    29203    36278    37797    30304    15544 
    -123   -11209   -16161   -16383   -14495   -12479    -9947    -5755 
   -1095     1768     2872     4212     7023    10997    15034    17862 
   19312    20801    23285    25697    25928    22786    17386    12705 
   12063    17540    27912    38371    43216    39073    26960    12188 
    1535    -1060     2888     8026     9804     8368     8134    13220 
   24256    39520    55889    68557    73811    72181    66594    58900 
   49834    40643    32961    27250    22149    16032     9241     3096 
   -2907    -9556   -14493   -14255    -8604      -24     8987    16486 
   21494    24502    26217    26492    24797    20493    13046     3816 
   -3381    -5608    -3289      900     3812     3800     1923      947 
    3426     8965    13508    14250    13931    16604    21035    22761 
   20943    19592    22665    29664    36818    40282    36777    25954 
   14272    11016    18457    30712    42001    51170    59034    65147 
   68056    65690    54598    34692    14090     1753    -1220     2132 
    9596    17869    23374    25431    24048    18727    12389    10833 
   16287    25439    33365    35867    31083    21732    11915     2379 
   -6561   -10880    -6975     2877    13347    21397    26499    29191 
   29753    27226    22261    18628    19080    23080    28430    32743 
   34869    35396    35244    35030    35368    35353    32046    24830 
   17682    13901    12300     9973     5001    -2097    -8058   -11419 
  -14645   -18529   -20310   -19390   -19561   -24012   -31463   -38059 
  -39142   -30187   -11638    10026    29484    45387    56231    60193 
   58249    52889    45716    38819    34235    31186    28851    29460 
   34002    38294    36442    27268    16149     9445     8701    11184 
   12410     8170    -1987   -13441   -20484   -21328   -18592   -15915 
  -15435   -16888   -17682   -15399   -10162    -3082     5656    14974 
   21543    22696    19833    17818    20829    28395    35827    39238 
   38564    35169    29777    23655    18256    12398     2704   -11419 
  -25310   -33188   -32725   -24768   -11609     3270    16267    26070 
   33320    37379    36758    32207    25826    19049    13597    11257 
   11804    13652    15119    13882     9117     4257     4073    10239 
   21004    32325    38946    37990    31225    21367     9815       30 
   -2629     3055    13182    24733    37106    48595    57500    64305 
   68430    66600    56777    41216    25032    12619     5460     2580 
    1992     1714      216    -3719   -10614   -18852   -24572   -24658 
  -18777    -7443     8702    26824    42752    53853    59394    59473 
   54973    48212    42470    39864    39198    36216    28163    17000 
    4847    -9115   -24385   -37914   -46748   -48500   -41849   -27494 
   -8598    10064    25194    35536    41103    44960    50702    57119 
   59919    56772    48444    37502    26030    12755    -5137   -26373 
  -45273   -55922   -55281   -45604   -33008   -21504   -11743    -4658 
    -854     1201     2020      -96    -4022    -4451     1330    10912 
   22045    33344    41064    41965    37193    30060    23111    18309 
   16904    18797    23181    28567    31919    28926    16819    -1545 
  -18281   -26153   -22266    -8557     9200    25396    37902    45849 
   47782    43821    35471    24138    12279     1878    -8328   -19898 
  -30791   -36803   -34432   -21924    -1202    20332    34585    40129 
   40482    37346    29301    14763    -4833   -24894   -40207   -46180 
  -40572   -24740    -1732    23858    45187    58174    66046    74264 
   84044    93472   100975   106174   108132   104825    96479    86145 
   75606    63380    46803    25958     5159   -10357   -17897   -18268 
  -15376   -13474   -13930   -15285   -15268   -12927    -9664    -6424 
   -1102     8192    19041    26723    29501    28829    26056    22132 
   16886     8730    -1271    -9757   -16481   -24216   -35122   -48784 
  -61641   -68332   -64313   -50025   -32649   -19541   -12054    -8637 
   -8420    -9496    -8990    -4806     5724    24669    49034    72297 
   90576   103872   112098   113337   106569    93281    75942    56896 
   38400    22660    10886     2280    -4014    -7298    -6837    -2964 
    3228    11430    21770    32208    40546    46247    48532    48211 
   47465    44840    36156    20529     2873    -9544   -12765    -9203 
   -4954    -3914    -6681   -12529   -18644   -20982   -17569    -9246 
    2203    16009    31603    45808    53394    50767    38311    21349 
    8127     3224     3956     3933     -544    -5875    -4601     6016 
   22534    40139    55161    65904    73521    80847    89546    98486 
  104215   103150    93955    77219    55505    34592    18681     5517 
   -7838   -19408   -27013   -30949   -30119   -23797   -15165    -7200 
    1008    11958    25996    39634    48217    49944    45493    36014 
   24108    13356     5788     2158     1423      202    -3140    -7116 
  -10431   -12955   -14766   -15597   -14011    -7502     4403    18136 
   29382    35911    36509    30724    20953    12561     8905     7503 
    4711     2593     7111    20070    36030    46677    47195    39855 
   31325    26484    24757    22326    18185    13681     6928    -4729 
  -18615   -29015   -33297   -31750   -24867   -15146    -6636     -184 
    5478     9964    11907     9174     -148   -14298   -28277   -37380 
  -40038   -37830   -32407   -24435   -14619    -3313     9371    22808 
   36502    50092    61617    68965    73640    79213    87480    97371 
  104870   105178    95633    76855    52505    26210      287   -20726 
  -30103   -24846    -8766    10838    26692    33220    30180    23169 
   17947    16931    18564    17481     8924    -6756   -25151   -41107 
  -51051   -54917   -55104   -52155   -44943   -35245   -26858   -21036 
  -16067   -11080    -8331    -8251    -6738     -462    12501    33870 
   60081    82047    92979    92459    83088    66139    42350    17257 
     239    -4995    -2819     1914     8885    20706    38355    59502 
   80101    94714    97843    87526    67410    45083    26751    13975 
    5746      468    -3617    -9066   -19169   -32764   -42235   -40566 
  -27128    -6235    17187    38622    52900    56749    51545    40824 
   26716    11378      242    -1028     6632    16334    22933    26657 
   28227    24119    12205    -2510   -15275   -27937   -42821   -56910 
  -64108   -60955   -49244   -33248   -18249   -10611   -13045   -20717 
  -25461   -23411   -17271   -10899    -4403     3438    12009    21123 
   31461    40446    43824    41834    38680    37348    36759    32527 
   21049     3800   -12508   -21126   -20420   -12765    -1292    10579 
   19543    22969    18907     8153    -4527   -13968   -19340   -24289 
  -31187   -37730   -40876   -39021   -31424   -19657    -6240     7140 
   18034    24246    26096    25742    25377    24600    19099     5049 
  -14029   -27925   -29231   -19530    -5674     7183    18682    30625 
   43001    54627    65035    73886    82023    91900   103518   112452 
  112866   101261    79615    55842    38977    32501    33117    35617 
   35929    31982    25921    22266    22846    25394    26222    24093 
   20978    19445    20395    22243    21727    16319     7799     2651 
    4754    10082    12262     9164     3428     -737    -1853     -510 
    3407     9267    14622    16261    13261     9288     7800     8069 
    7430     3384    -4270   -12092   -15534   -12302    -3665     6983 
   17028    25872    34033    41468    46704    47982    45170    40567 
   37368    37183    39231    41154    41287    40383    40330    42083 
   44061    42781    37350    30700    25355    21857    20868    23407 
   28295    32150    33133    30719    23711    13525     5491     3875 
    8749    18132    28983    35810    33953    23974     9461    -5528 
  -15093   -13795    -2828     9883    17495    20503    23484    28043 
   32536    34034    28035    13249    -4206   -16944   -22703   -23197 
  -20997   -18154   -17440   -22186   -30352   -32896   -23419    -4085 
   19473    42015    58150    63966    60570    53766    48150    43958 
   40390    37143    33471    29369    26645    27833    33213    39858 
   45405    49216    49765    45801    38572    31809    30514    36220 
   44565    50778    54583    58153    61892    64715    66951    69093 
   70248    71042    72999    73778    68934    57906    44551    33613 
   27258    23524    18361     9156    -3394   -16022   -24735   -25607 
  -16400      461    18672    33109    41832    43492    37432    27021 
   18214    14193    14985    19821    26516    32239    35038    33034 
   26222    17824     9393    -1234   -13702   -23684   -30374   -37090 
  -43853   -46757   -43359   -35124   -25231   -15629    -7614    -1658 
    4869    15005    28628    43741    57482    66267    67705    61743 
   50118    35881    22761    14306    12246    13490    11265     2074 
  -10829   -21050   -24352   -21533   -17687   -19039   -28680   -42994 
  -53830   -56357   -52729   -46490   -37447   -25010   -12217    -2814 
    2614     5335     5724     2777    -3668    -9702    -9618    -2746 
    5573     9453     6102    -4013   -16785   -25546   -26188   -20745 
  -15445   -16031   -22986   -31662   -38455   -43076   -44273   -37918 
  -21068     3673    29122    47608    56008    59066    62736    66060 
   66241    64101    59478    50470    38385    26444    15786     6914 
     964    -1747     -739     4272    10427    14212    16646    21348 
   27998    31656    28908    22237    17883    19458    24675    29860 
   34524    39379    43362    43702    37579    24229     6583    -9052 
  -17713   -20015   -19327   -17818   -15976   -13364   -10040    -6852 
   -4636    -4219    -5522    -5327     1595    16612    34816    50378 
   61306    67570    68245    62510    51002    35822    20503     8629 
    1356    -2649    -4290    -3355     -735     1263      280    -5134 
  -14651   -25750   -34532   -36852   -29755   -15090     -636     7207 
   10366    14052    19056    23920    27447    25802    14977    -3637 
  -24328   -40780   -47953   -43664   -29136    -8316    13235    30146 
   38843    38562    32737    27774    26420    25182    22097    20183 
   21119    23691    26839    29295    30214    30949    33262    36883 
   39749    39547    34897    26668    18883    16083    18826    23963 
   28833    31491    29171    22370    16247    13053     9279     2924 
   -2407    -3217    -1490     -588     -110     1401     3148     3685 
    3255     3280     3862     3784     3335     4492     8294    13204 
   15635    13507     9906    10700    18022    28057    35731    39697 
   41302    41111    38742    33757    26244    18401    14185    16557 
   24855    35024    44169    52241    58470    61645    62737    62694 
   59892    51689    38040    23693    15126    15291    22810    33859 
   43989    50253    51321    46965    39183    31412    26141    24090 
   24068    23383    20225    16558    17676    27619    44675    62407 
   75474    82255    82197    75654    65954    56326    47025    38779 
   34515    35197    36806    33943    25914    17470    14001    16579 
   22195    28888    37032    45408    51489    55291    57308    54906 
   46596    35886    26479    19328    16058    18592    25371    31654 
   32659    26747    16052     4181    -5715   -12796   -18536   -23307 
  -25346   -23129   -16432    -6365     4369    12606    16841    18111 
   18694    19326    18034    13097     5949    -1410    -9988   -21732 
  -35201   -45777   -50332   -49639   -45868   -40218   -32541   -22187 
   -9846     3917    20892    40769    57635    66540    69028    68337 
   64895    59420    54165    48801    40934    31564    25500    25862 
   30175    32431    28433    19414    11204     9055    13585    21457 
   27073    25675    18047     9344     3656     2635     5543     7850 
    3737    -7552   -20150   -27732   -29521   -29130   -29869   -33071 
  -38019   -41870   -42352   -40129   -37422   -36135   -36780   -38192 
  -39170   -39228   -36587   -28303   -14240     2660    20762    39472 
   55872    66606    71839    74036    73366    68439    60254    50124 
   37405    22222     6887    -5151   -11564   -12688    -9632    -3749 
    2154     5993     8249    10055    11359    12404    15918    24617 
   37049    49228    58721    64005    61947    49862    29443     6500 
  -11925   -20297   -17849    -9561    -2104      318    -3193   -10131 
  -15677   -16001   -10864    -3475     1581      551    -6469   -14013 
  -16315   -13323    -9069    -6644    -7287   -10996   -15552   -18727 
  -21888   -28453   -40231   -55821   -71039   -80989   -82854   -77831 
  -69353   -59991   -51160   -42557   -32363   -21918   -16640   -18417 
  -20954   -16230    -3728    10162    19742    23274    22482    21508 
   24314    32474    43792    52455    53940    50046    45637    41805 
   36201    28155    19503    12149     7998     9147    15541    24641 
   33968    41281    44565    45012    46754    51991    59519    67956 
   76288    81768    81969    77105    67867    55431    43033    33672 
   28559    28147    32213    39399    47751    56129    64147    70507 
   73447    72883    70145    65081    55439    40490    22921     5935 
   -9486   -24173   -38732   -52239   -62559   -67352   -65923   -59974 
  -51351   -41088   -30487   -20700   -11983    -4270     2136     7570 
   13596    20832    28212    34479    38295    38235    33834    26440 
   18643    11925     5691     -612    -5525    -6732    -5061    -4718 
   -6835    -7791    -5782    -2347     1495     5042     6984     6970 
    6023     5776     6871     6510       75   -11622   -20323   -19308 
  -10392      150     9325    18792    28737    35398    37150    37970 
   43782    56463    70991    80968    84269    80846    71344    59119 
   49506    45603    44669    41306    34656    29458    29906    34615 
   39330    41348    39295    33280    24844    15488     6979      362 
   -4995    -9533   -12088   -10072    -2533     8296    20731    33899 
   46123    56889    65371    69042    67181    62006    56520    52535 
   49718    46137    40758    35594    32692    30430    26868    23329 
   20661    17231    14527    17838    28701    42715    54731    62786 
   67535    70117    71354    71236    69241    65733    61030    53730 
   43402    32688    23655    17173    15493    20027    28844    37597 
   42912    45276    46883    49159    52262    53332    48227    37301 
   26437    20523    18171    16031    14232    13421    12520    11773 
   13235    17137    20443    21123    20432    19528    18413    17584 
   17332    16194    12613     8251     6866     9972    15656    21454 
   26977    32484    37165    41024    44789    47156    46421    43441 
   39946    36999    35767    36701    38154    37601    34794    31633 
   28032    21134    10081    -1190    -9475   -17129   -25473   -30280 
  -29276   -25140   -19769   -13497    -8275    -6271    -6385    -5848 
   -4739    -5071    -7129    -9814   -12090   -13262   -13460   -12786 
  -10206    -4835     2506     9062    11666     9743     5971     3462 
    3421     5193     6621     4870     -749    -7689   -13131   -16799 
  -19674   -20840   -18456   -13456    -9401    -9193   -12696   -17778 
  -23731   -30441   -34207   -29975   -19037    -9087    -4609    -2103 
    3535    12697    23139    33402    41287    43022    36648    24507 
   11565     2588     -935    -3095    -8812   -17017   -22799   -22827 
  -16191    -4031     9945    20717    26049    27275    25148    20585 
   17994    20725    26477    31290    32813    28885    19545     8916 
     594    -4756    -6418    -3310     4348    15078    25489    30985 
   30534    28287    27561    26903    25449    26749    32566    38639 
   40513    38546    35527    33808    34674    36599    35454    28692 
   17654     5806    -3773    -9644   -11949   -12149   -12404   -13482 
  -14124   -14057   -15046   -16246   -12060      618    16116    25515 
   24938    15852     1657   -13099   -23048   -25145   -20675   -13387 
   -7374    -4405    -2791    -1928    -3259    -5370    -6258    -8506 
  -14449   -20500   -22405   -21487   -20822   -20022   -17114   -11397 
   -4248     1237     3374     3393     3068     2831     2653     4536 
   11214    21445    30894    36976    39690    39870    37911    33552 
   27300    20944    15602    10400     4513     -334    -1605      632 
    3603     4243     2004     -417     -263     1599     1917      164 
   -1191    -1725    -3227    -5817    -7556    -6501    -3848    -4755 
  -12455   -23789   -33040   -37140   -35913   -29919   -20565   -11357 
   -6386    -7321   -12447   -18589   -23450   -26282   -27534   -27088 
  -22913   -14433    -5601     -686     1194     4116     9068    13258 
   14808    13805    10699     7576     8730    16304    26169    31738 
   31977    31947    36266    46423    61517    77259    87956    91662 
   90883    87848    81594    71501    60705    53477    51078    51008 
   50348    48756    46483    43086    40529    42155    47126    51388 
   53355    54039    53408    50767    47797    46273    43772    36393 
   23398     6798    -9858   -21518   -25228   -23508   -19892   -14486 
   -7223     -476     3577     4696     3783     3075     5566    11880 
   19970    27812    33716    36413    36632    37024    40610    48302 
   56710    59804    54132    42815    33239    30180    33151    40087 
   49078    56007    56584    51311    43459    34542    25062    15746 
    6492    -2869   -10278   -12477    -8612     -523     9856    20459 
   27986    30850    31567    33003    34361    33125    28779    22781 
   16937    12950    12045    14501    18915    22539    25355    31261 
   40853    48324    49582    46584    42367    39502    42101    51776 
   62980    67742    63936    55840    49053    47322    50859    55221 
   54595    47683    38289    30333    24974    21567    18551    15057 
   13083    14445    16046    13670     8100     2075    -4836   -13794 
  -23027   -30450   -36300   -40431   -41313   -39352   -37385   -37330 
  -38363   -37981   -33836   -25251   -14451    -5945    -2489    -2036 
    -703     2827     7524    12776    18886    24935    28717    29460 
   27992    25863    26244    31093    37488    40931    40399    38298 
   36774    35805    35302    35526    35096    32085    25894    16794 
    5698    -4955   -11371   -11175    -5676     1750     8072    11563 
