Origin Time       2011/03/11 14:46:00
Lat.              38.103
Long.             142.860
Depth. (km)       24
Mag.              9.0
Station Code      AOM013
Station Lat.      40.4126
Station Long.     141.2813
Station Height(m) 29
Record Time       2011/03/11 14:47:17
Sampling Freq(Hz) 100Hz
Duration Time(s)  300
Dir.              N-S
Scale Factor      3920(gal)/6182761
Max. Acc. (gal)   98.226
Last Correction   2011/03/11 14:47:02
Memo.             
[...]
   -1925   -13634   -23297   -30242   -35746   -40610   -43631   -42858 
  -37387   -28341   -18283    -8750     1097    12444    24056    32368 
   34346    29498    19240     5668    -9003   -22762   -33838   -40928 
  -43921   -43768   -41039   -35627   -28165   -20376   -13971    -9259 
   -4597     1668     8535    12700    11714     6024    -1973    -9856 
  -16294   -21252   -25191   -27690   -27601   -24870   -20411   -14473 
   -7413     -846     3821     6802     9093    10849    10965     8103 
    2054    -5791   -13350   -19171   -22998   -25118   -25509   -24315 
  -21901   -17783   -11269    -3040     4738     9437     9590     6129 
    1393    -3410    -8764   -15057   -21672   -27159   -29843   -29575 
  -28048   -26297   -23581   -19032   -12792    -5778     1019     7229 
   12795    16650    16530    11251     2519    -6605   -14153   -19420 
  -21909   -21296   -18177   -13862    -9444    -5360    -1427     2548 
    6013     7804     7176     4877     2786     1880     1174     -671 
   -3481    -5848    -6375    -4955    -3419    -3587    -5403    -8093 
  -11010   -13030   -13245   -11777    -9241    -6434    -4113    -2201 
      99     2595     3169      263    -4452    -7792    -8354    -7108 
   -5799    -5411    -5935    -7203    -9768   -14540   -21139   -27364 
  -30849   -30658   -27529   -23458   -20221   -17679   -14576   -10632 
   -6634    -3445    -1725    -1614    -2622    -4242    -5826    -6044 
   -4187    -1595     -378    -1255    -3198    -5063    -7113   -10257 
  -14469   -18624   -21628   -23660   -25333   -25837   -24088   -20632 
  -16473   -11952    -7685    -4419    -1628     2220     7904    14348 
   18926    19022    13991     5533    -4154   -13622   -21706   -27423 
  -29974   -28714   -24247   -18315   -11926    -5211     1053     5194 
    5684     2038    -4834   -13187   -21777   -30293   -38105   -43311 
  -43828   -39185   -30552   -19687    -8819     -355     4549     6709 
    7905     9256    10277     8984     3542    -5323   -14394   -20947 
  -24727   -26835   -27247   -24433   -17768    -8958     -583     5812 
   10283    13714    16165    16371    13670     9185     4457      190 
   -3632    -7018    -9460   -10378    -9986    -9239    -8627    -7416 
   -4518      -79     3915     5062     2646    -1961    -6984   -12034 
  -18151   -26128   -34719   -41004   -42720   -39746   -33597   -25977 
  -17859   -10080    -3822      303     2225     1542    -1372    -4917 
   -8491   -12783   -17531   -21416   -23635   -23504   -19647   -11730 
   -1772     7624    15060    20098    22706    23062    21310    17474 
   11629     4381    -2957    -9007   -13209   -15861   -17382   -18008 
  -17736   -16112   -13061    -9780    -7749    -7930   -11342   -18084 
  -25577   -30087   -30041   -26676   -21939   -16760   -11090    -4634 
    2145     7221     8306     5626     2113       65    -1003    -2820 
   -6358   -11360   -16495   -20340   -22946   -25080   -25588   -21992 
  -13528    -1806    10169    19097    22826    21028    14788     5905 
   -3663   -12545   -21001   -30088   -39308   -46559   -49865   -48524 
  -43491   -36283   -27426   -16668    -4667     6338    14007    17452 
   17323    14837    10579     4489    -3299   -12403   -21819   -29446 
  -33626   -34596   -33347   -30165   -24999   -18533   -12221    -7350 
   -4562    -3941    -4812    -6069    -7115    -7670    -7323    -6073 
   -4191    -1431     2339     6016     7742     6526     3015    -1068 
   -4006    -5400    -6675    -9402   -13322   -17052   -19749   -20971 
  -20322   -17991   -14492   -10031    -4735     1188     7321    12272 
   14078    11977     6711     -320    -7481   -13326   -16401   -15394 
  -10917    -5479    -1093     1764     4020     7152    10994    13561 
   13399     9986     3066    -6085   -14428   -19451   -20689   -19376 
  -17305   -15603   -14049   -11584    -7964    -4430    -2456    -2578 
   -4190    -5717    -5556    -3901    -2749    -3229    -4306    -4512 
   -3892    -4016    -6243   -10168   -13664   -14658   -13701   -13738 
  -16472   -20722   -24306   -26070   -26736   -27701   -28581   -27166 
  -21970   -14388    -7819    -3918    -1267     1854     5660     8980 
    9751     6735      834    -6083   -12951   -19357   -24803   -29004 
  -31441   -30719   -26161   -19254   -12044    -5122     1949     9165 
   15339    18613    17975    13874     7515      128    -7710   -16232 
  -25470   -34507   -41889   -45974   -45278   -39670   -30703   -20699 
  -12033    -6116    -2436      787     4931     9751    13389    13819 
   10503     4495    -2187    -7351   -10226   -11866   -13164   -13434 
  -11826    -9201    -7316    -7018    -8539   -11980   -16023   -18177 
  -17382   -15015   -13311   -13449   -14975   -16719   -18130   -19572 
  -21425   -23474   -25016   -24892   -22314   -17912   -12994    -8290 
   -3884      202     3652     6293     8488    10539    12090    12281 
   10290     6219     1467    -2383    -4514    -4766    -3925    -3760 
   -5617    -9143   -12502   -13721   -12221    -9075    -5360     -972 
    4288     9426    12763    13441    12067     9604     6087      821 
   -6634   -15693   -24753   -32279   -37822   -41238   -41250   -36316 
  -26811   -15088    -3921     4287     8346     9107     8272     7083 
    6541     7129     8325     9189     9055     7741     5292     1752 
   -2364    -5594    -6267    -3747     1213     6938    11460    13549 
   13540    12533    11009     8802     5519      748    -5260   -11341 
  -16264   -19678   -22224   -24577   -26317   -26142   -23250   -18244 
  -12631    -7846    -4739    -3286    -2987    -3817    -5831    -8347 
  -10573   -12731   -15948   -20519   -25034   -28007   -28903   -27499 
  -24091   -19931   -16018   -12069    -7687    -3637    -1057     -610 
   -3021    -8953   -17787   -27015   -33368   -35390   -34354   -32239 
  -30116   -28266   -26497   -24703   -23288   -22705   -23045   -23974 
  -24903   -25581   -26157   -26765   -27378   -28091   -29065   -29396 
  -27154   -21336   -12758    -3333     4922    10858    14799    18064 
   21235    23031    21578    16479     8941      628    -6850   -12232 
  -15130   -15759   -13985    -9141    -1182     8535    18227    26403 
   32119    35729    38047    38617    36104    29966    21087    10911 
     302   -10504   -21284   -31451   -39740   -44168   -43566   -39312 
  -33720   -26912   -17031    -3127    13091    27855    37298    39553 
   35728    28441    19457     9308    -1481   -11663   -19637   -24346 
  -25542   -23490   -19195   -14186    -9516    -5678    -2850     -955 
    -256    -1258    -3805    -7313   -11640   -16981   -23103   -28909 
  -32880   -34063   -32792   -30504   -28637   -27676   -27169   -26335 
  -24623   -22248   -19785   -16821   -12340    -6451     -274     4926 
    7498     6324     2399    -2512    -7839   -13274   -17464   -18858 
  -17232   -13836    -9779    -5052      653     7762    16664    26355 
   34450    38651    37209    29301    16381     2051   -10134   -18448 
  -23322   -26080   -26922   -25079   -20583   -14428    -7784    -1365 
    5210    12339    19121    24104    25966    23578    16644     5967 
   -6737   -19203   -29694   -38070   -45306   -51545   -55269   -55032 
  -51401   -46194   -40457   -34746   -30495   -28802   -28811   -28961 
  -28578   -27894   -27826   -29121   -31240   -33006   -33754   -33049 
  -30257   -25103   -18143   -10292    -2062     6824    16667    26169 
   32857    35621    35542    34559    33854    32698    29178    22334 
   13194     4319    -1889    -5412    -8248   -11357   -13310   -12107 
   -6966     1070     8939    13353    13730    11693     8087     2445 
   -5051   -12842   -19512   -24608   -27948   -29679   -30534   -30754 
  -29483   -25743   -19218   -10539    -1765     4685     8156     9624 
    9792     8206     4044    -2685   -10665   -17887   -23313   -27341 
  -30230   -31747   -32140   -31793   -30438   -27220   -21264   -12656 
   -2967     5824    12774    18001    21800    24163    24544    21952 
   15943     7204    -3055   -13458   -22523   -28985   -31979   -30809 
  -24776   -14072     -527    13463    25968    35213    39471    37992 
   31647    21923     9786    -3982   -18063   -30590   -40053   -46329 
  -50393   -52637   -51859   -46820   -38111   -27356   -15899    -4877 
    4766    12364    17181    18335    15453     9431     2091    -5100 
  -11703   -18033   -24649   -31470   -37280   -40798   -41831   -41466 
  -41329   -41343   -38397   -28891   -12441     7558    26407    40487 
   47499    46162    36483    19395    -3057   -27009   -48204   -63810 
  -72593   -74673   -71051   -62697   -49831   -32651   -12756     7321 
   24975    37677    43850    43423    37657    28379    17155     5968 
   -3307   -10592   -16019   -17820   -13880    -4347     8260    21116 
   32334    41058    47593    51843    52382    49009    43293    35544 
   24339     9011    -9133   -27541   -43283   -53993   -59277   -60519 
  -58476   -52409   -41765   -26731    -8035    11536    27276    35925 
   37244    32148    21369     5807   -13490   -34909   -55199   -70677 
  -79635   -82196   -78883   -70620   -58054   -40420   -18274     3678 
   19829    28195    29739    25616    16410     2281   -15462   -33042 
  -46588   -54792   -58085   -56691   -51137   -42605   -31589   -18485 
   -4285     9859    22559    32368    37936    38620    35270    29256 
   20777     9269    -4730   -20352   -37593   -54981   -68923   -76243 
  -74885   -64495   -47481   -26823    -3835    20693    44852    65607 
   79525    83909    78665    66270    49047    28571     7441   -11078 
  -24960   -33882   -38555   -40489   -40648   -37900   -31242   -22314 
  -14051    -8667    -6653    -6706    -7678    -9642   -11979   -13425 
  -13860   -13159   -11153    -9358    -9246   -10904   -14382   -19062 
  -22609   -22670   -18312    -9463     2944    16203    27196    34379 
   37910    39017    39236    38965    36077    27044    11034    -8223 
  -25566   -38118   -46395   -52082   -54760   -52252   -43278   -29284 
  -14596    -3552     2697     5631     5958     2126    -6726   -18279 
  -28489   -33748   -33124   -29084   -23720   -17303   -10483    -2921 
    6307    15556    22046    23621    19460    11906     4265    -2777 
   -9885   -17214   -24683   -31732   -37596   -41840   -44140   -44173 
  -41271   -35578   -29215   -23943   -19118   -13342    -7065    -2395 
    -575    -1589    -5935   -14070   -24427   -34802   -44776   -54127 
  -61093   -64401   -64252   -60280   -51173   -36975   -19490     -398 
   18919    36479    50079    57514    56862    48155    33801    16584 
   -1857   -20486   -37761   -51799   -61161   -64762   -61873   -52725 
  -38330   -19963      299    19598    36180    50199    61531    68571 
   70113    66724    59883    51024    41272    31016    20077     8712 
   -1916   -10361   -15853   -18186   -17679   -16275   -16624   -19473 
  -23109   -24833   -23107   -18930   -14674   -11939   -10754    -9876 
   -8212    -6094    -4609    -4861    -7809   -13420   -20440   -27353 
  -33409   -38585   -42725   -45742   -47915   -49034   -48472   -45908 
  -40925   -33150   -23217   -12509    -2574     5397    11437    16218 
   19938    22413    22819    19459    11166     -980   -13752   -24071 
  -30501   -32355   -29550   -23726   -17976   -14965   -15395   -18285 
  -21691   -23527   -23009   -20358   -15518    -8431      580    11023 
   22313    33463    43017    50214    55534    59560    62142    62119 
   57878    49137    37227    23504     8890    -5978   -21258   -37340 
  -53492   -67688   -77487   -81112   -78373   -70878   -60852   -49915 
  -39033   -28232   -16741    -4505     7583    18345    26450    31422 
   34289    36240    36981    34696    27207    13114    -6843   -29318 
  -50181   -66470   -77083   -82196   -81585   -74407   -61328   -45920 
  -32945   -25205   -22399   -22520   -23812   -25471   -27048   -27576 
  -25315   -19259   -10154     1531    16550    34558    52924    68153 
   77843    82151    83541    84488    85584    85850    83600    76588 
   63349    44812    23497     2339   -15498   -27551   -33318   -33930 
  -30248   -22348   -11523     -755     6916     8905     4324    -4601 
  -15333   -27068   -38649   -49143   -59121   -68340   -76460   -84881 
  -92967   -96070   -90092   -74877   -52796   -26955    -1096    20908 
   36173    43498    43459    37920    29281    18959     6516    -8141 
  -22683   -33866   -40761   -45350   -48628   -48076   -40235   -24066 
   -3015    15685    26488    30151    30679    29084    23487    13041 
   -1532   -17868   -31748   -39643   -39557   -30117   -12476     8561 
   27602    42012    51604    55816    52666    40366    19630    -4687 
  -25096   -35228   -32819   -21053    -6072     8189    21408    33676 
   43419    48149    45720    36014    21201     4074   -12366   -25527 
  -34880   -41053   -43552   -41766   -37049   -32138   -29641   -30771 
  -34580   -38912   -41749   -42178   -41111   -39746   -37654   -33254 
  -24731   -11962     1708    12082    17489    18655    16949    12492 
    3312   -12395   -32667   -52416   -67418   -75514   -75796   -68562 
  -54632   -34238    -8316    19082    42587    59363    69087    72669 
   71721    67249    59532    49298    38456    30093    26558    27076 
   28426    27858    25036    21866    20398    20531    20477    19073 
   16582    14181    13158    13247    11865     6181    -4611   -20156 
  -40907   -67332   -97636  -127314  -150556  -162769  -162948  -153691 
 -139032  -121840  -102481   -79763   -53108   -23972     4792    30676 
   52152    67973    76758    77437    69345    53173    33068    15353 
    3820    -3155   -10648   -21435   -32576   -38370   -35021   -23074 
   -7324     6823    17462    25441    30731    31575    26901    17853 
    6845    -3546   -11722   -18448   -26058   -35545   -45001   -51602 
  -54034   -51703   -43578   -29202   -10118    10303    29198    45440 
   58902    69830    77470    79989    76105    64981    46807    24166 
     717   -20117   -35569   -44359   -46279   -41717   -31730   -18334 
   -5143     4181     8617    10531    13231    16981    19298    18376 
   13999     7447     1519    -1333    -1260     -977    -3284    -8734 
  -15922   -23156   -29844   -37596   -48447   -60913   -71336   -78378 
  -82176   -82204   -78455   -71364   -60756   -46936   -31090   -14202 
    2370    16402    26608    33225    36593    37238    36694    36441 
   36352    34624    29327    20250     8184    -6657   -23185   -38375 
  -49397   -55147   -55461   -50341   -40537   -27648   -13190     1403 
   14473    24022    27883    25169    16621     3531   -11028   -21525 
  -23815   -18584   -10360    -3676      498     3720     5976     5029 
    -499    -9008   -17085   -22413   -25560   -28464   -31357   -32652 
  -31088   -26831   -21693   -17935   -16204   -15576   -14663   -12059 
   -6816     1014    10191    18949    25572    28113    25103    17036 
    6700    -2176    -7437    -9760   -11423   -14489   -19705   -26571 
  -34518   -42812   -49286   -52149   -52513   -52320   -51329   -47462 
  -39063   -26557   -11758     3660    18344    31359    42602    51471 
   55217    50909    38239    18677    -5779   -32048   -56643   -77042 
  -91563   -98605   -96764   -86189   -68681   -45698   -18307    10522 
   35748    52686    58666    53236    37925    15778    -8826   -30996 
  -47185   -55832   -57072   -52299   -42936   -30493   -17411    -5709 
    4821    15873    27938    39025    46289    47408    40949    27993 
   12513    -1300   -11503   -18784   -25014   -30803   -34061   -31379 
  -21707    -7816     6525    19102    28374    32354    30288    23925 
   15841     6836    -4734   -20239   -38208   -54738   -65676   -69191 
  -66134   -58583   -48474   -36354   -22248    -7490     5306    12739 
   11767     1595   -16037   -37676   -59191   -77344   -90387   -97469 
  -98131   -91629   -76789   -53331   -22929    11138    44324    71451 
   88950    96236    94491    85478    70976    51742    28607     4993 
  -15343   -32086   -46200   -56315   -59909   -56479   -47634   -35274 
  -21800    -9922     -711     5610     8147     6608     1602    -6554 
  -17815   -31478   -45589   -57850   -66765   -72131   -75279   -77150 
  -76331   -70924   -60649   -46086   -27772    -6530    15966    36910 
   53317    63860    69019    69302    64958    57658    50239    44591 
   41061    39015    37860    37988    39710    42060    43562    42595 
   36849    25387    11655      889    -4023    -2179     5054    13543 
   20596    27059    33229    37572    39516    39554    38741    38540 
   38503    35789    28261    16912     4816    -5265   -12157   -16776 
  -21138   -26346   -30456   -28455   -17613    -1138    15731    29416 
   37594    38813    33304    22907     9553    -5799   -22318   -37621 
  -49263   -57695   -64357   -68496   -68628   -65122   -60178   -56102 
  -53361   -50133   -44353   -35638   -24862   -13507    -3863     1525 
    1079    -5197   -15976   -28971   -41222   -50015   -54251   -54449 
  -51111   -44508   -35778   -26014   -15631    -5685     2417     7833 
    9508     6845     1735    -2091    -1343     5329    16061    26737 
   34631    40001    44686    50232    56160    59740    58050    50388 
   38864    26460    14715     3815    -5889   -13196   -16542   -14704 
   -6401     9442    31054    53302    71279    82910    88462    88762 
   83464    71109    50831    22759   -11561   -47030   -76859   -98282 
 -112533  -120313  -121153  -114058   -97716   -73265   -44162   -13812 
   13689    35344    51293    61172    63094    56753    43633    25671 
    4675   -17092   -37084   -54493   -68531   -76375   -76844   -71478 
  -61381   -47384   -30949   -12849     7013    28329    49326    66186 
   73801    68303    49317    20898    -9793   -36804   -57349   -69900 
  -74025   -70709   -61372   -48102   -33595   -20395   -10664    -5241 
   -3417    -4433    -7822   -12635   -18005   -23375   -27406   -28669 
  -27449   -25005   -21882   -18343   -15161   -13379   -13818   -15983 
  -17837   -17142   -12767    -6261    -1270      461      -52    -2095 
   -6144   -12334   -19450   -25376   -28851   -30517   -31743   -33055 
  -33963   -34081   -34336   -36011   -38914   -42218   -45454   -47809 
  -48971   -50243   -52680   -54855   -53726   -47416   -36602   -23652 
  -11401    -2466     1545      384    -4976   -13171   -23555   -34326 
  -40696   -38697   -29145   -16366    -5037     2456     7527    13773 
   23229    34473    44405    50730    52504    49866    43662    34971 
   24710    13799     4383     -801    -1675    -1019     -771     -860 
   -1080    -1135      213     3427     6712     8382     9076     9904 
   10686    10779     9660     6882     2540    -1948    -4783    -6217 
   -8247   -12521   -19412   -26858   -30696   -28020   -19434    -7735 
    4389    15509    25172    32515    35913    34085    26844    15623 
    3226    -7629   -15485   -20268   -22366   -22253   -21217   -20874 
  -21559   -22207   -21743   -19906   -17274   -15158   -14901   -16900 
  -20115   -23125   -26003   -29600   -33923   -38697   -43173   -45269 
  -42234   -32218   -16224     2281    20318    36258    49105    59110 
   66499    69154    65129    55324    41127    23024     2124   -18890 
