Origin Time       2011/03/11 14:46:00
Lat.              38.103
Long.             142.860
Depth. (km)       24
Mag.              9.0
Station Code      AOM022
Station Lat.      40.9923
Station Long.     140.9161
Station Height(m) 4
Record Time       2011/03/11 14:47:34
Sampling Freq(Hz) 100Hz
Duration Time(s)  300
Dir.              E-W
Scale Factor      3920(gal)/6182761
Max. Acc. (gal)   43.041
Last Correction   2011/03/11 14:47:19
Memo.             
[...]
   -2661    -4325    -6379    -8289    -9405    -9327    -8351    -7222 
   -6201    -5071    -3811    -2542    -1378     -485      274     1056 
    1484     1335      700     -384    -1374    -1708    -1676    -1847 
   -2718    -4516    -6726    -8498    -9195    -8793    -7993    -7277 
   -6458    -5531    -4970    -4991    -5260    -5337    -4892    -3804 
   -2071      388     3031     4587     4200     1913    -1475    -4849 
   -7637    -9717   -10830   -10960   -10667   -10643   -11180   -12058 
  -12961   -13714   -13981   -13378   -11894    -9868    -7726    -5814 
   -4344    -3344    -2595    -1837     -915      299     1664     2819 
    3857     5235     6816     7861     8042     7657     6933     5914 
    4691     3294     1915     1002      678      786     1387     2328 
    3047     3438     3954     4746     5602     6305     6455     5617 
    3742     1076    -2023    -5130    -7792    -9777   -11407   -13043 
  -14333   -14797   -14366   -12995   -10815    -8271    -5746    -3891 
   -3307    -3676    -4548    -5948    -7698    -9510   -11295   -12923 
  -14168   -14757   -14641   -14113   -13467   -12793   -11888   -10363 
   -8262    -6300    -5115    -4615    -4409    -4369    -4582    -5279 
   -6633    -8288    -9574   -10157   -10328   -10636   -11057   -10930 
   -9872    -8076    -5808    -3322    -1063      772     2379     3579 
    3953     3712     3476     3689     4367     5012     5248     5300 
    5413     5427     4871     3486     1835      659       47     -288 
    -600     -795     -740     -948    -1932    -3594    -5673    -7861 
   -9695   -10904   -11756   -12664   -13609   -14424   -15152   -15919 
  -16649   -16778   -15832   -14210   -12647   -11549   -10977   -10419 
   -9134    -7120    -4812    -2360       52     2230     4330     6283 
    7785     9040    10278    11321    12410    13773    14720    14614 
   13469    11378     8521     5253     1996     -852    -3300    -5568 
   -7579    -9258   -10578   -11362   -11698   -11822   -11605   -10985 
  -10491   -10758   -11846   -13200   -14098   -14148   -13245   -11320 
   -8684    -6032    -3874    -2594    -2533    -3569    -5117    -6599 
   -7697    -8259    -8321    -8111    -7829    -7519    -7019    -6266 
   -5588    -5349    -5707    -6519    -7187    -7363    -7337    -7259 
   -6892    -6028    -4589    -2716     -762      818     1647     1621 
     757     -557    -1526    -1966    -2013    -1400     -222     1137 
    2314     2601     1906      916      -42     -783    -1143    -1261 
   -1185    -1150    -1421    -1568    -1254     -792     -461     -299 
    -192      -60     -238    -1176    -2927    -5164    -7576   -10231 
  -13089   -15569   -17285   -18291   -18527   -18033   -17306   -17090 
  -17998   -19909   -21843   -22784   -22280   -20417   -17696   -14658 
  -11739    -9432    -7968    -7256    -7284    -7804    -8253    -8167 
   -7323    -6131    -5461    -5462    -5399    -4553    -2710     -373 
    1529     2845     4406     6643     9213    11664    13198    12980 
   11467     9615     7313     4344     1025    -2582    -6193    -9207 
  -11723   -14183   -16748   -19359   -21396   -22077   -21541   -20442 
  -19282   -18739   -19064   -19437   -19082   -17499   -13992    -8936 
   -3782      525     3454     4838     5295     5423     5806     7330 
   10050    12973    15248    16439    16270    14653    11748     8190 
    4666     1205    -2273    -5584    -8681   -11208   -12584   -13201 
  -13964   -14851   -15303   -15188   -14384   -12591   -10068    -7524 
   -5395    -3809    -2744    -2112    -2115    -3055    -4556    -5972 
   -7483    -9534   -11796   -13484   -14100   -13774   -13030   -12027 
  -10456    -8391    -6464    -4768    -2818     -828      358      424 
    -125     -545     -294      869     2552     4059     5145     5829 
    6311     7090     8241     9156     9365     9067     8707     8558 
    8541     7955     6263     3962     1490    -1372    -4407    -7148 
   -9651   -11885   -13479   -14460   -15172   -15741   -16276   -16906 
  -17356   -17155   -16093   -14116   -11303    -8347    -6300    -5576 
   -5901    -6894    -8066    -8890    -9105    -8328    -5807    -1431 
    3601     7525     8834     6746     1941    -3671    -8520   -11813 
  -13108   -12731   -11641   -10646   -10360   -10958   -11912   -12672 
  -12816   -11826    -9720    -7141    -4716    -2761    -1136      321 
    1402     2042     2547     3189     3835     3957     3287     2227 
    1017     -744    -3035    -4845    -5131    -3710    -1021     2555 
    6550    10315    13539    16266    18692    20942    22635    22989 
   21354    17679    12401     5763    -1877    -9103   -14100   -16492 
  -17595   -18737   -20520   -23219   -26177   -27915   -27795   -26271 
  -24041   -21730   -19516   -17318   -15236   -12917    -9702    -5856 
   -2300      505     2565     3882     4420     4315     3872     3212 
    2260      953     -801    -2864    -4996    -7535   -10733   -13791 
  -15952   -17479   -18451   -18244   -16520   -13097    -8009    -2222 
    3203     7615    10454    11819    12211    11607     9920     7456 
    4587     1660    -1115    -3789    -6392    -8615   -10158   -11369 
  -12656   -13738   -14202   -13977   -13310   -12746   -12754   -13419 
  -14389   -15146   -15738   -16483   -17027   -17061   -16762   -15997 
  -14820   -13660   -12357   -10809    -9714    -9458    -9762   -10528 
  -11822   -13517   -15629   -18101   -20491   -22650   -24491   -25611 
  -26252   -26738   -26644   -25791   -23704   -18829   -10598    -1018 
    6760    11422    14135    15946    17113    18133    18977    19319 
   19567    20121    20694    20613    19153    15767    10530     4357 
   -1525    -6048    -8729    -9989   -10318    -9789    -8836    -8126 
   -7703    -7210    -6536    -5895    -5373    -4771    -4170    -3741 
   -3255    -2846    -3207    -4533    -6402    -8229    -9385    -9626 
   -9203    -8176    -6422    -4497    -3501    -4101    -6256    -9096 
  -11315   -12540   -13096   -12832   -11572    -9695    -7763    -6342 
   -6133    -7476    -9644   -11504   -12501   -12629   -12445   -12597 
  -12802   -12330   -11021    -8994    -6408    -3742    -1393      637 
    2477     4447     6746     8887    10264    10663     9896     8014 
    5554     3134     1410      727      558      329        0     -452 
   -1003    -1641    -2426    -3115    -3744    -5203    -8249   -12522 
  -16979   -20728   -23082   -23455   -21644   -18004   -13132    -7274 
    -557     5925    10711    13833    16305    18330    19523    19745 
   18660    15489     9916     2618    -5140   -11524   -14964   -16049 
  -16591   -17061   -16653   -14553   -10353    -4353     2462     8974 
   13902    16269    16867    17113    16936    16100    15016    13342 
   10685     7518     4157      698    -2410    -4767    -6171    -6291 
   -4988    -2708        6     2522     3906     3774     2219     -572 
   -3519    -5301    -5424    -3690     -465     3072     6162     8480 
    9638     9723     8986     7381     5083     2436     -483    -3453 
   -5774    -7087    -7883    -8571    -9111    -9815   -11168   -13130 
  -15400   -17671   -19500   -20567   -20798   -19933   -17869   -15519 
  -14204   -14421   -15931   -18201   -20298   -21161   -19846   -15307 
   -7520     1178     7735    11000    11788    11387    10810    10637 
   10887    11088    10543     8715     5497     1496    -2169    -4704 
   -5923    -6137    -6037    -6326    -7485    -9509   -11800   -13853 
  -15535   -16483   -16212   -14706   -12288    -9547    -7643    -7657 
   -9328   -11289   -12323   -11641    -9138    -5770    -2661     -696 
    -584    -1869    -3417    -4880    -6172    -7212    -8500   -10207 
  -11655   -12429   -12586   -11990   -10481    -8078    -4601      -47 
    4711     8510    10625    10601     8435     4901      814    -3381 
   -6875    -8789    -9147    -8450    -7175    -5633    -3517     -560 
    2460     4586     5711     6240     6867     8428    11253    15131 
   19704    24587    29274    32915    34643    34066    31228    26871 
   22121    16979    10482     2926    -3609    -7843   -10832   -13822 
  -16937   -20201   -23169   -24681   -24351   -22789   -20732   -18697 
  -17070   -16497   -17420   -19345   -21205   -21683   -19753   -15888 
  -11551    -7685    -5036    -4192    -4564    -5379    -6855    -8903 
  -10533   -11180   -10909    -9793    -8319    -7183    -6398    -5774 
   -5409    -5026    -4072    -2478     -292     2814     6836    11260 
   15754    19964    23244    25368    26567    27073    27236    27160 
   26477    25152    23321    20790    17783    14758    11711     8903 
    6800     5074     3068      295    -3834    -9458   -15899   -22442 
  -28703   -34347   -38912   -41705   -42049   -39827   -35768   -31194 
  -27098   -23710   -21112   -19060   -16523   -12724    -8201    -4561 
   -3384    -5000    -8360   -12235   -16045   -19300   -21284   -21689 
  -20684   -18423   -15138   -11831   -10043   -10476   -12471   -14175 
  -13493   -10233    -5819    -1506     1692     3518     4394     4050 
    2473      802     -441    -1831    -3580    -5607    -7736    -8685 
   -7209    -4060    -1004      618       -7    -2716    -6620   -10867 
  -14408   -16220   -15902   -13894   -11596   -10547   -11499   -13938 
  -15940   -15497   -11920    -6080     -268     3489     5090     5036 
    3290       62    -4134    -8711   -12562   -14276   -13358   -10660 
   -7309    -4205    -2167    -1199     -604     -102      232       38 
   -1543    -4834    -9054   -13383   -17474   -20801   -22754   -23005 
  -20981   -16558   -10874    -5057      322     4748     8321    11590 
   14519    16755    18284    19141    19252    18682    17259    14818 
   12034     9309     5933     1468    -3847    -9461   -14358   -17671 
  -19145   -18718   -16532   -13500   -11004    -9650    -9065    -8717 
   -8022    -6484    -4463    -2921    -2130    -1452     -411     1046 
    3063     5476     7707     9530    10896    11541    11359    10542 
    9149     6742     2710    -2793    -8185   -11493   -12267   -11558 
  -10529    -9909   -10131   -11434   -13758   -16786   -19992   -22358 
  -22870   -21326   -17975   -13623   -10091    -8654    -8668    -8872 
   -8809    -8511    -8089    -8006    -8772   -10631   -14076   -19309 
  -25057   -29468   -31820   -32584   -32224   -30460   -26858   -21633 
  -15566    -9498    -4220     -209     2901     5568     7481     8588 
    9537    10384    10722    10565     9490     6560     1942    -3035 
   -6854    -8348    -8015    -7752    -8463   -10189   -13161   -16739 
  -19680   -21615   -22570   -22214   -20272   -16908   -12943    -9579 
   -7791    -8107   -10053   -12159   -13213   -12587   -10264    -7202 
   -4430    -2331     -717     1371     4715     8631    11680    13235 
   13752    13905    14067    14379    14666    14725    14913    15780 
   17342    19409    21840    24093    25595    26501    27374    28543 
   29954    31305    32129    31897    30523    28469    25939    22831 
   19304    15235    10090     3871    -2850    -9397   -15048   -19355 
  -22458   -24791   -26773   -28614   -29994   -30431   -29830   -28350 
  -26386   -24081   -21115   -17643   -14144   -10928    -8611    -7538 
   -7351    -7677    -8284    -9272   -11375   -15122   -19779   -23830 
  -26557   -28536   -30660   -33078   -35225   -36988   -38976   -41173 
  -42725   -43101   -41936   -38294   -31551   -22552   -13088    -4504 
    2944     9903    17161    24775    32266    39063    44229    46899 
   47284    46247    44131    40854    36474    31191    25336    19341 
   13677     8822     5087     2365     -122    -3481    -8068   -13230 
  -18185   -22495   -25779   -27756   -28686   -29073   -29154   -29147 
  -28901   -27512   -24411   -20092   -15827   -12941   -11684   -11286 
  -11181   -11237   -11423   -11750   -11936   -11547   -10969   -11513 
  -14093   -18550   -24027   -28949   -31658   -31761   -29738   -25943 
  -20833   -14945    -8614    -2529     2289     5672     8321    10723 
   13336    16879    21443    26461    31236    34791    36285    35549 
   32726    28389    23740    19931    17542    16379    15568    14268 
   11891     8067     3070    -2354    -7282   -10836   -12808   -13512 
  -13395   -13197   -13498   -14423   -16127   -18554   -20834   -21916 
  -21365   -18815   -13955    -7639    -1313     4268     8794    12030 
   13983    14732    14320    13085    11394     9129     6190     2916 
    -365    -3517    -6733   -10506   -14847   -19246   -23452   -27266 
  -30295   -32171   -32353   -30556   -27119   -22681   -18384   -15235 
  -13233   -12067   -11037    -8895    -5366    -1189     2967     6346 
    8368     8911     7546     4093     -261    -4330    -8282   -12340 
  -15997   -18737   -20118   -19938   -18674   -16644   -13345    -8500 
   -3055     1737     5737     9324    12332    14537    15533    14429 
   10885     5043    -3065   -12650   -21915   -28966   -32988   -34931 
  -35935   -35768   -34002   -31022   -27282   -22843   -17565   -11362 
   -4630     1656     6655    10320    12995    14513    14561    13576 
   12050     9660     6121     1715    -3331    -8513   -12868   -16263 
  -19610   -23555   -27984   -32257   -35609   -37833   -39182   -39747 
  -39394   -37771   -34268   -27922   -17903    -5487     5305    11366 
   13949    16261    19580    23899    29242    34951    40275    45424 
   50763    56100    60831    63731    63413    59706    53586    46127 
   38084    29826    21859    15236    10842     8596     7399     5805 
    3003    -1006    -6055   -11840   -17674   -23161   -28685   -34571 
  -40484   -45893   -50396   -53789   -56216   -57625   -57202   -54249 
  -49061   -42398   -35023   -27850   -21547   -16375   -12753   -10845 
  -10025    -9897   -10475   -11297   -11868   -12322   -13208   -15046 
  -17777   -20677   -23088   -25001   -26507   -26987   -25668   -22678 
  -18810   -14862   -11589    -9144    -6792    -3974     -749     2847 
    6893    11284    15678    19443    22033    23526    24152    23856 
   22770    21528    20922    21186    21940    22916    23840    24114 
   23568    22410    20506    17774    14195     9284     2821    -4316 
  -10684   -15528   -19318   -22929   -26910   -31640   -36932   -41848 
  -45883   -49189   -51468   -52058   -50773   -47880   -43920   -39531 
  -34754   -29028   -22271   -15435    -9668    -5211    -1586     1558 
    4735     8873    14093    19552    24735    29104    31743    32415 
   31284    28689    26013    24668    24624    25020    24988    23839 
   21462    18330    15096    12500    11022    10376     9981     9473 
    8395     6319     3114    -1181    -5981   -10362   -13909   -16423 
  -17747   -18371   -19072   -20307   -22334   -25202   -28616   -32017 
  -34968   -37647   -40481   -43219   -45109   -45978   -46334   -46467 
  -46315   -46062   -46116   -46753   -47998   -49420   -50391   -50539 
  -49324   -46021   -40427   -33101   -25348   -18522   -12789    -7452 
   -2251     2510     6602    10081    13019    15235    16568    17321 
   17898    18277    18391    18440    18511    18480    18212    17564 
   16610    15824    15839    17092    19399    21981    23899    24450 
   23701    22187    20351    18709    17465    16547    16070    15365 
   13158     9380     4919      388    -3794    -7345   -10187   -12165 
  -13266   -14039   -15168   -16849   -19134   -22096   -25400   -28461 
  -30621   -31452   -31289   -30438   -28441   -25070   -20759   -15716 
  -10036    -4600     -789      814     1045     1184     1881     3287 
    5241     7293     8896     9361     8508     7350     6953     7316 
    8009     8868    10176    12785    17184    22291    26449    28982 
   29486    26905    20549    11512     2522    -3956    -7340    -8652 
   -9221    -9966   -11560   -14332   -17726   -20407   -21190   -19549 
  -15621   -10354    -5048     -525     2955     5431     7158     8288 
    8508     7342     4523      -60    -5937   -11883   -17032   -21420 
  -25043   -27653   -29455   -30732   -31227   -30742   -29533   -28014 
  -26433   -24258   -20554   -15192    -8857    -2493     3190     8190 
   12656    16187    18385    19260    18830    17253    15146    13239 
   11822    10647     9530     8602     7889     7261     6482     5324 
    3849     1917     -923    -4627    -8566   -11829   -13803   -14935 
  -16072   -17546   -19298   -21048   -22337   -22857   -22796   -22403 
  -21514   -20209   -18853   -17259   -15310   -13540   -12075   -10267 
   -7769    -4998    -2704    -1686    -2336    -4114    -6072    -7493 
   -7827    -6823    -4623    -1563     1896     5095     7343     8493 
    8949     9095     9258     9579     9665     9088     8158     7782 
    8513     9937    11351    12635    13865    14784    14998    14088 
   11684     7839     3375     -216    -1787    -1457       42     1897 
    3002     2830     1809      368    -1333    -3178    -4924    -6307 
   -7299    -7735    -7630    -7770    -8885   -11282   -14926   -18938 
  -22534   -25911   -28918   -30726   -31048   -30061   -27973   -25509 
  -23461   -21546   -18994   -15733   -12052    -8239    -4864    -2256 
    -205     1498     3363     6258    10361    15150    20042    24252 
   26983    28191    28520    28603    28711    28618    27824    26084 
   23497    20513    17712    14962    11681     8127     5122     3029 
    1742      847     -207    -1641    -3426    -5449    -7123    -7391 
   -5359     -930     4889    10374    13936    14799    13245    10425 
    7692     5737     4306     2572     -264    -4138    -8138   -11674 
  -14453   -16066   -16810   -17180   -17122   -17047   -17382   -17616 
  -17538   -17560   -17651   -17459   -16681   -15085   -13066   -11320 
   -9797    -8160    -6236    -3582      -79     3738     7331    10000 
   10955    10171     8198     5546     2842      808     -191     -284 
      29      206      102     -236    -1122    -2863    -4961    -6624 
   -7513    -7264    -5849    -4549    -4763    -6646    -9693   -13181 
  -16344   -19122   -21657   -23300   -23382   -22044   -20067   -18602 
  -18384   -19155   -20226   -20818   -20095   -17884   -15078   -12891 
  -11738   -11156   -11055   -11883   -13451   -14843   -15092   -13701 
  -10920    -7486    -4494    -2854    -2458    -2763    -3316    -3435 
   -2827    -1910    -1116     -965    -2088    -4515    -7520   -10076 
  -11284   -10718    -8522    -5226    -1450     2146     4541     4835 
    3410     1506      -41    -1078    -2117    -3827    -6177    -8847 
  -11640   -14041   -15745   -17047   -18019   -18434   -17986   -16254 
  -13654   -11490   -10668   -11632   -14320   -17467   -19706   -20662 
  -20071   -18002   -15956   -15518   -16751   -19001   -21734   -24362 
  -26405   -27762   -28434   -28036   -26155   -22930   -18647   -13587 
   -8288    -3353      727     3789     5695     5902     4299     1587 
   -1208    -3022    -3295    -1720     2173     7772    13396    18161 
   21737    23370    22821    20593    17288    13717    10620     8240 
    6399     4584     2438       64    -2343    -4364    -5586    -6315 
   -6903    -7212    -7323    -7620    -8485   -10121   -12187   -13959 
  -15012   -15417   -15177   -13802   -10995    -7431    -4441    -3360 
