Origin Time       2011/03/11 14:46:00
Lat.              38.103
Long.             142.860
Depth. (km)       24
Mag.              9.0
Station Code      AOM014
Station Lat.      40.4472
Station Long.     140.9403
Station Height(m) 432
Record Time       2011/03/11 14:47:13
Sampling Freq(Hz) 100Hz
Duration Time(s)  300
Dir.              E-W
Scale Factor      3920(gal)/6182761
Max. Acc. (gal)   91.520
Last Correction   2011/03/11 14:46:58
Memo.             
[...]
  -42216   -41401   -38493   -36054   -34983   -34505   -34537   -35064 
  -35645   -36438   -37184   -36376   -33011   -27457   -20515   -13216 
   -6923    -2716    -1596    -4300    -9289   -13250   -14218   -12267 
   -8886    -6543    -6284    -6516    -5941    -5372    -6059    -8564 
  -12472   -15901   -16748   -14815   -11309    -7242    -3995    -2855 
   -3005    -3100    -3350    -3690    -3045    -1374      508     2423 
    3764     2667    -1495    -6671   -10353   -11356    -9641    -6814 
   -5874    -7990   -11528   -15068   -18144   -19996   -20222   -19632 
  -19317   -18962   -17353   -14551   -11566    -9171    -8749   -11445 
  -15817   -19136   -19895   -17472   -12568    -7993    -5680    -5324 
   -7017   -10447   -13001   -13042   -11639    -9833    -8692   -10319 
  -14975   -20078   -23401   -24486   -24101   -23900   -25000   -27361 
  -30890   -34713   -36532   -35577   -33581   -31449   -29169   -28380 
  -30266   -33266   -36006   -38541   -39802   -38502   -36310   -36023 
  -37446   -38634   -39150   -38872   -36788   -33113   -29658   -27504 
  -26010   -23762   -19656   -14103    -9307    -6621    -5309    -5246 
   -7229   -10595   -13963   -17179   -20248   -22318   -23428   -24621 
  -25609   -25461   -24460   -23263   -22416   -22633   -23828   -24770 
  -24553   -23997   -24977   -27912   -30873   -31719   -29652   -24777 
  -18128   -11733    -7565    -6460    -7477    -8740    -9114    -8197 
   -5988    -3514    -2363    -3161    -4886    -5885    -5757    -5304 
   -4809    -4767    -6897   -11661   -17386   -22779   -27481   -30831 
  -32315   -32418   -31750   -30336   -28319   -26329   -25099   -24792 
  -24544   -23562   -22384   -21793   -21033   -18936   -16548   -15865 
  -16842   -18902   -22847   -28746   -34537   -37480   -36507   -33602 
  -31684   -31574   -32524   -33951   -35023   -34098   -30342   -24977 
  -19545   -14355    -9427    -5642    -4130    -4490    -4947    -4502 
   -3155    -1112      577      180    -3064    -8374   -14301   -19648 
  -23875   -27003   -29480   -31648   -32863   -32316   -30706   -29056 
  -27017   -24687   -23458   -23815   -24818   -25344   -24221   -20147 
  -13561    -7500    -4470    -4542    -6971   -11044   -15982   -21412 
  -27047   -31467   -32719   -30871   -28405   -27146   -26344   -24384 
  -21038   -17519   -14783   -12536   -10285    -8202    -6524    -5372 
   -5264    -6283    -6861    -5140    -1237     2852     5056     5032 
    4240     3988     4582     5775     6351     5007     2664      840 
   -1860    -7300   -13956   -19306   -22989   -25912   -28973   -32950 
  -37795   -41288   -40407   -35165   -28274   -21980   -17449   -14352 
  -11201    -7477    -3595      138     2981     4131     3588     1171 
   -3359    -8802   -13722   -17831   -20771   -22156   -22924   -24278 
  -26319   -28437   -29883   -30481   -30414   -29057   -25917   -22073 
  -19002   -17278   -17125   -18573   -20943   -23488   -25722   -27050 
  -27618   -28094   -28109   -27178   -26057   -25861   -27600   -32033 
  -38540   -44847   -48319   -47764   -44052   -38499   -31720   -24854 
  -19665   -16615   -14587   -12043    -7868    -2371     2631     5221 
    5326     5285     6851     8000     5241    -2052   -11879   -22437 
  -32590   -40874   -46703   -51542   -56397   -60085   -61147   -59121 
  -54437   -48697   -43693   -39712   -36039   -32204   -28199   -24790 
  -22846   -21707   -19844   -16778   -12944    -8910    -5500    -3200 
   -1526      114     1753     3227     4441     5487     6727     8111 
    8805     8138     6178     3409      228    -3543    -7761   -11079 
  -12994   -14806   -16960   -18487   -19147   -19472   -19481   -19055 
  -18910   -19683   -20848   -21867   -23187   -25120   -27155   -29242 
  -32180   -35723   -38274   -39332   -40252   -42307   -45483   -49098 
  -52075   -52592   -49615   -44427   -38620   -32158   -24754   -17290 
  -11217    -7452    -5603    -4139    -2012      630     3390     5586 
    5994     4008      -26    -5786   -12590   -18673   -22482   -23520 
  -22266   -20503   -19841   -20533   -22067   -22690   -20678   -17023 
  -14311   -14656   -18831   -24244   -25884   -22002   -16180   -12710 
  -12480   -13514   -13344   -10764    -6933    -4427    -4097    -4403 
   -3988    -2596     -377     1809     2688     1928      200    -1692 
   -3012    -3318    -2897    -2768    -4294    -7668   -11052   -13051 
  -14888   -18302   -22698   -25745   -26119   -24636   -22609   -20210 
  -17230   -14519   -13634   -15485   -19656   -24510   -28101   -29639 
  -29862   -30021   -31030   -32515   -32797   -31145   -28216   -23886 
  -17850   -11848    -8437    -7785    -7370    -5112    -1475     1941 
    4512     6530     7563     6316     2363    -3370    -9258   -13600 
  -16088   -18495   -22854   -28981   -34466   -37120   -36980   -36576 
  -38854   -44606   -52209   -58225   -59294   -55319   -48878   -41944 
  -35176   -29225   -24990   -22602   -21590   -21815   -22926   -24139 
  -25133   -26023   -26735   -27564   -29787   -34364   -40739   -47252 
  -51761   -52847   -50691   -45991   -39444   -32338   -25800   -20127 
  -15106   -10332    -6324    -4282    -3750    -3417    -3618    -5382 
   -9242   -15569   -23580   -30883   -35419   -36781   -35899   -34504 
  -33803   -33341   -32274   -30694   -28860   -26775   -25166   -24786 
  -23745   -19218   -12394    -6812    -3060      257     2987     4438 
    5276     5893     4806      912    -3887    -6758    -7258    -6471 
   -5415    -5302    -7104   -10924   -16496   -23714   -32007   -39069 
  -41657   -38744   -32550   -26031   -20656   -16333   -12550    -9267 
   -6557    -4160    -1869      571     2980     3338     -154    -5773 
  -10800   -15799   -23139   -33285   -44721   -55915   -65563   -71427 
  -71463   -66908   -61841   -58625   -55530   -49933   -41526   -31140 
  -19298    -6781     5029    14354    19949    22105    21662    18935 
   14738    10383     6155     2235     -278    -1645    -4367    -9891 
  -16515   -21850   -25367   -27740   -29600   -31523   -33780   -35477 
  -35304   -33450   -31137   -28884   -26378   -22691   -16984   -10280 
   -4678     -491     3408     7268    10821    14086    15673    13591 
    8988     5083     2812      752    -2095    -6067   -12130   -20658 
  -29664   -36321   -39283   -38806   -36469   -34796   -34670   -34153 
  -31932   -28999   -26034   -23090   -20928   -19931   -19663   -19715 
  -19063   -16287   -12057    -9204    -8889    -9231    -8759    -8386 
   -9842   -14295   -21509   -29334   -35071   -37481   -37816   -39139 
  -43153   -47775   -49828   -49208   -48257   -48828   -51224   -53478 
  -51620   -43374   -31479   -21204   -14935   -11322    -8714    -6590 
   -4401    -1513     1649     3637     3316      627    -4092   -10435 
  -17346   -23709   -29639   -35943   -42916   -50329   -57078   -60971 
  -60520   -56230   -49693   -42493   -35715   -29422   -22826   -15792 
   -9577    -5014    -1349     1566     1965    -1242    -6773   -12363 
  -16741   -20073   -22566   -24667   -27749   -31983   -35241   -34408 
  -27597   -16217    -3546     7899    16692    22004    22830    18370 
    9754      228    -6512    -9202   -10482   -13884   -20349   -28606 
  -36548   -41526   -41337   -35911   -27709   -19592   -12396    -6204 
   -2057       43     1577     3076     4033     4355     3985     1869 
   -2558    -7642   -11962   -16544   -22359   -28317   -32455   -32890 
  -28626   -20702   -11629    -4006      573     2901     5555     9269 
   11703    10939     7598     2993    -2033    -6473    -9535   -11747 
  -14650   -19248   -25288   -31470   -35814   -37291   -37275   -37871 
  -39892   -43090   -46458   -48715   -49781   -50682   -51626   -50940 
  -46275   -37019   -25102   -13559    -5534    -3486    -7218   -13691 
  -19306   -21467   -19475   -15466   -12914   -13555   -17227   -23580 
  -31355   -37442   -39507   -38153   -34806   -29850   -24327   -20745 
  -20411   -22310   -24901   -27008   -27998   -27767   -26411   -24895 
  -24761   -26343   -28876   -31950   -35674   -40100   -44430   -46583 
  -44910   -39955   -33408   -26450   -19393   -12570    -7594    -6712 
  -10365   -16024   -20115   -21386   -21947   -24928   -32034   -42328 
  -51698   -55391   -52174   -44329   -35081   -27522   -23135   -20457 
  -17073   -12220    -6851    -2800    -1354    -1578    -1959    -3218 
   -6333    -9517   -10173    -7815    -3709      508     3378     4247 
    3550     2057      765      937     2564     4036     3904     1143 
   -5290   -14905   -25427   -35035   -42582   -46676   -47191   -45895 
  -44173   -41920   -38930   -35217   -30261   -24195   -19337   -18313 
  -20593   -22649   -21394   -16176    -8823    -2943    -1460    -4394 
  -10200   -17775   -25449   -30751   -33012   -33053   -30512   -25221 
  -19139   -14372   -11840   -11528   -12266   -12739   -12232    -9523 
   -3672     3772     9920    13429    14611    13796    11260     8263 
    5968     3364     -964    -5889    -9665   -12757   -16543   -21882 
  -29845   -40834   -52762   -62894   -70844   -76806   -78686   -74346 
  -64623   -51829   -37781   -24370   -13568    -5832      301     6243 
   11733    15859    18673    20386    19567    14550     6435    -1750 
   -7646   -10070    -9921   -10388   -14081   -21330   -30403   -37616 
  -40029   -38610   -36237   -34021   -31222   -27110   -21954   -16536 
  -11980   -10112   -11297   -12912   -13215   -13082   -13241   -14332 
  -17205   -21656   -26760   -31094   -33440   -34186   -34896   -36683 
  -39180   -41153   -42239   -42933   -43148   -42879   -43472   -45883 
  -48460   -48310   -44303   -37311   -28702   -20200   -13465    -8471 
   -3541     2778    10209    17149    22328    25227    25470    22973 
   17919    10098     -390   -11487   -19860   -23648   -23730   -22083 
  -19541   -15943   -11502    -6691    -1234     5195    10852    12719 
    9896     4081    -2715    -9076   -13873   -16770   -18562   -19803 
  -20333   -21243   -24922   -31647   -37720   -38414   -32692   -23517 
  -13624    -3814     4833    11001    15642    20771    25883    28318 
   26996    23847    20786    17369    13387    10819    10509    10120 
    7493     2764    -3353   -10429   -17844   -25022   -31868   -38536 
  -44513   -48786   -50950   -50451   -46123   -38735   -31799   -28259 
  -28191   -29797   -31340   -32203   -32370   -31778   -30987   -31096 
  -32826   -36648   -42390   -48530   -53644   -57932   -62600   -68687 
  -76241   -83703   -88658   -89444   -85059   -74319   -57426   -37769 
  -19613    -4864     6006    13013    18201    24622    33455    43012 
   49502    50167    45460    36439    22602     3348   -20487   -46462 
  -71800   -94536  -112508  -123706  -128600  -128802  -124713  -117513 
 -110493  -105933  -101942   -94165   -80795   -63525   -44102   -23777 
   -4319    13550    29482    41358    47821    50206    50156    49262 
   50291    54810    60556    63577    61853    55257    43631    27081 
    7421   -12350   -29741   -43078   -52880   -63090   -75283   -85795 
  -92278   -94523   -92590   -88807   -83794   -74959   -62678   -49906 
  -37799   -26364   -14853    -3150     5059     7495     7147     5505 
    2282     -421    -2821    -8748   -19128   -31936   -45960   -58889 
  -67708   -72746   -76333   -80034   -84247   -87144   -85701   -78812 
  -68101   -56845   -48245   -43376   -40661   -37431   -31354   -21619 
  -10126      254     8345    13858    16217    15214    10962     3967 
   -4576   -14419   -26139   -37811   -45174   -45837   -40899   -32819 
  -23821   -16230   -11774    -9679    -7874    -5726    -2497     4655 
   17370    32739    45464    51906    51632    45900    35260    20558 
    4606   -10294   -23172   -32699   -38540   -42047   -43903   -43716 
  -41842   -38804   -33767   -25567   -14035    -1009    10480    19712 
   27908    35234    41090    44128    42228    35398    25399    13723 
    3780     -463      164     1403     1010     -248     -512     1772 
    6261    10132    10627     7559     2549    -3776   -11421   -16033 
  -11033     2155    15196    23888    27860    23638     9324   -10674 
  -32341   -53137   -69684   -82520   -94173  -103914  -109909  -112803 
 -115940  -121295  -128629  -137315  -144149  -144901  -137941  -123135 
 -102293   -80383   -61608   -45643   -30618   -17304    -7032     1112 
    8267    14789    21518    27889    29793    23024     8579    -8837 
  -27556   -48429   -68282   -81557   -86909   -86514   -81734   -72981 
  -61327   -48915   -39065   -34605   -34628   -34942   -32146   -24555 
  -11297     5435    20385    30295    36593    42298    48073    52438 
   54960    57333    61675    69003    78228    86147    89586    86498 
   75153    55380    30571     5783   -15263   -29221   -33783   -31810 
  -28963   -28826   -32465   -37146   -39404   -40122   -40534   -39628 
  -36793   -31048   -20577    -5592     9705    20041    24189    25345 
   26395    25988    20568     8459    -9007   -27905   -44011   -54729 
  -58494   -55558   -49068   -42813   -39211   -39391   -42099   -43602 
  -40778   -32849   -20520    -5907     6594    12887    13344    10416 
    5669     2279     2325     2571     -618    -8432   -21637   -39107 
  -58067   -76378   -91827  -101396  -103141   -98728   -92451   -87082 
  -81696   -73853   -62290   -47871   -33613   -20758    -7667     4687 
   14696    24900    37819    53924    73357    93666   110512   121342 
  124541   119101   106524    89696    71183    53464    38902    27974 
   18189     6643    -8323   -28256   -52475   -75998   -93377  -101725 
  -99373   -87125   -70382   -54654   -42386   -35723   -34055   -30643 
  -20606    -6931     6093    15944    19046    13768     3220    -6980 
  -11008    -6621     2009     7981     6307    -3836   -18827   -34332 
  -48112   -58887   -65663   -68573   -68828   -67427   -65068   -62778 
  -61489   -62172   -64969   -67100   -65140   -58488   -48202   -36012 
  -25025   -17707   -13447   -10311    -8243    -8314    -9745   -10184 
   -8945    -8490   -12028   -20425   -31359   -40734   -46245   -49171 
  -51765   -55201   -59681   -64394   -68441   -71839   -74525   -75760 
  -75052   -72409   -67513   -59266   -47235   -33659   -22248   -14944 
  -11396   -10773   -12180   -13965   -14446   -12718    -8414    -1694 
    7628    19610    31284    37661    35410    24033     6158   -13762 
  -32657   -50011   -66593   -82218   -94550  -101169  -102318  -100814 
  -98873   -95374   -87949   -75576   -57734   -35439   -13056     4089 
   13964    20139    27764    37372    46225    52039    52962    48179 
   39229    29367    21746    17530    15553    13560     8694     -755 
  -11811   -18017   -16316   -10280    -4869    -1975    -1781    -3482 
   -5631    -8093   -11885   -17159   -22650   -27083   -30140   -31654 
  -31047   -29043   -27964   -28560   -30263   -33680   -39047   -45173 
  -50416   -53208   -53668   -53781   -54586   -55200   -55196   -54939 
  -53130   -48268   -42076   -37911   -37315   -39425   -42583   -45761 
  -48019   -47673   -43242   -34728   -23366   -11209    -1761     1779 
    -221    -4631    -8115    -8278    -5283    -1602     1285     3436 
    3871     1670     -598     1267     8526    17869    22986    20148 
   11733     1564    -8863   -18222   -24099   -24664   -20528   -14859 
  -11102   -10331   -10663    -9692    -7607    -5732    -3963    -2796 
   -3598    -6200    -9456   -12139   -13449   -13981   -14621   -15615 
  -17025   -18393   -19390   -20350   -21355   -23471   -29665   -41217 
  -54586   -64295   -67911   -66389   -61758   -57515   -58167   -63888 
  -69297   -69939   -65692   -59436   -54671   -52195   -50297   -47681 
  -43976   -39197   -33751   -28533   -24769   -22854   -21984   -20924 
  -17795   -11076    -2082     5470     8140     4637    -3265   -12018 
  -19065   -22901   -21858   -16137    -9795    -7886   -12965   -25003 
  -41812   -59587   -74822   -85132   -88869   -86498   -81257   -75952 
  -71240   -66502   -59099   -46843   -32183   -19782   -12770   -11826 
  -13777   -13308    -8536    -3029    -1858    -6717   -15128   -22882 
  -25836   -21586   -11844    -1298     6610    10607    10846     9957 
   12009    19593    32571    48344    63934    77302    85913    88592 
   87774    84973    79820    73733    67138    58380    47317    34669 
   20971     6711    -8890   -26541   -44448   -59424   -69516   -75002 
  -77750   -79561   -80790   -80541   -77322   -69451   -56852   -42622 
  -31199   -24647   -20798   -15737    -8388    -1584     1011    -1730 
   -8020   -16127   -26335   -38665   -50665   -59273   -63065   -62438 
  -60211   -60557   -64636   -69516   -71819   -69688   -63443   -56518 
  -52795   -52754   -53715   -52526   -47955   -41849   -37276   -34972 
  -33378   -31628   -29854   -27281   -22556   -16384   -11503    -9579 
  -10807   -15371   -23578   -35471   -49857   -64382   -77141   -87113 
  -93546   -95451   -91983   -84217   -75302   -67346   -59580   -49878 
  -36864   -21513    -6569     6250    17183    27084    36715    46373 
   55061    60887    62675    60994    57862    54614    50075    41979 
   30121    17414     7117      185    -3526    -4189    -2448      936 
    4184     5067     4287     4704     7983    13592    19571    25094 
   31415    40141    52016    65182    76026    83179    86585    85710 
   82051    78140    74057    67845    59332    51525    41860    22301 
     -45   -11579   -21121   -37857   -52076   -62542   -76231   -91717 
 -106295  -118334  -125084  -125517  -120899  -111312   -94123   -69208 
  -41990   -20402    -9260    -7008   -10370   -16544   -20591   -21071 
  -22981   -29628   -39379   -49222   -56543   -60046   -60981   -62110 
  -65366   -71028   -77853   -83795   -86223   -82127   -71329   -58123 
  -47415   -41477   -40592   -43836   -48513   -51266   -50934   -48843 
  -46114   -42588   -38494   -34454   -30014   -25545   -23724   -26366 
  -32775   -41643   -51497   -60517   -66749   -67120   -59526   -47416 
  -37580   -33438   -33489   -33784   -30766   -23815   -14658    -4907 
    3611     8703    10962    13451    17119    21131    25470    29217 
   30925    31528    33123    36264    40122    44179    47869    49543 
   48171    44660    39860    32368    20475     6567    -3674    -7157 
   -5228     -697     4147     7615     8364     6903     6293     7365 
    6367      -42   -11394   -24014   -33524   -38317   -39590   -39613 
  -41154   -46281   -55083   -65632   -75909   -85406   -93329   -97360 
  -96022   -90645   -84226   -79027   -75757   -74266   -73683   -72909 
  -72228   -72727   -73701   -72556   -67581   -60237   -54249   -52084 
  -53335   -55872   -56512   -52562   -44900   -37863   -35065   -36142 
  -37629   -36193   -30900   -23297   -16254   -12742   -14712   -21592 
  -29985   -36417   -39654   -40145   -39115   -37540   -34922   -30591 
  -25750   -21937   -18622   -14237    -8485    -2298     3897    10778 
   19481    30704    44007    58246    72299    84588    92463    94081 
   91466    88270    85096    81003    76146    70441    63827    56948 
   49910    43018    36834    30368    22217    13059     4766    -2074 
   -7468   -11479   -15790   -22011   -29683   -37449   -43644   -47062 
  -47566   -44978   -39761   -34362   -31311   -30443   -29112   -25680 
