Origin Time       2011/03/11 14:46:00
Lat.              38.103
Long.             142.860
Depth. (km)       24
Mag.              9.0
Station Code      AOM019
Station Lat.      40.8152
Station Long.     140.4470
Station Height(m) 8
Record Time       2011/03/11 14:47:37
Sampling Freq(Hz) 100Hz
Duration Time(s)  300
Dir.              E-W
Scale Factor      3920(gal)/6182761
Max. Acc. (gal)   30.480
Last Correction   2011/03/11 14:47:22
Memo.             
[...]
  -27053   -26269   -25249   -24256   -23364   -22540   -22018   -21908 
  -21820   -21484   -21018   -20338   -19305   -18228   -17446   -16940 
  -16556   -16140   -15519   -14691   -13916   -13467   -13396   -13564 
  -13794   -13877   -13687   -13425   -13257   -12897   -12163   -11251 
  -10130    -8745    -7518    -6631    -5710    -4601    -3378    -1927 
    -378      759     1223     1203      898      355     -375    -1249 
   -2229    -3193    -4017    -4642    -5102    -5530    -6110    -7078 
   -8501   -10157   -11755   -13042   -13848   -14231   -14390   -14422 
  -14416   -14580   -14870   -15079   -15311   -15787   -16403   -16807 
  -16857   -16625   -16056   -15174   -14269   -13461   -12573   -11538 
  -10417    -9150    -7841    -6774    -5886    -4878    -3815    -2861 
   -1902     -970     -263      301      879     1459     2026     2609 
    3089     3302     3377     3447     3328     2952     2410     1620 
     435    -1091    -2700    -4315    -5973    -7574    -9231   -11085 
  -12872   -14421   -15883   -17311   -18657   -20012   -21407   -22588 
  -23371   -23787   -23824   -23511   -23027   -22418   -21517   -20298 
  -19123   -18364   -17935   -17505   -17014   -16516   -15920   -15318 
  -14744   -13896   -12784   -11738   -10896   -10426   -10413   -10621 
  -10995   -11666   -12621   -13794   -15058   -16325   -17578   -18747 
  -19887   -21018   -21989   -22748   -23275   -23516   -23469   -23245 
  -22974   -22677   -22428   -22232   -21886   -21308   -20528   -19657 
  -18878   -18237   -17854   -17742   -17575   -17316   -17127   -16806 
  -16212   -15520   -14799   -13955   -13099   -12488   -12014   -11432 
  -10787    -9963    -8745    -7353    -6004    -4691    -3629    -2679 
   -1374      -68      956     2178     3567     4818     5998     7156 
    8325     9382    10099    10627    11156    11659    12329    13409 
   14748    16053    17234    18195    18666    18579    18160    17524 
   16741    16067    15700    15644    15836    16103    16063    15465 
   14488    13234    11706    10318     9248     8218     7241     6415 
    5749     5250     4789     4249     3399     2065      628     -400 
    -914    -1044     -859     -526     -343     -217      106      502 
     890     1463     2279     3155     4193     5716     7182     7914 
    8332     8638     8608     8732     9403    10349    11337    12357 
   13283    13861    14216    14724    15267    15552    15677    15770 
   15795    15847    16043    16240    16240    16005    15476    14567 
   13343    11977    10669     9592     8954     8760     8430     7842 
    7743     8048     8240     8797     9888    11067    12416    13975 
   15366    16435    17370    18262    18946    19392    19763    20088 
   20235    20183    20018    19655    19061    18327    17229    15633 
   13849    12028    10145     8219     6255     4519     3335     2450 
    1530      876      448     -430    -1672    -2884    -4071    -4992 
   -5629    -6225    -6743    -7326    -8145    -9045    -9987   -11018 
  -11976   -12656   -13003   -13094   -12905   -12415   -11889   -11561 
  -11440   -11596   -12053   -12604   -13153   -13797   -14170   -13779 
  -13043   -12268   -11002    -9735    -9357    -9361    -9276    -9565 
  -10141   -10508   -10899   -11702   -12716   -13761   -14964   -16354 
  -17866   -19464   -21118   -22767   -24323   -25706   -26864   -27801 
  -28511   -28965   -29165   -29014   -28508   -27867   -27215   -26629 
  -26188   -25786   -25364   -24955   -24577   -24239   -23667   -22654 
  -21410   -20019   -18413   -16694   -14955   -13214   -11604   -10283 
   -9185    -8217    -7355    -6380    -5160    -3910    -2607     -974 
     807     2397     3856     5200     6194     6781     7032     6839 
    6165     5253     4286     3396     2710     1969     1109      494 
      63     -231     -380     -772    -1300    -1789    -2538    -3432 
   -4269    -5131    -5855    -6212    -6308    -6356    -6407    -6588 
   -7103    -7844    -8590    -9306    -9962   -10510   -10969   -11393 
  -11784   -12049   -12276   -12712   -13231   -13464   -13390   -13137 
  -12638   -12109   -11942   -11832   -11623   -11779   -11881   -11482 
  -11314   -11454   -11310   -11178   -11337   -11351   -11053   -10785 
  -10611   -10174    -9446    -8743    -8059    -7238    -6460    -5859 
   -5203    -4378    -3514    -2578    -1578     -703       77      726 
     804      295     -142     -401     -909    -1293    -1036     -479 
    -116     -173     -379     -336     -325     -477     -394      -42 
     314      531      526      368      317      452      628      818 
    1055     1178     1074      761      201     -663    -1853    -3160 
   -4102    -4445    -4303    -3925    -3474    -2828    -2184    -1900 
   -1692    -1354    -1109     -935     -640     -254     -129     -254 
    -141      -10     -217     -319     -307     -731    -1507    -2260 
   -3027    -3976    -5057    -6129    -7176    -8246    -9222   -10056 
  -10934   -11771   -12368   -12889   -13443   -13992   -14639   -15382 
  -16122   -17069   -18343   -19595   -20647   -21634   -22452   -22931 
  -23212   -23579   -24112   -24564   -24796   -25065   -25358   -25396 
  -25308   -25149   -24582   -23550   -22327   -21052   -19740   -18395 
  -16968   -15527   -14288   -13380   -12744   -12281   -11950   -11634 
  -11234   -10976   -11151   -11777   -12693   -13631   -14271   -14353 
  -13905   -13218   -12398   -11558   -10943   -10380    -9694    -9234 
   -8952    -8262    -7278    -6497    -5705    -4692    -3828    -3385 
   -3189    -3019    -2982    -2984    -2617    -1934    -1222     -475 
     332     1153     2187     3555     4888     5983     7061     8029 
    8745     9632    10940    12281    13417    14559    15796    16845 
   17439    17703    17791    17600    17061    16212    15260    14301 
   13066    11639    10349     9052     7532     5927     4411     2908 
    1356     -170    -1696    -3320    -5104    -6987    -8708   -10141 
  -11412   -12556   -13595   -14700   -15816   -16731   -17496   -18184 
  -18678   -19033   -19433   -19836   -20100   -20209   -20121   -19830 
  -19600   -19418   -18760   -17724   -16969   -16408   -15590   -14746 
  -14259   -13870   -13260   -12711   -12465   -12316   -12187   -12271 
  -12464   -12288   -11681   -11070   -10594   -10198   -10026   -10125 
  -10334   -10364    -9977    -9234    -8292    -7212    -5956    -4507 
   -3236    -2516    -2167    -1805    -1310     -811     -212      801 
    2030     3089     4097     5284     6645     8202     9988    11804 
   13480    15176    16960    18539    19738    20685    21524    22307 
   23063    23718    24087    24248    24356    24181    23656    23079 
   22405    21412    20298    19356    18577    17896    17377    16973 
   16547    16114    15590    14739    13668    12685    11771    10720 
    9526     8367     7371     6695     6590     7049     7736     8356 
    8691     8527     7903     7116     6367     5608     4732     3767 
    2827     2039     1501     1145      696      -51    -1037    -2081 
   -2896    -3304    -3537    -3895    -4426    -5028    -5575    -6140 
   -6935    -7813    -8443    -8887    -9244    -9360    -9218    -8947 
   -8641    -8411    -8363    -8450    -8535    -8650    -8789    -8793 
   -8686    -8530    -8291    -8240    -8611    -9151    -9672   -10201 
  -10606   -10802   -10920   -11052   -11125   -11050   -10861   -10556 
  -10036    -9307    -8425    -7381    -6317    -5365    -4367    -3332 
   -2536    -1958    -1287     -423      471     1361     2290     3148 
    3889     4588     5162     5310     4956     4385     3722     2972 
    2394     2132     1926     1567     1180      810      384       92 
      17      -29       15      320      820     1398     2015     2649 
    3154     3354     3370     3525     3938     4453     4882     5080 
    4950     4575     4009     3122     1948      675     -630    -1799 
   -2642    -3260    -3815    -4455    -5411    -6775    -8330    -9669 
  -10589   -11191   -11541   -11702   -11861   -12156   -12718   -13696 
  -14984   -16273   -17443   -18507   -19277   -19620   -19898   -20489 
  -21187   -21787   -22492   -23288   -23911   -24342   -24576   -24365 
  -23732   -23128   -22735   -22323   -21898   -21634   -21299   -20601 
  -19668   -18642   -17561   -16662   -16095   -15740   -15566   -15563 
  -15441   -14894   -13970   -12894   -11711   -10408    -9155    -8138 
   -7463    -7276    -7601    -8238    -9041    -9891   -10407   -10420 
  -10337   -10450   -10566   -10575   -10581   -10584   -10704   -11218 
  -12002   -12664   -13092   -13404   -13653   -13810   -14035   -14561 
  -15224   -15733   -16160   -16564   -16843   -17140   -17629   -18202 
  -18777   -19413   -20002   -20371   -20642   -20932   -21012   -20791 
  -20658   -20929   -21473   -22206   -23197   -24131   -24632   -24851 
  -24918   -24623   -24129   -23785   -23440   -23001   -22729   -22670 
  -22660   -22608   -22505   -22256   -21673   -20736   -19592   -18377 
  -17271   -16520   -16194   -16147   -16307   -16618   -16838   -16811 
  -16636   -16369   -15942   -15483   -15127   -14721   -14274   -14063 
  -14094   -14042   -13697   -12996   -11818   -10226    -8616    -7276 
   -6176    -5364    -4953    -4680    -4227    -3715    -3287    -2763 
   -2064    -1246     -168     1062     1984     2527     2913     3096 
    3093     3192     3463     3679     3763     3907     4261     4826 
    5723     6998     8260     9258    10193    11050    11605    11968 
   12282    12439    12488    12630    12844    13069    13403    13743 
   13841    13778    13735    13627    13318    12836    12251    11613 
   11104    10959    11053    11051    10932    10721    10239     9570 
    9013     8641     8402     8339     8409     8350     8100     7845 
    7526     7035     6532     6085     5554     4990     4617     4405 
    4149     3855     3564     3083     2367     1670     1015      244 
    -459     -863    -1085    -1194    -1091     -965    -1121    -1453 
   -1769    -2119    -2483    -2773    -3116    -3679    -4325    -4839 
   -5283    -5711    -5952    -5996    -6083    -6308    -6577    -6960 
   -7537    -8053    -8304    -8327    -8065    -7453    -6656    -5848 
   -4973    -3983    -3006    -1990     -673      923     2554     4186 
    5828     7245     8263     8948     9450     9961    10605    11348 
   12048    12648    13262    13981    14865    16100    17704    19329 
   20707    21920    23076    24250    25629    27173    28535    29534 
   30278    30824    31171    31484    31791    31829    31489    30863 
   30027    29115    28277    27575    26907    26148    25453    24897 
   24160    23057    21664    19927    17923    16042    14439    12965 
   11612    10343     8942     7357     5762     4265     2837     1445 
     143    -1017    -2023    -2753    -3151    -3418    -3657    -3825 
   -4059    -4472    -4878    -5149    -5451    -5844    -6077    -6042 
   -5825    -5390    -4821    -4436    -4371    -4448    -4534    -4608 
   -4509    -4166    -3824    -3601    -3388    -3300    -3537    -3948 
   -4288    -4619    -5009    -5247    -5248    -5241    -5297    -5224 
   -4985    -4689    -4314    -3889    -3575    -3314    -2868    -2278 
   -1796    -1414    -1028     -854    -1032    -1290    -1433    -1563 
   -1700    -1782    -1868    -1929    -1818    -1531    -1186     -923 
    -789     -757     -890    -1201    -1614    -2059    -2364    -2452 
   -2524    -2663    -2754    -2887    -3281    -3842    -4291    -4569 
   -4661    -4427    -3926    -3434    -3167    -3218    -3561    -4068 
   -4573    -5039    -5611    -6312    -6934    -7434    -8049    -8876 
   -9860   -11023   -12285   -13455   -14450   -15194   -15627   -15817 
  -15976   -16335   -16836   -17393   -18212   -19299   -20423   -21590 
  -22820   -23988   -25042   -25983   -26723   -27216   -27648   -28184 
  -28779   -29475   -30373   -31376   -32355   -33290   -34173   -34888 
  -35367   -35739   -35965   -35925   -35893   -36143   -36554   -36975 
  -37404   -37746   -37847   -37807   -37776   -37695   -37617   -37657 
  -37708   -37619   -37408   -37182   -36838   -36246   -35643   -35187 
  -34768   -34495   -34461   -34410   -34167   -33857   -33570   -33236 
  -32857   -32480   -32052   -31547   -30992   -30371   -29789   -29451 
  -29384   -29371   -29234   -29076   -28926   -28589   -28151   -27843 
  -27577   -27159   -26571   -25861   -24996   -24087   -23373   -22727 
  -21913   -21055   -20232   -19320   -18327   -17479   -16920   -16441 
  -15921   -15524   -15136   -14579   -13977   -13354   -12688   -12169 
  -11919   -11782   -11580   -11353   -11105   -10734   -10340   -10099 
   -9969    -9773    -9467    -9119    -8716    -8285    -7903    -7409 
   -6673    -5993    -5615    -5444    -5506    -5914    -6427    -6733 
   -6903    -7123    -7332    -7391    -7217    -6742    -6060    -5449 
   -5118    -5059    -5182    -5441    -5632    -5506    -5188    -4847 
   -4357    -3770    -3235    -2593    -1809    -1134     -656     -243 
     224      758     1415     2325     3431     4557     5739     7101 
    8642    10344    12213    14062    15662    17151    18778    20509 
   22329    24326    26378    28273    30024    31717    33235    34449 
   35435    36219    36696    37011    37417    37837    38207    38649 
   39054    39295    39551    40016    40682    41448    42257    43044 
   43620    43918    44032    43925    43487    42740    41794    40731 
   39606    38587    37743    36860    35865    34794    33466    31903 
   30393    28995    27698    26672    25963    25334    24617    23872 
   23026    21963    20851    19855    18888    17896    16957    16015 
   14906    13662    12427    11165     9793     8389     7032     5773 
    4771     4074     3523     2994     2482     1994     1504     1012 
     498     -137     -875    -1538    -2028    -2348    -2497    -2556 
   -2693    -2964    -3281    -3597    -3998    -4554    -5202    -5889 
   -6581    -7076    -7220    -7140    -6984    -6783    -6669    -6770 
   -6979    -7135    -7285    -7476    -7582    -7549    -7412    -7081 
   -6450    -5593    -4658    -3763    -2922    -2030    -1146     -391 
     192      485      566      678      845     1112     1625     2191 
    2508     2687     2910     3103     3182     3126     2854     2281 
    1574     1079      866      835     1015     1262     1260      965 
     532      -64     -986    -2224    -3605    -5042    -6455    -7741 
   -9016   -10381   -11645   -12732   -13812   -14825   -15538   -15993 
  -16428   -16959   -17525   -18073   -18560   -18724   -18360   -17639 
  -16724   -15714   -14892   -14404   -14159   -14235   -14722   -15402 
  -15983   -16334   -16529   -16659   -16747   -17012   -17595   -18302 
  -19108   -20108   -21077   -21761   -22236   -22689   -23117   -23525 
  -24025   -24516   -24826   -25058   -25298   -25437   -25448   -25429 
  -25399   -25377   -25452   -25564   -25468   -25062   -24505   -23932 
  -23322   -22774   -22360   -21865   -21185   -20502   -19903   -19362 
  -18996   -18945   -19146   -19414   -19646   -19732   -19520   -19206 
  -19123   -19220   -19335   -19468   -19573   -19489   -19197   -18901 
  -18650   -18329   -18084   -18076   -18215   -18554   -19192   -19861 
  -20300   -20599   -20789   -20724   -20422   -20062   -19720   -19304 
  -18734   -18020   -17125   -16008   -14835   -13812   -12801   -11640 
  -10496    -9416    -8341    -7429    -6751    -6147    -5488    -4836 
   -4313    -3869    -3403    -2955    -2518    -2038    -1590    -1158 
    -575      113      748     1442     2302     3096     3715     4319 
    4889     5372     5898     6532     7204     7770     8164     8451 
    8636     8820     9188     9572     9723     9763     9815     9783 
    9674     9582     9407     8978     8297     7404     6325     5239 
    4353     3654     2973     2258     1567      821      -37     -877 
   -1746    -2817    -3963    -5158    -6670    -8227    -9308   -10298 
  -11531   -12428   -12833   -13053   -13086   -12983   -12715   -12219 
  -11580   -10766    -9887    -9110    -8371    -7693    -7173    -6721 
   -6162    -5472    -4812    -4303    -3935    -3719    -3634    -3533 
   -3338    -3086    -2723    -2168    -1528     -887     -138      638 
    1181     1539     1913     2275     2496     2573     2551     2391 
    2039     1596     1238     1061     1169     1649     2308     2859 
    3313     3677     3748     3657     3744     3958     4199     4585 
    5061     5504     6010     6664     7350     7923     8375     8720 
    8974     9302     9871    10564    11066    11278    11310    11149 
   10842    10612    10419    10102     9772     9456     9016     8508 
    7998     7363     6554     5679     4886     4304     4039     4107 
    4333     4448     4354     4103     3677     3169     2887     2860 
    2805     2624     2409     2221     2094     2105     2367     2904 
    3682     4687     5848     7083     8382     9688    10838    11688 
   12276    12680    12914    13135    13449    13796    14365    15179 
   15755    15907    15837    15651    15391    15082    14799    14575 
   14314    14062    13847    13470    12892    12310    11760    11154 
   10584    10183     9836     9410     9008     8706     8373     7916 
    7369     6776     6235     5967     6022     6154     6198     6120 
    5809     5331     5004     4944     4945     4846     4629     4243 
    3682     3058     2421     1699      862       -9     -889    -1816 
   -2799    -3889    -5182    -6650    -8134    -9608   -11159   -12734 
  -14322   -16129   -18177   -20250   -22266   -24227   -26073   -27820 
  -29600   -31478   -33231   -34633   -35778   -36643   -37083   -37333 
  -37638   -37901   -38107   -38366   -38563   -38558   -38430   -38274 
  -38101   -37924   -37778   -37731   -37792   -37979   -38391   -38934 
  -39366   -39704   -40047   -40233   -40218   -40291   -40479   -40452 
  -40340   -40461   -40442   -40103   -39856   -39636   -39306   -38991 
  -38477   -37612   -36584   -35511   -34272   -32848   -31449   -30214 
  -29116   -27971   -26719   -25471   -24142   -22709   -21278   -19795 
  -18194   -16565   -15039   -13571   -12093   -10788    -9719    -8735 
   -7901    -7283    -6699    -6048    -5399    -4703    -3909    -3197 
   -2637    -2086    -1565    -1140     -737     -327       69      470 
     916     1410     1888     2357     2853     3279     3595     3896 
    4096     4013     3745     3443     3068     2683     2426     2262 
    2133     2016     1904     1863     1887     1923     2003     2097 
    2174     2376     2756     3187     3660     4229     4766     5140 
    5473     5913     6439     7056     7787     8468     8971     9365 
    9681     9880    10013    10197    10441    10735    11214    11890 
   12541    13056    13461    13646    13527    13333    13252    13153 
   13018    12999    13025    12979    12912    12784    12468    12027 
   11637    11329    11029    10704    10316     9864     9468     9206 
    9018     8931     9066     9393     9835    10409    11068    11728 
   12384    12999    13545    14087    14710    15444    16187    16806 
   17257    17506    17476    17140    16647    16208    15899    15797 
