Origin Time       2011/03/11 14:46:00
Lat.              38.103
Long.             142.860
Depth. (km)       24
Mag.              9.0
Station Code      AOM017
Station Lat.      40.6388
Station Long.     139.9295
Station Height(m) 24
Record Time       2011/03/11 14:47:37
Sampling Freq(Hz) 100Hz
Duration Time(s)  271
Dir.              N-S
Scale Factor      3920(gal)/6182761
Max. Acc. (gal)   10.048
Last Correction   2011/03/11 14:47:22
Memo.             
[...]
  -19232   -19814   -20443   -21019   -21439   -21654   -21711   -21649 
  -21480   -21234   -20941   -20615   -20290   -20019   -19888   -19950 
  -20172   -20487   -20840   -21204   -21612   -22126   -22719   -23269 
  -23655   -23836   -23833   -23671   -23374   -23004   -22700   -22603 
  -22751   -23121   -23615   -24023   -24241   -24251   -23976   -23470 
  -22835   -22092   -21308   -20545   -19826   -19184   -18683   -18406 
  -18335   -18414   -18655   -19033   -19434   -19685   -19671   -19475 
  -19309   -19354   -19722   -20415   -21240   -21870   -22070   -21839 
  -21372   -20912   -20600   -20425   -20252   -19894   -19213   -18176 
  -16895   -15610   -14550   -13848   -13585   -13802   -14423   -15259 
  -16130   -16925   -17561   -18030   -18378   -18599   -18753   -18935 
  -19086   -19063   -18792   -18260   -17546   -16846   -16386   -16287 
  -16500   -16885   -17327   -17762   -18091   -18204   -18111   -17962 
  -17911   -17999   -18175   -18333   -18395   -18408   -18446   -18523 
  -18675   -18869   -18938   -18778   -18381   -17735   -16885   -15900 
  -14816   -13726   -12762   -12040   -11606   -11447   -11559   -11852 
  -12153   -12325   -12265   -11988   -11638   -11305   -11086   -11145 
  -11544   -12234   -13118   -14017   -14791   -15403   -15845   -16128 
  -16340   -16591   -16850   -16958   -16845   -16648   -16546   -16601 
  -16842   -17318   -18013   -18876   -19825   -20672   -21295   -21744 
  -22068   -22326   -22716   -23348   -24062   -24658   -24978   -24942 
  -24742   -24600   -24513   -24455   -24446   -24534   -24739   -24950 
  -25050   -24976   -24679   -24139   -23372   -22474   -21627   -20971 
  -20551   -20308   -20130   -19961   -19792   -19591   -19352   -19092 
  -18822   -18565   -18336   -18119   -17889   -17653   -17450   -17327 
  -17336   -17460   -17585   -17608   -17520   -17343   -17130   -17015 
  -17101   -17346   -17650   -17935   -18159   -18395   -18788   -19381 
  -20097   -20797   -21352   -21746   -22024   -22189   -22182   -21930 
  -21416   -20706   -19924   -19240   -18791   -18623   -18695   -18890 
  -19071   -19187   -19241   -19197   -19015   -18727   -18434   -18232 
  -18132   -18064   -17953   -17798   -17661   -17616   -17697   -17913 
  -18264   -18695   -19064   -19234   -19136   -18770   -18228   -17632 
  -17042   -16475   -15951   -15548   -15349   -15283   -15116   -14656 
  -13918   -13081   -12352   -11871   -11711   -11889   -12337   -12964 
  -13720   -14543   -15309   -15921   -16390   -16836   -17407   -18080 
  -18652   -18972   -19064   -19037   -18959   -18827   -18608   -18291 
  -17945   -17709   -17648   -17705   -17822   -17987   -18149   -18206 
  -18112   -17879   -17499   -16979   -16421   -15947   -15616   -15499 
  -15687   -16184   -16889   -17681   -18444   -19054   -19411   -19466 
  -19231   -18785   -18269   -17867   -17695   -17712   -17803   -17946 
  -18220   -18667   -19215   -19750   -20224   -20711   -21270   -21770 
  -22060   -22163   -22140   -22007   -21803   -21559   -21291   -21009 
  -20678   -20241   -19690   -19087   -18538   -18144   -17929   -17817 
  -17691   -17464   -17151   -16890   -16839   -17027   -17342   -17657 
  -17933   -18163   -18310   -18329   -18240   -18169   -18271   -18602 
  -19103   -19691   -20282   -20785   -21125   -21222   -21007   -20516 
  -19922   -19420   -19077   -18830   -18633   -18519   -18501   -18492 
  -18346   -17922   -17195   -16338   -15622   -15230   -15164   -15301 
  -15507   -15703   -15850   -15937   -16016   -16212   -16609   -17134 
  -17582   -17733   -17511   -17009   -16383   -15805   -15467   -15487 
  -15833   -16335   -16736   -16864   -16750   -16539   -16404   -16462 
  -16692   -16985   -17244   -17446   -17627   -17785   -17909   -18060 
  -18296   -18576   -18825   -19020   -19143   -19131   -18938   -18589 
  -18193   -17895   -17802   -17979   -18431   -19049   -19639   -20035 
  -20169   -20066   -19822   -19563   -19369   -19255   -19182   -19093 
  -18941   -18690   -18334   -17930   -17585   -17437   -17579   -17985 
  -18519   -19020   -19372   -19492   -19327   -18960   -18582   -18278 
  -17997   -17704   -17396   -17126   -17046   -17264   -17705   -18200 
  -18587   -18750   -18688   -18534   -18446   -18527   -18843   -19391 
  -20039   -20577   -20859   -20920   -20912   -20949   -21071   -21258 
  -21482   -21733   -21953   -22041   -21867   -21333   -20501   -19558 
  -18699   -18044   -17609   -17432   -17536   -17747   -17831   -17729 
  -17494   -17219   -17007   -16929   -17008   -17223   -17497   -17682 
  -17642   -17409   -17111   -16806   -16531   -16336   -16219   -16086 
  -15796   -15345   -14926   -14735   -14829   -15153   -15555   -15861 
  -16002   -16025   -15992   -15939   -15891   -15892   -16007   -16253 
  -16462   -16373   -15909   -15178   -14261   -13251   -12305   -11556 
  -11119   -11096   -11488   -12217   -13185   -14234   -15157   -15842 
  -16306   -16603   -16852   -17187   -17588   -17939   -18183   -18329 
  -18392   -18299   -17940   -17333   -16590   -15862   -15309   -15046 
  -15134   -15528   -16065   -16656   -17338   -18101   -18855   -19433 
  -19642   -19495   -19113   -18476   -17707   -17198   -17150   -17470 
  -18044   -18712   -19238   -19444   -19270   -18767   -18090   -17412 
  -16839   -16451   -16284   -16255   -16273   -16347   -16454   -16485 
  -16377   -16181   -16009   -15980   -16218   -16787   -17600   -18574 
  -19694   -20787   -21596   -22066   -22332   -22516   -22590   -22441 
  -22000   -21290   -20433   -19597   -18897   -18415   -18237   -18369 
  -18721   -19135   -19439   -19573   -19547   -19383   -19152   -18931 
  -18733   -18572   -18536   -18704   -19066   -19601   -20265   -20867 
  -21113   -20827   -20076   -19104   -18192   -17585   -17406   -17585 
  -17992   -18557   -19175   -19679   -19930   -19951   -19980   -20305 
  -20986   -21762   -22228   -22140   -21537   -20667   -19883   -19513 
  -19648   -20124   -20711   -21255   -21655   -21835   -21764   -21479 
  -21063   -20581   -20032   -19380   -18603   -17736   -16945   -16412 
  -16179   -16151   -16162   -16093   -15964   -15842   -15695   -15377 
  -14743   -13806   -12780   -11995   -11688   -11894   -12488   -13264 
  -14038   -14714   -15252   -15602   -15677   -15427   -14988   -14668 
  -14713   -15121   -15728   -16406   -17133   -17919   -18704   -19336 
  -19731   -19938   -20031   -20032   -19933   -19763   -19586   -19422 
  -19237   -19048   -18941   -18988   -19206   -19564   -20020   -20560 
  -21159   -21708   -22016   -21940   -21513   -20970   -20605   -20594 
  -20989   -21731   -22599   -23304   -23663   -23644   -23334   -22924 
  -22619   -22564   -22810   -23208   -23470   -23441   -23137   -22630 
  -22056   -21549   -21144   -20832   -20578   -20275   -19790   -19058 
  -18164   -17344   -16854   -16806   -17123   -17691   -18392   -19016 
  -19337   -19220   -18700   -17935   -17068   -16274   -15776   -15700 
  -16033   -16654   -17405   -18238   -19196   -20182   -20911   -21126 
  -20685   -19582   -18124   -16811   -15925   -15522   -15615   -16136 
  -16952   -17895   -18715   -19107   -18916   -18267   -17424   -16695 
  -16381   -16530   -16906   -17261   -17477   -17526   -17380   -17069 
  -16765   -16572   -16452   -16375   -16300   -16101   -15712   -15239 
  -14863   -14683   -14721   -14965   -15327   -15738   -16254   -16954 
  -17786   -18577   -19159   -19476   -19601   -19632   -19615   -19624 
  -19753   -19988   -20207   -20282   -20203   -20020   -19689   -19190 
  -18587   -17949   -17349   -16857   -16543   -16447   -16551   -16802 
  -17033   -17010   -16623   -15967   -15242   -14661   -14442   -14753 
  -15565   -16603   -17537   -18135   -18159   -17534   -16579   -15778 
  -15441   -15535   -15760   -15827   -15570   -14965   -14189   -13516 
  -13144   -13158   -13517   -14009   -14393   -14545   -14449   -14225 
  -14165   -14529   -15336   -16523   -18018   -19574   -20879   -21820 
  -22448   -22768   -22738   -22429   -22016   -21688   -21595   -21749 
  -22010   -22173   -22097   -21780   -21292   -20698   -20033   -19334 
  -18730   -18325   -18090   -18024   -18205   -18674   -19368   -20154 
  -20925   -21605   -22130   -22424   -22457   -22347   -22321   -22498 
  -22827   -23154   -23263   -22998   -22380   -21519   -20563   -19746 
  -19303   -19336   -19781   -20424   -20962   -21170   -21004   -20461 
  -19523   -18344   -17271   -16593   -16380   -16527   -16912   -17508 
  -18276   -19068   -19772   -20328   -20704   -20932   -21006   -20908 
  -20689   -20409   -20098   -19723   -19302   -19004   -18937   -19027 
  -19162   -19299   -19403   -19388   -19117   -18502   -17570   -16497 
  -15572   -15000   -14800   -14955   -15481   -16305   -17218   -17959 
  -18375   -18522   -18678   -19164   -19996   -20865   -21442   -21598 
  -21445   -21198   -20937   -20556   -20030   -19613   -19624   -20127 
  -20849   -21397   -21595   -21505   -21247   -20988   -20841   -20826 
  -20963   -21145   -21192   -21048   -20777   -20488   -20271   -20129 
  -19979   -19760   -19428   -18838   -17878   -16668   -15466   -14531 
  -14038   -13982   -14213   -14552   -14856   -15032   -15036   -14921 
  -14801   -14702   -14537   -14226   -13771   -13327   -13128   -13277 
  -13683   -14179   -14658   -15031   -15168   -15034   -14739   -14409 
  -14111   -13888   -13788   -13861   -14121   -14556   -15171   -15977 
  -16906   -17792   -18523   -19155   -19755   -20233   -20446   -20359 
  -20047   -19639   -19191   -18637   -17984   -17372   -16956   -16820 
  -16890   -16996   -17065   -17129   -17231   -17380   -17444   -17221 
  -16678   -16021   -15547   -15451   -15778   -16482   -17436   -18480 
  -19449   -20207   -20804   -21381   -21951   -22484   -23035   -23588 
  -23981   -24060   -23863   -23606   -23467   -23450   -23432   -23267 
  -22856   -22179   -21299   -20314   -19304   -18373   -17647   -17179 
  -16996   -17137   -17563   -18158   -18760   -19148   -19205   -19022 
  -18779   -18605   -18484   -18295   -17961   -17524   -17053   -16537 
  -16006   -15634   -15574   -15817   -16181   -16377   -16265   -16003 
  -15848   -15928   -16234   -16612   -16786   -16652   -16343   -16066 
  -16008   -16120   -16140   -15977   -15711   -15426   -15288   -15460 
  -15964   -16738   -17649   -18503   -19115   -19342   -19192   -18937 
  -18954   -19511   -20532   -21515   -22004   -21939   -21478   -20791 
  -19972   -19136   -18571   -18577   -19150   -20039   -20986   -21759 
  -22291   -22675   -22766   -22329   -21470   -20428   -19410   -18651 
  -18257   -18212   -18508   -19086   -19812   -20500   -20993   -21304 
  -21568   -21913   -22413   -22989   -23457   -23656   -23451   -22805 
  -21881   -20991   -20364   -20011   -19836   -19732   -19652   -19621 
  -19591   -19421   -19015   -18384   -17628   -16920   -16435   -16232 
  -16320   -16707   -17225   -17551   -17540   -17375   -17288   -17280 
  -17194   -16946   -16589   -16273   -16130   -16159   -16280   -16482 
  -16825   -17396   -18210   -19103   -19827   -20232   -20281   -20030 
  -19639   -19239   -18868   -18636   -18748   -19222   -19771   -20081 
  -20032   -19672   -19231   -19041   -19262   -19806   -20518   -21246 
  -21837   -22163   -22042   -21309   -20085   -18804   -17969   -17813 
  -18183   -18897   -19893   -20964   -21796   -22226   -22303   -22170 
  -21927   -21609   -21202   -20733   -20363   -20267   -20434   -20690 
  -20906   -21183   -21704   -22432   -23194   -23931   -24619   -25090 
  -25194   -24996   -24678   -24371   -24061   -23603   -22930   -22208 
  -21594   -21013   -20307   -19368   -18210   -17097   -16440   -16520 
  -17308   -18446   -19496   -20301   -21030   -21836   -22671   -23443 
  -24119   -24698   -25135   -25266   -24989   -24443   -23765   -22952 
  -22086   -21312   -20633   -20000   -19441   -18944   -18383   -17699 
  -17023   -16579   -16538   -16921   -17519   -18000   -18156   -17891 
  -17187   -16319   -15688   -15464   -15764   -16540   -17299   -17536 
  -17087   -16123   -15130   -14528   -14436   -14842   -15552   -16172 
  -16422   -16322   -16071   -15856   -15737   -15758   -16061   -16723 
  -17631   -18592   -19383   -19791   -19842   -19752   -19556   -19142 
  -18438   -17456   -16462   -15867   -15841   -16148   -16455   -16674 
  -16756   -16473   -15755   -14815   -13901   -13203   -12767   -12494 
  -12306   -12216   -12210   -12198   -12170   -12198   -12291   -12417 
  -12475   -12340   -12105   -12005   -12140   -12437   -12722   -12817 
  -12676   -12406   -12154   -12019   -12027   -12175   -12483   -12922 
  -13369   -13699   -13808   -13642   -13370   -13332   -13724   -14438 
  -15212   -15820   -16162   -16305   -16446   -16721   -17080   -17412 
  -17689   -17942   -18194   -18477   -18882   -19488   -20192   -20778 
  -21161   -21392   -21539   -21698   -21843   -21819   -21625   -21421 
  -21303   -21315   -21489   -21778   -21998   -21914   -21450   -20745 
  -19992   -19382   -19086   -19187   -19668   -20382   -21136   -21815 
  -22338   -22575   -22375   -21752   -20959   -20207   -19616   -19369 
  -19564   -20168   -21149   -22416   -23781   -25005   -25859   -26200 
  -26036   -25582   -25207   -25253   -25747   -26272   -26266   -25522 
  -24211   -22587   -20920   -19440   -18198   -17139   -16258   -15576 
  -15069   -14661   -14260   -13813   -13297   -12680   -11978   -11304 
  -10747   -10171    -9275    -7948    -6437    -5142    -4364    -4056 
   -3850    -3476    -2993    -2669    -2740    -3174    -3703    -4123 
   -4486    -4967    -5661    -6635    -7969    -9587   -11230   -12660 
  -13751   -14454   -14758   -14721   -14541   -14524   -14885   -15604 
  -16468   -17210   -17594   -17420   -16623   -15363   -14035   -13101 
  -12747   -12891   -13467   -14340   -15312   -16324   -17355   -18318 
  -19121   -19680   -19939   -19922   -19835   -19916   -20141   -20415 
  -20804   -21235   -21437   -21252   -20752   -20237   -20041   -20171 
  -20377   -20526   -20618   -20625   -20558   -20487   -20417   -20276 
  -20024   -19731   -19530   -19518   -19714   -19996   -20057   -19627 
  -18761   -17770   -17020   -16802   -17159   -17835   -18557   -19208 
  -19705   -19917   -19719   -19081   -18267   -17755   -17788   -18274 
  -19093   -20105   -21022   -21547   -21554   -21166   -20641   -20119 
  -19549   -18856   -18031   -17145   -16337   -15725   -15370   -15396 
  -15837   -16499   -17262   -18108   -18880   -19486   -19982   -20402 
  -20827   -21357   -21955   -22592   -23240   -23755   -24141   -24536 
  -24913   -25225   -25428   -25412   -25167   -24725   -24036   -23112 
  -22088   -21065   -20115   -19438   -19229   -19451   -19909   -20391 
  -20751   -21006   -21249   -21462   -21568   -21604   -21697   -21891 
  -22060   -22013   -21643   -20907   -19871   -18782   -17828   -16986 
  -16230   -15653   -15325   -15115   -14821   -14494   -14370   -14556 
  -15041   -15718   -16376   -16910   -17388   -17890   -18346   -18532 
  -18332   -17809   -17200   -16912   -17218   -18087   -19332   -20665 
  -21742   -22336   -22444   -22153   -21473   -20408   -19020   -17518 
  -16286   -15550   -15243   -15204   -15247   -15299   -15464   -15859 
  -16531   -17459   -18639   -20067   -21611   -23082   -24246   -24848 
  -24832   -24438   -23975   -23555   -23163   -22856   -22729   -22781 
  -22920   -23089   -23307   -23586   -23853   -24040   -24172   -24292 
  -24432   -24552   -24550   -24434   -24344   -24372   -24565   -24968 
  -25610   -26462   -27342   -28013   -28338   -28209   -27591   -26607 
  -25358   -23900   -22337   -20804   -19532   -18724   -18345   -18156 
  -17867   -17332   -16522   -15412   -14076   -12664   -11342   -10372 
  -10001   -10223   -10772   -11315   -11639   -11752   -11796   -11859 
  -11962   -12088   -12178   -12201   -12140   -11994   -11943   -12180 
  -12584   -12872   -12924   -12786   -12524   -12282   -12261   -12491 
  -12869   -13297   -13594   -13661   -13625   -13646   -13870   -14414 
  -15236   -16187   -17133   -17931   -18452   -18664   -18603   -18322 
  -17867   -17302   -16759   -16409   -16293   -16273   -16261   -16320 
  -16486   -16717   -17002   -17333   -17646   -17863   -17951   -18009 
  -18301   -19006   -19962   -20812   -21369   -21676   -21798   -21872 
  -22180   -22887   -23931   -25037   -25806   -26010   -25623   -24766 
  -23828   -23176   -22891   -22908   -23082   -23313   -23641   -24110 
  -24696   -25287   -25725   -25987   -26064   -25799   -25067   -23908 
  -22569   -21408   -20598   -20068   -19712   -19505   -19505   -19706 
  -20003   -20305   -20474   -20356   -20027   -19734   -19605   -19609 
  -19674   -19652   -19384   -18927   -18451   -17971   -17443   -16870 
  -16225   -15520   -14900   -14493   -14256   -14057   -13782   -13405 
  -13039   -12840   -12903   -13225   -13767   -14585   -15581   -16382 
  -16728   -16635   -16325   -16132   -16265   -16790   -17679   -18748 
  -19734   -20398   -20564   -20218   -19557   -18914   -18576   -18598 
  -18856   -19246   -19690   -20081   -20382   -20664   -20956   -21197 
  -21352   -21468   -21635   -21947   -22452   -23112   -23825   -24540 
  -25310   -26165   -27020   -27820   -28589   -29276   -29745   -29921 
  -29823   -29526   -29058   -28363   -27459   -26404   -25202   -23926 
  -22759   -21868   -21298   -20979   -20810   -20719   -20658   -20621 
  -20605   -20502   -20148   -19499   -18692   -17884   -17158   -16585 
  -16222   -16025   -15868   -15629   -15262   -14786   -14192   -13465 
  -12713   -12131   -11848   -11870   -12097   -12452   -12935   -13434 
  -13688   -13569   -13268   -13161   -13476   -14096   -14709   -15104 
  -15335   -15596   -15985   -16417   -16772   -17044   -17287   -17477 
  -17518   -17339   -16995   -16681   -16603   -16846   -17327   -17788 
  -17987   -17896   -17690   -17558   -17482   -17369   -17327   -17476 
  -17740   -17988   -18076   -17830   -17175   -16208   -15220   -14580 
  -14487   -14859   -15444   -15948   -16137   -15958   -15583   -15280 
  -15146   -15172   -15492   -16267   -17374   -18432   -19138   -19427 
  -19389   -19226   -19137   -19158   -19157   -18980   -18584   -18046 
  -17493   -17069   -16899   -17043   -17427   -17849   -18089   -18020 
  -17604   -16838   -15850   -14983   -14571   -14680   -15135   -15689 
  -16125   -16260   -15971   -15345   -14647   -14156   -14129   -14733 
  -15854   -17100   -18068   -18620   -18846   -18880   -18914   -19201 
  -19846   -20748   -21752   -22736   -23558   -24078   -24303   -24357 
  -24284   -23976   -23321   -22414   -21570   -21098   -21096   -21475 
  -22073   -22637   -22852   -22526   -21742   -20799   -19978   -19394 
  -19071   -19072   -19437   -20045   -20691   -21208   -21481   -21430 
  -21017   -20370   -19832   -19639   -19732   -19995   -20316   -20421 
  -20091   -19426   -18666   -18026   -17553   -17051   -16333   -15411 
  -14385   -13350   -12399   -11668   -11299   -11252   -11327   -11393 
  -11475   -11655   -11954   -12302   -12608   -12834   -13044   -13389 
  -14010   -14891   -15851   -16698   -17293   -17638   -17955   -18476 
  -19192   -19980   -20853   -21806   -22614   -23076   -23262   -23392 
  -23656   -24105   -24649   -25220   -25889   -26699   -27547   -28276 
  -28764   -28924   -28715   -28258   -27739   -27247   -26890   -26707 
