Origin Time       2011/03/11 14:46:00
Lat.              38.103
Long.             142.860
Depth. (km)       24
Mag.              9.0
Station Code      AOM001
Station Lat.      41.5269
Station Long.     140.9246
Station Height(m) 38
Record Time       2011/03/11 14:47:46
Sampling Freq(Hz) 100Hz
Duration Time(s)  300
Dir.              N-S
Scale Factor      3920(gal)/6182761
Max. Acc. (gal)   11.387
Last Correction   2011/03/11 14:47:31
Memo.             
[...]
   13378    13073    12841    12644    12503    12498    12647    12899 
   13178    13369    13392    13333    13330    13400    13506    13607 
   13668    13714    13719    13548    13110    12475    11800    11138 
   10386     9498     8545     7585     6721     6154     6044     6402 
    7093     7968     8951     9918    10652    11057    11181    11084 
   10842    10597    10534    10780    11292    11915    12536    13137 
   13724    14227    14570    14759    14869    14960    14989    14880 
   14657    14397    14151    13983    13939    14015    14213    14531 
   14879    15043    14785    14073    13160    12313    11622    11101 
   10782    10680    10757    10964    11287    11650    11891    11941 
   11887    11887    12118    12662    13405    14124    14648    14927 
   14980    14878    14792    14905    15195    15452    15543    15501 
   15411    15291    15083    14723    14197    13538    12812    12148 
   11739    11777    12274    13022    13792    14464    14990    15418 
   15852    16341    16824    17156    17236    17107    16877    16622 
   16417    16317    16325    16387    16367    16168    15849    15569 
   15462    15567    15849    16187    16382    16302    15993    15599 
   15162    14606    13892    13091    12325    11705    11254    10909 
   10615    10374    10223    10207    10306    10356    10178     9865 
    9781    10241    11297    12817    14557    16170    17377    18139 
   18583    18789    18701    18238    17366    16172    14892    13722 
   12713    11875    11179    10561     9975     9365     8713     8024 
    7228     6299     5358     4545     3931     3579     3524     3763 
    4335     5358     6924     8970    11245    13452    15434    17157 
   18556    19558    20180    20363    19939    18939    17685    16521 
   15591    14822    14107    13421    12774    12204    11811    11731 
   12049    12736    13671    14709    15748    16761    17734    18621 
   19416    20177    20887    21360    21311    20556    19119    17177 
   14987    12876    11134     9849     8906     8090     7249     6405 
    5644     4925     4119     3151     2042      921       24     -404 
    -224      548     1758     3131     4383     5494     6649     7945 
    9361    10813    12142    13255    14230    15175    16122    17067 
   17953    18625    18889    18689    18203    17660    17207    16931 
   16798    16666    16433    16065    15590    15066    14507    13913 
   13338    12872    12692    13033    13896    14957    15820    16232 
   16138    15624    14801    13822    12953    12411    12229    12311 
   12507    12651    12615    12329    11815    11117    10281     9416 
    8602     7803     6970     6084     5222     4601     4403     4619 
    5140     5903     6881     8059     9422    10875    12220    13223 
   13768    13923    13783    13455    13163    13007    12877    12723 
   12639    12707    12914    13189    13475    13740    13961    14132 
   14328    14673    15201    15739    16034    15976    15604    15046 
   14541    14327    14453    14735    14912    14871    14636    14186 
   13441    12417    11321    10408     9777     9353     9054     8862 
    8762     8757     8890     9142     9395     9516     9476     9383 
    9447     9879    10722    11806    12893    13868    14786    15721 
   16618    17320    17764    18146    18758    19664    20619    21215 
   21100    20115    18320    15971    13472    11312     9842     9059 
    8725     8671     8898     9498    10486    11707    12915    13868 
   14427    14659    14800    15076    15504    15871    15938    15619 
   14982    14194    13471    13002    12823    12790    12720    12482 
   12008    11344    10683    10213     9983     9918     9914     9916 
    9946    10076    10353    10794    11406    12099    12748    13338 
   13922    14479    15007    15585    16212    16747    16989    16798 
   16185    15342    14615    14248    14158    14152    14200    14340 
   14524    14661    14669    14546    14363    14234    14339    14822 
   15597    16366    16852    16924    16562    15815    14746    13459 
   12128    10966    10136     9723     9726    10029    10536    11179 
   11818    12316    12619    12729    12693    12679    12908    13343 
   13730    13955    14114    14286    14479    14656    14778    14895 
   15099    15426    15822    16129    16198    16014    15611    14966 
   14060    12885    11418     9809     8417     7586     7435     7792 
    8404     9130     9876    10527    11006    11277    11274    10979 
   10515    10112     9966    10126    10545    11165    11981    13019 
   14222    15371    16165    16470    16416    16178    15809    15264 
   14592    13942    13429    13144    13096    13184    13315    13444 
   13576    13745    13958    14165    14310    14403    14461    14437 
   14319    14151    13931    13541    12837    11797    10514     9193 
    8111     7390     6874     6385     5955     5779     6029     6703 
    7656     8800    10023    11087    11844    12400    12932    13429 
   13756    13867    13791    13584    13374    13278    13336    13513 
   13701    13727    13485    13088    12759    12666    12865    13240 
   13530    13524    13251    12922    12733    12767    12968    13229 
   13507    13795    14116    14564    15137    15651    15876    15724 
   15315    14819    14290    13669    12905    12072    11339    10871 
   10754    10993    11591    12548    13804    15250    16726    18073 
   19182    20001    20592    20997    21129    20960    20572    20085 
   19608    19182    18797    18382    17951    17765    18028    18638 
   19362    19979    20288    20131    19536    18734    17931    17216 
   16571    15862    15001    14067    13178    12340    11443    10428 
    9390     8526     8051     8092     8664     9710    11069    12526 
   13898    15083    16058    16715    16932    16810    16594    16382 
   16062    15502    14646    13470    12022    10414     8712     6923 
    5126     3548     2458     1964     1918     2088     2406     2914 
    3590     4366     5191     6080     7152     8479     9898    11147 
   12074    12646    13002    13402    13972    14612    15107    15227 
   14899    14336    13847    13546    13367    13273    13253    13182 
   12973    12812    12978    13562    14512    15802    17361    18824 
   19700    19845    19413    18520    17280    15946    14817    14085 
   13764    13699    13660    13420    12858    12077    11265    10488 
    9787     9301     9143     9289     9562     9723     9635     9320 
    8927     8625     8513     8626     8886     9146     9347     9410 
    9162     8515     7517     6360     5366     4748     4532     4694 
    5164     5755     6235     6506     6670     6879     7193     7647 
    8344     9312    10461    11667    12737    13549    14185    14723 
   15210    15715    16152    16328    16176    15810    15447    15249 
   15246    15426    15715    15891    15794    15482    15059    14574 
   14064    13544    13048    12592    12134    11745    11588    11744 
   12175    12731    13229    13635    14104    14831    15875    17112 
   18265    18983    19026    18403    17394    16373    15529    14821 
   14131    13401    12715    12165    11742    11413    11080    10611 
   10047     9502     8953     8371     7892     7709     7922     8570 
    9638    10997    12428    13747    14941    16083    17126    17970 
   18655    19264    19772    20141    20389    20612    20904    21245 
   21567    21736    21596    21116    20408    19746    19405    19386 
   19502    19534    19338    18969    18556    18073    17482    16899 
   16388    15934    15689    15896    16587    17514    18371    18973 
   19177    18993    18665    18373    18082    17639    16825    15586 
   14199    13058    12458    12538    13167    14003    14744    15317 
   15829    16359    16865    17244    17339    17038    16487    15993 
   15656    15309    14831    14243    13544    12662    11538    10229 
    8899     7696     6659     5723     4900     4314     4072     4237 
    4819     5787     7055     8440     9759    10874    11687    12178 
   12350    12234    12023    11966    12115    12370    12618    12663 
   12280    11403    10210     9066     8323     8138     8486     9196 
   10021    10847    11722    12553    13082    13140    12705    11899 
   11147    11020    11741    13101    14750    16356    17643    18510 
   19047    19340    19372    19130    18673    18130    17689    17505 
   17604    17882    18139    18244    18287    18424    18720    19195 
   19713    19981    19823    19300    18566    17745    16942    16318 
   15911    15461    14751    13887    13130    12682    12624    12888 
   13271    13555    13676    13678    13508    12967    11905    10384 
    8527     6387     4078     1884      125    -1081    -1781    -1977 
   -1648     -922      -68      803     1760     2797     3877     5056 
    6411     8015     9854    11792    13638    15155    16149    16591 
   16602    16377    16029    15493    14715    13824    13038    12474 
   12116    11987    12105    12270    12256    12067    11773    11349 
   10818    10376    10275    10630    11388    12393    13493    14610 
   15659    16522    17099    17326    17177    16721    16163    15716 
   15369    14953    14336    13440    12267    10871     9275     7493 
    5599     3688     1906      453     -452     -625     -122      749 
    1669     2424     2846     2905     2777     2748     3144     4200 
    5926     7957     9797    11209    12138    12591    12668    12579 
   12476    12471    12651    12979    13394    13824    14251    14594 
   14762    14772    14572    14154    13665    13416    13594    14106 
   14800    15416    15835    16069    16043    15764    15327    14887 
   14464    14058    13709    13351    12937    12304    11411    10346 
    9111     7926     7020     6569     6742     7526     8818    10344 
   11882    13264    14330    15188    15902    16553    17192    17589 
   17621    17252    16538    15676    14872    14435    14335    14273 
   14180    14038    13923    13824    13492    12825    11773    10388 
    8937     7642     6649     5895     5254     4780     4451     4195 
    3909     3412     2741     2087     1636     1527     1682     2039 
    2647     3437     4315     5209     6094     6978     7737     8309 
    8802     9301     9792    10134    10251    10269    10277    10248 
   10139     9900     9512     9043     8691     8780     9516    10758 
   12118    13233    14014    14670    15487    16617    18001    19433 
   20675    21570    22170    22724    23444    24298    24976    25110 
   24648    23875    23061    22272    21448    20459    19188    17651 
   16022    14503    13211    12205    11549    11338    11654    12407 
   13236    13666    13475    12853    12155    11536    10873     9996 
    8831     7380     5800     4377     3229     2189     1009     -286 
   -1363    -1964    -2032    -1528     -505      779     2078     3397 
    4861     6447     8021     9501    10793    11789    12550    13279 
   14140    15151    16157    17005    17698    18261    18624    18695 
   18477    18153    18011    18274    19033    20272    21859    23499 
   24870    25819    26245    25963    24860    23097    21047    19054 
   17303    15851    14665    13593    12394    10992     9566     8316 
    7429     7082     7269     7855     8693     9627    10537    11369 
   12102    12699    13101    13302    13303    13079    12653    12120 
   11578    11064    10563    10058     9517     8896     8225     7648 
    7373     7572     8229     9057     9726    10188    10657    11293 
   12046    12793    13380    13622    13459    13006    12411    11752 
   11074    10375     9584     8679     7640     6463     5374     4707 
    4634     5164     6218     7709     9596    11752    13904    15729 
   17057    17977    18640    19122    19577    20219    21092    22045 
   22869    23351    23308    22640    21392    19774    18145    16880 
   16287    16515    17304    18023    18151    17533    16232    14387 
   12277    10280     8618     7321     6311     5388     4370     3235 
    2047      924       -9     -714    -1182    -1310     -915      123 
    1767     3777     5749     7389     8796    10349    12316    14605 
   16897    18959    20738    22237    23448    24226    24300    23670 
   22776    22105    21860    21980    22290    22598    22697    22461 
   21936    21246    20537    19910    19368    18910    18576    18319 
   17893    17062    15850    14446    13060    11825    10687     9586 
    8624     7926     7506     7280     7115     6899     6626     6406 
    6415     6819     7592     8474     9282    10077    10921    11797 
   12753    13897    15215    16478    17434    18072    18530    18823 
   18915    18895    18904    19086    19572    20344    21189    21823 
   21976    21524    20618    19570    18586    17727    17055    16619 
   16251    15632    14592    13149    11368     9345     7226     5211 
    3549     2437     1880     1715     1746     1824     1898     2049 
    2464     3304     4595     6260     8222    10353    12441    14343 
   15997    17292    18179    18810    19421    20111    20770    21299 
   21724    22049    22183    22010    21529    20956    20634    20837 
   21595    22690    23896    25103    26331    27641    28948    30039 
   30711    30862    30630    30302    30026    29737    29296    28577 
   27510    26079    24305    22239    19968    17643    15461    13593 
   12104    10908     9847     8917     8280     8069     8277     8704 
    9036     9131     9128     9171     9232     9227     9064     8658 
    7965     7015     5973     5047     4272     3560     2820     1998 
    1235      849     1098     2051     3530     5194     6728     7926 
    8755     9356     9873    10390    10952    11549    12184    12881 
   13614    14373    15183    16029    16873    17593    17983    17917 
   17460    16864    16368    16025    15861    15861    15863    15784 
   15768    16001    16512    17165    17808    18369    18858    19304 
   19634    19741    19615    19389    19268    19296    19309    19159 
   18864    18569    18412    18481    18771    19153    19499    19754 
   19933    20049    19907    19238    18084    16763    15563    14554 
   13594    12542    11411    10281     9243     8488     8247     8495 
    8882     9038     8869     8528     8140     7707     7317     7167 
    7344     7721     8069     8246     8206     7895     7362     6814 
    6401     6185     6184     6283     6381     6576     6959     7470 
    8043     8688     9435    10246    11008    11606    12009    12280 
   12535    12957    13676    14620    15587    16378    16889    17189 
   17497    18025    18740    19334    19498    19147    18448    17619 
   16798    16147    15755    15511    15368    15395    15558    15778 
   16080    16596    17419    18438    19429    20234    20807    21193 
   21442    21586    21663    21743    21957    22348    22723    22813 
   22453    21662    20632    19618    18825    18362    18218    18324 
   18609    18997    19303    19180    18374    16974    15352    13940 
   12979    12346    11742    11004    10128     9183     8354     7865 
    7841     8308     9135     9999    10552    10638    10369    10025 
    9820     9832    10069    10402    10537    10214     9395     8213 
    6838     5418     4137     3207     2738     2709     3043     3595 
    4125     4436     4480     4226     3696     3112     2743     2661 
    2816     3146     3557     3888     3949     3658     3059     2261 
    1459      905      739      923     1365     2003     2779     3605 
    4355     4998     5645     6385     7230     8196     9195    10079 
   10840    11489    11959    12162    11965    11292    10189     8749 
    7142     5701     4839     4757     5237     5888     6494     7008 
    7483     8024     8632     9255     9970    10853    11814    12780 
   13691    14375    14696    14676    14492    14386    14429    14488 
   14410    14151    13886    13910    14280    14740    14938    14645 
   13934    13068    12212    11399    10693    10155     9741     9458 
    9451     9777    10350    11073    11815    12445    12924    13285 
   13628    14099    14736    15415    16071    16756    17417    17894 
   18148    18268    18299    18226    18070    17864    17563    17130 
   16633    16137    15661    15241    14883    14568    14298    14094 
   13969    13842    13552    13088    12704    12693    13111    13863 
   14826    15780    16486    16878    17063    17206    17395    17621 
   17838    17993    18096    18178    18181    18038    17863    17918 
   18296    18862    19516    20264    21069    21796    22258    22315 
   21878    20914    19614    18382    17541    17176    17280    17803 
   18528    19079    19086    18420    17289    16031    14939    14254 
   14140    14626    15524    16443    17060    17280    17113    16607 
   15915    15260    14781    14416    14025    13599    13177    12707 
   12111    11336    10350     9243     8263     7635     7425     7576 
    8020     8701     9547    10516    11588    12760    14032    15360 
   16625    17646    18259    18447    18287    17784    16957    15990 
   15109    14348    13579    12749    11938    11234    10712    10497 
   10670    11177    11868    12583    13198    13681    14148    14726 
   15316    15651    15552    15002    14083    12895    11555    10270 
    9283     8753     8736     9194    10020    11054    12015    12660 
   13034    13389    13983    15038    16586    18371    19997    21139 
   21606    21369    20638    19805    19157    18704    18314    17955 
   17763    17757    17700    17457    17206    17141    17240    17413 
   17668    18091    18724    19438    20090    20665    21055    21105 
   20814    20186    19142    17627    15748    13857    12275    11099 
   10292     9729     9185     8373     7147     5737     4636     4249 
    4625     5503     6634     7869     9103    10293    11372    12233 
   12834    13178    13306    13335    13368    13427    13551    13829 
   14227    14600    14832    14894    14956    15336    16186    17446 
   18933    20300    21224    21673    21864    22113    22589    23154 
   23591    23853    23928    23773    23430    22992    22480    21879 
   21154    20268    19257    18259    17405    16699    16037    15326 
   14579    13826    12907    11608     9999     8403     7061     6100 
    5741     6161     7213     8534     9808    10853    11544    11734 
   11366    10622     9832     9293     9175     9454     9865    10039 
    9773     9108     8133     6927     5687     4604     3698     3018 
    2754     3021     3838     5144     6727     8321     9762    11026 
   12149    13056    13614    13862    13948    13926    13798    13606 
   13350    12955    12416    11861    11354    10814    10251     9886 
    9847     9929     9900     9812     9837    10057    10525    11311 
   12326    13273    13906    14174    14126    13793    13243    12694 
   12392    12435    12825    13511    14341    15078    15503    15581 
   15453    15248    15041    14899    14866    15011    15399    15902 
