Origin Time       2011/03/11 14:46:00
Lat.              38.103
Long.             142.860
Depth. (km)       24
Mag.              9.0
Station Code      AOM019
Station Lat.      40.8152
Station Long.     140.4470
Station Height(m) 8
Record Time       2011/03/11 14:47:37
Sampling Freq(Hz) 100Hz
Duration Time(s)  300
Dir.              U-D
Scale Factor      3920(gal)/6182761
Max. Acc. (gal)   9.784
Last Correction   2011/03/11 14:47:22
Memo.             
[...]
  -23309   -24734   -26291   -27827   -28794   -29354   -29997   -30847 
  -31801   -32601   -33138   -33380   -33414   -33801   -34560   -34953 
  -34941   -35029   -35089   -34705   -34081   -33699   -33412   -32807 
  -32158   -32020   -32498   -33357   -34220   -34869   -35293   -35418 
  -35058   -34178   -33284   -32655   -31888   -31036   -30331   -29446 
  -28619   -28633   -29273   -29896   -30664   -31531   -31823   -31444 
  -30908   -30696   -31029   -31611   -32186   -32919   -33682   -34272 
  -34661   -34671   -34366   -33999   -33504   -32779   -32059   -31491 
  -30756   -29743   -28786   -27635   -25932   -24471   -23682   -22974 
  -22451   -22473   -23015   -24110   -25696   -27447   -28535   -28660 
  -28382   -27606   -26448   -25713   -25356   -25044   -24820   -24677 
  -24574   -24435   -24458   -24887   -25602   -26534   -27576   -28605 
  -29429   -29546   -29258   -29239   -29096   -28713   -28896   -29780 
  -30820   -31916   -33059   -33857   -34342   -34887   -35458   -36085 
  -36826   -37432   -37791   -37870   -37644   -37149   -36451   -35853 
  -35480   -35199   -34875   -34175   -33136   -32211   -31356   -30452 
  -29879   -29852   -30086   -29977   -29355   -28848   -28468   -27828 
  -27558   -28181   -29428   -31016   -32532   -33381   -33302   -32667 
  -31896   -31143   -30506   -29714   -28854   -28409   -28019   -27572 
  -27414   -27127   -26733   -26803   -26987   -26783   -26454   -26102 
  -25328   -24124   -22778   -21622   -21208   -21521   -22189   -23355 
  -24796   -25877   -26719   -27694   -28511   -28728   -28470   -28202 
  -27841   -26855   -25553   -24696   -24230   -23917   -23806   -23886 
  -24158   -24441   -24744   -25351   -26165   -27146   -28363   -29849 
  -31654   -33190   -34116   -34894   -35377   -35138   -34632   -34557 
  -34899   -35217   -35248   -34853   -34037   -33031   -32203   -31926 
  -32270   -33009   -33718   -34072   -34261   -34109   -33075   -31547 
  -30088   -28595   -26998   -25289   -23651   -22569   -21896   -21273 
  -21045   -21195   -21308   -21467   -21521   -21252   -20878   -20454 
  -20156   -20211   -20320   -20194   -19814   -19144   -18166   -17045 
  -16094   -15405   -14802   -14351   -14264   -14456   -14869   -15700 
  -16762   -17663   -18652   -19780   -20584   -21257   -21990   -22174 
  -21516   -20312   -18871   -17528   -16621   -16525   -17408   -18811 
  -20260   -21621   -22748   -23518   -23881   -23886   -23539   -22926 
  -22453   -22249   -22137   -22175   -22507   -23092   -23775   -24555 
  -25514   -26657   -27865   -28887   -29758   -30538   -30990   -31209 
  -31329   -31350   -31568   -31878   -31791   -31358   -30760   -29751 
  -28342   -26980   -25918   -25348   -25514   -26372   -27813   -29751 
  -31837   -33665   -35052   -35830   -35844   -35273   -34440   -33351 
  -32036   -30901   -30229   -29835   -29423   -28948   -28393   -27679 
  -26873   -25968   -25100   -24552   -24204   -24054   -24314   -24998 
  -26063   -27167   -28027   -28738   -28876   -27989   -26800   -25960 
  -25108   -24501   -24867   -25862   -27014   -28320   -29453   -30161 
  -30563   -30679   -30602   -30720   -31084   -31275   -31337   -31591 
  -32020   -32659   -33400   -33956   -34358   -34571   -34410   -34142 
  -34090   -34128   -34334   -34919   -35611   -36212   -36569   -36058 
  -34392   -32257   -30352   -28877   -28154   -28360   -29188   -30184 
  -30853   -31083   -31089   -30853   -30620   -30921   -31720   -32599 
  -33385   -33883   -33564   -32303   -30669   -29056   -27504   -26283 
  -25659   -25517   -25877   -26848   -27913   -28635   -29160   -29287 
  -28777   -27875   -26740   -25504   -24408   -23641   -23296   -23231 
  -23526   -24397   -25284   -25611   -25784   -26072   -25985   -25423 
  -24884   -24441   -23837   -23157   -22527   -22018   -21757   -21589 
  -21487   -21641   -21936   -22326   -22946   -23818   -24904   -26040 
  -27289   -28904   -30454   -31366   -31768   -31686   -30799   -29298 
  -27694   -26030   -24345   -23256   -23024   -23256   -23742   -24297 
  -24515   -24287   -23864   -23450   -23084   -23030   -23645   -24506 
  -24921   -25076   -25309   -25223   -24568   -23826   -23397   -23268 
  -23376   -23572   -23711   -23740   -23513   -23004   -22298   -21481 
  -20891   -20689   -20567   -20395   -20373   -20654   -21233   -22145 
  -23436   -24809   -25925   -26667   -26960   -27040   -27081   -26762 
  -26067   -25452   -24985   -24290   -23410   -22962   -23060   -23152 
  -23164   -23481   -23849   -23724   -23403   -23339   -23360   -23589 
  -24240   -25082   -26226   -27614   -28616   -29051   -29080   -28919 
  -28922   -29241   -29998   -31333   -32796   -33805   -34531   -35053 
  -35063   -34973   -35179   -35315   -35113   -34574   -33908   -33344 
  -32829   -32439   -32267   -32287   -32466   -32418   -31974   -31546 
  -31195   -30758   -30384   -30116   -29918   -29797   -29565   -29204 
  -28892   -28351   -27458   -26786   -26553   -26508   -26463   -26316 
  -26281   -26468   -26563   -26372   -26044   -26033   -26639   -27569 
  -28553   -29587   -30411   -30720   -30543   -30019   -29349   -28762 
  -28435   -28462   -28677   -28808   -28780   -28600   -28246   -27694 
  -26941   -26044   -25152   -24483   -24077   -23704   -23416   -23466 
  -23811   -24362   -24868   -25025   -25100   -25148   -24634   -23721 
  -23030   -22322   -21428   -21017   -21285   -21713   -22166   -22899 
  -23842   -24796   -26051   -27841   -29850   -31710   -33206   -34157 
  -34631   -34705   -34157   -33154   -32089   -30622   -28696   -27013 
  -25654   -24298   -23064   -22239   -22008   -22113   -22138   -22352 
  -23239   -24584   -25870   -26846   -27457   -27740   -27586   -26910 
  -26024   -25209   -24487   -23985   -23888   -24198   -24813   -25578 
  -26233   -26648   -26917   -27005   -26846   -26830   -27308   -28012 
  -28769   -29625   -30290   -30662   -30942   -31250   -31829   -32682 
  -33586   -34714   -35941   -36621   -36544   -35852   -34573   -32813 
  -31069   -30019   -29795   -30064   -30702   -31502   -31908   -31742 
  -31358   -30964   -30680   -30725   -31090   -31838   -32965   -33877 
  -34210   -34128   -33655   -33024   -32569   -32003   -31100   -30316 
  -29815   -29131   -28244   -27577   -27102   -26631   -26352   -26226 
  -25744   -25093   -24866   -24650   -24086   -23761   -23779   -23658 
  -23493   -23693   -24109   -24245   -24020   -23535   -22558   -21113 
  -19713   -18661   -18085   -18097   -18424   -18899   -19737   -20720 
  -21503   -22169   -22581   -22544   -22162   -21598   -21295   -21615 
  -22408   -23454   -24437   -24931   -24755   -23950   -22705   -21414 
  -20521   -20426   -21303   -22614   -23714   -24641   -25317   -25585 
  -25846   -26187   -26366   -26479   -26468   -26122   -25538   -24871 
  -24212   -23643   -23244   -23250   -23716   -24304   -24761   -25079 
  -25420   -25914   -26496   -27270   -28298   -29167   -29731   -30287 
  -30799   -31198   -31594   -31876   -32107   -32473   -32734   -32514 
  -31776   -30854   -30103   -29671   -29553   -29654   -29940   -30274 
  -30351   -30068   -29349   -28156   -26942   -26048   -25342   -25009 
  -25299   -26006   -27064   -28286   -29088   -29415   -29746   -30174 
  -30350   -30312   -30364   -30240   -29714   -29157   -28876   -28843 
  -28968   -29347   -30166   -31195   -31891   -32199   -32486   -32810 
  -33236   -34095   -35348   -36737   -37946   -38496   -38393   -37912 
  -37000   -35982   -35518   -35556   -35775   -36343   -37036   -37106 
  -36426   -35278   -33837   -32459   -31374   -30587   -30252   -30322 
  -30479   -30459   -30084   -29510   -29019   -28469   -27887   -27603 
  -27531   -27401   -27204   -27151   -27410   -27743   -27930   -27963 
  -27543   -26561   -25491   -24511   -23333   -22015   -20984   -20393 
  -20294   -20940   -22382   -24388   -26529   -28343   -29785   -30706 
  -30626   -29640   -28233   -26707   -25343   -24394   -23871   -23597 
  -23670   -24213   -24781   -25066   -25273   -25380   -25302   -25254 
  -25335   -25492   -25839   -26490   -27289   -28273   -29620   -30892 
  -31664   -31977   -31737   -30945   -29872   -28784   -27935   -27550 
  -27649   -27970   -28576   -29780   -31102   -32013   -32813   -33481 
  -33456   -32683   -31656   -30578   -29227   -27756   -26625   -26107 
  -26415   -27313   -28346   -29429   -30203   -30372   -30443   -30804 
  -31373   -32031   -32479   -32395   -31666   -30301   -28437   -26344 
  -24364   -22685   -21315   -20424   -20140   -20275   -20737   -21750 
  -23435   -25438   -27257   -28753   -29854   -30463   -30734   -30633 
  -30020   -29175   -28403   -27672   -26930   -26354   -26039   -25748 
  -25228   -24600   -24226   -24218   -24532   -25100   -25544   -25521 
  -25082   -24446   -23825   -23291   -22867   -22700   -22851   -23051 
  -23030   -23012   -23108   -22871   -22238   -21530   -20691   -19761 
  -19240   -19378   -19877   -20393   -20797   -21016   -20895   -20426 
  -19870   -19326   -18787   -18483   -18742   -19679   -20870   -21953 
  -23138   -24273   -24753   -24508   -23947   -23255   -22303   -21090 
  -19965   -19086   -18176   -17332   -17001   -17182   -17631   -18082 
  -18249   -18151   -17981   -17924   -18104   -18336   -18322   -18194 
  -18243   -18223   -17822   -17409   -17307   -17310   -17376   -17713 
  -18268   -18795   -19274   -19874   -20449   -20798   -21195   -21725 
  -22135   -22604   -23208   -23547   -23679   -23920   -24178   -24427 
  -24781   -25121   -25170   -24815   -24404   -24384   -24701   -25203 
  -26044   -27119   -27947   -28314   -28321   -28047   -27658   -27361 
  -27161   -27041   -27148   -27446   -27607   -27519   -27387   -27347 
  -27470   -27894   -28672   -29648   -30675   -31732   -32606   -32907 
  -32649   -32289   -31972   -31312   -30280   -29290   -28323   -27301 
  -26589   -26368   -26562   -26979   -27261   -27446   -27782   -27950 
  -27803   -27869   -28151   -28119   -27838   -27525   -27116   -26731 
  -26389   -26027   -25970   -26333   -26867   -27551   -28287   -28780 
  -29062   -29387   -29926   -30611   -31123   -31271   -30991   -30135 
  -28749   -27161   -25704   -24613   -23986   -23863   -24236   -24863 
  -25455   -25933   -26234   -26248   -26068   -25972   -26015   -25959 
  -25788   -25778   -25839   -25400   -24256   -22800   -21385   -20273 
  -19698   -19547   -19728   -20358   -21235   -22030   -22778   -23524 
  -24142   -24652   -25128   -25507   -25626   -25322   -24662   -23873 
  -23111   -22500   -21981   -21494   -21322   -21535   -21849   -22237 
  -22702   -22934   -22803   -22446   -21860   -20982   -19891   -18789 
  -17821   -16919   -16119   -15468   -14728   -14019   -13669   -13513 
  -13481   -13758   -14243   -14808   -15521   -16270   -16856   -17340 
  -17806   -18246   -18708   -19020   -18920   -18488   -17737   -16649 
  -15644   -14952   -14525   -14566   -15078   -15802   -16674   -17595 
  -18273   -18556   -18672   -19009   -19658   -20587   -22030   -24040 
  -26189   -28136   -29740   -30733   -30996   -30807   -30516   -30322 
  -30244   -30157   -30085   -30092   -29994   -29756   -29535   -29311 
  -29078   -28854   -28533   -28181   -27925   -27560   -26859   -26005 
  -25154   -24099   -22838   -21690   -20763   -20079   -19755   -19742 
  -19906   -20098   -20124   -20127   -20450   -21084   -21855   -22729 
  -23608   -24165   -24225   -23976   -23560   -23050   -22583   -22204 
  -21961   -21994   -22464   -23504   -25115   -27141   -29288   -31331 
  -33214   -34802   -35961   -36663   -36793   -36282   -35317   -34107 
  -32704   -31295   -30070   -28814   -27430   -26197   -25304   -24810 
  -24686   -24999   -25925   -27220   -28381   -29231   -29924   -30658 
  -31502   -32389   -33351   -34410   -35268   -35748   -35988   -35904 
  -35390   -34708   -34284   -34417   -35055   -36061   -37500   -39117 
  -40246   -40686   -40708   -40282   -39415   -38594   -38045   -37609 
  -37189   -36635   -35890   -35158   -34608   -34291   -34320   -34770 
  -35387   -35766   -35736   -35393   -34852   -34049   -33120   -32522 
  -32301   -32113   -31839   -31521   -31168   -30785   -30306   -29676 
  -29068   -28756   -28909   -29537   -30408   -31248   -32037   -32644 
  -32704   -32288   -31767   -31153   -30364   -29479   -28494   -27344 
  -26154   -25148   -24331   -23662   -23349   -23435   -23654   -23858 
  -23973   -23891   -23631   -23217   -22709   -22367   -22285   -22347 
  -22578   -22841   -22808   -22532   -22246   -21917   -21613   -21628 
  -21865   -22007   -22149   -22273   -22135   -21962   -21958   -21807 
  -21470   -21318   -21298   -21019   -20463   -19785   -18917   -17961 
  -17212   -16659   -16236   -16086   -16265   -16808   -17820   -19193 
  -20613   -21795   -22620   -23049   -22919   -22099   -20794   -19516 
  -18712   -18395   -18326   -18418   -18698   -19095   -19494   -19951 
  -20638   -21607   -22779   -23999   -25147   -26345   -27629   -28711 
  -29387   -29569   -29204   -28502   -27702   -26870   -26158   -25830 
  -25935   -26178   -26261   -26216   -26301   -26627   -27080   -27556 
  -27861   -27709   -27107   -26278   -25320   -24193   -23106   -22506 
  -22324   -22123   -21996   -22017   -21754   -21292   -21189   -21570 
  -22366   -23581   -25150   -26973   -28848   -30468   -31621   -32257 
  -32342   -31991   -31576   -31209   -30817   -30752   -31270   -32167 
  -33463   -35198   -36886   -38237   -39506   -40715   -41546   -41936 
  -42043   -41862   -41294   -40416   -39248   -37524   -35177   -32685 
  -30634   -29132   -28010   -27603   -28185   -29160   -30177   -31497 
  -32958   -34005   -34475   -34785   -35149   -35309   -35339   -35411 
  -35296   -34968   -34521   -33671   -32300   -30893   -29822   -28872 
  -27924   -27272   -27014   -26904   -26833   -26902   -27299   -28308 
  -29860   -31517   -33053   -34186   -34618   -34449   -33612   -32039 
  -30326   -28957   -27808   -26845   -26245   -25977   -25866   -25679 
  -25064   -23880   -22466   -21213   -20250   -19789   -20157   -21226 
  -22516   -23953   -25571   -26942   -27872   -28481   -28572   -28186 
  -27755   -27411   -27134   -27024   -27208   -27670   -28110   -28319 
  -28412   -28489   -28595   -28833   -29234   -29849   -30768   -31790 
  -32732   -33747   -34818   -35677   -36204   -36443   -36231   -35276 
  -33743   -31989   -30285   -29028   -28376   -28225   -28403   -28714 
  -29260   -30073   -30916   -31734   -32339   -32353   -31799   -30862 
  -29672   -28583   -27811   -27161   -26473   -25863   -25472   -25113 
  -24426   -23452   -22568   -22134   -22361   -23141   -24225   -25504 
  -26799   -27722   -28149   -28353   -28512   -28834   -29580   -30467 
  -31207   -32035   -32833   -33266   -33616   -34080   -34370   -34483 
  -34539   -34448   -34212   -33727   -32818   -31794   -30992   -30337 
  -29968   -30154   -30842   -31939   -33128   -33863   -34061   -34012 
  -33966   -33982   -33945   -33894   -33750   -33154   -32141   -31048 
  -29972   -29019   -28398   -27891   -27150   -26496   -26211   -25926 
  -25539   -25494   -26052   -27103   -28390   -29781   -31093   -31688 
  -31227   -30254   -29131   -27661   -25937   -24341   -23055   -22036 
  -21128   -20201   -19295   -18640   -18478   -18753   -19220   -19852 
  -20754   -21689   -22237   -22463   -22764   -23212   -23656   -24084 
  -24527   -24885   -25011   -24935   -24942   -25272   -25850   -26665 
  -27856   -29266   -30662   -31898   -32738   -33149   -33249   -33096 
  -32839   -32704   -32919   -33457   -33939   -34186   -34248   -34141 
  -34145   -34444   -34657   -34398   -33724   -32959   -32302   -31823 
  -31750   -32075   -32451   -32707   -32642   -31973   -31003   -30287 
  -29839   -29671   -30126   -31024   -31962   -33024   -34006   -34443 
  -34441   -34203   -33709   -33197   -32969   -32894   -32779   -32706 
  -32492   -31885   -31134   -30399   -29909   -30161   -30827   -31272 
  -31613   -31938   -31961   -31552   -30882   -30189   -29342   -28161 
  -26855   -25447   -23785   -22159   -20906   -19951   -19285   -19112 
  -19270   -19360   -19472   -19761   -20018   -20423   -21354   -22630 
  -24001   -25551   -27131   -28328   -29057   -29414   -29317   -28820 
  -28326   -28238   -28536   -29047   -29959   -31449   -33241   -34800 
  -35685   -35675   -34804   -33336   -31391   -29122   -27190   -26056 
  -25539   -25300   -25168   -25138   -25018   -24588   -24037   -23672 
  -23508   -23379   -23255   -23102   -22868   -22650   -22320   -21836 
  -21594   -21484   -21197   -21154   -21392   -21336   -21087   -20914 
  -20620   -20279   -20154   -20314   -20872   -21657   -22229   -22693 
  -23334   -24039   -24830   -25839   -26848   -27612   -28159   -28425 
  -28280   -27946   -27601   -27040   -26234   -25475   -24958   -24631 
  -24311   -23876   -23236   -22447   -21899   -21830   -21941   -21964 
  -22101   -22552   -23143   -23738   -24332   -24735   -24881   -24971 
  -24911   -24555   -24320   -24352   -24266   -24290   -24829   -25726 
  -26950   -28533   -30281   -32002   -33523   -34758   -35590   -35817 
  -35430   -34655   -33760   -32972   -32373   -31797   -31242   -30965 
  -30927   -30898   -30857   -30826   -30799   -30915   -31317   -31894 
  -32479   -32967   -33151   -32960   -32485   -31741   -30816   -29810 
  -28636   -27252   -25818   -24524   -23349   -22191   -21204   -20504 
  -19960   -19739   -20080   -20725   -21587   -22862   -24183   -25071 
  -25660   -25991   -25660   -24783   -24050   -23616   -23140   -22764 
  -22981   -23634   -24102   -24267   -24261   -24054   -23728   -23294 
  -22691   -21990   -21228   -20448   -19585   -18611   -17797   -17092 
  -16367   -15990   -15921   -15792   -15680   -15839   -16497   -17516 
  -18723   -20339   -22031   -23345   -24545   -25530   -25831   -25655 
  -25347   -24729   -23907   -23452   -23414   -23451   -23528   -23754 
  -24114   -24591   -25282   -26104   -26753   -27169   -27440   -27496 
  -27073   -25912   -24378   -23120   -22243   -21657   -21281   -20985 
  -20802   -20532   -19974   -19368   -18815   -18377   -18302   -18376 
  -18187   -17747   -17169   -16426   -15585   -14842   -14408   -14347 
  -14480   -14777   -15382   -16118   -16598   -16637   -16420   -16233 
  -16089   -16139   -16697   -17555   -18440   -19355   -20066   -20309 
  -20055   -19403   -18624   -17888   -17256   -16849   -16567   -16086 
  -15373   -14675   -14060   -13579   -13439   -13702   -14398   -15499 
  -16579   -17361   -18094   -18867   -19538   -20213   -21060   -22060 
  -23120   -24243   -25334   -26101   -26600   -27145   -27737   -28199 
  -28414   -28381   -28147   -27851   -27761   -28017   -28514   -29184 
  -30194   -31567   -32916   -34013   -34894   -35340   -35135   -34540 
  -33847   -32981   -31945   -31044   -30470   -30217   -30189   -30166 
  -29945   -29510   -28872   -27903   -26675   -25503   -24413   -23312 
  -22500   -22264   -22367   -22569   -23047   -23747   -24550   -25686 
  -27029   -28330   -29657   -30786   -31475   -31935   -32401   -32915 
  -33529   -34213   -34655   -34703   -34634   -34638   -34606   -34474 
  -34390   -34306   -33886   -33271   -32931   -32828   -32839   -33042 
  -33308   -33571   -33888   -34098   -34034   -33731   -33374   -32937 
  -32177   -31248   -30379   -29288   -27748   -25905   -23925   -21946 
