Origin Time       2011/03/11 14:46:00
Lat.              38.103
Long.             142.860
Depth. (km)       24
Mag.              9.0
Station Code      AOM018
Station Lat.      40.7776
Station Long.     140.2060
Station Height(m) 38
Record Time       2011/03/11 14:47:35
Sampling Freq(Hz) 100Hz
Duration Time(s)  300
Dir.              U-D
Scale Factor      3920(gal)/6182761
Max. Acc. (gal)   12.066
Last Correction   2011/03/11 14:47:20
Memo.             
[...]
  -12603   -13276   -14075   -14868   -15469   -15932   -16367   -16740 
  -17014   -17200   -17347   -17449   -17315   -16853   -16236   -15580 
  -14954   -14558   -14465   -14579   -14812   -14930   -14676   -14074 
  -13323   -12556   -11711   -10701    -9611    -8602    -7760    -7065 
   -6487    -6012    -5563    -5108    -4728    -4461    -4292    -4259 
   -4364    -4515    -4733    -5130    -5612    -6038    -6460    -6923 
   -7359    -7739    -8090    -8443    -8844    -9324    -9781   -10024 
   -9950    -9528    -8761    -7721    -6512    -5340    -4423    -3772 
   -3355    -3160    -3041    -2912    -2824    -2728    -2588    -2517 
   -2521    -2517    -2548    -2647    -2804    -3123    -3707    -4478 
   -5262    -5968    -6576    -6988    -7120    -7030    -6854    -6712 
   -6638    -6604    -6620    -6669    -6670    -6640    -6687    -6836 
   -7088    -7481    -7943    -8338    -8625    -8820    -8919    -8924 
   -8903    -9000    -9291    -9738   -10296   -10900   -11424   -11766 
  -11896   -11928   -12034   -12251   -12534   -12778   -12778   -12443 
  -11841   -10976    -9848    -8681    -7722    -6999    -6414    -5918 
   -5536    -5311    -5275    -5421    -5647    -5922    -6394    -7057 
   -7761    -8558    -9469   -10248   -10811   -11268   -11602   -11851 
  -12091   -12149   -11896   -11392   -10696    -9880    -9017    -8168 
   -7449    -7001    -6886    -7028    -7263    -7407    -7356    -7212 
   -7128    -7113    -7130    -7187    -7323    -7558    -7785    -7834 
   -7661    -7387    -7064    -6595    -6003    -5464    -5032    -4650 
   -4344    -4111    -3836    -3475    -3096    -2826    -2752    -2782 
   -2771    -2682    -2544    -2451    -2553    -2917    -3520    -4275 
   -4972    -5451    -5754    -5934    -6070    -6298    -6596    -6914 
   -7303    -7705    -8007    -8213    -8325    -8269    -8031    -7732 
   -7477    -7380    -7599    -8085    -8645    -9204    -9701   -10057 
  -10292   -10438   -10497   -10502   -10464   -10361   -10226   -10093 
   -9900    -9614    -9391    -9340    -9414    -9549    -9624    -9555 
   -9402    -9251    -9199    -9252    -9274    -9264    -9375    -9628 
   -9944   -10351   -10857   -11346   -11753   -12076   -12253   -12308 
  -12410   -12598   -12740   -12792   -12681   -12216   -11447   -10599 
   -9727    -8886    -8204    -7715    -7424    -7305    -7268    -7318 
   -7506    -7823    -8280    -8889    -9616   -10428   -11303   -12180 
  -12930   -13480   -13824   -13871   -13564   -12999   -12294   -11495 
  -10558    -9464    -8341    -7301    -6349    -5459    -4565    -3661 
   -2844    -2139    -1487     -929     -576     -367     -118      184 
     425      569      638      718      837      864      733      463 
      39     -466     -943    -1380    -1756    -2032    -2210    -2292 
   -2296    -2281    -2290    -2338    -2426    -2573    -2825    -3171 
   -3507    -3742    -3863    -3909    -3888    -3788    -3681    -3638 
   -3662    -3825    -4150    -4504    -4869    -5338    -5881    -6417 
   -6864    -7174    -7450    -7725    -7878    -7898    -7799    -7476 
   -6968    -6498    -6048    -5453    -4881    -4583    -4490    -4465 
   -4442    -4346    -4168    -3995    -3940    -4047    -4257    -4469 
   -4723    -5172    -5734    -6187    -6550    -6911    -7249    -7528 
   -7677    -7666    -7532    -7265    -6872    -6459    -6109    -5803 
   -5516    -5253    -4986    -4712    -4459    -4243    -4131    -4130 
   -4098    -3983    -3804    -3518    -3160    -2827    -2564    -2424 
   -2455    -2656    -2967    -3243    -3327    -3179    -2916    -2712 
   -2599    -2581    -2818    -3323    -3891    -4416    -4829    -5070 
   -5282    -5579    -5895    -6166    -6307    -6209    -5862    -5279 
   -4492    -3568    -2542    -1506     -597      134      720     1198 
    1597     1994     2415     2733     2794     2583     2224     1795 
    1360     1076      980      869      491     -220    -1073    -1970 
   -3033    -4222    -5379    -6505    -7635    -8674    -9493   -10117 
  -10721   -11399   -12077   -12667   -13140   -13419   -13401   -13132 
  -12710   -12220   -11788   -11434   -11136   -10944   -10743   -10407 
  -10027    -9503    -8643    -7635    -6690    -5741    -4787    -3922 
   -3152    -2418    -1703    -1099     -739     -637     -675     -755 
    -819     -782     -617     -428     -261      -39      299      797 
    1368     1748     1809     1661     1442     1240     1050      805 
     541      275      -55     -398     -668     -893    -1053    -1057 
    -939     -789     -614     -394     -185      -65      -78     -251 
    -550     -871    -1073    -1063     -944     -950    -1193    -1573 
   -1898    -2094    -2230    -2286    -2140    -1826    -1517    -1345 
   -1413    -1762    -2264    -2697    -2957    -3050    -3019    -2916 
   -2772    -2587    -2393    -2228    -2046    -1875    -1922    -2238 
   -2689    -3246    -3931    -4727    -5570    -6339    -6927    -7247 
   -7287    -7136    -6814    -6299    -5641    -4852    -3914    -2921 
   -1991    -1159     -452       72      392      532      514      387 
     258      182      139       53     -272     -986    -1999    -3130 
   -4202    -5141    -6039    -6913    -7640    -8202    -8686    -9152 
   -9608   -10035   -10425   -10792   -11072   -11168   -11118   -11006 
  -10852   -10675   -10501   -10334   -10187   -10088   -10000    -9822 
   -9562    -9417    -9504    -9724    -9978   -10262   -10602   -11058 
  -11693   -12485   -13354   -14245   -15161   -16106   -16987   -17689 
  -18242   -18691   -18913   -18806   -18476   -18064   -17618   -17141 
  -16614   -16071   -15614   -15246   -14955   -14800   -14706   -14479 
  -14054   -13422   -12591   -11732   -10965   -10177    -9356    -8657 
   -8067    -7452    -6754    -5961    -5071    -4099    -3127    -2284 
   -1699    -1465    -1570    -1916    -2369    -2790    -3108    -3321 
   -3460    -3574    -3732    -4047    -4570    -5207    -5796    -6263 
   -6669    -7047    -7300    -7335    -7153    -6770    -6216    -5628 
   -5174    -4970    -5079    -5445    -5921    -6379    -6721    -6899 
   -6939    -6851    -6575    -6124    -5597    -5059    -4574    -4207 
   -3974    -3868    -3798    -3616    -3289    -2878    -2433    -2024 
   -1721    -1576    -1532    -1410    -1140     -807     -453      -92 
     189      333      376      346      238       90      -51     -253 
    -612    -1039    -1379    -1621    -1791    -1888    -1974    -2150 
   -2500    -2982    -3473    -4021    -4671    -5253    -5623    -5775 
   -5770    -5737    -5774    -5902    -6119    -6402    -6770    -7274 
   -7895    -8588    -9338   -10150   -11037   -11959   -12817   -13527 
  -14043   -14372   -14564   -14645   -14575   -14388   -14232   -14172 
  -14139   -14041   -13796   -13423   -13002   -12546   -12051   -11528 
  -10958   -10404    -9956    -9551    -9097    -8662    -8380    -8308 
   -8332    -8267    -8086    -7876    -7624    -7320    -7081    -6930 
   -6774    -6588    -6345    -6022    -5670    -5302    -4899    -4503 
   -4208    -4090    -4170    -4374    -4602    -4849    -5119    -5361 
   -5603    -5903    -6229    -6516    -6720    -6821    -6867    -6895 
   -6871    -6771    -6573    -6265    -5855    -5322    -4736    -4269 
   -3913    -3534    -3109    -2680    -2288    -1974    -1748    -1612 
   -1588    -1711    -1948    -2200    -2454    -2757    -3108    -3569 
   -4178    -4825    -5438    -5966    -6306    -6469    -6513    -6429 
   -6273    -6105    -5936    -5871    -5988    -6201    -6419    -6587 
   -6618    -6464    -6141    -5660    -5083    -4533    -4068    -3723 
   -3507    -3348    -3211    -3123    -3088    -3138    -3274    -3462 
   -3729    -4055    -4347    -4567    -4659    -4569    -4365    -4087 
   -3704    -3267    -2836    -2433    -2078    -1747    -1384    -1017 
    -757     -606     -502     -510     -696    -1054    -1646    -2557 
   -3756    -5128    -6585    -8053    -9440   -10650   -11649   -12464 
  -13091   -13543   -13893   -14178   -14419   -14614   -14732   -14744 
  -14599   -14295   -13920   -13536   -13159   -12812   -12495   -12200 
  -11912   -11600   -11309   -11091   -10930   -10827   -10794   -10807 
  -10843   -10913   -10987   -11061   -11193   -11307   -11224   -10928 
  -10479    -9903    -9234    -8499    -7808    -7303    -6928    -6584 
   -6351    -6332    -6507    -6817    -7261    -7858    -8564    -9339 
  -10168   -10952   -11579   -12008   -12182   -12009   -11481   -10687 
   -9726    -8656    -7597    -6700    -6038    -5630    -5461    -5436 
   -5358    -5062    -4599    -4154    -3836    -3704    -3823    -4172 
   -4658    -5165    -5560    -5809    -6014    -6293    -6700    -7225 
   -7795    -8361    -8940    -9461    -9839   -10144   -10462   -10734 
  -10919   -11082   -11261   -11432   -11588   -11763   -11952   -12129 
  -12337   -12637   -12969   -13225   -13429   -13719   -14146   -14614 
  -14993   -15242   -15476   -15840   -16253   -16540   -16737   -16935 
  -17115   -17239   -17239   -16990   -16444   -15676   -14793   -13911 
  -13102   -12354   -11649   -10927   -10102    -9260    -8512    -7771 
   -6987    -6322    -5944    -5783    -5638    -5484    -5502    -5791 
   -6312    -7034    -7821    -8494    -9060    -9564    -9958   -10267 
  -10552   -10750   -10752   -10509   -10068    -9515    -8866    -8144 
   -7434    -6753    -6129    -5662    -5339    -5076    -4849    -4629 
   -4419    -4294    -4247    -4226    -4294    -4506    -4775    -4994 
   -5181    -5429    -5810    -6397    -7170    -7952    -8578    -9042 
   -9404    -9647    -9722    -9652    -9482    -9230    -8870    -8327 
   -7597    -6811    -6119    -5599    -5226    -4886    -4608    -4610 
   -4948    -5490    -6202    -7077    -7967    -8736    -9450   -10182 
  -10816   -11251   -11537   -11699   -11662   -11411   -11038   -10597 
  -10129    -9748    -9536    -9501    -9648   -10026   -10621   -11273 
  -11847   -12254   -12388   -12332   -12293   -12280   -12187   -11978 
  -11657   -11209   -10569    -9713    -8741    -7838    -7120    -6544 
   -6039    -5552    -5010    -4472    -4121    -4068    -4318    -4779 
   -5314    -5829    -6232    -6476    -6595    -6546    -6262    -5871 
   -5521    -5156    -4736    -4338    -3928    -3411    -2816    -2210 
   -1594     -938     -262      308      656      767      679      479 
     213      -85     -315     -490     -792    -1276    -1787    -2247 
   -2753    -3380    -4082    -4754    -5283    -5576    -5623    -5544 
   -5504    -5551    -5638    -5796    -6108    -6547    -6994    -7376 
   -7680    -7889    -7975    -7937    -7846    -7773    -7743    -7817 
   -7995    -8190    -8455    -8904    -9483   -10078   -10572   -10805 
  -10720   -10409    -9937    -9328    -8692    -8228    -8071    -8171 
   -8382    -8599    -8839    -9129    -9306    -9260    -9162    -9098 
   -9023    -9030    -9128    -9143    -9060    -8965    -8740    -8314 
   -7866    -7532    -7357    -7395    -7547    -7618    -7541    -7311 
   -6929    -6468    -5933    -5299    -4679    -4097    -3473    -2871 
   -2343    -1941    -1870    -2176    -2738    -3485    -4204    -4689 
   -5083    -5497    -5779    -5917    -6097    -6362    -6543    -6532 
   -6357    -6001    -5430    -4683    -3830    -3004    -2377    -2013 
   -1843    -1799    -1850    -1988    -2260    -2718    -3391    -4238 
   -5070    -5712    -6141    -6409    -6543    -6593    -6654    -6771 
   -6969    -7234    -7435    -7525    -7581    -7570    -7506    -7510 
   -7605    -7813    -8136    -8412    -8534    -8532    -8412    -8195 
   -7926    -7626    -7364    -7289    -7564    -8149    -8805    -9382 
   -9798    -9933    -9878    -9832    -9818    -9829    -9882    -9962 
  -10192   -10647   -11155   -11631   -12140   -12595   -12864   -12957 
  -12907   -12745   -12543   -12353   -12157   -11877   -11494   -11054 
  -10587   -10174    -9862    -9596    -9393    -9308    -9292    -9275 
   -9253    -9286    -9379    -9413    -9370    -9336    -9304    -9270 
   -9226    -9070    -8824    -8597    -8400    -8259    -8167    -8067 
   -7929    -7601    -7004    -6392    -5952    -5614    -5345    -5184 
   -5101    -5030    -4902    -4701    -4451    -4185    -4028    -4047 
   -4087    -4058    -4053    -4107    -4223    -4409    -4582    -4729 
   -4988    -5406    -5929    -6527    -7154    -7705    -8077    -8236 
   -8180    -7918    -7527    -7124    -6711    -6275    -5933    -5693 
   -5430    -5177    -5003    -4807    -4517    -4226    -4032    -3897 
   -3742    -3583    -3463    -3384    -3409    -3525    -3532    -3386 
   -3235    -3047    -2786    -2585    -2470    -2345    -2184    -1939 
   -1528    -1039     -598     -215       49       95      -36     -188 
    -204      -76       64      204      347      318       60     -300 
    -730    -1177    -1425    -1397    -1279    -1246    -1305    -1452 
   -1718    -2068    -2419    -2721    -3012    -3358    -3676    -3801 
   -3733    -3562    -3290    -2990    -2838    -2877    -3023    -3192 
   -3322    -3437    -3579    -3668    -3622    -3525    -3505    -3560 
   -3631    -3681    -3616    -3425    -3282    -3227    -3134    -3008 
   -2860    -2642    -2443    -2345    -2240    -2010    -1642    -1110 
    -391      415     1248     2200     3207     4107     4969     5863 
    6732     7606     8472     9256     9948    10560    11159    11771 
   12277    12599    12678    12362    11612    10568     9414     8275 
    7157     6002     4786     3467     1993      409    -1153    -2548 
   -3647    -4367    -4735    -4825    -4713    -4478    -4136    -3720 
   -3381    -3175    -2968    -2649    -2124    -1389     -598      125 
     703     1107     1426     1736     2022     2219     2325     2447 
    2616     2718     2713     2710     2696     2496     2036     1405 
     730      126     -325     -599     -804    -1108    -1534    -2002 
   -2564    -3259    -3898    -4309    -4529    -4650    -4684    -4576 
   -4289    -3852    -3322    -2788    -2312    -1852    -1389     -982 
    -621     -270        9      174      208       18     -454    -1159 
   -2081    -3194    -4328    -5331    -6220    -7056    -7830    -8459 
   -8870    -9106    -9193    -9144    -9053    -8933    -8654    -8159 
   -7583    -7068    -6606    -6188    -5914    -5829    -5805    -5713 
   -5585    -5519    -5602    -5902    -6406    -7029    -7718    -8500 
   -9429   -10527   -11773   -13066   -14283   -15390   -16357   -17085 
  -17505   -17607   -17382   -16876   -16225   -15546   -14847   -14120 
  -13440   -12880   -12408   -11947   -11519   -11211   -11021   -10897 
  -10812   -10707   -10510   -10202    -9838    -9535    -9395    -9422 
   -9529    -9663    -9761    -9764    -9764    -9787    -9672    -9367 
   -8936    -8429    -7906    -7417    -7002    -6740    -6651    -6631 
   -6569    -6420    -6245    -6121    -6006    -5895    -5934    -6202 
   -6654    -7224    -7855    -8559    -9343   -10079   -10653   -11045 
  -11227   -11241   -11179   -11023   -10733   -10365   -10023    -9785 
   -9710    -9813   -10050   -10355   -10606   -10752   -10934   -11206 
  -11466   -11738   -12051   -12306   -12477   -12625   -12770   -12928 
  -13085   -13208   -13287   -13262   -13145   -13086   -13123   -13172 
  -13153   -12960   -12524   -11944   -11364   -10745   -10019    -9275 
   -8608    -8056    -7620    -7282    -7055    -6877    -6598    -6229 
   -5914    -5718    -5623    -5549    -5396    -5146    -4797    -4342 
   -3843    -3354    -2917    -2579    -2369    -2295    -2240    -2157 
   -2226    -2511    -2960    -3629    -4500    -5399    -6233    -7044 
   -7836    -8518    -9084    -9612   -10089   -10486   -10836   -11108 
  -11263   -11304   -11254   -11168   -11043   -10831   -10564   -10269 
   -9925    -9548    -9102    -8445    -7584    -6649    -5656    -4607 
   -3561    -2556    -1626     -814     -170      302      667      936 
    1121     1300     1494     1648     1675     1476     1106      745 
     468      295      213      125       34      -13     -110     -280 
    -494     -792    -1118    -1418    -1667    -1758    -1681    -1500 
   -1260    -1149    -1242    -1408    -1673    -2109    -2603    -3054 
   -3414    -3609    -3558    -3279    -2936    -2597    -2234    -2064 
   -2285    -2771    -3349    -3947    -4551    -5189    -5826    -6366 
   -6823    -7273    -7634    -7805    -7872    -7889    -7805    -7651 
   -7419    -7010    -6418    -5738    -5031    -4353    -3845    -3662 
   -3794    -4103    -4524    -4994    -5370    -5637    -5916    -6212 
   -6411    -6449    -6378    -6235    -5942    -5530    -5171    -4944 
   -4853    -4930    -5227    -5692    -6095    -6363    -6697    -7205 
   -7807    -8391    -8867    -9238    -9544    -9796   -10062   -10347 
  -10614   -10951   -11321   -11558   -11674   -11733   -11730   -11721 
  -11738   -11725   -11712   -11801   -11991   -12177   -12308   -12425 
  -12567   -12721   -12883   -13047   -13149   -13125   -12897   -12389 
  -11667   -10859   -10022    -9228    -8494    -7793    -7206    -6795 
   -6536    -6430    -6463    -6642    -6981    -7392    -7827    -8286 
   -8650    -8845    -9002    -9239    -9475    -9614    -9721    -9885 
  -10073   -10198   -10214   -10127    -9947    -9694    -9480    -9445 
   -9575    -9756    -9962   -10205   -10405   -10496   -10485   -10375 
  -10120    -9639    -8935    -8148    -7419    -6785    -6247    -5854 
   -5575    -5315    -5134    -5094    -5097    -5121    -5191    -5183 
   -5024    -4788    -4499    -4127    -3688    -3303    -3130    -3221 
   -3525    -3892    -4212    -4584    -5027    -5389    -5623    -5726 
   -5660    -5504    -5370    -5258    -5130    -4992    -4850    -4680 
   -4544    -4525    -4545    -4549    -4600    -4606    -4418    -4140 
   -3953    -3881    -3857    -3773    -3635    -3600    -3705    -3863 
   -4027    -4168    -4314    -4527    -4788    -5050    -5283    -5438 
   -5491    -5499    -5534    -5600    -5677    -5771    -5844    -5808 
   -5678    -5580    -5606    -5774    -6058    -6476    -7036    -7606 
   -8064    -8412    -8611    -8623    -8568    -8587    -8664    -8694 
   -8649    -8545    -8285    -7855    -7445    -7123    -6897    -6957 
   -7334    -7797    -8240    -8661    -8961    -9051    -8975    -8797 
   -8583    -8479    -8552    -8690    -8824    -8993    -9166    -9267 
   -9341    -9414    -9310    -8981    -8640    -8375    -8129    -7940 
   -7815    -7738    -7761    -7893    -8035    -8040    -7860    -7621 
   -7413    -7180    -6864    -6499    -6168    -5849    -5467    -5108 
   -4837    -4570    -4336    -4271    -4412    -4626    -4737    -4772 
   -4846    -4963    -5176    -5500    -5820    -6108    -6403    -6606 
   -6526    -6125    -5575    -5033    -4559    -4172    -3805    -3401 
   -3037    -2755    -2454    -2077    -1720    -1486    -1354    -1210 
   -1010     -835     -741     -719     -744     -767     -780     -806 
    -830     -848     -868     -894     -965    -1097    -1287    -1566 
   -1920    -2247    -2500    -2695    -2768    -2653    -2369    -1941 
   -1446    -1037     -838     -859    -1026    -1326    -1747    -2165 
   -2487    -2697    -2771    -2746    -2691    -2612    -2472    -2223 
