Origin Time       2011/03/11 14:46:00
Lat.              38.103
Long.             142.860
Depth. (km)       24
Mag.              9.0
Station Code      AOM028
Station Lat.      40.7004
Station Long.     140.9190
Station Height(m) 568
Record Time       2011/03/11 14:47:17
Sampling Freq(Hz) 100Hz
Duration Time(s)  300
Dir.              U-D
Scale Factor      3920(gal)/6182761
Max. Acc. (gal)   39.657
Last Correction   2011/03/11 14:47:02
Memo.             
[...]
     831     1103     2248     4482     6657     7520     7700     8065 
    8218     8154     8600     9383     9647     9174     8270     7181 
    6168     5230     4110     3099     2608     2351     2231     2536 
    2928     2815     1859       60    -1739    -2818    -3604    -4532 
   -5135    -4775    -3434    -1222     1816     4600     6220     7916 
   10837    14264    17371    19371    19493    18569    17799    16789 
   15042    13471    13103    13695    14303    14098    12699    10950 
   10280    10502    10261     9480     8994     8750     8429     8268 
    8101     7891     8702    10591    11797    11525    10487     9156 
    7492     5426     3553     2830     3043     3781     5676     8278 
   10093    11185    11805    11302    10698    11000    10562     8452 
    6167     5385     6575     8362     9257     9605     9876    10259 
   11280    12086    11561    10328     8648     6025     3036      667 
    -557     -483      330      804      377     -291       38     2119 
    5821     9824    12578    13876    14040    13369    13164    14206 
   15391    15552    14450    12730    12026    13306    15757    17934 
   18680    17547    15060    12060     8939     5556     1724    -2314 
   -6309    -9910   -12171   -12860   -12552   -11263    -9662    -8991 
   -8989    -9373   -10830   -12891   -14211   -14513   -14391   -14303 
  -14318   -13973   -12273    -8768    -4485     -789     1964     3914 
    5014     5484     5951     6528     6497     5351     3679     2975 
    4308     6984     9158     9381     7350     4555     3110     2873 
    2517     2480     3525     5222     7312     9528    11051    11700 
   12379    14184    16740    18275    18473    18403    18084    17589 
   17692    18013    17911    17668    16949    15157    13237    12193 
   11701    11882    12801    12867    11767    11675    13374    15700 
   18370    21538    24401    26456    28064    29012    28640    27362 
   26305    25996    26028    25598    24343    22698    21138    19337 
   17179    15658    15320    15848    16823    17068    15720    13471 
   11073     8665     6032     2933     -264    -3537    -7014    -9520 
  -10372   -10236    -9200    -7556    -6437    -5867    -5231    -4874 
   -5290    -6252    -7390    -8954   -11149   -12873   -12886   -11121 
   -7916    -4430    -2534    -2329    -2326    -1741     -538     1232 
    3124     4530     5498     6259     6190     4656     2181       56 
    -646        7     1167     2124     2060      832     -565    -1891 
   -3276    -4169    -4936    -5748    -5373    -4142    -3549    -3181 
   -2189     -688     1215     2815     3221     2704     1711      826 
    1094     2165     2828     3052     2796     1737      819      805 
     805      287      249     1138     2256     3865     6478     9234 
   11904    15102    18487    21672    24188    25194    25332    25645 
   25989    26804    28609    30216    30723    30729    30783    30961 
   31101    30856    30284    29562    28255    26105    23527    20333 
   15917    10942     6582     3200     1129      633      856      642 
    -232    -1194    -1501    -1121     -903    -1738    -3988    -6667 
   -7941    -7601    -6744    -5855    -5488    -6219    -7269    -7588 
   -7009    -5211    -1790     2507     6523     9675    11130    10390 
    8819     7924     7470     6773     5588     3950     2105       -1 
   -2333    -4304    -5597    -6557    -7987   -10082   -11208    -9953 
   -7229    -4269    -1643      155     1787     3767     4933     5082 
    5455     6419     7756     9003     9323     9067     9364    10065 
   10173     9177     7600     7030     8359    10161    10549     9454 
    7973     7188     7739     9210    10273    10366    10559    11163 
   10845     9726     9007     8146     6536     5151     4982     6177 
    7919     9027     9281     8791     7816     7646     8496     8625 
    7794     7928     9762    12090    13890    14756    14387    13664 
   14309    16572    19174    20617    19520    15718    11369     9097 
    9434    11261    13284    14269    13936    13724    14526    14821 
   13422    11545    10049     8374     6713     5355     3526     1133 
    -794    -1541    -1344    -1118    -1288    -1239     -159     2696 
    7059    10633    11904    12324    13582    15730    18346    20635 
   21297    20386    19672    20005    20329    19816    18857    17675 
   15874    13413    10561     7442     4357     1203    -3090    -8578 
  -13555   -17048   -19240   -20142   -20414   -21383   -23079   -24156 
  -23341   -20296   -15756   -10810    -6637    -4159    -2618     -774 
    1368     4144     7766    10962    13333    15487    16665    16406 
   16122    16373    16100    15459    15701    16554    17065    17471 
   17834    17599    17613    19199    21452    22530    22006    20167 
   17887    16699    16391    15538    14355    13239    11468     9131 
    6812     4805     4038     4751     5468     4853     2946     1297 
    1324     1828     1013     -300     -501      665     2838     5029 
    5875     5663     6239     8272    10533    11941    12698    13280 
   13238    11643     8868     6581     5793     6411     7362     6687 
    4202     2341     2301     3105     3899     3413      279    -4493 
   -8951   -12914   -16303   -17661   -16511   -14279   -12306   -10910 
   -9800    -8394    -6081    -2844      349     2834     5460     9047 
   12784    15358    16344    16481    17117    18644    20017    20068 
   18481    15897    13532    12218    11289     9554     7515     6254 
    5437     4680     4297     4144     3897     3558     3373     4196 
    6751    10232    13041    14490    14735    14065    13025    11872 
    9788     6445     3350     1737     1133      552     -374     -790 
     -23      628     -136    -2007    -4571    -7238    -8437    -7425 
   -5133    -2439      281     2894     6383    12067    19652    27928 
   36029    42385    45358    46053    47070    48680    49103    46854 
   41272    33355    26455    23229    22652    22400    21516    19312 
   15254    10033     4702      271    -2259    -3578    -5962   -10214 
  -14917   -18734   -21378   -22813   -23442   -24371   -25583   -25797 
  -24706   -21947   -16579   -10248    -5309    -1165     2540     4872 
    6702     8386     8496     7644     7416     7106     5382     2137 
   -1688    -4831    -6995    -8539    -9337    -9272    -8330    -6100 
   -2733      734     3731     6427     9269    12871    16771    19295 
   19791    18798    16927    15619    16175    17657    18955    20932 
   23891    26316    27653    29095    31392    34017    35997    36183 
   33649    29642    27026    26017    24468    21872    18869    15899 
   13490    11354     9174     7348     5627     3711     1392    -1955 
   -5032    -5566    -3726     -551     3111     5462     5464     3689 
    1273     -703    -2505    -4739    -6487    -7725    -9810   -12605 
  -15746   -19469   -22431   -23227   -22368   -21362   -21682   -23198 
  -24754   -26771   -29610   -31557   -31426   -29760   -27173   -24513 
  -22942   -22377   -21466   -18829   -14103    -8207    -2151     3206 
    6683     8428    10463    14275    20068    27481    35017    41161 
   46167    50298    52641    52734    51102    49109    48472    49152 
   49451    48472    46363    43964    42760    42823    42364    40352 
   37155    33043    28039    22560    16955    11111     5407      920 
   -1663    -2244    -1288      -50      758     1704     3185     4954 
    6513     7065     6378     5351     4983     5344     6173     7988 
   11175    14750    17274    18113    17551    16125    14047    11533 
    9093     6736     4058     1471     -213    -1174    -2185    -3462 
   -4853    -6298    -7274    -6773    -4556    -1561      744     1081 
    -118     -528     1509     5645    10428    14494    17767    20411 
   20795    17796    13466    10383     9112     8754     7521     4356 
     557    -1514     -584     2125     3921     4391     5601     8292 
   11493    14561    16794    17560    17698    18148    18427    18348 
   18781    20024    21414    21644    19395    15428    11949     9638 
    8177     6922     3926    -1592    -7525   -11868   -14391   -15456 
  -15306   -14233   -12656   -10606    -7790    -4518    -1235     2239 
    5656     8285    10056    11060    11407    11746    12083    11703 
   10852    10158     9563     9466    10410    11458    11612    11565 
   11914    12521    13728    14926    14803    14026    13990    15147 
   17273    19105    19850    20126    20123    19859    19521    18322 
   16434    15740    16553    17320    16858    14547    10607     6718 
    4337     2372    -1568    -7778   -14701   -20855   -24588   -25180 
  -24207   -23271   -22479   -21819   -21061   -19084   -15993   -13716 
  -12581   -11064    -9263    -7745    -5100     -905     3088     6335 
    9212    10858    11488    13194    16578    20738    24845    27175 
   26586    24606    22844    21248    19978    19164    17357    13132 
    6685     -957    -7922   -11587   -11471   -10037    -8967    -7890 
   -6378    -3957     -193     4167     7921    10390    11497    11680 
   11476    11408    11809    12781    14757    18351    23918    31300 
   39264    45924    50022    51428    50550    47867    44333    40858 
   37417    34086    31284    28318    24293    19910    16425    14247 
   13181    12768    12315    11000     8453     5108     1768     -722 
   -2072    -2720    -3117    -4217    -7162   -11047   -13813   -14988 
  -15118   -14328   -12646   -10422    -8229    -6280    -4065    -1514 
     437     1469     2147     2504     2666     3950     7567    12703 
   16798    17920    15768    10772     4531     -361    -2761    -2877 
   -1081      570     -502    -4117    -8576   -12628   -15035   -15276 
  -13852   -10942    -6598    -1740     2510     6245    10751    16301 
   21352    24774    26334    25625    23367    21761    21688    21341 
   18746    14443    10146     6396     3550     2526     2497      696 
   -3988    -9560   -13670   -15727   -15504   -12537    -8804    -7291 
   -6943    -4655      -76     5455    10526    13569    14831    16004 
   16447    14004     9151     4630     2385     2798     5129     7623 
    8938    10023    12560    15789    17742    18257    18014    16880 
   14568    11037     6770     3300     2154     2994     3977     4460 
    5571     8123    12343    18347    25221    31582    37280    42775 
   47648    51656    55506    58139    56642    50735    42798    34272 
   26063    19024    12329     5241     -834    -4925    -7890   -10583 
  -13538   -16777   -19321   -20513   -20451   -19468   -18299   -17745 
  -17844   -17828   -17436   -17425   -17952   -18692   -20049   -21848 
  -23038   -23096   -21730   -18726   -14472    -9957    -6335    -3266 
     675     5034     8537    11506    13961    15149    15899    17200 
   18133    18030    17347    15867    13389    10561     7518     4426 
    2807     3478     4852     5599     6443     7666     8074     7557 
    7829    10004    13674    18238    22573    24472    23196    21022 
   20234    20133    18318    14283    10009     6813     4862     5053 
    7735    11283    13978    15889    17458    17707    16905    17503 
   19526    20095    17579    12992     8505     5214     3346     3389 
    4187     3533     1682      294     -235     -183      122      200 
     -20     -243      208     2338     5595     7639     7504     6250 
    4786     4097     5203     7154     8043     7199     4647      558 
   -4431    -9522   -13617   -15439   -15346   -15832   -18577   -22184 
  -24388   -24598   -23068   -20595   -18818   -17965   -16119   -11944 
   -5570     2593    11041    17219    20305    21443    22079    23953 
   27931    32663    36186    37242    35782    33738    32632    31301 
   28601    25361    22494    20265    19329    20151    21694    22413 
   22255    21858    20984    19477    18048    17205    16201    13128 
    7224      573    -4646    -7983    -8436    -5450    -1938     -775 
   -1127    -2045    -3837    -5017    -4580    -4471    -5964    -8704 
  -12799   -17813   -22250   -25087   -26414   -27051   -27686   -28410 
  -28235   -25244   -19014   -10910    -2153     5342     9905    13000 
   16917    21906    27513    33371    38882    43675    47231    48831 
   48620    47036    44074    40460    37752    36487    35494    33570 
   30713    27255    23771    21190    19097    16279    12881     9538 
    6816     5765     6109     6036     5157     4347     3444     2284 
    1154    -1100    -5271    -9403   -11612   -12153   -11447    -9980 
   -9572   -11446   -14784   -18413   -21557   -23481   -23757   -22033 
  -18302   -13458    -8456    -3834      148     3734     7187    10227 
   12035    11839     9811     6715     3510     1295      -47    -1271 
   -1758    -1516    -2892    -7211   -12913   -17764   -20285   -20058 
  -18162   -16724   -16692   -16066   -12645    -6931     -399     5876 
   10761    13853    16261    19384    23283    26936    29255    29942 
   29845    29977    31199    34160    37959    40693    41811    42151 
   42558    43234    43402    42488    41329    40321    39247    39317 
   41137    43059    43575    42386    40374    39236    39453    39928 
   39666    38694    37409    34978    30314    24571    19388    14572 
    9932     5818     1599    -3350    -8481   -13243   -18267   -24755 
  -32677   -40668   -47804   -53322   -55700   -54762   -52447   -49820 
  -46502   -42757   -39055   -35582   -32883   -30886   -29050   -27191 
  -24591   -20632   -15719   -10298    -5253    -2170    -1438    -2372 
   -4631    -7041    -7928    -7998    -8942   -10541   -12328   -14146 
  -14695   -13831   -13144   -12281    -9419    -4440     1771     8358 
   13913    18135    22746    28286    33268    36909    38664    37514 
   34240    30102    24439    17352    10586     5012     1110     -781 
   -1385     -795     1075     2653     3164     3229     2595     1914 
    3357     6740     9817    11999    13719    14400    13717    12808 
   12819    13023    11406     7511     2613    -3030    -9300   -14503 
  -17716   -19706   -21497   -23752   -25642   -25782   -24777   -23489 
  -21184   -17966   -14512    -9753    -3627     1478     4720     7468 
   10567    14087    17902    22225    27769    33926    38415    39864 
   38863    36777    34552    32048    28998    26120    24250    23548 
   23420    22542    20533    19166    20115    23109    27127    31284 
   34966    38114    40400    41271    41264    41124    40356    38447 
   36542    36115    36704    37369    39020    42068    44274    43519 
   39768    33894    27541    23493    23291    24876    25136    22949 
   18163    11798     6276     2482     -251    -2449    -4911    -7610 
   -9366    -9747    -8386    -5011    -1380      940     2169     2004 
     640       36     1388     4482     7608     8048     6095     4467 
    3419     1826     -214    -2853    -5916    -6855    -3954      228 
    2392     2028        7    -2396    -4043    -4856    -4884    -4356 
   -4076    -4152    -4656    -6139    -7559    -7595    -7721    -9895 
  -13878   -18536   -21978   -22049   -19459   -16997   -15767   -15319 
  -15095   -14086   -11033    -5403     1916     9079    14603    17676 
   18297    17650    17054    16428    14812    12418    10252     8596 
    8153     9721    12096    13553    13768    13246    13295    15642 
   20210    24628    26579    25602    23016    20512    18526    16513 
   14278    11961     9628     7263     4676     2160      733      851 
    1885     3406     5795     9269    13220    16646    19062    20991 
   23217    26062    29603    33735    37984    41754    44254    44238 
   40804    34391    26648    19282    12855     7165     2013    -3180 
   -8285   -11587   -12709   -13652   -15663   -18564   -21958   -24674 
  -25052   -22644   -18559   -14115    -9919    -6289    -3319     -538 
    2494     5786     8975    11269    12481    13692    15783    18549 
   21217    22848    23276    23476    23933    24322    24481    24045 
   22712    20873    18906    16813    14103    10625     7526     5137 
    2639      822      711     1793     4521     9621    14906    17512 
   17056    14953    13581    14941    18587    22234    23954    24040 
   24746    26801    28639    29338    28568    26249    23749    21357 
   17548    12913     9083     5395     1020    -3638    -8533   -13436 
  -17374   -19632   -20118   -19411   -17948   -15524   -12976   -11914 
  -12138   -12441   -12766   -13046   -12500   -11599   -12010   -14084 
  -16403   -17452   -15916   -10813    -3655     2075     5241     7772 
   11265    15455    18847    19893    18772    17506    17169    16319 
   13513     9947     7729     7045     7493     9434    11625    12245 
   12869    15985    20150    22519    23194    23418    23580    25108 
   29352    34606    38355    40069    39663    36640    31947    28157 
   26392    25279    23899    22642    21770    21907    23746    26227 
   27172    25586    21719    15919     9449     4400      955    -2628 
   -7292   -12933   -18928   -23711   -25984   -25794   -23834   -21071 
  -18272   -15618   -13447   -12431   -12663   -13090   -12766   -12030 
  -10997    -9141    -6988    -5044    -2528      810     4136     6598 
    7514     7054     6248     5393     4679     4920     5402     4952 
    4823     6016     7566     9283    11292    12159    10061     4918 
   -1038    -5452    -7278    -5828    -1616     2830     5621     7326 
    9137    11318    14293    19169    25803    32147    37030    41245 
   44723    46233    45832    43833    39917    35665    33512    33753 
   35710    38368    39841    39302    37203    33943    30524    28135 
   26401    24309    22272    21052    19859    18096    16545    15188 
   13188    10323     6371     1610    -2514    -5430    -7732    -9593 
  -11683   -14781   -17255   -17246   -16132   -16314   -18086   -20233 
  -21724   -22485   -23069   -23657   -23967   -24234   -24709   -24571 
  -23488   -21946   -19221   -14866   -10221    -5913    -1078     4823 
   11151    16647    20552    22552    22542    21453    20260    18610 
   16190    13528    10940     8131     4652      764    -2486    -4179 
   -4079    -3087    -2818    -4062    -6511    -8784    -8823    -6728 
   -5134    -5314    -6346    -7420    -7924    -7249    -6129    -6207 
   -7976   -10202   -11277   -10633    -8270    -4084     1162     6156 
   10415    13719    15626    16316    16605    16969    16660    14450 
   10672     6817     3577     1583     1940     4023     5851     6988 
    7767     7334     5223     2543      511     -623    -1155    -1393 
   -2302    -4730    -7082    -7174    -5084    -1495     2660     5213 
    5717     5881     6183     7012    10035    15019    19902    23598 
   25489    25534    25581    27276    30206    32933    33839    32425 
   30012    27943    27100    28228    30705    32987    34130    34115 
   33950    34619    35581    35640    34141    30824    26509    22860 
   20384    18959    19256    21481    24603    27757    31164    34875 
   37711    38805    38151    35459    31479    28461    27002    25528 
   23767    22906    22628    22172    22083    21986    20861    19252 
