Origin Time       2011/03/11 14:46:00
Lat.              38.103
Long.             142.860
Depth. (km)       24
Mag.              9.0
Station Code      AOM012
Station Lat.      40.5127
Station Long.     141.4880
Station Height(m) 12
Record Time       2011/03/11 14:47:10
Sampling Freq(Hz) 100Hz
Duration Time(s)  300
Dir.              N-S
Scale Factor      3920(gal)/6182761
Max. Acc. (gal)   185.020
Last Correction   2011/03/11 14:46:55
Memo.             
[...]
  -10944   -28646   -38415   -33951   -17873     2930    22381    34811 
   37141    31189    21505    11098     -143   -11812   -21638   -27428 
  -26276   -15890      655    15499    23802    28512    33444    34858 
   27758    14701      802    -9560   -12833   -10969    -6165     2663 
   12892    20953    26201    28312    29225    31517    33466    32286 
   29521    29027    30164    27406    16432    -1087   -15909   -19222 
  -12293    -1728     7838    14854    20118    21956    16346     3165 
  -13860   -30546   -43929   -51815   -53426   -50524   -43386   -31906 
  -18020    -1963    13898    23206    21714     8485   -12896   -35855 
  -56397   -70751   -72355   -56506   -26381     4691    20371    15289 
   -2410   -21675   -36531   -48704   -60961   -67300   -61022   -44807 
  -26393   -14543   -12205   -12235    -7359     4435    20070    32369 
   37789    36762    30050    19345     3923   -15164   -29072   -30679 
  -19828      423    23022    41810    56902    67451    67850    53356 
   25308    -6371   -30036   -41563   -41541   -31846   -17259    -1842 
   13632    27318    35412    34840    25152    12497     5405     6685 
   14747    23934    27498    24298    17131    10142     6836     8718 
   15308    20546    18224    10455     1464    -7175   -12794   -12336 
   -5433     5172    14516    17769    13789     5288    -4900   -14231 
  -19469   -20438   -21761   -27088   -34475   -40609   -46068   -52176 
  -56687   -56787   -52112   -44002   -36280   -32260   -29375   -23735 
  -16634   -12963   -15403   -20231   -22586   -23195   -25156   -29150 
  -32404   -30272   -20195    -3524    14468    26492    29136    24369 
   15886     8249     5743     9821    18436    26786    29968    25044 
   12017    -4503   -17055   -20714   -17193   -12611    -9181    -4335 
    1452     4418     2671    -1933    -2993     5007    18756    30456 
   36238    35177    27485    16955     9178     8417    16756    30859 
   44411    53715    55532    47738    33105    17282     5480       -3 
    -174     1897     2936     2174     -384    -5824   -13619   -21029 
  -24887   -25105   -26237   -30495   -33804   -32046   -25457   -17880 
  -12502    -7951    -2799     1363     3549     4106     4587     5667 
    5313     2663    -3388   -14262   -25355   -31249   -31307   -24911 
  -14227    -6375    -4860    -8400   -15610   -23650   -28327   -27638 
  -22850   -17510   -16171   -22305   -34679   -46166   -49458   -43775 
  -34142   -25508   -18152    -8956     2796    13944    19448    15082 
    3958    -5308    -8761    -6251      755     5885     4831      839 
   -2076    -2743    -1749     -220     1218      835    -2029    -4508 
   -5110    -4489    -2189     2443     9673    17789    23603    26966 
   27887    23294    12231    -2521   -17487   -28121   -30094   -24259 
  -14748    -1111    19146    41355    56194    57266    44857    27682 
   15171     8781     4501    -1719    -9279   -13485   -11951    -5480 
    3745    12335    18564    23322    26969    28108    24755    14818 
   -1326   -17114   -24090   -19861    -7440     9613    26756    37114 
   36177    26265    13555     1633    -9685   -20474   -29965   -36218 
  -35692   -28532   -21073   -19857   -25357   -32067   -33916   -29173 
  -20917   -13527    -9431   -10468   -19190   -35028   -52258   -63080 
  -60794   -43671   -18199     4930    19521    25403    23461    16230 
    8674     2499    -3047    -5875    -4706    -2188    -1015    -2125 
   -5138    -9756   -17072   -26739   -35854   -42322   -45615   -45907 
  -44858   -43320   -39083   -31193   -22700   -15967    -9191      879 
   14720    28275    34729    29449    14537    -2017   -13215   -17744 
  -16751    -9609     5205    24588    38589    39936    32174    23645 
   18990    17593    17265    18121    20658    22188    18347     8627 
   -2368   -11282   -17320   -18915   -16759   -13143    -7761    -2205 
     509     2721     7783    16289    28519    40811    45674    39838 
   26369    10499    -2289    -7245    -4011     3349    11167    16319 
   15516    10317     6837     8435    13726    18863    18969    12229 
    2213    -7262   -15230   -22067   -29448   -37126   -40901   -39726 
  -38312   -40448   -46000   -52034   -53726   -47516   -35897   -25952 
  -19488   -11872    -2148     5814     8302     3452    -4639    -7561 
   -2149     8243    18274    23780    24724    21811    12817    -3128 
  -21789   -35997   -41716   -39269   -29522   -15735    -3795     3751 
    7296     4997    -5200   -19622   -31762   -38837   -39988   -34420 
  -23447    -9309     5139    16443    23154    25321    23504    18439 
   10846     5411     9028    21876    37200    47498    48653    42341 
   32892    22536    11451     -284   -10166   -15097   -16597   -18632 
  -23346   -30100   -34145   -31022   -22334   -11578     -871     5575 
    4177    -2545    -9032   -11154    -6484     4251    17392    30449 
   41226    44789    36937    18219    -4850   -21987   -28385   -28528 
  -26996   -23113   -16289    -9965    -8332   -11919   -18347   -24868 
  -29431   -32761   -37544   -44598   -52413   -57787   -57740   -52402 
  -41948   -25592    -6737     8783    17872    20690    19708    16302 
   10680     5740     4225     5054     4725     -335    -9934   -18501 
  -19712   -11399     3259    17612    26249    26539    16533    -1641 
  -19933   -31006   -32307   -25374   -14349    -3269     6258    14866 
   21606    22639    15934     3435   -10200   -19358   -21287   -17609 
  -12242    -7707    -1671     9882    26994    45688    60338    65912 
   59491    42114    20572     3143    -5955    -6899    -2911     2016 
    4903     4587     1679    -2478    -4632    -1320     8267    22945 
   35845    35812    19259    -6418   -30156   -43885   -43944   -30742 
  -10339     7624    13229      470   -24558   -48613   -63223   -62963 
  -46675   -22724     -870    14920    22855    20822    10049    -2842 
  -11830   -16452   -19078   -21017   -21455   -20250   -20939   -26901 
  -34942   -37324   -30254   -16342    -1078    10636    17969    22402 
   23364    20355    13340      946   -14435   -26349   -31003   -26971 
  -13737     5045    22591    33494    35337    27740    11015   -12095 
  -32873   -39771   -27686    -1696    26795    46116    51450    45453 
   32006    16403     5079    -1443    -5932    -8720   -11330   -15371 
  -18177   -16254   -10069    -3566     1438     6288    10780    13532 
   12071     3651    -8280   -16329   -16373    -7090     9928    26960 
   34318    30527    20285     4310   -15749   -30900   -33105   -21874 
   -4157    10423    18808    23547    25282    23895    20220    15543 
   12579    12912    15142    15989    12414     4790    -4862   -15432 
  -23804   -25314   -19276   -10209    -2945     1765     5520     7700 
    5210    -5559   -25838   -49073   -65101   -72042   -73664   -68428 
  -51937   -25096     6882    35759    50279    46741    33708    19695 
    7217    -2665    -8729    -9479    -4350     3595     9094     8151 
    -393   -15432   -34057   -50546   -60257   -62499   -56534   -44021 
  -30561   -18448    -8366    -3013    -1049     1117     1288    -4035 
  -11379   -14893   -13995   -11958   -12852   -18332   -23329   -21641 
  -14278    -5595     1184     2818     -391    -3476    -2632     3858 
   15792    28304    35341    34017    24870    13173     6363     8061 
   16784    27780    36689    43496    50941    59300    65030    64582 
   56887    42445    23949     5125   -13603   -33293   -50566   -58451 
  -52734   -35075   -13276      335     -254    -8097   -16757   -27454 
  -37401   -38994   -30125   -15052    -2420    -1639   -13673   -30743 
  -44194   -49213   -46611   -38843   -24910    -5207    13522    25777 
   33543    41237    52910    70713    89587    99839    94704    74489 
   45400    11868   -24405   -57862   -81505   -91795   -87670   -72739 
  -57878   -54372   -62949   -74880   -82910   -84082   -78048   -67234 
  -53798   -39191   -27044   -21754   -24518   -30763   -32057   -23298 
   -5625    18935    48483    77461    99710   112201   113013   102714 
   86784    70228    56001    49355    51533    53509    44699    21119 
  -13043   -44948   -61904   -62052   -50782   -34435   -21153   -17936 
  -25875   -43309   -68212   -94549  -111726  -109642   -85483   -45516 
     602    43610    75119    91263    94806    91263    85320    79986 
   74217    62761    43522    22103     6208     1610    10372    24722 
   31166    25476    13687     1784    -6977   -13046   -18666   -20200 
  -15799   -13587   -17475   -23821   -34049   -49096   -60945   -62225 
  -51262   -30587   -11011    -4989   -16119   -41654   -73170   -97788 
 -106177   -93300   -58472    -8164    46743    90920   108657    98781 
   75617    52437    33658    19977    11996     9532    10709    12368 
   11852     7134    -3447   -16582   -22885   -14578     9496    41026 
   63184    64045    43972    10142   -27136   -59451   -81938   -91185 
  -88347   -76002   -57658   -41317   -26903    -4265    27336    56933 
   75318    77882    63139    35722     5937   -18962   -40507   -58188 
  -64343   -55899   -35503   -10334     3455    -5826   -31139   -57061 
  -75544   -85784   -86664   -78558   -65848   -49700   -28983    -5631 
   19685    45875    70579    95621   118706   130225   126576   110057 
   80056    38459    -6373   -45509   -69282   -67289   -36759    13022 
   65355   101952   107196    77465    26942   -25325   -66719   -87489 
  -85078   -66924   -40524   -12465    10703    25803    30698    26862 
   20401    15880    19206    35904    61300    86652   104581   104600 
   82471    48305    15935    -5089   -11422    -9439    -8654   -12257 
  -17670   -20110   -17219   -10776    -3197     4270     9639     6594 
  -12199   -45801   -84928  -119174  -140486  -146321  -139350  -122205 
 -101294   -86753   -79633   -74466   -70917   -69823   -68659   -64825 
  -55889   -40253   -19027     5422    30267    54064    77852    99012 
  108863   100066    71609    29548   -14645   -50112   -67701   -60150 
  -28075    18192    58863    74030    61485    33050     1865   -17278 
  -15123     3468    28135    50217    62353    59690    37355    -7085 
  -62780  -109958  -133417  -124712   -86948   -38501     4836    42678 
   75852    98754   109860   110409    98619    78253    57844    41314 
   32575    34098    38941    39936    36336    30072    25684    22797 
   10838   -16397   -51444   -82367  -100314   -99977   -80396   -47025 
  -10712    17268    29719    28480    21203     8395   -15544   -50725 
  -88612  -113670  -113469   -91638   -60967   -30407    -6786     3960 
    1338   -10151   -23964   -31207   -23022      949    32909    62323 
   78837    82434    80321    72214    53581    20855   -26254   -74736 
 -104018  -104055   -77576   -35599     5181    32633    47805    58476 
   63453    52493    25236    -6073   -29237   -34512   -19751     4672 
   29657    55200    80856   101371   109676   100924    76383    42406 
    5026   -30542   -53824   -53089   -27748    13811    61044    98706 
  114744   108041    79724    34166   -19977   -78088  -133230  -174792 
 -195183  -187102  -152834  -109165   -64434   -11868    47677    99946 
  133244   139502   107605    40069   -44444  -132710  -206517  -243189 
 -245847  -228770  -191871  -133119   -62120     4149    53198    78806 
   78366    57008    26721    -3399   -30870   -45855   -36250    -6592 
   36450    88858   136985   169081   183720   186805   180902   155576 
  107852    48431   -17004   -76003  -108632  -109591   -77865   -14813 
   57933   111868   133014   123096    93172    55974    19926   -13489 
  -43197   -59047   -56363   -46537   -31708     -848    43304    83048 
  104351   103730    80995    39459    -9968   -61974  -116491  -162054 
 -182202  -167103  -117528   -55343   -14088   -10108   -33845   -61585 
  -74383   -69585   -52106   -26832      313    25064    43431    49188 
   43803    41715    53129    72092    88423    93127    76065    36342 
  -16171   -72668  -126089  -165896  -180067  -160014  -107040   -35882 
   31296    74620    86236    70702    36820    -5211   -48113   -85907 
 -104766   -89681   -39975    27042    90681   139951   166000   164295 
  148549   134082   120541   107522   101393   108149   128629   151505 
  164809   168220   158598   127655    77121    19154   -31873   -67266 
  -85957   -88810   -82012   -80453   -94001  -115644  -129501  -128376 
 -119543  -111436  -103405   -96342   -98771  -113275  -131873  -143851 
 -138635  -114654   -85130   -60888   -42905   -32722   -25218    -5514 
   32949    85162   142133   189952   213093   203064   162125    97664 
   15819   -72224  -149388  -202206  -219132  -191880  -127290   -53538 
   -8902    -8369   -31818   -54274   -63990   -56603   -35155   -10138 
   10658    26596    33852    23976    -2537   -36426   -68198   -87883 
  -90867   -80804   -57377   -17143    37079   100811   165195   209781 
  217291   190151   143357    89365    36444    -6395   -29297   -25674 
     396    34145    57518    54369    24536   -10417   -32848   -39111 
  -22089    19911    68262   101452   109850    92363    54658     7304 
  -37080   -64172   -65938   -48025   -23106    -3451     1615    -8145 
  -20270   -23471   -21007   -18676   -17096   -20261   -29362   -36741 
  -36245   -25252    -1022    34510    75096   115430   146568   154272 
  131220    82516    18660   -50633  -122622  -196011  -256635  -289727 
 -294079  -270827  -225204  -173093  -125325   -82401   -45911   -16873 
    9021    33431    49386    47796    26258   -10200   -51918   -87773 
 -107784  -105107   -79236   -33842    25340    87530   141266   179483 
  196190   188617   162015   123074    77324    33174    -8622   -53226 
  -91228  -109877  -115606  -118044  -107633   -74504   -32373     3233 
   37495    79474   123506   153779   165027   166713   159995   144736 
  134718   128993   111436    81568    49359    21791     3614     2182 
   26103    71180   121657   161486   171337   138241    72632    -3898 
  -74651  -123598  -136176  -110853   -60319     -707    53577    85721 
   83069    50491     5330   -32595   -46101   -32160    -6015    11810 
    9093   -13727   -43273   -63797   -72467   -73774   -67432   -57029 
  -56348   -73319  -104720  -144267  -178658  -191780  -174890  -125636 
  -52870    25339    91390   125239   115790    77186    31053   -12941 
  -49016   -75519  -106329  -150895  -196362  -229510  -245683  -237688 
 -204089  -153635   -90989   -20352    41806    80937    95939    87889 
   58988    21540    -8991   -26188   -23516     9165    63332   117406 
  164657   206052   236349   253831   260026   248888   210808   142507 
   51444   -45983  -127246  -170390  -169950  -136025   -80559   -17450 
   36800    69985    82210    78097    52632    10712   -22733   -29881 
   -6179    43064    98242   140870   163326   161867   140108   113159 
   93074    76998    58524    39978    28424    24748    21579    14996 
    5457   -12858   -42554   -74020  -103029  -135246  -169886  -201546 
 -228479  -247376  -251550  -234908  -193037  -127624   -54686     3183 
   36597    48099    42133    29115    20955    22967    35359    48517 
   47766    29069    -1309   -35556   -65686   -82138   -80128   -62310 
  -31414     6064    37516    54786    53517    33390     5397   -21089 
  -45506   -62682   -68416   -66373   -56992   -41206   -25358   -11429 
    1295     9632    12045     9496       75   -14650   -24116   -17901 
    5878    41079    79450   116109   146364   165072   175337   185706 
  196836   199696   182101   135734    65275   -11188   -72991  -106705 
 -109609   -87536   -52746   -17551    12924    30707    22013   -12508 
  -55853   -96501  -133282  -162677  -178907  -182745  -178604  -166903 
 -144118  -108726   -62501    -7796    50228   106101   157642   201241 
  232443   247119   241182   216489   178372   132211    88584    56771 
   36609    25630    20956    17004    11399      453   -25922   -71324 
 -128127  -184369  -226557  -244938  -236860  -205563  -160019  -111413 
  -69096   -39865   -25954   -24543   -31540   -40648   -43130   -36664 
  -25189    -9852     8467    26414    42748    55377    60822    60470 
   58233    54857    44917    20236   -19682   -66961  -112096  -144395 
 -149795  -116003   -47919    26789    77899    94541    86672    71054 
   53925    32754    11899     2049    11092    35559    58278    63332 
   44203     5923   -30040   -43635   -30689     7496    64114   123426 
  170297   193743   189036   163257   129785    99583    80291    75416 
   83175    97153   107397   106118    92311    68182    35321    -4205 
  -48263   -96103  -144232  -185297  -216047  -239008  -251701  -245323 
 -220349  -186614  -146678  -101843   -60345   -23881     8358    30489 
   40029    38696    29105    16994     8325     5849     7939    12070 
   18424    28223    41532    55182    65657    71727    68631    50828 
   19498   -21835   -69782  -120261  -171049  -218022  -251271  -263141 
 -255713  -231340  -186317  -125025   -61224    -3158    41752    67316 
   82779    98930   116416   135807   153781   162671   163266   165680 
  176038   187049   187334   171623   139628    97722    59327    33910 
   19781    12615    10691    11616    12428     8873     -807   -11402 
  -19039   -23620   -22950   -17706   -11616    -1349    19199    48330 
   76756    93828    96412    89836    80165    70878    63065    58888 
   63250    75037    85213    87254    79359    60897    33157    -1097 
  -38721   -75028  -103078  -115460  -108385   -86003   -61190   -47799 
  -51838   -71963  -102190  -136581  -173337  -208254  -235622  -255966 
 -267858  -263567  -236947  -187130  -123802   -62390   -10716    24909 
   37399    32091    20713     8427    -2179    -8131    -7520     2551 
   23238    51849    84618   115143   136719   148860   154418   153048 
  142515   124366   102310    79037    59434    49487    48596    48010 
   41454    29316    12618    -3005    -7363     4372    31538    67662 
  100854   122925   129766   118043    90149    56028    27358    13198 
   18684    40193    66142    85891    91471    79636    54709    21781 
  -14111   -45480   -68013   -81037   -85585   -85832   -85573   -86984 
  -91549   -96931   -99290   -94810   -77449   -45402    -5206    34869 
   67329    82799    74080    42561    -2634   -50849   -94746  -128564 
 -143389  -129689   -88249   -34155    13905    44057    53772    47394 
   31258    12427    -3979   -19369   -36474   -53814   -70765   -87715 
 -101659  -110748  -113501  -106744   -94967   -87067   -84848   -86574 
  -90829   -93656   -90252   -77885   -56040   -26867     5248    33892 
   53098    63364    68905    72554    78059    86296    92081    93776 
   95725    97643    95137    86329    69448    46280    24611    10355 
    7463    17355    32183    40525    38255    29208    21530    24297 
   40412    64014    87569   104795   109538    99043    74826    40884 
    3813   -29487   -52477   -58600   -48321   -30449   -14475    -5951 
   -3405    -2139    -1020    -1484    -6538   -17999   -34372   -55579 
  -81575  -108366  -131228  -146799  -152377  -147355  -136294  -126536 
 -120813  -117400  -112552   -99474   -74297   -38898     2993    43042 
   72236    88834    91964    79534    55086    25922     -250   -16265 
