Origin Time       2011/03/11 14:46:00
Lat.              38.103
Long.             142.860
Depth. (km)       24
Mag.              9.0
Station Code      AOM010
Station Lat.      40.8724
Station Long.     141.1427
Station Height(m) 21
Record Time       2011/03/11 14:47:28
Sampling Freq(Hz) 100Hz
Duration Time(s)  300
Dir.              E-W
Scale Factor      3920(gal)/6182761
Max. Acc. (gal)   92.871
Last Correction   2011/03/11 14:47:13
Memo.             
[...]
    4937    16663    24844    25925    19871    10555     2887     -832 
   -1668    -1029     1771     7211    13157    17054    17342    12795 
    4379    -4803   -13747   -23319   -32933   -40985   -45551   -44468 
  -37068   -25361   -13266    -4230      337     1107      571     1060 
    2648     3330      813    -4076    -7375    -7374    -5382    -2629 
    -628     -559    -2722    -7464   -12956   -15801   -15206   -12839 
  -10521    -9188    -8685    -8599    -8738    -8811    -9130   -11533 
  -17245   -24886   -31671   -34586   -32490   -27624   -22698   -18865 
  -16509   -15029   -12530    -6562     3184    12944    19450    23374 
   25948    27252    26415    22031    15115     9143     6433     6612 
    7262     5122    -1104    -8476   -13056   -14870   -16998   -20602 
  -23399   -23428   -21522   -19783   -19407   -19083   -15439    -6591 
    4626    13405    18950    23455    26599    25596    19049     8524 
   -2600   -11398   -16969   -19565   -19116   -16010   -12327   -10131 
   -9054    -7831    -6260    -4520    -3503    -4424    -6830    -9123 
   -9876    -7603    -1279     7701    15597    19972    21575    21329 
   18086    10341    -1166   -13008   -21663   -25956   -26550   -25022 
  -23479   -23545   -26120   -30472   -32969   -29973   -21586   -10713 
     205    10264    18929    25273    28208    26908    21550    14400 
    8655     5650     5445     7890    11416    14093    14461    10984 
    4087    -3333    -8715   -12200   -15645   -18614   -19221   -18461 
  -18509   -19023   -17319   -10980    -1134     8384    15057    17933 
   16750    12593     7010     1258    -3186    -4339     -979     4579 
    7467     5140    -1412    -9493   -15567   -17869   -17907   -16849 
  -14079    -9643    -4280     1011     4690     6518     7564     7817 
    6367     2171    -5511   -15071   -23538   -29906   -33863   -34591 
  -33656   -34033   -36216   -38746   -40342   -40286   -38574   -36071 
  -33825   -31209   -25104   -13692      205    12770    23110    32263 
   41337    50432    58353    62951    61765    53800    40746    25918 
   12584     2601    -4410   -10068   -15922   -23120   -30283   -32850 
  -27972   -17907    -7848    -2078    -1703    -5765   -13289   -22208 
  -28493   -29908   -28256   -25771   -22257   -16185    -7301     2043 
    8552    10403     7481      -13   -11590   -25126   -37197   -44960 
  -47010   -43149   -34639   -24224   -15187    -9671    -7912    -9985 
  -15293   -20756   -24193   -26483   -27609   -24349   -13939      792 
   12803    18066    18304    17566    17730    17027    13861     9332 
    4949     1420    -1598    -5952   -12028   -16253   -14205    -4931 
    7565    16138    15594     6887    -4195   -12284   -16298   -18020 
  -18219   -16679   -13536    -8608    -2879      917     1450     -350 
   -2985    -5715    -8882   -11873   -12012    -8101    -3151     -851 
   -1683    -4029    -6937   -10856   -15785   -21285   -27888   -34665 
  -39071   -41032   -42971   -46382   -49644   -48888   -42698   -33983 
  -25466   -16776    -5560     9498    25003    34991    35940    28032 
   16192     6908     1379    -2665    -5401    -5716    -3887    -1427 
       5     -937    -4140    -7577    -9064    -7315    -2352     3734 
    7448     6373     1184    -5348   -10852   -14431   -16459   -17842 
  -19342   -21810   -26115   -31463   -34716   -33192   -28246   -24405 
  -24107   -24868   -22419   -15173    -4783     5428    12338    15673 
   15923    11872     5165      544      -42     1884     4025     5318 
    6019     5632     3270    -1340    -7655   -12827   -14145   -13035 
  -12840   -15703   -21980   -28899   -31726   -28267   -20432   -10412 
    1650    13726    21377    22528    18313    12516     9690     9895 
    8697     2506    -8098   -19231   -27858   -33853   -38365   -42710 
  -47765   -53414   -57792   -56907   -48312   -34715   -20590    -6456 
    9552    26097    39317    46840    48305    44232    35943    25625 
   15339     5625    -4295   -14377   -23646   -32012   -39486   -44142 
  -43962   -40546   -36931   -34066   -31226   -26439   -18990   -10384 
   -1202     8013    14551    15587    12061     7399     1575    -6994 
  -16969   -25347   -27922   -22584   -13700    -8104    -8472   -12343 
  -16801   -21992   -27454   -29513   -25658   -16463    -4535     5437 
   10196    10431     7735     3036    -2138    -6050    -8780   -11344 
  -12810   -12278   -11021    -9505    -6922    -2855     2435     7278 
    9562     7891     2474    -3953    -8759   -10958   -10353    -7909 
   -3625     3585    11920    18505    22066    21893    19143    15956 
   13051    10554     8106     5763     5141     7877    14327    21712 
   24352    18782     6741    -7336   -20006   -28968   -32228   -30022 
  -23826   -14583    -4595     3269     7018     5648     1242    -1903 
    -570     5278    11840    15202    14499    10689     5494      226 
   -4254    -5808    -3014     2184     5779     4536    -1600    -9567 
  -14495   -12491    -4807     4039    10627    13161    11664     7234 
     764    -6600   -12521   -12959    -5144     8484    22720    33598 
   39443    41465    41250    39186    36645    34947    32988    27036 
   14140    -3067   -19662   -33382   -42545   -46126   -45509   -42593 
  -39666   -38971   -40311   -43068   -48693   -57439   -65784   -70329 
  -71215   -70405   -69136   -66248   -59070   -46625   -30073   -10859 
    9269    27181    40055    47039    47232    40006    27796    15109 
    5904      909    -2345    -4170    -2664      679     2815     3437 
    2521     -953    -6397   -12333   -18693   -25803   -31507   -31470 
  -24534   -14130    -3090     7675    16710    22217    23552    21125 
   15342     6870    -3628   -16392   -30852   -44373   -54219   -58817 
  -57239   -49545   -37118   -22484    -9512    -1676      202    -2083 
   -5181    -5461     -492     8872    18661    25901    30188    31858 
   32469    34349    37094    38342    37387    34182    27518    16109 
     132   -16598   -27870   -31640   -31683   -32095   -33810   -35811 
  -37831   -40524   -43909   -48211   -53120   -55841   -55132   -52861 
  -48408   -39729   -28511   -18404   -12047    -9845    -9422    -7959 
   -4255     1422     8619    18167    30352    43041    54436    64710 
   73059    76463    72808    62427    47862    33366    21732    13388 
    7346      464    -9319   -20466   -31729   -43428   -54533   -62682 
  -66778   -68321   -69513   -70998   -72838   -74601   -74208   -69396 
  -58384   -40351   -18686     -606     8628     9277     6065     4983 
    8946    15175    18610    18832    19720    22780    26566    29177 
   28719    24413    16816     7615    -2517   -15418   -30504   -43444 
  -50370   -46945   -29854    -3603    23026    45719    62513    69057 
   61981    43794    22034     3030   -11962   -23182   -29539   -30591 
  -27661   -22867   -18474   -16986   -19614   -24004   -24936   -18431 
   -5875     7272    16240    20199    21552    21552    19795    17059 
   14773    14050    14825    14342     9885     2289    -6044   -13854 
  -20414   -25279   -29641   -35819   -44186   -51975   -55644   -53028 
  -44410   -32380   -18461    -3115    10493    19244    23827    26960 
   30377    33362    35147    37489    42833    51591    62682    74687 
   84834    89413    85698    74093    57125    34498     6023   -23358 
  -48524   -66991   -76748   -76784   -69041   -60325   -59385   -69768 
  -89296  -113496  -134310  -141961  -131381  -105207   -72205   -39243 
   -8240    17926    37667    53970    67926    77008    80884    82576 
   84397    85277    83066    78251    72503    64936    51268    29680 
    6197   -12033   -22725   -27400   -31027   -36352   -40538   -41323 
  -38809   -34604   -30672   -24250   -11583     5661    23575    37428 
   41820    35399    21742     5212   -10391   -21301   -25091   -21768 
  -15432   -11755   -11724   -13271   -14041    -9896     -163     7995 
    9601     8015     5533     1126    -4255    -9306   -12557   -11275 
   -4747     4368    10135     5339    -9412   -25152   -38692   -53572 
  -69773   -85398   -99784  -110955  -116634  -115988  -108566   -93148 
  -68512   -36120    -1407    28469    47917    56124    56418    51370 
   43065    35119    30057    27654    25902    22335    15342     7068 
    3112     7918    22120    39409    50374    51644    43454    27059 
    7170   -11858   -28196   -41364   -53161   -66050   -80224   -94195 
 -106612  -115357  -117079  -110019   -95322   -76330   -57967   -44531 
  -36455   -30200   -21564    -7526    12378    33894    51948    64869 
   68926    57927    32077     -470   -27165   -38081   -35218   -27869 
  -21855   -17609   -11358      147    15633    34185    56368    78271 
   92035    90693    70478    34717    -4232   -31119   -37328   -27083 
  -11199     3504    12886    13915     6059   -10809   -33378   -53070 
  -64279   -68907   -67730   -57882   -43254   -29967   -14908     5622 
   27973    47419    60381    59492    37188      928   -28364   -39972 
  -40172   -37248   -34062   -31332   -28590   -23008   -13704    -4840 
    1898    10894    24845    40655    51319    50738    39451    22563 
    4221   -14370   -33709   -51604   -63971   -70542   -75332   -81253 
  -84198   -77068   -59833   -38319   -18446    -6225    -5465   -12718 
  -19695   -22198   -21517   -18021    -9812     4053    21331    37127 
   47824    52630    51938    46728    36591    20499      352   -21127 
  -41827   -59080   -70577   -73594   -66222   -51288   -34273   -18435 
   -5250     4306    10943    15771    18620    18934    17850    18485 
   21748    25798    30554    37054    44291    49464    50721    50553 
   52258    52590    45103    27778     5057   -12499   -13943     3226 
   32237    64145    91690   108343   111972   107771   102838    98613 
   88239    66072    37132    10431    -8509   -19954   -29384   -38789 
  -45541   -50955   -59893   -73376   -87267   -98162  -106087  -111821 
 -114430  -109920   -93956   -65812   -30132     1942    21942    33084 
   41409    47840    48239    37323    19036     3012    -7298   -13018 
  -17916   -25102   -31452   -32629   -26965   -17404   -11539   -12874 
  -18773   -24332   -25645   -23062   -16474    -3676    12281    25745 
   37619    51831    67097    76374    71708    49714    13447   -28458 
  -66486   -95168  -112767  -119495  -115142   -99124   -72290   -36354 
    3570    38847    63633    76691    79591    72283    50734    15522 
  -24221   -56016   -70168   -66964   -51255   -23620    12373    46917 
   71411    81620    77317    60733    35482     6848   -19165   -36669 
  -42722   -41230   -38418   -35640   -31232   -23175   -10778     -165 
     932    -5887   -14198   -20538   -23456   -22809   -21375   -23176 
  -28150   -33635   -38593   -41992   -45119   -52019   -61675   -66563 
  -61750   -49973   -34783   -17511     -154    15434    25794    29694 
   32350    35480    36089    33310    25025     9313   -10309   -27532 
  -36484   -36705   -33647   -29915   -26365   -25578   -26206   -25043 
  -18767    -1197    27268    56680    81605   103195   118890   124488 
  120543   109400    91657    67629    40814    16043    -4958   -22022 
  -33610   -38063   -37791   -38919   -47194   -63239   -78363   -84522 
  -81625   -69192   -47178   -17458    18140    52479    76781    88088 
   89371    83417    68416    47136    28321    15647     7837     2571 
   -3337   -11457   -18803   -19083   -11589    -4293    -4778   -14898 
  -30102   -43974   -56160   -68576   -81994   -98865  -117660  -131814 
 -135111  -121184   -87149   -34556    30754    89182   120307   127358 
  125526   116398    92213    59537    31914     6127   -23317   -50098 
  -69398   -81734   -88014   -87911   -81153   -71593   -65931   -64295 
  -56544   -35502    -8643    11024    18008    13933     5529     1302 
    2557     6131     9229     6156    -6332   -25953   -47581   -63374 
  -70720   -72744   -70915   -67086   -60890   -49395   -34898   -20076 
   -2875    16784    35397    46664    43756    30014    14915     2830 
   -2424      650     8151    16835    24146    28928    32070    34481 
   36755    37995    37260    34282    28083    18691    10097     6672 
    5827     3264      121    -3350   -10924   -26900   -52342   -79615 
  -99747  -114265  -126994  -135480  -137071  -131244  -116927   -92485 
  -58888   -25838    -6523    -3938   -11952   -23301   -32607   -37400 
  -37202   -35090   -35107   -36276   -36171   -34168   -29083   -19340 
   -3934    17075    41808    65881    82638    89165    88956    85216 
   79015    69544    54634    35765    15852    -3681   -21220   -36900 
  -52185   -67675   -80677   -84960   -79344   -69307   -58435   -46969 
  -34350   -20537    -9699    -8237   -16029   -26767   -35759   -41455 
  -43345   -40581   -31838   -18504    -3743    10867    22302    26755 
   24953    20932    17000    13892    14749    20985    28068    32271 
   32777    27054    12423    -9031   -32845   -58655   -86823  -112241 
 -127409  -127989  -114285   -89077   -57016   -25746    -6480    -8107 
  -24314   -40641   -53368   -64684   -71685   -70190   -60235   -45592 
  -30829   -18553   -10316    -8031    -9123    -6941     1858    15271 
   29573    43410    54705    60080    59527    54599    47514    40413 
   34920    33479    36263    42987    51930    55270    47176    29268 
    7642   -10354   -21003   -22395   -12619     3029    14767    23840 
   41380    70361   102777   128827   140380   133483   109410    72052 
   26222   -20008   -55679   -76870   -88494   -92987   -88065   -71785 
  -45306   -15387    12275    37281    56954    69136    73526    66883 
   52007    37627    28979    27054    26386    20919    11292    -1725 
  -17807   -36348   -60076   -85682  -103894  -113230  -115650  -111021 
 -102458   -92363   -80356   -68449   -56992   -41487   -19436     6074 
   29282    45057    50874    48531    43796    43048    49699    60602 
   68798    72361    72872    69783    64185    58467    53600    51606 
   51980    50820    45708    36383    24986    12528    -2812   -20893 
  -39247   -54305   -63479   -67391   -65725   -55260   -34340    -6818 
   19032    37785    49974    58191    66209    75916    84239    89795 
   95700   103336   109852   111455   106322    93300    72218    49017 
   32898    27493    29736    31394    23835     6803   -13515   -31764 
  -44137   -47765   -42213   -31887   -23088   -19507   -23998   -36393 
  -52262   -67431   -77315   -79740   -78365   -76426   -72387   -61116 
  -40033   -15735     3714    18936    32248    40139    37432    23227 
    3334   -14073   -23257   -23156   -20042   -22179   -32214   -48245 
  -67252   -85338   -97771  -102052   -97498   -82234   -58175   -32611 
  -10865     4057    10454    11142     8367     -740   -19314   -46566 
  -76203   -99782  -113262  -115604  -105271   -82645   -52135   -20269 
    7904    29619    43024    47947    46809    43465    40578    38360 
   36534    36732    42448    54144    67496    78743    85053    83957 
   77719    71526    66814    59591    43846    18560    -7500   -24674 
  -33685   -40963   -48985   -55260   -54695   -42173   -19423     2885 
   15169    15779     8500     -226    -6236   -12513   -23380   -36610 
  -46515   -49918   -46960   -38398   -23412    -3334    16086    28495 
   30024    23276    15454    10020     8291    11307    15068    14164 
    6081    -8779   -25016   -36951   -43860   -46737   -45566   -39255 
  -29467   -23764   -27919   -39738   -54951   -71200   -84876   -91661 
  -91037   -84972   -74110   -60389   -47683   -37585   -28563   -18333 
   -7535      604     3472     -398   -10175   -24513   -44291   -66965 
  -85279   -94914   -94849   -85170   -68551   -48660   -27451    -4196 
   21709    46997    66047    75135    75257    70922    65910    60707 
   54443    48178    42648    36968    32663    32102    34899    39033 
   42904    46547    48169    42402    27199     7188   -12470   -30935 
  -50208   -71772   -93805  -110915  -116788  -107552   -84440   -54059 
  -25959    -7374      805     1636    -1683    -6639   -10423    -9234 
     437    18348    37218    49668    56148    57643    52592    42672 
   30544    16179    -1185   -18893   -32403   -41250   -46308   -46599 
  -43159   -37687   -31390   -28344   -31624   -39240   -47585   -54304 
  -58960   -62327   -63206   -58328   -46954   -33066   -23631   -24623 
  -35135   -46483   -50557   -46961   -40171   -33043   -24581   -12693 
    1958    15529    23608    24196    18800     9992     -810   -12371 
  -21214   -23486   -20791   -17821   -16164   -15484   -16015   -18959 
  -26837   -40680   -55295   -62856   -60379   -49870   -36551   -25722 
  -17805   -10011    -2084     1631    -2916   -13027   -21975   -25191 
  -20688    -9155     6663    24871    44000    62218    77239    85111 
   83281    74396    64277    56362    49318    42783    39727    41131 
   45865    51819    54870    51667    40777    22439      -68   -21721 
  -37914   -47123   -53101   -60668   -70037   -77732   -80258   -74768 
  -60604   -41262   -19939     1623    17805    23589    20374    10959 
   -1291   -12259   -23134   -36470   -48264   -51172   -41274   -21983 
   -3042     6708     7059     4765     4172     4482     3303     -119 
   -3547    -4861    -3751    -1293     -233    -1958    -5478    -9421 
  -11916   -12708   -12894   -11382    -9025   -10573   -17784   -27487 
  -34916   -36395   -32368   -27764   -26021   -25354   -24506   -24655 
  -23473   -16080     -687    20673    43085    60733    70559    73555 
   72189    66804    57495    47722    41755    40341    38982    31690 
   17313     -510   -17081   -30182   -42424   -57850   -76100   -92525 
 -102022  -100479   -88715   -74044   -62311   -56082   -56988   -61770 
  -65372   -64965   -56143   -36324    -9083    19766    44277    60439 
   69034    72883    73574    71954    68316    61341    49284    32863 
   16141     3864    -5038   -17520   -36634   -60040   -84667  -105587 
 -118164  -122005  -119140  -110859   -96589   -78247   -61165   -45699 
  -30322   -17815    -6250     8753    23431    32572    35198    31100 
   20577     4967   -11505   -21447   -19541    -6941     8979    21408 
   28979    32277    31812    28159    21099    11993     5897     8171 
   20943    42615    66247    82189    87115    85944    85535    90380 
  100642   113095   124669   131385   127792   112328    87585    56607 
   24899      108   -16322   -31309   -48267   -61993   -68268   -67127 
  -60110   -49917   -38904   -26701   -10391     8519    23571    31923 
   34039    30595    22485    10518    -2889   -16184   -29568   -40640 
  -47660   -51349   -51114   -47433   -42434   -38791   -40772   -48099 
  -55073   -58681   -57426   -49644   -36548   -21075    -8846    -4581 
   -4161    -1469     1824      -80   -10186   -26182   -40885   -47287 
  -45339   -38352   -26462   -10426     6154    18345    20655    13610 
    5110     1800     6470    18047    30564    39703    45329    47489 
   46860    44661    43371    45297    45977    38801    21363    -6459 
  -39168   -67499   -85630   -89392   -77761   -57096   -36333   -21070 
  -12769    -8961    -4800     1928     9661    14981    13463     4977 
   -4111    -7031    -2208     5465    10549    12097    11475    12774 
