Origin Time       2011/03/11 14:46:00
Lat.              38.103
Long.             142.860
Depth. (km)       24
Mag.              9.0
Station Code      AOM013
Station Lat.      40.4126
Station Long.     141.2813
Station Height(m) 29
Record Time       2011/03/11 14:47:17
Sampling Freq(Hz) 100Hz
Duration Time(s)  300
Dir.              E-W
Scale Factor      3920(gal)/6182761
Max. Acc. (gal)   67.103
Last Correction   2011/03/11 14:47:02
Memo.             
[...]
   29822    37522    43649    47117    46646    41627    32795    22083 
   12072     4544     -628    -4523    -7820   -10693   -13330   -15917 
  -17854   -17081   -10750     2319    19822    37777    53377    64953 
   71343    72899    70732    64716    55127    43417    29517    13605 
   -1445   -13039   -19669   -19562   -12767    -2186     8931    18524 
   26023    32500    38706    43596    46069    46263    44811    42637 
   40970    39924    37772    32607    24240    14759     7721     6319 
   11228    19718    27904    33542    36274    36904    36789    36816 
   37035    36887    35047    30433    23715    16402     9445     3321 
   -2010    -6856   -10979   -13988   -15609   -15430   -13581   -10471 
   -6191    -1339     3009     5902     7103     8398    11919    16780 
   20684    22623    22082    19184    15368    12071     9722     8103 
    7172     7110     8019    10251    14007    18710    23893    29714 
   35566    39763    41801    42882    43774    44088    43223    41112 
   38237    35287    32877    30926    28999    27865    28793    31328 
   34110    36587    38003    36897    32802    27265    22509    19299 
   17456    17422    19335    22239    24757    25750    25191    24016 
   22771    21166    18722    15267    11142     7594     6766    10735 
   19874    31978    43883    53399    59244    61226    60316    57271 
   52423    46007    37594    27095    16103     7100     2247     2291 
    5803    10559    15320    19940    24822    29668    32832    33352 
   32657    33003    34969    37104    37821    36830    34627    31194 
   25269    15604     3415    -7632   -14089   -14581   -10074    -3449 
    2606     8127    14988    23600    32154    39013    44355    49224 
   53969    57901    60038    59992    57760    53803    49805    46908 
   43883    39386    34092    29180    24916    21355    18504    15865 
   13643    13853    17742    22649    24483    22487    18502    13320 
    6911      379    -4680    -7629    -8927    -9503   -10152   -10781 
   -9959    -6320     -202     6663    12364    15789    16482    14173 
    9370     3385    -2506    -7202    -9737    -9573    -6403       85 
    9183    18643    26422    31959    35342    36885    37609    38284 
   38227    36263    31774    24651    15587     6426     -567    -3675 
   -2574      384     1484     -600    -4464    -8131    -9657    -7644 
   -2093     6210    16879    29567    43133    55850    65842    71598 
   72082    66587    56297    45058    36199    29775    24116    18595 
   13960    11015    10314    12153    15859    20538    26261    33231 
   40306    44927    44888    40051    32563    25978    22885    22973 
   24418    25795    26130    25574    25839    28472    33805    40793 
   46824    49247    46981    40359    30679    20231    12035     8165 
    8128     9552    10150     9226     7581     5874     3747      528 
   -3930    -8755   -11811   -10934    -6092     1069     9884    21174 
   35125    49788    61677    67579    66378    59663    50362    40569 
   30527    19273     6578    -5486   -13900   -17304   -16351   -12821 
   -8535    -3792     2342     9366    15196    19315    22982    26966 
   31432    36188    40512    43383    43094    37824    27457    13782 
    -702   -13855   -24601   -32610   -37699   -39792   -38749   -34372 
  -27053   -18089    -9133    -1432     4905    11195    18774    27570 
   36835    45097    49164    46728    39288    29650    19049     8601 
     367    -4145    -4579    -1033     5710    13601    20406    25381 
   29118    32117    34028    33605    29757    23300    16557    11862 
   11078    13724    16266    15916    12838     8404     4579     3089 
    3200     3205     3490     5780    11058    19168    29475    40914 
   51620    59646    63590    62898    58409    52236    47228    45114 
   44949    44898    43547    39333    31693    21983    12205     4051 
   -1555    -4775    -5781    -3540     3441    15435    30571    44886 
   53960    55408    49702    39119    26122    12560      -40   -10621 
  -18775   -24049   -26384   -26911   -26758   -26214   -25214   -23113 
  -18706   -11054     -109    13044    26926    40166    50849    57430 
   60511    61912    62403    61120    56430    46898    32560    15614 
    -935   -14436   -22566   -24186   -19981   -11426      330    14229 
   28385    39960    45754    43210    32132    15187    -3774   -20773 
  -32299   -36772   -33808   -22693    -4029    18484    39038    52942 
   59900    62301    60449    52782    39208    21973     4933    -8478 
  -17252   -21687   -21749   -17371    -8707     3576    18000    33857 
   51590    69680    83540    89095    85790    76220    64256    52713 
   42548    33943    26527    19767    14001     9751     7578     8606 
   12650    17213    19370    17674    12546     5284    -3015   -12147 
  -22386   -32819   -40920   -43501   -38565   -27850   -15371    -2652 
   11139    25934    40918    55114    66736    74596    79002    79220 
   72352    56047    30865     1017   -26049   -44119   -53405   -58362 
  -61958   -63785   -61095   -51178   -33101    -7703    22366    52979 
   79591    97854   104491    99391    85895    67378    45420    21999 
     228   -17691   -30812   -37585   -35600   -24003    -4977    17993 
   41887    63863    81753    95244   105012   110241   107980    95982 
   74711    46527    14998   -15400   -40668   -59583   -72909   -80028 
  -79538   -71468   -56777   -37107   -14907     7262    27000    42488 
   52867    58392    60769    61571    60277    54835    43708    28168 
   12458     1054    -3876    -3373     -544     2279     5065     9393 
   17028    27655    38086    44507    45210    41800    36706    30561 
   24110    19252    17461    18549    20002    18790    14376     9798 
    9585    15128    23634    31667    37305    40307    41195    40515 
   39186    37158    32995    26532    19557    13650     9273     6671 
    5534     4825     5015     8499    17124    29967    43089    52600 
   57215    56705    50889    40221    24903     5784   -13663   -29434 
  -39644   -44819   -47230   -47917   -44740   -34729   -16686     7739 
   34126    57902    77056    90830    97406    95742    86877    71579 
   50892    28705     9913    -2761    -9364   -11433    -9582    -2799 
    9352    25410    42851    58974    72169    82164    87744    86826 
   79247    67383    54864    44001    34240    24838    16576     9539 
    3221     -812     -662     3035     8574    14305    19403    25082 
   32351    40337    47937    54829    60564    63123    59249    47305 
   29651    10947    -5840   -20217   -31544   -37856   -37560   -30786 
  -18769    -3298    13280    28535    40162    46658    48188    45783 
   40647    33650    24296    12410      696    -6995    -8969    -5775 
     713     7488    12725    17776    24561    32303    38286    40735 
   40128    38884    40534    46942    55137    58719    52690    36843 
   15847    -4301   -20484   -32741   -41813   -47728   -49583   -46206 
  -37468   -23854    -5752    14715    33783    49475    62602    74287 
   83574    87617    84280    73628    57122    36979    15643    -4935 
  -22723   -35742   -43267   -45343   -41766   -32012   -16242     3458 
   24515    45759    65637    80486    86656    82941    70990    54451 
   36619    18982     2136   -13232   -25576   -32430   -31654   -22504 
   -5828    15888    38310    56578    67615    71058    68781    62709 
   53262    41076    27467    12422    -4301   -20818   -34255   -42319 
  -43648   -38773   -29863   -18381    -3789    14715    35694    55381 
   69689    76483    76387    71193    61955    49086    33627    17403 
    2572    -8255   -13402   -13791   -10888    -4608     5370    18317 
   32478    45529    55497    61440    63113    60743    55572    48756 
   39836    27682    11947    -5765   -21612   -31632   -33790   -28562 
  -18801    -7424     4712    17227    29470    41884    54570    65659 
   72479    72697    65240    51341    34453    18960     8245     3543 
    4047     7868    13404    20043    28011    36571    43312    47364 
   50181    52581    54335    54794    52571    46605    36705    22867 
    6686    -7649   -16071   -16920   -11227    -2110     7886    18390 
   29563    40328    48298    51848    51622    48808    43054    33308 
   20498     7588    -2666    -8386    -9257    -7557    -5899    -3820 
    1515    11608    24844    37166    44029    43668    38640    33364 
   30833    31088    31733    30331    26537    22130    18852    16848 
   15854    15430    14548    13820    15142    18604    23450    29569 
   36378    42796    47409    48285    43996    34631    22202    10669 
    4257     4276     8324    13652    19913    27875    37304    46858 
   55022    60642    62973    61946    58081    51362    40684    25154 
    6050   -13172   -28794   -37887   -39187   -34118   -25242   -14111 
   -1510    11705    24408    34939    41981    46257    49483    51506 
   50328    45366    38450    30689    21175     8918    -5950   -21252 
  -32725   -37332   -35720   -30314   -23391   -17067   -12694   -10027 
   -6774      235    11118    21357    25999    24056    18254    11896 
    6561     1763    -4195   -12158   -20398   -25709   -25707   -19527 
   -7387     9425    27925    43995    54579    58587    56368    50075 
   42476    34148    24229    13074     1965    -7974   -15152   -18004 
  -16210   -10155     -869     9684    19745    28639    36571    43356 
   47746    49077    48239    46682    45639    45161    43662    39983 
   34965    29678    24031    17986    12135     6874     2428       72 
    2056     8632    16561    22198    24495    24795    24767    24689 
   23905    21919    18716    15175    12392    10133     7236     3700 
    1791     4327    11933    22957    34255    41519    42365    38440 
   33076    28831    26098    23148    18412    12529     8412     8946 
   14797    24988    37818    50470    59796    64569    65797    65043 
   63954    63639    63403    62165    59478    54522    47193    38959 
   31319    24588    18127    11474     4661    -1792    -6257    -6725 
   -2306     6914    20861    38821    57825    73833    85111    92400 
   96441    97176    93846    85214    71197    53613    34607    16220 
    1314    -7614   -10103    -7729    -2778     4186    14220    27092 
   40340    50762    56646    58562    58157    56749    53867    47773 
   38719    29572    22446    16939    11966     7272     3334     1326 
    2523     7594    16443    27552    38404    47152    52971    55541 
   54763    50632    42746    30138    13409    -3918   -17856   -25519 
  -25015   -17347    -6379     4828    15459    24959    31138    31772 
   27686    21088    12850     3735    -5022   -12319   -17342   -20537 
  -23300   -26118   -27973   -27003   -21861   -13156    -2874     7583 
   17923    28397    39244    50086    60265    69579    77567    82037 
   79383    68343    53155    40005    31398    26226    22667    20133 
   19315    20265    22165    24671    27783    31134    33848    34777 
   33241    29638    24819    19225    12849     5847     -976    -7174 
  -12548   -15473   -13851    -6780     4643    17160    27986    37249 
   46944    58182    69715    79141    84535    84643    78644    67078 
   52406    37138    22712    10412     1424    -3162    -2037     4994 
   16677    32283    51367    71619    89313   101445   106434   104236 
   96651    85911    73144    59058    44711    31219    19382     9767 
    3001      -42     1719     8809    20254    33903    48017    61383 
   72199    79015    81745    80418    74118    61826    43775    21490 
   -2862   -26890   -48153   -63889   -71597   -71032   -64556   -55224 
  -45835   -38272   -32511   -27103   -20383   -12127    -4397     -219 
   -1763    -8455   -17006   -24026   -27393   -26264   -21425   -14685 
   -6812     3046    14790    26036    34493    39110    38698    32593 
   22124     9837     -860    -5972    -3464     5444    18295    32966 
   47597    61446    75050    87833    97453   101634    98365    85714 
   63908    36745     9869   -11782   -25204   -29614   -26166   -17504 
   -6454     6181    21369    39239    58100    75693    90646   102228 
  109558   111816   108154    97865    80626    56378    27010    -3171 
  -30252   -52090   -67557   -75697   -75602   -67248   -51301   -28841 
   -1925    26961    54843    77882    92628    97067    91204    77195 
   58660    39983    24044     9607    -6700   -25897   -45494   -60815 
  -67562   -65291   -57449   -47174   -34162   -16328     6828    33702 
   61151    85028   102578   113290   116391   110951    98560    82063 
   62478    40005    16794    -3181   -16105   -20175   -16736    -8476 
    3527    19314    37707    56057    71953    83044    86139    79842 
   65605    45601    23033     2241   -12871   -20078   -20381   -16636 
  -10534    -2875     5586    14067    21395    26321    27833    25779 
   21822    18546    17345    18027    19612    20404    18797    14425 
    8254     2559     -117     1594     7565    16155    25106    32236 
   35626    35407    33439    30196    24827    17174     7809    -2357 
  -12136   -20787   -28067   -32789   -32617   -26505   -15971    -3020 
   11025    24656    36592    46015    51853    53014    48008    34946 
   13910   -11604   -35822   -53696   -63771   -67389   -66277   -60958 
  -50094   -32587    -8993    19537    50946    81504   106380   121633 
  126521   122718   112084    96126    75333    49483    19786   -10212 
  -35397   -51842   -58750   -56346   -45933   -30928   -12952     9057 
   34677    61338    85939   105068   115959   117077   107930    90859 
   70856    52300    37724    27410    19262    11822     5994     2687 
    1438     1516     2794     5200     8521    13947    23830    39075 
   57843    76188    90195    97530    97139    89641    76895    59359 
   36772    11589   -11730   -29419   -38653   -38212   -29484   -15221 
    1685    18688    33753    45214    52890    58198    62000    63295 
   60767    55690    50842    46977    43755    41342    39061    35549 
   30008    22766    15551    10078     6582     4675     4881     8893 
   17966    30926    43743    51661    52728    48154    39461    27673 
   13995     -258   -13067   -21764   -24520   -20709   -10676     3521 
   18307    30997    41444    50441    57370    59948    55765    44044 
   26577     7261    -9716   -21996   -29521   -32356   -29267   -19754 
   -5480    11159    28432    44914    58721    68659    75530    80599 
   83447    82192    75807    65705    54259    42836    32406    24464 
   19937    18504    19245    20251    19228    15670    10446     4302 
   -2128    -8216   -12962   -14729   -12269    -5328     5493    17505 
   26057    28477    25800    20023    12240     3060    -6406   -15010 
  -23080   -31305   -39371   -47163   -54069   -57239   -54144   -45737 
  -35166   -25193   -17212   -10835    -3559     8394    26872    48841 
   68031    79295    81093    75169    64014    49035    31513    13050 
   -5584   -23306   -36509   -41203   -36869   -25935   -11223     4764 
   20163    34200    46404    55644    60642    61297    59369    57240 
   55300    51700    45220    36884    28327    20040    12117     5641 
    2122     2478     7356    16753    28469    38544    44002    45054 
   44014    42009    38055    30762    19822     6860    -5423   -15301 
  -21129   -20169   -11543     2365    18418    33950    46632    55176 
   59882    62213    63218    61440    53391    36587    12091   -14906 
  -37901   -52514   -56613   -49905   -34700   -15366     4367    23460 
   42139    59235    72626    81541    85883    85212    80401    73159 
   63327    48868    28766     4812   -19361   -40397   -56470   -66322 
  -68529   -62104   -46800   -23913     2662    26914    43959    52837 
   55333    54050    50746    44388    32737    16203    -1215   -14583 
  -20986   -19840   -12439    -1894     8735    18534    28241    37777 
   45039    47790    45230    37752    27694    18944    13378     9764 
    6460     3047      855     2161     7128    13276    18775    23331 
   26418    28591    31444    34001    34621    34115    33127    31000 
   27349    22393    16800    11577     7796     6249     6915     8879 
   11740    16693    24472    33630    43293    54256    66006    76770 
   84727    87553    84060    75036    61290    43367    23311     4487 
  -10666   -21264   -27381   -30164   -30785   -28806   -23280   -15296 
   -8024    -4426    -5350    -9880   -17116   -25842   -33171   -36337 
  -34682   -28679   -19871   -11480    -6216    -3812    -1321     4071 
   12360    21430    29259    34466    36536    36246    34787    32850 
   31105    30271    30277    30623    31300    32929    36359    41570 
   47236    51541    53350    53218    52509    51642    50180    47945 
   45510    43637    42660    42355    41700    39506    36154    34081 
   35441    39415    43327    45899    48111    52037    59014    67841 
   75180    78318    76797    71362    62528    50468    36120    22287 
   12640     9178    10651    13656    16036    18051    20183    22668 
   25362    26131    22532    14565     3758    -8794   -22636   -36925 
  -49942   -59330   -62793   -59356   -49676   -35447   -18809    -1176 
   16913    34053    47877    56747    60122    58237    51848    41484 
   27483    11344    -3634   -14398   -20828   -25126   -28756   -31439 
  -32636   -32097   -29609   -25713   -21672   -18459   -16680   -16330 
  -16616   -17460   -19938   -24707   -31202   -37936   -43564   -47572 
  -49008   -45620   -35405   -18876      331    18226    33001    43607 
   49061    49916    47727    43958    40318    37677    34274    27468 
   17315     7112      381    -2344    -2908    -3041    -3628    -3574 
      77     8757    21438    36601    52189    64999    71790    70300 
   59850    41966    20182    -1056   -17885   -27627   -28731   -21806 
   -9753     4160    17285    27822    35628    41591    45541    45762 
   41100    33158    25751    22121    22528    24434    25432    25293 
   24513    22377    18186    12931     8131     5165     5689     9827 
   15414    20628    24961    27749    28726    28948    29242    29597 
   29669    28557    25972    22941    20352    19302    21677    27207 
   32381    34400    33502    30853    27013    23446    22884    26442 
   32722    40027    47332    53859    58625    60396    58006    50665 
   38674    24097    10430      932    -2978    -1662     3483    11226 
   20619    29541    35606    38260    38749    38573    37890    35968 
   32395    27314    22058    18779    18332    19593    20989    21405 
   19914    15704     8286    -1453   -10347   -15010   -14779   -10939 
   -3727     7400    20760    32538    39803    41486    38256    32590 
   26858    21766    17350    14173    13586    16677    22779    30053 
   37416    44391    49494    50838    47545    39286    26076     9795 
   -4827   -12492   -11213    -3154     7952    19367    29554    37355 
   42383    44611    42907    36196    25751    14640     5319    -1524 
   -6625   -11592   -17702   -24457   -29654   -31139   -28572   -23318 
  -17122   -11140    -5347     1145     8680    16059    21348    23888 
   24250    22129    16456     7736    -1081    -6379    -6804    -4082 
