Origin Time       2011/03/11 14:46:00
Lat.              38.103
Long.             142.860
Depth. (km)       24
Mag.              9.0
Station Code      AOM026
Station Lat.      41.1280
Station Long.     140.3107
Station Height(m) 12
Record Time       2011/03/11 14:47:47
Sampling Freq(Hz) 100Hz
Duration Time(s)  269
Dir.              U-D
Scale Factor      3920(gal)/6182761
Max. Acc. (gal)   8.344
Last Correction   2011/03/11 14:47:32
Memo.             
[...]
  -15332   -15046   -14638   -14126   -13657   -13339   -13180   -13123 
  -13114   -13093   -13056   -13132   -13307   -13249   -12754   -12177 
  -12044   -12351   -12646   -12640   -12329   -11808   -11298   -11045 
  -11043   -11076   -10997   -10772   -10473   -10309   -10363   -10414 
  -10248    -9963    -9837    -9914    -9961    -9970   -10186   -10654 
  -11178   -11546   -11714   -11824   -11981   -12155   -12312   -12425 
  -12425   -12347   -12347   -12537   -12969   -13598   -14286   -14996 
  -15780   -16581   -17273   -17800   -18149   -18268   -18156   -17908 
  -17534   -16947   -16180   -15461   -15001   -14823   -14839   -14920 
  -14914   -14766   -14495   -14034   -13373   -12778   -12560   -12740 
  -13028   -13043   -12654   -12125   -11861   -12062   -12637   -13335 
  -13940   -14388   -14796   -15306   -15887   -16431   -16952   -17485 
  -17944   -18247   -18454   -18704   -18985   -19076   -18825   -18294 
  -17656   -17137   -16946   -17024   -17002   -16573   -15768   -14814 
  -13889   -13089   -12435   -11859   -11405   -11233   -11297   -11323 
  -11117   -10647   -10085    -9821   -10161   -10992   -11914   -12715 
  -13532   -14399   -15003   -15154   -15049   -14903   -14761   -14627 
  -14501   -14381   -14247   -14101   -14067   -14227   -14481   -14740 
  -14926   -14970   -14939   -14889   -14792   -14653   -14462   -14161 
  -13739   -13271   -12896   -12659   -12503   -12343   -12074   -11732 
  -11491   -11430   -11498   -11643   -11957   -12631   -13664   -14780 
  -15696   -16324   -16724   -17049   -17430   -17804   -18025   -18089 
  -18099   -18077   -17976   -17913   -18081   -18395   -18616   -18620 
  -18317   -17658   -16741   -15796   -15035   -14408   -13680   -12782 
  -11911   -11331   -11167   -11320   -11644   -12151   -12864   -13628 
  -14253   -14730   -15124   -15323   -15146   -14639   -14042   -13528 
  -13058   -12441   -11568   -10586    -9786    -9294    -9025    -8914 
   -8984    -9176    -9305    -9255    -9166    -9310    -9799   -10468 
  -11009   -11254   -11325   -11332   -11167   -10838   -10593   -10601 
  -10846   -11236   -11627   -11828   -11753   -11566   -11535   -11693 
  -11780   -11592   -11271   -11151   -11431   -11985   -12439   -12581 
  -12505   -12381   -12442   -12964   -13933   -14903   -15347   -15118 
  -14571   -14166   -14011   -13962   -14011   -14220   -14426   -14350 
  -14018   -13816   -14046   -14587   -15069   -15255   -15113   -14742 
  -14376   -14120   -13781   -13172   -12234   -11087   -10049    -9398 
   -9270    -9572    -9995   -10352   -10627   -10873   -11267   -11963 
  -12896   -13832   -14531   -14881   -14998   -15122   -15370   -15718 
  -16065   -16239   -16097   -15655   -15121   -14710   -14419   -14151 
  -13864   -13587   -13418   -13391   -13423   -13402   -13228   -12921 
  -12666   -12607   -12650   -12604   -12518   -12645   -12988   -13255 
  -13336   -13436   -13726   -14139   -14496   -14659   -14568   -14320 
  -14109   -13891   -13489   -12998   -12655   -12504   -12425   -12311 
  -12185   -12157   -12203   -12138   -11914   -11723   -11726   -11835 
  -11911   -11985   -12091   -12069   -11733   -11138   -10438    -9698 
   -8996    -8395    -7922    -7661    -7506    -7116    -6414    -5748 
   -5477    -5708    -6467    -7770    -9371   -10876   -12152   -13286 
  -14277   -15013   -15461   -15687   -15690   -15484   -15162   -14688 
  -13941   -13030   -12278   -11902   -11957   -12418   -13089   -13708 
  -14203   -14627   -14917   -14891   -14499   -13988   -13720   -13891 
  -14373   -14850   -15213   -15622   -16169   -16637   -16726   -16623 
  -16880   -17648   -18600   -19425   -20009   -20358   -20544   -20640 
  -20663   -20574   -20384   -20253   -20364   -20740   -21193   -21343 
  -20951   -20255   -19728   -19628   -19829   -19988   -19836   -19288 
  -18455   -17603   -17004   -16758   -16693   -16534   -16133   -15481 
  -14812   -14521   -14701   -14953   -14807   -14302   -13869   -13642 
  -13418   -13189   -13145   -13308   -13513   -13623   -13548   -13265 
  -12908   -12678   -12715   -13019   -13447   -13812   -13919   -13665 
  -13193   -12748   -12432   -12208   -12010   -11848   -11830   -12055 
  -12523   -13118   -13673   -14111   -14418   -14568   -14575   -14453 
  -14241   -14055   -13917   -13694   -13234   -12498   -11696   -11103 
  -10765   -10580   -10458   -10361   -10286   -10127    -9734    -9235 
   -8954    -9072    -9559   -10201   -10782   -11278   -11731   -12161 
  -12543   -12872   -13347   -14172   -15127   -15833   -16251   -16523 
  -16681   -16659   -16399   -16046   -15842   -15839   -15937   -16055 
  -16155   -16257   -16418   -16615   -16789   -17019   -17413   -17896 
  -18226   -18209   -17866   -17309   -16684   -16204   -16024   -16237 
  -16797   -17352   -17517   -17188   -16636   -16311   -16366   -16652 
  -17028   -17303   -17281   -17026   -16807   -16829   -17116   -17572 
  -18126   -18663   -18999   -19158   -19367   -19748   -20195   -20397 
  -20146   -19660   -19288   -19139   -19161   -19219   -19196   -19030 
  -18534   -17684   -16898   -16501   -16367   -16293   -16205   -16092 
  -16025   -16081   -16194   -16201   -16057   -15867   -15731   -15651 
  -15608   -15672   -15903   -16111   -15933   -15278   -14569   -14340 
  -14670   -15157   -15362   -15201   -14909   -14674   -14494   -14309 
  -14044   -13718   -13411   -13059   -12601   -12142   -11741   -11297 
  -10745   -10233    -9963    -9809    -9359    -8487    -7574    -7039 
   -6875    -6760    -6532    -6335    -6289    -6340    -6451    -6675 
   -7088    -7704    -8368    -8807    -8973    -9169    -9754   -10790 
  -11999   -13078   -13896   -14397   -14684   -15026   -15527   -16039 
  -16376   -16405   -16129   -15699   -15321   -15159   -15305   -15752 
  -16324   -16805   -17295   -18049   -18958   -19618   -19821   -19711 
  -19579   -19539   -19540   -19605   -19743   -19834   -19760   -19439 
  -18942   -18585   -18497   -18423   -18189   -17872   -17542   -17117 
  -16452   -15654   -15039   -14729   -14664   -14699   -14564   -14062 
  -13275   -12557   -12219   -12094   -11763   -11262   -11077   -11491 
  -12411   -13507   -14371   -14899   -15311   -15869   -16789   -17979 
  -18984   -19430   -19368   -19140   -19025   -19156   -19476   -19701 
  -19586   -19189   -18839   -18819   -19083   -19295   -19154   -18700 
  -18222   -17830   -17235   -16100   -14590   -13192   -12153   -11479 
  -11123   -10985   -10975   -11125   -11520   -12039   -12389   -12438 
  -12331   -12304   -12387   -12283   -11695   -10686    -9568    -8576 
   -7840    -7495    -7596    -8009    -8486    -8839    -9006    -9056 
   -9210    -9665   -10359   -10959   -11118   -10768   -10224    -9901 
   -9816    -9641    -9258    -8940    -9057    -9736   -10781   -11889 
  -12835   -13509   -13883   -14063   -14250   -14488   -14578   -14343 
  -13822   -13186   -12518   -11801   -11142   -10724   -10491   -10228 
   -9844    -9484    -9333    -9303    -9146    -8876    -8813    -9094 
   -9413    -9425    -9212    -9212    -9666   -10286   -10773   -11232 
  -11831   -12539   -13217   -13788   -14323   -14910   -15603   -16423 
  -17311   -18176   -18926   -19483   -19884   -20180   -20240   -19965 
  -19488   -18951   -18383   -17804   -17277   -16954   -16944   -17069 
  -16961   -16450   -15647   -14765   -13999   -13469   -13191   -13003 
  -12690   -12283   -11966   -11841   -11888   -11895   -11651   -11330 
  -11390   -12040   -12903   -13310   -13025   -12462   -12173   -12334 
  -12720   -13003   -12989   -12695   -12294   -11957   -11755   -11637 
  -11502   -11363   -11362   -11608   -12047   -12530   -12940   -13175 
  -13209   -13167   -13027   -12596   -11932   -11396   -11250   -11383 
  -11535   -11594   -11540   -11439   -11449   -11692   -12293   -13212 
  -14143   -14897   -15582   -16427   -17562   -18781   -19632   -19824 
  -19411   -18701   -18001   -17394   -16853   -16502   -16532   -16970 
  -17706   -18528   -19158   -19618   -20272   -21353   -22780   -24215 
  -25170   -25317   -24675   -23560   -22462   -21724   -21225   -20581 
  -19643   -18588   -17674   -16956   -16253   -15427   -14444   -13323 
  -12169   -11080   -10126    -9432    -9083    -9056    -9273    -9602 
   -9895   -10079   -10188   -10323   -10608   -11109   -11838   -12807 
  -13931   -15035   -16068   -17061   -17880   -18272   -18094   -17402 
  -16552   -16078   -16226   -16695   -16788   -16043   -14823   -14012 
  -14152   -14996   -15850   -16325   -16559   -16727   -16776   -16719 
  -16738   -16856   -16866   -16706   -16529   -16372   -16069   -15575 
  -15173   -15162   -15493   -15922   -16249   -16381   -16446   -16630 
  -16895   -17069   -17144   -17290   -17530   -17648   -17562   -17429 
  -17389   -17482   -17698   -17972   -18315   -18807   -19319   -19549 
  -19482   -19515   -19928   -20307   -19937   -18703   -17064   -15436 
  -14062   -13091   -12537   -12298   -12233   -12299   -12641   -13323 
  -14149   -14950   -15674   -16154   -16249   -16153   -16167   -16334 
  -16452   -16246   -15612   -14798   -14316   -14515   -15157   -15661 
  -15803   -15877   -16147   -16415   -16355   -16106   -16130   -16686 
  -17658   -18588   -19025   -19045   -19047   -19224   -19515   -19816 
  -20046   -20041   -19580   -18713   -17765   -16916   -16223   -15919 
  -16082   -16259   -15867   -14800   -13500   -12462   -11834   -11513 
  -11312   -11054   -10707   -10448   -10627   -11494   -12804   -13861 
  -14136   -13801   -13457   -13410   -13483   -13470   -13387   -13154 
  -12535   -11522   -10413    -9571    -9203    -9222    -9384    -9464 
   -9302    -8925    -8572    -8517    -8832    -9223    -9314    -9100 
   -8820    -8527    -8077    -7449    -6825    -6449    -6470    -6852 
   -7493    -8289    -9026    -9491    -9630    -9522    -9409    -9625 
  -10136   -10432   -10214    -9804    -9726   -10336   -11679   -13333 
  -14760   -15801   -16609   -17357   -18072   -18569   -18652   -18256 
  -17298   -15849   -14360   -13155   -12141   -11234   -10508    -9864 
   -9022    -8085    -7508    -7624    -8611   -10239   -11877   -13191 
  -14211   -15031   -15704   -16089   -16091   -15867   -15462   -14807 
  -14137   -13811   -13792   -13770   -13546   -13157   -12880   -12949 
  -13242   -13469   -13397   -12878   -12012   -11147   -10490    -9879 
   -9053    -8039    -7076    -6219    -5229    -3959    -2793    -2416 
   -3015    -4087    -5025    -5597    -5857    -5909    -5961    -6224 
   -6604    -6759    -6423    -5620    -4707    -4046    -3643    -3371 
   -3299    -3541    -4031    -4561    -4926    -5083    -5133    -5152 
   -5068    -4714    -4067    -3447    -3266    -3627    -4230    -4687 
   -4992    -5622    -6988    -8886   -10667   -11861   -12454   -12767 
  -13171   -13716   -14115   -14235   -14318   -14554   -14827   -15008 
  -15131   -15149   -14908   -14506   -14263   -14225   -14090   -13627 
  -12906   -12103   -11428   -11090   -11127   -11492   -12251   -13452 
  -14835   -15888   -16290   -16197   -15984   -15794   -15554   -15300 
  -15192   -15388   -15891   -16482   -16995   -17526   -18264   -19273 
  -20331   -21080   -21409   -21490   -21531   -21642   -21736   -21590 
  -21266   -21142   -21303   -21382   -21172   -20919   -20912   -21138 
  -21354   -21399   -21360   -21282   -20887   -19869   -18380   -17009 
  -16157   -15627   -15037   -14387   -13874   -13425   -12803   -11927 
  -10967   -10360   -10473   -11039   -11405   -11323   -11079   -10980 
  -10984   -10890   -10818   -11172   -12039   -12975   -13528   -13662 
  -13647   -13646   -13505   -13020   -12262   -11481   -10890   -10561 
  -10360   -10094    -9760    -9547    -9716   -10421   -11472   -12400 
  -12802   -12560   -11836   -10953   -10202    -9654    -9185    -8684 
   -8257    -8094    -8165    -8438    -9107   -10267   -11705   -12949 
  -13668   -14240   -15299   -16740   -17853   -18111   -17496   -16481 
  -15671   -15285   -15109   -14785   -14130   -13355   -12884   -12973 
  -13593   -14504   -15464   -16404   -17262   -17880   -18187   -18258 
  -18241   -18220   -18155   -17954   -17547   -17065   -16844   -17044 
  -17440   -17635   -17424   -16937   -16349   -15645   -14771   -13761 
  -12570   -11096    -9438    -7947    -6979    -6654    -6725    -6715 
   -6450    -6178    -6057    -6011    -6052    -6449    -7456    -8790 
   -9782   -10149   -10174   -10214   -10407   -10791   -11423   -12316 
  -13359   -14318   -15110   -15980   -17043   -18064   -18805   -19186 
  -19216   -18846   -18049   -17150   -16566   -16169   -15469   -14488 
  -13902   -14183   -15137   -16326   -17481   -18509   -19444   -20407 
  -21408   -22330   -23152   -23894   -24432   -24597   -24380   -23909 
  -23197   -22053   -20491   -18907   -17658   -16900   -16729   -17069 
  -17676   -18375   -19117   -19850   -20372   -20452   -20092   -19477 
  -18705   -17825   -17003   -16392   -15926   -15424   -14932   -14711 
  -14824   -15067   -15260   -15391   -15606   -15968   -16233   -16079 
  -15433   -14559   -13817   -13264   -12822   -12672   -12926   -13306 
  -13450   -13243   -12885   -12680   -12719   -12989   -13605   -14583 
  -15561   -16062   -15933   -15363   -14529   -13356   -11797   -10228 
   -9147    -8595    -8138    -7359    -6421    -5957    -6209    -6763 
   -7165    -7329    -7409    -7499    -7558    -7423    -6791    -5491 
   -3914    -2712    -2089    -1842    -1738    -1554    -1236     -978 
    -896    -1060    -1812    -3423    -5439    -6980    -7718    -8153 
   -8906    -9986   -10966   -11587   -11866   -12063   -12516   -13230 
  -14065   -15059   -16097   -16862   -17176   -17067   -16770   -16511 
  -16148   -15390   -14195   -12723   -11145    -9665    -8672    -8488 
   -8867    -9140    -8827    -8019    -7321    -7357    -8202    -9382 
  -10348   -10805   -10672   -10039    -9258    -8843    -8979    -9325 
   -9499    -9375    -9074    -9041    -9624   -10597   -11639   -12759 
  -13886   -14725   -15208   -15679   -16495   -17561   -18454   -18933 
  -19104   -19303   -19886   -20784   -21488   -21768   -21870   -21970 
  -22031   -21992   -21795   -21359   -20657   -19796   -18820   -17658 
  -16565   -16107   -16493   -17214   -17577   -17525   -17569   -18005 
  -18839   -20036   -21314   -22317   -22914   -22964   -22363   -21260 
  -20000   -19030   -18610   -18510   -18335   -17932   -17389   -17026 
  -17243   -18046   -18852   -18903   -18073   -17038   -16460   -16510 
  -17012   -17735   -18496   -18865   -18415   -17386   -16406   -15888 
  -15865   -15881   -15436   -14736   -14297   -14021   -13487   -12729 
  -12087   -11761   -11762   -12021   -12574   -13566   -14894   -16070 
  -16709   -17015   -17519   -18362   -19017   -19104   -19092   -19474 
  -19977   -20025   -19389   -18464   -17906   -17928   -18208   -18241 
  -17684   -16616   -15487   -14843   -14908   -15305   -15454   -15302 
  -15283   -15504   -15638   -15603   -15598   -15555   -15142   -14132 
  -12475   -10305    -8161    -6773    -6329    -6301    -6096    -5558 
   -4854    -4269    -4098    -4450    -5193    -6105    -7049    -8055 
   -9085    -9931   -10619   -11332   -12004   -12486   -12723   -12771 
  -12835   -13071   -13590   -14416   -15132   -15263   -15036   -14991 
  -15254   -15691   -16103   -16155   -15596   -14585   -13645   -13157 
  -13141   -13542   -14172   -14535   -14294   -13662   -13104   -12920 
  -13012   -12976   -12434   -11352   -10205    -9511    -9364    -9597 
   -9858    -9784    -9448    -9132    -8850    -8497    -8078    -7662 
   -7333    -7140    -7148    -7567    -8437    -9398   -10094   -10437 
  -10413    -9960    -9065    -7925    -6901    -6286    -6122    -6154 
   -6021    -5637    -5193    -4863    -4771    -5059    -5736    -6479 
   -6891    -7100    -7572    -8377    -9152    -9588    -9695    -9617 
   -9351    -9029    -8952    -9092    -9318    -9813   -10752   -12093 
  -13582   -14817   -15792   -16854   -18014   -19030   -19768   -20206 
  -20450   -20624   -20663   -20285   -19217   -17689   -16274   -15128 
  -14038   -13040   -12380   -12206   -12446   -12825   -13058   -13009 
  -12834   -12903   -13250   -13422   -13075   -12416   -11958   -11909 
  -12060   -12102   -11869   -11495   -11139   -10753   -10377   -10139 
  -10084   -10081    -9774    -9057    -8265    -7708    -7502    -7542 
   -7513    -7326    -7371    -8101    -9457   -10893   -11875   -12302 
  -12477   -12724   -13175   -13833   -14599   -15369   -16009   -16312 
  -16260   -15987   -15462   -14681   -13953   -13574   -13478   -13361 
  -13000   -12585   -12644   -13381   -14360   -14948   -14808   -14102 
  -13474   -13511   -14125   -14782   -15133   -15159   -14964   -14533 
  -13709   -12496   -11153    -9970    -9126    -8505    -7757    -6964 
   -6690    -7156    -7949    -8567    -8931    -9248    -9617    -9961 
  -10256   -10671   -11432   -12471   -13440   -14081   -14296   -14060 
  -13492   -12856   -12438   -12395   -12700   -13260   -13858   -14208 
  -14366   -14697   -15362   -16186   -16919   -17482   -17964   -18427 
  -18765   -18821   -18586   -18053   -17146   -15952   -14649   -13412 
  -12608   -12534   -12958   -13369   -13519   -13497   -13448   -13364 
  -13176   -13029   -13128   -13324   -13328   -13208   -13283   -13756 
  -14564   -15442   -16217   -16997   -17836   -18477   -18855   -19317 
  -20080   -20918   -21432   -21477   -21195   -20575   -19516   -18230 
  -17115   -16410   -16032   -15609   -14729   -13349   -11884   -10672 
   -9662    -8774    -8104    -7663    -7238    -6572    -5694    -4993 
   -4887    -5393    -6121    -6645    -6835    -6852    -6871    -6984 
   -7314    -7899    -8571    -9035    -9082    -8932    -9078    -9596 
  -10101   -10461   -10978   -11787   -12575   -13002   -13082   -13031 
  -12826   -12219   -11326   -10746   -10929   -11731   -12471   -12664 
  -12685   -13101   -13789   -14411   -15011   -15674   -16215   -16414 
  -16294   -16108   -16019   -15964   -15815   -15490   -15047   -14672 
  -14461   -14368   -14383   -14520   -14641   -14531   -14173   -13827 
  -13854   -14405   -15172   -15647   -15689   -15558   -15639   -16228 
  -17103   -17683   -17830   -17667   -17157   -16432   -15808   -15573 
  -15787   -16091   -16189   -16259   -16571   -17142   -17800   -18306 
  -18493   -18596   -19029   -19761   -20454   -20910   -21093   -21057 
  -20923   -20988   -21555   -22463   -23112   -23043   -22403   -21832 
  -21808   -22235   -22653   -22780   -22744   -22664   -22324   -21585 
  -20680   -19983   -19636   -19431   -19152   -18818   -18510   -18303 
  -18177   -17943   -17526   -17078   -16768   -16750   -17061   -17415 
  -17391   -16835   -15952   -15137   -14593   -14229   -13954   -13616 
  -13068   -12429   -11735   -10883   -10008    -9440    -9323    -9357 
   -9274    -9210    -9266    -9354    -9285    -8820    -8006    -7175 
   -6563    -6317    -6587    -7220    -7808    -8219    -8668    -9315 
  -10132   -11039   -11938   -12620   -12843   -12736   -12747   -12982 
  -13143   -13115   -13104   -13209   -13367   -13626   -13904   -13993 
  -14172   -14879   -15987   -17072   -17845   -18228   -18216   -17769 
  -17098   -16608   -16329   -15840   -14762   -13025   -10919    -9147 
   -8333    -8307    -8404    -8297    -8154    -8245    -8757    -9732 
