Origin Time       2011/03/11 14:46:00
Lat.              38.103
Long.             142.860
Depth. (km)       24
Mag.              9.0
Station Code      AOM009
Station Lat.      40.9658
Station Long.     141.3730
Station Height(m) 13
Record Time       2011/03/11 14:47:31
Sampling Freq(Hz) 100Hz
Duration Time(s)  300
Dir.              E-W
Scale Factor      3920(gal)/6182761
Max. Acc. (gal)   40.523
Last Correction   2011/03/11 14:47:16
Memo.             
[...]
   -1023      897     2905     4817     6605     7783     8403     8871 
    9145     9228     9105     8223     6467     4721     3851     3995 
    4373     3836     2392     1066      340      124      196      101 
    -178     -277     -228      292     2048     4905     8020    10572 
   11864    11894    11112     9966     9319     9649    10407    11141 
   11840    12412    12780    13161    13621    13741    13624    13978 
   14678    15036    15037    15098    15513    16339    17103    17167 
   16641    16377    16889    17292    16479    15294    15046    15028 
   14177    12828    11412    10174     9777    10230    10630    10301 
    8935     6483     3534      875     -944    -1444     -696      704 
    2514     4774     7619    11416    15866    19586    21015    19252 
   14899     9946     6404     5280     6209     7966     9420    10003 
    9626     7916     4650     1145    -1209    -2670    -3335    -2690 
   -1791    -1986    -2590    -2509    -1354     1105     4346     7558 
   10401    12493    13954    15656    18099    21069    23987    26353 
   27972    28451    27551    26165    25151    23428    19623    14950 
   11366     8564     5904     4210     3648     3223     2770     2663 
    2112      154    -2485    -4085    -3588    -1590     -189     -418 
    -515     1452     5006     8324    10288    11088    11298    10789 
    9166     7073     5938     6365     7684     8951     9180     7312 
    3882     1011     -404    -1123    -1720    -1895    -1096      618 
    2680     4397     5337     5949     6447     5930     4375     3130 
    2765     3178     4209     5018     5324     5879     6849     7423 
    6330     2813    -2267    -7193   -11080   -13618   -14417   -13744 
  -12052    -9133    -5142     -809     3045     5186     5464     5797 
    7257     9011    10785    12815    14360    14706    14121    13003 
   11453     9575     7920     7706     9696    12705    14216    12849 
    9519     6123     4090     3846     4592     5004     4247     1915 
   -2083    -7270   -12264   -15075   -14853   -12505    -8940    -4449 
     165     3926     6613     7958     7777     6752     5161     2860 
    1009      788     1430     1701     1221      149     -852    -1073 
    -299     1267     3406     6130     9244    12497    15964    19428 
   21867    22158    20344    17094    12471     6839     1486    -2811 
   -6088    -7707    -6593    -3061     1111     4149     5585     6186 
    6882     7898     8181     6324     2547    -1727    -6057   -10873 
  -15653   -19116   -20382   -18707   -13758    -6872     -185     5663 
   10920    14798    16553    16553    14797    10956     5991     1412 
   -2202    -4209    -3269      611     5181     7934     7968     6356 
    5336     6048     7117     6871     5436     3294      447    -2276 
   -3164    -1536     1361     4097     6080     7313     8580     9916 
   10377    10923    13236    16318    18253    18872    18765    18001 
   16532    14668    12739    10971     9472     7429     3951      380 
   -1211    -1363    -1724    -1649      618     5227    10950    16019 
   18816    19187    18066    15814    12201     7935     4713     3675 
    5022     7992    10951    12892    13876    13755    12281     9927 
    7147     4120     1815     1328     2727     5290     7338     7393 
    6510     6839     8394     9471     9045     7652     6574     6674 
    7781     8502     7734     6397     5612     4733     2863      821 
     797     4089     9341    13370    13993    11763     8673     6133 
    4759     4639     5018     5128     5477     6998     9524    12352 
   15357    18706    22202    24739    25209    24064    21903    18569 
   15047    12786    11734    11449    11963    12318    10938     7790 
    3820     -737    -5883   -10878   -14674   -16983   -17406   -14707 
   -9160    -3426      162     1556     2285     3409     4663     5391 
    5065     3523     1528      156     -266     -262      -54     1286 
    4236     7562     9765    10453    10378    10430    10274     8919 
    6376     3814     2547     3058     4763     6934     9356    11746 
   14070    17093    20739    23533    24615    24296    22769    19852 
   15663    10609     5147      330    -2227    -2122     -863       80 
     532      938     1735     3260     5962     9957    13954    16212 
   16530    16076    15848    15633    14491    12280    10169     9268 
    9202     9031     8855     9186    10188    11807    13535    15261 
   17563    19880    21173    21815    21930    20506    17397    13835 
   11209     9807     8850     7917     7047     6173     5696     6100 
    7089     8154     9045     9708    10495    11712    12591    11606 
    8716     6204     5637     6102     6721     7574     8187     7994 
    7384     7037     6502     4097     -717    -6168   -10211   -12082 
  -11861    -9451    -5093     -855     1489     3018     5166     7341 
    8789    10190    12005    13136    12552    10505     7590     4237 
     830    -2742    -6864   -11196   -14625   -15825   -13918    -9550 
   -4780    -1083     1950     5448     9427    12916    16037    20137 
   25014    28826    30942    32161    33170    34061    34686    35243 
   35630    34741    31582    25731    17096     7387     -520    -5945 
  -10029   -12737   -13017   -10798    -7103    -2908     1357     5628 
    9377    11511    11691    10809    10172    10455    11822    14877 
   19362    23121    25152    26686    27811    27619    26543    25396 
   24252    22326    18930    15037    11695     8340     4375      150 
   -3747    -6755    -8657    -9855   -10469   -10140    -9536    -9909 
  -10930   -11588   -12044   -12703   -13152   -12369    -9699    -6072 
   -3800    -4522    -7315    -9910   -11390   -12431   -13442   -13385 
  -10752    -5273     1167     5529     7138     8605    11598    14722 
   16685    18076    19346    19957    19562    17868    14077     7910 
     824    -4557    -6845    -7232    -7231    -6465    -3938      109 
    4240     7589    11150    15873    20830    24306    25333    24299 
   22244    20190    18998    17828    14735    10010     5738     2674 
    -115    -3962    -9260   -13954   -15896   -16478   -17497   -17928 
  -17225   -16384   -15574   -14986   -15542   -17086   -18539   -19192 
  -18529   -16344   -12834    -8293    -3260     2353     9236    16154 
   20343    20850    18836    15774    13080    12455    14942    19724 
   25175    29639    30735    27126    20477    14113    10618     9941 
    9678     8213     6476     5668     4957     3214     1191       20 
    -424     -742    -1203    -1340      662     6759    16571    27651 
   37644    44946    48943    49924    47836    42590    35630    29493 
   25884    24159    21893    18070    14443    12496    11425    10094 
    8290     6138     4222     3281     3638     5116     6400     6035 
    4780     4133     3744     3253     3445     4418     5983     7905 
    8653     7517     6432     7262     9516    11531    12869    14747 
   17825    20830    22175    21837    20448    17316    11209     3103 
   -3732    -6719    -6007    -4070    -2835    -1500      802     3202 
    5341     7177     7630     6423     4825     3328     1259    -1093 
   -2523    -2471     -936     1949     5707     9333    11602    12014 
   11127     9638     7620     4780     1533        8     2701     9117 
   15783    20244    22484    22714    20754    17474    14461    12235 
   10068     7032     3204      377      849     5204    12010    19694 
   26697    30577    29822    24893    17098     8381      856    -4736 
   -9592   -15187   -21318   -26521   -29672   -30862   -30587   -28138 
  -23063   -16806   -10413    -4042     1502     6043     9779    11702 
   11897    12447    13999    14354    10906     3637    -4768   -12156 
  -17986   -20538   -17633   -10490    -2526     4179     9100    12275 
   13628    12625     9691     7555     8398    10897    12900    14276 
   15769    17533    18765    18711    18054    17390    15054     9595 
    2856    -2620    -6400    -8541    -8607    -6212    -1348     4437 
    8931    11693    13388    14639    15871    16498    15893    14534 
   12887    11234     9968     9051     8532     7892     5641     2238 
    -517    -2854    -5240    -6715    -7372    -8864   -11727   -14172 
  -14142   -11502    -7863    -5182    -4534    -5461    -6617    -7681 
   -9415   -11124   -10900    -8790    -6669    -5393    -3929     -746 
    4240     9306    12600    13747    14131    14938    15703    16147 
   16377    15636    14027    12385    10154     6667     2309    -1975 
   -4511    -4254    -2225     -362       26    -1242    -3810    -7021 
   -9090    -8258    -4979    -1133     2119     4885     7444     9078 
    8740     6347     2796     -891    -4030    -5906    -6126    -5123 
   -3282     -182     4893    11586    18077    23254    28357    34712 
   40783    42800    37943    27074    14702     5409      173    -2502 
   -3465    -3060    -1798      -52      838     -568    -2459    -1390 
    2790     7021     8851     8209     6378     4744     4222     4943 
    6787     9492    12118    14075    15774    17570    19454    21152 
   22136    22111    20518    16539    10604     3971    -2968   -10331 
  -17577   -23332   -25772   -23602   -17292    -8724       18     7224 
   12330    15785    18249    20418    22153    22493    21089    18073 
   13762     9577     7987    10928    17473    23498    25645    24721 
   23299    22529    23031    25109    27349    28050    27090    25442 
   24380    24790    26618    29496    33103    36524    38464    38232 
   35902    31917    27161    22864    19432    15490     8818     -637 
   -9572   -15312   -18625   -20821   -21031   -17468   -10240    -2182 
    3434     5707     6381     7351     8798    10006    10279     8915 
    5618      748    -5150   -11592   -17656   -21575   -21608   -17572 
  -11123    -4996    -2011    -2984    -5689    -7347    -6614    -3168 
    1816     5615     6285     4450     1913     -651    -2615    -2151 
    1101     5112     7861     8259     6576     4709     4287     5022 
    5644     5565     5293     5924     7938    10224    11867    14480 
   19669    25860    30523    32391    31173    27556    22369    16243 
    9842     2885    -4931   -11916   -15906   -17122   -17140   -15764 
  -12097    -7519    -3651      627     7290    16396    25787    32258 
   33927    31521    26691    21044    16737    14678    13084    10240 
    6275     1712    -3005    -7085    -9419    -9025    -6273    -2661 
     747     3285     3986     2230     -683    -1974     -876      609 
    1104      887      158    -1121    -2612    -4022    -5554    -8031 
  -11982   -15790   -16947   -15245   -12031    -7845    -2852     2954 
   10250    18941    27623    34746    39511    42489    44560    45626 
   45203    43037    39471    35332    31197    27652    25250    23839 
   22628    21003    19720    19910    20989    21655    21574    20872 
   19376    16727    12821     8318     4070      -18    -3988    -6218 
   -4881     -864     2227     1111    -4803   -14076   -25285   -36775 
  -45727   -50441   -51691   -50593   -47677   -43203   -37028   -29568 
  -22093   -15109    -8083    -1093     5067    10191    14169    16703 
   18018    17778    15486    12750    11427    10661     8581     5120 
    1862      509     1926     5549     9660    12923    15044    16391 
   17420    17744    16583    14034    10813     7648     4743      909 
   -5174   -12339   -17722   -20074   -20212   -18724   -14836    -7778 
    1054     8545    13001    15212    16496    17521    18200    18233 
   17989    17156    14382     9987     5533     1159    -3583    -8370 
  -12695   -16098   -18350   -19529   -19502   -17979   -14489    -8524 
    -510     8248    16478    23016    26938    28301    27507    24048 
   17998    11767     8127     8087    11372    16639    21606    24810 
   26384    26340    24025    19540    13520     6110    -2370   -10642 
  -17299   -22045   -25646   -28571   -30045   -28954   -25470   -21340 
  -18148   -15513   -12057    -7606    -3064     1548     6758    11585 
   14854    17128    18806    18937    16645    12378     8579     7362 
    7652     7899     8765    10653    12660    14258    14968    13852 
   10639     6121     1633    -2058    -4797    -5809    -5205    -5142 
   -6754    -8736    -9305    -7760    -4822    -1754      716     2653 
    4267     5019     4528     4010     4960     7122     9527    12456 
   16832    22522    27942    31146    31385    29266    25548    20590 
   14440     7243      375    -3849    -4832    -3896    -1240     3416 
    8111    10945    12411    12823    10906     6437     1285    -3046 
   -6414    -8937   -10815   -12015   -12242   -12001   -11817   -11478 
  -11304   -11337    -9994    -6018      -45     6399    11730    14551 
   14059    10128     3568    -3756   -10188   -15301   -19187   -22042 
  -24471   -27028   -29358   -30006   -27561   -22360   -15953    -9231 
   -2941     1338     3437     5415     7924     9719    10688    11586 
   12801    14357    15647    16256    17083    19482    23199    26325 
   28159    29960    31966    32846    32290    31098    29655    28103 
   26352    23989    21430    19739    18737    16850    13544    10510 
    8798     6876     3715     1040      593     1883     3857     6162 
    8253     8776     6216      134    -8627   -18756   -29481   -40481 
  -50244   -56380   -57605   -53704   -44992   -32653   -18417    -3853 
   10114    23184    34660    43299    48885    52727    55828    57685 
   57342    54286    48780    42392    36982    33338    31372    30230 
   29192    28985    29643    28935    25809    22448    21252    21890 
   22031    19773    14949     8874     3138    -1424    -4087    -3390 
     973     6655    11087    13131    12213     9044     6019     5155 
    6861     9873    12243    14017    16355    17995    17085    14155 
   10576     7459     5526     4068     1964     -505    -2544    -4026 
   -4847    -4814    -4354    -4001    -3600    -2852    -1442     1065 
    3919     5775     6983     8737    10809    11866    11047     8683 
    6009     3438       30    -4442    -9530   -15210   -20442   -22810 
  -20521   -14173    -6849    -1381     2106     4718     7228    10268 
   13437    15625    17081    18660    19951    20268    19883    19868 
   21741    25837    29970    31400    29701    26891    24790    22990 
   20371    17309    14657    12131     9161     6049     3971     4034 
    5665     6984     6830     5079     2223     -732    -3262    -5795 
   -8721   -12006   -15295   -17497   -17684   -16394   -14516   -11970 
   -9059    -7588    -8212    -8540    -6794    -4370    -2823    -1966 
   -1357    -1094    -1139    -1146    -1196    -1270     -406     1655 
    3301     3010     1210     -324     -409      484     1335     1896 
    2298     2427     2060     1377     1234     2266     4416     7970 
   13498    20641    28364    35855    42012    45184    44419    40116 
   34271    30055    28763    28255    26608    24953    24972    26581 
   28833    30635    31097    30255    28560    25492    19922    12093 
    4120    -1828    -5468    -8100   -10546   -12225   -12478   -11708 
  -10516    -8840    -6632    -4639    -3674    -3511    -3554    -3482 
   -2543      276     4988    10401    15590    20835    26607    32641 
   37843    40343    39073    35539    32291    29971    27799    26616 
   28417    32578    36178    37645    37081    34855    31571    27726 
   23529    19827    17567    16012    13768    10843     7889     5250 
    3052      960    -1116    -2733    -4236    -6311    -8349    -9208 
   -8828    -7720    -5997    -3772    -1393      792     2361     3423 
    4588     5571     5820     6222     8076    11279    14486    16564 
   17984    20290    23934    27438    28639    26750    23198    19920 
   17990    17819    18859    20113    21508    23100    23378    20488 
   14666     8184     3500      863    -1750    -5143    -8017    -9271 
   -8648    -7159    -6788    -7713    -8384    -8657    -9220    -9708 
  -10218   -11893   -14827   -17535   -18638   -18299   -17670   -17293 
  -16794   -16052   -15598   -15295   -13700    -9592    -3416     3371 
    9896    15917    20318    21582    20423    19397    20247    23189 
   27116    30541    32337    31198    26859    21069    15325     9437 
    3228    -2064    -5189    -6113    -5543    -5133    -6445    -8894 
  -11359   -14465   -19083   -24661   -30176   -35076   -38940   -41239 
  -41883   -41583   -40948   -39873   -37769   -33963   -28572   -22385 
  -15951    -9447    -3194     1744     4275     4948     5878     8446 
   11459    12562    11480    10486    11466    13896    16096    17133 
   16859    14933    11305     7530     5583     5466     5772     5805 
    5520     4257     1252    -2921    -6485    -7792    -6473    -3488 
    -141     2385     3611     4203     4239     2756     -532    -5364 
  -11406   -17802   -23767   -29247   -33944   -36868   -37869   -37737 
  -36656   -34627   -32151   -29409   -26276   -22381   -16750    -8924 
     -77     7596    12370    13984    13431    12118    11058    10782 
   11691    13861    16991    20502    23630    25930    27111    26955 
   25900    24712    23991    23824    23244    21350    18679    16433 
   15252    14815    14627    15330    17935    21974    25599    27195 
   26952    26637    27092    26867    24533    20794    16768    12260 
    7448     3865     2158     1038     -966    -4087    -7651   -10750 
  -12618   -13064   -11928    -9053    -5847    -4600    -5797    -7966 
   -9339    -8686    -6243    -3824    -2168      107     3800     8283 
   13182    18783    25336    32370    38734    43361    45676    45783 
   44316    41862    38843    35549    31760    27043    21742    16841 
   13038    10388     8347     6226     4041     2490     1506      -19 
   -2402    -5026    -7676   -10025   -11519   -12604   -13682   -13768 
  -12522   -11355   -10806    -9808    -7914    -5378    -2175     1380 
    5061     9122    12837    15212    16926    18893    20980    23420 
   26601    29700    31509    31754    31187    30694    30131    28775 
   26685    24707    23335    21711    18992    16367    15179    15013 
   15397    16200    16739    16809    16643    15849    14396    13339 
   13163    12885    11690     9941     8526     8525    10367    12992 
   15076    16526    17915    19358    20621    21296    20958    19704 
   17653    14426    10037     5263      879    -2597    -4863    -5891 
   -6184    -6921    -8562   -10323   -11865   -13320   -14056   -13406 
  -11533    -8343    -3067     4136    11428    16710    18805    17346 
   13108     8151     4302     2117     1278     1052     1198     2154 
    3541     4312     4674     5584     6637     6674     5555     3783 
    2103     1635     2626     4136     5906     8718    12173    14334 
   14194    12297     9891     8527     8372     7938     6610     5023 
    3365     1561      167      -20     1299     3330     4789     5836 
    7988    11584    15248    18073    19862    20093    18778    16896 
   15865    16701    18689    19877    18737    15192    10633     6449 
    2732     -960    -4000    -4918    -3206        7     3321     6612 
