Origin Time       2011/03/11 14:46:00
Lat.              38.103
Long.             142.860
Depth. (km)       24
Mag.              9.0
Station Code      AOM022
Station Lat.      40.9923
Station Long.     140.9161
Station Height(m) 4
Record Time       2011/03/11 14:47:34
Sampling Freq(Hz) 100Hz
Duration Time(s)  300
Dir.              N-S
Scale Factor      3920(gal)/6182761
Max. Acc. (gal)   30.761
Last Correction   2011/03/11 14:47:19
Memo.             
[...]
   -5097     -352     2863     4326     4617     4290     3505     2547 
    1549      389     -762    -2002    -3899    -6331    -8757   -11020 
  -12735   -13494   -13621   -13463   -12899   -11906   -10464    -8073 
   -4495     -561     2492     3901     3553     2012       95    -1765 
   -3231    -3940    -4019    -3675    -3038    -2662    -2850    -3452 
   -4504    -6003    -7916   -10122   -11877   -12641   -12748   -12658 
  -12748   -13374   -14492   -15967   -17774   -19515   -20637   -20773 
  -19780   -17944   -15629   -12953    -9989    -6868    -4047    -2078 
   -1028     -810    -1444    -2730    -4191    -5136    -4823    -3022 
    -364     2065     3371     3264     2217      931     -356    -1675 
   -3132    -4917    -6951    -9097   -11397   -13841   -16358   -18470 
  -19627   -19899   -19233   -17639   -16038   -15126   -14787   -14654 
  -13651   -10492    -5541     -585     3024     4912     5415     5135 
    4404     3412     2469     1991     2265     3179     4455     5776 
    6716     7120     7173     6955     6425     5451     3495      136 
   -4347    -9397   -14282   -18396   -21613   -23656   -24362   -24096 
  -23181   -21893   -20321   -18123   -14812   -10020    -4358      555 
    3848     5836     7081     8150     9093     9101     7616     4852 
    1410    -1530    -2919    -3117    -3002    -2940    -3401    -4413 
   -5241    -6000    -7186    -8086    -8085    -7405    -5954    -4167 
   -3274    -3355    -3923    -5111    -6703    -8593   -11016   -13256 
  -14464   -14525   -13331   -11160    -8717    -6191    -3610    -1439 
    -176      -41     -939    -2425    -3871    -4614    -4342    -3700 
   -3527    -3622    -3554    -3084    -1662      538     2833     5127 
    7040     8246     9229    10054    10280     9681     7964     5017 
    1430    -2059    -5477    -9232   -13275   -17321   -20806   -22823 
  -23126   -22216   -20413   -18149   -16138   -14353   -12381   -10496 
   -8845    -7106    -5312    -3510    -1787     -848    -1094    -2223 
   -3950    -5836    -7307    -8144    -8022    -6472    -3767     -739 
    2115     4667     6890     8861    10484    11233    10700     9059 
    6500     3111     -585    -3831    -5865    -6242    -5350    -3748 
   -1828     -298      441      544      209       60      596     1329 
    1678     1424      633     -177     -722    -1122    -1571    -2384 
   -3337    -3742    -3262    -1704      621     2762     4259     4978 
    4744     3740     2054     -356    -3300    -6566    -9858   -12898 
  -15741   -18472   -20788   -22242   -22674   -21973   -20127   -17761 
  -15620   -14085   -13438   -13561   -14060   -14745   -15210   -15101 
  -14572   -13423   -11315    -8810    -6448    -4099    -1975     -149 
    2068     4862     7922    11187    14140    16166    17190    16900 
   15076    11990     7546     1768    -4254    -9218   -12668   -14823 
  -16167   -17115   -17413   -16681   -15393   -14155   -13139   -12644 
  -12656   -12505   -11785   -10478    -8755    -7399    -7064    -7278 
   -7173    -6470    -5440    -4453    -3861    -3875    -4387    -5359 
   -6639    -7654    -8398    -9287   -10237   -11264   -12360   -13002 
  -12913   -11994   -10165    -7948    -6074    -5229    -6033    -8249 
  -10944   -13137   -13949   -13237   -11537    -9246    -6693    -4288 
   -2428    -1502    -1430    -1579    -1274      -67     2051     4543 
    6665     7995     8650     8968     9074     8873     8281     7070 
    4840     1572    -2112    -5297    -7299    -8148    -8545    -9142 
  -10218   -11916   -13941   -15776   -17484   -19108   -20140   -20236 
  -19386   -17760   -15688   -13364   -10761    -7712    -4338    -1352 
     832     2334     3046     3005     2557     1614       62    -1763 
   -3610    -5277    -6509    -7514    -8583    -9501   -10072   -10317 
  -10012    -9075    -7800    -6188    -4115    -1843      390     2453 
    3949     4589     4678     4692     4700     4673     4772     5061 
    5682     7021     8900    10560    11680    12095    11438     9891 
    7954     5553     2476     -830    -3850    -6617    -9182   -11632 
  -14066   -15822   -16116   -14997   -12919   -10569    -8747    -7435 
   -5812    -3702    -1736      -56     1597     3118     4440     5513 
    5963     5754     5285     4834     4624     4595     4358     3825 
    3166     2638     2650     3315     4170     4547     4131     3243 
    2507     2129     1853     1532     1025       98    -1065    -2135 
   -3085    -3867    -4594    -5536    -6369    -6621    -6129    -4664 
   -2488     -335     1405     2454     2411      954    -2099    -6418 
  -10927   -14497   -16834   -18184   -18648   -18234   -16815   -14152 
  -10500    -6570    -3243    -1561    -1709    -2737    -4185    -6189 
   -8512   -11045   -13586   -15233   -15476   -14387   -11772    -7934 
   -4194    -1661     -721    -1450    -3487    -6350    -9936   -13919 
  -17595   -20537   -22591   -23679   -23841   -23121   -21668   -19665 
  -17049   -13739    -9983    -6499    -4158    -3074    -2734    -3092 
   -3943    -4380    -3973    -2443      428     3395     4989     4866 
    2929     -523    -4727    -9008   -12224   -13390   -13118   -12568 
  -12100   -11969   -12419   -13097   -13749   -14589   -15689   -16938 
  -18178   -19090   -19513   -19636   -19252   -17435   -13914    -9579 
   -5323    -2125     -879    -1139    -1930    -2756    -2835    -1623 
     317     2145     3244     3333     2707     1639       66    -1827 
   -3409    -4359    -4974    -5522    -6360    -7836    -9462   -10757 
  -11624   -11451   -10014    -7954    -5636    -3426    -1947    -1005 
    -102      532      818      985      815      333      -79     -460 
    -883    -1275    -1651    -1671    -1095     -451     -308     -846 
   -2063    -3508    -4502    -4882    -5013    -5024    -4454    -3186 
   -2099    -2093    -3406    -5693    -7774    -8514    -7910    -6340 
   -4276    -2380     -701      804     1866     2767     3750     4552 
    5309     6214     7171     8422     9850    10393     9319     6533 
    2154    -2623    -5956    -7204    -6900    -5915    -5125    -4918 
   -5522    -7348   -10277   -13697   -17015   -19509   -20682   -20650 
  -19578   -17397   -14049    -9612    -4611     -137     2982     4984 
    6492     7528     7736     6683     4180      696    -3175    -6762 
   -9323   -11156   -12932   -14415   -15179   -14872   -13335   -11259 
   -9091    -6328    -2712     1555     6090    10098    13042    14727 
   14695    12843     9611     5473     1100    -2839    -6051    -8464 
   -9983   -10399    -9772    -8374    -6292    -4087    -2772    -2647 
   -3462    -5028    -6992    -8970   -10616   -11537   -11690   -11193 
   -9991    -8107    -5528    -1996     2403     6835    10439    12910 
   13953    13200    10868     7698     4713     3005     2773     3251 
    3590     2960      985    -1600    -3626    -4163    -2875     -812 
     226     -764    -3981    -8948   -14290   -18765   -21821   -23063 
  -22586   -20979   -18519   -15436   -12369    -9954    -8489    -8054 
   -8456    -9162    -9898   -10933   -12533   -14818   -17693   -20429 
  -22095   -22176   -20518   -17894   -15810   -14863   -14327   -12763 
   -8998    -3606     1249     4087     5630     7297     9129    10278 
    9878     6924     1354    -5059   -10116   -12495   -12074   -10050 
   -7782    -5680    -3951    -2923    -2666    -3529    -5739    -8672 
  -11872   -15303   -18492   -20883   -22289   -22488   -21080   -17613 
  -11821    -4412     2710     7875    10758    11793    11436     9898 
    7228     3892      767    -1660    -3490    -5070    -6836    -9077 
  -11599   -14036   -16252   -17939   -18561   -18017   -16679   -14935 
  -12869   -10072    -6082    -1168     3564     6777     7967     7835 
    7185     6544     6595     7492     8722     9947    11049    11958 
   12315    11369     8684     4196    -1447    -6072    -7604    -6273 
   -3789    -1489     -140     -563    -3267    -7761   -13062   -18298 
  -22667   -25914   -28291   -29738   -29995   -28995   -26875   -23936 
  -20288   -15721   -10084    -3795     1956     5985     7873     7941 
    7025     5613     3405      413    -2787    -5871    -8617   -10757 
  -11790   -10371    -5606     1323     8283    13539    15995    15481 
   12268     6609     -665    -8209   -14800   -19251   -20689   -19292 
  -16075   -12153    -8244    -4381     -353     3418     5800     5594 
    2280    -3329    -9554   -15196   -19660   -22568   -24069   -24330 
  -23024   -19969   -15351    -9785    -4611     -860     1734     3765 
    5436     7012     8318     8309     6266     2083    -4192   -11203 
  -16417   -18730   -18918   -18186   -17799   -18035   -17842   -17016 
  -16088   -14687   -12499    -9539    -5700    -1955      160      360 
    -937    -3581    -6822    -9116    -9559    -8131    -5056     -934 
    3400     7156     9791    11332    11981    11736    10624     8734 
    6101     2858     -676    -4377    -8392   -12439   -15747   -17852 
  -18545   -17908   -17126   -17464   -18922   -21141   -23479   -24793 
  -24714   -23299   -20311   -16288   -12446    -9492    -7454    -5811 
   -3920    -1818        5     1104      978     -423    -2439    -4612 
   -6671    -8064    -8535    -8157    -7019    -5690    -5026    -5593 
   -7720   -11159   -14863   -17867   -19747   -20020   -18338   -15076 
  -10955    -7024    -4379    -2748    -1013     1057     2951     4027 
    3618     1364    -2639    -7863   -13174   -17119   -19219   -20366 
  -21298   -21963   -22288   -22026   -20920   -19795   -19616   -20060 
  -20557   -21144   -21926   -22985   -24163   -24725   -23905   -21489 
  -17821   -13544    -9541    -6763    -5283    -4126    -2630     -826 
    1384     4020     6619     8771     9987     9466     7169     3725 
    -638    -5298    -8868   -10726   -11412   -11683   -11999   -12438 
  -12712   -12218   -10513    -7932    -5320    -3491    -2999    -4199 
   -7484   -12416   -17127   -19988   -20832   -20295   -18990   -17158 
  -14956   -12734   -10702    -8996    -7880    -7256    -6760    -6422 
   -6385    -6502    -6515    -6054    -4863    -3328    -2314    -2474 
   -3854    -6017    -8377   -10503   -12452   -14354   -15560   -15269 
  -13543   -11077    -8868    -7680    -7347    -7293    -7059    -6218 
   -4830    -3512    -2772    -3028    -4622    -7297   -10209   -12122 
  -12127   -10627    -8490    -6175    -4295    -3080    -1959     -832 
      63     1111     2460     3588     4175     4090     3204     1829 
     383     -839    -1153     -141     1755     4060     5955     5912 
    3195    -1684    -7420   -11922   -13974   -14309   -13711   -12317 
  -10696    -9599    -9394   -10288   -12222   -14706   -17120   -18996 
  -20118   -20616   -20473   -19246   -16839   -13478    -9358    -5136 
   -1502     1398     3584     5275     7012     9385    12618    16151 
   19088    20831    21134    20486    19602    18489    17342    16679 
   16261    15997    16487    17675    18944    19945    20092    18789 
   16365    13196     9057     4112    -1314    -6905   -11717   -15384 
  -18387   -20592   -21911   -22866   -23588   -24178   -24961   -25700 
  -26133   -26232   -25497   -23678   -21045   -17348   -12538    -7424 
   -2699     1092     3784     6183     9047    12434    15971    18821 
   19991    18907    15736    11129     5770      271    -5164   -10482 
  -15169   -18714   -21133   -22698   -23632   -24148   -24215   -23178 
  -20504   -16895   -13516   -10702    -8381    -6586    -5488    -5459 
   -6302    -7371    -8548    -9746   -10798   -11810   -12308   -11479 
   -9255    -6050    -2890    -1376    -2049    -4317    -7703   -11536 
  -15119   -18472   -21564   -24217   -26767   -29394   -31738   -33493 
  -34312   -33704   -31820   -29482   -27264   -25253   -23452   -22045 
  -21372   -21421   -21254   -19802   -17037   -13438    -9408    -5330 
   -1116     3559     8562    13336    17303    20027    21226    21314 
   21235    21428    21834    22113    21716    20303    17710    14024 
    9914     6234     3377     1139     -852    -2615    -3949    -4808 
   -5275    -5720    -6783    -8435    -9749   -10234   -10315   -10582 
  -11386   -12688   -13911   -14088   -12546    -9577    -5938    -2286 
     493     1754     1766      969     -394    -1664    -2124    -1610 
      49     2927     6147     8469     9229     8325     6247     3760 
    1218    -1277    -3507    -5234    -6311    -6821    -7105    -7567 
   -8665   -10667   -13214   -15754   -17801   -18638   -17830   -15144 
  -10174    -3724     2248     7028    11295    15504    19595    22956 
   24613    24187    21764    17568    12209     6147       43    -4411 
   -6163    -6208    -6078    -6709    -8369   -10559   -12962   -15701 
  -18351   -20229   -20828   -19727   -17153   -13837   -10494    -8003 
   -7233    -8501   -11163   -13562   -14113   -12327    -8407    -3005 
    2723     7832    11951    14990    16864    17503    17089    15684 
   12937     8504     2394    -4775   -11709   -16864   -19131   -18643 
  -16457   -13356   -10030    -7359    -5507    -4409    -4529    -6028 
   -8529   -11390   -13576   -14329   -14190   -14563   -15840   -17131 
  -17940   -18136   -17204   -14850   -11358    -7828    -5832    -5986 
   -7774   -10189   -12055   -12799   -12583   -11414    -8913    -4901 
     408     6477    12846    19605    26597    33056    38489    42213 
   43267    41708    37852    31376    22351    11499      297    -8957 
  -14888   -17904   -19282   -20358   -21758   -23440   -25342   -27240 
  -28924   -30423   -31531   -32000   -31799   -31000   -29977   -28944 
  -27577   -25502   -22507   -18796   -14997   -11714    -9509    -8664 
   -8658    -8429    -7083    -4334     -397     4161     8347    11315 
   12731    12183     9252     3904    -3428   -11318   -17897   -22465 
  -25542   -27547   -28279   -27488   -25205   -21690   -17520   -13476 
  -10258    -8258    -7276    -6677    -5844    -4751    -4187    -4461 
   -4750    -4513    -3894    -3214    -3029    -3357    -3533    -3316 
   -2795    -1838     -565      521     1188     1520     1539     1103 
    -153    -2317    -4869    -7175    -8595    -8908    -8580    -7759 
   -6234    -4147    -2122    -1337    -2653    -5788   -10091   -14982 
  -19560   -23036   -25228   -25998   -25247   -23408   -21050   -19070 
  -18801   -20548   -23481   -26817   -29421   -29895   -27742   -23214 
  -17021   -10402    -4233     1230     5463     7967     9025     9165 
    8496     6817     4229     1375    -1063    -2652    -3427    -3752 
   -3654    -3326    -3837    -5959    -9259   -12916   -16045   -17759 
  -17918   -16922   -15137   -13222   -12098   -12150   -12905   -13581 
  -13633   -13233   -13104   -13381   -13531   -12916   -10944    -7750 
   -3881      251     3841     6414     7904     7724     6038     3968 
    2118     1117     1646     3063     4164     4544     4090     2904 
    1505     -127    -2082    -3549    -4000    -3506    -2107     -408 
    1030     2645     4831     7577    10855    14247    17094    19041 
   19989    19741    18306    16049    12755     7935     1739    -5155 
  -11459   -16223   -20087   -23986   -27627   -30157   -30835   -28884 
  -24210   -17899   -11387    -5822    -1896      -72     -471    -1943 
   -2975    -3146    -2414     -848     1199     3568     5863     7443 
    8215     8310     7941     7882     8614     9651    10272     9771 
    7753     4668     1177    -1797    -3094    -2798    -1638      100 
    1513     1792     1335      794     1119     2985     5547     7978 
   10019    10995    10912    10268     8863     6987     5387     3844 
    1696    -1679    -6590   -11957   -16296   -19259   -20729   -20024 
  -16417    -9581     -268     8880    14615    16176    15133    12269 
    7403     1225    -4933   -10040   -13495   -15266   -15656   -14853 
  -13173   -10963    -8488    -6707    -6539    -7608    -9304   -11201 
  -12584   -13361   -13709   -13369   -12787   -12901   -14026   -15873 
  -17672   -18674   -18449   -16534   -12734    -7287     -913     4766 
    7951     7975     5286      792    -4409    -9507   -14103   -17659 
  -19737   -20394   -20020   -19381   -18870   -17950   -16240   -13633 
   -9639    -4334      833     3940     4118     2098    -1192    -5676 
  -11163   -17007   -22116   -24579   -23485   -20099   -16031   -12235 
   -8741    -4655       49     4367     7532     8729     7707     5282 
    1864    -2534    -7336   -11762   -14812   -15439   -13831   -11438 
   -9337    -7533    -5790    -4217    -3063    -2574    -2784    -3176 
   -3115    -2586    -1881    -1131     -621     -640    -1018    -1404 
   -1637    -1632    -1603    -2256    -3842    -5540    -6585    -6817 
   -5978    -3999    -1404     1143     3216     4865     6287     7546 
    8950    10420    11110    10306     7370     2116    -4150    -9805 
  -14190   -17289   -19652   -21748   -22925   -22043   -18661   -13286 
   -7118    -1418     3312     7132     9737    10789    10572     9504 
    7917     6380     5528     5704     6859     8509     9871    10465 
   10550    10661    11096    11979    13194    14430    15353    15419 
   14202    11609     7555     2365    -2954    -7521   -11230   -14605 
  -18272   -22650   -27815   -33238   -37894   -40836   -41458   -39541 
  -35328   -29114   -21013   -11642    -2546     4292     7826     9125 
   10009    10959    11335    10449     8151     4875     1382    -1344 
   -2855    -3426    -2999    -1324     1212     3514     4387     3622 
    2016      399     -931    -2406    -4576    -7399   -10249   -11853 
  -11265    -9044    -6135    -3239    -1070      622     2331     3439 
    3334     1784    -1632    -6555   -11618   -15790   -18486   -19516 
  -19778   -20083   -20208   -20057   -19568   -18237   -16069   -13587 
  -11026    -8606    -6973    -6658    -7591    -9321   -10954   -11322 
   -9987    -7277    -3717     -245     2281     3946     5117     6039 
    7044     7727     7022     4536      613    -3998    -7848    -9629 
   -9619    -9226    -9282    -9698    -9874    -8902    -6627    -4146 
   -2510    -1845    -1491     -507     1212     2737     3106     1609 
   -1890    -6566   -11381   -15697   -19309   -22062   -23335   -22406 
  -18884   -12843    -5173     2622     9185    13730    16061    16412 
   15018    11976     7742     3178     -898    -3669    -4514    -3918 
   -3306    -3650    -5100    -7435   -10082   -12526   -14445   -15168 
  -14406   -12783   -10862    -9108    -7931    -7271    -7241    -8012 
   -9178   -10281   -11119   -11636   -11951   -12296   -12859   -13354 
  -13007   -11298    -8481    -5588    -4010    -4222    -5239    -6037 
   -6295    -6060    -5874    -6099    -6341    -6332    -6224    -6267 
   -6949    -8629   -11027   -13534   -15445   -15914   -14729   -12842 
  -11244   -10055    -9020    -7840    -6377    -5244    -5185    -6047 
   -7121    -7715    -7327    -5899    -3763    -1210     1767     5206 
    8833    12323    15489    18020    19667    20537    20636    19780 
   18324    16916    15645    14190    12052     8714     4454      265 
   -3014    -4793    -5010    -4476    -4013    -4079    -5100    -6888 
   -8547    -9558   -10209   -11118   -12647   -14737   -17048   -19108 
