Origin Time       2011/03/11 14:46:00
Lat.              38.103
Long.             142.860
Depth. (km)       24
Mag.              9.0
Station Code      AOM016
Station Lat.      40.6021
Station Long.     140.4982
Station Height(m) 28
Record Time       2011/03/11 14:47:32
Sampling Freq(Hz) 100Hz
Duration Time(s)  300
Dir.              N-S
Scale Factor      3920(gal)/6182761
Max. Acc. (gal)   33.179
Last Correction   2011/03/11 14:47:17
Memo.             
[...]
     286     -852    -1472    -2052    -2987    -4514    -6596    -8947 
  -11175   -12782   -13284   -12495   -10423    -7249    -3619     -415 
    1668     2483     2452     1958     1373     1105      905      172 
   -1345    -3678    -6601    -9634   -12363   -14572   -16314   -17717 
  -18761   -19319   -19137   -18033   -16342   -14432   -12098    -9697 
   -8493    -8320    -7760    -7448    -8818   -10995   -13076   -15861 
  -19541   -23185   -26068   -27547   -27043   -24891   -22082   -19653 
  -18406   -18543   -19855   -21857   -23879   -25389   -26045   -25928 
  -25460   -24998   -24883   -25309   -26200   -27456   -28901   -30241 
  -31395   -32409   -32989   -32562   -30752   -27549   -23103   -17627 
  -11484    -5166     1055     7187    13004    18201    22742    26503 
   29322    31170    31948    31749    30789    28993    26263    22666 
   18330    13503     8602     4222      938     -901    -1111      201 
    2534     5209     7656     9539    10646    10810     9934     8173 
    6041     3999     2195      523    -1368    -3843    -7120   -11256 
  -16010   -20855   -25179   -28544   -30735   -31492   -30506   -27635 
  -22967   -17036   -10676    -4367     1725     7292    11940    15521 
   17912    18715    17816    15528    12099     7925     3573     -700 
   -4819    -8557   -11543   -13477   -14274   -14039   -12973   -11300 
   -9359    -7523    -5931    -4462    -2846     -902     1430     4158 
    6996     9485    11231    11963    11803    10845     8856     5830 
    1975    -2263    -6118    -9318   -12071   -14154   -15256   -15568 
  -15041   -13448   -11264    -9155    -7494    -6574    -6509    -7260 
   -8611   -10205   -11825   -13329   -14473   -14979   -14760   -14042 
  -13227   -12675   -12563   -12885   -13424   -13774   -13724   -13438 
  -13283   -13652   -14631   -16028   -17698   -19441   -21021   -22336 
  -23271   -23684   -23559   -22875   -21574   -19717   -17398   -14635 
  -11465    -7918    -3956      393     5089     9927    14333    17765 
   19857    20328    19228    16944    13913    10482     6962     3669 
     825    -1516    -3169    -3691    -2950    -1345      782     3362 
    6334     9650    13054    16155    18973    21786    24857    27646 
   29009    29562    30184    29990    29198    28707    27847    25980 
   23337    20371    17213    13954    11136     9076     7960     7774 
    7877     7889     7698     7180     6607     6004     5004     4106 
    3944     3546     2036       52    -2147    -4752    -7279    -9102 
   -9996   -10226   -10136   -10172   -10896   -12275   -14065   -16116 
  -18065   -19693   -21054   -22278   -23414   -24389   -25100   -25401 
  -25249   -24839   -24445   -24255   -24303   -24451   -24452   -24114 
  -23419   -22551   -21774   -21178   -20591   -19738   -18363   -16233 
  -13186    -9217    -4636      -33     4043     7220     9329    10450 
   10861    11006    11392    12380    14007    16084    18286    20114 
   21237    21634    21286    20151    18175    15364    12067     8745 
    5453     2064    -1144    -3795    -5913    -7442    -8161    -8145 
   -7541    -6324    -4328    -1350     2465     6831    11690    16867 
   21980    26629    30340    32551    33027    32105    29994    26728 
   22859    18959    15121    11566     8685     6471     4672     3145 
    1839      846      378      710     2113     4552     7624    10757 
   13391    15119    15824    15641    14775    13321    11117     8002 
    4137     -269    -5023    -9686   -13719   -16833   -19070   -20626 
  -21708   -22436   -22668   -22163   -20812   -18522   -15479   -12476 
  -10215    -8827    -8326    -8735    -9894   -11646   -13715   -15644 
  -17335   -18837   -19799   -19938   -19456   -18732   -17931   -17120 
  -16499   -16097   -15709   -15236   -14640   -13997   -13610   -13407 
  -12727   -11308    -9611    -7867    -6231    -5675    -6908    -9332 
  -12113   -14747   -16806   -18083   -18427   -17692   -15999   -13720 
  -11291    -9126    -7632    -6980    -6988    -7282    -7562    -7819 
   -8059    -8114    -8035    -8086    -8389    -8943    -9606   -10178 
  -10843   -11775   -12677   -13559   -14528   -15154   -15236   -14946 
  -14607   -14675   -15205   -15825   -16011   -15344   -13799   -11550 
   -8878    -6172    -3629    -1063     1815     4907     8150    11937 
   16110    20106    23933    27240    29348    30063    29218    27005 
   24033    20785    17762    15252    13185    11391     9625     7650 
    5535     3623     2252     1712     2051     2905     3762     4179 
    3932     3130     2053      954      -45    -1002    -1966    -2805 
   -3303    -3261    -2638    -1654     -657       76      393      250 
    -222     -794    -1231    -1391    -1567    -2254    -3706    -6131 
   -9629   -13967   -18812   -23856   -28727   -33086   -36696   -39308 
  -40678   -40682   -39278   -36781   -33950   -31437   -29524   -28135 
  -26953   -25742   -24379   -22872   -21387   -20158   -19439   -19395 
  -19969   -20904   -21900   -22741   -23323   -23578   -23342   -22442 
  -20813   -18506   -15598   -12123    -8297    -4390     -619     2452 
    4407     5470     5703     4900     3009      184    -2933    -6006 
   -9166   -11998   -14148   -15626   -16301   -16173   -15456   -14295 
  -12711   -10791    -8506    -6169    -4767    -4313    -4242    -4817 
   -5978    -7600   -10031   -13146   -16572   -20110   -23770   -27532 
  -30865   -33332   -35546   -38214   -39532   -37882   -36657   -36911 
  -34771   -31492   -28415   -23242   -17349   -11582    -5633     -579 
    3882     7818    11108    14131    16706    18732    20194    20954 
   21031    20642    19933    18962    17693    15804    13112     9973 
    7041     4827     3483     2824     2537     2353     1810      637 
    -812    -2250    -3656    -4929    -6006    -6770    -7156    -7348 
   -7360    -7099    -6725    -6511    -6818    -7869    -9470   -11230 
  -12683   -13345   -12987   -11712    -9802    -7440    -4652    -1574 
    1533     4411     6765     8490     9850    11247    13025    15273 
   17712    19806    21018    21134    20263    18711    16963    15408 
   14076    12825    11657    10640     9749     9029     8520     8168 
    8014     7956     7744     7494     7443     7458     7270     7326 
    8576    10437    11840    13539    15312    15758    15395    14793 
   13536    11609     9284     7230     5821     4659     3599     2955 
    2785     2767     2868     3233     3677     4085     4737     5751 
    6820     7730     8426     8716     8394     7284     5394     3151 
    1016     -855    -2532    -4203    -5953    -7648    -9115   -10070 
  -10261    -9912    -9530    -9554   -10195   -11350   -12712   -13833 
  -14359   -14245   -13567   -12443   -11014    -9403    -7753    -6191 
   -4866    -3945    -3453    -3201    -2946    -2585    -2112    -1631 
   -1350    -1342    -1622    -2266    -3251    -4441    -5657    -6669 
   -7250    -7223    -6479    -5001    -2980     -779     1301     2977 
    3991     4486     4913     5567     6563     7884     9286    10397 
   10919    10751     9932     8519     6572     4149     1446    -1171 
   -3357    -4860    -5713    -6325    -7193    -8712   -10965   -13657 
  -16331   -18382   -19377   -19286   -18307   -16860   -15061   -12651 
   -9857    -6728    -3057      321     2539     3549     3567     3120 
    2652     2511     2960     3719     4542     5435     6359     7355 
    8395     9424    10519    11569    12335    12661    12423    11682 
   10564     9098     7398     5695     4215     3079     2341     2017 
    2001     2045     1886     1554     1287     1190     1317     1723 
    2363     3090     3621     3622     2915     1595     -230    -2632 
   -5327    -7663    -9816   -12491   -15400   -17928   -20073   -21689 
  -22504   -22654   -22425   -22003   -21628   -21459   -21388   -21350 
  -21405   -21527   -21578   -21333   -20722   -19842   -18830   -17997 
  -17522   -17214   -16922   -16581   -16064   -15345   -14468   -13428 
  -12197   -10661    -8712    -6391    -3766    -1056     1340     3345 
    5109     6697     8121     9157     9628     9699     9454     8926 
    8255     7633     7281     7072     6562     5550     4061     2035 
    -507    -3274    -5859    -7837    -8849    -8859    -8300    -7763 
   -7680    -8282    -9508   -10986   -12323   -13357   -14050   -14244 
  -13767   -12577   -10852    -8969    -7126    -5327    -3692    -2314 
   -1237     -531     -246     -541    -1493    -2879    -4358    -5648 
   -6705    -7669    -8685    -9899   -11343   -12944   -14588   -16148 
  -17691   -19497   -21740   -24200   -26427   -27989   -28274   -26830 
  -23901   -20111   -16259   -12977   -10184    -7684    -5468    -3399 
   -1574     -345       20     -460    -1341    -2079    -2292    -1794 
    -716      632     1869     2771     3460     4109     4771     5344 
    5588     5324     4446     3049     1575      313     -841    -1866 
   -2600    -3114    -3591    -4098    -4708    -5517    -6362    -6859 
   -6714    -5740    -3904    -1575      764     2797     4249     5021 
    5194     4931     4542     4159     3720     3343     3168     3171 
    3247     3299     3207     2740     1645     -173    -2578    -5385 
   -8563   -11909   -14992   -17765   -20317   -22209   -23106   -23282 
  -22761   -21403   -19728   -18123   -16391   -14817   -13836   -13101 
  -12316   -11613   -11011   -10487    -9994    -9549    -9296    -9218 
   -9290    -9587   -10153   -11101   -12603   -14708   -17242   -19852 
  -22237   -24275   -25828   -26794   -27359   -27755   -28063   -28354 
  -28653   -29117   -30038   -31414   -33159   -35248   -37387   -39334 
  -41173   -42849   -44182   -45138   -45406   -44631   -42931   -40123 
  -35613   -30501   -27271   -25071   -21733   -18977   -17300   -14885 
  -12369    -9997    -7274    -4929    -3122    -1801    -1026     -618 
    -638    -1145    -2112    -3527    -5224    -6789    -7809    -8247 
   -8364    -8270    -7891    -7356    -6742    -5812    -4400    -2566 
    -380     2123     4830     7686    10663    13551    16199    18547 
   20526    22161    23448    24255    24428    23877    22648    21032 
   19413    18052    17283    17150    17234    17432    17760    18055 
   18469    19224    20290    21613    23219    24901    26116    26601 
   26357    25421    24173    22848    21407    20012    18747    17625 
   16698    15935    15445    15153    14734    14079    13235    12287 
   11235    10118     9183     8530     8110     7875     7679     7382 
    6872     6011     4625     2407     -739    -4489    -8405   -11934 
  -14626   -16474   -17616   -18207   -18596   -18992   -19105   -18532 
  -17510   -17161   -17918   -18395   -18348   -19304   -20846   -21727 
  -22120   -22005   -21226   -20231   -19376   -18604   -18100   -18308 
  -18892   -19382   -19889   -20559   -21392   -22062   -22253   -21962 
  -21327   -20486   -19494   -18809   -18699   -18600   -18243   -17829 
  -17275   -16488   -15575   -14497   -13297   -12257   -11310   -10256 
   -9201    -8077    -6683    -5099    -3409    -1552      458     2755 
    5523     8619    11775    14765    17452    19720    21254    21842 
   21604    20650    19041    17027    14945    12834    10473     7858 
    5171     2569      262    -1565    -2775    -3278    -3076    -2225 
    -884      745     2459     4112     5736     7369     8987    10586 
   12132    13648    15153    16618    17963    18901    19131    18541 
   17095    14858    12196     9744     7884     6550     5680     5262 
    5174     5394     5958     6693     7367     7793     7698     6957 
    5823     4549     3175     1905      933      126     -481     -778 
   -1040    -1554    -2545    -4287    -6760    -9658   -12588   -15130 
  -17010   -18194   -18822   -19063   -19165   -19516   -20336   -21523 
  -22880   -24262   -25609   -26843   -27774   -28170   -27853   -26787 
  -25105   -23165   -21285   -19511   -17912   -16425   -14821   -13199 
  -11605    -9970    -8394    -6732    -4791    -2579      -17     2821 
    5711     8591    11266    13228    14176    13935    12150     8947 
    4911      320    -4491    -8992   -13117   -17066   -20823   -24314 
  -27398   -29793   -31383   -32131   -32001   -31478   -31126   -30869 
  -30587   -30365   -29928   -29033   -27865   -26421   -24774   -23207 
  -21674   -20581   -20214   -20026   -20042   -20360   -20528   -20371 
  -19938   -19017   -17375   -15643   -14217   -12664   -11217    -9916 
   -8200    -6148    -3880    -1420      856     2696     4025     4769 
    5075     5309     5631     6011     6490     7028     7383     7117 
    6162     5177     4526     4177     4522     5763     7540     9684 
   11937    13951    16037    18199    19731    20569    21025    20996 
   20477    19497    17959    16199    14576    13011    11358     9429 
    7137     4879     2989     1494      695      638      898     1373 
    1751     1591     1409     1629     2030     2729     3702     4740 
    5957     7093     7697     7613     6528     4373     1512    -1982 
   -5759    -8914   -11222   -12847   -13540   -13420   -12999   -12587 
  -12368   -12174   -11642   -10851    -9967    -9023    -8270    -7879 
   -7913    -8321    -8766    -9187    -9721   -10148   -10343   -10565 
  -10866   -11024   -10977   -10620    -9691    -8182    -6085    -3185 
     505     4865     9779    15052    20578    26122    31194    35501 
   39100    42123    44585    46533    47986    48682    48615    48217 
   47528    46308    44784    43283    41481    39113    36630    34282 
   32039    30289    29173    28350    27750    27306    26647    25690 
   24627    23359    21671    19545    17060    14286    11204     7872 
    4460      904    -2773    -6112    -8717   -10328   -10577    -9584 
   -7936    -5886    -3562    -1229     1020     3261     5724     8479 
   11004    12840    13881    13807    12597    10709     8238     5407 
    2927      964     -634    -1872    -3170    -4629    -5900    -7258 
   -8672    -9532    -9951   -10161   -10147   -10505   -11652   -13291 
  -15414   -18021   -20637   -23129   -25589   -27680   -29299   -30786 
  -32094   -33119   -34199   -35377   -36303   -36854   -36968   -36426 
  -35121   -33115   -30586   -27754   -24829   -22067   -19687   -17653 
  -15851   -14460   -13528   -12732   -11895   -10857    -9435    -7939 
   -6815    -6261    -6568    -7761    -9424   -11361   -13152   -14201 
  -14593   -14204   -12886   -11417    -9951    -8247    -7035    -6601 
   -6590    -6973    -7664    -8450    -9079    -9328    -9368    -9582 
  -10009   -10533   -11141   -11526   -11415   -10912    -9997    -8641 
   -6999    -5106    -2884     -339     2305     4700     6609     7904 
    8363     7979     7172     6122     4950     4126     3735     3588 
    3853     4438     4680     4325     3742     3073     2203     1258 
     259    -1125    -2863    -4913    -7469    -9975   -12110   -14521 
  -17567   -20496   -21967   -22310   -22745   -22817   -22283   -21897 
  -21703   -21522   -21214   -20239   -18274   -15545   -12539    -9803 
   -7788    -6594    -5927    -5445    -4852    -3872    -2478    -1033 
     -39      327      142     -757    -2410    -4418    -6533    -8892 
  -11484   -13934   -16142   -18279   -20104   -21579   -23049   -24491 
  -25791   -26894   -27790   -28553   -28896   -28561   -27631   -26166 
  -24203   -21761   -18789   -15366   -11940    -8812    -5717    -2643 
     261     3237     6384     9534    12471    14887    16706    18259 
   19793    21275    22724    24053    24994    25616    26112    26502 
   26921    27472    28034    28409    28471    28179    27546    26786 
   26070    25519    25375    25543    25916    26579    27289    27924 
   28506    28686    28249    27125    25104    22462    19731    16981 
   14316    12065    10243     8910     8196     7681     7120     6651 
    5959     4941     3972     2966     1726      421     -946    -2373 
   -3504    -4142    -4333    -4240    -4438    -5418    -7098    -9370 
  -12049   -14512   -16225   -17006   -16769   -15591   -13774   -11584 
   -9230    -6892    -4661    -2946    -2408    -3431    -5925    -9041 
  -11692   -13533   -14785   -15948   -17770   -20745   -24748   -29125 
  -32952   -35540   -36855   -37151   -36929   -37098   -37991   -38982 
  -39416   -39139   -38069   -36177   -33975   -32016   -30476   -29296 
  -28306   -27333   -26360   -25960   -26522   -27778   -29368   -30597 
  -30737   -29426   -26452   -22358   -18535   -15928   -14308   -13227 
  -12760   -12679   -12269   -11521   -11005   -10763   -11000   -12291 
  -14278   -16284   -18056   -19215   -19368   -18385   -16403   -13828 
  -11461    -9911    -8918    -8175    -7606    -6765    -5154    -2664 
     320     3161     5288     6196     5871     4925     4197     4595 
    6411     9019    11835    14557    16642    17588    17374    16384 
   15309    14757    14645    14717    15051    15382    14915    13092 
   10022     6393     3106      530    -1461    -2813    -3655    -4422 
   -5342    -6420    -7278    -7435    -6976    -6268    -5647    -5820 
   -7370    -9805   -12352   -15016   -17761   -20069   -21970   -23968 
  -26053   -27937   -29520   -30665   -31478   -32309   -32985   -33132 
  -32533   -30854   -28046   -24572   -20912   -17221   -13404    -9508 
   -5978    -3277    -1222      783     2906     5115     7644    10572 
   13633    16163    17526    17928    17805    17010    15290    13083 
   11318    10449    10223    10446    11091    11628    11397    10310 
    8652     7020     6094     5936     6363     7313     8258     8687 
    8723     8689     8879     9571    10801    11880    11920    10806 
    8776     6159     3567     1410     -319    -1738    -2977    -4309 
   -5849    -7357    -8766   -10173   -11360   -11952   -11612   -10215 
   -8039    -5433    -2824     -760      626     1450     1792     1729 
    1123      -53    -1559    -3368    -5407    -7209    -8307    -8438 
   -7780    -7114    -6987    -7393    -8369    -9608   -10341   -10248 
   -9179    -6835    -3544       -5     3477     6556     8496     9027 
    8295     6247     3383      573    -2021    -4612    -7356   -10633 
  -14575   -18506   -21922   -24844   -26883   -27850   -28027   -27337 
  -26007   -24195   -21308   -17487   -13337    -8912    -4505     -510 
    2887     5389     7022     8165     9218    10487    11549    11696 
   11602    12211    12838    12991    13247    13422    13151    12900 
   12758    12325    11595    10700     9871     9487     9465     9699 
   10305    10993    11659    12607    13771    14923    15981    17015 
   17939    18356    18471    18751    19010    19112    19090    18876 
   18337    17022    14899    12808    11388    10665    10725    11626 
   12830    13725    14251    14634    15172    16173    17864    20286 
   23026    25630    28070    30287    32007    33089    33575    33684 
   33443    32422    30393    27486    23792    19523    15063    10827 
    7274     4723     3104     2130     1619     1494     1786     2725 
    4550     7163    10193    13219    15657    17062    17403    16793 
   15414    13345    10601     7383     3831       54    -3721    -7385 
  -10948   -14478   -18010   -21296   -23825   -25205   -25312   -23994 
