Origin Time       2011/03/11 14:46:00
Lat.              38.103
Long.             142.860
Depth. (km)       24
Mag.              9.0
Station Code      AOM025
Station Lat.      41.1797
Station Long.     140.4805
Station Height(m) 8
Record Time       2011/03/11 14:47:37
Sampling Freq(Hz) 100Hz
Duration Time(s)  300
Dir.              U-D
Scale Factor      3920(gal)/6182761
Max. Acc. (gal)   12.684
Last Correction   2011/03/11 14:47:22
Memo.             
[...]
  -30270   -30697   -31009   -31171   -31224   -31185   -31106   -30990 
  -30683   -30121   -29402   -28594   -27752   -27090   -26766   -26608 
  -26349   -25853   -25076   -24107   -23039   -21792   -20338   -18895 
  -17619   -16488   -15677   -15509   -15932   -16596   -17364   -18255 
  -19108   -19712   -20011   -20071   -20006   -19885   -19744   -19665 
  -19611   -19497   -19495   -19731   -19925   -19971   -20130   -20350 
  -20541   -20874   -21180   -21237   -21185   -21170   -21322   -21819 
  -22648   -23511   -24179   -24754   -25370   -25894   -26157   -26198 
  -26157   -26086   -25934   -25717   -25574   -25570   -25657   -25741 
  -25717   -25584   -25416   -25196   -24847   -24407   -24039   -23884 
  -23961   -24254   -24728   -25319   -25977   -26592   -27071   -27518 
  -27983   -28288   -28342   -28217   -27958   -27671   -27582   -27817 
  -28211   -28501   -28632   -28685   -28616   -28276   -27627   -26820 
  -26059   -25399   -24843   -24473   -24300   -24263   -24366   -24518 
  -24505   -24227   -23723   -23057   -22263   -21328   -20308   -19389 
  -18724   -18200   -17559   -16855   -16330   -15899   -15392   -14818 
  -14114   -13217   -12183   -11045   -10044    -9607    -9692    -9849 
   -9947    -9995    -9828    -9556    -9514    -9841   -10458   -11127 
  -11664   -12079   -12372   -12630   -13063   -13675   -14360   -15160 
  -16084   -17059   -18148   -19394   -20610   -21652   -22567   -23349 
  -23998   -24675   -25505   -26434   -27337   -28087   -28676   -29181 
  -29552   -29674   -29510   -29152   -28726   -28268   -27919   -27906 
  -28231   -28802   -29603   -30589   -31594   -32312   -32555   -32442 
  -32130   -31690   -31175   -30650   -30288   -30256   -30525   -30966 
  -31466   -31913   -32227   -32462   -32721   -32990   -33259   -33615 
  -34094   -34622   -35030   -35172   -35110   -34949   -34619   -34089 
  -33498   -32929   -32395   -31963   -31629   -31268   -30796   -30123 
  -29173   -28077   -27104   -26538   -26508   -26858   -27306   -27631 
  -27753   -27824   -28030   -28389   -28830   -29215   -29297   -28929 
  -28237   -27443   -26716   -26243   -26165   -26342   -26416   -26194 
  -25807   -25415   -24933   -24349   -23868   -23406   -22764   -22133 
  -21671   -21278   -20954   -20788   -20760   -20712   -20570   -20509 
  -20566   -20388   -19826   -19270   -19032   -19105   -19382   -19694 
  -20017   -20442   -20909   -21368   -21845   -22367   -23052   -23847 
  -24474   -24962   -25475   -25732   -25490   -24984   -24394   -23753 
  -23241   -23062   -23238   -23562   -23855   -24084   -24157   -23968 
  -23416   -22485   -21496   -20770   -20329   -20103   -20049   -20320 
  -20909   -21454   -21903   -22297   -22334   -21994   -21585   -21108 
  -20460   -19934   -19854   -20179   -20814   -21681   -22588   -23387 
  -24035   -24487   -24759   -24975   -25271   -25723   -26239   -26550 
  -26607   -26704   -27073   -27713   -28537   -29526   -30714   -31762 
  -32086   -31826   -31575   -31326   -30889   -30423   -30164   -30232 
  -30433   -30632   -31111   -31900   -32735   -33455   -33826   -33784 
  -33366   -32397   -31155   -30193   -29372   -28321   -27207   -26228 
  -25279   -24442   -23795   -23202   -22657   -22183   -21731   -21258 
  -20729   -20151   -19408   -18480   -17723   -17322   -17018   -16715 
  -16508   -16324   -16167   -16130   -16154   -16246   -16518   -16992 
  -17612   -18236   -18711   -19074   -19513   -20002   -20247   -20333 
  -20663   -21072   -21153   -20975   -20859   -20893   -20730   -20186 
  -19614   -19278   -19184   -19291   -19572   -19999   -20405   -20644 
  -20659   -20498   -20326   -20228   -20364   -20864   -21466   -21955 
  -22429   -22878   -23292   -23825   -24336   -24440   -24017   -23056 
  -21587   -19984   -18777   -18244   -18328   -18799   -19520   -20396 
  -21231   -21869   -22254   -22436   -22586   -22761   -22904   -23209 
  -23841   -24477   -24961   -25642   -26701   -27947   -29162   -30196 
  -30982   -31607   -32311   -33235   -34334   -35615   -37076   -38505 
  -39750   -40771   -41363   -41463   -41421   -41512   -41706   -41974 
  -42209   -42248   -42172   -42072   -41882   -41616   -41374   -41194 
  -40962   -40515   -39907   -39292   -38672   -38033   -37502   -37157 
  -36805   -36276   -35739   -35204   -34333   -33178   -32050   -30961 
  -30001   -29454   -29360   -29470   -29508   -29395   -29193   -28931 
  -28646   -28454   -28410   -28420   -28377   -28206   -27846   -27361 
  -26853   -26349   -25912   -25616   -25418   -25244   -25057   -24811 
  -24607   -24629   -24651   -24386   -24131   -24034   -23718   -22992 
  -21951   -20806   -19720   -18655   -17604   -16579   -15522   -14489 
  -13626   -12939   -12331   -11818   -11478   -11218   -10787   -10133 
   -9533    -9253    -9286    -9486    -9839   -10402   -11087   -11827 
  -12705   -13688   -14613   -15440   -16229   -17066   -17982   -18874 
  -19628   -20195   -20537   -20670   -20723   -20819   -21021   -21424 
  -22037   -22651   -23124   -23506   -23837   -24163   -24623   -25318 
  -26251   -27277   -28106   -28589   -28893   -29295   -29934   -30756 
  -31700   -32714   -33595   -34197   -34608   -34933   -35170   -35307 
  -35358   -35326   -35199   -34961   -34588   -34070   -33543   -33191 
  -32960   -32724   -32569   -32545   -32471   -32304   -32258   -32283 
  -32141   -31891   -31562   -31179   -31106   -31376   -31559   -31566 
  -31580   -31586   -31471   -31267   -31117   -30941   -30561   -30017 
  -29301   -28336   -27190   -25939   -24716   -23693   -22901   -22331 
  -22004   -21932   -22097   -22437   -22860   -23273   -23495   -23314 
  -22773   -22181   -21838   -21763   -21683   -21417   -20996   -20477 
  -19923   -19368   -18813   -18360   -18056   -17728   -17311   -16977 
  -16794   -16666   -16543   -16404   -16255   -16144   -16101   -16189 
  -16551   -17185   -17692   -17779   -17813   -18101   -18399   -18647 
  -19058   -19534   -19905   -20223   -20545   -20849   -21010   -20872 
  -20513   -20176   -20080   -20349   -20940   -21744   -22678   -23656 
  -24598   -25411   -26046   -26594   -27161   -27706   -28155   -28560 
  -28938   -29173   -29205   -29100   -28940   -28729   -28415   -27972 
  -27424   -26797   -26105   -25321   -24446   -23661   -23169   -22923 
  -22803   -22991   -23681   -24613   -25508   -26336   -26916   -27129 
  -27104   -26934   -26749   -26752   -26941   -27183   -27448   -27749 
  -28011   -28131   -28093   -27963   -27803   -27736   -27883   -28176 
  -28477   -28707   -28792   -28656   -28231   -27508   -26616   -25625 
  -24506   -23428   -22662   -22237   -22105   -22294   -22687   -23147 
  -23782   -24512   -24937   -25033   -25117   -25199   -25119   -24876 
  -24587   -24399   -24380   -24470   -24554   -24680   -25016   -25518 
  -25911   -25966   -25731   -25402   -25029   -24640   -24343   -24111 
  -23823   -23495   -23197   -23014   -23068   -23309   -23541   -23628 
  -23493   -23131   -22573   -21919   -21406   -21132   -20953   -20821 
  -20842   -20973   -21020   -20964   -20933   -20841   -20542   -20069 
  -19492   -18966   -18686   -18677   -18837   -18993   -19049   -19020 
  -18897   -18732   -18602   -18456   -18267   -18180   -18260   -18369 
  -18455   -18589   -18764   -18843   -18688   -18338   -17988   -17748 
  -17547   -17309   -17109   -17108   -17405   -17930   -18492   -18931 
  -19151   -19147   -19073   -19070   -19167   -19423   -19913   -20562 
  -21252   -22040   -22955   -23858   -24684   -25472   -26176   -26689 
  -26973   -27059   -27029   -27017   -27141   -27400   -27648   -27657 
  -27368   -26914   -26337   -25723   -25289   -25046   -24936   -24989 
  -25014   -24751   -24225   -23559   -22852   -22265   -21908   -21747 
  -21665   -21585   -21537   -21478   -21290   -21113   -21199   -21541 
  -21974   -22307   -22419   -22390   -22247   -21990   -21885   -22085 
  -22528   -23287   -24274   -25212   -25975   -26408   -26498   -26533 
  -26708   -27063   -27522   -27882   -27965   -27717   -27262   -26806 
  -26384   -25899   -25218   -24275   -23236   -22347   -21658   -21103 
  -20647   -20246   -19813   -19260   -18641   -18111   -17638   -17129 
  -16688   -16369   -16223   -16502   -17330   -18583   -20013   -21273 
  -22184   -22826   -23263   -23633   -24179   -25005   -26052   -27168 
  -28244   -29297   -30262   -31012   -31538   -31920   -32226   -32443 
  -32554   -32610   -32625   -32628   -32656   -32570   -32217   -31657 
  -31017   -30413   -29977   -29737   -29579   -29339   -28811   -27930 
  -26835   -25733   -24830   -24063   -23130   -22044   -21062   -20311 
  -19848   -19640   -19587   -19490   -19140   -18649   -18066   -17354 
  -16866   -16641   -16363   -16170   -16109   -15939   -15806   -16116 
  -17053   -18315   -19467   -20526   -21671   -22799   -23730   -24360 
  -24605   -24501   -24213   -23880   -23571   -23317   -23062   -22682 
  -22039   -21007   -19664   -18334   -17267   -16547   -16206   -16228 
  -16519   -16916   -17264   -17546   -17822   -18073   -18393   -18908 
  -19489   -20107   -20808   -21370   -21590   -21386   -20785   -20116 
  -19713   -19630   -19894   -20545   -21474   -22586   -23847   -25138 
  -26308   -27292   -28101   -28716   -29127   -29443   -29740   -29982 
  -30215   -30527   -30925   -31377   -31823   -32294   -32908   -33581 
  -34059   -34210   -34084   -33791   -33427   -33085   -32838   -32630 
  -32256   -31603   -30797   -30090   -29721   -29810   -30324   -31099 
  -31785   -31993   -31594   -30726   -29651   -28514   -27282   -26128 
  -25291   -24651   -24028   -23311   -22381   -21364   -20447   -19638 
  -18995   -18584   -18308   -18077   -17806   -17357   -16774   -16252 
  -15888   -15665   -15470   -15205   -14895   -14606   -14345   -14109 
  -13992   -14092   -14343   -14639   -14990   -15405   -15871   -16361 
  -16720   -16816   -16749   -16694   -16729   -16889   -17222   -17792 
  -18690   -19970   -21472   -22929   -24219   -25297   -26119   -26750 
  -27307   -27795   -28150   -28338   -28259   -27785   -27059   -26337 
  -25616   -24842   -24026   -23063   -21910   -20640   -19364   -18265 
  -17465   -17011   -16890   -16927   -17003   -17183   -17411   -17558 
  -17672   -17823   -18039   -18436   -19096   -19969   -20913   -21776 
  -22558   -23355   -24205   -25114   -25994   -26707   -27235   -27586 
  -27781   -27956   -28193   -28465   -28664   -28529   -27983   -27246 
  -26459   -25676   -24928   -24145   -23284   -22361   -21463   -20729 
  -20131   -19556   -19043   -18681   -18429   -18171   -17845   -17509 
  -17299   -17236   -17237   -17362   -17719   -18181   -18537   -18731 
  -18840   -18979   -19192   -19480   -19908   -20516   -21205   -21821 
  -22305   -22654   -22898   -23159   -23555   -24079   -24667   -25273 
  -25902   -26542   -27094   -27527   -27964   -28463   -28955   -29435 
  -29928   -30307   -30364   -30062   -29558   -29047   -28684   -28490 
  -28365   -28284   -28277   -28335   -28396   -28337   -28144   -27901 
  -27524   -26991   -26487   -26084   -25864   -25910   -26128   -26621 
  -27401   -28104   -28639   -29119   -29503   -29724   -29787   -29890 
  -30210   -30709   -31316   -31868   -32241   -32521   -32674   -32592 
  -32363   -32093   -31771   -31357   -30817   -30204   -29670   -29290 
  -29056   -29008   -29154   -29467   -29944   -30512   -31011   -31292 
  -31309   -31180   -31018   -30829   -30631   -30389   -30043   -29757 
  -29809   -30328   -31290   -32574   -33988   -35274   -36158   -36504 
  -36424   -36191   -36023   -35988   -36099   -36353   -36675   -36896 
  -36812   -36336   -35554   -34551   -33292   -31837   -30434   -29248 
  -28299   -27565   -26925   -26236   -25477   -24700   -23949   -23220 
  -22546   -22063   -21876   -21998   -22411   -23068   -23811   -24380 
  -24691   -24946   -25324   -25829   -26233   -26183   -25658   -24974 
  -24389   -24071   -24129   -24600   -25461   -26482   -27331   -27832 
  -27978   -27915   -27858   -27951   -28256   -28708   -29095   -29191 
  -28839   -28087   -27217   -26490   -26036   -25880   -25892   -25817 
  -25490   -24976   -24412   -23866   -23365   -22893   -22305   -21525 
  -20816   -20413   -20213   -20164   -20311   -20467   -20320   -19732 
  -18854   -17939   -17132   -16504   -16049   -15644   -15172   -14643 
  -14190   -13968   -14049   -14431   -15097   -16003   -17071   -18190 
  -19240   -20221   -21287   -22557   -23996   -25470   -26796   -27845 
  -28592   -28975   -29011   -28973   -29042   -29117   -29142   -29102 
  -28898   -28560   -28185   -27653   -26774   -25623   -24465   -23442 
  -22547   -21759   -21153   -20906   -21055   -21395   -21774   -22235 
  -22794   -23269   -23479   -23542   -23725   -24065   -24405   -24692 
  -25007   -25306   -25463   -25537   -25667   -25848   -25967   -25931 
  -25733   -25377   -24820   -24063   -23114   -21939   -20637   -19430 
  -18414   -17572   -16884   -16255   -15594   -14946   -14460   -14299 
  -14523   -15067   -15818   -16652   -17512   -18483   -19652   -20979 
  -22341   -23621   -24753   -25664   -26267   -26598   -26882   -27357 
  -28072   -28933   -29857   -30775   -31483   -31673   -31377   -31036 
  -30944   -31053   -31299   -31669   -32027   -32282   -32451   -32488 
  -32398   -32237   -32068   -31997   -32028   -32123   -32355   -32770 
  -33307   -33904   -34578   -35344   -36133   -36882   -37578   -38205 
  -38736   -39132   -39392   -39642   -40018   -40535   -41161   -41885 
  -42636   -43294   -43802   -44146   -44314   -44333   -44213   -43850 
  -43207   -42532   -42086   -41882   -41859   -41991   -42201   -42320 
  -42196   -41821   -41283   -40675   -40047   -39354   -38566   -37747 
  -36942   -36130   -35276   -34387   -33453   -32455   -31467   -30570 
  -29719   -28867   -28072   -27364   -26696   -26085   -25582   -25193 
  -24918   -24713   -24563   -24567   -24739   -24989   -25348   -25843 
  -26263   -26410   -26328   -26150   -25988   -25900   -25844   -25763 
  -25615   -25306   -24765   -24034   -23194   -22246   -21224   -20282 
  -19495   -18843   -18373   -18076   -17826   -17499   -17058   -16531 
  -15885   -15131   -14484   -14068   -13751   -13447   -13204   -12969 
  -12646   -12318   -12135   -12115   -12156   -12151   -12116   -12115 
  -12177   -12388   -12785   -13250   -13691   -14058   -14332   -14627 
  -15051   -15589   -16151   -16596   -16884   -17099   -17269   -17399 
  -17545   -17721   -17891   -18023   -18077   -18049   -18060   -18250 
  -18543   -18726   -18736   -18656   -18566   -18535   -18593   -18681 
  -18750   -18839   -18946   -18962   -18862   -18794   -18837   -18864 
  -18763   -18552   -18284   -18072   -18044   -18207   -18543   -19010 
  -19458   -19834   -20266   -20808   -21369   -21839   -22207   -22536 
  -22856   -23147   -23356   -23487   -23701   -24149   -24833   -25752 
  -26918   -28240   -29630   -31080   -32557   -33889   -34883   -35541 
  -35948   -36085   -35996   -35835   -35689   -35536   -35340   -35156 
  -34989   -34644   -34007   -33213   -32358   -31505   -30861   -30502 
  -30237   -29879   -29407   -28871   -28263   -27572   -26882   -26185 
  -25306   -24109   -22737   -21521   -20532   -19621   -18818   -18176 
  -17535   -16776   -15939   -15161   -14650   -14506   -14658   -15035 
  -15523   -15922   -16131   -16181   -16086   -15842   -15497   -15121 
  -14768   -14488   -14322   -14272   -14242   -14141   -13961   -13631 
  -13156   -12702   -12332   -12055   -11870   -11714   -11684   -11913 
  -12316   -12841   -13568   -14453   -15296   -15963   -16525   -17214 
  -18176   -19361   -20716   -22216   -23703   -24951   -25929   -26836 
  -27808   -28817   -29888   -31014   -31943   -32573   -33154   -33795 
  -34395   -34920   -35407   -35864   -36181   -36300   -36389   -36620 
  -36993   -37392   -37673   -37848   -38006   -38045   -37849   -37561 
  -37351   -37111   -36666   -36004   -35151   -34135   -33045   -31968 
  -30969   -30077   -29248   -28452   -27710   -27052   -26515   -26094 
  -25689   -25136   -24331   -23327   -22296   -21410   -20826   -20696 
  -21078   -21810   -22617   -23380   -24070   -24559   -24756   -24771 
  -24787   -24840   -24768   -24435   -23920   -23399   -22984   -22687 
  -22452   -22227   -22025   -21849   -21695   -21608   -21652   -21876 
  -22255   -22701   -23163   -23649   -24220   -24918   -25687   -26415 
  -27067   -27691   -28255   -28663   -28926   -29078   -29087   -29034 
  -29138   -29468   -29878   -30281   -30763   -31328   -31746   -31902 
  -32054   -32465   -33151   -33953   -34583   -34833   -34640   -34003 
  -33098   -32159   -31281   -30516   -29896   -29346   -28796   -28253 
  -27662   -26975   -26305   -25739   -25241   -24829   -24534   -24329 
  -24180   -24026   -23822   -23706   -23772   -23833   -23750   -23640 
  -23550   -23456   -23456   -23556   -23607   -23535   -23329   -23063 
  -22897   -22885   -23032   -23355   -23784   -24269   -24780   -25196 
  -25469   -25661   -25740   -25675   -25566   -25466   -25278   -24931 
  -24497   -24041   -23544   -23049   -22640   -22262   -21803   -21275 
  -20752   -20279   -19932   -19815   -19913   -20107   -20317   -20475 
  -20521   -20565   -20736   -21033   -21532   -22343   -23288   -24055 
  -24573   -24894   -24925   -24607   -24111   -23774   -23860   -24341 
  -25097   -26061   -26954   -27466   -27593   -27472   -27244   -27131 
  -27252   -27485   -27692   -27839   -27876   -27791   -27644   -27492 
  -27385   -27293   -27054   -26613   -26135   -25750   -25385   -24942 
  -24445   -23886   -23200   -22463   -21896   -21588   -21480   -21503 
  -21504   -21335   -21045   -20707   -20291   -19771   -19184   -18615 
  -18132   -17758   -17529   -17460   -17395   -17155   -16820   -16530 
  -16326   -16273   -16388   -16559   -16689   -16753   -16801   -16881 
  -16941   -16957   -16968   -16964   -16990   -17133   -17384   -17759 
  -18270   -18788   -19146   -19272   -19220   -19131   -19120   -19242 
  -19535   -20019   -20597   -21042   -21271   -21422   -21637   -21983 
  -22435   -22894   -23366   -23934   -24572   -25232   -25991   -26816 
  -27547   -28159   -28617   -28793   -28795   -28891   -29161   -29513 
  -29832   -30045   -30047   -29708   -29056   -28286   -27619   -27170 
  -26909   -26818   -26952   -27222   -27398   -27426   -27414   -27416 
  -27450   -27510   -27510   -27386   -27114   -26620   -25923   -25272 
  -24952   -25010   -25281   -25608   -25898   -26043   -25967   -25772 
  -25683   -25730   -25704   -25476   -25135   -24813   -24607   -24594 
  -24806   -25147   -25438   -25605   -25690   -25727   -25755   -25772 
  -25648   -25322   -24938   -24597   -24271   -24055   -24037   -24077 
  -24097   -24135   -24129   -24042   -23884   -23661   -23440   -23305 
  -23349   -23625   -24076   -24657   -25364   -26106   -26783   -27408 
  -28046   -28757   -29522   -30185   -30652   -31073   -31626   -32280 
  -32934   -33668   -34504   -35005   -34918   -34575   -34119   -33557 
  -32983   -32333   -31683   -31027   -30030   -28797   -27831   -27136 
  -26432   -25661   -24811   -23911   -23010   -22012   -20973   -20173 
  -19648   -19215   -18836   -18545   -18368   -18347   -18383   -18322 
  -18189   -18099   -18063   -18073   -18174   -18341   -18440   -18275 
  -17696   -16809   -15922   -15234   -14801   -14644   -14701   -14816 
