Origin Time       2011/03/11 14:46:00
Lat.              38.103
Long.             142.860
Depth. (km)       24
Mag.              9.0
Station Code      AOM006
Station Lat.      41.1976
Station Long.     140.9979
Station Height(m) 1
Record Time       2011/03/11 14:47:39
Sampling Freq(Hz) 100Hz
Duration Time(s)  291
Dir.              U-D
Scale Factor      3920(gal)/6182761
Max. Acc. (gal)   28.559
Last Correction   2011/03/11 14:47:24
Memo.             
[...]
   24356    22738    20612    17165    12736    10317    12747    17214 
   18330    16245    15364    17210    19264    19118    17897    17828 
   17625    15906    15239    16752    17906    17580    16674    15975 
   15518    14134    12027    11476    11985    10575     7789     6675 
    7434     9161    11961    13275    10760     8257     9358    10649 
    8606     5813     5618     6788     6407     3814      641     -966 
    -966    -1309    -1956    -1325     -165      540     1943     4550 
    7771    11204    14082    16260    17957    17506    14349    11816 
   11251     9632     6734     5861     6719     5626     1743    -1609 
   -1489      351     -245    -3201    -4273    -1664     2562     6245 
    8433     9854    13012    18142    21770    22627    23270    24289 
   24361    24932    27366    29176    28981    29495    31893    33601 
   33678    34074    34206    31192    26331    23770    22896    19970 
   15658    12842    10700     8162     6887     6939     6322     4695 
    3061     2068     2408     3956     5032     5549     7669    10702 
   10743     7584     6161     8073     8351     5335     4326     6797 
    7764     6007     4969     4467     2242     -106    -1029    -2098 
   -3565    -4625    -6008    -7712    -8912    -9552    -8992    -6322 
   -1907     3249     8098    12143    15280    15741    12601    10016 
   11442    13367    12018     9579     8510     7222     5382     5665 
    7034     4970     -450    -4485    -4323    -1777    -1271    -4146 
   -5236     -155     7373    12302    15786    19502    21320    21570 
   24451    29852    32620    31760    31902    34291    34541    31491 
   29535    29441    26442    19633    14323    13877    16142    17644 
   16935    15091    13833    12691    10488     8759     9777    12208 
   13093    13017    14114    15182    14095    12240    12418    14140 
   14016    10971     8316     8117     7475     4413     1588     2176 
    6464    10473    10066     7895     8041     8711     7868     6358 
    4505     3680     5494     7317     7006     7139     8270     8040 
    7336     7444     7096     6131     4587     2184     1197     2152 
    1729      146      933     3518     4727     4394     5064     7937 
   11167    13322    15079    15844    14205    11878    12346    16308 
   20859    22776    21520    18553    15576    14208    14160    12651 
    9083     6911     8337    10860    10964     8785     6623     5744 
    7571    12890    18433    20067    18081    15425    13326    10815 
    7631     5653     5852     5554     2019    -2454    -3846    -2998 
   -3244    -4561    -4297    -1818      301     1343     4333     9602 
   14350    18092    20227    19461    18543    19357    19318    19129 
   22135    26267    27593    26034    21930    14931     6976       98 
   -5907   -10918   -13984   -14806   -13164   -10070    -8447    -8935 
   -8516    -5120     -324     2951     4447     6433     9198    11233 
   12585    12990    11293     8904     7919     8212    10266    14633 
   18604    19985    20889    23221    24307    21462    18332    20032 
   23949    23633    20025    20107    24915    28105    26840    24893 
   24604    23727    20767    16948    13215    10210     9209    10734 
   13589    15845    17994    21984    25380    24390    21243    19906 
   20037    20209    20807    22577    25642    28818    30086    29198 
   27662    26049    23782    20366    15897    11768     8806     5337 
    1636     1477     4238     3687    -2044    -7766    -9639    -9801 
  -11813   -15426   -17601   -16632   -12864    -6589     1593     9295 
   14514    18084    21355    22991    21221    18253    18294    21469 
   22585    16854     6508    -2023    -7310   -11975   -15213   -15323 
  -14675   -14979   -13928   -10186    -5573    -1695      996     2506 
    4388     8037    11766    13841    14301    11388     4505    -1015 
    -715     2485     3957     4292     8239    18011    27907    29953 
   25763    23808    25510    26395    27050    29569    30307    27009 
   24132    24531    25233    23909    21316    19052    19237    21053 
   19433    13132     7141     3986     1757      599     1686     2293 
     523      579     5877    11507    11329     8779    10350    13100 
   10549     4592     2012     4840     9236    11616    13160    15914 
   16987    13099     7811     5932     5338     1939    -2487    -2660 
    2655     8401    10112     9696     9873     9108     6846     5796 
    5800     3448      127     2296    10134    15582    15572    15504 
   17805    18764    16750    14607    14558    16017    17390    17926 
   17545    15778    13341    11754    10235     8342     7434     6629 
    5439     6061     7304     6595     5977     6158     4586     2626 
    2526     2257      987     1028     3499     7811    11566    11434 
    8954     9395    13090    16196    17250    16700    15384    15168 
   15952    15259    14199    16601    21030    22735    22325    23739 
   25384    21879    14473    10150    10139     9941     9033     9790 
    9823     5312     -579    -2478    -3081    -7577   -12875   -13876 
  -12455   -11263    -8603    -4078     -117     2665     5078     6517 
    6840     7290     7557     7333     8318     9410     8110     6862 
    6894     4016     -963    -1756     1289     3064     3801     6102 
    8404     8300     7016     7452    10253    13349    15384    17277 
   19591    21529    22691    23125    22932    23577    26738    31165 
   34069    34800    33982    31179    26747    23023    20546    17647 
   14322    11062     8235     8369    10853    10573     8357    10576 
   17921    24839    26750    24530    23037    23947    24142    22590 
   21637    22286    24235    26513    25998    21372    16152    13179 
   11118     8022     3924      142    -1154     2231     9643    16598 
   19288    19462    21240    24105    25273    25250    23898    19848 
   16364    15985    14997    11445     7859     5769     5543     6040 
    4720     3613     6737    10811    11210    11681    16179    20808 
   20904    17817    16441    18810    21893    22880    22084    19398 
   14867    11756    11666    11126     8337     5056     1598     -956 
      31     3110     5750     8407     9332     6498     4099     4962 
    4774     3092     5002     8315     7053     2794     -967    -3349 
   -1749     3358     6151     5992     7929    12202    14697    13628 
    9685     4633      368    -3353    -7821   -11930   -12602    -9565 
   -7290    -8375    -8698    -5428    -3566    -6809    -9818    -7640 
   -3851    -2042     1117     8443    16243    20120    21360    23944 
   28118    30875    31244    30498    28379    23950    18664    14507 
   11145     7740     5413     6035     9643    13516    14417    12495 
   10157     7312     2985     -625    -1191      425     2589     4630 
    6736     9645    11379     8574     4362     4726     7880     8772 
    7487     6217     6491     9184    11834    11755    10837    10045 
    7280     4704     5786     7560     6910     6244     7315     9016 
   11050    13066    13792    14036    16080    19220    20373    18950 
   16403    12996     9780     8719     8682     8490     9942    11314 
    7749      499    -5364    -8677    -9964    -9383    -8990    -9901 
  -10064    -8341    -6057    -3855     -884     2460     4062     4140 
    6323    11999    17652    19651    18187    16522    16938    17203 
   14860    12711    13957    16885    18795    19957    21462    22003 
   19589    16010    14125    12390     9038     5821     3080     -176 
   -2160    -2498    -4586    -7997    -7979    -4522    -1306     2029 
    7563    14061    19977    25587    29575    29771    27292    24990 
   23981    23786    23067    20649    16797    11609     4715    -1282 
   -3007    -1735       -4     2748     6478     9141    10598    12187 
   13615    14525    16067    18137    19379    20040    20381    20112 
   20685    21476    18879    14252    11977    10435     6615     3135 
    2324     1940      370    -1035     -859      842     2642     3406 
    4544     7683    10418     9275     6090     5645     8056     9299 
    7274     2848    -1743    -3755    -2801    -1342     -570      487 
    2086     3699     5233     6287     6330     6313     7371     7951 
    5491      378    -4409    -6410    -5676    -4866    -6951   -11550 
  -14407   -13371   -11811   -11667    -9937    -5819    -2605    -1298 
    -794    -2035    -4100    -2469     2674     5809     5966     7075 
   10347    13914    15972    15586    14405    15545    18811    21406 
   22707    24103    26080    27974    28627    26829    22939    19113 
   16521    14566    12924    11363     9782     9273     9585     9497 
   10597    13501    14785    13508    12583    12705    12755    12257 
    9733     5471     3980     6686     8944     8786     8432     6671 
    1593    -2487    -1337     1667     1393    -1481    -2546      155 
    3575     4000     3182     5613    10897    15246    18368    21931 
   24450    24455    24143    24301    21921    16545    11809     9812 
    9749     9672     7192     2614     -542    -1175    -1926    -5064 
  -10566   -14958   -13390    -7215    -3150    -2721    -1309     2860 
    6522     8078    10533    14744    16804    16337    17037    17811 
   14864     9489     5971     6249     8728     9921     9243    10265 
   13628    15245    14170    13741    14960    15189    12360     8551 
    7799     8940     7418     5358     7667    10757     8959     5067 
    4027     4887     5082     5097     5788     6845     8340    10421 
   12683    13753    11895     8820     8665    10744    10749     8979 
    9318    12868    17789    21272    21074    18597    17625    18162 
   16930    15166    17539    22820    25527    25272    25669    26855 
   26452    25094    24268    23659    24917    28563    28827    23215 
   18442    18656    20803    22788    23777    21884    18682    17084 
   15160    10864     6482     2724    -1897    -5026    -3996    -1629 
    -424     2251     8206    14892    19597    21334    20430    19673 
   21020    22084    20921    19193    18320    18648    20716    23054 
   23281    22037    20900    19865    19165    17994    14497    10637 
    9142     7616     4372     2740     4202     5589     5101     5278 
    7824     9907     9527     8638     7877     5979     3559     1117 
   -1798    -3964    -4910    -6339    -8382   -10061   -11572   -12220 
  -10950    -9232    -8179    -5613     -272     5505     9595    11902 
   12416    11257    10066    11192    14734    17751    18594    20002 
   24292    28116    26715    21272    17737    18468    19267    17441 
   16400    18357    20314    19720    18215    18333    19107    17468 
   13717    11483    11541    11187     9690     8253     6398     3172 
     -77    -1109     -189      928     2795     6499    10089    11972 
   13684    15353    14764    12468    10990    10704    11550    13974 
   16506    18204    20768    24287    26696    27730    27960    27507 
   27851    29535    30360    29950    29592    27159    21273    16353 
   15085    13899    10931     8609     7627     7367     8951    12102 
   14454    15357    15740    15985    16127    15826    14339    12364 
   11782    12270    11848    10751    10397    10531    11028    12583 
   14043    13849    13271    13705    13492    10614     5068    -2345 
   -9947   -15030   -16688   -16604   -15671   -12906    -8237    -3444 
    -411      569     1359     3087     3998     3119     1404    -1000 
   -2864    -1169     3459     5914     3725      369     -486     -607 
   -4473   -12133   -18341   -19894   -18971   -17548   -14390    -9190 
   -4135      227     5866    12598    17417    19776    22833    28002 
   32492    34518    36079    38243    39420    38242    33866    26942 
   20620    15772    10016     4246      892    -1991    -4927    -4367 
    -842     2972     9150    18357    25205    26634    25761    24714 
   22522    20042    19532    20979    22469    22795    23070    24049 
   23256    19756    17318    18404    21283    23597    24140    23758 
   24842    27493    29443    30162    30993    31858    30793    27441 
   24729    24196    22611    17459    11457     8221     8054     9058 
    9362     8412     6633     4575     3358     3540     3347     1721 
    1171     3949     9035    15075    22006    28579    32629    34767 
   37182    39052    37907    33518    27182    19809    12273     6011 
    1923     -422    -1046        9       89    -2409    -3921    -2449 
   -2140    -4275    -4169    -1173      869     1889     3752     5917 
    7552     8344     8123     7995     9224    11356    13182    14150 
   14110    13235    12095    11556    12692    15022    16900    18267 
   19088    18738    18448    18760    17891    15658    14246    14841 
   15303    12378     7413     5169     5776     5674     5030     5966 
    8022    10623    13683    15397    15272    15499    16439    17016 
   18107    19521    18906    16977    16835    18390    19731    20852 
   22155    22908    22741    22571    22829    21874    18857    16517 
   17025    17755    15615    12570    12563    15070    16459    15877 
   14820    14072    14335    16041    18063    18761    17875    16787 
   16792    18013    19736    21234    23294    27156    30758    29840 
   23799    15952     7426    -3334   -15029   -24292   -30398   -33859 
  -34651   -34457   -34866   -33922   -30116   -25935   -22779   -18604 
  -12989    -7623    -2909     1061     4591    10105    18400    25792 
   29098    30312    33132    36732    37188    33943    30267    28106 
   25639    21034    16088    12640    10163     9858    13708    18884 
   20390    18514    17776    19375    20447    19927    19000    16535 
   10907     5572     4406     4025      -54    -5234    -7328    -7852 
  -10352   -13625   -13973   -12209   -12207   -13463   -12116    -9137 
   -8932   -10806   -10971    -9685    -9236    -9136    -7574    -4468 
    -275     5256    10786    14100    15706    17513    19893    21347 
   19591    15248    12224    11761    11869    12180    12792    11883 
    9204     7190     6805     6855     7499    10580    15828    19936 
   22425    27449    34607    37073    33298    28812    26016    22410 
   16363     9500     5155     3899     2523      169    -1189    -2853 
   -6678    -9952   -10438   -10224   -10801   -10228    -6680     -517 
    7120    14395    19597    23528    27509    30454    31462    31518 
   30499    27771    25356    24810    24680    24676    25482    24445 
   19313    13110     8966     5046     -968    -7128   -10515   -12098 
  -14334   -16137   -14716    -9521    -1631     7083    14660    20814 
   24909    24489    20183    16361    14149    11293     7583     3361 
   -2089    -7157    -9267    -8787    -7012    -3719     1394     7800 
   14114    19008    23654    29356    33163    32515    30543    30363 
   29794    25828    19708    14944    12031     7891     1142    -5904 
  -11794   -17299   -21529   -22385   -20245   -17133   -13835    -9452 
   -3493     2113     5232     6944     9575    12737    14501    15383 
   17873    21841    24583    26327    29334    31426    28428    21329 
   14228     8950     5178     2008    -1126    -3708    -5108    -5274 
   -4193    -1916     1803     8256    17115    23558    23860    21540 
   20971    20532    18593    17485    17051    14720    12753    14359 
   15853    13257     9934     9057     7751     3128    -4414   -12178 
  -15001   -10487    -4092    -1816    -1885      -69     2414     1846 
   -1514    -3486    -1206     3248     6214     7705     9199     9303 
    6687     3463     1676      374    -1949    -5117    -7248    -6099 
   -2703    -1423    -3422    -4845    -3298     -826      554     2382 
    6564    11428    14642    16448    16992    15728    14713    16392 
   18886    19557    19398    18885    16614    13735    12029     9839 
    5310     -140    -3911    -4241     -761     4171     7941    12293 
   20020    28067    31116    30968    33612    38578    40876    40062 
   39547    40781    42031    41080    38250    35467    32085    25840 
   17551     9582     2735    -2118    -4730    -6919    -8921    -8526 
   -5698    -3606    -4251    -5464    -3648     1547     7517    12451 
   16239    18890    20339    21369    22884    24095    23022    19342 
   15750    15066    16142    15651    13797    13402    14666    15241 
   12990     8383     5695     7591    10098     8479     4218     1891 
    2498     2942      478    -4033    -7336    -8318    -9065   -10372 
  -10808   -10160    -8919    -6631    -3928    -3266    -5376    -7587 
   -8682   -10934   -14115   -14965   -13806   -13397   -12766    -8656 
   -1031     6383    10671    13042    15397    16447    15165    13125 
   10726     7264     4210     3258     4121     5768     6526     5609 
    5213     6477     7215     7184     8626    11257    13226    14081 
   13789    12958    13156    14698    16480    17934    19640    21973 
   23390    22552    21429    21792    21982    21792    23941    28168 
   31622    33739    35192    36143    36936    36881    34559    30754 
   27677    26048    25087    23457    20638    18674    19503    20921 
   19304    14962    11033     8342     5315     2924     3948     6520 
    6488     5404     7370    11833    15773    17398    16243    14192 
   13947    15005    15082    13835    11537     7802     4302     3863 
    5426     4856     1003    -3057    -5153    -7169   -10477   -12379 
  -12319   -14451   -18764   -20257   -18950   -19420   -22313   -24448 
  -23640   -20341   -17130   -15547   -13832   -11145   -10072   -11336 
  -12612   -13873   -16134   -17098   -14930   -11751    -9467    -7079 
   -2838     3573     9970    13871    16017    18524    21662    24357 
   24898    23098    22108    23676    25315    25214    24629    24931 
   25732    25829    24609    22275    19898    18702    17934    15715 
   12772    11591    12108    12498    12967    14638    16003    14394 
   10996    10036    12049    13878    15721    20078    24429    23921 
   19930    17777    18080    17598    15341    12335     9753     8855 
    9111     8811     7796     6757     7165    11494    18498    22919 
   23907    25918    29857    31907    29981    25746    22658    22287 
   21870    19244    16666    15332    13194    10840    11385    13599 
   12534     7509     3611     4710     9238    13549    16217    17756 
   18136    16316    12484     8802     6219     3634     1033     -724 
   -1870    -2044     -791     -489    -2228    -2457     -326      432 
     467     3598     7802     8869     8006     8231     9802    11936 
   14436    18541    25655    33130    36127    34367    31076    26748 
   20297    13465     7611     1912    -1191     1045     4041     2507 
   -1007    -2168    -1636    -1468    -1656    -2081    -2329     -522 
    3179     5801     6334     6469     7227     7712     6562     4200 
    2063     -150    -2701    -3705    -3267    -4533    -7078    -7271 
   -5685    -4602    -1974     3241     6646     6111     5253     5947 
    6542     6832     7869     9860    12827    16915    21892    26549 
   29016    28671    26663    24190    21650    19124    16424    13807 
