Origin Time       2011/03/11 14:46:00
Lat.              38.103
Long.             142.860
Depth. (km)       24
Mag.              9.0
Station Code      AOM006
Station Lat.      41.1976
Station Long.     140.9979
Station Height(m) 1
Record Time       2011/03/11 14:47:39
Sampling Freq(Hz) 100Hz
Duration Time(s)  291
Dir.              N-S
Scale Factor      3920(gal)/6182761
Max. Acc. (gal)   60.283
Last Correction   2011/03/11 14:47:24
Memo.             
[...]
   -2414    -5466    -6867    -5858    -2572     2293     7806    13188 
   18144    22166    23941    22903    20540    18759    17843    16624 
   14183    10798     6450        1    -8421   -16475   -22136   -25019 
  -25540   -24752   -23995   -23662   -23286   -22415   -20410   -16291 
  -10068    -3971     -764     -946    -3313    -7040   -11113   -13654 
  -13485   -11063    -7832    -5414    -4725    -5431    -6593    -7728 
   -9033   -10716   -12419   -13610   -14200   -14355   -13959   -12401 
   -9379    -5397     -642     4518     8134     8766     6948     2624 
   -4867   -14017   -22461   -29875   -37126   -44131   -49819   -53206 
  -53758   -51263   -46017   -38907   -31185   -23786   -17193   -12468 
  -10120    -8366    -5483    -1701     2136     5438     8029     9621 
    8992     4695    -3334   -12766   -20131   -23755   -24617   -24559 
  -24936   -26427   -28433   -29013   -26534   -20692   -12505    -4371 
    1567     4834     5090     2366    -1114    -3110    -3789    -4131 
   -4368    -5358    -9059   -15315   -21259   -25451   -28780   -31699 
  -33960   -36186   -39388   -43047   -45325   -44926   -41825   -36968 
  -31303   -25395   -20369   -16874   -13905   -11058    -9180    -8170 
   -7327    -6811    -7140    -8641   -11777   -17018   -23710   -29913 
  -34018   -35592   -34814   -32324   -28994   -24533   -17928    -9590 
    -188    10622    21863    31348    38243    42437    42923    38689 
   30580    21105    11758     1997    -8174   -16574   -20880   -20880 
  -18188   -14607   -10855    -6635    -1785     3411     8417    12368 
   14956    16900    18581    19101    17228    12740     6241    -1256 
   -8095   -12927   -15268   -14556   -10628    -4747     1373     6642 
   10194    11324    10419     8720     7143     7044     9895    14186 
   16359    14963    11004     5994      873    -4556   -10891   -17526 
  -22974   -27115   -31537   -36997   -42413   -46400   -47905   -46164 
  -40948   -32447   -21645   -10005     1606    12293    21205    28681 
   35171    40655    45367    48716    49497    47733    44054    38618 
   31675    23730    14986     5798    -2719   -10146   -17101   -22888 
  -26046   -26811   -25841   -22920   -18776   -15259   -13313   -12511 
  -12040   -11156    -9025    -4914     1387     8970    15688    20291 
   23559    26208    28311    29717    29358    26614    22502    17635 
   11327     3826    -3102    -8527   -12803   -15969   -17821   -18370 
  -17393   -14896   -11668    -8631    -5990    -3209      101     3559 
    6567     9048    11042    11559     9089     3317    -4458   -11803 
  -16660   -19155   -20748   -22041   -22820   -23438   -24054   -23054 
  -18550   -11017    -3083     2988     6611     7958     6975     3586 
   -1509    -6464    -9023    -8667    -7855    -9351   -13371   -18741 
  -24577   -30169   -34915   -38523   -40453   -40034   -38347   -37799 
  -38838   -39503   -37560   -31860   -23075   -13411    -4910     2228 
    8690    13480    14568    11798     7148     2197    -2780    -7326 
  -11210   -14968   -18626   -22566   -27699   -32936   -36038   -36707 
  -36066   -34566   -31946   -27966   -22890   -17389   -11333    -4331 
    2645     8783    14021    17146    17218    15275    12066     6766 
    -926    -9339   -16538   -22242   -27186   -32015   -36648   -40213 
  -42308   -42678   -39449   -31100   -19821    -9097      342     8899 
   15460    19049    20473    20958    21123    21635    23309    25843 
   27065    24820    18798     9879       32    -7767   -11885   -13081 
  -12816   -12300   -12723   -14433   -16116   -16035   -13413    -8193 
   -1162     5299     8623     8945     8504     8571     9148    10112 
   10886    10181     6621     -765   -11450   -22749   -31867   -37222 
  -37952   -34227   -27197   -19236   -13218    -9422    -6150    -2454 
    2274     8007    12996    15522    15280    11829     4666    -4240 
  -11613   -16032   -18053   -19728   -23202   -28097   -32573   -35542 
  -36349   -35546   -35135   -35347   -34129   -30466   -24984   -18431 
  -11250    -3934     2249     6050     7810     8900    10008    10106 
    7566     2535    -3456    -9812   -17015   -25103   -32891   -38066 
  -38792   -35500   -29888   -23047   -15308    -7366     -948     3247 
    6770    10584    13770    15475    15333    12779     7878     1927 
   -3450    -7151    -8930    -9172    -8475    -8059    -9203   -11350 
  -12880   -13611   -14325   -15084   -15591   -16227   -17820   -19473 
  -18331   -13442    -6279     2231    10512    15795    17658    17645 
   16590    15728    16854    19551    21451    21100    18489    14136 
    8900     3523    -1465    -5031    -6241    -5684    -5097    -5878 
   -8242   -11237   -14346   -18375   -23102   -26342   -26139   -22255 
  -16461   -10918    -5824     -816     3102     5181     5630     4184 
     447    -5549   -13600   -22329   -29285   -32904   -33486   -32261 
  -29594   -25278   -20238   -15776   -11666    -6661     -682     5223 
   10916    16696    21637    24323    24073    21121    16635    12056 
    7741     3326    -1084    -5773   -11086   -15496   -17129   -15951 
  -13038    -9522    -5884    -1814     2868     7790    12157    15307 
   17729    20223    21783    20066    14024     5132    -3836   -10629 
  -14510   -16628   -18683   -20769   -22379   -24335   -27439   -30700 
  -32142   -30794   -27478   -23610   -19606   -15048    -9996    -5086 
    -843     2331     4154     4764     4894     5363     6297     7287 
    7809     7087     3959    -2058    -9295   -15399   -20027   -23879 
  -26215   -25831   -23665   -22058   -22305   -24753   -29440   -35572 
  -41425   -44862   -43841   -37461   -27891   -19435   -14179   -11676 
  -11327   -11381    -9255    -5216    -2879    -5332   -12113   -20313 
  -27961   -34826   -39291   -38305   -32292   -25258   -19211   -13215 
   -7236    -2564      739     3766     7164    11144    15099    17494 
   17914    17123    15782    15256    16729    18966    19333    16481 
   10750     2629    -6992   -15485   -19933   -19927   -17372   -13511 
   -8767    -5069    -4242    -5395    -6491    -6196    -4056     -853 
    2053     3744     3205     -123    -4478    -7159    -7599    -7000 
   -6316    -6086    -7115   -10339   -15495   -20552   -23857   -25979 
  -28160   -30230   -30939   -29638   -26871   -23016   -18165   -13435 
   -9694    -6361    -3337    -2087    -4011    -8819   -15020   -21242 
  -26521   -29915   -30890   -30487   -30728   -32833   -36590   -39654 
  -39071   -34694   -27885   -19121    -9822    -1954     4447     9686 
   13344    15894    17533    16748    12275     4227    -6483   -17626 
  -26176   -30806   -31989   -29980   -25051   -18317   -11084    -4491 
    1032     6206    11302    14905    15694    14098    11030     6658 
    1458    -3263    -6470    -7621    -6134    -1850     4234    10221 
   14749    18005    20323    20721    18760    16218    14683    13830 
   13164    12498    11281     9392     6899     3218    -1748    -6416 
   -9099   -10335   -11281   -11570   -11467   -11647   -10528    -7145 
   -3263      200     3635     6502     8963    12521    16833    19535 
   19484    17546    14868    11812     8647     6359     5873     7142 
    9144    10243     9214     6128     1954    -2558    -7205   -11567 
  -15557   -20363   -26635   -33154   -38501   -42295   -44160   -42850 
  -37607   -28957   -17854    -6517     2422     9603    16758    22544 
   25546    26501    26064    24438    20879    13305     1211   -13270 
  -27323   -38886   -47809   -54824   -59073   -59320   -55984   -49735 
  -40466   -28778   -16504    -5130     5104    14343    21864    26186 
   26926    25218    21824    16278     7991    -2317   -12312   -19143 
  -21913   -22496   -21762   -18933   -15406   -12805   -10795    -9939 
  -10855   -12935   -16250   -20314   -23761   -27329   -32353   -37677 
  -41792   -45056   -48148   -50570   -50964   -48710   -44827   -40382 
  -35457   -30631   -27397   -26024   -25105   -23786   -21449   -16623 
   -9074      388    11262    21377    28055    31069    30801    27452 
   23007    19464    16447    13827    12912    12693    10499     6565 
    2506    -1292    -3805    -4650    -6570   -11563   -18109   -24613 
  -30718   -35314   -37480   -38379   -39880   -42291   -44733   -46956 
  -48959   -49974   -49879   -49370   -47821   -44306   -39843   -34995 
  -27528   -15759    -1426    12772    25082    33446    35910    32272 
   23990    13455     2860    -7183   -16870   -25806   -33712   -40804 
  -46587   -49992   -50586   -48377   -43626   -37663   -31970   -26818 
  -22193   -17694   -12004    -5148     1493     7436    12485    16076 
   17690    16599    12979     8971     6773     6068     5214     4112 
    2783      256    -3059    -6270    -9275   -10842    -9866    -6984 
   -2539     2497     5707     7135     8649    10189    11554    13688 
   16409    18703    20662    22604    23403    21599    17124    10580 
    2027    -7535   -15060   -18600   -19092   -18100   -17200   -17520 
  -18334   -19348   -21725   -24686   -25634   -23499   -19110   -14159 
  -10698    -9743   -10131   -10055    -9287    -8245    -5933    -1008 
    6121    14202    22738    31431    39777    47173    52599    55564 
   56694    55875    51955    44656    34665    23205    11886     1224 
   -9339   -20082   -31358   -42659   -51528   -56084   -55725   -49609 
  -38351   -24725   -11158      838     9884    15581    18989    21393 
   23446    25822    28995    31335    29867    23612    13823     2358 
   -8762   -18571   -27645   -35994   -42297   -46181   -48677   -50005 
  -49298   -45693   -38830   -29628   -19824   -10435    -2014     4315 
    7792     9016     8680     6839     3927      361    -4127    -9378 
  -14948   -20429   -24025   -24078   -21433   -16916   -10361    -3536 
    1712     6599    12175    17232    20905    23227    24088    22979 
   18793    11057      820   -10918   -23959   -37820   -51485   -63930 
  -74417   -82592   -87741   -88775   -85462   -78157   -67430   -54903 
  -42676   -32119   -23709   -17217   -12183    -8495    -6182    -5011 
   -4589    -4570    -5080    -6799   -10174   -14840   -19833   -24479 
  -28742   -32442   -34703   -34354   -30824   -24296   -15508    -6073 
    2662    10930    18710    24491    27586    29069    29171    26477 
   21120    15532    10926     6528     1645    -4211   -11278   -18623 
  -24587   -27843   -28173   -27164   -27099   -28382   -29476   -29533 
  -29078   -28037   -24932   -18363    -8993      240     6914    11695 
   16443    21226    25164    27983    29586    29998    28897    24891 
   17674     9417     2399    -2263    -3957    -3315    -2977    -5291 
   -9898   -15423   -21184   -25889   -28038   -27840   -26685   -25966 
  -26564   -27869   -28339   -27350   -25002   -21402   -17481   -14544 
  -12135    -8897    -6037    -6176    -8749   -10894   -11406   -10456 
   -8232    -5443    -3276    -3302    -7196   -14463   -21721   -25678 
  -24997   -19876   -11932    -2894     6996    17277    26047    32677 
   39066    46772    54849    61287    65505    67522    66026    60524 
   52549    43048    32435    21708    10517    -2367   -16360   -30489 
  -44843   -58101   -67124   -69669   -65725   -57120   -46315   -35024 
  -24259   -14729    -6290     1606     9145    17015    25859    34256 
   39658    41134    39738    36276    30182    21322    10932     1123 
   -5484    -7981    -8016    -7249    -6849    -8091   -11050   -14954 
  -19562   -24140   -27508   -29547   -30232   -29122   -26652   -23244 
  -18164   -11250    -3951     2577     8238    12120    12710    10523 
    8265     7861     8613     9244     9393     8288     5636     2778 
     692     -237      505     1769     1484     -181    -2136    -4745 
   -8160   -11844   -16126   -20713   -23420   -23459   -22634   -21465 
  -18897   -15351   -11820    -8118    -4268    -1295      173       48 
   -2020    -5443    -8564   -10610   -11240   -10167    -9049   -10159 
  -13560   -18036   -22063   -23672   -22412   -19487   -15518   -11511 
   -9354    -8282    -5104      989     8199    15375    22019    27338 
   30578    31301    29777    26779    23240    19940    16081    10080 
    2576    -4268    -9239   -11911   -12548   -11925   -10045    -7108 
   -4593    -2914     -535     3254     7281    10372    11984    11180 
    6981     -424    -9660   -18510   -24265   -24993   -21069   -15341 
  -11121    -9893   -11130   -13144   -13915   -12228    -8069    -2397 
    2720     5277     5237     3969     2172     -502    -4203    -8392 
  -12315   -15244   -16388   -14792    -9990    -2440     7176    17355 
   25300    29454    30795    30895    30342    28674    25367    20613 
   14153     5154    -5376   -14500   -19434   -18492   -12103    -2399 
    8739    19287    26602    29470    29098    27467    25862    24363 
   21470    15447     6406    -4572   -16793   -28577   -37601   -43419 
  -46592   -47140   -45862   -44633   -44280   -43187   -39509   -33621 
  -26801   -20154   -14636   -10487    -7822    -6636    -5644    -2711 
    3625    13090    23426    31397    34990    34205    29152    19347 
    5851    -8214   -20422   -30404   -38309   -44302   -48935   -51979 
  -52346   -50109   -46352   -41161   -34352   -27104   -20497   -13733 
   -5443     4647    15925    27156    36759    43698    47353    47274 
   43649    36875    27345    15702     1938   -14674   -34057   -54408 
  -72935   -87515   -97338  -101932  -100730   -94380   -85693   -77582 
  -69964   -60385   -47593   -32418   -15760     1242    16405    28384 
   36985    41322    40107    32912    20522     4840   -11636   -26614 
  -38629   -47007   -51826   -54542   -57066   -58965   -58138   -54357 
  -48098   -38204   -25201   -12505    -2221     5510    10307    11846 
   10088     4801    -3355   -11990   -18800   -23727   -28349   -33563 
  -38294   -40939   -41199   -39279   -35260   -29740   -23209   -15846 
   -8403    -1772     3725     8370    13134    18931    25824    33155 
   39552    43682    45487    45716    44470    40871    34285    25502 
   15767     5101    -6682   -18022   -26540   -30583   -29437   -23751 
  -15113    -4892     5832    16188    25642    33696    39909    44136 
   46186    46380    45871    44783    41916    36626    29277    20651 
   11645     3410    -2782    -6784    -9459   -11173   -12332   -13452 
  -13484   -11632    -9893   -10150   -11319   -11660   -10834    -8775 
   -5604    -2263      883     4470     8966    14255    19012    21074 
   19577    15543    10482     5034    -1150    -8029   -14634   -20376 
  -24750   -26191   -24190   -20667   -17293   -13798    -8811    -1631 
    6337    13499    19960    25522    29409    31941    33254    32763 
   30493    26345    19812    11759     4293    -1195    -4290    -5069 
   -4622    -4239    -3625    -2147    -1214    -2882    -7899   -16286 
  -26878   -37218   -45983   -53572   -60641   -67250   -72254   -74026 
  -72015   -66070   -55491   -40543   -23540    -7207     7529    20813 
   31474    38299    42249    44809    46396    46188    42383    34400 
   23881    13082     3983    -2366    -6646    -9963   -12293   -13328 
  -13931   -15682   -18429   -19709   -17995   -13772    -7678    -1082 
    3646     5246     3464    -2211   -11009   -19655   -25425   -29105 
  -32893   -37338   -42155   -47350   -51985   -54495   -54396   -52049 
  -48354   -45017   -43203   -41993   -39134   -33542   -25714   -16234 
   -6501     1347     6512     9183    10161    10850    11454    11396 
   11249    11713    11775     9783     5891     1950     -776    -2914 
   -5809    -9799   -14651   -20117   -25531   -30421   -34543   -37139 
  -37613   -36429   -34798   -33734   -33518   -34212   -36551   -40690 
  -44047   -43764   -40809   -37860   -34972   -30876   -26384   -23783 
  -24625   -29076   -35194   -39346   -39450   -36452   -32036   -27206 
  -22986   -21098   -23489   -29945   -37304   -42632   -44813   -42963 
  -36618   -27372   -17839    -8953     -138     8466    15956    21982 
   26543    28688    26891    21223    12737     1712   -10226   -19703 
  -25316   -28087   -29258   -29867   -30125   -29176   -26880   -23900 
  -20168   -14993    -8012     -168     6803    12556    17448    20800 
   22203    22477    22641    22884    22479    20896    18134    13710 
    7356     1099    -2116    -2166    -1315    -1300    -2440    -3638 
   -3553    -2007     1049     6155    12671    18513    22562    25735 
   29283    33338    37292    40756    43266    43858    41888    36475 
   26407    13213      732    -9698   -18855   -25823   -29254   -29696 
  -28454   -26659   -24971   -22916   -19891   -16472   -13373   -10137 
   -6426    -3449    -2837    -4785    -7650    -9863   -11433   -12582 
  -13045   -12882   -12458   -12361   -12871   -13427   -13728   -13738 
  -12165    -7292      742    10146    19692    29219    38304    45761 
   50161    50701    47574    41474    33521    25198    17608    11166 
    6069     2467      181    -1476    -3469    -5808    -7766    -9952 
  -13130   -15900   -16735   -15639   -12647    -7885    -2516     1952 
    4361     4169     2029      -18      -92     2044     5244     7319 
    6436     3122     -806    -4576    -8414   -12018   -14702   -16586 
  -17731   -17755   -17735   -19557   -23192   -27553   -32211   -36035 
  -37504   -36263   -31875   -23940   -14160    -5562      -49     2227 
    2222     1451     1045     1328     2592     4257     3723     -816 
   -7889   -15071   -20695   -23069   -21234   -16066    -9519    -3549 
     530     2423     2238      373    -1101      -40     2712     5144 
    6735     7523     6882     3976     -497    -4476    -8097   -14036 
  -23178   -33586   -43749   -53436   -62007   -68796   -73845   -77002 
  -78331   -78552   -77597   -74076   -66549   -54682   -39292   -22168 
   -5461     9706    23229    34299    41147    43336    42393    39268 
   33887    26884    19329    11839     4839    -1304    -6813   -12684 
  -19706   -27621   -35428   -41925   -46039   -47602   -47655   -47076 
  -45833   -43887   -41730   -40206   -39543   -38901   -37811   -36719 
  -35590   -33306   -29170   -24092   -18992   -13621    -8104    -3639 
   -1115       19     1542     4820     9221    12960    15690    18407 
   21122    23197    24203    23172    19676    14830     9734     4854 
     848    -1769    -3338    -4673    -6264    -8014    -9760   -11576 
  -13294   -14438   -14945   -15370   -15981   -16224   -15314   -13066 
  -10071    -6611    -2642      820     3008     4613     5275     3238 
   -1744    -8023   -13630   -17561   -20393   -22773   -24214   -24446 
  -23343   -19604   -12136    -1444    10602    21170    28795    34486 
   38793    41546    43712    45483    45473    43183    39271    34102 
   27535    19288     9429    -1036   -10738   -19311   -27252   -35058 
  -42890   -49974   -54764   -56019   -52946   -45769   -36492   -27259 
  -19300   -13919   -11622   -10904    -9815    -7203    -2401     4066 
   10025    13118    11835     5968    -2620   -11519   -19637   -26075 
  -30020   -31972   -32379   -30815   -27137   -21332   -13070    -1853 
   12612    28447    41761    50584    55467    56551    53419    46544 
   37090    26120    14313     1880   -10649   -21266   -28203   -31801 
