Origin Time       2011/03/11 14:46:00
Lat.              38.103
Long.             142.860
Depth. (km)       24
Mag.              9.0
Station Code      AOM024
Station Lat.      41.0473
Station Long.     140.6399
Station Height(m) 2
Record Time       2011/03/11 14:47:40
Sampling Freq(Hz) 100Hz
Duration Time(s)  300
Dir.              U-D
Scale Factor      3920(gal)/6182761
Max. Acc. (gal)   15.924
Last Correction   2011/03/11 14:47:25
Memo.             
[...]
  -34914   -34936   -34460   -33513   -32469   -31655   -31216   -31167 
  -31252   -31116   -30509   -29188   -27238   -25159   -23463   -22644 
  -23072   -24678   -27111   -29855   -32208   -33626   -34118   -34159 
  -34363   -35251   -37073   -39611   -42286   -44377   -45166   -44357 
  -42301   -39500   -36281   -32975   -29900   -27289   -25299   -23711 
  -21882   -19365   -16247   -12957   -10111    -8262    -7563    -7933 
   -9270   -11266   -13464   -15585   -17509   -19256   -21012   -22939 
  -25101   -27536   -30235   -33189   -36431   -39896   -43280   -46133 
  -48224   -49640   -50542   -50950   -50650   -49446   -47405   -44595 
  -41066   -37327   -34059   -31398   -29132   -27207   -25662   -24482 
  -23519   -22497   -21184   -19428   -17309   -15322   -14045   -13792 
  -14704   -16766   -19662   -22821   -25665   -27800   -29167   -30094 
  -31046   -32340   -34112   -36189   -38009   -39112   -39442   -39029 
  -37966   -36694   -35628   -34717   -33833   -33079   -32468   -31952 
  -31621   -31472   -31386   -31427   -31858   -32830   -34111   -35281 
  -36117   -36562   -36718   -36944   -37607   -38828   -40418   -41823 
  -42477   -42287   -41506   -40364   -39056   -37724   -36413   -35174 
  -33973   -32683   -31390   -30265   -29177   -27936   -26796   -26352 
  -26747   -27327   -27402   -26942   -26404   -26242   -26605   -27385 
  -28380   -29281   -29819   -29969   -29756   -29191   -28572   -28316 
  -28392   -28386   -28023   -27319   -26419   -25529   -24977   -24948 
  -25133   -25032   -24378   -23152   -21536   -19773   -18105   -16969 
  -16915   -18131   -20254   -22657   -24712   -25905   -26085   -25515 
  -24679   -24050   -23864   -24021   -24167   -23906   -23185   -22398 
  -22028   -22439   -23696   -25358   -26884   -28174   -29390   -30511 
  -31247   -31306   -30650   -29461   -28026   -26561   -25006   -23284 
  -21577   -20158   -19274   -19091   -19540   -20286   -20922   -21284 
  -21482   -21656   -21870   -22072   -22147   -22159   -22333   -22756 
  -23411   -24494   -26152   -27995   -29420   -30092   -29896   -28942 
  -27650   -26569   -26034   -25899   -25735   -25380   -24983   -24524 
  -23906   -23399   -23284   -23401   -23314   -22608   -21234   -19422 
  -17365   -15514   -14611   -15013   -16511   -18609   -20593   -21741 
  -21793   -21104   -20375   -20335   -21371   -23271   -25428   -27175 
  -28036   -27995   -27510   -27099   -26885   -26522   -25693   -24606 
  -23785   -23612   -24277   -25740   -27533   -28987   -29678   -29528 
  -28790   -27996   -27599   -27741   -28416   -29467   -30499   -31157 
  -31406   -31489   -31727   -32251   -32881   -33249   -33004   -32051 
  -30764   -29801   -29598   -30058   -30577   -30586   -30051   -29206 
  -28228   -27362   -26829   -26626   -26656   -26860   -27210   -27611 
  -27667   -26979   -25799   -24753   -24162   -24136   -24658   -25375 
  -25906   -26128   -25928   -25209   -24135   -22960   -21860   -21052 
  -20721   -20928   -21416   -21630   -21288   -20280   -18516   -16554 
  -15030   -13927   -13327   -13576   -14791   -16926   -19664   -22293 
  -24217   -25460   -26419   -27191   -27655   -27981   -28294   -28402 
  -28290   -28140   -27845   -27094   -25866   -24551   -23578   -23094 
  -22993   -23118   -23406   -23785   -23960   -23554   -22515   -21203 
  -19923   -18627   -17346   -16466   -16353   -17055   -18409   -20180 
  -21931   -23043   -23321   -23285   -23346   -23352   -23053   -22289 
  -20924   -19030   -17085   -15803   -15517   -15974   -16691   -17329 
  -17867   -18424   -19013   -19701   -20639   -21619   -22026   -21494 
  -20230   -18782   -17732   -17388   -17893   -19480   -21951   -24373 
  -26027   -26972   -27451   -27585   -27622   -27837   -28335   -29094 
  -29945   -30628   -30986   -31058   -31110   -31503   -32355   -33492 
  -34719   -36008   -37400   -38628   -39101   -38538   -37145   -35193 
  -33060   -31251   -30124   -29938   -30713   -32141   -33951   -35844 
  -37416   -38481   -38847   -38256   -37028   -35833   -34895   -34052 
  -33230   -32572   -32275   -32451   -33098   -33920   -34313   -33830 
  -32439   -30539   -29070   -28858   -29811   -31405   -33379   -35620 
  -37968   -40039   -41225   -41208   -40307   -39125   -38101   -37494 
  -37514   -38149   -39118   -40174   -41099   -41511   -41141   -40071 
  -38589   -36999   -35469   -34046   -32653   -31125   -29543   -28222 
  -27330   -26922   -27133   -27981   -29134   -29923   -29747   -28728 
  -27457   -26030   -24454   -23187   -22209   -21153   -19970   -18329 
  -15962   -13372   -11235    -9897    -9331    -9254    -9418    -9725 
  -10175   -10810   -11761   -13089   -14636   -16331   -18145   -19910 
  -21607   -23427   -25574   -28097   -30698   -32987   -34793   -35984 
  -36480   -36482   -36351   -36331   -36363   -36251   -35971   -35593 
  -35103   -34487   -33912   -33681   -33804   -33885   -33530   -32502 
  -30836   -29043   -27761   -27337   -27801   -28721   -29319   -29105 
  -28173   -27006   -26242   -26356   -27415   -29157   -31223   -33275 
  -35040   -36537   -38004   -39343   -40134   -40333   -40176   -39569 
  -38527   -37725   -37682   -38130   -38649   -39065   -39266   -39227 
  -38895   -38171   -37208   -36176   -35000   -33677   -32406   -31382 
  -30509   -29318   -27567   -25588   -23741   -22335   -21749   -21963 
  -22742   -23940   -25165   -26018   -26500   -26815   -27252   -28040 
  -29145   -30276   -31020   -31108   -30562   -29520   -28259   -27313 
  -27071   -27562   -28889   -31259   -34428   -37557   -39670   -40185 
  -39189   -37336   -35505   -34357   -34021   -34132   -34106   -33529 
  -32463   -31312   -30297   -29310   -28217   -26985   -25689   -24420 
  -23070   -21605   -20440   -20083   -20594   -21699   -23189   -24913 
  -26628   -28184   -29640   -30973   -31884   -32218   -32387   -32995 
  -34146   -35280   -35716   -35187   -33918   -32454   -31296   -30717 
  -30726   -30881   -30523   -29227   -27005   -24262   -21331   -18321 
  -15310   -12356    -9684    -7803    -7181    -7856    -9283   -10814 
  -12176   -13115   -13347   -13066   -12796   -12884   -13479   -14671 
  -16316   -17953   -19094   -19446   -19045   -18236   -17430   -16925 
  -16822   -17143   -17892   -18923   -20187   -21905   -24133   -26465 
  -28259   -29168   -29550   -30077   -31036   -32456   -34358   -36526 
  -38558   -40111   -40947   -41076   -40663   -39733   -38552   -37893 
  -38135   -38669   -38640   -37666   -35790   -33283   -30431   -27211 
  -23543   -19800   -16571   -14201   -12634   -11621   -11097   -11136 
  -11877   -13504   -15849   -18314   -20484   -22443   -24329   -26010 
  -27391   -28663   -30121   -31880   -33869   -36030   -38412   -40944 
  -43143   -44346   -44352   -43610   -42862   -42640   -42861   -42964 
  -42639   -42122   -41631   -41058   -40286   -39307   -38042   -36402 
  -34479   -32531   -30790   -29265   -27886   -26745   -25936   -25420 
  -25196   -25368   -26036   -27125   -28497   -30151   -31966   -33689 
  -35222   -36409   -37114   -37622   -38237   -38904   -39520   -39982 
  -40142   -39928   -39276   -38093   -36438   -34588   -32929   -31711 
  -31017   -30998   -31750   -33130   -34857   -36509   -37764   -38720 
  -39508   -39983   -40100   -40095   -40246   -40512   -40352   -39237 
  -37217   -34632   -31741   -28861   -26303   -24141   -22260   -20534 
  -19011   -17892   -17212   -16765   -16421   -16161   -15882   -15579 
  -15418   -15429   -15485   -15703   -16545   -18285   -20652   -23111 
  -25227   -26698   -27231   -26725   -25588   -24459   -23694   -23415 
  -23726   -24637   -26042   -27818   -29741   -31381   -32325   -32462 
  -31905   -30941   -30116   -29788   -29759   -29664   -29370   -28906 
  -28367   -27945   -27798   -27879   -28066   -28296   -28503   -28539 
  -28213   -27647   -27272   -27253   -27523   -28167   -29168   -30288 
  -31309   -31959   -31997   -31554   -30927   -30236   -29575   -29025 
  -28461   -27643   -26416   -24888   -23438   -22268   -21272   -20452 
  -19960   -19902   -20258   -20804   -21346   -21730   -21539   -20629 
  -19465   -18435   -17661   -17326   -17612   -18403   -19361   -20263 
  -21066   -21960   -23215   -24650   -25861   -26622   -26644   -25643 
  -23668   -21181   -18835   -17007   -15765   -15216   -15573   -16883 
  -18919   -21440   -24189   -26745   -29003   -31264   -33479   -35341 
  -36916   -38378   -39634   -40487   -40857   -40806   -40538   -40405 
  -40673   -41312   -42094   -42669   -42608   -41674   -40046   -38230 
  -37036   -37034   -37729   -38462   -39326   -40166   -40628   -40736 
  -40358   -39655   -39172   -39018   -39086   -39221   -38938   -37727 
  -35510   -32605   -29358   -26043   -22988   -20487   -18515   -16779 
  -15303   -14521   -14598   -15383   -16867   -19104   -21745   -24005 
  -25288   -25584   -25415   -25527   -26207   -27299   -28666   -29981 
  -30805   -31119   -31107   -30765   -30221   -29904   -30020   -30383 
  -30875   -31553   -32296   -32860   -33126   -33018   -32688   -32668 
  -33458   -35314   -38206   -41488   -44259   -46169   -47254   -47648 
  -47750   -47964   -48451   -49032   -49095   -48205   -46475   -44029 
  -40977   -37609   -34140   -30915   -28342   -26368   -24821   -23709 
  -22898   -22266   -21731   -20988   -19935   -19141   -19380   -20934 
  -23450   -26353   -29235   -31824   -33948   -35735   -37619   -39964 
  -42543   -44608   -45622   -45651   -45090   -44281   -43366   -42493 
  -41773   -41007   -40026   -38998   -38003   -36840   -35468   -34077 
  -32742   -31517   -30499   -29471   -28059   -26351   -24840   -23879 
  -23613   -24108   -25184   -26382   -27331   -27984   -28501   -29130 
  -30174   -31749   -33613   -35324   -36470   -36881   -36641   -35749 
  -34159   -32197   -30353   -28983   -28424   -28748   -29568   -30311 
  -30378   -29375   -27373   -24791   -22216   -20224   -19122   -18951 
  -19591   -20774   -22241   -23925   -25733   -27438   -29032   -30776 
  -32690   -34376   -35464   -35831   -35499   -34556   -33018   -30942 
  -28697   -26723   -25252   -24338   -23922   -23898   -24157   -24540 
  -24713   -24224   -22846   -20669   -17997   -15367   -13260   -11791 
  -11024   -11157   -12108   -13506   -15114   -16746   -18151   -19346 
  -20466   -21294   -21501   -20980   -19666   -17593   -15210   -13101 
  -11593   -10766   -10539   -10646   -10723   -10526   -10077    -9604 
   -9352    -9406    -9782   -10584   -11742   -13063   -14747   -16890 
  -18856   -20170   -20979   -21402   -21647   -22191   -23176   -24282 
  -25173   -25732   -25941   -25681   -24854   -23665   -22535   -21725 
  -21122   -20575   -20167   -19984   -20081   -20746   -22387   -25130 
  -28682   -32406   -35483   -37379   -38109   -38062   -37891   -38220 
  -39099   -40042   -40698   -41095   -41411   -41916   -42735   -43597 
  -44230   -44422   -43733   -42040   -39842   -37689   -35936   -34721 
  -33902   -33332   -33006   -32815   -32573   -32167   -31397   -29990 
  -28044   -26076   -24628   -24004   -24167   -24948   -26059   -27011 
  -27544   -27712   -27705   -27844   -28347   -29298   -30753   -32654 
  -34772   -36797   -38473   -39636   -40176   -40061   -39386   -38338 
  -37048   -35446   -33433   -31199   -29188   -27800   -27248   -27697 
  -29156   -31175   -33189   -35027   -36670   -38064   -39390   -40915 
  -42583   -44156   -45495   -46438   -46720   -46182   -45009   -43588 
  -41986   -40019   -37778   -35418   -32865   -30134   -27356   -24647 
  -22342   -20790   -19838   -19146   -18819   -19007   -19502   -20128 
  -20760   -21338   -22016   -22693   -23239   -23900   -24676   -25239 
  -25570   -25855   -26100   -26110   -25704   -25109   -24858   -25286 
  -26487   -28348   -30445   -32264   -33198   -32774   -31450   -30072 
  -28718   -27280   -26126   -25675   -25849   -26063   -25897   -25359 
  -24671   -24173   -24019   -24087   -24081   -23598   -22574   -21439 
  -20623   -20165   -19842   -19599   -19591   -19697   -19520   -18945 
  -18190   -17488   -17060   -17075   -17542   -18297   -19048   -19563 
  -19926   -20509   -21590   -23110   -24906   -26859   -28759   -30428 
  -31864   -33130   -34373   -35634   -36727   -37542   -37969   -37720 
  -36749   -35429   -34177   -33185   -32434   -31705   -30673   -29156 
  -27167   -24906   -22904   -21609   -20925   -20659   -20851   -21524 
  -22554   -23559   -24074   -24090   -23902   -23599   -23340   -23565 
  -24464   -25788   -27254   -28715   -30025   -30982   -31456   -31246 
  -30162   -28624   -27300   -26371   -25854   -25676   -25521   -25286 
  -24956   -24210   -22776   -20623   -18041   -15995   -15605   -16909 
  -18942   -20915   -22468   -23378   -23874   -24500   -25506   -26843 
  -28359   -29978   -31711   -33314   -34433   -34996   -35120   -35037 
  -34959   -34795   -34400   -33841   -33183   -32462   -31758   -31090 
  -30443   -29868   -29375   -28900   -28420   -27874   -27286   -26942 
  -26982   -27392   -28192   -29038   -29501   -29677   -29801   -29918 
  -29980   -29894   -29584   -29013   -28279   -27589   -26760   -25336 
  -23484   -21817   -20527   -19532   -18973   -19010   -19486   -20093 
  -20723   -21424   -22204   -23050   -23974   -24993   -26163   -27676 
  -29722   -32005   -33824   -34922   -35615   -36102   -36414   -36711 
  -37128   -37738   -38426   -38747   -38494   -37894   -36915   -35325 
  -32971   -29511   -24907   -19835   -14924   -10661    -7602    -5630 
   -4291    -3627    -3456    -3300    -3118    -3178    -3871    -5361 
   -7199    -8844   -10133   -11194   -12298   -13624   -15096   -16627 
  -18266   -19948   -21525   -23046   -24633   -26332   -28219   -30228 
  -32134   -33839   -35200   -35967   -36235   -36404   -36689   -37014 
  -37276   -37435   -37272   -36642   -36034   -35926   -36072   -36113 
  -35705   -34254   -31649   -28291   -24506   -20849   -17997   -16282 
  -15851   -16768   -18825   -21579   -24526   -27240   -29452   -30965 
  -31709   -31865   -31547   -30708   -29320   -27470   -25586   -24210 
  -23610   -23755   -24351   -25084   -25796   -26432   -27150   -28030 
  -28605   -28403   -27525   -26229   -24767   -23491   -22460   -21514 
  -20600   -19723   -19033   -18552   -18060   -17803   -18280   -19299 
  -20190   -20708   -20966   -20812   -20163   -19280   -18371   -17566 
  -16912   -16347   -15957   -15953   -16579   -18119   -20647   -23764 
  -26762   -28984   -30028   -29808   -28646   -27112   -25557   -24156 
  -23242   -22641   -21493   -19673   -17703   -15714   -14055   -13194 
  -13084   -13554   -14400   -15498   -16858   -18376   -19887   -21211 
  -22316   -23345   -24318   -25192   -26124   -27477   -29389   -31489 
  -33341   -34926   -36625   -38702   -40802   -42413   -43444   -43934 
  -43843   -43274   -42453   -41680   -41260   -41238   -41451   -41754 
  -42055   -42429   -42991   -43547   -43899   -44127   -44075   -43329 
  -41850   -39914   -37798   -35854   -34244   -32662   -30785   -28620 
  -26378   -24432   -23136   -22486   -22163   -21765   -21035   -19994 
  -18942   -18381   -18533   -18941   -19085   -18906   -18549   -18313 
  -18510   -19362   -21224   -24036   -27029   -29525   -31275   -32164 
  -32212   -31942   -32263   -33631   -35702   -37732   -39074   -39597 
  -39536   -39216   -39040   -39256   -39883   -40766   -41519   -41815 
  -41588   -40775   -39398   -37742   -36134   -34898   -34304   -34280 
  -34578   -35037   -35443   -35561   -35300   -34640   -33629   -32360 
  -30888   -29405   -28204   -27262   -26305   -25153   -23596   -21446 
  -18875   -16275   -13873   -11803   -10325    -9642    -9713   -10389 
  -11529   -12861   -13959   -14648   -15092   -15365   -15492   -15615 
  -15797   -16191   -17040   -18361   -20204   -22802   -26083   -29626 
  -33073   -36220   -38961   -41363   -43533   -45506   -47396   -49225 
  -50798   -52010   -52798   -52977   -52425   -51207   -49596   -47865 
  -46000   -43992   -42110   -40524   -39018   -37207   -34824   -31775 
  -28259   -24764   -21751   -19515   -18184   -17713   -17929   -18468 
  -18907   -19120   -19317   -19813   -20759   -22065   -23507   -24749 
  -25431   -25412   -24928   -24526   -24676   -25452   -26695   -28283 
  -30053   -31572   -32390   -32453   -31998   -31345   -30815   -30514 
  -30359   -30361   -30546   -30799   -31160   -31618   -31649   -30989 
  -30039   -29171   -28755   -29168   -30248   -31438   -32254   -32541 
  -32439   -32215   -32202   -32606   -33398   -34366   -35251   -35980 
  -36606   -37287   -38351   -40042   -42371   -45058   -47395   -48616 
  -48473   -47187   -45120   -42774   -40714   -39210   -38176   -37286 
  -36183   -34789   -33246   -31612   -29788   -27651   -25209   -22805 
  -21531   -22082   -22651   -21750   -21244   -21524   -20897   -20816 
  -22376   -23706   -24535   -25522   -26115   -26267   -26400   -26731 
  -27609   -29097   -31225   -34135   -37262   -40091   -42396   -43524 
  -43619   -43344   -42611   -41744   -41236   -40829   -40602   -40621 
  -40367   -39639   -38457   -36757   -34642   -32209   -29518   -26891 
  -24843   -23554   -22775   -22145   -21287   -20049   -18413   -16129 
  -13592   -11951   -11105   -10250    -9954   -10441   -10936   -11615 
  -12272   -11864   -11036   -11449   -13548   -16461   -19095   -21409 
  -23894   -26406   -28880   -31619   -34455   -37068   -39474   -41656 
  -43507   -44916   -45610   -45569   -45227   -44909   -44699   -44633 
  -44818   -45215   -45399   -45103   -44083   -41901   -38791   -35326 
  -31785   -28479   -25591   -23174   -21318   -19901   -18794   -18026 
  -17647   -17734   -18228   -19104   -20541   -22308   -23685   -24241 
  -24080   -23421   -22441   -21508   -21117   -21548   -22774   -24546 
  -26679   -29206   -31905   -34215   -35939   -37335   -38568   -39675 
  -40697   -41479   -41692   -41118   -39684   -37415   -34615   -31815 
  -29233   -26707   -24249   -22120   -20376   -18804   -17198   -15525 
  -13929   -12718   -12344   -13150   -15089   -17923   -21504   -25528 
  -29315   -32100   -33559   -34064   -34398   -35077   -36082   -37324 
  -38812   -40138   -40450   -39413   -37534   -35507   -33898   -32826 
  -31945   -31122   -30299   -29185   -27756   -26315   -25002   -23792 
  -22875   -22383   -22181   -22255   -22623   -23282   -24471   -26503 
  -29444   -32889   -36029   -38326   -39997   -41372   -42416   -43065 
  -43128   -42321   -40792   -38976   -37056   -35060   -33306   -31972 
  -30709   -29225   -27297   -24773   -22016   -19421   -17176   -15707 
  -15466   -16353   -17776   -19472   -21460   -23529   -25645   -27746 
  -29720   -31957   -34516   -36899   -38987   -41051   -43229   -45287 
  -47012   -48418   -49252   -49159   -48181   -46715   -45150   -43546 
  -42082   -41284   -41206   -41251   -41081   -40893   -40372   -38962 
  -37031   -34711   -31819   -28951   -26333   -23905   -22097   -20968 
  -20112   -18801   -16981   -16377   -17600   -18543   -18231   -18318 
  -19497   -20392   -21034   -22664   -24575   -26364   -28679   -30464 
  -31327   -32258   -32959   -33368   -34227   -35479   -36915   -38404 
  -39497   -40021   -40073   -39596   -38672   -37880   -37881   -38636 
  -39473   -39791   -39153   -37321   -34658   -32003   -30014   -28788 
  -28013   -27414   -26916   -26580   -26611   -27211   -28411   -30146 
