Origin Time       2011/03/11 14:46:00
Lat.              38.103
Long.             142.860
Depth. (km)       24
Mag.              9.0
Station Code      CHB009
Station Lat.      35.6075
Station Long.     140.1077
Station Height(m) 3
Record Time       2011/03/11 14:47:40
Sampling Freq(Hz) 100Hz
Duration Time(s)  300
Dir.              U-D
Scale Factor      3920(gal)/6182761
Max. Acc. (gal)   77.092
Last Correction   2011/03/11 14:47:25
Memo.             
[...]
     644    -4305    -7671     -544     9787    15426    19042    17280 
    6568    -2114    -5831   -19955   -42026   -44621   -21657    -3152 
  -14190   -44464   -61312   -47460   -22689   -14777   -20481   -22545 
  -25065   -39050   -52515   -44661   -16735    10267    18926    12821 
   11375    19821    20633     1804   -27452   -48801   -49787   -30901 
   -6547     2411   -11657   -31277   -36141   -30311   -28255   -29925 
  -29068   -24982   -18575   -12374    -9008   -11227   -25006   -43605 
  -43645   -20943    -4660   -19759   -54117   -72347   -57945   -31167 
  -19743   -21798   -13958     5776    13278     -162   -15114   -13243 
   -1666    -2381   -13664   -15056   -12870   -25064   -39437   -35644 
  -20473    -9970    -5554    -8627   -21641   -28421   -14403     6522 
   10641    -8766   -35712   -46076   -31321    -5507     6904    -4098 
  -20006   -20763   -12981   -13158   -21087   -25663   -21744   -10857 
   -1359    -4021   -11589    -8710    -1601    -2556    -7932    -9024 
   -4043    -1206    -7289   -17198   -22682   -19241   -13743   -18739 
  -24665   -10317    17150    29801    17412    -6623   -26519   -36099 
  -35650   -29645   -27526   -33100   -36784   -29366   -11650    12143 
   32416    34950    24724    21116    20036     5084   -17812   -30646 
  -25441    -7243    10727    11937    -5856   -20290   -22053   -26622 
  -33003   -29061   -16673    -5198    -4765   -11937   -11515    -1983 
    4306    -2469   -14972   -13892      980    10137     5885    -2986 
   -6619    -1185     4384    -3008   -18284   -26194   -21941   -11990 
  -11951   -32394   -59156   -69433   -59703   -42687   -27617   -12697 
     503      959    -4122    11426    42145    51450    30506     3838 
   -8972    -8475    -6029    -7902   -17099   -36714   -54864   -53108 
  -35464   -21520   -21673   -36254   -52897   -48807   -23606    -6839 
  -19607   -50679   -71629   -71267   -64258   -59195   -52084   -46168 
  -42659   -34582   -23875   -20469   -23985   -27430   -32089   -34004 
  -21458    -3316     2960     1324    -2388   -12251   -22518   -28022 
  -37005   -51074   -59615   -54516   -38780   -26981   -29196   -34381 
  -28419   -20392   -24565   -31599   -26411   -15533   -15778   -29397 
  -41201   -40730   -38102   -43391   -44861   -28564    -3930     9198 
    6848     -608    -7461   -18128   -31998   -35046   -21434    -4955 
    3780     8885    16384    24973    28240    20256     4874      680 
   15607    29917    29944    24292    20385    17801     9217   -13260 
  -38546   -50766   -54436   -59261   -64903   -65677   -54848   -36002 
  -19183    -1876    15767    22431    20552    16263     5830    -4855 
   -9540   -14048   -18485   -22197   -29636   -32644   -24615   -18103 
  -23219   -35887   -45647   -42491   -28043   -16259   -13884   -14433 
  -15028   -14774    -8736     -885      726    -4194    -9407    -4867 
    8488    16300    13006     6673     7866    18199    23289    14250 
    5739     7110     3595   -13820   -27601   -18817     -485     -208 
  -12490   -10183     2690     1835   -10182   -17898   -24782   -34815 
  -36953   -27332   -16900   -10532    -1685    13893    30445    35726 
   23741      337   -21213   -26643   -17268   -10232   -12545   -15709 
  -12663    -3940     4653     6038     4337     9359    11165        5 
   -8115    -6210    -5353    -9846   -23267   -40381   -43009   -33475 
  -30006   -35619   -43458   -49308   -50322   -45550   -33557   -12235 
    9449    17118    14298    13618    11650    -3041   -30681   -59168 
  -73345   -69801   -58161   -46610   -39027   -34541   -27866   -21787 
  -24581   -33690   -38294   -34915   -27858   -18589    -8643    -4397 
   -7959   -13830   -16520   -14679    -9799    -3997     2353    10822 
   18188    17385    10345     5293     3294     -498    -6467   -10078 
   -9699    -6700    -5614   -12409   -23806   -31659   -31486   -20660 
   -6734    -2082      654    14061    27131    27581    26501    35301 
   40992    27177     7309     -401    -9540   -29797   -40815   -35247 
  -29943   -31138   -36639   -49168   -59417   -54401   -45628   -44840 
  -38401   -17641     5607    19079    22040    23004    20174     -141 
  -23701   -16688    11562    19769     5966     5240    22221    25489 
    5630   -17596   -30344   -32749   -37242   -52765   -60823   -45586 
  -25939   -20037   -21325   -21729   -23819   -31310   -34682   -20392 
     593     9119     8867     3802   -14399   -35914   -39260   -28493 
  -21889   -22262   -24641   -24079   -17914   -15395   -24234   -37844 
  -42177   -28549   -11248    -9039   -11730    -6061    -5058   -19601 
  -37719   -43986   -38852   -36470   -44355   -53926   -51618   -32844 
  -14426   -14560   -18563    -6695     7859     5838   -10780   -31802 
  -47976   -47359   -27011    -3756     8455    13253     8403   -13040 
  -31218   -18302    12440    23516    11861     3258      458    -9600 
  -19624   -20703   -23105   -33086   -39432   -32602   -21309   -19168 
  -21159   -14350    -9077   -22945   -40156   -34277   -11500     6173 
   10766     4292   -12142   -33187   -46742   -52188   -57052   -52782 
  -35818   -27927   -37956   -44991   -33868   -13150    -4085   -21145 
  -49763   -62146   -53826   -37878   -30147   -39042   -44638   -28379 
  -10758    -7958    -2637    12741    20745     9126   -15300   -35650 
  -42776   -42990   -42520   -38092   -31320   -31230   -37636   -43418 
  -44666   -37456   -28552   -35344   -51216   -53096   -45278   -45606 
  -50413   -46668   -32854   -15970     -570    16705    34101    32501 
    3969   -23399   -24159   -12646   -10528   -12617    -8935    -2498 
    2367     1589    -7304   -19467   -27750   -25558   -16650   -17805 
  -27160   -21268    -2270     -918   -18196   -17008     9117    21960 
    8754     -556     5232    -1942   -37662   -78632   -96765   -86694 
  -63600   -48247   -46404   -49433   -51318   -49193   -43784   -45733 
  -56045   -55214   -36048   -16704   -12361   -18909   -21538   -14813 
   -5186     9221    27601    30489    15398     8664    16901    17787 
    5336    -6112   -14263   -24362   -32238   -30810   -19512   -12515 
  -23862   -39304   -40723   -33957   -25679   -18827   -22552   -32925 
  -30680   -13222    -5374   -22455   -45559   -53345   -49896   -50004 
  -59825   -70209   -67914   -58394   -55127   -51961   -40506   -34271 
  -43507   -55032   -53370   -36119   -12813    -1561   -10802   -28259 
  -39095   -39194   -30984   -19070    -3941    13927    23168    18442 
   11276     6664     -158   -11541   -28835   -40902   -31754   -16217 
  -16412   -22364   -25700   -33426   -36737   -24567    -6802    -2765 
  -18369   -34315   -32692   -23620   -20024   -18791   -23094   -40774 
  -59396   -59863   -48524   -48153   -59266   -59507   -45378   -36808 
  -38372   -37688   -33233   -31732   -33863   -33004   -21652    -4729 
    1626    -5731    -8815     1216     8480     4888     1373    -1605 
  -12442   -23221   -22404   -21918   -35670   -47101   -38548   -23302 
  -16345   -14297   -18213   -35181   -57675   -68844   -62091   -47009 
  -35808   -24245    -6050     3326    -7021   -19482   -19232   -16806 
  -22457   -23281    -7363     9066     4845   -16698   -35263   -36181 
  -25874   -24081   -34778   -38972   -26790    -9945     2878    11013 
   14100    14181    10738     2947    -3560    -4167     1814    11076 
    9989    -9669   -31207   -35145   -23263   -10170    -9457   -16798 
  -11430     6553     9507   -13438   -35793   -30130    -9083    -9126 
  -30681   -35588   -18256   -10756   -18911   -25566   -31501   -45709 
  -55548   -39998   -11568    -2981   -16166   -30947   -43611   -58486 
  -63958   -49347   -30493   -20228    -2971    18270    12449   -16551 
  -30540   -17540      383     5990     5111    11114    22828    27242 
   22897    18268    10181    -7695   -24649   -28312   -26680   -34243 
  -52153   -64252   -51506   -27867   -25906   -40451   -44293   -36298 
  -29452   -21025    -3975    10594    13775    17324    22442    17258 
   17007    42898    72618    64909    17167   -18903     3149    49496 
   54344    18911    -8413    -6128     3804    -8975   -41141   -66246 
  -76259   -79603   -84222   -92093   -89449   -65808   -34714   -14317 
   -8935    -8215     1336    24589    55184    70710    56632    33725 
   25448    25362    15884    -3505   -13932    -8262    -5327   -13252 
  -19994   -24378   -34660   -53747   -72012   -70932   -57244   -55739 
  -59082   -46407   -30620   -30037   -32267   -24422   -11623     1534 
   11255    17486    25988    29594    22505    13231    -1220   -16242 
   -8003    10443     9318     7695    24880    34431    21846     4238 
  -11984   -29408   -42538   -48047   -44723   -29623    -5750    15130 
   22344    22635    27422    28874    18454        5   -19189   -24578 
  -16929   -19094   -31716   -34990   -20365     6402    25276    24179 
   20605    26391    27466    22574    26254    31055    19675    -5795 
  -30200   -36370   -24140   -17035   -22395   -20771    -8436    -5895 
  -22821   -45616   -64028   -77898   -79976   -74262   -78988   -86143 
  -69894   -29146    11272    25641    15618     6969     4447    -3670 
   -9854    -9904   -10947   -12659   -20285   -26478     -528    51620 
   81497    64182    19867   -16440   -32639   -41180   -55485   -80596 
  -99777   -88480   -53987   -24182    -7931     3867     9112     7415 
   19252    37057    22418   -14165   -27211   -17444   -12867   -12205 
     941    20747    23007     6109     1400    20200    29623     9472 
  -15806   -25363   -30572   -43443   -60111   -72809   -70593   -50661 
  -37362   -45671   -43581    -9498    20838    14984   -12285   -35113 
  -42847   -38299   -37306   -50467   -63045   -56665   -39074   -28145 
  -21831    -7446    14746    37947    56869    64058    59990    49058 
   30473    10154    -8762   -30620   -48501   -61449   -83913  -107664 
 -106376   -84660   -67063   -56981   -48420   -39075   -20164     4017 
    6396   -21601   -47427   -37164    -1264    23959    28019    27033 
   34678    50857    60388    54234    46609    46808    42954    31413 
   26123    27178    15419   -15030   -49336   -70616   -75031   -74843 
  -71861   -53986   -27202    -5843     4698     2790      545    12860 
   30718    38429    38016    31127     7611   -28944   -56358   -61120 
  -45536   -23819   -19892   -35839   -44510   -36669   -26056   -12610 
   14732    53498    83155    87250    74649    59208    36669     1168 
  -38610   -68175   -84463   -98546  -112725  -109300   -83060   -59985 
  -53546   -42795   -16429     8420    13211     5323    15847    44131 
   47150    14091   -20517   -28347   -13023    -3105    -7542    -9299 
   -9970   -16236   -16673    -8435     -997     3016     6973    11056 
    7792    -8435   -28032   -42037   -55670   -65831   -61718   -51071 
  -48238   -51528   -51162   -46366   -48285   -57111   -47929    -7342 
   37142    50883    37302    32041    50692    64525    47462    14758 
   -5900   -11857   -17815   -29578   -40480   -46226   -46187   -33742 
  -12147    -2335    -6526    -8414   -14926   -37517   -54890   -45750 
  -24945   -17157   -23234   -27817   -24315   -24129   -40251   -62142 
  -66519   -55128   -45295   -32827   -10752     2598    -4693   -12870 
   -3089    10779     4193   -15165   -18884    -8882   -13001   -40064 
  -74351   -91612   -80116   -65773   -78835   -99171   -88853   -54777 
  -32244   -31101   -23794    14497    63950    83232    60574    24398 
   11447    17905    12397    -8552   -25530   -25995   -15645    -8664 
    -194    20011    36384    28942     7631    -5489    -9602   -16085 
  -32591   -62039   -93278  -110124  -113528  -111763  -103951   -88803 
  -77368   -79755   -83816   -76440   -65682   -60138   -58808   -50988 
  -24733     -392    -8509   -34392   -46611   -45464   -45328   -50756 
  -54973   -47385   -30320   -12906     5199    21822    27078    25208 
   35961    61172    73725    54798    22079     4667     2691    -5020 
  -21539   -34475   -44922   -55734   -54699   -38408   -21800   -14807 
  -19259   -33842   -42476   -29284    -9066    -9082   -26904   -35153 
  -22325    -5932    -2628    -5267    -1503     3120    -7925   -36611 
  -59964   -61473   -56970   -68808   -90592   -94136   -73766   -56802 
  -58976   -65889   -56913   -29266    -3269     7223    10147     6955 
   -5420   -11396    -2035     8493    17706    34347    46941    43844 
   34114    25448    19256    18128    18074    12751     1036   -15384 
  -28709   -30282   -29680   -44358   -64074   -64826   -48299   -28915 
  -13745    -5270     3148    14311    19599    23290    29388    21919 
    5357     4316     9149    -2914   -21455   -32364   -37128   -30502 
  -13853    -5022   -10350   -18702   -23939   -32870   -44520   -46405 
  -34914   -14288     5374    15353    25927    43617    57122    60489 
   51154    29405     9642     1941     4328     8846    -5917   -45210 
  -71911   -63968   -45587   -33651   -23039   -13799   -11095   -16873 
  -26875   -37370   -49252   -58958   -63116   -61692   -48791   -24642 
   -6607    -1670     8124    25441    25631     8651     5099    24015 
   43490    43911    25873     3544    -8860   -11568   -21448   -45837 
  -69894   -78332   -70064   -57811   -56678   -65261   -74744   -88275 
 -101105   -96257   -78735   -66037   -59978   -53091   -39001   -21384 
   -7509     9197    33782    54800    65256    75025    90695   102567 
  104791   105986   105909    88577    48414     4630   -20447   -28368 
  -33990   -40739   -43497   -41365   -38160   -38309   -43818   -51063 
  -53017   -48163   -42513   -38570   -27661    -7280     5242     2616 
    4121    19930    36406    42932    42972    40574    36114    34739 
   39472    40391    29149    12485     1806    -2161    -9519   -22835 
  -34617   -46345   -62578   -78819   -89949   -92924   -90384   -90814 
  -95229   -99349  -100179   -93778   -82193   -72486   -64218   -54258 
  -46927   -45572   -43016   -32201   -22502   -25779   -27523    -7570 
   20861    34709    36917    39133    45767    57011    61995    59521 
   66913    77371    70188    49924    27565     9926     2574    -2624 
  -13470   -25489   -33731   -36219   -36393   -39160   -38495   -26355 
   -8007     4174     6575     7245    11211    12276     5759    -3307 
  -12303   -25584   -38967   -42166   -37341   -34152   -39068   -53027 
  -65625   -64530   -52362   -38383   -24709   -12628    -6426    -6517 
   -7749    -8074   -13197   -20842   -21367   -17978   -14822    -5711 
    6891    13906    15776    13789     8396     6124     3943    -5031 
   -7093     9144    27640    32132    25516    16241    12257    17311 
   22886    21469    20196    23683    21821    12338    12919    29740 
   40123    28165     7906    -3820    -7103    -5556    -4291   -12671 
  -22820   -18984   -13189   -23998   -41201   -49640   -57769   -75461 
  -88050   -77612   -49384   -17331    10513    22651    15539    11479 
   25763    37618    27886     9954     3719     9289    10508    -5934 
  -30702   -41115   -37855   -43803   -57365   -51957   -26634    -9392 
  -10654   -11189      291     9146     5125     -767      -34    -1127 
   -9528   -14826   -10865    -3867      950     -790    -8095   -10832 
  -10225   -15477   -20147   -17211   -12249    -5443     5354    14725 
   19443    20085    18589    19247    23551    29694    36825    41148 
   36147    23274     9949      422    -5529   -12290   -17992   -15690 
  -14279   -24003   -33919   -36855   -42271   -53218   -64302   -71795 
  -70212   -60659   -58986   -71237   -79319   -72526   -62443   -54884 
  -43198   -28761   -17226    -3925    12308    19834    16538    11883 
    8170     5367     2260    -6449   -13263    -7561    -1442   -10445 
  -26835   -33254   -28266   -27093   -35523   -38691   -26000   -11717 
  -14848   -27269   -30959   -28940   -28605   -29641   -33286   -34709 
  -29018   -23035   -21042   -20234   -16792    -8572     -159     7191 
   18336    28091    26597    16283     8799    10663    16511    16339 
    7050    -5456   -11535    -3590    15291    30994    33397    27153 
   25028    31236    37339    37044    34281    32702    26734    12024 
   -3279    -9266   -10476   -19038   -32351   -35550   -24868   -10050 
    -768      923     -207      641     6078    14319    16937    11383 
    4958     -255    -7815   -15564   -20067   -22494   -20536   -14372 
  -16676   -29442   -31711   -13537     2411    -4735   -20289   -26262 
  -29313   -34919   -42321   -50065   -49122   -35519   -17622    -9353 
  -15029   -23268   -27261   -29976   -30472   -26984   -25973   -30309 
  -32629   -32940   -35152   -33667   -27760   -23988   -22602   -18997 
  -10588     -718     8316    17786    19887     7579   -11266   -26364 
  -31716   -27927   -22805   -18030   -11154    -4793    -3246   -10138 
  -22199   -29197   -28771   -29223   -32910   -29656   -16857    -8626 
  -11564   -15069   -14669   -17022   -19363   -13537    -3443     1656 
   -1648   -11046   -21300   -29670   -39150   -50484   -57425   -60684 
  -71884   -90943   -99877   -88254   -66410   -51204   -47698   -44095 
  -30941   -17745   -13696   -13072   -11250    -9837    -8062    -4202 
     808      301   -12580   -28819   -34084   -32671   -35166   -36765 
  -26821    -9216      854     -510    -5431   -10789   -11312    -1801 
    5631     2114    -2403      155     8530    16915    19672    16534 
    9671     1923    -4394    -8218    -8633    -7814    -8305    -7813 
   -5250    -7137   -16649   -25708   -30935   -35419   -34026   -25712 
  -21733   -24225   -24412   -22678   -23801   -21181   -10434    -2502 
   -2497     -778     7981    19380    23599    13184    -2344    -5095 
    4294     8951     2815    -7558   -16628   -21458   -24819   -29392 
  -31706   -32528   -34621   -36504   -39241   -45688   -52446   -51930 
  -44112   -35354   -28176   -24002   -22415   -17650   -10180    -7271 
   -6657     1069    12215    12215     1998    -2286     4144    13225 
   19530    21618    18594    12740    10732    15722    23134    26856 
   23648    15487     7430      473    -7497   -15597   -18219   -11888 
   -4568    -5181   -11758   -21601   -29714   -26205   -15440   -10654 
  -11022    -6898     4214    16787    25685    27405    20608    13299 
   12675    11426     2104    -7911    -8976    -4994    -3938    -5924 
  -10524   -16578   -18738   -18093   -21009   -29343   -40806   -50293 
  -56151   -65276   -81370   -98048  -107456  -104624   -91374   -79306 
  -73799   -65573   -51112   -40144   -36556   -33260   -26075   -19547 
  -19757   -25202   -28870   -28967   -27881   -25526   -24022   -24507 
  -19848    -8418     3453    14028    17541     7855    -2285     -228 
    3261    -4683   -18968   -28891   -30460   -26266   -22235   -21119 
  -17880    -9351    -5125   -11603   -17725   -14322    -7192    -3110 
     816     7734    10044     1015   -10089   -11633   -10858   -18076 
  -23502   -19681   -17912   -23029   -26068   -21776   -13962   -10241 
  -12230   -14049   -16107   -22146   -26918   -28405   -33594   -43423 
  -50146   -46126   -32423   -20827   -17790   -14667    -7589    -6093 
   -9987    -9565    -6766    -4516     1973    11488    20582    28095 
   30351    27943    24699    21267    18519    16710    15513    14006 
