Origin Time       2011/03/11 14:46:00
Lat.              38.103
Long.             142.860
Depth. (km)       24
Mag.              9.0
Station Code      CHB012
Station Lat.      35.5721
Station Long.     140.3436
Station Height(m) 60
Record Time       2011/03/11 14:47:22
Sampling Freq(Hz) 100Hz
Duration Time(s)  300
Dir.              U-D
Scale Factor      3920(gal)/6182761
Max. Acc. (gal)   118.563
Last Correction   2011/03/11 14:47:07
Memo.             
[...]
   24274    14466     9129     9745    13855    19508    22591    23156 
   29779    39708    37851    24930    14566     8789     4328     9182 
   31996    63341    84505    88916    78967    54697    21397    -7124 
  -22528   -26223   -20730    -9644     1513    13275    29138    45445 
   58382    69282    72578    60000    38524    19254      145   -19049 
  -26804   -16793     4727    27902    44866    50242    39765    14481 
  -10873   -17785    -6246     9334    22490    33771    37979    29949 
   16833    11948    15206    16375    17147    24937    35509    42696 
   46435    44333    34696    24056    18365    15754    13605    11367 
    6881     1340      467     2109      339      980     8399    13534 
   11505     8391    11023    20351    30107    36145    41764    48942 
   53781    49725    36213    24309    22252    23618    20776    15450 
   11388     7565     2206     1665    13575    31517    46230    60099 
   72414    75057    68332    56031    37133    16723     1152   -15899 
  -38749   -56965   -59408   -40012     3640    58834   102702   124129 
  123432   103366    72578    40569    13388      700     5831    18658 
   34110    53734    70272    73358    61994    40451    11868   -15621 
  -29805   -29609   -22421    -9635     9669    32990    56788    74327 
   75628    55395    20379   -14296   -39410   -53501   -50970   -26945 
   11058    48688    73821    82254    78651    67455    50726    36181 
   34308    48859    75085   101544   116800   118066   108574    90623 
   65798    36970    10266    -5269    -5771     5072    23724    49202 
   77676    98527   101287    84446    51666     7470   -39379   -76861 
  -95769   -91816   -67731   -34584    -2925    23090    39252    41612 
   33942    25471    24225    32793    47695    64255    76414    76193 
   63008    42750    18530    -4669   -18493   -18681    -2930    26344 
   54435    69312    76088    80575    77841    68348    60622    54502 
   44584    35050    35119    47070    64766    78601    81101    69915 
   47391    18876    -8868   -26913   -25210    -2479    26494    43311 
   43262    31833    14904     1040    -3542    -6222   -13413   -12350 
    6833    32498    55077    73675    78183    62479    38113    16006 
     933    -2715      176     3396    14737    38530    62096    75941 
   85152    94077    98938    96718    86165    64483    33349     1630 
  -21907   -32021   -27076   -13559     -365    12200    26521    41177 
   54846    63887    60851    45730    31232    28109    32692    39307 
   49541    56896    50285    38540    40636    56253    70309    76844 
   78523    76231    73952    77009    81304    77486    63275    42405 
   14353   -16356   -28309   -12111    10497    20715    20568    16312 
   14180    15798    12781     4307     1916     7813    13624    20344 
   36023    54854    61094    55209    53342    60534    67108    66719 
   57125    35984    10362    -8185   -17639   -15987     2597    27904 
   41519    46356    56981    71648    79398    80442    78006    65668 
   41637    15823    -2214    -4456    10836    30432    42481    48165 
   47810    40643    33704    29304    22005    15192    15560    21133 
   31945    50162    67288    70486    52967    19057   -13764   -32205 
  -34440   -16688    16649    46873    65289    74582    71604    52731 
   23160    -5133   -20381   -18350     1753    38025    74735    93294 
   92367    77852    52035    22855      637   -14973   -28141   -33015 
  -20649     4604    30765    56740    85864   110159   118834   106627 
   70024    17655   -25819   -46854   -52829   -46185   -19544    23363 
   70145   112351   135536   124904    89718    49140     7717   -29125 
  -41131   -16420    28622    66074    77889    61724    33409    13396 
    5961     5712    12085    22172    27945    29181    32106    39509 
   51436    63650    64224    41459     -323   -40151   -64121   -72906 
  -63143   -29544    18314    62418    89964    94261    75877    43291 
    6232   -25355   -37625   -23392     5694    34550    61791    85735 
   95873    88075    68698    48061    37096    38329    45759    60062 
   83329   102168   105530   102139    95967    76188    43481    12519 
  -12244   -36676   -58062   -64991   -51031   -19236    19724    51298 
   65860    63376    47186    20077    -8715   -23918   -18636     1078 
   24091    38988    39527    31143    24937    24717    26813    29333 
   34020    40909    48174    57226    69428    78358    75062    58487 
   34096     8042   -14443   -30576   -39954   -43069   -40194   -28188 
   -3361    29466    55990    62380    48994    31332    22308    23546 
   36664    64178    96157   117259   124784   119736    96345    56922 
   14582   -21680   -48183   -61014   -56395   -32897     5789    48178 
   78869    92561    95254    86493    61750    28036    -5060   -33615 
  -50327   -46625   -24341     1487    16164    22619    31545    40377 
   40599    32791    23248    21481    35469    56473    67891    67610 
   59719    45377    33374    29843    25162    11488    -6961   -23065 
  -29554   -20303     2889    28663    46380    55849    59968    57047 
   48907    41079    32340    21767    18733    28208    39036    39795 
   33040    27671    27495    30163    31195    27210    20062    15877 
   15574    17538    28973    51640    68717    70817    67517    62129 
   50761    38229    27574    12862    -7305   -25534   -34087   -31488 
  -22392   -11357     -574     8216    14308    16160    13426    10868 
    8788     1589    -6102      593    27535    62207    88119   102906 
  110891   108316    89913    56405    13504   -24252   -40740   -32837 
   -7168    25848    54788    76748    90867    86972    64896    44005 
   30702     8725   -24248   -48127   -54220   -53077   -49344   -37674 
  -21162    -9475    -2699     4783    13980    25723    42591    62193 
   78571    90338   101857   115706   125652   119490    88953    37733 
  -17722   -58726   -75232   -64214   -27867    24018    76868   113953 
  122346   104024    72286    37689     3737   -29570   -59164   -74669 
  -66303   -35402     6097    44493    73290    89499    85135    56920 
   14776   -28395   -60605   -71577   -62509   -39734    -2438    46157 
   89558   111065   107280    85768    54296    19171   -11781   -32015 
  -34979   -16679    12563    34953    43219    38355    23464     6144 
   -4775    -5052     2638    12751    22826    32600    42372    50985 
   54251    51287    44409    28018    -2405   -30805   -37641   -23296 
    4109    36641    60421    65995    56857    41506    28549    22796 
   21346    23236    32711    49193    71079    99309   123851   126645 
  105138    74743    47717    24175     3579    -9669   -14869   -14149 
   -5682     9217    24473    41196    63635    86220   101335   106488 
   98919    83847    73902    64935    41144     8084   -13327   -18838 
  -14947    -2226    12893    18874    16732    16748    24783    36893 
   42803    37298    24218    10041     1862     3754    10582    16504 
   25308    40477    57027    72274    84972    86217    73146    54086 
   32257     8438    -8629   -12195    -5396     7435    23101    32821 
   27024     6124   -20021   -40166   -46944   -41666   -32109   -20167 
   -3830    11218    18682    22437    26600    23941     8995    -6278 
   -7621     2536    17292    36745    57547    73068    80540    77667 
   64248    42083     9221   -30888   -60901   -65530   -46069   -12131 
   26201    57819    76994    86639    88174    79896    67919    60797 
   57219    55889    62402    76293    92176   108782   117897   106364 
   80233    58753    46511    37970    33881    33445    32181    29195 
   23362    18516    24253    35879    37102    24829    10200     4425 
   11805    26359    36404    35959    29397    23043    14795     -984 
  -20226   -31014   -29206   -17805     4081    34216    62609    78811 
   73349    46255    15596     -743    -4339    -4250     -896     4273 
    1013   -11844   -19369   -15446   -12381   -16367   -21676   -27194 
  -30168   -19440     7599    39424    64125    75911    71757    52087 
   24037      258    -9847    -9132    -2772    14051    42416    69141 
   85082    92295    86917    63983    33550     7505    -9740   -11263 
    2423    18406    34928    54771    62806    46704    11902   -31119 
  -65131   -73089   -55957   -24230     9955    31528    37415    37749 
   38270    38122    33833    23325     8924    -9411   -27874   -30987 
  -12869    11750    29923    41495    46912    44509    37459    28020 
   13177    -3361    -8831     4706    31286    52526    53304    39018 
   26334    20048    12171     2398     3770    21409    42821    57419 
   69579    82159    82360    62743    35803    13242      848     8317 
   35578    67820    94553   111545   110060    86597    52875    24898 
   10341     2185   -13047   -31110   -31611    -8887    21526    45628 
   60743    64862    53701    32952    16082     4977    -5876    -9143 
    5305    30389    52972    69659    78248    68028    32687   -13927 
  -50114   -65239   -56669   -27387    12129    51113    76412    75021 
   54235    33903    20940    13801    13042    18944    29783    41082 
   50235    57459    55399    34519     1754   -27259   -47621   -58774 
  -58076   -50931   -45910   -42592   -34869   -17573     7808    30928 
   43364    47387    46479    39102    31654    34546    40825    39810 
   39928    49006    56329    53397    47236    42968    36109    26287 
   16688     6406     -716     1404    10444    22152    28189    15899 
   -9287   -28339   -34865   -29425    -9243    20814    49688    73198 
   91955   104525   108000    98521    72265    28343   -24830   -66047 
  -80293   -76044   -65297   -43744    -6251    37968    74051    93529 
   97492    89406    67744    36259    11378     7569    27527    63702 
  100886   124474   122678    89943    37702   -17565   -67514  -100801 
 -103285   -72281   -20323    34844    82353   114420   121791   104297 
   74215    44134    18690     -349   -11647   -15992    -9450     8691 
   24311    30890    35988    32990     8977   -26305   -49515   -45513 
  -13894    32986    81980   127310   161520   171362   149058   101060 
   45279     -863   -31029   -47300   -47675   -23482    24363    76261 
  108102   108031    82135    48418    19931    -4221   -27647   -46406 
  -54463   -51176   -39726   -23483    -5554    13801    35540    54121 
   60097    54086    51031    61395    79101    97233   113754   120759 
  111348    93129    79945    73748    66253    53722    38121    19540 
   -2524   -22803   -36456   -47184   -52651   -39939   -12748    10072 
   28759    52935    72694    77806    75892    70279    55072    37947 
   30866    29098    28244    35105    52804    74776    89968    92696 
   88323    86883    89703    86375    71205    49367    24821    -4148 
  -38534   -69275   -83218   -82192   -74500   -54437   -13588    39812 
   86252   117082   137461   142893   124451    93814    66198    41353 
   18969     2344    -6639     -658    22991    43845    39036    15449 
  -10745   -38925   -61533   -59229   -26249    25609    75930   112830 
  142571   165461   167893   142655    94796    39366    -6687   -34694 
  -39467   -21770     5275    29915    49151    62724    77449   102699 
  132163   148988   142373   113098    77423    51047    28494     -667 
  -34110   -67376   -98801  -119780  -121905  -114928  -117009  -130431 
 -140191  -129522   -91469   -31699    34402    87008   110516   105326 
   85737    64553    49770    44515    41815    33940    25987    30848 
   53865    89637   130798   167898   186978   179764   149055   102806 
   51556     8268   -16228   -17419       43    21254    34643    43019 
   49704    54224    60249    63416    53619    40751    44936    65038 
   83278    84249    59239    16698   -18484   -33598   -35750   -31058 
  -19863    -4761     9441    17638    17615    15888    21144    31424 
   40710    50998    66759    86307   101329   102075    83896    47375 
    1353   -33224   -41439   -30701   -13761     8923    41712    81276 
  114873   130661   126800   107470    76516    38144      107   -31556 
  -56151   -69221   -63007   -35174     7916    48025    64676    54374 
   32804    18913    21425    39825    66940    91465   107714   114520 
  107715    85271    51154     8858   -35849   -66791   -73630   -64604 
  -46395   -21142      171    14095    31497    51778    56949    39865 
   19440    16469    32574    57895    79313    85385    74733    54188 
   31307    14228     8776    13370    19943    19226    15284    27519 
   64136   104392   118164    97355    54258      850   -49189   -77415 
  -77394   -62405   -49358   -37445   -10944    34141    80058   108666 
  118283   113243    92927    59848    24151    -5326   -22820   -26048 
  -21280   -13457    -4462    -1875    -8648   -24412   -52537   -83912 
  -96408   -74345   -20153    40317    75223    75991    53674    23232 
     300    -7803    -4298     6568    20391    35414    57185    87737 
  117691   133720   128796   108848    85774    61722    35909    23221 
   38473    66841    75056    50288    14054    -7064   -12339   -17410 
  -29040   -40412   -43630   -37038   -18871    10523    39137    55654 
   67350    86104   107962   124551   134740   136805   124877    94313 
   50742     6312   -32370   -60625   -74514   -75906   -65970   -40594 
    2040    51055    86029    94367    78859    50974    22733    -3576 
  -35099   -71980  -107955  -139860  -157967  -150133  -120021   -83533 
  -54505   -31408     -224    39334    69796    81675    82221    81054 
   79415    73690    62074    44684    25477    11569     5732    10484 
   31362    63363    89481    96630    83776    59313    35318    20539 
   11733    -7235   -45439   -88176  -115092  -119150  -100408   -63850 
  -20100    18857    40366    40284    30731    26515    29582    35135 
   42956    53274    65650    82543    98968    99449    77157    41700 
    1599   -38925   -66622   -67605   -41048     3248    49242    83791 
  108916   134843   158773   165055   150390   125697    90767    42627 
   -1186   -26106   -39878   -45674   -33088    -1132    38206    71756 
   88803    86777    74358    60183    45387    31316    23024    21325 
   23771    33190    51783    69403    69886    51518    27849     5330 
  -16153   -27440   -19255     3126    22164    25128    17958    14622 
   22637    41164    57539    54980    36110    17605     6023     3224 
   12310    28053    38632    34616    22191    20966    33667    39504 
   24832    -2933   -30066   -42703   -24860    25478    84462   123152 
  133686   123783   100676    74354    53728    37641    27280    29163 
   42038    60735    81647    90821    69010    21657   -23829   -53086 
  -65126   -54106   -21246    16614    46598    69463    86567    94465 
   90712    71423    33572   -10510   -39870   -47572   -38574   -17039 
   11940    43505    77141   110077   131142   125281    90557    46208 
   10932   -10272   -14783    -2067    22224    48807    64652    61641 
   42187    13436    -9961   -13250     1879    27132    58979    89880 
  109358   117187   120871   117917    97398    62567    30235     8713 
   -5926   -16868   -19090    -7718     9999    22990    29082    29332 
   24006    15857     8637    11085    32686    63360    82962    89047 
   85175    65547    36324    15076     -138   -20962   -40374   -44046 
  -26420    11582    60224   103745   132981   144850   133271    95171 
   44142     4592   -10247    -6966    -1052    -2223    -6208     -711 
   19427    46369    69138    88607   114551   143291   155098   140099 
  108490    74215    47854    38569    45184    52950    46322    24812 
    3463    -8242   -11168     2549    38315    76053    94868   101536 
  109588   112762    99340    74148    45952    16453    -5448    -9239 
    1118    15567    24991    20565     4150    -6259     -214     4430 
   -6781   -20225   -26398   -30270   -29291   -18590    -2052    12749 
   21033    24246    26781    28143    19924    -3916   -34870   -54554 
  -49333   -21030    16857    50869    69700    65957    47375    36989 
   48449    69661    80206    69967    43266    18249    10336    21118 
   46249    75756   102879   132178   159356   171700   170905   161802 
  134157    86697    42768    17230     4947     3754    14042    29326 
   38813    37026    30531    26252    24655    24222    20347    10195 
   -3249   -13505   -15651   -12260     -262    23450    37806    27236 
    6455    -5844      675    24475    51288    71942    86906    97412 
  102991   101800    89623    62305    24999    -8583   -28125   -28727 
  -11036    14384    35455    49187    57319    58204    49623    39106 
   37593    40536    35572    22655     5957   -16817   -41490   -54505 
  -49336   -32234   -14243    -3068     1750    10371    33788    68377 
   99973   120202   126314   118178   104135    93240    82663    64405 
   33004    -7954   -39079   -44151   -27704    -4405    12303    13813 
      99   -20134   -37018   -47227   -51383   -46501   -26140    10210 
   52428    85717    99794    96515    85631    69113    44038    21836 
   15867    16751    14966    21022    39019    63771    93873   118159 
  121184   101954    71649    40839    17207     7203     7526    10642 
   10411     3548    -1062     3937    12423    13509     2237   -10298 
   -7569     9758    25481    29497    25070    17323    14121    25149 
   39402    37462    24820    11470    -6384   -23993   -33204   -39298 
  -45729   -44146   -30579   -12770     7481    34882    61011    73252 
   72482    66488    60403    55766    52984    51343    45435    30968 
   13239    -2170   -16580   -29387   -37021   -38093   -33251   -24298 
  -10288    13701    47872    82242   101967    95465    63330    21335 
  -11783   -26474   -23061    -9878     3317    14450    28147    49128 
   74200    90291    88889    74156    52955    31637    21127    31183 
   60149    95371   122670   137609   143627   138711   117922    84119 
   42983    -2397   -43011   -62704   -56399   -34457    -3116    36454 
   74917   100338   105655    89991    61180    31505    10422    -2608 
  -15744   -30144   -39540   -39863   -31337   -19589   -13676   -20088 
  -34962   -45484   -44224   -29422    -3199    26440    60049   100022 
  133656   147880   138762   106305    60236    22223     5640     1413 
   -2114    -4022      187    12238    27724    37580    35380    20481 
    1254   -11257   -14017    -7115     9381    29179    41139    38891 
   26845    14381     6419     3277     2677    -1820   -16353   -38314 
  -54616   -53158   -37314   -16792    10601    48506    87203   116862 
  138779   152135   144326   110836    66728    21353   -22650   -51886 
  -57857   -43978   -18255     6615    23157    31741    34621    37173 
   41338    44088    47563    54921    62291    64414    60409    49644 
   30054     6159   -11289   -17889   -19395   -21399   -21652   -13463 
    6655    34331    59646    71838    67369    54508    41100    29472 
   21063    13466     6502     7137    19999    42654    68600    94070 
  120767   143625   151096   145223   135965   123196   104019    80755 
   59031    47544    50172    58486    63566    66460    67546    61124 
   46347    32684    32516    47731    66692    77522    76272    64306 
