Origin Time       2011/03/11 14:46:00
Lat.              38.103
Long.             142.860
Depth. (km)       24
Mag.              9.0
Station Code      CHB003
Station Lat.      35.7926
Station Long.     140.0577
Station Height(m) 21
Record Time       2011/03/11 14:47:31
Sampling Freq(Hz) 100Hz
Duration Time(s)  300
Dir.              E-W
Scale Factor      3920(gal)/6182761
Max. Acc. (gal)   462.656
Last Correction   2011/03/11 14:47:16
Memo.             
[...]
 -121225   -78210   -40297   -21223   -20447    -7584    20538    47939 
   77082    97743    97910    81659    54734    33575    32411    51333 
   82288   105011   108148   106370   114028   127277   136182   132453 
  118095    99386    70720    30464   -15945   -64455  -104734  -130676 
 -147467  -158553  -164726  -170454  -178763  -193836  -214360  -223092 
 -219262  -213139  -193269  -155581  -108595   -54158     4665    62918 
  116793   171576   226783   260559   264004   245855   210081   170233 
  141788   120004    95713    62501    17724   -28428   -68881  -107101 
 -144580  -178764  -202733  -211506  -209951  -200056  -181227  -159633 
 -129265   -79041   -17992    39280    82430   107612   119570   117191 
  107272   106561   108133    97212    73526    30499   -33916   -96533 
 -135105  -149640  -148176  -130466   -94695   -50198    -9702    15327 
   15450     2226    -2246     1146     5075    15682    24704    16907 
    4724     2203     6599    24774    60698    95076   111603   114765 
  112014   106642   108815   121041   126074   105498    55383    -4874 
  -55713  -103397  -147068  -172209  -186566  -206664  -229161  -240715 
 -233156  -203799  -158245  -107653   -54715    10433    89701   159326 
  205434   239571   255602   245955   232835   225328   208833   180733 
  145463   102966    57888    21130    -8737   -54545  -120036  -181422 
 -229200  -254359  -239719  -200043  -165413  -143254  -132649  -134160 
 -137383  -124253   -86181   -31532    27405    79231   103016    94506 
   79815    71047    66821    76163    92541    96969    85387    63371 
   42627    32765    36323    54278    71518    75115    73676    69413 
   57940    36801     -983   -53006  -108375  -159879  -194116  -205779 
 -216493  -235727  -246839  -242961  -223352  -184482  -131093   -70060 
  -16587    13868    33109    59507   101632   158820   202841   217557 
  227739   237536   230007   209303   175193   123316    61126    -8338 
  -79725  -144844  -196289  -222332  -220940  -198565  -162182  -123252 
  -89034   -57075   -26931    -3143    18671    47448    79236   104958 
  120739   124471   114811    94397    70711    40348      877   -22004 
  -23107   -33031   -56137   -80542  -102863  -109894   -86235   -32916 
   21822    49350    58377    61712    54269    39419    18374    -5616 
  -22233   -44287   -72748   -79505   -56979   -17385    24977    55301 
   70415    77828    88493   106562   119137   121335   119735   104171 
   74457    48208    29840    13318   -16003   -58843   -89218   -95067 
  -80513   -53708   -34654   -31458   -39353   -53785   -56580   -42760 
  -36862   -48979   -70455  -101075  -133943  -153157  -160271  -165441 
 -172672  -177602  -160151  -109483   -39963    33664    97297   143146 
  182684   217505   240068   252919   252474   235516   203726   159063 
  119616    95872    74798    46689     9983   -30159   -67262   -99578 
 -123194  -134214  -133139  -126236  -112672   -89419   -67892   -43517 
   -5650    22764    30245    38448    53925    69380    88389   113894 
  134410   133752   118024   105341    81998    26553   -39103   -90554 
 -135177  -166761  -169129  -158092  -160663  -177871  -188235  -175231 
 -145449  -104149   -32689    61990   137006   171832   157681    99324 
   38544    -2017   -24635   -30816   -38447   -51557   -64528   -92134 
 -123478  -131783  -121871  -106712   -92272   -81009   -73225   -72957 
  -70522   -44566     2736    50503    91773   128547   156795   167997 
  159059   150211   156636   155097   132528   107640    79534    37187 
   -1463   -29755   -66717  -109755  -146852  -181369  -211536  -226275 
 -218358  -191426  -154530  -109628   -62002   -30323   -20512   -11622 
   19848    78984   147104   193755   209192   202933   169544   112129 
   62534    28134    -2951   -21331   -35935   -72118  -117655  -157085 
 -202607  -250604  -280351  -282443  -260477  -227284  -183916  -127614 
  -79053   -41732     6393    57925    92357   109724   107102    79500 
   40651     4571   -29148   -61278   -84206   -85146   -66049   -47112 
  -30569   -10799    -4458   -14377   -22734   -23806   -16958    -2772 
   12031    16630     5984    -2878     2364    11225    27160    62798 
  108125   152574   190954   208879   205243   186772   149442    95935 
   48076    28484    22434     -733   -37629   -75183  -109757  -125523 
 -109258   -77180   -48651   -22713    -8901   -14115   -12554     4740 
   13094     6775     6671    14689    10151    -5691   -26330   -59005 
  -88177   -99276   -99043   -88077   -69782   -48997   -27458   -10977 
    8312    42795    84472   113289   114133    89877    60719    36714 
   15800     1471    -9896   -22813   -33931   -50154   -76567   -93776 
  -77655   -38789    -9967     4901    27198    51512    51597    35516 
   21847    -2863   -39466   -63563   -73968   -82309   -81496   -70757 
  -65248   -68533   -77945   -86785   -90130  -104289  -123361  -128710 
 -136030  -152479  -168449  -171000  -142496   -86115   -12143    65702 
  118524   141102   164385   199494   219564   219330   223287   233694 
  232920   215785   192285   170418   145073   111213    75835    39408 
   -7076   -61441  -122832  -191843  -255340  -307292  -342081  -342935 
 -309155  -251085  -180146  -118074   -78069   -62125   -66468   -63595 
  -33268     8978    50106    83214    94869    90298    80559    69215 
   64805    65356    65513    66199    57178    37598    20426    -1010 
  -34170   -65836   -88529  -103097  -108700  -107392  -100309   -84668 
  -53788    -8740    34909    66844    92468   114630   121045   111597 
   98926    76887    46049    22547    11666    16358    34090    57653 
   72020    58749    41494    42770    43464    34129    14889    -7588 
  -23243   -39025   -46186   -36671   -29510   -29111   -33502   -48659 
  -65018   -74817   -78486   -75287   -73851   -79109   -86173   -95060 
 -103532  -100043   -80901   -59862   -46685   -31589   -10297     2926 
    3905     2434      453    -2859     -442     8659    14969    19921 
   26194    24434    23290    34449    43404    48410    62451    75583 
   79422    85515    91783    86735    76319    69313    63498    54573 
   49425    54078    51303    33320    12435   -16433   -50709   -67786 
  -68099   -62853   -50305   -35139   -26765   -24322   -31505   -55906 
  -81650   -84484   -68027   -54743   -55782   -69477   -94777  -124564 
 -144183  -146071  -131928  -110362   -91070   -74138   -56986   -42633 
  -31009   -15965     8850    47823    97493   135615   136662   109272 
   85242    72510    60378    53417    56506    52915    28938    -9931 
  -49606   -80743  -108128  -133293  -153061  -175283  -197357  -206904 
 -204519  -190566  -159479  -115361   -68347   -17349    40221    89819 
  121624   153424   205187   268208   321971   355973   361583   337260 
  293619   242709   188226   130571    88159    70665    51001    13853 
  -20183   -41330   -65307   -97519  -131278  -162420  -183192  -195761 
 -216457  -242549  -257691  -264790  -260908  -230820  -178765  -111305 
  -34731    38911   110522   172405   212644   243510   266150   263278 
  247508   240202   230017   211343   196475   186058   170267   137729 
  100211    69132    20557   -45596  -106423  -159202  -191994  -196340 
 -183279  -161385  -143148  -134788  -127423  -114503   -92111   -58956 
  -23560     4556    19284    16426     3175   -12732   -32518   -48000 
  -51984   -52352   -42351    -8123    27918    39963    37706    31893 
   24940    23818    37622    72247   111893   140303   157217   158087 
  151109   145524   121179    64551    -7346   -76250  -140297  -194012 
 -227844  -252309  -277488  -297757  -316341  -333547  -329170  -291356 
 -234269  -166254   -73086    30481   100829   136790   158939   166202 
  170245   190231   210764   212026   206339   202616   181631   136758 
   96680    70605    38432    10809     8154    13977     4803   -15087 
  -32052   -45379   -55169   -56666   -43349   -26490   -30475   -44859 
  -53836   -64782   -63922   -34142     4585    22534    16581     9373 
   13905    13837     4211     -372      399     8629    23631    34654 
   51136    76263    96747   112102   126409   141402   155826   166910 
  167810   143707    96977    46586    -2645   -53512   -98987  -135228 
 -164182  -176972  -163510  -131139   -93859   -60646   -48049   -61609 
  -73682   -69303   -61760   -49694   -16045    32229    62933    66539 
   50054     8693   -38167   -61249   -69459   -69965   -52626   -32652 
  -26736   -20931    -2832    19890    37756    50377    63312    75695 
   76742    68465    63382    62247    63150    66512    72057    71598 
   49428     7440   -53461  -141005  -234117  -307572  -355126  -365551 
 -340665  -303042  -257980  -204571  -154188  -106001   -60245   -33032 
  -24959   -13609     6836    16807    24661    45608    58246    68410 
  102520   146034   181098   216130   246670   239980   191925   143882 
  115503    92069    74037    64589    42808    11183   -12687   -51133 
 -120773  -188795  -215651  -206933  -195506  -181178  -158310  -147646 
 -141860  -121387   -96128   -64805   -21625     7111     2387   -28689 
  -75145  -121166  -158966  -189364  -209561  -224573  -226188  -191464 
 -134119   -89470   -61248   -34792    -4471    27800    55340    73975 
   86843   100144   117559   132760   134379   112942    59118   -20331 
  -97813  -161274  -220389  -270109  -299477  -321564  -344287  -349900 
 -338043  -322202  -284957  -209327  -106173    10276   128213   240200 
  330910   384459   420511   459396   479021   467529   457505   446552 
  398979   337038   281198   199260    90683   -14958  -116332  -212058 
 -275694  -298477  -300485  -295558  -285932  -269431  -244677  -207064 
 -143621   -56599    42513   147725   243328   303719   306663   272707 
  254314   252541   231768   185649   123093    45196   -41445  -116830 
 -174104  -229744  -280311  -303111  -297054  -271176  -232984  -179997 
 -101567   -31026    -2928    17920    57224    88663   105337   115762 
   97290    45969     3538   -19089   -52730  -102265  -143167  -170826 
 -194283  -203275  -196975  -188120  -170297  -135736   -93966   -61622 
  -45385   -34350   -13178    19118    41451    36178    19968    15015 
   16297    23532    36946    40622    49191    84131   125163   151365 
  168934   186216   198719   203311   201829   195114   189198   185947 
  186428   199098   217436   214145   160704    64399   -26904   -88187 
 -131179  -158204  -173410  -199729  -244025  -297190  -348542  -377010 
 -374679  -358306  -342284  -320098  -267483  -175335   -73447     2155 
   43335    53214    36795    20493    42626   106172   160943   161962 
  118481    61165     2771   -44184   -59726   -55239   -57965   -66442 
  -78446  -104184  -128491  -124367   -95281   -59495   -21649    22094 
   77391   139102   184026   196305   184768   167746   160823   167841 
  173077   163813   148715   145003   160551   183987   208303   225342 
  193240   109191    10446   -93440  -166520  -204605  -258602  -311311 
 -338193  -351095  -339167  -295868  -229371  -163060  -125072  -115621 
 -134062  -182949  -245897  -296921  -313790  -298045  -270316  -246825 
 -228209  -214170  -217071  -228965  -213192  -143871   -23498   126689 
  263960   351942   406390   454356   483369   461550   389729   308872 
  244179   201141   186877   181954   155785   110659    43514   -58177 
 -154105  -196097  -185462  -155891  -145655  -148328  -153980  -189153 
 -205340  -147128   -97988  -102270   -94519   -72480   -48536    16095 
  104292   157999   166391   156080   126513    57151    -4275   -17491 
  -13772      799    10943    -4113   -44035  -131128  -230464  -294767 
 -330564  -314782  -234124  -125781   -35273     6833    22854    63624 
  128302   167199   191537   249296   291405   295155   289633   218554 
   92021   -20723  -135463  -254217  -341907  -365537  -327425  -291418 
 -290275  -295185  -290817  -296831  -297922  -243415  -150235   -54752 
   59095   181948   281794   332751   317943   273153   227681   177830 
  142282   124942   102225    59458     -103   -59190  -115225  -164034 
 -200760  -246234  -290302  -298754  -248235  -129326    -1580    83772 
  152555   182613   132895    56298    12600    11283    66723   173280 
  274324   347370   402396   415364   393639   352813   266029   150662 
   47725   -20400   -42246   -55020   -75763   -71310   -54289   -43529 
  -17698    16301    32270    26998     8685   -29543  -104157  -196616 
 -266330  -296842  -306159  -320243  -332574  -336792  -342818  -318719 
 -228625  -110586   -27667     3317      -84     7958    55118    79847 
   47507      184   -58624  -112516  -111376   -50927    43026   130478 
  190801   222795   204178   143040    87372    58197    41711    22539 
   16937    30891    21841    25600   104590   165118   133749    56935 
  -67822  -226016  -341295  -413443  -463477  -467679  -425126  -342210 
 -221656  -108441   -39954    24024   130931   259466   367889   437950 
  450221   390829   289423   184118    86711     2845   -46841   -35369 
     707     5739    13440    61597   127351   192527   267567   357748 
  425612   448234   444046   405205   322660   206219    77162   -17733 
  -81521  -147028  -174820  -147506  -130280  -135346  -127443  -116693 
 -103668   -81162   -72395   -87565  -123835  -166544  -192649  -204516 
 -207977  -215996  -253938  -265804  -197112  -130850  -110974   -91602 
  -70020   -61393   -96484  -180521  -256902  -288169  -239958  -106652 
   58267   247624   473681   661509   719966   682004   630840   546856 
  412305   290174   189284    88148     -450   -97572  -197874  -265548 
 -313687  -345014  -354870  -341267  -296285  -245894  -184972   -92393 
   -3678    59711   102411   106926    65472    21687    21859    34859 
   22151    -2491   -34680   -82529  -163607  -273692  -362914  -415171 
 -420385  -334614  -165524     4907    86863    73994    23375   -47914 
 -113268  -120926   -69990    24840   123927   186846   229802   229861 
  172680   119532    84374    41091   -16525   -64278   -63842   -43575 
  -16379    49870    96231    85405    63628    27865   -10724   -21139 
  -26236   -17295    22823    64390    96888   120401   122903   102238 
   73869    55651    29586    -8048   -18384     3243    39685    82008 
  110075   105104    60453    -1243   -41121   -61041   -84030   -95328 
  -70500   -23386    -3489   -37176   -84771  -129587  -181683  -211296 
 -241216  -302689  -346460  -351161  -306467  -186270   -41158    60897 
  120742   147647   130232    95989    71452    45622    34415    37227 
   19336   -11250   -36285   -62204   -90888  -117181  -142980  -174853 
 -208873  -227827  -203762  -139681   -88282   -65377   -56569   -63185 
  -48876    -8879    23160    73749   136438   177784   220943   266410 
  283989   262767   218586   166420    77883   -55036  -185633  -285858 
 -331039  -289901  -180058   -47603    53482    98060   111213   108459 
  103484   106864   123165   179521   250501   291616   337628   394743 
  411592   408225   420447   399611   330515   266891   201397   105563 
  -15008  -169434  -336484  -474267  -570924  -615617  -619296  -602416 
 -551352  -460582  -341107  -196585   -32210   142587   301662   404857 
  448553   454225   393908   280230   202461   146920    75736    22213 
  -53130  -171528  -264027  -327163  -398888  -460545  -491186  -498058 
 -475959  -421545  -341965  -242821  -138170   -23571   109783   243921 
  369503   474670   537857   552805   532844   515655   486620   407036 
  327906   281799   235247   174532    96019    13316   -55538  -125081 
 -207475  -291658  -359400  -407200  -427682  -393874  -316890  -233823 
 -156155   -95235   -60774   -37766     -812    51029    86660    86342 
   58156    13489   -36224   -68372   -82926  -103130  -125768  -154235 
 -192266  -202649  -177910  -143040   -98035   -39495    17647    49693 
   47541     7871   -55911   -83892   -65890   -37170    14195    63222 
   88622   129810   167053   181644   197358   199288   175364   135315 
   89058    46441    15889    11891    21960     3828   -57434  -140987 
 -233797  -332714  -414806  -455409  -444743  -396538  -356631  -340813 
 -325334  -315885  -317171  -300906  -267229  -234124  -189099  -129351 
  -68114    -8562    28592    38348    37920    12277   -12392    18077 
   74612   128693   189222   236041   258447   268508   270884   260519 
  244285   237553   229026   209009   182738   147246   103343    56261 
   11561   -33702   -95447  -170819  -234503  -269485  -273733  -255311 
 -220417  -154111   -48163    70176   169233   228164   238325   214395 
  177919   141319   102924    65744    42304    22558     4269      981 
   -8039   -41710   -86502  -131199  -168285  -192761  -209363  -216761 
 -199599  -143501   -66898    -6845    34913    74457   111444   149732 
  194623   237052   267764   283288   291338   300403   289654   237894 
  167120   111034    70540    34878     8041   -13254   -49231  -104604 
 -155966  -198133  -241403  -272300  -290327  -296990  -278881  -254936 
 -223475  -159713   -87656   -21902    38483    64080    43826     -432 
  -42676   -78640  -120112  -151840  -157348  -149313  -134405  -118357 
 -121522  -149036  -181958  -196848  -174348  -100927    14102   145019 
  273511   378602   436884   443462   413094   357074   283740   216397 
  159702    94182    27469   -12542   -31318   -62243  -110679  -169230 
 -247549  -329273  -380086  -390483  -369863  -337875  -298748  -248133 
 -210295  -189013  -162166  -128549   -64575    40109   137459   217160 
  293980   342293   352691   362728   390236   406378   416391   431123 
  422471   398794   366380   317454   260997   184720    91987    -5434 
 -112957  -224531  -331516  -422581  -482355  -501239  -485154  -441389 
 -358485  -252474  -165671  -100053   -42668    -1530    18523    17770 
   11126     3598   -32525   -88616  -135321  -171862  -187647  -170360 
 -128896   -86969   -50688     5363    74225   136428   205175   264464 
  288508   294127   279712   232168   180204   128265    48328   -48431 
 -140679  -224213  -298447  -372028  -435197  -463106  -461147  -447420 
 -399894  -281140  -130565   -30261    24822   109329   240035   328486 
  323532   307431   326556   351172   383059   411848   414242   387392 
  320262   218312   121402    24726  -114140  -252102  -349516  -427518 
 -464593  -491519  -551981  -585354  -572466  -533190  -467890  -402541 
 -312215  -169977   -22528   123684   262439   334347   364727   412325 
  440312   435133   432918   406760   353318   316219   279221   223351 
  144103    31444   -74876  -157821  -225317  -257526  -279312  -289675 
 -251651  -199016  -150201   -84692    -2611    80223   131338   160830 
  204436   231666   216491   199636   197061   175468   138148   108158 
   68469    19483   -25399   -84162  -147284  -188631  -213838  -224260 
 -213614  -191488  -167327  -149442  -144385  -145329  -150669  -158839 
 -153079  -121949   -61028    20170    97554   164899   218722   240506 
  224526   185456   146333   117057    87318    69930    90927   124308 
  130064   118498   103170    65896     4832   -60823  -117817  -154680 
 -172622  -170777  -136623   -87685   -58880   -50972   -39495   -28572 
  -34916   -46242   -56861   -61530   -51979   -50992   -60298   -60701 
  -51675   -28683    -4670    -3658   -21106   -41741   -53756   -52732 
