Origin Time       2011/03/11 14:46:00
Lat.              38.103
Long.             142.860
Depth. (km)       24
Mag.              9.0
Station Code      CHB019
Station Lat.      35.1106
Station Long.     139.8360
Station Height(m) 5
Record Time       2011/03/11 14:47:36
Sampling Freq(Hz) 100Hz
Duration Time(s)  300
Dir.              U-D
Scale Factor      3920(gal)/6182761
Max. Acc. (gal)   34.739
Last Correction   2011/03/11 14:47:21
Memo.             
[...]
    4592     4873     4996     5008     4743     3573     1213    -2044 
   -5584    -8769   -11267   -13217   -14931   -16407   -17415   -17969 
  -18175   -17754   -16527   -15206   -14759   -15455   -16884   -18321 
  -19203   -19524   -19694   -19847   -19507   -18351   -16768   -15231 
  -13681   -11703    -8986    -5835    -3222    -1704     -715      432 
    1918     4082     7386    11694    16286    20473    24037    27054 
   29516    31247    32318    33464    34910    35793    35820    35225 
   33908    32082    29862    26919    23363    19558    15673    11734 
    7708     3875      803     -946    -1147     -666     -785    -1478 
   -2002    -2282    -2509    -2823    -3675    -5395    -7653    -9897 
  -11860   -13340   -14228   -14800   -15031   -14478   -13055   -10862 
   -8116    -5367    -3087    -1393      -53     1379     3048     4531 
    5368     5425     4706     3353     1353    -1646    -5395    -8992 
  -12238   -15430   -17912   -18816   -18336   -16699   -13570    -8986 
   -3778     1060     5420     9576    13247    16590    20213    23711 
   26286    27981    29051    29520    29510    29262    29213    29377 
   29068    28070    26916    26015    25200    24034    22209    19439 
   15652    11226     6337      901    -4602    -9356   -13073   -15951 
  -18016   -18879   -18431   -17267   -16242   -16000   -16461   -16918 
  -16824   -15906   -14086   -11742    -9616    -8293    -7771    -7864 
   -8621   -10013   -12025   -14638   -17353   -19564   -20970   -21388 
  -20599   -18160   -13761    -7985    -1958     3636     8626    12782 
   15840    18006    19847    21438    22236    22217    21723    20434 
   18317    16078    14350    13628    13706    13917    14255    14876 
   15795    17136    18699    19998    20610    20134    18457    16039 
   13404    10832     8707     7212     5942     4654     3655     3046 
    2587     2281     2218     2381     2886     3553     4035     4523 
    5030     5065     4402     3105     1360     -598    -2753    -5227 
   -8043   -10753   -12740   -13938   -14413   -14093   -13222   -12064 
  -10529    -8564    -6428    -4308    -2025      707     4028     7760 
   11294    14020    15888    17237    18199    18638    18561    18076 
   17203    16144    15142    14234    13575    13320    13327    13274 
   12766    11839    10907     9823     8135     5853     3202      347 
   -2565    -5265    -7462    -9338   -11284   -13186   -14736   -15772 
  -16079   -15777   -15494   -15505   -15325   -14410   -12928   -11453 
  -10247    -9296    -8399    -7230    -5850    -4798    -4463    -4509 
   -4208    -3360    -2262    -1086      155     1453     2694     3663 
    4425     5087     5348     4883     3877     3134     3244     3922 
    4836     5868     6834     7743     8500     8762     8263     6756 
    4301     1445    -1272    -3485    -5118    -6475    -7748    -8806 
   -9364    -9099    -7965    -6283    -4470    -2791    -1355     -460 
    -479    -1372    -2889    -4787    -6644    -7987    -8368    -7501 
   -5627    -3176     -359     2508     5166     7797    10495    12930 
   14845    16347    17586    18689    20049    21936    24118    26435 
   28873    31071    32793    33910    33853    32322    29614    26245 
   22717    19014    15200    11681     8295     5052     2409       99 
   -2348    -4810    -7164    -9401   -11057   -11697   -11658   -11708 
  -12382   -13567   -14707   -15509   -16118   -16767   -17648   -18935 
  -20480   -21579   -21574   -20472   -18739   -16794   -14562   -11702 
   -8527    -5691    -3023      -83     2512     3966     4836     5614 
    5910     6103     6678     7353     8074     8914     9792    10616 
   11312    11876    12255    12661    13470    14636    15900    16967 
   17555    17635    17176    16342    15629    15092    14472    13849 
   13569    13777    14171    14674    15606    16649    16821    15522 
   12909     9601     6193     2841     -528    -3790    -6672    -9140 
  -11479   -13940   -16727   -20024   -23503   -26596   -29208   -31405 
  -32955   -33802   -34542   -35604   -36682   -37717   -39046   -40626 
  -41902   -42036   -40448   -37145   -32379   -26409   -19598   -12427 
   -5233     1659     7811    13150    17799    21476    23759    24568 
   24148    22798    20923    19055    17437    15902    14135    12099 
   10271     9169     9051    10050    11796    13357    13869    12873 
   10613     7693     4219      253    -3890    -7930   -11052   -12874 
  -14195   -15317   -16139   -16831   -17186   -17210   -17092   -16686 
  -16145   -15397   -13961   -11912    -9386    -6374    -3221      101 
    3884     8044    12714    17881    22619    26074    28051    28525 
   27582    25355    22095    18339    14544    10915     7431     4058 
     997    -1479    -3385    -5320    -7837   -10676   -13342   -15584 
  -17349   -18923   -20721   -22849   -24806   -25767   -25362   -23661 
  -20757   -16903   -12458    -7839    -3721     -561     1946     4373 
    6840     9253    11942    15325    19040    22306    25004    27715 
   30823    34020    36647    38194    38406    37289    35216    32541 
   29373    25975    22533    18863    14851    10387     5343      152 
   -4555    -8638   -12211   -15277   -17925   -20533   -23174   -25559 
  -27482   -28420   -28038   -26911   -25562   -24078   -22633   -21246 
  -19509   -17129   -14386   -11577    -9064    -7450    -6612    -6007 
   -5076    -3003      -55     2633     4828     6471     7145     7102 
    6715     6041     5306     4579     3933     3478     2651     1065 
    -887    -2975    -5141    -7262    -9316   -11179   -12858   -14439 
  -15622   -16232   -16431   -16182   -15342   -13836   -11789    -9672 
   -7796    -6021    -4151    -2326     -913       60      858     1638 
    2745     4432     6217     7694     9222    11033    12757    14027 
   14958    15995    17354    18820    19961    20480    20287    19132 
   17020    14610    12245     9714     7337     5858     5593     6565 
    8661    11322    13720    15484    16817    17659    17872    18064 
   18779    19823    20907    21919    22992    24639    27066    29749 
   32480    35392    37966    39717    40732    41379    41726    41152 
   39651    37665    34873    31091    26537    21620    16842    12071 
    7303     2962    -1101    -5029    -8385   -10756   -12015   -12543 
  -13057   -13842   -14870   -16179   -17398   -18222   -19306   -21085 
  -22955   -24306   -24997   -25124   -24797   -24018   -22828   -21252 
  -19204   -16634   -13548    -9797    -5239     -247     4366     8083 
   11125    14060    17012    19487    21125    22023    22204    21641 
   20612    19409    17953    15920    13387    10602     7421     4157 
    1669      356      358     1463     2826     4000     5078     5866 
    6279     6792     7710     8939    10416    11835    12613    12679 
   12392    11933    11546    11511    11640    11575    11204    10286 
    8446     5712     2336    -1608    -6119   -11110   -16061   -20344 
  -24011   -26905   -28369   -28651   -28591   -29047   -30750   -33387 
  -36058   -38213   -39459   -39688   -39263   -38130   -35919   -32827 
  -29036   -24610   -19803   -14643    -9267    -4018      991     5812 
   10435    14756    18539    21341    23238    25032    26655    27147 
   26266    24248    21580    19133    17046    14991    13024    11193 
    9502     7931     6424     5098     3905     2491      626    -1533 
   -3737    -5977    -8121    -9813   -11004   -11561   -10793    -8368 
   -4709     -330     4380     9253    14114    18447    21858    24348 
   26095    27218    27579    27098    26026    24413    22064    19386 
   16860    14270    11558     8766     5674     2870     1089     -224 
   -1641    -3028    -4618    -6540    -8389   -10093   -11898   -13766 
  -15279   -16261   -16849   -16976   -16759   -16475   -15999   -15035 
  -13305   -10632    -7101    -2978     1514     6257    10951    15192 
   18836    21757    23714    24818    25523    26017    26041    25516 
   24951    24833    25026    25145    25178    25352    25479    24966 
   23379    20773    17641    14401    11193     8013     4716     1291 
   -2227    -5921    -9529   -12582   -14821   -16073   -16290   -15409 
  -13215   -10003    -6394    -2471     1697     5653     9263    12583 
   15379    17692    19835    21555    22403    22543    22394    22052 
   21569    21067    20245    18734    16884    15379    14444    13914 
   13602    13251    12565    11532    10385     9279     7960     5806 
    2699     -733    -4151    -7613   -10707   -12916   -14106   -14214 
  -13539   -12743   -12089   -11403   -10603    -9788    -9035    -8379 
   -7814    -7210    -6582    -6274    -6460    -7067    -8093    -9157 
   -9686    -9762    -9676    -9453    -9227    -8918    -8116    -6994 
   -6242    -6265    -7220    -8832   -10573   -12644   -15446   -18797 
  -22466   -26038   -28647   -29658   -29040   -27198   -24591   -21399 
  -17906   -14691   -12179   -10471    -9307    -8189    -6899    -5438 
   -3617    -1261     1614     4919     8457    12012    15376    18443 
   21398    24164    26211    27488    28282    28309    27395    25977 
   24503    23357    22604    21939    20922    19265    17511    16071 
   14328    12025     9527     6798     3529     -240    -4094    -7759 
  -10949   -13050   -13752   -13330   -12312   -10984    -9162    -6780 
   -3875     -676     1833     3105     3531     3376     2970     2761 
    2837     3390     4671     6445     8210     9815    11506    13220 
   14570    15447    15972    16428    16904    16959    16353    15217 
   13716    12162    10741     9303     7750     6120     4417     2727 
    1238      -27    -1275    -2618    -3985    -5228    -6216    -7115 
   -8084    -8784    -8934    -8615    -7760    -6251    -4402    -2789 
   -1723    -1131     -737     -352      -60     -127     -787    -1896 
   -3011    -4040    -5176    -6334    -7422    -8824   -10914   -13477 
  -15990   -18121   -19839   -21275   -22547   -23597   -24223   -24191 
  -23105   -20799   -17738   -14485   -11519    -9323    -7890    -6658 
   -5083    -3189    -1330      526     2475     4255     5846     7529 
    9150    10110    10156     9522     8553     7821     8088     9419 
   11126    13108    15608    18143    20379    22405    23886    24549 
   24859    25342    25698    25373    24463    23188    21314    18776 
   15919    12975     9941     6978     4563     3102     2812     3498 
    4282     4665     4899     5131     5384     5603     5545     5240 
    4855     4400     4039     3763     3500     3715     4561     5697 
    6967     8163     9176     9955    10333    10492    10617    10595 
   10294     9757     9372     9348     9428     9432     9146     8545 
    8148     7889     7199     6358     5756     5128     4462     4050 
    3958     4290     5291     7088     9590    12617    15894    18920 
   21460    23581    25189    26516    27927    29133    29902    30284 
   30082    29337    28409    27405    26362    25330    24145    22649 
   20751    18419    15871    13442    11314     9436     7674     5979 
    4193     2057     -313    -2503    -4244    -5269    -5318    -4583 
   -3462    -2000      -55     2385     5227     8184    10813    12837 
   14282    15362    16213    16667    16422    15267    13334    11149 
    9216     7876     7269     7025     6717     6445     6429     6593 
    6591     6059     4955     3397     1540     -245    -1700    -3020 
   -4459    -6044    -7793    -9688   -11494   -12844   -13317   -12568 
  -10825    -8861    -6993    -5217    -4216    -4281    -4596    -4861 
   -5315    -5935    -7096    -8860   -10304   -11032   -11252   -10895 
  -10208    -9656    -9272    -8863    -8198    -6937    -4970    -2893 
   -1402     -730     -819    -1224    -1337     -796      173      884 
     990      752      768     1435     2721     4522     6585     8661 
   10900    13103    14552    15129    15368    15679    16210    16837 
   17152    16899    16050    14429    12053     9508     7294     5453 
    3776     1855     -241    -2129    -4117    -6013    -6820    -6580 
   -5810    -4688    -3684    -2956    -2246    -1790    -1803    -1985 
   -2216    -2638    -3191    -3842    -4627    -5375    -6169    -7329 
   -8692    -9769   -10379   -10572   -10231    -9443    -8695    -8183 
   -7920    -7934    -7833    -7154    -5846    -3887    -1042     2647 
    6748    10869    14649    17752    20027    21340    21656    21100 
   19877    18303    16424    14076    11394     8438     5062     1477 
   -1805    -4465    -6616    -8499   -10165   -11706   -13251   -14602 
  -15547   -16087   -16042   -15378   -14621   -14130   -13730   -13117 
  -12065   -10538    -8639    -6638    -4926    -3536    -2197     -695 
     994     2699     4465     6379     8205     9855    11224    11980 
   12344    12884    13499    13931    14371    14689    14801    15143 
   15444    15186    14980    15231    15300    14958    14287    13195 
   12185    11619    11084    10344     9357     8163     7212     6291 
    4522     2244      352    -1252    -2380    -2716    -3369    -4461 
   -4148    -2443     -668     1724     4794     7328     9454    11549 
   13286    14369    14288    13180    11830    10287     8462     6709 
    4947     2790      259    -2545    -5748    -9475   -13826   -18774 
  -24059   -29259   -33862   -37864   -41762   -45284   -47631   -49127 
  -50700   -52302   -53280   -53353   -52608   -51107   -48962   -46379 
  -43234   -39345   -34785   -29648   -24103   -18223   -11808    -4862 
    2287     9095    14844    19367    23037    25977    28343    30519 
   32524    34141    35413    36502    37536    38598    39398    39754 
   39979    40071    39821    39251    38173    36415    34134    31519 
   28684    25720    22800    19902    16851    13991    11600     9289 
    6757     4071     1505     -282     -704       -2      829     1014 
     876     1024     1283     1305      986      263     -856    -2487 
   -4917    -8399   -12715   -17159   -21044   -23860   -26190   -28891 
  -31130   -32388   -33264   -33620   -33164   -32061   -30907   -30442 
  -30386   -29996   -29086   -27596   -25538   -23033   -20064   -16945 
  -13987   -10996    -7786    -4003      225     4164     8137    12521 
   16815    20938    24677    27444    29270    30462    31167    31470 
   31307    30400    28502    25754    22604    19432    16335    13229 
   10074     6842     3427     -266    -4282    -8478   -12454   -15929 
  -18846   -21238   -23385   -25481   -27224   -28269   -28531   -28015 
  -26773   -24967   -22907   -20773   -18446   -15919   -13430   -11149 
   -9109    -7232    -5565    -4308    -3331    -2408    -1648    -1135 
    -725     -154      817     2036     3213     4303     5051     5268 
    5324     5471     5612     5579     5203     4526     3691     2895 
    2608     3084     4010     5195     6673     8224     9702    11166 
   12559    13801    14907    16179    18336    21435    24237    25866 
   26590    26503    25599    24342    23012    21632    20223    18518 
   16274    13912    11795     9606     7234     4666     1619    -1790 
   -5272    -8654   -11626   -14002   -15779   -17080   -18252   -19517 
  -20702   -21504   -21700   -21190   -20073   -18604   -17012   -15331 
  -13398   -11153    -8709    -6090    -3313     -467     2457     5351 
    8067    10720    13350    15645    17331    18533    19318    19371 
   18728    17751    16394    14571    12343     9568     6230     2634 
    -989    -4466    -7493    -9898   -11738   -13134   -14324   -15501 
  -16495   -17052   -17167   -16994   -16616   -15946   -15098   -14294 
  -13299   -11974   -10688    -9481    -8122    -6894    -5916    -4701 
   -3483    -2778    -2093    -1241     -845     -973    -1169    -1320 
   -1551    -1948    -2592    -3415    -4322    -5360    -6484    -7365 
   -7610    -7243    -6762    -6579    -6545    -6487    -6597    -6619 
   -6157    -5644    -5414    -5010    -4055    -2824    -1704     -609 
     612     2102     4130     6481     8644    10561    12427    14116 
   15334    16107    16600    16836    16712    15919    14080    11062 
    7128     2917    -1133    -5193    -9489   -13855   -17959   -21556 
  -24539   -26937   -28832   -30254   -31185   -31466   -30826   -29098 
  -26260   -22572   -18573   -14545   -10446    -6370    -2435     1545 
    5826    10278    14414    17734    19896    20936    21219    20922 
   20026    18708    17158    15343    13191    10774     8253     5704 
    2937     -418    -4450    -8926   -13798   -18970   -23994   -28732 
  -33247   -37227   -40448   -43034   -45213   -47209   -48903   -50025 
  -50583   -50641   -50329   -49755   -48775   -47313   -45337   -42697 
  -39514   -36040   -32356   -28541   -24591   -20667   -17100   -13846 
  -10947    -8599    -6649    -4998    -3369    -1259     1344     4191 
    6952     9286    11192    12785    14267    15932    17736    19420 
   20841    21956    22772    23213    23129    22491    21385    20040 
   18755    17619    16568    15564    14577    13658    12935    12499 
   12451    12777    13239    13662    13956    14111    14355    14615 
   14490    14062    13627    13175    12616    12019    11577    11150 
   10457     9602     8579     7024     4764     2135     -417    -2826 
   -5093    -7268    -9692   -12412   -15108   -17404   -18834   -19396 
  -19503   -19103   -17935   -16027   -13575   -10841    -7806    -4348 
    -695     3047     6988    10984    14765    18294    21673    24807 
   27632    30344    32863    34864    36376    37588    38503    39219 
   39915    40561    40976    40992    40654    40136    39504    38903 
   38449    37839    36660    34877    32626    29924    26873    23834 
   21101    18711    16573    14504    12350    10081     7767     5608 
    3639     1577     -645    -2960    -5631    -8524   -11052   -13049 
  -14645   -16091   -17402   -18532   -19867   -21360   -22796   -24339 
  -25764   -26545   -26421   -25598   -24549   -23432   -22102   -20640 
  -19238   -17930   -16707   -15336   -13641   -11949   -10236    -8070 
   -5583    -3090     -638     1728     4037     6461     8948    10995 
   12432    13670    14838    15818    16564    17037    17267    17021 
   15984    14363    12481    10511     8752     7348     6176     5056 
    3820     2520     1322      192     -950    -2045    -2980    -3731 
   -4399    -5043    -5618    -6089    -6195    -5468    -3894    -1880 
     275     2339     4200     6114     8379    10976    13615    15867 
   17443    18396    18817    18645    17876    16655    15225    13696 
   11855     9398     6216     2411    -1605    -5235    -8211   -10673 
  -12774   -14506   -15839   -16793   -17310   -17380   -17073   -16405 
  -15535   -14655   -13653   -12392   -10987    -9623    -8414    -7330 
   -6202    -4951    -3538    -2074    -1146     -828     -418      311 
    1279     2415     3480     4559     5679     6530     7073     7387 
    7664     8199     8740     8993     9167     9185     8731     7904 
    6801     5463     4197     3124     2236     1514      885      512 
     290     -209    -1121    -2323    -3693    -5338    -7244    -9197 
  -11270   -13496   -15713   -17948   -20190   -22266   -24094   -25596 
