Origin Time       2011/03/11 14:46:00
Lat.              38.103
Long.             142.860
Depth. (km)       24
Mag.              9.0
Station Code      CHB022
Station Lat.      35.3033
Station Long.     139.8555
Station Height(m) 12
Record Time       2011/03/11 14:47:40
Sampling Freq(Hz) 100Hz
Duration Time(s)  300
Dir.              U-D
Scale Factor      3920(gal)/6182761
Max. Acc. (gal)   36.086
Last Correction   2011/03/11 14:47:25
Memo.             
[...]
   23967    29768    33728    37430    41428    43531    40587    34065 
   30944    33670    36112    35097    36141    43387    52880    58930 
   61507    63883    65687    64215    60726    58202    56333    53654 
   50067    46993    46677    48030    47193    44918    45051    46639 
   46387    44641    43067    41323    38079    33158    29223    29768 
   33903    37567    39778    41286    40208    35506    29959    24999 
   18395    10990     7935     9562    10894    11637    16210    25259 
   34720    40247    40242    37447    35790    35101    33109    31696 
   34591    39628    41972    42886    45272    46098    42727    38425 
   35168    30671    25544    23811    25488    26477    25207    23835 
   24175    25729    27733    31806    39231    45823    46184    42865 
   42303    42872    38354    31309    29824    34407    39914    44054 
   47249    51113    55848    56858    52005    47096    45305    42324 
   36384    31538    31340    34549    35406    30415    23844    20455 
   18970    17975    18228    18374    17640    17779    18581    19202 
   20901    23073    23192    20897    17330    14112    13560    16339 
   20862    25387    28369    29455    30654    32728    33276    31896 
   31559    32701    33411    34847    38343    41414    43068    45499 
   47683    46478    42955    39250    34625    29976    28530    30617 
   33541    34896    34259    33966    36124    38068    35619    30761 
   29890    33741    36629    36955    38623    41210    40005    35822 
   34386    37486    42626    48528    55175    59964    58932    53222 
   48707    46536    41615    33319    27744    26998    27737    29088 
   31964    36120    41258    44379    41723    36836    35644    36371 
   35076    32546    29835    26766    24475    23742    24647    27361 
   30994    35199    39642    41453    40711    42100    45496    45889 
   42042    35207    25864    17586    15588    19882    25971    30958 
   34410    34875    31565    27458    24312    20797    18314    18361 
   17965    16486    17256    19922    21717    22106    20512    16684 
   12520     9695     9849    14710    22232    28106    31177    32380 
   31604    28810    25588    24870    27588    29519    27257    24650 
   26165    29970    32525    33778    35879    38867    39125    35605 
   33658    35880    36975    34059    31615    31913    31230    29108 
   31413    39601    46301    46462    43362    40367    36824    33603 
   33877    38113    43503    47404    48810    48099    46812    45943 
   44591    42211    39135    34609    30198    31010    37992    46107 
   51293    53292    53682    53187    50764    46470    42218    38909 
   36220    33448    30587    30457    34684    39306    41244    42645 
   44555    44758    42260    37962    33810    33024    36745    41470 
   43376    42204    39700    38549    39950    39879    35905    33853 
   37252    40463    39756    38467    38673    38816    38629    39193 
   40742    42354    41580    37850    34479    31291    23616    12900 
    6036     5028     7913    13927    21340    26996    30335    32889 
   33553    29026    20204    13427    12354    13910    15864    20503 
   27475    32449    34289    35960    38618    39481    37023    34783 
   34964    33345    27798    24415    27297    30449    27901    23937 
   25428    31338    36336    38580    39386    39179    37109    34438 
   34926    39407    44088    45796    44751    42939    41906    41836 
   43339    47173    51076    51723    48350    41447    33226    28432 
   27932    26997    24390    24889    31046    38851    42776    42735 
   42079    39758    33001    24677    18389    13648    10973    11447 
   12680    13369    16167    22713    30886    37170    40757    44230 
   47268    44749    36046    29344    31716    39299    42277    38447 
   35034    36326    38374    38025    37931    39101    37656    33972 
   34968    42086    48869    52363    53755    51612    45589    39394 
   35722    35344    37821    39782    39230    38857    41078    45820 
   50685    50252    43874    39942    42038    42747    39344    39204 
   44587    47840    44146    38321    37332    40710    41627    36693 
   29457    25262    27545    35367    42483    44483    44188    44221 
   41589    34841    28664    27729    30188    30417    27629    25467 
   23964    22201    23707    28641    31112    30674    32994    38078 
   41044    42401    46426    51600    52535    50269    50864    54694 
   56721    54945    50335    43759    38060    35476    33598    31223 
   31666    35282    37617    36713    34784    33665    33727    35124 
   37066    37687    35633    31100    26029    22728    21948    23248 
   25730    28266    30717    33123    34043    33123    33104    35671 
   38364    37896    33533    27437    24155    26540    31089    33043 
   34746    41127    50323    56715    59391    61651    64297    64057 
   59909    55481    52813    50858    50345    52668    55575    55376 
   51989    49113    48776    47790    43957    41418    42378    41552 
   36850    33766    33687    32339    29595    27223    23663    19162 
   15979    13626    13050    17718    25052    28522    28524    29734 
   32909    37873    45211    51083    50769    45211    36908    27108 
   19271    16473    17401    20034    24163    29116    33003    33573 
   30420    26036    22038    18539    18862    26761    39084    50275 
   60473    70388    74927    69335    55947    41135    29362    21702 
   18046    18582    22554    27629    31144    31991    32418    34619 
   35925    33246    28166    23845    23360    29474    39587    46380 
   46430    41170    32124    22436    16737    15383    15660    17397 
   21368    26560    31975    36665    39052    39457    40047    39899 
   35210    27368    23302    24392    24357    20523    18263    22234 
   28651    31006    31045    34145    37723    37544    36795    37679 
   37349    36760    38501    38916    35801    34834    38025    38186 
   32294    26980    26128    25231    20787    16115    16178    21714 
   28818    33124    34216    32868    26825    15515     3961    -2643 
   -3563    -1202     2124     6649    12990    18704    21948    24315 
   25749    24222    21323    20247    20725    20954    21161    22613 
   24518    25295    25977    27053    27112    29031    36260    43518 
   45163    45686    50117    54367    52846    48542    48704    52158 
   52229    50533    50486    46430    36468    27551    21302    16408 
   16057    18732    19690    20681    22603    22165    20910    21311 
   19990    14868     8485     2791    -1421    -2349     1886    10027 
   17347    21793    26025    30560    32518    31202    28434    25955 
   25393    27681    32211    38575    47331    57574    66576    71960 
   72271    68479    63795    57764    47738    37385    31554    27823 
   24314    23969    25350    23979    22018    22712    21848    15922 
    8725     4213     3575     8339    17903    28435    38252    48641 
   58198    61922    57944    52342    51760    52273    46034    35896 
   30797    32608    36555    38047    36415    35236    36710    38915 
   41383    44821    47019    47032    46336    44282    40995    39567 
   40455    41029    40049    37404    33395    30844    32623    36662 
   39697    42508    45694    47319    46409    42516    35748    30346 
   30035    30470    27209    24939    28259    34761    41469    45218 
   41587    33722    29743    27891    22139    17743    21543    28163 
   31322    33980    38878    42015    39072    31992    26871    25648 
   24333    21637    21485    25352    30373    34315    37133    38419 
   36236    31472    29613    32610    36217    39057    43375    47074 
   47059    46698    49615    52084    48979    42420    39692    43309 
   47557    47871    47653    50290    51184    45080    34729    24780 
   15765    10523    14630    25794    35809    43270    50885    55714 
   54413    48807    39964    28052    17844    13105    10305     6982 
    7020    12077    18535    23824    27720    29152    26546    20706 
   15210    13238    14258    15219    15689    19147    27201    36346 
   43275    48660    53217    55309    54445    53157    52727    50087 
   44073    39818    39815    38894    34037    29639    29908    32517 
   32206    28808    27167    29041    31663    33220    33875    34275 
   35122    35283    33069    29676    26076    21100    16221    13188 
    9024     4179     5168    11278    15976    21135    30313    36972 
   35824    32617    31818    29056    23939    25008    33928    41145 
   42814    44334    46567    45636    42076    38008    32645    25606 
   18422    13437    12334    13473    14307    15771    19023    22575 
   26180    30836    34437    33893    30434    28098    28436    29312 
   28314    26502    27057    29587    29931    27241    25918    28974 
   34291    37349    35706    32814    34178    37699    36058    28815 
   22354    19944    19447    19041    21473    30171    41714    48902 
   50600    50235    48050    43593    40600    41712    44163    46025 
   49841    55960    59944    59372    55845    50066    41214    30905 
   23499    21148    21707    23183    26066    30366    35009    39909 
   44874    48404    49119    46118    39782    32665    26851    23718 
   25420    30420    33218    32823    32626    32350    29485    25266 
   21620    17310    13616    15571    21284    23015    21519    22727 
   25252    26079    27541    30907    33949    35392    35605    35425 
   35973    37220    36985    33582    29407    28594    31448    35546 
   39756    43267    44707    43890    41363    37153    32491    30373 
   30623    28375    23096    20607    21402    20361    17225    15212 
   15689    18545    22734    28000    34041    37338    35746    32116 
   27726    21198    15356    13285    11243     6170     2058     2433 
    5510     9581    15494    21806    25334    27802    33133    39996 
   44093    43632    40923    41417    47130    52548    53897    55362 
   59241    60687    56919    51145    46153    42585    41749    43772 
   46722    50128    53696    54264    50573    46780    45587    43418 
   38690    37442    42355    46768    46545    44942    44097    42551 
   38228    29859    20043    14484    15338    19808    24664    28844 
   32701    35030    32280    23305    12869     8152    11766    19529 
   26960    34627    44087    53258    57740    54691    47189    42123 
   40175    36184    30461    26842    23886    20407    19918    22426 
   23426    22499    23848    29029    34038    34898    32925    31429 
   32573    37248    41129    38078    30661    25193    20645    14843 
   11576    12799    15380    18403    23332    28274    29806    28761 
   28699    29770    29961    30930    35069    39635    40930    39602 
   37690    35120    30124    22433    16490    16624    20234    24125 
   30437    38385    43311    45996    49211    49961    45112    38405 
   35127    34363    32863    31992    33957    36113    34869    31395 
   29988    32729    37710    42049    44855    47032    48730    47408 
   41332    33691    28245    24912    23141    23546    25248    26114 
   25696    25899    27585    28614    27470    26213    28277    34553 
   41781    45108    43164    39891    38954    38518    35589    31851 
   30911    32728    34646    36396    39682    45058    53085    62977 
   68861    66288    59882    55602    52360    47608    42144    37718 
   36785    40172    42631    39670    35697    35491    35484    31671 
   26604    23915    24841    29778    35838    38108    37543    38840 
   41205    41408    40952    42640    47288    55369    65179    72070 
   73310    71363    70144    68794    63747    56359    51940    52710 
   57164    62925    66730    66840    64951    60759    52093    42059 
   34789    28517    21947    17311    13958    10675    10025    12269 
   14458    15647    15279    13378    12694    14420    18149    25311 
   34490    40000    40201    38848    37604    34563    28810    22122 
   17550    16833    18647    21564    26522    33097    37809    38908 
   38715    38541    35394    28834    24962    26145    25944    20701 
   15462    15201    18512    21402    24228    31105    41381    49104 
   52102    52841    51765    48098    44302    42451    40453    36930 
   32445    26228    20649    20092    21217    19565    20040    25894 
   30496    29244    25451    22964    23832    28162    32910    36889 
   41789    46429    47153    42908    36836    32352    29293    27358 
   28643    32431    35430    38120    41490    41921    37117    30655 
   26732    25499    25228    24913    24259    24448    26193    26224 
   21654    15475    11880    11600    14971    21900    29002    33238 
   34174    31158    24948    18925    14858    12851    14166    19649 
   28486    38916    48294    54304    55585    52192    47299    44182 
   42306    40422    38929    37065    33469    29124    25422    22398 
   20618    20327    20021    19792    21657    24969    28894    35573 
   43751    49248    51575    49921    43114    36311    33935    32974 
   31322    30348    29480    29025    31567    35340    36413    36566 
   39803    46332    54727    63602    70140    72166    70674    66550 
   58304    46549    35645    29071    27208    28144    29160    29802 
   31013    30361    23854    12972     3775    -2346    -9830   -18667 
  -22741   -19682   -12453    -3064     7298    15678    20374    22898 
   24269    24122    24137    26458    30766    36522    42666    46959 
   51014    58111    64987    67292    67892    69370    68445    63374 
   56851    51094    46257    42180    39053    37462    38793    43754 
   49516    52699    54941    58552    59768    54474    46378    42507 
   42945    41310    36040    32167    30955    30611    34179    43240 
   51144    52774    51401    49822    45860    39430    34028    31955 
   33823    38425    41741    41221    39290    38636    37558    33132 
   25905    19996    19476    23745    29005    35250    44299    52411 
   55241    55307    55112    50955    41556    33877    32953    33931 
   31112    26921    26002    28338    31388    33880    37224    43329 
   51153    58430    65137    71546    75727    76803    76159    73471 
   68477    64966    65752    68173    68848    67657    66173    65662 
   65915    65574    63826    60111    53309    44785    39253    37585 
   34067    26299    20339    20005    20939    21014    24592    33071 
   41958    47374    48966    48352    46881    43219    35894    28000 
   22568    16734     7858     -767    -5420    -7146    -9207   -11906 
  -11067    -3506     7385    14522    14220     9067     3922      531 
   -2083    -3723    -1579     6813    19135    29529    35276    38435 
   39707    36769    32332    34730    44593    52633    54000    51486 
   46716    39361    30058    20790    16254    19370    25140    28525 
   31987    36207    36130    30842    24103    18546    17336    22195 
   29647    36778    44754    53346    58477    58581    58366    60877 
   62793    61991    60469    59274    57670    53825    45648    35382 
   27969    23883    20491    17452    16072    16603    18441    20984 
   23380    25268    26964    28006    28774    31962    37506    40380 
   38453    36392    37792    40336    40548    37576    33203    30628 
   30993    31930    31142    30224    33010    38773    42539    44163 
   47304    51278    53640    54425    53594    51466    50790    53208 
   56182    56252    53392    51193    51461    50428    46462    44747 
   47219    49503    49427    47889    45927    44882    43522    38920 
   33020    29759    27640    24066    21345    22170    25638    29553 
   31588    30768    29390    28986    28404    27879    27248    24716 
   22464    24209    29081    34611    39340    42038    43459    45336 
   46894    46589    45202    43647    40845    36527    31680    25583 
   18298    13617    13675    15759    17885    20722    24102    27635 
   32068    37391    42796    47513    48913    43919    33987    23478 
   14939     9222     6802     8891    16187    24800    29365    30475 
   32313    34993    34802    30423    25884    26821    33595    40665 
   43308    40628    34377    28444    25331    23695    22442    23657 
   29351    37679    44381    46569    44124    39087    33389    27018 
   19269    10580     2501    -3516    -7057    -7950    -5047     1830 
    9752    16898    25022    32650    34756    32369    30778    29822 
   27257    25897    28477    32589    35933    38899    40542    39891 
   39036    38829    37122    34167    32543    31245    27349    22702 
   20417    18604    16753    18017    19609    17096    15700    20176 
   25372    29443    37511    47708    53078    53672    53747    53868 
   51863    48031    46180    47663    47977    44510    41902    42816 
   41953    37126    35192    39247    42744    41598    38476    34805 
   30923    29008    28190    26114    26000    31294    38755    44372 
   47317    46800    42866    38124    35505    35986    38424    41559 
   45086    47079    44331    38384    34926    35015    34847    33237 
   31474    28829    23654    16663    10884     8868    10191    13248 
   18122    23402    25025    22953    21731    23020    25340    29404 
   36824    45808    52765    55665    53785    47222    36988    24740 
   14156     9849    13017    21816    34243    47644    58627    63940 
   60589    48431    31975    15896     1563    -8718   -10098    -3124 
    4417     8474    12379    17713    22061    25328    29347    33851 
   37832    41441    44486    45014    42165    38802    36997    35742 
   36291    41712    50718    59616    67930    76013    82003    84990 
   85442    83136    78861    73702    65967    54119    41464    34129 
   34870    40108    44285    46533    48705    48336    40793    27171 
   14240     7497     7110    11516    22029    37762    51805    60492 
   65965    67059    61774    54525    49734    46454    44199    44992 
   48904    53462    55793    54587    51919    50948    51478    49784 
   43453    35009    27521    20653    15934    17486    24319    32287 
   40819    48837    52740    52078    48264    42244    38542    41466 
   47443    51457    55932    63725    68900    64372    54250    48456 
   47991    46574    43911    45091    49352    50423    47224    45394 
   46636    45346    39150    33718    33423    34753    33229    31144 
   32228    33347    29342    21714    15193    11167    10366    14758 
   22328    27725    29842    31515    33002    32925    32667    33390 
   33452    32851    33153    33001    31055    29122    28719    30177 
   32732    33089    29887    25974    22145    17263    13954    14935 
   18238    22631    30411    39948    45128    46021    48147    50719 
   49293    46528    47330    49960    52030    56251    62801    65847 
   62664    57680    55519    55741    54823    51668    49628    50143 
   48883    44668    43919    49317    55516    59169    61486    62218 
   59992    56007    51860    46579    39972    35047    33455    32599 
   30040    27849    29521    34183    37772    38656    38560    38651 
   37180    32659    27976    26954    28285    28894    30795    37441 
