Origin Time       2011/03/11 14:46:00
Lat.              38.103
Long.             142.860
Depth. (km)       24
Mag.              9.0
Station Code      CHB010
Station Lat.      35.7086
Station Long.     140.5637
Station Height(m) 9
Record Time       2011/03/11 14:47:21
Sampling Freq(Hz) 100Hz
Duration Time(s)  300
Dir.              N-S
Scale Factor      3920(gal)/6182761
Max. Acc. (gal)   187.621
Last Correction   2011/03/11 14:47:06
Memo.             
[...]
   55203    69346    60658    14627   -26015   -32810   -29068   -36180 
  -41288   -17753    37060    83816    92674    87290    90218    88118 
   76717    62823    40824    12306   -11644   -28054   -36201   -32303 
  -19127    -6727     -755     2726     3734    -7083   -22870   -21692 
   -1152    22553    35431    38735    44475    47612    37054    19514 
   -3418   -31349   -43553   -31988   -16941    -9813    -3878     3510 
    6638      836    -7216    -9641   -16523   -32448   -37895   -24207 
  -11644   -19480   -42260   -58688   -61193   -65090   -69624   -51351 
  -17324     -860    -6166   -12113    -9413    -3486      879     4571 
    5079    -4764   -16912   -13456      947     6122    -1519    -8216 
   -3853     9288    28667    52679    65502    56956    49981    62372 
   74598    78940    91951   100993    93212    99260   122761   122921 
  101922    96277   106460   108152    92900    85376   114702   154672 
  160047   138910   110855    74617    42707    30913    35805    42125 
   42040    50072    67551    66461    46085    28836     3367   -46719 
  -91164   -86283   -41900   -14475   -23276   -26751    -4999     7965 
   -8474   -29891   -24574     9893    51768    82106    85431    60116 
   35078    22658    -2594   -43205   -67180   -60305   -37507   -14475 
   10540    43537    68291    67587    56579    53059    51199    42578 
   28806    19324    22837    34605    43118    40045    25279    16821 
   24735    28838    28155    46322    69266    68937    55531    43842 
   21482   -23619   -73718   -99630  -100832  -106797  -136091  -161419 
 -148238  -120084  -117716  -127565  -114865   -74839   -21838    26986 
   53756    48461    19084   -10261   -27661   -49592   -79106   -86581 
  -65122   -40439   -15206    18833    42188    40775    25301     6191 
   -1356    17200    42533    55683    71793    87980    81185    57556 
   31693    -1045   -42403   -71728   -63888   -20212    31906    62393 
   64733    56440    47823    37287    14404   -41464  -113263  -146501 
 -140968  -145680  -156353  -130929   -85206   -61818   -46763   -12869 
   16608    11017   -14766   -23714   -13046   -12804   -32033   -50823 
  -54126   -46182   -41813   -45448   -51566   -62713   -78209   -86289 
  -82508   -71074   -57779   -43148   -17760     7694     7623    -4859 
  -10378   -32234   -75475   -97557   -75837   -31879     8059    37171 
   57228    63751    57330    42095     5117   -51875   -85548   -69650 
  -24494    24957    55361    49388    27169    19287    17975      633 
  -15822    -2889    17849    15873     5233     2016     -438     -114 
   12793    35614    56409    73074    97923   122558   114884    69995 
    9634   -51763  -104243  -138726  -147658  -124339   -81222   -40289 
    7391    78841   141141   146044   101321    48311     4131   -32150 
  -47423   -26526    18465    60824    94596   128228   144846   120696 
   74026    37486    12844   -17819   -64021  -104035  -111435  -113284 
 -137478  -147509  -118601   -75126   -39168    -8496    48963   134547 
  188649   196411   182741   134807    66665    19539   -16963   -48410 
  -38240    12515    61484    90347   106057   111031    89956    33742 
  -21955   -38210   -30575   -29930   -27484     2761    44301    44731 
    -468   -32180   -26502   -27860   -48878   -46291   -19584    -1348 
   16041    32244    23476     7471     7110     5916     2572    14055 
   24243     3395   -43200   -76572   -71586   -41209    -4147    31050 
   59207    87693   128285   168209   168701   119658    71686    60628 
   51378    13065   -25914   -43141   -56428   -77888  -107251  -137380 
 -148587  -140700  -130246  -118125   -94873   -54742   -13443    -4220 
  -29835   -56163   -68013   -82325   -98786   -84966   -35657     5429 
   24025    50217    81801    89269    64368    22577    -3394     5905 
   33576    60866    79438    72529    35731   -10452   -49313   -79100 
  -98618  -101582   -94915   -95571   -90180   -57368   -23045   -29288 
  -73586  -106039   -88700   -51500   -42276   -45646   -28669   -11476 
  -12280   -14094   -28869   -72679  -110493  -118766  -104466   -59370 
    8077    57279    65986    39066     -328    -8967    25470    60780 
   75668    94588   122339   135506   124462    91640    32979   -49868 
 -132424  -180724  -178379  -131756   -50121    55389   145452   181786 
  172300   131050    69269    25674    10003    -8349   -26645   -19697 
   -1612      330    -4876   -14883   -32975   -27742   -11378   -22257 
  -19977    24421    56565    47195    33534    40145    42148    20824 
   -2128   -17969   -50079   -93395  -111671   -96383   -66824   -31126 
   12863    52861    76142    84361    75527    53061    30762    35367 
   95042   172980   209553   216057   225893   230159   202587   150184 
   95378    32818   -27499   -56136   -51878   -18208    26650    35926 
   10214   -12318   -43441  -105934  -169266  -199412  -185437  -123449 
  -38841    35454    87222   103635    87949    53106    -7016   -75863 
 -119430  -134879  -127350   -92283   -33336    29081    66554    74618 
   77523    94074   116910   121610    99432    71614    51637    18673 
  -43594  -107342  -128162  -100588   -49333    16702    88270   142096 
  168016   171526   169329   166210   145740   106994    64971    35453 
   22062    14148    20444    36718    22431   -15189   -29188   -23589 
  -25275   -34723   -48780   -62678   -60453   -38731   -18330   -11888 
   -7010    -2705   -10187   -17180   -13666    -8131     6355    39606 
   81188   114351   136303   157334   154258    94918    16374   -40550 
  -91007  -133542  -142015  -115410   -65292     9241    98899   154955 
  143393   100024    59723    17787    -8408     3437    40429    89154 
  141283   183313   206116   204311   183199   144242    76313    -4460 
  -59615   -74332   -54307   -11571    28123    44832    51457    62559 
   62617    43771    27105    28297    44663    65676    74401    60545 
   32731    -5108   -65095  -134120  -172443  -178901  -187585  -203403 
 -208834  -202730  -189540  -170039  -148765  -115693   -57428     6191 
   56614   101952   130661   120512    82141    32833   -24126   -81257 
 -133377  -178974  -196977  -166405  -115106   -82397   -51116     4073 
   67295   113182   122334   106046   102486   111870   115445   118024 
  109329    68734     2594   -65837  -104535   -97532   -64365   -29033 
  -13798   -35694   -63742   -51467   -20184   -13649   -17409   -13634 
  -21451   -33944   -27028   -20651   -31463   -35099   -24940    -7708 
   25048    54786    57483    46475    34205    28721    33695    22894 
    2347    13805    40251    48614    49419    31441   -25772   -93959 
 -139767  -150007  -119285   -76030   -52711   -28361    19531    62613 
   76985    73305    61661    53836    63294    74931    66971    47173 
   40607    55713    68069    60271    52401    50967    28669   -22840 
  -82167  -120753  -128407  -135988  -158280  -159051  -119798   -53593 
   33982   128332   192441   208817   198796   176682   148392   139397 
  150169   160955   181222   214324   241321   257113   265190   264986 
  260824   251112   225305   185126   138325    89040    50300    38401 
   48533    42650    -4962   -52206   -52193   -28241   -17585   -22796 
  -39269   -64542   -84920   -87537   -85326   -93304   -99193   -94259 
  -88616   -86961   -83745   -80135   -94455  -133827  -164798  -154973 
 -116031   -68882   -19645    17231    30696    26308     5090   -28126 
  -58476   -82788   -94888   -73571   -20991    33835    78128   108778 
  106406    61100    -8823   -76169  -124284  -155238  -172860  -168224 
 -138935   -92973   -44358   -15229    -4666    12923    44877    80973 
  112385   129235   129524   124837   119640   103806    76327    52109 
   38416    21876   -10842   -47501   -75716  -105231  -131310  -137222 
 -127785  -109448   -76498   -33061     -673     2807   -14984   -29652 
  -27223   -17010    -6572    19932    66972   111702   139774   141670 
   97075    19523   -40529   -70440   -94771  -109312   -94473   -63288 
  -44679   -42344   -39609   -33002   -28599   -17494    13124    59116 
   99727   120669   138718   166889   179488   157856   105737    20498 
  -75252  -134440  -158264  -173834  -159775  -107167   -69164   -63047 
  -52725   -39805   -52304   -82900  -113726  -138503  -129240   -72854 
  -12389    21549    43798    66933    81723    76493    58985    46827 
   41784    37856    34064    22396    -2908   -28205   -45699   -67363 
  -95963  -120060  -129270  -114067   -79403   -42121    -5210    22459 
   22379    10252    15341    31498    36533    27795    25297    40728 
   54470    55080    59815    73932    80392    65481    29439   -13461 
  -41473   -47521   -44716   -39452   -27232   -20560   -37531   -64826 
  -78735   -73776   -49973   -13948    23548    55875    74925    80886 
   72426    39741     5643     4235    14227     6090      278     6225 
   -9347   -61186  -119850  -159457  -187065  -206647  -205548  -183266 
 -139088   -69197    -1548    32321    38147    29800    13166      562 
    3823    21537    31338    14433    -6577    -9309   -18507   -50066 
  -76513   -82157   -79134   -72025   -56437   -28960    16175    76572 
  133647   172571   196103   208749   209636   199675   175900   131654 
   72647    15050   -28890   -52266   -59988   -60956   -44398    -4664 
   33784    55162    74131   101301   122216   124228   118490   117182 
  120657   125306   118683   100172    84800    58877    -1748   -80671 
 -138531  -155757  -147065  -131777  -103966   -54768     6699    57321 
   73406    59386    42068    30002    12434    -8994   -17270    -6218 
   11908    28590    48172    61416    50522    27727     2387   -40749 
  -85343  -103459  -106241  -108053  -109354  -122630  -149323  -152669 
 -120756   -92276   -63205    -2344    58787    96490   145106   205165 
  238329   243308   232879   205864   185570   188440   183686   147602 
   94282    55381    55351    79911   100265   115488   127251   128637 
  118718    80304     6590   -60226  -100527  -140157  -169899  -164700 
 -140652  -113290   -80062   -46751   -15596     5668    -4745   -38384 
  -60194   -61088   -52189   -30327       33     9535    -2938    -3100 
   14090    25434    29108    41115    62677    84183   109277   139079 
  154125   144115   118974    90554    71022    61793    44934    13559 
  -10384   -10059     -778    -4731   -18457   -24170   -14150    16012 
   65871   111765   130369   127457   116440    98935    80680    79073 
   97588   112244   101703    63652     4144   -52376   -83084  -107484 
 -140491  -149365  -112611   -47474    32940   126114   215887   276400 
  290278   256109   195988   142273    99673    58761    31222    23184 
   16161    -2587   -22031   -25896   -20991   -21562   -21333   -13745 
   -1994    11132    17056    13862    11202     8763     2323    -8326 
  -25429   -42119   -49517   -56850   -74650   -94245  -101941   -96804 
  -86738   -75744   -59688   -30118    13721    49407    52868    33222 
    5474   -41352  -106510  -154922  -162648  -142198  -112705   -78073 
  -30668    33324    93725   125141   133538   132353   116028    86061 
   47495    -4451   -56428   -88257  -102136  -104652  -102861  -104250 
  -97866   -79484   -67401   -71711   -94104  -127285  -146950  -148531 
 -146157  -139441  -128430  -116179   -98721   -74486   -39686     5969 
   51894    88274   108092   115599   123435   125411   107245    74090 
   41284    19226    11403    19239    47423    90760   131163   161589 
  183226   188721   172873   135556    79593    23357    -7089    -8633 
   -3621    -2982      245     5726     7428      217   -11941   -11635 
    2413    15622    31032    60025   103332   142619   141978    95185 
   34720   -14506   -40532   -46502   -48937   -42530   -14183    23641 
   46292    42745    29959    16110   -19979   -61448   -67925   -49840 
  -30238   -12928    -2604     4564    15589    22771    10239   -16335 
  -19627     5824    18028    17749    40965    78055    99236    94716 
   67042    26074   -20280   -59816   -79043   -84237   -76396   -43305 
    4987    54469    94086    96783    69704    45746    19348   -11326 
  -17284     5485    27055    25537    18227    30153    35223     4981 
  -31650   -51617   -63013   -67631   -67910   -63056   -48633   -29481 
   -4537    27291    61108    98329   131166   143997   142254   140142 
  135393   118611    83821    35248    -6667   -23434   -17075    -3611 
    5812     8242    -3335   -23828   -33008   -38504   -61323   -91529 
 -111352  -117891  -113847  -105398   -96914   -85053   -67215   -53319 
  -57681   -75460   -88730   -92656   -86852   -59794    -8142    44723 
   71579    75187    67221    39132    -6902   -48068   -73343   -84120 
  -82028   -66794   -36799     4933    50364    84090    92536    86087 
   79661    68885    59788    66581    71139    53680    30466    14487 
   -1809   -18060   -28595   -30329   -22316   -16679   -17092    -5675 
   18863    36935    38445    31579    35027    49687    52922    39044 
   23386     9285    -5926   -12071    -3366     9505    17450    22568 
   32774    54164    78266    84540    67030    45779    40939    47221 
   49294    46290    41901    33467    23683    24854    37998    39793 
   15212   -19971   -48162   -62653   -58661   -50598   -62664   -87610 
 -102148   -96710   -72365   -49910   -45707   -38479   -10358    29154 
   69937   103719   129675   161508   200228   233601   260299   282105 
  296857   301697   288985   255448   206670   142243    57394   -32989 
  -96961  -126973  -141532  -143551  -131543  -119328  -105216   -81728 
  -67664   -80178  -110078  -136265  -148583  -158709  -170648  -171156 
 -165108  -161534  -152838  -137341  -111691   -72335   -36369   -14114 
      72     7610    16197    30258    32592    17482     5158     1721 
   -5029   -12389   -15265   -22281   -33182   -40352   -42602   -33213 
   -3342    32060    43016    29355    22331    32112    36998    33276 
   42725    70300   101775   124676   132661   128732   115344    87688 
   46813     2785   -25938   -25638   -12244    -2226    15205    41009 
   63329    76794    69670    45789    31753    32273    34172    34323 
   32143    28159    23509    17598    11703    -7470   -47604   -79043 
  -83609   -79509   -79493   -82111   -82990   -77608   -66648   -50266 
  -27129    -5249     4642     4896     6180    13623    29449    54898 
   82758   108002   133324   153946   164506   166321   155560   131250 
  100696    70068    40868     8432   -23219   -40295   -43446   -39802 
  -30523   -21532   -12673     6381    29899    44507    54397    63638 
   62940    46788    25096    12959     8388      107    -7407    -2513 
   17753    47693    76108    96623   109816   111856    99817    84555 
   77303    76999    80850    82780    74074    55781    27433    -8780 
  -34050   -41776   -43522   -39793   -28429   -14526      819     9094 
    1514   -10562   -25906   -57809   -90143   -93891   -72992   -54297 
  -53302   -62450   -68972   -71861   -69929   -55542   -30336    -3023 
   23721    47259    61787    66433    62450    49802    35648    32516 
   43593    57629    58876    45798    32416    22424     7510    -6109 
   -4455     7888    14901    15117    23475    43028    55556    53752 
   50332    49014    41202    25858     9661    -6812   -25955   -40712 
  -48958   -59687   -68088   -64852   -59647   -62396   -69986   -77147 
  -79761   -76987   -73164   -71521   -68574   -56860   -38532   -26736 
  -25144   -23598   -13725     2923    17564    24068    25063    26575 
   29354    27848    18900     6110     1395    17328    42875    59317 
   77505   109524   138998   151275   151056   145522   130955   103068 
   75159    63994    69696    85276   102677   115794   128243   136915 
  126209    91423    44134     1118   -28412   -47027   -58619   -70897 
  -91243  -109152  -115803  -120067  -123310  -124604  -135611  -151684 
 -155370  -147490  -134919  -122697  -122902  -138545  -157177  -170203 
 -180089  -189321  -192298  -181895  -161371  -142069  -126759  -106714 
  -80371   -57231   -40071   -22803    -4376     9005    10471     -924 
  -13234   -12811    -6246    -6617    -8767    -2220    15358    42801 
   70752    81234    68752    49093    35481    24372    14200    13731 
   20162    19961    11931     1322   -10174   -23866   -43864   -64766 
  -74112   -69996   -56274   -30910     7716    46449    61905    54600 
   49777    48944    38606    27471    19185     7057      578     3653 
    3200    -6123   -18696   -29359   -34376   -32024   -27203   -26536 
  -27227   -24575   -22286   -21759   -19306   -14443    -7706     1373 
   15755    41989    74958    95492   101251   108627   119104   124053 
  127581   133507   133984   124572   112105   104019   100492    99596 
  102149   107538   109206    99628    79565    55618    31343     6585 
  -20652   -50951   -79043   -98299  -105496   -99193   -82390   -62613 
  -45518   -35629   -36671   -44095   -48136   -46580   -41967   -31777 
  -15244     3219    23925    47333    66082    77387    84891    84274 
   72918    63354    65259    73542    82051    88595    91606    93040 
   94162    89920    74720    49602    21142    -6051   -28786   -39436 
  -37600   -39606   -56714   -77621   -88477   -92867   -97488   -97598 
  -88773   -72498   -48366   -18138    10159    29203    36510    36504 
   39928    51460    64631    75574    86045    94471    96434    87763 
   68413    43466    19633     6112     5548     8773    12875    22839 
   32376    28231     8553   -17993   -43432   -65565   -84567   -95841 
  -96274   -93286   -95464  -104705  -118590  -129357  -125885  -103860 
  -71027   -37984    -7759    19606    39467    49541    56174    61914 
   58691    44088    29324    22451    16213     1707   -16211   -28894 
  -35553   -37224   -34408   -28154   -16694    -1645     4522    -9626 
  -36739   -59967   -78537  -101679  -121399  -121098  -104350   -84585 
  -59780   -24001    14299    43365    59873    63365    58151    56031 
   56663    47289    33928    31482    31445    21193     3329   -18356 
  -33754   -32945   -30705   -40366   -50796   -53695   -49009   -32924 
  -10818     5974    20758    38917    53781    64298    75882    87687 
   99473   109092   109709   105201   105734   111744   118039   119689 
  113897   106745   102535    92663    76890    67005    62770    58251 
   54991    54027    56103    60260    59964    58222    64445    73251 
   77370    81977    85970    78436    57831    30394    -2098   -38076 
  -72980  -103008  -123703  -131284  -127401  -118936  -110430   -98924 
  -85546   -77254   -69846   -57240   -43426   -25175     1324    22806 
   27468    18621     5209    -6185   -15732   -24201   -25365   -15877 
    -340    17970    37012    52002    59869    60041    50747    32242 
   12268    -1060    -9147   -15732   -17995   -11620     1692    12812 
   16505    22667    40862    62516    75415    81529    87753    93640 
   95958    95253    92383    84496    70859    53583    32663    12338 
   -2736   -17457   -32889   -40163   -34699   -21581    -9986    -3427 
     879     1300    -3756    -8458   -12570   -23284   -39446   -53497 
  -62003   -65651   -69775   -78615   -85115   -83229   -80392   -83009 
  -87932   -91613   -94264   -94944   -87146   -67760   -45485   -28294 
