Origin Time       2011/03/11 14:46:00
Lat.              38.103
Long.             142.860
Depth. (km)       24
Mag.              9.0
Station Code      CHB001
Station Lat.      35.9571
Station Long.     139.8731
Station Height(m) 17
Record Time       2011/03/11 14:47:29
Sampling Freq(Hz) 100Hz
Duration Time(s)  300
Dir.              N-S
Scale Factor      3920(gal)/6182761
Max. Acc. (gal)   321.971
Last Correction   2011/03/11 14:47:14
Memo.             
[...]
    8425    65864   101953    93361    63586    52069    70717    89243 
   65609     4986   -47229   -62879   -54863   -50092   -52144   -51391 
  -46685   -41679   -32082     1497    63676   118629   131325   109436 
   74302    36435    14982    11697   -14397   -74486  -115712   -99560 
  -37715    38371    99830   130307   120709    81000    37761     -727 
  -28568   -40003   -65754  -121007  -158923  -145748  -100606   -48864 
  -13236    -7037    -3359    23026    56937    78846    71988    34645 
   12795    37163    77593   108044   125610   124319   107354    80093 
   51070    40944    48095    52345    38918     4700   -17934    -3730 
   19928    34396    37218     7959   -35764   -42107   -13097     -349 
  -26941   -63345   -70094   -39194    -2886     1824   -22149   -53626 
  -80836   -94709  -102558  -109394   -95641   -63040   -46619   -63162 
  -95034  -117286  -114249   -94365   -91770  -128536  -184948  -210164 
 -174765  -102476   -19169    64460   118246   136210   156422   181820 
  183582   168880   145932    99244    42098     1047   -26007   -45388 
  -49344   -45064   -46591   -31178    18070    78750   141629   193067 
  200238   175171   147426   119275    98756    79400    41258     5177 
  -12114   -29054   -42624   -37671   -19956      972    15958    14125 
  -12553   -51198   -62967   -45913   -39388   -48430   -55495   -45548 
   -1435    49121    60734    47337    48652    72466   111314   154723 
  169108   138924   101125    82964    71336    55186    38830    17291 
  -11554   -22086    -8339    -9678   -30380   -30869   -18144   -18808 
  -17099    -8399   -15531   -38761   -50839   -23920    32658    73007 
   74680    47755      766   -47592   -71265   -70787   -66415   -65824 
  -54997   -22875    25318    73740    96297    91656    82998    62945 
   28091    10602     2617   -40646  -103175  -131490  -124992   -96260 
  -29958    48845    86220    87483    95464   113480   121955   133255 
  156923   150272    80271   -17783   -95868  -125736   -91084   -38527 
  -39926   -77538   -88738   -61830   -15247    25273    23637   -29336 
  -93878  -117678   -92261   -58972   -50425   -59003   -62141   -40027 
    9109    53727    68033    53542    20741      450     9755    28969 
   53332    76287    77084    66548    52429    31324    28916    41310 
   32640    12177     3821     1001    -3259     4939    29574    36309 
   -1250   -48182   -50933   -18270       67    -7580   -25357   -28586 
   12390    73781   113621   137244   148111   138418   119133   100862 
   85158    71384    57224    40932    21671   -14638   -73526  -115609 
 -116573  -110186  -122015  -135817  -133223  -114757   -77456   -16988 
   56373   133168   194766   213163   188215   133901    57748   -19010 
  -70359   -95026  -110957  -117663   -93525   -43490     6040    41146 
   54531    57076    70308    91598   111055   127248   127996    96788 
   33196   -39729   -86833   -97928   -76970   -27187    21121    55622 
   94392   125676   134972   137537   146048   154231   150327   134215 
  110403    65496    -4809   -61807   -82974   -96463  -112491  -110307 
  -90260   -76003   -76892   -72643   -55005   -38672   -17976    15869 
   50050    73467    89782   106794   122225   132520   127024    88003 
   34971    15619    36134    48164    19899   -30078   -77173  -106141 
  -97973   -56040   -25033   -27226   -24736     1074    24114    42087 
   70305    93320    96364    92191    84446    70368    63285    73072 
  100848   138070   163711   176020   179661   156215   107877    55091 
   -1805   -56649   -95240  -114738  -128373  -156809  -178712  -157886 
 -102764   -31816    18054     5481   -33722   -49311   -46783   -35003 
  -21570   -33107   -72718  -105613  -110691   -86964   -29051    42516 
   89040   102814   101048   107895   134473   153418   142395   109654 
   47669   -30753   -76718   -94519  -112441  -123342  -126318  -121052 
  -99718   -71667   -34049    21320    78524   129595   170098   193360 
  211205   221234   210032   177583   126808    74096    42468    42704 
   64796    76725    67209    48685     9766   -49132   -96392  -133021 
 -165179  -173795  -173637  -178666  -166131  -142512  -121007   -84398 
  -36587     6781    41158    54822    42000    16391     2494     -748 
  -13418   -22808   -21459   -24582   -13564    22092    36426     5596 
  -25365   -19009     2167     8070     7010     9057     6107     5009 
    5091   -11556   -21515     2594    26963    25547    24343    33339 
   32868    20521     2621   -26229   -67314  -104620  -116237  -100603 
  -79484   -67800   -58235   -41910   -18772     9153    27985    23097 
   10053    16159    38047    54826    67712    79291    75876    68647 
   69773    54568    24391     7558    -4046   -14946    -2520    21842 
   25919    12770     5556     5078   -10202   -35556   -44351   -43320 
  -46453   -53536   -75020   -98671   -99411   -90448   -79751   -61501 
  -63232   -85163   -80034   -42740     2319    47494    75983    71261 
   32721   -25256   -61029   -51074   -22020     6696    34073    45800 
   41318    45153    73539   116949   143735   128072    78383    21586 
  -26624   -57698   -61112   -39800   -14051    -1392     2529    25180 
   76565   124782   150507   166257   166495   141302   115772   106641 
   92150    59514    19305   -18494   -50045   -84727  -126488  -154957 
 -151162  -115858   -69281   -28328    11162    50924    91901   132631 
  152223   141014   114061    96275    89564    56145    -8195   -54469 
  -60764   -53989   -58482   -70436   -83762   -92215   -88288   -86365 
  -98625  -118812  -137804  -141822  -130940  -113211   -76690   -24177 
   14667    27433    25464    29107    48116    59537    49063    30517 
    2206   -20413     2451    54962    94193   111940   108370    82305 
   41723     5241   -15017   -38083   -64683   -56793   -17734     7113 
   10291    11976    13899    26133    61543    93832   100271    85064 
   50048    17893    12499    19098    23544    24536    17869    -2109 
  -37614   -65103   -57536   -31345   -11281    11838    36836    38570 
   19275      -61    -8825    -5439    -6310   -22643   -44581   -65385 
  -71865   -53864   -32068   -23237   -27384   -51259   -74120   -54590 
   -6867    33917    64861    69429    48836    55040   101142   143981 
  150864   123776    85648    49069    22810    19875    16773   -18331 
  -70929  -121797  -167622  -190503  -177189  -134780   -72760    -1549 
   59355    97885   140129   207421   256579   250218   216078   179527 
  139060   101324    72966    44662     -735   -54923   -87047   -97134 
  -96330   -80438   -65304   -54830   -32428    -9851    13658    47257 
   65084    61836    45339     6432   -23826   -15046     -235    -2854 
  -13553   -29899   -33655     2351    57733    80559    59970    27470 
    9512     9033    15709    25955    26396     7370   -10191   -28864 
  -46432   -14483    57160   104213   108722    76844    28527    20770 
   58827    75499    48302     -876   -53060   -74289   -64760   -59945 
  -63784   -78746   -96569   -70026   -10823    28958    57812    75265 
   53436    22425    25943    56062    84399    90729    68364    20373 
  -35563   -54118   -18386    29039    63311    91552    99581    76397 
   40225    -2099   -43417   -58980   -63483   -87659  -121375  -144243 
 -144760  -117468   -73790   -35742    -9808    11068    31195    57440 
   71537    43940    -4361   -42072   -69585   -85547   -86024   -76731 
  -66703   -71059   -89203   -89034   -53646      527    53318    78881 
   49336   -14581   -33952    13190    56930    69182    65011    40601 
   28581    57068    82946    80290    76124    76783    62915    38187 
   25840    20121    -4079   -36377   -52873   -54115   -48607   -44269 
  -52841   -80285  -111000  -114075   -79817   -28308    24452    56095 
   31968   -28961   -72931   -84716   -64126   -23929    -9924   -36515 
  -67916   -71283   -35466    13106    33045    25342    12333    11504 
   26373    33090    30596    37368    51943    86488   138797   165014 
  157376   155887   165197   147009   103271    75716    74750    89067 
  113007   132438   133884   120605   102179    92216   101148   108949 
   82656    17862   -59863  -108857  -102773   -67251   -51481   -79392 
 -140101  -185211  -171801  -124843   -96641   -96876  -101095   -76149 
   -5637    84017   154917   175234   128807    79777    89692   107298 
  102926   102865    85401    47566    19864    -2478   -23477   -37197 
  -43008   -42506   -44412   -27242    24959    75719   114833   144587 
  130593    89558    74203    72541    63614    60231    44199    -6997 
  -72336  -122629  -142044  -125815   -88293   -70357   -92438  -108937 
  -80922   -36903   -11675    -5079   -10807   -15769    -4468     8386 
    7203   -10505   -60287  -123052  -139960  -106529   -69026   -43456 
  -27567   -29653   -39559   -32385    -7347     4782   -10691   -27086 
  -27931   -22891   -19060   -16776    -8886     5649    17702    15293 
  -12441   -40165   -34927   -22053   -38894   -78609  -116541  -137299 
 -128981   -85150   -23123    25453    43183    30724    -3252   -34379 
  -31893    -4936    17848    45854    89182   134282   176951   203359 
  200226   179213   136328    78184    40278    11341   -35013   -79435 
 -117454  -155129  -153711   -95063   -34564   -17231   -20050   -14072 
    8727    59648   121732   147774   119392    63689    13128   -23530 
  -40302   -31796   -21018   -31492   -48075   -44877   -17843    34607 
  112881   193135   248746   260188   217718   150208    84827     9405 
  -76330  -153836  -217910  -249547  -223598  -161574  -110601   -80854 
  -48205   -13537    17509    64144   100781    91573    62703    33134 
   -3675   -38514   -66078   -82523   -85854   -98705  -128996  -151869 
 -152139  -131147   -89452   -29178    28322    61020    94278   156056 
  213651   235312   232702   208831   160804   111152    67827    22320 
  -10547   -29947   -60454   -89955   -81632   -55231   -64146   -92853 
  -99100   -95431   -81478   -37536     2547    20510    51862    91073 
  112095   123529   124299   109347    87536    77078   104520   162151 
  229669   306809   368985   388132   369525   338485   327790   326666 
  288038   206059   102543    -4112   -82212  -112192  -135380  -207588 
 -286189  -297189  -261904  -201739  -104493   -18145    16401    14234 
  -14225   -37199   -16953    13694    22805    30601    41508    56131 
   89978   122614   109829    44939   -27962   -64084   -82491  -120661 
 -145385  -134358  -119868   -97918   -69459   -60020   -52494   -33617 
  -19727    -8107    21181    69965   118677   153691   171503   171198 
  162958   161396   171158   190917   209745   205902   165375    87588 
   -5130   -78256  -126495  -162096  -186942  -204207  -224099  -246608 
 -258251  -253556  -229506  -184874  -142406  -128783  -145722  -154796 
 -105502   -12215    67804   112298   105747    39547   -15171    14053 
   87224   147052   206853   271905   317342   336133   321595   274380 
  220194   168191   111818    49839   -26006  -113186  -192957  -253459 
 -275564  -245241  -195805  -172798  -169570  -145710   -96665   -36961 
   52151   150590   180603   145538   121464   107950    71132    39450 
    6955   -70376  -146027  -162797  -161881  -179183  -179910  -145692 
 -120281  -132616  -146589  -125992   -83793   -51422   -38980   -46434 
  -84843  -128093  -134282  -128240  -124212   -89427   -51194   -51664 
  -53740   -30949   -20351   -25191   -21408   -35988   -77418   -87482 
  -44605     -696    12577     8548   -15657   -55633   -83756  -106391 
 -103256   -14143   117524   195318   215994   206112   172646   157753 
  186527   221233   238112   253071   277984   294702   275724   214914 
  114170     4839   -63299   -85736   -73523   -35529     -513    13388 
    5610   -27891   -85112  -146497  -190762  -212909  -214758  -192554 
 -147328   -87544   -37332   -26250   -25624    14514    67791    89308 
   87019    73728    55956    52171    67874   105670   160067   200710 
  222930   233107   215327   175398   120876    53525     4407   -36840 
 -109130  -168002  -167511  -148011  -144490  -155933  -173320  -175909 
 -159262  -124224   -40761    92452   200722   243598   264513   268448 
  237638   201386   163638   123124   114964   143525   175568   178326 
  153104   136156   128748   100918    65459    43766    19957    -4110 
   -6534     6995     1938   -57565  -147610  -202108  -205857  -177603 
 -102655    28688   151889   186573   125184    11691  -112957  -225449 
 -309221  -363102  -396493  -400019  -372090  -338205  -299105  -246402 
 -208943  -174912   -95005    22879   162456   308274   392248   375110 
  312150   272125   249442   231573   239298   229718   168817   119811 
  109307    99764    83525    67097    47926    43476    62542    72685 
   48685    10382    -8528   -19321   -63939  -132041  -184017  -224005 
 -239940  -181672   -92391   -77155  -133304  -206425  -278346  -305695 
 -264382  -190497   -79769    80629   213423   263836   288732   312185 
  283853   217206   160390    93256     8157   -48033   -77022  -102540 
 -105804  -100279  -109405  -108067   -95684  -101197  -117246  -105698 
  -42119    74246   229704   360573   389490   344669   293015   217120 
  109870     2149  -119478  -224826  -245716  -214779  -165566   -75829 
  -10874   -16106     5675    90482   170537   237381   279077   244873 
  189639   181879   191767   234769   319005   351512   303648   192795 
  -10593  -266071  -453740  -499787  -443225  -349333  -183036    62340 
  257886   343033   404711   445950   356421   175055    20394  -102840 
 -166429  -174639  -222023  -273545  -278323  -293518  -312493  -298345 
 -287011  -301768  -290708  -226416  -166686  -139874  -121769   -87664 
   -8236    78566   108441   114602   136583   155640   184945   231968 
  223776   141983    58660   -16207   -72585   -68846   -70808  -135645 
 -204278  -226340  -192225  -125090   -74195   -42759    -4950    54076 
  149909   254034   288204   244414   184580   114926    53250    61977 
  104411   111455    76477    -4452   -89777  -123248  -117141   -75772 
  -22659   -12569   -11297    36343   136465   268608   349913   328712 
  249472   163470   111842   108015   119068   124733   123576   107905 
   77050    27177   -50740  -136031  -207809  -270715  -312280  -324532 
 -320341  -287508  -231702  -188645  -123052     7031   138665   214991 
  229226   161335    43461   -50563   -96947   -91983   -47057    -7656 
   -1538   -16536   -23314   -15946   -18448   -41361   -72755  -107704 
 -142317  -144812  -112725  -102425  -104125   -53303     3972    -5281 
  -38032   -40457     -520    83126   163888   191994   165668    97056 
   23705    -3054   -11974   -58698  -107034  -117419   -88097     -302 
  108153   173607   198274   180216   107847    11908   -81338  -143688 
 -133412   -77083   -36188   -10342    11518     4479   -23560   -19873 
   21435    51328    77163   147134   223898   241297   207919   135644 
   21948   -71930   -85154   -61090   -71918  -111398  -147125  -183083 
 -207535  -185920  -134432  -110802  -131020  -154265  -152375  -128359 
  -63879    50361   167120   245484   288912   309041   314245   320928 
  332476   323757   284808   220923   120365    -1487  -111686  -211533 
 -286884  -297230  -243393  -175413  -142439  -129111   -82321   -15821 
   23921    30659   -15088  -121565  -228957  -292280  -300654  -248913 
 -168309   -77837    29872   126938   186143   226243   275600   333361 
  383486   423640   446231   425865   362569   291915   224342   140486 
   58405    14039     9063    34839    59859    38008   -16235   -71062 
 -121237  -142843  -136050  -129048  -107156   -54741     9759    75938 
  146328   206323   211713   141050    39413   -43977  -106297  -142524 
 -131931   -99069   -90383  -105488  -127966  -160408  -195267  -205555 
 -180479  -138287   -96108   -62205   -46811   -45406   -23804    37340 
   96227   107385    82773    47303    17020    25344    78080   128227 
  142528   130557    99305    38015   -37513   -88633   -93617   -54842 
    2507    59429   101973   102381    65172    26589     6175     3963 
   13605    23440    13259   -30546  -100533  -181868  -262999  -318413 
 -305674  -220736  -114857   -12436   101862   205794   255442   245154 
  204057   163763   133778   120368   128665   144323   152980   134247 
   80103    22805   -15514   -42606   -77226  -113129  -107143   -70746 
  -49684   -17368    40399    68080    56023    47271    50364    60792 
   77401    62642    15355    -4185     5517    14843    38147    58109 
   41484    30122    57260    84770    92696    77811    18010   -68962 
 -129242  -139806  -101037   -23605    45210    71166    60747    12842 
  -57502  -109295  -126280  -117999   -93404   -46503    27487   119355 
  214022   293502   358063   409645   433576   426441   380250   276700 
  131944      507   -88704  -144312  -161739  -152601  -143602  -120312 
  -65529    10806    88209   145047   162504   123497    67116    72743 
  126203   137432    78929   -13818  -107226  -165515  -164335  -119052 
  -70779   -52442   -33486    32701   103639   132774   155450   172263 
  124035    31844   -31943   -79289  -144632  -202645  -240284  -291261 
 -369087  -421904  -398484  -316577  -207580   -84889    14487    81364 
  168202   266232   320893   343211   330831   283314   258843   246796 
  210269   177532   125972    12259  -108950  -196535  -286334  -374119 
 -425751  -441335  -408470  -310459  -171420   -19016   123320   208727 
  230128   250449   305792   366513   393287   378237   350397   333635 
  311526   258018   168620    53227   -88565  -258116  -395707  -432471 
 -405428  -380826  -366267  -351513  -319700  -246117  -116053    38955 
  148429   198951   215668   188819   127270    52941   -36230  -120129 
 -181310  -230667  -266725  -275059  -252909  -218680  -173349   -85775 
   49595   197903   303475   329305   307958   292186   288297   286982 
  294539   296402   257540   185539   109759    39815   -10838   -47116 
  -95708  -157650  -219405  -267433  -279760  -256178  -222575  -187644 
 -134405   -44655    73192   191015   307144   417944   459645   397114 
  309843   269798   241713   189448   133431    62877   -42810  -150666 
 -242260  -313802  -335257  -319477  -310147  -279944  -163115    16138 
  167522   271300   338541   334782   263041   169171    66377   -44634 
 -144662  -220581  -268082  -283778  -300370  -339375  -354390  -327108 
 -276779  -190707   -87449   -14090    35984    79650   101092    93951 
   65204    17375   -33155   -61957   -72776   -85218   -97366  -104612 
 -118617  -122629   -80204   -14326    24536    33467    31916    39743 
   56392    51269    21953   -27383  -103685  -146509   -94888    -2068 
   55849    88793   130835   177611   230794   287935   312115   286153 
  211907    95842   -24940  -120699  -179083  -182499  -136617   -64647 
   13243    78589   124892   146054   139229   120892    95318    45647 
  -16326   -47145   -44356   -45391   -54350   -57451   -47575    -7841 
   44830    70079    77890    88336    95022   103818    98350    48167 
  -26726  -102659  -166385  -185796  -163698  -144897  -146080  -124446 
  -51323    20918    51895    73320    95409    95487    92182   110361 
  139758   175135   199319   181592   142038   109355    76861    49204 
