Origin Time       2011/03/11 14:46:00
Lat.              38.103
Long.             142.860
Depth. (km)       24
Mag.              9.0
Station Code      CHB025
Station Lat.      34.9705
Station Long.     139.9458
Station Height(m) 74
Record Time       2011/03/11 14:47:52
Sampling Freq(Hz) 100Hz
Duration Time(s)  300
Dir.              U-D
Scale Factor      3920(gal)/6182761
Max. Acc. (gal)   21.173
Last Correction   2011/03/11 14:47:37
Memo.             
[...]
   23124    21843    20555    19430    18980    19798    21047    21490 
   20981    20315    20100    19836    19303    19372    20669    23223 
   26364    28973    30997    32921    34354    34913    35067    35411 
   35889    36180    36468    36768    36361    35395    35114    35585 
   36149    37215    39168    41248    42223    41573    39983    38370 
   36729    34521    32312    31322    31175    30954    30995    31654 
   32537    32958    32263    30773    29653    29277    29324    29796 
   30515    30811    30449    30033    30030    29884    29220    28902 
   29328    29564    29081    28063    26559    25038    24040    22824 
   20447    17553    15387    14166    13400    12923    13157    14446 
   16257    17720    18557    19070    19604    20125    20366    20091 
   19735    20362    21852    23069    24021    25133    25728    25476 
   25204    25234    25195    24810    23900    22936    22349    21424 
   19570    17242    15391    14511    14098    13672    13249    12793 
   12518    12576    12354    11322     9834     8639     7880     7167 
    6709     6859     7433     8321     9156     9517     9643     9767 
   10047    10412    10187     9266     8370     7538     6061     4065 
    2357     1283     1022     1597     3050     5646     8601    10883 
   12678    14136    15215    16317    17774    19672    21421    22379 
   23098    24169    25687    27793    29995    31436    31670    30719 
   29329    28239    27241    26057    25090    24310    23077    21804 
   21540    22230    23115    23661    23687    23234    22266    21076 
   20152    19179    18103    17607    17306    16373    14887    13385 
   12715    12912    12730    11701    10381     9084     8178     8221 
    9157    10217    11025    11894    12834    13629    14214    14492 
   14617    14675    14359    13804    13845    14889    16629    19067 
   22177    25293    28032    30404    32351    33949    35187    35812 
   35716    35028    34163    33755    33849    33741    33188    32730 
   32584    32320    31751    31076    30230    29133    28038    27142 
   26596    26549    26711    26583    26369    26764    27781    28855 
   29618    29805    29395    28738    28206    28333    29403    30869 
   31837    31520    30007    28486    27763    27676    27786    28000 
   28831    30589    32370    32851    32084    30973    29540    27375 
   24925    23352    23160    23849    24755    25074    24330    22975 
   21513    20038    18650    17838    18119    19162    20227    21236 
   22474    23890    25083    25881    26611    27382    27927    27838 
   26729    25017    23428    22139    21185    20491    20202    20657 
   21447    22378    23995    26212    28879    32183    35037    36059 
   35937    36108    36575    36623    35839    34070    31859    30338 
   29589    28463    26567    24263    21492    18855    17351    16205 
   14173    11820     9988     8217     5890     3419     2004     2021 
    2338     2380     2738     3192     3308     3857     5319     7516 
   10324    12967    15169    17611    19817    21281    22393    22699 
   22313    22595    23843    25213    25768    25685    26187    27068 
   27477    28034    29132    30444    32345    34771    36592    37344 
   37592    37889    38108    37681    36631    35297    33378    30974 
   29135    28100    27397    27240    27719    28553    29559    30268 
   30819    31784    32586    32181    30280    27690    25835    24857 
   24007    23822    24804    26226    27884    29636    30826    31836 
   33261    34883    36563    38076    38928    38770    37376    34957 
   32389    30510    29205    27588    25443    23632    22555    21556 
   19964    17681    15398    14197    14128    14383    14974    16242 
   17611    18126    17252    15561    14482    14537    14963    15174 
   15181    14873    14416    14672    15979    17604    18744    19456 
   20260    21024    21062    19930    18251    17484    18025    19154 
   20742    22767    24430    25422    26257    26737    26160    24598 
   22484    20378    19336    19759    20666    21323    22218    23530 
   24290    23986    23478    23818    25026    26138    26083    24565 
   22476    21194    21024    20990    20712    21005    21810    21970 
   21259    20015    18199    16307    15243    15150    15371    15495 
   15939    17050    18391    19674    21375    23472    24962    25718 
   26866    28800    30736    31902    32147    32057    32540    33906 
   35597    36953    38074    39422    40954    42040    41946    41323 
   41785    42867    43219    43328    43437    42851    41945    41435 
   41210    40812    39770    38178    36814    36098    36181    37194 
   38329    38549    38035    37550    37087    35824    33672    31600 
   30035    29134    29319    30040    30633    31688    33578    35236 
   35309    33989    32523    31510    31140    31170    31135    31642 
   32871    33569    33341    32702    31738    30903    31037    32397 
   34469    36144    37122    38103    38660    37811    36211    35203 
   34972    35008    35336    35983    35988    34665    32889    31620 
   31160    31764    32552    32221    31541    31522    31264    29910 
   27565    24894    23124    22401    21629    20489    19486    18940 
   18786    18752    18524    17585    16013    15123    15185    14741 
   13574    12752    12324    11793    11127    10332     9725    10139 
   11487    12804    13770    13910    12704    11441    11289    11554 
   11475    10623     9002     7443     6281     5771     6301     6752 
    6257     5554     4956     4557     4524     4327     4045     4091 
    4362     5351     7325     9347    10598    11232    11995    12947 
   13238    12930    12936    13026    12471    11603    11131    11198 
   11385    11610    12201    12569    12549    13198    14378    15391 
   16433    17689    19118    20358    21302    22186    22533    22450 
   22750    22747    21542    20194    19902    20247    20439    20060 
   19119    18217    17300    16018    14992    14571    14626    15176 
   15641    15674    16002    17121    18508    19237    19144    18802 
   18146    16879    15767    15760    16735    18365    20962    24221 
   27103    29230    30917    32790    34883    36269    37008    38076 
   39242    39922    40465    40914    40822    40502    40495    40659 
   40709    40649    40982    42365    44282    45444    45512    45106 
   44893    45024    44585    42707    40401    38980    38079    37108 
   35981    34636    33469    32799    32553    32853    33496    33986 
   34207    33965    33135    32407    32477    33126    33578    33335 
   32814    32835    33673    34737    34999    34679    35185    36709 
   38179    39019    39868    41647    43907    45642    46469    45894 
   44058    42253    41182    40267    38576    36338    35028    35266 
   36241    36659    35613    33835    32697    32070    31208    30142 
   29246    28506    27855    28028    29355    30996    33086    36230 
   38839    39068    38004    37706    38116    38363    38514    38684 
   39163    40207    40505    39291    37916    36971    36022    35167 
   34407    33455    32743    34069    37596    39796    38525    35294 
   32295    31276    32263    34179    36647    38575    39056    39375 
   41156    44836    49063    51234    50571    48660    46861    45255 
   43850    43175    43138    43070    42564    41290    39398    37799 
   37369    37426    35931    32679    29535    27590    26739    26043 
   24933    24496    25157    25617    24994    23730    23562    25755 
   28449    28872    27409    26615    27556    28854    28801    27494 
   26103    25115    24680    24555    23710    22395    21948    22065 
   21966    22010    22184    22208    22335    22051    20327    17899 
   16888    17348    17135    15555    13719    12666    12871    13732 
   13808    12083     9802     9833    11937    13144    12518    10750 
    9412    10332    12074    11620     8171     3233       14     -214 
     225      -84     -414       80     1444     1959      520     -421 
    1265     3913     5902     7537     8382     7842     6345     4128 
    2023     1565     2773     4359     4697     2793      271     -540 
     -88     -189    -1341    -2776    -3703    -4180    -4607    -4437 
   -2303     1367     3412     2365      986     2050     5173     8702 
   11685    13793    14976    15230    14568    12974    10972    10422 
   12337    15619    19295    22273    23311    23160    22804    21860 
   20646    20161    20773    21814    21991    21810    22631    23314 
   22815    22639    23787    25346    26286    26761    27370    28134 
   29318    31209    32888    33166    32311    31863    32010    31642 
   31126    30755    30230    30669    31817    31990    31825    32556 
   33459    33280    32713    33410    34735    36109    38762    41487 
   41937    41615    43085    45453    46362    45582    44758    44742 
   44764    44173    43199    42600    43356    44919    45191    44000 
   42897    41678    39925    38929    38451    36961    35198    34531 
   34417    33754    32808    32863    33763    33994    33220    31913 
   30912    31566    32952    32755    31399    30582    30407    30269 
   29984    29593    28732    26826    24263    22316    21744    22631 
   24518    26071    26677    26969    27099    27346    28158    28600 
   28083    27719    27952    27944    27820    28808    31187    33883 
   35871    36370    35192    34047    34456    35082    34050    31568 
   28760    26461    24718    22746    21085    20805    20752    20054 
   19426    18702    17567    16485    15783    15310    14307    13099 
   13323    14676    15432    15732    16715    18174    18834    17751 
   15492    14079    14149    14090    13396    13018    13544    15134 
   16933    18090    18726    18482    17940    19001    21360    23507 
   25335    26925    28843    31635    33783    34920    37113    40404 
   42966    43764    42282    39190    36458    35454    36184    37619 
   38488    38573    38426    37864    36995    36751    36674    36257 
   36784    38219    39073    39511    39857    39262    38107    37208 
   35714    33164    31093    31144    32940    34690    35471    35684 
   35845    35894    35777    36012    36625    36800    36463    36377 
   36360    35252    32914    30625    29617    29759    29912    29675 
   29158    28397    28055    28076    27039    24511    22095    21416 
   22037    22704    23280    24194    25545    26559    26575    26496 
   26411    25002    23432    23626    24647    25723    27099    28090 
   28671    29252    29491    29373    29314    29729    30845    32233 
   32808    32438    32664    33511    33722    34387    36322    38192 
   39506    40357    40666    41083    42279    44205    45960    47081 
   48758    51473    53866    54643    53278    50873    49140    48095 
   47466    47056    46622    47115    48347    48350    46414    43483 
   40920    39644    39101    37998    36912    37371    38553    38711 
   37713    36704    36725    36726    35043    32251    29525    27197 
   24914    22001    19225    17780    17224    17019    17426    18391 
   19451    20440    20845    20000    19071    19082    19042    18743 
   18549    18119    17854    17901    17389    16449    16050    16190 
   16395    16801    17390    17521    16959    16198    15599    15240 
   15464    16181    16230    15525    15665    16453    16126    14482 
   12516    11737    12924    14651    15930    16885    16832    16119 
   15684    14683    12903    11891    12564    14100    14886    14070 
   11972    10060     9913    10877    10667     8948     7834     7772 
    6984     5952     6369     7337     7505     6832     5504     4240 
    3852     4066     4448     5303     6519     7446     8302     9349 
   10060    10776    12497    14807    16477    17308    17631    17285 
   16312    15243    14645    15002    15933    16601    17195    17806 
   17877    17726    17363    16005    14282    13021    12264    12879 
   14977    17119    18570    19249    19326    19606    19966    19869 
   20278    21500    22560    23329    23560    22690    21087    19538 
   19143    20406    21872    22145    21499    20302    18632    16877 
   15425    14698    14143    12628    11102    10464     9283     7080 
    5248     4869     5721     6435     6806     8040     9666    10349 
   10745    12070    13640    14414    15022    15892    16551    17495 
   19048    20346    21072    21404    21260    20796    20266    19925 
   19835    19313    18152    17385    17030    15692    13555    12332 
   12219    11969    11133    10136     9054     8134     8417    10340 
   13123    15348    15915    15447    15442    16432    17714    18143 
   18025    18890    20503    21311    21109    20546    20455    21654 
   23256    24063    24894    26747    29411    32234    34501    35736 
   36215    36733    37573    38492    39153    39276    39372    39806 
   39705    39040    39016    39514    39595    39552    39562    39073 
   38688    38950    38902    38256    37491    36698    36593    37503 
   38217    38521    39055    39136    39112    39688    39135    37681 
   37682    38467    38748    38971    39599    40878    42122    42481 
   42233    42146    42941    43997    44447    44862    45235    45500 
   46539    48024    49125    50126    51492    53243    55057    56673 
   57960    58731    58935    58224    56747    55886    56313    57364 
   58058    57994    57876    58199    58416    57656    56239    55381 
   54665    53519    52373    50490    47919    46322    45586    44534 
   43647    43829    44299    43768    42521    41352    39994    37781 
   34813    32697    32935    34603    35633    35018    33248    31612 
   30674    29950    29208    28584    27888    27463    27852    28260 
   28087    27702    27041    26564    26841    26868    26065    25168 
   24259    22739    20756    19125    18346    18636    19607    19642 
   18130    16519    15614    15389    16209    17410    17746    17613 
   17788    17513    16463    15988    16696    17762    18119    17452 
   17143    18106    19193    19778    20154    20341    21103    22749 
   23637    23425    23501    23753    23750    23587    22604    21098 
   20646    21540    22396    22210    21435    20723    20278    19867 
   18718    17493    17858    19139    19812    20088    20048    18879 
   17133    16538    17112    17364    16771    15967    15879    16633 
   17085    16839    16978    17987    19059    19442    19497    19952 
   20709    21211    21312    21243    20805    19747    18943    19105 
   19542    19735    19842    19636    19136    18689    18097    17273 
   16236    15397    15843    16951    17375    17819    18627    18501 
   17280    16541    17132    17947    17772    16984    16717    17133 
   17086    15903    14441    13539    13245    13656    14263    13992 
   13414    13647    14417    15417    16097    15611    14770    14735 
   15085    15130    15282    16418    18406    20433    22619    24902 
   26154    26813    28383    30173    30602    29975    29595    29938 
   31052    32786    34113    34196    33711    33981    34748    34699 
   33952    33109    32194    31695    31581    31045    30565    30914 
   31511    31709    31014    29428    27952    26899    26133    25932 
   26165    26884    28376    29664    29668    28961    28067    26666 
   25184    24141    23524    23835    24939    25730    26127    26107 
   25054    24090    24441    25130    25312    24855    24111    24358 
   25162    25206    25379    26488    27534    27274    25650    23995 
   23330    23222    22751    21678    20393    19329    18729    18597 
   18977    19696    19801    18866    18005    17925    18114    18097 
   17331    16073    15751    16193    15948    15345    15562    16464 
   17505    18649    19520    19935    21032    23548    26230    27413 
   27117    26844    27028    26317    24563    23609    24070    24495 
   24443    25076    26367    27405    28251    28527    27493    25959 
   25279    25745    26510    26658    26503    26740    27099    26892 
   26060    25131    24488    24388    24792    25238    25889    27073 
   28632    30805    32999    33886    33982    33876    32779    31319 
   30811    30906    31252    32076    32957    33909    35561    37497 
   38910    39703    39901    39595    39102    38808    39134    40100 
   41344    42196    42000    41349    40763    39488    37934    36935 
   35902    35506    36947    38187    36768    34224    33258    33577 
   33429    32489    32011    32722    33571    33677    33433    33493 
   34012    34495    34681    34532    34057    33993    34373    34296 
   33887    33726    33913    34388    34700    34541    34455    34497 
   33611    31849    30418    29172    27567    26581    26932    27586 
   27550    27109    26787    27062    28024    28553    28829    30432 
   32251    32888    33400    33646    32949    31929    30843    30411 
   31214    32563    34309    35823    36006    35818    36480    37344 
   37618    37955    38725    38996    39084    39606    39783    39812 
   39921    39296    38313    37387    36190    35496    35639    35304 
   34357    33696    32505    30247    28284    26863    25578    25342 
   26380    28553    31657    33708    33923    33806    33729    33173 
   32104    30873    30070    29996    30618    31700    33285    35635 
   38053    39491    39785    39184    38037    36990    36422    36253 
   36660    37639    38573    39392    40213    39996    38193    36772 
   37114    37151    35833    34803    34391    33838    32580    30436 
   28185    26324    25229    24856    23797    21692    19300    17282 
   16464    15986    15160    15706    17440    18975    21074    23555 
   25553    27109    26956    24659    22303    20649    18395    15520 
   13258    11525     9930     9138     9576    11000    12529    13701 
   14894    15514    15527    16045    16431    16131    16226    16522 
   16062    15347    15428    16626    17844    17741    17228    17350 
   16911    15632    14922    15154    15771    16381    16426    15508 
   14582    14512    14519    14055    13507    13617    14868    16522 
   17919    18645    17996    17197    18076    20140    22562    24972 
   26581    27639    28340    27768    26274    24568    22379    20627 
   20303    20075    19142    19033    20372    21928    22914    23328 
   22887    21761    21280    22241    24379    26945    28477    28621 
   28270    27231    25351    23254    21329    20348    20192    19266 
   17814    17563    18140    17975    16957    16444    16705    15724 
   13441    12620    13755    15300    17030    19232    21526    23861 
   26328    28619    30317    30970    31181    31574    31398    30266 
   28401    26640    26512    27803    28845    29290    29406    28886 
   28094    27734    27953    28839    30285    31641    32248    32574 
   33541    34880    36024    36932    37837    39221    40817    41901 
   42544    43020    43196    42739    41760    40860    39838    38278 
   36937    36330    35841    35263    35001    34911    34816    35102 
   35827    36477    36376    35195    33863    33275    32311    30250 
