Origin Time       2011/03/11 14:46:00
Lat.              38.103
Long.             142.860
Depth. (km)       24
Mag.              9.0
Station Code      CHB013
Station Lat.      35.4294
Station Long.     140.2892
Station Height(m) 10
Record Time       2011/03/11 14:47:35
Sampling Freq(Hz) 100Hz
Duration Time(s)  300
Dir.              N-S
Scale Factor      3920(gal)/6182761
Max. Acc. (gal)   78.407
Last Correction   2011/03/11 14:47:20
Memo.             
[...]
   13267     9654     8369     9530    12225    13350    10416     4639 
    -902    -3303    -2255    -1211    -2623    -6161   -10734   -13618 
  -12694    -9017    -3863     2077     7629    12100    14575    14001 
   11924    11239    12080    12532    11914    10201     6578     1647 
   -2257    -5499   -10141   -13894   -13241    -9301    -4626    -1326 
    -699      518     5531    12208    18496    23897    26993    28843 
   32232    36918    41205    44896    48760    53071    56231    55098 
   47956    36353    23407    11956     3692    -1882    -6615   -11645 
  -16810   -20653   -21065   -16817    -8806     -272     6633    12933 
   17406    17077    14769    14684    16023    17140    16580    12800 
    7284     2699     -202    -2401    -5372    -9698   -14381   -16821 
  -15516   -13112   -13501   -16795   -19742   -20213   -19292   -19086 
  -20018   -20426   -18303   -13261    -6169     1617     7916    11271 
   11819     9194     3202    -3503    -7532    -8052    -5691    -1223 
    4084     9691    17013    27391    38492    44968    44377    40192 
   37240    36139    34226    30326    25640    21243    17707    15507 
   14022    12595    12217    13133    13003    10504     7561     5471 
    3264     1072    -1033    -5934   -14194   -21141   -23891   -23368 
  -20030   -15393   -12455   -11601   -11525   -11810   -12606   -14456 
  -18364   -24349   -29558   -31157   -29934   -27573   -24581   -21770 
  -19430   -16362   -11980    -7574    -5066    -5611    -8678   -12434 
  -15576   -17772   -19655   -22726   -26657   -28997   -29208   -29178 
  -30026   -30408   -27707   -21652   -14962    -8966    -2438     4838 
   11210    15253    17425    20397    26127    33072    38258    39709 
   36511    29782    21964    14101     7917     7184    12478    19772 
   24659    24770    21273    18301    18416    20204    21263    21486 
   21932    22986    25812    31050    35103    34490    30882    26154 
   19744    13007     9140     9390    11966    13936    13516    10601 
    7415     6547     6526     4318     -272    -6058   -10972   -12850 
  -12177   -10296    -8570    -9024   -10256    -8756    -4693     -119 
    3484     4766     3255    -1005    -5896    -6741    -2558     3139 
    7673     8583     4326    -1686    -5234    -6623    -7189    -6611 
   -6497    -9761   -15510   -20347   -22444   -20941   -15783    -9278 
   -4705    -3442    -4514    -6233    -6157    -1403     6364    11164 
   10825     7476     3492     2281     5854    11839    16587    18734 
   20014    21795    22612    22301    22526    23235    24063    25131 
   25875    26049    26103    26418    26232    24680    22548    19645 
   14888    10036     7591     7250     7026     5567     3143     1557 
    2129     2961     1278    -2935    -8849   -15481   -20640   -23235 
  -23503   -21349   -16826   -10195    -2309     4409     7968     9427 
   11390    15575    22938    31865    37317    37328    35266    33340 
   31320    28645    23341    14408     3343    -9478   -23366   -34113 
  -38505   -38218   -36673   -35285   -32971   -27941   -20320   -12108 
   -3978     4695    12926    19345    23437    24078    21840    19703 
   18604    16650    11745     3319    -6732   -15289   -19818   -19325 
  -15303   -10570    -6551    -2534     2909     9298    13498    13801 
   11189     5073    -5323   -16981   -26022   -30720   -31432   -30661 
  -30255   -28600   -23607   -16520   -10506    -7276    -5797    -2956 
    3468    11966    19424    24312    26015    24064    18941    12782 
    8370     5684     1976    -4343   -13087   -23015   -32130   -39157 
  -43236   -43230   -39873   -36364   -35552   -38044   -41680   -43166 
  -41861   -39223   -35176   -28506   -18911    -7437     2930     8700 
    9669     8302     6238     4709     5366     8721    13809    19337 
   24443    28123    29050    27188    24681    23775    23620    21643 
   18259    16446    17137    18384    19145    20740    23328    24478 
   22453    18218    13897    10897     9689     9533     8052     3813 
    -977    -3345    -3701    -4762    -8128   -13389   -18559   -21386 
  -22854   -26423   -32310   -37900   -42478   -46063   -45909   -40243 
  -33943   -32869   -35478   -37305   -37394   -36540   -36866   -41660 
  -49878   -56208   -58140   -56019   -48610   -35973   -23254   -16125 
  -15449   -17955   -19570   -18866   -16785   -13515    -9717    -7430 
   -7884   -10904   -13910   -14433   -14464   -16153   -17730   -17810 
  -17262   -15420   -10531    -3669     2194     4436     1595    -5105 
  -13203   -20818   -25148   -24886   -23301   -23539   -25353   -27528 
  -28130   -25252   -18756    -9099     2228    13053    21802    26312 
   26851    26771    26014    21563    13279     4010    -4017    -9931 
  -11981    -9311    -4963    -2472    -2645    -4836    -7583    -9074 
   -9129    -9541   -11477   -13139   -11561    -6043     1921     9356 
   12155     9504     5879     4918     5893     7153     7346     4177 
   -3682   -13984   -21821   -24584   -24826   -25125   -24266   -21623 
  -19029   -17916   -19027   -21673   -23559   -23738   -22677   -21738 
  -23016   -26785   -32609   -40893   -49704   -55100   -55147   -49853 
  -40495   -31628   -28509   -30336   -30438   -24243   -13504    -2273 
    6926    11986    11092     4818    -3712   -10522   -13570   -13320 
   -9736    -2020     7932    14896    15837    14557    16306    20960 
   25438    27929    27658    23830    17404    12859    13752    18053 
   21744    22771    20226    14404     6704    -1251    -7743   -13036 
  -19598   -29177   -41526   -52935   -57324   -52209   -40073   -25293 
  -12377    -2737     5621    12595    15074    12299     7096     1432 
   -4645    -9642   -10935    -8051    -2698     3230     7581     7322 
    1221    -8544   -19501   -30040   -38386   -43980   -47466   -48212 
  -45239   -40529   -36487   -32529   -28794   -27327   -28311   -29699 
  -28880   -24267   -16997    -9386    -1690     6972    15000    18446 
   16207    11982     9175     8141     7634     6101     3511     1443 
    1140     3598    10949    23535    35814    41535    40027    33096 
   22573    11710     4033      608    -1831    -7402   -14821   -20384 
  -24307   -27511   -28330   -26988   -25351   -22019   -16749   -13080 
  -10089    -4064     3088     8313    12297    15648    17155    15881 
   12462     7834     2475    -1232     -367     4816    12196    19202 
   24396    29884    38559    50135    61605    70616    75349    73858 
   68018    61342    54119    45402    34860    22832     9199    -6186 
  -20539   -30697   -36496   -39301   -40057   -37635   -30994   -22324 
  -14382    -9054    -7459    -8325    -9466    -8924    -6049    -2745 
     744     7153    16801    25639    29633    28497    23438    14373 
    3516    -3162    -3801    -3518    -6035   -10362   -14727   -17570 
  -18281   -18117   -17682   -15821   -11863    -7364    -5086    -6739 
  -11597   -17091   -22122   -27279   -30976   -30577   -26111   -19389 
  -12315    -6017      138     5917     9386    11252    12644    11049 
    5991     1236    -1965    -5959   -10710   -12538   -10565    -8940 
   -9966   -11053    -8045      550    11096    20587    30973    41686 
   45553    37652    22095     5225   -11090   -26036   -38525   -49085 
  -57603   -64031   -70847   -77793   -79740   -75599   -71059   -69372 
  -67784   -62991   -52651   -34776   -11468    10564    24561    27620 
   22336    14138     6981     2380      230    -1212    -4743   -10645 
  -14669   -12868    -5460     5103    15829    25830    36749    47039 
   52911    54560    54479    52318    45601    35111    25672    20504 
   18506    18450    22410    30869    39167    43428    43863    42290 
   41014    41098    39888    32806    19299     4123    -7768   -13311 
  -11623    -5173     1476     3244     -735    -4478    -3888      808 
   10673    23085    31337    33755    31757    26025    18533     9020 
   -3658   -15541   -24805   -34713   -43468   -45725   -40266   -28724 
  -14955    -4753     -968    -1362    -1884     -454     2176     2598 
   -2374   -11282   -21744   -33293   -44044   -53542   -64074   -75967 
  -86345   -90945   -88559   -83110   -77903   -72237   -64370   -52319 
  -35793   -19355    -6642     4012    13217    18841    21288    22764 
   24486    26067    25034    19719     9738    -3020   -10829    -7941 
    2683    15066    24704    29882    30552    26048    17474     8669 
    1130    -6796   -14184   -18822   -21122   -19885   -12918    -1008 
   15662    36176    54963    65503    65591    59676    53131    48472 
   48497    52306    56976    64130    72517    76294    72822    61165 
   41436    17320    -5984   -23491   -33040   -37580   -42229   -48563 
  -53257   -53390   -49685   -44792   -41177   -40179   -42022   -45671 
  -48253   -46049   -38052   -26734   -14813    -3873     6208    16359 
   24129    24637    17305     7659     1045    -1785     -958     2666 
    5752     9432    17778    29063    40025    49276    53280    49976 
   44152    44270    54757    70430    80869    81708    76094    67112 
   56094    44942    34833    24258    11261    -2521   -12850   -18324 
  -21584   -24554   -27073   -29877   -33823   -38921   -47619   -61544 
  -74748   -80856   -80933   -77828   -72547   -65667   -57954   -51036 
  -45392   -39629   -32779   -25677   -20256   -15662    -9145    -1926 
    2002      614    -4300    -9314   -14639   -22915   -34515   -46997 
  -55509   -57147   -54220   -50136   -46967   -43544   -35779   -24979 
  -16544   -10301    -4551    -1016     1137     4611     8008     8305 
    5057     -818    -8567   -17470   -26390   -32316   -32723   -29644 
  -25448   -19037    -9864      488     8276     9510     6639     4983 
    4721     4929     5666     4397     -100    -6343   -14010   -20328 
  -20928   -17384   -13816   -10193    -4471     2962    10951    19371 
   25167    23751    15583     6402     1099    -1669    -6463   -14317 
  -21805   -25121   -23665   -17488    -5113    10958    23471    27043 
   20949     9478    -1158    -8973   -15430   -21561   -26916   -29978 
  -29389   -23604   -13576    -5163    -3992   -12835   -30402   -48521 
  -59080   -62293   -63263   -64921   -65861   -63047   -54601   -40878 
  -25556   -12784    -3084     5206    12436    16850    18085    19304 
   23810    32390    42566    49692    50982    47858    45118    46771 
   50978    51079    42168    26206    10225    -1093    -8488   -13004 
  -13351    -9926    -6098    -5174    -9259   -18903   -31405   -41071 
  -42123   -32517   -16601    -2071     6903    11758    15460    17652 
   14233     3978    -8500   -20625   -34103   -48460   -59990   -64886 
  -62734   -57398   -51659   -45574   -40751   -39075   -40047   -42624 
  -45482   -45795   -40266   -29074   -16947    -7370      -96     6026 
   13194    22886    32639    39721    42766    40255    33803    27499 
   23109    19654    14530     5963    -3563    -9531   -10225    -6718 
   -1397     2586     3628     2003    -1779    -6245   -10013   -14176 
  -19878   -25979   -30932   -33679   -33127   -29174   -23479   -17674 
  -10163     2005    16255    25948    29187    29280    29102    29131 
   27874    23584    17171    12355    11626    13481    14447    11396 
    3699    -4952   -10336   -11448    -9202    -6303    -5749    -6667 
   -5875    -2908     -956    -2954    -7300   -11043   -15662   -23287 
  -31007   -34378   -32831   -28605   -23212   -16746    -9088    -2171 
     -96    -4725   -14844   -28557   -42600   -53657   -59586   -59039 
  -54485   -50598   -48416   -46162   -41908   -33933   -22948   -12138 
   -4198     -790    -1774    -3917    -3448      828     7421    13472 
   16505    15803    11787     5094    -2746   -10525   -18609   -26253 
  -31573   -34213   -33943   -29899   -23175   -16462   -10819    -4968 
    1865     8216    11996    12021     8689     3699    -1113    -4384 
   -7157   -12068   -18699   -23999   -24787   -18455    -6156     6396 
   13907    15735    14213    11348     8991     8964    12333    18720 
   26820    36487    46635    56207    66776    75667    78604    77637 
   74258    67430    58234    48049    36550    22228     5889    -7899 
  -14723   -13858    -7872     -265     5404     7783     8721     9375 
    9907    11066    11581    10119     8989     9832    11365    12392 
   12111    10306     8120     6556     5822     5429     4036      901 
   -4515   -12850   -22028   -29257   -35468   -42486   -48785   -51865 
  -51456   -47958   -40596   -29774   -18905   -11168    -6977    -5187 
   -3875    -1177     3025     8475    16508    27869    40610    51517 
   59272    64847    68209    68065    63918    56391    47299    37747 
   26722    14863     5560     -219    -4806    -9509   -13314   -14515 
  -12116    -5856     4835    20544    39167    55020    63822    66664 
   66488    63393    54733    38776    17918    -1274   -12238   -15190 
  -15071   -11997    -3668     7587    17924    23831    21595    12094 
    2197    -2004     -314     4800    12381    21882    32654    44479 
   55564    62965    65423    62978    55945    46389    38393    35566 
   39383    49009    62487    77794    90470    94929    90177    79605 
   67008    54006    39966    25790    15699    13393    18679    28110 
   37262    42801    43679    42056    42088    45622    51551    58339 
   63684    65467    64261    61131    54790    43861    28938    10504 
  -11914   -38264   -67193   -94652  -114835  -124860  -125776  -119430 
 -107663   -93925   -82073   -73405   -66697   -59596   -51898   -47224 
  -47791   -51822   -55740   -56015   -51775   -45166   -39231   -35843 
  -34458   -33309   -30593   -24885   -17039    -9164     -863     8926 
   18874    27169    33071    36927    38471    34561    22363     3828 
  -14861   -27570   -32478   -31347   -26664   -21012   -15799   -11147 
   -7607    -4752    -1072     2648     4835     5903     5909     3586 
   -1736    -9053   -16125   -21720   -26189   -29270   -30186   -28443 
  -22489   -11636     1537    14340    25653    33406    35556    32640 
   26788    20857    17992    19639    24423    29518    33487    36603 
   39368    42162    43209    38759    27948    13960      740    -9668 
  -17071   -21500   -23053   -22562   -21875   -22531   -23670   -23628 
  -22367   -20695   -18791   -15671    -9734     -174    11538    21897 
   28441    32453    36771    40850    41770    39233    35041    30340 
   25322    20327    17475    18539    21867    23854    22664    20024 
   17978    16671    15760    14977    14151    11158     3687    -5597 
  -12303   -14509   -11944    -5880     1467     7937    12608    16191 
   18836    20148    20634    20562    19585    17579    14412     9924 
    4330    -1645    -6835   -10371   -12511   -13624   -13471   -13144 
  -14252   -15642   -14293    -8157     1643    11345    18672    23090 
   24231    22896    20029    15825    10166     3091    -3789    -8396 
   -9842    -7721    -2745     3007     8524    14494    21248    28144 
   34876    41587    47552    51244    51811    49328    44928    41010 
   38080    34717    31389    28123    23568    18570    14772    13635 
   16365    21392    26180    29138    28151    21768    11440     1254 
   -6015   -12090   -18418   -23007   -25017   -24304   -19491   -12001 
   -4362     3220    10053    15275    19386    23052    27253    32072 
   35217    34397    29546    21798    12230     2344    -5707   -10884 
  -14797   -19913   -26865   -34763   -42891   -51094   -58983   -65134 
  -68382   -70083   -72627   -76077   -78618   -79622   -80487   -81972 
  -83201   -84148   -84879   -83901   -80326   -74137   -65585   -56331 
  -48044   -40330   -31564   -20525    -7384     5331    13411    14532 
   10684     6658     6414    10311    16300    22068    24453    21751 
   16285    10393     4433    -1010    -6192   -12764   -20814   -27513 
  -29745   -26733   -19464   -10250    -1935     4381     8067     6948 
    -159   -11450   -23744   -33802   -38351   -35587   -27994   -20747 
  -16273   -14133   -13316   -11339    -6533       39     6726    11275 
   13485    16432    20516    23622    24945    24654    23973    24181 
   24910    24656    21641    14445     3466    -8466   -18076   -22893 
  -22049   -17982   -14418   -12237    -9686    -6107    -2903    -1144 
   -1240    -3340    -6366    -8942   -10709   -11616   -12018   -13598 
  -18107   -25699   -34692   -42407   -47630   -51335   -53970   -54714 
  -53384   -49949   -43683   -35076   -26610   -21406   -21187   -24758 
  -29581   -34298   -38244   -39756   -37526   -33034   -28652   -24496 
  -19122   -11203     -194    12963    26002    36419    42383    43690 
   41987    39245    36236    32632    28153    23214    18186    12743 
    6695      627    -5505   -12562   -20005   -26119   -29590   -30020 
  -28581   -26713   -24301   -20606   -15268    -8579    -1763     4464 
   10147    14199    15985    17144    18575    19784    21445    24100 
   27769    33816    42065    49679    55016    58216    59727    59917 
   59092    57565    54693    49672    43275    36965    32102    29461 
   28585    28130    25929    20334    12285     4390     -661     -637 
    4939    14193    24090    32350    38881    45262    52954    62405 
   72442    80417    84707    85487    83542    80686    79442    81178 
   84845    88118    89685    89237    86788    82990    78561    73857 
   69484    65503    60848    55090    49419    45208    42594    40697 
   38303    35010    31979    30055    28287    25725    22751    19489 
   15271    10609     6694     3189     -655    -5046   -10672   -18420 
  -28383   -38892   -47769   -54676   -60339   -65986   -72813   -80060 
  -85764   -88867   -89092   -85523   -77886   -69110   -62545   -57961 
  -53779   -49112   -42323   -32717   -21609    -9727     2575    14475 
   25929    36634    45223    51216    54798    55689    54217    51126 
   46979    42183    36641    30782    25143    19012    12411     7207 
    4575     3404     1268    -3812   -11765   -20647   -28507   -34932 
  -41268   -48621   -56038   -62268   -67442   -72138   -76771   -81439 
  -85877   -89487   -91289   -90710   -88047   -84700   -82203   -79969 
  -76763   -72645   -67220   -59823   -50889   -40772   -29698   -18577 
   -7669     3870    15632    25127    30714    33131    33273    31267 
   27817    24312    21655    20045    19636    20050    20391    20565 
   20820    20989    21444    22899    25082    26676    25924    21336 
   13563     5811      102    -4369    -7982   -10152   -11483   -13365 
  -16180   -18941   -21128   -23884   -27921   -32189   -36119   -40482 
  -45471   -49944   -52445   -52106   -48425   -41636   -33881   -27664 
  -23902   -22735   -23686   -25537   -27533   -29572   -32015   -35913 
  -41906   -49816   -59297   -68932   -76588   -81124   -83041   -84116 
  -85570   -87383   -89301   -90751   -90574   -88136   -83732   -77000 
  -67214   -55301   -43437   -33031   -23729   -14362    -4364     6297 
   17248    27869    38280    47851    54002    55392    52798    47441 
   41433    36470    32517    29049    25354    21019    16110    10592 
    5150      780    -2427    -4874    -6579    -7178    -7876   -10633 
  -14058   -14543   -10210    -1595     8299    15560    18934    19802 
