Origin Time       2011/03/11 14:46:00
Lat.              38.103
Long.             142.860
Depth. (km)       24
Mag.              9.0
Station Code      CHB001
Station Lat.      35.9571
Station Long.     139.8731
Station Height(m) 17
Record Time       2011/03/11 14:47:29
Sampling Freq(Hz) 100Hz
Duration Time(s)  300
Dir.              U-D
Scale Factor      3920(gal)/6182761
Max. Acc. (gal)   141.985
Last Correction   2011/03/11 14:47:14
Memo.             
[...]
   11777    -4337   -10498   -10671    -4971   -11912   -46855   -89359 
  -97793   -49920    30067    82210    65978     7092   -34105   -29570 
    -206    16260    12442     8182     4815    -4215   -14705   -24707 
  -20243     4459    11082   -21785   -55125   -56936   -36895    -9990 
    8872     5560     -865    23362    67224    83429    46102   -27392 
  -89073   -89839   -21903    60088    78322    19888   -44807   -60856 
  -39269    -5010    22558    13604   -40483   -93226   -92714   -47441 
   -4564      798   -32830   -61457   -34692    34712    86702    85960 
   45483     6128    -8391   -16020   -30299   -28513    11265    74187 
  115909    97683    21394   -62459  -101819   -91286   -45306    14623 
   39856    10983   -27830   -36231   -18348    -5496   -24238   -65808 
  -93568   -79833   -43834   -37962   -63661   -65452   -27526    15560 
   39018    33830     8508    -5781    13134    57738    92369    88847 
   68654    57943    42493    12582   -18479   -36819   -23304    25688 
   72005    76422    40349    -7770   -36843   -34510   -20233   -14391 
  -18518   -35082   -51216   -36589     -623    12322    -4379   -15688 
   -5678     7258     5022    -6757    -9788      978    16580    32113 
   47567    54771    44194    19907   -12657   -41008   -34832     5715 
   33822    16830   -20292   -30421   -18065   -11554     5789    38320 
   45482    18415   -15905   -38131   -33558   -13848   -20802   -59892 
  -78680   -35012    36773    66063    47749    25442     2463   -29776 
  -41386   -16617    18393    41523    48981    32326    -1897   -16299 
   -6862   -11058   -30258   -36278   -21655     3520    26699    33735 
   16326     3378    37309    92152   102837    59938      162   -29324 
    2819    51514    40233   -24046   -69362   -52510     1335    23894 
  -23569   -95032  -103019   -31732    35047    21991   -41993   -66232 
  -25338    18924    26335    12082    -9513   -32671   -38799    -3699 
   65156   112994    95059    32178   -18876   -27004     1521    37003 
   43177    18958    -1802    -5046     2730    20140    34512    27119 
    4414   -14328   -28201   -31896   -12798    -2497   -25522   -41969 
  -30198    -9179    14621    22856    -3022   -30019   -34577   -39649 
  -44131   -28061     4593    51790    94958    83654    21797   -15295 
   15688    65812    42132   -74218  -171009  -130073    12058   106509 
   62393   -60911  -110399   -24499    89634   107541    12268  -109486 
 -145292   -76181    20490    75911    76742    52663    37146    25770 
    1018   -16805     1089    24011    -3186   -58290   -67508   -25042 
   11361     5206   -41685   -88091   -76481   -12345    35613    26395 
   -4700     1857    35928    37228     -671   -29278   -10610    43687 
   65322    15095   -36755   -10745    52848    56015   -23445  -112985 
 -121413   -47168    11594     2553   -31507   -50401   -46213   -26829 
   -7890     9253    20707    12241    -2608     2794    30695    62248 
   67066    34218   -18881   -70552   -79705   -28346    12424   -19359 
  -78180   -90124   -38280    42342    88996    53502   -33180   -72313 
  -25162    26333    -2038   -81959  -111308   -50523    26615    48804 
   27493    11381    33984    71897    52823   -44189  -141166  -153765 
  -76893    32639   100313    78730    -4174   -62047   -46207    -2486 
   15133    19797    23863    15715    11024    18684    13234   -10821 
  -31280   -36925   -26049     3271    40241    67230    85472    90332 
   54268    -3730   -28078   -16735     6594    27687    21612      464 
    1334    18808    39656    50023    28974     8201    15152    -3054 
  -79186  -143770  -109277     5367    84788    61976   -18225   -71162 
  -46516    22240    47868     6839   -37225   -17804    65556   130170 
   95155    -4009   -51081    -3937    63129    72864    10036   -79792 
 -117800   -89990   -54231   -37323   -23325    -7458    -2623    -1624 
   12232     5211   -48895   -85086   -43560    39684    98992   101656 
   51051   -16440   -47460    -9158    61498    73806    -8860  -118254 
 -157985   -97428    10020    83237    80824    27917   -11997    -3282 
   34366    57100    37968      -74   -15486   -13246    -5147    36972 
   94496    76185   -25114   -78705   -17160    57197    51690     2951 
  -26590   -27242   -16045   -13188   -21423    -9068    40580    65082 
    -570   -96515  -119838   -66235    13001    68764    60837     4562 
  -44494   -53686   -23141    18217    37387    34560    33735    56876 
   93955    89280     8071   -89994  -106380   -26650    64555    86348 
   44720    -5473   -33849   -24210    23271    63302    52877    -5146 
  -65868   -75262   -49627   -52645   -69948   -41232    22393    61596 
   51139    22611    16399    26023    21203    -5334   -34871   -37983 
     375    48852    52003    10384   -24247   -23113    10093    37189 
   16782   -20651   -21649     2722    -1865   -57387  -105610   -77239 
    3613    57462    54961    18372   -29754   -56295   -27035    40944 
  101058   128576   115520    57789   -29906  -104622  -116090   -50258 
   40017    76404    40364   -16196   -37774   -15433    14764    10410 
  -38230   -94713  -106247   -66807   -14584    21990    28410     9135 
   -8436   -16251   -25272   -27045    -6294    23540    28375     5620 
  -12388   -22367   -33448   -26496    -6673     7297    25369    33356 
    -758   -48797   -49736    -5521    18615   -11975   -48599   -40239 
  -24652   -43828   -59771   -45296   -30668   -27918   -13164    13587 
   20405     3691   -14236   -30037   -35731   -17788    -1553   -18179 
  -37126    -5225    55773    74201    27292   -43702   -74076   -27564 
   61132   104793    49504   -50138   -91787   -60101   -15940     7394 
    3433   -21278   -23827    11798    33588     6278   -35265   -48522 
  -35814   -12949    17646    43060    32878   -15908   -51801   -34377 
    2612    19623    30936    45102    39544     4247   -33083   -30752 
    7475    34104    10418   -57358   -92109   -31971    64535   103277 
   57538   -32779   -87306   -59146    11952    57078    49163    -5546 
  -77751  -107235   -71421   -12124    34860    47536    14507   -35253 
  -55929   -24850    34589    70521    67247    50865    29691      885 
  -19277   -32042   -46600   -42849    -7870    44052    76964    51427 
   -7996   -38733   -38221   -40691   -56679   -68411   -51400   -12806 
   18958    30818    26156    13316    -2014   -12042    -8945     3898 
   17258    14228   -27657   -91626  -123240  -108672   -73345   -31704 
   -9413   -21389   -33564   -28093   -18156    -5426     6299    13763 
   16329     6554    -6861     3285    50730    86640    41901   -46945 
  -73116    -4131    92585   128693    76718    -8705   -44881   -10689 
   30969    24690    -3914    -5440     9852     8436    -9808   -31871 
  -29431    19837    70468    66288    26818     5425    13260    16198 
   -6331   -31443   -37380   -28266   -13087    -6066   -22978   -46490 
  -33743    10680    24613   -19648   -80276  -106000   -81204   -28215 
   12217    16881     5630     8033    22582    50601    96110   113486 
   64564    -6793   -39183   -30870   -12562    -1977    -4520   -13083 
   -7445    11780    10977   -12393   -13342    12415    27288    15220 
  -24384   -59557   -46467    -8896    15976    37590    41631     3374 
  -31959   -13607    33091    57981    44634     8225   -35746   -89020 
 -124649   -92361    -8898    57966    72566    38918    -8680   -32777 
  -31936    -9474    41111    86650    72494     2574   -55191   -51984 
  -11271    18416    22404     8826   -12594   -18182     6875    23318 
   -8719   -58370   -85108   -95773   -87723   -41135    17427    43035 
   42090    55786    90752    93831    35030   -16911    20005   115423 
  158316   103563    17760   -23561   -15180   -10157   -43422   -77214 
  -68339   -30792    -5008   -13334   -31058   -11898    34202    37355 
  -22299   -75164   -67483   -19993    13237     5567    -7047    13309 
   51201    80064    78074    36380    -9290   -27960   -38590   -63429 
  -89325   -77804    -8894    76439   117646    92124     8468   -81601 
 -102082   -51913    -5395      933     3296    29007    42697    22262 
    4997     1884    -9503    -5942    36414    59559     4068   -84275 
 -118666   -65480    42565   125822   132476    73876   -20550   -97194 
  -98249   -39727     5725    -6747   -45994   -50699   -25157   -17123 
  -24601   -16528     7825    36213    47321     9716   -58960   -91712 
  -47043    51531   127592   122543    50179   -39163   -96339   -91364 
  -34188    34459    58722     5956   -71792   -86257   -30788    36901 
   74322    52314   -20268   -64106   -21517    58480    81156    29825 
  -19399   -22259   -11258   -10303   -11664    -8144     2374    11671 
   13595    25170    52355    55478     5838   -56217   -81535   -74295 
  -52347   -25730   -18815   -39671   -49390    -9162    62022   102917 
   80401    19940   -37564   -66588   -53805   -12687    25836    38785 
   12798   -25742   -35882   -30278   -24868   -10290     3673     7837 
   -6109   -44398   -59110   -11121    42840    33459   -22430   -55464 
  -33612     5848    11397   -24344   -62452   -60611   -22185     6079 
    -339    -5508    11988    10977   -27404   -65110   -59738     1262 
   65235    52579   -30788  -100949   -99398   -30833    41990    38793 
  -45632  -136686  -166433  -123369   -61880   -42346   -56081   -69520 
  -60306    -5967    59842    82436    78924    70385    36595    -8658 
  -19396    11958    42371    31800    -4553   -24597   -20504    -4092 
   17882    34432    55591    97391   114658    46795   -80754  -184077 
 -200202  -120305   -13953    27107    -3832   -43605   -46838   -13532 
   28305    42503    15466   -27647   -49357   -26929    21605    47205 
   42624    38767    37640    25265    11392    24307    64949    76988 
   29211   -12446    18295    79832    75562   -14941  -114912  -146910 
  -92991    -9795    17913    -7328   -20246   -16368   -21377   -22858 
  -15514   -11514    -9451   -12998   -32349   -54896   -46211    -4664 
   19885     2431   -23232   -21984    -4011    -3020   -27731   -63534 
  -85303   -57754    19264    88759   102398    57833   -26898  -101344 
 -107069   -53919    10849    44824     6179   -77370  -113616   -68267 
    3311    17284   -49266  -112541   -87210       52    48236     5623 
  -51206   -23211    54962    94266    89641    65310    20316   -14816 
    -924    33718    39823    16758    -7017    -6172    23259    48349 
   20803   -60697  -125587   -99168    14533   123074   124295    18714 
  -87862  -111898   -67150   -15208    -1870   -48335  -131918  -153630 
  -40574   116189   156130    51781   -68035   -75457     6961    59200 
   38558   -16893   -70507   -67648     1120    34689   -16800   -74054 
  -82702   -64164   -39482   -14698     6915    20154    21804    19470 
   18942    37564    81391    97877    53215    -9352   -43743   -46753 
  -34794   -19246     8748    54471    79368    45827    -7481    -3120 
   61407   106658    91627    42479    -8208   -19172    30324    87558 
   86934    31366   -18382    -4626    69226   132866   127715    67973 
    1131   -31691      933    78836   117916    65459   -26415   -62581 
  -13042    64285    88838    32522   -48467   -74401   -42970   -19720 
  -47266   -99080  -121701  -109914   -80843   -33931     8521    27696 
   34782    24202    -5761   -24997   -17083    -4580    -6913    -2511 
   23987    38761    17247   -14976   -29141   -14241    35476    89849 
   96110    55336     7159   -29521   -49407   -55182   -48780   -30545 
  -22361   -11719    50538   123489   110606    16716   -73779  -110730 
  -93468   -36099    25699    43254    17989    -3776     1425    23171 
   42564    45246    19980   -30373   -76716  -101543  -109618   -86819 
  -32168      966   -22574   -65291   -75532   -41773     7319    31340 
   13827   -41003  -101439  -107326   -46105    21714    38860     8774 
  -23663   -24068    16246    73404    89411    47670     9597    12451 
   24957    22267     6338    -7952    15520    76003    98854    38190 
  -48343   -71672   -22202    15181   -15718   -56443   -28576    49346 
   93996    79772    49175    18194   -16900   -39524   -42254   -25725 
   -2166    -9567   -45474   -52828   -21989    -3359   -25170   -67819 
  -90852   -70053    -4187    69420    75084     9254   -43474   -44391 
  -23957   -21048   -55298   -92938   -80930   -39128   -22189   -18724 
   21161    87333    93739     1090   -96610   -94810   -12523    44542 
    1682  -102612  -157994   -99442    35568   140366   141445    64205 
  -12894   -29955    19931   100372   142278    82129   -32310   -84131 
  -50185    16295    76486   104731    87627    29499   -31583   -17832 
   75804   128463    51147   -99545  -186359  -137707   -22317    53762 
   49381    -7675   -45516   -33842   -24738   -47724   -60015   -48132 
  -43285   -34289    -1772    25955    23071    -4308   -28545    -5136 
   76512   147349   128167    23672   -77233   -80792    10489   101914 
  115718    51449   -28569   -55376   -25839     4979     -299   -36421 
  -77234   -99134   -86782   -31869    39458    73292    46175     -978 
    8372    97655   189780   178100    52652   -60134   -47653    36485 
   66728    22844   -29882   -66910  -105054  -127491  -107662   -57959 
   -1352    40260    45952    12431   -45949   -90910   -93745   -59289 
    6164    79745   119899   107622    55419    11773    25310    79474 
  109403    62215   -56775  -174962  -226096  -196635  -105264   -20831 
  -24384   -86202   -94144   -28712    26867    34539    27545    40215 
   76863   112210   122865   110138    94850    93411    72941    -3685 
  -82861   -87274   -42424   -30348   -55145   -44460    18637    68548 
   59887     9166   -22420     2503    11668   -52306   -87461   -11699 
   79686    78844     2711   -75045   -93684   -41702    18222    25527 
   13996    41167    67834    24239   -71809  -150049  -142028   -28196 
   98407   128303    76916    40213    59825    80352    46965   -10802 
  -34617    -9576    26318    16270   -36796   -73558   -62285    -2243 
   69051    66547   -26622  -119629  -145472  -115887   -69477   -50997 
  -67832   -67645   -20821    54413   135342   191819   202444   174939 
  111812    27294    -8224    49216   121980   101941     -289   -84646 
 -106197  -104081  -103060   -90342   -80677   -91835  -111474  -132465 
 -132920   -96744   -79735  -114054  -116436   -21498   105848   157431 
  101025    20841    15458    49856    31484   -33811   -73896   -51838 
   14125    86418   127353   130911   127643   101211    23765   -48573 
  -49999    28222   140589   203642   176026    81832   -11108   -22655 
   28929    55738    39035    -5085   -57366   -72641   -52387   -39045 
  -58275  -112912  -142627   -82388    17711    56410    17206   -25579 
   -8065    41389    47138     3327   -31868   -44968   -62910   -81835 
  -73382   -28544    19955    32252     8868   -34683   -84539  -101277 
  -56112    38540   151606   211414   135708   -29229  -111950   -31367 
  109375   167263    99483   -16536   -78499   -67616   -30692   -15160 
  -22073   -19257   -10805   -10929   -17558   -51182  -121700  -175303 
 -126215    15049   107648    75171     6064     1968    74412   171360 
  204106   126306    16947   -15791    20739    48514    27346   -34332 
  -82531   -61520    -1408    28512    12021   -40250  -107455  -129380 
  -73871    -4196     6971   -51912  -139139  -164766  -101259   -28071 
   12882    34984    35976     4001   -70128  -149789  -166105   -98274 
   29361   136074   122825    34094   -26426   -58258   -52442     4380 
   54833    92750   146991   176647   146448    78875     5908   -45186 
  -59933   -39651    18461    98574   136592   100324    55656    43260 
   34677    42485    72556    75425    42601     1333   -38834   -71615 
  -85207   -72488   -73411  -121899  -138618   -52762    67596   132477 
  107659     2010   -90814   -77743    14816   108576   132946    52141 
  -61664   -98258   -61316   -34029   -54913  -102474  -122710   -71309 
   18373    62967    26656   -67329  -159928  -161793   -54223    47767 
   28075   -99067  -201583  -161327    -7068   124511   132440    38850 
  -37637   -25529    34777    79531    69860     9482   -44092   -29105 
   48392    91797    47232   -32402  -109465  -157150  -120899   -15468 
   74548   102409    72292    10658   -36911   -34030    33031   116527 
  109591    13938   -40821    -9371    35144    28401   -21487   -47490 
  -30955   -15731   -10446   -16801   -43550   -55835   -34057    -8931 
      32     3215    18846    49969    56079     3491   -65738   -91665 
  -62222   -10517    13570      838   -23124   -42920   -37061     6456 
   41336    15290   -42254   -58622   -11125    76422   161267   175261 
   83954   -35787   -64603    12417   101080   103473    12568   -69780 
  -67000   -17918     1507   -29918   -60310   -54803   -47235   -71182 
 -123148  -141679   -43198   122815   188130    99707   -24558   -51212 
   38677   118114    80055   -17238   -64895   -29137    48267   105220 
   91442    -3971  -114233  -180769  -195089  -152350   -90646   -49969 
  -16350    18747    49789    54506     1941   -56634   -38531    15440 
   12648   -33495   -55328   -31296    15706    40606    26980     7798 
    5655    25480    58231    57730     7722   -53102   -84264   -41693 
   70184   158049   144936    43369   -69947  -110684   -59652    21026 
   60414    47142    18672     3936    -4150   -19440   -35259   -41863 
  -47432   -61876   -67075   -41075     1934    32024    30849    16254 
   32134    68799    72293    25684   -41934   -73505   -27984    66490 
  138104   118919     3551   -93458   -55095    73229   155670   120093 
    -290   -91314   -71621    26074   123648   147102    82871    13162 
  -13696   -24925   -34019   -37078   -29763   -24632   -45780   -72319 
  -81024   -84129   -81419   -76823   -77893   -68783   -44886   -14883 
   17113    43434    53708    49222    53536    78349   109866   133945 
  121771    60596    -4325   -32869   -38890   -55292   -89206  -114095 
  -95856   -34805    18314    15464   -32740   -67073   -49309   -14750 
  -12909   -36463   -50042   -50560   -65915   -93523   -95960   -60293 
   -9804    26890    42618    58216    89789   119478   123292   102292 
   78054    76092   103113   146620   179145   146197    28966   -90843 
 -132193  -102480   -49980   -27159   -35414   -29232   -19615   -34561 
  -53384   -67097   -87501  -113957  -136310  -125724   -63909     8209 
   51501    85238   120004   119991    69100    12405     2494    29688 
   33157   -15312   -64763   -39929    43055    73587    18718   -39537 
  -33837    44337   132631   142239    63894   -33451   -68367   -29058 
    8239   -11788   -80545  -143045  -122010   -38540     4057   -17548 
  -61976   -95541   -89019   -32227    60518   140894   141559    47698 
  -74275  -122004   -53784    67132   144501   120818    35189    -3671 
   34133    98381   144533   126387    36803   -63417  -121259  -129630 
  -89681   -12161    59036    90533    76208    32753    10585    27644 
   53211    75668   100080   115588   103985    69244    38017    36377 
   66643    89377    63816    -1987   -69770  -114060  -125141   -93271 
  -21653    57560    89597    45461   -44992  -122512  -125576   -45685 
