Origin Time       2011/03/11 14:46:00
Lat.              38.103
Long.             142.860
Depth. (km)       24
Mag.              9.0
Station Code      CHB004
Station Lat.      35.8889
Station Long.     140.4903
Station Height(m) 36
Record Time       2011/03/11 14:47:18
Sampling Freq(Hz) 100Hz
Duration Time(s)  300
Dir.              N-S
Scale Factor      3920(gal)/6182761
Max. Acc. (gal)   277.476
Last Correction   2011/03/11 14:47:03
Memo.             
[...]
  125443   133596   131857   121014    98524    68748    45710    37887 
   36123    24616     3999   -10693   -11135    -4780    -5922   -15257 
  -17371    -3054    17457    27190    25332    21676    12851    -4931 
  -17089   -18755   -24161   -28335   -17936    -6671    -5381    -3638 
    1306     5088     9030    15526    30940    55474    67271    46893 
    3511   -38876   -64640   -73257   -69054   -54422   -34690   -19616 
  -15011   -11614     1802    21439    42641    61724    70657    78372 
   98910   119918   124958   115290    92325    53935     7258   -29176 
  -42677   -41852   -33384   -11777    12152    25133    34106    40104 
   36722    30486    29324    30036    27061    24933    25634    12296 
  -17375   -37384   -39889   -33773   -16688     3497    13236    17360 
   15529     1599    -9918    -7056     4048    20854    38642    46369 
   44178    34926    17651     3360     7789    27625    43756    48864 
   54344    65500    68885    46335      897   -33618   -33526   -12933 
   10995    32889    46208    53023    58362    59231    60688    63112 
   46250     3850   -49037   -95568  -111052   -88075   -47669     3198 
   59120    98506   123806   142065   130025    84017    38286    18986 
   28075    45217    48288    45119    44552    28653    -9078   -42827 
  -45216   -15299    26414    59267    74663    75625    65358    46628 
   40483    68357   108441   115794    77812    22316   -16826   -38595 
  -62145   -77532   -64504   -39668   -30484   -36410   -38208   -25468 
  -10011      -35    18457    43767    52971    48407    42035    23848 
   -1976   -14269   -16704   -19281   -11120     7215    14119     2041 
  -23113   -53948   -70263   -62492   -50782   -46509   -38856   -21155 
    5993    33135    38676    16481   -15090   -37867   -40179   -25922 
  -23129   -43088   -63143   -68752   -64176   -60239   -66260   -64127 
  -35544   -11822   -15227    -8790    24463    46201    34158     6173 
  -13761   -18210   -18598   -12460    23373    75098    98141    87775 
   67587    45887    22653    -3650   -28288   -41123   -54972   -86082 
 -110953  -101377   -73169   -53199   -38563   -20257    -5564      241 
    2298     3131    -2803   -20720   -43045   -54545   -57477   -69696 
  -82115   -63052   -26477   -16821   -24023   -12904     9221    26400 
   40238    53827    69933    75222    60000    50397    50706    34990 
   19983    31762    57795    79702    72122    21785   -31895   -55041 
  -60339   -57251   -36756     2285    35742    23192   -34298   -81880 
  -89103   -76548   -60472   -32150    11431    56052    88672   102406 
   97376    87052    80006    75072    81277   102387   117749   106718 
   69258    24920     6096    22715    50115    79148   113528   122380 
   78324     7425   -44648   -48117    -5087    37213    42283    27033 
    9454    -2003     9806    33745    46885    47972    27268   -15681 
  -45886   -45312   -35113   -43748   -73920   -82753   -41133     8018 
   29907    45028    49952    28726    14017    29545    55160    65354 
   39601   -15215   -57671   -67423   -62417   -61461   -68680   -81000 
  -88826   -80204   -56920   -24555    20953    59790    48993    -9421 
  -55047   -48680   -19761    -3848    11027    41291    71254    80318 
   65809    34548     1816   -14757   -13792    10208    65369   114029 
  107900    56212     2670   -19067    -1259    37662    72219    79787 
   47615     -112   -14688     7231    20209     -403   -45233   -84425 
  -87477   -67301   -43108       85    47345    50746    12523   -17180 
  -12912     8395    20865    10614    -9024    -5296    20021    30014 
   18102     7202     1060       52    26681    82506   132735   155676 
  146163    95440    24454   -19898   -27257   -15982     2368     6059 
   -9383   -15864   -14194   -14452    -2638    11235    18232    29439 
   22653    -4893    -7399     5503    -9561   -33125   -38324   -33866 
  -23351    -9920    11443    48518    71148    62364    48695    39918 
   34690    35968    21747   -17863   -60882  -100592  -124746  -109260 
  -77700   -56264   -23575    21532    49479    50604    36690    32222 
   43895    45136    29194     5839   -30880   -66419   -86980  -103292 
  -87116   -14759    64430   118896   166266   197973   198993   176969 
  129725    77407    71643   104573   110506    65594     2725   -45466 
  -79100  -113750  -142026  -139528  -110568   -86404   -76786   -64732 
  -42021   -25111   -33124   -53007   -53732   -26532    13428    35342 
   19564    -6015   -13189   -17833   -22752    -5608    27986    59180 
   73899    53538    15050    -4794   -18207   -38363   -34202    -4860 
   13494    20490    39164    69020    94681   103201    87335    53987 
   22692      374   -25557   -44191   -21800    23955    42970    37407 
   26959     6501    -5090    19329    60683    89474    96195    68996 
   12426   -38080   -55746   -36589     5259    32099    22849     8044 
   15294    21361    -3169   -42940   -57160   -34914    -8092     2383 
   16456    41038    38779    -9860   -63711   -73530   -49634   -40347 
  -45251   -19021    33599    62254    52623    29916    20420    28110 
   35185    37054    31906    -5572   -65873   -94726   -78393   -44660 
   -8221    24597    47323    50891    24606   -16033   -52437   -90719 
 -115765  -105370   -82471   -69243   -58799   -52831   -48692   -29385 
   -7300    -9912   -20703    -3707    32988    55384    47593    10463 
  -28560   -36967   -35160   -46052   -50372   -51682   -62714   -59878 
  -36697   -22118   -27419   -30376   -15938    -6944   -24576   -41898 
  -29451    -8125    -2909     -123    16253    34845    35195    21220 
   19620    38905    64925    86464    96753    90393    58971     1430 
  -43554   -28078    33974    89417   115076   114471    94020    63182 
   23426   -14242   -12956    25344    42898    12222   -45278  -102998 
 -136278  -130410   -83441     1593    97269   156927   159536   118942 
   55460   -12704   -64154   -77373   -41174    20288    53192    32704 
  -15785   -61378   -91869   -94713   -54014    21571    91890   125621 
  118247    69997     1432   -39038   -29522     5409    37999    59010 
   61618    47789    38253    37490    23362    -8115   -30660   -23876 
   13952    70520   104297    81868    38002    14751     3508     1479 
   18991    52018    91637   105823    75109    45638    51960    61979 
   42889    -2500   -49168   -65259   -48197   -22403     1234    18901 
   20288     6093    -3416    18315    67258   102309   104604    87998 
   34892   -75238  -182941  -218159  -186705  -110639   -11428    65446 
  109730   125015    75896   -18126   -66474   -37071    29408    95252 
  134152   130323   101156    65687    16372   -31854   -36301    -4638 
    1830   -29141   -41932   -17815     8401    21218    18966      140 
   -6826    16261    37818    37161    38933    68386   110363   120113 
   88095    53744    41006    40015    25467   -27297  -101534  -150787 
 -160040  -140371   -99407   -54554   -32191   -32933   -21381    17268 
   38651    12775   -21642   -31749   -33466   -35893   -38834   -53671 
  -69917   -69677   -54766   -27086    -2090    -4050   -17464   -10807 
    -969   -34787  -105130  -144305  -131962  -118153  -114545   -83988 
  -17608    61153   110283   104995    91855   103187    90511    49582 
   41914    72663   101907   101514    64750    28155    16807     3147 
   -8241    30520   106815   142905   107667    52253    26735    15687 
  -27393   -87656   -90155   -29205    15181     7494   -14700    -9937 
   16875    15818   -17372   -22296    22983    85606   119357    97495 
   56868    41831    37705    29484    34609    54651    57615    23028 
  -16791   -18260    19378    68169    98665   107625   114249   109463 
   78817    44899    18864   -12135   -42735   -59300   -44384    18296 
   90408   124245   146033   186716   231793   266241   265018   208575 
  130155    60134   -11135   -79271  -120772  -116863   -69244   -28652 
  -34487   -59523   -76448   -73927   -38892     3626    19784    15606 
    -249   -27763   -48861   -59777   -84092  -115312  -121836  -112772 
 -126395  -168923  -209578  -218714  -190468  -140348   -91610   -55999 
  -29481    -9045     7478    21990    21673     6706      684    -5619 
  -38097   -77122   -89045   -63624   -14211    16602     8452    -5130 
   -7100    -8994     4881    39205    55608    49022    51577    59656 
   57401    51741    40393    22676    18214    21141     2751   -21567 
  -14990      757   -16705   -41643   -28225    10228    48126    77570 
   86646    88280   101026   115589   132429   150606   141942    88016 
   13336   -28097   -31783   -58603  -106016   -90742      198    88677 
  128785   140231   150281   168078   187823   188372   159840   132751 
  128796   114799    74440    46806    48758    57307    59527    52326 
   27990   -12103   -43781   -41230   -13710     5837    -8708   -66089 
 -134864  -162180  -138635   -80866     3271    74253    86918    55064 
    2363   -63661   -87461   -20410    75273   115205   100162    68192 
   41056    12269   -29359   -54751   -32717    17469    58046    78196 
   85104    64015    -4958   -91952  -143295  -141567  -105361   -74154 
  -74062   -64687     4978    89711   101253    39023   -26708   -59042 
  -75338   -97969  -123069  -134083  -128288  -122148  -131370  -146552 
 -145513  -131357  -128006  -134655  -119499   -63166    15363    75411 
   92250    71240    23550   -39032   -93073  -116991   -92451   -15899 
   56656    49947   -18162   -55306   -30581     3994    18800    43934 
  108055   185621   203895   121065   -16804  -145814  -245322  -282558 
 -213986   -69225    74049   170668   193754   131599    40361   -13151 
  -32959   -23558    35220   102811   120323    97968    59829    -1357 
  -71172  -112739  -117027   -94951   -59619   -25645     7482    36137 
   39377    23274    20941    51245   102967   135126   116848    68833 
   33168    21074    13714    15555    59204   122379   137247    95672 
   33493   -30929   -77812   -78070   -16929    68523   100327    65829 
   25098    -7270   -67171  -147981  -191649  -157344   -55341    63799 
  139522   158514   149509   112686    35924   -49939   -89389   -49925 
   22575    47882    44805    69455   100833   116270   114623    84343 
   37862   -14010   -66089   -90699  -104143  -149509  -189565  -170645 
 -112818   -32708    71905   152331   162986   117929    42043   -47199 
 -119164  -147870  -142358  -134896  -133149  -114688   -80072   -61704 
  -66094   -58425   -30056   -25518   -55775   -67765   -35133    25499 
  111882   218273   305491   336004   302448   221291   128481    55210 
   -1402   -38742   -28101    16106    48377    71313    95002   103515 
  104244   109483   124718   161142   196587   210784   208577   167551 
   74362   -45171  -156241  -218001  -207606  -151674  -101284   -76236 
  -56782   -30256    -9014    -1941     4594    34575    82945    97948 
   60340    32287    41287    31196   -13861   -49958   -49569      772 
   80589   140591   181183   210291   182848    83011   -36681  -124963 
 -157747  -123681   -43289    36369    93139   139043   162480   132111 
   77389    51133    49886    57996    74472    92415   105455    99947 
   62847     9621   -34953   -73425  -114004  -135712  -131219  -126167 
 -122825  -106930   -84423   -78477  -114567  -169442  -182799  -152569 
 -124058  -123224  -159729  -218612  -270635  -313416  -332729  -290928 
 -202251  -110254      614   138266   204524   130175     1092   -96887 
 -161429  -156899   -69115    19491    70057   105610   125532   146277 
  175805   175768   157659   159693   142709    73590    -4066   -61577 
 -106514  -137890  -154992  -135475   -53686    41404   109807   188318 
  253572   229646   141744    73031    50557    61859    81192    66594 
   12614   -40795   -90464  -161173  -215097  -191117  -107000   -19886 
   42607    76449   110211   167128   208053   193004   145940   118242 
  141131   207998   273496   303279   300524   260821   172571    48015 
  -67847  -106326   -56907    -2595     9098    27602    64007    51460 
   -7892   -31156    -3267    28084    62293   103004   103425    35942 
  -81283  -199953  -257125  -241936  -194770  -114947    29895   182922 
  231837   201512   204124   218376   165614    83764    44639    62059 
  110015   111497    12207  -117074  -194843  -240315  -268815  -248682 
 -165870   -11555   197431   366211   397305   302882   186118   114296 
   70774    42523    49188    76206    78010    35989   -28052   -93452 
 -172529  -256792  -302967  -297596  -250347  -178921  -117535   -81981 
  -59988   -38884   -16693    23892   109655   215067   285127   302901 
  285711   256390   201480    86527   -55585  -153201  -195180  -203295 
 -173394  -110462   -68466   -93164  -152231  -191201  -191201  -135548 
  -21461   110914   210980   254387   244453   177454    44839  -113750 
 -233518  -295458  -313622  -301083  -277951  -252524  -206342  -141261 
  -94714   -76696   -54614    -7803    64111   142156   171184   136249 
  105403   112895   141178   201854   272048   277892   204629    90670 
  -22569   -87836   -89622   -60785   -35550   -22190   -12184     1218 
    2765   -23042   -54577   -93063  -168684  -237096  -245439  -216042 
 -147181   -19518   106251   154891   138523   103302    50828   -20135 
  -89993  -143813  -156963  -125847   -81639   -22782    50982    82461 
   52572    10517    -3408    42785   146405   245527   314158   380097 
  439344   446139   351346   135389  -136807  -326031  -363890  -329688 
 -294123  -227656  -138501   -73527   -13552    35060    16054   -46171 
  -77434   -66906   -38828     7453    73649   145661   211056   259467 
  266669   201257    78100   -50676  -157407  -217827  -218269  -194731 
 -163803  -105456   -31952    33613    75807    66215    26702    35226 
   95238   123657    96511    73131    71111    39107   -54914  -186341 
 -283857  -289814  -235690  -179566  -142143  -127709  -104313   -55419 
  -40718   -65168   -32179    68824   144866   180209   212395   238893 
  271136   307072   297710   258266   250919   263795   260045   248327 
  226143   163541    57453   -64112  -163000  -193735  -135211   -15972 
  116139   216523   245971   205375   145869    99225    60535    47569 
   71044    99694   114776   105291    57346     2569   -23840   -43822 
  -83079  -121956  -128037   -97364   -49570   -10532     3990    18183 
   51932    62933    29715    -2152   -14988   -24369   -18584    -1022 
   -1397    -8171     7163    31297    47978    58768    48761     3848 
  -65498  -124795  -123918   -60382     2635    35207    67676    92873 
   59622   -24516   -88419   -90046   -48581    -1780    30288    53480 
   67077    26802   -83732  -193363  -237624  -214082  -126574    24201 
  197865   315165   318515   222061    97730     7521   -53767  -112782 
 -140035   -95490   -17221    10776   -23186   -31944    35437   106655 
  102634    41154   -25655   -68115   -74211   -61129   -42162   -10399 
    2469   -22353   -20053    45106   110351   124245   109286    94554 
   73264    46924    47511    96260   170465   204509   147230    29628 
  -83518  -175515  -254846  -310736  -328672  -301926  -227783  -135390 
  -72660   -54061   -70094   -92433   -64558    30279   139654   205194 
  194819   129913    78382    64121    68218    92965   127773   122506 
   52382   -32890   -70415   -60591   -28171    17562    58759    96321 
  161974   243069   271102   217480   129157    40952   -55426  -130022 
 -143377  -125519   -97882   -41320    26030    77117   107088    96376 
   55397    33037    35747    56403   105854   143212   125367    88914 
   54056    -9752   -72694   -76839   -36364    13001    55893    75644 
   84051   105985   134774   164463   189837   196607   195537   180843 
  121649    46452     3707   -17941   -28827    -8574    40435   103682 
  148416    96254   -61154  -211280  -287798  -314689  -299289  -249543 
 -196610  -147380  -112361  -112658  -123223  -105937   -67628   -15391 
   64471   140565   170263   180655   195377   189149   152344    80187 
  -24788  -100114   -89834   -40702   -36460   -63249   -47761     7922 
   47127    44358     9648   -25458   -27291    11484    71606   130857 
  169489   147388    40883   -90292  -165383  -182428  -172620  -135001 
  -79605   -28226    38898   121759   142693    51922   -90018  -193080 
 -227410  -207812  -151317   -81407   -37060   -45165   -98059  -172121 
 -245191  -299487  -336383  -354405  -325239  -251415  -178783  -121291 
  -62135     7493    93686   176198   217609   220420   198744   131534 
   15156   -94988  -145891  -130347   -62369    30805   115681   162579 
  147731    81376      -76   -68542  -106280  -111008   -86683   -39650 
     782    14320    20290    33008    42083    50535    61935    42129 
  -32992  -116020  -136362   -88716   -13974    76129   173521   229696 
  216299   156164    73760    -7220   -50619   -43394    -1957    46370 
   65239    51721    49668    56017    11969   -71559  -119070  -108760 
  -60379     6344    41097    20509    -9286   -23646   -20940    34754 
  148404   266682   347830   370753   325970   237917   135045    27808 
  -59548  -107739  -126423  -113650   -71437   -35831   -14443    11372 
   22696     3438   -16058    -5870    25406    51828    58416    47004 
   33185    18908   -11743   -42876   -42803   -25705   -26001   -52114 
  -90831  -118791  -125666  -126218  -125406  -106429   -67103   -25334 
    3107     6976    -1685    21934    94555   163931   175767   147752 
  130056   132805   135406   123335    99859    85795    95492   113460 
  116119   103433    82103    49234    18664     7737    12442    42804 
   99169   127774    98521    39873   -23015   -72097  -101578  -132034 
 -158975  -157101  -143374  -150266  -171154  -188158  -192864  -164786 
  -90648     7112    81928   103027    84851    44501   -22394   -83816 
  -95883   -83073   -85302   -83989   -50297     8149    72479   132821 
  183928   217794   227690   220129   205811   195730   197554   182635 
  121351    56060    36396    40630    41721    44937    43131    18102 
  -36492  -109418  -169109  -184100  -156004  -109464   -51715     9731 
   30348   -18091   -92026  -133273  -127747   -79271     1519    82249 
  130417   128139    82502    33586     4076   -19286   -29913   -10976 
   18555    35847    36048    10399   -34849   -68737   -72866   -49039 
   -3519    55441   120871   171704   173405   128282    75056    40636 
   38641    63108    75881    56701    22605   -11235   -31787   -30966 
  -19366     4037    44335    69307    48089    -5745   -66025   -99607 
  -75029   -15934    26399    35040    26917    33950    58723    57168 
   14328   -31482   -56724   -59902   -44689   -34168   -30071    -3774 
   37585    71769   111925   162986   198363   205114   202986   210215 
  218668   217987   209825   190266   156998   124926   107804   100332 
   93478    92743   102285   111275   115743   115849    99613    75078 
   70484    71288    32480   -39405   -95084  -110657   -96353   -71306 
  -37766    18917    81974   108242   102317   100209    99195    85313 
   63572    33660     8855    16839    51094    84051   104156   103441 
   77882    43412    15653    -2202    -5882    -1354    -5889   -13839 
  -10648   -10454   -24369   -39732   -55914   -76867   -83387   -58093 
