Origin Time       2011/03/11 14:46:00
Lat.              38.103
Long.             142.860
Depth. (km)       24
Mag.              9.0
Station Code      CHB013
Station Lat.      35.4294
Station Long.     140.2892
Station Height(m) 10
Record Time       2011/03/11 14:47:35
Sampling Freq(Hz) 100Hz
Duration Time(s)  300
Dir.              E-W
Scale Factor      3920(gal)/6182761
Max. Acc. (gal)   80.341
Last Correction   2011/03/11 14:47:20
Memo.             
[...]
  -64030   -64897   -63603   -60583   -57799   -56924   -56696   -54530 
  -48905   -39700   -28501   -18045   -10023    -3902     2208     9341 
   14979    14618     7027    -5332   -18860   -29652   -35241   -35584 
  -32647   -29864   -29032   -28559   -27443   -27157   -27928   -28662 
  -29813   -30957   -29982   -27424   -24850   -21158   -15965   -11201 
   -8066    -6485    -5290    -2806      622     3650     6499     8498 
    6696     -543   -11366   -21373   -26457   -25600   -20372   -12912 
   -5004     1553     5057     4390    -1277   -10507   -19744   -28278 
  -37610   -47031   -54459   -58262   -57761   -53980   -48267   -41634 
  -36616   -34981   -34912   -35970   -39810   -43626   -44091   -43880 
  -45972   -49211   -50606   -46714   -36427   -23418   -12400    -4335 
    3255    12971    25173    37452    46016    48664    45390    36555 
   23461     9257    -3285   -13387   -20842   -24903   -25258   -22610 
  -18081   -12114    -2644    13013    32406    49021    57911    56192 
   43763    24015      585   -23361   -44909   -62042   -72252   -74136 
  -70292   -64930   -59575   -53322   -46845   -42780   -42998   -47961 
  -56568   -65564   -70867   -71633   -70266   -66915   -60632   -52964 
  -43963   -33130   -23790   -17571   -12514    -9854   -12315   -17655 
  -20860   -19295   -13077    -4779     1240     3146     2642     1882 
    2412     4221     5879     6854     7249     6138     2713    -2142 
   -6870   -10794   -14714   -19095   -22261   -22564   -20137   -16631 
  -13931   -11465    -7218    -1580     3277     6775    10061    12922 
   11507      877   -18360   -37601   -47251   -45971   -40010   -34033 
  -26870   -14329     5735    28432    45785    55927    60368    57068 
   44350    24929     3660   -13995   -25017   -31436   -36313   -39152 
  -37343   -30260   -20404   -13043   -12466   -14799   -13022    -8630 
   -8590   -16028   -28485   -41203   -50677   -55798   -57443   -58292 
  -61662   -66926   -67974   -60662   -47289   -32741   -21010   -13809 
  -10801   -10885   -12238   -13154   -13664   -14560   -14945   -12623 
   -7842    -4166    -3255    -2554      -59     4545    11874    20199 
   26677    31757    36491    40460    42770    40594    31968    19093 
    2988   -17933   -40980   -59881   -70580   -72154   -68052   -64378 
  -63390   -63706   -63802   -61451   -54493   -43369   -32090   -25709 
  -25162   -26538   -24456   -15868    -3374     8512    19397    29816 
   38797    46950    51868    46810    32199    16006     2854    -7086 
  -14588   -19587   -19634   -13399    -4512     1966     4647     5746 
    7504     9877    11505    10934     7193     2315      377     1456 
    2494     2223    -1265   -11073   -26618   -43906   -59735   -73554 
  -85012   -91314   -89778   -80942   -67245   -51024   -35778   -26160 
  -23532   -24289   -25346   -27589   -31192   -33583   -31546   -22121 
   -5866    13217    30861    43387    49453    47994    35992    13096 
  -15746   -43224   -64322   -79079   -89480   -93088   -83845   -61422 
  -33273    -7974     8377    15034    15968    14504    13761    16668 
   22955    31068    38363    41152    39607    37565    37118    36728 
   33873    28510    23239    19586    16008    10703     3087    -6515 
  -14982   -18495   -16636   -12423   -11107   -15272   -22306   -28481 
  -30554   -28091   -24444   -21187   -18194   -17122   -19196   -24294 
  -31227   -37134   -40119   -41046   -40590   -36714   -28367   -18814 
  -11339    -6557    -3370     1492    10014    19821    27476    31483 
   32808    33043    31493    27773    24680    23459    21379    16025 
    7526    -2548   -12771   -21382   -25526   -25267   -24881   -27208 
  -30486   -31224   -28218   -22556   -15712    -8669     -553    10042 
   21851    30974    33073    26999    16209     4899    -4472   -10632 
  -14659   -18910   -22789   -24603   -25342   -25405   -24528   -26468 
  -35603   -50983   -67215   -78160   -80138   -73566   -63118   -55062 
  -51424   -49703   -47562   -44021   -39527   -35221   -30855   -25307 
  -18201   -10072    -1685     6165    12541    16230    15668    11177 
    6084     3284     2643     2268     1089     -602    -2969    -6195 
   -9475   -13742   -21193   -31233   -41435   -49802   -54992   -56915 
  -55780   -51164   -42586   -30117   -15704    -2820     6591    13385 
   19463    25671    31548    36781    41529    44941    43607    31726 
    7333   -21111   -42800   -57187   -70151   -84248   -97874  -106956 
 -107570  -100199   -87793   -72317   -55606   -38203   -19132     1275 
   20426    33865    37525    30086    12318   -13045   -39489   -59075 
  -69165   -73360   -74347   -69249   -54657   -32256    -6279    18282 
   34799    39463    34783    26643    19856    15853    15646    21121 
   29164    33790    33714    30196    25081    19747    12403     3802 
   -1052     -575     2918     8436    15094    18511    16414    12611 
    8747     2650    -4860   -12203   -21125   -31771   -39828   -42356 
  -40258   -34220   -24548   -13765    -4886     -128    -2856   -15400 
  -34771   -54447   -70055   -82628   -95748  -109497  -119108  -119271 
 -107739   -85705   -57628   -30376   -10287      300     3981     4708 
    3685     -376    -7949   -16847   -23687   -25726   -21579   -11862 
     469    10640    14423    10040    -2663   -20690   -36862   -46777 
  -52019   -53119   -48815   -42111   -37206   -32965   -25639   -13593 
    2534    19560    33448    43550    52106    60302    67275    72167 
   74365    72528    67298    61142    53712    43521    31126    17024 
    2096   -11010   -20681   -27552   -32660   -36287   -38548   -40156 
  -41026   -39139   -32396   -20954    -7897     2245     6859     7232 
    6087     4490     2060    -2086    -8496   -16313   -24385   -32937 
  -41944   -49455   -53559   -53860   -50613   -45016   -39145   -33296 
  -25021   -12823     -332     5647     2344    -6565   -16042   -23879 
  -30399   -36538   -42901   -48906   -52347   -52183   -50063   -47890 
  -46167   -43871   -39871   -34489   -28370   -22155   -18077   -18959 
  -24359   -30497   -35539   -41098   -47744   -53189   -55246   -53429 
  -47590   -38170   -27297   -17622   -11432   -10012   -13082   -20093 
  -30395   -42732   -56053   -68697   -78242   -84086   -87472   -88696 
  -86896   -82137   -75323   -66342   -54537   -40669   -26843   -14649 
   -4507     2094     2423    -3797   -14854   -29157   -42627   -50100 
  -51114   -48480   -43519   -36163   -25809   -12533      422     8892 
   11546     8704      203   -14380   -33604   -52691   -66808   -74913 
  -78357   -78452   -75974   -70169   -59242   -43232   -24570    -6195 
    9519    21166    28697    33311    36035    36860    36390    36311 
   37742    40905    44368    45437    44300    43039    40741    35885 
   29877    24911    20939    16744    13498    12423    11838    11245 
   12254    16233    23815    33218    41047    45845    48637    50437 
   52140    54803    56722    55289    50583    43115    33554    24109 
   15531     6118    -4902   -15296   -21932   -24530   -25138   -25136 
  -24437   -21673   -16227   -10880    -9691   -12924   -16985   -19653 
  -21433   -22026   -20476   -17243   -13183    -9181    -5757    -2265 
    1329     4102     5819     6510     5805     3593      286    -3243 
   -6304    -9047   -11132   -11269    -8748    -4144      185      844 
   -3109    -9028   -13975   -16675   -17368   -17518   -18452   -20433 
  -23337   -27286   -31595   -34607   -36070   -36488   -34250   -27621 
  -17522    -5506     7479    20185    32136    42920    50311    52908 
   52131    48910    42432    33748    25601    19957    18822    21958 
   24987    24108    17833     6668    -4327    -9690   -10750   -12760 
  -17142   -21683   -26682   -34002   -42055   -48566   -53868   -57968 
  -59266   -56668   -50912   -44387   -39917   -39339   -43049   -50230 
  -59087   -68432   -78585   -89205   -98913  -106874  -112754  -117452 
 -122869  -128848  -132696  -131875  -125350  -113880  -100495   -88620 
  -79427   -72038   -65084   -58124   -52125   -49045   -50953   -58509 
  -70299   -83271   -94654  -103759  -109847  -110773  -106064   -97891 
  -88596   -79275   -69506   -58822   -48918   -42064   -38410   -36331 
  -33703   -29254   -23534   -17384   -10199    -1331     8277    16662 
   22315    25689    28662    32301    35868    37075    33639    24834 
   11202    -5657   -24132   -43844   -63821   -81131   -92838   -98952 
 -102523  -105756  -107555  -105188   -96942   -83262   -66736   -51473 
  -39990   -31185   -23585   -17019   -11168    -6317    -2861       53 
    2437     3679     4955     7213     9116     8872     5421    -1151 
   -8211   -12349   -13141   -11875    -9671    -8685   -10109   -12449 
  -14385   -15530   -14711   -11617    -8681    -7950    -8206    -6719 
   -2049     5027    12556    19247    25299    30904    35439    39184 
   42323    42660    38276    30153    20894    13791    11594    14100 
   18633    22948    26127    27886    28996    30711    33389    37193 
   42495    49029    55473    59662    60170    56803    48683    34051 
   12916   -10631   -30228   -42838   -50060   -53793   -54740   -52915 
  -46927   -36141   -22688   -10014    -1502     1317     -753    -6830 
  -16065   -26049   -33474   -36284   -34837   -31874   -30749   -32551 
  -36535   -41440   -44961   -45102   -41263   -34319   -27242   -22851 
  -21620   -22686   -24618   -26495   -29363   -34564   -41255   -46536 
  -46941   -40728   -29847   -18027    -6946     3754    14243    23921 
   31519    35944    37442    36758    34511    31942    30635    31777 
   35295    39045    40345    38576    35065    31294    27758    23396 
   17494    11482     6374     1539    -3124    -6957    -9024    -7739 
   -2302     5899    14667    22394    28171    31916    33553    32192 
   27027    18658     9102     -205    -9110   -17204   -24565   -32608 
  -41671   -49987   -55824   -58496   -58110   -56630   -56664   -58072 
  -59239   -59969   -60325   -59600   -57456   -53764   -48072   -40672 
  -32835   -25655   -20339   -18701   -21333   -27010   -34775   -44081 
  -53764   -63163   -72427   -81364   -89645   -97096  -103165  -107209 
 -109271  -109583  -108307  -106702  -106226  -106419  -105651  -102887 
  -98325   -93328   -88914   -84410   -78199   -69109   -57877   -47201 
  -39365   -34807   -32960   -33553   -36505   -40311   -42266   -40886 
  -36806   -31870   -27431   -23246   -18662   -13898    -9834    -7180 
   -5984    -6440    -8813   -12373   -16378   -20817   -25433   -29780 
  -33147   -33856   -30769   -25005   -19321   -16910   -19400   -24712 
  -28838   -29371   -25797   -19050   -11154    -3434     3021     6469 
    6515     4007     -662    -7293   -15424   -24091   -32594   -40553 
  -45776   -46342   -43385   -37884   -30682   -25313   -24239   -26953 
  -33089   -41545   -50062   -57994   -65611   -71851   -74438   -71496 
  -62600   -48353   -30670   -13430      296    10942    19712    26465 
   31221    33434    31645    27108    23963    24494    28177    34368 
   42619    52170    62874    74791    86638    96603   103631   106647 
  104428    96648    84424    70331    56921    45125    35002    26517 
   19313    13702    10823    10554    11943    15353    21242    28785 
   36544    42619    45933    46678    43571    35907    27165    20540 
   16166    13986    14224    17085    22703    29969    36671    41483 
   44687    46149    44610    39433    31363    21323     9589    -3313 
  -16153   -27737   -37064   -43201   -46162   -47915   -51370   -57718 
  -65960   -74748   -82792   -89002   -92909   -93683   -90437   -83108 
  -71869   -57476   -42200   -29581   -22251   -19891   -20277   -20992 
  -20630   -19993   -21186   -25140   -30724   -36161   -40013   -42058 
  -44285   -48361   -53667   -59158   -63542   -65152   -63666   -59647 
  -53256   -44929   -36235   -29778   -27475   -28807   -32029   -35482 
  -37091   -35513   -31696   -27507   -23882   -20906   -18271   -15169 
  -11268    -8365    -9140   -14808   -25192   -38779   -52280   -62166 
  -67632   -70949   -73769   -75477   -75695   -75030   -73785   -72551 
  -72340   -73070   -74014   -74847   -74868   -73192   -69742   -64521 
  -57683   -50685   -44829   -39899   -35443   -30958   -25668   -19943 
  -15108   -11211    -7185    -3112      342     3049     3811      727 
   -6801   -18137   -31460   -43971   -53710   -60670   -65644   -68854 
  -70442   -70658   -69130   -65164   -58417   -49636   -40611   -32159 
  -24030   -17147   -12745   -10691   -10416   -11337   -12845   -14710 
  -16246   -16022   -13438    -9519    -5771    -3113    -2173    -3455 
   -6180    -8404    -9288    -9475    -9800   -10920   -12894   -15084 
  -16486   -15980   -13408    -9638    -5081      148     5181     8689 
    9862     9423     9016     9248     9955    11544    14219    17161 
   19708    22173    24610    25746    24471    21187    16520    10306 
    2020    -8360   -19579   -30276   -40335   -50062   -59485   -68325 
  -75723   -80856   -83561   -83743   -81645   -78468   -74909   -69732 
  -61101   -49201   -36386   -25242   -17585   -13299    -9934    -5830 
   -1779     1333     3356     4168     4491     5909     9212    13462 
   16810    18529    19139    18641    17368    17005    18433    21189 
   25066    29900    34901    39306    43174    47271    51574    54460 
   54946    54371    54294    54898    56496    59944    65041    70966 
   77623    84663    91286    97793   104553   109924   111383   107396 
   97730    83296    65582    45798    24669     3722   -14319   -28033 
  -38179   -45568   -50358   -52721   -52450   -49388   -44840   -40655 
  -37564   -35492   -34056   -32394   -29532   -25173   -20051   -15234 
  -11296    -8697    -7938    -8997   -11566   -15069   -18554   -21320 
  -23082   -24316   -26237   -29350   -33197   -37455   -41966   -46260 
  -50018   -53542   -57173   -60509   -62690   -63031   -60781   -55313 
  -47145   -38051   -30109   -24363   -20218   -16845   -14509   -13515 
  -13682   -15107   -17437   -19960   -22836   -26213   -29532   -32588 
  -35905   -39884   -43965   -46818   -47360   -45576   -42542   -39426 
  -36135   -31381   -24446   -16192    -8278    -1772     4013    10748 
   18683    26280    31659    33108    29480    21193    10233    -1133 
  -12000   -23332   -35410   -46241   -54007   -58021   -57387   -51564 
  -41784   -30903   -21145   -12264    -3132     5703    12524    16434 
   17234    14592     8712      974    -7010   -14319   -20122   -23863 
  -26591   -30135   -35165   -41316   -48253   -55875   -63806   -71340 
  -78326   -84887   -90595   -95166   -98427   -99514   -97610   -92384 
  -83551   -71667   -59045   -48508   -41416   -36914   -32728   -27480 
  -22118   -18506   -17336   -17957   -20144   -24342   -29984   -35845 
  -40874   -43908   -44478   -43242   -41344   -39943   -39071   -37362 
  -34417   -31214   -27492   -22286   -15950    -9215    -2475     3823 
    9121    12088    11254     6733      -23    -6921   -12082   -15311 
  -17300   -17857   -16015   -11128    -3984     3207     9143    14652 
   20456    26052    31172    35809    39463    42058    44308    46898 
   50169    53704    56130    56214    53496    47540    38595    28372 
   18063     7792    -2086   -11655   -21090   -29460   -35874   -39842 
  -40604   -37792   -31805   -23522   -14388    -6367    -1135      728 
    -390    -3601    -7993   -12680   -16735   -19776   -21742   -22153 
  -20527   -17232   -14073   -13233   -14697   -16567   -17392   -16235 
  -12908    -8338    -2834     3693    10399    16751    22563    26850 
   29166    30277    30737    30708    30495    30292    30559    32399 
   36180    40714    44444    46375    46503    46029    46309    47495 
   48697    49421    49954    50350    50220    49328    47716    45395 
   42480    39271    35533    30740    25011    18811    12479     6473 
    1583    -1530    -3038    -3797    -4186    -3756    -2221      391 
    3466     5306     4951     2937     -504    -5199    -9962   -13423 
  -14788   -14324   -13185   -12317   -12092   -11830   -10622    -9363 
   -9414   -10531   -11414   -10321    -6059      952     9399    17917 
   25525    31900    36443    38012    36279    32022    26479    21164 
   17370    15304    14108    12709    10300     6887     3520      941 
   -1042    -2555    -3358    -2949     -885     2338     5868     9745 
   14010    18213    22568    27292    31548    34823    37818    40555 
   41833    41490    40364    39239    38975    39515    40091    40005 
   38373    35266    31450    26639    20500    13820     7340      769 
   -6593   -14425   -21478   -27572   -33829   -40422   -46133   -50080 
  -52105   -52711   -53182   -54103   -54702   -54140   -52122   -48669 
  -43863   -38015   -32134   -27102   -22754   -18876   -15792   -13574 
  -12135   -11569   -11312    -9977    -6855    -2898      144      986 
    -800    -5168   -12215   -21933   -33234   -44162   -53130   -59499 
  -63380   -65546   -66760   -66459   -63610   -58856   -54213   -51478 
  -51186   -52341   -53585   -54331   -54902   -55967   -57581   -59243 
  -60200   -59650   -57666   -54885   -51680   -48708   -46443   -44551 
  -43146   -42969   -44089   -45592   -46294   -45320   -42208   -36662 
  -28370   -17524    -5283     6940    18291    28188    35731    40045 
   41160    40062    38033    36144    34835    34318    35109    37460 
   41320    46468    51864    56101    58386    58503    56469    52415 
   46782    39977    32064    23691    15930     8980     2363    -4271 
  -10779   -16340   -19773   -20650   -19884   -18827   -18610   -19845 
  -21966   -23926   -25284   -26287   -27977   -31226   -35497   -39453 
  -42033   -43259   -44091   -45227   -46930   -49130   -50913   -51131 
  -49560   -46827   -43502   -39761   -35737   -31863   -28696   -26308 
  -24276   -22254   -20328   -18778   -17291   -15223   -12401    -8729 
   -4201      496     4346     6322     5966     3970      919    -3091 
   -7159    -9919   -10743   -10050    -9167    -9299   -10307   -11439 
  -12188   -11795    -9981    -7531    -5226    -3696    -2886    -1261 
    2376     7439    12450    15948    17003    15395    11448     6138 
     255    -6405   -13756   -20869   -27489   -34053   -40663   -47291 
  -53909   -60188   -65566   -69544   -72210   -74205   -75878   -77051 
  -77608   -77757   -77830   -77955   -78150   -78810   -80118   -81194 
  -80813   -78344   -73668   -67049   -59310   -51459   -43981   -37000 
  -30768   -25507   -21256   -18101   -16346   -16261   -17941   -21391 
  -26089   -30712   -34031   -35887   -36552   -35822   -33524   -29555 
  -23505   -15362    -5697     4796    15090    24053    30996    35659 
   38118    38459    36875    33855    29658    24545    19208    14294 
   10316     7963     8046    10773    14903    18390    19946    19487 
   17610    15084    12694    10914     9402     7345     4204      545 
   -2315    -3962    -4416    -3236     -634     2588     5902     8814 
   11119    13330    16105    19500    22850    25697    28520    32135 
   36965    42715    48128    51595    52205    49504    43247    34288 
   24306    14662     5825    -3183   -13809   -25757   -36975   -45212 
  -49473   -51264   -53270   -56721   -61081   -65084   -67807   -69179 
