Origin Time       2011/03/11 14:46:00
Lat.              38.103
Long.             142.860
Depth. (km)       24
Mag.              9.0
Station Code      CHB011
Station Lat.      35.6021
Station Long.     140.5014
Station Height(m) 2
Record Time       2011/03/11 14:47:27
Sampling Freq(Hz) 100Hz
Duration Time(s)  300
Dir.              E-W
Scale Factor      3920(gal)/6182761
Max. Acc. (gal)   150.985
Last Correction   2011/03/11 14:47:12
Memo.             
[...]
  -32496   -29699   -23635   -19406   -19321   -21295   -21879   -20247 
  -19061   -19852   -21141   -22202   -22793   -21199   -16825   -11021 
   -5915    -4024    -5256    -5555    -2597     1308     4908     8474 
    9912    10245    15286    26139    38716    51017    61038    64888 
   63025    57956    48998    38950    33136    30783    30193    31995 
   33519    32944    32600    31073    24186    13398      448   -16286 
  -31908   -38462   -36368   -30374   -24058   -19987   -17854   -16236 
  -16162   -18318   -20190   -19689   -17873   -16075   -14086   -11957 
  -12524   -19967   -31378   -36093   -29274   -16346    -2688     9692 
   17853    21295    25107    31334    34419    31167    25806    22775 
   23398    27202    31559    34825    39574    46492    50661    51827 
   55606    60746    62137    60845    59541    57188    52801    49136 
   48547    49700    50832    48930    39325    21271      344   -15045 
  -21535   -23096   -22318   -18232   -11333    -1210    12200    24889 
   35962    47874    57466    57918    48083    35648    29500    32792 
   43316    52688    53540    48948    43159    34339    21872     8534 
   -4399   -18062   -30060   -33732   -27636   -17320    -6057     7648 
   22133    31123    33569    34746    37085    39678    41085    37623 
   27146    11355    -8803   -30423   -46739   -55185   -57811   -55751 
  -52151   -53849   -62794   -71323   -71771   -65226   -56635   -47429 
  -37246   -28561   -24547   -25198   -27690   -28360   -26148   -24188 
  -25750   -30169   -36138   -45724   -58581   -69132   -72865   -68039 
  -55628   -42026   -34773   -32773   -29266   -23615   -19927   -19051 
  -16779    -8898      807     3625    -2482    -9099    -6924     4093 
   20162    38883    57281    74285    87532    92352    89279    81803 
   72402    63780    56355    48212    40196    37526    43493    54041 
   62303    64372    61037    55483    47335    35144    23241    17209 
   17551    23245    34391    49087    63498    73572    72674    53764 
   21891    -4531   -16221   -20224   -18032    -7483       66    -2179 
   -5119    -4269    -2656    -1340     -945    -1212     -810     -233 
    -963    -3189    -6711   -13324   -23049   -29679   -27246   -16559 
   -2803     7414    10643    10404    11193    12416    11596    10487 
   14188    21892    24921    18801     8882      400    -6466   -10543 
  -10333    -9077   -10693   -13823   -14528   -11704    -7668    -6313 
   -9132   -11662    -7714     2354    10468    10690     2787   -14825 
  -37943   -52865   -54885   -50465   -44440   -42049   -47421   -54410 
  -54959   -50412   -44243   -37264   -30293   -19843    -2091    16038 
   23667    19715    10706      753    -8802   -12809    -5894     8317 
   22055    30415    29080    20597    16250    18910    19445    13176 
    6522     6899    13572    20956    25164    26131    25259    23053 
   22448    26998    34747    41301    44615    46264    48854    50474 
   49548    49789    51951    52352    49850    46248    43727    42717 
   41850    40189    39723    43631    46450    37589    20146     6549 
    -694    -3571      268     6987    10953    17225    27729    34517 
   36185    39264    44938    46624    39756    28087    17346     9904 
    8146    14074    23696    27698    20331     5213   -10483   -22022 
  -24652   -15708      935    19397    35325    44917    47007    45465 
   45566    49346    55856    63051    70128    75182    72551    61772 
   50470    42786    37065    32588    30307    30411    30454    27268 
   22126    19973    23700    30641    35234    36413    37426    38371 
   36589    32440    27640    19338     4408   -12596   -25501   -33504 
  -38451   -43600   -50142   -54425   -56302   -59367   -60700   -55700 
  -44038   -24461       98    20828    35240    46790    55798    59535 
   56051    46440    34606    22772    10880     1355    -3903    -7400 
  -13411   -24985   -37733   -42522   -37439   -25441    -7407    15496 
   38882    52959    48879    31316    12756      534    -3639    -2904 
   -1044     2206     4695     1918    -5008   -10780   -12408   -13417 
  -18189   -23038   -23928   -22795   -19591   -13709    -8361    -6161 
   -6746    -6558    -2743     4643    16795    31479    38225    31445 
   20362    15040    14448    12245     2465   -13618   -27492   -36507 
  -41639   -40698   -37125   -37698   -38367   -29291   -11611     4758 
   12224     7820    -4110   -15650   -24399   -32547   -41954   -50534 
  -56173   -62793   -72558   -79662   -78028   -68987   -59019   -50754 
  -41041   -28437   -15141    -5035    -1212      522     3608     1485 
   -4915    -3422     7266    18445    25119    24790    18363    13020 
   13832    15377     9634      178    -1741     6776    17060    21180 
   19866    18985    23723    31200    35708    40221    45616    47013 
   46109    44660    39681    31598    23746    17936    11143      -41 
  -11722   -18737   -19281   -13342    -3796     6957    18231    27695 
   30826    24805    14789     9117    10053    14581    16456    12279 
    7532     7081     8565     9996    13348    18845    21855    20543 
   19785    21974    24632    27105    30051    31923    31814    31406 
   30945    29347    26836    23116    18036    13408    12480    17571 
   26109    33170    36126    33362    24922    13663     2409    -6384 
  -11154   -13890   -16049   -13664    -1905    17334    34383    40393 
   34860    20229    -1264   -20797   -28527   -25541   -19994   -19641 
  -27309   -37221   -42883   -44646   -43624   -36470   -21256    -4180 
    8089    16861    23975    27647    27884    27003    25746    23249 
   21611    23138    24220    20914    13892     4725    -2530      698 
   15729    32135    42425    45842    43643    41316    42206    42975 
   41958    39833    36484    35923    41423    47021    46654    40802 
   31221    20599    12956    10374    12049    14432    12850     6630 
     240    -4039    -8510   -12993   -12389    -3534     8530    16771 
   20698    21202    15169     -104   -20433   -34678   -36872   -32374 
  -28822   -32165   -43700   -56386   -63348   -62005   -51375   -34515 
  -16838    -2538     5898     8506     7044     4351     2558     2976 
    7146    14245    23144    33664    45004    56260    64490    67910 
   66632    59778    50061    40331    28015    10238    -9471   -21668 
  -23677   -21434   -16802   -10402    -6996    -9093   -15554   -22746 
  -26260   -23807   -13203     3452    17394    25383    31722    36595 
   35072    26084    16397    12777    14140    17786    23193    26634 
   26805    28817    32829    34512    36278    43805    56172    65197 
   64870    57513    46255    33004    23954    23257    27126    29212 
   26885    22625    18935    15371    11996     8711     4473     2287 
    6425    14733    21503    23932    23353    21627    18638    17094 
   22488    33232    38266    30164    14194    -1089   -10953   -11443 
   -4527     -688    -4609   -10810   -15135   -14921    -7464     1313 
    1109    -8166   -20243   -35413   -54097   -68428   -71693   -64965 
  -54959   -49034   -47989   -48026   -47034   -45726   -45831   -44862 
  -39028   -31888   -27747   -25615   -26770   -31851   -33048   -24554 
  -11953    -2616      198    -5884   -17458   -24359   -21780   -15529 
  -13493   -17211   -23002   -27884   -30271   -28129   -20902   -11467 
   -5021    -3838    -2306     7551    22778    32054    33354    30827 
   25341    23594    33641    50870    64532    67993    59344    43029 
   29695    24145    19139    10140      901    -6674   -10636    -6100 
    6537    20702    32766    42348    43280    29853     6663   -21282 
  -51118   -76483   -93109   -98102   -86477   -56591   -14546    26999 
   57241    73476    78769    80613    85044    88248    86630    85144 
   82409    70055    52250    42052    41024    39778    34654    32206 
   38210    49777    61222    70306    75923    77101    73185    67797 
   68961    76684    84382    87500    80332    61563    39746    21944 
    9333     4843    10454    23560    39904    51154    52624    48824 
   39564    24292    12302     6393     -491    -8337   -13671   -19515 
  -26704   -32348   -38678   -45783   -41398   -18370      759    -2506 
   -7580   -11577   -33395   -51119   -48817   -45224   -44662   -46239 
  -52011   -56947   -58179   -55554   -53364   -51881   -44531   -35662 
  -34298   -36734   -36927   -36849   -35550   -28502   -17367    -5408 
    7791    21356    30269    31745    31938    35694    38285    38620 
   41617    45848    45947    38654    19930    -8841   -35787   -53502 
  -64312   -69555   -69457   -64783   -57144   -50460   -44446   -33394 
  -14069     8682    25995    34390    32541    16288   -15349   -54547 
  -86151   -99603   -91454   -60546   -20368     5483     7842    -5115 
  -17338   -17740   -12302   -11718   -14421   -18446   -29309   -43015 
  -48666   -43897   -30551   -14220    -4582    -2103      401     3822 
    6455    12937    24491    33123    36268    39776    44674    47585 
   48806    48380    41537    28313    19603    23543    38296    61347 
   88302   105900   101578    78906    53235    33896    22181    18052 
   20505    28689    40593    52293    59818    60251    58122    58264 
   52874    37426    18491     -140   -12667   -13317    -9242    -5252 
    2738    10201     9320     2540    -4769    -9529    -6102     7217 
   20178    21161     5775   -22914   -53867   -75706   -82548   -73540 
  -52235   -25044    -2567     5815     2096    -5711   -12005   -11072 
   -2005     6418     8065     6702     7998    11790    14439    15102 
   13620    11309    14756    25406    34616    36501    32684    25046 
   14616     7115     9518    17534    20970    21200    24365    27191 
   25368    23910    29625    41007    51368    54251    47046    36356 
   31229    32780    35024    29420    15063     2978     1464     5137 
     439   -21191   -55532   -90753  -115047  -122078  -113481   -94079 
  -67222   -38441   -16127      287    17052    27371    21148     4062 
  -10576   -10382    11970    44569    63070    57290    33575     3090 
  -21758   -36566   -45576   -45502   -27038     6327    37561    54219 
   53994    39031    19351     8505    10594    21808    35552    46645 
   59535    79217    98548   109286   110744   105263    98939   100187 
  109843   119260   121382   115515   100264    72905    37351     5050 
  -13108   -13597    -4516    -2369   -11877   -16598     -428    34815 
   71820    92244    94681    87312    70962    46793    17893   -18964 
  -60905   -94792  -113363  -118400  -117337  -121015  -129737  -130108 
 -113576   -86670   -59491   -33607    -8939     8003     9478    -7607 
  -38495   -69358   -86262   -90520   -95019  -103301  -108875  -107438 
  -98879   -87583   -75608   -55442   -23973     6436    21839    17928 
   -3062   -35251   -71042   -99039  -104747   -81803   -34875    22396 
   64273    70213    48798    18931   -12440   -31121   -21296     8391 
   42265    67754    72223    59286    39990    19646     6829    10427 
   31567    57448    67069    58759    52948    62353    79307    91492 
   94931    87929    69521    41180     3011   -36824   -66465   -86889 
 -104510  -122137  -135392  -133996  -114571   -81330   -39493     2900 
   37865    63346    80545    87525    74959    36310   -14083   -50137 
  -59216   -39310    10041    66873    95932    94695    80611    56224 
   27825    12807    15049    29176    49031    59318    49997    26900 
    -522   -26267   -47671   -58332   -53231   -42057   -34594   -30994 
  -32222   -31722   -16694     6564    16021     5489    -8739   -17234 
  -23847   -25624   -23939   -31394   -50341   -68629   -69409   -48176 
  -21150    -3678     3107     7993    22460    48913    79735   104357 
  117085   120808   118601   111538   101740    87996    65997    31881 
  -10972   -45902   -59645   -59825   -59442   -58753   -56050   -52201 
  -40629   -17978     4058     9742    -4130   -27950   -54014   -77423 
  -89315   -85823   -72837   -54784   -29375     8179    58940   110402 
  139922   137880   121364   115517   121692   118707    93982    56629 
   27698    21824    30836    33683    15518   -24453   -64807   -71336 
  -24926    63857   158230   219385   237348   223259   186359   134221 
   67652   -12711   -86695  -131838  -143284  -132963  -122816  -120838 
 -115106   -94555   -56078    -3554    52312    92822    93867    49538 
  -20216   -91297  -137800  -136341   -92666   -39481    -2875    17063 
   27489    28657    28960    32606    33911    41928    63032    83159 
   86611    66353    28514   -15282   -60034   -92531   -91230   -56719 
  -14159    14169    21693    11932    -3780   -20609   -53474  -101075 
 -137479  -156346  -164367  -159131  -143673  -125609  -103839   -75727 
  -43175    -4640    36852    70848   100420   132626   157825   163070 
  147189   123726   108280    96046    71380    34397     3511    -2007 
   14405    31725    43285    53589    61747    68361    71461    66700 
   57498    43528    20128    -6487   -26143   -34447   -30783   -22239 
  -21390   -29586   -34138   -30115   -29979   -44240   -70699  -104243 
 -140899  -172606  -188985  -186183  -167089  -136699  -101231   -65878 
  -36690   -23221   -30993   -56124   -86996  -108314  -113767  -109416 
  -99838   -88672   -84404   -89570   -99875  -112711  -124502  -129452 
 -123575  -107045   -86816   -76382   -82871   -92821   -83970   -43796 
   28254   115433   187724   228834   243096   236425   213600   180614 
  139620    99280    73951    64523    63376    69093    80569    87142 
   79094    63521    53300    52757    64095    85279   106436   122753 
  132759   130356   114581    90868    68175    61166    73163    88110 
   88272    62249    14019   -33904   -69377   -96367  -114680  -128792 
 -146685  -162247  -171288  -179058  -182487  -176640  -163895  -146560 
 -128611  -115310  -105982   -95445   -76799   -47958   -19672    -2339 
    8274    19767    34400    53463    75275    94648   108959   117682 
  116474    99323    69511    40579    21766    12285    11766    23909 
   48951    80806   110408   129883   137625   138199   135411   125814 
  100406    61345    27512     6974   -11156   -27960   -34647   -28469 
   -5441    32184    68951    92236    94897    73128    33226    -7928 
  -38053   -62531   -88467  -110966  -121237  -114508   -97727   -83638 
  -71930   -51196   -15718    24259    45728    35213     2483   -35863 
  -63748   -62129   -32433    -4039     3315    -1074    -1428     8343 
   29851    57163    75118    75757    64151    49966    39693    31413 
   23055    16137     7715    -1105    -5117    -9018   -12491       20 
   35203    77640   104953   103815    73155    28455    -6944   -23781 
  -14795    25830    70193    81338    52009    -5405   -64160   -97457 
 -105554   -97118   -70768   -36666    -9881    15023    48235    87497 
  126907   156541   163469   147672   119250    87874    67573    68040 
   84838   110010   134180   149159   153806   144223   119433    87164 
   45886    -9678   -72113  -127694  -165061  -178284  -161513  -111472 
  -45723    10413    50610    73620    74608    56075    18057   -36257 
  -86875  -115144  -115627   -93183   -62109   -36918   -22550   -16470 
   -5313    30227    77708   106686   118861   116896    84609    26556 
  -32434   -73671   -97080  -109100  -111692  -106989   -82641   -29385 
   25469    52758    48238    17248   -21066   -41871   -43913   -45251 
  -53711   -54371   -28987    15793    54189    74812    87418    97255 
   98666    90745    75089    52339    30579    12777    -9313   -37388 
  -69576  -102722  -125070  -133422  -135260  -131039  -122528  -117137 
 -112377  -100438   -79382   -50362   -19320     4834    20091    30003 
   38025    48078    60617    72761    87853   107948   125253   132697 
  126778   108151    80233    44770    14918     7358    19440    42784 
   73518   100530   114513   122354   132352   138511   134007   125140 
  122804   131973   151472   175614   196352   204974   191548   153192 
   99450    42895    -2647   -27611   -35436   -28465    -7262    12747 
   12822    -5309   -28809   -57905   -91350  -115464  -121193   -98624 
  -47507     2991    19063   -10526   -69617  -130670  -176552  -200448 
 -202911  -193340  -180978  -168534  -154870  -138613  -118045   -88703 
  -50934   -12307    23500    55781    76841    72569    42404     6929 
  -20249   -40549   -53354   -57085   -53714   -43104   -22681      407 
   14180    19658    21721    20912    19802    19274    15302     6257 
    1638    13597    42663    80982   118797   148202   163474   157308 
  125663    81111    57605    76551   116296   146912   162685   165913 
  154046   129117   101179    76270    60509    61052    68555    66609 
   44559     3510   -34448   -56569   -76686   -97746  -106828  -103542 
  -99193  -101137  -103939   -98605   -84915   -67745   -55238   -51045 
  -48977   -43544   -30421    -8203    14259    26052    23953    15231 
   11948    17716    27346    38240    51841    66266    79352    92233 
  101469   102497    96781    84347    62687    31950    -3128   -29529 
  -34341   -19221    -1925    -4132   -26144   -44714   -46708   -42216 
  -47194   -67017   -92333  -109304  -109084   -89739   -57564   -25252 
   -6759   -11289   -36966   -68926   -95534  -118529  -131726  -127671 
 -117452  -107485   -96833   -90029   -85738   -78603   -63815   -33942 
   14984    72997   117997   140221   148439   144724   125662    97920 
   68042    43600    39346    59241    92067   122902   142415   153189 
  162022   170974   178632   185036   187265   173272   134469    75306 
    8315   -50698   -89696  -110516  -122427  -122970  -110442   -97920 
  -92000   -92336  -100471  -111572  -122411  -133007  -139480  -141740 
 -141127  -135341  -124696  -110597   -91946   -67365   -39200   -13177 
    8185    22111    22232     8813   -11358   -33384   -53043   -64606 
  -61478   -41658   -14641     1895    -4522   -23712   -29004    -7238 
   32031    70854    98365   114636   123750   131694   139784   140150 
  130796   114250    84755    44210     8499   -13906   -26866   -35864 
  -45664   -60923   -81213  -100082  -113721  -121868  -121499  -109766 
  -88449   -65406   -48153   -32733   -15061       74    16509    40063 
   59647    74072    95744   112959   112861   100270    67484    13433 
  -39976   -76956   -92826   -83325   -50901   -12206    14447    21717 
   10624   -11888   -37022   -56965   -66034   -63231   -50017   -33580 
  -23647   -20899   -22259   -28104   -43413   -69479   -89634   -89091 
  -74547   -54013   -32534   -19373   -13997    -9438      -84    21169 
   49684    74688    94678   107533   111844   110439   103140    90762 
   73097    43721     1183   -38495   -55186   -48326   -29444    -8585 
    3410     4743     3950     -195   -12095   -20324   -16232    -6426 
    3232     4748    -9303   -32901   -57553   -73073   -69552   -52545 
  -34846   -25292   -23773   -21390   -15214    -9274    -5269    -2765 
    -681     1136     4881    13951    22816    22720    14419     4713 
    -285     5183    24292    50351    69170    73186    66747    56821 
   48332    45080    47363    52508    56715    57506    54222    45813 
   32991    19230     9812     9396    18466    33467    50240    70159 
