Origin Time       2011/03/11 14:46:00
Lat.              38.103
Long.             142.860
Depth. (km)       24
Mag.              9.0
Station Code      CHB006
Station Lat.      35.7790
Station Long.     140.3073
Station Height(m) 29
Record Time       2011/03/11 14:47:26
Sampling Freq(Hz) 100Hz
Duration Time(s)  300
Dir.              E-W
Scale Factor      3920(gal)/6182761
Max. Acc. (gal)   230.050
Last Correction   2011/03/11 14:47:11
Memo.             
[...]
  -35513   -11969    15252    31514    40193    44283    34597     9912 
  -16972   -39809   -59798   -68947   -55955   -30414   -19823   -29430 
  -37931   -40273   -46744   -53887   -54979   -50122   -36736   -14155 
    6731     9969    -3480   -15785   -20663   -21690   -15092     3186 
   31436    57609    65052    56780    44516    22399   -10507   -32557 
  -34175   -30500   -24790    -5626    20534    38108    43881    36063 
   14937    -7637   -24382   -36104   -37523   -26061    -7857    12472 
   30365    41803    46415    42345    33646    31978    34845    29404 
   23670    33911    47737    45675    37128    35315    32603    24772 
   20871    25173    33913    38818    37196    38048    39023    30164 
   19713    14620     8023     2681     8373    19975    25825    27386 
   30106    34288    40481    44238    42827    46485    57720    63386 
   60465    54494    43473    32584    28516    17036    -7716   -21547 
   -8966    15258    31096    34813    32078    25066    19781    23618 
   26537    15400    -2389   -16347   -31899   -51949   -63405   -58107 
  -44201   -27864    -6640    17400    37667    53926    69062    78655 
   71351    44647    16163    -2520   -26784   -61484   -78611   -62091 
  -34588   -18577    -7781     2767    -1481   -18040   -19161    -5764 
  -13380   -43832   -60602   -58084   -60947   -71609   -76664   -75928 
  -74590   -67700   -50270   -33804   -28955   -25138   -12198     5014 
   20155    26782    24364    26032    35067    33717    14610    -2242 
   -4502    -5422    -5360    10426    32803    42666    42413    41499 
   35615    19311     4479     3196     9660    20981    42936    64939 
   70302    63082    50222    27140        8   -13481   -10083    -1864 
   10344    33394    50738    43674    27869    18511     1134   -28388 
  -48480   -49413   -40707   -28198   -14723   -10481   -19775   -29463 
  -34486   -49409   -72058   -78991   -63342   -36933    -7759    19268 
   33469    28227     8816   -17977   -42479   -52756   -49996   -37367 
   -9832    27991    62851    87696    97334    84466    48526     1160 
  -36690   -51199   -49604   -42682   -31183   -13406    13121    42150 
   62065    73091    73032    59916    52388    59548    58280    33124 
    7227     7317    21392    25798    25197    28123    26108    23370 
   33144    39973    24614     8367    20166    49983    72155    84099 
   92377    87187    59694    21639    -9481   -26928   -35763   -40186 
  -31558    -8402    11827    24323    35944    31899     2345   -25080 
  -29255   -24258   -18034    -3134    10277    10946     7096    -4336 
  -36385   -78388  -103598   -91580   -39565    28573    77134    91840 
   84893    64662    28456   -12954   -43487   -62109   -65921   -50390 
  -29662   -14825     -673     6518    -7298   -37726   -71756  -106807 
 -138470  -148188  -126925   -88154   -43585     5942    54351    84592 
   86067    65910    33687    -2611   -28527   -36374   -29844    -3279 
   49444   107288   145184   165671   180775   185793   166431   124759 
   81199    47484    17470    -9456   -19901   -11281    -3303   -10527 
  -16474     -267    18740     8722   -10715    -8280   -15953   -57667 
  -81668   -64954   -54512   -58190   -37426     5777    38843    56058 
   66236    53430     7633   -33737   -47193   -63475   -92560   -97644 
  -63127   -23906   -12754   -13537     2191    26506    36887    38487 
   49974    59572    48491    34236    29243     9885   -32080   -65835 
  -67104   -44295   -15568    12362    44311    78968   100952   102564 
   87363    57202    21192    -5396   -22213   -33931   -21992    26054 
   76006    92435    90423    95912    96567    72909    40754    26353 
   32366    47466    60201    61131    51391    40475    28527    11613 
   -4089   -17128   -31852   -37209   -21629     5426    26879    30883 
   21963    20959    30665    34719    32275    33415    40711    47389 
   44630    33045    14463   -10063   -31361   -47298   -64871   -79639 
  -80293   -73060   -73645   -74238   -57826   -34508   -22808   -13272 
    9594    22707     -331   -33989   -48308   -55103   -59554   -41497 
   -6396    15479    19632    21418    19906     3810   -20378   -26631 
   -7825    11269    17690    16478     2679   -19217   -31369   -29557 
  -11016    26282    63711    79226    71449    56181    39169    10634 
  -23756   -46990   -50452   -27945    12149    46005    63644    69814 
   62823    32225   -19873   -70333  -101509  -110000   -90872   -51515 
  -15659     7414    21353    27886    33207    38762    39234    37478 
   37366    34914    24085     4268   -20139   -47142   -65335   -55111 
  -17031    32636    74971    94604    93374    71519    27479    -9597 
  -13604    -2523     8983    37218    77802    97947    88310    68125 
   51533    39582    36229    47133    61980    69709    70521    57672 
   33055    11028    -9671   -24565   -18931    -5416     2567    17920 
   40291    53439    57338    59605    59955    55127    42913    23596 
    5832    -2228   -13742   -41745   -63300   -50407   -18170    -4665 
  -18429   -35288   -42613   -51177   -63321   -64023   -43389   -13459 
    7900    20995    23908    -2844   -56928   -98551  -103533   -89875 
  -70193   -36258    10880    58188    80492    64126    32610    -4713 
  -60523  -106956  -102937   -62142   -26666    -5766     8460     1202 
  -31809   -63562   -78042   -72606   -46388   -12027    28206    72524 
   93187    92730    98244    90502    50925     9928    -7867   -13070 
  -25526   -47959   -65854   -63588   -35282     4690    39490    66984 
   73665    55524    48833    63865    62595    39642    33471    54966 
   75100    81032    86637    89788    78059    62516    58091    55973 
   47948    47839    62042    72425    67650    55266    38050    11155 
  -23053   -50789   -53866   -31954    -2741    27001    50102    47974 
   36060    49589    67412    44650    -7796   -57222   -98458  -127859 
 -130845  -106986   -74109   -43987    -5351    50635    95489    99862 
   85311    79948    66437    31419     6563     8062     3268   -21203 
  -36468   -33561   -37802   -56889   -59815   -33010   -13905   -18695 
   -8475    29412    55738    53906    43677    25468   -16095   -69335 
 -102595  -108846  -104506   -84781   -43328    -2504    32132    76559 
  121666   142134   129485   100449    84576    92154    95423    68060 
   33673    18357     -854   -31771   -41876   -25256    -7881    -1687 
    6297    28614    53256    59911    49726    35148    13833   -14889 
  -27950   -13973     1645    -1169   -12462   -20153   -20904   -12852 
   -1124     5851     5036     2528     8380     4827   -38680   -91328 
  -95542   -69104   -58043   -46342    -9962    23121    23945     4785 
  -10353   -23450   -51707   -83107   -87402   -72768   -67154   -59569 
  -27972    10776    33889    37590    13921   -25198   -47336   -58458 
  -71112   -58759   -15759    29198    68508   108723   136998   131973 
   92164    37443   -11547   -35914   -23996     1730    10372    15401 
   41682    72138    75468    52209    25324      -36   -28284   -35255 
   -5862    17355    -3519   -31548   -21462    -7093   -29303   -55607 
  -56364   -52960   -57960   -49803   -12501    25433    31526    28717 
   36784    24566   -11542   -27655   -15865   -16842   -46591   -63844 
  -37948    -2889    10729    21825    38291    39488    21716      674 
  -19439   -49151   -80903   -83978   -47815     8516    61315    95491 
  114406   123238   111593    77952    36044    -3093   -27510   -27188 
   -9554    11037    34649    66350    94297   102306    96148    87690 
   69997    36893     2280   -11511    -1156     6319     3497    20107 
   53722    68821    59458    41049    19141    -5635   -21066    -3958 
   41458    78900    96538   107730   108018    92332    73245    50128 
   12884   -24888   -46806   -63732   -84248   -88747   -64680   -37903 
  -39306   -61797   -75337   -66539   -42232   -14300     8699    29526 
   45780    41765    22680     6515   -11285   -34062   -45480   -35144 
   -8916    16149    23714    19539    18464    16171     4034   -11253 
  -17413    -9000     5454    10204     9388    25892    51346    49788 
   31252    32871    38372    15865   -12405   -14952    -9773   -26059 
  -50276   -50053   -22190     8998    30308    56692    90219   100531 
   81500    62359    47138    18097    -9336     -285    37688    65034 
   75640    80543    63964    25735    -1432    -6528    -5046      254 
   13400    21009    16156    21371    53555    88260    87722    60142 
   40494    22500    -5819   -13701     6422    16259     2171   -15480 
  -27254   -36842   -40202   -34738   -27620   -14283    14930    42374 
   39275     6003   -32371   -57465   -68957   -72249   -62861   -34152 
   -4998    -3686   -15753   -11739    -5701   -15611   -24611   -16654 
     809    14984    28250    39194    30983     9717     1456    11084 
   26428    39491    46940    46917    47014    58991    71410    61934 
   38798    24347    24624    40117    59517    65035    63474    62593 
   55352    48315    42036    21616     3427    18566    54125    75327 
   78590    80317    76712    47418    -1116   -31520   -33523   -33567 
  -27131    16109    73131    90856    71486    48421    20742   -18695 
  -51707   -69648   -73299   -55338   -26260    -6197    -2949   -24772 
  -64890   -96121  -105821   -92853   -53905    -7887     9652     -966 
   -9290   -17369   -42972   -62088   -50457   -31337   -19143     3804 
   30365    33682    14281    -6479   -12865     -582    28613    63589 
   85280    90358    93738    97998    88374    65618    51885    47522 
   24985   -10021   -16910     -471    -3839   -23953   -27266   -17079 
  -14232   -12557     4429    35677    72001   106404   128297   124488 
   89057    31239   -28791   -75321  -109501  -139001  -155937  -148915 
 -122693   -85573   -48694   -26130   -12090     3361     7095    -7216 
  -19986   -21252   -25736   -43990   -65258   -75976   -74830   -60734 
  -34620   -11972    -6605   -14655   -21435   -15551    -1799     4497 
     696     3220    19101    21735   -14003   -63021   -78688   -56239 
  -28513    -8121    19052    43433    48243    51815    53952    20404 
  -33691   -50335   -24836    -3041    12082    53127   103086   129538 
  146319   159698   148398   119170    97264    81842    65653    60442 
   65834    56070    20436   -18093   -31269   -15552    10049    43296 
  103767   170611   192694   174430   157263   147852   131537   110700 
   95216    76260    36869   -21296   -74629   -95662   -86688   -69816 
  -42605     8108    67450    98670    84910    43111    -9867   -60438 
  -88520   -97993  -115727  -146460  -166300  -169419  -173657  -176573 
 -171578  -171108  -173414  -162464  -130704   -80806   -27856    14658 
   44001    46841    13404   -31141   -64058   -89187  -102386   -97256 
  -77580   -42031     1216    30188    36816    34179    36773    44297 
   51252    59412    67029    63972    50851    42392    35966     9907 
  -23490   -22914     4894    15659     9501    19241    43696    55520 
   47670    27707    -2638   -29870   -38467   -37696   -28085     5322 
   43875    64453    84743   104100    84583    26989   -21468   -33185 
  -31165   -49258   -76375   -77226   -44946    -3721    18666    18708 
   17383    41290    98781   154918   165513   131718    83819    43638 
   14144   -19762   -68103  -113242  -133410  -124660   -92254   -51516 
  -14353    15050    15936    -8385   -13028      -80   -13231   -45727 
  -68065   -86724  -114390  -149691  -189359  -219662  -221274  -195661 
 -160420  -124108   -86652   -50528   -23465   -21722   -41853   -41072 
   -9559     3959    -7541    -5290     2185   -11010   -25551   -22682 
  -20046   -23366     7587    89447   161496   189534   225970   282679 
  288015   215065   113341    20038   -52419   -82586   -65310   -22522 
   30433    86063   125354   124468    81936    26213   -20469   -61127 
  -92865   -95006   -66164   -36117   -15654    16805    59869    89996 
  112972   142366   158009   138103    90742    37399    -3650   -27317 
  -34025   -12485    35779    83555   113202   120540    97590    49120 
   -5414   -54015   -82630   -76213   -49018   -25717   -10936    -7584 
  -19319   -34214   -45174   -60153   -75268   -73445   -51100   -28183 
  -25593   -39305   -58827   -87377  -120415  -138695  -130407  -101721 
  -62924   -11125    47264    77670    61425    23359     3628    12976 
   16452    -1504    -6227    16704    48034    80363   109212   103651 
   41405   -40313  -101033  -146142  -158155  -106343   -32964     3770 
   23920    72972   134969   157460   129847    82605    34351    -2059 
   -7731    -3461   -35903   -95557  -134349  -143525  -140632  -123456 
  -78586   -20981     -426   -29894   -51063   -36322   -36414   -77093 
 -116107  -114747   -79374   -31394    19487    50862    44059    35845 
   59405    67854    19775   -31713   -45203   -53319   -52828   -10904 
   61752   146702   221483   263868   294851   323805   317957   275137 
  219943   155582    82476    13219   -36040   -61993   -85980  -118355 
 -140085  -133582   -93703   -43325   -22853    -9402    56000   147185 
  193128   181958   131513    57457    -7513   -44436   -61289   -55305 
  -26797    -2344     2821       75    -2587    -2556     7451    28639 
   54625    67318    38738   -25801   -73902   -69799   -40914   -30117 
  -35590   -42697   -77958  -164646  -253707  -282871  -271714  -265286 
 -239842  -148691    -1626   151130   272771   349652   368391   322789 
  242646   160157    60709   -45088   -84534   -52269    -8314    37311 
   89343   143837   196498   209589   170578   113444    44285   -45985 
 -123492  -144308  -121086   -97538   -86665   -82472   -82321   -78626 
  -67400   -42882    -2816    20299    18282    42579    99630   133664 
  127212   103440    56294   -34579  -140271  -203828  -207562  -172977 
 -112599   -16633   107291   208248   219391   112053   -52561  -170182 
 -231071  -290432  -323390  -286369  -208215  -117874   -33411    17593 
   39254    35838    -4712   -54200   -77454   -94378  -129558  -160766 
 -166761  -162639  -159882  -146847  -118356   -87668   -63552   -43492 
  -34456   -38436   -27425    22148    98722   175573   230328   256430 
  267698   273695   256611   191064    77790   -45671  -125361  -154651 
 -171127  -157951   -79830    22388   109739   196034   271199   301714 
  284311   230702   153902    81140    31271     6388    12167    40022 
   56710    57070    79078   122108   127638    80126    31690    20773 
   42604    72724    94117   104588    86689    32376   -18378   -54904 
 -116899  -174437  -149165   -54678    39324   104792   142730   161385 
  159911   128702    80397    25955   -31980   -62833   -40124    29806 
  120749   191679   218513   199859   133612    37510   -54520  -125357 
 -173142  -204705  -223475  -216306  -176142  -121482   -82450   -69703 
  -65170   -69473  -105577  -145735  -136943   -98722   -86572   -89412 
  -57054     9291    62326    73272    59965    53846    50219    23837 
  -16953   -32241   -16010   -20283   -60173   -66556    -8491    50669 
   72104    99928   169642   238366   245582   199050   144281    90260 
   27955   -24502   -50504   -73125  -108834  -121895   -87545   -29301 
   33028    83289    95896    76371    55088    45899    41049    18612 
  -30598   -71359   -68623   -41812   -23591   -16973   -19368   -31430 
  -32395     4414    65725   106007    98114    51922    -4679   -42826 
  -47883   -40311   -61036  -114096  -153516  -149081  -116461   -71229 
  -18921    24197    50246    60791    51881    38866    49619    78151 
  103531   133110   169789   188531   176515   136556    70867    -9240 
  -84871  -129638  -131846  -115510   -95329   -62980   -25196    -1178 
    2695      747     4193     6164     7046    18257    39874    49425 
   25547    -7070    -8851     4834     2171    -3196     4519     7585 
  -18324   -72978  -112450  -104880   -77166   -43087    22840   121326 
  219920   286629   301615   261552   179146    81483     3044   -47401 
  -92535  -142010  -176648  -171637  -127170   -86969   -85632   -89119 
  -57816   -21209   -14989   -13480    20331    82751   131770   118715 
   56259    -3547   -60493  -122252  -159771  -168293  -164696  -156141 
 -141360  -101550   -20444    82256   158150   184447   192723   191732 
  149836    81673     6198   -91190  -183694  -240632  -272388  -281282 
 -268581  -246047  -200743  -106072    24888   131495   172361   171548 
  154775   113947    78444    83469    99902   121792   171934   208531 
  193097   143163    80757    34988    11220   -20498   -42825   -23748 
   20607    79940   150419   205463   223950   196007   132866    70484 
   18015   -52980  -151269  -242162  -285000  -258326  -171195   -73943 
   -5852    37948    60875    61228    55103    53437    55459    72732 
  104869   111194    69868    10078   -39871   -63098   -52071   -32899 
  -22627    -5318    10001     2109   -20705   -52449  -101503  -163612 
 -206007  -197067  -152225   -99391   -42216     -113     5822     5849 
   24585    29012     3536   -25047   -54719   -93241  -118901  -121871 
 -121856  -134584  -149783  -140718  -101793   -49260     5195    48752 
   80484   110208   115426    80522    38389     1743   -49821  -108151 
 -138049  -111721   -35976    40537    83508   122062   193992   279824 
  339843   363022   348807   301907   243325   181493   104088     6253 
  -93153  -153167  -153260  -123905  -105072  -113001  -141560  -171832 
 -192385  -183566  -115665    -2238   108381   197580   279290   342646 
  354031   317228   241509   106688   -51951  -147966  -174209  -182939 
 -170069  -117573   -51200    20451   104097   169797   187814   170636 
  138144    99095    72287    58315    40105    33973    52937    72822 
   77064    67577    47850    11429   -57958  -147307  -213500  -223800 
 -147433    11714   155785   197696   171588   134458    86195    23265 
  -46557   -99503  -100453   -63105   -13084    63658   155164   210805 
  201642   138405    61740     5329   -41781   -98290  -143251  -149724 
 -124339   -86495   -54995   -49501   -62298   -63035   -48067   -42001 
  -55967   -74403   -77116   -55888   -14666    36030    95412   163531 
  202987   167721    73840   -22222   -97253  -171440  -247506  -281046 
 -265583  -258968  -276403  -272277  -228496  -181895  -154428  -118908 
  -64466    -8400    47935    95055   101523    58298   -13906   -89992 
 -148067  -179074  -185527  -165738  -123374   -67529      -39    69582 
  125991   158670   164447   167288   185093   184202   137300    65158 
  -13713   -86349  -123611  -127986  -124221   -93128   -10412   100816 
  196735   239680   230545   204909   175899   146079   124676   108828 
  109311   121079    95655    25463   -42575   -79522   -88083   -81969 
  -76377   -73442   -49266    13088    91631   162131   218043   241965 
  214985   145646    60165   -18278   -75455  -113128  -144696  -169662 
 -179268  -175025  -152712  -109239   -66955   -43150    -9857    59727 
  134473   174278   173062   131666    52981   -46420  -139941  -209907 
 -260808  -289723  -275376  -214424  -130665   -56091    -8962    23885 
   55809    73451    76418    76466    62822    32960     2609   -25239 
  -57275   -95109  -120165  -103520   -45530    29382   103110   165765 
