Origin Time       2011/03/11 14:46:00
Lat.              38.103
Long.             142.860
Depth. (km)       24
Mag.              9.0
Station Code      CHB027
Station Lat.      35.1806
Station Long.     140.2655
Station Height(m) 98
Record Time       2011/03/11 14:47:47
Sampling Freq(Hz) 100Hz
Duration Time(s)  300
Dir.              N-S
Scale Factor      3920(gal)/6182761
Max. Acc. (gal)   42.330
Last Correction   2011/03/11 14:47:32
Memo.             
[...]
   14163    11075     8652     5735     1871    -2006    -5010    -6909 
   -7720    -7193    -5624    -4222    -3118    -1813    -1218    -1691 
   -2176    -2430    -2225    -1488    -1906    -3206    -2616     -373 
    1677     3786     6020     7790     8653     8347     8361     9049 
    8800     9009    10701    11320    10732    10376     9616     9173 
   10101    11122    12441    15216    18144    20778    24189    27260 
   28715    29399    29885    29832    29090    27797    26591    25828 
   24753    23225    21819    20462    19670    20266    21708    23056 
   24326    26055    28047    29792    31849    34862    37555    38647 
   39511    41253    42724    43601    44514    44675    42982    39663 
   35468    30710    25989    22360    19530    16627    13939    11352 
    8543     6513     5987     6531     7506     8493     9743    11193 
   11456    10408    10086    10832    10937    11160    13322    14804 
   13350    12254    12348    10446     7389     5880     5886     6707 
    7957     8792     8435     7296     6288     5638     5377     5330 
    5277     5095     3939     1656     -350    -1476    -2315    -3056 
   -3407    -3062    -1969     -486     1010     2045     1804      495 
    -835    -2503    -4653    -5815    -5795    -5736    -6181    -7671 
   -9987   -11577   -11736   -11043   -10124    -9489    -9333    -9599 
  -10337   -11169   -11681   -11835   -11277   -10680   -10971   -10219 
   -7370    -5126    -4668    -4509    -4117    -4173    -5052    -5408 
   -4114    -2712    -1903     -770      135      377      540      915 
    1796     2846     3505     4465     6188     7880     8606     8252 
    7857     7673     6854     5915     5063     3126      493    -1640 
   -3098    -3439    -2426    -1273     -771       36     2044     4823 
    7642    10454    13729    17845    22201    26089    29933    33384 
   35185    35196    33920    31778    29216    26558    23933    21417 
   19249    17578    15975    13807    11675    10714    10366     9487 
    8060     6434     5079     4986     6641     9205    11692    13743 
   15352    16569    16807    16078    15734    15711    15487    16218 
   17923    20147    23010    24978    25762    26401    26021    24836 
   24161    23416    22616    22541    22360    22266    23789    26276 
   28242    29527    30010    29356    27901    26167    24571    23651 
   23495    23582    23044    21681    20499    19901    19431    19141 
   19260    20231    22501    25065    26699    27660    28341    28382 
   27719    27518    28558    29329    28281    25962    23556    21635 
   20236    19110    18216    17770    17375    16209    14584    13220 
   11699     9883     8761     8604     8502     8309     8845    10134 
   11659    13212    15068    17967    21624    25191    28903    32546 
   35604    38301    39885    40313    40563    39035    35165    31736 
   29409    27199    25680    25215    25184    25352    26613    29041 
   31083    32351    32999    32961    33000    32232    29641    27393 
   26611    26021    25971    27135    27998    27205    25998    25952 
   25975    25179    24804    24529    23094    21234    19098    16206 
   13644    11216     8382     7113     7370     7066     6841     7364 
    7060     5349     3741     3450     4154     5456     6809     7351 
    7186     6237     5141     5661     6453     5993     6319     7235 
    7181     7601     8277     8158     8809    10234    11767    14521 
   17596    18728    18695    19324    19811    19887    21251    23391 
   24800    25729    26163    25765    24634    22666    20332    18158 
   15752    13398    11748    10124     8580     8580    10117    12140 
   14711    18249    21907    24316    25583    25844    24291    22137 
   20947    19258    16266    13837    12786    12198    11783    12181 
   13541    14994    15855    16328    16984    17860    18320    18060 
   17104    15487    13790    12717    12445    12959    13627    13075 
   11439    10183     9245     8272     8067     8489     8621     8352 
    7820     7255     7504     8960    11080    13638    16290    18052 
   19065    20493    22608    24722    26386    27839    29098    30067 
   31190    32114    31845    30615    29428    28786    28729    28902 
   28885    29168    29789    29349    27749    26103    24405    22642 
   21108    19274    17039    15070    13726    13379    13575    12571 
   10638    10052    10795    11315    11354    10719     9167     7381 
    5715     4298     3823     4441     5813     7815    10164    12599 
   14664    15803    16474    17005    17057    17254    18020    18849 
   19791    20829    21684    22202    21802    20899    20778    21073 
   20693    19759    18706    17753    17299    17006    16021    14702 
   13707    12506    10796     8955     6492     2713    -1510    -4848 
   -7351    -9606   -11648   -13221   -14313   -15688   -17772   -19897 
  -21759   -23315   -24549   -26036   -27821   -29243   -29844   -29269 
  -27084   -23790   -21428   -20758   -20117   -19053   -18673   -19087 
  -19918   -20759   -21074   -21122   -21451   -21911   -21971   -21517 
  -20978   -20476   -19422   -17298   -14504   -11542    -8108    -4708 
   -2667    -1740     -671      900     2730     4882     7435     9680 
   10992    11824    12349    11993    11020    10006     8298     5669 
    3366     1521     -960    -3800    -5885    -7036    -7243    -5977 
   -3828    -2104     -403     1852     3953     6139     9113    11993 
   13957    15897    18524    20893    22372    23554    24502    25023 
   25505    26010    26469    27383    29241    31641    33443    33951 
   33263    31727    30082    29357    29901    30979    31461    31088 
   30829    31310    32031    32679    33561    34924    36941    39235 
   41148    43438    46884    50364    53278    56497    59417    60247 
   59518    59045    58557    57345    56190    55275    53692    51101 
   48091    45709    44664    44978    46482    48640    50484    51583 
   51884    51173    50263    50282    50322    49039    46801    44536 
   42994    42629    43091    44163    45920    47311    47675    48107 
   48808    48747    47552    45284    42367    39335    36602    35067 
   34801    34765    34612    34468    34358    34091    33162    31773 
   30544    29595    28667    27612    26963    26758    26169    25080 
   23735    22146    20722    20273    20730    20735    20153    19739 
   18863    17687    16965    16121    15301    14874    14288    14074 
   14873    15667    15682    15305    14620    13463    12480    12053 
   11449    10610    10298     9922     8695     7702     7409     6884 
    6259     5690     4863     4435     4336     3520     2356     1645 
     853      -64      -52      791     1466     1786     2012     2350 
    2840     3040     2512     1548      850      613      278     -789 
   -2604    -4537    -6079    -7112    -7321    -6549    -5361    -4503 
   -4193    -4319    -5229    -6938    -8306    -8784    -8931    -9127 
   -9729   -11107   -12669   -13649   -14267   -14870   -15627   -16184 
  -15855   -15271   -14498   -12781   -11558   -11887   -12326   -12031 
  -11723   -11877   -11956   -12101   -13259   -14686   -15138   -14805 
  -13873   -12661   -11996   -11417    -9756    -7792    -7760    -9271 
   -9108    -7098    -6192    -6020    -4619    -3560    -4000    -4110 
   -3388    -2970    -2858    -2213     -899      370     1344     2120 
    2432     3158     5620     8533    10494    13241    17479    21161 
   23775    26006    27428    27857    27941    28018    27985    28421 
   29839    30786    30258    29439    29011    28833    28814    28593 
   28237    28011    27829    27564    26978    25647    23410    21040 
   19282    17693    15957    14555    13310    11406     8919     6244 
    3377     1278      783      824      944     2018     3428     4276 
    5162     5961     5741     4385     2281      247    -1146    -2430 
   -3717    -4244    -3942    -3204    -1891      264     2902     5244 
    7206     9394    11920    14349    16597    19073    21753    24010 
   25603    26947    28529    30191    31112    31015    30383    29426 
   28113    26830    26150    25843    25057    23690    22185    20878 
   20145    19614    18803    18450    18765    18840    18506    18018 
   17746    18638    20721    22977    25217    27509    29114    29364 
   27968    24904    20852    16823    13384    10315     7206     4313 
    1949       12    -1439    -2231    -2225    -1430     -746     -925 
   -1205    -1413    -2328    -3248    -3418    -3443    -3511    -3251 
   -2637    -1972    -1552    -1248    -1163    -2018    -3573    -4361 
   -3835    -2820    -1617      278     2651     5250     8601    12240 
   15203    17951    21170    24864    28892    32423    34539    35523 
   35960    36394    37585    38970    39477    39840    40808    41644 
   41932    41808    41201    40383    39888    39849    39852    39199 
   37677    36009    35116    35337    36876    39831    43329    46226 
   48306    49572    49462    47491    43970    39897    35984    31957 
   27697    24177    21834    19924    17931    15719    13229    10632 
    8026     5707     4065     2607      857     -671    -1827    -2836 
   -3374    -3613    -4227    -5187    -6043    -6597    -6907    -6951 
   -6728    -6471    -6284    -6462    -7220    -7395    -5970    -3973 
   -2320     -794      220      413      484      860     1279     1242 
     676      376      609      423     -717    -2266    -3547    -4290 
   -4304    -3329    -1699     -300      458      738      481     -584 
   -2186    -3633    -4742    -5584    -6058    -6462    -6830    -6685 
   -6322    -6120    -5808    -5330    -4658    -3664    -2653    -2021 
   -1836    -2079    -2358    -1753     -262      960     1363      983 
    -325    -2073    -3572    -5328    -7884   -10272   -11556   -12348 
  -13361   -14156   -14019   -12876   -10841    -7999    -4945    -2187 
     315     2477     4344     6094     7497     8677    10034    11402 
   12826    14853    17636    20718    23465    25619    27072    27477 
   26978    26497    26670    27215    27257    26049    24171    23243 
   23758    24955    26423    28051    29363    29881    29943    30633 
   31850    32034    30966    29717    28278    26365    24679    23588 
   22404    20303    17015    13166     9685     6793     4639     3503 
    2598      847    -1575    -4008    -6240    -8483   -10864   -12786 
  -14327   -16523   -18601   -19203   -19296   -19729   -19761   -19229 
  -18521   -17778   -17148   -16351   -14864   -12729   -10400    -8378 
   -7015    -6353    -6538    -7640    -9042   -10373   -11715   -12749 
  -13408   -13848   -14038   -14271   -14429   -13872   -12861   -11979 
  -10855    -9500    -8928    -8796    -7808    -6407    -5241    -3604 
   -1783     -870     -436      357     1421     2543     3276     2929 
    1720      398     -665    -1239    -1426    -1519    -1506    -1583 
   -1864    -1895    -1751    -2083    -3035    -4389    -5883    -7348 
   -8668    -9296    -8932    -7923    -6525    -5289    -4741    -4260 
   -3421    -2953    -3345    -4629    -6718    -8824   -10192   -10925 
  -11158   -10860   -10231    -9350    -8232    -7139    -6013    -4437 
   -2534     -685     1124     2705     3992     5544     7082     7863 
    8371     8933     9206     9951    11849    14224    16559    18535 
   19658    20263    20845    21152    21070    20888    20675    20359 
   20153    20291    20495    20591    20985    21796    22532    22644 
   22135    21580    21077    20370    20090    20639    21206    21532 
   21944    22122    21945    21503    20579    19419    18382    17622 
   17451    17498    16830    15049    12303     9314     7010     5676 
    5252     5573     6286     7137     7646     7500     7417     7899 
    8341     8220     7578     6397     4619     2855     2039     2226 
    3045     4539     6516     8728    11183    13310    14692    15650 
   16085    15903    15578    15345    15527    16250    16674    16830 
   17917    19729    21415    23373    25738    27804    29545    31165 
   32058    32036    31837    31556    30928    30368    29738    28490 
   27275    26876    27098    27738    28719    29719    30772    31925 
   32335    31354    29698    28295    27159    26130    25679    26211 
   27278    28401    29826    31753    33783    35547    37387    39825 
   42628    45129    47344    49852    52535    54834    56744    58092 
   58467    58187    57789    57603    57741    57721    57161    56264 
   55445    54776    53653    51853    50044    48785    48029    47215 
   45961    44670    43858    43551    43311    42436    40806    38972 
   37191    35524    34031    32576    31270    30242    29414    28944 
   28765    28813    29558    30932    32341    33654    34936    36106 
   36822    36615    35648    34548    33370    31753    29719    27636 
   25618    23491    21567    19939    17815    15572    14554    14579 
   14613    14213    13525    13066    12888    12517    11606     9801 
    7024     3880      898    -1834    -4206    -6178    -7948    -9458 
  -10523   -11648   -13451   -15530   -17446   -19516   -21786   -24024 
  -26175   -28052   -29822   -32123   -34796   -37059   -38950   -40593 
  -41481   -42128   -43496   -45201   -46828   -48510   -49641   -49722 
  -49311   -49149   -49624   -50675   -51920   -53155   -54211   -54939 
  -55366   -55078   -53721   -51757   -49396   -46540   -43592   -40587 
  -37310   -34226   -31433   -28414   -25384   -23163   -21997   -21373 
  -20895   -20752   -20890   -20679   -19792   -18478   -16930   -15245 
  -13647   -12166   -10818    -9774    -8659    -6936    -4969    -3573 
   -3036    -3194    -3840    -4365    -3793    -1988      197     2236 
    4240     6176     7801     9164    10622    12465    14542    16535 
   18538    20527    22008    22859    23171    22760    21862    20914 
   19964    19301    19217    19285    19109    18919    19013    19376 
   19920    20876    22570    24817    27171    29586    32364    35459 
   38253    40442    42290    43846    44736    44571    43690    42826 
   41640    39449    36977    34984    32778    30102    27915    26536 
   25363    23732    21734    20475    20073    19605    19313    19482 
   19408    18826    17985    17115    16265    15492    15101    14733 
   13969    13224    12345    11128    10234     9708     9330     9481 
   10100    10820    11436    11776    12228    13134    14155    15249 
   16657    18215    19618    20676    21288    21864    23222    25141 
   26366    26664    26977    27621    28028    27933    27509    26518 
   24677    22647    20999    19324    17403    15322    13206    11694 
   10753     9550     8330     7487     6285     4482     2519      583 
    -892    -1578    -1947    -2338    -2307    -1802    -1621    -2067 
   -2683    -3318    -4387    -5838    -6931    -7835    -9253   -10795 
  -11994   -12917   -13411   -13440   -13014   -12065   -11095   -10570 
  -10271   -10009    -9999   -10335   -10498    -9983    -8925    -7397 
   -5529    -3967    -2755    -1579     -761      -36     1178     2390 
    3367     4399     5112     5489     6124     7009     7929     8899 
    9913    10966    11650    11645    11388    11066    10556    10142 
    9945     9961    10337    11019    11958    12932    13465    13703 
   14181    14849    15594    16743    18259    19811    21167    21964 
   22454    23196    23940    24499    24952    24806    23893    22906 
   22206    21420    20549    20157    20159    20315    21072    22276 
   23442    24661    25346    25083    24965    25514    26208    27023 
   27848    28141    27843    27284    26659    26062    25405    24421 
   23229    22248    21536    20938    20415    19960    19475    18574 
   17172    15918    15130    14666    14837    16006    17919    19842 
   21294    22556    23791    24714    25546    26608    27792    28809 
   28911    27648    25835    24347    23102    21991    21331    20838 
   19864    18786    18397    18601    18916    19271    19813    20521 
   21306    22265    23438    24663    25920    27126    27970    28443 
   28808    29016    28791    28071    26971    25401    23308    21206 
   19546    18120    16802    15691    14638    13703    13184    12865 
   12242    11373    10644     9982     9054     8040     7179     6024 
    4521     3346     2462     1508      610     -372    -1413    -1940 
   -1837    -1213     -124      900     1552     2159     2793     3115 
    3140     3378     4186     5338     6370     7077     7281     6745 
    5925     5636     5743     5498     5047     4962     4881     4305 
    3354     2141      898     -204    -1496    -3118    -4822    -6246 
   -7071    -7489    -7685    -7442    -7045    -6936    -6763    -6146 
   -5395    -4870    -4320    -3403    -2458    -1912    -1598    -1424 
   -1672    -2264    -2693    -2732    -2657    -2760    -2985    -3314 
   -4027    -5130    -6267    -7178    -7666    -7711    -7633    -7591 
   -7454    -7117    -6770    -6886    -7318    -7304    -6832    -6410 
   -6036    -5611    -5304    -4997    -4521    -4178    -4054    -3939 
   -4106    -4711    -5461    -6398    -7620    -8656    -8939    -8546 
   -8032    -7551    -6947    -6314    -5708    -5195    -4916    -4695 
   -4630    -5164    -6011    -6548    -6809    -7171    -7521    -7233 
   -6220    -5020    -3761    -2307     -635     1420     3862     6382 
    8792    10956    12648    13774    14234    13836    12758    11775 
   11568    11975    12476    12950    13420    13901    14592    15487 
   16374    17415    18865    20495    21953    23290    24587    25543 
   26034    26301    26270    25605    24172    21964    19047    15663 
   12306     9704     8179     7284     6487     5361     3485     1238 
    -485    -1491    -1891    -1509     -544      498     1341     1749 
    1675     1377      903      376      334      668      573        9 
    -601    -1386    -2117    -1799      -25     2694     5732     8480 
   10469    11747    12474    12773    12971    13172    13395    13827 
   14134    13975    13859    14008    14019    14066    14340    14491 
   14722    15472    16553    17575    18123    18282    18798    19476 
   19328    18316    16913    15482    14392    13500    12557    11529 
   10341     9540     9621     9982    10156    10189     9743     8553 
    6953     5397     4085     3199     3026     3098     2311      605 
   -1204    -2637    -3428    -3649    -3754    -3998    -4681    -6041 
   -7681    -9114    -9981   -10063    -9779    -9543    -9237    -8846 
   -8376    -7688    -6905    -6153    -5390    -4725    -4353    -4409 
   -4681    -4619    -4178    -3799    -3575    -3333    -2931    -2144 
   -1034      -84      578     1360     2379     3406     4438     5506 
    6315     6671     6916     7421     7899     7993     8059     8502 
    9215    10080    10976    11486    11368    11057    11139    11589 
   12061    12360    12223    11729    11670    12576    14285    16356 
   18002    18689    18665    18315    18235    19146    20717    22054 
   23041    23676    23568    23004    22750    23136    24055    24819 
   24913    24442    23397    22441    22586    23337    23751    24008 
