Origin Time       2011/03/11 14:46:00
Lat.              38.103
Long.             142.860
Depth. (km)       24
Mag.              9.0
Station Code      CHB018
Station Lat.      35.1520
Station Long.     140.3204
Station Height(m) 38
Record Time       2011/03/11 14:47:27
Sampling Freq(Hz) 100Hz
Duration Time(s)  300
Dir.              U-D
Scale Factor      3920(gal)/6182761
Max. Acc. (gal)   22.601
Last Correction   2011/03/11 14:47:12
Memo.             
[...]
   35041    33278    30342    26129    21883    18198    14036     9913 
    8780    11613    16033    20656    25738    30556    34268    36656 
   37164    35521    32952    31346    30889    30395    29203    26373 
   21421    17436    18303    22392    24695    24098    22527    20011 
   16340    13688    13367    14339    17296    23849    30843    33846 
   34155    34500    34434    34346    35326    36148    37155    41413 
   47527    49429    45791    40082    32767    24261    20144    22951 
   27078    29157    31685    33800    32295    29409    28298    27337 
   25563    25067    25731    25621    25098    25364    26097    26083 
   24530    22650    22640    24523    27401    31462    34767    33640 
   29209    26527    27131    29270    31877    32831    29533    23577 
   18629    16108    16456    19576    23648    26651    27655    26514 
   24535    24432    27527    32926    39888    47664    53865    56060 
   54278    50547    45476    37464    28106    22757    22509    24902 
   31407    42236    50511    51626    48701    44941    41078    38613 
   36916    33175    28714    26743    27159    29956    35974    42457 
   45475    45468    44805    42934    38012    30205    22504    19490 
   22863    29459    34916    36573    35116    34008    34599    34920 
   33439    30569    27736    26725    28892    32508    33098    30143 
   27795    27717    29069    32002    35186    35798    34103    33155 
   33750    32785    27916    22115    20027    21275    22843    24570 
   27321    30927    34939    37848    38660    38351    37028    34757 
   34727    39175    45008    48443    49131    47243    43926    43476 
   47066    49741    48581    44844    38485    31267    28760    31010 
   32662    33375    34874    34084    30553    29993    33236    34388 
   32858    33173    33856    30787    26319    24397    24606    25744 
   28570    32738    35219    34815    34081    34195    33571    32151 
   31708    32862    35883    42403    51891    59126    59055    51160 
   38959    27331    19380    17268    22847    33310    42022    46128 
   47176    44645    37376    29060    23309    19672    19183    23611 
   29807    33556    34476    32973    29344    26378    26387    27545 
   26894    24175    21052    18996    19867    26308    37737    48662 
   54825    55857    50866    39654    26511    16777    13472    17594 
   27638    39573    47800    48256    42759    35931    28338    19528 
   13334    12088    13421    17147    23730    27570    24256    18115 
   14052    12137    13781    21070    29491    32182    29872    27921 
   27745    28406    30375    33061    34814    35735    36145    34929 
   31326    26355    23187    25416    32488    40454    47424    51733 
   50311    44875    39976    35258    29553    26077    27008    29413 
   29354    27375    26699    26817    25611    24760    24831    22521 
   18665    18076    20446    22779    25699    28709    29153    28003 
   27150    25680    23554    23209    25902    30164    35315    41395 
   46148    48833    51460    52414    47762    38774    30078    23105 
   18063    18058    24960    35291    44005    48730    49140    44787 
   35088    22068    11218     7271    10461    17850    26291    33681 
   38771    40096    36964    32272    29369    27088    24519    24830 
   27979    29263    28926    31905    37853    42708    45736    46094 
   41499    34308    28944    25329    21561    17648    14519    12958 
   12990    14999    19847    24500    23869    18963    14821    13552 
   16702    26313    38622    46512    48309    46109    41340    36607 
   35336    38245    42076    42322    38264    33174    29266    26020 
   23621    24020    26607    28012    29360    34782    41276    43035 
   41869    40999    39139    37084    37716    39838    40334    38795 
   36886    36512    38320    40474    40222    37413    35135    34449 
   31660    25581    20664    18680    17060    16949    22628    32565 
   39691    41321    40473    36805    28099    19682    17663    18723 
   19707    23823    29827    32436    32467    31939    28751    24247 
   22185    21037    19532    20842    24588    26774    28365    32276 
   34901    32834    32562    39945    48916    53186    55299    55961 
   51929    45999    42529    38512    31151    25029    24281    25932 
   26136    25967    26102    24366    23055    27377    34473    36369 
   32094    26435    21788    18530    18409    22011    25918    27371 
   28293    30502    33189    36773    41949    47060    50793    52879 
   52362    49003    43817    38115    33880    31847    30255    29180 
   30590    33301    35564    37964    38919    36472    33524    32063 
   28554    21799    16374    15063    17563    24432    33280    38772 
   40541    41528    42082    41676    39371    32746    21075     7597 
   -1240      181    10363    21708    28819    31366    31070    30758 
   33066    37563    41316    41012    35116    27115    22127    19227 
   15373    13134    14979    18236    21944    28497    37081    44010 
   47722    48002    44471    38599    32198    25740    21904    23578 
   27219    27894    28183    31802    35075    34356    32367    30666 
   26413    19414    14924    17165    23778    30150    34038    32992 
   25516    15681    10148    11594    18206    27922    39313    48353 
   49986    44498    36321    27493    19673    17301    21101    26090 
   29635    33312    37274    39473    39070    37113    34933    33500 
   33408    34352    35749    37202    36547    31480    24781    21458 
   21187    20915    21157    22378    21952    20830    23057    25537 
   22075    16164    15367    19475    25839    36307    49554    57387 
   56398    52905    51623    49786    45117    40518    37893    34717 
   29808    26109    26132    29387    33992    38399    42113    44843 
   45186    41583    34754    27513    22732    22127    24569    27241 
   28709    27328    22216    17722    17835    19705    20832    23578 
   28380    32636    35182    35402    33754    33651    35662    36238 
   36537    40870    46771    48731    46891    43667    39212    33420 
   26565    20212    18266    21373    24642    25502    26203    27841 
   30026    33229    35963    35244    31480    27721    25910    27751 
   34519    42941    46853    43570    35354    27423    24341    26006 
   29275    31736    31921    29722    27145    26062    25864    25037 
   23765    22834    22122    21461    20160    16752    12197    10031 
   11283    13157    13141    11646    10351     9442     8194     7451 
    8912    12138    15734    20459    26607    32313    37608    43460 
   47293    46423    42955    40499    40027    40825    40755    36637 
   29273    23705    22761    26487    33053    36322    32826    28517 
   28007    27395    24551    22405    21417    20331    20352    23364 
   28805    32621    30915    24868    18890    16141    17788    22977 
   29543    35909    40299    40845    37757    32413    26910    23710 
   22206    20113    17806    16546    16378    16967    17586    18967 
   23045    27805    30196    32669    36139    34731    27541    22060 
   20331    18929    20852    28823    36238    38322    38066    36884 
   33932    32298    34508    37362    37660    35363    30885    27214 
   28179    30859    30175    27801    26915    26755    27464    29748 
   30801    29011    27394    28343    30794    33572    36069    35683 
   31314    28016    30869    37128    40942    42259    44420    46766 
   46935    46213    46028    44626    41939    40411    38697    33611 
   26988    22105    19943    22935    30786    36476    37676    39717 
   42091    39943    36581    36812    36600    33055    31279    32776 
   32812    31172    30664    29816    26974    24029    23420    26985 
   34796    43442    49365    51815    50864    47120    43020    39867 
   36506    33737    33886    36711    41802    49072    54396    53085 
   46492    38991    32701    29625    32200    38473    43648    45745 
   44698    40763    35746    31011    25962    20590    16871    16921 
   19860    22274    23647    26802    31473    34673    36663    38012 
   35542    28723    22809    22874    28995    35405    36444    33583 
   30319    26405    22454    20744    20887    21221    21791    24049 
   28377    32231    33131    31783    30680    31817    34524    35997 
   35468    34379    32967    30368    26848    23960    22424    21142 
   19634    19078    19625    19749    19258    19847    21398    21737 
   21166    21646    23521    27399    33051    36833    36303    33646 
   32677    35251    40291    45429    47865    44721    36751    28688 
   22901    18544    16930    20110    25599    28701    27762    23808 
   18119    12245     8849    10496    16960    25057    31182    33918 
   35313    37645    39439    38707    36818    35967    36586    37060 
   35314    33207    35621    42575    48678    50868    49927    46542 
   41397    37247    36786    37913    35945    31107    27624    27788 
   31437    36024    37327    35034    32500    29917    26323    23983 
   22672    19190    15275    13990    13009    11351    13090    18607 
   22871    24823    28025    32191    33901    33143    31802    29406 
   25372    22471    23643    27144    28452    26310    24505    25976 
   29336    34751    43509    50587    50611    45958    40527    35905 
   33962    34597    35210    34671    33447    31066    27193    24338 
   25377    29094    32300    34192    34936    33391    29829    27252 
   27236    27836    27184    26493    27682    30135    32055    32259 
   30006    27003    26655    28100    27234    23214    17926    13522 
   12574    15329    18843    20820    20726    19352    19176    21534 
   24624    26571    27852    29656    31843    33606    34919    36546 
   38570    38663    34797    28752    23176    19646    19967    24531 
   31313    36519    36554    32914    30950    31403    29884    25553 
   22604    22550    23461    25508    28912    30541    28057    23136 
   19189    18251    19736    21870    23538    24720    26731    30145 
   33094    34789    35955    35318    32507    30393    29503    27604 
   26178    27838    30570    33019    36517    38379    35447    30598 
   26517    22688    20941    23717    30023    38210    46607    51196 
   48623    40512    31327    23796    19672    21419    28081    34728 
   39677    44579    47949    47334    43611    37645    29494    21814 
   17798    17832    21154    27850    36578    42260    42176    40940 
   41017    38748    35469    36079    38126    36783    33301    30791 
   29334    28456    28583    29176    30213    32892    36595    40112 
   43511    45343    42985    36363    28091    21048    17177    16884 
   18075    18724    20263    23365    25583    27281    30010    30700 
   27177    22748    21064    22921    27469    33740    40337    43672 
   42061    40261    42289    45573    48330    52360    55392    53089 
   47340    41687    35256    27991    23022    21323    20677    19875 
   19585    19456    18372    16833    14800    11119     8163     9292 
   13717    20838    30860    39843    44140    45350    45550    43841 
   39142    32706    27302    24001    21280    19249    20181    23139 
   26036    30743    36912    39058    35615    29140    20744    14693 
   16846    24835    32659    39259    43808    43287    38570    33297 
   27498    20263    14884    14731    18689    23704    27437    28679 
   27988    26849    26133    26107    26572    27108    28170    31089 
   35389    36973    32670    25127    19161    16711    18084    23075 
   28315    29448    28157    28814    29815    28957    28833    29439 
   28195    26332    25510    24564    23123    22383    22608    23916 
   27219    31450    34073    35336    37426    39954    40281    39075 
   39467    39684    36949    34638    35368    36752    38315    42680 
   49841    56000    58164    57055    54074    49204    43901    40909 
   40091    38763    36138    33430    29840    23289    15360    10808 
   11371    14577    18399    20987    19434    15305    14069    16605 
   20078    23989    28191    30744    31298    31335    30908    29217 
   26821    24839    23477    22204    20956    20283    20624    22651 
   26523    30282    31377    30374    30920    34787    39700    42801 
   42737    38686    31781    26376    25186    25790    25634    25973 
   27659    28485    27023    23461    17372    10264     6451     7749 
   12022    16719    20710    24796    29423    31964    30672    27824 
   25297    22956    22174    24856    29751    33839    36064    36506 
   33410    25571    16396    10863    11155    17931    30344    43218 
   49845    49039    45581    43093    40587    36582    32141    28882 
   27257    27260    28822    32041    36805    40829    41431    40020 
   39169    37790    35401    34687    36245    37916    38090    35364 
   29544    24012    22422    24031    25534    25565    24948    24571 
   25472    29479    37297    46232    52080    53462    51588    47391 
   42485    39627    39720    41535    44367    47261    47696    45328 
   42258    38494    33692    29294    26411    26800    31128    35555 
   36932    36339    34921    33138    32002    31425    31149    31929 
   33600    35876    39410    42725    42601    38223    31241    24821 
   23613    28966    36335    42121    46709    49264    47972    43851 
   39490    37569    40379    47839    57272    64757    66465    62217 
   56239    50988    45762    41946    41454    42845    44677    48011 
   52507    54152    50452    44557    40120    36242    31767    29070 
   28988    30028    34303    42439    47595    45566    39152    29599 
   17833     9029     6770     9850    16375    25620    36182    45104 
   50057    51174    49810    47071    43328    37657    29357    20776 
   15601    15402    20402    29110    36810    40087    40072    38994 
   38523    40171    43675    46220    44887    40574    36832    34773 
   33717    34171    36454    39014    39588    37795    35291    33815 
   34721    37114    37976    36978    34900    30286    24502    21829 
   22456    23142    22395    21385    21699    22817    23241    23758 
   25702    27658    28549    29949    30883    27532    21149    17658 
   18855    21975    25836    29376    27826    19331    10792     8291 
    8578     7786     9059    14734    21232    26857    34167    42558 
   48228    49685    47586    42568    34826    25938    19868    18421 
   19710    22317    25327    27082    26659    24105    20975    19494 
   18980    18148    18983    22420    25842    28238    32221    39495 
   47317    50898    48286    41440    33572    27721    26816    30872 
   34895    34258    30419    27198    24775    21900    19921    19654 
   19281    18867    20090    22080    24235    27858    32514    36938 
   40708    42654    42749    43017    43211    40781    35585    29957 
   25481    23198    24257    27335    29255    28865    26263    21445 
   17369    18811    25222    31176    34579    36585    36847    36536 
   39409    45670    50644    49996    44310    39161    38933    41239 
   41593    40120    38402    36033    34143    35285    38431    39654 
   38025    36286    35832    35897    35765    34397    32298    33151 
   38561    45192    50336    55037    59796    62492    62293    60121 
   55447    48437    41053    32655    22713    15171    12247    12845 
   18745    30718    43606    52998    57911    57043    51835    47292 
   44344    40532    37172    36337    36308    35651    35142    34304 
   30688    23032    13777     7122     4844     6572    12744    22547 
   31495    36351    38532    39824    40003    39106    38212    38897 
   42615    48463    53145    54802    54119    51724    47656    43323 
   41090    40870    39580    35349    30231    27445    26860    25737 
   23657    21751    19576    18029    19158    21452    22128    21670 
   21781    22020    21064    19770    20056    21624    22475    21761 
   20577    19588    17763    15273    13940    13848    13385    12309 
   12323    14513    17707    20222    21292    20500    18779    18204 
   19292    22782    30254    38724    43180    44225    44256    42138 
   38823    39194    44133    50095    55154    57352    53346    44066 
   35083    29720    27114    26533    27952    29254    28165    25362 
   22430    19547    17264    17109    18825    20524    21657    22961 
   25043    27852    30732    34183    39539    45431    48942    50067 
   50192    48973    46720    44962    42830    38411    32505    26788 
   21340    16590    14887    17288    20123    19571    17275    15489 
   13593    13090    16048    19997    22482    24106    24450    24079 
   27138    34582    41770    45694    47979    50676    52827    51651 
   46965    41583    35378    25956    16629    13397    15543    18178 
   19228    18645    16391    13564    11807    12599    18248    29252 
   41485    50090    53473    51754    45480    37130    30190    26512 
   26742    30810    36837    42449    46584    49016    50165    50468 
   49049    45663    42287    39546    35806    32553    34368    41451 
   48477    51862    52806    52966    51889    49546    48084    49070 
   50688    50230    48050    46357    45366    43358    39795    35289 
   29187    22057    18034    19194    23757    31423    41411    48890 
   50919    49824    47608    43656    38172    32495    27375    23679 
   22055    21933    22471    21600    16851    10778     8772    11251 
   15072    18757    21883    24407    27564    31573    35037    37701 
   39151    38671    38809    41081    41889    39611    36832    34059 
   30239    26278    22865    19709    17731    17984    20799    26874 
   34685    39617    39827    38038    36155    33201    28653    24280 
   21654    20651    21525    24598    28411    31801    35634    40258 
   43961    45357    44622    42071    38699    37314    39991    45381 
   49896    50621    47146    41489    36252    32513    29885    28314 
   28390    29700    30586    30335    30497    32725    35547    36224 
   34720    32166    29089    26565    25088    24689    26775    30808 
   32723    31502    30788    31075    28945    25452    25294    27904 
   29360    29719    30110    28853    26282    26299    29721    33159 
   35181    36484    36943    38149    42630    48952    54295    58428 
   60617    58650    52234    42930    32950    25550    22781    23587 
   26513    30739    33830    34093    33831    35402    37570    38214 
   36525    32134    26390    23071    23302    24018    24613    27772 
   32846    36486    38449    39987    40263    39087    37892    36600 
   34066    30359    27006    25634    26305    28277    30498    30684 
   27911    24160    21077    19211    19948    24158    29890    34406 
   36818    36900    34785    32316    31766    33357    34750    34278 
   32838    30200    25151    19814    16858    15645    15534    17336 
   20446    23512    26320    28668    30244    31248    31088    28989 
   26092    24636    26125    30289    35005    38261    38955    36120 
   31092    27871    27903    29859    33930    38754    39606    35461 
   30279    26286    23448    23527    27839    33305    36339    37704 
