Origin Time       2011/03/11 14:46:00
Lat.              38.103
Long.             142.860
Depth. (km)       24
Mag.              9.0
Station Code      CHB004
Station Lat.      35.8889
Station Long.     140.4903
Station Height(m) 36
Record Time       2011/03/11 14:47:18
Sampling Freq(Hz) 100Hz
Duration Time(s)  300
Dir.              E-W
Scale Factor      3920(gal)/6182761
Max. Acc. (gal)   300.728
Last Correction   2011/03/11 14:47:03
Memo.             
[...]
   27538    49068    58438    47853    30532    21354    17910    14594 
   14071    14283    11158     8154     6593     6208     9518    10661 
    -895   -25216   -55257   -83200   -99545  -101902   -98257   -93145 
  -86883   -83349   -83225   -83061   -82246   -82072   -84654   -89732 
  -89144   -76224   -60033   -52174   -48851   -44059   -38122   -31480 
  -28801   -31418   -33494   -38460   -51051   -64884   -73736   -70469 
  -47108   -11417    18127    34956    46164    52399    46055    33434 
   32989    51365    76924    89309    76830    50289    24949     2473 
   -9027     4096    32977    59052    76481    85752    85476    69613 
   35647    -5087   -33484   -36436   -18870     4352    22782    23130 
    2919    -9083     5090    21409    19137     5207    -7183    -5920 
    6290    12147    11409    13311    14462     5787   -24032   -69433 
  -97703   -99667  -104080  -117553  -117634  -101231   -85773   -81342 
  -82251   -78455   -78211   -96173  -117782  -115571   -86752   -51526 
  -28840   -13806    10654    37105    43811    32807    19960     7719 
   -5300   -12516    -9353     4102    25259    45006    52032    42772 
   27179    18087    14635    18174    40042    67716    72450    54921 
   36105    28600    37540    52801    50115    23304   -12293   -49521 
  -82910   -92667   -77230   -56545   -31549     -353    19452    21455 
   16687    12331     9528     9355    14932    29663    53351    72894 
   66299    36855    14328     6589    -5240   -24833   -37551   -37927 
  -34445   -41272   -63589   -81707   -71709   -36627     3104    33209 
   51306    62976    72429    75426    70260    64439    57633    40464 
   14904    -3744    -6160    -3050    -9176   -19459   -14285    16814 
   53096    57345    26876    -6224   -24879   -34080   -36248   -29402 
  -10959    21695    55378    63673    40661      -95   -51071   -98841 
 -120459  -115663  -106715  -103521   -99511   -92137   -83476   -76023 
  -72886   -68937   -57517   -45075   -39517   -37654   -37197   -45232 
  -63817   -77316   -69504   -49804   -40730   -48104   -63356   -75792 
  -77353   -67419   -46643   -12297    28362    52597    52077    50389 
   60417    63432    55713    54078    52329    34837     8482   -16256 
  -40779   -65124   -78917   -65052   -18979    37546    78246    96885 
   99074    86347    59253    24840    -6651   -26628   -32792   -28222 
   -9334    21822    36075    14330   -21978   -54249   -79982   -85983 
  -70262   -49573   -24204    10752    38300    43479    36145    30909 
   23434     4855   -13187   -21672   -33287   -45596   -45022   -38767 
  -23814    12310    48834    65301    78055    96620   102984    99630 
  111955   131139   130961   115543    93401    71382    67070    73083 
   73432    82790   103458   108127    94009    86356    91147    92122 
   85246    82858    89065    98422   107947   108742    88468    49053 
    3975   -33713   -63227   -92118  -113706  -122151  -124968  -111441 
  -70316   -26479    -8503   -17850   -34652   -30558     1429    34769 
   41033    17640   -11740   -16071     7000    24201    13088   -15051 
  -38393   -40615   -25232   -18068   -29600   -39670   -37090   -27746 
   -4552    36088    78262   106936   104802    70536    42006    36911 
   26654     8022    16563    61638   114221   139133   113632    55287 
   15025     8187     8491     3660    -6151   -19396   -27451   -32700 
  -34637   -24331   -23537   -49816   -70419   -63445   -52279   -55842 
  -63351   -53406   -25719    -7592   -17230   -42141   -61340   -66146 
  -58410   -52391   -67550   -95816  -106559   -89008   -55214   -19470 
    9247    35283    65237    83256    70112    32787   -11870   -48422 
  -54169   -23903    14109    35835    36282    18148     1224     2894 
   17354    35481    47942    49316    48162    42081    21845    -1883 
  -25577   -55428   -64349   -29114    15814    29405    11732   -17805 
  -43489   -60255   -60428   -35599    -7702    -6469   -26766   -47715 
  -61369   -65823   -55952   -34353    -9897    12516    17932    -2536 
  -21812   -19226    -9884    -2506     8505    18679    27649    42126 
   50209    40038    28245    30978    40162    37932     8795   -44547 
  -92861  -115596  -119258  -103826   -72070   -48147   -34729   -18590 
   -2270    12995    21590    19410    21121    21871     -879   -37013 
  -55914   -49343   -30605    -7686    21288    51686    65060    40426 
   -8018   -25265     6962    40804    39540     9902   -26612   -44998 
  -45316   -52795   -62357   -54387   -40493   -34500   -32445   -27868 
  -20929   -24071   -32745   -16505    16404    20713    -3772   -20475 
  -19704   -16319   -23531   -34720   -17388    37228    81533    79539 
   52409    24618     3222     6441    37556    68048    78339    60528 
   16614   -13012    -4418     9741    18055    30097    28014    17685 
   28763    57513    79861    76305    50273    35283    47142    65571 
   70132    48052     -625   -42383   -44463   -24134   -17118   -30678 
  -52942   -59864   -25655    33271    69684    75598    71435    48502 
    4836   -19403     3800    52837    79100    61746    35568    30842 
   21775   -21552   -74083   -93358   -84812   -80212   -69941   -22515 
   30537    22321   -34019   -73439   -88060   -92875   -69033   -13842 
   39931    63805    53607    33216    33582    44050    14498   -62713 
 -125672  -125728   -69507     6797    60303    68521    33168   -21928 
  -54371   -46346    -6596    56408   111717   124227   110033    97494 
   72629    25567   -17975   -38658   -38312   -35367   -55074   -86109 
  -92686   -75044   -58298   -47115   -30148    -9602      900    -6355 
  -38347   -84983  -110793  -111000  -114678  -119471  -108571   -99175 
 -108245  -123892  -124140   -96204   -59122   -38236   -23247    -6932 
    1243    19337    59378    90869   103442   119919   132504   121350 
   97744    76451    60062    41126     5305   -36630   -56395   -54475 
  -48866   -44077   -38598   -27927    -5663    25340    54089    61110 
   34288    -8563   -51420   -97719  -125545  -100800   -41575     3213 
   18819    27078    47336    67701    61001    27459    -7998   -24208 
  -10119    18103    32776    46482    71810    81087    68235    47524 
   10958   -32838   -55805   -58136   -43426     4424    64826    89489 
   82493    72599    54191    19461   -21130   -52675   -54617   -19663 
   19008    17007   -15863   -29547   -17060    -8389    -5848     5262 
   22978    33047    28174    19144    13823     5564    -1385     5038 
   21797    44195    69289    79104    66905    50849    29739   -11479 
  -51993   -62892   -54486   -40305    -9153    29219    42396    31957 
   16723    -8760   -37408   -38606   -14892     1132      -77   -18243 
  -63602  -110438  -112445   -79589   -48728   -24193    -8860   -16303 
  -29887   -15694    23855    57291    65043    45829    22755    25089 
   39937    43166    38532    16005   -38816  -102119  -136240  -114171 
  -49125     -255    13737    23866    25144    -6149   -62613  -119158 
 -146232  -135241  -101536   -56049   -19403   -15465   -41117   -71263 
  -68010   -23187    24620    53650    64775    57110    50737    63734 
   80661    77307    44508     2752    -9109     5294    -3740   -44630 
  -71939   -62046   -26851    11455    27821    20522    19970    41946 
   59968    50780    27805    11462     8115     8144    -3111    -4999 
   36915    92333   103285    78142    52713    26211    -5946   -28572 
  -29504   -10053    20828    52575    79926   100576   109703   109490 
  100634    73430    37448    13084    -4049   -18230   -22556   -25839 
  -32534   -32123   -33315   -53501   -80611   -92499   -97939  -107845 
 -100244   -69780   -40001    -9509    26756    44371    31351     3684 
  -25414   -52130   -72101   -81474   -81098   -72920   -59662   -50805 
  -55220   -71413   -93633  -116453  -128490  -114413   -81562   -68025 
  -89484  -110650   -98919   -54828     7348    58686    75935    71514 
   51297    -7540   -96129  -161079  -173434  -152040  -115387   -66162 
  -19787      948     -242     4957    28568    52035    63399    72367 
   76229    67916    66870    73075    57084    23048    -9767   -33089 
  -26749     3098    19765    27584    40231    26572    -1597    16559 
   67837    97036    97049    80871    61700    47660    21791   -12935 
  -10906    27638    38754     6235   -27486   -43875   -58516   -90628 
 -125908  -124768   -92877   -68364   -58539   -43881     -888    62626 
   97811    89941    77752    73181    52411    20702     9411    24929 
   37373    15800   -22380   -31509   -14097    -6965    -2430    30466 
   67849    67334    43311    28923    26131    28774    27713     3368 
  -33355   -46235   -42539   -46114   -31741    14712    50337    46671 
   25365    25152    58020    95944   124215   149627   151170   104136 
   22607   -56307   -92663   -63078     4157    47618    40372     -813 
  -32879   -13167    29720    34986     9265    -9826    -7865     4990 
    6289    -9979   -40913   -68467   -61284   -34380   -26669   -35567 
  -36203   -23313    -8075     5880    11558      867   -13102   -31450 
  -64168   -70026    -8339    71436    94390    68634    40739    21670 
    9018    -7317   -38862   -56410   -38718   -31647   -61654   -76087 
  -45988   -10145    13642    38526    56923    53274    13482   -54037 
  -87411   -69292   -74680  -119910  -135783  -102090   -59205   -42995 
  -46719   -26566    18182    32673    -1823   -46591   -52967   -11901 
   25960    25000    10176     7880    10640    -8259   -40514   -38889 
  -16413   -28324   -56431   -42111     5838    13406   -48632  -116687 
 -136530  -115897   -71497   -23254    11934    35554    39111    28558 
   36735    47815    18382   -21894   -22728      822    28112    51079 
   35959   -20569   -77999  -106166   -90370   -45338    -8819    13537 
   32106    33975    23138    36673    82435   130864   170743   202274 
  209869   188071   153410   126487   115631   112664   108626    94856 
   63641    29791     6382   -30991   -87137  -105057   -61018   -11124 
    5790     3943     1425     4704     9028     1703   -22914   -58481 
  -96903  -122464  -105134   -51669    -9565    11028    28930    44124 
   43406     9835   -34502   -40269   -32974   -63352   -91329   -74899 
  -47391   -26906    -4033     4199    -2275     1127      549   -18797 
  -22670      814    19278    28399    37355    28903    13896    25440 
   38041    13564   -16642   -18189   -16265   -21284    -1747    25373 
    8474   -45380   -99769  -132480  -124213   -81466   -40731   -20158 
   12895    74077    97395    55255    30152    63211    99831   114936 
  135931   153079   124539    50199   -39552  -114950  -134776   -99209 
  -77136   -89080   -79215   -49404   -57026   -91422  -105439  -103263 
  -93802   -57216     1534    61456   112936   130131   100965    57238 
   25876    12526    20167    57443   119659   160955   142677    65633 
  -49467  -130997  -109325   -34825     7708    33588    69499    76755 
   42798     5991     5337    59948   125942   133345   106780   116604 
  130150    74742   -14490   -67684   -90016   -98306   -91309   -93175 
 -114351  -117171   -73662   -16912    -6077   -52089  -112496  -156271 
 -180180  -160759   -84943   -17695   -21163   -61714   -73155   -47585 
  -33098   -52152   -65460   -40284     2118    21026     9186    -8594 
  -25422   -53193   -77310   -69595   -36478    -5638    11220     3214 
  -39427   -80276   -74902   -49527   -52701   -77079   -90392   -92285 
 -105951  -131449  -138566  -109823   -64095   -33753   -28267   -28782 
  -18861     2246    38014    93348   146114   159900   138609    95847 
    2389  -128412  -222099  -255977  -249256  -216549  -182354  -151969 
 -123331  -115715  -104326   -31058    86997   188129   247817   252291 
  205091   142399    76253     3002   -49534   -55027   -39052   -40938 
  -49744   -46351   -47826   -68985  -105059  -126881   -89708    12949 
  137504   230511   269800   270664   237525   154900    43124   -37259 
  -45993    -3262    44315    73218    67526    24609   -20103   -44694 
  -57612   -53704   -29474   -12529   -22740   -35388   -33097   -47448 
  -86364  -105164   -89322   -59503   -19670    10858   -12594   -89264 
 -172982  -228224  -224932  -155788   -65130     5400    37113     7545 
  -64098  -102197   -75205   -32460   -14774   -13178   -13613   -17297 
  -22749   -24836   -19078     6434    51433    95179   130399   157853 
  166256   152219   120505    76121    34595    -5190   -72116  -152864 
 -189824  -183392  -182269  -193872  -208820  -231746  -244396  -232736 
 -204126  -140698   -39232    49363    92931    95676    43627   -63611 
 -171831  -239394  -265733  -243390  -173900   -90873   -34071   -22998 
  -26661     1748    52455    92081   110457   104692    93948   102637 
  106113    78034    49619    66144   139251   240140   297455   260468 
  181663   137124   122367   112999   102263    66185      351   -62452 
 -104797  -127723  -130340  -138782  -190047  -247017  -229155  -146393 
  -72699   -21151    26620    55848    54212    27999    -3234   -18299 
  -41033  -112074  -210935  -270862  -268846  -249230  -230172  -184740 
 -120411   -45082    62940   170675   225423   240007   223717   149029 
   25472   -93856  -165580  -167224   -92377    26092   146878   263228 
  349401   363001   324003   268710   185224    80862    -3697   -66446 
 -114024  -111862   -47549    20064    34471    22608    33063    62263 
  108990   185977   277843   372939   452332   469702   424438   351963 
  247108    92988   -88343  -255084  -365475  -385540  -317926  -201069 
  -93092   -25519    62962   187708   215436   121757    49424    31909 
    9866   -12782   -11322    30385    85388    65065   -38851  -128122 
 -165347  -204015  -264147  -291518  -236877  -127970   -39069    -4336 
   -1705     -709     8548    22472    34800    29524     5627    -9098 
     507    41309   106551   144492   128838    89991    41615   -27630 
 -116350  -181096  -162100   -78403     9116    91307   145687   119972 
   24347   -88799  -176956  -193149  -136206   -82129   -81218  -120246 
 -174423  -210010  -194057  -121041   -22448    73151   184013   292725 
  331387   296116   217410   100615   -19348   -92135  -110497   -76524 
    6237    81618   112864   132718   129556    71060     5159   -32724 
  -72309  -121524  -160881  -183028  -179155  -145997   -99430   -47222 
   19386   101337   177813   220298   216563   170356    92544     9106 
  -47023   -56943   -12938    60453    91180    59368    44954    75046 
   72694    12035   -67299  -156150  -229674  -235574  -182210  -104817 
    1213   117894   179888   179424   176855   173633   127906    87497 
  119978   173553   179744   147423    68456   -65286  -178377  -210943 
 -191983  -161884  -148513  -164956  -180840  -177275  -167443  -139930 
  -71195    32285   135685   199226   198433   138209    68474    29896 
    8314    15151    64225    92852    70377    33746      -22   -30242 
  -67742  -117929  -138087   -90203     4292    91618   129416   101884 
    9860  -112271  -194232  -203029  -170244  -118299   -46296    12239 
   51987   140325   261990   318633   310200   282107   225755   160538 
  123508    89586    23305   -46380   -55209   -33203  -105914  -257849 
 -311827  -237941  -198957  -252994  -299667  -287026  -228994  -139057 
  -47865    48374   164483   221315   163531    84064    76552   127551 
  187516   207945   163069    82060    -5001   -89637  -133828  -116793 
  -92454  -110355  -151299  -183172  -214749  -252193  -265177  -245541 
 -219736  -190827  -157068  -139326  -123809   -64630    41104   155051 
  256614   352067   427808   451855   420839   352598   265627   180946 
  116462    71211    24330   -31704   -87777  -136602  -169011  -198570 
 -239360  -235630  -149416   -59155   -30289   -21718     6641    13142 
  -43290  -117631  -165294  -196699  -215980  -230768  -236372  -202224 
 -145181  -106009   -98904  -122882  -146622  -144553  -141558  -138438 
 -107190   -87363  -117568  -154083  -168622  -182459  -211465  -249726 
 -264240  -234371  -167338   -63512    48836   113952   125775   119940 
  103644    52487   -23164   -71000   -78502   -78483   -68284   -30952 
    -761    -4064   -22436   -32931   -20656   -12204   -46645  -100577 
 -127056  -107065   -53129     9339    77120   143205   173251   138174 
   26893  -114714  -184813  -159032   -96865   -17868    64270    92923 
   39315   -67637  -156880  -160084   -87389   -11658    13814    -9201 
  -39731   -59848   -87453   -95974   -31828    81530   169537   194566 
  159711    96473    46040    22328    36482    95080   161032   208621 
  248576   264144   225307   148491    73364    17552   -17448   -37013 
  -52081   -58076   -42980   -23349   -22880   -37871   -50345   -26647 
   54688   151716   224875   284026   316908   297913   238186   159762 
   87375    33236   -25451   -79506   -68742    19590   137693   242113 
  293717   274896   214623   123312    -7582  -126217  -161245  -105927 
  -13857    51778    74723    80072    85173    96178   114750   141810 
  171763   166586   106628    36876     -704     3634    57817   152931 
  253582   311466   276290   153025    20731   -79508  -183090  -285604 
 -327438  -305344  -262364  -210162  -159403  -115864   -61982   -30236 
  -56611  -100886  -135629  -181900  -233015  -266661  -288777  -284679 
 -217648  -110417   -27786    15932    64905   132416   172421   168920 
  152940   142337   144374   161739   188315   217660   226508   189540 
  125943    78167    37455   -41847  -143412  -188336  -153429  -105677 
  -78519   -27897    57259   112940    72229   -38194  -115156  -120246 
  -89285   -44306     1486    31195    29664   -11142   -64382   -98879 
 -115441  -111201   -80488   -43210   -13243    22090    69358   107320 
   98761    31381   -53501  -111956  -135544  -113369   -57213   -23216 
  -23993   -31760   -44090   -40068    13725    87205   130030   142219 
  131037    86300    28883    -6501   -19185   -23724   -32185   -54306 
  -77880   -90390  -111162  -134505  -110312   -32134    52462   102646 
   91861    32663   -24074   -79998  -159923  -208012  -178479  -123553 
  -91037   -73874   -56542   -34231   -28676   -55523   -83939   -97407 
 -101908   -64948    24115   100535   108127    52977   -19036   -57369 
  -57832   -51570   -32108    22680    73600    69323    26602   -14995 
  -36335   -33038   -26527   -27223   -14802    12409    44541    84043 
  114303   107177    64184    12263   -27670   -64041  -111549  -136666 
  -87794     9218    79404   119600   170825   207782   175986    75814 
  -50830  -148381  -171016  -127822   -62722    11751   104353   190993 
  231073   231752   227456   210342   161188    93812    21712   -49772 
 -104428  -112495   -47182    61167   142075   171984   154167    84892 
   -6495   -95889  -177357  -191372   -93871    60726   200593   282331 
  285692   252662   227569   165179    30717  -105416  -188656  -248837 
 -290653  -276734  -213909  -142043   -92326   -74704   -65248   -42657 
   -4232    52791   109868   136978   119919    49803   -51556  -115427 
 -104629   -60043   -30860   -28294   -53174  -100902  -152630  -190127 
 -199275  -171300  -116537   -47487    37322   123578   178603   185348 
  159825   135538   115479    82852    48451    15283   -37757  -108956 
