Origin Time       2011/03/11 14:46:00
Lat.              38.103
Long.             142.860
Depth. (km)       24
Mag.              9.0
Station Code      CHB002
Station Lat.      35.7871
Station Long.     139.9024
Station Height(m) 12
Record Time       2011/03/11 14:47:26
Sampling Freq(Hz) 100Hz
Duration Time(s)  300
Dir.              U-D
Scale Factor      3920(gal)/6182761
Max. Acc. (gal)   180.033
Last Correction   2011/03/11 14:47:11
Memo.             
[...]
    2245   -27613   -57638   -71742   -66631   -62689   -62109   -41161 
  -14487    -9793   -15115   -17101   -14934    -8079    -7576   -25138 
  -54961   -72049   -65208   -53972   -42445   -26299   -23022   -32142 
  -31928   -15465     4903    14473    19101    34144    61670    82555 
   64249     3125   -69359  -106674   -63828    31009    85329    73482 
   47841    20455   -37908   -94540   -91337   -42927    15437    75493 
  102472    53062   -44364  -110557  -117691  -101996   -79103   -34715 
   10231    16306    -8544   -28201   -44278   -83512  -122513  -107243 
  -44052    17362    49415    45295     8950   -36042   -56279   -43197 
  -18590     3527    20356    15990   -19474   -65740   -85368   -60988 
  -19374    13399    39819    47464    16892   -36209   -71544   -66493 
  -34370     7087    34922    18892   -21789   -42835   -40389   -24968 
    6621    43632    51073    14918   -39023   -83390   -97578   -74739 
  -39886     -757    57599    98883    68619   -20739  -109765  -146066 
 -106825   -12941    70357    85090    42403   -17223   -81222  -125277 
 -109148   -43591    21502    59757    63658    26518   -28684   -52443 
  -33107    -6274    15906    36916    25279   -21205   -47719   -36067 
  -21662   -17951   -12128   -18658   -51840   -80267   -74356   -43194 
   -6597    24718    39075    20582   -29195   -78821   -87964   -56158 
  -18472    16764    44482    36275     8152     4173    12805     4256 
     300    16928    14977   -18378   -38853   -32844   -28435   -18211 
   15515    36330    17352   -14669   -41035   -61851   -62703   -31052 
   13145    31478    11847   -15612   -14384     9023    23647    32092 
   45056    46927    31922    10865    -4838   -10847   -15149    -9574 
    5349    -4204   -29190   -31334   -23590   -32493   -44945   -41201 
  -42808   -65914   -68601   -35210    -4698    14715    21035   -10425 
  -51136   -46748   -13447     5622    19857    42732    42131     3683 
  -36790   -56796   -57527   -20164    48172    81256    48515    -7058 
  -46712   -70302   -74795   -41543     6230    13047   -17608   -38444 
  -38918   -32131   -12543    17936    26263    -3864   -40880   -53036 
  -44041   -27728   -13202    -9596    -6563     7653     9376   -10993 
  -26015   -24599    -8439    13620    17239     7009     8407    22615 
   24535    -8805   -46617   -37405     8828    40796    30385     5229 
    1732     4391     -658      -16      330    -7339   -14354   -18378 
  -19886   -10142     5580    -1292   -29339   -41703   -29824   -16562 
  -15853   -20418   -19884   -20260   -32183   -53031   -71914   -79465 
  -63500   -25192    -3586   -31580   -79151   -84310   -34407    16409 
   31098    27124     9737   -28809   -64281   -70096   -41708     6338 
   41625    44893    23435   -11993   -51290   -75629   -65778   -17602 
   53021   111186   117568    63970    -9822   -55726   -72888   -86501 
  -83375   -43066    -6519   -21973   -58085   -62226   -51259   -48192 
  -21558    31050    53821    21607   -26084   -48449   -50455   -35040 
   15480    67181    64733    24102   -10128   -29491   -36329   -14197 
   42537    80492    46483   -24180   -70962   -83968   -78625   -59167 
  -13696    38661    53690    37242    16078    -4567    -8435    14910 
   37604    19278   -35466   -73571   -74587   -61758   -40254    -4703 
   34330    53329    29730   -23501   -67151   -83730   -74490   -50191 
  -34551   -34233   -38020   -37921   -28009   -15699   -13118   -17321 
  -18074   -14581   -22723   -33838   -18727     1589    -4714   -20697 
  -24672   -19706   -20011   -19813    -2590     5117   -15131   -27042 
  -14241     7325    20728    13037    -2654   -12060   -15607    -8104 
    4893    16127    27055    20801   -10826   -30068   -10944    10220 
    4965     4071    21964    22523     3606      222     1106   -12261 
   -9278    15057    16444   -15873   -46283   -53637   -48990   -43860 
  -27249     3615    19199     8006    -8450   -21345   -33638   -39324 
  -29526   -11740   -15203   -45603   -58661   -33325   -17262   -42204 
  -72716   -73105   -56763   -50800   -49363   -40551   -30788   -13912 
    3083   -14948   -66239  -104372   -92741   -44841    -7170    11025 
   29438    34335     6772   -30400   -40964   -24833   -15327   -23142 
  -27290   -18850     -467    15543     5988   -18175   -21122     1940 
   31153    49646    44673    17055    -8616   -12858    -8358   -15426 
  -31552   -38794   -29259   -19390   -24449   -20576     7624    18574 
     354    -1725     9981     -590   -15944   -11528    -8829   -12639 
    3105    24501    19121    -5762   -36900   -62736   -62273   -47107 
  -30340     1185    29867    28406     7812   -11878   -26972   -30409 
  -11567     -873   -26166   -48989   -50036   -58165   -60107   -29593 
   -8380   -38867   -85694  -108219  -110186   -92265   -52127    -6609 
   19705    17159    -5581   -43339   -71955   -60795   -34016   -21133 
  -13280    -6045    -5149   -12610   -20977   -23057   -24156   -25038 
  -28855   -37174   -28463    -2307     5570   -16349   -44032   -46852 
  -15446    15648    19108    14836    10697   -13123   -47856   -60058 
  -45925   -30272   -20137   -11496   -18716   -38878   -44811   -45134 
  -51980   -34511     7035    35612    39253    14674   -26838   -49044 
  -41708   -33853   -43572   -39399    -1680    22491     5487   -18079 
  -18578     5129    37163    53831    46003    27421     8164   -13197 
  -23364   -18532   -14890    -5754    10698    10359     -468     5371 
   12876    -2652   -16201    -8018    -5852   -16144    -5514    25807 
   38598    24553      754   -29244   -52946   -49456   -22132     -728 
   -6411   -23325   -33573   -35494   -19803     8775    21316     9813 
   -2490   -12359   -43493   -83018   -90872   -70060   -43392    -6500 
   32818    41682    14588   -20609   -36784   -24767     1019    15083 
    5717   -22261   -52873   -60145   -42882   -34488   -34089    -3106 
   36464    17789   -42678   -72071   -63973   -41395     9590    74536 
   88071    32005   -32363   -59183   -47847     6239    79077   105126 
   65525     4718   -45943   -82242   -81876   -25271    55539   107025 
   99455    38039   -38198   -96814  -125345   -97863   -10154    81623 
  116016    75849   -17869  -112914  -150429  -127996   -92266   -53103 
    4700    48622    34729   -20066   -60843   -71658   -76524   -70276 
  -36543    -6502    -5472    -9544   -12890   -33280   -47453   -26320 
    6279    14938     7210     8151    14869     9186   -10448   -19009 
   -3932      893   -15882   -20260   -12584   -14352   -17957   -19785 
  -32249   -54157   -66732   -54086   -27631    -6347    11925    21785 
    7002   -25027   -42584   -20185    21313    38593    25118    -4283 
  -34901   -40605   -13489    14363    21122    15703    -6540   -51491 
  -87123   -75292   -23272    24176    41759    32364    -1588   -47536 
  -80232   -80961   -50533   -11361    14378     7950   -41011   -89550 
  -79968   -31062     8339    31207    32892    -2119   -55840   -78645 
  -49277    -7328     9227    13022    13244   -21632   -96560  -139880 
 -102856   -32600    30907    89799   116584    82974     8395   -68904 
 -128498  -156358  -117990   -16491    64236    68986    36316     3538 
  -43347  -105611  -138693  -114891   -66404   -29811   -11696   -15958 
  -34653   -37066   -18714   -12268   -21073   -14141     5093     6976 
   -1947     1527    10473    11448     8100    14078    42344    74045 
   67102    17670   -32930   -58327   -61544   -31290    35445    91127 
   94309    47081   -32387   -95744   -91132   -35506    23563    62119 
   62797    18079   -52805  -105639  -107554   -73405   -40305   -31840 
  -34944   -20775    -8559   -22813   -33435   -23922    -9719     2557 
  -10107   -61306  -108455  -118455  -114565  -118080  -102551   -41833 
   28682    56604    34843   -15607   -65166   -90284   -86715   -51642 
    7062    51992    49211     9532   -25512   -40326   -55919   -84612 
 -111674  -118746  -100184   -61030   -25640   -15778   -13354    -7620 
  -19824   -39462   -36415   -21650   -20513   -31699   -41330   -46275 
  -53509   -60896   -62389   -62207   -59200   -51663   -48297   -48245 
  -43362   -38087   -43449   -51517   -37088    -6153     2552   -15225 
  -26127   -21635   -19645   -21127   -16462   -10941    -8093    -3658 
   -6215   -11854     7943    42802    44713     9043   -23025   -24812 
   -6180    16778    43816    67686    71085    46515     8060   -15605 
  -24013   -35339   -44880   -40223    -9423    39888    66938    55491 
   27899     4903    -5476    -4430     5940    18217    20034     6782 
  -25628   -69626   -99830   -99447   -64094    -3713    57775    93778 
   70015   -17430  -106689  -134643   -95813   -18869    58573    92456 
   68138    19557   -29296   -80599  -114327  -104961   -62727   -17628 
   10858    17280    -1869   -41505   -84482  -110609   -91064   -30238 
   12817    16763    12474     5731   -13084   -48398   -94058  -110969 
  -79065   -28710    10181    25546    22822    10553   -17267   -43368 
  -36863    -4398    24266    21693   -14640   -51675   -65047   -51103 
  -17524    -3133   -26735   -48910   -47847   -46044   -55055   -46793 
    3624    50718    49222    41121    45259    16598   -29503   -31471 
   17214    68569    81579    63902    31436   -17296   -57040   -60232 
  -28507    26995    67763    58342    18885   -19935   -44993   -44813 
  -24743    -4544     5911     6201   -13146   -55934   -86158   -74216 
  -46499   -33158   -34996   -38941   -30189   -12812    13147    55345 
   84036    67128     8741   -63753   -97311   -70187   -30687    -8195 
   11306    15199    -7827   -20939    -2634    15614     8922    -9530 
  -20784   -19861    -8655    18370    63820    90296    53222   -25480 
  -86629  -108034   -92567   -30344    64426   124132   107528    61390 
   32678    -3988   -61484   -82204   -37573    17882    59624   110396 
  125140    63884   -15719   -88753  -176099  -218426  -144981     4339 
  117792   122937    36396   -83760  -183735  -231523  -225266  -167485 
  -71896    21155    72844    54893   -27612  -108447  -131674  -125327 
 -126444   -97929    -8396    85609   112814    77078    28368     1305 
    -824    -7612   -31045   -32192    -3687    18032    30313    38594 
   24624    -8845   -35217   -37346   -21973   -10285   -11366   -21408 
  -40013   -60274   -61080   -37772   -15182    -8745   -13926   -23924 
  -24690   -11953    -3168    -8354   -17129   -15468   -14638   -33754 
  -55165   -54312   -34973   -13129     3191    12452     1600   -28279 
  -49467   -49159   -31880    -8392     1009    -9313    -7977    29002 
   64638    65718    54210    38349    16545    20024    45180    41246 
   -1962   -43077   -48432   -18780    32198    87915   116292    94422 
   27187   -60940  -128743  -147984  -114749   -38616    39205    80951 
   99668    99209    50114   -22293   -50722   -34099   -16060    -5034 
    6514     5198    -9527    -9608    -3127   -25685   -61928   -72650 
  -46747    -3061    30420    54697    69137    53194    18847   -16223 
  -57682   -93883  -101383   -74602   -33826     2728    36391    40177 
  -20683  -119503  -186660  -176185  -114479   -50190     5302    33700 
   22869      386   -27244   -68307   -85943   -45333    21096    56579 
   46927    13099   -23342   -38210   -15910    12996     8817   -19082 
  -40427   -46093   -49613   -52680   -33174    -9056   -30075   -86348 
 -126116  -123251   -79768    -8760    64201    87685    37100   -41081 
 -110550  -168479  -181593  -115335     2847    99555   122551    72543 
  -20895  -120565  -184531  -174750   -83283    54651   174721   220402 
  192430   128633    56419      774   -33313   -66420   -93154   -97930 
  -91010   -77189   -50153   -16357    10480    19828     6847   -22564 
  -54034   -78512   -84839   -57451    -5183    52593   103809   116746 
   67019    -4622   -33053   -21872   -10813    13054    63378    98247 
   86897    58436    46428    29585     7685    31722    77051    75793 
   38091    -2664   -38873   -58530   -46747   -13414     9193    16235 
   11291   -33670   -97346   -93697    -3179    98455   145902   121429 
   27297   -85966  -141218  -134106   -95299   -16634    69272    77589 
    2339   -77250  -122511  -136192   -92648     2498    77090    82559 
   39340   -15037   -74854  -137509  -174436  -161945   -96460     6711 
  105283   144594    99748      299  -101347  -165662  -164611   -89555 
   21146    92877    84786    25960   -47299  -118398  -139554   -79541 
    8361    61237    80197    96363    94165    34172   -44885   -85216 
 -104528  -120691  -110012   -63084    -6050    33550    63314    93011 
  100582    63288   -14517   -95046  -136504  -138623  -124179   -93953 
  -36557    26714    42873    -9016   -79035  -109958  -105999   -71758 
    9010    80775    78441    40815    18192   -17634   -84634   -96520 
   21811   179033   252405   243854   172688    31841  -119276  -196136 
 -181821  -101277    15158   117931   158884   116925     3618  -117815 
 -182418  -185158  -132979   -35538    54667    87865    52510   -31525 
 -115580  -152059  -116219   -18276    72918    80188    15516   -57007 
 -104591  -101342   -48029    12518    69009   103941    68661   -16153 
  -83748  -117047  -136179  -135904   -89721   -23736    20290    63868 
  106585    90314    12976   -64201  -112603  -147383  -157883   -98682 
    9204    71310    54448    -9873   -97673  -159598  -136125   -16883 
  154678   269117   228349    70198  -102185  -234485  -296829  -267720 
 -152218    15847   166668   229343   185478    57266  -110383  -225412 
 -218341  -134359   -26869   109002   214107   200475   105294    18241 
  -42209   -69970   -44048    23394    99759   142276   120566    57722 
  -11043   -78075  -122569  -114954   -62629    12281    86618   126024 
  108504    46182    -9966   -35485   -58730   -62791   -17049    26178 
    4494   -66392  -116079  -107647   -60001    17734   104297   133072 
   66962   -58705  -168767  -202842  -145190   -14559   136729   231247 
  213611   108883   -10286  -110870  -163945  -138176   -82404   -59058 
  -61030   -54673   -14884    48142    91042    91172    59101    19338 
  -17187   -73173  -150720  -193014  -157174   -73207     3518    63102 
  114964   115289    30839   -73504  -136649  -178339  -207679  -189667 
 -119431   -45726    -5366    10010    14368     -748   -52233  -105900 
  -89062   -21515     4714    -8742     6067    45150    63774    59831 
   54094    58403    70480    74255    57843     9861   -69064  -131729 
 -140051  -110816   -67229   -19588    29156    73085    94834    95502 
   87671    64665     4954   -90123  -151478  -120892   -43988    19468 
   61683    69335    26196   -46191  -110520  -140750  -122547   -55745 
   37464   108524   117745    67069   -22399  -106320  -125459  -101629 
 -105910  -119187   -95783   -68540   -67616   -61150   -24540    20601 
   54783    70319    45040   -18391   -77607  -102766   -82661   -21623 
   36309    58910    58566    32922   -22293   -70898   -79600   -56054 
  -20770    21325    55948    71053    97655   146555   154552    79029 
  -31271  -116723  -155423  -131204   -51369    49053   130414   154517 
  109738    11385  -109288  -203594  -230785  -182662   -84578    24227 
  102505   112156    57160    -7202   -44379   -69641   -78616   -38524 
   25873    58666    52459    29429    -2141   -46607   -86809  -102214 
  -97843   -56107    30411   100904   113009    81311    16147   -74813 
 -151754  -159241   -88229    14923   105322   141352    85076   -35265 
 -139106  -188167  -189910  -125811     7375   131424   169226   114932 
   10130   -88305  -140923  -136377   -87176   -13683    63848   107472 
   94210    53740    25912     9344   -12225   -17219    17841    69479 
   99303    88650    54457    24477    -4555   -30359   -45813   -72835 
 -102237   -99595   -76456   -58585   -41946   -10439    29762    46807 
   30087     7334     8578    31409    43427    35036    20301   -10307 
  -55195   -88105  -105949  -113542  -104882   -65157    19263   104180 
  118075    65722     4230   -35499   -47748   -38102   -22796    -9127 
   -1726   -20910   -68492  -110494  -112899   -65231     3422    50931 
   75712    82541    52974    -4434   -54685   -79923   -79281   -54609 
   -5472    57704   102012   112149   102870    73346    18540   -42062 
  -78223   -65609   -17600    27631    56352    61620    32381   -19613 
  -68284   -92155   -81198   -38524    26423    85675    97969    63700 
   10559   -60427  -124671  -125628   -68462    -8675    22832    17908 
  -20660   -63132   -64257   -20510    19481    39449    63690    69617 
   26703   -20324   -22278     2579    15660    12074    10025    11536 
   12511    19947    21786     1931   -28302   -58146   -89257  -116753 
 -124556  -100335   -59153   -37881   -49073   -54927   -25714     8454 
   15493     9575     4996   -21311   -79738  -119438   -96405   -39405 
    7908    32821    28403    -1082   -27719   -33157   -31388   -34711 
  -20982    16439    33121     4101   -39697   -64086   -60478   -32921 
    5418    28125    18995    -2911    -9429     -591     7030     8459 
    8595    19292    48569    81046    98759    86585    36320   -15150 
  -29975   -26438   -23415     1610    58457    96547    64917    -1947 
  -38071   -38538   -26357    -5459    19581    27701    -2425   -62332 
 -119994  -146852  -122555   -59493    -6994     5938   -10659   -42140 
  -79202  -103950   -93399   -43060    28974    93308   109201    59541 
  -16011   -74128  -103515   -91635   -39253     9887    24542    29542 
   41306    24221   -28635   -59361   -44752   -20175    -6446    -9008 
  -20605   -10686    18247    26682     2824   -28449   -46783   -59870 
  -65100   -35705    13870    41662    51566    62228    55642    15287 
  -35052   -65864   -74667   -63393   -22727    39725    83984    79210 
   37172   -10499   -38704   -30184    17678    71824    87179    59038 
    2724   -75842  -148077  -173756  -144330   -79088    -9514    40680 
   63467    47708    -3811   -55947   -81757   -84168   -68037   -35108 
   -2510     8224      822    -2834      443    -9122   -43979   -83154 
  -86333   -48162    -5163    16412    21273    23725    20538      696 
  -15156    -5431     8121    19688    53877    84177    58248   -12664 
  -76755  -106908  -104886   -74289   -18417    39299    69090    65064 
   33647   -17261   -55937   -53317   -40612   -58716   -85260   -82582 
  -53511   -26675   -19882   -19280    -9802     -278    -1747   -17777 
  -40468   -52565   -54810   -58577   -59271   -44662   -13384     9802 
    1191   -12319    -1565    10029     -914   -28815   -57667   -67817 
  -61705   -54876   -31286    32121   104443   120095    66066    -7955 
  -68261  -106720  -106960   -63724    13842   103696   155386   133521 
   59833   -19086   -79036  -120568  -132945   -98216   -34567    26135 
   68837    63950    -1900   -77300  -117682  -130023  -111593   -53180 
    4319     8367   -28689   -51905   -47356   -40615   -30642      217 
   36271    42157     9141   -34166   -54176   -42742   -12446    21760 
   44023    43581    33819    24665    -2023   -40363   -55512   -38009 
    -591    33787    48805    56487    49710     1161   -76695  -145432 
 -167340  -124605   -45930    33077    95448   109610    58102   -13692 
