Origin Time       2011/03/11 14:46:00
Lat.              38.103
Long.             142.860
Depth. (km)       24
Mag.              9.0
Station Code      CHB019
Station Lat.      35.1106
Station Long.     139.8360
Station Height(m) 5
Record Time       2011/03/11 14:47:36
Sampling Freq(Hz) 100Hz
Duration Time(s)  300
Dir.              N-S
Scale Factor      3920(gal)/6182761
Max. Acc. (gal)   86.083
Last Correction   2011/03/11 14:47:21
Memo.             
[...]
   15538    17289    19210    21626    25187    29714    33811    37404 
   40632    42800    44297    45699    47504    50466    54394    58794 
   63066    66353    68422    69241    68843    67615    65678    63100 
   60113    56446    51713    46063    39514    31960    23917    16109 
    8969     2771    -2283    -6552   -10927   -15392   -19451   -23785 
  -28902   -34046   -38439   -41743   -43795   -44536   -44000   -42431 
  -40190   -37609   -34934   -32230   -29426   -26450   -23194   -19625 
  -16081   -13080   -10863    -9403    -8526    -7786    -6615    -4673 
   -1814     1914     5636     8231     9747    10286     9316     7294 
    4798     1522    -2186    -5526    -8324   -10643   -12395   -13307 
  -13028   -11530    -9239    -6618    -4024    -1880     -397      639 
    1577     2724     4380     6767    10018    14200    19058    24077 
   28888    33184    36866    40224    42993    44598    45260    45269 
   44761    43977    42717    40856    38113    34066    29319    24136 
   18008    11370     4634    -2381    -9241   -15608   -21452   -26051 
  -28612   -29126   -28163   -26364   -24181   -21857   -19561   -17603 
  -16228   -15446   -15139   -15043   -15095   -15425   -16056   -17163 
  -18950   -21302   -23935   -26406   -28212   -29262   -29803   -29924 
  -29370   -27566   -24005   -18738   -12179    -4992     1924     8025 
   13325    17983    22228    26493    31332    36927    42815    48256 
   52561    55380    56766    56892    56070    54524    52311    49735 
   47011    43954    40392    36407    32300    28369    24939    22237 
   20048    17999    15770    13104    10146     7181     4350     1986 
     261    -1052    -2085    -2904    -3506    -3941    -4318    -4180 
   -3156    -1487      699     3253     5935     8487    10442    11663 
   12304    12388    12116    11732    11314    10881    10307     9499 
    8596     7764     7110     6546     5734     4495     2898     1114 
    -445    -1453    -2181    -3154    -4665    -6838    -9763   -13534 
  -18165   -23537   -29284   -34693   -38980   -41569   -42099   -40445 
  -36727   -31193   -24370   -17043    -9791    -2879     3625     9719 
   15089    19377    22596    24457    24569    24248    24714    23394 
   18331    11973     5631    -1207    -8441   -16866   -26526   -36100 
  -45019   -52926   -58899   -62334   -63262   -61727   -57922   -52487 
  -46356   -40278   -34526   -29367   -24980   -21377   -18465   -15706 
  -12697    -9630    -6795    -3853     -177     3797     7474    10903 
   12873    12223    10314     9307    10307    12089    13004    14433 
   17715    22732    29121    35020    39456    42893    44827    44870 
   43106    39488    34206    27553    19914    11965     4438    -2254 
   -7947   -12522   -15914   -18233   -19724   -20570   -21071   -21607 
  -22211   -22781   -23240   -23383   -23133   -22425   -20945   -18545 
  -15393   -11753    -7873    -3766      535     4528     7728    10183 
   12468    15371    19245    24122    29971    35874    40026    42206 
   44866    49428    54518    59188    63457    67020    69933    72213 
   73503    73814    73309    72168    70675    68861    66617    64265 
   62322    60846    59522    57935    55930    53763    51612    49416 
   47176    44972    42897    41196    39989    38895    37289    34616 
   30323    24051    16206     7734     -737    -8930   -16655   -23901 
  -30746   -37089   -42491   -46631   -49605   -51182   -51094   -49589 
  -46572   -42178   -36999   -31010   -24561   -18509   -13186    -9151 
   -6717    -5265    -4482    -4059    -3249    -2078     -875      445 
    1730     2947     4117     4668     4256     2897      528    -2593 
   -6158   -10026   -13964   -18027   -22476   -27143   -31628   -35642 
  -38805   -40756   -41455   -41012   -39633   -37642   -35289   -32956 
  -31208   -30400   -30626   -31613   -32809   -33916   -34726   -34976 
  -34746   -34308   -33841   -33547   -33580   -33931   -34716   -36171 
  -37994   -39399   -39939   -39338   -37135   -33217   -27869   -21401 
  -14124    -6463     1010     7678    12880    16479    19279    21929 
   24312    26276    27758    28582    28715    28151    26898    25367 
   24298    24129    24295    23989    23891    24510    24071    22150 
   21281    21300    19547    17527    17556    17734    17742    18989 
   20338    21493    23078    24689    26338    27742    28332    28169 
   27285    25427    22448    18378    13222     7221      876    -5434 
  -11169   -15783   -19499   -22629   -24999   -26880   -28719   -30512 
  -32393   -34538   -36806   -39049   -41163   -43057   -44849   -46792 
  -49193   -52470   -56900   -62361   -68458   -74728   -80627   -85511 
  -89026   -91311   -92715   -93726   -94723   -95697   -96529   -97007 
  -96730   -95185   -91770   -85912   -77066   -64943   -50029   -33423 
  -16494     -778    12656    23962    33732    41974    48991    55653 
   62541    70002    78239    87415    97529   107604   116237   122727 
  126744   127904   125935   120921   113424   103827    92104    78632 
   64144    49482    35935    24609    16196    11371     9800    10692 
   13887    18510    23188    27036    29501    30673    30819    30416 
   30197    30233    30570    31423    32629    33883    34608    34502 
   33860    32798    31491    30463    30059    30417    31772    34334 
   38130    42850    47596    51352    53646    54138    52841    50527 
   47657    44481    41771    39971    39106    39151    39707    40212 
   39840    37721    33862    28481    21525    13402     4315    -5938 
  -17092   -28950   -41522   -54250   -66329   -77048   -85633   -91525 
  -94636   -95553   -95318   -94425   -92861   -90773   -88185   -85058 
  -81606   -77959   -74229   -70758   -67741   -65189   -63120   -61149 
  -58510   -54641   -49212   -42071   -33496   -23977   -13829    -3407 
    6677    16078    24951    33188    40502    46941    52456    57036 
   60796    63500    64433    62517    57726    51126    42544    31434 
   18853     6090    -5973   -16190   -24091   -30177   -34742   -37870 
  -39859   -40722   -40435   -39346   -37680   -35248   -31850   -27835 
  -23799   -19991   -16419   -13182   -10437    -8114    -6092    -4411 
   -2925    -1377      404     2735     5465     7897    10147    12544 
   14574    15910    16444    15903    14505    12905    11954    12555 
   15045    19371    25488    32744    40141    47345    54159    60109 
   64977    68662    71152    72672    73470    73898    74335    75033 
   76124    77405    78577    79738    81037    82375    83826    85520 
   87417    89600    92207    95209    98182   100513   102078   102809 
  102147    99596    95580    91768    88776    84791    79597    75208 
   71734    68852    67624    67829    68504    69478    70314    70432 
   69590    67596    64560    60916    57023    52971    48641    43996 
   39149    34031    28159    21142    13400     5836     -978    -7006 
  -12493   -17556   -22069   -26014   -29628   -33146   -36684   -40358 
  -44296   -48483   -52756   -56963   -60828   -63970   -66284   -67899 
  -68967   -69714   -70240   -70305   -69689   -68486   -66448   -62962 
  -58124   -52401   -46113   -40031   -34820   -30530   -27088   -24147 
  -21346   -18646   -15651   -12071    -8282    -4415     -573     2771 
    5681     8513    11221    13498    14959    15279    14554    13289 
   11527     9131     6645     4569     3109     2492     2687     3531 
    4781     6164     7715     9451    11186    12756    13911    14526 
   14725    14518    13851    12815    11400     9379     6599     3015 
   -1341    -6185   -11182   -16093   -20718   -24906   -28547   -31741 
  -34667   -37358   -39796   -41680   -42568   -42407   -41159   -38576 
  -35001   -31107   -27328   -24379   -22672   -21821   -21721   -22272 
  -22811   -23206   -23625   -23658   -23254   -22912   -22930   -23552 
  -24728   -26001   -27080   -27713   -27772   -27351   -26063   -23456 
  -19915   -15973   -11793    -7702    -4285    -1976     -775     -317 
    -186       12      580     1754     3800     6724    10048    13184 
   16138    19375    23175    27728    33024    38624    44139    49439 
   54281    58264    61286    63600    65466    67140    68776    70270 
   71787    73864    76587    79578    82723    86342    90669    95753 
  101283   105274   105299   101587    96169    90952    87051    83723 
   79991    76195    72521    68897    65370    61943    59031    56777 
   54669    52542    50617    48794    46861    44860    42852    40657 
   38083    35153    31780    28009    24330    21047    18293    16257 
   14862    13862    12842    11269     8686     4762     -385    -6322 
  -12694   -19088   -24971   -29966   -33902   -36701   -38474   -39609 
  -40513   -41284   -41944   -42718   -43733   -44915   -46179   -47374 
  -48292   -48721   -48561   -47868   -46828   -45984   -45926   -46906 
  -49124   -52455   -56402   -60702   -65153   -69358   -72972   -75678 
  -77097   -77041   -75632   -73065   -69538   -65309   -60448   -54834 
  -48541   -41797   -34698   -27495   -20617   -14160    -8400    -4054 
   -1059     1210     2847     4186     6108     9047    12954    17732 
   23420    30007    36834    42816    47270    50511    53662    57426 
   61774    66642    71947    77268    82050    85826    88059    88601 
   87847    86072    83472    80192    76544    73400    71253    69733 
   68472    67921    68748    70264    71189    71230    70451    68749 
   66160    63538    61912    60852    59754    58784    57928    56936 
   55143    52068    47945    42830    36663    29839    22982    16439 
   10359     5260     1618     -681    -1822    -1918    -1376     -667 
       3      704     1243     1113      447     -628    -2578    -5454 
   -9316   -14373   -20109   -25872   -31144   -35062   -37128   -37859 
  -37465   -35233   -31645   -28324   -25711   -23818   -23009   -23176 
  -24199   -25921   -28179   -31225   -34876   -38395   -41310   -43671 
  -45871   -48269   -50981   -54031   -57375   -60567   -63125   -65083 
  -66636   -67816   -68536   -68624   -68082   -66872   -64476   -60553 
  -55005   -47478   -38095   -27590   -16678    -6084     3704    12821 
   21721    30657    39744    49022    58254    67166    75513    82970 
   89336    94559    98699   101651   103113   103166   101998    99463 
   95831    91968    88397    85104    81840    78286    74274    69785 
   64913    59798    54566    49365    44444    40341    37585    36458 
   37156    39238    41535    43456    45353    47255    48527    48775 
   48129    46491    43629    40035    36224    32056    27246    21305 
   13985     5882    -2639   -11577   -20032   -26956   -32168   -35764 
  -37573   -37335   -35727   -33549   -30681   -27906   -26143   -25309 
  -25769   -27510   -29955   -32855   -35917   -39090   -42269   -45349 
  -48775   -52795   -57291   -61900   -65858   -68835   -70958   -71994 
  -72066   -71680   -70653   -69074   -67615   -65979   -63499   -60417 
  -57185   -53757   -49893   -45710   -41483   -37282   -33359   -29826 
  -26374   -22757   -18895   -14972   -11202    -7546    -4102    -1085 
    1518     3820     5800     7324     8185     8215     7322     5492 
    3051      475    -2068    -4406    -6182    -7218    -7471    -6908 
   -5584    -3816    -2171     -903      144     1071     1976     3031 
    4155     5182     6353     7973     9957    12240    15105    18824 
   23402    28655    34198    39435    43811    46910    48325    47794 
   45376    41359    36010    29418    21780    13946     7084     1824 
   -1787    -3958    -5014    -5426    -5556    -5423    -5050    -4549 
   -3896    -3069    -2391    -2221    -2730    -4580    -8289   -12642 
  -16616   -21117   -25353   -27285   -27411   -25730   -21293   -15063 
   -8046    -1004     4978     9426    12173    13487    14089    14462 
   14761    15181    16013    17514    20300    24843    30177    35261 
   40544    46066    50939    54726    57439    59149    59416    58191 
   56382    54202    51546    48579    44778    39423    32728    25737 
   18948    11997     5343      209    -3133    -5133    -5911    -5180 
   -2697     1506     7166    13535    19698    25143    29648    32706 
   34039    34840    36256    38028    39951    42230    44971    48065 
   51082    53816    56034    57159    57458    57908    58554    58840 
   58937    59350    60182    61588    63740    65761    66567    67192 
   69519    73259    77094    80614    83451    85163    85859    85437 
   83429    79648    73982    66483    57827    48598    39083    29828 
   21210    13296     6172     -150    -6034   -12120   -18752   -26181 
  -34585   -43687   -53214   -62801   -71890   -80331   -87943   -94472 
 -100058  -104580  -107759  -109968  -111656  -112644  -112989  -113439 
 -114115  -114757  -115411  -115294  -113750  -111265  -108364  -105463 
 -102479   -98748   -94538   -90746   -87347   -83675   -79333   -74803 
  -70814   -66783   -62124   -57343   -52400   -46647   -39880   -32935 
  -27234   -23755   -22530   -22025   -20771   -19104   -18102   -18270 
  -18301   -16874   -15208   -14268   -13088   -11197    -8762    -5391 
    -815     4605    10306    15875    21094    25761    30107    34636 
   39256    43958    49186    54990    61011    66568    71267    75528 
   79392    82403    84449    85663    86254    86401    86224    85951 
   85895    86308    87404    89309    91936    95356    99774   104970 
  110563   116334   121937   127147   131968   136067   138829   139953 
  139446   137282   133609   128833   123195   116786   109659   101782 
   93215    83991    74054    63713    53861    45254    37841    31255 
   25135    19417    14667    10674     6525     2558     -485    -2778 
   -4657    -6314    -8016    -9796   -11710   -14019   -16706   -19788 
  -23281   -26909   -30568   -34391   -38851   -44646   -51535   -58271 
  -64460   -70439   -75871   -80646   -85091   -89071   -92623   -96078 
  -99338  -102019  -103986  -105177  -105132  -103673  -101404   -98732 
  -95595   -92360   -89549   -86824   -83902   -81519   -79818   -78296 
  -77373   -77253   -77120   -76704   -75973   -74075   -70443   -65092 
  -57939   -49238   -39625   -29782   -20445   -12342    -6058    -1717 
     998     2433     3020     3471     4372     5927     8218    11162 
   14517    18194    22360    27252    32938    39183    45417    51013 
   55765    59724    62787    64863    66031    66369    66037    65298 
   64223    62744    61024    59324    57621    55832    54251    53401 
   53466    54255    55672    57393    58941    60350    61375    61436 
   60589    58983    56501    53292    49861    46684    43899    41527 
   39623    38021    36379    34517    32302    29595    26798    24239 
   21700    19707    19030    19528    21035    23406    25997    28125 
   29444    29810    29161    27510    24626    20199    14564     8561 
    2682    -3000    -7992   -11648   -14959   -19165   -22965   -25610 
  -28339   -31226   -34548   -39421   -45033   -49672   -53738   -58390 
  -62742   -65969   -68245   -69140   -68622   -66933   -64136   -60816 
  -57425   -54156   -51402   -49316   -47571   -45978   -44728   -43686 
  -42472   -41023   -39227   -36908   -34134   -30972   -27381   -23362 
  -18977   -14326    -9784    -5784    -2297      937     4143     7613 
   11400    15318    19556    24367    29531    34830    40241    45562 
   50599    55308    59543    63260    66636    69804    72905    75983 
   78653    80404    81165    81094    80005    77586    74060    69877 
   65120    59674    53400    46212    38288    29912    21318    12731 
    4475    -2896    -8981   -13733   -17141   -19220   -20079   -20016 
  -19640   -19623   -20454   -22421   -25394   -28771   -32042   -35096 
  -37838   -40046   -41618   -42542   -42939   -43214   -43663   -44237 
  -44774   -44898   -44281   -42901   -40721   -37837   -34458   -30662 
  -26603   -22401   -18153   -14210   -11064    -9356    -9605   -11423 
  -13991   -17279   -21660   -26809   -31938   -36662   -40912   -44440 
  -47249   -49614   -51290   -51978   -51843   -50958   -49460   -47627 
  -45411   -42821   -40015   -36953   -33534   -29581   -25012   -19979 
  -14701    -9552    -4965    -1051     2310     5181     7585     9461 
   10803    11759    12502    13582    15757    19320    24149    29922 
   36159    42380    48358    54158    59903    65778    71887    78150 
   84602    91098    97261   102970   108034   112186   115457   117836 
  119207   119500   118560   116300   112743   107852   101681    94520 
   86887    79286    71938    65064    58827    53103    47973    43672 
   39967    36479    33110    29629    25831    21968    18412    15447 
   13179    11710    11386    12300    14155    16629    19365    22128 
   24818    27224    29088    30167    30440    30073    29110    27582 
   25724    24102    23041    22314    22052    22378    23021    23945 
   24778    25209    25452    25512    25374    25076    24733    24496 
   24371    24464    24656    24566    23894    22325    19487    15286 
   10383     5130    -1618   -10311   -19353   -27488   -34191   -38975 
  -42337   -44649   -45000   -42760   -38891   -34724   -30036   -24300 
  -18166   -12032    -5584     1171     7794    13885    19204    23494 
   26574    28485    29442    29813    30044    30482    31044    31419 
   31501    31131    30127    28554    26402    23457    19497    14388 
    8213     1108    -6906   -15647   -24773   -34121   -43640   -53155 
  -62353   -71045   -79293   -87109   -94419  -101145  -107035  -111944 
 -115977  -119168  -121624  -123401  -124348  -124624  -124563  -124102 
 -122981  -121222  -119080  -116795  -114613  -112616  -110858  -109768 
 -109435  -109561  -110207  -111230  -112359  -113806  -115616  -117664 
 -119954  -122287  -124385  -126004  -126897  -126917  -126041  -124358 
 -121888  -118581  -114502  -109698  -104215   -98210   -91926   -85865 
  -80310   -74941   -69623   -64506   -59570   -54694   -49545   -43849 
  -37831   -31765   -25732   -19933   -14697   -10003    -5537    -1300 
    2952     7524    12354    17941    24505    31568    39092    46961 
   54643    61937    68810    75044    80510    85281    89535    93379 
   96854   100156   103398   106447   109070   111036   112263   112804 
  112781   112345   111585   110523   109269   108265   107907   107989 
  108250   108813   109667   110568   111376   112048   112412   112169 
  111371   110442   109624   108882   107848   105930   103248   100304 
   96707    92178    87669    83610    79390    75173    71439    68140 
   65495    63328    61019    58589    55846    52271    47790    42319 
   35827    28471    20369    11737     2848    -6055   -14644   -22577 
  -29920   -37338   -45227   -53265   -61234   -69049   -76305   -82603 
  -87596   -91028   -93055   -93984   -93898   -92964   -91665   -90114 
  -88058   -85682   -83038   -79866   -76230   -72027   -67213   -62268 
  -57487   -52888   -48429   -44196   -40621   -37817   -35106   -32022 
  -29290   -27627   -26657   -26172   -26235   -26339   -26112   -25282 
  -23391   -20628   -17631   -14882   -12835   -11752   -11819   -13138 
  -15395   -18184   -21079   -23582   -25410   -26649   -27357   -27093 
  -25628   -23223   -20071   -16698   -13681   -11196    -9684    -9432 
