Origin Time       2011/03/11 14:46:00
Lat.              38.103
Long.             142.860
Depth. (km)       24
Mag.              9.0
Station Code      CHB020
Station Lat.      35.1132
Station Long.     140.1006
Station Height(m) 9
Record Time       2011/03/11 14:47:41
Sampling Freq(Hz) 100Hz
Duration Time(s)  300
Dir.              E-W
Scale Factor      3920(gal)/6182761
Max. Acc. (gal)   79.504
Last Correction   2011/03/11 14:47:26
Memo.             
[...]
  -17147   -16756   -15931   -14805   -13305   -11488    -9604    -8033 
   -7118    -7133    -8193    -9918   -11602   -12538   -12302   -11122 
   -9333    -7069    -4876    -3045    -1058     1420     4254     7210 
    9837    11861    13430    14364    14370    13790    13013    12012 
   10853     9808     8902     7953     6907     5746     4497     3384 
    2605     2242     2149     1962     1617     1239      785      299 
    -148     -799    -2139    -4545    -7966   -11960   -16151   -20366 
  -24266   -27544   -30329   -32825   -34894   -36231   -36910   -37400 
  -37795   -37759   -37097   -35822   -34056   -31735   -28760   -25416 
  -21979   -18672   -15935   -14058   -12949   -12282   -11748   -11116 
  -10188    -8811    -6804    -4180    -1313     1519     4190     6437 
    8243     9914    11487    12664    13156    13032    12722    12453 
   12198    11909    11458    10811    10031     9175     8403     7871 
    7783     8570    10547    13619    17356    21163    24674    27897 
   30906    33481    35264    36280    36602    35980    34626    33160 
   31732    30277    28685    26592    23630    19473    14020     7615 
     710    -6380   -13340   -19797   -25537   -30560   -34970   -38948 
  -42609   -45950   -48842   -51104   -52639   -53281   -52897   -51479 
  -48820   -44951   -40400   -35734   -31770   -29075   -27274   -26139 
  -25864   -26077   -26241   -26204   -25783   -24574   -22498   -19951 
  -16682   -12222    -7374    -2993      993     4512     7325     9446 
   10894    11795    12612    13496    13959    13828    13227    11716 
    9090     6164     3529     1091    -1024    -2893    -5172    -8067 
  -10958   -13227   -14963   -16478   -17562   -18041   -18199   -18187 
  -17881   -17190   -16226   -15325   -14771   -14776   -15642   -17362 
  -19580   -22196   -25098   -27811   -29883   -31154   -31656   -31124 
  -29386   -27134   -24809   -21867   -18186   -14285   -10239    -6365 
   -3709    -2713    -2910    -3617    -4265    -4668    -4923    -5337 
   -6273    -7664    -9102   -10327   -11405   -12259   -12452   -11867 
  -10778    -9299    -7590    -6033    -4825    -4030    -3928    -4607 
   -5630    -6548    -7093    -7123    -6651    -5664    -4282    -2747 
   -1159      359     1681     2846     3960     5140     6382     7378 
    7657     6895     5032     2211    -1364    -5555   -10028   -14194 
  -17627   -19972   -20906   -20568   -19422   -17856   -16152   -14594 
  -13552   -13250   -13725   -15136   -17469   -20252   -23096   -26024 
  -29037   -31660   -33536   -34754   -35148   -34396   -32511   -30058 
  -27766   -25826   -24585   -24509   -25114   -25553   -25158   -23370 
  -20260   -16454   -12601    -9317    -7136    -6335    -6829    -8211 
  -10036   -11942   -13699   -15737   -18560   -21595   -24143   -26083 
  -27340   -27990   -27965   -26962   -24877   -21683   -17482   -12488 
   -6909    -1101     4558     9649    13775    17167    20584    24269 
   27996    31954    35985    39077    40700    40976    39852    37240 
   33404    28876    23889    18228    11942     5434    -1073    -7342 
  -12726   -16566   -18736   -19675   -19843   -19372   -18353   -16778 
  -14647   -12353   -10166    -8094    -6416    -5578    -5829    -7001 
   -8631   -10389   -12311   -14727   -17856   -21642   -25906   -30462 
  -35259   -40059   -44474   -48630   -52700   -56379   -59343   -61411 
  -62353   -61874   -59837   -56396   -51836   -46504   -40698   -34473 
  -28017   -21803   -16066   -10716    -5687    -1313     1970     4378 
    6283     7639     8640     9561    10285    10912    11678    12409 
   12896    13057    12805    12281    11613    10772    10071     9951 
   10409    11254    12375    13440    13953    13736    13021    12264 
   11859    11912    12407    13442    15130    17258    19553    21958 
   24308    26453    28270    29372    29615    29091    27539    24842 
   21414    17553    13269     8705     3855    -1555    -7461   -13651 
  -20221   -27477   -35683   -44561   -53402   -61600   -68558   -73544 
  -76044   -76164   -74122   -70154   -65098   -59654   -54086   -48906 
  -44650   -41602   -39748   -38841   -38566   -38472   -38206   -37527 
  -36181   -34166   -31540   -28295   -24751   -21417   -18348   -15496 
  -13253   -11439    -9280    -6841    -4654    -2706    -1128     -288 
     587     2162     3725     5345     7487     9742    12156    14963 
   17918    20679    23093    25292    27068    27690    26900    25339 
   23614    21792    20113    19113    19032    19671    20651    21618 
   22053    21439    19854    17506    13938     8703     2259    -4604 
  -11154   -16515   -20301   -22583   -23355   -23021   -22283   -21424 
  -20517   -19582   -18730   -18392   -18794   -19930   -21942   -24774 
  -28182   -32035   -36094   -39884   -42969   -45072   -46008   -45684 
  -44124   -41476   -37939   -33828   -29656   -25788   -22403   -19721 
  -17816   -16672   -16298   -16415   -16533   -16616   -17153   -18184 
  -19138   -19666   -19730   -19291   -18373   -17293   -16401   -15643 
  -14840   -13949   -12904   -11684   -10311    -8757    -7095    -5434 
   -3707    -2007     -678      311     1177     1813     2331     3208 
    4742     6879     9241    11396    13227    14708    15730    16581 
   17825    19790    22617    26345    30798    35489    39988    44116 
   47695    50506    52245    52767    52386    51583    50578    49137 
   46882    43734    39728    34692    28415    20801    11801     1541 
   -9508   -20523   -30653   -39397   -46456   -51761   -55655   -58468 
  -60371   -61593   -62328   -62766   -63098   -63379   -63566   -63799 
  -64307   -64983   -65573   -65880   -65697   -64925   -63387   -60756 
  -56915   -51837   -45383   -37842   -29972   -22516   -15997   -10571 
   -6109    -2358      761     3149     5232     7564    10300    13712 
   17842    22150    25990    28932    30765    31393    31081    30155 
   28614    26801    25361    24666    24818    25417    25665    25085 
   23543    20944    17433    13519     9554     5482     1301    -3005 
   -7560   -12004   -15649   -18280   -20271   -22139   -24323   -27125 
  -30506   -34128   -37394   -39612   -40570   -40681   -40450   -40230 
  -40358   -40982   -41891   -42894   -43906   -44799   -45715   -46973 
  -48653   -50611   -52418   -53480   -53537   -52678   -51120   -49249 
  -47549   -46290   -45223   -44003   -42724   -41565   -40402   -39024 
  -37605   -36390   -35097   -33536   -31689   -29286   -26387   -23441 
  -20617   -17800   -15098   -12703   -10625    -9030    -8031    -7537 
   -7454    -7424    -6993    -5805    -3497     -139     3801     7684 
   10616    12159    12260    10680     7734     4074      -19    -3971 
   -7135    -9468   -10943   -11441   -11339   -11028   -10167    -8545 
   -6596    -4287    -1446     1388     3775     5567     6661     7302 
    7708     7722     7304     6726     6185     5715     5337     5107 
    5197     5689     6386     7042     7280     6774     5741     4521 
    3100     1416     -504    -2825    -5534    -7965    -9538   -10500 
  -11305   -11594   -10652    -8566    -5842    -2694      594     3453 
    5413     6191     5548     3718     1194    -2097    -6164   -10539 
  -14731   -18252   -20654   -21436   -20268   -17515   -13846    -9718 
   -5322     -665     4058     8441    12401    15901    18514    19956 
   20272    19693    18546    16935    15075    13374    11879    10467 
    8939     6830     3660     -737    -6109   -12155   -18752   -25701 
  -32590   -38848   -44016   -47785   -49739   -49640   -47468   -43069 
  -36501   -28172   -18549    -8357     1448     9961    16316    19921 
   20628    18705    14834     9779     4197    -1465    -7067   -12051 
  -15674   -17873   -18662   -18164   -16976   -15318   -13013   -10242 
   -7415    -4800    -2707    -1339     -418      409     1379     2692 
    4250     5792     7206     8359     9155     9715    10097    10288 
   10316    10118     9756     9439     9218     9062     9103     9408 
    9438     8370     6063     2944     -749    -4885    -9338   -14119 
  -19146   -24197   -28908   -32718   -35229   -36445   -36482   -35518 
  -33942   -32105   -30261   -28769   -27935   -27859   -28571   -30033 
  -31914   -33681   -34986   -35793   -36162   -36109   -35615   -34698 
  -33280   -31004   -27648   -23327   -18165   -12372    -6424     -972 
    3388     6453     8438     9598    10307    11060    11719    11835 
   11481    10681     9364     7924     6774     6136     6230     6933 
    7712     8296     8752     9130     9321     8761     7110     4733 
    1718    -1911    -5667    -9329   -12823   -15824   -18012   -19194 
  -19679   -20108   -20341   -19919   -19072   -17856   -16146   -14313 
  -12508   -10539    -8251    -5292    -1316     3721     9687    16168 
   22317    27562    32216    36516    40192    43107    45027    45891 
   46281    46583    46836    47111    47131    46500    45239    43505 
   41175    38115    34494    30389    25808    20877    15609    10235 
    5220      773    -3024    -6176    -8936   -11561   -14215   -17044 
  -20188   -23728   -27676   -32103   -36776   -40880   -43676   -44729 
  -43924   -41886   -39371   -36661   -34052   -31725   -29501   -27261 
  -25162   -23490   -22231   -21249   -20697   -20460   -20272   -20126 
  -19788   -19068   -18221   -17277   -15985   -14382   -12398    -9518 
   -5476     -491     5152    11037    16554    21410    25462    28354 
   30067    30735    30142    28244    25279    21363    16523    10987 
    5188     -455    -5522    -9723   -13094   -15726   -17629   -18778 
  -19170   -18928   -18101   -16650   -14503   -11536    -7847    -3737 
     258     3560     6082     7816     8582     8606     8270     7609 
    6631     5301     3424     1163    -1040    -2959    -4386    -5157 
   -5522    -5699    -5395    -4371    -2672     -212     2801     5854 
    8816    11483    13343    14283    14567    14353    13842    13299 
   12569    11439    10017     8381     6534     4594     2786     1314 
     481      660     1962     4270     7155     9978    12362    13985 
   14431    13799    12545    10747     8336     5488     2388     -869 
   -4077    -6829    -8625    -9258    -9180    -9080    -9281   -10024 
  -11725   -14555   -18226   -22259   -26243   -29738   -32371   -34195 
  -35508   -36376   -36736   -36794   -36867   -37005   -37053   -36738 
  -35761   -33959   -31078   -27037   -22506   -18260   -14592   -11803 
  -10261    -9893   -10427   -11693   -13285   -14724   -15568   -15139 
  -12943    -8965    -3479     2998     9826    16454    22486    27643 
   31832    34790    35932    35168    33022    30019    26596    23184 
   20064    17169    14153    10733     6915     2762    -1964    -7467 
  -13465   -19560   -25636   -31606   -37205   -42246   -46694   -50414 
  -53255   -55431   -57324   -58715   -58920   -57677   -55058   -51188 
  -46380   -40824   -34654   -28362   -22488   -17191   -12475    -8484 
   -5195    -2248      549     2829     3962     3852     3091     2235 
    1821     2435     4167     7026    11205    16285    21422    26043 
   29533    31143    30629    28375    25049    21414    18171    15601 
   13558    11946    10699     9552     8270     6662     4465     1510 
   -2234    -6604   -11081   -15128   -18503   -21065   -22599   -22967 
  -22308   -20673   -18018   -14737   -11353    -8402    -6355    -5008 
   -3731    -2045      256     3031     5824     8324    10390    11658 
   12031    11743    10892     9671     8316     7025     6006     5202 
    4502     3971     3704     4052     5381     7376     9535    11604 
   13119    13726    13500    12488    10599     7912     4815     1672 
   -1298    -3769    -5542    -6804    -7644    -7755    -7061    -6011 
   -4945    -3861    -2843    -2167    -2037    -2397    -2934    -3251 
   -3012    -1984      -31     2802     6197     9977    14066    17959 
   21393    24349    26064    25960    24245    20721    15046     7646 
    -844    -9717   -18053   -25496   -31995   -37314   -41740   -45651 
  -48524   -49622   -48984   -46968   -43763   -39662   -35017   -30370 
  -26414   -23241   -20552   -18352   -16534   -14453   -11447    -7242 
   -1880     4285    10800    17376    23712    29412    34178    37821 
   40256    41737    42784    43698    44714    46004    47375    48706 
   49668    49562    48433    46885    45297    43860    42648    41734 
   41118    40613    40057    39299    38071    36275    33992    31169 
   27863    24181    19948    15134     9859     3957    -2735   -10176 
  -18323   -27049   -36108   -45201   -53919   -61827   -68583   -73878 
  -77245   -78229   -76932   -73615   -68089   -60695   -52507   -44177 
  -36215   -29487   -24645   -21547   -19386   -17705   -16475   -15358 
  -14051   -12640   -11209    -9748    -8414    -7517    -7243    -7581 
   -8529   -10115   -12228   -14665   -17083   -18953   -19990   -20273 
  -19851   -18759   -17197   -15355   -13313   -11043    -8477    -5492 
   -1721     2975     8252    13888    19758    25724    31886    38103 
   43826    48604    52212    54574    55768    56060    55876    55510 
   54868    53892    52718    51325    49791    48177    46301    44271 
   42224    39970    37568    35261    33024    30611    27628    23738 
   18656    12123     4193    -4965   -15183   -26247   -37998   -50148 
  -62489   -74955   -87117   -98424  -108674  -117569  -124501  -128978 
 -130818  -130356  -128173  -124494  -119544  -113643  -106859   -99357 
  -91303   -82654   -73635   -64653   -55864   -47415   -39585   -32381 
  -25492   -18569   -11620    -5119      714     5967    10440    14018 
   16846    18896    19988    20021    19214    18147    17310    16906 
   17065    17680    18297    18513    18038    16641    14376    11367 
    7571     3025    -2103    -7750   -13867   -20221   -26336   -31578 
  -35462   -37873   -38974   -38859   -37754   -36133   -34269   -32378 
  -30596   -28914   -27428   -25966   -24387   -22987   -21733   -20348 
  -18986   -17745   -16500   -15327   -14245   -13109   -11973   -10937 
   -9779    -8291    -6553    -4594    -2416     -124     2179     4277 
    5878     6940     7653     8020     7801     6777     4966     2700 
     456    -1349    -2570    -3397    -3927    -3941    -3238    -1827 
     192     2670     5519     8513    10937    12299    12932    13179 
   13186    13349    13675    13866    14078    14570    15646    17606 
   20273    23310    26591    30003    33304    36274    38922    41352 
   43526    45302    46506    47131    47312    46665    44360    40253 
   35078    29226    22273    14048     5149    -3911   -12763   -20963 
  -28497   -35307   -41186   -46369   -50811   -53917   -55198   -54803 
  -53209   -50433   -46542   -41705   -35731   -28840   -21446   -13724 
   -6217      648     6740    11615    15340    18531    21126    22831 
   23754    23877    23170    21781    19705    17104    14454    12192 
   10618     9559     8579     7703     7110     6626     6068     5353 
    4273     2794     1236      -52     -924    -1244     -671      911 
    3241     6099     9225    12307    15137    17615    19886    22158 
   24574    27359    30557    33948    37389    40756    43811    46374 
   48346    49682    50550    51053    51106    50876    50497    49835 
   48837    47389    45410    42818    39180    34326    28699    22633 
   16281     9867     3312    -3341    -9633   -15338   -20265   -24225 
  -27278   -29265   -30104   -30158   -29939   -29842   -29946   -30207 
  -30501   -30644   -30743   -31003   -31596   -32725   -34147   -35268 
  -35936   -36214   -35967   -35258   -34150   -32597   -30770   -28886 
  -27181   -25908   -25135   -24897   -25135   -25492   -25574   -24986 
  -23354   -20570   -16632   -11821    -6898    -2427     1510     5014 
    8344    11930    16028    20645    25742    30988    35793    39908 
   43354    46031    47939    49261    50019    50262    50331    50459 
   50649    50799    50552    49569    47812    45420    42595    39419 
   35767    31330    25779    19109    11605     3753    -3737   -10225 
  -15502   -19779   -23190   -25632   -27241   -28566   -30050   -31489 
  -32378   -32595   -32293   -31353   -29625   -27310   -24652   -22023 
  -20084   -19220   -19323   -20103   -21109   -21771   -21991   -21992 
  -21601   -20640   -19270   -17521   -15335   -12890   -10415    -7990 
   -5726    -3612    -1522      172     1031     1218      830     -268 
   -1898    -3895    -6318    -9237   -12795   -16818   -20859   -24792 
  -28477   -31696   -34398   -36378   -37457   -37780   -37647   -37347 
  -37012   -36758   -36849   -37432   -38326   -39344   -40478   -41560 
  -42375   -43026   -43551   -43666   -43281   -42565   -41427   -39646 
  -37338   -34779   -32175   -29751   -27612   -25562   -23351   -20932 
  -18444   -15977   -13532   -11179    -8750    -6011    -3146     -374 
    2207     4475     6509     8459    10291    12083    14097    16384 
   18803    21268    23931    27011    30347    33482    36002    37808 
   38951    39204    38589    37699    36898    36005    34713    32913 
   30705    28307    26052    24071    22349    20904    19313    17361 
   15548    14175    13172    12465    12110    12185    12583    13224 
   14164    15458    16923    18108    18818    19135    18891    17982 
   16636    14859    12635    10250     7915     5833     4171     2718 
    1219     -296    -1898    -3924    -6531    -9578   -12854   -16060 
  -18855   -21085   -22762   -23905   -24651   -25112   -25107   -24499 
  -23476   -22284   -21055   -19811   -18411   -16738   -14715   -12129 
   -8865    -5023     -871     3358     7729    12227    16644    21156 
   26019    30803    34892    38278    41058    42947    43936    44230 
   43694    42342    40413    38030    35193    31736    27467    22353 
   16623    10672     4785     -747    -5677    -9953   -13562   -16454 
  -18485   -19625   -20203   -20588   -20966   -21534   -22522   -23888 
  -25397   -26809   -27864   -28332   -27946   -26687   -24789   -22427 
  -19959   -17748   -15716   -13616   -11396    -9079    -6724    -4368 
   -1819     1131     4604     8598    12970    17429    21492    24955 
   27901    30331    32459    34587    36804    39230    41990    44943 
   47780    50290    52263    53430    53716    53115    51592    49251 
   46193    42542    38656    34957    31789    29305    27378    25990 
   25193    24861    25094    25998    27410    29230    31172    32883 
   34235    35002    35010    34284    32847    30643    27754    24462 
   20777    16562    12035     7515     3016    -1538    -6142   -10904 
  -15781   -20597   -25315   -29807   -33931   -37741   -41275   -44449 
  -47303   -50089   -52904   -55458   -57448   -58712   -59099   -58785 
  -58170   -57539   -57141   -56919   -56467   -55691   -54896   -54193 
  -53617   -53402   -53567   -53886   -54086   -53769   -52565   -50342 
  -47058   -42598   -37070   -30822   -23985   -16696    -9497    -2689 
    3792     9771    15088    19785    24024    28196    32460    36739 
   41112    45540    49754    53516    56756    59421    61354    62439 
   62740    62460    61613    60059    57952    55480    52585    49155 
   45036    40211    34871    29108    22978    16602    10082     3618 
