Origin Time       2011/03/11 14:46:00
Lat.              38.103
Long.             142.860
Depth. (km)       24
Mag.              9.0
Station Code      CHB016
Station Lat.      35.2998
Station Long.     140.3866
Station Height(m) 7
Record Time       2011/03/11 14:47:35
Sampling Freq(Hz) 100Hz
Duration Time(s)  300
Dir.              U-D
Scale Factor      3920(gal)/6182761
Max. Acc. (gal)   29.751
Last Correction   2011/03/11 14:47:20
Memo.             
[...]
    7454     -437    -4002    -2060     2615     6246     7463     7651 
    8737    11331    14540    16958    18186    19521    22153    25189 
   27330    29377    32476    35091    34704    31792    28633    24893 
   18500     9537      188    -6828    -9461    -8394    -6486    -5401 
   -4171     -578     5784    11960    14950    14314    10657     6173 
    4801     6554     6301     1678    -3889    -6487    -4922     -585 
    3074     3510     2554     3996     7455     8712     6057     2158 
     506     2520     6605     9341     8624     5615     3807     6056 
   11728    17217    19327    17601    14010    10739     8283     6248 
    4642     3149      875    -2346    -5201    -5868    -4164    -2344 
   -3181    -7556   -13742   -18464   -19620   -18891   -20102   -23938 
  -26915   -26783   -25446   -25003   -24341   -21038   -14321    -6442 
   -2281    -4277    -7668    -6531    -2067     1454     4062     8593 
   15554    21846    24354    23572    22418    23096    25790    28891 
   30038    27264    20552    12626     6772     4338     4517     5769 
    8073    12818    19434    24302    24295    20762    19093    22296 
   25964    23910    16822    10706     9792    13001    14618     9649 
    -466    -9971   -15416   -17673   -18694   -18299   -14955    -9380 
   -5023    -3273    -1480     1908     4933     5802     4470     2343 
    2383     6477    13361    20717    27155    31901    34160    33570 
   31246    28125    23135    16704    12564    12223    12944    12948 
   12842    12439    11474    11320    11706     9370     3075    -4445 
  -10881   -16658   -22416   -26933   -28647   -27951   -26241   -23762 
  -20005   -14821    -8459    -2085     2440     4743     6600     9053 
   10107     7420     2713      456     1668     2411     -519    -5936 
  -10579   -11944    -9867    -6609    -3945    -1537     1166     4153 
    7828    12161    14970    14372    13388    17584    27480    36914 
   39108    33413    26221    23976    25645    25269    20621    14933 
   12328    14532    18966    20410    17555    14810    15606    17656 
   16115     9645     2182    -1919    -2210     -667      362     -644 
   -2374    -2528    -1744    -1917    -2522    -2084    -1006      -55 
    1653     4278     5510     4211     2958     4835     9729    14338 
   15336    12283     6729      588    -3188    -2197     1593     3143 
     223    -4606    -7422    -6199    -1611     3937     8314    11196 
   14444    19927    25869    28098    25634    21886    20236    20330 
   18536    12195     3877     -542     1417     6261     8559     6527 
    3931     6242    14522    23508    27381    26740    26135    27022 
   27506    25993    23373    23101    26954    31548    32557    29348 
   23726    18658    17283    18482    17411    13377    10648    10664 
   10120     7299     5782     9173    14608    16683    15589    15320 
   17133    19596    21192    19867    14678    10009    11816    18808 
   25047    28870    31812    33691    33178    29289    22504    15651 
   11024     7665     4032     1128      971     3825     8127    11947 
   13472    11986     9785     9563     9928     7752     2973    -1135 
    -503     5947    14052    17698    14785     8461     2013    -4547 
  -11533   -17558   -21669   -23877   -24319   -23858   -23296   -21720 
  -17795   -11928    -5872    -1285      926      872     -442    -1621 
   -1839    -1434     -495     2107     6643    11688    16323    20325 
   22448    21368    17243    11488     6457     3897     3252     3154 
    3109     3037     2600     1618     1256     3244     7228    10676 
   12050    12206    11862    10642     9068     8143     7621     6881 
    6384     7267     9912    12884    13756    12045    10369    10984 
   12758    13648    13860    14558    16237    19446    24159    28134 
   28759    26140    22354    19133    17416    17676    19559    21145 
   20046    16117    11558     8261     6372     4904     3279     2951 
    6401    12440    15579    13411     9762     8431     9040     8736 
    5089    -1234    -7171   -10503   -10728    -8728    -6388    -5417 
   -6957   -11435   -17626   -23316   -27278   -28756   -26561   -20843 
  -13839    -8080    -4409    -1717     1676     7374    15703    23759 
   27612    27086    25969    26882    27887    26026    22019    18343 
   15595    13873    13870    14692    14382    12537    10315     9606 
   11964    15866    16974    13143     6959     2898     3288     5878 
    6493     4729     3080     2006      583     -719    -1592    -3675 
   -7837   -12235   -14646   -14148   -11406    -8844    -8403    -9460 
  -10710   -12409   -15133   -18439   -21717   -24146   -24410   -22260 
  -18820   -15030   -11199    -7472    -4145    -2356    -4024    -9079 
  -14393   -17841   -20123   -21555   -21181   -18981   -15757   -11024 
   -3270     7346    18334    27413    33417    34419    29274    20964 
   13446     7046     1203    -2347    -2446     -365     1783     2292 
    2024     4817    12415    20562    22456    16038     7249     3868 
    5637     4888    -2122    -9921   -11188    -5132     3001     7781 
    7395     4157     1911     1728     1873     1477     1402     3043 
    7149    11685    12562     8918     4626     3249     5765    11929 
   19292    24126    25315    24800    25366    28245    30923    28808 
   20378     9702     3307     3951     7863     9114     5800     1165 
    -648      871     2657     1635    -2357    -6229    -6410    -2751 
    1234     2591     1852      722     -796    -3202    -5560    -6375 
   -5056    -1994     1823     5480     8800    11291    10859     5241 
   -5160   -15862   -20960   -18730   -13241    -9980   -10151    -9727 
   -5444      162     2259      251    -2914    -6264   -10921   -16644 
  -21052   -20696   -14586    -6534     -557     3799     9395    16700 
   22598    24117    21853    19387    19820    22382    23270    20300 
   16241    16646    23129    30774    33914    31924    28255    25798 
   24132    20880    15477    10927    10770    14455    17235    15216 
    9053     2052    -3368    -6427    -6996    -5202    -2525    -2163 
   -5684   -10602   -13562   -13846   -12744   -11781   -11833   -12145 
  -10753    -7611    -5647    -6337    -6437    -1881     6396    12720 
   13201    10359    10187    15517    22380    23920    18494    11304 
    7836     8056     8243     7013     6702     9557    14581    18523 
   19905    20871    23834    27200    26923    22612    18685    18413 
   20132    20424    18018    13583     8361     3455    -1083    -5741 
   -9757   -11504   -11084   -10720   -11660   -11611    -6970     1550 
    8655    11439    12166    13390    15278    17154    17588    14730 
    8811     2892      522     2198     4594     4737     3121     1642 
     756    -1020    -4595    -7124    -4837     1263     7163    10960 
   12680    13204    14663    17543    18769    16372    13034    12136 
   13223    13383    11187     7891     5305     4046     4309     6808 
   12421    20740    29310    35630    38546    37582    33606    28932 
   25169    22125    18960    15953    14519    15162    16329    16221 
   15008    14067    13961    13636    11177     5775    -1360    -7840 
  -12067   -14776   -16842   -16614   -12256    -5145      776     2354 
    -182    -3707    -5297    -4873    -4880    -7038    -9084    -6514 
     383     4767     2137    -3460    -5115    -1179     3521     3314 
   -1874    -6956    -7353    -2669     2845     3765      -35    -3326 
   -3122    -1442     -858    -1935    -4131    -6559    -7825    -5647 
    1646    12261    21281    25233    25309    24692    23977    21050 
   14694     6749      335    -3087    -4706    -6508    -7902    -5990 
     -76     6507     9475     7689     4750     5459    10440    16569 
   21142    23503    25353    28948    32617    31998    26816    21345 
   18388    16769    13935     8719     2303    -2923    -5975    -8170 
  -10755   -12733   -12390    -9878    -6232    -1192     4817     8969 
    9724     8593     6804     4532     2936     4013     8824    15296 
   18111    13633     5001     -124     2145     8035    11275     9146 
    4144     1813     4266     6690     3723    -3620    -9797   -11106 
   -8991    -7982   -11182   -17030   -20624   -19286   -14949   -10514 
   -6568    -2078     2656     5385     4902     1873    -2594    -6440 
   -6861    -2201     6713    16800    25756    33609    40244    44517 
   45336    42304    36969    32338    29788    27660    23572    18167 
   15138    16191    18589    19373    18823    17891    15778    12195 
    8671     6242     4553     3900     5979    11015    15849    17351 
   15952    14346    14583    16126    15713    10425     1327    -6952 
  -10744   -11037   -11517   -13205   -13519   -10835    -6938    -4437 
   -3690    -2768      298     5419    10221    12446    12215    10544 
    7781     4971     3752     4585     7482    12643    17953    19015 
   14329     7205     1517    -1108     -588     1763     3422     3139 
    2536     3948     8085    14060    19954    24249    27268    29810 
   31796    32605    30744    25067    17957    13855    13379    12415 
    7686      447    -5841    -9587   -11771   -13909   -16567   -18427 
  -16934   -11814    -5880     -924     4010     9717    14738    16663 
   14891    11358     7818     3772    -1716    -7614   -11209   -10754 
   -7321    -3820    -3063    -5039    -6073    -4066    -1497     -213 
     852     1834     1949     1657      616    -3355   -10629   -17459 
  -19247   -15310    -9515    -6372    -6296    -5563    -1771     3522 
    7531     7654     2949    -2698    -3511     1496     8587    14671 
   19947    25513    30750    34822    38736    43521    47418    46870 
   40460    30595    21107    14753    12575    12765    11271     6347 
     345    -3964    -6351    -8797   -13072   -18192   -21167   -20019 
  -15361   -10298    -8782   -12500   -18486   -20822   -16589    -8666 
   -1152     5519    13553    23209    31298    35143    36047    36723 
   37146    35922    33751    32968    34409    36240    36851    36995 
   37773    38923    39358    38099    35349    32024    27966    22936 
   18415    15594    13529    11369    10209    11091    12954    13620 
   11887     8531     5222     2233    -1799    -7458   -13583   -18673 
  -21464   -20889   -17132   -12807   -11599   -14879   -20580   -25196 
  -26639   -25817   -25093   -25140   -24567   -23124   -22771   -24340 
  -25791   -24228   -18373   -10256    -3960     -586     3241    10008 
   18183    24993    28499    28153    26066    25354    26060    25184 
   20801    14747    10912    11231    14190    16185    13693     6818 
     499     -493     3520     8454    10790    10529    10400    11339 
   11505    10640     9841     7977     3881    -1188    -6326   -11478 
  -14774   -13858    -9077    -3019     1980     5400     8345    11238 
   12337    10443     7322     5135     3812     2294      595     -211 
     374     1216     -125    -5580   -13841   -20248   -20695   -15263 
   -7959    -3334    -2468    -2301       56     3278     3256    -1600 
   -8163   -12829   -14948   -14972   -13325   -11328   -10043    -9116 
   -7995    -6879    -6154    -5466    -4165    -2587     -864     1956 
    5588     8662    11252    14411    18849    24391    29156    30850 
   29567    27150    24635    22840    22833    23572    22849    21113 
   20516    21544    23458    25680    26955    25128    19407    11902 
    5513     1216    -1705    -4229    -6370    -6471    -3232     1548 
    4515     4682     3978     4351     5555     5581     3405      826 
    -127       60     -138    -1260    -2609    -2981    -2723    -4256 
   -8956   -14716   -17768   -16764   -14570   -14279   -14145   -10291 
   -3169     2898     4838     3343     1988     3895     9253    15959 
   20758    21210    18257    15040    13736    15160    18907    22669 
   23906    21977    18332    16283    18452    23249    26149    23962 
   17270     9708     4665     3134     4026     4956     4289     2977 
    3043     5086     8310    11918    15204    17964    21543    26651 
   30907    31372    27756    21967    16453    12959    11623    11020 
    9036     4513    -1173    -5391    -8045   -11302   -14650   -15130 
  -12601    -9390    -6439    -3849    -2260    -1795    -1732    -1191 
     532     3865     8929    15124    20944    24960    26669    26319 
   24926    23762    23215    23128    23248    22545    19888    15445 
   10475     6186     2857      -40    -2825    -4890    -5140    -3539 
   -1872    -1705    -2244    -1579      972     4250     6067     5815 
    6057     8914    12894    15930    17790    18613    18852    19187 
   18849    16820    14304    13573    14652    14669    11259     5610 
    1355     1167     4138     6480     5570     2649     1315     4064 
   10228    16763    21047    23020    24022    24221    22485    18335 
   13285    10080     9826    10125     8102     4242     1080       84 
     692      934     -671    -3501    -5319    -4266     -801     2399 
    3402     3366     4225     5230     4458     2577     2409     4947 
    7864     8831     8408     9044    12473    17730    22143    24743 
   26953    29991    33047    33962    32065    29656    29031    29567 
   29912    30933    33744    37172    39777    41709    43441    44465 
   43116    38477    33016    30654    32159    35433    39103    42746 
   46059    49436    52601    53751    51550    46674    41773    39235 
   38442    37136    34040    28569    21016    13392     7840     5051 
    3955     2379     -432    -2941    -4066    -4245    -3754    -2900 
   -2484    -2391    -1690      312     4021     9072    13666    15641 
   15093    14648    15971    18081    19825    21412    23145    24687 
   25716    26290    26393    26021    25528    24490    21637    16844 
   11319     6026      649    -5991   -13630   -19670   -21293   -17199 
   -8764     -218     5551     9866    14366    18455    21202    22233 
   22024    21696    21776    22784    25341    28646    31290    32985 
   34035    33766    30614    24446    17587    12502     9689     8357 
    7886     8418    10354    12975    14595    14419    13138    12194 
   12740    14179    14464    12754    10247     8206     7052     6926 
    7299     7121     6453     6351     7076     7943     8566     9066 
    8922     7127     3869     1001      809     3609     7116     9282 
    9985    10661    13043    16150    16529    13131     8905     7871 
   12114    19850    27124    31674    33489    33475    32305    29187 
   22544    12819     3349    -2811    -5273    -4959    -3108    -1380 
    -406      733     2362     3002      486    -5734   -12481   -15045 
  -12843    -9700    -8214    -7759    -6943    -4727     -711     4196 
    8010     9072     7623     5155     2972     2622     5052     9119 
   12928    14841    14192    12508    11546    11392    11675    11992 
   11692    11166    11439    11630    10639    10503    13298    18051 
   23017    26683    28002    27587    26247    24479    23644    24478 
   26688    29452    30855    30325    29225    27877    25820    22896 
   19183    15743    13162     9732     4409     -890    -4046    -4848 
   -4442    -4036    -3832    -3378    -2285     -947     -723    -1878 
   -2544     -950     2261     4734     5821     7485    10956    14601 
   15165    10679     3159    -3175    -7030    -9998   -12536   -13713 
  -13101   -11696   -11842   -14731   -17600   -15633    -8125     -567 
    1137    -3758   -10788   -14348   -12840    -9304    -7436    -8037 
   -8992    -8739    -7614    -6015    -4392    -3239    -2315    -1081 
    1131     3734     4651     3982     4278     6782    10054    11271 
    9622     8183     9770    12829    13610    10751     6737     5538 
    9048    14871    18120    16873    13810    11855    11095     9632 
    6015      900    -3970    -7427    -8578    -6666    -2726      310 
     291    -2780    -7529   -11707   -13213   -12435   -12141   -13467 
  -14404   -13096   -10018    -7168    -6271    -7135    -7969    -7459 
   -5827    -3546     -997      812     1910     3276     5330     8226 
   10683    10516     6763      -18    -7359   -12538   -14793   -14885 
  -14495   -15488   -18044   -19755   -17894   -12779    -7836    -6028 
   -7023    -8126    -6556    -1508     4009     6391     6838     8683 
   12329    16541    19884    21179    21415    22049    22304    20852 
   17512    13264    10145     9393    10013    10874    12743    16247 
   19756    21823    22821    22963    21993    20751    20911    22555 
   24122    25089    25544    24762    22597    19636    15659    10683 
    6538     4827     5259     7530    11399    14981    16658    17508 
   19838    24136    28752    32586    35437    36278    34243    29797 
   24518    20701    19295    18585    16461    12858     9215     6363 
    3462     -555    -5012    -8856   -12133   -14010   -13661   -12335 
  -10829    -9126    -7492    -5348    -2279     1096     3636     4201 
    3166     2523     3199     3564     2481     1167      982     2573 
    6072    10787    15508    18521    18685    17595    18203    20726 
   22508    21566    18906    17989    20619    23714    23342    19860 
   16307    14041    11461     6732      698    -4130    -6452    -6988 
   -6796    -5853    -4148    -2516     -865     1866     5032     7111 
    7902     7148     4431     1191       18     1731     4695     7241 
    8752     8879     7863     6765     6065     5107     3273      890 
    -809    -1146     -805      -41     2034     6000    11539    17897 
   24209    28862    29694    26732    22770    19964    18153    16444 
   14506    12842    12575    14034    15988    17633    19864    23284 
   26578    27879    27157    26442    26722    25744    21138    13870 
    6250      505     -688     2465     6665    10215    13277    16108 
   18667    20054    19718    18769    18481    18918    19451    19432 
   18701    17490    15991    14047    10702     5592      648    -1838 
   -2042    -1849    -2389    -4017    -6766    -9231    -9784    -8518 
   -6271    -4019    -2783    -2217     -896     1440     3556     4433 
    4390     4943     7358    11221    15514    19890    24030    27738 
   31445    35376    39257    42715    45192    46259    46339    46612 
   47573    47794    45813    42406    39379    38105    38438    37793 
   34056    27695    19832    11697     4456    -1907    -7186    -9874 
   -9401    -7187    -4333     -652     3318     6037     7070     7142 
    6621     5430     3623     1890     1446     2338     3411     4522 
    6300     8539    10388    11130    10861    10557    11073    12347 
   13007    11608     8995     6940     5207     2441    -1749    -6176 
   -8674    -8440    -7112    -6247    -5894    -5558    -4203     -811 
    3733     6548     5758     3204     2157     3240     4763     5550 
    6277     8308    11939    16716    21552    24301    23811    21823 
   20868    21127    20786    18449    14518    11247    11131    14271 
   17643    18215    16116    12611     7102    -1167   -10916   -19560 
  -24841   -26449   -25970   -25287   -25561   -26083   -25034   -22341 
  -19507   -17527   -16200   -14441   -11897    -9519    -7383    -4137 
