Origin Time       2011/03/11 14:46:00
Lat.              38.103
Long.             142.860
Depth. (km)       24
Mag.              9.0
Station Code      CHB029
Station Lat.      35.6948
Station Long.     139.9176
Station Height(m) 3
Record Time       2011/03/11 14:47:30
Sampling Freq(Hz) 100Hz
Duration Time(s)  300
Dir.              E-W
Scale Factor      3920(gal)/6182761
Max. Acc. (gal)   150.366
Last Correction   2011/03/11 14:47:15
Memo.             
[...]
   20043    26321    28256    25798    27033    36394    46347    52301 
   57470    61450    64758    70969    79138    85872    86139    77258 
   67312    64451    64887    60610    50778    43501    42413    42165 
   45338    55716    62724    59740    51776    41797    32274    25223 
   18174     9920      334   -10415   -16874   -13544    -3790     3589 
    4612     1870    -1148     -225     4381     1860   -10764   -21150 
  -25596   -29699   -31341   -29430   -29421   -30524   -28059   -23925 
  -22624   -26206   -32734   -35034   -30469   -25326   -20428   -10049 
    2617    10323    15357    21418    26951    32151    37200    39046 
   38150    39894    45755    50913    52725    52839    53975    59323 
   66358    68003    64297    57197    45362    35025    30815    25097 
   17247    13943    10497     2338    -5237   -12488   -23516   -33566 
  -36873   -33739   -26433   -19582   -18268   -20923   -20726   -16865 
  -15639   -17084   -17177   -18028   -18104   -12743    -6394    -2580 
      50     1279     6267    15163    16204    11410    12130    14819 
   15806    21750    33724    44938    52785    60327    65994    66358 
   63527    56288    43395    31274    19914     6171    -3074    -7375 
  -13895   -18441   -16706   -13860   -11763    -9316    -7823    -8511 
  -11591   -17472   -26625   -33174   -30949   -27089   -27311   -26853 
  -27215   -31088   -30336   -19212    -2483    14356    29177    39446 
   44062    43095    34899    23433    15008     4765   -12809   -33288 
  -51710   -62708   -62401   -58093   -54966   -46977   -35025   -25140 
  -13926      -40    10556    15529    16056    15120    15320    13402 
    7850     4131     6350    13748    22642    30971    40385    49328 
   55418    61504    67787    71859    74879    75716    71681    65486 
   60395    56143    54384    58806    68295    75650    74865    69546 
   68038    71639    75052    70230    52297    28032     5933   -12662 
  -25800   -34220   -42527   -49013   -53149   -60469   -69129   -73270 
  -74727   -76407   -79562   -87155   -96007   -99795  -100013   -99552 
  -99807  -103580  -106642  -101435   -90690   -82412   -77923   -71388 
  -57723   -40645   -29119   -24776   -22266   -19041   -14230    -7460 
   -1890     1403     5358    11873    20595    27622    29253    30086 
   37360    50168    63503    74560    81545    84188    83588    79513 
   69430    53395    37998    28570    25364    27394    31155    34252 
   38443    42194    43668    47922    56844    64792    68853    70134 
   68757    63714    54658    43486    33079    24134    15455     6960 
     123    -4809    -8985   -11428   -11343   -14243   -24567   -37036 
  -47442   -57540   -66625   -74591   -84060   -93855   -98951   -95579 
  -86763   -79193   -73400   -65450   -53352   -38847   -29232   -29797 
  -36030   -42634   -45997   -39274   -23629   -10241    -1915     8538 
   25007    45908    66318    80938    89489    95385   101830   108923 
  111917   107607    98586    89404    85506    87980    89806    87304 
   83858    81874    82465    84752    83137    73504    59007    44660 
   30817    17753     9625     6120     2441      -18     -850    -5201 
   -9216    -7955    -9256   -16713   -22698   -22851   -17195    -7197 
    1875     6371     7763     7622     4875     -752    -6390   -10559 
  -14674   -18510   -19669   -17066   -11412    -1671    12944    28703 
   40970    47725    50886    53138    49566    35090    17384     5594 
   -1921    -5983    -1655     7395    13582    21742    36954    52055 
   60348    63834    68655    76341    77851    66339    48524    31208 
   14692     -243   -13542   -23403   -26633   -25933   -22817   -15050 
   -6766    -3584    -4998    -8235    -9391    -9341   -16247   -30954 
  -44735   -51108   -50187   -48378   -49818   -50518   -48861   -45758 
  -36044   -21526   -15474   -20383   -27390   -32060   -32623   -31385 
  -33590   -33854   -26854   -20101   -15156    -4415    10805    24312 
   35155    44086    51697    58660    62890    61211    55780    52327 
   52356    54461    56663    54827    49656    46275    44550    44583 
   47448    48390    50138    62749    81074    92624    97139    99496 
  103956   113404   119347   108636    84796    62919    47107    32657 
   18636     3652   -11664   -18987   -16397    -9107      898     7100 
    6000     6413     9269     6386    -1123    -7109   -11305   -17034 
  -25148   -34849   -46930   -60832   -74648   -87371   -96188  -100754 
 -104099  -103431   -97323   -90454   -80033   -62910   -45078   -26515 
   -3547    18376    34410    44736    48757    50447    55649    59333 
   54496    46011    38897    31188    27685    34967    45278    49872 
   52491    57790    65420    74362    81522    80678    71033    60030 
   50940    42382    38052    38358    35795    29215    22588    16458 
   13997    13796     5882    -9730   -24595   -35340   -41305   -45055 
  -52004   -63324   -77376   -89299   -90553   -81493   -72385   -68265 
  -64984   -56963   -42123   -22928    -5992     4901    14563    28054 
   44146    59759    70589    72789    69525    67204    67410    67019 
   63028    57209    53116    49300    43663    39225    36147    30434 
   25090    22643    17580    11775     9970     5717    -2776    -7851 
   -8396    -7063    -4329    -2389    -1518      789     3900     4133 
   -1199    -9229   -14124   -15594   -17281   -22747   -34415   -45823 
  -46908   -40611   -33658   -24569   -16179   -12616    -7441     2820 
   13013    17720    12665     4699     9236    24733    34542    32242 
   26806    29021    38966    47827    50671    49944    48498    48525 
   51831    53594    45858    29257    13067     5087     2872       55 
     110     9668    25559    41244    55038    66857    76041    81275 
   79281    69728    58303    48259    36510    20773     4173    -8993 
  -19578   -29863   -37972   -43164   -48141   -53493   -56193   -56293 
  -60145   -67025   -67872   -65349   -68832   -78411   -90931  -100268 
  -99018   -91082   -81542   -71304   -68258   -69182   -57497   -37042 
  -25544   -26783   -32741   -33908   -26991   -15216    -1015    10892 
   14975    14682    15222    17130    22593    31515    40847    51950 
   62586    68051    73972    83078    88449    91195    95962   100096 
  103863   108890   110334   107163   103932   101201    99939   104466 
  112623   116929   117426   119878   123145   123419   123213   122953 
  120389   120927   127042   128678   120257   107545    94122    80407 
   67578    50599    24740      268   -12076   -17952   -23674   -30613 
  -44134   -60370   -68978   -75707   -88102  -100426  -111747  -121787 
 -121351  -115188  -117255  -122447  -120011  -112702  -105844  -101368 
  -98881   -95138   -89100   -80532   -68836   -58398   -55098   -58763 
  -61641   -58751   -57266   -61246   -63409   -61707   -58904   -52230 
  -37491   -11780    21124    48003    63455    74860    85139    91250 
   91659    83018    65011    44078    22532     2284    -9511   -16942 
  -30465   -44700   -53182   -60853   -66159   -67352   -71984   -75281 
  -64965   -49865   -44282   -40804   -29237   -14639    -4244    -1799 
   -7277   -12536   -13976   -16577   -17946   -18857   -31316   -48927 
  -52426   -48314   -55021   -69434   -76827   -69168   -44183    -6196 
   32840    63104    83601    98915   112624   122965   127307   128310 
  129777   131856   134570   138333   141697   142998   140567   134288 
  126057   114967   101602    94170    97024   103536   108865   115818 
  126939   139659   149895   155779   153623   142067   128879   119107 
  108637    91522    63660    25972   -14876   -50817   -77840   -99028 
 -118945  -137455  -152786  -163641  -169014  -172843  -178553  -180965 
 -177867  -173591  -166403  -155132  -147111  -143802  -138994  -130622 
 -117822   -99214   -80057   -66489   -55486   -42878   -30367   -16879 
    -157    15634    28680    41393    50226    52568    54196    60008 
   71668    88581   101733   101439    90283    74124    52582    28578 
   12224     9282    14945    23258    35572    51545    63081    65417 
   58559    40814    16504    -4604   -22323   -41790   -61917   -81682 
  -99614  -109153  -109045  -101986   -87473   -70280   -57130   -47270 
  -40420   -38331   -38039   -35648   -28850   -16590    -3736     3691 
   10138    21022    30600    39108    55258    74819    90034   102091 
  108798   109478   111866   116418   116122   111598   107816   102483 
   91117    78803    70872    64132    60007    60971    62166    69604 
   90554   106506   103055    92327    81163    67676    52754    30512 
    3385   -15863   -29490   -39441   -38507   -35580   -37854   -32899 
  -18239     -646    19887    34170    31989    19135     1884   -16764 
  -31497   -39272   -37035   -27371   -22841   -28380   -41131   -62558 
  -84880   -94349   -92982   -87868   -80344   -74294   -70280   -60581 
  -44990   -34451   -32044   -29243   -20836   -10160    -2764    -2910 
  -13135   -31142   -50397   -66023   -77545   -84926   -84175   -73369 
  -58592   -45299   -37962   -44306   -55644   -50932   -34945   -28805 
  -33065   -38766   -47373   -56265   -57087   -54764   -56473   -55219 
  -43996   -22534     5088    25369    30003    29027    28764    19402 
   -2173   -23373   -35814   -40244   -36443   -28110   -18860      170 
   32755    67582    98207   123728   141523   155673   168766   174786 
  175521   176803   174393   164618   151129   138570   127455   112052 
   88402    59854    30120      953   -24339   -42994   -53087   -53028 
  -52187   -66297   -90548  -104017  -101241   -91793   -80483   -67367 
  -53830   -42810   -37825   -37663   -35744   -27001   -12951      799 
   14405    30476    45661    59218    71312    76840    76368    72325 
   60985    43877    25633     3636   -23956   -54387   -81513   -93683 
  -89154   -80430   -71596   -56722   -31854     3441    37719    54522 
   53993    42059    17265   -14409   -41776   -63475   -82560  -100145 
 -118160  -137107  -154179  -166624  -172752  -171170  -159937  -139451 
 -114263   -85111   -51713   -20481     5219    24070    29459    24465 
   22329    27894    42486    68033    97022   122379   145130   163910 
  177458   187247   189924   186581   186710   190068   189840   187880 
  186060   182248   177612   168082   142197    98325    44983   -11125 
  -61317   -95185  -112570  -122166  -128744  -131391  -131160  -130333 
 -129021  -128579  -126690  -111701   -78940   -41522   -18505   -24537 
  -56118   -89764  -112826  -130719  -141613  -142671  -146328  -160760 
 -176762  -184307  -181952  -168172  -138344   -95366   -51273   -18802 
   -5422    -2399     6446    18619    26887    40268    61071    80273 
  102033   129027   145025   144360   139975   135937   131592   131990 
  133569   128177   115841    99602    85334    79788    77482    67554 
   48503    24226     -664   -21574   -33950   -33164   -23662   -17700 
  -17037   -11647     3012    21762    40522    55264    54822    33442 
   -1570   -40519   -71236   -82582   -77757   -64119   -43002   -20116 
     617    27032    60607    88597   103583   106535    96801    80287 
   66989    53723    34355    12214   -11167   -33981   -45932   -40728 
  -21626     8127    43067    71725    88569    99449   110176   120425 
  127838   129494   123347   110207    91705    70047    45937    17448 
  -14113   -48660   -88910  -128147  -159490  -185621  -202181  -201167 
 -187170  -164738  -130058   -86434   -43031    -2858    28395    42035 
   40571    29734     8232   -19939   -42775   -56483   -63408   -60211 
  -46027   -24945    -1208    14960    14123      529   -17410   -40504 
  -67066   -83463   -81949   -64934   -32639     9958    51563    86450 
  112509   129076   138427   141068   136814   126269   108560    84995 
   58230    30817    10755     3902     7444    18613    34672    50642 
   61993    63973    53685    32928     9897    -6365   -12803    -7948 
    4712    13897    13929     7937    -2253   -17159   -33206   -43501 
  -47249   -53827   -69076   -84988   -92899   -93669   -91446   -85795 
  -73926   -62579   -62651   -72155   -79302   -76438   -70310   -72948 
  -79084   -75675   -63346   -46116   -24431    -5825     3830    13038 
   30908    55894    83294   107299   120573   122272   117410   108810 
   99817    93829    85809    70430    53754    44752    45339    52728 
   63586    73993    81934    89669    95533    95016    90688    83079 
   68389    52474    44758    45908    51289    55397    55939    56298 
   59764    67269    77231    83866    81549    66405    38360     6081 
  -23750   -52595   -76913   -90894   -98605  -104903  -107598  -104502 
  -95497   -83147   -74108   -73046   -79523   -90942  -105178  -119407 
 -130281  -138575  -142419  -133458  -110444   -78787   -41919    -6929 
   20097    42803    61431    69853    70383    69830    71130    78671 
   95150   115364   131261   134093   120128    98554    79337    66865 
   65301    71604    81208    97715   121123   146574   171365   187381 
  181363   150119   105225    61539    28494     5708   -16923   -43190 
  -66661   -87652  -110008  -130118  -142870  -144767  -135472  -121389 
 -112343  -116338  -131007  -144128  -150595  -152514  -147094  -133883 
 -119567  -109555  -106584  -108851  -109939  -107903  -103587   -95221 
  -84266   -75616   -69784   -62540   -51725   -38471   -25225   -15490 
   -7034     6760    25752    48513    76195   103700   127361   151345 
  175961   199227   221764   238224   243473   241041   230437   207114 
  174763   140124   110322    93094    86137    82333    81390    83393 
   85633    88054    92239    96377    96450    92999    88160    77888 
   56398    25553    -5753   -31653   -52891   -71811   -88518  -100283 
 -106607  -108888  -103028   -83772   -51060   -10699    22601    34599 
   24173    -3194   -40780   -77995  -107604  -130984  -147436  -149032 
 -134158  -112391   -91592   -71613   -49568   -28128   -14323    -7847 
   -3873    -3633   -11382   -26243   -39609   -44929   -42613   -29561 
   -5073    18593    33510    44220    49355    43755    34294    27563 
   20895    16379    17745    23142    32562    40387    31422     2963 
  -26381   -40548   -44046   -44822   -39520   -27699   -13509     3182 
   17926    27207    37368    49882    61356    70528    72944    66666 
   54726    40061    28401    26651    38931    64097    91431   110817 
  125240   139123   149741   157074   163115   167689   171260   170126 
  159077   142679   128363   115945   103987    93726    84805    76679 
   68233    53736    31446     9863    -4829   -11826    -8599     1683 
    7679     3360    -7533   -22199   -42137   -62158   -71191   -66889 
  -55404   -42666   -33930   -31125   -32106   -36041   -41727   -46083 
  -49234   -54631   -63565   -72482   -74853   -66094   -49504   -32314 
  -16542    -4013     3719    15526    36473    58488    80153   105209 
  128249   145637   159114   165735   165002   161550   153667   136474 
  107681    65898    16061   -31972   -71564   -99167  -115545  -125923 
 -133253  -137206  -138177  -136085  -127455  -108358   -78884   -42986 
  -10433     6359     7599     1811   -11165   -31978   -56697   -84717 
 -111132  -128475  -139229  -146956  -148456  -142475  -132348  -117671 
  -91875   -53189    -9188    28217    48292    53366    53202    48349 
   38115    25366    10066    -6262   -20267   -32483   -45912   -60345 
  -72441   -81312   -86592   -84184   -72533   -55471   -33437    -7038 
   15037    31005    48704    66859    80278    90452    99242   107761 
  114779   116015   111937   107085   106018   111706   119925   122717 
  117904   105139    81752    53057    32358    24004    19482    10417 
   -4353   -23066   -41762   -52659   -51995   -43747   -30204    -9394 
   14954    34111    45166    51609    59044    70654    82427    87404 
   82228    67286    45161    21871     6066      469    -1112    -3466 
   -5416    -4699      300     7079     7970     -437   -15608   -34059 
  -49545   -58857   -65996   -72015   -75570   -77654   -75780   -67659 
  -57303   -49263   -45803   -49035   -58471   -70250   -82160   -95408 
 -111610  -129107  -144124  -156732  -167527  -173282  -172554  -162987 
 -139845  -108474   -80589   -58855   -41119   -27755   -16117     -214 
   19502    34330    40618    45780    54702    62183    63175    58780 
   50721    38505    22164     3423   -13606   -24504   -29566   -29627 
  -22571    -9853     4243    17745    28514    32734    28279    14952 
   -6866   -32464   -53468   -67795   -81252   -95026  -102010   -98768 
  -89041   -76405   -62368   -47929   -35547   -27917   -21839   -13816 
   -8211    -6695    -4602    -1774      307     4647    14069    29049 
   49572    75067   103574   132771   158845   175743   180850   173351 
  151599   124254   107194   105306   113538   127599   145425   165130 
  183935   201130   217265   228202   230084   224348   211012   188183 
  156230   117070    78481    52962    41948    35057    28557    27167 
   31524    38624    47154    54158    54606    48081    38830    28323 
   13546    -8319   -37108   -70759  -106440  -139456  -164658  -179930 
 -186093  -184457  -174339  -153665  -125093   -98680   -83003   -76290 
  -71721   -67249   -65466   -67981   -72857   -77662   -82389   -86701 
  -89609   -91004   -88888   -80606   -66717   -48488   -25862    -1007 
   22690    45183    66771    86493   105637   124567   140132   149990 
  154436   154781   151293   144039   135288   125975   115855   109365 
  109996   115013   122645   131640   136559   134162   124730   106648 
   81520    55562    29980     2662   -24164   -46255   -61963   -73537 
  -84243   -93983  -100133  -101748  -100795   -97811   -90878   -81751 
  -76380   -78790   -86649   -93665   -96441   -94835   -89679   -82191 
  -70730   -51330   -23652     7418    38065    67577    92979   111895 
  127228   139951   145396   141261   129821   113987    99298    91252 
   89351    92168    99268   107179   113870   120358   126172   130719 
  134610   136509   132814   123577   113538   103485    90636    75515 
   59169    41687    24361     5414   -19498   -48846   -76890  -101394 
 -122241  -138528  -149659  -155956  -157969  -155932  -151767  -148060 
 -144440  -140894  -140210  -143686  -149067  -153280  -155120  -153220 
 -145440  -132795  -118064  -101723   -84954   -71949   -63110   -54906 
  -47557   -39961   -27371   -10079    10300    34549    59906    84204 
  110171   137978   162250   177879   184636   184075   175865   162487 
  148298   133403   117910   104249    92480    80699    68807    57234 
   41527    18990    -1643   -13198   -20335   -28115   -38338   -54405 
  -75703   -95910  -114731  -136986  -157966  -168901  -170628  -167824 
 -163485  -161629  -163086  -164761  -166299  -168363  -169416  -168150 
 -162925  -152734  -140078  -127340  -113363   -96682   -78928   -62508 
  -46508   -29640   -15194    -6443    -2230      173     3429     9400 
   19103    32070    44968    56238    67073    77050    86437    95766 
  102888   105338    99565    82985    58960    33546    11796    -5325 
  -21478   -37440   -50522   -59290   -61947   -56453   -43774   -27596 
   -9661    11043    33278    52949    64887    66456    61615    55664 
   50426    45483    39683    32564    23285    12441     2665    -4881 
