Origin Time       2011/03/11 14:46:00
Lat.              38.103
Long.             142.860
Depth. (km)       24
Mag.              9.0
Station Code      CHB005
Station Lat.      35.7353
Station Long.     140.8271
Station Height(m) 3
Record Time       2011/03/11 14:47:36
Sampling Freq(Hz) 100Hz
Duration Time(s)  278
Dir.              E-W
Scale Factor      3920(gal)/6182761
Max. Acc. (gal)   176.113
Last Correction   2011/03/11 14:47:21
Memo.             
[...]
  -15616   -15463   -15130   -17478   -20501   -25781   -33323   -37261 
  -39680   -41813   -42657   -47760   -50130   -40177   -25706   -10572 
    6619    18605    22065    22789    23857    20743    10550       51 
   -4621    -5615    -2252     7276    15922    21424    29039    38154 
   47807    56446    59509    58519    54480    47572    44302    44715 
   42612    38671    34510    28183    20305    12365     5103      473 
   -1564      277     8582    16915    19456    20577    21804    22517 
   26167    31131    32208    30153    28556    27835    28430    31087 
   31982    30842    33698    39663    44257    48223    52212    54736 
   53064    47187    41404    35076    27504    22099    11591   -10119 
  -28615   -32843   -30626   -28032   -24590   -21703   -18661   -15073 
  -13468   -11059    -5961    -5471   -11241   -17001   -24956   -37055 
  -43281   -38533   -31398   -29520   -29696   -24458   -15077   -11176 
  -13350   -14011   -13761   -13051    -9758   -11503   -19362   -19880 
   -7313     9325    18298    16661    11736    11587    16248    18375 
   13192     5874     5945    13499    19056    20483    22048    23039 
   24253    28232    32705    37341    46104    57725    63421    58195 
   45979    34200    30015    33925    41151    48099    50771    52760 
   59666    64911    67719    72623    73822    69138    60523    51562 
   52569    58988    54239    40618    28510    16892     6650     1550 
   -3342    -9504   -12231   -17091   -29878   -41907   -46158   -47124 
  -50110   -57267   -67307   -75682   -80710   -84528   -88237   -89227 
  -85411   -79482   -73462   -66260   -56036   -41944   -29573   -23204 
  -16741   -10157   -10323   -10714    -2919     8353    19506    30372 
   35241    33008    31095    30752    28416    24919    21398    19656 
   22310    27009    29795    31974    38483    50576    63693    72404 
   75601    76799    78558    80001    79328    75831    70930    63309 
   48723    33709    32133    43092    53936    57827    55020    50912 
   51169    55148    60020    60253    49991    35430    27229    26817 
   31212    35900    35470    31057    26882    22318    18631    18443 
   14188    -1208   -21750   -38954   -49412   -55044   -59230   -59384 
  -53634   -45707   -35589   -22286   -11170    -4579     -261    -2152 
  -13484   -27452   -35314   -32271   -19427    -3720    10799    24548 
   35452    38746    32090    20056    12518    14478    21670    29549 
   36721    38787    31364    19207    12483    12941    13508     8799 
   -1175   -10540   -18508   -32568   -46640   -54395   -67504   -79070 
  -68889   -47438   -32498   -22935   -19698   -23824   -25361   -20858 
  -15214    -6469     5375    12182    14043    17798    21499    19976 
   17255    21210    29673    33969    34104    35834    41178    48393 
   50883    44143    34778    30149    30574    34065    34025    27239 
   27292    40315    46323    33533    13602    -2965   -11091    -9215 
   -4839    -2952      846     9347    18263    22009    22984    29628 
   41690    50252    49921    41604    30233    20597    14291    10938 
   13182    24140    34250    34814    33191    29965    20820    13534 
    9995     7163     8817     9760      415   -13591   -23599   -34629 
  -51116   -63695   -65883   -64805   -65702   -65497   -64547   -63478 
  -54643   -39778   -32881   -32248   -26358   -16862    -7336     1013 
    3209     2749     5834     9511    12697    14668    10703     4928 
    5791    11093    14616    15423    13684     9841     6876     5440 
    4895     7999    12609    11262     1582   -12679   -20719   -14476 
   -3138     1975     2447      189    -7889   -16743   -16305    -7682 
    3948    20312    39405    53575    64496    77682    84557    78354 
   69950    64904    59540    60366    72708    87066    95200    99961 
  103633   104464   104244   105665   106431   100540    85098    67762 
   58372    57150    60513    63132    57359    44022    29389    15513 
    6808     8602    15084    16180    10951     2455    -8948   -21658 
  -32432   -40498   -47938   -53120   -50803   -44358   -41726   -45388 
  -55871   -65492   -64711   -60854   -60543   -62082   -71219   -83248 
  -84278   -79283   -74624   -67770   -65143   -64981   -54385   -39923 
  -32922   -26636   -20298   -22825   -29969   -34950   -41534   -50412 
  -58343   -64273   -60976   -42847   -20948    -6066     6970    21317 
   30805    36412    44127    53661    63669    74062    83603    93668 
  103532   105663   100020    96962    97876    92145    72039    47131 
   38649    45913    50395    54805    66967    74677    70993    60536 
   44091    27841    23529    28885    27963    14078     1792     2700 
    5592     3925     4496      560   -14887   -31704   -42066   -43108 
  -32823   -18809    -7750     4087    18634    33600    48086    57626 
   55217    38169    12634    -5811   -12040   -17982   -27015   -32816 
  -35842   -38782   -41069   -40557   -35004   -28447   -29208   -35103 
  -39544   -45588   -52337   -52558   -44701   -26364     -957    13704 
   10333      693    -8658   -16239   -16499   -14632   -17032   -14117 
   -3194     6648    14579    20089    19282    16176    12765     6372 
    -114    -6316   -14738   -22480   -28606   -36779   -46661   -52156 
  -49585   -39471   -23728    -7966     6208    20590    29061    30809 
   34688    43028    54813    69281    81579    89755    97521   107596 
  117868   124341   124932   117511   104315    92396    80563    65410 
   50306    35024    19734    10524     6520     2194     -962    -3099 
  -10749   -23909   -35290   -40862   -42090   -42376   -43766   -47936 
  -54922   -60253   -64323   -71964   -77147   -71520   -58456   -44562 
  -37465   -42459   -49499   -49981   -52069   -59285   -65902   -68248 
  -62834   -50158   -34211   -18935   -10706   -10844   -14685   -18547 
  -19119   -17563   -20393   -28429   -34113   -33661   -32062   -31712 
  -29159   -24389   -17593    -1423    24780    46392    57684    68440 
   81059    89515    90218    83496    73977    65811    63534    72346 
   87087    96331    94712    87285    86273    92048    91563    78232 
   55464    36951    33401    33494    28916    29058    34344    36711 
   36054    30648    16725     3360     -101      489     1715     8852 
   17987    20392    14959     3411    -9193   -17444   -21784   -19925 
  -11233     -977    11243    22794    25826    21951    13051     -860 
  -11459   -14018   -10554    -2426     3113      295    -3249    -5467 
  -15570   -27865   -26660   -10388     9999    21612    22003    19552 
   18090    15215     7549    -3581   -10374   -13608   -17101   -12172 
    1139     9688    10090     5707      274    -5052   -13732   -23010 
  -29839   -38161   -48859   -59988   -70320   -77898   -81793   -84270 
  -86271   -82375   -72662   -64283   -53909   -37873   -25575   -20285 
  -14745    -8899    -6330    -5436    -8325   -18138   -28983   -35794 
  -39089   -34479   -18911    -1784    10899    24751    38234    45774 
   51903    59146    63847    66002    67215    68710    69232    65636 
   61507    58523    51245    42940    41924    47908    57552    68042 
   71579    59307    32829     6754    -4444    -4017    -5947   -11777 
  -17212   -25174   -32986   -33248   -27017   -17939    -8867    -6494 
  -13373   -24419   -33070   -30001   -15527    -6483    -3751     8245 
   22531    25557    25793    29535    34030    41686    49402    53130 
   58562    64011    63333    61909    60922    54549    45825    33438 
    8468   -24739   -55129   -76946   -86080   -87820   -92466   -95553 
  -88568   -74905   -59180   -44014   -33890   -29272   -26344   -22066 
  -18888   -22380   -27744   -23499   -13272    -8273    -7139   -10325 
  -24280   -41522   -51772   -57653   -60624   -54020   -38930   -30130 
  -33766   -40093   -47746   -58722   -59196   -45411   -31145   -18038 
   -6620    -5563    -9313   -13485   -26649   -39763   -36096   -25800 
  -21994   -13350     7460    30572    52445    73052    87938    99260 
  108496   110289   103738    92982    83347    79548    81231    85383 
   87862    85250    81779    78775    66829    45955    29473    21178 
   13009     1829    -6924    -7512    -2694     -921    -1089     3459 
    9454    11819    10915     8405    10794    23100    40127    54856 
   63103    63709    61302    60276    60872    61211    56656    46232 
   36904    30947    22406    13967    16332    27438    36005    40977 
   47880    56862    63624    66122    67019    64411    55406    49443 
   51959    58225    68494    79595    84865    84405    77210    61603 
   41284    22310     9094     -211   -10711   -20635   -24456   -22807 
  -17582    -8297      409     3897     5848    10173    14268    12682 
    2756   -13235   -30537   -43887   -50982   -54411   -56017   -54949 
  -48463   -32982   -13900    -5133   -12274   -26858   -36345   -35835 
  -29835   -24932   -25188   -26971   -19790    -2364    15545    29920 
   43042    55732    69120    80817    83090    74185    59346    40343 
   19136     4249    -2019    -5226    -2682     7570    19558    31109 
   38330    43411    56158    66833    64751    54479    33259     6344 
   -5843     2579    22005    42741    58687    70449    82866    96488 
  109673   121634   127698   121372    98879    64122    32122    16167 
   15365    20207    23093    22317    16993     4954    -9445   -20036 
  -30697   -45080   -56677   -62550   -69704   -82474   -99753  -122191 
 -148277  -170055  -179012  -169856  -145828  -120076  -100086   -83520 
  -69440   -58621   -54490   -59953   -66602   -69265   -75098   -79676 
  -70978   -55136   -43161   -34883   -30548   -27887   -20281   -14347 
  -17735   -22912   -27133   -34606   -40593   -39468   -32380   -20796 
   -4778    13470    30925    47902    64213    79381    97872   120188 
  139902   153748   159922   153622   131282    96004    61479    43547 
   43575    52455    64973    77577    86255    90961    93779    97756 
  103730   107703   107904   102603    85396    56615    23503   -10496 
  -41943   -64324   -72752   -69053   -63527   -66990   -84301  -112578 
 -142339  -168047  -189815  -205905  -214866  -214623  -202532  -181189 
 -155394  -130434  -108093   -84170   -57500   -29621    -4623     9982 
   15383    19802    26927    35834    41937    39307    25400     3240 
  -18298   -31118   -32644   -22858    -5409    14956    38066    60881 
   76586    84288    83786    69641    38183    -7176   -53473   -82376 
  -87551   -78538   -62280   -41066   -24344   -20776   -25321   -27653 
  -25674   -19772    -9052     3403    19276    43189    66949    82031 
   95148   109179   112847    98639    67511    25351   -11409   -28151 
  -29186   -24946   -20334   -18288   -18504   -20691   -21009   -11311 
    3486    13911    20095    20471    15154    10418     6545     1615 
   -2183    -3766    -2317      613      988     -903    -4263    -7233 
   -3512     8015    22357    34826    42184    47078    54149    61228 
   67187    75013    83310    91655   103252   116223   126712   133190 
  134203   129100   116159    95109    70867    45622    19990     4398 
    7579    18138    20138    13084     3385    -5404   -12823   -19322 
  -23048   -23323   -20516   -11296     4623    19633    28932    37987 
   51146    65108    81762   104965   127732   145525   161905   173576 
  175486   171750   164614   146590   107139    40786   -39747  -100774 
 -115562   -89514   -52818   -31026   -18652     -630    12871    12922 
    6575    -9380   -36984   -70277  -106906  -139143  -163879  -185650 
 -198538  -199063  -190259  -162475  -110982   -59115   -33681   -33929 
  -46007   -68390   -96172  -114233  -118201  -111651   -97620   -72950 
  -35240     1169    29248    53868    67960    71027    74639    80091 
   83121    82549    79133    76687    80814    93145   104373   104959 
   96814    84815    77914    89507   116441   137794   144008   139893 
  120287    79266    29199   -10003   -23828   -14990     1278    17588 
   29555    35952    47265    69011    95429   119298   134886   138866 
  127561    98053    54147     4995   -38273   -62734   -61985   -46851 
  -34035   -29613   -31924   -36613   -39175   -37991   -29975   -12791 
    7979    24786    33114    28768    12936    -4015   -13097   -14320 
  -13117   -15553   -23777   -34562   -42302   -45282   -48032   -52411 
  -55165   -55200   -52053   -43142   -27924    -8679    12499    31654 
   41710    42631    42371    39486    24385    -1449   -27672   -49989 
  -70838   -90699  -104728  -110664  -114552  -122910  -137502  -156770 
 -172483  -173225  -149014   -89743    -9712    41844    42067    22419 
    4360   -17560   -34935   -39335   -39058   -40942   -46585   -52055 
  -51534   -46284   -41112   -36979   -26931    -4881    22725    44162 
   56346    66466    81520   100259   117885   130272   128634   103360 
   58173     9960   -27653   -53921   -68136   -61913   -39613   -15959 
   10826    44875    77493   105847   132639   158779   187887   218471 
  241320   251514   248151   230166   201244   162308   112440    69519 
   50948    44570    39816    46446    65679    89055   114896   138632 
  148362   142497   132652   127881   127636   125177   116628   104562 
   91696    77888    62072    43748    21937    -1788   -20772   -32987 
  -44867   -58607   -67644   -68648   -64335   -51836   -23880    17156 
   58959    88452    95721    76545    34266   -20371   -73413  -113749 
 -137401  -152182  -172125  -200222  -226021  -245632  -263280  -271013 
 -261834  -244226  -214477  -163363  -116611  -103281  -105871  -102781 
 -101920  -104202  -103859  -103184   -98009   -84562   -65436   -42685 
  -20312    -1241    16503    33589    47385    58012    65465    68231 
   69909    72213    72779    71774    65756    49959    27196     3469 
  -14690   -25277   -35391   -45662   -46830   -35193   -12100    18819 
   49635    75731    96517   107326   104006    88395    60811    22120 
  -16190   -39579   -44624   -34433    -7785    31580    67794    91892 
  110220   126938   135472   131759   125551   123881   118794   106907 
   88933    55028     5242   -40484   -69709   -85312   -86874   -73305 
  -56034   -46159   -41948   -38471   -33388   -26471   -18867   -12761 
  -12568   -15117   -12887    -7815     -849    11073    25105    39049 
   55002    72467    89448   104911   115502   120802   125198   128129 
  127438   124426   117193   103805    87484    72564    63238    62031 
   68721    81707    95512   102003    98004    88096    75865    57154 
   27603    -8916   -43726   -71439   -89634   -97903  -100805   -99730 
  -89798   -72584   -53459   -33079   -15934    -7526    -6678   -11850 
  -19111   -24803   -34124   -49238   -63907   -74215   -79245   -80036 
  -80886   -82622   -81215   -77145   -75364   -75409   -75025   -76553 
  -79407   -79339   -74098   -63619   -50891   -40499   -35931   -37055 
  -40469   -45525   -51993   -58062   -64849   -72074   -78699   -86040 
  -90561   -87388   -77131   -61424   -41628   -20144     1072    21637 
   39491    48835    48137    42449    36147    31068    27619    25189 
   21450    15143    10218     8890     7349     1386   -10719   -26000 
  -37850   -42688   -40465   -30060   -12669     5317    21297    36385 
   47176    53486    59075    60824    58147    58734    64196    66276 
   57004    36816    12949    -6656   -15933   -13052     -461    17859 
   37641    56941    74971    88341    96296   102950   108988   111648 
  110599   105697    96307    82877    65767    49368    37120    22194 
    3179    -9676   -12950    -9565    -2862     2588     5972     5947 
    1967      307     2302     2062     -310    -1179    -2162    -5541 
  -11517   -20015   -27939   -32680   -36857   -41899   -45943   -46979 
  -40131   -22166     4099    34913    63557    83158    94292    96300 
   87932    76056    62558    40473    10969   -15072   -30470   -35718 
  -33653   -27465   -19925   -13035    -9669   -13683   -26863   -45221 
  -62886   -76482   -83871   -85404   -83833   -80654   -78151   -79215 
  -79177   -74770   -73149   -73905   -71470   -70334   -69808   -64213 
  -57465   -51957   -46097   -42067   -39483   -35619   -31454   -27824 
  -24562   -25071   -27930   -25233   -19341   -15989   -11735    -6392 
    -478    10600    23980    35393    47933    61290    72911    84143 
   93929   100632   105952   107859   102769    92537    80323    68245 
   59420    56242    58212    63699    72942    85699    98840   109624 
  115690   114000   103559    86060    67374    53950    45636    41060 
   39873    38312    35374    34130    34871    36551    36952    30771 
   16096    -4467   -27374   -47561   -63046   -74075   -76595   -71709 
  -67851   -64576   -58090   -52929   -51493   -51591   -51111   -47463 
  -39920   -28417   -14680    -4724    -3379   -10482   -22596   -36565 
  -50261   -61490   -69141   -71874   -67187   -51803   -23986     7675 
   28816    36280    34227    21313     -275   -20183   -35623   -49524 
  -59547   -64262   -64160   -58572   -48927   -36836   -23143   -10798 
   -3347    -1735    -2562     -788     4779    12126    17950    17967 
   12055     3711    -8084   -24703   -39698   -47051   -47558   -43255 
  -35931   -26895   -17312   -11686   -11116   -10172    -8159    -8491 
  -10986   -13151   -12727   -10416    -9215   -11653   -19230   -31440 
  -46622   -62945   -79296   -94470  -104425  -106433  -103197   -97671 
  -89250   -77085   -60914   -40602   -21016    -9423    -6138    -7143 
  -10186   -11271    -5780     4548    15267    26840    42480    61871 
   82729   105282   130543   159632   193088   226439   252446   269159 
  278802   277724   257990   219644   171824   126419    92462    69664 
   52081    37714    28946    25384    19603     6744    -9770   -26559 
  -40696   -50867   -61193   -72355   -81242   -87661   -88170   -79003 
  -66022   -54749   -43862   -32849   -21128    -9627    -4308    -6797 
  -12903   -19651   -22346   -15691     -989    15736    30200    42731 
   54527    64764    74100    84539    96109   106513   111354   107874 
   98850    87752    76371    67304    59712    50691    41852    34145 
   24297    11500     -941   -10544   -18010   -24679   -29898   -33181 
  -34987   -34437   -30625   -24964   -20362   -19027   -22531   -30271 
  -37529   -41361   -42319   -40298   -37152   -34633   -29314   -17919 
   -2300    10186    11297     2724    -5982   -10720   -12051    -8588 
   -1744     4658    11774    20307    27151    32873    39295    45535 
   52570    62287    73237    83256    91976    97337    95315    85207 
   69862    50508    28383     9440    -2208    -9029   -11470    -5914 
    7879    24051    34243    35578    30116    18174     2646   -10369 
  -18567   -22088   -21537   -19059   -16870   -15738   -13813    -9037 
   -3665    -1272    -1934    -5220   -11056   -16735   -21610   -28580 
  -36788   -43259   -47409   -45831   -33909   -14245     6811    25135 
   36339    36549    28761    20291    12709     3321    -7419   -18181 
  -28483   -36256   -40027   -40599   -39052   -36194   -32862   -28218 
  -19260    -6293     3796     5671     1366    -5657   -12742   -16514 
  -17180   -17019   -15330   -11096    -5339     -587     1419     1363 
    -647    -4412    -7202    -7529    -7717    -9775   -11426    -9415 
