Origin Time       2011/03/11 14:46:00
Lat.              38.103
Long.             142.860
Depth. (km)       24
Mag.              9.0
Station Code      CHB011
Station Lat.      35.6021
Station Long.     140.5014
Station Height(m) 2
Record Time       2011/03/11 14:47:27
Sampling Freq(Hz) 100Hz
Duration Time(s)  300
Dir.              U-D
Scale Factor      3920(gal)/6182761
Max. Acc. (gal)   73.450
Last Correction   2011/03/11 14:47:12
Memo.             
[...]
  -11988   -21912   -21996   -13443    -7243    -6342    -7979    -5153 
     304     -167    -3020    -6926   -15793   -21752   -19011   -12604 
   -6252    -1257     2466     7826    15251    18646    12732     3987 
    -257    -7308   -18941   -23686   -25219   -35184   -48696   -54945 
  -52169   -46367   -39861   -30407   -22098   -18372   -15936   -16823 
  -24983   -29975   -24142   -25036   -38947   -41474   -29927   -27885 
  -34587   -35643   -34977   -32922   -18742    -4830    -9395   -15743 
   -9675    -5504    -3036     8543    18452    16690    10109     4289 
     -63      333     5900    10489    12317    13913    10609      -77 
   -6442    -1308     3112     2191     6975    11149     5740     3816 
    5918    -1796   -11512    -5305    12338    19563    11236     -130 
  -11254   -25211   -41547   -55278   -59939   -59359   -59763   -60247 
  -60190   -59849   -59759   -60053   -59072   -55734   -51629   -50813 
  -51939   -48501   -39071   -31876   -35385   -38936   -33290   -34246 
  -41462   -33880   -18857   -13931   -12519   -11236   -18903   -29481 
  -29003   -16785     -961     8408     8808    12809    22858    21800 
    7678    -3773    -8682   -11258    -9074    -2744      371      494 
    -963   -10008   -19390   -16269   -10876   -16899   -27611   -33819 
  -37957   -44410   -50812   -49615   -39737   -32245   -31026   -28392 
  -25871   -25991   -24836   -26575   -30913   -26663   -10917     3797 
     458   -11881    -8785      257    -1379    -1289       49   -15050 
  -33319   -28987   -14250   -12373   -14081    -7756    -4219    -6097 
   -3433     -682    -7624   -18182   -22658   -20575   -15207   -10701 
  -10806   -15426   -21438   -28925   -38849   -41984   -30451   -16945 
  -15136   -11655     8742    28663    31222    29627    30270    26139 
   24849    30569    31008    18983     1181   -10043   -11455    -7077 
    4536    17599    17609     6941    -1520    -5517    -5333    -4741 
  -12962   -21508   -18048   -13248   -12416    -3936     9469    13366 
    7276     -764   -10381   -20664   -24011   -20941   -20515   -23217 
  -22787   -21982   -26671   -31302   -30166   -27414   -25246   -20938 
  -10544     7647    22029    22446    20215    21049    13457     1130 
     983    12104    15405     1996   -11612   -13205   -15881   -25727 
  -31214   -30120   -29953   -35459   -43702   -44827   -37683   -29262 
  -19922   -11568   -11909   -19668   -23728   -20679   -22286   -35114 
  -45390   -42101   -34843   -33293   -34633   -35818   -35152   -28962 
  -18453    -9589    -5934    -5540    -5059    -6666   -11866   -15555 
  -17522   -20817   -22354   -23212   -23729   -18343   -14274   -17081 
  -18608   -20573   -25952   -27123   -20283   -10323    -9621   -17436 
  -14562    -4997    -8680   -18530   -22679   -25776   -27099   -21523 
  -10510     2984    17223    28290    30204    25602    25109    29162 
   26797    16558    10787    10388     4538    -3674    -8091   -12110 
  -15618   -22443   -37218   -47503   -48153   -49192   -48739   -46820 
  -52231   -57268   -51892   -44606   -44325   -47722   -51280   -57164 
  -63182   -59909   -45504   -32829   -29202   -25384   -19348   -25010 
  -43747   -56546   -55119   -52062   -54865   -55814   -48200   -33985 
  -17370    -1854     8798    14580    20335    23797    18499    14165 
   19633    21508    13938     7868     4434    -1591   -10873   -22302 
  -31331   -35227   -33907   -23232    -8151    -5797   -18735   -33073 
  -41224   -43077   -40134   -35353   -30974   -27105   -18379    -2757 
    9272    11803    10519     5884    -3472    -8774    -4059     4770 
   11977    17518    16975     5317    -4232     1113     7549     3124 
   -3196    -3514      395     2701      701     1659    11826    21479 
   18927    12066    10241     4411    -9898   -26498   -46755   -66081 
  -73152   -75188   -82345   -87715   -85707   -79985   -74904   -72113 
  -66867   -53695   -38512   -33458   -40549   -48031   -43814   -30557 
  -21367   -18956   -15259   -11539   -13284   -16173   -18570   -23785 
  -25121   -16695    -9301   -13962   -24305   -27902   -24017   -20915 
  -22307   -24918   -22929   -14617    -5293     1896     7565    12894 
   20118    26017    25041    17776     9032     3988     4657    10930 
   16941    13187     4911     -556    -9624   -18834   -20070   -22728 
  -34113   -46877   -54498   -57469   -57715   -54895   -47769   -39695 
  -37805   -41124   -42906   -44303   -46270   -42570   -34599   -32417 
  -35760   -33422   -23892   -16913   -18333   -25973   -31763   -33989 
  -40747   -49101   -50543   -48297   -44371   -38429   -32441   -20351 
   -2622     8343    14169    21452    24317    19783     9047    -3117 
   -5940    -4933   -14918   -29233   -34146   -35764   -47762   -64673 
  -67067   -55928   -51881   -54349   -47556   -37166   -32359   -24078 
  -12262   -11046   -19499   -25772   -24901   -16705   -11079   -14956 
  -13197    -1342     4924     6772     8104     -447   -12133   -16102 
  -18836   -22484   -19067    -5929     6547     8848     8357     8141 
    2404    -1333    -1539    -9072   -17378   -19212   -26381   -39975 
  -47004   -43747   -35234   -33431   -44846   -54496   -54566   -57738 
  -63141   -60283   -52266   -41482   -30122   -27056   -26619   -18370 
  -11049   -14704   -26988   -39956   -42195   -30431   -15190    -3472 
    6665    12443     7864    -1299    -4804    -5026    -4259     4722 
   16481    18304    15562    15030    13586    10932     3261   -11944 
  -27203   -37819   -41977   -39438   -36795   -37373   -36279   -33287 
  -34838   -35477   -25078   -16194   -19903   -18804    -4160    11118 
   21630    23414    14009     9415    15570    14537     2674    -6775 
  -12793   -18953   -22034   -22174   -20328   -15905   -13879   -15799 
  -15646   -15763   -24453   -37647   -45657   -49077   -50007   -41435 
  -21219    -3928    -1111    -5597   -12201   -20914   -20487   -12445 
  -14950   -23238   -23814   -26461   -36522   -37350   -24545   -14516 
  -10516    -2485     8047    12267     5278    -7807   -14565   -16282 
  -21116   -21648   -12572    -6954   -15064   -25918   -26171   -25510 
  -30211   -23978   -10363    -9610   -15078   -17282   -23891   -28130 
  -17656    -4764    -6149   -18291   -26423   -22473   -18447   -27622 
  -38091   -37201   -28115   -12570     1504     2104    -4119    -6934 
  -13300   -28739   -42605   -48054   -49939   -50196   -52874   -63073 
  -72659   -72418   -64951   -59676   -58841   -51332   -36831   -27294 
  -22708   -24270   -33919   -36272   -27950   -23155   -21077   -16400 
  -14419   -20372   -32926   -39793   -33181   -22827   -15348   -12873 
  -19896   -27898   -29061   -28829   -25222   -17236   -16296   -23638 
  -29805   -29029   -18766    -5859     -920    -3026    -9658   -21725 
  -33065   -37480   -38796   -42500   -42411   -28008   -11173   -14132 
  -27544   -31471   -32853   -37946   -38202   -32060   -20276    -4921 
    2397      -59    -4829   -17384   -38183   -53585   -62966   -71211 
  -70579   -60286   -53993   -54804   -49861   -36116   -21993    -8016 
    5596    14462    19000    16172     5523    -3235   -10928   -23275 
  -29789   -24099   -21176   -26174   -20859    -4178     6447    12386 
   17347    15044    10262     4612    -6356   -10217      472     9692 
    9361     8268     7557     3582     -531    -4933   -13467   -23046 
  -26632   -23000   -16041   -12415   -20529   -34427   -39368   -38658 
  -43328   -53884   -60524   -55612   -50484   -47168   -28259    -9319 
  -14780   -21460   -13473   -12043   -19093   -19534   -14791   -11243 
  -11322   -18783   -30576   -35231   -30279   -22586   -15452   -10156 
   -6001    -1175     1148     -910    -6790   -17744   -27788   -33183 
  -42705   -52168   -47360   -34299   -24936   -16913    -7822    -1303 
    2551     5333     5587     2713    -1092    -7600   -19968   -26627 
  -16901    -5637    -6978   -14113   -16690   -13836   -16542   -28142 
  -35578   -36844   -38210   -35174   -26514   -18794   -14253   -13813 
  -22087   -35849   -37715   -26341   -27114   -40838   -38938   -22590 
  -15081   -14487   -10765    -9468    -9511    -4959    -3083    -2602 
    7740    18850    16368     8851     3531   -11794   -32074   -36922 
  -38240   -51058   -55604   -41487   -22044    -1859    18387    24686 
    7439   -15971   -25560   -26142   -22528   -10188     -509    -6408 
  -16304   -16128   -10827    -9098   -10297   -10729   -11482   -12215 
   -5024     7214     8996     1673    -2788    -5420    -7804    -7529 
  -10488   -19118   -24038   -23991   -31145   -46486   -57274   -61086 
  -65851   -73722   -75509   -60845   -37781   -22748   -18004   -20656 
  -29757   -43088   -59052   -68028   -62193   -55402   -58999   -63078 
  -61406   -60657   -64348   -69652   -72431   -66927   -54412   -47848 
  -46396   -33485   -15274    -7748    -4616    -3147    -6737    -5846 
   -1231      504     6850    17219    20828    13901    -2055   -14689 
  -10672      114     4488     6282     6357     1775    -1383     -122 
    1568     2663     1327    -2806     -494    10319    19847    27950 
   37258    39141    27997     8496    -7836    -7882     4328     7936 
   -5782   -22435   -26639   -26306   -35768   -45766   -45972   -45779 
  -47524   -43767   -37763   -33308   -26240   -18107   -12588    -5367 
    -382    -9115   -23709   -26413   -18378   -14801   -18638   -18965 
  -17360   -20339   -20629   -22637   -36939   -48639   -48321   -52934 
  -64019   -61861   -46382   -35332   -31590   -23707    -7974     3395 
    3097     4018    10090     9318     2629    -2184    -1643     3211 
    3508    -1085    -7028   -17932   -25799   -23943   -20093   -13028 
    -454     7168     5802     2972     2970      940    -4108    -4301 
   -2901    -7984    -8545     7255    29395    41801    40267    27471 
    9239    -3155    -6758   -12526   -23911   -32807   -37495   -40497 
  -40067   -36535   -29151   -15627    -5281    -6520   -12564   -18162 
  -22481   -22922   -24463   -29520   -29984   -27721   -31820   -39229 
  -41828   -37822   -29149   -17598    -5107     3621     3530     -741 
     247      992    -7709   -15828   -12696    -8351   -15127   -24148 
  -23737   -26814   -44212   -59442   -56564   -39969   -22514   -10863 
   -5162    -9161   -22277   -30249   -25160   -13224     2192    20277 
   33469    33155    24558    19955    12751    -2713    -8496    -2755 
   -4717   -10728    -7370    -4519    -8387    -4530     3622    -4461 
  -27144   -50569   -66880   -68075   -58506   -53909   -56085   -58263 
  -61886   -69021   -75161   -77518   -75718   -66851   -56220   -48463 
  -33350   -14658    -6857    -2366     4114     1596    -8830   -15987 
  -14272    -4491     4462     7254    11746    20862    26530    26338 
   26614    29712    27034    12439    -6396   -21059   -32713   -44589 
  -52754   -46238   -22591     -167     4373      338     1549     7397 
   15173    17547     3440   -22856   -47101   -60843   -63259   -56467 
  -43789   -38638   -51566   -67186   -66910   -57300   -52649   -47806 
  -31962   -17592   -18821   -21952   -12198    -1189    -6844   -21928 
  -26456   -25789   -34078   -40722   -39424   -41818   -43027   -33243 
  -25657   -29294   -31145   -24305   -17012    -8837     6970    20390 
   17911     5175    -6316   -16077   -27307   -37534   -45403   -51244 
  -51035   -46068   -41248   -37110   -35531   -32101   -22741   -18455 
  -16237     2782    30490    46506    54024    62754    69623    65334 
   48546    31130    23259    22818    23904    28236    39461    50277 
   50501    43960    42641    41931    27658     6109   -10525   -26309 
  -44840   -59443   -62168   -53531   -48387   -55264   -59876   -57143 
  -58800   -56649   -38456   -19476   -15165   -21705   -27817   -25821 
  -22536   -24158   -20331   -10485    -8680   -14809   -21190   -26312 
  -25870   -20571   -19826   -25690   -31338   -30084   -23900   -23371 
  -30558   -32945   -27805   -30383   -40073   -40294   -33231   -28785 
  -25739   -22076   -23345   -36515   -52196   -58265   -58772   -54256 
  -46361   -46172   -49597   -44411   -35028   -35085   -44242   -46179 
  -37378   -34650   -42533   -45199   -39188   -36288   -32382   -18245 
   -4688    -1757    -3986    -4392     1126     9986    13199    14422 
   24342    37353    43929    46173    49869    56352    57398    48960 
   39339    27937    13238     4689    -2323   -18690   -37393   -48063 
  -51365   -53870   -55607   -47310   -30256   -19854   -18269   -12336 
   -3331    -4364   -12951   -18108   -22346   -34492   -50179   -58575 
  -63657   -74325   -84768   -88314   -89345   -86877   -74545   -59771 
  -51279   -45198   -44458   -56510   -74133   -82964   -77941   -68241 
  -61936   -55968   -48442   -36204   -14324     7531    19586    30248 
   43418    47267    40037    37792    44323    41535    25009    11482 
    5323     -553    -3720      185     7765    14223    18777    23891 
   32488    41622    44271    44347    51148    58150    51434    33311 
   17318     6233    -3064    -6918    -8212   -14583   -23344   -30335 
  -35040   -37036   -36934   -35881   -33961   -31199   -35065   -48620 
  -60942   -69442   -78283   -85080   -89351   -89658   -84852   -81444 
  -80664   -74748   -63228   -57555   -61234   -59043   -47859   -45371 
  -48926   -40571   -23696    -7840     7946    23322    38329    52142 
   56215    49812    46869    53976    62556    68812    78636    90519 
   97027    98447    96773    88247    70924    48733    25525     6533 
    2915    13234    18107    14569    15098    13964      841   -18541 
  -37848   -53959   -61853   -66915   -79207   -89706   -85295   -74727 
  -67771   -59604   -50285   -47271   -52479   -61471   -65116   -54913 
  -33271    -9804    10545    26209    35424    42480    53096    62782 
   63369    53651    38715    24626    16944    21815    34861    37079 
   20475     -923   -17831   -34111   -48218   -55682   -57517   -54384 
  -46580   -36885   -31467   -35323   -42073   -43204   -40808   -36839 
  -30813   -26604   -26672   -31433   -38236   -41022   -40016   -38521 
  -40285   -51103   -64647   -68187   -64235   -58991   -47707   -33196 
  -28957   -31484   -29409   -28976   -28721   -12578    11381    21549 
   19957    15964     4505   -13348   -21947   -18050   -15603   -17873 
  -14158    -4764     -954      756    13406    27400    21780     1808 
  -13640   -19639   -15571    -3466     4505     3369    -2180   -11489 
  -23559   -36778   -49802   -55089   -53666   -58291   -64195   -58939 
  -52734   -57289   -69066   -79601   -78210   -67911   -61190   -54289 
  -42334   -32724   -27561   -21852   -15884   -13196   -11590    -9728 
  -12014   -19389   -26030   -22282    -7177     6097    10064    10405 
   14126    20954    24747    25201    24639    22007    21862    25879 
   28138    29030    28457    23406    17954     8777   -12564   -32825 
  -35245   -29024   -25973   -20468    -8897      545     1672     -912 
    -803     1112      839    -4669   -12575   -13922    -9290    -6265 
   -3139      675    -2688   -13152   -23695   -35114   -45858   -44397 
  -28503    -8092     7898    11988     4576    -4055    -8938   -11250 
  -12216   -11922    -4761     8832    16975    17674    18752    21139 
   22434    21897    17805    10100      972   -10101   -22689   -31242 
  -34761   -35007   -25297    -6334     5059     5678     9271    14262 
    9782    -1475   -13663   -24672   -30892   -31860   -28066   -17468 
   -5527    -2612    -7946   -15983   -28401   -41078   -44246   -43365 
  -48636   -57962   -69067   -80313   -87317   -91449   -90931   -80665 
  -66434   -52721   -34159   -15644    -9392    -7823     3210    15045 
   16137    15896    23061    31867    39485    46941    48332    41128 
   31510    23048    15754     8850     -105    -8131    -7380      462 
    6993    16145    33443    44399    39366    29279    13795   -12165 
  -31405   -33266   -30105   -29807   -30796   -35182   -46657   -59203 
  -61396   -53986   -41819   -22827     -837    16190    24376    22474 
   14116     3322    -5857    -6868    -2092    -1032    -7357   -17780 
  -25534   -30720   -41116   -53195   -57702   -58745   -59843   -54424 
  -40191   -20899    -1944    11262    16741    14546     8523     4942 
    3488     1835     1452     -243    -5569    -8575    -6384    -3765 
   -2503      784     5257     5103     2082     -481    -6381   -10017 
   -3940     2643     3300     3866     8875    17277    22805    22741 
   21856    23936    29743    32318    25137    18892    16554     1892 
  -19732   -28694   -34440   -48242   -51563   -38308   -28231   -24345 
  -20503   -24486   -34000   -37532   -39100   -44604   -48311   -48585 
  -51541   -58316   -64177   -67492   -71529   -76846   -82521   -90391 
  -93377   -82380   -64606   -48226   -35046   -28977   -27750   -28891 
  -33214   -31928   -21827   -11184     -810     7854    11597    18688 
   31846    42125    47738    52444    54727    51937    45878    38388 
   29193    19041     7874    -5305   -22169   -44486   -64840   -71135 
  -63303   -49462   -35499   -25591   -19745   -14430   -12939   -22287 
  -39520   -55813   -66727   -72684   -77735   -83355   -84687   -81712 
  -84535   -97000  -108155  -108418   -96838   -72210   -37630    -5756 
   15791    30257    40307    46304    50286    55481    65738    78668 
   85966    86611    83175    72424    54083    35767    24102    16262 
    3220   -17113   -35558   -45299   -53730   -66211   -71703   -65789 
  -61169   -63348   -63338   -53799   -37683   -26021   -25939   -27781 
  -21507   -14712   -12882   -13492   -20071   -32111   -44725   -57561 
  -65075   -61306   -51655   -44597   -41276   -37308   -32256   -28466 
  -24500   -20377   -16512    -9709      174    11302    22592    30625 
   33341    31749    29267    30832    34967    37193    36134    27561 
   12712        3   -11052   -23551   -34772   -41679   -42251   -39902 
  -37610   -32098   -28200   -29909   -26533   -16460    -9272    -3915 
    2732     7823    10424    12082    13567    10811     1390   -10222 
  -23076   -36154   -41944   -36070   -21164    -4468     7771    13308 
   10199      219   -13035   -30476   -47460   -53051   -48451   -45445 
  -47098   -48110   -48466   -52166   -58698   -65035   -70981   -77346 
  -80236   -73526   -60025   -50336   -46972   -43582   -40698   -41886 
  -42544   -39672   -35473   -32186   -33753   -40856   -49250   -55505 
  -57189   -54855   -51642   -48531   -43371   -32080   -18861   -13810 
  -12385    -5665     2453     7084     5712     -990    -3640     1071 
    6959    13310    20082    22230    20886    21716    24258    24980 
   22768    19115    16778    14519     7054    -4390   -12028   -16333 
  -22514   -24761   -17899   -10811    -8237    -2030     8187    13239 
   15202    21768    28349    27538    21793    13599     -580   -17164 
  -26893   -29866   -27635   -19603   -13523   -11843    -7134     -424 
    4779    12537    23413    31239    31712    25659    16266     6052 
   -2214    -4010      617     3710      978    -4465   -13556   -29153 
  -45248   -54449   -58290   -59717   -57768   -53086   -47677   -40927 
  -31150   -19865    -9433      452     6065     1435   -10898   -24846 
  -36380   -43508   -50226   -56672   -55843   -52056   -55548   -61736 
