Origin Time       2011/03/11 14:46:00
Lat.              38.103
Long.             142.860
Depth. (km)       24
Mag.              9.0
Station Code      CHB015
Station Lat.      35.3738
Station Long.     139.9199
Station Height(m) 2
Record Time       2011/03/11 14:47:44
Sampling Freq(Hz) 100Hz
Duration Time(s)  300
Dir.              N-S
Scale Factor      3920(gal)/6182761
Max. Acc. (gal)   109.777
Last Correction   2011/03/11 14:47:29
Memo.             
[...]
   59169    61421    61295    60789    61709    64509    67848    69122 
   66733    61982    56956    52661    49987    49590    51197    54015 
   57574    60876    60863    54586    42622    29358    19175    12382 
    6793      410    -8472   -19716   -30705   -39523   -47062   -54985 
  -63018   -69220   -72407   -73255   -73163   -72422   -69950   -66067 
  -63280   -62392   -60761   -55202   -45755   -35605   -26492   -18197 
  -11763    -7309    -2744     1253     1193    -1979    -2342     1918 
    7006    11958    18638    25700    31043    35129    38581    41235 
   42683    43379    45750    51591    59827    68579    77817    87639 
   95622    99679    99781    95350    86321    75250    65185    57675 
   52657    48880    45212    41566    38762    37605    38053    39549 
   41080    40802    36797    28825    19233    10975     4841       61 
   -3399    -4922    -4409    -2483     -317     1321     2751     4286 
    5938     7535     7353     3812    -1506    -6698   -12670   -20711 
  -29285   -35003   -36329   -32801   -22716    -7120     8542    19983 
   26884    30879    33311    34911    37186    41753    47823    52263 
   52601    49504    45089    40388    36004    31672    25670    18738 
   16237    21636    30926    39217    48136    60293    72847    82211 
   88367    92266    93715    92029    87887    83763    82238    83747 
   84868    81474    73927    65551    58201    52247    47767    44123 
   40674    38252    38395    41568    46970    52953    57308    58471 
   56867    53897    49651    44051    38080    31176    22200    13096 
    6612     3176     3323     8698    18409    28136    33704    34467 
   32485    28847    24178    21004    22262    28929    38863    48569 
   55982    60445    62995    64192    61038    52471    42670    34159 
   26172    19241    15448    17317    26520    41408    57195    69673 
   78853    86592    91306    90148    84760    78545    71014    61307 
   52149    46096    44185    46858    52160    57763    63484    68441 
   70725    70875    70536    68937    65229    61039    57133    51909 
   45202    39737    37412    36452    33406    26720    18041    10225 
    4073    -1482    -6455    -9950   -12791   -16652   -21502   -27132 
  -34858   -45228   -57267   -69623   -78949   -81658   -79118   -75622 
  -73348   -71694   -68660   -62711   -53775   -43258   -34558   -31666 
  -34613   -39562   -44311   -48440   -50189   -46824   -37037   -22470 
   -5437    12541    29089    42129    51583    58666    64941    71582 
   79657    90443   103807   116925   126555   130968   128926   120343 
  107297    93187    81237    73355    69895    68788    67246    64211 
   58908    50319    38874    26813    14822     1113   -14138   -28887 
  -41394   -49824   -52932   -50575   -44406   -37492   -32128   -30091 
  -33239   -41016   -50038   -58318   -66377   -73455   -76651   -74649 
  -69393   -62349   -52651   -39805   -22914     -424    24997    46464 
   58367    59915    54034    44182    35289    32416    35399    42158 
   51472    59160    62525    63470    62479    58477    51732    43708 
   37700    36672    40342    46419    52868    59232    65201    68817 
   68806    66135    62292    58079    53763    49276    43443    35237 
   26493    19665    14532    10171     7487     7528     9660    13648 
   20968    33447    51506    71306    85762    90540    86255    74877 
   57497    36773    16312    -2926   -19813   -30551   -31910   -23325 
   -7655     9794    24875    35528    39232    33575    21045     6902 
   -6918   -19284   -28897   -37089   -43437   -44007   -37188   -25597 
  -13386    -3865     2148     5539     6467     4871     2843     2804 
    4540     6947     9302    10514     9495     5026    -2416    -8748 
  -10159    -6398     1288    12005    24313    35611    43757    48437 
   50535    51261    51358    50216    47243    43685    40732    37948 
   34955    32106    29373    26699    24967    25101    28452    37289 
   50159    60302    62724    58661    52262    45643    37991    29750 
   22563    14666     4103    -6614   -13911   -16847   -16689   -15279 
  -14000   -13350   -13185   -13190   -12853   -12028   -10530    -6771 
     391     7802    10378     7838     2332    -6388   -17652   -28694 
  -36146   -36807   -31137   -22764   -14381    -8073    -5635    -6951 
  -11017   -16381   -20465   -20935   -17695   -13146    -9058    -5729 
   -4201    -4911    -7053   -10061   -13380   -15685   -14949   -11273 
   -6750    -1797     3017     5447     4684     1562    -3567   -11477 
  -22844   -34339   -39074   -33499   -18267     3796    26457    45484 
   61859    74426    78238    71726    60474    52815    52938    60027 
   71858    86587   102064   115391   124035   126254   121633   112571 
  102164    92410    85266    80114    73521    63333    48842    31404 
   14912     2614    -3719    -4483    -1154     6716    17182    24353 
   25931    24421    21403    17698    16441    19362    23997    28620 
   32971    34967    33897    32123    30304    25987    18309    10690 
    5532     1341    -1905    -2583    -1081     1754     5449     8754 
    9973     8119     4381     1421      183     -523      361     6510 
   17647    29079    37980    44644    50347    56468    62449    64355 
   58703    46899    33966    24680    20720    20817    23161    26400 
   30057    35094    42108    49024    52136    48723    38758    26127 
   17138    15562    20267    28118    37062    45628    50842    50155 
   44321    35366    24445    11999     -986   -11584   -16078   -12141 
     -51    17766    37692    54897    64633    63542    51264    32459 
   12408    -6149   -19412   -24054   -18719    -3249    16598    32989 
   43547    47438    45714    44123    46258    50588    55282    60041 
   64143    66910    68778    69280    67369    62834    55025    44269 
   33034    23167    16016    13068    13799    16743    21164    26328 
   32340    38522    40647    36351    30049    26904    27891    33823 
   46087    61778    75621    86526    96341   103410   103232    93915 
   78334    63270    54166    51350    52335    52261    46768    37802 
   28932    19202     7265    -5831   -17975   -25509   -25521   -19210 
  -10270    -2693    -1160    -9343   -26018   -45266   -62066   -75670 
  -85471   -89126   -86876   -80611   -70643   -57343   -41593   -23897 
   -5179    12224    24709    30159    31127    32442    35926    41629 
   50452    61904    74055    84864    91253    89916    79623    61728 
   40125    20714     8194     4372     9865    23531    40593    55100 
   64381    68268    66320    60564    55946    54619    54983    54684 
   51983    47039    40695    31698    17688     -585   -17239   -27061 
  -30975   -30381   -24050   -13284       79    16456    33854    48212 
   58604    66740    72259    73154    70423    67886    69028    73951 
   78754    80558    78734    71341    57172    39042    22126    10542 
    5230     4120     4966     8582    15672    22793    27272    29233 
   28181    24791    21441    18527    14214     8794     6260     9795 
   20087    36689    56795    76324    92361   102911   107701   108410 
  106881   105122   104918   106815   110934   116574   121855   125258 
  126249   125933   126219   126868   126120   123132   117473   108370 
   96012    82203    68123    53165    36907    19264      113   -18190 
  -31324   -37412   -38899   -40282   -43572   -47215   -49658   -50601 
  -50422   -50783   -54282   -62247   -73253   -85007   -96191  -105196 
 -107892   -98690   -78186   -57335   -44599   -34400   -20125    -4550 
   10733    26569    39874    48531    53956    58100    61796    64921 
   68144    72528    78511    85801    93980   102790   110170   113728 
  114395   114577   114359   111948   106761   100928    97802    98832 
  102298   103882    99266    87794    70185    47126    22485      308 
  -17781   -29418   -32657   -28711   -19652    -8325     -539      128 
   -3465    -7652   -11092   -12877   -12648    -9128    -1237     7988 
   15143    18991    18007    12361     4265    -4887   -14901   -26214 
  -38516   -50387   -60620   -67715   -69359   -64471   -55408   -47006 
  -43353   -45739   -52764   -62759   -74271   -84286   -90375   -91126 
  -84529   -71668   -57320   -43545   -28543   -12743     1566    13506 
   21994    27956    33402    38050    42708    48318    53206    55766 
   55851    53251    47635    40771    35635    32477    28867    23437 
   17276    12406    10311    11526    16507    26086    38515    49318 
   57002    62964    67220    68666    66288    61084    56183    53025 
   50865    49550    49883    51870    53488    51313    43753    33580 
   24792    18902    16601    17924    19667    17962    11371      869 
   -9551   -16072   -18007   -15405    -8977     -431     9232    19748 
   31367    43724    56134    69074    81530    90441    94549    95963 
   96588    94726    89266    81282    71041    59750    48233    34609 
   17686     -823   -17903   -30987   -37931   -38705   -36784   -35938 
  -37433   -40854   -46032   -53307   -60992   -64694   -63112   -59773 
  -56279   -50933   -43342   -35183   -26525   -14937     -204    14783 
   28134    38881    45846    49260    50285    49580    47871    46235 
   45010    43443    41118    39132    39090    42039    47989    55259 
   61732    65439    65165    62553    59377    55656    51945    48834 
   46867    46352    45330    42139    38348    35481    33727    34892 
   40634    48824    55804    61109    66410    70411    69530    62365 
   50698    37987    26676    16823     8192     2466     2143     7065 
   14294    22384    32223    43649    55595    67937    79323    86691 
   89516    89987    89462    88290    86946    86179    85918    84664 
   82230    80726    81634    84204    86368    86203    82907    77191 
   71039    65557    59023    49564    36083    15948   -10886   -38972 
  -62443   -78526   -88109   -94027   -98803  -104986  -112745  -118982 
 -121588  -120244  -115526  -108774  -101623   -95967   -91434   -83657 
  -69425   -52016   -35186   -17565      357    15393    28044    39626 
   49238    55218    56328    53989    50453    46895    45426    47105 
   50460    54210    58310    63255    68483    72285    74123    73949 
   69641    59630    46643    34438    23766    13368     2294    -8620 
  -17288   -22163   -24734   -30072   -41440   -57330   -74744   -90580 
 -102914  -112562  -119682  -123333  -125552  -127977  -127779  -122715 
 -113133   -98953   -80598   -60043   -39911   -21485    -4530     9974 
   22126    33798    44844    54539    62614    68060    69742    67368 
   63118    61024    63453    69643    78080    88158    98699   107564 
  112977   114794   114032   110802   105593    99914    94160    89274 
   86643    85154    82941    79382    74651    69437    63911    58059 
   52793    48803    45869    43774    42681    43138    45882    50684 
   56148    61182    65403    68116    68391    67109    67042    69514 
   73148    76488    80265    86119    93867   101683   107822   110722 
  109295   103661    94810    83935    72814    64180    59534    57952 
   58397    60809    65124    70159    73118    72202    68697    64162 
   58623    51959    44317    36782    31385    28315    26207    24999 
   25209    27336    31366    35697    39808    43199    43531    41520 
   39425    36731    33312    30437    28734    27657    26034    23596 
   20982    18241    14852    11665    11073    14667    22000    30739 
   38321    44039    48917    54293    60245    66799    74851    82811 
   87406    88411    88586    89842    91093    89861    84158    72914 
   56206    34536     9669   -13109   -29164   -39357   -44217   -41467 
  -31547   -15950     4309    26256    46565    63130    75693    84768 
   89531    89444    86141    81917    77537    73655    72890    77653 
   87195    98263   107444   113019   116005   118241   120177   121365 
  121085   118988   115119   108931   100628    92194    84641    77511 
   71582    68245    67771    70161    75397    82081    88695    94974 
   99506   100759    99368    96163    92077    88448    85330    82102 
   78757    75309    71371    66851    62067    56493    49011    39821 
   29753    18935     8060    -1575    -9655   -16518   -22794   -29440 
  -36861   -44506   -50401   -52347   -49586   -42245   -32637   -25013 
  -21924   -23124   -27795   -36959   -50911   -67378   -84288   -99564 
 -111671  -120481  -124933  -124676  -121535  -117433  -114653  -115449 
 -120045  -125670  -126778  -119430  -106119   -91740   -77792   -65210 
  -54423   -42724   -29850   -18311    -8470     -640     5181    10939 
   17345    23995    31192    39096    47990    59192    73373    89043 
  104519   119278   132108   141278   145951   145122   138669   127920 
  113446    97005    82876    74551    72779    76013    81394    85320 
   84771    79507    70825    58970    44295    29389    19046    15768 
   15679    14756    14036    14670    16777    21602    28547    34922 
   39823    44310    48828    52935    56543    59866    62985    65853 
   68048    68328    65209    58072    46755    31550    13803    -4105 
  -16984   -18679   -12201    -7935    -5447     2340    12395    21111 
   30578    40377    48449    51065    45311    34279    22488    13322 
    8261     4930      112    -7334   -15356   -21057   -24754   -29202 
  -37059   -49330   -65192   -82192   -98193  -114338  -130334  -141968 
 -147867  -147952  -138749  -119016   -91513   -58973   -26073      756 
   18106    26460    29236    29744    29495    31595    37715    45154 
   53705    65070    77442    88843    98676   105970   110564   112700 
  111756   107230    99386    87868    71051    48922    25206     5050 
   -8416   -15747   -19136   -19764   -19386   -20322   -22548   -24651 
  -26569   -28433   -28374   -24829   -17735    -6695     6752    18978 
   27802    32182    32375    31571    33381    38247    44461    50256 
   54430    57284    59919    63096    66193    66926    64773    61946 
   60098    59569    60731    64156    69498    75044    79245    82071 
   84556    87191    89877    93523    99696   109072   121228   134513 
  146799   157531   166864   174298   179358   180719   176705   167648 
  155428   142406   130665   120602   111741   103966    97191    91406 
   86085    80649    75317    69081    60193    48643    34839    18943 
    2583   -11843   -23186   -32253   -40331   -46734   -49897   -50017 
  -48892   -48502   -49445   -50556   -50211   -47262   -41146   -31694 
  -20333   -10282    -2919     2911     7396     8902     6174      462 
   -5623   -11052   -15819   -19352   -21259   -21393   -18829   -12532 
   -2822     8421    19220    29090    38364    47392    55677    61675 
   65294    67585    69632    72983    78281    84744    91124    96261 
   98863    97755    93202    86314    77357    66861    55637    43873 
   33924    28565    26687    26226    26238    25715    24130    21211 
   16314     8641    -1583   -12301   -21506   -28601   -33848   -37896 
  -41395   -45156   -49803   -54372   -56849   -56304   -52640   -45257 
  -34184   -21620   -10692    -3089      800      867    -2185    -7658 
  -15459   -24443   -33293   -41806   -49407   -55308   -59374   -61007 
  -59247   -54418   -47571   -38918   -28839   -18982   -11323    -7098 
   -5847    -6160    -8027   -11653   -15171   -16493   -14849   -10627 
   -5895    -1728     3576    10765    18674    26631    34499    42229 
   49877    57876    66966    76212    83935    90996    99245   108984 
  119024   127590   133657   136156   134560   130361   124777   118399 
  111560   103462    93978    83505    71724    59520    48608    38594 
   27886    16113     3433    -9526   -21415   -32338   -43648   -55780 
  -68228   -79653   -88526   -94545   -97948   -98783   -97458   -94868 
  -91849   -88676   -85719   -83505   -82265   -82219   -82864   -83595 
  -84526   -85032   -84134   -81509   -76841   -69767   -60553   -50275 
  -39562   -27729   -14286     -369    12152    22830    32622    41500 
   48387    52448    53407    52366    51298    51861    55395    62034 
   71008    82052    94608   107974   121686   134261   144563   152707 
  157415   156553   150908   143587   137023   132300   128985   126492 
  125249   125193   125910   126841   126835   126185   125667   123997 
  120375   115099   107128    95828    81940    66146    50010    35148 
   21675     9894      201    -7633   -13431   -17025   -18322   -17230 
  -14493   -10957    -7275    -4812    -4690    -6806   -11182   -17704 
  -24641   -30628   -35966   -40086   -41267   -39047   -34489   -28915 
  -23041   -17128   -11382    -6028    -1923      512     2219     3058 
    2297     1196     1443     4281    10787    20349    31447    43564 
   56222    67785    76697    83048    88062    92486    96313    99802 
  103811   108484   112766   116403   120000   123095   124546   123868 
  122000   119616   114813   106759    98903    93950    89660    82718 
   73050    62304    51197    39644    28231    18461    11235     6357 
    3146      514    -2362    -5517    -8799   -11447   -12410   -12211 
  -12124   -13454   -16446   -18081   -16806   -15196   -15296   -17769 
  -21762   -25362   -27952   -29146   -29268   -29684   -29773   -27087 
  -20140    -9595     2382    14209    26652    39904    50866    57247 
   59395    57807    52638    43494    31573    21122    14915    13117 
   15904    22564    31168    39549    45737    48660    47650    43461 
   39025    35792    32606    28366    22869    17048    11831     6117 
   -1002    -8261   -14988   -21856   -28506   -33786   -37076   -38495 
  -39041   -39726   -40496   -40675   -39557   -36234   -31356   -28103 
  -27399   -26410   -23934   -21021   -17687   -13214    -6912     1629 
   10882    18260    23334    27507    31264    34496    38316    43384 
   48750    54175    60330    67248    74213    80374    84829    86105 
   83405    77820    71121    64387    58273    54238    53638    56263 
   61444    68727    76835    83999    89752    94408    97457    98250 
   96117    91690    87229    82145    76781    73352    68813    63512 
   60342    56023    51898    48528    40903    32109    25702    21326 
   20079    18620    14378     9609     6511     7004     9877    11813 
   11531     8995     5820     4363     4454     4105     2503     1439 
    3618     9381    16066    20407    21970    22858    23829    24849 
   26690    28508    28934    28727    28352    27295    26383    26809 
   28110    29010    29335    30296    33305    38645    44750    50384 
   56555    63250    69462    76739    85607    93730   100415   105943 
  109892   113127   116859   121277   125841   129083   130056   129308 
  127344   123435   116925   109461   103255    98716    95939    95072 
   96049    98737   101067   100617    97500    92377    85031    75034 
   62764    49414    36369    26461    20971    17729    15074    11753 
    7373     2573    -3749   -11670   -19716   -27629   -34991   -41357 
  -46848   -51299   -55481   -60508   -65602   -69614   -73118   -77074 
  -81206   -84434   -86398   -87084   -85734   -82352   -78199   -74498 
  -71773   -69348   -66209   -62236   -57802   -52842   -47277   -41695 
  -35953   -28915   -20423   -11820    -4609     1473     6774     9331 
