Origin Time       2011/03/11 14:46:00
Lat.              38.103
Long.             142.860
Depth. (km)       24
Mag.              9.0
Station Code      CHB017
Station Lat.      35.2976
Station Long.     140.0734
Station Height(m) 38
Record Time       2011/03/11 14:47:30
Sampling Freq(Hz) 100Hz
Duration Time(s)  300
Dir.              U-D
Scale Factor      3920(gal)/6182761
Max. Acc. (gal)   38.945
Last Correction   2011/03/11 14:47:15
Memo.             
[...]
  -23166   -27214   -26404   -23755   -23672   -27448   -34372   -43620 
  -53065   -59023   -58772   -53444   -47479   -44462   -44965   -47287 
  -48716   -48478   -48131   -47564   -45443   -42469   -39794   -36857 
  -32210   -26060   -21412   -19819   -18681   -15541   -10905    -6713 
   -4641    -5038    -7652   -12504   -18424   -22844   -24678   -25788 
  -28703   -35256   -46402   -59628   -69153   -70566   -63679   -51697 
  -37772   -24229   -15510   -15727   -23789   -35487   -47081   -54756 
  -54230   -44442   -30659   -19703   -13367    -9884    -9026   -12542 
  -20888   -31211   -38943   -42045   -42048   -39963   -35666   -30992 
  -28326   -27818   -28170   -28722   -30115   -32186   -32415   -28214 
  -20124   -11557    -4499     1825     6761     7514     3320    -3919 
  -13094   -23577   -31924   -35243   -35703   -35484   -32212   -24306 
  -16257   -14488   -19728   -26968   -32467   -36639   -39863   -40031 
  -35855   -30202   -28450   -32421   -37674   -40158   -41190   -42431 
  -42256   -39375   -35398   -32194   -29140   -24761   -19441   -15450 
  -15229   -18853   -23116   -25489   -28046   -33467   -40242   -45923 
  -49448   -49372   -44583   -35190   -23520   -14744   -12685   -16503 
  -22044   -24922   -24887   -25498   -27643   -28568   -27431   -26397 
  -26822   -27706   -28045   -29733   -35670   -43767   -47681   -45287 
  -40532   -37003   -34889   -32954   -31138   -30664   -30839   -29468 
  -27112   -26027   -26769   -28750   -30523   -29913   -26699   -22740 
  -19493   -17188   -15269   -13936   -14099   -15548   -18408   -23468 
  -28927   -31371   -30056   -27734   -26946   -26745   -25579   -24156 
  -22638   -19663   -14792    -9820    -8239   -11560   -16725   -19704 
  -19510   -17206   -12922    -6041      715      439   -10685   -27316 
  -40637   -47502   -49275   -45772   -36808   -26024   -17401   -11900 
  -10316   -13629   -19366   -23730   -27127   -31921   -36708   -38936 
  -40260   -43271   -45246   -40834   -30290   -19130   -11370    -8907 
  -13247   -24477   -39622   -51519   -54224   -49079   -40682   -32343 
  -26564   -24810   -26705   -30087   -33258   -36425   -39280   -40927 
  -41468   -40246   -36000   -30064   -26146   -25922   -26509   -24762 
  -22170   -21823   -23124   -22905   -19976   -15643   -10598    -5089 
   -1659    -3202    -8950   -16373   -24130   -29886   -31473   -31159 
  -31798   -32143   -30749   -28766   -27293   -26305   -26562   -31355 
  -42730   -55247   -60979   -58791   -52466   -46391   -44221   -45885 
  -48531   -50266   -49153   -42301   -29864   -18001   -14494   -20349 
  -28479   -32220   -31641   -30596   -31416   -33044   -33290   -32835 
  -33874   -35272   -34710   -33203   -32164   -31063   -29707   -27228 
  -22098   -16784   -16682   -22820   -29980   -32980   -32281   -31809 
  -33096   -34442   -34321   -32968   -31560   -30103   -27159   -23262 
  -21097   -21770   -23823   -25377   -26909   -29817   -32999   -35635 
  -38485   -39744   -35776   -25604   -12764    -2798     1339     -197 
   -5369    -9961   -10653    -8950    -8839   -11343   -13935   -15032 
  -15907   -17627   -19515   -21328   -24695   -31276   -40039   -48033 
  -52945   -54043   -52688   -50685   -48097   -44526   -39494   -32693 
  -26441   -23677   -24205   -25886   -26708   -25728   -22887   -18463 
  -14198   -12385   -14517   -21054   -29175   -34339   -34534   -30601 
  -26086   -24254   -23613   -21756   -19737   -18758   -17356   -13097 
   -6375    -1483    -1485    -4553    -8050   -13270   -22541   -33274 
  -39829   -40467   -38262   -36328   -34430   -30636   -26574   -27408 
  -33576   -37354   -31580   -17795    -2767     8632    14242    12708 
    4767    -5619   -14976   -23172   -30034   -33972   -34949   -33509 
  -29272   -22506   -14545    -8108    -5826    -7397   -10960   -14505 
  -16164   -16588   -18064   -21209   -24643   -25485   -20774   -11300 
   -2195     1973      179    -6879   -17757   -29071   -36157   -36419 
  -32388   -30632   -35468   -44641   -53489   -59781   -62182   -60327 
  -57323   -55723   -53272   -47563   -41308   -38172   -36136   -32115 
  -29539   -32746   -38911   -41916   -39434   -33046   -25804   -22144 
  -25681   -34866   -44217   -50232   -53453   -54545   -51983   -46759 
  -43285   -41874   -38636   -33506   -30954   -33568   -38428   -40210 
  -36595   -28941   -20139   -13907   -13049   -17406   -24030   -28273 
  -27020   -22008   -17158   -14584   -15208   -18887   -23460   -26681 
  -27368   -25633   -24603   -26909   -29088   -25726   -16317    -5048 
    3021     5543     2459    -5407   -13918   -17600   -15045    -8815 
   -4510    -8658   -21899   -38080   -51065   -57812   -57607   -52154 
  -44125   -35142   -26214   -18681   -13855   -12739   -15960   -22233 
  -28730   -33989   -36656   -33448   -23676   -12973    -7648    -7701 
   -9007    -9301    -9411    -9993    -9651    -8678   -10624   -16868 
  -24201   -28629   -29262   -28677   -29330   -31081   -32763   -33715 
  -34019   -33960   -32432   -27977   -22130   -18362   -17385   -16372 
  -13479   -11458   -15168   -25841   -39810   -52651   -62430   -68627 
  -69514   -62723   -49589   -36838   -31212   -33610   -40519   -48878 
  -56399   -58939   -52585   -38573   -23008   -12510   -10526   -15592 
  -22913   -28002   -29635   -30063   -30627   -29653   -27746   -28145 
  -29434   -26876   -20804   -16897   -19206   -25916   -32583   -36901 
  -38648   -39518   -42171   -45635   -45712   -40612   -32630   -24296 
  -14366    -1604     7947     5596    -7428   -19871   -24012   -22259 
  -19247   -15142    -8601     -639     5433     6417     2331    -3843 
   -9927   -16706   -25742   -35383   -42007   -45342   -46776   -44657 
  -37378   -27063   -17690   -12161   -10763   -13152   -19869   -29043 
  -36364   -39470   -39138   -37571   -35998   -33990   -31073   -27161 
  -22794   -18983   -15325   -11041    -7487    -7079   -10591   -15727 
  -19757   -22710   -24853   -25363   -25460   -26621   -27552   -28571 
  -32851   -39927   -44722   -43288   -36106   -26724   -18749   -14441 
  -14506   -17535   -20273   -20277   -18038   -15849   -16466   -21113 
  -27608   -33532   -39022   -45022   -52187   -59893   -65310   -65702 
  -60161   -50478   -41264   -34581   -28768   -26388   -32668   -43318 
  -46172   -37623   -26098   -17691   -10710    -5410    -6598   -15307 
  -26710   -35892   -42153   -48163   -54717   -58830   -57502   -49881 
  -37472   -24489   -15828   -13044   -13929   -17385   -23929   -30069 
  -30193   -25527   -23137   -25037   -26842   -26081   -22888   -17053 
  -10697    -8657   -14368   -26832   -40868   -51229   -54991   -49691 
  -34687   -14414     4156    15870    18091     9996    -6756   -26264 
  -40685   -46740   -46260   -41413   -33970   -25919   -18731   -14578 
  -16475   -24923   -36101   -45203   -50107   -51545   -52393   -55201 
  -58617   -59432   -56940   -51440   -41453   -25771    -7158     7523 
   12202     6206    -6195   -17902   -22371   -19260   -14587   -14058 
  -18445   -24929   -30978   -35035   -36268   -36599   -37987   -37893 
  -33037   -25184   -20213   -22358   -29916   -38526   -46128   -51199 
  -51274   -45603   -36316   -26945   -19365   -14298   -14617   -22380 
  -34879   -46977   -54725   -56712   -53516   -47018   -39705   -32953 
  -26983   -23411   -25323   -31670   -36260   -37371   -39642   -44046 
  -46948   -46408   -42963   -38614   -35494   -35366   -39786   -47094 
  -52775   -53535   -49114   -43534   -41085   -39597   -35080   -29767 
  -28196   -30144   -32833   -35780   -39613   -43527   -45523   -44464 
  -42155   -39717   -33967   -24170   -15139    -9004    -4611    -4430 
  -11831   -23418   -31536   -35021   -39727   -46298   -47755   -41110 
  -32109   -26158   -21501   -16214   -14695   -20165   -27684   -30421 
  -27827   -23498   -18791   -13611   -10931   -13621   -18405   -20384 
  -19838   -18554   -16421   -14482   -14522   -15731   -16211   -17107 
  -21561   -29406   -37442   -44218   -49446   -51488   -49432   -44648 
  -39639   -36002   -33001   -31377   -34704   -41728   -47040   -50984 
  -57265   -63764   -64636   -58759   -51146   -45415   -39976   -34011 
  -29672   -27932   -29271   -34451   -40765   -42997   -38598   -28935 
  -16756    -4810     3174     4553      657    -6491   -15180   -20851 
  -19772   -14868   -12427   -12908   -12137   -13106   -23058   -39437 
  -53361   -61436   -64923   -64327   -59532   -52596   -46647   -41583 
  -36251   -33239   -34529   -37085   -37329   -34584   -30334   -27129 
  -25150   -21223   -14760    -9971    -9588   -11724   -13492   -15119 
  -19956   -28686   -37359   -43561   -47570   -48028   -42795   -33161 
  -24492   -20722   -19706   -18367   -17621   -17357   -13938    -6931 
   -2451    -4641    -8317    -7534    -5480    -7260   -10116    -8555 
   -3615    -1039    -3399    -9162   -16824   -24781   -30491   -32998 
  -32342   -27392   -18093    -7916    -2636    -6234   -17255   -30739 
  -42625   -50841   -53991   -50653   -41131   -29164   -19869   -15604 
  -15545   -19800   -29598   -42378   -52123   -55303   -52847   -47441 
  -41814   -37901   -36517   -38195   -42334   -47162   -52068   -56003 
  -55221   -47372   -35844   -27258   -24155   -22617   -19478   -16903 
  -17624   -20765   -22838   -21255   -16377    -9941    -4317    -1658 
   -1796    -3868    -6583    -7018    -4883    -3976    -6621   -11266 
  -16033   -20733   -25703   -31261   -36379   -38087   -35378   -31753 
  -30931   -31939   -32028   -31845   -32712   -32666   -30037   -26264 
  -22480   -18654   -16884   -20684   -30705   -43264   -53008   -56627 
  -54248   -48568   -42990   -39039   -35606   -31151   -25726   -21672 
  -22505   -29114   -38546   -47920   -56292   -62534   -64646   -61323 
  -52765   -40940   -29746   -22995   -21044   -19800   -14484    -5353 
    2934     7603     9064     7798     3828    -2463    -9513   -14937 
  -18511   -22459   -28044   -33979   -37859   -38956   -38066   -34426 
  -27616   -21020   -18913   -22275   -27909   -31360   -31207   -27988 
  -22516   -18163   -18166   -21271   -24508   -26193   -25359   -21997 
  -18185   -18448   -26441   -39921   -52651   -60714   -63981   -63567 
  -60098   -55055   -51569   -50127   -46534   -37644   -25436   -14344 
   -8018    -8283   -13567   -18711   -20561   -22058   -26336   -31649 
  -36188   -41788   -49754   -56205   -54383   -43114   -29603   -20576 
  -15733   -12599   -11891   -15322   -21711   -28301   -34050   -38690 
  -41281   -42422   -44416   -48126   -52692   -57539   -62271   -65247 
  -64612   -61095   -56377   -49642   -40013   -29411   -20815   -15889 
  -13365   -10676    -7945    -6927    -7166    -7008    -7023   -10377 
  -19304   -30403   -36330   -34743   -30422   -27003   -23727   -21076 
  -22544   -28675   -34454   -35421   -31935   -25884   -17301    -6094 
    3957     6929     1681    -7450   -16313   -24166   -32282   -40067 
  -44322   -44406   -44437   -47341   -50599   -50888   -49266   -49094 
  -51179   -52684   -50593   -44661   -36691   -29516   -25216   -22631 
  -19243   -15108   -12576   -12281   -11999   -10410    -8054    -4876 
    -932     3485     8673    12870    12693     7079    -2072   -11069 
  -17055   -20928   -25420   -31043   -35806   -38382   -39802   -41787 
  -45120   -49822   -55610   -61135   -63009   -58047   -47739   -37469 
  -30139   -24044   -17723   -13463   -13937   -17647   -21083   -24426 
  -31108   -41131   -49735   -53332   -53125   -53536   -57469   -63809 
  -69500   -70578   -63569   -49037   -31297   -15243    -4706     -528 
     392     1088     1269      236    -1693    -5295   -10604   -15587 
  -19857   -25213   -32159   -39108   -44679   -48858   -50948   -48518 
  -40726   -31173   -25696   -27430   -33382   -36307   -31886   -23013 
  -14933    -9255    -6164    -7573   -14500   -25171   -35984   -43318 
  -46263   -46462   -45377   -43539   -40667   -36815   -34238   -35313 
  -39762   -45780   -51175   -53027   -48785   -38981   -28282   -22221 
  -22192   -25119   -27752   -28797   -28352   -27080   -24900   -21583 
  -18024   -15843   -17251   -23120   -30738   -36699   -40881   -45168 
  -49227   -50651   -48866   -45460   -41667   -37678   -33086   -27161 
  -19533   -11463    -6490    -7657   -12997   -17088   -16745   -11823 
   -4770    -1688    -7080   -17995   -29392   -39837   -47538   -50162 
  -50367   -53028   -57698   -59245   -56482   -55238   -58971   -63020 
  -62550   -58203   -51333   -40946   -26547   -10315     3149     9585 
    8187      501   -10715   -21633   -31031   -39245   -43686   -42925 
  -39214   -34004   -28383   -25243   -27073   -33576   -41119   -45190 
  -44266   -40481   -36415   -32572   -29512   -28353   -27319   -23569 
  -17882   -13511   -12341   -13599   -16081   -19786   -23542   -25384 
  -25677   -24974   -22430   -18494   -14488   -10760    -7320    -5308 
   -7302   -13859   -21700   -28464   -34330   -38627   -40822   -42133 
  -42976   -42548   -40703   -38366   -36571   -34361   -30382   -26661 
  -25117   -23695   -20580   -17411   -16813   -19222   -23039   -26812 
  -28885   -27585   -24184   -22490   -24236   -26894   -27732   -27809 
  -28944   -29282   -25716   -19805   -16097   -14888   -13433   -12711 
  -15827   -21218   -22964   -17996   -10253    -6593    -9680   -17351 
  -27422   -38707   -49026   -56631   -62338   -66936   -68545   -65694 
  -59941   -52881   -43799   -31958   -18441    -4960     6285    13481 
   18921    26395    33479    32861    21609     4401   -13223   -29593 
  -42532   -48039   -46503   -42854   -39652   -35446   -29099   -21693 
  -14048    -5883      829     1741    -5516   -19665   -36116   -49786 
  -59433   -65295   -66467   -63636   -59249   -55384   -52292   -48631 
  -44283   -40889   -39497   -38646   -34697   -26063   -15203    -4942 
    3058     6982     5305    -2618   -15495   -28091   -33575   -29843 
  -21039   -12035    -4156     2255     4808     2562    -1761    -6783 
  -13832   -22456   -30102   -34752   -35289   -31641   -26181   -23412 
  -25928   -31544   -35835   -36061   -32151   -25470   -17671   -11452 
  -10794   -17363   -27893   -36924   -40526   -38024   -31816   -24401 
  -16234    -7998    -2791    -4706   -15346   -31222   -46252   -56616 
  -61262   -60436   -55858   -50269   -46142   -44624   -45328   -47263 
  -48108   -43928   -34149   -23550   -15116    -6929     1395     6224 
    5144      117    -5168    -9022   -12074   -14514   -14783   -12107 
   -8667    -7890   -11023   -16105   -21435   -27147   -31114   -29267 
  -21524   -11792    -3581     1223     2156     -491    -6277   -13924 
  -22853   -33590   -44280   -51897   -55546   -54495   -48020   -38351 
  -29420   -24215   -24617   -30519   -39855   -50618   -59952   -63800 
  -60389   -51235   -38936   -25707   -13863    -6143    -3301    -3139 
   -4603    -9446   -17423   -25107   -31181   -37483   -44637   -51403 
  -57534   -63191   -67361   -68782   -66130   -59119   -50401   -43087 
  -38319   -36745   -38771   -42818   -45210   -42581   -34513   -23561 
  -12727    -3284     5000    12596    19261    23689    24718    23265 
   21738    21289    20728    17924    12355     5355    -3176   -14537 
  -27032   -37032   -43550   -48148   -51288   -50983   -45823   -37533 
  -28987   -21833   -16356   -11539    -6091     -620     2169      947 
   -2007    -5075   -10555   -19977   -30669   -39096   -43650   -44832 
  -44554   -43006   -38043   -30021   -22729   -18487   -16877   -17449 
  -20821   -27319   -34805   -39199   -38262   -33878   -29658   -26916 
  -24400   -20981   -17600   -17196   -21221   -26844   -30715   -32903 
  -33736   -31241   -25727   -21850   -22413   -25025   -28216   -35030 
  -46180   -56483   -61826   -63616   -64659   -64300   -59829   -51795 
  -43734   -36893   -30587   -25898   -23932   -23780   -24272   -24154 
  -21787   -16730   -10495    -6179    -6655   -11971   -19187   -24420 
  -25706   -24850   -25178   -28345   -34591   -42595   -48748   -50743 
  -49608   -46373   -42009   -39430   -40688   -44619   -48463   -50418 
  -51100   -51270   -49643   -45048   -37705   -28674   -20243   -14314 
  -10127    -6014    -2163      432     2587     6018     9535     9103 
    3276    -4708   -11893   -18437   -24486   -29155   -33305   -39151 
  -46062   -50182   -50184   -49295   -49726   -51047   -54064   -59083 
  -62750   -62236   -58382   -52799   -46650   -41927   -40164   -39835 
  -37699   -32730   -26108   -19560   -14630   -11411   -10778   -15261 
  -23893   -32527   -39310   -44908   -49475   -50767   -45719   -34885 
  -22445   -11383    -1442     8080    15357    17675    15052    10273 
    6496     5563     7045     8787     9370     9031     7775     4988 
     610    -5439   -13046   -19719   -22324   -21845   -21885   -22507 
  -20840   -17322   -15574   -16911   -19971   -23731   -27582   -30961 
  -34088   -37526   -41470   -45513   -48730   -50070   -48842   -45970 
  -43765   -42404   -39251   -33870   -28887   -24718   -20233   -17411 
  -18587   -21772   -23154   -21563   -18768   -17412   -18295   -20170 
  -23186   -28602   -34898   -38688   -39343   -40141   -44521   -51568 
  -56968   -59015   -59333   -58013   -53101   -43189   -29354   -15701 
   -5301     1980     5751     4582    -1013    -7892   -12287   -13224 
  -12706   -12085   -10992    -9804   -10437   -14017   -19494   -25045 
  -30020   -35158   -40351   -43959   -46022   -49144   -55179   -63571 
  -71569   -74603   -69943   -60705   -52457   -47446   -44694   -42293 
  -38949   -34504   -28879   -22394   -16238   -12100   -13026   -21299 
  -33466   -42179   -44000   -41722   -39576   -38706   -37708   -36587 
  -37281   -40299   -44330   -48461   -52888   -57343   -58887   -54073 
  -43872   -33061   -25784   -23768   -26044   -29060   -28824   -23685 
  -14856    -4448     5718    13201    16129    15364    11873     4948 
   -4398   -13356   -20777   -27254   -32728   -36015   -37785   -40942 
  -45958   -50035   -51168   -49759   -46483   -40274   -30477   -19963 
  -12287    -7189    -2552     1031      937    -3078    -8229   -12600 
  -16558   -20392   -23451   -25384   -26769   -28376   -30071   -31511 
  -33495   -36479   -38426   -36662   -31433   -25090   -18446   -11702 
   -7788    -9237   -13816   -18133   -21378   -23498   -25019   -27548 
  -31241   -34981   -38075   -38817   -36314   -33309   -31789   -31141 
  -31936   -33990   -34390   -31138   -24570   -16505    -9097    -3871 
   -2349    -4262    -6746    -8838   -12408   -18526   -26025   -32503 
  -37637   -43463   -49681   -53882   -55729   -56779   -57059   -54294 
  -48050   -40998   -34826   -29840   -26470   -24011   -21629   -20189 
  -20247   -20803   -21603   -23875   -28037   -32998   -37762   -42058 
  -45215   -45897   -44079   -41157   -36884   -29686   -20299   -11725 
   -6744    -6503    -9601   -13114   -15513   -17724   -21074   -25577 
  -31022   -37627   -44710   -50024   -51170   -47460   -39767   -29478 
  -18389    -8549    -1279     3647     6933     8022     5519    -1040 
   -9541   -16061   -19742   -23818   -29758   -35482   -40113   -44915 
  -48819   -49402   -47552   -45755   -44541   -42660   -39262   -34813 
  -29713   -24280   -19491   -15702   -12905   -12517   -14878   -17625 
  -20496   -25983   -33461   -38549   -38605   -35501   -32521   -30375 
