Origin Time       2011/03/11 14:46:00
Lat.              38.103
Long.             142.860
Depth. (km)       24
Mag.              9.0
Station Code      CHB017
Station Lat.      35.2976
Station Long.     140.0734
Station Height(m) 38
Record Time       2011/03/11 14:47:30
Sampling Freq(Hz) 100Hz
Duration Time(s)  300
Dir.              N-S
Scale Factor      3920(gal)/6182761
Max. Acc. (gal)   108.531
Last Correction   2011/03/11 14:47:15
Memo.             
[...]
  -18018   -21055   -22010   -18565   -13383    -9123    -5460    -2795 
   -1486     -259     1144     2140     2676     2513     1502      213 
    -186      554      816     -155     -954    -1139    -2219    -4790 
   -7689   -10202   -12320   -12946   -10602    -5337     1159     6984 
   11859    16244    18792    17880    15497    16526    24044    36539 
   49916    61096    68838    73431    76422    78939    80181    77909 
   70166    57477    43579    32396    25014    20313    17491    17301 
   20311    24834    27687    26662    21153    12100     1723    -9129 
  -20044   -28793   -34846   -39945   -44802   -50024   -56360   -62210 
  -64781   -62858   -56872   -48549   -39721   -31050   -23086   -16387 
  -11222    -7660    -4803    -2137     -292     1248     4045     8081 
   11559    12878    11700     8451     3256    -4470   -15120   -27858 
  -40791   -51761   -59014   -61885   -61161   -58359   -54174   -48893 
  -43658   -38172   -30375   -20828   -11444    -1458     9535    20107 
   30256    40034    47956    54565    62595    72280    80514    83906 
   80624    71022    57174    41361    25303    10054    -4135   -17250 
  -29835   -43254   -57510   -71283   -82401   -88078   -89482   -89879 
  -88545   -83363   -75104   -67162   -62447   -61068   -61664   -63829 
  -67151   -68301   -64507   -56946   -47751   -38651   -30860   -25439 
  -23178   -22747   -23003   -24622   -27511   -30826   -33546   -34410 
  -33020   -28834   -21274   -12402    -6782    -7554   -13573   -21525 
  -29102   -35366   -39252   -39397   -35798   -29103   -19511    -8028 
    3201    12172    18570    23851    29571    36645    45669    56159 
   65845    72200    74061    71428    64687    55707    49113    48886 
   53759    59471    63952    66416    66155    64468    62042    56667 
   47356    35265    19926     1151   -17803   -33803   -46419   -55923 
  -63246   -70258   -77846   -86321   -95528  -103153  -106587  -106184 
 -103489   -97510   -86193   -68940   -46886   -23563    -3128    12871 
   25448    35776    43787    49244    53010    56356    59995    64068 
   67503    67254    61068    50692    38953    26188    13529     3847 
   -3868   -11677   -16321   -14784    -8730     -951     6579    13078 
   17347    17102    13156     9062     5971     3802     4959    11971 
   23791    37589    52196    66488    77996    85803    89978    89851 
   86353    82055    78605    75839    72665    68797    63091    52314 
   35973    17164    -1522   -18366   -32831   -45637   -56478   -65216 
  -73385   -80971   -85313   -84455   -79568   -73142   -65375   -55675 
  -44473   -30210   -11050    10707    31427    49320    62287    68235 
   68115    65300    62158    57623    49707    38801    26756    16796 
   11090     7258     3580     1859     2020     2284     2797     4265 
    5298     3661      -41    -4243    -9549   -15298   -19097   -20303 
  -18272   -11336     -957     8379    14333    17311    17258    14028 
    9406     5122      575    -5437   -13214   -21923   -29806   -35554 
  -38642   -39408   -38311   -35208   -32138   -33217   -39446   -47624 
  -54998   -61747   -68055   -71709   -69953   -62405   -51065   -37701 
  -23931   -11841    -2537     2441     2633     2049     3816     6305 
    8021    10272    14809    21907    30608    38661    42069    37962 
   27470    14098     1445    -6952    -8484    -5280    -3841    -6755 
  -10726   -13792   -16249   -16857   -13878    -7162     1829    10949 
   17558    19381    18216    17713    17220    14591     9769     2839 
   -5592   -14213   -22446   -29705   -35495   -40295   -44997   -50825 
  -58052   -64436   -68778   -72978   -77291   -79401   -78884   -76667 
  -72231   -64720   -53722   -39705   -24514    -9060     6496    20344 
   30612    37289    41894    46374    52077    59765    68515    75103 
   77482    77273    76707    75443    71488    63244    50779    34945 
   16518    -1175   -14004   -22533   -28914   -32741   -34347   -35171 
  -35887   -37055   -37705   -36454   -34452   -33489   -34051   -34625 
  -31926   -24468   -14147    -3530     5854    12262    14121    13189 
   13349    16456    21626    26082    27429    25487    20923    14676 
    8391     3456      150    -1836    -2734    -3363    -4983    -6852 
   -6326    -2514     2969     9389    17956    28619    38866    45654 
   47054    44048    40059    37361    36413    37669    41393    47278 
   54350    60635    64493    65226    62658    58048    53341    49934 
   48581    48151    47022    45297    42253    35243    23026     7922 
   -6610   -20244   -34054   -46379   -54249   -55711   -51046   -42645 
  -32612   -22473   -13562    -6645    -2598    -2326    -6384   -13657 
  -20379   -23004   -20155   -12495    -2669     6689    12634    11377 
    3012    -8678   -21604   -34498   -44696   -50479   -52224   -51545 
  -50094   -47932   -45294   -43352   -41407   -38412   -35978   -36297 
  -37378   -34571   -26547   -14465     -784    10871    19140    23450 
   22631    17297    10272     5582     4668     6480    11523    19866 
   29856    39268    44929    45781    43688    39554    33427    26687 
   22032    22517    28958    38661    48336    55868    60622    63527 
   64049    60694    54661    47439    38814    29959    23059    17784 
   12250     6055     -415    -7962   -17920   -29455   -40095   -49794 
  -59274   -66711   -70842   -71925   -69439   -62708   -52325   -40546 
  -29508   -20016   -12692    -6447      695     7955    15090    23661 
   32595    40749    49544    58690    65917    69660    69420    66005 
   59803    50150    38359    26860    15788     5123    -2379    -4308 
   -2181      507     1113    -2597   -11731   -24186   -36481   -47811 
  -59115   -69118   -76927   -83573   -87335   -85842   -79964   -71828 
  -62365   -50952   -38833   -28965   -21481   -14522    -6178     5831 
   22642    42907    63747    81418    92640    98104   100714   100195 
   94885    85418    73481    59701    43892    27556    12987     -270 
  -12620   -21365   -24510   -22968   -18945   -14592   -10986    -8501 
   -7643    -8506   -10605   -13840   -18668   -24586   -29658   -33161 
  -36461   -39723   -40813   -37918   -31283   -22858   -14491    -6592 
     500     5378     6760     4460     -854    -8377   -16199   -20341 
  -18101   -10028     1795    13329    20190    21661    20042    18043 
   16132    12179     6039     -283    -5072    -5367      520    10410 
   21640    32246    39952    43236    42895    41794    41936    42855 
   44139    45860    46265    44191    41486    40017    39680    39176 
   36499    30456    21823    10700    -4429   -22618   -39440   -51526 
  -57736   -56494   -48179   -36709   -24713   -12639    -1098     8454 
   13475    13671    11141     6519     1071    -3227    -7231   -12008 
  -17194   -22944   -28079   -30116   -29770   -29944   -30806   -30546 
  -28818   -26256   -22611   -18458   -16349   -17324   -20204   -23897 
  -26165   -23900   -17195    -8819      586    11007    19088    22827 
   25106    27567    28843    29861    32325    35332    39015    45271 
   53294    59085    60193    57821    53239    47301    42577    40719 
   41221    43831    48605    55623    65135    75305    82056    82317 
   75905    65169    52242    37353    22036    10280     3580     -791 
   -4989    -9612   -15233   -20117   -22527   -24090   -25069   -22317 
  -15102    -7039     -149     6854    14090    20229    24473    26466 
   25739    21660    15206     9535     6673     5096     2236    -1725 
   -4659    -5905    -6811    -9045   -13145   -18181   -23295   -28404 
  -33099   -36952   -39705   -41210   -42774   -45741   -49452   -52544 
  -53397   -49885   -40545   -25462    -6419    13579    30974    43049 
   49984    53695    55063    55062    56048    59683    65431    71942 
   78925    85406    88080    84220    74590    62663    50586    38336 
   26686    15897     5439    -3384    -9867   -15049   -19575   -24602 
  -30948   -37597   -43066   -45150   -42902   -39044   -35646   -32025 
  -28079   -24860   -23360   -24354   -28246   -34470   -40718   -44793 
  -46676   -46692   -44676   -41456   -37803   -33576   -28802   -23224 
  -16782   -10539    -4983     -145     3603     7094    11593    16763 
   21681    26701    33100    41333    50323    57959    62859    65392 
   65348    62078    58029    56599    58072    61652    67072    73031 
   77672    80060    79830    76358    69242    58102    42593    24601 
    7539    -6630   -18432   -29075   -37788   -44334   -50237   -55312 
  -59952   -66218   -73915   -81967   -89495   -94441   -95072   -90351 
  -80064   -65536   -49095   -32849   -16775     -197    16296    31732 
   43923    51245    55311    56952    54938    50875    48231    47773 
   47919    47679    48384    51068    53815    54638    53438    51559 
   50969    51484    51297    49483    45515    39646    33274    28870 
   29597    34955    40687    44494    46782    48844    51095    52380 
   53121    53790    51763    45740    37829    29716    21444    13321 
    6957     3176      704    -1308    -2842    -4917    -8704   -14137 
  -20240   -26239   -32302   -37864   -41477   -43267   -43639   -41380 
  -36148   -29897   -24373   -19767   -15996   -12987    -9955    -5586 
     712     7542    13001    17320    20909    21577    17715    10909 
    4028     -172     -565     1887     6822    14503    22876    29132 
   33884    38962    43698    47702    52369    57843    63164    68955 
   76389    83904    88419    89110    86462    80119    70358    58861 
   47206    36236    26087    16679     8617     2075    -3803    -9636 
  -15969   -23723   -33989   -46909   -60556   -73432   -85250   -94281 
  -98657   -98665   -95909   -91606   -86373   -82013   -79872   -78081 
  -74136   -67442   -58175   -46410   -32795   -18405    -4034     9554 
   21654    32688    43582    53117    59414    62414    61768    57415 
   51002    43202    34042    25027    18727    16570    16349    14854 
   11661     7964     5345     4054     1372    -3153    -5990    -6492 
   -6389    -5828    -5220    -5364    -6201    -7214    -8286    -9687 
  -10754   -10660    -9903    -8745    -6411    -2868     1775     7647 
   13769    19901    26544    32642    37370    40608    41478    39805 
   36363    32574    30221    29432    28676    26333    22647    19450 
   17534    17257    19075    21547    22148    20211    16652    11901 
    7108     5099     6988    10946    14690    16350    14872    10571 
    4252    -2985    -9640   -15132   -19758   -23027   -24122   -23279 
  -21990   -21931   -22801   -22525   -20050   -15699    -9519    -2154 
    4584     9673    12529    12618    11386    11544    14500    19257 
   24449    30974    39227    47315    54245    59123    60009    57286 
   52557    45401    35802    25891    17029     8161    -1546   -11154 
  -20609   -31285   -43503   -56035   -67131   -76149   -83927   -90204 
  -93539   -94323   -94046   -92845   -90310   -86889   -83530   -80568 
  -77776   -75778   -75273   -75110   -73738   -71050   -68311   -66914 
  -66243   -64876   -62849   -60875   -59031   -55568   -49118   -41481 
  -34383   -27891   -22398   -17902   -14111   -11442    -9820    -8313 
   -5876    -2443      487     1652     1328      697      481      197 
     109     1841     5503     8917    10346    10925    12652    14590 
   13684     7459    -4554   -20255   -36475   -50662   -61848   -71059 
  -78994   -85180   -89851   -92805   -93281   -92055   -90241   -88398 
  -86317   -82835   -77775   -71500   -63575   -53866   -43526   -34197 
  -24491   -10910     6081    22372    34867    43678    50790    56652 
   61003    64804    68987    74368    81739    91428   102467   112069 
  118675   122877   124562   122910   117822   110262   102520    97061 
   94802    95291    96877    97681    97217    94678    89079    81105 
   71635    62103    54728    50857    50769    52653    54277    55266 
   54516    50751    45004    38234    29932    20310    10871     2161 
   -6629   -15632   -25070   -36077   -47478   -56135   -61654   -65620 
  -68473   -70416   -72068   -73555   -74494   -73928   -70996   -65846 
  -58744   -49668   -38777   -27235   -17284   -10421    -6659    -4307 
    -985     4040    10939    19400    27493    34246    39913    44652 
   48894    52220    53971    55215    56853    57996    58304    57993 
   55898    51470    46068    40820    35866    31174    26986    23214 
   19153    14959    11200     7014     1360    -5523   -13275   -21726 
  -29928   -37180   -43655   -49092   -52866   -55256   -56910   -57362 
  -56600   -56227   -56967   -58413   -59677   -58818   -55486   -50907 
  -44559   -36217   -27546   -19908   -14243   -10818    -9207    -9564 
  -10950   -10307    -5456     2688    11343    19007    26495    34678 
   43202    51110    57439    62148    64935    63932    59161    53248 
   47874    43099    37863    31687    25513    19321    12745     6260 
    -203    -6451   -10920   -12172   -10733    -8009    -3956     1270 
    5990     9767    14103    19956    26344    31418    35245    39071 
   41755    42266    42801    44974    47448    48279    46670    42924 
   37664    31616    25147    17719     9153     -301   -10577   -20867 
  -30632   -39951   -48210   -55424   -62289   -68071   -71081   -71117 
  -69991   -68592   -65581   -60020   -52073   -41560   -28495   -14287 
    -563    12770    26598    41521    57785    74458    90219   104316 
  117088   129923   142400   153083   162155   169185   173074   172743 
  166626   156020   143648   129212   112030    93023    74139    57091 
   40138    21167     1598   -16906   -33144   -45629   -54588   -61063 
  -65292   -67347   -67897   -67612   -65846   -62202   -58109   -54453 
  -51214   -48361   -44139   -36714   -26705   -15738    -5412     3497 
   11184    17102    20082    19241    14678     8039      848    -5995 
  -10747   -12326   -12045   -11910   -12998   -15777   -20456   -26816 
  -34240   -41448   -46674   -48698   -47467   -44109   -39815   -34934 
  -29421   -23570   -18237   -13687    -9229    -4633     -671     1740 
    2697     3220     3529     3402     3975     5664     6592     5495 
    2690     -959    -4225    -6680    -8406    -9356    -9983    -9393 
   -5964     -344     6463    14357    22944    31801    40270    48224 
   55653    61179    64668    67627    70835    74950    80019    84872 
   88940    91564    90563    84427    74141    61960    49568    37731 
   27015    17694     9648     2280    -5967   -15168   -22827   -27830 
  -30602   -30742   -27548   -20565   -10986     -491    10822    22084 
   31794    39788    46454    52294    57824    63442    68761    72229 
   72555    69223    62154    52186    40757    28392    15212     1859 
  -11314   -23499   -33916   -43304   -51627   -58181   -65001   -73801 
  -82308   -89517   -97450  -105784  -112803  -118272  -121424  -122008 
 -121319  -119080  -114785  -109409  -102795   -94883   -86552   -76220 
  -62069   -45496   -27471    -7987    11236    28409    41897    50066 
   53207    52997    51627    50948    51299    52582    54403    56095 
   57920    59613    60747    61319    60224    57431    53118    46181 
   37925    30580    24539    19798    16560    15049    14066    11479 
    6907      925    -5528   -10669   -14021   -16871   -19874   -23113 
  -27178   -31742   -35554   -37894   -38897   -39782   -41689   -44862 
  -49600   -55935   -63224   -70978   -78832   -85866   -91309   -95281 
  -97471   -96876   -93224   -87288   -80435   -73266   -65459   -57566 
  -49900   -41884   -33957   -26411   -18255    -8179     3660    14374 
   21575    24864    24021    20167    15638    12011     9901     9346 
    9943    10373     9824     9084     7908     5374     3063     3207 
    5733    10121    16394    24022    32658    41403    48658    54010 
   57770    60164    60638    58323    53818    47944    41278    35034 
   29676    24819    20095    14744     7713    -1432   -11900   -22380 
  -31741   -39202   -45151   -50266   -54074   -56353   -57236   -56073 
  -53265   -50057   -46189   -41414   -36472   -31249   -24778   -16159 
   -5460     6270    18883    32059    43715    53047    61022    67797 
   73783    79967    86112    90873    93137    93284    92571    91645 
   89931    85249    76043    63890    51278    38732    25990    13969 
    4291    -2077    -6124   -10001   -14336   -18893   -23749   -27516 
  -28287   -26114   -21882   -16542   -11763    -8250    -4826      103 
    7417    16057    23253    27469    29711    31434    32641    32364 
   30018    25511    19057    11892     5351     -548    -6474   -12405 
  -16960   -19777   -22216   -24299   -25613   -26857   -28509   -30884 
  -33993   -37070   -38728   -37585   -33631   -27630   -20139   -12644 
   -7112    -3928    -1849      585     3699     6520     8315     9269 
    9811    10300    10282     8303     3781    -2470    -9806   -17919 
  -25971   -32832   -38572   -44474   -51160   -58356   -65448   -71865 
  -77033   -79942   -80109   -77773   -73510   -67979   -61073   -52958 
  -44457   -35873   -27339   -18414    -8206     2803    13359    22949 
   31518    38806    44540    49323    53896    57825    60446    62045 
   63259    64325    65313    66447    68060    69808    70620    69797 
   67314    63693    58988    52453    44852    38203    33472    31041 
   31090    33415    37914    43813    49390    52696    52255    48435 
   42163    33196    22276    11061      575    -7857   -13288   -15721 
  -15563   -13930   -11909   -10556   -11083   -13528   -16860   -19283 
  -18782   -15061    -9143    -1747     6281    13033    17189    19675 
   20935    20062    17500    14285    10882     8353     7566     8216 
    9959    12102    13346    13103    10827     5480    -3017   -12886 
  -22060   -30524   -38901   -46784   -54036   -60664   -66800   -73314 
  -80261   -86796   -92082   -94868   -94703   -92387   -88427   -83132 
  -76582   -68551   -59148   -48068   -35000   -19936    -2832    14779 
   31031    45946    60269    74299    86676    95561   101581   105763 
  107739   107622   106112   103598   100457    97084    93028    86905 
   77089    63174    47504    32669    19165     7835     -976    -8641 
  -14566   -17666   -19129   -19915   -20020   -19682   -19835   -21270 
  -23377   -25472   -27738   -29726   -30674   -30515   -29216   -27243 
  -25583   -25066   -27144   -32401   -38984   -44960   -49097   -50724 
  -51068   -51486   -52252   -53164   -52997   -51066   -47947   -44137 
  -40215   -36751   -33958   -31886   -30351   -29229   -28488   -27151 
  -23881   -18720   -12545    -6070        5     4944     8500    11192 
   13224    14384    15716    18543    22186    25227    26934    26806 
   24754    21446    18008    15576    14953    15859    16736    16380 
   15071    13429    11102     7106     1555    -4060    -9305   -15065 
  -20988   -25633   -28185   -28636   -27841   -27095   -27119   -28232 
  -30682   -33393   -33642   -29499   -21136    -9244     5149    19618 
   31831    40738    45937    47876    47690    46394    44380    41654 
   39004    37422    36552    35252    32967    30011    26613    22296 
   16860    10872     4958      -27    -2909    -3184    -1389     1224 
    3277     4250     4467     3955     2432      316    -1249    -1499 
