Origin Time       2011/03/11 14:46:00
Lat.              38.103
Long.             142.860
Depth. (km)       24
Mag.              9.0
Station Code      CHB024
Station Lat.      35.6337
Station Long.     140.0781
Station Height(m) 3
Record Time       2011/03/11 14:47:31
Sampling Freq(Hz) 100Hz
Duration Time(s)  300
Dir.              E-W
Scale Factor      3920(gal)/6182761
Max. Acc. (gal)   203.253
Last Correction   2011/03/11 14:47:16
Memo.             
[...]
   43002    54697    63674    69591    67648    59719    51017    38260 
   22264     8327    -8053   -24591   -24482    -9500     5257    22068 
   41056    52771    58913    63870    66697    69321    72618    72181 
   67217    60329    52172    41566    23661     2473   -10466   -20013 
  -32806   -41248   -42553   -40449   -36081   -29962   -22999   -15251 
   -6408     -899    -2167    -2764     -580    -3608    -3324     7943 
   12367    11043    20188    27359    29043    33617    28949    16060 
    5483    -7299   -20966   -30465   -36573   -39654   -39104   -32589 
  -23418   -17868   -13543   -10152   -10899    -8531    -1305     -406 
   -3652    -3623    -4772   -10120   -18890   -27337   -31394   -31740 
  -27878   -20160   -11677    -4329     2248     7074     6366     1471 
   -3588    -9022   -15814   -19835   -17608   -14780   -11448    -5617 
   -2450     1775     6216     3948     1629     1302    -3525    -8591 
   -8893    -8553    -7490    -4005       10     3695     2731    -4314 
  -13205   -21825   -30357   -34636   -27679   -15602    -4919     3352 
    1983    -5641   -14439   -24696   -32276   -41138   -50848   -56550 
  -66640   -83997   -99141  -108507  -115489  -116333  -107597   -94074 
  -75280   -49729   -20299    11023    37940    55307    68401    76571 
   72269    63296    52485    32052    13364      398   -16232   -21526 
   -9087     -221     5990    19269    27244    24873    16844     4942 
   -7915   -17075   -19221   -20160   -16695      191    15465    19187 
   26341    35581    31233    26554    30655    24498    17293    22806 
   24200    20704    19554    12091    -1011    -8938   -10097    -7558 
    -539    10711    21861    26602    25275    23063    16178     3951 
   -7835   -22935   -43058   -63479   -82329   -98493  -108159  -108563 
 -104309   -97017   -86536   -78453   -75832   -77166   -74113   -66098 
  -59492   -46930   -25914    -4335    14813    31011    38129    30124 
   17999     7727    -7869   -14285    -3541     3696     8677    24380 
   38161    42112    48480    61582    69631    70994    76142    82310 
   85640    88819    88692    87937    91270    95026    96034    98064 
  103053    97935    85796    83715    77955    67063    64210    55866 
   47440    44323    31661    21030    17558    12149     7773     1338 
   -5699    -8098   -12427   -15686    -8223    -2510    -4022      935 
     695    -8216    -7461    -6821   -13186   -19063   -31756   -50555 
  -64514   -74374   -82251   -83802   -78720   -68876   -56325   -45650 
  -35616   -25272   -16836    -2937    14079    21509    27752    37224 
   35899    28732    29443    27692    16607    14220    15544      161 
  -13917   -14346   -21751   -29541   -18713    -5978     2115    14796 
   21433    22565    26996    29120    24438    14258     1081   -13454 
  -26284   -35228   -39066   -38706   -37778   -32625   -27983   -31185 
  -29288   -19665   -14501   -12067    -3161     9713    16177    22158 
   31797    34022    34794    36234    28421    18596     9811      -99 
   -4003    -1789     3073    13477    26605    33565    32763    22980 
    7556    -5657   -23072   -39572   -41818   -40642   -40310   -34889 
  -32575   -36724   -39651   -39015   -36693   -29389   -16258    -3234 
    6966    13231    12798     3704   -10524   -21887   -29366   -35080 
  -36789   -31152   -20226    -9117     6294    26226    41642    53556 
   64610    73007    79052    80449    79037    77211    72341    67000 
   65712    69551    66763    51737    46097    46126    32119    22983 
   25240    23856    25760    33718    41029    48103    54898    59749 
   62067    59153    46474    32394    20978     1762   -17911   -27779 
  -37665   -54180   -65585   -65873   -65136   -61418   -50178   -38401 
  -28060   -16115    -3183     3817     3774     1149    -4748   -15468 
  -29387   -34004   -27056   -22648   -15594    -6048    -3688    -1550 
   -3529    -8582   -10435   -19413   -26502   -22719   -22111   -20484 
   -7112     4139     6966     8949     4450    -5454   -13364   -25521 
  -38975   -44183   -46409   -48120   -43140   -39765   -46104   -52816 
  -60327   -71598   -79332   -85989   -93235   -96719   -95902   -87928 
  -74427   -61667   -48521   -35336   -26517   -19084    -9224    -3177 
   -4961    -6609   -10698   -22476   -27751   -27896   -30388   -25795 
  -23654   -25853   -18462   -17734   -26496   -25054   -24688   -29930 
  -25182   -15905    -3399    20722    49048    73978    94396   107139 
  111674   111237   102364    85721    73388    61486    48188    49656 
   61467    68527    73081    81296    79509    56431    30972     6780 
  -20110   -33952   -39830   -44600   -39158   -28509   -23184   -20891 
  -17708   -16921   -15214   -14074   -15053    -4606    10525    20320 
   31945    39774    41362    41211    37891    32083    20733     6062 
   -3879   -13343   -25400   -30641   -25710   -17413    -7784     4897 
   19005    29037    34003    38370    35624    24352    11173   -11307 
  -39710   -59449   -71455   -79885   -82985   -79278   -66596   -46421 
  -27924   -11214     8747    20960    19378    13542     5951    -3127 
   -6642    -3150     3524    11508    13455     4327    -8028   -20720 
  -32137   -31285   -14867    11396    37665    60329    86455   107249 
  113834   116264   113091   101071    92454    86158    68587    53336 
   53890    44892    28166    26620    21972     8841    -3255   -22254 
  -41883   -53168   -56194   -52180   -39143   -16692     1308    10351 
    9196    -9547   -36189   -61041   -80723   -90930   -92593   -85422 
  -72840   -58456   -43352   -31572   -16929     2765    20086    37247 
   52031    60554    63308    52259    27917     2457   -18166   -34934 
  -48824   -57902   -63019   -65375   -62414   -57688   -57706   -60755 
  -68902   -87232  -106388  -122555  -141811  -153840  -154496  -155950 
 -155834  -150225  -147977  -148368  -141686  -125770   -99806   -60268 
  -14061    25687    54576    74545    80548    66790    52770    47662 
   25421      252     1611     4414     5266    27458    46719    51686 
   73336    98113   102202   110377   125288   127219   121127   116747 
  106471    88611    78688    59284    30181    26564    21655    -4110 
  -17715   -13453    -8824    -5161     8661    24990    38322    52619 
   58780    56815    48246    26193    -8895   -48450   -85225  -115421 
 -135355  -145197  -143973  -131677  -112888   -93409   -78437   -67148 
  -59738   -57170   -58577   -62046   -54423   -29097     -551    19000 
   27389    21430    -6235   -53880   -95054  -117132  -137024  -140044 
 -109038   -62249    -4211    49147    86270   129813   164758   176787 
  192218   212122   217897   210084   203583   198717   181617   159103 
  145961   133269   113431   107608   114992   104003    91707    94194 
   73931    35079     3627   -33629   -74382   -99713  -110990  -111712 
  -97166   -77293   -60453   -40037   -27111   -31575   -43739   -59012 
  -76761   -91749   -99080  -103534  -108057  -106824  -103478  -100666 
  -91927   -78017   -65099   -60137   -69023   -90963  -117993  -142502 
 -163141  -177443  -186178  -190761  -185545  -173871  -155350  -122639 
  -84642   -45022    -2590    26745    39380    47731    52021    51892 
   51995    56801    68562    77392    86979   100376   106021   120275 
  139624   140448   137778   142161   142546   130945   120265   116864 
  105910    93788    79455    60546    55756    57344    53114    54138 
   70499    93846   111366   129858   148211   157206   163673   170879 
  177264   178684   161507   117943    43415   -50990  -120863  -164655 
 -216246  -251956  -261411  -273335  -280196  -276477  -270789  -256093 
 -233163  -209106  -184727  -154736  -118909   -92669   -81440   -74200 
  -63243   -43779   -21248   -13918    -8239    23119    40894    24798 
   16891    -6138   -56208   -90499  -117316  -121061   -82350   -34379 
   23925    82788   114829   136126   151008   151872   143279   111667 
   56934    21551    12453    -7230    -9675    25326    49575    71632 
   95507    89603    77927    59522    21400   -13275   -37845   -51044 
  -58760   -54932   -32197   -11095    11371    38810    56136    64246 
   62777    52120    41625    26504     1225   -23265   -44077   -62776 
  -68766   -61868   -51739   -34436    -9219     7828    13861    16814 
    7719   -17286   -45389   -70138   -88889   -96663   -96407   -95184 
  -94611   -91475   -82553   -74217   -72220   -70292   -70240   -75100 
  -79057   -85847   -94433   -96945   -99339  -104613  -102899   -90999 
  -78203   -70177   -59078   -33728     3422    33341    44920    52072 
   63410    60425    37864    20370    11314   -11890   -42570   -52508 
  -47974   -51340   -46123   -14633    18165    44042    82772   123259 
  149036   164221   167935   166298   171683   184993   194393   175410 
  121063    59234    14435   -17200   -38353   -42209   -31733    -7937 
   24742    59415    94777   113431   108934    87951    41804   -16930 
  -65117  -107388  -150566  -184309  -203211  -216506  -221256  -213335 
 -197273  -167136  -140114  -154994  -204525  -226019  -202636  -186042 
 -170809  -134428  -103861   -69581   -26052     2527    26109    51727 
   69239    74021    56591    28102    20225    12434   -17096   -15210 
   11746    25343    64138    96281    76642    53615    24481   -33775 
  -85043  -111088  -124677  -126225  -117088  -109222   -96704   -81239 
  -81057   -92905  -105665  -117621  -132372  -147127  -154487  -160151 
 -159979  -141140  -106014   -62666   -36948   -42450   -46142   -35896 
  -28681   -21225   -17655   -26953   -38241   -46193   -36512    -3686 
   10666    14166    44259    56639    49855    73422    94742    93715 
  103531   122806   127545   125876   138652   150060   146920   142366 
  141885   146221   149415   148496   154261   161023   158938   157387 
  159435   158241   153605   147917   141565   133082   117773    92263 
   62176    37008    17612     2618    -5482   -15950   -32808   -33726 
  -25830   -39830   -53428   -54974   -73684   -97957  -115142  -132279 
 -137896  -132619  -126596  -122653  -119091  -114460  -112316  -107789 
  -95759   -79334   -64833   -58786   -57563   -54163   -48608   -41892 
  -36073   -34202   -39971   -51215   -46160   -27210   -21752   -17405 
  -12639   -10074    13408    18171    -2448     4166     6578   -15751 
  -26828   -35285   -53146   -59129   -54548   -56938   -52143   -34488 
  -21190    -2082    23896    37715    48810    64357    72664    75140 
   75019    72168    72661    72822    73319    75854    69865    77579 
  100165    94831    87910   107207   121192   127692   128362   119314 
  101556    66752    35380    16606     1924    -4394   -17896   -39938 
  -56731   -70827   -74204   -77973   -96831  -106365  -109433  -117429 
 -115473  -105619   -87568   -75155   -72693   -52714   -38098   -42100 
  -35983   -27062   -23964   -23763   -30011   -40764   -60921   -81161 
  -94234  -115411  -131765  -133193  -137709  -144209  -148004  -147758 
 -138644  -129953  -122370  -106241   -87124   -72099   -60285   -51113 
  -43588   -38542   -37857   -39712   -44965   -60412   -80097   -86998 
  -91355  -102693   -96987   -76685   -60911   -42233   -23198   -12192 
   -3409     4917    11033    16702    23064    27948    30890    39690 
   59178    79057    90166    98679   109765   114766   116181   130899 
  151082   157952   156945   159637   164244   166242   162486   144961 
  123129   113346    99288    73748    62505    67094    59030    41012 
   38459    37217    28532    35043    44244    42512    47892    58289 
   64552    75292    88798    98225   111509   124866   131590   144872 
  154858   147032   133958   110520    73256    44454    34276    37617 
   43891    42781    38406    35705    28056    17535    10987       64 
  -17665   -33258   -48652   -64816   -76357   -85850   -95322  -106289 
 -120740  -126713  -119404  -108944   -91356   -64131   -38321   -13223 
   11644    22138    15138     1876   -10749   -16904   -16558   -21817 
  -31532   -35652   -40848   -47611   -49734   -54754   -56210   -46380 
  -45170   -56224   -58429   -54063   -57194   -61135   -60169   -57330 
  -53584   -52942   -51222   -45407   -42229   -37320   -32240   -35059 
  -35750   -31023   -27984   -22051   -16171   -14000      387    16497 
   11802     9490    15823    13210    12554    12574    14513    27821 
   38044    32624     1913   -29315   -32948   -41134   -51531   -40475 
  -38339   -45365   -36665   -30997   -40062   -41751   -36775   -41318 
  -43083   -38614   -38053   -31872   -21388   -18361   -21260   -25843 
  -27195   -25999   -21169    -7416     4146     8706    19218    35485 
   45386    48238    49944    48152    42345    35340    25880    18631 
   20004    21796    11721     4028    13959    18625    11320    16773 
   26370    21811    20875    30693    32196    29285    37656    48129 
   49770    54729    74011    90790    96059   111433   130367   127707 
  123139   128396   122059   115456   121762   121945   113563   110146 
  115911   120102   106791    84096    71488    65949    57897    55752 
   59898    57248    58602    70617    70768    59923    56417    54182 
   47032    39689    32042    24176    13943      460    -8813   -16458 
  -32009   -44091   -39022   -34212   -37938   -30767   -19725   -15748 
   -4928     7909    16147    30377    47131    56571    72700   125761 
  173461   100277   -50618  -101250   -78877   -99564  -122743  -144682 
 -199052  -232247  -248768  -285277  -309734  -316189  -323356  -317590 
 -300081  -280368  -248976  -204356  -150366  -102023   -83089   -70350 
  -12965    30192   -33229   -76233   -26283   -39513   -46899    18227 
  -13801   -61097   -18810    -1453   -14963   -25862   -33117   -15791 
   -8865   -24702   -22045   -13686   -17936    -9700     1942    -1267 
   -1883    12397    26285    26972    32905    42344    44253    61180 
   73228    53069    48403    75116    78297    61691    72877    92675 
   96004   100606   106354   110622   120183   118550    95029    73293 
   73778    78324    65632    45225    29520    16384     2889    -6722 
   -9397   -12024   -20295   -29038   -31787   -31372   -30727   -25156 
  -17165   -12185    -7120    -2284     2300     9410    16021    21757 
   29193    38344    45152    40980    29796    25504    24872    19320 
   14867    14190    10988     7561     8390     6411     -111    -3677 
  -11122   -25237   -32361   -40862   -60645   -76583   -93644  -124469 
 -154492  -177463  -197233  -199951  -183037  -162511  -134241   -92775 
  -54498   -25642    -1260    19446    29240    17040      300    -1149 
   -4257   -16406   -23705   -23987   -31318   -54727   -58730   -31171 
  -32697   -59477   -58381   -45887   -43868   -51738   -56441   -35633 
  -17205   -20538    -9016    12637    14481    20288    38114    42663 
   40003    40744    45413    48835    42405    42039    54385    61652 
   56752    54347    68986    76914    66504    66334    70054    61239 
   57540    58532    50203    42469    40134    32346    21819    18686 
   22621    25628    26408    33882    47709    60480    72348    85506 
   98491   109834   120046   127013   133376   144436   151192   147663 
  142222   136194   129328   123161   112582   105370   101703    86919 
   77087    75994    60674    46467    45865    43144    38285    34260 
   33454    38807    40562    37795    40520    46646    46668    45828 
   51383    52075    48198    50828    51305    45371    40400    34610 
   26238    18076    10526     1787    -8729   -17913   -25440   -35987 
  -49136   -58793   -66138   -76701   -86168   -91813   -98027  -100565 
 -100414  -105990  -107402  -103329  -108592  -110047  -101465  -101802 
 -101994   -94477   -92649   -92667   -91797   -94553   -96912   -97553 
  -96803   -94323   -91578   -88272   -84162   -80942   -80262   -78254 
  -71076   -69260   -77422   -74904   -63128   -68740   -76276   -69190 
  -71599   -78374   -75527   -80140   -87217   -84953   -88641   -99208 
 -100250   -93119   -86496   -80224   -75183   -72972   -71610   -70147 
  -66095   -59275   -57283   -55138   -35504    -3483    23052    30465 
    7534   -21689   -33682   -45172   -47120   -27411   -16506   -14836 
   -2561     3265     1850     9585    13452    15145    24485    26730 
   29376    42253    47208    47681    53262    53750    54383    57403 
   51226    46387    48435    43741    39993    38230    19130     1835 
    4392    -1947   -18461   -22369   -23727   -31845   -38542   -42115 
  -46586   -48945   -44939   -44518   -51904   -55012   -56118   -65748 
  -74158   -75105   -79112   -81263   -73999   -68117   -63347   -49740 
  -32591   -18593    -5643     5689    16097    26793    33574    40200 
   48634    50624    52287    59117    60607    59890    66071    72480 
   71939    70763    78296    87547    90871    96352   103893   106165 
  108037   112082   109504    98677    79067    45544    17279    12292 
   13353    14694    24833    28250    21699    19149    13896     5912 
    1619    -7000   -14508   -15754   -20940   -26914   -28354   -32042 
  -37754   -43653   -53102   -62054   -68723   -78365   -87965   -94134 
 -101065  -111944  -129517  -149399  -162186  -169732  -175787  -180658 
 -185017  -184114  -179605  -176841  -169498  -155203  -139476  -122507 
 -102083   -79676   -60002   -47078   -43958   -46897   -43443   -38834 
  -51933   -66003   -56774   -52043   -69107   -79148   -71104   -60566 
  -65695   -75504   -66732   -55966   -54464   -48400   -39621   -37196 
  -37908   -34365   -32095   -43960   -59247   -40765     6737    15103 
  -17471   -21637   -18803   -36388   -32840   -29281   -37235   -28466 
  -26073   -32980   -30987   -25817   -21079   -21508   -19807    -9305 
   -4277    -2186     6077     9542     8679    14192    16844    11787 
    9917    10055    10071    10261     6887     8470    13826    13632 
   16447    22088    23753    25792    28286    30102    32183    36240 
   47188    64614    84910   109399   138443   161841   176531   200166 
  234010   264219   293838   311694   299683   275364   261315   254529 
  240765   224067   222176   221901   202486   174860   145936   107749 
   64170    26214    -7114   -35840   -47989   -50830   -56151   -57531 
  -57113   -51869   -39172   -33391   -30143   -19339    -8610    -2203 
    1911     1967     1415     9261    11509     -569    -1168     2486 
  -14420   -22591   -10989   -14786   -23470   -14409   -12847   -21898 
  -17857   -15525   -25998   -24075   -15466   -21983   -27895   -24995 
  -25120   -30372   -37259   -41518   -48056   -60399   -70262   -81004 
  -99369  -116751  -127741  -138053  -148134  -149138  -138861  -125632 
 -109030   -85427   -63149   -46023   -30878   -18722   -11122    -4500 
    6954    18185    25723    36064    42841    41787    42175    43248 
   40642    37777    35562    29712    22901    19760    10995    -7480 
  -21945   -29610   -43248   -62343   -77574   -87263   -91781   -96259 
 -105050  -111107  -110727  -112101  -116486  -115641  -112428  -110434 
 -103956   -95628   -88320   -77153   -63290   -51451   -43513   -39215 
  -36320   -31371   -19427    -7053   -11682   -16775     2300    11474 
    3003    14308    23102    20428    26995    23795    25775    41165 
   38641    37522    49627    51033    50332    57552    60128    56603 
