Origin Time       2011/03/11 14:46:00
Lat.              38.103
Long.             142.860
Depth. (km)       24
Mag.              9.0
Station Code      CHB025
Station Lat.      34.9705
Station Long.     139.9458
Station Height(m) 74
Record Time       2011/03/11 14:47:52
Sampling Freq(Hz) 100Hz
Duration Time(s)  300
Dir.              E-W
Scale Factor      3920(gal)/6182761
Max. Acc. (gal)   36.850
Last Correction   2011/03/11 14:47:37
Memo.             
[...]
   30523    31088    30847    29448    27394    26056    26299    27673 
   29211    30266    30559    30075    28926    27156    24637    21297 
   17330    13250     9931     8164     8002     8916    10356    11737 
   12546    12683    12092    10590     8355     6111     4797     4704 
    5088     5214     5259     5825     6980     8161     9056     9802 
   10321    10574    11001    11747    12288    12323    12028    11197 
    9159     5806     1747    -2434    -5992    -7973    -8265    -7332 
   -5185    -2344     -254      306     -576    -2513    -4590    -6231 
   -7934   -10129   -12609   -14920   -16415   -16875   -16809   -16447 
  -15535   -13955   -11820    -9733    -8434    -7587    -6452    -5484 
   -5546    -6604    -8353   -10785   -13594   -16274   -18540   -19778 
  -19031   -15894   -10818    -4985      126     3767     6133     7526 
    8121     8213     8226     8629     9596    10659    11066    10262 
    8091     5073     1956     -997    -3397    -4548    -4685    -4946 
   -6075    -8117   -10706   -13156   -14859   -15702   -15860   -15490 
  -14701   -13601   -12339   -10912    -9128    -7179    -5575    -4231 
   -2374      582     4442     8655    12869    16767    20272    23875 
   27701    31207    34099    36502    38726    40622    41073    39438 
   36406    32826    29355    26471    24032    21859    20236    19336 
   18918    18727    18613    18401    18088    17834    17705    17718 
   17612    16836    15276    13298    11303     9828     9266     9358 
    9515     9256     8356     7008     5803     5584     6930     9661 
   13204    17048    20683    23654    25744    26981    27476    27383 
   27223    27943    30069    33217    36748    40171    42893    44331 
   44227    42689    40091    36961    33672    30114    26178    22118 
   18035    14065    10617     7586     4568     1760     -426    -2168 
   -4304    -7557   -11729   -15811   -18542   -19094   -17595   -14890 
  -12029    -9789    -8380    -7609    -6990    -6130    -5431    -5505 
   -6098    -6589    -6556    -5517    -3361     -495     2833     6216 
    8765    10081    10509    10328     9620     8415     6709     4764 
    3121     2436     3103     4742     6585     8244     9753    11329 
   13154    15053    16492    16916    16213    14874    13365    11821 
   10295     8639     6709     4739     3026     1692      839      647 
     999     1208      715     -425    -1780    -2778    -3132    -3025 
   -2742    -2528    -2439    -2117    -1176      272     1710     2643 
    2810     2183      939     -608    -1822    -1828     -417     1593 
    3246     4230     4997     6369     8653    11412    14216    16944 
   19598    22397    25541    28618    30732    31370    30794    29757 
   29047    29047    29647    30319    30389    29671    28654    27995 
   27833    27840    27938    28289    29199    31317    34864    39015 
   42629    44998    46204    47045    48142    49420    50419    50554 
   49713    48593    47636    46375    44257    41127    37186    33293 
   30474    28826    27550    25748    23336    21238    20289    20432 
   21091    21682    21815    21560    21413    21703    22343    23098 
   23834    24374    24394    23786    22633    21089    19330    17112 
   14325    11491     8825     6256     4049     2306     1013      561 
    1394     3623     7139    11683    16622    20966    23960    25393 
   25461    24711    24049    24464    26240    28549    30271    31020 
   31111    31032    31342    32361    33490    33642    32581    31085 
   29890    29195    28825    28285    26943    24567    21520    18171 
   14558    10712     6881     3477      856     -886    -1783    -1706 
    -436     1961     5178     8629    11141    11538     9578     5861 
    1370    -2910    -6834   -11030   -15594   -19796   -22825   -24227 
  -24074   -22999   -21928   -21397   -21138   -20915   -21238   -22482 
  -24224   -25834   -26558   -25631   -23063   -19225   -14342    -8927 
   -3425     2125     7528    12289    15945    18317    19781    21119 
   23089    26043    29467    32391    34382    35263    34872    33837 
   33147    33171    33842    34876    35825    36372    36329    35670 
   34708    33757    32899    32044    30820    28818    26106    23041 
   19741    16284    13023    10292     8194     6777     6121     6057 
    6059     5915     5868     5784     5155     3844     2050       19 
   -1719    -2481    -2148    -1114      364     2121     3944     5829 
    7861    10075    12656    15638    18380    20195    21028    20842 
   19567    17697    15722    13758    12071    10946    10206     9347 
    8304     7783     8163     8921     9416     9120     7663     5430 
    3293     1794     1083     1435     3343     6740    10708    14196 
   16387    16812    15688    13790    11913    10573     9964     9828 
    9578     8979     8336     7897     7708     7782     7971     7948 
    7532     7025     7113     8303    10561    13154    14940    15520 
   15411    15043    14858    15623    17520    19935    22113    23208 
   22771    21339    19577    17716    16175    15405    15179    15086 
   15095    15226    15422    15659    15849    15867    15618    14975 
   13731    11718     8964     5648     2228     -357    -1418    -1303 
    -613      709     2895     5945     9656    13484    16787    19214 
   20619    21015    20754    20249    19624    18994    18486    17754 
   16368    14733    13776    13797    14404    15310    16261    16797 
   16859    16673    16092    15024    13784    12541    11051     8921 
    6102     3196      961     -595    -2222    -4371    -6686    -8526 
   -9403    -9368    -9196    -9502   -10048   -10491   -10927   -11422 
  -12135   -13457   -15207   -16724   -17726   -18151   -17874   -16918 
  -15452   -13813   -12450   -11535   -10868   -10141    -9317    -8720 
   -8431    -8071    -7378    -6502    -5835    -5792    -6498    -7527 
   -8328    -8938    -9672   -10511   -11264   -11729   -11774   -11695 
  -11985   -12719   -13547   -13972   -13716   -13051   -12442   -12065 
  -11672   -10991   -10206    -9419    -8180    -6008    -2782     1061 
    4664     7415     9224    10265    10402     9164     6532     3089 
    -313    -2645    -3246    -2509    -1471     -720     -272       -5 
     463     1321     2006     1854      560    -1770    -4459    -6630 
   -7458    -6407    -3781     -452     2790     5464     7563     9370 
   11009    12446    13771    15075    16406    18191    20689    23079 
   24361    24415    23597    22383    21228    20224    19317    18624 
   18346    18712    19660    20651    21401    22236    23352    24464 
   25291    25728    25859    26134    26919    27999    29037    29898 
   30425    30507    30211    29715    29202    28835    28812    29200 
   29713    29949    29742    29292    29026    29069    29124    28989 
   28613    28104    27858    27911    27965    28273    29139    30273 
   31377    32115    31838    30417    28493    26568    24670    22842 
   21263    19933    18753    17828    17396    17565    18201    19079 
   19885    20365    20842    21817    23152    24375    25109    25194 
   25049    25302    26284    28095    30200    31704    32350    32264 
   31581    30632    29621    28375    26814    25523    25383    26645 
   28731    30625    31508    31300    30331    28708    26348    23289 
   19561    15205    10626     6112     1520    -2847    -6230    -8419 
   -9717   -10420   -10799   -10901   -10415    -9247    -7802    -6564 
   -5770    -5264    -4591    -3525    -2242    -1047     -149      668 
    1819     3237     4470     5244     5599     5739     5878     6247 
    7008     8201     9711    10986    11413    11178    10804    10297 
    9583     8710     7522     6194     5190     4425     3424     2017 
     686      486     2067     4906     8053    10861    13005    14767 
   16732    19067    21687    24276    26134    26842    26456    25291 
   24252    24200    24999    26097    27190    28366    30241    33201 
   36662    39724    41796    42702    42749    42499    42550    43187 
   44069    44739    45023    44809    44034    42829    41515    40269 
   38766    36617    34000    31418    29002    26532    23833    20786 
   17297    13478     9664     6318     3818     2221     1277      610 
     -16     -658    -1212    -1310     -608      902     2867     4691 
    6000     6649     6587     6347     6601     7368     8472     9796 
   10945    11552    11546    10709     9017     7307     6485     6894 
    8544    10681    12155    12681    12545    11909    11064    10120 
    8877     7580     6675     6198     6037     5947     5672     5596 
    6266     7677     9684    12043    14281    16285    18212    19844 
   20930    21774    22864    24286    25500    25648    24474    22585 
   20828    19603    18566    17367    16047    14744    13964    13798 
   13520    13167    13128    12985    12374    10960     8342     5191 
    2792     1835     2093     2539     2309     1214     -697    -2919 
   -4756    -6138    -7232    -8088    -8739    -9028    -8688    -7392 
   -5073    -2296      585     3839     7444    10852    13323    14236 
   13621    12313    11539    11979    13112    14007    14365    14599 
   15406    17118    19383    21418    22404    22084    21064    20119 
   19372    18316    16353    13377    10043     7300     5722     5227 
    5157     4969     4896     5457     6559     7613     8175     8090 
    7429     6460     5366     4079     2442      513    -1290    -2589 
   -3561    -4559    -5400    -5746    -5679    -5389    -5297    -6056 
   -7698    -9572   -10982   -11404   -10775    -9582    -8313    -7069 
   -5739    -4490    -3884    -4174    -4939    -5682    -6102    -5872 
   -4785    -2966     -706     1666     3924     5975     7621     8658 
    9010     8606     7359     5331     3032     1273      435      127 
    -342    -1335    -2543    -3216    -2962    -2168    -1744    -2461 
   -4187    -6113    -7810    -9433   -11150   -12787   -13769   -13626 
  -12743   -11987   -11784   -11900   -11607   -10300    -8188    -6027 
   -4365    -3227    -2269    -1037      837     3154     5222     6891 
    8418     9551    10202    11049    12508    14169    15404    15771 
   15104    13620    11830    10437    10075    10495    10820    10936 
   11181    11296    10978    10217     8968     7484     6313     5881 
    6566     8410    10893    13622    16549    19477    21964    23683 
   24690    25148    25119    24557    23141    20617    17464    14607 
   12613    11479    10655     9526     8190     7073     6238     5520 
    4742     3765     2538     1168      -53     -974    -1643    -2007 
   -2190    -2490    -2668    -2051     -344     2064     4416     6321 
    7985     9623    11449    13646    15745    17228    18317    19299 
   20056    20347    19880    18399    16066    13247    10049     6701 
    3615      978     -993    -2148    -2756    -3052    -2902    -2031 
    -425     1401     2711     2873     1665     -356    -2544    -4734 
   -6627    -7821    -8463    -9116    -9984   -10759   -11453   -12576 
  -14271   -16179   -18167   -20419   -22969   -25753   -28753   -31637 
  -33851   -35185   -35831   -36104   -36181   -35997   -35530   -34745 
  -33367   -31340   -28987   -26548   -24208   -22225   -20572   -19041 
  -17753   -17116   -17325   -18137   -19013   -19501   -19754   -20287 
  -20946   -21057   -20505   -19638   -18750   -18241   -18226   -18077 
  -17154   -15548   -13849   -12458   -11254   -10116    -9334    -9162 
   -9424    -9694    -9809    -9844    -9620    -8934    -7824    -6346 
   -4739    -3297    -1724      478     3271     6301     9161    11482 
   13357    15304    17628    19982    21644    22444    23040    24022 
   25389    26775    27738    28212    28783    30124    32051    33562 
   34107    34273    34892    36254    38243    40406    42011    42510 
   42312    42631    43934    45630    47047    47321    45867    43581 
   41429    39037    36295    33742    31402    29605    29102    29492 
   29675    29279    28114    25862    23214    21192    20036    19965 
   21086    23032    25143    26147    25437    24101    23452    24019 
   25097    24822    22318    19125    17800    19419    22671    25493 
   26616    25875    24326    23468    23589    23511    22156    19288 
   15313    11479     8652     6225     3572      680    -2540    -5812 
   -8231    -9218    -9390    -9836   -10790   -11997   -13426   -15030 
  -16736   -18249   -19123   -19495   -19630   -19527   -19679   -20465 
  -21301   -21832   -22433   -23233   -24051   -24472   -23952   -22766 
  -21937   -22101   -22837   -23063   -22313   -21127   -20215   -20077 
  -20900   -22195   -23292   -23985   -23825   -22164   -19619   -17309 
  -14961   -11944    -8552    -5280    -2564     -667      802     2452 
    4711     7606     9960    10506    10345    11606    14552    18011 
   20400    20429    18479    16048    14330    13898    14289    14445 
   13766    12045     9795     8310     8297     9592    11650    13759 
   15917    18516    21120    22919    23672    24173    25520    27455 
   28992    29808    29905    29862    30826    32675    33931    33728 
   32072    29610    28079    28808    30974    33022    34727    36402 
   37687    38375    38807    39302    40234    41835    43553    44878 
   46447    49087    52545    55904    58396    59696    60245    60931 
   62020    63019    63466    63519    63955    64989    65864    66264 
   66166    64993    62741    60125    57264    53943    50692    48411 
   46974    45169    42308    39055    36591    35524    35436    35104 
   33676    31553    29291    26805    24085    21223    18274    15703 
   14082    13074    11346     8430     5567     3736     2701     2088 
    1723     1310      668       52     -300     -627     -856     -109 
    1824     3861     5055     5162     4368     3353     2930     3326 
    4096     4916     5606     5693     5257     4751     3983     2809 
    1406     -123    -1268    -1529    -1289    -1234    -1435    -1393 
    -890     -499     -756    -1396    -1931    -2120    -1769    -1075 
   -1114    -2765    -5208    -6887    -7504    -7828    -8475    -9590 
  -11121   -12833   -14136   -14557   -14137   -13098   -11728   -10519 
   -9826    -9359    -8604    -7619    -6812    -6648    -7402    -8567 
   -9321    -8989    -7040    -4296    -2464    -1554     -310     1647 
    4030     6511     8609     9939    10408    10397    10664    11609 
   13124    14750    15743    15639    14353    12235    10274     8973 
    7626     5541     3103     1128      155      699     2574     4461 
    5686     6874     8723    11348    14195    16550    18342    20018 
   21653    22648    22562    21693    20765    20470    21067    22353 
   23903    25429    27470    30686    34138    36308    36959    36426 
   35371    34908    35008    34703    33531    31313    28385    25750 
   23532    20931    18229    16477    15382    13863    11560     8606 
    5611     3645     3007     2676     1638        5    -1408    -2013 
   -2087    -2296    -2701    -3131    -3558    -3738    -3839    -4662 
   -6508    -8575    -9788   -10259   -11183   -12929   -14665   -15871 
  -16581   -16935   -17482   -18485   -19131   -18742   -17787   -17062 
  -16577   -15684   -14219   -12871   -12093   -11769   -11847   -11950 
  -11386   -10252    -9222    -8774    -9000    -9462    -9851   -10494 
  -11526   -12513   -13104   -13326   -13399   -13731   -14790   -16598 
  -18415   -19544   -20339   -21324   -22258   -23108   -24348   -25997 
  -27602   -28783   -29261   -28726   -27042   -24580   -22039   -19839 
  -17960   -16431   -15341   -14624   -14435   -14863   -15532   -16003 
  -15839   -14859   -13572   -12422   -11244    -9590    -6993    -3842 
   -1374     -357     -847    -1933    -2419    -2697    -3354    -3784 
   -3768    -3255    -1727      660     3205     5475     7481     9666 
   12384    15412    18127    20117    21592    23068    24551    25308 
   24831    23429    21780    20764    21114    22750    24938    26983 
   28513    29519    30662    32476    34153    34780    34439    33215 
   31158    28842    26781    25086    23741    22668    21930    21789 
   22044    22139    21961    21710    21487    21621    22547    23950 
   24957    25104    24831    25179    26565    28385    30160    31931 
   33506    34577    35359    36183    36944    37480    37955    38488 
   38685    38111    36944    35438    33749    32500    32002    31811 
   31712    31432    30263    28370    26815    25871    24949    23929 
   23093    22303    21282    19755    17427    14612    12034    10064 
    8456     6590     4250     1853       -9    -1080    -1933    -3259 
   -4934    -6662    -8307    -9720   -11459   -14386   -18143   -21703 
  -24808   -27729   -30816   -34172   -37212   -39495   -41052   -41698 
  -41457   -40542   -38658   -35921   -33165   -30735   -28557   -26648 
  -25061   -23884   -22610   -20302   -16779   -12575    -8288    -4592 
   -1984     -329      934     2299     3793     4891     5377     5754 
    6201     6199     5510     4601     3918     3654     4189     5386 
    5906     4684     2244     -185    -1941    -3264    -4651    -5934 
   -6927    -8197    -9839   -11031   -11405   -11250   -10641    -9477 
   -8039    -6935    -6416    -6274    -6376    -6570    -6379    -5598 
   -4906    -4947    -5323    -5482    -5523    -5425    -4963    -4552 
   -4742    -5051    -4524    -3061    -1068     1123     2866     3777 
    4183     4209     3804     3037     1766      152    -1158    -1882 
   -2219    -2286    -1988    -1051      717     2874     4563     5356 
    5398     4911     4137     3339     2325      892     -435    -1040 
    -750       98      565      157     -445     -609     -686    -1300 
   -2476    -3722    -4613    -5010    -5186    -5797    -6882    -7600 
   -7547    -7272    -7503    -8395    -9424   -10203   -10946   -11826 
  -12700   -13431   -13886   -13795   -13126   -12371   -11890   -11498 
  -11067   -10891   -11126   -11420   -11491   -11190   -10163    -8644 
   -7348    -6169    -4641    -2990    -1605     -590     -161     -321 
    -603     -993    -1615    -2067    -2262    -2154    -1367      -22 
    1556     3027     3911     4477     5386     6762     8473    10134 
   11323    12256    13293    14359    15482    17061    18923    20238 
   20866    21291    21932    23213    25021    26787    28217    29288 
   30335    31751    33278    34326    34564    33953    32899    32162 
   31931    31646    31108    30884    31547    33119    35119    36945 
   38155    38698    38904    38773    37936    36594    35400    34737 
   34573    34603    34537    34353    34312    34744    35700    36906 
   37980    38663    38864    38551    37710    36328    34581    32750 
   30884    28976    26919    24460    21625    18439    14974    12007 
   10262     9703    10041    10593    10234     8624     6642     5124 
    4042     3017     1810      427    -1128    -2996    -4921    -6444 
   -7258    -7054    -6116    -5141    -4321    -3543    -2662    -1801 
   -1572    -2023    -2293    -1836     -840      223      865     1172 
    1904     3374     4894     5630     5468     4713     3600     2721 
