Origin Time       2011/03/11 14:46:00
Lat.              38.103
Long.             142.860
Depth. (km)       24
Mag.              9.0
Station Code      CHB012
Station Lat.      35.5721
Station Long.     140.3436
Station Height(m) 60
Record Time       2011/03/11 14:47:22
Sampling Freq(Hz) 100Hz
Duration Time(s)  300
Dir.              E-W
Scale Factor      3920(gal)/6182761
Max. Acc. (gal)   214.699
Last Correction   2011/03/11 14:47:07
Memo.             
[...]
  -41919   -54010   -57246   -54947   -57694   -60111   -53977   -42544 
  -28282    -9953     8344    21870    31172    33057    24434    11861 
   -1980   -22125   -47403   -67354   -70775   -59366   -44505   -30362 
  -15796    -1130    16104    39319    61832    70424    66339    64032 
   70065    81199    91890    96759    92657    76776    49518    21352 
    7501    14436    32480    43317    38374    25264    13672     4646 
   -3497    -7120    -1973     6670    10597    11477    15318    24205 
   36733    43842    34205    10989   -14811   -40124   -66518   -90787 
 -100553   -86569   -54653   -19774     3599    16330    30415    44520 
   45566    26800    -5755   -38834   -64731   -82777   -85330   -64859 
  -32387    -1028    26500    43248    43471    37166    41589    59720 
   75611    76783    64904    46462    28819    17893    17310    26193 
   34535    33750    24663     9573    -4311    -2267    18650    46356 
   72762    93321   100567    93629    77635    54038    25644     2772 
   -7057    -8168    -9171   -11293    -8876    -1924     1277    -3630 
  -14111   -26197   -36221   -42659   -43952   -35105   -13729    14419 
   38390    51812    60088    69218    75985    76686    73446    69552 
   64295    56800    51568    55201    67668    77892    73851    53778 
   26006     3194    -8307   -11066    -6268     9590    37863    73374 
  104773   120513   121257   117611   110879    93246    62240    25620 
   -1248   -10611   -10199    -8765    -9423   -14613   -24186   -32321 
  -33192   -27990   -22463   -18550   -11961    -1310     7276     9564 
    5510    -4637   -18188   -31632   -40139   -35015   -13843    13933 
   37419    50458    50713    38681    15236   -16148   -47566   -70774 
  -81236   -82448   -82404   -84451   -88335   -91721   -88764   -81197 
  -79622   -83122   -82117   -76049   -66020   -47843   -19083    18328 
   59459    97420   123729   130177   117095    98810    87654    78081 
   61209    39378    18232      746   -11541   -17871   -15517    -3607 
   11227    22211    28109    28079    20550     8124    -5032   -20121 
  -40492   -63624   -81004   -88536   -91018   -91913   -90688   -86918 
  -77608   -58930   -30802     2980    35309    59039    71403    75961 
   79462    83877    88823    99045   116030   130851   135692   133585 
  129363   119287    97591    63250    18494   -29375   -68640   -86799 
  -79070   -63468   -64054   -77049   -86205   -87797   -82182   -73296 
  -65176   -54117   -43853   -42275   -44505   -43708   -40959   -38323 
  -34639   -29581   -28100   -32557   -35038   -27548   -11719     4566 
   13251    13380    12912    15192    12662     4149     1492    10479 
   23873    32573    28404     7579   -20655   -42071   -52924   -58224 
  -60731   -58707   -48043   -24666     9543    44307    65749    68891 
   63228    54084    34341     4654   -22417   -38280   -44287   -49153 
  -60264   -73569   -77656   -67822   -50185   -32149   -16566    -1501 
   18850    43357    62920    73194    70833    52912    27193      892 
  -24929   -43797   -50123   -43645   -24907     2509    36968    75843 
  110186   133283   138989   125483   102090    72559    32897   -11354 
  -45602   -53784   -27985    20718    71737   106675   117584   116049 
  111821    98552    75005    45053    10357   -18102   -28158   -17854 
    9219    42838    69641    83026    84965    81720    77611    72589 
   65253    55421    41172    20595    -2563   -26557   -53600   -78731 
  -92600   -91920   -82038   -74237   -74006   -70925   -56188   -41493 
  -40522   -53003   -73869   -94478  -105692  -107046  -100397   -85615 
  -65638   -44971   -25121    -4016    18962    40508    57462    68445 
   73928    76612    79319    81351    81912    85331    92088    97388 
   99568    95198    83147    71841    66689    63053    53968    38972 
   24328    17309    25693    49107    73092    87181    91923    88862 
   79383    63094    39000    10683   -16885   -38845   -48061   -41107 
  -27479   -19251   -16311   -15264   -12945    -3614     9103    16224 
   15314     6437    -7362   -17601   -19312   -19080   -24559   -33302 
  -40968   -43443   -36021   -23667   -15478   -10568    -5832    -6809 
  -15484   -20320   -11795     5510    24497    43339    59594    71140 
   78387    80138    74545    65422    58936    51792    37438    19182 
    3366    -8085   -16296   -26158   -43017   -67609   -95484  -114927 
 -114330   -97712   -77417   -54532   -25121     4252    24390    31107 
   20827    -3468   -29113   -44858   -50623   -53709   -56700   -56097 
  -48170   -30277    -1882    29040    46339    44652    34225    22803 
   12880     6449     3241     5785    17982    35611    47605    45983 
   35516    29448    34658    46479    55367    60533    69032    82092 
   95764   105533   110996   113713   107460    87502    57035    21360 
   -7193   -13676     3681    34252    64102    79688    75585    58713 
   38884    20600     3269   -13594   -26149   -31227   -27040   -11013 
   10050    26176    39689    50792    49833    35034    14807    -3305 
  -16162   -24672   -29463   -27727   -18903    -6961     3674    10590 
   14547    18664    26049    36736    47800    54277    48705    31081 
   15624    14877    21455    17157     1271    -8122      200    23302 
   50574    68258    72774    74640    78801    75823    59460    40133 
   36512    56279    85677    99998    91389    78625    75245    75163 
   74954    73789    68315    62160    58090    51506    40341    30744 
   28487    27792    20355     7370    -4942    -8706      450    16835 
   33833    51415    67101    71457    60536    43555    30278    18668 
    -140   -27755   -53378   -67218   -72092   -74744   -74385   -66605 
  -51076   -31416   -16839   -18154   -31522   -40428   -36358   -23768 
  -10192      360     8869    18367    28045    32720    28975    19776 
   12040     8579     7848    10626    18108    30480    47409    64595 
   74604    67217    36834    -5088   -39619   -56629   -54297   -37007 
  -14287     5382    15895    15883    10868     4631     -580     -299 
    5273    15845    33994    54004    65132    64035    55893    47530 
   40188    30488    19346    12867    12667    14190    13934    10148 
    1602    -9801   -24037   -46510   -76675  -101779  -109819  -103209 
  -91635   -77535   -58649   -37702   -23370   -21526   -27049   -30400 
  -26720   -14823     2265    18722    34481    53324    71122    75645 
   61739    40081    22145     5052   -18236   -44656   -62377   -61420 
  -45049   -25667    -9822      715     4238     4418     4027      931 
     585    12472    36159    63467    83518    88123    78377    57769 
   26968    -8162   -39641   -69026   -99570  -123444  -128410  -109298 
  -71093   -26801    10758    37888    55431    58459    42941    19135 
    2113    -5251    -4028     9024    34146    67930   101718   123656 
  129396   121469   104383    82342    58944    39788    26647    13042 
   -5754   -28113   -53980   -86669  -123382  -153174  -171900  -180964 
 -174784  -154215  -126702   -90667   -45406     8703    71065   122541 
  144745   146972   146388   145641   134979   111782    89638    77009 
   70900    68990    65074    49917    20771   -22681   -76926  -126635 
 -152465  -146514  -124019  -111077  -108433   -92590   -53535    -5137 
   30669    45749    55660    74794    97928   115834   126459   129903 
  128565   126755   120017    99477    63943    14594   -41201   -85710 
 -113652  -136351  -154504  -158453  -150708  -138529  -119119   -89055 
  -51795   -17669     3275    18084    38370    56681    62571    59588 
   56828    60636    69253    75181    72747    60467    42730    25090 
    9350    -2050    -4142     3083     7797     -564   -17665   -36118 
  -55725   -76986   -93155   -95939   -88153   -77645   -67113   -56647 
  -44290   -27997    -9842     4208    10571    15944    29231    55790 
   99230   147033   178221   192915   202966   208435   202896   177751 
  123122    46486   -29358   -88683  -121532  -122955  -102272   -76427 
  -56364   -34908    -1723    31286    50512    55230    44118    22137 
     142   -15749   -21250   -17799   -16413   -20834   -20064   -13582 
  -10778    -3034    20137    50459    76424    92104    95608    88807 
   75780    62083    51614    43656    34029    16268   -13641   -45225 
  -61834   -62380   -52654   -31906    -1759    30262    58867    82379 
   94872    87890    63516    35514    13447    -8370   -40147   -84361 
 -134902  -178445  -206140  -218494  -217137  -207240  -198802  -197081 
 -192220  -167119  -117430   -53516     6915    49502    72780    87920 
  111322   139138   148859   134317    98917    47342    -4275   -48826 
  -85937  -107418  -113356  -107455   -89003   -71154   -70504   -73185 
  -59138   -42214   -37473   -39440   -41682   -29493     6699    50128 
   85320   113355   139521   163763   176270   169090   147640   121001 
   87019    41007    -6611   -43899   -76040  -107607  -124040  -113353 
  -86551   -57759   -30720    -5519    25143    63693    93711   102831 
   97588    89239    79613    63494    43894    29167    17368     1637 
  -18323   -37687   -51682   -55154   -42730   -17287    11028    32886 
   37295    18383   -10066   -27495   -30552   -26644   -17516    -6472 
   -1019     3329    15318    30833    41140    43068    44936    55786 
   69099    76440    79535    83311    83848    72656    54782    36037 
   13140    -9548   -28258   -45130   -50955   -39060   -25209   -21602 
  -14281     7577    31222    44558    48294    49484    54745    57386 
   48205    38239    41615    47174    35976     9352   -21354   -46290 
  -55793   -48875   -31371   -10070     2750     1868     5098    30153 
   58917    63447    53687    49113    46030    41761    40653    46520 
   61455    72959    65186    37953    -2538   -47166   -78674   -88107 
  -91988  -112992  -150979  -189821  -215558  -220811  -205625  -169231 
 -112133   -48788     4517    44422    79231   120901   168105   201456 
  204790   191011   186628   186579   171521   149601   126100    83915 
   19937   -48025  -100039  -126771  -140074  -152117  -148288  -108946 
  -37003    49928   131311   187823   203677   176383   129976    92609 
   64084    26971   -22832   -68885   -93841   -95722   -81070   -54661 
  -23368     1211    10574     4144   -10399   -21950   -28733   -40799 
  -63205   -84940   -92263   -85501   -76665   -74341   -69736   -45406 
   -6289    25035    43287    48221    29167    -1487   -13488    -4670 
    3060    -5721   -33162   -67167   -85994   -83558   -79467   -85626 
  -91680   -92259   -81882   -51493   -18607    -5675   -13344   -34608 
  -50012   -41414   -18655     5295    37432    82663   124651   138810 
  115958    74103    42060    25593    11015    -6774   -25231   -32014 
   -4499    56266   114514   132704   103422    45329   -21914   -77495 
 -102682  -103036   -96372   -89009   -79929   -61204   -19943    36237 
   78825    85417    47537   -18282   -77937  -112774  -111567   -78680 
  -49402   -42270   -46718   -45444   -19234    29894    82281   126249 
  153770   159805   151938   143495   136567   120784    90374    50975 
   12337   -16247   -27291   -15979    11229    24242      298   -40467 
  -74612  -100300  -118893  -137594  -148743  -132258   -93579   -46839 
   -5177    10714     2076   -11758   -25859   -36857   -31989    -3951 
   41141    79604    96640   110550   135750   158407   157591   120944 
   59343     9921     -173    19550    42190    44656    15736   -30299 
  -61554   -67815   -71315   -88475  -114144  -139509  -147236  -112539 
  -39673    35675    89809   120194   127254   111555    77432    41834 
   20214     5758   -17859   -60490  -103134  -103851   -57589    -4349 
   23703    23012     2255   -23078   -27634    -5089    12676     1779 
  -19372   -22258     5631    57746   103362   114407    87696    33421 
  -19823   -40710   -28011     1631    27896    33688    18480    -4049 
  -15467   -16625   -33100   -74255  -121744  -159575  -184154  -196544 
 -192290  -157378   -91838   -27173     3301    -1484   -17952   -26986 
  -29896   -40890   -69971  -114143  -157266  -180378  -177644  -152764 
 -110116   -62815   -25084     3088    21079    18400    -2003   -17733 
  -17742   -13152   -11117    -6601     -190     1676      943     3885 
    9968    16831    18500     2838   -21956   -32009   -29480   -30696 
  -38987   -51226   -52833   -33351   -14785   -19671   -40615   -59972 
  -63973   -46926   -14902    24376    65944   104074   137630   173795 
  217619   264149   304219   322192   300496   247566   196306   165115 
  142656   111844    71365    23270   -39664  -110259  -156836  -161766 
 -145202  -129531  -108390   -72666   -25835    35310   105923   159977 
  187982   206212   223943   245849   278301   304947   298058   255046 
  193686   125641    57732    12056     4164     4699   -17222   -45970 
  -68724   -94871  -113547  -111967   -96742   -68263   -28355    11268 
   53467   108832   169363   214307   236078   244800   241395   210730 
  145549    55336   -37635  -111691  -164764  -199875  -211132  -216330 
 -244026  -269581  -249663  -191130  -122995   -68496   -48523   -53911 
  -48285   -17826    12974    18618     7842     7145    25839    52630 
   78816   111801   150842   172304   160630   131707   110105   100995 
   94493    72717    26131   -25552   -67770  -117233  -182920  -246048 
 -284459  -292172  -271715  -221293  -156563  -108019   -72729   -26120 
   39993   117262   190115   257091   317663   345353   325102   277108 
  215637   136626    56523     1738   -35496   -73902  -108418  -128841 
 -132044  -119424  -106093  -105872  -110558  -108979   -99061   -81321 
  -67342   -68934   -78927   -82497   -69913   -44656   -21121    -1700 
   22937    52734    82238   112262   140564   158441   161517   150367 
  128351   101227    77971    66738    53889    19031   -26166   -56859 
  -64013   -51594   -34633   -26260   -20852    -3611    31244    77183 
  119413   148104   168287   180052   170021   136836    95569    49411 
  -11759   -82840  -145417  -188021  -209551  -210693  -190761  -161380 
 -135330  -102171   -56622   -21248    -6272      235    -1273    -7809 
     749    29108    65789   109938   155509   183125   195181   209271 
  221991   224013   222319   226244   234236   238262   230474   201807 
  150369    93699    53462    33041    24162    23907    21522     2057 
  -15526   -16593   -24069   -35743   -38957   -44360   -43417   -26896 
   -4068    17250    32558    44663    48338    37337    26433    32877 
   61269   100656   134541   156679   160030   138761   109255    81521 
   39574   -12043   -55880   -97098  -134166  -158052  -169533  -159090 
 -115529   -51584     6541    43401    66251    93554   118265   115113 
   90431    58525    10277   -45832   -86677  -106619  -110333  -112063 
 -120118  -127678  -140903  -167531  -198837  -227941  -247924  -247072 
 -219703  -170787  -116275   -73618   -48382   -31648   -10809    16898 
   46680    76035   101811   118799   132220   149833   163359   166193 
  163847   154181   134022   112366    97182    88380    83973    85716 
   95669   109003   114607    95123    44226   -12807   -45037   -43876 
  -19493     4278     3378   -24035   -44697   -24418    16636    37786 
   36242    26739    15986     1421   -21442   -45618   -60375   -61565 
  -51246   -34514   -14540     5831    25361    46473    70453    92481 
  100815    91744    74764    50218    10904   -34135   -64802   -73244 
  -70830   -67199   -55889   -37918   -22168      779    34427    57933 
   60327    48942    30564     7830   -20047   -55103   -95937  -134199 
 -165180  -199082  -237467  -267548  -286974  -296201  -294118  -283585 
 -261703  -228637  -189600  -145099   -98267   -53856   -12634    20696 
   37207    38027    34098    30229    26473    23788    20224    18779 
   24048    28577    26957    22376    13083      836    -3511     3754 
   19717    43276    70536    99301   129598   157199   182783   208822 
  239334   278340   305861   310730   312197   310526   301080   295820 
  288586   266131   223853   157777    77929     3017   -59191  -108623 
 -144692  -168219  -180196  -177317  -164043  -153605  -145287  -129855 
 -108284   -83386   -55334   -27653    -5043     6291     -999   -29492 
  -71027  -107520  -128640  -139225  -144884  -149564  -154565  -151885 
 -137367  -118431   -99256   -78307   -58815   -40724   -13052    30605 
   86047   141800   176633   179029   162936   142905   120726   101976 
   94436    97211   106510   118266   122305   106250    70452    31937 
    2840   -23171   -53743   -85193  -106851  -110145   -98173   -81816 
  -71313   -75146   -96050  -128577  -158192  -167432  -159842  -154745 
 -152145  -141857  -128721  -118912  -103599   -69268   -16061    47397 
  112037   160755   181679   182206   182467   198155   213691   199487 
  155131   102553    61603    36381    13134   -12208   -22728   -12064 
    4466    18610    34592    50473    64753    78642    84506    78786 
   69103    63669    64256    61953    50392    31252     3450   -31597 
  -66346   -87773   -85092   -67361   -50807   -37851   -21570     3729 
   34853    64348    88605   105733   118823   136156   156331   166532 
  163857   157447   145589   118980    79025    31444   -15900   -48141 
  -56108   -39845   -10478     2946   -13519   -38818   -57648   -72206 
  -82285   -85325   -68635   -24036    28674    70729   104301   137497 
  171044   192163   191681   177408   159535   143270   127213   105400 
   84166    76086    74521    60760    28483   -15092   -56346   -85026 
 -106658  -128300  -146592  -161005  -172750  -177699  -173827  -162453 
 -143522  -118409   -88767   -53080   -12314    31148    76871   122795 
  165110   198248   222376   243021   255069   253848   247001   236534 
  219186   198739   177509   152370   121930    86833    48524     8588 
  -30729   -64585   -90879  -109106  -113972  -106954  -100445   -97824 
  -91725   -79826   -62907   -44896   -36097   -36856   -38551   -42187 
  -49331   -54173   -56713   -64602   -84671  -113540  -140014  -159494 
 -169755  -166113  -150881  -130762  -109359   -84636   -53601   -22298 
    1478    18723    33567    45939    50878    44850    27239    -3031 
  -40836   -73300   -93251  -107365  -124021  -137540  -138474  -131118 
 -126077  -124859  -121124  -114087  -105984   -92750   -74889   -57731 
  -42186   -30667   -26333   -27874   -30396   -30448   -32266   -41739 
  -58689   -74751   -78604   -70790   -59216   -45707   -29165    -7273 
   18195    37203    44250    39880    25363     7951    -4493   -11603 
  -19574   -30527   -31529   -17860    -4492     3787    10743    14908 
   19526    27544    37528    48352    57144    64027    70078    69902 
   62221    55314    52071    45689    32165    15200     1369    -6051 
  -11759   -25059   -51165   -85981  -117620  -136421  -142857  -143552 
 -142610  -136652  -121781  -101526   -79301   -56404   -39786   -34693 
  -36485   -38767   -40285   -43074   -49657   -61560   -75580   -84595 
  -86069   -80217   -66022   -46433   -23440     4354    33381    59298 
   81385    95830    99522    99098   101397   103574   103200   104362 
  111896   128252   151848   176699   193645   195320   182777   159609 
  127791    94387    65829    43141    28896    23198    21253    21967 
