Origin Time       2011/03/11 14:46:00
Lat.              38.103
Long.             142.860
Depth. (km)       24
Mag.              9.0
Station Code      CHB012
Station Lat.      35.5721
Station Long.     140.3436
Station Height(m) 60
Record Time       2011/03/11 14:47:22
Sampling Freq(Hz) 100Hz
Duration Time(s)  300
Dir.              N-S
Scale Factor      3920(gal)/6182761
Max. Acc. (gal)   211.849
Last Correction   2011/03/11 14:47:07
Memo.             
[...]
  -37957   -76168   -95531   -90771   -80566   -80389   -87619   -98611 
 -115191  -132655  -142035  -143502  -140801  -128707  -100514   -56577 
   -1951    51533    88152   103666   109172   117326   131169   143274 
  141642   121035    93176    75264    67661    62268    60073    60531 
   55581    45135    36262    24185     1322   -18429   -18855    -7731 
    1808     9850    20727    28546    21204     2822   -10578   -14292 
  -10726    -3119    -1443   -13339   -35297   -60826   -83401   -94265 
  -92497   -88174   -89724   -96332  -102316  -105357  -104199   -95929 
  -86332   -85535   -89209   -85306   -73266   -60094   -50746   -49040 
  -55380   -65153   -74083   -79036   -74679   -59503   -41603   -29458 
  -26054   -29790   -32513   -30122   -28103   -26073   -17316    -3550 
    5993    11069    22007    36589    41706    37151    30678    28677 
   36766    51961    66478    76955    81422    81325    83204    86624 
   84929    81982    85864    92490    92183    77040    40934   -11065 
  -58834   -85193   -93892   -98768  -100459   -87834   -57508   -17224 
   25499    66410   101405   122541   121568   103440    80048    55141 
   29646     6146   -12175   -19566   -10730    14608    49550    84345 
  107518   107105    87071    60169    27120    -9010   -33790   -39209 
  -32729   -25921   -20093   -20108   -42403   -84545  -127178  -164341 
 -196701  -222077  -240089  -248756  -244768  -228586  -205893  -181429 
 -153299  -121486   -94918   -78737   -62699   -32436    13605    60350 
   89707   100914   103025    95228    73995    37772   -12874   -62711 
  -89817   -85072   -57972   -29289   -14816   -17459   -25855   -27120 
  -28105   -41030   -60124   -72226   -73174   -67830   -58101   -36655 
   -2654    29178    49815    69668    98599   130315   154545   169034 
  176487   176660   166080   145267   116537    79287    34228   -14854 
  -61671  -100194  -128395  -143400  -143037  -138166  -144932  -163265 
 -179056  -181498  -169123  -147223  -126806  -116951  -110922   -96269 
  -74812   -50775   -21581     5088    17554    19563    18465    15883 
   13059     7035    -1112    -1135     6917    12522    10718      617 
  -14659   -25329   -26308   -22659   -18667   -16016   -20671   -34168 
  -51437   -71854   -90834   -95855   -86640   -80273   -89863  -104853 
 -100223   -70382   -34462    -3089    30094    67425   101278   123367 
  135584   148692   162628   157869   122517    75277    33521   -11752 
  -62698   -99236  -104783   -85775   -65428   -55257   -49058   -46214 
  -52755   -66886   -80679   -90754  -102006  -117523  -131191  -135444 
 -127445  -106037   -71449   -29992     7994    36404    56585    71267 
   80555    84710    76793    47990    11332   -10910   -12146    -1668 
    2199    -2995     4254    34667    73775   105991   130396   147931 
  156831   166954   188273   208307   208270   189492   161733   124653 
   80800    44807    25287    12557   -10473   -51686  -105634  -159798 
 -197055  -202260  -182182  -163957  -161913  -169510  -181779  -195953 
 -197727  -170270  -117634   -60795   -11231    23798    36019    39989 
   55236    73156    76288    62231    39978    21051    14326    19236 
   20544     1322   -37760   -80257  -110404  -125288  -135054  -146939 
 -152176  -136274   -93649   -32528    29666    79390   111011   124297 
  129898   142597   159545   163686   142828    93449    23188   -50164 
 -106583  -133267  -134495  -114714   -65471    -3232    30719    31725 
   28429    35019    42022    31466     1978   -34340   -71937  -106702 
 -133269  -147422  -151966  -157306  -165780  -175092  -180404  -167097 
 -130302   -82702   -33958    12943    50743    74001    86229    91466 
   96693   113701   142665   173202   198693   213384   209258   185194 
  148483   101523    44489   -10941   -59686  -112210  -162007  -184698 
 -175418  -148767  -113667   -72628   -28114    15029    46280    56490 
   50884    49563    60374    64764    50952    27892     6387    -2393 
    5144    18967    31553    32013     9593   -14865   -10743     8628 
    8675    -4638   -11480   -32939   -85204  -139311  -171583  -183402 
 -184580  -193736  -212454  -215103  -183237  -123398   -55100     5814 
   45757    53254    35854    13564    -2290    -3782    14353    40397 
   58411    69034    81130    94586    98151    77872    35248    -1625 
   -7287     9919    27367    34181    26912     2448   -38891   -89468 
 -138303  -173949  -186237  -181694  -182689  -189028  -167887  -106955 
  -38594     6265    28427    39421    43907    49577    64186    83492 
  103047   120785   133514   148998   175271   205451   230817   250876 
  268896   283060   283003   260607   219532   169246   115387    58588 
   -2557   -64636  -113598  -136789  -141585  -142537  -130139   -94993 
  -63550   -51289   -43146   -45290   -66384   -78642   -60014   -21581 
   13100    21101     3369    -5690    19698    65405    94827    92341 
   77569    63474    45170    30105    28597    31593    16637   -33813 
 -111679  -183171  -226339  -255450  -288341  -320102  -337727  -334656 
 -316871  -291901  -257921  -209769  -139730   -53851    12186    20095 
  -21443   -47706   -14958    45160    82906    85096    72527    82073 
  126099   171764   184695   165535   134945   108419    85936    62273 
   36565     8414   -12669   -18585   -26028   -46072   -68853   -88233 
 -103246  -117557  -131986  -141178  -153590  -175038  -190550  -188241 
 -172280  -152212  -125829   -80248   -18817    39614    91022   140577 
  180033   201866   213332   223666   233585   230416   198297   141857 
   73891     1979   -52615   -79217  -104265  -142771  -168675  -159491 
 -122029   -75047   -47735   -58181   -84246  -103399  -118137  -127622 
 -127468  -116807   -95391   -77014   -76338   -86006   -94209   -87716 
  -46274    24102    89151   122784   116951    79390    29677   -14330 
  -49230   -85705  -129298  -166352  -176090  -156263  -117341   -64009 
  -16247    -1625   -16957   -37641   -40769   -19738    11008    37059 
   54023    57013    43071    23557    15903    23057    31655    24506 
    2007   -11391     1050    33291    71974   100496   108552   104265 
  100852   104303   111348   105936    78640    43110    13147    -6926 
  -13595   -14049   -22284   -41007   -62930   -80654   -87995   -78508 
  -55674   -37314   -29306   -16082     4566    15656     7718   -19123 
  -53533   -76240   -84315   -88707   -97875  -115749  -136617  -150433 
 -150412  -130718   -99281   -72808   -49632   -23909    -7258    -8178 
  -21484   -43911   -73227   -98971  -111985  -115153  -111628   -93339 
  -55100    -3346    51324    91954   105759   103301   103966   111878 
  115362   102512    72065    32663      474   -15029   -23398   -38503 
  -55994   -52648   -21934     9169    18789    11989     8011    26003 
   66828   114018   153792   181687   200150   210295   202451   169872 
  125168    82129    31225   -44488  -131005  -189536  -205638  -197973 
 -184095  -167664  -143448  -101069   -43152     6031    26174    18000 
    1036     5990    40063    72582    83024    81194    67367    30202 
  -22038   -73549  -114032  -135543  -147695  -164260  -180864  -184391 
 -156947   -85108    21327   122943   173587   166329   133371   106251 
   97472    93707    68765    17472   -38523   -68467   -55923   -15625 
   17958    12512   -33344   -81541  -100173   -89462   -56020    -5166 
   49177    97615   139516   169414   186333   203736   221885   208511 
  146341    63936   -12267   -79201  -146783  -226108  -297381  -332100 
 -330357  -299002  -236081  -149236   -71248   -28911    -1901    45229 
  108217   158462   187028   201252   215482   243059   263763   254198 
  224249   177564   113880    50065    -4366   -48753   -74594   -73380 
  -62805   -70439   -95729  -133283  -181449  -220581  -238771  -241343 
 -233755  -222106  -202457  -161896  -103593   -47797     -382    53790 
  113412   155379   169398   170598   178483   188448   181711   155962 
  122394    89220    61141    47045    55881    76264    79924    54895 
   10385   -43547  -100015  -154471  -202203  -235258  -254486  -274454 
 -299601  -307615  -282603  -240633  -202507  -173196  -139125   -83931 
  -17240    43984   100127   151435   190293   212718   223787   234564 
  250303   264835   272438   275887   275064   260908   231309   196768 
  166124   143324   132107   127987   112909    77131    32541   -14356 
  -67628  -121946  -171959  -211420  -223000  -202257  -168440  -141188 
 -122735  -104020   -84005   -71850   -73506   -80695   -72265   -39867 
    2627    39793    61633    64295    48105    13782   -26645   -61767 
  -99074  -146286  -193437  -217562  -202119  -155586  -105781   -70820 
  -41877    -3507    45660    94182   127675   140668   131916   103390 
   72582    51372    29313     -572   -39414   -88590  -131418  -147770 
 -142532  -132980  -121998  -101963   -71828   -34777      276    25184 
   46359    66293    76351    70312    46824    17828     1834     1781 
   16025    49487    92031   120359   126117   120773   121363   132216 
  136939   113151    54559   -20595   -85731  -122347  -124544  -109549 
 -101338   -97949   -85549   -60562   -28294    -4904    -2956   -15232 
  -23619   -12569     9868    15296    -3543   -32785   -66663  -102291 
 -136917  -172936  -206953  -229329  -228695  -192308  -121201   -37836 
   38433   103847   150712   167432   157426   133527   104066    78426 
   66051    69344    93752   135762   171418   191336   207928   223717 
  231553   232198   225958   199286   146053    82003    23550   -15800 
  -22030      640    24529    29726    27415    28181    22342     7792 
   -5284   -12628   -18217   -25225   -33490   -41820   -46886   -52553 
  -67421   -92297  -129821  -175363  -210543  -228364  -227482  -203187 
 -158806   -98073   -25096    43621    83863    84749    64849    49252 
   35704     6773   -35978   -73191   -95529  -104521   -99877   -90618 
  -93093  -108547  -122696  -124704  -119216  -120053  -132798  -145910 
 -145001  -131621  -116293   -99705   -77054   -50128   -17437    19670 
   42623    38323    12980   -23566   -63748   -94742  -105949   -94775 
  -60710   -20456     3932    11078     2846   -14484   -27759   -41783 
  -66247   -99329  -137604  -168380  -173051  -151409  -121959  -102574 
  -91858   -75702   -52183   -26489      498    26327    51946    82067 
  112348   129569   124710   100472    68113    39322    18737     3252 
   -9868   -19626   -28569   -39731   -50397   -54284   -42527   -17072 
    9606    39514    79191   119495   150869   170548   177842   178348 
  176430   169326   157942   148208   142016   134020   118265    99314 
   85391    76789    74114    78816    85585    86054    71119    39807 
    5508   -22634   -47325   -74754  -110241  -146015  -170963  -191006 
 -209712  -217207  -211436  -202066  -195234  -182757  -149252   -92711 
  -25948    35753    79920   109078   135022   153275   155077   141916 
  110677    59214    -4615   -70744  -128544  -169899  -191959  -194638 
 -179826  -150202  -108333   -55100     7177    66348   108273   134455 
  154850   170005   174288   164505   141583   110645    74337    29809 
  -19178   -55221   -60954   -41237   -25558   -29360   -31581   -18643 
   -5353      371     1517    -5073   -20066   -30349   -18097    15399 
   49382    64591    48424     5272   -36002   -55070   -60080   -61215 
  -58409   -50147   -34038   -12325     3883     5191    -6512   -24651 
  -46506   -71541   -99534  -125521  -142266  -148765  -145289  -134914 
 -124451  -110823   -82332   -34602    22502    71411    99106   107902 
  113150   120555   118413   102676    80936    52926    17306   -20749 
  -52907   -62165   -43336   -20415    -6905    10706    34505    53744 
   67705    78993    85985    84440    72437    53367    32067    15421 
    9159     8693     1309   -17174   -37760   -56810   -73541   -72214 
  -40752     7580    52817    88009   110060   114870   108403   102063 
   97077    85802    67144    49686    35938    20797     4621   -10076 
  -25268   -43415   -66567   -98476  -139491  -179494  -204597  -210369 
 -200413  -176015  -137522   -90318   -39959     9284    52822    93474 
  135837   173013   196766   208066   209740   201630   182347   156126 
  135724   127468   123787   115539    97473    69878    40405    12255 
  -17727   -47919   -79422  -118342  -159217  -188960  -202404  -201806 
 -190290  -170622  -148652  -129607  -110685   -87529   -63888   -47121 
  -37054   -25752   -11394    -1033     4888    10447    10318     -581 
  -16397   -29164   -34440   -28798    -8448    26550    64309    87740 
   92193    86832    80514    74409    66603    55015    38649    21329 
    8772     3329     5227    12029    18770    29060    52081    82879 
  105583   108895    90701    60871    33496    12394    -7680   -33217 
  -65239   -96408  -119187  -129493  -128345  -125512  -131176  -148195 
 -172616  -193927  -200027  -188358  -164678  -135696  -115477  -113620 
 -114759  -101678   -79633   -61257   -52546   -55661   -69464   -89843 
 -111626  -126318  -126878  -113158   -88040   -57054   -25142     9081 
   44188    70130    81321    80528    69922    53367    39069    31632 
   31180    40271    59455    79821    92305    99160   107497   116532 
  121500   124299   129641   139270   152194   161525   156265   133034 
   99705    64697    30055    -3535   -28661   -34860   -26905   -20800 
  -12029    15898    51896    67489    51726    15369   -28054   -77831 
 -130931  -174778  -210278  -245717  -280253  -311894  -335771  -344203 
 -338358  -323597  -300147  -265826  -223197  -180452  -142131  -105659 
  -69490   -34621     1048    39428    74410    98083   112959   125381 
  135177   140602   138015   123165   101918    83391    69944    60462 
   52765    46611    41996    34791    26002    24521    27115    21045 
    9554     3000     4680    13422    24188    38796    61818    89906 
  117871   138972   145077   132859   102149    51873    -8065   -59739 
  -98041  -125783  -148129  -170322  -187822  -195721  -193434  -178743 
 -156467  -136008  -117251   -95401   -67315   -31064     4993    28284 
   43190    59613    68852    55109    18136   -26618   -61732   -79510 
  -82005   -73504   -61531   -52081   -36388    -4390    37059    75057 
  104951   129895   154526   180846   205115   221476   229774   230706 
  222808   208545   188353   154076   100190    33244   -32605   -81669 
 -106310  -115524  -122314  -125845  -117387   -97128   -73032   -47597 
  -19834     3347    12929    12885    14444    18380    18126    10156 
  -10404   -45610   -83827  -111262  -124374  -124952  -116852  -105296 
  -92159   -74297   -51794   -34295   -31824   -44435   -65030   -86874 
 -106948  -123888  -132405  -128212  -117547  -105824   -87169   -56610 
  -19423    13739    35255    44085    43853    39788    34353    25151 
    8309   -14814   -33840   -39779   -35835   -28088   -14913     7569 
   34492    53051    57547    53564    46841    39359    31880    25490 
   21375    17142     7468   -10205   -33563   -57821   -76975   -82749 
  -70699   -48932   -28930    -7662    26422    70670   105340   117498 
  117804   117568   110676    96596    82100    67600    58745    60093 
   65637    71971    81505    96755   113349   121653   118864   107734 
   89665    65904    38254     8889   -18865   -43114   -60976   -62950 
  -45681   -21626    -1649    16236    38002    65320    95408   123388 
  143193   152441   152901   143862   126850   104846    73875    35018 
   -1412   -30872   -56876   -80908   -93780   -83873   -53920   -21007 
   -2634      155     1650    10335    22671    32931    37965    37879 
   34635    29658    24225    17891     5496   -18505   -55726  -104593 
 -157009  -200858  -232187  -253963  -266973  -274286  -280283  -280935 
 -270804  -248333  -209737  -155294   -95334   -40221     9652    56386 
   95029   127721   162846   190174   197958   195006   187666   175847 
  164128   151067   131794   107495    82292    61618    47493    33454 
    9234   -31419   -83564  -131662  -163416  -180562  -194493  -214842 
 -239784  -255114  -248909  -224847  -193421  -159979  -127718  -103258 
  -91389   -84734   -67788   -33546     8846    47951    83030   112576 
  130523   136084   132864   127815   123834   114084    94743    69849 
   47873    37856    38924    40682    32980    11136   -18764   -43263 
  -55276   -54144   -39754   -19069    -4657    -2459    -8813   -18810 
  -34776   -57935   -79892   -92018   -88236   -66537   -38556   -14350 
   17101    65954   116433   147626   164375   181951   199206   213858 
  231335   245974   247528   235139   212649   186605   161438   136569 
  111186    84623    58358    31081    -5130   -48987   -86054  -106541 
 -112870  -112935  -113115  -113474  -110487  -104240   -95564   -83546 
  -70981   -62919   -60467   -59920   -55271   -42823   -25365    -8114 
    5862    13209    13842    13671    16612    20911    21702    18604 
   19437    25855    31554    35898    37382    30003    12402   -14019 
  -46281   -80542  -115950  -148796  -171594  -184693  -192675  -192852 
 -181994  -157559  -116170   -67512   -28967    -5464     9222    21303 
   31662    37679    40869    45110    49070    50052    48607    45365 
   39878    32278    23845    18989    24594    41612    63138    84998 
  108402   129291   138077   133082   122103   108821    87238    55507 
   25113     8002     5681     9626     6471    -9580   -32312   -55639 
  -81638  -112971  -146709  -178840  -207398  -229810  -242207  -242677 
 -230546  -204128  -165906  -127293  -100775   -88420   -84723   -85040 
  -87171   -91905  -102102  -119232  -139309  -153782  -156394  -146449 
 -132284  -127595  -135288  -147510  -158972  -168009  -172895  -170433 
 -155673  -127554   -92923   -58989   -26731     3966    31639    57032 
   81656   104208   123638   141043   155125   165417   173029   173469 
  164332   149155   131667   118927   112696   101140    75542    40849 
    9943    -6713   -13328   -21096   -36702   -62640   -90834  -110871 
 -121009  -120507  -111249   -98814   -85979   -72658   -55664   -31258 
    -177    30573    53455    70384    88342   108133   123790   130420 
  131620   133421   134705   131598   123014   108604    87945    61768 
   30564    -5624   -44460   -82715  -118804  -150073  -172517  -184822 
 -184229  -164595  -128965   -88624   -47668    -4992    36111    69649 
   91024    96893    86103    65575    50023    46354    49678    58037 
   70066    79916    89017   102838   118596   127659   125268   114526 
   96771    70972    42719    13987   -18960   -50674   -71783   -82876 
  -90566   -96722   -99734   -98831   -91606   -79134   -67514   -56664 
  -43709   -33239   -30817   -35752   -45695   -60738   -80450  -102336 
 -123049  -138428  -145161  -140865  -124550  -102231   -81662   -61699 
  -39981   -20895    -9760    -4508     2915    15238    32464    55748 
   79982    98602   111451   121904   133007   144936   153432   156264 
  155546   150398   138486   118639    89819    55586    24011     -477 
  -20418   -39371   -58560   -77792   -94986  -108389  -117097  -117404 
 -104906   -80556   -49686   -17342     9517    23741    26806    24622 
   20182    12612    -2423   -23324   -44322   -64110   -79893   -93276 
 -110750  -127472  -137927  -144064  -141699  -127733  -106261   -78774 
