Origin Time       2011/03/11 14:46:00
Lat.              38.103
Long.             142.860
Depth. (km)       24
Mag.              9.0
Station Code      CHB021
Station Lat.      34.9078
Station Long.     139.8994
Station Height(m) 9
Record Time       2011/03/11 14:47:45
Sampling Freq(Hz) 100Hz
Duration Time(s)  300
Dir.              E-W
Scale Factor      3920(gal)/6182761
Max. Acc. (gal)   31.253
Last Correction   2011/03/11 14:47:30
Memo.             
[...]
   -7623     3211    13861    21428    24453    24637    24642    26183 
   29707    34020    37408    39531    41371    43807    46437    46788 
   42691    35228    26422    17777    11184     6404     1237    -4947 
  -11977   -18697   -21641   -20205   -18191   -18098   -20367   -24148 
  -26205   -24690   -21397   -17722   -13279    -7723     -794     6690 
   12629    16906    21519    27522    34456    40465    42944    40268 
   33009    25337    22719    26663    34333    41482    44385    42210 
   36871    30036    23342    17893    12323     6032     1378      598 
    3489     7157     8037     5634     1705    -2871    -7146    -9499 
   -9217    -6982    -4581    -3432    -2731     -837     2245     5738 
    9079    11230    11635    10755     9063     7770     8096     8395 
    6281     2328    -1460    -3870    -4843    -5590    -7547   -10505 
  -12277   -10960    -6550      241     8262    14863    17611    16203 
   11909     8138     8691    12742    16522    18682    19850    20996 
   23569    27930    32030    33435    31992    29290    26828    25403 
   24706    23470    20936    17941    15613    13290     9060     1883 
   -7641   -17627   -25620   -30273   -32179   -31972   -29178   -23708 
  -16445    -8489     -932     6155    14384    24645    35136    43077 
   46799    46201    43229    41183    41411    42143    41608    39364 
   35745    32143    28436    22623    14963     6511    -3291   -13455 
  -21276   -24953   -24263   -21019   -17539   -14283   -10558    -5912 
    -720     3773     6451     7414     8089     8931     8174     5680 
    4086     4560     6607     9862    12907    14830    16823    19052 
   20433    21028    20840    19588    18396    17834    16264    13206 
   10472     9062     8257     7070     5845     5856     7263     9007 
   10091    10174     9007     6397     3668     3178     5656     8854 
    9173     5413       54    -3258    -2160     2967     9253    13949 
   16257    16933    17441    19075    21714    23408    21688    15883 
    8516     2769    -1182    -4545    -7427   -10201   -13362   -16145 
  -17541   -16684   -13462    -9300    -5087     -491     4711    10188 
   14647    16596    15571    12829    11659    14185    18436    21413 
   22342    21945    21251    21478    24039    28911    33991    37392 
   38465    38364    39531    42039    43534    41979    35855    25619 
   14996     7716     4924     5803     7917     8234     6293     4735 
    5446     7767     8970     5397    -2271    -8032    -8143    -5156 
   -4501    -9024   -16040   -19648   -16771   -10740    -7193    -7322 
   -7661    -5567    -1509     3579     9267    14986    20672    26189 
   30318    32004    31450    28955    24303    19213    17611    20871 
   26583    32064    35758    37190    36808    35123    32335    28321 
   22428    14157     4619    -4558   -12958   -20158   -25375   -28383 
  -29065   -26887   -21863   -15492    -8971    -2563     2715     6153 
    8776    12416    18393    26429    34904    41900    45670    45498 
   41921    36285    31219    28509    26363    21969    14566     5433 
   -3485   -10909   -15821   -17412   -15870   -12128    -7601    -4232 
   -3450    -4552    -5416    -4652    -2140     1249     4394     6753 
    8308     9641    11297    13145    15397    18019    19718    20204 
   21032    23705    28502    33575    35943    34574    31082    27688 
   25900    26264    27312    25953    21222    15558    11211     8498 
    6922     5125     1964    -1312    -2481     -603     3672     7978 
    9480     6912     1457    -3730    -5380    -2276     3435     8188 
   10858    13017    16341    20756    23949    22540    15795     8154 
    4774     6245     9407    10717     9974    10104    12049    14053 
   14765    13572    10922     8635     7721     7696     7688     6677 
    4552     2763     2071     1406      319      258     2357     5957 
   10229    14994    19349    22083    23067    22738    21457    19117 
   15335    11168     8121     5571     2473     -604    -2533    -1779 
    2775     9235    13886    15015    14342    14850    16890    18140 
   16737    12539     7441     3997     2720     2582     2824     3623 
    6376    12209    20400    28847    34821    36461    34733    32602 
   32716    35672    38734    38183    33007    24924    16922    11311 
    8654     8684    10428    12032    11451     7501      916    -5966 
  -10570   -11358    -8724    -5132    -3587    -4584    -5731    -5033 
   -2111     2523     7809    13458    19484    23917    24659    23009 
   21975    22966    25550    27500    26805    25343    26117    28488 
   29914    28675    24520    19287    15824    16091    19495    22652 
   22818    20397    17458    16045    16875    18862    20978    22350 
   21295    17751    13757    10005     5173    -1567    -8727   -13255 
  -13369   -11027   -10400   -13037   -17042   -19915   -20002   -17709 
  -15157   -12927    -9330    -3507     3763    11293    17090    19267 
   18139    16090    15665    16831    16732    13612     8958     4980 
    2060     -519    -3167    -6041    -9307   -13477   -18173   -21468 
  -22329   -20097   -13969    -6245        4     5158    10029    13864 
   16220    16027    12212     7208     4718     5068     6581     7990 
    8884    10951    15835    21935    26700    29360    30274    30111 
   29631    29218    29356    30535    31618    31054    28658    24307 
   18699    14408    12940    13666    15010    14811    12074     7675 
    3099     -342    -2220    -3112    -4364    -6669    -8686    -8952 
   -7548    -5748    -5368    -7004    -9047    -9152    -6221    -1147 
    4055     8066    11472    15446    19650    22528    22626    20165 
   17595    16679    16659    15903    13512    10223     7689     6578 
    6714     8401    11971    16323    20192    24106    27807    28180 
   22749    12620     1232    -7577   -11286    -9943    -5277     1073 
    8188    15730    23588    30781    34653    33285    28264    23021 
   19512    16694    12319     6150      480     -969     3760    11765 
   18605    22284    22129    18356    13269     9613     8247     8697 
    9725     9634     8197     6278     4487     4001     4877     4108 
   -1023    -9811   -19319   -25508   -25378   -20666   -14978    -8879 
   -2478     3171     8049    11594    13287    14701    17447    21807 
   27385    33112    37078    37568    34803    30994    28989    30295 
   33434    35617    35901    35553    36026    36961    36778    34517 
   29834    23539    18421    16275    15058    11462     4402    -4652 
  -11897   -13212    -8402    -1322     3919     5522     4447     2932 
    2415     2695     2854     2711     2633     2600     2179     1361 
    1202     2419     4311     5775     5939     4536     1567    -3685 
  -10547   -15517   -15906   -12149    -6585    -1795     1824     6018 
   12138    20242    28556    34519    37901    40369    42287    42064 
   38111    30187    19529     8886     1470     -779     1905     6838 
   10500    11223     9124     5277     1955       60    -1822    -2843 
    -461     4741    10842    16697    20696    22481    24130    27737 
   33063    38094    41585    43775    45548    47359    47873    45504 
   40774    34759    27876    20686    13546     6868     1361    -2643 
   -4784    -4779    -3291    -1909    -2191    -3652    -3162     1187 
    7310    12332    15122    15891    16195    17064    17880    18972 
   21170    23064    23713    24985    27502    29532    30271    29290 
   25755    20667    16093    12389     9551     8806    10500    13838 
   17481    18753    15988    10249     3763     -862    -1968     -733 
     463     1071     1250      316    -1040     -878     1531     6114 
   12479    19416    25774    30645    32130    28717    21991    15147 
   10435     9112    10295    11118    10669    10341    10906    12417 
   14348    14827    12549     9147     7344     7754     9284    10547 
   10778    11140    12949    15621    18384    20568    20696    18255 
   14879    12512    11701    12202    13191    13307    12885    13785 
   16368    19484    22080    23464    23982    24955    26814    28956 
   30078    27474    19678     8721    -2142   -10076   -14107   -16445 
  -19755   -24268   -28411   -30782   -30493   -26782   -20845   -16286 
  -15629   -17573   -17783   -13088    -5420      890     3893     3347 
     854      205     2720     7071    12606    17851    20901    21926 
   21597    20103    18018    15528    12438     9300     7065     6292 
    7039     8654     9557     8052     4274      834      708     4496 
    9624    13063    14220    14321    15680    20158    26059    30191 
   31553    30794    28977    26574    23502    20526    19023    19658 
   21546    22936    23137    22892    23324    24294    23960    21878 
   19736    18248    17109    15690    12798     8508     4623     2853 
    4262     9140    15838    21174    23055    21809    19175    16499 
   13460     8860     3076    -1436    -2919    -1936      195     2304 
    3517     4097     4940     6967    11287    17508    23285    27124 
   29622    32274    35925    39838    42756    43893    42280    37644 
   32057    28092    26165    24643    21006    14209     6414      917 
    -723      365     2007     3169     3165     1339    -1912    -6228 
  -11408   -16154   -18917   -18793   -15279    -9455    -4650    -3890 
   -7214   -11512   -12786    -9407    -3035     3433     7971    10115 
   10314     9231     8046     7989     9330    11508    13686    15396 
   17260    20493    25319    30708    35201    37995    40268    43309 
   46299    48291    48445    44987    37947    30437    26065    26790 
   31739    36542    36348    31079    24821    21010    21452    25867 
   30638    32376    30537    25337    17986    11516     8108     7628 
    9526    13380    17297    19193    18853    17190    14966    11975 
    7872     3343     -381    -2300    -2995    -4309    -6725    -9389 
  -11598   -12502   -11724   -10398    -9941   -10764   -12340   -13306 
  -12224    -9225    -5700    -2357      936     4493     8598    12886 
   16505    19335    22551    27487    33623    38831    42105    44239 
   45989    47291    47370    45758    44123    44489    45887    45587 
   42140    35785    27907    20759    15724    12245     9741     8260 
    7151     6268     6874     8572     8828     6676     3424      470 
   -1623    -3229    -5098    -6325    -4417     1164     7787    12611 
   14768    14803    13960    13839    15162    16648    15930    12301 
    7289     2764      516      827     1080     -409    -1994    -2208 
   -1751    -1740    -2371    -3151    -3021     -784     3381     8154 
   11989    13212    12135    11829    14562    19255    23132    24899 
   25380    25744    26465    27203    27244    26554    25410    22670 
   17063    10165     4445      352    -2129    -2979    -2835    -1124 
    3084     8350    12587    15618    18601    22526    27305    32036 
   36130    39165    40637    41100    41702    42466    42868    43051 
   42797    40992    37873    35960    37141    40348    43119    43767 
   42208    39565    36035    31157    26199    23162    22392    22577 
   22299    20886    18093    13833     8648     4294     2615     3628 
    5801     7748     8649     7983     6144     4491     4239     5805 
    8432    10528    10994     9847     7662     5006     2897     3004 
    6244    11621    16705    19473    20084    20305    21127    21690 
   20654    18183    15775    14677    15528    18133    21105    22703 
   21630    17730    12838     9731     9745    11978    14486    15917 
   16043    15844    17193    20600    24637    28656    32371    33365 
   29532    22215    14613     9524     8639    11432    14942    15806 
   12616     6497       82    -3839    -4504    -4041    -4630    -6195 
   -6942    -5299    -2307     -985    -3001    -7136    -9708    -7346 
   -1162     4449     7129     7728     7751     7918     8147     7988 
    7717     8020     7988     5983     2049    -2683    -6720    -8381 
   -8074    -8265   -10122   -12921   -15426   -16108   -14648   -12881 
  -12021   -11745   -12248   -13262   -13460   -12731   -11064    -6959 
     184     9243    19045    28015    33999    36427    36201    34074 
   31444    29768    28477    26540    24374    22380    19926    16099 
   10355     3131    -4057    -9633   -12999   -15000   -17442   -20827 
  -23347   -23569   -21896   -19156   -16275   -13683   -10150    -5327 
   -1698    -1360    -3750    -6864    -7970    -4762     1932     8869 
   13836    16310    16575    15410    13503    11284     9175     7138 
    5048     3579     3094     2625      825    -2642    -6166    -7653 
   -7175    -5752    -3561    -1498     -747     -998    -1295     -390 
    2910     8005    12533    14659    14520    12858    10269     7838 
    6016     4477     3378     2617     1564      611     1145     3787 
    7928    12537    16622    19881    22799    25007    25145    23029 
   19857    16983    15483    15364    15397    14956    15034    16508 
   18979    21923    24741    25874    24339    21238    18217    16132 
   15590    16867    19295    21740    23666    25321    27263    30123 
   33687    35968    34919    31151    27541    26365    27614    29352 
   29540    27844    25117    22459    20850    20254    20150    20647 
   22175    25220    29741    34219    36848    37813    39015    42141 
   47480    53798    59220    62248    62723    61573    59178    55502 
   50864    45614    40834    37633    35239    33033    31890    31161 
   29026    25740    22847    21501    22699    25984    28872    29537 
   28289    26469    25748    27440    30999    34354    36239    37015 
   37793    39842    43605    47082    47280    44027    39605    36043 
   34938    36606    38904    39795    39162    36771    32424    27638 
   23830    21122    19859    20067    20551    20472    19440    17161 
   14795    13906    14758    17330    21290    25151    27623    28045 
   25931    22381    19763    19305    20719    22682    23408    22607 
   21947    22848    25084    27657    29599    30005    29207    29027 
   30762    34740    40167    44162    44679    43059    41098    39668 
   39880    41168    41189    39346    36486    32999    29556    26629 
   23662    20276    16773    13597    11180     9700     8917     8750 
    9202     9597     9269     8292     7001     6234     7106     9358 
   11211    11163     9501     8217     9157    12548    16911    19566 
   18906    16274    14413    15424    19692    24978    28341    29457 
   29650    30028    32294    37298    43219    47387    48067    45066 
   39658    33491    28165    24721    23196    23229    23790    23483 
   21995    19406    15403    10717     7311     6799     9827    15788 
   22398    27355    30494    32763    34540    35690    35625    33731 
   30240    26421    23628    21708    19809    18417    18546    20610 
   24761    30429    36088    40495    43589    45613    46081    44507 
   41001    36230    31612    28245    25917    23624    20240    15255 
    9533     4996     2839     2658     3166     2376     -999    -5377 
   -8124    -8648    -7654    -5549    -2963     -565     2151     5805 
    9761    13147    15303    15654    15000    14885    15039    14578 
   14209    13595    11027     7254     4071     1592     -304    -1965 
   -4330    -7182    -9175    -9863   -10277   -11104   -11723   -10881 
   -7506    -1685     5462    12692    19016    23415    24508    22360 
   19291    16800    14669    12739    10888     9271     8047     6432 
    4396     3349     4251     6667     9266    10806    10493     8136 
    4754     1982      666      934     2387     4144     6213     9275 
   13045    16046    16250    13509    11091    12353    17439    23769 
   28326    29943    29952    30287    31141    31066    28882    24701 
   19536    15041    12228     9938     6944     3714      715    -1738 
   -2579    -1345     1083     3689     5733     6668     6862     7640 
   10100    14137    18862    23465    27051    28454    27327    25047 
   23703    24819    28555    33122    36216    36841    35340    32894 
   30716    29164    27753    26095    24817    24462    23725    20801 
   15980    10650     5021     -933    -6589   -11138   -13297   -12756 
  -10851    -8717    -7126    -6310    -5024    -1916     2501     6416 
    8421     8022     6219     5003     5139     5754     5361     3099 
    -220    -2857    -3618    -2703    -1408     -519      267     1347 
    2656     4039     5432     6449     6797     6687     6372     6729 
    9096    12981    15654    14685    10206     4869     1773     2419 
    6036     9916    11563    10239     6403     2368     1316     3724 
    7578    10973    13090    14646    17097    20615    23491    23960 
   22375    20479    19880    21939    26381    31234    35424    38571 
   39387    36699    31111    24849    19863    16252    13044     9652 
    5968     2682      521    -1331    -3179    -3796    -3166    -2097 
    -526     1017     1372     1111     1508     2455     4680     9839 
   16654    22452    26743    29761    31670    32896    32635    30109 
   26863    24616    23359    22967    23000    21776    18793    15792 
   14495    15290    17365    18892    17964    14357     9412     4128 
    -548    -3153    -3621    -3162    -2092     -379     1193     2226 
    3329     4818     6273     7129     6882     5599     4255     3483 
    3335     4697     7963    11222    12329    11152     9099     7993 
    9295    12677    15830    16879    15958    14563    13794    13431 
   12779    11083     8412     6356     5715     5419     4631     3087 
     256    -3381    -6293    -7765    -7776    -6670    -5225    -3020 
    1010     6265    11966    18211    24487    30742    36997    41065 
   41415    39699    38201    38020    38351    36593    31487    24601 
   18322    14687    14125    14374    13094    10266     7051     4551 
    3766     5026     7785    11361    14751    16550    16315    15067 
   14068    13534    13009    12721    13131    13416    12117     9560 
    8142     9283    11682    12951    11457     8120     5935     5749 
    5988     6008     5897     6456     9477    14198    17364    17556 
   15840    14502    15736    19881    25686    31046    33750    33517 
   31951    30136    28269    26847    26096    25411    24755    24766 
   24975    23560    19509    14196    10079     9072    11606    15392 
   17563    18489    20073    22583    25634    28869    31285    32298 
   32525    32556    32718    33661    35262    36869    37976    37279 
   34814    33124    33633    35726    38172    39408    39381    39822 
   41204    42402    42211    39506    34752    30259    27185    24746 
   21642    16979    11496     7046     4286     2976     3405     5308 
    7390     8934     9448     7829     4764     2852     2612     2662 
    2189      742     -487      775     3891     6154     6450     5605 
    5036     5446     6493     7637     8210     7681     7099     8380 
   11784    15811    18676    18861    15942    11675     8525     6928 
    5714     4080     1723    -1179    -3673    -4749    -4412    -3761 
   -3419    -3309    -3835    -4497    -3429       12     4648     8876 
