Origin Time       2011/03/11 14:46:00
Lat.              38.103
Long.             142.860
Depth. (km)       24
Mag.              9.0
Station Code      CHB002
Station Lat.      35.7871
Station Long.     139.9024
Station Height(m) 12
Record Time       2011/03/11 14:47:26
Sampling Freq(Hz) 100Hz
Duration Time(s)  300
Dir.              N-S
Scale Factor      3920(gal)/6182761
Max. Acc. (gal)   283.998
Last Correction   2011/03/11 14:47:11
Memo.             
[...]
   24674    33100    56940    90139   115624   120678   110758   100674 
   99146   103836   108431   105595    96382    89201    75631    49112 
   20672    -2704    -9009     7570    30009    44845    36697    -5111 
  -51939   -75426   -81896   -74699   -53112   -29420    -7905    15311 
   36962    45698    34231    11111   -12788   -30191   -31948   -18687 
    1619    21684    28169    18207     5791    -5209   -11033    -3231 
    2619    -1684     2344    13696    19361    20054    16592    13362 
   22884    49416    74033    73254    55316    46413    54615    68221 
   74596    70142    54869    30799      553   -27009   -32558   -18940 
  -10659    -6274     8316    20456     9487   -23415   -57950   -72053 
  -57104   -24185     3088     9981     5493     6270     9521       91 
  -18267   -28551   -27226   -16696      183    14497    30260    56174 
   76759    81097    84939    94460   100193   100168    92949    74323 
   49992    30844    19056    11184    13539    35282    64291    78283 
   71971    53910    35168    23088    16722    11381     6858     4002 
   -1387    -7456    -8261    -7582    -8180    -7927   -13126   -30970 
  -52023   -61325   -59696   -54166   -43875   -24913     1858    24015 
   29709    23755    14161     3386    -3976   -10241   -27690   -51537 
  -56570   -38654   -25514   -36004   -56348   -58569   -34711    -7179 
    4539     8684    18350    28054    26201    12314    -4262    -9752 
   -1282     5021     1460    -4087    -5932     2398    22972    47712 
   67412    72975    64213    55970    59133    62957    50268    27070 
   12688    13013    24938    44260    62303    67728    57651    46244 
   46411    48069    37392    20013     8775     9911    17493    20070 
   21257    28703    41610    61279    76895    70672    49615    30294 
   16815    11274     9596    -2805   -26094   -42252   -40340   -20670 
    9363    34365    48934    61747    67389    50447    20952     2368 
   -3992    -5123     4545    25024    43762    54926    63505    74234 
   83730    82744    71065    60987    60024    61343    56929    49209 
   38572    24858    22999    37469    47136    42001    34770    31634 
   23742     9448       78     1597    10015    14515     7466      835 
   10017    31062    46956    47140    39667    31119    12174   -14959 
  -34301   -44133   -41286   -12734    25158    43610    46773    47883 
   49504    51561    45141    26700    10220     5719     7301     6268 
   -1240   -14554   -24240   -27788   -33182   -30799    -9994    16280 
   36439    46686    42656    32435    28099    24757    11284    -9421 
  -24030   -26640   -20621   -11100    -6420    -8678    -8291      434 
   11545    14214    10996    23352    56823    80190    71186    48273 
   28512    10620      200     1629     7573     8114     1219    -3396 
   -2617     -180    12745    35449    43488    27826    13115    23899 
   52906    75275    79992    70327    53307    36849    23764    11590 
   -1940   -11971   -11823   -10508   -20881   -33925   -29226    -6215 
   18602    40076    58578    67598    68987    71407    68491    45949 
   15545      820    -3339    -9389   -11516     3068    43114    92246 
  119030   120385   111508   102567   102251   100003    79321    52602 
   34237    19185      -60   -21864   -34419   -31377   -12151    22853 
   55460    64777    53010    27833   -10890   -53339   -82785   -95645 
  -99031  -100759   -97024   -73842   -34534    -7212   -12079   -28936 
  -30167   -24956   -19431      112    19832    19260    10542     3488 
   -7988   -16935   -16799   -17622   -20273   -20608   -25935   -29420 
  -14144    13416    32697    37707    37450    38899    44939    52194 
   51554    42814    28002     5573   -17800   -28578   -22338   -12610 
   -2590    22489    52127    62992    59203    53977    50622    43220 
   24335     2043    -9612   -11883   -16158   -22907   -21939   -14553 
   -8369    -3079      414     5424    20079    36278    43859    50119 
   57012    54482    39688    18336     1699    -4234    -5735    -3557 
    4838    20762    51143    88671   112387   117550   113651   102625 
   81397    53547    21191   -10360   -23520   -17070   -15096   -30423 
  -52065   -65141   -59146   -33542    -4225    15579    25566    24542 
   15182    11027    16300    14655    -2207   -17462   -20741   -21025 
  -20630   -14879    -6258    10468    43593    73494    79990    75572 
   67053    44644    14694    -8782   -23011   -27135   -15855     4844 
   17976    21062    20583    18683    22707    30981    26360     9931 
    1123     2814     4622     2644    -3115    -6625     4905    35257 
   71520    95782   104864   107628   106381    99314    83806    51569 
    6050   -23928   -20753    -6269    -3877    -8820    -3038    22254 
   53039    68683    63285    39582     7900   -11133    -8108     9933 
   34533    52635    57059    56047    48721    28708     3915   -22069 
  -47976   -56798   -49087   -49836   -56601   -47853   -27690    -6637 
   15688    29494    27977    25608    33110    43582    46156    39342 
   29026    15560     4452     4237     1910    -9733   -10284     6135 
   19304    16668     1597   -15081   -22300   -18217    -9222     1146 
   18177    38422    42378    25805     4893   -10388   -16298   -14906 
  -18048   -19398      847    27205    25575    -1145   -25531   -34626 
  -33137   -30457   -29103   -30202   -34115   -30536   -22221   -23292 
  -20149     3473    33110    56631    77063    84208    62033    17342 
  -26511   -47893   -40744   -23350   -10254     6241    23552    27354 
   25711    32327    42125    56104    84527   117188   131986   120805 
   87644    46870    14902    -9086   -24579   -18436     5188    26951 
   38564    43640    46888    48227    44709    38969    38167    35626 
   20563     5736     3315     5370    14361    42389    77002    93413 
   92503    89790    90522    94763    95630    82573    56155    19574 
  -20818   -46035   -52733   -60144   -67358   -57100   -32526    -5814 
   19101    40028    54693    55916    33889    -3297   -34117   -54045 
  -66719   -58858   -23529    24792    67146    86346    78983    56737 
   34821    27234    31414    37427    45223    48850    39040    17998 
   -3924   -10072     3652    17042    20505    28690    49943    73327 
   77553    47020    -7010   -53493   -78267   -87699   -78729   -47977 
  -16576    -3159      802      981    -8245   -15540    -9697     1412 
   14376    23633    12621   -12770   -29514   -35720   -41315   -44747 
  -38368   -22325    -8104    -5469   -12002   -19978   -25259   -25967 
  -21309   -12562    -2448     -178   -13595   -34220   -48375   -46580 
  -21785    17341    49731    64802    62958    45647    21429     7873 
    8496     6072   -14247   -50733   -78488   -72269   -44635   -19991 
    1188    19666    28404    34547    45015    46249    31023    12858 
    5034     8512    17213    29739    44213    48685    35956    15357 
     -81    -4827     8173    42717    81976   102418    91588    55774 
   26794    27396    38419    36646    26104    13371     1433    -1045 
    7896    24090    41611    53311    62943    77231    89605    86514 
   58624    10639   -37467   -66895   -67103   -33696    24227    87706 
  139723   168881   175870   171480   160116   138076   106908    72408 
   37416     1872   -37794   -72495   -78515   -56037   -28919    -8800 
    6629    19658    28460    28222    12438   -17886   -49577   -74559 
  -89997   -95446  -104200  -117619  -117050   -98910   -70715   -38793 
  -17195   -11224    -4718    11635    24258    25856    20728     4512 
  -16959   -26689   -27977   -28031   -18484      249    18608    38734 
   62587    80864    83897    70111    56048    62774    80927    84156 
   67935    45301    28010    23091    21804     8730    -1509    16767 
   51626    73314    73922    58905    31164    -3721   -33657   -42191 
  -21991     8296    26351    36107    51749    76291   100938   112323 
  110283   107395   108873   106465    85340    47545    15106    -3311 
   -8580     5719    34402    61243    73717    61473    26916   -15324 
  -62339  -112733  -144976  -134872   -79127    -3260    54216    74878 
   68091    53609    40603    21739    -7864   -35772   -41887   -24339 
    -971    18712    33348    37387    26183     -437   -29790   -49293 
  -69614   -98445  -118088  -110786   -80710   -44713    -6809    40508 
   94913   145058   177658   187216   184660   177359   159011   131311 
  103015    78313    62864    49138    22168      196     5695    22051 
   36834    58812    77722    79010    71143    60937    47421    35145 
   17382   -13566   -39025   -47001   -52886   -65630   -80750   -94203 
 -103132  -105354   -96992   -80901   -67642   -51007   -12815    41666 
   89393   124069   149979   159854   146184   112272    69681    32734 
    4439   -13193    -7627    14148    33958    66995   121879   152098 
  120098    43594   -51338  -135683  -165703  -151489  -152302  -167408 
 -147890   -92857   -37864     -603    19600    33134    51000    76950 
  100065    97847    87895   100953    99847    48582   -29658   -97543 
 -104348   -38235    29987    50905    32292   -22375  -100262  -162418 
 -182990  -164578  -121469   -70722   -29281    -1299    26027    59190 
   86301    97945    98178    93744    98871   136643   197943   232688 
  207109   138425    72740    29209   -10411   -42110   -39868    -9533 
   22095    42424    51752    55114    56258    52371    46522    39956 
   11946   -39414   -77221   -91315  -110356  -130427  -116435   -71965 
  -24318    17051    40652    47929    55799    48011     4766   -58346 
 -118957  -158726  -168393  -148531   -90047     6314   108741   185739 
  232489   250539   233271   188414   129631    53386   -35339  -118168 
 -173012  -165109   -94341   -13004    47828    98412   147264   186737 
  202194   186287   151363   119607   101062    97270   114369   144705 
  165522   166434   139230    77354     2468   -54537   -81788   -85740 
  -79184   -62363   -29489    12045    53636    90364   109924   109865 
  106226   102651    83196    54436    51903    80503   102008    89128 
   44915   -12391   -62509   -93321  -104643  -108494  -116638  -130144 
 -143083  -149859  -151386  -141782  -109509   -61761    -9160    48787 
  102091   137776   154793   150077   126128    95928    53970    -7011 
  -58309   -67382   -36605    -4647   -18484   -71439  -109482  -104474 
  -70712   -44208   -46969   -57209   -47585    -9909    51072    99411 
   99051    65296    43116    47456    46289     9461   -55828  -119416 
 -156457  -167011  -165193  -161128  -145638   -94597   -12935    60916 
   91128    70811    33886    15382    23670    62912   119494   163497 
  194817   217577   203754   147269    78464     9183   -60313  -113506 
 -134029  -113759   -60636    -4097    38356    66295    69893    50426 
   25150    -7853   -52501   -88451  -103603  -113815  -132013  -144968 
 -122869   -55578    22958    85595   139659   172811   167414   141645 
  109101    61949     3280   -39177   -37718     1632    51203    88616 
  109642   131221   159838   178523   186287   196043   189035   136873 
   49019   -45668  -115432  -129971  -100531   -58065     -655    64986 
  110905   130583   125040    92070    37205   -23475   -68672   -88984 
  -92597  -102282  -124789  -146318  -170268  -198099  -220091  -232212 
 -221944  -188422  -153951  -124927   -82003   -17832    43434    83615 
  107828   112098    91592    68369    58005    46816    28273    13394 
   18277    60340   129367   186261   220421   253801   263682   205811 
  129357   111629   130811   141578   146733   142042   114848    79993 
   58420    56416    68953    73540    46827    -1830   -46956   -78802 
 -102079  -129508  -158322  -155247  -108216   -48560    12983    87967 
  159842   217858   262559   259891   196096   117194    61755    24384 
  -21682   -82098  -133227  -159429  -146748   -86104    -9246    43811 
   75385   111630   150627   171501   167880   123397    32697   -59095 
 -117033  -147540  -158221  -145481  -102938   -34089    49587   131375 
  176148   151886    76328     3353   -50679  -102502  -143530  -153751 
 -129881   -79301     1184   113741   217739   274974   302415   314578 
  301581   255122   155486    15172  -107513  -196434  -261395  -272830 
 -211427  -119762   -47244     7844    49027    76241   116114   148546 
  131536    82896    24965   -34249   -79245  -121522  -178602  -242044 
 -294454  -295988  -204954   -51147    80703   144490   151420   130205 
  119960   116140    62685   -22291   -79838  -118009  -143975  -157769 
 -167920  -115481    23855   163865   262745   333899   356725   328894 
  278500   222630   179798   154267   130776   116015   118218   121900 
  111960    70338    -8557   -89457  -133090  -127183   -71057    12614 
   67307    67672    34315   -26667   -97870  -146060  -174071  -189220 
 -180220  -142753  -106761  -109190  -127347  -133522  -136762  -125462 
 -102260   -97984  -104371  -100175   -84558   -57190   -25592     5438 
   49461   117345   191444   232781   235479   231382   239994   271851 
  331241   384331   399503   394008   368473   292221   168252    24584 
  -95633  -152509  -156908  -131395   -79950   -21047    32556    94405 
  150224   159171   119946    46326   -62552  -164809  -197916  -168715 
 -118645   -49991    42999   138565   208068   235547   217979   151526 
   31999  -112120  -234342  -315283  -354854  -375943  -387814  -342789 
 -217956   -46911   120864   235790   305029   377056   442181   465078 
  441770   339596   135166   -88183  -230613  -284503  -270417  -207616 
 -151523  -101048     1246   109101   143057   123972    86366    39071 
   -2347   -46515  -101988  -136475  -121059   -61341    20932   104701 
  183152   257416   329927   386748   368766   237204    43058  -131407 
 -254890  -338694  -386008  -396819  -366641  -274206  -146204   -53939 
    9124    96824   178906   218834   243699   246743   198365   101538 
  -34273  -185801  -303533  -347295  -326553  -268152  -153992    14751 
  163375   251898   309263   341227   327569   267385   174851    70126 
  -32142  -109420  -114253   -43428    24953    45440    63452    97757 
  116448   118109    96410    44472     7152     9310    23353    34309 
   57857    88187    88608    62534    50574    70543   114060   160915 
  202203   239878   264719   267359   241189   179310    92346    12082 
  -47891  -109036  -175096  -220548  -232766  -222297  -206050  -175566 
 -108606   -27802    29018    60726    61849    24425   -33344   -99589 
 -172926  -240301  -272012  -255441  -210003  -128500    -4315    98893 
  129519   114071    74820    13727   -30273   -41040   -53840   -57746 
  -14913    33238    22690   -29032   -72994   -96297   -92816   -46159 
   29143    86516   105652   103710   102083   109218   119025   123244 
  116653    89342    34980   -26364   -62903   -84013  -129043  -193549 
 -229009  -205261  -126614   -19456    80709   156656   214755   258243 
  283792   292450   271186   210615   135896    64037    -9637   -71655 
  -92781   -59090     -165    36116    51925    76250    96312    90602 
   63757    14937   -42780   -75194   -92042  -133259  -192263  -224774 
 -217164  -191720  -155981  -110723   -76598   -53450   -11990    52744 
  120799   185351   246431   292496   313563   310993   289343   251049 
  198527   138127    76799    20136   -29895   -72793   -99549  -113611 
 -134710  -166031  -201236  -237896  -265425  -267674  -239514  -191663 
 -143546  -106406   -75080   -54867   -52882   -44224    -9067    36680 
   78846   117864   141132   143786   151500   167705   169001   164661 
  175345   187552   179433   160807   166880   203712   233627   233101 
  202830   145062    91911    77584    85431    95886   104334   104362 
  115992   152323   194905   237501   279598   299997   277520   218944 
  147210    73456      273   -59244   -92555  -116189  -148194  -174367 
 -181582  -170141  -142244  -113361   -97305   -98193  -118678  -145033 
 -165483  -189220  -213754  -223107  -214643  -193086  -162739  -129554 
  -94999   -53296     4045    69896   120690   152269   175387   186824 
  185249   171301   134915    88592    64789    64679    69340    79143 
  100354   120541   117258    84882    33005   -26246   -68579   -79462 
  -68698   -42034    -6941    19675    30855    25813      766   -43403 
  -98742  -155960  -205731  -243469  -269383  -275512  -244213  -169967 
  -79635    -8762    35971    72261   114935   154199   169447   169137 
  179587   189422   160252   100164    53256    28086     9006   -10575 
  -38779   -68868   -76173   -59874   -36594    -7650    23388    34010 
   13124   -22126   -54431   -72808   -61836   -31912   -17574   -26454 
  -41806   -53775   -59242   -55166   -39321   -10672    27458    60811 
   77529    84301    87903    83584    77062    84679   100456   101866 
   89067    76816    68465    63826    64172    68444    76335    87924 
   98274   100695    97761    92084    82216    75075    70365    55099 
   22686   -25000   -74905  -109478  -125241  -126566  -114276   -86411 
  -41413    12766    54216    59690    27413   -13804   -33466   -27041 
    -460    37740    68352    85331    99806   104119    80567    37502 
   -1310   -24889   -31890   -17804    14635    55645   100188   128820 
  120380    89133    56056    28320    16815    22558    37614    60734 
   81406    83885    67033    42973    31907    44250    68206    83081 
   71492    34758    -5038   -37126   -66587   -87655   -94728   -96265 
  -94473   -87346   -83773   -84466   -75787   -62721   -64765   -76827 
  -81485   -75209   -54769   -14854    35834    80144   113793   139011 
  145001   125630    88296    32460   -44206  -120774  -161636  -157814 
 -129560   -89831   -41602    16369    86538   155282   205559   232499 
  231033   194040   132177    80080    58001    54690    62586    86643 
  121174   141014   129570   102575    79637    67205    64514    58871 
   41239    21157     9175    -8431   -49892   -95946  -119617  -121560 
 -100360   -49853    14816    67078    95816   109476   107982    78683 
   26300   -40410  -124402  -205062  -240686  -232165  -228958  -241390 
 -218635  -137876   -31204    64801   128842   163586   183193   181013 
  159817   137053    99839    42394   -12975   -52320   -49960     6732 
   69026   100019   122128   150292   164991   158650   147938   137619 
  117875    82744    27811   -37798   -93680  -127105  -131148  -108261 
  -72088   -41384   -14864    29353    72899    81839    67712    36849 
  -15219   -63550  -105146  -154839  -187772  -183955  -156474  -114397 
  -58929     5446    70103   132228   193489   239644   245077   206642 
  156574   118655    87520    59087    29205    -8136   -44466   -69841 
  -89297  -107993  -110242   -85162   -52092   -29449   -13917     8529 
   47680    94598   134514   161323   167611   150008   115759    80492 
   62236    56992    54293    63212    75661    66438    44938    41313 
   55995    69460    80647    88419    76447    52841    37062    21845 
   -7330   -52482   -99305  -124178  -115965   -87208   -57237   -24374 
   19350    62973    92685   107352   110103    96584    64674    29933 
    7871    -6401   -20404   -29779   -41975   -70346   -99902  -111762 
 -111559  -106693   -92162   -61879   -21165    19907    55217    69818 
