Origin Time       2011/03/11 14:46:00
Lat.              38.103
Long.             142.860
Depth. (km)       24
Mag.              9.0
Station Code      CHB006
Station Lat.      35.7790
Station Long.     140.3073
Station Height(m) 29
Record Time       2011/03/11 14:47:26
Sampling Freq(Hz) 100Hz
Duration Time(s)  300
Dir.              U-D
Scale Factor      3920(gal)/6182761
Max. Acc. (gal)   172.904
Last Correction   2011/03/11 14:47:11
Memo.             
[...]
   -1923   -25070   -40341   -30038    -5579    10788    11896     1152 
  -18362   -40753   -55988   -55806   -37766    -2901    36978    56704 
   51940    47879    55402    58461    36146   -11958   -54239   -71304 
  -74814   -60476   -18728    28111    58185    77710    98769   112523 
   94128    39876   -19701   -49862   -44174   -29343   -26870   -24891 
  -13108    -6154   -12752   -23948   -30803   -31422   -33591   -44805 
  -59497   -72127   -76475   -54792    -6634    38083    58943    65487 
   70560    68257    49666    18772   -19701   -59439   -80464   -66328 
  -29490    -3529     -741     6126    38344    73798    76605    38368 
  -19712   -62651   -64354   -35479   -12886   -14055   -24006   -22842 
  -10251    -4159   -10014    -7104     7726     7704   -12569   -35454 
  -47222   -29610    19648    61999    58533    19024   -12865   -18139 
  -14907   -15091   -18103   -29283   -42606   -38700   -12799    22212 
   50846    61884    47491     8597   -31378   -44400   -34051   -21125 
   -9279     4884    13361     8554     1770    12453    33257    40272 
   36018    35097    30064     6487   -24635   -38555   -42111   -52505 
  -51383   -27209    -3148    10877    35907    79038    95216    43013 
  -34980   -67463   -57643   -52302   -56154   -44845   -12962    30704 
   71748    92064    86156    59923    21821   -10517   -24851   -32784 
  -43613   -44024   -21280    11495    28628    27402    20003     6791 
  -11205   -27811   -46447   -71323   -90532   -83401   -50147   -18228 
   -8195   -16670   -32637   -42115   -33243   -19698   -21267   -23547 
   -9218     4988     2950     1545    21501    44488    38972    14701 
    1100     6433    28860    61358    83901    81180    56407    22648 
   -6671   -22515   -23358   -18676   -21937   -29251   -26368   -17823 
  -15329   -14018    -7073     3839    15438    16539       49   -15935 
  -14778    -6989    -6795   -10597    -9212    -8126   -20731   -45995 
  -64415   -52238    -7306    42676    65332    49622    16654    -3480 
   -6840    -4750    -3709    -7949   -19126   -34972   -40237   -18069 
   12338    24215    34717    63305    80754    49578   -10614   -36684 
   -9142    21069    16544    -3484   -17156   -19612    -7147     7602 
   10187     6989     3132    -2015    -8665   -17930   -19067    -6210 
   -1747   -25842   -59968   -72943   -69309   -69165   -69502   -63744 
  -50142   -16802    33492    64437    45634    -7576   -55394   -82127 
  -98531  -105655   -87089   -33637    37661    95128   125492   128088 
   93737    31417   -26579   -63199   -82232   -84860   -63388   -23327 
   13821    44244    73372    91396    95577    82136    27373   -61629 
 -126725  -124756   -66309    12017    76153   106505   102889    79081 
   55740    40683    17518   -20538   -57194   -81578   -91341   -85827 
  -66191   -29152    18753    51456    47685    13555   -19261   -26840 
  -25038   -34950   -38037   -19195   -10067   -32973   -52098   -24985 
   34592    78369    90501    97297   102747    72157    13728   -15086 
   -8114    -2924     2060    17064    15403    -8661    -9002    33823 
   65948    42289    -2208   -15430    -5280     1670     7158     5330 
  -11673   -21484   -13754   -18039   -55957   -89439   -60347    10695 
   47862    36045    23548    28438    11423   -44617   -89422   -81508 
  -43901   -14250     1045    12402    22583    22189     5332   -18638 
  -37769   -44167   -33392   -10590    22768    76280   141522   179889 
  160254    89758     -334   -81951  -142628  -173597  -167431  -136484 
  -92532   -27127    58764   135119   160224   125679    68176    18846 
  -21294   -58298   -80132   -66381   -25404    15852    42353    44796 
   23748    -3595   -24420   -33711   -27857   -14423    -1386    11983 
   22084    26908    31177    37403    42974    40212    29867    19439 
    1182   -31644   -61982   -64855   -32373    12259    28881      544 
  -49568   -86017   -94360   -90557   -95314   -95365   -67644   -28768 
   -5655    13687    47263    70020    53427    16635    -5320    -6651 
   -8736   -29138   -60299   -84572   -88630   -61060    -1705    77313 
  155346   194828   170236   100475    23634   -26982   -34049   -12302 
    5199    -6541   -41053   -58351   -33970    13920    55923    72043 
   55611    20104   -10029   -21500   -19998   -10925     8506    30630 
   38765    26698     2653   -11730      874    24003    38804    52227 
   53761    26944    -9009   -26624   -14119    11954    13357   -15115 
  -42562   -50752   -47500   -48857   -56737   -64172   -72974   -83478 
  -86868   -66294    -9421    57222    86526    76622    57713    27837 
  -23532   -66644   -69521   -37676      949    21303    22346    20233 
   26802    43297    55254    44222     6626   -40623   -63495   -49091 
  -16342    32425    97644   142227   134786    83376    14701   -29700 
  -18249    27360    62730    67450    41823     5157   -11807     -384 
    9027   -20258   -71825   -84100   -36122    25278    50284    37208 
   20951    17787     4354   -25224   -42205   -43567   -45524   -31215 
   14016    63503    85735    72321    34287    -5780   -31341   -47911 
  -63964   -71125   -64598   -43054     1336    54386    80579    69789 
   47327    29042     6289   -18080   -32204   -42382   -47934   -35068 
  -15756    -7585    -4820     2281    25068    52292    43541     5408 
  -13914   -10629   -10824   -12182     1301    21282    16200   -35820 
 -106493  -133542  -103415   -54366    -6380    31837    45699    44235 
   55214    89812   118134   102245    55470    14215   -20594   -56423 
  -71358   -51824   -19429     3235    16192    32190    47868    41325 
   12009   -17279   -33467   -44419   -61790   -76926   -74063   -48578 
   -4709    29778    28046    11583    -2524   -42860  -100707  -122029 
  -99602   -62503   -23163    21405    77362   123908   128983   103362 
   61481    -7532   -75982   -95325   -78305   -66351   -51686    -6919 
   44827    56857    33831    18534    15660    -4469   -30875   -32514 
  -37513   -80109  -117142   -98596   -50032   -19156   -10083     -222 
   21852    48491    72096    83449    53387   -21755   -85477  -100226 
  -84428   -47982      808    25631    13133   -10285   -14153     8327 
   27125    19719    18626    51057    68920    23650   -38554   -44237 
    -844    26859     5354   -37481   -63517   -81309  -110354  -121171 
  -81069   -16778    23207    24784     4164   -13672    -3253    40833 
   87312   101110    77029    26166   -34618   -80669   -91592   -74819 
  -69081   -77979   -48319    18223    49718    38132    46050    83313 
   92698    46509   -15271   -46486   -52693   -58542   -50748   -10622 
   35591    59060    66203    56975    17940   -32910   -61164   -57826 
  -33754   -11906   -13162   -19769    -3036    21897    28691    21012 
    7597   -14122   -43214   -66418   -68376   -45123    -4306    27587 
   23085     5544    18394    44404    32246   -23996   -74974   -75238 
  -43346   -22572    -8970     9442    11572    -5927   -14862   -12424 
  -24669   -41915   -33215   -21592   -37240   -44875   -10591    29498 
   19080   -31938   -63062   -69834   -95668  -126960  -115266   -69835 
  -41547   -36292    -5983    55413    85535    60344    24599     1791 
  -28146   -66941   -85005   -67607   -28102    18144    61681    90380 
   93013    73592    46846    13294   -32112   -62000   -40517    15231 
   57273    69451    69914    73333    68729    46087    15795   -22292 
  -72296  -106638   -97333   -57694   -15293    25292    68044    93772 
   77363    32201   -12832   -58513  -101084  -109026   -71069   -19665 
    3486     -141     6342    27621    44868    61624    72972    56015 
   10930   -43777   -90972  -106919   -76035   -17406    26379    24540 
   -6135   -22598   -20886   -16598     2155    38340    62428    44802 
   -9710   -46033   -16904    45797    83674    82753    52303     5179 
  -41252   -70982   -68868   -36751    -1229    12181    -1231   -30591 
  -59015   -62503   -27775    18146    30238     1699   -26387   -11532 
   41073    76685    62288    32298    11589   -24455   -69786   -77917 
  -44718   -14633    -8576      536    32292    57416    44578    13817 
    2150     5903    -1720   -11669     7357    40745    38172    -9938 
  -60985   -81226   -71466   -51467   -53223   -85251  -111850  -110162 
  -91428   -58939   -11647    28468    35727    13125   -16001   -41644 
  -71175   -94182   -74887   -11429    40740    42089     7774   -31553 
  -41469     4629    73722    99567    65296     1479   -57714   -89944 
  -81232   -28105    32759    45076    10266   -18869   -13351     9945 
   22886    19659    10449    -2882   -13565     2193    42517    72789 
   86343    97631    93521    64328    30190    13498    19864    30263 
   29104    24688    10920   -20046   -41692   -41912   -42147   -47670 
  -51392   -53407   -44177   -21896    -6630    -7389   -22124   -49755 
  -64154   -40070      212    31928    59116    80681    99468   129511 
  148991   106484       13  -104675  -155799  -165353  -155095  -109219 
  -24568    48279    71897    70456    67663    50880    20773     3899 
    6777     5216   -17299   -48968   -67248   -58416   -30842    -8843 
   -4487   -16116   -33795   -28335    19895    83901   115265    91873 
   31611   -21431   -29905    -6065     5032    -4452    -3485    12427 
   14266    -1390   -14687   -34658   -75843  -120432  -146314  -148923 
 -135266  -114162   -81468   -25237    47206   103561   116114    88036 
   49941    27355    10534   -12148   -16304     2916      976   -29371 
  -35279    -2141    29667    40727    45467    56279    65420    54629 
   20601   -25335   -69208   -88911   -67145   -20471     9674     5251 
   -3269    14345    31574     8998   -40388   -85894  -121557  -143326 
 -140305  -101242   -19320    76351   132110   127118    82994    36634 
    6822   -18607   -42196   -37944     4460    56124    78008    59598 
   26496    -1901   -35269   -66981   -68270   -43359   -18811     2204 
   24311    35107    21943     4147    19861    55879    54250    15995 
   -4686     -612     6580    29504    72802    86739    26111   -71322 
 -129631  -128265   -90843   -44623   -17358   -10740     3102    27069 
   31540     8046   -21193   -42255   -63442   -92976  -115771  -110913 
  -92532   -83361   -60517    -2486    54753    77376    78638    76002 
   63587    22301   -43943   -90724   -87716   -44290    19018    68889 
   65183     5620   -56049   -64867   -28919      737     3581     9827 
   31586    37241    31600    55518    98972   110210    68736     8062 
  -31529   -42924   -29282     1927    28386    41776    53738    60309 
   40064    -6598   -50393   -64554   -40713    11088    64160    85607 
   59294     5900   -33322   -40761   -37374   -45516   -52990   -32645 
    6918    23080     7632      -30    18418    39612    33803    -9637 
  -70230  -110868   -97704   -13237   105865   168665   135690    78671 
   60027    49896    13171   -35973   -65478   -56511   -28484   -21035 
  -31431    -9125    53278    83696    39099   -37377  -101568  -141039 
 -136522   -91965   -51724   -42493   -49240   -41895   -14573     6644 
   14476    32451    66908    97753    95847    35984   -56941  -100893 
  -49678    48086   101906    72887    11996   -24806   -46519   -68021 
  -81357   -81212   -56654   -11731    12584    -4142   -20955    -7830 
    5265     2854     4862     2416   -22196   -44461   -28456    25211 
   76193    70529    -2609   -81997  -112063  -102515   -80665   -56341 
  -25356    25188    84495   106545    74247    41423    44045    38381 
     -33   -38428   -64276   -79386   -59420     9655    80689    91074 
   61999    46872    16629   -55340   -93984   -50197    12825    31460 
   10010    -8921     5008    26601    18207   -10975   -28043   -19226 
    2176    15195    14550    17656    33444    36368    18591    19852 
   47806    48169    -9699   -94176  -153855  -158529  -116462   -51274 
   21060    76633    88019    49715   -22942  -103656  -160532  -175937 
 -153831  -101707   -32532    31681    76429    95269    81894    32891 
  -39844  -106424  -142710  -140552  -103970   -58548   -29371    -6087 
   32727    77891    99040    89272    72191    59619    48724    48547 
   64826    81862    76267    41862    -6803   -51043   -72013   -62043 
  -29133    24048    85611   123505   124028    93663    39505   -24148 
  -96561  -180787  -229359  -181092   -45634    88640   133381    92846 
   30308   -20006   -31846    18231    92594   122993    89571    32035 
    -168    13721    71153   132129   125460    43655   -27795   -33005 
  -22605   -46678   -72590   -81417  -102587  -131063  -135929  -104300 
  -45474    11219    60838   124786   183189   189837   134127    37426 
  -65873  -139876  -169292  -166079  -148981  -103872   -10113    81326 
  114407   124328   148437   158288   116820    16992  -100342  -176338 
 -197034  -166822   -82344    21659   100279   148110   149830    87434 
    3011   -42934   -23774    40472    79815    50107   -12046   -53889 
  -59720   -41403   -14748    32932   113621   170487   140747    53136 
  -21969   -39172     4677    56767    69706    53231    23572   -19961 
  -66102  -101548  -121641  -118031  -103128   -95409   -65867     4915 
   64122    49879   -30575  -108147  -136428  -131360  -112606   -84054 
  -70913   -86052   -67276    49845   199441   251922   187410    81544 
  -15713   -98795  -152220  -143095   -71315    34736   154133   243024 
  242894   161282    72631    19200   -38117  -136410  -235924  -275164 
 -245195  -182658  -110454    -9826   118173   200302   164364    41157 
  -64986   -95890   -77702   -48479   -22859   -18678   -26419     3713 
   75336   125613   112611    61796    22946    14219    37597    95022 
  147040   139274    75341      588   -50632   -75493  -105587  -155241 
 -169537  -112741   -51576   -46161   -56658   -21506    49801    86108 
   51099    -6103   -33435   -33571   -21193     2267    34611    62790 
   69465    52652    21978   -18692   -49163   -30061    28896    65209 
   53300    20771      948    14171    56278   112006   166821   182407 
  128567    38065   -35954   -82928  -113018  -125893  -125960  -114567 
  -77441   -22284    12161    10017     2909    24230    62218    74052 
   27075   -73784  -169682  -185282  -112087   -10366    65956   101552 
  111885   111668    88168    43918     7037   -23755   -70835  -128862 
 -150160  -108266   -69682   -87016   -88250    -4884   105749   148453 
  113454    63175    33530    12315      510     5099       92   -11003 
   22390    88467   118431   100822    70998    36238   -26777  -126277 
 -220907  -256829  -231936  -180767  -118521   -40328    47164   123738 
  163322   149736    99764    33674   -41932   -98209  -114884  -119753 
 -124724   -91231    -2310    91650   131823   125217   117398   106827 
   57036   -12737   -32489    18210    79491    94263    77817    80001 
  103904    92799     6426  -101419  -138863  -115796  -110650  -117749 
  -85528   -34355    -6677     2572    10691    14077    -3275   -36845 
  -40130     9336    54896    48568     9648   -40610   -82548   -75144 
  -25928     6697    10361    24049    63098   102404   118418   114029 
   98991    66821    12703   -30282   -15875    38183    63064    41676 
   24207    38397    48377    19867   -32986   -82614  -106711   -91646 
  -52219   -14502     7786    12809    13437    30285    68857   105800 
   99280    25938   -76600  -131259  -114935   -79450   -61584   -48245 
  -17435    39205    93515   102617    73674    38296     4115   -29527 
  -58406   -69093   -52666   -15197    42775   104604   136003   144097 
  147615   120631    49905   -28171   -83227  -113201  -119771  -102910 
  -62126   -13373     9309    15795    43384    67354    39989   -29466 
  -99253  -145407  -162816  -143292   -90704   -37399    -8237    -1223 
   -8493   -29754   -73930  -124990  -127315   -75568   -36220   -34555 
  -38989   -34411   -29816   -27978   -14496    16605    45644    51527 
   38308    38434    59357    53581     6956   -27320   -14947    23514 
   34544   -12063   -65752   -72251   -51140   -26461      481    13125 
    9017     8689    24813    62694   101049    92317    30102   -39839 
  -84719  -103442  -101816   -90024   -77194   -47824    22419   113961 
  173418   173166   127989    77340    45119    15781   -27918   -68753 
  -60872    19586   124352   182694   188182   185598   190305   169061 
  101425     5740   -84136  -130023  -114241   -57765    -9723    -9662 
  -25027    12285    97720   163229   159233    87042   -13489   -91758 
 -115017   -88643   -42153    -3780     9839    16764    46013    64699 
   17597   -60074   -84141   -50495   -20335   -26051   -50262   -63027 
  -63365   -64363   -59085   -38474    10154    98551   188950   217842 
  161311    53212   -37123   -72321   -80206   -92208   -97107   -81665 
  -70072   -81332   -74723    -2191    98109   138414    92344    13197 
  -32957   -30492    -5815    22229    42722    45120    32528      632 
  -59590  -113547  -112326   -67264   -24681    -5498    -7573   -15325 
   -9241     9112    29659    57768    88179    92456    57126    -7608 
  -73849   -92838   -47663    21186    70037    77459    55712    48711 
   64317    60419    19766   -25350   -44327   -38602   -15096    23040 
   52744    48957    19317   -11697   -35627   -51285   -39040     5772 
   27323   -22235   -91670   -95615   -35459    15413    23977    33036 
   66666    82550    57002    16869   -19829   -51994   -65294   -42537 
   -4983    -5116   -51392   -86086   -69769   -37489   -31415   -52281 
  -97203  -138433  -123585   -57287    21964    86575   108943   103148 
  101155    76473     -218   -89695  -135012  -126560   -98354   -81465 
  -62292   -16293    24956     7811   -58660  -112929  -114918   -67969 
   -3138    28540    15133    19425    73049   125371   134193   102890 
   58920    25420    -9648   -57264   -96001  -104126   -79135   -36759 
    7393    53616    90998    94497    61424    13975   -22892   -44419 
  -61681   -60855   -20449    46165   115420   163189   163499   127148 
   91758    74155    60491    23299   -34382   -59492   -33240   -14066 
  -27061   -26397    -5917   -14473   -48549   -46892    -8316    -1567 
  -40551   -62387   -37608    -3084    16223    27522    31146    29374 
   32344    47630    71772    63459    -6608   -88977  -130895  -146554 
 -152933  -125042   -54443    14406    43839    45533    45789    52049 
   42978     -813   -44810   -45463   -23526   -23059   -47762   -64193 
  -39830     8017    29235    16246     2226    14949    57014    88637 
   72011    30653       16   -26149   -64600  -110481  -132763   -99620 
  -32968     1388   -15921   -28757     5423    57683    79472    53385 
    -114   -47242   -76180   -78799   -43527     6924    33980    23770 
   -6702   -21693   -15450   -20857   -46861   -76029  -100363  -114935 
 -117272  -105280   -77589   -46287   -15690    18837    45694    55842 
   59633    69598    84145    86301    73282    72040    90765   102632 
  104473   117211   124756    91960    26044   -34247   -60229   -45598 
   -7195    28402    43199    27746    -9883   -39589   -45307   -42890 
  -42266   -31674   -11101     3365     4682     -521     1308    13043 
   25001    35788    39604    25800    11898    21699    47312    67811 
