Origin Time       2011/03/11 14:46:00
Lat.              38.103
Long.             142.860
Depth. (km)       24
Mag.              9.0
Station Code      CHB014
Station Lat.      35.4710
Station Long.     140.0454
Station Height(m) 8
Record Time       2011/03/11 14:47:31
Sampling Freq(Hz) 100Hz
Duration Time(s)  300
Dir.              U-D
Scale Factor      3920(gal)/6182761
Max. Acc. (gal)   64.680
Last Correction   2011/03/11 14:47:16
Memo.             
[...]
   36114    32228    28293    26957    25212    19845    13934    12831 
   15280    16658    16068    13928    10454     9146    13380    20247 
   24804    27128    30969    38421    46166    49780    52627    61160 
   73731    82730    84290    82236    82559    85387    85911    81818 
   74297    63223    48699    34549    24120    17283    11515     3481 
   -4341    -4331     3274    11810    22125    38309    55885    68739 
   77941    84175    83634    76566    68715    63687    61498    60943 
   58780    52013    42155    31989    21423    10488     2104      967 
    8143    16286    19106    21200    27396    33214    34006    31938 
   30162    28083    24838    23388    25749    26634    22797    22011 
   27410    29075    24018    19617    15519     9106     7075    11903 
   15740    14872    14336    18810    26437    33257    40446    49742 
   58319    65056    71208    74643    72866    67874    62789    56781 
   48306    40135    32799    22907    15170    15696    15970     8752 
    3971     8801    14824    15759    17497    24931    33243    37875 
   41233    44649    46398    47311    47953    47112    45551    43027 
   36907    28750    23385    20140    15973    15013    22071    32112 
   37278    37008    35051    33599    32958    33929    38140    43347 
   43038    36984    33203    33522    31712    28603    31556    39973 
   45837    45278    40786    36477    35789    39344    44645    50645 
   58355    66094    70591    71545    69887    66370    62961    59414 
   52786    42711    31531    21158    12518     6031     1714     -103 
     987     2546     1837     2797    10363    19881    24299    25517 
   29182    35742    40251    39777    40609    47775    53110    50830 
   48024    47694    45245    42049    41835    41692    38069    33691 
   34257    40311    45862    47501    48426    50840    52421    51906 
   50269    46300    40456    38834    43088    46341    44566    40503 
   36636    31976    26241    22847    22711    21284    17370    15627 
   18188    22323    26187    29514    29555    25757    23803    25238 
   24667    22689    26135    34383    39483    39392    39204    41826 
   46316    49138    46350    40557    36604    32435    25866    20194 
   18570    20757    21912    19203    20197    28287    33576    33593 
   36199    41161    44760    48260    50924    50980    49622    48543 
   49666    52573    52985    50474    49360    49042    46336    43734 
   43927    45256    45681    42848    35595    27915    24672    25834 
   27335    25663    22786    22109    20201    13867     8354     7972 
   10356    12151    11896    12127    15710    18696    19821    26432 
   38480    45019    41103    34199    33093    36283    36217    32547 
   30666    29593    25145    20875    20800    21103    20202    20626 
   21459    22266    22179    17470    13138    18437    28003    31706 
   34165    43055    53264    58224    61797    68332    73720    74810 
   76550    81625    83923    80573    77640    76965    74452    71124 
   67974    61501    53797    50109    49821    51404    55278    59831 
   63822    67435    70027    72907    76818    78379    76855    72736 
   62416    48197    37940    29671    16936     2466    -8703   -16622 
  -20869   -19127   -11480     -362    11526    22927    35213    47844 
   55655    57337    58674    61896    62991    61282    58805    53996 
   48014    45943    45654    42122    37679    33613    25960    16574 
   13314    16263    14991     6316     2928    11355    19999    21765 
   23806    29613    34416    35446    33212    29251    25132    19993 
   13048     5782     -812    -5767    -8711   -11536   -13230   -10659 
   -6348    -4218    -2324     3261    14257    28448    38949    42248 
   42838    42957    38865    30425    22686    19016    19239    21798 
   24965    26442    24957    23405    24362    25667    26729    29020 
   30576    31093    34510    41208    47235    51003    54971    61473 
   67459    67462    63027    58275    51044    42493    40097    41091 
   35138    24902    19961    17736    12716     9343    10116    11401 
   15102    23482    31372    39245    53771    69413    75128    74562 
   76422    78105    73918    64272    52185    40317    29907    19975 
    8260    -4576   -12488   -12393    -8016    -1103     7804    15608 
   24485    39291    56603    70077    79207    85520    88707    87993 
   82613    73342    63559    54341    42788    28625    15112     3664 
   -4430    -6714    -6853   -10943   -13835    -8191     -947      362 
    1052     6238    15197    28425    44172    56038    62111    67651 
   75259    80262    79021    73844    66239    55034    41870    28441 
   13454      -95    -5623    -5041    -5847    -5543     4104    18334 
   24499    24014    29427    43836    58540    66280    68355    68463 
   65491    58742    51233    42322    29999    19099    14256    11447 
    6356     3089     6092    10465     9296     4135     -492    -4211 
   -5061      443     8053    11351    11914    11081     5382     -517 
    3259    13070    18941    22068    24608    21479    15041    13653 
   15082    12873     8322     4766     4436     9112    15105    18086 
   21187    28260    37771    45150    45794    42624    44688    51339 
   53836    52140    52203    53079    49517    42201    36720    32173 
   22768    12052     8135     8995     9396    11957    19311    26164 
   27298    25921    27913    33072    35491    30148    20418    15217 
   15906    17729    21712    29427    34617    32626    29337    33530 
   45776    59317    67576    70153    73827    80851    81646    70704 
   57153    48374    38578    24963    16545    16014    13411     3708 
   -4420    -1261     8916    16718    24378    34530    39985    40579 
   43480    45639    43185    42864    45545    44435    41794    40628 
   34188    22172    15852    18378    19588    13709     7232     6962 
   11079    16004    22434    28883    31992    35976    44900    51488 
   50603    49590    53399    55816    52839    50267    51595    52668 
   51266    47583    40690    33512    30339    28988    24483    18453 
   18167    23358    24197    19396    19817    29702    43480    56648 
   65261    67438    67850    69161    69137    68189    66882    63654 
   60732    60849    60667    57306    54312    52915    46354    32440 
   20416    15304    10982     5153     2198     1846     1888     4657 
   10751    17286    25282    35596    41475    40376    41475    48168 
   52170    50721    47130    39129    27559    22111    23342    20229 
   12547    10600    14610    18342    23227    31856    40061    42163 
   36986    29767    27246    29535    30079    23260    13223    10824 
   17052    22714    26421    34282    43770    46639    44727    46158 
   50634    53632    57110    62704    67108    70205    71883    68153 
   60789    54279    46406    36685    29082    21684    12379     7265 
    9006    10721     8575     8156    13907    21419    27668    36523 
   46404    51095    52607    55477    58640    62035    67220    70562 
   68719    66671    67779    66035    58921    50532    38401    17834 
   -5362   -22045   -29620   -28149   -18514    -5379     6409    15444 
   21325    24737    28000    30405    29498    27153    26261    26350 
   26762    28786    33504    38913    42192    43805    43691    39380 
   31312    22792    17431    18835    26473    34048    37471    42631 
   57387    76253    88336    95242   103292   111326   115905   115171 
  109024    98784    82735    59269    33277    11453    -5304   -19960 
  -31377   -37154   -40387   -41001   -34232   -22976   -10650     8136 
   32129    49416    56825    64563    80807   100814   111786   108943 
  102121   100615   100297    92871    78129    60118    40959    23914 
   12391     4988     -929    -3992    -1189     4991     6878     4867 
   10235    25757    38463    41447    43866    50822    55738    57415 
   61817    65698    59056    43823    31630    24861    16585     5365 
   -4174   -10779   -15240   -15925   -12479    -5759     5488    20740 
   36943    52960    68513    81727    90232    94115    96619    99689 
  101490    99103    91150    78720    63952    48965    36649    27910 
   20033    10924     1475    -4919    -6190    -5691    -5067     1699 
   19420    42751    59876    66783    72458    82380    90209    90625 
   84197    74638    68743    66975    62368    55095    49341    43138 
   36723    35199    37687    38215    36178    34469    30814    23116 
   17973    21617    29016    32159    31808    32061    32835    34667 
   39284    43581    43767    42609    45258    52232    59773    63842 
   63532    61771    61755    64386    69142    72412    69319    62722 
   59276    56066    48353    43673    48203    52452    47206    36284 
   27664    26286    30432    32505    30261    29373    32211    34146 
   32626    32904    40418    51833    59686    62239    62792    62356 
   58128    49051    38474    28045    14673    -2462   -18266   -28385 
  -34969   -40222   -39365   -30323   -19856    -9790     5763    25252 
   42085    57162    71603    81780    89248    96538    97890    90273 
   80921    73444    62180    46011    31930    23058    15800     8328 
    3256     2488     5681    12472    21083    28915    36182    44026 
   51580    56359    56437    53674    51947    51428    47749    38890 
   30253    26152    22242    15243     9021     6072     5059     4213 
     892    -5675   -11517   -12120    -7222     1179    12497    24479 
   32756    38479    46788    57934    69889    82304    92977   101843 
  113360   125304   129500   126081   120343   111877    98987    83751 
   67561    50871    36425    24687    12000     -697    -7241    -6363 
   -1015     8197    17982    23245    28249    38523    50309    60367 
   69802    81293    94091    97825    90074    82715    76761    64050 
   47891    34858    21726     7103    -2573    -7827   -13824   -17188 
  -13729    -6775    -2965    -3053     2228    18588    37492    49171 
   56924    68404    80702    85800    83760    79714    75351    70952 
   66657    58884    45880    31841    17187     -797   -16850   -25089 
  -28886   -32824   -36310   -36259   -30597   -21302   -11617     -834 
   12576    25881    35095    39647    40643    39433    40339    47606 
   58465    65902    67931    67527    64003    53260    36595    20475 
    9073     3028     2179     5795    11850    16563    16145    11895 
    9764    12966    19404    25198    28225    28735    27313    24602 
   21943    20081    19445    21247    25267    28383    27880    24275 
   19463    14862    11993    10973    10126     9433     9680    10879 
   14254    20779    31225    46996    65133    79966    90262    96296 
   95651    89068    82587    77635    68388    53885    40011    28621 
   18442    10034     1823    -6452    -9969    -7094     -377     8354 
   17090    25983    35925    41963    40747    37780    36478    33503 
   29141    27595    27235    21597     9236    -2884    -8038    -8721 
  -10848   -14119   -14878   -12344    -8056    -2093     7622    20297 
   31254    38691    43663    46256    48787    53754    57721    57580 
   56755    57045    54816    49547    44345    39339    32212    21171 
    8088    -2708   -10181   -13114    -8890      542    13131    30781 
   52861    73899    89355    99193   106285   113079   117615   114530 
  101519    81640    58826    33332     7246   -11456   -21816   -32717 
  -44807   -48884   -42803   -32344   -19724    -4584    10999    27667 
   49880    76256    98599   113909   126291   135773   136715   126177 
  108145    90381    76077    62304    48117    35406    23968    14422 
   10334    12978    19789    26603    29300    28827    31132    36540 
   38219    34761    32150    32388    32920    34212    37194    40069 
   42067    43977    48374    57968    68860    75896    81427    88039 
   93348    94094    87809    75535    62681    52941    45272    36743 
   26679    18966    16490    15424    11491     6404     4299     6049 
    8884    11725    15335    17835    19356    24579    34662    45036 
   51477    54312    57938    65852    74706    77444    73998    68181 
   58255    44903    34183    26992    21931    19668    17703    14175 
   13495    18990    25361    26151    25446    31469    42015    48872 
   50907    51782    51565    47960    40289    29788    19086     9681 
     444    -9148   -16941   -19589   -15844    -8309      213     9024 
   17973    28546    42567    57627    69774    78607    85152    88874 
   89581    89554    90948    90803    82914    66740    47622    28053 
    8943    -3479    -4426      969     6583    13128    22002    31590 
   36897    33029    24331    18584    14093     6859      725     -673 
     409     1794     2120     1950     6730    18383    32087    43822 
   51601    56284    62389    70899    77466    79085    76922    74001 
   70786    65657    61090    60573    61730    61256    59365    56214 
   50976    43306    34046    25715    18999    10801     -366   -10899 
  -15345   -13032    -9518    -7071    -1024    11151    25846    38654 
   50159    64492    80517    90826    92906    92377    91326    83707 
   67262    48817    33209    18790     3960   -11897   -27710   -38994 
  -44072   -45587   -44480   -39292   -29947   -19426    -9881     1111 
   15912    32402    48939    67892    89863   110102   123830   131514 
  136359   137832   132181   118370    98184    74931    54000    37634 
   21763     3677   -10821   -13816    -7095     1736    11086    23311 
   39000    57829    77119    89914    90782    82574    71179    57975 
   44096    32742    22940    11465        2    -8753   -14313   -13188 
   -3642     8781    19815    30149    41821    55964    69780    81575 
   95547   111031   119466   119109   117551   118500   117800   111756 
  102108    92078    82218    71209    57932    42148    24372     6838 
   -6570   -13979   -17628   -21215   -24326   -20065    -5405    11474 
   26007    44705    68956    90605   104249   110950   114447   116485 
  114665   109019   102823    93326    76085    56434    42170    29930 
   12574    -4980   -13321   -14555   -13977    -7497     8213    25782 
   38294    49290    63330    76769    85099    89237    89864    85394 
   76448    66056    56659    49697    46137    43955    38946    31210 
   24967    22985    26182    33086    39023    42639    48734    60133 
   74128    87764    98225   101626    99288    96882    94020    85849 
   73002    59358    45196    30838    19665    12685     8337     7578 
   10949    13969    13127    12370    16750    24571    31441    36493 
   41325    46149    49459    51045    51005    48383    44055    40277 
   38079    36414    34106    32391    31111    27121    20053    13283 
   10095    11480    16110    22716    30587    38507    46294    55135 
   64692    70609    68914    62798    56397    48116    39290    35306 
   33599    26940    17222    12386    14681    19866    23329    25965 
   32692    41882    46808    49731    57833    67433    69016    61894 
   51389    40427    31110    24763    19688    15334    12609    10844 
   12640    21862    32258    35917    38666    46467    52620    53688 
   55575    59174    60073    59042    60596    66329    74354    82587 
   89416    92099    90231    86301    79916    69285    53869    34091 
   13458    -5357   -21870   -32494   -36352   -38333   -36794   -24880 
   -6456     7906    17689    30245    46812    60054    63531    59635 
   55706    52906    45848    33653    21412    11767     4703     1891 
    3744     7280    10867    15481    21216    26223    27979    25966 
   22594    19821    17961    17616    18109    16896    14198    12966 
   14438    18476    24244    30133    37356    48812    61247    67180 
   66550    65080    62661    55482    44233    31959    20532    11822 
    7211     6194     8324    14354    23166    32213    40555    47521 
   53527    59831    63289    61781    60809    62847    62282    56765 
   50335    45924    42462    38593    37159    40481    43407    42305 
   42217    44953    45190    41696    38343    36282    32579    26000 
   20755    20191    21879    24034    28227    34300    40719    48101 
   57638    67504    73566    74566    72991    69909    65831    64404 
   66199    64842    57048    48096    42699    39042    34277    29747 
   27229    24106    19126    16661    18549    20424    18216    13381 
   10848    11327    11033     9893    11652    16543    20845    23204 
   26027    30875    36246    39303    39130    38786    41351    43629 
   40382    33922    30110    29178    28437    27965    30537    38051 
   47439    54029    58624    63809    68089    70373    72014    71971 
   68455    64900    65684    67151    63340    56868    53639    53317 
   51813    48178    44988    43828    44206    45464    47893    53117 
   60819    66242    65663    61377    57353    53487    48359    43538 
   40384    37100    32014    25260    16730     6434    -3769   -11429 
  -15384   -15566   -12345    -6517     1967    14646    30015    42690 
   52375    63809    74874    78968    77559    76206    74060    67951 
   59482    51622    43743    33508    21777    13286    10041     7750 
    3118    -2028    -5972    -8580    -8568    -6037    -4266    -3196 
    2221    13335    26582    40441    55229    69531    81550    90966 
   98279   103148   103725    99051    90891    80892    68308    52351 
   35361    22042    13963     7803     1101    -4364    -4919      782 
    8884    14214    16407    18955    23785    28000    27065    22234 
   20340    24260    29578    32774    35689    39870    43782    46341 
   47522    46230    42446    40123    42229    45872    48211    51178 
   56191    61400    65039    66694    66234    62025    52638    41646 
   33995    29352    24160    15854     5607    -2439    -7680   -12644 
  -16929   -18704   -16952   -12532    -9937   -10798   -10747    -7738 
   -3751      354     3922     4782     3242     3734     8525    13907 
   16108    16223    15759    13146     9531    10231    15975    22215 
   27853    35107    42570    47079    50482    56336    62518    65195 
   65681    66035    64413    60147    55133    49845    45500    44755 
   46488    46023    40281    30776    22596    17990    12339     2567 
   -4904    -3899     1130     3479     3328     4363     8976    15427 
   19068    19808    21486    23446    23631    24988    29921    37228 
   46339    56283    64691    71437    77789    83337    86865    87513 
   85879    84153    82375    78429    72743    67292    62541    58657 
   54920    48667    39286    29544    21060    13433     6516      752 
   -1533     1958     8101    12576    16958    24024    32931    41625 
   47481    48723    47462    46341    44862    42868    41441    39538 
   36577    34819    36004    40163    45245    48141    49672    52677 
   55797    56066    52853    46241    36310    23662     9524    -4320 
  -15938   -23211   -26059   -27489   -28205   -25041   -17036    -6457 
    5504    18490    30108    38411    46123    56043    65640    72128 
   76337    78958    78660    74112    65770    55267    43722    32644 
   24303    18454    13036     8496     6264     5950     7240    10522 
