Origin Time       2011/03/11 14:46:00
Lat.              38.103
Long.             142.860
Depth. (km)       24
Mag.              9.0
Station Code      CHB018
Station Lat.      35.1520
Station Long.     140.3204
Station Height(m) 38
Record Time       2011/03/11 14:47:27
Sampling Freq(Hz) 100Hz
Duration Time(s)  300
Dir.              E-W
Scale Factor      3920(gal)/6182761
Max. Acc. (gal)   33.416
Last Correction   2011/03/11 14:47:12
Memo.             
[...]
   31523    29406    28387    28487    29462    30163    28541    24970 
   20838    16208    12502    12095    14761    18907    23959    29349 
   34468    39312    42269    40774    35927    31064    26653    21676 
   16969    13966    12789    12059     9785     5866     2503      685 
    -828    -1961    -1166      419     -161    -3100    -6122    -7575 
   -7479    -7370    -8792   -10519    -9373    -4239     3802    13284 
   21362    24767    23310    20336    20380    25802    33925    39359 
   39838    36808    32106    27415    24291    23150    23409    24361 
   25015    23969    21531    20129    21107    23889    27718    31627 
   33991    33990    32650    31214    29130    24605    17333    10124 
    6036     4721     4647     6754    12706    21569    29641    32725 
   29345    22535    17468    17059    20356    23681    23334    20015 
   18493    21045    25938    31328    35646    37021    35652    34276 
   34430    34452    32371    28046    22402    17041    14064    14716 
   17600    19465    18903    18033    20370    27126    35644    42432 
   46030    46299    43747    39977    36808    34671    32377    28181 
   21867    15462    10835     8591     8432     8355     7656    10512 
   19598    30019    36629    39702    39099    32791    22758    13849 
    7867     4805     5372     8234    11492    17219    27613    40196 
   51319    58667    59832    54797    47004    38475    29991    24875 
   24222    23513    19966    15891    13765    13901    15489    17199 
   17977    18138    18948    20870    23104    25314    27990    30263 
   30620    29532    28068    25902    23072    21711    24103    29799 
   36196    41126    43337    42058    36905    27569    15918     7300 
    5325     7684    10483    12792    14571    15264    16239    18532 
   19128    16102    12623    10733     8529     6085     6739    11688 
   18416    23719    26199    26966    27669    28060    27362    26308 
   25535    24395    22802    21546    21007    21445    22469    22233 
   20318    18852    19072    20949    24719    29021    30837    29083 
   25423    22036    20919    23682    30261    38324    44122    45293 
   42812    38430    32187    23727    13898     4846     -288      990 
    8224    19102    32341    46590    58493    64746    64232    58139 
   49025    38204    25979    14934     8076     4767     3350     4699 
    9095    13661    15676    14779    11594     7360     3949     2312 
    2589     5629    11636    18823    25366    30960    35807    39128 
   39718    37971    35266    31736    27652    24599    22544    19745 
   16224    13759    13285    14647    17828    22804    29147    36168 
   42522    46521    47568    46315    43426    39060    33926    30316 
   30272    32787    35149    35509    32495    25963    18086    10856 
    4526     -429    -1802     2959    13904    27714    39655    46357 
   47439    44486    38786    31511    24588    18751    13164     8434 
    6390     7304    10243    14122    17297    18510    18117    17290 
   17355    20122    26632    34628    39279    38530    35836    35598 
   38378    41421    41191    35789    26827    17830    12163    13581 
   23165    35476    43973    47434    46958    42911    36889    30368 
   22747    14877    10372    11043    15010    19971    24629    27527 
   28027    27536    27965    29776    31556    31687    31054    31978 
   34582    37576    40014    39245    32353    21560    12976     9779 
   10802    14155    18568    23412    28822    34325    38988    42851 
   44999    41873    31464    17520     6168      -51    -2686    -3475 
   -1958     2204     6989    10914    15213    21223    28453    35367 
   40253    41956    40936    38749    35947    32518    29854    29458 
   31845    37411    44552    49443    50494    49447    48501    48418 
   47777    44052    36508    27631    20832    17200    15996    16413 
   17167    16967    16358    17535    21616    27053    31080    31178 
   25860    16003     4914    -3556    -6831    -4486     1846    10560 
   21504    33220    42475    49076    55148    59156    57301    50274 
   43341    40230    40040    38827    33796    26333    19362    14332 
   11707    11099    11621    12679    13631    14017    14080    13953 
   13862    15602    20740    27590    33341    36945    38032    36922 
   35312    33730    30763    26137    21130    16550    13459    13320 
   15986    20691    27324    34270    38801    40384    39018    31957 
   17790      761   -13738   -23653   -28354   -26885   -18711    -4161 
   15411    36913    55782    68011    71502    66382    55113    41569 
   29618    21705    18365    19175    21573    21525    19616    19588 
   20631    19871    18012    17203    18005    19170    18861    16875 
   14976    13949    11598     6961     4289     7836    17009    29094 
   40705    47429    46654    39559    28872    16482     4470    -4950 
  -11213   -13015    -7150     6861    25593    44701    59727    67406 
   67237    61017    51832    41627    30925    21369    13608     5371 
   -3367    -8206    -6630    -1294     5055    12346    19530    23684 
   23308    19036    12913     8208     7142     9582    14740    21352 
   26529    27775    25721    22486    19534    18856    21800    26169 
   28603    28531    27228    25082    21718    17790    15486    16082 
   18047    20230    23290    26413    28134    28978    29567    29782 
   30986    34482    37633    36905    33069    28148    23197    21314 
   24186    28707    32314    35067    36429    35392    31707    25560 
   17961    10899     6331     4943     5429     5905     6203     7387 
    9260    10564    11890    15160    20493    26188    30527    32820 
   32731    29077    21913    14307     9289     7683     9633    14633 
   20869    27345    34793    43276    51457    58592    64814    69698 
   71933    70111    63770    54034    43139    32772    23646    16744 
   13349    13144    13561    13236    13698    15356    16147    15285 
   13672    11004     7238     5112     7185    13077    21018    29463 
   37146    42573    44345    42649    39236    35765    32715    30053 
   27979    26074    23905    21683    18726    14672    11793    12438 
   15709    19347    22494    24737    26018    27272    27881    25574 
   20078    13383     7499     3816     2851     3548     3474      638 
   -5253   -12995   -19867   -22647   -19599   -11170      346    12577 
   24365    34234    40784    45456    50108    52335    48454    39426 
   29151    20003    12966     8436     5709     4514     6979    15037 
   25926    33891    35716    31640    23373    13424     4690     -244 
    -462     2746     8150    15811    25150    33702    38487    38030 
   32997    25799    19966    18403    21161    25554    27977    25784 
   19555    12275     6329     3846     6290    11521    15519    17200 
   18966    24003    33487    44445    51607    52173    47394    40739 
   35118    30862    26796    22559    17986    11997     5234     1500 
    3308     8697    14459    19420    23878    28167    31542    32828 
   32997    34853    39536    45635    51491    56757    61733    65726 
   67624    68015    68247    68925    69740    68730    63778    55319 
   46200    39204    35056    33263    33154    33705    33792    31878 
   27070    21300    17290    15284    14754    16169    18673    20952 
   24054    28686    33336    36789    38728    38656    35922    30191 
   22643    16275    13170    12354    11516     9476     7304     8258 
   14148    22037    27831    30454    29971    25311    16053     4137 
   -6467   -11721   -11472    -9178    -6586    -3416     -411     1827 
    3658     4984     6413    10135    17066    24639    29275    30607 
   30386    27889    21607    13087     4356    -3702    -9186   -10719 
   -8818    -2903     7853    20186    28936    32131    30513    25741 
   20443    16582    14795    16148    21427    29567    38280    45152 
   48782    49182    47029    42824    35567    24009    10478     -473 
   -6854    -9162    -8098    -4907    -1831     -627     -656      829 
    5629    12834    19718    22978    21048    16080    11913    10441 
   11054    12665    14812    16915    18051    18044    18628    22787 
   30847    38789    43117    44161    43981    43937    43607    42032 
   39294    35774    32057    29644    29201    28821    26828    24167 
   21392    17005    10447     3464    -2380    -7057    -9739    -8238 
   -2901     2673     6043     6683     3694    -1345    -3180      259 
    5298     7954     7993     8277    10319    12892    15536    18718 
   21059    19699    14349     8426     4703     3411     3568     3454 
    1086    -4728   -12795   -20014   -24490   -25743   -22877   -15648 
   -6398     1407     7097    12795    18944    23605    25900    26352 
   23945    16248     4352    -5800    -9718    -7724    -2021     4450 
    8242     7684     4003       32    -2304    -2316      702     6347 
   12801    17984    20309    20458    19958    18456    16138    14399 
   12753     9769     5608     1127    -3464    -7833   -10910   -12160 
  -11838    -9716    -5730     -488     6506    16230    27203    36260 
   41870    44427    44105    40472    34706    29788    26965    24285 
   19350    12208     5465     2002     3503    10422    20913    31204 
   39824    48590    57783    64459    66043    62774    56533    48724 
   40193    31675    23405    15359     7131    -1053    -6265    -5292 
    1477    10524    18279    23154    25043    24737    23136    19731 
   15005    12145    12174    12555    12547    13459    15355    18826 
   24998    31976    36910    39036    37975    34147    30216    28426 
   28643    29608    30459    31516    33377    35397    36371    35929 
   34223    31271    27278    22707    17754    12842     9363     8459 
    9461    10709    11410    11553    10729     8439     4631     -519 
   -6498   -12759   -18719   -22732   -22017   -15311    -5786     2126 
    8038    13754    19475    24567    28891    31967    32565    30690 
   28175    25967    23680    21607    20542    20899    22828    26479 
   32179    39235    44818    46645    45796    44142    41078    35916 
   30900    28131    25767    20767    13151     5147    -1179    -4501 
   -4541    -1978     2064     5712     6676     5104     4063     5246 
    8145    13206    20162    25123    24547    19825    15149    13170 
   14265    17726    21627    23659    22852    18508    10829     3405 
    -239    -1121    -2663    -6216    -9609    -9693    -5663      923 
    8153    14767    19967    23374    25581    27653    29377    29673 
   28394    25605    21373    17538    16512    18727    23554    31043 
   40239    48106    52431    52620    47972    38779    27748    18311 
   12767    12793    18958    28380    36243    40545    41868    39813 
   34105    25918    15971     5709    -1918    -5239    -4275      139 
    6283    12327    16912    19464    21288    25264    32639    41547 
   49796    56078    58835    57284    52506    46823    42374    38553 
   32891    25644    19632    16405    16137    19913    28618    39596 
   47801    50602    48727    43053    33482    21199     9570     2137 
     733     4374     9875    14994    19465    23522    27621    31633 
   33784    32972    30632    28025    24429    19938    16468    14175 
   10332     3475    -3882    -7752    -6120      190     9122    19038 
   28011    34208    38535    43076    46824    46971    42833    35176 
   24574    13388     5639     3073     5228    11861    22074    34167 
   46105    54756    58197    57247    52501    44998    38331    34627 
   33089    33389    34899    36122    37716    41209    45182    46904 
   45677    42029    36765    31088    24732    16638     8714     4077 
    2451     2421     4453     8032    11474    15262    20333    25365 
   29323    32867    35763    36349    34036    30837    29376    29869 
   30686    31089    32391    35770    38757    37098    30324    21802 
   14074     7206     1047    -3265    -4090     -533     6649    14988 
   21662    25361    26675    26925    27506    29459    32793    36225 
   37155    33308    25298    16326     9398     5385     2940      154 
   -3191    -5455    -5162    -1677     5648    15823    25078    30457 
   32268    32723    34149    36620    37476    35157    30505    23257 
   12157    -1028   -11702   -17268   -18677   -15822    -6543     8212 
   24037    36759    43892    45675    44380    41457    37315    32841 
   28832    25112    21569    19335    20255    25372    34048    44210 
   53164    59077    61726    61142    57485    52039    45648    38110 
   29893    21980    15746    13901    18596    27973    36872    41273 
   39921    33839    26621    21753    19193    17114    15878    17441 
   21434    25492    28688    31603    33739    32657    26860    18314 
   10208     4463     2092     3054     6423    11483    16722    19556 
   19473    18825    19158    20078    21426    23024    23596    22030 
   19016    16160    13975    13397    16626    23149    29591    34032 
   35891    34274    29775    24577    19720    15400    12375    11052 
   11476    13457    15946    18057    19861    21331    21619    20342 
   18996    19610    21341    20701    16398    10076     2788    -4675 
   -9852   -10884    -9123    -6551    -3373       -2     2976     6592 
   11802    18141    25056    32769    41996    52764    63718    72475 
   75936    71903    60861    45694    30271    17343     7485      483 
   -3429    -3260     2520    14548    31116    47858    59235    61984 
   57257    48559    38641    29267    21789    16275    11160     5015 
   -1056    -4413    -4751    -3671    -1120     3116     7294    11089 
   15851    20357    22279    21633    19637    17838    17277    16266 
   12405     6492      817    -4058    -7510    -6962     -791     9318 
   20700    31930    41547    47785    50247    48988    43453    34098 
   22965    12338     4001     -785    -2108    -1187     1650     6549 
   12526    18661    24593    28608    28237    24076    19883    17416 
   15454    14043    14010    14305    14069    13822    13718    13236 
   11632     8964     6900     7054     9921    15377    22124    28547 
   34501    39671    42149    40850    36969    32128    26795    21206 
   16611    14561    15182    16539    16745    16529    17361    18143 
   17294    15957    15883    16574    16682    16589    17318    18018 
   17592    16874    16652    16327    15725    16336    19840    25485 
   30581    33623    35122    36620    39576    43672    47418    50377 
   52321    52446    51080    49010    46164    42710    39089    35319 
   31444    27479    23500    20467    19664    21310    24530    28331 
   31729    33299    32139    28653    23696    18224    13499    10764 
   10924    14341    20237    26511    31470    34783    36030    35269 
   34575    35524    36730    36196    33633    29976    26662    24932 
   25183    27064    29781    32162    33155    32841    32010    30846 
   29167    27076    25017    24243    26321    31225    36747    39993 
   39930    38112    35900    32870    28361    21993    13624     4628 
   -1909    -3282      753     8219    16188    22039    25104    26449 
   26671    25105    20988    14512     6701     -621    -4692    -3993 
    -497     2452     3577     3703     4374     7285    12676    17862 
   19178    15138     7476     -740    -7705   -12277   -12459    -7060 
    2305    12576    21708    28379    30924    28502    21898    13472 
    6878     3805     2633     2302     3139     5220     9041    14528 
   20043    24091    25964    25802    24597    23024    21867    22584 
   25128    27665    29414    31074    32384    31758    28828    24861 
   20640    16516    13423    12256    13243    15737    18848    22561 
   26779    29731    29504    26124    20302    12687     5259      516 
   -1089    -1003     -182     1776     6166    13382    21163    26734 
   29243    28761    25636    21825    19645    18529    16377    12727 
    8400     4711     3069     4001     7396    12291    16629    19576 
   22064    24421    25929    26059    25032    23679    23250    24819 
   27878    30084    29601    27463    26232    26844    28378    29527 
   29379    28038    26190    24375    23401    23588    23009    19676 
   15237    12585    11807    11873    13041    15418    17787    19259 
   20351    21387    21625    20613    18964    17171    14661    10857 
    6417     2685      507      164     1838     5599    11123    16951 
   21131    23612    25812    27843    28715    27860    24762    19145 
   12382     7390     6855    11665    20254    29091    35418    39757 
   43637    46977    49801    52087    51685    46812    39172    32005 
   26930    23814    21996    21344    22624    25863    29815    34334 
   40236    46433    50543    52122    52812    53652    54420    55117 
   55464    54002    49681    42648    33648    24591    17958    14642 
   14395    17145    21414    24234    24598    23879    23099    22705 
   23107    23308    21189    16512    11693     9032     9275    12114 
   16124    19198    19667    17441    14361    12324    11781    12914 
   16160    20795    25316    29139    32122    33569    32822    29676 
   24491    18873    14750    13010    14360    19034    25554    32697 
   40911    49802    56862    59845    58280    52968    45817    39303 
   35400    35251    38493    43071    47082    49675    50258    48877 
   46886    45320    43476    40587    37034    33235    29298    25852 
   23668    22339    21106    20253    19873    19131    17645    15853 
   14020    11848     9220     6796     5440     5690     7896    11843 
   16372    20049    21980    21902    19980    17344    16218    18008 
   21858    25787    28112    27722    24877    21914    20975    21849 
   23742    26590    30137    33861    37159    39585    41738    44700 
   48379    51613    53457    53515    51772    48716    44596    38714 
   30829    22644    16371    12652    11562    13929    19533    25945 
   30508    32623    33726    35166    37291    40027    42384    42735 
   41153    39686    39564    40465    42311    44811    46473    46458 
   45811    45781    46232    45800    42975    37798    32148    27445 
   23813    21344    19784    17959    15337    12720    10656     9498 
   10273    12852    15363    16505    16319    16008    17835    22529 
   27848    32035    35520    38099    38626    36753    32752    27834 
   23796    20854    18880    19983    25623    33484    40498    45455 
   47509    45774    40734    34328    28693    25488    25453    27840 
   31540    36117    40935    45498    50089    54110    55869    54318 
   50001    45000    40703    36492    32258    28940    26572    24803 
   23761    23241    22383    20566    18309    16435    14975    13697 
   12731    12641    13427    13441    11820    10247     9726     9557 
    9394     8548     6279     4133     4373     6750     9646    13176 
   18486    24902    30566    34947    38636    41966    44656    45770 
   44315    40511    36066    32729    30915    30233    30528    31415 
   32416    34347    38197    43201    47420    49307    48898    47840 
   48037    50030    52802    55345    57615    59605    60665    60291 
