Origin Time       2011/03/11 14:46:00
Lat.              38.103
Long.             142.860
Depth. (km)       24
Mag.              9.0
Station Code      CHB015
Station Lat.      35.3738
Station Long.     139.9199
Station Height(m) 2
Record Time       2011/03/11 14:47:44
Sampling Freq(Hz) 100Hz
Duration Time(s)  300
Dir.              U-D
Scale Factor      3920(gal)/6182761
Max. Acc. (gal)   62.134
Last Correction   2011/03/11 14:47:29
Memo.             
[...]
    9331    10872    18666    27324    30051    24068    11899    -1602 
  -10810   -11031    -2940     6109     8510     3826    -1684    -1713 
    4858    13996    20667    22749    21001    16514    10360     5586 
    6589    15135    28281    40920    50111    55979    58400    55599 
   46902    35000    24463    17904    14444    12165    11227    12694 
   15102    17227    21900    31437    43224    52732    57210    55865 
   49068    38195    25365    12585      358   -12380   -24887   -32611 
  -30937   -19285    -1020    18496    33254    38416    33905    25663 
   21193    23665    30291    36145    39109    40424    41467    41697 
   39631    35197    30873    30211    35170    44641    55293    63153 
   64563    58592    49075    41184    36132    31358    24482    15545 
    5967    -3942   -14065   -21385   -22184   -16945   -10124    -5175 
    -812     5865    14124    22469    31554    38427    36727    25799 
   12437     4513     5726    14803    28056    41102    49605    51831 
   50356    49478    51370    55666    60711    63346    59896    49805 
   37661    30475    32576    42328    53576    60595    60548    53736 
   45287    41975    45047    49858    50530    44178    33241    22143 
   13322     8014     5773     3954      996    -2872    -7632   -13047 
  -17886   -20797   -21635   -21312   -19244   -13622    -5352     2227 
    6812     8116     7403     6932     9022    14596    22107    27858 
   28204    22712    14741     9070     8861    13909    20513    23017 
   19418    14341    12822    15196    18627    19675    17108    13946 
   14789    20958    30081    39816    48935    55174    56397    53949 
   51392    50979    52936    56221    58917    59122    56881    54478 
   53634    53857    54029    53747    52741    49939    44592    38363 
   33605    29858    24958    18669    12907     8820     5801     3516 
    2324     1593     -253    -4005    -7605    -6746      182    10720 
   22398    33037    38909    38022    33779    31030    30477    30594 
   30546    29316    26487    23049    20380    19241    17943    13488 
    6466      957     -612     1311     5407     9417    11013    10539 
   11266    17506    30120    42637    47216    43483    36710    31322 
   29443    31856    37732    43969    47070    46967    46222    45891 
   45154    43262    40053    35437    29531    23487    18776    15130 
   11024     6373     2154    -1758    -4992    -4352     3296    15494 
   25064    28450    28953    30135    31352    31401    31181    30160 
   26454    22754    24937    34268    45449    51965    52359    49410 
   45929    45228    49459    54821    54549    47074    36842    28124 
   22204    19831    21988    27118    30694    29353    24549    20422 
   17884    14941    12472    13215    17757    25956    36531    44859 
   46725    42441    35940    31659    31506    34030    35689    33567 
   28286    22699    19260    20009    25175    32146    37703    39722 
   37319    31042    23268    17156    14415    14211    13951    12268 
   10253     8985     8806     9771    10197     7465     1711    -3079 
   -2669     3220    11814    20307    25873    26274    20891    10491 
   -1375    -9951   -13946   -15161   -15637   -16701   -18349   -19677 
  -19739   -17136   -10030     2471    19176    36631    50613    58771 
   61023    58715    55657    57166    64891    74805    81771    83681 
   81922    79596    77930    75611    71718    66502    60278    52373 
   41220    27809    16607    10015     6534     4413     1802    -3234 
   -9854   -15305   -18045   -18310   -16712   -12883    -7033    -1475 
    2947     8574    16146    23738    30589    37203    44161    51825 
   58924    62774    61410    56387    52766    52984    53984    51645 
   44431    34824    26557    20038    14009     7551      -95    -7206 
  -10320    -8079    -1832     5552    11284    14337    14996    13920 
   11763     8946     7387    10662    19642    30819    40506    48531 
   57486    68114    76629    79766    78538    74231    67275    59121 
   50640    42552    35864    29547    22309    14567     6841      -56 
   -5516   -10407   -14435   -16120   -15657   -12482    -4158     8844 
   21781    29910    33033    35673    41623    49699    56121    58578 
   57495    55769    56459    59950    63797    64197    58488    47125 
   33860    24040    20561    22586    28203    36026    45671    56302 
   63965    64013    56265    44626    33065    24316    19594    16647 
   10893     1080    -8667   -14071   -15725   -17654   -21843   -25527 
  -25386   -22339   -20100   -21713   -25765   -25308   -15929    -1353 
   12140    20643    23442    23360    23473    23913    24195    25637 
   29764    36057    42061    45512    45878    44030    41729    40774 
   41684    44046    47228    49681    49070    44276    37024    29758 
   22201    13115     3982    -2031    -3570    -2812    -3495    -7069 
  -12454   -18125   -21911   -22368   -21562   -22463   -25177   -27334 
  -25693   -18929    -9121      816     8673    13285    16096    20460 
   28852    41938    58935    76719    89950    94359    89502    78636 
   66822    58218    54484    55224    58899    62303    60263    49021 
   30272    10632    -2945    -7705    -5279      376     4425     4232 
     787    -4465   -11385   -18448   -21587   -18867   -13480    -9959 
  -10340   -13112   -15071   -15192   -13490    -8449     -492     6923 
   12052    16804    24348    35885    49322    60682    66538    66495 
   63058    58461    53128    47540    43599    41989    40646    37488 
   31781    24538    19192    18966    23867    31298    37500    38758 
   34079    26515    20517    18135    17525    15185     9446     1360 
   -6339   -10677   -10209    -5788      205     5093     7500     9314 
   14571    24905    37990    49616    56529    59511    61878    64801 
   67969    72612    78742    82080    78757    69571    58156    48473 
   42364    39528    39392    40263    39522    35627    28965    21390 
   14544     8770     3457    -1343    -4338    -5764    -7718   -11059 
  -15183   -18418   -18294   -14281    -7998    -1632     1325    -1941 
   -9986   -18787   -25068   -26787   -23693   -17679   -10512    -1915 
    8603    18832    25863    30651    36246    42904    48052    48886 
   45017    39786    37530    40850    50540    63934    75262    80518 
   78403    68954    55926    45863    42283    44187    49241    54905 
   57348    53368    43573    30982    19249    12811    13175    16030 
   15948    11175     2673    -7634   -16695   -20636   -17713   -11356 
   -7533    -9984   -17967   -25216   -24686   -15571    -2364    10712 
   22507    33658    44494    54581    62497    66601    67172    66486 
   66105    65226    62304    57141    50889    44341    37239    30351 
   25036    20417    16045    13899    14100    14319    12962     9568 
    5145     2168     2019     4449     9518    17247    25940    33386 
   39277    43977    47456    51138    56384    62468    69074    76950 
   85344    91134    90678    83341    72711    62898    55605    51178 
   49809    51208    53635    54057    50054    41348    29622    17096 
    5849    -2017    -5337    -5260    -4763    -6330   -10152   -14552 
  -18085   -20167   -20676   -20892   -22419   -25307   -28081   -28411 
  -25794   -21689   -16391   -10510    -5331     1066    10861    21471 
   28843    31300    29305    25937    25709    31056    41386    53673 
   63430    67515    66603    64389    64442    68531    76162    84281 
   89292    89418    85270    79533    73973    67293    58655    49651 
   41615    34289    27005    20350    15381    11994     9872     8573 
    7321     6465     6694     7996    10735    14786    18335    19183 
   15755     8681     1838     -856     2509    12064    24939    36235 
   42119    42091    39208    36694    36014    37346    38724    38132 
   36031    33654    32359    32314    30742    26059    19634    12173 
    4782      947     3361    11151    20499    27572    32381    38604 
   48009    57374    62398    62660    60814    58491    55649    52008 
   47266    42001    38614    38947    41305    42131    39874    35940 
   32756    31146    29838    27940    25874    22807    16656     7387 
   -2490    -9705   -12346   -11126    -7622    -2100     6625    19264 
   33770    46874    57057    63005    63321    60237    58221    59460 
   62970    66126    67038    64851    59137    51257    43909    39019 
   37384    38733    41589    43682    43471    41603    39306    36164 
   31731    27980    26663    26006    23908    20699    17537    15065 
   11792     5350    -3923   -13232   -19111   -20052   -17566   -13418 
   -9552    -8087    -9033   -11241   -12576    -9789    -2695     5190 
   11270    15630    20095    26518    34162    40925    46532    51661 
   55730    57174    55751    53247    51551    51629    53166    54970 
   56380    56195    51777    43091    35521    33733    35762    38286 
   40481    40711    39548    40666    44141    47654    49133    45525 
   36376    24853    14126     6314     2150      101    -1988    -4278 
   -6131    -8112   -10866   -14337   -18224   -21750   -24052   -25225 
  -25523   -24295   -21251   -17411   -14191   -12159   -10222    -6445 
     215     9674    21324    34146    46311    55423    60548    63071 
   65091    68304    73474    79918    85924    89584    90039    88565 
   87089    85535    81940    75166    66900    59578    53192    46650 
   40215    34708    29969    25025    19418    13478     8713     7616 
   10601    15494    20205    23655    25290    25037    24018    24091 
   26060    29307    32186    32814    31466    30843    32108    32592 
   28662    19942    10227     3838     1520     1106     1192     1395 
     240    -2933    -7156   -12570   -18148   -20391   -17010    -7700 
    5750    20366    34405    46191    53540    56042    56291    58131 
   62986    68989    73380    74487    72629    68994    63956    58200 
   53097    49243    46345    43922    42190    40755    37364    31649 
   27065    26876    31147    37051    40765    40964    39866    39287 
   38367    36050    32407    27742    22540    17007    11583     8342 
    8032     8178     5663    -1031    -8949   -13313   -13928   -12378 
   -8270    -1480     6803    14497    19762    22527    23435    22402 
   19917    17476    15973    15062    13059     8209      993    -6509 
  -12169   -13656   -10182    -3736     3954    11961    18348    21723 
   21934    19234    15149    11795    10266    11141    13796    15997 
   16876    17096    17142    18017    20106    22858    26892    32111 
   35731    35404    31493    25791    20483    17884    18861    22139 
   26057    28917    29007    26932    24953    23748    23304    24358 
   26016    26482    26261    26620    28043    30403    32687    34598 
   36134    36325    35439    35450    37414    40091    41052    38745 
   33948    28903    24711    21185    18430    16848    16538    17327 
   19418    22731    25561    25843    22829    17605    13207    12199 
   14211    17225    19062    18033    14137     8477     2210    -3278 
   -7218   -10180   -12415   -12544    -9451    -4514     -755     -279 
   -2616    -5598    -7622    -8003    -6102    -2086     1710     2309 
    -342    -3393    -4302    -1672     4657    12520    19278    24421 
   28814    32792    35783    37317    37344    35839    33084    30292 
   30085    34425    41418    47068    48885    46478    41864    38693 
   39082    41730    43152    41045    36406    32210    31198    34271 
   39719    44475    46325    45233    41971    36004    27997    21505 
   18512    17452    16009    12620     6971     1077    -1952     -924 
    3363     9256    14256    16045    14258    11432    10485    11149 
   11160     9268     6473     4985     5636     8398    13964    22613 
   33678    45245    54368    60252    64350    65942    63045    57167 
   51313    45866    40395    35623    32272    30238    28438    25823 
   22123    17005    10921     5404     -213    -7635   -15250   -20951 
  -25053   -28049   -30059   -30318   -27417   -21541   -13444    -3810 
    5780    14778    24125    33923    43420    52352    60217    65565 
   67818    67621    65035    60778    56930    54614    54023    53750 
   50497    43047    32253    20190    11196     7240     6218     4795 
    -537    -9862   -18987   -23876   -23557   -20249   -16944   -15097 
  -14023   -11660    -6543     1143     9785    17590    23462    26809 
   28570    31303    36588    43596    50149    54757    57885    60040 
   59373    54352    46773    39797    35324    32522    28461    21688 
   13275     5042    -1043    -4105    -5940    -9225   -14659   -20418 
  -22829   -18694    -8951     2504    13255    21858    27224    30671 
   33494    35216    36109    37182    38743    40170    41069    42345 
   44068    44794    43658    40650    36194    30389    22815    14305 
    7089     3193     3403     7024    12336    17123    19530    19123 
   17183    16107    17385    19784    21258    21680    21677    21539 
   22394    25045    28307    30764    32492    34095    35043    33659 
   28971    21533    13273     6845     3469     2751     3133     1847 
   -2681    -9640   -16384   -20091   -20119   -17463   -14282   -13436 
  -15893   -19849   -22141   -20512   -14905    -6294     4475    17158 
   31835    47311    61697    74670    86863    97800   106455   112606 
  116035   117157   118240   120410   121469   118330   109020    93052 
   72094    49491    28101     9059    -7159   -19841   -28394   -32668 
  -33390   -31873   -28773   -23938   -17446   -10074    -2493     4816 
   10957    15856    20607    25688    30896    36653    43679    51216 
   56748    58563    57416    54781    51190    47487    45247    44202 
   41652    35165    25135    15289     9441     7346     5933     3445 
      16    -3863    -7425    -9213    -8021    -4986    -3045    -3013 
   -3210    -3463    -5269    -7747    -7201    -1231     8958    20292 
   29892    35974    38611    39213    39447    40530    42249    43829 
   45264    46080    45349    43584    41830    40032    37888    35431 
   32731    30256    28862    29008    30094    30704    30259    29787 
   30320    31862    33924    36241    39283    43526    48309    52830 
   56959    60085    60893    58820    55147    51728    48734    45286 
   41363    37414    33422    29680    26807    24131    20668    17433 
   16012    15785    14421    10957     7040     4613     3942     4174 
    4495     4460     3994     3279     1936     -882    -5138    -9819 
  -14026   -17606   -20332   -20872   -17694   -10430     -671     8162 
   13597    16179    17906    20402    23463    25174    24888    23138 
   19893    15762    11757     8535     7071     7888    10720    15176 
   20592    25934    30397    34165    38155    43230    49736    56959 
   63375    67832    70195    70616    69039    66344    63419    59707 
   55626    52852    51891    52412    53545    54395    55034    54953 
   53021    49237    44689    40600    36697    31292    23796    15923 
   10317     7880     7712     9578    13520    17929    20229    19214 
   16041    12466     9676     8903    10075    11412    12193    12452 
   10941     6563     -313    -8065   -14374   -17884   -18408   -16045 
  -11820    -7957    -6763    -8932   -12772   -15711   -15846   -12986 
   -9070    -5548    -1712     2945     7523    11097    13259    14070 
   14417    15369    17522    21508    27573    34998    42498    48572 
   52164    53533    53969    54884    57444    61160    63252    62121 
   58586    53084    45595    36596    27321    19837    14301     9127 
    4718     1884     -564    -3938    -9118   -16280   -22826   -25135 
  -22888   -18586   -13878    -9336    -6300    -5765    -6485    -6015 
   -3291      409     3347     5411     7463     9717    11817    13274 
   12971    10238     6746     4359     2620     1595     2637     4864 
    6298     6351     4906     3017     2619     3767     5937     9574 
   13807    17050    19327    21196    23382    27059    31733    35549 
   38373    41355    44810    48935    53649    57022    57244    54916 
   51447    47401    42784    37637    32704    28827    25246    20450 
   14631     9291     5199     2603     1734     1397     -427    -4131 
   -8891   -13373   -15156   -12823    -7487     -630     6854    13830 
   18922    21218    21120    20107    19367    18842    17690    16055 
   15246    15674    16631    17565    17576    15877    13208    10456 
    8313     6803     3371    -1606    -3827    -4077    -4153    -2253 
     264     2257     4928     7425    10431    15017    20036    25497 
   30753    34980    39524    43970    47003    49738    52700    54921 
   56607    58231    58523    56327    52534    48378    44206    39742 
   34323    27798    20761    14291     9817     7384     4999      989 
   -4108    -8022    -9995   -11568   -12817   -12816   -12350   -12175 
  -11728    -9727    -4705     3048    10779    15794    17457    16427 
   13478     9861     7082     6036     7051     9569    12593    15089 
   15725    14528    12564    10293     8669     8671    10058    11862 
   13194    14375    16410    19499    22584    24414    25912    29298 
   34765    40273    44216    47179    50536    54145    56205    56071 
   55696    56652    58419    59172    56829    51014    43388    35679 
   28695    23168    19974    18704    17672    15805    13172     9955 
    5882     1023    -3409    -5858    -5773    -3733     -610     3065 
    6901    10174    12593    14777    17172    19947    23334    27033 
   30194    32159    32957    32847    31306    27143    20416    13541 
    8735     5316     1310    -3174    -6164    -6944    -6318    -4889 
   -3109    -1221      937     3642     7171    11473    16547    22407 
   28709    35095    40741    44906    47507    48390    47923    46937 
   46437    48003    51814    55403    55614    51058    43231    35050 
   28279    22887    18298    14061     9306     3068    -4508   -12216 
  -18517   -22388   -24588   -26604   -28367   -28553   -25836   -20005 
  -12611    -5730      -60     5601    12541    20082    26315    30802 
   35001    39443    42986    45482    48305    51745    54389    55559 
   55676    54749    53200    51902    50389    47634    42654    34257 
   23127    11229    -1018   -13263   -23586   -30807   -35342   -37203 
  -35881   -31743   -25895   -19282   -12778    -7530    -3571      592 
    5832    11238    15309    18332    21397    23661    24707    26392 
   29871    34395    38675    41828    44028    46372    49595    53189 
   56578    59919    62336    61503    55975    46953    37472    30098 
   25973    24704    24419    23274    20460    16407    12902    11098 
   10183     9572     9785    10324     9363     5966     1037    -4121 
   -8896   -12756   -15013   -15725   -15811   -15635   -14862   -13339 
  -10173    -5087     -318     3124     6870    12294    19731    27559 
   33747    38766    43461    47641    50806    52539    53819    55998 
   59139    62647    66043    69637    73399    75610    75229    73187 
   70466    67728    65812    64913    64057    61704    57011    50552 
   43577    37393    33071    30264    27025    22783    18807    13958 
