Origin Time       2011/03/11 14:46:00
Lat.              38.103
Long.             142.860
Depth. (km)       24
Mag.              9.0
Station Code      CHB026
Station Lat.      35.3858
Station Long.     140.2404
Station Height(m) 46
Record Time       2011/03/11 14:47:33
Sampling Freq(Hz) 100Hz
Duration Time(s)  300
Dir.              N-S
Scale Factor      3920(gal)/6182761
Max. Acc. (gal)   61.301
Last Correction   2011/03/11 14:47:18
Memo.             
[...]
   38073    42639    45051    43705    38382    31914    28493    28480 
   28751    28095    27649    28240    30799    35664    41840    49152 
   56724    59875    53538    38798    22500     9792     1035    -4827 
   -7049    -3668     3694    10214    14438    17957    19760    16482 
    9124     3854     2449      763    -2424    -3984    -1694     1920 
    1420    -4281   -11199   -16491   -20103   -23172   -26863   -30106 
  -31115   -31922   -34989   -37986   -39213   -41308   -45131   -47480 
  -45238   -38821   -32872   -31083   -30458   -26044   -18479   -11309 
   -6106    -2899     -389     2734     5302     5956     6758    10453 
   14789    15773    14494    13564    12708    11785    11505    10565 
    6660     1558      -67      394    -3738   -13420   -22487   -26244 
  -25175   -20733   -13365    -4036     6331    15051    18083    15089 
    8146      214    -3874    -1534     5007    10587    12369    14788 
   21405    26951    27765    28430    31902    35080    35443    34233 
   33914    35218    34990    29357    20233    13868    13059    14483 
   14536    13917    13381    10553     3885    -4533    -9699    -6645 
    2526     8577     7912     5311     3908     3737     4685     6716 
    9346    10230     8299     6588     7426     8363     5554      -13 
   -2833    -1087      175    -2990    -7394    -7744    -4131    -1988 
   -5485   -12270   -16769   -17789   -18551   -19784   -18077   -12781 
   -8400    -6392    -2561     4591    11982    18353    24847    31285 
   36603    40753    43540    43788    41826    39955    39280    38846 
   37969    36728    33740    27204    18222     8851     -577    -9752 
  -18080   -24934   -29052   -30725   -31065   -29423   -26315   -23993 
  -21737   -16028    -5274     8358    20714    29307    34691    36927 
   35159    31651    30437    31805    31510    26594    19828    15872 
   15191    13584     8297     2619      391      260    -1300    -5111 
   -7934    -6164       67     8670    17395    22856    22557    17763 
   12292     9355    10012    11941    10472     5665     3928     7265 
    9488     7988     8631    14618    21401    25275    27044    27251 
   25871    24925    26407    29247    30385    29019    27262    25215 
   20561    13984     9374     7670     5395      618    -5182   -10339 
  -13493   -14560   -15080   -15417   -15640   -16867   -18521   -19077 
  -19023   -19207   -19771   -20295   -17786   -10374    -2522     1434 
    4328    10265    17481    21774    22019    18979    14010    10734 
   13444    22629    33449    40737    44817    48441    51012    50284 
   46284    41600    39485    41393    45762    49408    50704    51044 
   51984    52680    52637    52917    52135    47659    41818    39345 
   38972    35652    29753    25558    22190    14116      362   -13640 
  -23385   -28711   -30150   -26560   -17730    -7010      481     2267 
     559    -1477    -3643    -6417    -8651   -10171   -12238   -14251 
  -14206   -12409   -11371   -12674   -16008   -20126   -24059   -28004 
  -31815   -32872   -28508   -20558   -13372    -7351      284     9651 
   17695    20957    17920    11516     7568     8562    11127    10996 
    8388     6738     6643     4050    -3527   -13623   -22256   -25393 
  -21048   -12618    -4732     1824     7220    10234    10175     6179 
   -2021   -10526   -14784   -14280   -11266    -9526   -10779   -12533 
  -14160   -17180   -19090   -16052    -8344      793     7373     7561 
     935    -6552    -7971    -5060    -5475   -10484   -14732   -15369 
  -13024    -8200     -708     9878    22614    33347    36529    30847 
   21784    16523    17249    19782    18907    14345     9623     7964 
   11282    19895    31673    42230    46918    44508    39263    36208 
   34055    28194    20277    17110    20231    23036    18209     6837 
    -515     3202    11432    16578    21875    29157    31200    24200 
   14670    11576    15325    17660    14772    11987    12960    15084 
   16723    19305    21889    21305    17128    11307     5908     3516 
    4325     4654     2218    -1565    -4157    -5300    -7811   -11290 
  -10475    -5683    -4530    -8997   -13632   -16713   -20386   -24470 
  -27195   -26151   -19733   -10221    -2312     2238     7498    16986 
   26518    29975    27086    19853     9326      101    -1645     3340 
    8735    11154    12604    15690    18708    17994    14012    10665 
   10201    11136     9052     1967    -5764   -11052   -16579   -22534 
  -25012   -23374   -21168   -21326   -20429   -11479     2906    13751 
   21113    27632    29369    25167    18108     9093     -665    -9981 
  -18894   -23725   -19736    -7827     7257    21413    33256    42530 
   45293    37628    23763    10356    -1208   -11628   -20636   -26545 
  -28316   -27520   -24455   -19353   -16246   -17086   -18923   -19248 
  -18110   -15030    -7324     4883    17324    28762    40603    49225 
   49409    43593    37822    33782    31829    33603    38024    41600 
   42881    42724    40105    30064    11287    -7104   -16389   -19628 
  -23809   -28859   -28849   -21198   -10694    -1240     7513    14078 
   18107    22515    26103    26480    25661    25180    24679    24224 
   23926    23734    24338    27551    34413    44431    55166    61155 
   59294    53911    49500    43861    33366    17679     -408   -15131 
  -22312   -24478   -26780   -28837   -26520   -20586   -16017   -14918 
  -16281   -18602   -19139   -15775    -9369    -1334     8029    19833 
   34907    48687    55544    57808    57456    49416    34629    20053 
    5981    -8384   -18894   -23168   -22083   -16312    -6323     4609 
    9850     4994    -7320   -19406   -26035   -29925   -34394   -35640 
  -32703   -31299   -30418   -24375   -14906    -5941     3636    15280 
   26177    32346    34038    35270    39186    45082    49641    51246 
   50232    45920    38833    32045    26434    20366    14207     9089 
    3807    -2239    -8403   -15675   -24286   -31224   -32140   -24995 
  -12969    -3479    -2578    -7780   -11818   -14410   -18934   -22942 
  -20791    -9611     7355    24379    38794    49099    54816    55780 
   49934    39170    27710    12786    -8380   -29128   -42205   -48543 
  -51898   -51921   -47271   -40902   -35108   -27217   -16849    -8836 
   -4354      982     7008     9436    10112    12986    16548    17820 
   15862    11799     7764     5503     7845    17033    28701    36407 
   40573    42270    40168    34232    22714     8417    -2482   -11607 
  -20375   -26677   -31269   -33153   -30346   -25204   -20697   -18489 
  -19465   -22060   -25280   -29256   -31790   -29949   -21330    -7119 
    4867     9935    12319    13710     9354     -872   -11610   -20720 
  -26530   -25524   -18602    -7411     7694    20733    26024    26257 
   26981    30700    35873    38732    39647    42927    45205    37718 
   23178    10713     -217   -12415   -19862   -15688    -3135     7548 
   11550    12805    15123    16611    14065     8760     5283     6250 
    9188    10188    11509    18215    27302    30279    24961    17078 
   11216     7063     3652      -54    -5237   -10832   -15669   -19810 
  -21766   -20069   -16532   -13188    -9197    -2444     8489    21476 
   32005    39359    45635    51379    55499    56709    54539    48153 
   37511    26325    19319    16179    12691     9044     8776    11393 
   14842    19460    26409    35594    43486    46096    44207    41117 
   38930    36706    31965    27776    31245    43952    59192    66735 
   63570    56124    47509    34692    17520     1818    -4849     -347 
   11003    24291    37305    48139    50902    42256    29596    19755 
   10837     1735    -3821    -4579    -5565    -9119   -12171   -15994 
  -24113   -34921   -43152   -45347   -42139   -33886   -20870    -6874 
    4170    12535    20518    27206    29828    28304    24185    19572 
   19034    25851    37013    47975    58143    66698    68778    60947 
   45226    27449    15028     9368     4251    -1422    -2986    -3033 
   -7756   -16330   -25913   -35318   -41599   -43860   -43498   -40188 
  -36985   -38422   -42152   -43822   -42594   -40742   -41279   -41232 
  -36271   -32159   -36230   -44274   -49384   -53080   -59313   -67117 
  -72817   -75288   -75853   -74293   -69612   -61572   -50296   -38240 
  -29074   -24913   -26747   -32919   -39160   -43127   -44796   -44421 
  -41994   -36342   -28796   -20575    -7055     7879    14791    17907 
   19263    14010     5787    -2181   -10428   -15821   -15035    -8904 
    -163     9179    17392    22343    22089    19315    18127    14601 
    4663    -6732   -16602   -29198   -44611   -55597   -55582   -45481 
  -34091   -27004   -19884    -8579     4406    15592    24841    33706 
   42464    48756    50013    48201    45696    40591    35146    31996 
   24887    10715    -5200   -14952   -15930   -16317   -16525    -9091 
     334     6776    11651    10599     3974    -3574   -10878   -15304 
  -15783   -14664   -12853    -9371    -3534     5193    18442    34753 
   49736    63962    77325    81072    70058    51035    32708    21152 
   17981    14429     5571      584     2716     5571     8829    15895 
   27101    40587    53519    64540    71821    71550    64986    56705 
   46125    32695    19181     5689    -8295   -22816   -40007   -56544 
  -62614   -57456   -48476   -37147   -25593   -18333   -16180   -21511 
  -29822   -31416   -28712   -24344   -10908    12403    35770    53775 
   69135    82086    89127    89272    84371    80043    80397    82598 
   85733    90207    91853    90023    88188    85301    76956    63401 
   49216    34817    19421     7594     1506    -1219     -522     3125 
    6900    11275    17425    23075    27253    31032    33957    36222 
   39051    42373    46442    51896    57369    59729    58566    59213 
   66538    77583    83800    80045    69527    57755    44436    25361 
    1745   -18248   -29119   -32638   -32395   -28349   -20209   -13670 
  -13559   -15941   -15674   -12863   -10250    -8579    -4123     4450 
   11769    13378     8875      633    -6847   -12625   -19407   -27388 
  -34717   -40527   -45704   -51790   -58141   -62130   -62459   -60062 
  -55395   -45789   -28068    -5483    12771    21921    25276    27593 
   30068    29999    27123    27126    31007    32265    28531    23861 
   21198    18633    14093     9436     6032     5029     7551    10236 
   14044    21577    25576    23428    19272    12137     1921    -8592 
  -15433   -13761    -3321    10521    21770    28817    32629    31919 
   24614    12079      471    -4225    -4697    -8647   -15727   -20103 
  -21811   -24328   -27793   -29951   -30539   -31927   -34122   -33126 
  -25762   -13561    -1768     4803     4956     1359    -1929    -2756 
    -647     5723    17646    34031    51089    63746    70144    73506 
   75313    72607    65408    55148    37989    11985   -17126   -42138 
  -59917   -70602   -74704   -73000   -65976   -56486   -50282   -47068 
  -43315   -39484   -35285   -29427   -22543   -16062   -11373    -9008 
   -8972   -10635   -10559    -5264     2628     7739     8534     4573 
   -5585   -19936   -32940   -40333   -40403   -34116   -25909   -19796 
  -15467   -10750    -4715     2938    12130    21742    30832    39673 
   49532    60377    67795    68438    67402    70326    74305    75732 
   75895    73678    66100    56015    47694    38825    26272    13633 
    5116     -470    -5228    -8328    -7258      -62    12910    27639 
   39122    47124    52994    55270    55335    56583    58656    61273 
   65721    70609    72769    70058    60829    44865    25935     8559 
   -5897   -15280   -14969    -4878     8793    21976    35279    47362 
   54474    54500    47581    37532    29392    23938    19961    18249 
   20209    24633    28279    30924    33584    33531    29688    25736 
   23167    20740    19355    20499    23780    26872    26939    25788 
   27688    29340    27051    27177    29168    25037    21466    22534 
   18326     8614    -2259   -15125   -27606   -38468   -48987   -56910 
  -57746   -49801   -36923   -24164   -11852     1273    11652    15350 
   15409    15226    13113    11397    14905    19525    19407    17860 
   20107    24219    24882    21480    17977    17132    20468    30220 
   45848    62613    75137    81150    80717    72828    59018    44173 
   29911    17562    11705    14282    22785    32396    37804    37099 
   31475    21427     8377    -4603   -16523   -27273   -34913   -37077 
  -32569   -22629   -10779      -43     7433     8743     2234   -10721 
  -26598   -40209   -49144   -56274   -60794   -56833   -45989   -35696 
  -25961   -12557     1937    11784    17116    21460    24773    24230 
   19382    12742     6076     -106    -3784    -3350     -689     3403 
   10953    20654    29130    35896    41937    48472    54848    57689 
   55510    49486    42945    40873    43421    47521    53988    61644 
   65122    62797    55562    44246    32340    24698    23889    27899 
   31042    29006    23004    17417    14402    13664    14720    16347 
   16919    15922    13880    11789    10105     8827     7763     5141 
    -447    -6885   -11578   -15567   -20515   -24044   -23087   -18932 
  -14661   -11411    -8062    -2126     7324    17353    24063    27617 
   30518    32369    31773    29154    24956    19757    15433    13429 
   13141    13419    14110    16141    20859    27241    32421    36622 
   41761    46862    52683    63023    75570    86521    97526   104855 
  101187    89082    77369    69959    63353    54551    45719    39205 
   36674    38970    42097    41528    38342    34981    30793    24684 
   16740     7603     -423    -5017    -7177    -9275   -12051   -14640 
  -14319    -8350     2366    14251    24214    31369    37682    44635 
   50063    51326    48737    44634    40750    36725    31634    25797 
   20895    19161    21116    23986    22892    16009     7712     2156 
     -95      175     -872    -6026   -13144   -19591   -22069   -17897 
   -8180     5043    18314    27813    33814    37694    38542    35945 
   33019    34181    39343    43346    41922    36076    30673    29929 
   34237    40505    45867    50832    56234    59108    56599    49996 
   40813    29030    16779     8655     7942    12572    15473    11648 
    2733    -6866   -15143   -23333   -32332   -39362   -41815   -41931 
  -43183   -46150   -49259   -50386   -49109   -47521   -47180   -47799 
  -48537   -47944   -45634   -44364   -47350   -54992   -64837   -72988 
  -76953   -76960   -73581   -67374   -59191   -48208   -34235   -21299 
  -13536   -10106    -8116    -7034    -7791   -10468   -13864   -17069 
  -21331   -27976   -35464   -40970   -43647   -44526   -43510   -40148 
  -36529   -34346   -32379   -29336   -25242   -21020   -17426   -12823 
   -4909     5368    15466    25137    34341    40666    42453    39625 
   31984    20622     9093     1859      554     3640    10012    18266 
   25777    31271    33680    30242    20041     6299    -7899   -22446 
  -36499   -46969   -53034   -56905   -59591   -60379   -59249   -57373 
  -56341   -56397   -54786   -48281   -37152   -24194   -11928    -2224 
    3265     3306     -917    -6336   -12882   -22302   -32462   -39686 
  -43175   -43126   -39900   -34769   -28553   -21679   -14451    -7562 
   -3097    -1440      237     3842     8192    10960    10917     9040 
    7737     7469     6458     5622     8862    17381    27571    35426 
   41046    46503    51616    55629    59776    64386    67216    66210 
   61415    54957    49487    46425    45366    45088    45480    46756 
   47445    45949    43054    40455    38242    35105    30298    25053 
   21471    19473    16891    14097    11754     7460     2733     1724 
    4614    10551    18408    27204    36680    43768    46807    49081 
   50908    48206    39964    28431    15917     4819    -2699    -4910 
   -1689     4056     8700    10240     8949     6879     4739     2586 
    1826     2296     3094     4929     8211    12118    15257    19317 
   29107    42726    52720    59214    66717    73587    76852    77185 
   74713    71687    73126    77805    81037    81534    79514    76996 
   76164    76545    78393    82307    85413    84755    80677    74474 
   67181    59901    53246    46676    39796    34486    33030    34531 
   36218    37610    39199    40375    41724    42845    41974    41196 
   42342    41463    36219    31284    29081    27072    28078    34726 
   42389    49635    58085    66230    72204    75342    75689    73573 
   69894    65749    61793    58633    55928    52359    47209    41623 
   38145    37972    39763    41865    43503    43572    41149    36812 
   32486    30830    32438    33743    30677    23208    14932     8768 
    4162     -560    -4886    -6761    -5256    -2290    -2117    -6900 
  -13886   -19885   -25278   -31905   -39072   -42701   -40380   -35337 
  -32499   -33311   -34988   -34034   -31052   -29479   -30748   -34225 
  -38469   -42134   -46042   -50539   -53266   -53429   -52735   -52229 
  -52120   -52236   -52620   -54444   -58099   -61602   -62877   -62095 
  -60087   -56775   -52991   -50619   -49678   -48174   -45117   -42059 
  -41595   -44138   -47303   -49528   -52076   -56531   -62157   -66833 
  -68442   -64887   -56085   -44400   -31904   -20100   -10368    -3711 
   -1445    -3401    -6537    -8474    -9354    -9010    -6822    -2953 
    3551    12941    22595    30491    35962    38181    36260    29192 
   17499     4326    -6774   -14848   -21296   -26476   -29265   -29527 
  -29035   -30014   -32749   -35940   -38976   -41847   -43946   -44375 
  -43008   -41102   -40839   -43670   -49336   -56557   -63837   -69886 
  -74238   -76725   -76583   -73972   -70335   -66443   -62229   -57175 
  -50566   -42486   -33750   -25057   -16587    -8088      398     7649 
   12284    15093    18015    21808    26316    30972    35104    37410 
   36585    33870    31684    31130    32044    32918    32337    31710 
   33985    38455    41085    40917    39968    37852    32480    24329 
   16641    11716     9205     9529    15562    28071    43534    58698 
   73156    86097    95217    99849   100283    96300    89710    83606 
   79474    76688    73637    69991    66137    61436    54975    46794 
   38192    30328    23744    19385    17265    15712    13479    10336 
    6409     2462    -1151    -5273    -9226   -10273    -7151     -946 
    6609    14728    23618    32298    39488    45977    53138    61557 
   70282    76672    78984    77398    73264    68605    63882    57743 
   50403    43532    37415    31827    27474    24408    21197    16405 
   10436     5402     2157     -169    -1499    -1834    -2671    -3699 
   -2465      814     3680     5784     8115    11029    14569    18488 
   22734    27129    30512    32090    32411    31824    29448    24576 
   17651     9521     1555    -3873    -5088    -2756     1374     6192 
   11097    15365    18653    21888    26461    32263    37641    41536 
   44298    46735    49126    50455    49947    49594    51562    54385 
   55149    52734    47576    40446    31744    21488     9845    -2185 
  -12667   -19633   -21635   -18278   -11333    -4046     1530     5338 
    7588     7892     5941     2926     1359     1929     3316     5700 
