Origin Time       2011/03/11 14:46:00
Lat.              38.103
Long.             142.860
Depth. (km)       24
Mag.              9.0
Station Code      CHB028
Station Lat.      35.7664
Station Long.     139.9655
Station Height(m) 26
Record Time       2011/03/11 14:47:24
Sampling Freq(Hz) 100Hz
Duration Time(s)  300
Dir.              E-W
Scale Factor      3920(gal)/6182761
Max. Acc. (gal)   244.399
Last Correction   2011/03/11 14:47:09
Memo.             
[...]
   11652    12497      698   -10734   -15681   -13285    -4571      825 
     132    -1200    -6318   -16934   -24769   -24076   -17089   -11583 
  -13471   -16171   -11231    -3903     1626     9092    14671    13735 
    6247   -11053   -31999   -43211   -45306   -45192   -44030   -42503 
  -40623   -36413   -28925   -21869   -20280   -14463     8935    37432 
   52532    56214    54303    51865    53263    48854    34850    21706 
    8967    -2408    -2322     2804     2714      139    -3266    -6897 
   -7057    -1079     9081    15563    14314     8736     1886    -6086 
  -14403   -22664   -37757   -59899   -71275   -64133   -50346   -40568 
  -37922   -34870   -18798    11217    43382    67708    89078   114523 
  139465   158828   162020   134726    86692    39573     1932   -21928 
  -34881   -48500   -59704   -59274   -56280   -56794   -52704   -48744 
  -52122   -58536   -71721   -87647   -86827   -68053   -38614     1520 
   36814    53316    60323    65525    74361    92111   103874    95309 
   73286    45884    21351    10602     4244   -14446   -42650   -72644 
  -92379   -83260   -52542   -24724    -9103    -4890      763    21949 
   45528    57662    63823    63034    53911    44536    33863    17495 
    2720    -1933     4097    16059    24791    24837    21187    18065 
   14055     9030     5448     3194    -3611   -13527   -14274    -1718 
   22843    54736    72149    65814    55103    45186    32650    27534 
   19024    -6464   -30340   -50853   -83025  -109992  -121701  -126905 
 -108428   -62457   -19082    14250    36798    29351     2366   -15500 
  -21777   -17662    -9471   -18255   -37320   -47723   -50586   -41283 
  -24206   -19541   -22266   -18598    -7804    15336    47207    69331 
   73470    61070    38338    20530    12283     4997    -1425    -9092 
  -22496   -29980   -25893   -17415    -5789     3935     6211     2838 
   -8127   -18608   -11722     9840    32388    44941    41546    34918 
   40240    52984    62741    63357    52710    32099      972   -39388 
  -84418  -125373  -146106  -141482  -123214   -96279   -60994   -25992 
    7158    40710    64880    80487    97910   105293    93102    72273 
   41757     1991   -29514   -56156   -87590  -106602  -110480  -114036 
 -106731   -86561   -75144   -68414   -56218   -51734   -59379   -75981 
 -100822  -115445  -102652   -72741   -40010    -9900     8028    17358 
   37524    67434    94275   113828   116247   102495    87967    73475 
   58166    44899    26843     5656    -8513   -13958   -11441    -2026 
    5205     2607    -1763    -1019     -585     2303     9409     8171 
   -1542    -9369   -16771   -26990   -41082   -64467   -93047  -110305 
 -112937  -110557   -99090   -67312   -16917    37896    79518    98514 
   96583    86126    81885    80930    77359    73562    56216    20632 
  -12640   -37769   -48941   -29274     8111    43848    78725   103018 
  112947   128037   143878   137605   114848    83155    40139     2031 
  -26836   -59527   -90694  -118485  -145184  -153363  -141509  -128547 
 -116320   -97345   -66139   -14372    52733   111033   141931   148290 
  145741   141779   131925   117087    98905    72043    41969    19211 
    5666     5662    20787    44521    73903   100643   111055   104134 
   79943    39952     6736    -8762   -27862   -53695   -65511   -62938 
  -48742   -20766    -2697    -9418   -25282   -42075   -57515   -68667 
  -84326  -105413  -116368  -110058   -94590   -76265   -52626   -22779 
    5783    23493    24535     7007   -21406   -42178   -47069   -47805 
  -48327   -39961   -26519   -10518    13428    33244    41216    51059 
   58558    42410     7334   -22387   -34203   -27576   -11668    -6554 
  -23136   -49269   -65187   -63249   -48448   -27974    -8718     3568 
    9441    11645    13454    24066    44342    62697    76543    84835 
   81387    74811    70317    53744    25862     1766   -16685   -27311 
  -24997   -13880     4325    22894    25564    12369    -6077   -25124 
  -37757   -40005   -33854   -17672     3203    14519    12476    -1547 
  -30237   -66641  -102658  -139227  -172505  -198100  -210510  -197411 
 -162278  -119511   -68252    -5796    59152   116437   156708   173053 
  170296   161139   147113   120341    77958    19350   -48015  -106738 
 -147684  -170995  -178760  -171817  -145504   -94641   -20584    60688 
  124408   157833   159957   137817   104319    61476     6697   -51790 
 -100930  -130635  -139919  -133327  -116742   -99076   -82293   -61310 
  -30761     9092    42390    54078    45322    22508    -5570   -29127 
  -41319   -38382   -27487   -20623   -17731    -9548     4678    10331 
    -639   -17070   -30116   -39712   -45367   -51195   -56938   -48257 
  -20792     9781    28180    25134     -748   -29192   -35040   -20745 
     597    26939    46593    44863    27074    -1425   -38142   -64684 
  -72876   -79124   -88982   -91815   -81134   -52567   -12278    19925 
   31615    15532   -30935   -89850  -140434  -175019  -186556  -175340 
 -153772  -123624   -77765   -23128    26907    63245    73756    55064 
   19487   -24905   -70679  -103421  -123291  -135706  -135533  -126793 
 -117279  -108422  -108462  -120036  -125853  -109001   -68423   -12912 
   41706    80720   104266   120118   132972   146514   154907   143201 
  116554    94405    79082    73331    81298    79035    46493    -5644 
  -63181  -106760  -113326   -94428   -76702   -55393   -22618     9639 
   39850    68670    85238    92455    96605    94341    90459    85754 
   71771    52715    40345    36695    32930    18311   -12727   -50446 
  -67117   -58111   -50840   -48003   -38910   -34363   -29100   -11474 
    1095    -1750   -15625   -44207   -74679   -81340   -64057   -31085 
   18707    68572    96915   103467    88401    54982    24905    12912 
   17157    35657    65617    92162    96883    79702    49670     5552 
  -55614  -129518  -207082  -276139  -321962  -334551  -317296  -280942 
 -233670  -177233  -107677   -23885    66215   142684   175585   152611 
   97414    40787      971   -10416     4945    31971    48742    39621 
   20819    18120    27716    32346    23012     4369    -5309    -2791 
  -12142   -45622   -89726  -129541  -151382  -155568  -161897  -171869 
 -174352  -167580  -138605   -79974   -13756    40358    78949    99774 
  106230   106390    98905    78250    48119    22202    14343    21403 
   29953    44358    74887   113462   145582   152969   119857    59050 
    -960   -39068   -45344   -34369   -33668   -55162   -96056  -135146 
 -141538  -117544   -89590   -68123   -56013   -49550   -27565    15450 
   64213   118943   175935   209246   212156   197362   167051   128547 
   92985    60341    37073    25175    14242     7173     6416     1873 
   -7267   -12254    -7511     1320     2069   -10272   -36128   -68553 
  -95813  -116929  -126367  -111068   -83493   -68844   -57989   -34226 
  -13549    -5051   -13395   -60004  -124580  -165339  -181928  -171693 
 -133760  -110393  -120412  -138546  -154752  -168050  -171435  -169026 
 -156259  -108675   -24069    72604   159839   212588   224978   235034 
  252104   233845   167706    76806   -21091  -102531  -155216  -196973 
 -221930  -193507  -108886     6460   120665   177156   159909   135733 
  144432   155636   152280   149623   146651   115941    43874   -43845 
 -101397  -104171   -77516   -55252   -38028   -17352    25916   105380 
  184178   222579   225139   207301   173593   126590    76872    42282 
   30115    26891    16506    -9939   -53850   -95102  -116706  -129642 
 -140924  -139689  -119001   -86196   -53926   -41729   -60678   -84408 
  -98881  -121432  -143756  -151036  -141788  -101787   -28099    50089 
  102549   121431   109003    77046    49556    28718    -1778   -29018 
  -30229   -15388      -66     5983   -19356   -75761  -145184  -229330 
 -309519  -347628  -334836  -286249  -220131  -138666   -40638    56720 
  123371   136440   116103    94115    66592    30271     -353   -14926 
  -13972   -14282   -35559   -70941   -88649   -61323     6676    81775 
  138183   170363   179977   167423   126011    65080    12796   -21273 
  -47281   -70209   -78576   -62551   -41744   -37554   -39563   -36459 
  -33609   -32896   -40673   -57633   -48262     3313    55563    82385 
   84370    49255   -15661   -80251  -137165  -178993  -173836  -122167 
  -54115    24525   103835   162568   192967   185092   145178   103007 
   72580    46131     7099   -57933  -134412  -186002  -201230  -200691 
 -192277  -160394   -98004   -21227    45934    90656   109628   116388 
  141181   164969   142969   104461    88606    88251    94086    72580 
   -7423  -118243  -225055  -317889  -368250  -346828  -281304  -205067 
 -105415     8847    98147   173518   255838   284599   224403   143598 
   83894    39863    11980   -18825   -60876   -95883  -115662  -128131 
 -138490  -136347  -113314   -85622   -66642   -31794    18254    26857 
   -6883   -31290   -37601   -15985    40636   103488   158003   181711 
  166992   158904   170482   165418   133850    90732    39408   -11448 
  -62522  -111057  -129005  -115740   -85769   -50070   -29299   -27741 
  -39561   -57232   -64834   -51539   -15520    18970    12442   -32665 
  -79460   -91977   -48528    28992    82552    72134    12654   -42031 
  -51355   -16712    36861    84081   100383    76612    32485    -9639 
  -43855   -69674   -80812   -73961   -52821   -11354    46311    88390 
  102081   102724    94797    80189    71139    69438    67279    60499 
   40446    -3263   -62093  -117328  -165691  -207674  -230655  -223591 
 -192246  -157034  -131517  -106518   -67598   -16333    35206    76466 
   93448    74759    26828   -32780   -72871   -63355   -20987    16425 
   32034     7740   -53263  -101909  -106320   -80024   -50306   -38134 
  -43507   -45522   -25717    12130    60503   117320   165177   187749 
  173673   117403    49900     4478   -13070      674    29740    42690 
   42356    45054    48756    59077    71083    52956     5902   -38976 
  -63298   -50396   -13811      485   -18397   -59354  -117950  -161610 
 -157539  -116318   -54777    15327    70323   100539   111283   101738 
   80039    62881    53015    44447    37726    33671    15686   -30861 
  -84921  -120884  -142664  -157663  -168616  -181373  -186472  -171993 
 -146929  -117100   -79567   -47416   -28203    -3763    34627    79860 
  130526   175791   199341   204493   197246   176752   150481   120375 
   80883    38547    -4134   -49254   -85827  -113749  -134443  -130035 
 -107249   -99345  -116280  -142756  -160195  -150366  -102069   -27064 
   48991   108575   140301   146862   153205   171622   194265   224055 
  256175   256085   191485    58230  -109144  -241418  -288123  -262531 
 -209392  -154029  -105374   -69240   -39709    -2332    56560   135238 
  198478   207472   167580   108976    43759   -30546  -103367  -156771 
 -203056  -250807  -272974  -266405  -235164  -165695   -83314   -17758 
   38589    84018   103276    94527    63105    23422      225     1794 
   14521    21533    12901    -1229      441    21935    56630    93697 
  104196    67336    -1282   -79830  -158287  -210986  -208194  -157462 
  -90315   -35665   -15837   -23310   -26316   -17592    -8840     9469 
   50054    90685   103171    97803    98354   117648   149925   155925 
  119101    67395     9310   -53892  -110539  -174181  -248709  -293442 
 -276984  -205079   -96746     6519    60040    69266    61170    50704 
   66630   127832   199498   229809   203628   144144    92862    75695 
   79391    72819    30020   -54600  -149162  -205516  -196789  -122855 
  -14884    69447    99947    94366    77059    66583    74514    87706 
   92067    81469    47396    19324    27173    58185   107568   164119 
  208391   231758   223900   186630   112655     8919   -80319  -134780 
 -161075  -166179  -164308  -179302  -209603  -221640  -214813  -193692 
 -139208   -71241   -14856    19652    19273     5691     1171     2121 
    -394   -17635   -47587   -75584   -85881   -72815   -47960   -29289 
  -25455   -37085   -62923   -88605  -100234   -99492   -87720   -69897 
  -53936   -29079    13658    60950   100499   127609   142969   157481 
  176716   191341   189064   166796   123939    57936   -17076   -80196 
 -126894  -157722  -186309  -234964  -285023  -294430  -247436  -159955 
  -76326   -24606     4725    28228    67672   122249   159500   165226 
  142251    87661    16008   -39520   -67517   -79649   -84185   -86119 
  -87865   -83190   -74261   -78316   -92593   -89711   -57649    -8323 
   41629    82416   112290   135220   160209   191609   221274   233126 
  209658   149984    77611    11830   -46736   -99843  -144207  -170872 
 -171186  -154930  -141204  -128445  -101542   -52420    14395    79174 
  124438   143701   134483   107575    80717    64152    67235    86138 
   91532    66804    20677   -36845   -80099   -88888   -84966   -87773 
 -103450  -140929  -174174  -168665  -131806   -80376   -27146    -1233 
  -16861   -43376   -48297   -29022    17331    86075   139770   147596 
  108428    34548   -38348   -70053   -66807   -54915   -38493   -22544 
   -6322    22564    48694    61701    79800    91190    76772    58234 
   48368    35391    20761     1351   -33357   -64827   -76464   -79217 
  -75339   -69095   -72891   -70189   -45334   -10490    26468    56438 
   64869    59754    56813    49915    22529   -24408   -67416   -81828 
  -55383     7663    82410   143133   181547   198984   204135   208680 
  204922   167259    80927   -45184  -179958  -288273  -359354  -392600 
 -378925  -328077  -265178  -197181  -121437   -36401    58598   142762 
  180371   166066   125492    75238    24432   -19873   -70560  -138180 
 -210550  -276043  -323279  -330160  -292874  -233156  -166645  -100955 
  -47114    -7639    25862    62427   103628   136176   148056   144479 
  137967   138613   137571   111632    59329     -394   -50158   -76371 
  -72642   -46057   -14257    10777    24137    16767    -5198   -21444 
  -35258   -56944   -75543   -78218   -56432   -13239    37280    82021 
  108153   133375   167071   170424   144991   121967    92989    59718 
   28336   -20477   -75115  -111403  -140128  -172250  -204296  -225417 
 -218508  -171812   -83798    21889   104861   143007   138481   114443 
  100203    97699    83143    45553    -5283   -59155  -105186  -126567 
 -103344   -33603    58605   144242   190221   181151   137060    78727 
   17072   -37817   -86738  -134437  -173721  -195343  -193695  -161248 
  -98653   -19855    59989   126918   169206   193334   205320   189184 
  136153    59959   -11486   -58689   -88835  -111004  -131591  -157615 
 -171392  -157825  -133743  -111196   -92527   -80698   -62732   -33583 
   -8709     5697    16103    26819    35928    39881    35170    19116 
   -8469   -51031  -102938  -143333  -160611  -153699  -129816  -107320 
  -89645   -70071   -55113   -50383   -55536   -69003   -78667   -73385 
  -59322   -47568   -40372   -34982   -28965   -22505   -18726   -13057 
    3600    29273    60636    95296   125054   146023   152598   138218 
  109224    74026    43629    30362    23683     6036   -22050   -50867 
  -65236   -53433   -22124    13193    40694    46880    24649    -9048 
  -34857   -47627   -42653   -29821   -28769   -31534   -18001    13590 
   57476   108306   154770   186864   201886   195514   168830   137478 
  108079    71031    21033   -42996  -118040  -189487  -243163  -273242 
 -276239  -257211  -228903  -190838  -135686   -75027   -26732     7598 
   29612    36748    37134    44270    62271    88976   111988   110820 
   86175    53209    16388   -15969   -40368   -67950   -92137   -97760 
  -90151   -82274   -81498   -87161   -85584   -62051   -22752     9840 
   21528    17422    12775     8741   -10936   -48549   -87153  -110269 
 -109446   -95238   -86047   -83620   -84035   -85053   -84082   -87514 
 -101160  -120364  -135861  -137162  -120456   -90709   -51542    -9235 
   23085    39500    42214    34616    26040    26033    33706    40185 
   37072    27048    23074    32078    51524    73305    75576    34422 
  -45333  -134159  -209877  -263155  -286826  -284717  -266009  -228467 
 -174745  -113761   -41825    37983   104839   147011   166958   168162 
  157755   145042   132419   123265   123791   126328   121819   115688 
  109745   105282   111166   122236   121890   105317    76794    42358 
   15766     6226     4271    -1935   -15596   -39192   -70196   -93082 
  -90272   -60709   -25429    -9033   -18358   -39979   -51891   -46417 
  -30502    -9117     8101    17459    32829    53978    70744    91512 
  115474   126085   121926   102112    61471    14501   -23015   -50678 
  -69926   -86940  -108388  -123303  -117193   -92568   -59462   -25292 
    6054    30371    34175    13252   -12769   -27028   -24081    -4827 
   13807    14725     4243       62     9217    28558    51300    67013 
   69366    57833    30689    -5534   -33652   -44751   -42812   -34861 
  -25228   -11560    10358    37873    65999    90679   107401   115987 
  113397    90680    51204     6448   -39868   -81067  -109274  -129712 
 -148330  -162870  -168836  -161324  -138475   -97248   -31406    51579 
  127694   178079   197259   191489   176477   155325   122637    89832 
   62577    29223    -6714   -28617   -30699   -15339     8819    29511 
   44724    55508    55774    42288    19576    -2856   -16733   -19409 
   -7891    17324    47160    74275    95958   113072   130133   146436 
  158726   168342   174349   173562   164026   145901   124394   102389 
   79297    55335    30041     6446   -17370   -52570   -98280  -139050 
 -159970  -150948  -115290   -68900   -23306    14782    43731    72057 
  100492   117631   119980   110991    96013    86258    85161    82467 
   67873    37454    -4962   -49402   -84222  -102472  -107183  -103139 
  -97234  -101668  -112959  -115465  -105504   -82401   -47349   -14338 
    7654    17209     8015   -13492   -27768   -29126   -23160   -16502 
  -20375   -41199   -73471  -106928  -131934  -140598  -126495   -90863 
  -47930   -16522    -7987   -14929   -16544    -7899    -1621    -4211 
  -18717   -42468   -59703   -63479   -57350   -39006    -8793    25347 
   55730    74083    71739    50164    22819     3375    -2444      684 
    1307    -5029    -8807    -2594     6744    13773    22928    34288 
   41671    41936    33898    23121    26497    48801    73566    86551 
   79888    50113     8320   -31700   -67352   -97230  -117748  -128389 
 -127766  -115954   -97457   -71960   -36462     4819    42435    64280 
   62189    39617     3784   -36410   -66440   -79220   -84415   -97055 
 -123694  -157097  -182452  -191477  -184749  -164398  -135267  -106639 
  -83797   -63085   -40855   -19788    -5311    -3613   -18770   -48297 
  -83046  -110612  -121332  -111929   -87928   -64156   -53370   -54760 
  -58424   -51775   -24533    19507    65672   102577   124222   130666 
  128357   122951   114775   101358    80189    53253    29012    13551 
    6797     7065    12414    22733    42043    75080   117732   150793 
  153844   125671    78734    23642   -31307   -80726  -121566  -146448 
 -149323  -133767  -105733   -65134   -13236    37933    76365    98255 
   97744    74294    42073    11113   -15621   -31037   -31369   -17268 
    6767    27868    34700    23574      443   -20920   -36993   -55191 
