Origin Time       2011/03/11 14:46:00
Lat.              38.103
Long.             142.860
Depth. (km)       24
Mag.              9.0
Station Code      FKI001
Station Lat.      36.2161
Station Long.     136.1571
Station Height(m) 20
Record Time       2011/03/11 14:50:40
Sampling Freq(Hz) 100Hz
Duration Time(s)  60
Dir.              E-W
Scale Factor      3920(gal)/6182761
Max. Acc. (gal)   1.628
Last Correction   2011/03/11 14:50:25
Memo.             
  -19976   -19986   -19971   -19988   -20023   -19987   -19860   -19750 
  -19743   -19767   -19669   -19467   -19359   -19391   -19420   -19377 
  -19334   -19387   -19498   -19533   -19514   -19529   -19537   -19505 
  -19496   -19555   -19661   -19744   -19739   -19626   -19451   -19321 
  -19262   -19175   -19054   -19032   -19170   -19387   -19596   -19742 
  -19795   -19783   -19761   -19722   -19636   -19542   -19470   -19419 
  -19417   -19472   -19561   -19644   -19693   -19704   -19688   -19640 
  -19547   -19438   -19366   -19357   -19428   -19587   -19781   -19928 
  -19974   -19920   -19846   -19821   -19825   -19811   -19776   -19761 
  -19748   -19663   -19570   -19610   -19765   -19923   -20042   -20090 
  -19985   -19744   -19547   -19507   -19590   -19809   -20172   -20528 
  -20665   -20525   -20266   -20042   -19882   -19797   -19830   -20001 
  -20260   -20496   -20617   -20645   -20683   -20725   -20686   -20608 
  -20548   -20452   -20328   -20290   -20386   -20581   -20816   -21018 
  -21179   -21306   -21328   -21249   -21141   -21010   -20866   -20750 
  -20699   -20750   -20880   -21019   -21139   -21212   -21198   -21072 
  -20853   -20623   -20440   -20286   -20187   -20193   -20264   -20347 
  -20420   -20461   -20441   -20306   -20057   -19861   -19865   -19986 
  -20034   -19912   -19659   -19370   -19126   -18989   -19007   -19183 
  -19468   -19761   -19956   -20017   -19971   -19873   -19795   -19788 
  -19896   -20105   -20315   -20444   -20464   -20414   -20378   -20394 
  -20453   -20524   -20537   -20440   -20262   -20116   -20098   -20190 
  -20331   -20502   -20664   -20735   -20725   -20702   -20656   -20570 
  -20471   -20393   -20383   -20445   -20525   -20581   -20584   -20522 
  -20438   -20399   -20462   -20609   -20719   -20754   -20800   -20885 
  -20919   -20815   -20614   -20427   -20332   -20347   -20419   -20478 
  -20523   -20545   -20536   -20526   -20537   -20553   -20469   -20210 
  -19894   -19700   -19719   -19959   -20301   -20581   -20746   -20821 
  -20832   -20804   -20754   -20708   -20692   -20676   -20589   -20427 
  -20305   -20330   -20475   -20648   -20788   -20883   -20937   -20930 
  -20882   -20844   -20820   -20803   -20823   -20879   -20935   -20990 
  -21081   -21220   -21355   -21433   -21473   -21472   -21378   -21207 
  -21073   -21068   -21142   -21190   -21211   -21244   -21287   -21361 
  -21456   -21552   -21679   -21805   -21869   -21871   -21856   -21897 
  -21960   -21928   -21806   -21671   -21558   -21473   -21406   -21405 
  -21528   -21725   -21895   -21998   -22043   -22066   -22092   -22093 
  -22048   -21999   -21971   -21970   -21973   -21948   -21949   -22011 
  -22092   -22204   -22366   -22536   -22688   -22785   -22803   -22799 
  -22817   -22826   -22771   -22636   -22484   -22376   -22313   -22285 
  -22262   -22238   -22267   -22314   -22293   -22254   -22274   -22343 
  -22397   -22390   -22407   -22469   -22451   -22342   -22214   -22100 
  -22041   -22052   -22062   -22019   -21984   -21990   -21991   -21988 
  -22022   -22106   -22200   -22239   -22200   -22136   -22069   -21931 
  -21690   -21462   -21375   -21393   -21396   -21372   -21380   -21429 
  -21498   -21584   -21672   -21763   -21853   -21873   -21763   -21564 
  -21403   -21372   -21398   -21349   -21230   -21112   -21004   -20909 
  -20865   -20876   -20918   -20959   -20969   -20947   -20908   -20886 
  -20894   -20868   -20829   -20863   -20961   -21080   -21205   -21321 
  -21417   -21488   -21525   -21505   -21426   -21367   -21400   -21459 
  -21463   -21475   -21603   -21809   -21948   -21969   -21894   -21726 
  -21520   -21385   -21372   -21416   -21454   -21526   -21637   -21726 
  -21755   -21728   -21701   -21692   -21656   -21623   -21645   -21700 
  -21759   -21796   -21777   -21709   -21622   -21570   -21575   -21609 
  -21649   -21647   -21500   -21204   -20925   -20816   -20854   -20934 
  -21040   -21205   -21393   -21508   -21526   -21527   -21516   -21445 
  -21364   -21327   -21324   -21350   -21420   -21553   -21714   -21835 
  -21920   -21983   -21984   -21955   -21961   -21982   -21975   -21914 
  -21793   -21674   -21654   -21789   -22038   -22296   -22523   -22722 
  -22834   -22812   -22731   -22667   -22631   -22629   -22646   -22621 
  -22562   -22571   -22678   -22818   -22979   -23189   -23435   -23657 
  -23808   -23874   -23810   -23579   -23241   -22899   -22623   -22429 
  -22329   -22336   -22390   -22393   -22373   -22404   -22472   -22547 
  -22588   -22558   -22545   -22619   -22692   -22703   -22652   -22526 
  -22366   -22230   -22143   -22153   -22269   -22435   -22579   -22643 
  -22613   -22543   -22466   -22372   -22271   -22209   -22211   -22245 
  -22284   -22296   -22261   -22236   -22242   -22244   -22296   -22409 
  -22474   -22438   -22317   -22163   -22033   -21909   -21791   -21708 
  -21633   -21554   -21517   -21531   -21587   -21685   -21791   -21840 
  -21765   -21594   -21434   -21322   -21234   -21173   -21178   -21253 
  -21333   -21377   -21382   -21364   -21377   -21430   -21445   -21387 
  -21324   -21311   -21320   -21311   -21298   -21306   -21302   -21301 
  -21370   -21499   -21629   -21749   -21854   -21891   -21796   -21612 
  -21464   -21446   -21539   -21665   -21840   -22085   -22298   -22411 
  -22466   -22494   -22524   -22542   -22494   -22407   -22362   -22386 
  -22439   -22484   -22542   -22600   -22609   -22577   -22554   -22576 
  -22647   -22729   -22772   -22739   -22628   -22513   -22471   -22488 
  -22539   -22623   -22728   -22798   -22765   -22677   -22639   -22638 
  -22601   -22541   -22531   -22578   -22628   -22617   -22524   -22408 
  -22307   -22175   -21994   -21846   -21804   -21841   -21895   -21932 
  -21950   -21933   -21851   -21705   -21533   -21402   -21378   -21458 
  -21550   -21565   -21514   -21457   -21399   -21335   -21289   -21281 
  -21295   -21310   -21330   -21364   -21374   -21327   -21248   -21182 
  -21125   -21057   -21016   -21021   -21015   -20979   -20962   -20969 
  -20975   -21004   -21071   -21151   -21228   -21318   -21415   -21497 
  -21561   -21601   -21599   -21548   -21476   -21399   -21280   -21120 
  -20991   -20915   -20870   -20877   -20928   -20979   -21031   -21093 
  -21136   -21179   -21278   -21391   -21471   -21542   -21579   -21535 
  -21443   -21293   -21037   -20751   -20580   -20563   -20619   -20698 
  -20848   -21061   -21222   -21270   -21245   -21196   -21119   -21018 
  -20946   -20943   -21020   -21118   -21149   -21144   -21140   -21089 
  -20983   -20880   -20856   -20930   -21029   -21106   -21170   -21195 
  -21154   -21076   -20998   -20935   -20922   -20979   -21042   -21031 
  -20972   -20922   -20904   -20932   -20970   -20991   -21040   -21114 
  -21182   -21244   -21249   -21193   -21127   -21034   -20915   -20839 
  -20834   -20884   -20937   -20934   -20901   -20888   -20892   -20907 
  -20965   -21087   -21223   -21288   -21307   -21355   -21385   -21350 
  -21313   -21320   -21371   -21425   -21444   -21456   -21448   -21392 
  -21345   -21330   -21290   -21239   -21229   -21253   -21288   -21341 
  -21400   -21422   -21373   -21274   -21192   -21131   -21051   -20959 
  -20891   -20844   -20791   -20754   -20779   -20851   -20924   -20949 
  -20940   -20976   -21008   -20937   -20815   -20686   -20514   -20341 
  -20246   -20231   -20295   -20432   -20589   -20736   -20871   -21000 
  -21087   -21079   -21018   -20968   -20929   -20883   -20852   -20871 
  -20914   -20962   -21040   -21154   -21293   -21410   -21428   -21347 
  -21229   -21094   -20961   -20861   -20797   -20742   -20693   -20688 
  -20741   -20785   -20783   -20772   -20745   -20686   -20623   -20559 
  -20518   -20518   -20503   -20454   -20446   -20518   -20608   -20660 
  -20670   -20632   -20532   -20367   -20169   -20012   -19953   -19977 
  -20024   -20054   -20071   -20105   -20162   -20195   -20160   -20100 
  -20088   -20138   -20183   -20169   -20141   -20167   -20208   -20171 
  -20049   -19914   -19837   -19854   -19945   -20083   -20251   -20388 
  -20450   -20477   -20505   -20553   -20617   -20666   -20692   -20707 
  -20740   -20837   -20985   -21116   -21212   -21267   -21282   -21294 
  -21324   -21395   -21512   -21623   -21708   -21786   -21846   -21882 
  -21891   -21856   -21792   -21722   -21650   -21626   -21673   -21746 
  -21811   -21860   -21891   -21904   -21894   -21873   -21870   -21892 
  -21943   -22017   -22065   -22061   -22034   -22014   -22003   -21985 
  -21967   -21963   -21967   -22000   -22088   -22211   -22355   -22484 
  -22538   -22552   -22594   -22625   -22605   -22535   -22420   -22304 
  -22245   -22241   -22269   -22322   -22382   -22422   -22438   -22449 
  -22439   -22381   -22296   -22219   -22136   -22045   -21969   -21887 
  -21807   -21795   -21835   -21882   -21966   -22089   -22214   -22323 
  -22370   -22323   -22194   -21997   -21808   -21706   -21681   -21693 
  -21716   -21746   -21788   -21843   -21898   -21917   -21895   -21867 
  -21840   -21821   -21804   -21728   -21598   -21475   -21370   -21289 
  -21249   -21263   -21332   -21447   -21575   -21684   -21769   -21814 
  -21779   -21693   -21640   -21661   -21723   -21763   -21776   -21810 
  -21848   -21851   -21845   -21831   -21785   -21735   -21710   -21702 
  -21685   -21638   -21570   -21490   -21396   -21317   -21281   -21313 
  -21423   -21542   -21589   -21542   -21423   -21298   -21202   -21121 
  -21058   -21005   -20961   -20932   -20914   -20921   -20928   -20880 
  -20777   -20657   -20564   -20524   -20541   -20599   -20673   -20733 
  -20748   -20699   -20591   -20469   -20400   -20390   -20373   -20316 
  -20245   -20192   -20146   -20093   -20071   -20077   -20056   -20019 
  -20019   -20080   -20183   -20287   -20364   -20410   -20419   -20408 
  -20433   -20493   -20532   -20563   -20605   -20643   -20683   -20735 
  -20790   -20841   -20897   -20978   -21052   -21068   -21063   -21103 
  -21182   -21241   -21258   -21258   -21239   -21199   -21184   -21219 
  -21292   -21392   -21481   -21522   -21504   -21473   -21473   -21464 
  -21420   -21335   -21186   -21023   -20896   -20789   -20721   -20710 
  -20733   -20779   -20814   -20790   -20721   -20653   -20615   -20598 
  -20570   -20552   -20592   -20659   -20730   -20795   -20804   -20764 
  -20722   -20697   -20682   -20657   -20646   -20676   -20718   -20747 
  -20759   -20770   -20805   -20838   -20841   -20848   -20875   -20898 
  -20890   -20868   -20876   -20933   -21011   -21087   -21172   -21277 
  -21377   -21421   -21388   -21329   -21323   -21380   -21462   -21551 
  -21645   -21733   -21800   -21881   -22006   -22111   -22116   -22045 
  -21974   -21921   -21889   -21912   -21973   -22056   -22160   -22227 
  -22231   -22243   -22307   -22382   -22423   -22418   -22381   -22329 
  -22275   -22234   -22211   -22210   -22238   -22281   -22299   -22243 
  -22124   -21995   -21882   -21800   -21763   -21784   -21863   -21958 
  -22024   -22031   -21978   -21932   -21948   -21984   -21997   -21992 
  -21995   -22031   -22079   -22105   -22113   -22116   -22155   -22255 
  -22344   -22361   -22351   -22345   -22323   -22299   -22299   -22357 
  -22453   -22519   -22525   -22456   -22317   -22184   -22087   -21982 
  -21905   -21915   -21980   -22059   -22146   -22218   -22244   -22209 
  -22129   -22001   -21844   -21735   -21705   -21720   -21751   -21793 
  -21851   -21886   -21874   -21841   -21806   -21770   -21697   -21559 
  -21433   -21362   -21285   -21224   -21261   -21349   -21405   -21424 
  -21401   -21320   -21229   -21181   -21176   -21208   -21257   -21276 
  -21269   -21254   -21244   -21233   -21204   -21174   -21166   -21177 
  -21229   -21336   -21461   -21549   -21574   -21542   -21476   -21414 
  -21348   -21254   -21195   -21188   -21183   -21186   -21190   -21179 
  -21201   -21271   -21360   -21454   -21524   -21544   -21517   -21433 
  -21280   -21093   -20914   -20773   -20691   -20664   -20685   -20761 
  -20879   -20965   -20964   -20937   -20942   -20949   -20950   -20952 
  -20922   -20870   -20837   -20837   -20867   -20892   -20881   -20859 
  -20878   -20945   -21003   -21015   -21013   -21021   -21012   -20965 
  -20908   -20885   -20884   -20858   -20811   -20790   -20796   -20827 
  -20899   -20982   -21025   -21031   -21037   -21014   -20924   -20821 
  -20746   -20689   -20659   -20653   -20685   -20777   -20865   -20889 
  -20865   -20817   -20762   -20713   -20691   -20729   -20824   -20936 
  -21040   -21134   -21210   -21250   -21246   -21222   -21217   -21231 
  -21238   -21252   -21294   -21342   -21392   -21466   -21548   -21621 
  -21664   -21651   -21615   -21615   -21651   -21692   -21726   -21743 
  -21729   -21694   -21657   -21606   -21536   -21473   -21427   -21397 
  -21377   -21354   -21340   -21324   -21287   -21236   -21175   -21131 
  -21144   -21169   -21143   -21113   -21125   -21129   -21097   -21049 
  -20999   -20972   -20966   -20961   -20968   -20979   -20980   -20991 
  -21006   -21023   -21070   -21127   -21144   -21118   -21087   -21066 
  -21015   -20931   -20876   -20878   -20896   -20911   -20922   -20936 
  -20982   -21031   -21028   -20994   -20964   -20935   -20901   -20862 
  -20838   -20832   -20812   -20788   -20788   -20789   -20798   -20849 
  -20917   -20954   -20923   -20837   -20746   -20644   -20500   -20364 
  -20288   -20249   -20214   -20181   -20138   -20061   -19983   -20002 
  -20145   -20317   -20441   -20485   -20406   -20225   -20045   -19941 
  -19914   -19927   -19924   -19881   -19852   -19881   -19946   -20045 
  -20223   -20441   -20576   -20568   -20473   -20384   -20310   -20212 
  -20128   -20101   -20117   -20153   -20182   -20197   -20211   -20228 
  -20242   -20250   -20267   -20276   -20251   -20254   -20350   -20492 
  -20632   -20719   -20691   -20574   -20430   -20290   -20196   -20162 
  -20154   -20178   -20236   -20290   -20337   -20386   -20435   -20482 
  -20527   -20593   -20642   -20587   -20456   -20287   -20090   -19960 
  -19977   -20139   -20400   -20657   -20820   -20881   -20833   -20665 
  -20413   -20135   -19879   -19685   -19581   -19567   -19630   -19760 
  -19940   -20154   -20373   -20554   -20714   -20888   -21048   -21137 
  -21119   -21013   -20860   -20679   -20509   -20401   -20369   -20418 
  -20503   -20564   -20606   -20679   -20813   -20981   -21116   -21182 
  -21179   -21128   -21084   -21061   -21041   -21045   -21083   -21152 
  -21254   -21367   -21447   -21467   -21424   -21368   -21394   -21540 
  -21718   -21798   -21739   -21608   -21474   -21337   -21180   -21021 
  -20935   -20979   -21113   -21265   -21390   -21468   -21527   -21554 
  -21479   -21340   -21251   -21235   -21249   -21292   -21401   -21569 
  -21712   -21734   -21658   -21635   -21750   -21935   -22075   -22152 
  -22223   -22314   -22394   -22463   -22592   -22808   -22998   -23069 
  -23073   -23081   -23096   -23072   -22967   -22826   -22711   -22634 
  -22652   -22822   -23057   -23249   -23363   -23380   -23298   -23111 
  -22817   -22498   -22254   -22125   -22134   -22279   -22550   -22903 
  -23230   -23473   -23631   -23655   -23513   -23253   -22942   -22674 
  -22577   -22684   -22880   -22995   -22930   -22759   -22595   -22454 
  -22327   -22214   -22107   -22025   -21972   -21924   -21901   -21962 
  -22080   -22151   -22142   -22081   -21976   -21866   -21814   -21806 
  -21783   -21651   -21320   -20846   -20404   -20121   -20044   -20172 
  -20425   -20677   -20850   -20929   -20951   -20990   -21085   -21209 
  -21323   -21361   -21253   -21045   -20864   -20748   -20629   -20438 
  -20182   -19943   -19794   -19792   -19949   -20208   -20463   -20593 
  -20581   -20520   -20443   -20323   -20152   -19950   -19759   -19656 
  -19726   -19944   -20204   -20431   -20531   -20366   -19924   -19402 
  -19010   -18797   -18771   -18956   -19236   -19410   -19398   -19279 
  -19159   -19091   -19127   -19265   -19388   -19410   -19405   -19483 
  -19664   -19912   -20194   -20452   -20619   -20678   -20587   -20339 
  -20082   -19924   -19781   -19589   -19406   -19318   -19341   -19433 
  -19540   -19610   -19662   -19761   -19879   -19969   -20064   -20205 
  -20393   -20588   -20703   -20711   -20728   -20842   -21033   -21275 
  -21500   -21616   -21603   -21427   -21095   -20763   -20529   -20307 
  -20025   -19766   -19636   -19646   -19751   -19931   -20185   -20450 
  -20696   -20971   -21248   -21418   -21480   -21507   -21464   -21290 
  -21044   -20838   -20705   -20630   -20620   -20689   -20847   -21076 
  -21293   -21410   -21416   -21368   -21300   -21211   -21129   -21070 
  -21050   -21128   -21307   -21497   -21625   -21638   -21494   -21205 
  -20856   -20548   -20321   -20189   -20162   -20197   -20205   -20177 
  -20209   -20368   -20575   -20705   -20747   -20772   -20773   -20645 
  -20400   -20202   -20120   -20112   -20169   -20265   -20327   -20367 
  -20498   -20735   -20962   -21114   -21150   -21033   -20830   -20627 
  -20427   -20253   -20181   -20246   -20412   -20638   -20935   -21327 
  -21738   -22051   -22233   -22292   -22216   -21971   -21571   -21125 
  -20782   -20625   -20651   -20797   -20966   -21107   -21263   -21428 
  -21492   -21378   -21094   -20731   -20424   -20287   -20378   -20691 
  -21140   -21609   -22008   -22259   -22367   -22393   -22336   -22194 
  -22013   -21812   -21622   -21493   -21457   -21581   -21905   -22362 
  -22841   -23198   -23315   -23211   -22946   -22543   -22053   -21545 
  -21064   -20707   -20613   -20851   -21368   -21966   -22402   -22609 
  -22668   -22611   -22448   -22267   -22142   -22086   -22080   -22099 
  -22124   -22108   -22008   -21875   -21788   -21737   -21701   -21713 
  -21754   -21769   -21755   -21763   -21855   -21998   -22118   -22230 
  -22330   -22358   -22307   -22176   -21971   -21760   -21591   -21471 
  -21417   -21397   -21410   -21519   -21686   -21796   -21813   -21750 
  -21634   -21486   -21293   -21052   -20836   -20753   -20816   -20916 
  -20981   -21005   -20958   -20820   -20622   -20433   -20351   -20456 
  -20734   -21105   -21517   -21946   -22343   -22628   -22734   -22651 
  -22423   -22057   -21524   -20890   -20299   -19833   -19525   -19357 
  -19288   -19332   -19518   -19832   -20201   -20534   -20818   -21051 
  -21205   -21281   -21273   -21172   -21022   -20879   -20755   -20642 
  -20530   -20431   -20373   -20381   -20476   -20626   -20756   -20855 
  -20931   -20970   -20977   -20962   -20950   -20947   -20909   -20829 
  -20743   -20656   -20566   -20491   -20419   -20304   -20169   -20094 
  -20097   -20154   -20248   -20358   -20478   -20588   -20694   -20825 
  -20972   -21111   -21221   -21289   -21300   -21216   -21003   -20672 
  -20286   -19952   -19742   -19672   -19736   -19932   -20234   -20536 
  -20734   -20848   -20914   -20897   -20802   -20680   -20565   -20505 
  -20483   -20438   -20396   -20436   -20566   -20731   -20880   -20992 
  -21051   -21056   -21002   -20918   -20866   -20818   -20728   -20669 
  -20726   -20885   -21083   -21263   -21425   -21579   -21643   -21564 
  -21399   -21211   -21065   -20989   -20936   -20868   -20788   -20738 
  -20751   -20795   -20838   -20914   -21034   -21129   -21159   -21169 
  -21176   -21166   -21162   -21177   -21183   -21154   -21103   -21061 
  -21027   -20970   -20910   -20877   -20845   -20811   -20815   -20857 
