Origin Time       2011/03/11 14:46:00
Lat.              38.103
Long.             142.860
Depth. (km)       24
Mag.              9.0
Station Code      FKI010
Station Lat.      35.4904
Station Long.     135.5518
Station Height(m) 2
Record Time       2011/03/11 14:48:26
Sampling Freq(Hz) 100Hz
Duration Time(s)  239
Dir.              U-D
Scale Factor      3920(gal)/6182761
Max. Acc. (gal)   1.677
Last Correction   2011/03/11 14:48:11
Memo.             
[...]
   -2882    -2923    -2949    -2949    -2930    -2910    -2893    -2873 
   -2851    -2820    -2795    -2784    -2769    -2754    -2734    -2702 
   -2662    -2601    -2517    -2434    -2363    -2289    -2201    -2115 
   -2038    -1960    -1886    -1816    -1757    -1694    -1617    -1547 
   -1478    -1393    -1297    -1198    -1110    -1044     -995     -962 
    -957     -975    -1005    -1052    -1106    -1145    -1178    -1214 
   -1258    -1321    -1400    -1484    -1566    -1647    -1756    -1879 
   -1968    -2030    -2081    -2120    -2167    -2211    -2239    -2257 
   -2256    -2247    -2246    -2251    -2263    -2283    -2299    -2309 
   -2338    -2389    -2447    -2524    -2601    -2660    -2724    -2787 
   -2840    -2895    -2936    -2958    -2986    -3015    -3027    -3012 
   -2978    -2939    -2898    -2851    -2802    -2765    -2713    -2636 
   -2576    -2512    -2414    -2318    -2236    -2164    -2121    -2103 
   -2081    -2056    -2028    -2009    -2001    -1986    -1979    -1967 
   -1928    -1895    -1866    -1817    -1775    -1753    -1738    -1736 
   -1743    -1759    -1786    -1813    -1840    -1867    -1894    -1909 
   -1918    -1944    -1963    -1971    -1980    -1979    -1997    -2028 
   -2048    -2071    -2118    -2189    -2254    -2319    -2385    -2425 
   -2458    -2488    -2505    -2512    -2508    -2502    -2491    -2482 
   -2490    -2494    -2497    -2521    -2539    -2540    -2550    -2550 
   -2536    -2514    -2461    -2391    -2314    -2207    -2080    -1953 
   -1830    -1710    -1590    -1474    -1361    -1256    -1168    -1110 
   -1086    -1071    -1059    -1075    -1121    -1171    -1214    -1264 
   -1327    -1398    -1476    -1558    -1640    -1720    -1803    -1908 
   -2019    -2119    -2215    -2300    -2360    -2410    -2465    -2501 
   -2526    -2553    -2539    -2498    -2466    -2423    -2368    -2297 
   -2220    -2170    -2113    -2041    -1979    -1912    -1835    -1777 
   -1727    -1662    -1593    -1525    -1464    -1439    -1442    -1450 
   -1468    -1498    -1542    -1606    -1690    -1769    -1843    -1925 
   -2006    -2096    -2191    -2267    -2346    -2435    -2532    -2633 
   -2727    -2828    -2922    -2992    -3063    -3134    -3175    -3189 
   -3206    -3219    -3215    -3227    -3248    -3254    -3253    -3257 
   -3264    -3266    -3269    -3267    -3252    -3235    -3203    -3166 
   -3152    -3142    -3114    -3075    -3021    -2948    -2872    -2783 
   -2672    -2562    -2468    -2374    -2288    -2212    -2145    -2100 
   -2067    -2035    -2012    -1991    -1975    -1978    -1991    -2004 
   -2038    -2087    -2121    -2172    -2259    -2341    -2412    -2488 
   -2565    -2642    -2718    -2780    -2839    -2901    -2943    -2974 
   -3005    -3027    -3049    -3068    -3075    -3085    -3099    -3127 
   -3182    -3255    -3324    -3401    -3471    -3515    -3575    -3643 
   -3685    -3722    -3752    -3766    -3761    -3758    -3772    -3780 
   -3772    -3754    -3738    -3727    -3709    -3686    -3644    -3593 
   -3550    -3503    -3449    -3390    -3333    -3278    -3223    -3187 
   -3164    -3153    -3152    -3143    -3134    -3131    -3102    -3048 
   -3025    -3050    -3068    -3049    -3020    -2966    -2867    -2799 
   -2771    -2725    -2682    -2645    -2599    -2562    -2539    -2531 
   -2539    -2573    -2633    -2690    -2734    -2776    -2811    -2839 
   -2877    -2936    -3004    -3099    -3216    -3307    -3375    -3458 
   -3543    -3592    -3635    -3672    -3658    -3639    -3641    -3629 
   -3618    -3605    -3575    -3555    -3557    -3557    -3527    -3492 
   -3481    -3474    -3450    -3415    -3379    -3338    -3301    -3259 
   -3206    -3163    -3116    -3067    -3044    -3028    -3001    -2981 
   -2970    -2969    -2984    -3003    -3004    -2986    -2955    -2911 
   -2864    -2826    -2809    -2807    -2793    -2758    -2719    -2682 
   -2638    -2572    -2499    -2449    -2431    -2436    -2425    -2396 
   -2371    -2325    -2261    -2226    -2218    -2210    -2209    -2234 
   -2273    -2306    -2349    -2384    -2387    -2372    -2336    -2276 
   -2208    -2148    -2101    -2051    -2008    -1994    -1989    -1980 
   -1986    -1991    -1976    -1965    -1963    -1956    -1943    -1930 
   -1938    -1953    -1971    -2002    -2026    -2057    -2098    -2125 
   -2150    -2176    -2196    -2208    -2207    -2202    -2194    -2181 
   -2166    -2147    -2136    -2143    -2155    -2162    -2168    -2184 
   -2207    -2219    -2224    -2238    -2254    -2279    -2328    -2389 
   -2466    -2550    -2620    -2685    -2729    -2738    -2726    -2684 
   -2636    -2597    -2538    -2482    -2438    -2378    -2306    -2237 
   -2170    -2103    -2046    -1985    -1914    -1859    -1800    -1742 
   -1712    -1682    -1636    -1595    -1565    -1548    -1536    -1532 
   -1541    -1553    -1568    -1596    -1625    -1658    -1704    -1744 
   -1774    -1810    -1842    -1860    -1874    -1887    -1900    -1908 
   -1918    -1935    -1938    -1945    -1967    -1978    -1987    -2005 
   -2029    -2051    -2058    -2063    -2074    -2081    -2091    -2104 
   -2114    -2143    -2197    -2258    -2322    -2377    -2429    -2480 
   -2515    -2530    -2527    -2518    -2503    -2482    -2458    -2420 
   -2386    -2370    -2345    -2303    -2262    -2211    -2141    -2065 
   -1979    -1886    -1807    -1735    -1660    -1596    -1546    -1515 
   -1497    -1478    -1484    -1522    -1554    -1589    -1631    -1668 
   -1705    -1735    -1755    -1779    -1810    -1851    -1895    -1925 
   -1953    -1968    -1962    -1958    -1942    -1893    -1834    -1768 
   -1695    -1636    -1601    -1588    -1590    -1607    -1638    -1669 
   -1732    -1838    -1942    -2051    -2175    -2290    -2391    -2485 
   -2570    -2640    -2710    -2787    -2862    -2924    -2966    -2999 
   -3012    -3005    -2982    -2929    -2861    -2796    -2718    -2619 
   -2513    -2404    -2290    -2181    -2083    -1996    -1925    -1859 
   -1800    -1757    -1730    -1716    -1709    -1706    -1715    -1737 
   -1767    -1813    -1874    -1933    -1979    -2009    -2034    -2052 
   -2049    -2048    -2071    -2094    -2106    -2121    -2132    -2131 
   -2136    -2140    -2135    -2138    -2142    -2141    -2138    -2136 
   -2147    -2168    -2177    -2165    -2154    -2142    -2121    -2117 
   -2127    -2130    -2132    -2130    -2122    -2114    -2101    -2082 
   -2043    -1979    -1919    -1863    -1785    -1711    -1651    -1595 
   -1559    -1549    -1530    -1509    -1521    -1553    -1587    -1630 
   -1684    -1736    -1763    -1788    -1822    -1856    -1889    -1911 
   -1939    -1964    -1982    -2023    -2059    -2082    -2114    -2130 
   -2142    -2187    -2240    -2288    -2320    -2329    -2343    -2355 
   -2361    -2382    -2416    -2457    -2506    -2575    -2656    -2723 
   -2768    -2794    -2815    -2844    -2880    -2922    -2953    -2960 
   -2967    -2979    -2970    -2960    -2970    -2963    -2936    -2906 
   -2872    -2860    -2864    -2858    -2864    -2875    -2871    -2877 
   -2873    -2848    -2816    -2766    -2710    -2662    -2621    -2604 
   -2589    -2571    -2577    -2588    -2613    -2666    -2723    -2793 
   -2877    -2956    -3015    -3064    -3129    -3177    -3180    -3171 
   -3177    -3178    -3156    -3131    -3111    -3089    -3068    -3048 
   -3027    -2996    -2946    -2892    -2832    -2768    -2728    -2712 
   -2706    -2701    -2699    -2722    -2756    -2777    -2797    -2806 
   -2795    -2779    -2751    -2722    -2714    -2707    -2686    -2664 
   -2639    -2604    -2562    -2512    -2451    -2380    -2300    -2225 
   -2169    -2123    -2074    -2036    -2009    -1978    -1964    -1976 
   -1997    -2020    -2053    -2115    -2180    -2211    -2243    -2296 
   -2331    -2344    -2367    -2394    -2409    -2422    -2418    -2396 
   -2379    -2357    -2332    -2328    -2325    -2305    -2297    -2295 
   -2270    -2233    -2194    -2134    -2054    -1972    -1905    -1869 
   -1860    -1859    -1848    -1829    -1824    -1821    -1799    -1774 
   -1742    -1708    -1682    -1643    -1595    -1551    -1512    -1474 
   -1438    -1419    -1409    -1407    -1424    -1436    -1432    -1426 
   -1422    -1419    -1418    -1419    -1420    -1420    -1414    -1405 
   -1408    -1433    -1485    -1553    -1610    -1657    -1706    -1761 
   -1818    -1882    -1962    -2057    -2141    -2213    -2282    -2343 
   -2410    -2468    -2495    -2522    -2546    -2548    -2533    -2504 
   -2460    -2404    -2348    -2294    -2238    -2183    -2144    -2119 
   -2104    -2094    -2083    -2077    -2068    -2057    -2057    -2052 
   -2044    -2048    -2051    -2041    -2039    -2051    -2054    -2058 
   -2075    -2101    -2119    -2115    -2107    -2088    -2038    -1991 
   -1951    -1894    -1838    -1798    -1769    -1762    -1776    -1799 
   -1821    -1830    -1834    -1839    -1844    -1859    -1890    -1903 
   -1895    -1904    -1921    -1919    -1903    -1887    -1891    -1922 
   -1957    -1983    -1997    -2010    -2053    -2108    -2147    -2175 
   -2204    -2243    -2285    -2316    -2339    -2356    -2358    -2362 
   -2377    -2385    -2398    -2430    -2469    -2497    -2502    -2513 
   -2536    -2544    -2538    -2517    -2480    -2432    -2382    -2331 
   -2275    -2221    -2175    -2130    -2093    -2074    -2047    -2002 
   -1967    -1942    -1899    -1839    -1787    -1732    -1654    -1576 
   -1512    -1457    -1406    -1371    -1346    -1322    -1309    -1308 
   -1316    -1320    -1310    -1296    -1293    -1302    -1300    -1280 
   -1248    -1206    -1175    -1169    -1148    -1105    -1084    -1075 
   -1064    -1073    -1096    -1123    -1149    -1174    -1202    -1225 
   -1241    -1259    -1284    -1308    -1328    -1355    -1378    -1393 
   -1416    -1445    -1475    -1519    -1564    -1586    -1596    -1616 
   -1620    -1603    -1586    -1557    -1517    -1482    -1440    -1404 
   -1380    -1355    -1339    -1325    -1310    -1299    -1286    -1273 
   -1263    -1245    -1225    -1213    -1181    -1124    -1080    -1043 
   -1008     -989     -961     -923     -893     -862     -830     -796 
    -769     -759     -760     -780     -790     -761     -721     -681 
    -639     -611     -607     -617     -613     -582     -544     -540 
    -595     -673     -726     -759     -785     -797     -812     -866 
    -982    -1116    -1187    -1195    -1192    -1195    -1209    -1241 
   -1263    -1264    -1251    -1207    -1140    -1089    -1091    -1159 
   -1254    -1314    -1294    -1198    -1094    -1058    -1122    -1235 
   -1313    -1301    -1205    -1090    -1030    -1052    -1137    -1219 
   -1218    -1124     -999     -923     -961    -1077    -1188    -1267 
   -1279    -1213    -1151    -1137    -1158    -1213    -1261    -1257 
   -1218    -1171    -1139    -1143    -1181    -1239    -1298    -1341 
   -1366    -1379    -1375    -1376    -1412    -1475    -1529    -1557 
   -1574    -1570    -1539    -1511    -1499    -1505    -1535    -1563 
   -1572    -1575    -1577    -1583    -1619    -1678    -1740    -1780 
   -1780    -1775    -1789    -1812    -1831    -1863    -1910    -1939 
   -1954    -1991    -2041    -2072    -2087    -2089    -2056    -1998 
   -1931    -1851    -1758    -1667    -1586    -1510    -1442    -1377 
   -1313    -1254    -1204    -1146    -1086    -1033     -977     -920 
    -873     -839     -827     -837     -865     -901     -912     -912 
    -947     -990     -998    -1001    -1021    -1044    -1055    -1056 
   -1053    -1043    -1035    -1048    -1078    -1099    -1108    -1108 
   -1110    -1129    -1146    -1141    -1121    -1089    -1059    -1046 
   -1036    -1001     -940     -905     -902     -898     -909     -934 
    -949     -968     -988    -1000    -1017    -1058    -1093    -1095 
   -1107    -1135    -1151    -1179    -1214    -1224    -1223    -1230 
   -1246    -1278    -1323    -1366    -1397    -1413    -1424    -1440 
   -1464    -1480    -1483    -1496    -1511    -1524    -1550    -1581 
   -1609    -1626    -1623    -1604    -1585    -1584    -1586    -1580 
   -1576    -1549    -1496    -1441    -1383    -1330    -1299    -1286 
   -1277    -1274    -1291    -1311    -1318    -1338    -1366    -1363 
   -1340    -1307    -1248    -1210    -1212    -1209    -1198    -1189 
   -1181    -1192    -1218    -1252    -1302    -1352    -1380    -1409 
   -1468    -1534    -1573    -1591    -1614    -1651    -1695    -1726 
   -1725    -1692    -1681    -1727    -1780    -1805    -1825    -1830 
   -1812    -1781    -1728    -1672    -1631    -1583    -1543    -1529 
   -1503    -1452    -1390    -1310    -1222    -1144    -1075    -1021 
    -980     -963     -975     -979     -956     -908     -841     -814 
    -842     -833     -753     -646     -504     -287      -57       64 
      65       48       62       61       22       -9      -15      -14 
       3       72      198      317      381      395      384      354 
     304      232      157      101       60       17      -69     -224 
    -386     -498     -557     -549     -472     -398     -417     -545 
    -708     -815     -825     -750     -664     -614     -559     -496 
    -471     -474     -484     -519     -554     -537     -463     -350 
    -216     -112      -71      -67      -55      -10       47       86 
     106      124      171      248      316      374      455      557 
     671      789      885      942      967      962      913      838 
     776      755      765      758      701      598      481      381 
     291      172      -10     -224     -413     -547     -630     -702 
    -774     -816     -855     -926    -1007    -1083    -1172    -1282 
   -1401    -1499    -1541    -1503    -1406    -1330    -1330    -1376 
   -1440    -1511    -1553    -1551    -1506    -1410    -1310    -1248 
   -1198    -1127    -1051    -1010    -1009    -1018    -1017    -1015 
   -1019    -1033    -1060    -1075    -1071    -1049     -980     -835 
    -651     -496     -396     -339     -309     -280     -235     -193 
    -143      -95      -87      -96      -78      -32       20       67 
     117      177      227      224      169       89        0      -47 
     -46      -40      -19      -14      -72     -164     -256     -300 
    -247     -156     -107      -98     -117     -140     -133     -121 
    -128     -145     -190     -234     -224     -186     -134      -73 
     -38      -31      -36      -61     -108     -159     -215     -273 
    -303     -307     -317     -321     -308     -300     -296     -302 
    -339     -369     -354     -312     -269     -235     -200     -153 
    -104      -59       -3       78      170      253      326      403 
     477      525      560      588      603      623      647      644 
     611      572      558      579      618      643      622      562 
     497      440      406      375      303      194       83      -25 
    -131     -247     -370     -469     -549     -611     -623     -600 
    -562     -514     -495     -499     -500     -512     -515     -497 
    -479     -454     -421     -408     -471     -596     -698     -755 
    -786     -798     -797     -755     -660     -563     -520     -528 
    -568     -635     -703     -764     -807     -832     -850     -855 
    -838     -821     -831     -851     -865     -879     -893     -911 
    -941     -970    -1011    -1066    -1072    -1016     -951     -870 
    -753     -641     -553     -453     -351     -303     -314     -349 
    -386     -413     -419     -403     -387     -379     -389     -415 
    -437     -450     -474     -516     -555     -593     -631     -651 
    -683     -756     -829     -879     -933     -984    -1003    -1000 
   -1010    -1061    -1138    -1189    -1184    -1137    -1088    -1049 
   -1018    -1013    -1038    -1067    -1091    -1117    -1143    -1197 
   -1275    -1339    -1403    -1483    -1565    -1640    -1704    -1757 
   -1824    -1912    -1972    -1990    -2002    -2019    -2033    -2051 
   -2065    -2050    -2034    -2034    -2023    -1995    -1962    -1915 
   -1844    -1779    -1748    -1729    -1691    -1647    -1635    -1656 
   -1668    -1637    -1569    -1498    -1425    -1352    -1309    -1293 
   -1300    -1351    -1417    -1450    -1464    -1478    -1484    -1489 
   -1518    -1576    -1652    -1748    -1837    -1879    -1899    -1926 
   -1937    -1924    -1913    -1918    -1938    -1991    -2068    -2126 
   -2163    -2212    -2272    -2331    -2388    -2431    -2474    -2532 
   -2561    -2557    -2545    -2517    -2483    -2469    -2474    -2488 
   -2495    -2474    -2408    -2312    -2213    -2112    -2005    -1895 
   -1784    -1671    -1555    -1452    -1364    -1280    -1207    -1149 
   -1111    -1102    -1136    -1212    -1311    -1416    -1501    -1556 
   -1607    -1668    -1731    -1785    -1837    -1916    -2015    -2096 
   -2147    -2178    -2202    -2219    -2232    -2261    -2312    -2379 
   -2437    -2486    -2535    -2577    -2615    -2653    -2697    -2765 
   -2842    -2903    -2938    -2956    -2966    -2958    -2928    -2896 
   -2894    -2909    -2910    -2894    -2876    -2863    -2846    -2829 
   -2813    -2788    -2760    -2721    -2655    -2562    -2459    -2364 
   -2293    -2250    -2223    -2198    -2165    -2127    -2093    -2070 
   -2071    -2093    -2133    -2179    -2227    -2276    -2307    -2311 
   -2311    -2308    -2288    -2279    -2305    -2346    -2395    -2449 
   -2491    -2532    -2588    -2650    -2708    -2763    -2803    -2838 
   -2877    -2911    -2943    -2965    -2964    -2967    -2998    -3034 
   -3065    -3098    -3121    -3134    -3147    -3145    -3114    -3069 
   -3031    -2991    -2941    -2899    -2863    -2820    -2758    -2677 
   -2593    -2518    -2451    -2390    -2325    -2256    -2187    -2122 
   -2071    -2022    -1964    -1906    -1839    -1745    -1637    -1550 
   -1501    -1485    -1490    -1492    -1507    -1547    -1580    -1604 
   -1625    -1638    -1645    -1644    -1636    -1622    -1600    -1586 
   -1586    -1593    -1592    -1579    -1570    -1561    -1556    -1548 
   -1512    -1478    -1494    -1542    -1596    -1630    -1614    -1577 
   -1568    -1575    -1584    -1619    -1679    -1738    -1802    -1877 
   -1955    -2026    -2101    -2153    -2146    -2110    -2084    -2081 
   -2082    -2059    -1999    -1923    -1886    -1892    -1903    -1890 
   -1835    -1784    -1760    -1735    -1712    -1688    -1645    -1602 
   -1569    -1551    -1568    -1603    -1634    -1669    -1691    -1694 
   -1710    -1751    -1809    -1872    -1925    -1957    -1980    -2008 
   -2028    -2033    -2041    -2075    -2130    -2191    -2252    -2315 
   -2379    -2449    -2539    -2636    -2731    -2819    -2886    -2920 
   -2941    -2975    -3012    -3054    -3127    -3199    -3236    -3264 
   -3290    -3312    -3335    -3347    -3362    -3397    -3430    -3460 
   -3510    -3559    -3586    -3611    -3653    -3708    -3751    -3752 
   -3726    -3690    -3645    -3607    -3578    -3564    -3578    -3576 
   -3530    -3468    -3415    -3379    -3351    -3324    -3307    -3295 
   -3284    -3266    -3216    -3118    -2990    -2870    -2774    -2686 
   -2613    -2553    -2495    -2434    -2351    -2270    -2209    -2132 
