Origin Time       2011/03/11 14:46:00
Lat.              38.103
Long.             142.860
Depth. (km)       24
Mag.              9.0
Station Code      FKI008
Station Lat.      35.5483
Station Long.     135.9091
Station Height(m) 13
Record Time       2011/03/11 14:48:26
Sampling Freq(Hz) 100Hz
Duration Time(s)  243
Dir.              N-S
Scale Factor      3920(gal)/6182761
Max. Acc. (gal)   7.298
Last Correction   2011/03/11 14:48:11
Memo.             
[...]
  -27865   -27418   -26912   -26393   -25893   -25400   -24901   -24388 
  -23928   -23579   -23284   -23024   -22846   -22741   -22659   -22588 
  -22544   -22523   -22524   -22574   -22654   -22712   -22758   -22826 
  -22907   -22970   -23032   -23118   -23171   -23206   -23311   -23453 
  -23595   -23762   -23954   -24185   -24463   -24755   -25067   -25394 
  -25716   -26068   -26452   -26829   -27223   -27633   -28007   -28354 
  -28696   -28996   -29221   -29396   -29540   -29639   -29688   -29710 
  -29705   -29639   -29511   -29368   -29224   -29044   -28843   -28649 
  -28431   -28239   -28122   -27998   -27833   -27692   -27627   -27613 
  -27566   -27496   -27467   -27420   -27330   -27268   -27208   -27058 
  -26829   -26626   -26472   -26283   -26066   -25873   -25665   -25454 
  -25297   -25164   -25025   -24889   -24760   -24632   -24499   -24408 
  -24351   -24222   -24058   -23939   -23823   -23695   -23573   -23422 
  -23232   -23037   -22882   -22761   -22603   -22438   -22342   -22267 
  -22195   -22179   -22203   -22225   -22256   -22328   -22437   -22537 
  -22619   -22720   -22826   -22919   -23035   -23158   -23252   -23325 
  -23400   -23491   -23591   -23703   -23822   -23917   -24009   -24140 
  -24282   -24428   -24588   -24736   -24883   -25075   -25331   -25609 
  -25858   -26104   -26385   -26653   -26902   -27180   -27444   -27652 
  -27832   -27988   -28140   -28292   -28420   -28513   -28553   -28583 
  -28662   -28736   -28760   -28774   -28770   -28732   -28700   -28671 
  -28612   -28532   -28463   -28415   -28366   -28305   -28242   -28178 
  -28100   -27994   -27882   -27800   -27731   -27661   -27615   -27578 
  -27510   -27429   -27362   -27293   -27202   -27100   -26999   -26892 
  -26800   -26729   -26645   -26550   -26445   -26304   -26153   -26041 
  -25951   -25848   -25746   -25657   -25552   -25432   -25318   -25205 
  -25098   -25005   -24909   -24820   -24773   -24765   -24755   -24735 
  -24704   -24670   -24678   -24721   -24725   -24690   -24682   -24704 
  -24726   -24745   -24772   -24803   -24862   -24999   -25167   -25304 
  -25452   -25631   -25807   -25995   -26221   -26441   -26607   -26749 
  -26904   -27022   -27078   -27142   -27212   -27236   -27239   -27245 
  -27211   -27141   -27099   -27058   -26940   -26801   -26712   -26645 
  -26594   -26566   -26521   -26460   -26408   -26387   -26429   -26500 
  -26541   -26597   -26701   -26836   -27027   -27258   -27458   -27646 
  -27877   -28113   -28323   -28520   -28687   -28831   -28958   -29048 
  -29106   -29119   -29086   -29054   -29031   -29004   -28965   -28863 
  -28723   -28637   -28601   -28564   -28521   -28485   -28441   -28394 
  -28373   -28370   -28354   -28299   -28207   -28124   -28071   -27977 
  -27819   -27637   -27410   -27127   -26817   -26471   -26066   -25627 
  -25189   -24753   -24297   -23822   -23345   -22871   -22425   -22000 
  -21574   -21182   -20841   -20547   -20290   -20068   -19912   -19801 
  -19706   -19681   -19760   -19907   -20097   -20320   -20557   -20822 
  -21136   -21466   -21789   -22098   -22385   -22687   -22985   -23249 
  -23562   -23927   -24220   -24478   -24789   -25090   -25350   -25624 
  -25908   -26200   -26491   -26735   -26962   -27196   -27418   -27659 
  -27877   -28033   -28217   -28430   -28610   -28790   -28964   -29113 
  -29284   -29474   -29673   -29893   -30107   -30302   -30480   -30624 
  -30755   -30926   -31102   -31230   -31339   -31420   -31455   -31490 
  -31499   -31465   -31426   -31339   -31206   -31070   -30904   -30710 
  -30492   -30223   -29922   -29589   -29216   -28818   -28389   -27934 
  -27471   -26998   -26542   -26119   -25683   -25224   -24782   -24331 
  -23865   -23449   -23063   -22665   -22322   -22048   -21787   -21556 
  -21379   -21246   -21131   -21029   -20986   -20996   -21014   -21025 
  -21059   -21124   -21196   -21277   -21352   -21402   -21434   -21456 
  -21491   -21549   -21646   -21799   -21953   -22086   -22253   -22472 
  -22746   -23049   -23321   -23594   -23915   -24263   -24627   -24968 
  -25263   -25557   -25839   -26107   -26395   -26622   -26757   -26870 
  -26957   -27007   -27023   -26988   -26912   -26766   -26534   -26274 
  -26005   -25697   -25369   -25052   -24701   -24283   -23861   -23492 
  -23169   -22891   -22633   -22347   -22062   -21819   -21630   -21511 
  -21429   -21354   -21309   -21296   -21314   -21376   -21448   -21515 
  -21579   -21644   -21742   -21876   -22022   -22150   -22237   -22362 
  -22579   -22797   -22959   -23129   -23344   -23556   -23734   -23893 
  -24072   -24319   -24592   -24784   -24889   -25003   -25199   -25426 
  -25624   -25824   -26035   -26240   -26456   -26677   -26924   -27212 
  -27475   -27705   -27928   -28139   -28364   -28607   -28814   -28972 
  -29127   -29306   -29454   -29542   -29601   -29627   -29617   -29597 
  -29551   -29437   -29265   -29081   -28867   -28610   -28332   -28014 
  -27635   -27228   -26829   -26443   -26066   -25681   -25263   -24821 
  -24366   -23932   -23552   -23188   -22813   -22462   -22138   -21822 
  -21539   -21300   -21079   -20892   -20768   -20675   -20560   -20439 
  -20359   -20310   -20270   -20236   -20182   -20102   -20022   -19957 
  -19921   -19895   -19864   -19863   -19884   -19905   -19956   -20023 
  -20081   -20153   -20263   -20400   -20544   -20704   -20886   -21057 
  -21245   -21493   -21759   -22028   -22325   -22644   -22994   -23368 
  -23749   -24161   -24590   -24991   -25394   -25809   -26186   -26531 
  -26865   -27147   -27361   -27529   -27677   -27779   -27813   -27801 
  -27734   -27609   -27477   -27329   -27145   -26957   -26767   -26567 
  -26363   -26164   -25986   -25802   -25583   -25376   -25209   -25061 
  -24961   -24910   -24858   -24826   -24854   -24941   -25054   -25164 
  -25293   -25432   -25558   -25705   -25856   -25965   -26060   -26166 
  -26234   -26250   -26253   -26238   -26185   -26106   -25998   -25834 
  -25630   -25420   -25216   -25029   -24832   -24639   -24509   -24397 
  -24277   -24189   -24123   -24073   -24076   -24151   -24266   -24392 
  -24556   -24772   -24985   -25206   -25461   -25692   -25871   -26033 
  -26181   -26290   -26364   -26425   -26466   -26467   -26449   -26443 
  -26434   -26396   -26352   -26309   -26243   -26164   -26104   -26039 
  -25951   -25884   -25829   -25736   -25643   -25583   -25524   -25491 
  -25499   -25461   -25357   -25246   -25143   -25059   -24988   -24874 
  -24741   -24621   -24470   -24332   -24237   -24129   -24016   -23930 
  -23860   -23800   -23758   -23753   -23753   -23731   -23712   -23707 
  -23717   -23742   -23745   -23718   -23677   -23613   -23575   -23576 
  -23580   -23599   -23607   -23583   -23568   -23568   -23589   -23620 
  -23633   -23670   -23736   -23814   -23960   -24149   -24338   -24573 
  -24837   -25073   -25319   -25614   -25936   -26254   -26532   -26755 
  -26974   -27206   -27438   -27659   -27814   -27886   -27930   -27975 
  -28005   -28021   -28038   -28015   -27919   -27805   -27729   -27649 
  -27544   -27431   -27277   -27078   -26882   -26711   -26535   -26330 
  -26124   -25929   -25727   -25521   -25316   -25092   -24845   -24625 
  -24449   -24252   -24034   -23852   -23683   -23510   -23368   -23230 
  -23013   -22761   -22601   -22518   -22403   -22206   -21949   -21726 
  -21611   -21584   -21547   -21420   -21240   -21146   -21189   -21267 
  -21316   -21360   -21425   -21533   -21701   -21924   -22172   -22435 
  -22733   -23072   -23422   -23779   -24152   -24512   -24838   -25178 
  -25557   -25939   -26302   -26668   -27008   -27285   -27560   -27869 
  -28166   -28451   -28765   -29071   -29305   -29472   -29583   -29660 
  -29768   -29928   -30084   -30211   -30314   -30386   -30449   -30547 
  -30688   -30832   -30952   -31071   -31206   -31320   -31368   -31374 
  -31377   -31378   -31392   -31427   -31441   -31383   -31242   -31039 
  -30814   -30594   -30350   -30048   -29677   -29226   -28757   -28328 
  -27904   -27458   -26982   -26440   -25873   -25370   -24935   -24519 
  -24089   -23616   -23145   -22770   -22496   -22241   -21946   -21614 
  -21245   -20809   -20354   -19996   -19819   -19792   -19749   -19607 
  -19433   -19230   -18985   -18768   -18652   -18696   -18887   -19093 
  -19218   -19274   -19270   -19192   -19080   -19082   -19290   -19578 
  -19798   -19928   -20013   -20128   -20302   -20525   -20800   -21083 
  -21340   -21563   -21775   -22025   -22276   -22487   -22737   -23095 
  -23540   -23977   -24325   -24563   -24636   -24570   -24562   -24750 
  -25074   -25399   -25661   -25875   -25995   -25955   -25850   -25805 
  -25852   -25991   -26221   -26543   -26893   -27129   -27185   -27126 
  -27119   -27304   -27610   -27884   -28057   -28111   -28113   -28188 
  -28378   -28626   -28838   -28931   -28874   -28705   -28552   -28533 
  -28598   -28646   -28695   -28751   -28752   -28671   -28549   -28450 
  -28361   -28254   -28180   -28142   -28098   -28043   -27980   -27909 
  -27877   -27925   -27989   -27970   -27871   -27728   -27575   -27499 
  -27546   -27690   -27886   -28045   -28106   -28043   -27838   -27570 
  -27318   -27082   -26869   -26711   -26566   -26324   -26023   -25778 
  -25547   -25273   -25052   -24949   -24890   -24816   -24784   -24850 
  -24964   -25068   -25168   -25264   -25359   -25489   -25625   -25732 
  -25880   -26097   -26320   -26541   -26776   -26997   -27168   -27276 
  -27337   -27313   -27143   -26926   -26813   -26743   -26592   -26365 
  -26093   -25795   -25523   -25339   -25228   -25108   -24946   -24774 
  -24617   -24514   -24493   -24475   -24339   -24109   -23908   -23768 
  -23663   -23617   -23638   -23690   -23770   -23887   -24011   -24086 
  -24123   -24206   -24375   -24622   -24909   -25173   -25350   -25465 
  -25632   -25864   -26089   -26301   -26475   -26593   -26695   -26763 
  -26755   -26705   -26643   -26570   -26474   -26337   -26172   -25992 
  -25770   -25503   -25227   -24967   -24736   -24589   -24554   -24562 
  -24517   -24414   -24286   -24134   -23945   -23735   -23546   -23421 
  -23365   -23323   -23236   -23097   -22926   -22755   -22625   -22547 
  -22517   -22540   -22564   -22524   -22456   -22381   -22312   -22310 
  -22380   -22456   -22487   -22488   -22477   -22449   -22462   -22545 
  -22631   -22700   -22795   -22944   -23161   -23412   -23648   -23906 
  -24237   -24628   -25029   -25349   -25584   -25816   -26046   -26223 
  -26370   -26527   -26696   -26859   -26992   -27081   -27144   -27214 
  -27265   -27292   -27324   -27333   -27284   -27209   -27135   -27045 
  -26927   -26791   -26629   -26452   -26292   -26148   -26010   -25845 
  -25574   -25221   -24916   -24665   -24460   -24386   -24408   -24415 
  -24402   -24419   -24464   -24538   -24642   -24713   -24718   -24738 
  -24837   -24942   -25007   -25074   -25128   -25108   -25003   -24846 
  -24675   -24480   -24211   -23869   -23523   -23207   -22936   -22719 
  -22518   -22331   -22208   -22108   -21991   -21924   -21912   -21903 
  -21924   -21998   -22132   -22314   -22513   -22755   -23028   -23280 
  -23542   -23838   -24139   -24460   -24815   -25188   -25564   -25915 
  -26259   -26621   -26990   -27352   -27651   -27857   -28055   -28291 
  -28499   -28668   -28836   -28977   -29057   -29131   -29250   -29368 
  -29406   -29395   -29384   -29354   -29277   -29150   -29002   -28874 
  -28806   -28811   -28829   -28828   -28852   -28886   -28905   -28958 
  -29068   -29175   -29200   -29164   -29118   -29067   -29024   -28978 
  -28883   -28757   -28621   -28446   -28247   -28045   -27827   -27576 
  -27291   -27017   -26774   -26543   -26345   -26186   -26044   -25924 
  -25813   -25681   -25510   -25290   -25068   -24913   -24807   -24698 
  -24595   -24507   -24403   -24294   -24202   -24083   -23951   -23883 
  -23903   -24008   -24189   -24407   -24617   -24832   -25105   -25440 
  -25793   -26107   -26367   -26604   -26829   -27052   -27299   -27530 
  -27693   -27798   -27880   -27954   -28014   -28065   -28109   -28138 
  -28172   -28230   -28236   -28129   -27974   -27802   -27576   -27334 
  -27161   -27060   -26996   -26972   -27005   -27072   -27145   -27214 
  -27243   -27251   -27280   -27326   -27355   -27311   -27229   -27211 
  -27224   -27230   -27269   -27290   -27252   -27221   -27241   -27263 
  -27271   -27347   -27497   -27627   -27720   -27782   -27762   -27674 
  -27629   -27654   -27681   -27701   -27760   -27858   -27975   -28096 
  -28206   -28292   -28366   -28462   -28559   -28591   -28575   -28583 
  -28599   -28549   -28475   -28410   -28275   -28081   -27918   -27795 
  -27653   -27449   -27186   -26873   -26514   -26120   -25676   -25191 
  -24698   -24233   -23801   -23363   -22893   -22402   -21938   -21499 
  -21080   -20711   -20329   -19938   -19636   -19388   -19117   -18841 
  -18597   -18367   -18131   -17916   -17721   -17545   -17433   -17365 
  -17309   -17274   -17270   -17308   -17353   -17384   -17446   -17535 
  -17622   -17707   -17818   -17981   -18186   -18401   -18599   -18789 
  -18975   -19150   -19310   -19446   -19596   -19780   -19948   -20100 
  -20274   -20473   -20650   -20776   -20898   -21013   -21110   -21268 
  -21498   -21738   -21986   -22258   -22559   -22883   -23232   -23633 
  -24050   -24486   -24984   -25500   -26006   -26537   -27095   -27688 
  -28332   -29024   -29725   -30401   -31083   -31780   -32463   -33097 
  -33666   -34227   -34781   -35269   -35724   -36163   -36537   -36840 
  -37098   -37308   -37443   -37509   -37531   -37495   -37424   -37330 
  -37124   -36808   -36447   -36029   -35538   -34969   -34376   -33834 
  -33299   -32754   -32230   -31721   -31233   -30765   -30307   -29880 
  -29474   -29075   -28701   -28349   -28014   -27712   -27435   -27168 
  -26934   -26753   -26594   -26427   -26273   -26128   -25985   -25914 
  -25909   -25881   -25817   -25719   -25588   -25431   -25233   -25008 
  -24764   -24495   -24209   -23885   -23525   -23153   -22762   -22362 
  -21978   -21606   -21221   -20821   -20414   -20007   -19623   -19282 
  -18987   -18725   -18483   -18261   -18069   -17903   -17767   -17679 
  -17630   -17612   -17604   -17612   -17695   -17842   -18004   -18200 
  -18439   -18703   -19012   -19385   -19767   -20121   -20492   -20887 
  -21251   -21632   -22073   -22530   -23006   -23512   -24018   -24505 
  -24974   -25464   -25990   -26507   -26996   -27458   -27877   -28267 
  -28665   -29055   -29387   -29667   -29931   -30160   -30335   -30492 
  -30626   -30702   -30704   -30622   -30471   -30271   -30042   -29797 
  -29521   -29225   -28921   -28603   -28276   -27953   -27670   -27416 
  -27139   -26878   -26667   -26500   -26387   -26303   -26195   -26019 
  -25803   -25619   -25449   -25283   -25165   -25072   -24995   -24951 
  -24912   -24865   -24810   -24763   -24750   -24743   -24726   -24721 
  -24701   -24635   -24536   -24421   -24268   -24083   -23920   -23774 
  -23616   -23446   -23270   -23080   -22856   -22631   -22438   -22257 
  -22058   -21832   -21603   -21426   -21323   -21291   -21327   -21385 
  -21461   -21593   -21779   -22030   -22341   -22682   -23059   -23494 
  -24013   -24574   -25083   -25569   -26090   -26612   -27121   -27623 
  -28105   -28565   -28995   -29430   -29889   -30339   -30786   -31216 
  -31602   -31954   -32265   -32512   -32695   -32871   -33062   -33213 
  -33317   -33403   -33437   -33382   -33254   -33069   -32830   -32557 
  -32278   -31984   -31659   -31319   -30946   -30518   -30072   -29657 
  -29270   -28875   -28488   -28159   -27849   -27480   -27093   -26774 
  -26485   -26181   -25909   -25654   -25390   -25157   -24964   -24775 
  -24544   -24299   -24101   -23896   -23643   -23382   -23127   -22868 
  -22602   -22354   -22106   -21828   -21578   -21372   -21185   -21044 
  -20968   -20951   -20973   -21047   -21204   -21401   -21626   -21931 
  -22287   -22641   -23002   -23416   -23874   -24301   -24719   -25177 
  -25618   -26025   -26443   -26858   -27241   -27588   -27908   -28181 
  -28401   -28613   -28813   -28975   -29130   -29286   -29405   -29478 
  -29525   -29563   -29607   -29691   -29834   -29993   -30115   -30214 
  -30320   -30423   -30514   -30605   -30717   -30850   -30964   -31035 
  -31066   -31048   -31005   -30977   -30930   -30830   -30714   -30621 
  -30538   -30423   -30287   -30146   -29984   -29828   -29697   -29550 
  -29374   -29197   -29015   -28802   -28564   -28341   -28150   -27991 
  -27858   -27726   -27587   -27452   -27305   -27121   -26939   -26809 
  -26696   -26566   -26428   -26286   -26145   -26009   -25881   -25753 
  -25605   -25433   -25253   -25053   -24819   -24568   -24330   -24095 
  -23870   -23691   -23540   -23402   -23293   -23241   -23272   -23368 
  -23509   -23670   -23839   -24061   -24312   -24543   -24812   -25171 
  -25568   -25951   -26316   -26640   -26906   -27157   -27423   -27688 
  -27949   -28192   -28362   -28435   -28426   -28370   -28305   -28212 
  -28061   -27865   -27612   -27286   -26931   -26606   -26321   -26035 
  -25736   -25422   -25069   -24733   -24470   -24235   -24007   -23803 
  -23656   -23558   -23472   -23448   -23505   -23542   -23550   -23585 
  -23616   -23634   -23693   -23795   -23894   -23958   -23987   -24014 
  -24038   -24023   -23975   -23949   -23970   -24032   -24125   -24184 
  -24181   -24193   -24216   -24199   -24219   -24313   -24377   -24421 
  -24533   -24673   -24819   -25026   -25282   -25544   -25796   -26041 
  -26295   -26538   -26770   -27029   -27312   -27590   -27881   -28177 
  -28424   -28633   -28879   -29198   -29503   -29744   -30028   -30353 
  -30632   -30888   -31130   -31336   -31529   -31733   -31910   -32021 
  -32132   -32281   -32399   -32492   -32620   -32763   -32884   -32983 
  -33072   -33150   -33215   -33302   -33405   -33456   -33474   -33525 
  -33578   -33584   -33555   -33541   -33568   -33581   -33577   -33628 
  -33701   -33743   -33776   -33801   -33793   -33760   -33714   -33640 
  -33543   -33439   -33346   -33288   -33209   -33085   -32975   -32862 
  -32720   -32585   -32446   -32298   -32167   -32030   -31847   -31676 
  -31587   -31515   -31386   -31258   -31154   -31006   -30823   -30671 
  -30527   -30368   -30211   -30044   -29873   -29698   -29495   -29265 
  -28998   -28734   -28558   -28439   -28294   -28136   -27982   -27811 
  -27611   -27388   -27157   -26911   -26647   -26379   -26069   -25752 
  -25533   -25365   -25131   -24821   -24505   -24224   -23946   -23650 
  -23354   -23074   -22828   -22579   -22271   -21920   -21582   -21280 
  -20981   -20673   -20403   -20158   -19914   -19701   -19519   -19368 
  -19270   -19223   -19205   -19176   -19153   -19183   -19220   -19241 
  -19293   -19372   -19471   -19594   -19728   -19896   -20106   -20325 
  -20536   -20724   -20903   -21136   -21437   -21720   -21947   -22177 
  -22442   -22720   -22996   -23291   -23607   -23916   -24230   -24536 
  -24808   -25059   -25315   -25571   -25799   -26036   -26330   -26602 
  -26814   -27006   -27145   -27243   -27371   -27535   -27696   -27822 
  -27944   -28070   -28131   -28137   -28150   -28173   -28179   -28159 
  -28136   -28114   -28027   -27875   -27733   -27591   -27443   -27317 
  -27187   -27037   -26895   -26775   -26679   -26569   -26438   -26341 
  -26305   -26342   -26406   -26416   -26423   -26472   -26486   -26462 
