Origin Time       2011/03/11 14:46:00
Lat.              38.103
Long.             142.860
Depth. (km)       24
Mag.              9.0
Station Code      FKI010
Station Lat.      35.4904
Station Long.     135.5518
Station Height(m) 2
Record Time       2011/03/11 14:48:26
Sampling Freq(Hz) 100Hz
Duration Time(s)  239
Dir.              N-S
Scale Factor      3920(gal)/6182761
Max. Acc. (gal)   4.751
Last Correction   2011/03/11 14:48:11
Memo.             
[...]
  -40116   -40119   -40086   -40047   -40048   -40075   -40075   -40026 
  -39924   -39812   -39762   -39765   -39752   -39698   -39603   -39469 
  -39313   -39123   -38927   -38779   -38637   -38433   -38179   -37904 
  -37616   -37311   -36990   -36678   -36392   -36121   -35878   -35699 
  -35572   -35442   -35279   -35123   -35039   -35034   -35084   -35188 
  -35320   -35427   -35526   -35639   -35730   -35825   -35992   -36235 
  -36507   -36766   -37010   -37277   -37576   -37869   -38129   -38379 
  -38666   -38991   -39331   -39661   -39956   -40216   -40476   -40731 
  -40953   -41141   -41303   -41426   -41518   -41611   -41726   -41852 
  -41953   -42010   -42026   -42004   -41952   -41899   -41842   -41734 
  -41567   -41398   -41270   -41190   -41104   -40912   -40607   -40245 
  -39849   -39465   -39138   -38818   -38455   -38075   -37684   -37244 
  -36772   -36321   -35899   -35503   -35153   -34835   -34535   -34289 
  -34103   -33955   -33852   -33792   -33755   -33750   -33798   -33916 
  -34139   -34423   -34651   -34795   -34955   -35212   -35523   -35808 
  -36062   -36301   -36543   -36834   -37176   -37533   -37877   -38190 
  -38479   -38771   -39073   -39363   -39617   -39860   -40111   -40330 
  -40476   -40563   -40655   -40776   -40874   -40938   -41002   -41050 
  -41065   -41076   -41104   -41152   -41211   -41266   -41307   -41317 
  -41275   -41180   -41048   -40903   -40726   -40497   -40238   -39947 
  -39623   -39296   -38974   -38648   -38332   -38053   -37821   -37586 
  -37304   -37003   -36744   -36569   -36456   -36347   -36222   -36082 
  -35920   -35751   -35598   -35480   -35420   -35423   -35452   -35458 
  -35450   -35453   -35455   -35460   -35501   -35586   -35681   -35781 
  -35900   -36013   -36109   -36201   -36278   -36361   -36489   -36662 
  -36851   -37037   -37217   -37401   -37616   -37893   -38201   -38489 
  -38759   -39032   -39297   -39543   -39755   -39923   -40072   -40208 
  -40297   -40339   -40354   -40336   -40282   -40196   -40096   -40039 
  -40048   -40067   -40064   -40056   -40058   -40038   -39956   -39863 
  -39822   -39807   -39788   -39746   -39656   -39552   -39469   -39364 
  -39238   -39150   -39095   -39026   -38935   -38828   -38707   -38591 
  -38505   -38446   -38380   -38273   -38123   -37939   -37726   -37520 
  -37374   -37271   -37164   -37052   -36946   -36848   -36767   -36694 
  -36608   -36519   -36444   -36398   -36384   -36381   -36375   -36375 
  -36371   -36356   -36347   -36350   -36370   -36415   -36474   -36533 
  -36592   -36636   -36669   -36727   -36824   -36921   -36976   -36981 
  -36984   -37023   -37070   -37106   -37154   -37226   -37345   -37516 
  -37702   -37905   -38142   -38398   -38672   -38968   -39282   -39609 
  -39932   -40233   -40489   -40681   -40824   -40943   -41045   -41139 
  -41218   -41274   -41315   -41327   -41292   -41212   -41077   -40895 
  -40692   -40488   -40309   -40159   -40010   -39859   -39726   -39598 
  -39479   -39389   -39295   -39194   -39105   -39014   -38920   -38830 
  -38708   -38550   -38419   -38335   -38241   -38121   -37997   -37854 
  -37688   -37522   -37357   -37177   -36990   -36809   -36617   -36412 
  -36213   -36016   -35823   -35659   -35525   -35407   -35319   -35272 
  -35239   -35208   -35191   -35193   -35211   -35252   -35334   -35443 
  -35546   -35639   -35732   -35840   -35960   -36076   -36201   -36340 
  -36478   -36641   -36856   -37099   -37352   -37628   -37931   -38249 
  -38586   -38919   -39229   -39536   -39833   -40099   -40356   -40612 
  -40840   -41037   -41209   -41361   -41527   -41714   -41865   -41969 
  -42035   -42058   -42069   -42075   -42041   -41959   -41846   -41714 
  -41573   -41427   -41259   -41047   -40803   -40557   -40330   -40108 
  -39859   -39584   -39291   -38974   -38649   -38333   -38011   -37698 
  -37407   -37107   -36806   -36534   -36296   -36097   -35925   -35744 
  -35564   -35431   -35354   -35275   -35163   -35048   -34963   -34905 
  -34889   -34926   -35001   -35104   -35222   -35327   -35429   -35568 
  -35745   -35926   -36083   -36225   -36381   -36547   -36723   -36926 
  -37149   -37389   -37632   -37843   -38040   -38267   -38505   -38720 
  -38931   -39147   -39361   -39579   -39764   -39884   -39974   -40059 
  -40139   -40225   -40321   -40425   -40525   -40589   -40629   -40671 
  -40722   -40789   -40855   -40914   -40978   -41029   -41056   -41081 
  -41111   -41129   -41127   -41115   -41129   -41183   -41235   -41249 
  -41237   -41206   -41155   -41081   -41002   -40943   -40873   -40746 
  -40585   -40415   -40221   -40000   -39770   -39557   -39375   -39190 
  -38998   -38834   -38676   -38507   -38343   -38180   -38027   -37916 
  -37847   -37796   -37729   -37637   -37544   -37483   -37462   -37475 
  -37510   -37534   -37539   -37564   -37590   -37558   -37525   -37559 
  -37616   -37637   -37633   -37637   -37640   -37610   -37543   -37491 
  -37500   -37556   -37637   -37745   -37875   -38003   -38112   -38230 
  -38370   -38522   -38705   -38926   -39145   -39340   -39504   -39632 
  -39756   -39890   -40007   -40107   -40219   -40322   -40386   -40423 
  -40459   -40482   -40483   -40482   -40499   -40519   -40524   -40526 
  -40529   -40522   -40511   -40508   -40510   -40520   -40549   -40574 
  -40569   -40544   -40492   -40412   -40347   -40287   -40167   -39989 
  -39799   -39603   -39379   -39141   -38929   -38733   -38520   -38325 
  -38177   -38057   -37962   -37900   -37864   -37863   -37891   -37896 
  -37890   -37926   -37980   -38011   -38040   -38064   -38048   -38020 
  -38043   -38100   -38130   -38154   -38212   -38273   -38307   -38317 
  -38312   -38326   -38377   -38427   -38457   -38470   -38457   -38441 
  -38426   -38395   -38374   -38387   -38402   -38390   -38379   -38403 
  -38450   -38475   -38479   -38515   -38590   -38664   -38742   -38834 
  -38913   -38965   -39022   -39119   -39256   -39402   -39521   -39608 
  -39679   -39732   -39778   -39827   -39818   -39740   -39663   -39601 
  -39525   -39441   -39346   -39223   -39089   -38963   -38856   -38758 
  -38619   -38444   -38281   -38133   -37994   -37860   -37710   -37560 
  -37424   -37265   -37072   -36878   -36712   -36578   -36457   -36337 
  -36241   -36170   -36108   -36064   -36012   -35934   -35852   -35772 
  -35700   -35662   -35631   -35581   -35539   -35522   -35539   -35604 
  -35700   -35788   -35852   -35916   -36013   -36138   -36304   -36519 
  -36733   -36941   -37181   -37425   -37656   -37886   -38101   -38302 
  -38488   -38663   -38845   -39022   -39168   -39290   -39415   -39547 
  -39658   -39743   -39833   -39924   -39991   -40047   -40108   -40186 
  -40284   -40362   -40417   -40483   -40538   -40588   -40651   -40678 
  -40675   -40699   -40747   -40793   -40828   -40814   -40736   -40648 
  -40593   -40556   -40514   -40445   -40354   -40259   -40152   -40052 
  -39974   -39866   -39715   -39543   -39331   -39111   -38925   -38736 
  -38523   -38324   -38170   -38039   -37915   -37831   -37775   -37696 
  -37598   -37500   -37427   -37411   -37427   -37447   -37447   -37422 
  -37443   -37543   -37678   -37825   -38000   -38186   -38344   -38519 
  -38760   -39000   -39217   -39450   -39688   -39927   -40171   -40405 
  -40628   -40822   -40956   -41044   -41120   -41177   -41208   -41256 
  -41321   -41355   -41348   -41317   -41280   -41253   -41228   -41213 
  -41212   -41189   -41146   -41092   -40999   -40872   -40726   -40554 
  -40390   -40258   -40119   -39957   -39796   -39644   -39493   -39359 
  -39256   -39161   -39048   -38958   -38915   -38874   -38828   -38795 
  -38783   -38814   -38870   -38912   -38932   -38926   -38888   -38835 
  -38802   -38796   -38788   -38782   -38805   -38833   -38843   -38857 
  -38872   -38848   -38829   -38856   -38878   -38866   -38831   -38748 
  -38618   -38502   -38431   -38372   -38314   -38261   -38207   -38164 
  -38154   -38194   -38301   -38422   -38506   -38601   -38728   -38842 
  -38947   -39067   -39193   -39319   -39455   -39598   -39741   -39880 
  -39994   -40072   -40143   -40225   -40317   -40424   -40547   -40672 
  -40761   -40796   -40812   -40826   -40809   -40771   -40746   -40714 
  -40657   -40619   -40606   -40589   -40584   -40601   -40608   -40603 
  -40610   -40624   -40628   -40622   -40619   -40612   -40585   -40551 
  -40537   -40539   -40533   -40543   -40584   -40614   -40620   -40619 
  -40610   -40612   -40625   -40621   -40605   -40578   -40534   -40511 
  -40532   -40551   -40547   -40530   -40489   -40454   -40432   -40379 
  -40334   -40338   -40332   -40284   -40243   -40212   -40154   -40084 
  -40015   -39957   -39927   -39905   -39897   -39941   -40018   -40080 
  -40114   -40142   -40181   -40224   -40250   -40252   -40237   -40222 
  -40229   -40251   -40261   -40269   -40282   -40266   -40222   -40216 
  -40271   -40319   -40324   -40322   -40331   -40329   -40311   -40302 
  -40293   -40259   -40201   -40127   -40061   -40030   -40000   -39955 
  -39915   -39856   -39755   -39627   -39477   -39292   -39084   -38887 
  -38693   -38479   -38255   -38014   -37745   -37463   -37178   -36891 
  -36631   -36421   -36247   -36080   -35916   -35783   -35674   -35543 
  -35407   -35324   -35287   -35270   -35290   -35360   -35484   -35652 
  -35836   -36035   -36274   -36543   -36791   -37007   -37228   -37461 
  -37702   -37977   -38276   -38556   -38833   -39130   -39430   -39723 
  -39997   -40237   -40466   -40696   -40916   -41133   -41343   -41534 
  -41710   -41843   -41923   -41978   -42006   -42010   -42008   -41997 
  -41985   -41971   -41942   -41891   -41810   -41715   -41620   -41513 
  -41396   -41283   -41176   -41071   -40946   -40782   -40580   -40373 
  -40193   -40023   -39856   -39703   -39553   -39406   -39287   -39186 
  -39083   -38976   -38853   -38729   -38632   -38548   -38482   -38472 
  -38511   -38543   -38545   -38562   -38626   -38709   -38779   -38841 
  -38897   -38947   -39003   -39056   -39093   -39119   -39132   -39161 
  -39234   -39294   -39315   -39355   -39422   -39483   -39546   -39620 
  -39709   -39833   -39959   -40026   -40080   -40160   -40224   -40281 
  -40351   -40436   -40522   -40574   -40625   -40720   -40811   -40873 
  -40939   -41027   -41132   -41220   -41274   -41350   -41473   -41580 
  -41645   -41712   -41801   -41880   -41954   -42044   -42125   -42178 
  -42239   -42334   -42435   -42506   -42553   -42597   -42640   -42678 
  -42714   -42749   -42768   -42770   -42744   -42694   -42666   -42657 
  -42627   -42584   -42528   -42427   -42274   -42076   -41863   -41649 
  -41411   -41158   -40905   -40664   -40439   -40219   -40016   -39812 
  -39581   -39364   -39186   -39058   -38989   -38951   -38933   -38959 
  -39012   -39072   -39154   -39235   -39281   -39316   -39349   -39373 
  -39419   -39472   -39484   -39499   -39540   -39550   -39528   -39531 
  -39564   -39596   -39620   -39636   -39656   -39697   -39730   -39753 
  -39784   -39781   -39749   -39744   -39745   -39733   -39736   -39761 
  -39806   -39863   -39921   -39982   -40026   -40048   -40091   -40175 
  -40289   -40419   -40570   -40727   -40873   -41020   -41158   -41263 
  -41361   -41501   -41678   -41843   -41990   -42138   -42263   -42345 
  -42416   -42484   -42519   -42518   -42504   -42507   -42509   -42482 
  -42442   -42393   -42304   -42162   -41982   -41771   -41522   -41264 
  -41037   -40828   -40604   -40361   -40094   -39799   -39485   -39158 
  -38808   -38447   -38118   -37812   -37481   -37136   -36794   -36462 
  -36157   -35878   -35623   -35397   -35185   -34975   -34774   -34596 
  -34434   -34292   -34207   -34186   -34193   -34208   -34253   -34330 
  -34426   -34552   -34706   -34861   -35033   -35230   -35429   -35626 
  -35838   -36077   -36337   -36609   -36898   -37210   -37565   -37949 
  -38304   -38646   -39036   -39452   -39863   -40294   -40756   -41216 
  -41661   -42107   -42561   -43000   -43403   -43781   -44122   -44400 
  -44623   -44791   -44907   -44989   -45017   -44964   -44861   -44724 
  -44520   -44260   -43973   -43667   -43360   -43063   -42756   -42429 
  -42089   -41713   -41310   -40932   -40579   -40206   -39815   -39442 
  -39075   -38682   -38294   -37948   -37634   -37342   -37065   -36807 
  -36562   -36288   -35984   -35698   -35456   -35247   -35037   -34815 
  -34610   -34433   -34259   -34096   -33994   -33946   -33943   -34010 
  -34115   -34219   -34355   -34540   -34782   -35084   -35402   -35706 
  -36006   -36314   -36622   -36907   -37193   -37515   -37864   -38223 
  -38585   -38933   -39259   -39562   -39875   -40225   -40566   -40883 
  -41214   -41555   -41854   -42081   -42278   -42486   -42690   -42889 
  -43080   -43224   -43316   -43395   -43474   -43558   -43641   -43708 
  -43766   -43777   -43708   -43603   -43498   -43399   -43301   -43203 
  -43091   -42933   -42726   -42473   -42161   -41808   -41454   -41091 
  -40705   -40326   -39949   -39531   -39073   -38571   -38047   -37555 
  -37091   -36664   -36266   -35820   -35323   -34852   -34446   -34106 
  -33810   -33559   -33343   -33118   -32872   -32636   -32450   -32332 
  -32268   -32248   -32266   -32318   -32411   -32529   -32666   -32854 
  -33081   -33304   -33563   -33905   -34303   -34727   -35178   -35648 
  -36121   -36597   -37117   -37722   -38358   -38951   -39520   -40102 
  -40696   -41295   -41876   -42442   -43016   -43566   -44062   -44525 
  -44955   -45310   -45579   -45806   -46010   -46162   -46278   -46379 
  -46447   -46476   -46457   -46390   -46304   -46232   -46145   -45969 
  -45680   -45311   -44915   -44554   -44223   -43860   -43442   -42977 
  -42474   -41955   -41430   -40882   -40316   -39752   -39173   -38553 
  -37923   -37331   -36747   -36157   -35631   -35186   -34791   -34421 
  -34058   -33733   -33485   -33299   -33167   -33117   -33145   -33185 
  -33235   -33359   -33543   -33742   -33977   -34263   -34582   -34910 
  -35239   -35595   -36014   -36448   -36849   -37308   -37857   -38390 
  -38865   -39315   -39750   -40187   -40622   -41032   -41414   -41762 
  -42059   -42320   -42580   -42844   -43103   -43329   -43516   -43682 
  -43804   -43892   -43986   -44050   -44057   -44052   -44052   -44015 
  -43933   -43832   -43701   -43549   -43398   -43225   -43020   -42817 
  -42610   -42354   -42055   -41756   -41431   -41080   -40743   -40395 
  -40055   -39769   -39458   -39104   -38815   -38579   -38323   -38069 
  -37850   -37652   -37441   -37207   -36970   -36743   -36532   -36347 
  -36193   -36066   -35928   -35757   -35609   -35500   -35384   -35280 
  -35240   -35243   -35248   -35253   -35289   -35377   -35479   -35570 
  -35698   -35874   -36027   -36124   -36256   -36492   -36760   -37011 
  -37286   -37565   -37791   -37979   -38182   -38428   -38691   -38922 
  -39124   -39362   -39643   -39877   -40052   -40227   -40413   -40602 
  -40789   -40949   -41106   -41289   -41426   -41501   -41610   -41728 
  -41816   -41941   -42066   -42121   -42142   -42148   -42162   -42187 
  -42158   -42068   -41969   -41877   -41745   -41551   -41343   -41137 
  -40885   -40604   -40360   -40128   -39850   -39546   -39277   -39052 
  -38825   -38560   -38305   -38115   -37924   -37674   -37425   -37201 
  -36966   -36720   -36494   -36277   -35998   -35667   -35394   -35170 
  -34922   -34666   -34425   -34239   -34158   -34116   -34039   -33969 
  -33942   -33947   -33979   -34030   -34088   -34152   -34243   -34380 
  -34531   -34650   -34777   -34944   -35120   -35308   -35524   -35746 
  -35960   -36195   -36479   -36801   -37137   -37463   -37780   -38121 
  -38492   -38873   -39260   -39628   -39956   -40285   -40621   -40909 
  -41149   -41397   -41663   -41910   -42138   -42358   -42555   -42726 
  -42899   -43087   -43278   -43441   -43556   -43644   -43740   -43828 
  -43876   -43899   -43926   -43941   -43930   -43896   -43829   -43698 
  -43507   -43304   -43085   -42829   -42560   -42283   -41956   -41556 
  -41133   -40726   -40302   -39845   -39399   -38983   -38571   -38154 
  -37763   -37394   -37025   -36688   -36393   -36111   -35854   -35650 
  -35486   -35326   -35169   -35048   -34961   -34875   -34784   -34714 
  -34680   -34658   -34645   -34685   -34765   -34825   -34887   -35003 
  -35127   -35208   -35307   -35476   -35696   -35955   -36250   -36556 
  -36852   -37146   -37475   -37832   -38192   -38554   -38885   -39181 
  -39507   -39867   -40187   -40464   -40766   -41102   -41394   -41623 
  -41859   -42113   -42346   -42573   -42813   -43034   -43200   -43321 
  -43429   -43501   -43520   -43546   -43606   -43648   -43646   -43596 
  -43484   -43344   -43217   -43088   -42951   -42816   -42702   -42616 
  -42473   -42267   -42116   -41984   -41745   -41463   -41233   -41001 
  -40699   -40360   -40056   -39784   -39492   -39207   -38959   -38694 
  -38416   -38182   -37980   -37772   -37588   -37478   -37404   -37319 
  -37254   -37214   -37176   -37139   -37111   -37111   -37134   -37133 
  -37108   -37089   -37042   -36961   -36910   -36883   -36859   -36869 
  -36892   -36893   -36884   -36862   -36845   -36875   -36946   -37025 
  -37101   -37179   -37286   -37423   -37534   -37609   -37719   -37885 
  -38048   -38181   -38303   -38434   -38573   -38730   -38928   -39150 
  -39350   -39517   -39687   -39873   -40069   -40272   -40440   -40542 
  -40618   -40703   -40796   -40886   -40946   -40945   -40903   -40882 
  -40903   -40926   -40919   -40905   -40897   -40882   -40874   -40890 
  -40901   -40882   -40838   -40781   -40711   -40617   -40516   -40423 
  -40317   -40193   -40059   -39903   -39741   -39613   -39494   -39339 
  -39154   -38983   -38852   -38719   -38542   -38360   -38214   -38080 
  -37956   -37878   -37817   -37707   -37576   -37491   -37426   -37346 
  -37294   -37293   -37292   -37245   -37173   -37131   -37100   -37008 
  -36893   -36836   -36791   -36689   -36559   -36442   -36337   -36224 
  -36114   -36037   -35987   -35956   -35944   -35942   -35933   -35932 
  -35980   -36057   -36106   -36122   -36150   -36227   -36352   -36514 
  -36685   -36854   -37049   -37245   -37388   -37530   -37692   -37781 
  -37837   -37996   -38238   -38465   -38662   -38849   -39035   -39214 
  -39404   -39610   -39791   -39935   -40074   -40239   -40410   -40534 
  -40633   -40743   -40822   -40834   -40804   -40778   -40772   -40753 
  -40693   -40597   -40493   -40390   -40292   -40200   -40049   -39813 
  -39577   -39366   -39144   -38907   -38643   -38346   -38031   -37705 
  -37385   -37074   -36759   -36456   -36166   -35897   -35677   -35483 
  -35279   -35077   -34893   -34749   -34628   -34513   -34440   -34418 
  -34403   -34396   -34430   -34505   -34578   -34635   -34714   -34829 
  -34961   -35120   -35336   -35600   -35866   -36105   -36330   -36589 
  -36889   -37203   -37532   -37878   -38228   -38578   -38922   -39259 
  -39581   -39867   -40137   -40441   -40806   -41228   -41662   -42075 
  -42470   -42816   -43066   -43261   -43460   -43653   -43833   -44017 
  -44190   -44311   -44352   -44339   -44315   -44268   -44171   -44035 
  -43876   -43701   -43528   -43372   -43226   -43048   -42785   -42465 
  -42187   -41956   -41685   -41388   -41136   -40893   -40594   -40275 
  -39981   -39654   -39238   -38772   -38296   -37818   -37358   -36945 
  -36638   -36453   -36314   -36173   -36044   -35913   -35738   -35522 
