Origin Time       2011/03/11 14:46:00
Lat.              38.103
Long.             142.860
Depth. (km)       24
Mag.              9.0
Station Code      FKI007
Station Lat.      35.6448
Station Long.     136.0575
Station Height(m) 4
Record Time       2011/03/11 14:49:04
Sampling Freq(Hz) 100Hz
Duration Time(s)  180
Dir.              U-D
Scale Factor      3920(gal)/6182761
Max. Acc. (gal)   2.093
Last Correction   2011/03/11 14:48:49
Memo.             
[...]
  -14027   -14018   -14045   -14115   -14120   -14029   -13918   -13859 
  -13915   -14041   -14098   -14131   -14181   -14138   -14067   -14050 
  -14038   -14062   -14074   -13979   -13905   -13912   -13903   -13943 
  -14114   -14274   -14300   -14276   -14293   -14320   -14360   -14453 
  -14557   -14567   -14458   -14341   -14279   -14206   -14136   -14171 
  -14268   -14313   -14309   -14214   -13942   -13675   -13634   -13619 
  -13442   -13289   -13133   -12927   -13001   -13185   -13129   -13120 
  -13118   -12945   -13043   -13315   -13321   -13279   -13240   -13139 
  -13270   -13502   -13645   -13795   -13757   -13636   -13738   -13904 
  -14128   -14375   -14438   -14474   -14513   -14534   -14680   -14845 
  -14983   -14992   -14800   -14650   -14551   -14588   -14758   -14672 
  -14460   -14274   -14083   -14070   -14026   -13902   -13827   -13584 
  -13320   -13152   -13024   -12988   -12871   -12780   -12742   -12530 
  -12460   -12590   -12645   -12623   -12475   -12402   -12437   -12395 
  -12532   -12716   -12769   -12969   -13099   -13091   -13279   -13493 
  -13618   -13776   -13903   -13960   -13990   -14069   -14184   -14240 
  -14364   -14667   -14878   -14772   -14617   -14654   -14720   -14669 
  -14429   -14177   -14224   -14286   -14166   -14119   -14030   -13843 
  -13830   -13851   -13744   -13777   -13867   -13797   -13825   -13817 
  -13545   -13457   -13534   -13525   -13758   -14100   -14286   -14473 
  -14515   -14519   -14749   -14899   -14945   -15098   -15201   -15259 
  -15359   -15403   -15550   -15881   -16067   -16074   -16115   -16067 
  -15872   -15737   -15702   -15683   -15660   -15623   -15553   -15401 
  -15227   -15183   -15177   -15074   -14891   -14680   -14525   -14380 
  -14267   -14234   -14045   -13751   -13580   -13418   -13314   -13342 
  -13335   -13278   -13234   -13237   -13323   -13441   -13510   -13437 
  -13234   -13064   -13006   -13079   -13274   -13409   -13382   -13324 
  -13274   -13132   -12958   -12880   -12909   -13014   -13066   -13003 
  -12913   -12740   -12604   -12742   -12858   -12776   -12919   -13218 
  -13219   -13149   -13310   -13437   -13308   -13113   -13151   -13426 
  -13765   -14018   -14061   -13907   -13728   -13727   -13874   -14022 
  -14225   -14327   -14045   -13668   -13595   -13780   -14096   -14326 
  -14280   -14045   -13777   -13732   -14027   -14357   -14407   -14185 
  -14055   -14265   -14555   -14767   -14903   -14723   -14271   -13988 
  -14105   -14440   -14658   -14605   -14396   -14192   -14052   -13995 
  -13997   -13995   -14016   -14088   -14092   -14004   -14070   -14286 
  -14109   -13394   -12826   -12817   -13159   -13669   -14222   -14569 
  -14416   -13800   -13220   -12975   -13089   -13591   -14012   -13850 
  -13383   -12927   -12641   -12871   -13433   -13852   -13969   -13558 
  -12818   -12384   -12418   -12822   -13337   -13475   -13235   -13043 
  -13067   -13175   -13234   -13181   -12967   -12742   -12683   -12649 
  -12572   -12582   -12622   -12588   -12474   -12304   -12161   -12124 
  -12240   -12356   -12237   -12027   -11960   -12003   -12096   -12151 
  -12116   -12102   -12134   -12203   -12295   -12300   -12260   -12315 
  -12474   -12688   -12848   -12856   -12762   -12686   -12704   -12815 
  -12993   -13181   -13263   -13257   -13252   -13216   -13180   -13209 
  -13258   -13372   -13541   -13561   -13442   -13395   -13434   -13502 
  -13593   -13617   -13592   -13657   -13767   -13876   -14055   -14201 
  -14228   -14263   -14339   -14393   -14398   -14324   -14241   -14233 
  -14249   -14201   -14055   -13904   -13878   -13902   -13879   -13836 
  -13730   -13603   -13575   -13614   -13682   -13723   -13699   -13738 
  -13880   -14036   -14206   -14326   -14329   -14310   -14365   -14603 
  -15008   -15317   -15440   -15448   -15339   -15209   -15159   -15200 
  -15308   -15419   -15504   -15522   -15430   -15287   -15132   -14991 
  -14899   -14870   -14934   -15073   -15166   -15143   -15054   -14972 
  -14912   -14844   -14769   -14721   -14708   -14760   -14862   -14924 
  -14938   -14989   -15083   -15167   -15260   -15336   -15267   -15075 
  -14993   -15207   -15667   -16147   -16415   -16395   -16185   -15906 
  -15745   -15902   -16299   -16726   -17031   -17071   -16895   -16744 
  -16744   -16871   -17073   -17256   -17302   -17170   -16918   -16683 
  -16609   -16732   -16944   -17040   -16893   -16535   -16134   -15916 
  -15894   -15837   -15578   -15170   -14770   -14479   -14314   -14202 
  -14005   -13689   -13405   -13345   -13596   -14076   -14496   -14492 
  -14039   -13462   -13071   -13049   -13380   -13834   -14137   -14137 
  -13875   -13526   -13295   -13327   -13558   -13851   -14113   -14181 
  -14023   -13855   -13818   -13839   -13862   -13955   -14134   -14304 
  -14384   -14380   -14327   -14242   -14123   -13980   -13929   -14146 
  -14601   -15012   -15134   -14945   -14599   -14368   -14439   -14726 
  -15007   -15120   -15034   -14835   -14667   -14702   -15002   -15421 
  -15700   -15626   -15247   -14856   -14634   -14634   -14828   -15033 
  -15165   -15223   -15137   -14902   -14556   -14198   -14105   -14390 
  -14833   -15178   -15247   -15000   -14636   -14389   -14336   -14424 
  -14549   -14628   -14630   -14578   -14538   -14566   -14666   -14794 
  -14878   -14873   -14838   -14860   -14949   -15055   -15110   -15083 
  -14989   -14873   -14807   -14840   -14938   -15031   -15081   -15055 
  -14962   -14882   -14848   -14833   -14789   -14683   -14566   -14486 
  -14450   -14473   -14511   -14510   -14426   -14278   -14164   -14112 
  -14122   -14193   -14270   -14356   -14414   -14401   -14390   -14429 
  -14509   -14644   -14791   -14893   -14928   -14911   -14923   -15044 
  -15240   -15429   -15578   -15638   -15617   -15601   -15638   -15753 
  -15875   -15867   -15716   -15500   -15324   -15255   -15233   -15190 
  -15113   -15009   -14921   -14861   -14803   -14737   -14647   -14576 
  -14572   -14575   -14545   -14518   -14497   -14456   -14398   -14303 
  -14141   -13961   -13855   -13854   -13914   -13981   -14011   -13971 
  -13914   -13933   -14023   -14129   -14189   -14194   -14211   -14274 
  -14377   -14473   -14511   -14512   -14500   -14496   -14530   -14548 
  -14508   -14485   -14508   -14528   -14544   -14564   -14543   -14482 
  -14449   -14474   -14539   -14626   -14685   -14652   -14565   -14511 
  -14509   -14553   -14635   -14721   -14822   -14917   -14926   -14880 
  -14857   -14851   -14877   -14945   -15010   -15053   -15077   -15116 
  -15215   -15329   -15406   -15439   -15410   -15356   -15372   -15466 
  -15603   -15752   -15833   -15809   -15729   -15640   -15566   -15484 
  -15364   -15250   -15175   -15124   -15083   -15010   -14880   -14742 
  -14601   -14439   -14289   -14159   -14024   -13884   -13764   -13691 
  -13654   -13608   -13557   -13547   -13570   -13575   -13550   -13550 
  -13619   -13746   -13888   -14010   -14097   -14169   -14260   -14375 
  -14472   -14546   -14635   -14749   -14878   -14997   -15054   -15077 
  -15161   -15324   -15484   -15600   -15690   -15764   -15857   -15991 
  -16073   -16030   -15932   -15839   -15754   -15732   -15787   -15797 
  -15715   -15605   -15489   -15411   -15415   -15405   -15324   -15222 
  -15105   -14982   -14864   -14700   -14522   -14413   -14333   -14235 
  -14098   -13906   -13706   -13551   -13437   -13359   -13300   -13214 
  -13085   -12948   -12834   -12750   -12663   -12512   -12338   -12211 
  -12128   -12111   -12148   -12169   -12164   -12115   -12040   -12006 
  -12001   -11970   -11893   -11801   -11761   -11784   -11819   -11808 
  -11750   -11723   -11770   -11835   -11868   -11877   -11881   -11873 
  -11870   -11890   -11909   -11932   -11993   -12097   -12238   -12403 
  -12580   -12766   -12939   -13122   -13362   -13599   -13791   -14004 
  -14254   -14462   -14605   -14724   -14835   -14947   -15083   -15264 
  -15480   -15706   -15924   -16116   -16278   -16418   -16530   -16616 
  -16675   -16672   -16618   -16572   -16571   -16613   -16642   -16628 
  -16613   -16598   -16555   -16512   -16474   -16421   -16358   -16270 
  -16149   -16045   -15971   -15879   -15750   -15581   -15377   -15170 
  -14987   -14819   -14671   -14552   -14436   -14317   -14209   -14072 
  -13908   -13765   -13645   -13510   -13341   -13178   -13088   -13067 
  -13062   -13048   -13008   -12956   -12950   -12994   -13014   -12952 
  -12852   -12799   -12791   -12764   -12678   -12548   -12414   -12319 
  -12286   -12287   -12282   -12269   -12256   -12257   -12271   -12254 
  -12192   -12134   -12126   -12177   -12254   -12305   -12317   -12290 
  -12216   -12118   -12041   -12003   -11982   -11963   -11971   -12016 
  -12077   -12156   -12244   -12315   -12356   -12365   -12349   -12313 
  -12269   -12233   -12204   -12186   -12178   -12174   -12201   -12257 
  -12308   -12360   -12422   -12466   -12469   -12450   -12448   -12475 
  -12501   -12498   -12487   -12502   -12541   -12582   -12613   -12637 
  -12701   -12805   -12901   -12996   -13092   -13131   -13120   -13106 
  -13105   -13126   -13162   -13204   -13275   -13355   -13391   -13388 
  -13391   -13399   -13414   -13422   -13374   -13303   -13252   -13183 
  -13120   -13085   -13024   -12944   -12884   -12878   -12945   -13048 
  -13144   -13225   -13261   -13247   -13226   -13249   -13335   -13464 
  -13581   -13636   -13628   -13593   -13581   -13609   -13646   -13654 
  -13616   -13539   -13448   -13381   -13343   -13310   -13277   -13260 
  -13237   -13187   -13120   -13037   -12947   -12883   -12841   -12789 
  -12724   -12652   -12561   -12466   -12412   -12405   -12414   -12426 
  -12432   -12412   -12387   -12398   -12456   -12551   -12653   -12737 
  -12835   -12980   -13150   -13310   -13449   -13554   -13609   -13649 
  -13732   -13836   -13919   -14006   -14105   -14195   -14277   -14348 
  -14396   -14423   -14453   -14499   -14518   -14485   -14441   -14411 
  -14369   -14327   -14328   -14370   -14420   -14466   -14500   -14519 
  -14567   -14664   -14748   -14784   -14805   -14834   -14877   -14929 
  -14967   -15008   -15061   -15077   -15079   -15133   -15205   -15273 
  -15343   -15358   -15333   -15320   -15327   -15379   -15438   -15467 
  -15506   -15533   -15545   -15581   -15614   -15612   -15590   -15560 
  -15528   -15513   -15511   -15507   -15522   -15539   -15526   -15487 
  -15419   -15315   -15173   -15022   -14927   -14883   -14833   -14756 
  -14660   -14562   -14490   -14467   -14494   -14536   -14551   -14523 
  -14463   -14399   -14346   -14323   -14360   -14447   -14546   -14647 
  -14769   -14909   -15024   -15094   -15142   -15191   -15264   -15369 
  -15481   -15587   -15679   -15746   -15814   -15902   -16019   -16156 
  -16276   -16348   -16368   -16375   -16438   -16528   -16561   -16544 
  -16508   -16453   -16407   -16379   -16348   -16316   -16280   -16224 
  -16138   -16011   -15857   -15720   -15632   -15579   -15533   -15494 
  -15472   -15449   -15404   -15362   -15343   -15335   -15298   -15211 
  -15111   -15036   -14989   -14968   -14968   -14980   -15006   -15002 
  -14942   -14891   -14886   -14905   -14916   -14877   -14824   -14825 
  -14843   -14846   -14847   -14832   -14797   -14750   -14715   -14737 
  -14781   -14771   -14743   -14748   -14768   -14793   -14816   -14795 
  -14731   -14681   -14646   -14598   -14548   -14490   -14421   -14384 
  -14363   -14328   -14308   -14328   -14356   -14366   -14360   -14339 
  -14293   -14231   -14156   -14088   -14035   -13974   -13918   -13895 
  -13891   -13890   -13903   -13954   -14025   -14048   -13980   -13844 
  -13705   -13622   -13591   -13575   -13552   -13520   -13506   -13528 
  -13568   -13596   -13602   -13575   -13504   -13412   -13340   -13310 
  -13312   -13326   -13329   -13320   -13321   -13332   -13331   -13330 
  -13355   -13401   -13449   -13476   -13467   -13432   -13394   -13362 
  -13333   -13315   -13309   -13299   -13276   -13239   -13191   -13161 
  -13149   -13124   -13084   -13040   -12992   -12951   -12938   -12958 
  -12968   -12931   -12864   -12803   -12758   -12733   -12723   -12716 
  -12684   -12600   -12483   -12389   -12325   -12269   -12219   -12151 
  -12066   -12025   -12015   -12004   -12034   -12072   -12077   -12091 
  -12110   -12099   -12084   -12089   -12116   -12168   -12247   -12336 
  -12413   -12487   -12596   -12731   -12854   -12949   -13016   -13071 
  -13162   -13321   -13529   -13786   -14079   -14345   -14560   -14753 
  -14920   -15079   -15278   -15507   -15729   -15955   -16179   -16371 
  -16551   -16723   -16840   -16892   -16914   -16919   -16924   -16927 
  -16889   -16817   -16768   -16771   -16781   -16737   -16657   -16590 
  -16533   -16462   -16359   -16237   -16146   -16080   -16008   -15939 
  -15869   -15764   -15641   -15535   -15427   -15308   -15218   -15179 
  -15160   -15145   -15126   -15108   -15128   -15166   -15156   -15104 
  -15046   -14987   -14951   -14960   -14990   -15010   -15020   -15022 
  -15030   -15070   -15126   -15167   -15200   -15221   -15230   -15277 
  -15375   -15487   -15590   -15681   -15747   -15772   -15761   -15735 
  -15737   -15797   -15879   -15914   -15888   -15839   -15802   -15805 
  -15859   -15975   -16137   -16274   -16329   -16311   -16290   -16311 
  -16344   -16361   -16386   -16442   -16522   -16617   -16717   -16812 
  -16871   -16881   -16862   -16852   -16857   -16846   -16830   -16858 
  -16942   -17080   -17268   -17464   -17596   -17621   -17572   -17531 
  -17540   -17585   -17651   -17720   -17772   -17821   -17855   -17833 
  -17742   -17604   -17440   -17276   -17119   -16959   -16791   -16613 
  -16432   -16276   -16148   -16011   -15839   -15639   -15451   -15294 
  -15163   -15075   -15038   -15015   -14960   -14837   -14650   -14446 
  -14289   -14219   -14248   -14363   -14527   -14695   -14844   -14966 
  -15044   -15092   -15129   -15131   -15097   -15084   -15145   -15293 
  -15505   -15732   -15950   -16161   -16351   -16486   -16550   -16540 
  -16439   -16275   -16149   -16122   -16159   -16212   -16273   -16318 
  -16333   -16364   -16437   -16533   -16642   -16742   -16804   -16830 
  -16809   -16695   -16479   -16211   -15939   -15679   -15456   -15313 
  -15269   -15303   -15375   -15451   -15491   -15460   -15346   -15152 
  -14920   -14691   -14485   -14361   -14332   -14327   -14329   -14369 
  -14420   -14458   -14492   -14511   -14490   -14426   -14330   -14217 
  -14094   -13945   -13778   -13613   -13447   -13287   -13157   -13077 
  -13062   -13114   -13209   -13303   -13347   -13330   -13277   -13211 
  -13147   -13120   -13151   -13217   -13274   -13314   -13355   -13397 
  -13458   -13570   -13726   -13886   -14004   -14079   -14180   -14363 
  -14595   -14816   -15020   -15227   -15433   -15636   -15853   -16092 
  -16335   -16543   -16701   -16833   -16949   -17037   -17100   -17153 
  -17216   -17274   -17332   -17408   -17455   -17439   -17392   -17328 
  -17267   -17231   -17187   -17103   -16979   -16823   -16682   -16631 
  -16649   -16641   -16597   -16584   -16608   -16630   -16608   -16527 
  -16386   -16168   -15913   -15676   -15445   -15261   -15163   -15105 
  -15089   -15124   -15128   -15077   -15024   -14984   -14967   -14992 
  -15002   -14921   -14761   -14575   -14404   -14283   -14221   -14196 
  -14190   -14207   -14266   -14372   -14506   -14635   -14707   -14693 
  -14606   -14486   -14376   -14319   -14344   -14444   -14599   -14800 
  -15028   -15238   -15374   -15416   -15396   -15366   -15358   -15372 
  -15394   -15429   -15488   -15548   -15603   -15663   -15705   -15723 
  -15723   -15688   -15599   -15468   -15340   -15267   -15266   -15312 
  -15361   -15399   -15440   -15463   -15439   -15398   -15384   -15381 
  -15364   -15346   -15342   -15332   -15274   -15155   -15006   -14841 
  -14660   -14493   -14370   -14276   -14179   -14080   -13997   -13939 
  -13908   -13893   -13867   -13817   -13762   -13715   -13678   -13657 
  -13641   -13618   -13612   -13633   -13636   -13593   -13565   -13614 
  -13725   -13854   -13976   -14099   -14218   -14299   -14345   -14370 
  -14369   -14350   -14330   -14335   -14395   -14508   -14651   -14811 
  -14965   -15078   -15171   -15273   -15369   -15487   -15649   -15782 
  -15848   -15919   -16018   -16101   -16156   -16192   -16225   -16275 
  -16360   -16496   -16693   -16914   -17088   -17185   -17227   -17226 
  -17167   -17074   -17007   -16984   -16987   -17025   -17100   -17177 
  -17223   -17252   -17288   -17310   -17285   -17230   -17159   -17054 
  -16911   -16747   -16594   -16488   -16431   -16404   -16392   -16387 
  -16396   -16411   -16409   -16401   -16411   -16418   -16369   -16257 
  -16127   -15990   -15846   -15728   -15630   -15515   -15404   -15332 
  -15300   -15302   -15308   -15295   -15271   -15255   -15248   -15259 
  -15293   -15320   -15331   -15353   -15391   -15442   -15515   -15617 
  -15750   -15870   -15950   -16014   -16045   -16049   -16056   -16035 
  -15997   -16006   -16036   -16030   -16010   -15984   -15920   -15860 
  -15825   -15773   -15736   -15747   -15794   -15877   -15967   -16038 
  -16090   -16093   -16054   -16038   -16056   -16061   -16021   -15921 
  -15779   -15654   -15585   -15574   -15616   -15669   -15669   -15591 
  -15450   -15290   -15163   -15090   -15055   -15032   -15019   -15014 
  -15004   -14976   -14921   -14818   -14660   -14496   -14371   -14265 
  -14159   -14084   -14055   -14055   -14072   -14097   -14114   -14113 
  -14091   -14056   -14026   -14015   -14008   -14004   -14038   -14116 
  -14214   -14319   -14411   -14478   -14516   -14515   -14488   -14451 
  -14408   -14372   -14362   -14355   -14315   -14255   -14210   -14188 
  -14189   -14206   -14228   -14238   -14205   -14119   -14022   -13938 
  -13882   -13880   -13918   -13959   -13990   -14021   -14076   -14166 
  -14249   -14284   -14293   -14305   -14303   -14292   -14308   -14352 
  -14407   -14475   -14554   -14612   -14633   -14648   -14686   -14754 
  -14831   -14890   -14925   -14939   -14933   -14915   -14910   -14935 
  -14972   -14993   -14993   -14971   -14913   -14835   -14778   -14764 
  -14797   -14879   -15003   -15154   -15288   -15373   -15418   -15434 
  -15406   -15347   -15299   -15282   -15270   -15230   -15161   -15097 
  -15063   -15051   -15049   -15043   -15000   -14940   -14921   -14943 
  -14962   -14976   -15011   -15070   -15130   -15183   -15234   -15285 
  -15342   -15410   -15487   -15556   -15591   -15601   -15614   -15631 
  -15634   -15621   -15601   -15580   -15566   -15573   -15594   -15636 
  -15729   -15846   -15950   -16059   -16166   -16238   -16302   -16391 
  -16480   -16543   -16582   -16600   -16599   -16590   -16584   -16595 
  -16636   -16688   -16746   -16843   -16987   -17144   -17275   -17364 
  -17406   -17397   -17363   -17334   -17277   -17182   -17113   -17079 
  -17058   -17056   -17077   -17112   -17157   -17202   -17229   -17219 
  -17168   -17096   -17017   -16926   -16839   -16788   -16771   -16777 
  -16824   -16913   -17009   -17081   -17107   -17093   -17071   -17036 
  -16972   -16899   -16825   -16745   -16685   -16665   -16656   -16644 
  -16636   -16637   -16663   -16697   -16692   -16646   -16601   -16593 
  -16624   -16663   -16669   -16635   -16585   -16546   -16535   -16548 
  -16572   -16594   -16624   -16690   -16772   -16829   -16853   -16863 
