Origin Time       2011/03/11 14:46:00
Lat.              38.103
Long.             142.860
Depth. (km)       24
Mag.              9.0
Station Code      FKI005
Station Lat.      35.9068
Station Long.     136.1748
Station Height(m) 31
Record Time       2011/03/11 14:49:35
Sampling Freq(Hz) 100Hz
Duration Time(s)  131
Dir.              U-D
Scale Factor      3920(gal)/6182761
Max. Acc. (gal)   1.613
Last Correction   2011/03/11 14:49:20
Memo.             
[...]
    7070     7092     7128     7183     7215     7232     7263     7297 
    7343     7410     7467     7512     7561     7622     7701     7794 
    7882     7953     8000     8028     8034     8020     8018     8040 
    8050     8017     7948     7874     7818     7761     7695     7644 
    7603     7565     7538     7509     7507     7566     7634     7670 
    7707     7759     7814     7868     7904     7910     7910     7904 
    7870     7835     7846     7881     7896     7904     7922     7945 
    7978     8001     7976     7900     7807     7723     7642     7568 
    7528     7517     7493     7424     7342     7311     7331     7366 
    7422     7495     7560     7637     7754     7891     8014     8104 
    8173     8260     8378     8506     8639     8760     8831     8854 
    8875     8910     8956     8997     9011     9014     9003     8967 
    8940     8931     8932     8954     8969     8978     9018     9049 
    9019     8951     8878     8810     8746     8689     8659     8664 
    8665     8639     8615     8620     8627     8606     8581     8585 
    8609     8629     8655     8710     8774     8800     8802     8791 
    8766     8763     8776     8776     8758     8714     8664     8646 
    8638     8606     8560     8521     8500     8486     8471     8469 
    8482     8481     8450     8410     8354     8261     8152     8050 
    7962     7892     7833     7780     7758     7751     7736     7754 
    7812     7859     7866     7846     7852     7890     7872     7803 
    7782     7792     7742     7645     7573     7512     7425     7344 
    7294     7244     7171     7106     7101     7137     7155     7182 
    7238     7278     7287     7296     7332     7391     7451     7507 
    7563     7612     7655     7705     7766     7829     7866     7875 
    7875     7878     7894     7931     7979     8028     8053     8036 
    8000     7977     7966     7955     7958     8001     8061     8093 
    8113     8151     8201     8263     8344     8426     8493     8538 
    8568     8582     8571     8521     8457     8424     8424     8412 
    8369     8333     8341     8362     8341     8275     8207     8146 
    8065     7957     7849     7761     7690     7649     7648     7668 
    7697     7730     7764     7811     7858     7888     7912     7943 
    7991     8033     8036     8015     8001     7991     7959     7901 
    7850     7819     7808     7811     7811     7786     7742     7699 
    7674     7694     7758     7827     7864     7862     7851     7863 
    7903     7964     8034     8097     8132     8116     8063     8003 
    7940     7875     7817     7748     7649     7540     7459     7415 
    7417     7455     7483     7498     7543     7612     7649     7629 
    7617     7656     7681     7660     7668     7726     7780     7829 
    7905     8001     8087     8144     8168     8168     8157     8162 
    8183     8198     8202     8202     8213     8219     8203     8210 
    8250     8287     8316     8333     8324     8298     8268     8226 
    8168     8103     8041     8003     7994     7994     8000     8012 
    8020     8012     7988     7950     7905     7876     7856     7808 
    7747     7716     7700     7664     7631     7637     7660     7678 
    7722     7806     7900     7965     8010     8077     8170     8260 
    8336     8406     8467     8510     8526     8536     8576     8613 
    8608     8598     8621     8640     8615     8572     8528     8475 
    8416     8345     8278     8257     8279     8301     8302     8308 
    8350     8394     8404     8406     8412     8407     8409     8418 
    8422     8453     8500     8525     8548     8609     8702     8775 
    8800     8812     8827     8820     8818     8833     8829     8817 
    8799     8755     8706     8663     8615     8568     8525     8490 
    8472     8459     8438     8433     8461     8497     8534     8586 
    8641     8681     8707     8717     8696     8647     8607     8590 
    8573     8531     8463     8387     8311     8235     8165     8122 
    8124     8147     8169     8187     8204     8229     8261     8288 
    8315     8340     8356     8361     8356     8357     8371     8386 
    8393     8361     8285     8192     8083     7964     7846     7731 
    7648     7613     7598     7606     7654     7717     7779     7858 
    7944     8008     8052     8087     8125     8160     8176     8197 
    8252     8322     8387     8443     8499     8570     8652     8731 
    8808     8877     8921     8938     8935     8916     8881     8811 
    8701     8582     8474     8357     8211     8062     7944     7851 
    7758     7680     7652     7658     7666     7679     7707     7740 
    7774     7832     7928     8032     8134     8238     8318     8371 
    8446     8545     8616     8630     8628     8627     8577     8460 
    8336     8243     8144     8023     7927     7874     7830     7785 
    7757     7750     7763     7794     7834     7890     7963     8029 
    8087     8194     8362     8551     8720     8886     9078     9238 
    9304     9335     9416     9506     9527     9514     9523     9512 
    9470     9425     9347     9238     9125     9018     8909     8785 
    8679     8633     8584     8483     8371     8275     8202     8159 
    8136     8124     8137     8185     8254     8346     8466     8580 
    8652     8689     8712     8736     8766     8781     8768     8727 
    8665     8595     8511     8395     8261     8135     8022     7891 
    7760     7659     7565     7493     7467     7446     7383     7321 
    7303     7305     7288     7269     7296     7344     7361     7379 
    7446     7557     7683     7798     7881     7951     8027     8088 
    8138     8197     8239     8247     8237     8221     8212     8201 
    8175     8148     8125     8101     8074     8041     8016     8025 
    8050     8085     8143     8213     8282     8348     8416     8483 
    8539     8588     8623     8626     8605     8561     8511     8508 
    8517     8481     8453     8480     8482     8406     8327     8302 
    8270     8189     8117     8072     8011     7934     7894     7898 
    7910     7934     7988     8057     8112     8167     8208     8203 
    8175     8136     8081     8014     7941     7883     7850     7810 
    7777     7792     7828     7847     7850     7851     7830     7781 
    7725     7666     7597     7530     7485     7443     7397     7371 
    7360     7360     7400     7471     7531     7590     7676     7756 
    7817     7887     7949     7988     8029     8068     8087     8107 
    8137     8146     8128     8093     8038     7974     7918     7876 
    7846     7829     7820     7818     7811     7796     7787     7790 
    7806     7831     7865     7904     7927     7927     7919     7907 
    7884     7856     7841     7831     7825     7845     7891     7952 
    8025     8103     8189     8265     8337     8417     8469     8508 
    8597     8715     8792     8804     8803     8832     8832     8786 
    8746     8702     8650     8625     8621     8631     8674     8754 
    8876     9009     9114     9213     9318     9405     9457     9482 
    9503     9532     9557     9562     9548     9509     9448     9383 
    9326     9252     9159     9070     8986     8889     8796     8731 
    8664     8578     8495     8434     8384     8302     8185     8075 
    7971     7863     7775     7732     7733     7729     7726     7756 
    7786     7794     7817     7878     7935     7971     8011     8050 
    8072     8086     8090     8088     8095     8092     8041     7978 
    7961     7975     7977     7965     7963     7961     7947     7918 
    7853     7788     7776     7793     7792     7777     7760     7729 
    7684     7633     7558     7454     7363     7299     7249     7230 
    7246     7276     7315     7352     7377     7410     7452     7473 
    7481     7486     7482     7468     7443     7408     7377     7343 
    7288     7218     7155     7114     7079     7052     7047     7065 
    7099     7124     7147     7192     7225     7218     7213     7237 
    7271     7293     7311     7335     7326     7271     7209     7150 
    7053     6929     6832     6778     6746     6730     6743     6802 
    6891     6978     7077     7183     7274     7387     7510     7578 
    7616     7684     7748     7764     7764     7786     7814     7811 
    7787     7799     7848     7868     7867     7882     7894     7888 
    7875     7842     7770     7671     7573     7492     7410     7299 
    7169     7048     6927     6799     6679     6585     6521     6465 
    6413     6401     6423     6436     6459     6525     6622     6729 
    6828     6917     7005     7097     7189     7256     7303     7362 
    7442     7534     7621     7697     7771     7825     7845     7878 
    7942     8003     8041     8077     8140     8204     8236     8243 
    8240     8209     8159     8093     8003     7906     7807     7702 
    7608     7534     7480     7465     7461     7436     7409     7392 
    7386     7394     7417     7447     7461     7460     7461     7453 
    7423     7397     7401     7433     7468     7536     7634     7714 
    7795     7876     7940     8018     8080     8090     8072     8046 
    8011     7954     7865     7766     7697     7648     7587     7539 
    7510     7467     7416     7366     7339     7351     7383     7419 
    7471     7547     7620     7665     7696     7744     7817     7887 
    7941     7981     8001     8008     7996     7944     7865     7775 
    7693     7623     7528     7416     7334     7263     7161     7043 
    6928     6847     6801     6750     6729     6747     6752     6739 
    6728     6746     6795     6852     6914     6970     7032     7117 
    7174     7190     7202     7217     7233     7238     7235     7225 
    7179     7106     7029     6926     6826     6753     6655     6561 
    6490     6401     6327     6273     6220     6220     6259     6271 
    6250     6216     6202     6195     6161     6121     6074     5989 
    5955     6013     6048     6052     6039     5999     5985     5964 
    5943     5925     5896     5906     5892     5881     5909     5893 
    5893     5922     5952     5998     6034     6100     6199     6284 
    6377     6474     6544     6606     6659     6688     6719     6764 
    6788     6761     6707     6659     6614     6583     6570     6551 
    6520     6466     6388     6325     6286     6270     6259     6242 
    6254     6308     6382     6449     6506     6572     6641     6725 
    6822     6890     6944     7010     7070     7111     7131     7157 
    7219     7291     7324     7329     7321     7288     7228     7142 
    7057     7001     6946     6863     6777     6693     6619     6562 
    6504     6475     6485     6500     6525     6555     6585     6622 
    6638     6646     6672     6706     6742     6769     6810     6871 
    6916     6924     6908     6911     6930     6940     6933     6902 
    6890     6911     6923     6908     6891     6879     6868     6881 
    6906     6925     6939     6947     6937     6921     6920     6931 
    6953     6970     6970     6967     6960     6944     6935     6946 
    6965     6972     6979     6997     7002     6970     6914     6863 
    6821     6770     6726     6700     6683     6665     6635     6606 
    6599     6622     6670     6735     6806     6875     6950     7040 
    7120     7174     7228     7293     7349     7400     7455     7500 
    7536     7577     7598     7586     7553     7502     7442     7375 
    7285     7186     7111     7040     6952     6885     6865     6833 
    6785     6770     6764     6747     6706     6642     6590     6530 
    6448     6387     6337     6282     6249     6242     6241     6214 
    6171     6155     6154     6138     6113     6099     6096     6092 
    6084     6087     6111     6144     6164     6163     6157     6143 
    6105     6056     6018     5996     5971     5926     5869     5831 
    5820     5813     5819     5884     5994     6092     6213     6355 
    6422     6455     6506     6515     6507     6486     6431     6409 
    6379     6318     6298     6262     6186     6126     6052     5975 
    5918     5844     5803     5820     5817     5800     5820     5859 
    5899     5931     5970     6031     6079     6103     6124     6148 
    6165     6157     6123     6090     6078     6075     6055     6011 
    5971     5945     5923     5909     5900     5879     5827     5788 
    5775     5741     5716     5694     5651     5630     5596     5589 
    5665     5712     5752     5838     5935     6062     6177     6251 
    6339     6439     6528     6608     6665     6708     6756     6783 
    6781     6790     6803     6789     6772     6768     6777     6812 
    6862     6909     6970     7053     7121     7139     7128     7128 
    7116     7094     7094     7080     7065     7060     7026     7018 
    7022     6942     6869     6867     6810     6706     6648     6624 
    6614     6581     6524     6522     6543     6513     6455     6387 
    6297     6184     6067     5961     5880     5849     5867     5897 
    5929     5965     6011     6078     6125     6136     6154     6199 
    6252     6293     6320     6340     6359     6368     6369     6364 
    6336     6291     6232     6159     6089     6022     5956     5875 
    5759     5674     5620     5499     5396     5362     5336     5341 
    5327     5302     5351     5409     5452     5532     5603     5681 
    5805     5916     6017     6139     6276     6411     6531     6651 
    6773     6855     6890     6905     6910     6891     6857     6832 
    6810     6779     6735     6682     6645     6618     6591     6573 
    6559     6547     6554     6568     6556     6536     6552     6588 
    6589     6564     6557     6564     6534     6441     6342     6275 
    6214     6130     6023     5929     5851     5774     5719     5693 
    5681     5681     5685     5704     5729     5732     5726     5723 
    5715     5696     5696     5739     5806     5874     5962     6082 
    6215     6354     6486     6599     6695     6781     6862     6940 
    7030     7136     7229     7307     7428     7582     7668     7704 
    7806     7919     7935     7942     7992     8023     8035     8009 
    7945     7908     7887     7848     7825     7819     7794     7759 
    7718     7652     7578     7514     7454     7401     7337     7246 
    7148     7065     7009     6967     6921     6877     6860     6864 
    6863     6841     6817     6828     6848     6840     6812     6812 
    6854     6911     6956     6958     6942     6995     7080     7068 
    7049     7144     7213     7183     7201     7281     7343     7411 
    7497     7573     7646     7712     7770     7823     7863     7881 
    7882     7866     7848     7837     7815     7772     7709     7636 
    7551     7461     7391     7339     7284     7235     7187     7121 
    7072     7057     7046     7019     6999     7008     7041     7110 
    7217     7326     7432     7564     7705     7806     7869     7956 
    8053     8058     8031     8047     8030     7989     7952     7859 
    7773     7732     7636     7516     7442     7382     7315     7237 
    7168     7125     7083     7043     7030     7031     7036     7058 
    7086     7096     7073     7068     7120     7168     7197     7252 
    7310     7352     7383     7392     7377     7349     7342     7348 
    7333     7324     7345     7368     7383     7385     7379     7410 
    7455     7461     7480     7533     7594     7685     7755     7765 
    7809     7913     7981     7988     7999     8052     8116     8157 
    8172     8178     8189     8215     8249     8273     8290     8302 
    8304     8315     8345     8372     8386     8391     8399     8410 
    8419     8436     8454     8472     8500     8525     8535     8540 
    8559     8581     8590     8600     8633     8667     8658     8631 
    8636     8623     8574     8584     8545     8447     8512     8587 
    8514     8502     8569     8602     8620     8628     8650     8706 
    8737     8745     8776     8817     8845     8884     8932     8979 
    9038     9091     9113     9118     9143     9194     9230     9234 
    9244     9260     9262     9269     9286     9315     9349     9366 
    9359     9330     9296     9268     9221     9167     9121     9057 
    8976     8911     8901     8887     8795     8754     8791     8702 
    8580     8584     8553     8502     8495     8457     8455     8478 
    8492     8527     8519     8515     8556     8574     8589     8636 
    8707     8776     8822     8858     8879     8870     8864     8881 
    8905     8929     8949     8958     8962     8979     9017     9056 
    9087     9119     9157     9208     9272     9325     9373     9427 
    9465     9475     9478     9491     9494     9494     9497     9474 
    9410     9335     9329     9342     9212     9097     9120     9066 
    8962     8911     8864     8873     8861     8780     8756     8754 
    8711     8688     8691     8672     8635     8610     8576     8544 
    8545     8557     8571     8595     8615     8635     8660     8676 
    8690     8696     8680     8667     8666     8664     8672     8703 
    8741     8762     8763     8768     8782     8782     8766     8747 
    8752     8743     8644     8582     8678     8693     8583     8623 
    8685     8668     8765     8825     8772     8793     8829     8800 
    8784     8799     8805     8825     8871     8895     8918     8975 
    9024     9055     9096     9151     9200     9233     9247     9242 
    9216     9169     9106     9045     8992     8938     8888     8846 
    8788     8716     8654     8599     8539     8486     8445     8404 
    8351     8307     8300     8311     8269     8195     8199     8230 
    8167     8068     7999     7958     7947     7932     7904     7887 
    7921     7993     8003     7999     8065     8117     8115     8144 
    8204     8241     8273     8318     8350     8366     8384     8417 
    8463     8509     8544     8588     8645     8695     8745     8804 
    8858     8900     8929     8950     8950     8936     8934     8937 
    8942     8940     8934     8951     8970     8994     9059     9107 
    9119     9193     9274     9292     9383     9469     9429     9488 
    9605     9563     9552     9620     9582     9551     9593     9584 
    9553     9545     9503     9430     9369     9318     9263     9230 
    9221     9216     9218     9225     9240     9262     9280     9295 
    9323     9377     9438     9470     9498     9566     9652     9721 
    9785     9863     9957    10049    10111    10134    10140    10145 
   10141    10096    10002     9935     9945     9891     9656     9569 
    9752     9632     9352     9507     9549     9323     9410     9456 
    9299     9295     9306     9287     9316     9324     9343     9362 
    9384     9423     9427     9441     9483     9499     9498     9479 
    9447     9423     9370     9292     9231     9156     9049     8942 
    8843     8736     8635     8551     8479     8419     8368     8316 
    8267     8273     8338     8326     8288     8396     8507     8552 
    8670     8776     8828     8921     9031     9125     9185     9205 
