Origin Time       2011/03/11 14:46:00
Lat.              38.103
Long.             142.860
Depth. (km)       24
Mag.              9.0
Station Code      FKI007
Station Lat.      35.6448
Station Long.     136.0575
Station Height(m) 4
Record Time       2011/03/11 14:49:04
Sampling Freq(Hz) 100Hz
Duration Time(s)  180
Dir.              E-W
Scale Factor      3920(gal)/6182761
Max. Acc. (gal)   6.917
Last Correction   2011/03/11 14:48:49
Memo.             
[...]
   -8748    -8451    -8138    -7840    -7516    -7181    -6936    -6851 
   -6913    -7103    -7453    -7983    -8640    -9305    -9882   -10374 
  -10805   -11118   -11259   -11294   -11315   -11326   -11298   -11200 
  -11064   -10980   -10949   -10929   -10949   -11051   -11248   -11487 
  -11705   -11915   -12140   -12359   -12493   -12523   -12516   -12480 
  -12368   -12132   -11776   -11398   -11055   -10701   -10331   -10009 
   -9775    -9609    -9470    -9319    -9164    -9046    -8924    -8736 
   -8529    -8383    -8314    -8288    -8288    -8353    -8517    -8750 
   -9004    -9247    -9475    -9691    -9852    -9910    -9873    -9771 
   -9613    -9376    -9069    -8762    -8519    -8315    -8081    -7799 
   -7499    -7207    -6893    -6516    -6097    -5684    -5302    -4947 
   -4630    -4403    -4305    -4316    -4404    -4584    -4886    -5295 
   -5773    -6298    -6881    -7547    -8237    -8859    -9400    -9866 
  -10252   -10552   -10751   -10916   -11149   -11410   -11589   -11726 
  -11910   -12134   -12332   -12444   -12470   -12431   -12310   -12123 
  -11932   -11791   -11736   -11768   -11859   -12024   -12296   -12632 
  -12948   -13235   -13522   -13803   -14065   -14293   -14494   -14684 
  -14826   -14881   -14876   -14835   -14738   -14544   -14249   -13896 
  -13501   -13021   -12423   -11760   -11094   -10446    -9815    -9218 
   -8701    -8291    -7948    -7669    -7533    -7585    -7790    -8070 
   -8353    -8647    -8949    -9162    -9300    -9466    -9575    -9504 
   -9315    -8986    -8449    -7891    -7480    -7151    -6900    -6734 
   -6550    -6363    -6243    -6143    -6019    -5879    -5738    -5685 
   -5791    -5917    -5876    -5715    -5616    -5593    -5589    -5645 
   -5794    -6048    -6428    -6938    -7564    -8252    -8910    -9491 
  -10041   -10563   -10984   -11258   -11398   -11459   -11476   -11442 
  -11407   -11465   -11569   -11615   -11650   -11664   -11556   -11428 
  -11427   -11507   -11553   -11538   -11506   -11592   -11929   -12335 
  -12507   -12404   -12184   -12074   -12157   -12470   -12993   -13212 
  -12813   -12168   -11612   -11345   -11452   -11688   -11737   -11429 
  -10827   -10178    -9753    -9643    -9681    -9716    -9735    -9759 
   -9839   -10027   -10313   -10583   -10729   -10821   -10943   -11082 
  -11251   -11489   -11806   -12075   -12208   -12347   -12500   -12545 
  -12522   -12480   -12440   -12367   -12074   -11434   -10563    -9693 
   -8977    -8522    -8437    -8465    -8029    -7091    -6204    -5792 
   -5939    -6480    -7052    -7354    -7364    -7207    -7120    -7314 
   -7686    -8072    -8426    -8751    -9131    -9633   -10232   -10882 
  -11526   -12108   -12622   -13068   -13418   -13703   -13933   -13985 
  -13791   -13447   -13032   -12534   -11902   -11129   -10302    -9470 
   -8672    -7999    -7463    -7020    -6655    -6362    -6185    -6159 
   -6273    -6488    -6707    -6848    -6879    -6748    -6451    -6051 
   -5558    -4979    -4397    -3908    -3549    -3289    -3095    -2988 
   -3015    -3209    -3599    -4161    -4850    -5639    -6478    -7338 
   -8253    -9241   -10250   -11223   -12157   -13043   -13845   -14569 
  -15240   -15850   -16377   -16780   -17022   -17176   -17318   -17400 
  -17404   -17368   -17261   -17052   -16735   -16309   -15830   -15344 
  -14814   -14225   -13622   -13028   -12422   -11831   -11341   -10913 
  -10441    -9969    -9649    -9505    -9327    -8929    -8418    -8148 
   -8518    -9453   -10268   -10434    -9910    -9022    -8518    -8881 
   -9524    -9899   -10102    -9799    -9055    -8408    -7801    -7877 
   -8886    -9731   -10417   -11060   -11090   -10947   -10968   -11027 
  -11327   -11578   -11373   -10882   -10290    -9680    -9119    -8479 
   -7660    -6877    -6294    -5755    -5208    -4777    -4480    -4255 
   -4028    -3854    -3765    -3564    -3230    -2946    -2878    -3303 
   -4256    -5233    -5650    -5391    -4932    -5022    -6081    -7650 
   -9175   -10676   -11711   -12010   -12164   -12267   -12722   -14008 
  -15220   -16024   -16618   -16653   -16600   -16898   -17193   -17536 
  -17950   -18197   -18314   -18291   -18115   -17896   -17504   -16817 
  -16069   -15534   -15227   -14912   -14343   -13598   -12952   -12448 
  -11996   -11572   -11087   -10496    -9915    -9413    -8979    -8606 
   -8271    -7977    -7854    -8004    -8354    -8741    -8983    -9050 
   -9023    -8892    -8697    -8488    -8219    -7841    -7280    -6579 
   -5927    -5404    -5019    -4758    -4639    -4735    -4908    -5092 
   -5378    -5567    -5531    -5418    -5340    -5392    -5499    -5464 
   -5278    -5040    -4795    -4631    -4606    -4541    -4332    -4237 
   -4448    -4913    -5528    -6106    -6636    -7306    -7963    -8511 
   -9107    -9629   -10125   -10752   -11357   -11947   -12549   -13088 
  -13639   -14163   -14640   -15172   -15626   -15820   -15822   -15686 
  -15410   -15127   -14898   -14656   -14325   -13874   -13389   -12945 
  -12515   -12046   -11519   -10970   -10529   -10278   -10111    -9923 
   -9707    -9468    -9271    -9207    -9238    -9226    -9091    -8970 
   -9054    -9338    -9709   -10024   -10409   -10973   -11460   -11925 
  -12462   -12915   -13373   -13793   -13972   -13983   -13971   -13950 
  -13904   -13792   -13650   -13612   -13638   -13611   -13574   -13535 
  -13459   -13358   -13175   -12907   -12494   -11888   -11223   -10522 
   -9786    -9051    -8260    -7492    -6850    -6307    -5894    -5586 
   -5327    -5183    -5150    -5194    -5329    -5466    -5558    -5669 
   -5791    -5894    -5969    -6051    -6196    -6297    -6457    -6887 
   -7350    -7746    -8229    -8705    -9224    -9809   -10230   -10554 
  -10772   -10710   -10571   -10367    -9943    -9495    -9043    -8512 
   -8022    -7598    -7247    -6958    -6718    -6530    -6415    -6524 
   -6801    -7084    -7436    -7880    -8303    -8593    -8743    -8831 
   -8878    -8871    -8817    -8778    -8801    -8877    -9011    -9157 
   -9350    -9623    -9765    -9787   -10005   -10344   -10545   -10647 
  -10804   -11146   -11594   -11888   -12116   -12433   -12623   -12684 
  -12832   -13018   -13223   -13440   -13537   -13541   -13497   -13331 
  -13037   -12667   -12229   -11689   -11092   -10504    -9949    -9466 
   -9019    -8576    -8216    -7977    -7877    -7900    -8038    -8379 
   -8883    -9386    -9859   -10330   -10735   -11008   -11196   -11320 
  -11330   -11246   -11130   -11054   -11138   -11399   -11729   -12082 
  -12523   -13051   -13574   -14061   -14532   -14954   -15281   -15437 
  -15375   -15208   -14977   -14557   -13968   -13361   -12777   -12186 
  -11662   -11271   -10943   -10600   -10242    -9898    -9570    -9222 
   -8842    -8412    -7935    -7436    -6892    -6315    -5771    -5300 
   -4911    -4598    -4372    -4313    -4476    -4831    -5359    -6089 
   -6982    -7924    -8878    -9841   -10773   -11603   -12234   -12644 
  -12835   -12775   -12569   -12317   -11987   -11621   -11263   -10940 
  -10811   -10655    -9988    -9274    -9229    -9425    -9352    -9283 
   -9295    -9104    -8812    -8669    -8558    -8501    -8644    -8773 
   -8788    -8795    -8894    -9181    -9484    -9675    -9927   -10222 
  -10386   -10426   -10388   -10255   -10029    -9768    -9529    -9319 
   -9181    -9158    -9213    -9356    -9647   -10090   -10641   -11257 
  -11931   -12561   -13076   -13548   -13704   -13414   -13340   -13635 
  -13716   -13670   -13796   -13789   -13512   -13254   -12996   -12574 
  -12231   -12022   -11738   -11447   -11226   -11097   -11031   -10895 
  -10774   -10774   -10745   -10593   -10437   -10315   -10147    -9877 
   -9495    -9059    -8569    -8035    -7513    -6955    -6395    -5862 
   -5265    -4696    -4203    -3702    -3201    -2651    -2044    -1535 
   -1186     -951     -817     -777     -873    -1111    -1432    -1847 
   -2349    -2861    -3387    -3954    -4569    -5228    -5908    -6600 
   -7318    -8068    -8890    -9832   -10847   -11863   -12827   -13659 
  -14354   -14948   -15416   -15755   -15992   -16120   -16133   -16012 
  -15752   -15425   -15060   -14639   -14221   -13862   -13573   -13370 
  -13217   -13118   -13098   -13116   -13162   -13194   -13155   -13091 
  -13017   -12922   -12862   -12853   -12878   -12952   -13062   -13182 
  -13319   -13458   -13570   -13670   -13757   -13813   -13855   -13882 
  -13875   -13827   -13720   -13554   -13340   -13088   -12795   -12467 
  -12140   -11816   -11462   -11114   -10829   -10582   -10325   -10056 
   -9792    -9537    -9303    -9123    -9025    -8978    -8896    -8733 
   -8504    -8252    -8017    -7780    -7512    -7286    -7155    -7113 
   -7174    -7340    -7613    -7968    -8315    -8629    -8903    -9090 
   -9185    -9220    -9216    -9164    -9040    -8880    -8742    -8623 
   -8484    -8287    -8061    -7863    -7706    -7613    -7602    -7670 
   -7801    -7981    -8247    -8598    -8938    -9179    -9298    -9322 
   -9277    -9174    -9016    -8852    -8714    -8568    -8444    -8388 
   -8432    -8577    -8749    -8949    -9226    -9576    -9975   -10364 
  -10724   -11073   -11403   -11723   -12032   -12328   -12594   -12753 
  -12793   -12768   -12686   -12535   -12323   -12082   -11838   -11585 
  -11327   -11087   -10882   -10707   -10551   -10441   -10412   -10415 
  -10368   -10294   -10278   -10330   -10373   -10372   -10341   -10295 
  -10250   -10170   -10041    -9932    -9827    -9670    -9474    -9279 
   -9124    -8999    -8889    -8828    -8793    -8729    -8637    -8512 
   -8384    -8259    -8053    -7796    -7580    -7387    -7172    -6901 
   -6583    -6273    -5959    -5651    -5432    -5332    -5362    -5516 
   -5778    -6188    -6752    -7411    -8134    -8880    -9599   -10250 
  -10786   -11206   -11539   -11773   -11911   -11997   -12079   -12171 
  -12264   -12409   -12653   -12972   -13328   -13679   -14018   -14338 
  -14555   -14639   -14623   -14502   -14235   -13763   -13087   -12292 
  -11420   -10494    -9592    -8795    -8174    -7751    -7522    -7526 
   -7759    -8164    -8672    -9228    -9783   -10272   -10657   -10927 
  -11089   -11173   -11178   -11123   -11082   -11096   -11160   -11288 
  -11531   -11896   -12292   -12649   -12959   -13209   -13389   -13479 
  -13491   -13475   -13445   -13397   -13322   -13228   -13128   -12965 
  -12712   -12408   -12065   -11673   -11241   -10818   -10400    -9961 
   -9540    -9097    -8618    -8192    -7760    -7322    -6988    -6713 
   -6500    -6385    -6312    -6305    -6349    -6401    -6472    -6556 
   -6645    -6694    -6702    -6742    -6809    -6864    -6908    -6969 
   -7088    -7303    -7639    -8112    -8746    -9481   -10196   -10859 
  -11469   -11983   -12364   -12638   -12882   -13105   -13295   -13460 
  -13587   -13661   -13671   -13591   -13420   -13169   -12847   -12470 
  -12087   -11723   -11374   -11050   -10752   -10511   -10354   -10259 
  -10214   -10232   -10328   -10508   -10764   -11074   -11423   -11771 
  -12058   -12260   -12364   -12335   -12153   -11813   -11396   -11000 
  -10610   -10226    -9874    -9524    -9176    -8810    -8406    -8024 
   -7682    -7360    -7094    -6942    -6918    -6955    -6978    -6994 
   -7040    -7108    -7139    -7110    -7093    -7117    -7159    -7250 
   -7415    -7622    -7846    -8142    -8529    -8918    -9197    -9319 
   -9425    -9604    -9742    -9812    -9864    -9950   -10090   -10182 
  -10174   -10149   -10199   -10344   -10511   -10656   -10809   -10965 
  -11101   -11282   -11553   -11811   -11958   -11988   -11959   -11951 
  -11949   -11870   -11657   -11292   -10850   -10420   -10067    -9814 
   -9563    -9270    -9018    -8846    -8725    -8595    -8390    -8108 
   -7810    -7511    -7216    -6969    -6819    -6776    -6817    -6945 
   -7154    -7414    -7714    -8042    -8408    -8832    -9284    -9743 
  -10228   -10737   -11189   -11525   -11777   -11976   -12126   -12241 
  -12362   -12527   -12704   -12867   -13037   -13237   -13494   -13760 
  -13991   -14217   -14404   -14468   -14344   -14013   -13525   -12897 
  -12134   -11326   -10564    -9882    -9309    -8863    -8557    -8402 
   -8381    -8479    -8705    -9025    -9385    -9779   -10208   -10641 
  -10998   -11222   -11320   -11298   -11156   -10920   -10641   -10333 
   -9966    -9563    -9218    -8980    -8822    -8691    -8542    -8398 
   -8297    -8165    -7912    -7558    -7139    -6619    -5985    -5305 
   -4658    -4068    -3520    -3078    -2824    -2711    -2635    -2552 
   -2541    -2734    -3086    -3403    -3674    -4079    -4696    -5448 
   -6229    -6978    -7734    -8534    -9325   -10077   -10778   -11419 
  -11993   -12505   -13010   -13519   -14001   -14456   -14896   -15313 
  -15626   -15788   -15886   -16018   -16190   -16347   -16469   -16613 
  -16843   -17133   -17369   -17474   -17434   -17270   -17005   -16630 
  -16170   -15629   -14983   -14235   -13442   -12663   -11875   -11059 
  -10264    -9547    -8924    -8358    -7872    -7522    -7280    -7146 
   -7155    -7321    -7655    -8104    -8595    -9147    -9749   -10326 
  -10862   -11358   -11800   -12189   -12495   -12703   -12835   -12865 
  -12766   -12533   -12192   -11808   -11395   -10942   -10495   -10093 
   -9737    -9412    -9122    -8906    -8741    -8553    -8332    -8091 
   -7811    -7501    -7146    -6725    -6252    -5704    -5067    -4384 
   -3681    -2976    -2277    -1600     -975     -422       46      434 
     731      896      940      884      708      424       49     -429 
    -981    -1602    -2304    -3055    -3845    -4698    -5601    -6541 
   -7469    -8325    -9118    -9832   -10436   -10969   -11445   -11858 
  -12223   -12521   -12762   -12943   -13022   -13016   -12967   -12890 
  -12784   -12633   -12459   -12291   -12098   -11885   -11708   -11601 
  -11568   -11616   -11757   -11968   -12215   -12486   -12723   -12884 
  -12969   -12965   -12896   -12784   -12652   -12525   -12400   -12306 
  -12260   -12241   -12251   -12249   -12235   -12267   -12332   -12424 
  -12577   -12775   -12958   -13032   -12974   -12837   -12606   -12259 
  -11828   -11325   -10789   -10256    -9720    -9214    -8765    -8370 
   -8008    -7645    -7292    -6957    -6616    -6275    -5958    -5680 
   -5432    -5229    -5140    -5186    -5352    -5621    -5975    -6432 
   -6986    -7570    -8138    -8669    -9138    -9492    -9724    -9895 
  -10012   -10058   -10073   -10098   -10159   -10237   -10296   -10350 
  -10409   -10488   -10577   -10649   -10736   -10834   -10909   -10966 
  -10978   -10945   -10861   -10703   -10536   -10410   -10338   -10335 
  -10411   -10600   -10881   -11179   -11465   -11716   -11938   -12136 
  -12267   -12362   -12461   -12545   -12599   -12624   -12658   -12696 
  -12698   -12678   -12651   -12620   -12590   -12558   -12539   -12533 
  -12509   -12452   -12403   -12420   -12505   -12624   -12776   -12962 
  -13184   -13420   -13623   -13765   -13815   -13711   -13427   -12996 
  -12437   -11739   -10898    -9941    -8916    -7874    -6847    -5881 
   -5025    -4252    -3531    -2872    -2319    -1918    -1647    -1478 
   -1422    -1474    -1626    -1859    -2180    -2629    -3183    -3789 
   -4442    -5152    -5906    -6646    -7337    -7972    -8521    -8988 
   -9393    -9768   -10171   -10583   -10952   -11288   -11635   -12001 
  -12348   -12655   -12923   -13167   -13399   -13584   -13729   -13864 
  -13954   -13972   -13943   -13882   -13793   -13699   -13614   -13531 
  -13454   -13372   -13263   -13153   -13049   -12924   -12758   -12564 
  -12377   -12188   -11981   -11747   -11491   -11246   -10990   -10707 
  -10424   -10118    -9777    -9390    -8971    -8587    -8234    -7873 
   -7525    -7227    -6967    -6696    -6420    -6159    -5908    -5669 
   -5427    -5172    -4918    -4677    -4483    -4363    -4312    -4302 
   -4289    -4284    -4340    -4443    -4561    -4740    -5003    -5331 
   -5728    -6168    -6626    -7104    -7561    -7989    -8440    -8946 
   -9526   -10181   -10888   -11638   -12411   -13166   -13878   -14554 
  -15185   -15720   -16120   -16369   -16484   -16476   -16336   -16100 
  -15830   -15581   -15378   -15202   -15023   -14800   -14488   -14061 
  -13523   -12884   -12148   -11339   -10531    -9825    -9249    -8815 
   -8586    -8569    -8737    -9071    -9518   -10041   -10605   -11138 
  -11602   -12028   -12431   -12777   -13030   -13170   -13199   -13129 
  -12941   -12637   -12264   -11845   -11379   -10903   -10463   -10083 
   -9757    -9453    -9168    -8916    -8688    -8492    -8353    -8292 
   -8317    -8400    -8516    -8682    -8900    -9153    -9424    -9708 
  -10004   -10269   -10438   -10462   -10331   -10052    -9616    -9073 
   -8502    -7929    -7349    -6734    -6097    -5498    -4962    -4497 
   -4141    -3936    -3864    -3873    -3957    -4115    -4311    -4501 
   -4705    -4985    -5349    -5779    -6241    -6726    -7263    -7808 
   -8297    -8740    -9205    -9738   -10300   -10867   -11463   -12132 
  -12862   -13588   -14279   -14914   -15459   -15910   -16266   -16529 
  -16684   -16732   -16713   -16651   -16550   -16410   -16220   -15998 
  -15787   -15546   -15222   -14889   -14593   -14314   -14061   -13822 
  -13589   -13372   -13127   -12840   -12534   -12200   -11832   -11456 
  -11106   -10774   -10441   -10112    -9769    -9412    -9074    -8741 
   -8385    -8023    -7665    -7301    -6919    -6540    -6184    -5817 
   -5455    -5159    -4956    -4870    -4878    -4963    -5160    -5476 
   -5901    -6406    -6943    -7510    -8106    -8701    -9286    -9865 
  -10384   -10835   -11258   -11637   -11961   -12183   -12234   -12173 
  -12040   -11770   -11366   -10905   -10438    -9987    -9562    -9135 
   -8712    -8297    -7843    -7365    -6908    -6460    -6012    -5590 
   -5261    -5050    -4888    -4711    -4518    -4355    -4260    -4183 
   -4091    -4032    -4071    -4215    -4409    -4645    -4955    -5330 
   -5770    -6314    -6959    -7646    -8339    -9056    -9827   -10631 
  -11413   -12157   -12886   -13593   -14261   -14851   -15321   -15696 
  -15985   -16161   -16247   -16276   -16255   -16151   -15934   -15673 
  -15422   -15123   -14764   -14390   -14009   -13652   -13342   -13051 
  -12781   -12533   -12285   -12051   -11858   -11720   -11595   -11435 
  -11277   -11173   -11084   -10955   -10842   -10807   -10849   -10954 
  -11120   -11369   -11665   -11936   -12163   -12346   -12466   -12488 
  -12414   -12283   -12093   -11807   -11428   -11022   -10624   -10246 
   -9879    -9489    -9082    -8649    -8156    -7599    -7018    -6476 
   -5921    -5326    -4765    -4275    -3881    -3585    -3408    -3395 
   -3498    -3676    -3982    -4435    -4981    -5567    -6165    -6790 
   -7442    -8061    -8639    -9206    -9750   -10285   -10803   -11267 
  -11706   -12135   -12522   -12874   -13210   -13536   -13876   -14236 
  -14621   -15057   -15523   -15974   -16363   -16659   -16876   -16972 
  -16900   -16708   -16403   -15928   -15297   -14582   -13828   -13015 
  -12122   -11197   -10304    -9459    -8645    -7885    -7208    -6594 
   -6042    -5575    -5215    -4994    -4898    -4895    -4987    -5182 
   -5477    -5843    -6274    -6813    -7449    -8103    -8763    -9461 
  -10199   -10940   -11644   -12303   -12907   -13397   -13707   -13832 
