Origin Time       2011/03/11 14:46:00
Lat.              38.103
Long.             142.860
Depth. (km)       24
Mag.              9.0
Station Code      FKI001
Station Lat.      36.2161
Station Long.     136.1571
Station Height(m) 20
Record Time       2011/03/11 14:50:40
Sampling Freq(Hz) 100Hz
Duration Time(s)  60
Dir.              U-D
Scale Factor      3920(gal)/6182761
Max. Acc. (gal)   1.093
Last Correction   2011/03/11 14:50:25
Memo.             
[...]
  -39582   -39557   -39573   -39648   -39760   -39837   -39877   -39919 
  -39930   -39882   -39840   -39862   -39920   -39963   -39992   -40030 
  -40047   -40026   -40021   -40060   -40118   -40160   -40156   -40087 
  -39965   -39847   -39786   -39795   -39884   -40057   -40250   -40383 
  -40433   -40377   -40225   -40083   -40040   -40095   -40176   -40223 
  -40237   -40232   -40203   -40154   -40094   -40026   -39947   -39864 
  -39796   -39745   -39715   -39735   -39820   -39949   -40088   -40193 
  -40222   -40190   -40135   -40062   -39966   -39877   -39822   -39814 
  -39874   -39987   -40092   -40179   -40251   -40276   -40257   -40236 
  -40221   -40195   -40169   -40179   -40208   -40223   -40236   -40274 
  -40345   -40404   -40380   -40284   -40174   -40085   -40063   -40117 
  -40192   -40259   -40266   -40148   -39957   -39803   -39727   -39703 
  -39686   -39673   -39683   -39712   -39769   -39860   -39950   -39995 
  -39953   -39798   -39563   -39350   -39267   -39309   -39400   -39513 
  -39628   -39690   -39676   -39618   -39551   -39486   -39433   -39434 
  -39509   -39597   -39653   -39703   -39753   -39754   -39660   -39493 
  -39325   -39230   -39245   -39357   -39512   -39650   -39740   -39763 
  -39708   -39616   -39560   -39550   -39537   -39508   -39509   -39550 
  -39608   -39686   -39788   -39874   -39891   -39841   -39773   -39725 
  -39724   -39783   -39858   -39894   -39895   -39866   -39809   -39757 
  -39725   -39678   -39629   -39634   -39694   -39781   -39890   -40006 
  -40102   -40133   -40059   -39935   -39878   -39919   -40022   -40173 
  -40360   -40508   -40517   -40377   -40168   -39960   -39814   -39786 
  -39874   -40021   -40180   -40321   -40401   -40387   -40299   -40171 
  -40021   -39882   -39788   -39759   -39798   -39888   -40012   -40133 
  -40174   -40098   -39947   -39772   -39618   -39528   -39527   -39627 
  -39813   -40016   -40168   -40238   -40203   -40075   -39910   -39754 
  -39639   -39608   -39661   -39756   -39856   -39929   -39953   -39938 
  -39919   -39897   -39822   -39710   -39640   -39630   -39648   -39701 
  -39807   -39936   -40043   -40108   -40118   -40072   -40024   -40030 
  -40063   -40080   -40086   -40077   -40031   -39962   -39903   -39871 
  -39856   -39825   -39770   -39716   -39684   -39692   -39732   -39762 
  -39776   -39759   -39665   -39516   -39383   -39318   -39348   -39452 
  -39560   -39640   -39706   -39749   -39749   -39717   -39667   -39594 
  -39496   -39392   -39321   -39329   -39419   -39556   -39678   -39720 
  -39670   -39543   -39376   -39239   -39181   -39205   -39296   -39432 
  -39588   -39734   -39857   -39963   -40014   -39952   -39790   -39600 
  -39451   -39381   -39397   -39485   -39587   -39668   -39745   -39804 
  -39811   -39780   -39728   -39661   -39626   -39645   -39683   -39722 
  -39798   -39912   -39975   -39915   -39794   -39712   -39700   -39752 
  -39846   -39933   -39981   -40004   -40019   -40006   -39951   -39872 
  -39789   -39706   -39647   -39649   -39711   -39797   -39882   -39964 
  -40014   -40009   -39974   -39939   -39900   -39862   -39823   -39767 
  -39716   -39720   -39793   -39921   -40087   -40252   -40339   -40307 
  -40192   -40060   -39959   -39926   -39974   -40082   -40201   -40285 
  -40307   -40270   -40207   -40163   -40140   -40106   -40064   -40053 
  -40068   -40085   -40123   -40168   -40170   -40136   -40088   -40017 
  -39915   -39806   -39754   -39781   -39846   -39943   -40068   -40167 
  -40208   -40201   -40166   -40112   -40056   -40019   -39985   -39934 
  -39898   -39902   -39938   -39986   -40034   -40085   -40146   -40206 
  -40276   -40350   -40394   -40394   -40365   -40339   -40356   -40426 
  -40517   -40590   -40606   -40542   -40412   -40240   -40082   -40003 
  -39998   -40035   -40104   -40185   -40280   -40393   -40480   -40500 
  -40465   -40407   -40367   -40386   -40469   -40605   -40763   -40878 
  -40933   -40973   -40998   -40993   -40977   -40948   -40901   -40867 
  -40875   -40900   -40923   -40966   -41031   -41094   -41136   -41143 
  -41113   -41059   -40998   -40980   -41043   -41153   -41251   -41305 
  -41293   -41200   -41031   -40825   -40646   -40555   -40566   -40663 
  -40818   -40963   -41036   -41032   -40975   -40899   -40847   -40820 
  -40786   -40728   -40667   -40629   -40615   -40614   -40610   -40588 
  -40520   -40408   -40293   -40207   -40160   -40144   -40123   -40062 
  -39972   -39892   -39845   -39837   -39861   -39889   -39906   -39896 
  -39838   -39751   -39675   -39617   -39567   -39515   -39469   -39463 
  -39515   -39601   -39683   -39744   -39770   -39731   -39630   -39524 
  -39472   -39479   -39520   -39582   -39658   -39720   -39752   -39745 
  -39692   -39612   -39519   -39414   -39333   -39311   -39330   -39364 
  -39432   -39543   -39662   -39756   -39823   -39872   -39926   -39993 
  -40044   -40050   -40021   -39976   -39921   -39875   -39863   -39871 
  -39869   -39861   -39886   -39954   -40041   -40133   -40211   -40236 
  -40212   -40179   -40149   -40125   -40120   -40147   -40200   -40271 
  -40348   -40404   -40415   -40402   -40374   -40310   -40230   -40176 
  -40147   -40148   -40214   -40335   -40446   -40497   -40476   -40399 
  -40292   -40198   -40155   -40173   -40256   -40389   -40522   -40622 
  -40686   -40701   -40646   -40545   -40451   -40394   -40380   -40433 
  -40550   -40684   -40772   -40776   -40717   -40634   -40549   -40476 
  -40411   -40331   -40246   -40180   -40148   -40159   -40194   -40225 
  -40263   -40318   -40363   -40387   -40396   -40375   -40319   -40243 
  -40160   -40074   -40018   -40029   -40095   -40180   -40263   -40321 
  -40317   -40245   -40151   -40085   -40047   -40016   -39996   -40008 
  -40047   -40092   -40152   -40222   -40260   -40239   -40183   -40131 
  -40098   -40083   -40095   -40145   -40216   -40272   -40308   -40332 
  -40346   -40357   -40351   -40309   -40245   -40185   -40148   -40143 
  -40178   -40244   -40305   -40349   -40381   -40403   -40415   -40410 
  -40396   -40382   -40347   -40278   -40190   -40104   -40028   -39968 
  -39936   -39935   -39955   -39992   -40036   -40060   -40059   -40034 
  -39981   -39928   -39906   -39898   -39892   -39903   -39937   -39984 
  -40049   -40124   -40164   -40127   -40034   -39925   -39820   -39762 
  -39790   -39887   -40001   -40078   -40088   -40034   -39933   -39829 
  -39764   -39721   -39689   -39708   -39790   -39903   -40007   -40072 
  -40092   -40051   -39929   -39755   -39599   -39528   -39564   -39677 
  -39809   -39893   -39893   -39839   -39788   -39757   -39718   -39655 
  -39582   -39531   -39523   -39562   -39637   -39733   -39808   -39795 
  -39670   -39495   -39327   -39195   -39139   -39166   -39222   -39273 
  -39311   -39321   -39276   -39181   -39095   -39056   -39035   -39020 
  -39030   -39060   -39106   -39180   -39243   -39243   -39194   -39138 
  -39078   -39031   -39043   -39141   -39302   -39459   -39555   -39574 
  -39524   -39439   -39359   -39283   -39206   -39168   -39208   -39311 
  -39432   -39529   -39585   -39608   -39607   -39582   -39537   -39506 
  -39503   -39511   -39514   -39511   -39503   -39509   -39528   -39536 
  -39533   -39522   -39489   -39460   -39463   -39477   -39486   -39500 
  -39505   -39456   -39362   -39294   -39287   -39306   -39332   -39376 
  -39430   -39480   -39524   -39553   -39568   -39584   -39610   -39635 
  -39663   -39706   -39760   -39840   -39956   -40066   -40134   -40146 
  -40118   -40090   -40064   -40037   -40049   -40124   -40252   -40402 
  -40524   -40570   -40554   -40521   -40486   -40443   -40411   -40411 
  -40441   -40495   -40565   -40647   -40728   -40795   -40836   -40848 
  -40834   -40794   -40724   -40624   -40534   -40512   -40578   -40702 
  -40832   -40926   -40974   -40977   -40936   -40869   -40791   -40700 
  -40614   -40545   -40492   -40486   -40551   -40651   -40729   -40759 
  -40741   -40682   -40585   -40466   -40372   -40328   -40311   -40320 
  -40362   -40408   -40436   -40457   -40472   -40477   -40461   -40410 
  -40345   -40304   -40277   -40246   -40223   -40221   -40239   -40260 
  -40256   -40237   -40240   -40252   -40245   -40223   -40189   -40145 
  -40091   -40004   -39884   -39762   -39674   -39652   -39707   -39817 
  -39926   -39959   -39903   -39786   -39636   -39508   -39442   -39428 
  -39453   -39496   -39548   -39612   -39667   -39697   -39712   -39710 
  -39662   -39558   -39436   -39367   -39394   -39498   -39640   -39772 
  -39839   -39825   -39749   -39645   -39554   -39506   -39518   -39607 
  -39754   -39892   -39967   -39980   -39970   -39955   -39934   -39917 
  -39917   -39926   -39927   -39929   -39953   -39997   -40032   -40040 
  -40032   -40007   -39965   -39918   -39880   -39864   -39880   -39925 
  -39987   -40032   -40024   -39971   -39897   -39833   -39826   -39875 
  -39941   -40015   -40086   -40104   -40063   -40008   -39957   -39902 
  -39857   -39834   -39838   -39875   -39944   -40025   -40081   -40092 
  -40077   -40041   -39981   -39926   -39906   -39931   -39988   -40049 
  -40112   -40170   -40205   -40227   -40256   -40268   -40232   -40166 
  -40117   -40094   -40093   -40142   -40245   -40367   -40474   -40538 
  -40556   -40541   -40500   -40453   -40420   -40416   -40474   -40608 
  -40793   -40998   -41180   -41275   -41263   -41170   -41020   -40870 
  -40801   -40866   -41056   -41288   -41461   -41528   -41486   -41357 
  -41201   -41086   -41032   -41024   -41057   -41121   -41186   -41240 
  -41301   -41373   -41424   -41418   -41358   -41260   -41149   -41056 
  -41012   -41028   -41073   -41105   -41099   -41036   -40943   -40866 
  -40816   -40814   -40882   -40962   -40977   -40916   -40807   -40687 
  -40589   -40546   -40575   -40644   -40689   -40680   -40623   -40542 
  -40486   -40474   -40455   -40418   -40401   -40376   -40299   -40219 
  -40227   -40348   -40522   -40684   -40798   -40793   -40644   -40432 
  -40250   -40140   -40130   -40221   -40363   -40495   -40595   -40658 
  -40668   -40630   -40570   -40487   -40364   -40235   -40162   -40181 
  -40301   -40500   -40692   -40773   -40717   -40555   -40334   -40127 
  -40007   -39986   -40050   -40182   -40331   -40411   -40397   -40334 
  -40243   -40123   -39990   -39874   -39800   -39785   -39827   -39911 
  -40004   -40037   -39973   -39862   -39753   -39657   -39598   -39592 
  -39616   -39643   -39692   -39767   -39803   -39723   -39556   -39409 
  -39343   -39342   -39360   -39379   -39418   -39494   -39587   -39654 
  -39646   -39556   -39440   -39357   -39331   -39375   -39463   -39551 
  -39632   -39715   -39779   -39806   -39804   -39767   -39696   -39652 
  -39670   -39728   -39806   -39893   -39954   -39951   -39877   -39758 
  -39675   -39709   -39845   -40004   -40132   -40219   -40246   -40185 
  -40079   -40011   -40018   -40065   -40087   -40054   -39985   -39928 
  -39932   -40012   -40145   -40272   -40314   -40257   -40147   -40027 
  -39925   -39875   -39880   -39921   -39994   -40069   -40107   -40096 
  -40004   -39836   -39675   -39599   -39653   -39828   -40045   -40228 
  -40323   -40311   -40245   -40183   -40105   -39975   -39835   -39757 
  -39764   -39833   -39941   -40091   -40253   -40331   -40282   -40153 
  -40004   -39873   -39785   -39771   -39863   -40065   -40304   -40459 
  -40463   -40344   -40150   -39930   -39754   -39699   -39798   -40016 
  -40284   -40511   -40628   -40638   -40579   -40476   -40353   -40225 
  -40138   -40163   -40303   -40494   -40659   -40756   -40796   -40788 
  -40739   -40667   -40573   -40476   -40411   -40403   -40483   -40651 
  -40855   -41046   -41184   -41234   -41189   -41060   -40856   -40630 
  -40478   -40472   -40612   -40873   -41183   -41412   -41485   -41437 
  -41346   -41259   -41191   -41161   -41158   -41150   -41176   -41283 
  -41426   -41527   -41567   -41554   -41496   -41432   -41402   -41363 
  -41284   -41214   -41198   -41236   -41323   -41440   -41530   -41537 
  -41495   -41485   -41491   -41454   -41385   -41325   -41287   -41275 
  -41274   -41256   -41246   -41287   -41359   -41427   -41473   -41440 
  -41309   -41149   -41016   -40898   -40795   -40746   -40757   -40780 
  -40764   -40720   -40687   -40665   -40644   -40649   -40674   -40681 
  -40647   -40528   -40293   -40020   -39842   -39819   -39901   -40004 
  -40103   -40171   -40129   -39951   -39723   -39550   -39487   -39539 
  -39653   -39772   -39890   -40017   -40108   -40107   -40035   -39980 
  -39969   -39936   -39876   -39892   -40017   -40171   -40296   -40368 
  -40354   -40247   -40092   -39955   -39872   -39825   -39797   -39813 
  -39889   -40002   -40104   -40140   -40089   -39971   -39828   -39748 
  -39813   -39994   -40167   -40256   -40259   -40191   -40052   -39864 
  -39682   -39578   -39573   -39650   -39788   -39945   -40057   -40106 
  -40111   -40081   -40044   -40031   -40008   -39918   -39804   -39754 
  -39775   -39819   -39896   -40030   -40155   -40193   -40164   -40108 
  -40020   -39894   -39772   -39728   -39789   -39912   -40027   -40105 
  -40140   -40115   -40041   -39965   -39927   -39951   -40024   -40105 
  -40170   -40236   -40310   -40371   -40402   -40398   -40375   -40349 
  -40322   -40306   -40322   -40399   -40568   -40804   -40989   -41036 
  -40959   -40813   -40669   -40605   -40651   -40793   -40999   -41222 
  -41399   -41476   -41441   -41329   -41192   -41065   -40996   -41032 
  -41162   -41327   -41476   -41569   -41572   -41486   -41359   -41253 
  -41205   -41243   -41396   -41651   -41896   -42002   -41937   -41758 
  -41543   -41356   -41235   -41202   -41249   -41331   -41417   -41489 
  -41503   -41416   -41235   -41018   -40833   -40725   -40699   -40726 
  -40768   -40787   -40771   -40697   -40534   -40308   -40081   -39898 
  -39798   -39799   -39871   -39962   -40028   -40050   -40034   -39977 
  -39878   -39765   -39670   -39620   -39612   -39631   -39685   -39748 
  -39777   -39784   -39797   -39808   -39831   -39880   -39928   -39947 
  -39945   -39919   -39850   -39760   -39688   -39665   -39680   -39712 
  -39776   -39847   -39865   -39831   -39785   -39754   -39740   -39728 
  -39700   -39649   -39595   -39587   -39647   -39733   -39769   -39733 
  -39667   -39590   -39484   -39351   -39250   -39228   -39270   -39350 
  -39455   -39553   -39614   -39625   -39606   -39586   -39569   -39528 
  -39452   -39383   -39388   -39480   -39607   -39717   -39791   -39819 
  -39795   -39726   -39635   -39556   -39514   -39499   -39517   -39599 
  -39742   -39894   -39998   -40029   -40006   -39940   -39836   -39741 
  -39697   -39706   -39775   -39898   -40056   -40220   -40340   -40376 
  -40341   -40289   -40259   -40250   -40257   -40289   -40343   -40400 
  -40446   -40495   -40542   -40568   -40553   -40485   -40396   -40343 
  -40334   -40356   -40417   -40520   -40642   -40721   -40705   -40608 
  -40471   -40321   -40193   -40124   -40137   -40190   -40212   -40223 
  -40291   -40398   -40477   -40500   -40481   -40445   -40420   -40434 
  -40488   -40559   -40661   -40786   -40862   -40843   -40757   -40647 
  -40556   -40498   -40475   -40503   -40568   -40611   -40603   -40533 
  -40392   -40215   -40065   -39962   -39901   -39889   -39928   -40010 
  -40125   -40258   -40382   -40465   -40475   -40412   -40325   -40279 
  -40285   -40325   -40403   -40514   -40632   -40724   -40750   -40705 
  -40625   -40540   -40469   -40441   -40476   -40568   -40674   -40747 
  -40771   -40752   -40713   -40693   -40719   -40791   -40877   -40934 
  -40962   -40986   -40997   -40988   -40977   -40979   -40992   -41019 
  -41084   -41174   -41245   -41280   -41297   -41301   -41290   -41284 
  -41291   -41303   -41332   -41394   -41467   -41512   -41534   -41561 
  -41583   -41571   -41538   -41515   -41499   -41470   -41444   -41454 
  -41492   -41552   -41655   -41774   -41823   -41774   -41685   -41579 
  -41464   -41397   -41411   -41472   -41560   -41639   -41658   -41632 
  -41585   -41509   -41426   -41358   -41296   -41245   -41218   -41213 
  -41225   -41260   -41318   -41381   -41417   -41397   -41325   -41229 
  -41145   -41089   -41049   -41011   -40994   -41001   -40981   -40922 
  -40862   -40804   -40747   -40723   -40751   -40820   -40899   -40952 
  -40951   -40895   -40799   -40687   -40572   -40471   -40423   -40437 
  -40466   -40491   -40519   -40517   -40469   -40403   -40342   -40302 
  -40281   -40258   -40238   -40228   -40209   -40183   -40176   -40199 
  -40233   -40247   -40229   -40197   -40171   -40159   -40149   -40128 
  -40101   -40068   -40025   -40000   -40035   -40140   -40272   -40367 
  -40394   -40350   -40228   -40052   -39885   -39789   -39784   -39849 
  -39944   -40048   -40144   -40200   -40196   -40143   -40046   -39932 
  -39828   -39768   -39787   -39879   -39998   -40100   -40144   -40116 
  -40041   -39945   -39856   -39822   -39853   -39898   -39924   -39939 
  -39930   -39883   -39841   -39838   -39861   -39899   -39956   -40018 
  -40058   -40079   -40103   -40128   -40128   -40108   -40090   -40080 
  -40091   -40147   -40239   -40344   -40449   -40526   -40554   -40549 
  -40522   -40442   -40319   -40227   -40213   -40259   -40327   -40392 
  -40440   -40468   -40484   -40493   -40485   -40443   -40378   -40330 
  -40310   -40327   -40399   -40500   -40594   -40665   -40703   -40718 
  -40708   -40668   -40621   -40592   -40559   -40511   -40466   -40426 
  -40385   -40360   -40380   -40447   -40515   -40537   -40508   -40443 
  -40342   -40222   -40130   -40091   -40090   -40111   -40154   -40224 
  -40311   -40374   -40396   -40403   -40380   -40307   -40216   -40136 
  -40057   -39995   -39988   -40043   -40137   -40222   -40262   -40255 
  -40194   -40095   -40014   -39970   -39949   -39963   -39996   -40030 
  -40093   -40183   -40249   -40264   -40232   -40181   -40141   -40117 
  -40110   -40121   -40136   -40152   -40168   -40177   -40199   -40229 
  -40243   -40242   -40235   -40245   -40300   -40370   -40416   -40450 
  -40484   -40502   -40489   -40463   -40442   -40427   -40430   -40444 
  -40465   -40511   -40584   -40663   -40714   -40714   -40671   -40608 
  -40536   -40474   -40462   -40502   -40540   -40558   -40575   -40593 
  -40595   -40565   -40506   -40430   -40349   -40281   -40234   -40195 
  -40162   -40145   -40136   -40132   -40138   -40127   -40074   -40007 
  -39971   -39951   -39923   -39904   -39914   -39931   -39935   -39935 
  -39931   -39909   -39875   -39857   -39864   -39874   -39866   -39858 
  -39862   -39854   -39843   -39864   -39892   -39881   -39842   -39798 
  -39736   -39673   -39652   -39678   -39726   -39782   -39840   -39872 
  -39862   -39829   -39810   -39817   -39834   -39852   -39864   -39865 
  -39878   -39913   -39941   -39954   -39956   -39939   -39903   -39867 
  -39857   -39874   -39907   -39956   -40003   -40019   -40005   -39983 
  -39964   -39967   -40022   -40121   -40220   -40296   -40341   -40363 
  -40370   -40339   -40281   -40241   -40209   -40170   -40154   -40157 
  -40174   -40226   -40303   -40373   -40411   -40397   -40349   -40307 
  -40291   -40308   -40363   -40439   -40517   -40612   -40723   -40814 
  -40872   -40897   -40880   -40835   -40791   -40762   -40754   -40782 
  -40839   -40908   -40961   -40971   -40953   -40924   -40897   -40899 
  -40925   -40951   -40989   -41043   -41094   -41131   -41142   -41120 
