Origin Time       2011/03/11 14:46:00
Lat.              38.103
Long.             142.860
Depth. (km)       24
Mag.              9.0
Station Code      FKS016
Station Lat.      37.1232
Station Long.     140.1910
Station Height(m) 375
Record Time       2011/03/11 14:47:06
Sampling Freq(Hz) 100Hz
Duration Time(s)  300
Dir.              E-W
Scale Factor      3920(gal)/6182761
Max. Acc. (gal)   948.790
Last Correction   2011/03/11 14:46:51
Memo.             
[...]
 -362379  -340877  -391258  -412755  -365724  -298358  -218737   -99665 
   67067   270674   454830   566579   621450   658110   675852   628597 
  488929   299086   110706   -76627  -252193  -352420  -359414  -328873 
 -290305  -237462  -180552  -102738    47517   199523   173703     6640 
  -44244    75777   192676   221777   176288    92173    26402   -27392 
  -85303   -94388   -44364    14067    76204   161882   252268   327410 
  402730   494922   573425   571398   460436   300254   192874   145675 
   35573  -178347  -346997  -358777  -275689  -175978   -72223    -4303 
  -18203   -68312   -89482   -83444   -47775    34615   115002   144110 
  157063   178122   179873   167000   152325   111833    41326   -26738 
  -70973  -100550  -139255  -194002  -242318  -270811  -287218  -286966 
 -266453  -246987  -240113  -229631  -227309  -270636  -323817  -304858 
 -241772  -249205  -323513  -340614  -272118  -171560   -18777   186303 
  360397   436589   393179   270272   128078    -1606   -89396  -149436 
 -217302  -270923  -269348  -216400  -165569  -146244   -99921    32921 
  215393   369417   452734   465018   440969   399544   299841   118872 
  -63033  -135220  -106898   -82856  -101138  -118984  -118464  -129862 
 -158818  -150043   -92216   -66794   -72835   -14751    72467   115054 
  152860   150936    47124   -59918  -120545  -220138  -309396  -256072 
 -144519  -123660  -141656  -129048  -131652  -143480  -107158   -49705 
  -13873    28262    88910   126547   112720    70970    45999    35022 
    4034   -29979   -31078   -37191  -110589  -229027  -311309  -312064 
 -243040  -131935   -24016    23074    16308     9067    26210    71164 
   98595    35633   -97728  -225638  -310217  -313389  -207126   -49162 
   48146    59150    86228   182575   264955   280068   282463   313596 
  351216   359827   323759   257860   186671   148897   179078   230049 
  235843   203489   146593    66946     5924    -7491    -9505   -53949 
 -157203  -280029  -339042  -263372   -93226    30901    75208   146337 
  260459   345136   373654   305498   126171   -65703  -186507  -259116 
 -338675  -430112  -492681  -505059  -481772  -426570  -330208  -215969 
 -121031   -50573    14120    79994   123214   132241   127521   123802 
  131960   142012   120362    77770    62153    85621    98696    51806 
  -25707   -78598   -96071   -80585   -50577   -37117   -21051    30931 
   73328    42750    -9563    -2331    15846   -18577   -59559   -71373 
  -73737   -70377   -59502   -47964   -35681   -21617    -7572      569 
  -15751   -66926  -118949  -135179  -126598  -107924   -77897   -29689 
   57445   157949   205014   194270   132822    -3616  -153080  -236953 
 -290838  -341135  -351111  -300190  -197209   -93959   -14148    81885 
  179181   242371   291060   311390   255852   137898    21922   -59751 
 -129133  -187916  -200429  -174270  -150550  -133535  -104857   -54342 
   11700    67034   101956   138903   192992   239230   208096    52651 
 -156200  -299670  -358993  -370044  -342953  -310212  -279124  -167401 
   53844   273843   392711   395397   281814   111376    -4927   -30412 
   29124   129454   173766   180851   219440   206390    81141   -34455 
  -39752     5619    20910    12577     -796   -22570   -27565      -13 
   27903    24359    -9008   -44227   -44415     5067    62675    84009 
   99103   136989   168222   179954   164863    71528  -108388  -246677 
 -209931   -92655   -75505  -107470   -66199   -10814     1248    45370 
  150405   231319   224568   153119    59085   -65032  -220495  -329665 
 -342772  -328537  -346348  -348022  -292278  -218018  -147167   -52371 
   70710   170818   192482   147658    86694    20044   -58255  -109456 
 -116775  -126112  -121879   -33537   106485   199936   235970   261149 
  268113   215558    85880   -88548  -209579  -212475  -141792   -33847 
  114307   251469   328726   345827   294050   199918   131617    82181 
    1832   -87928  -165573  -261847  -355285  -391679  -379753  -340046 
 -272792  -191909   -89547    40920   151448   231582   327790   413095 
  406800   291600   106452   -85652  -212913  -280390  -376139  -512122 
 -593770  -592202  -562975  -513814  -418107  -279449  -110846    88732 
  328538   578736   746406   750646   620529   472354   344979   168306 
  -68643  -297225  -465973  -512782  -383088  -163813   -49784  -100538 
 -175286  -183755  -170739  -145080   -91371   -22644    91383   253866 
  369715   377727   341050   343672   372373   367174   317218   207206 
    -153  -247188  -420559  -495649  -530236  -587983  -667884  -688315 
 -596552  -443018  -299347  -144713    93514   397511   670159   808940 
  725782   441205   112284   -82186   -63944    47004    11792  -192721 
 -322429  -287293  -201872  -126052   -92996   -68566    11619    77650 
   76691    43289     7318     6000    38930    57027    26784   -62317 
 -176406  -236933  -213179  -145679   -61909    20513    63701    67581 
   68582    83879    88309    32598   -77229  -182211  -272844  -373754 
 -469879  -535547  -552140  -459912  -208447   115868   380769   595588 
  794046   913527   919027   805612   586597   355259   111387  -219322 
 -482160  -518605  -509057  -648643  -829186  -837611  -647085  -394923 
 -136011   169187   461944   629616   697476   729785   670924   506969 
  318774   113333  -167963  -476833  -619943  -553811  -476591  -418951 
 -260704  -125688  -156283  -239598  -263353  -206766   -95815   -18188 
   32903   135051   277000   421580   537994   549985   409530   191609 
   27025   -25182     7884    14957  -116988  -314539  -434707  -488944 
 -513713  -462650  -337944  -219789  -141874   -53583    75042   204981 
  295532   336595   336976   323633   328925   365132   403721   405412 
  360025   247365    47874  -184432  -390353  -570048  -661403  -541952 
 -249848    32073   240912   424007   542584   535223   418995   219838 
    2821  -129077  -187583  -238469  -249643  -161757    19879   212189 
  308562   292542   213539   103434    -9588  -105455  -198570  -333676 
 -529452  -675642  -625504  -405973  -115051   243928   622445   888845 
 1044179  1170484  1154786   828571   307946  -194887  -623221  -802650 
 -663418  -666530  -946687 -1068233 -1064567 -1113810  -964485  -578867 
 -190169   179207   614306  1007409  1168242  1057421   766385   523087 
  491628   498964   353283    73782  -270966  -544133  -616940  -512421 
 -332587  -223517  -267116  -378357  -466507  -515699  -491639  -366066 
 -178454    24632   209649   350740   477030   600045   662122   643869 
  571057   428092   200673   -52260  -250509  -358010  -384982  -375485 
 -377900  -405093  -401669  -269296    19911   361047   591931   650633 
  661017   742604   801922   722053   566519   396560   144147  -248454 
 -694023  -940740  -839308  -622668  -573512  -615664  -585061  -528772 
 -497397  -434884  -318053  -138418   112961   366976   511776   487000 
  366499   302073   337187   390949   378155   257390    31107  -264791 
 -575430  -834497  -989597 -1031924  -963179  -760487  -464729  -173044 
  131866   510828   877436  1061788   999626   804713   605777   407461 
  191446     3016  -106163  -177292  -287050  -386350  -368103  -250459 
 -152326  -113679   -50023    78294   191103   227180   215155   206065 
  221565   247660   242082   175555    84943    18688   -29068   -62579 
  -83934  -130629  -201009  -253904  -291442  -329365  -369072  -407396 
 -400248  -299921  -135564    23400   140533   197911   163593    20489 
 -167806  -264974  -229138  -190041  -234662  -268987  -201499   -87953 
    4002    97844   201570   270036   277406   241912   223208   268412 
  344999   400083   457712   540834   550779   391734   150836     3981 
   -3654    26928    -8015  -144047  -335887  -492261  -548213  -471878 
 -320984  -242741  -253676  -234424  -181647  -150396   -81969    54227 
  194905   304181   349697   288975   156537    61301   108954   279604 
  374691   283359   146317    23409  -169622  -396253  -584158  -652237 
 -490676  -203867    21396   201519   348664   365057   309799   327446 
  362355   308074   207249    92420   -85073  -288285  -411474  -440623 
 -395975  -288737  -205506  -186804  -141553     3943   239667   484924 
  634342   650383   529378   273039   -14032  -162541  -127937   -45980 
  -70894  -171783  -165804    -7775   127376   134165    77336    -1705 
  -91106  -169745  -271433  -363356  -332383  -195458   -62557    14400 
   33462      584   -88329  -227678  -400970  -579347  -672926  -614048 
 -476260  -369868  -300009  -208243   -62052   107098   199315   139173 
   -6049   -68981    18407   163579   296600   402320   452785   488849 
  526944   467103   303337   159295    69063   -36168  -158827  -219190 
 -191260  -140667  -119033  -106331   -48646   105729   332246   497054 
  495855   352750   153079   -27025  -160900  -288779  -455786  -648246 
 -790794  -796926  -667212  -484133  -272113    38655   493392   993983 
 1316747  1315816  1033077   582292   142766   -82716   -91289   -56540 
 -192476  -540655  -779858  -692065  -464450  -277653  -139133   -15751 
   82389   129128   153675   139083    37673   -99129  -211684  -295295 
 -293237  -124841   150102   366901   430247   349579   197331    19954 
 -183165  -297748  -240392  -228395  -373279  -402925  -243625  -149319 
 -127891   -15531   131443   212191   265228   330084   321141   112503 
 -199125  -351425  -311793  -262931  -288597  -329011  -318268  -279723 
 -235683  -154948   -73458   -17921    74055   237492   458688   699103 
  914660  1077546  1102660   878395   444526   -40020  -476055  -736994 
 -679017  -477441  -410109  -407128  -352601  -293373  -191197   -14977 
  115258    90942   -80500  -321571  -560843  -718037  -683658  -492975 
 -299396  -101791   140215   328728   412544   424613   326475    54495 
 -254582  -362289  -382445  -534086  -611377  -451484  -243963   -88964 
   64708   255074   472012   667427   820000   887746   830455   709484 
  624091   591655   540514   387133    65766  -411133  -857366 -1039569 
 -947443  -759531  -595997  -521501  -534013  -467823  -214685    56805 
  122787    89011   161276   196964    84299   -32748  -155942  -318135 
 -396598  -381676  -399710  -494544  -556418  -437327  -109047   303325 
  614836   777736   890198   922228   735749   420582   218223   137518 
   77345   127484   340729   529288   500588   284809    62461   -75447 
 -198025  -340245  -398966  -334982  -238320  -143039   -52559     2540 
   46853   113325   211767   335893   383801   306954   245938   244544 
  223558   233694   272425   256079   270350   341746   310776   160836 
   10169  -169416  -488495  -892312 -1169257 -1184043 -1023310  -884310 
 -814955  -676295  -413058   -98170   257010   636327   928498  1029804 
  935615   779248   704837   678202   569722   369653   188929    76724 
  -28558  -178569  -362387  -522775  -600339  -607295  -567899  -446245 
 -279709  -195557  -208541  -261820  -379730  -515315  -507178  -332237 
  -97154   180370   530619   846260   963145   923098   902848   924728 
  920878   909690   851172   632442   302238   -27040  -372720  -753660 
-1094165 -1251616 -1116917  -845831  -724823  -728161  -617971  -356706 
  -65722   213597   466091   576493   482544   294960   109966   -98781 
 -377486  -635472  -594645  -196689   135250   145841    52971   -67870 
 -283851  -451152  -532614  -619927  -638402  -545171  -415659  -268997 
  -75727   189153   477569   697666   857711   981950  1041127  1080940 
 1138755  1112057   920629   639405   336413  -104599  -732983 -1172818 
-1028233  -579715  -418360  -535320  -533919  -389999  -251941   -93874 
   48117    85853   -10281  -236887  -427985  -451643  -415878  -362139 
 -243904  -101036    91201   355221   566622   637115   597476   499691 
  341966    71997  -288321  -600659  -699265  -502548  -171325   -33716 
 -166750  -324286  -362056  -283995   -63346   208736   423708   582591 
  615938   500260   322958   124018   -64718  -241247  -442245  -617663 
 -699029  -697732  -637773  -535914  -416548  -275085  -111956    58374 
  270080   503115   608646   500183   259846    16230  -167055  -286437 
 -352809  -404750  -455124  -403622  -193494    58572   240809   356200 
  447710   529731   563472   526803   427311   259053    72138   -67441 
 -186132  -290156  -312414  -261644  -189121   -79875    66131   196651 
  284861   359771   442246   511711   548379   518576   388823   192272 
   -7247  -169897  -265459  -274354  -228179  -197786  -188727  -130541 
  -38886    -4253     3420    73722   175103   207486   134571   -16900 
 -200642  -305206  -239961  -121520  -113322  -198066  -294319  -363967 
 -378263  -337722  -274216  -209583  -148734   -79472    21351   161491 
  297528   335382   242091   114261    49461    49903    97786   185227 
  273605   324227   292982   108998  -204612  -476871  -554632  -444313 
 -271684  -127594      448   111239   189326   303664   452193   498221 
  396433   200152   -53658  -221902  -107502   171402   275930   215900 
  213972   187225    55766   -53482  -148001  -257284  -347457  -462515 
 -602686  -706611  -700240  -528461  -292683  -116709    60167   261082 
  353716   339652   344916   385080   395892   288083    33947  -241730 
 -423045  -475725  -366230  -168909   -52014      940   129890   315666 
  480941   613555   665455   593475   402536   104855  -254865  -630057 
 -929686  -931991  -561336  -159549   -11858   118658   400924   597083 
  684077   823780   960602  1007037   884401   534575    44190  -567861 
-1241436 -1507398 -1125024  -727874  -796176  -941235  -864230  -696220 
 -462434  -173956   101116   422134   772042   962751   850084   497085 
  155722   -26320  -150980  -261574  -255312  -174623  -130991   -87362 
   -6912    85308   187818   279749   331715   365388   404788   436720 
  465371   517998   559280   493833   308241   112541   -21089  -128562 
 -237255  -337200  -427905  -493570  -499066  -408740  -231345   -71048 
   -8305      344     8618    27075    71446   150218   256981   364756 
  423028   398366   276116    58560  -187427  -346143  -369793  -330376 
 -325213  -392042  -494410  -536614  -440490  -232833   -17255   163312 
  342090   487464   527161   454583   266899   -14259  -264584  -399416 
 -435118  -378534  -294782  -304216  -377853  -401329  -355238  -255597 
 -103699    58374   162931   159455    35184  -143272  -267543  -298135 
 -260296  -194312  -151213  -114972   -21684    96816   197352   314097 
  435172   515872   531963   430756   221896    15679  -138628  -247522 
 -258871  -180444  -143599  -198351  -242071  -186754   -58671    74134 
  203524   362281   531521   621158   539303   283223   -11830  -174531 
 -153728     1592   159929   143012    -2694   -56804    29014   174698 
  282275   272897   178385    39927  -106505  -205706  -283949  -350150 
 -356776  -317382  -280621  -278502  -299859  -288168  -212586   -96759 
   18682   102364   125787    89167    31325   -56982  -209764  -367528 
 -446141  -464722  -501922  -565093  -598142  -587004  -511632  -338155 
 -119531   113551   419662   776594  1048827  1115799   967126   710666 
  459209   260192   104965   -33135  -170591  -386059  -673274  -785341 
 -597776  -336293  -227431  -220261  -165843   -41441   129793   346057 
  556071   667610   610334   413007   209069    94434    40329   -17495 
 -110000  -271078  -476216  -574104  -459995  -260146  -181501  -194754 
 -116672    58482   248023   440395   603230   721003   778734   668156 
  358218    -1036  -293108  -482700  -487530  -390066  -394478  -406017 
 -280074  -140462   -83485   -51326    -6846     7419    -1768    41418 
  136882   211796   185368    16319  -235873  -465641  -603729  -563884 
 -265886   118609   285226   269432   248544   150206     2059    -8183 
   49307    36079   -13164   -84912  -181194  -262039  -326456  -348157 
 -265599  -108938    30960   134855   238256   347045   463614   592569 
  681504   683475   628739   547978   427848   281507   169068   112010 
   65316    -9958  -130942  -305540  -506524  -673157  -714878  -560703 
 -277221   -21495   165058   326880   410270   384201   355700   368147 
  353642   256946    56366  -197638  -392483  -458520  -415486  -353183 
 -340736  -374991  -449998  -528652  -501710  -338578  -142773     5765 
  101158   135542   127530   140976   195213   264271   331275   351265 
  251246    40443  -170489  -310096  -396968  -437692  -424943  -410366 
 -431523  -439296  -377610  -246452   -83926    60290   152740   182971 
  152738    90914    49919    57464   108264   181176   233714   239369 
  214527   188373   183138   179621   144703   116477   139451   183744 
  209912   204587   160705    91793    29565   -14345   -64476  -153115 
 -289322  -462931  -615150  -604295  -372341   -85015   114598   269706 
  400852   486247   576766   674645   705174   608302   373652   108501 
  -67375  -163374  -184503   -98369    11815    17260   -83346  -212630 
 -334966  -435734  -484013  -469168  -410530  -346264  -320396  -341218 
 -383386  -409738  -365672  -233465   -82220     6809    19310   -17466 
  -96371  -252446  -501903  -779665  -966437  -916173  -599197  -252708 
  -50039   136657   361492   546555   725600   889099   981747  1042527 
 1008320   745221   317584  -111403  -475407  -684641  -603522  -360425 
 -242348  -199487   -36794   149307   279110   448131   579534   542949 
  350190    41063  -293553  -557812  -678778  -584220  -403567  -355930 
 -387872  -320047  -126801   147771   440159   663327   784518   775329 
  649372   522788   411985   243694    66424   -27535    -5667   112984 
  210774   154121   -43858  -275737  -497101  -672350  -665524  -413276 
  -77205   146607   233842   255331   203483    40488  -146004  -197087 
  -47355   170425   203307    26645  -135677  -228896  -304677  -295973 
 -220281  -151379   -50809   121065   326515   492210   581762   580586 
  466462   278470    42313  -238327  -395711  -255015    29840   127988 
     833  -110127  -136979  -135982   -57247    77909   228721   401777 
  520725   562286   537105   369724    90093  -144140  -269743  -326982 
 -350601  -386959  -471284  -556911  -592303  -581390  -515887  -377811 
 -202249   -51415    53804   125252   163074   171149   151385    77184 
  -23553   -40647    74206   249314   390452   452691   427930   327751 
  197218    51846  -160835  -412406  -546701  -476461  -299622  -182969 
 -171421  -177790  -147421   -68382   106379   361159   584123   677650 
  565443   232908  -160723  -430399  -530049  -425853  -179816   -32412 
   -5596    89213   239293   353687   433314   451882   404684   316734 
  154247   -81847  -305760  -440853  -463207  -397872  -302528  -232857 
 -213419  -215889  -192140  -118224    25091   212838   331647   269071 
    7864  -331753  -563579  -591969  -427495  -208741  -130452  -131837 
  -52354    25331    39480    48528    28338     5371    56877   159139 
  278967   400849   471111   444157   317275   110644  -163983  -454063 
 -582270  -447241  -266318  -270413  -377706  -439145  -436847  -360441 
 -197267     5771   205714   384245   484216   446813   298429   119272 
  -31014  -113279  -104796   -26512    84962   222734   370520   448264 
  384696   225358    96691   109835   270886   427305   419137   260531 
   39033  -182538  -261407  -139471   -49798  -109585  -124637   -62078 
  -35870     8991    82454    99382    79335    43111   -29616  -105651 
