Origin Time       2011/03/11 14:46:00
Lat.              38.103
Long.             142.860
Depth. (km)       24
Mag.              9.0
Station Code      FKS002
Station Lat.      37.8453
Station Long.     140.6008
Station Height(m) 43
Record Time       2011/03/11 14:46:55
Sampling Freq(Hz) 100Hz
Duration Time(s)  300
Dir.              E-W
Scale Factor      3920(gal)/6182761
Max. Acc. (gal)   556.885
Last Correction   2011/03/11 14:46:40
Memo.             
[...]
  122800    99774    15718   -85904  -132299  -110199   -71760   -57904 
  -76060  -100331  -100974   -75913   -25895    30563    55216    38268 
   -4699   -46922   -59166   -40271   -13791    -2825   -19454   -39172 
  -17780    43492   110372   154770   161646   135282    70747   -32135 
 -126548  -168150  -144151   -55329    52853   107823    93608    56644 
   41077    51635    52245    -3261  -114451  -213024  -214853  -105870 
   46123   156503   180322   144179    84331    -9435  -107917  -149559 
 -141941  -111476   -50531    25297    88734   133999   130912    59981 
  -24261   -72162   -82105   -49948     4454    22305    -9728   -43915 
  -55052   -53572   -32208    27697   101682   126559    89003    41877 
   13639    -6155   -12714     9756    42934    44883     6752   -61229 
 -142999  -188791  -175318  -139378  -107340   -67401   -11275    36637 
   62617    79329    77354    46856    -8613   -94207  -172974  -172346 
  -80049    46022   136496   151919   109172    46036   -24371   -80190 
  -82067   -28888    15735   -12541   -91646  -156474  -178020  -150318 
  -94800   -56217   -27672    38043   121609   154452   116691    31314 
  -58120  -100377   -73920    17294   118771   139592    75035    12100 
    7751    28964     2371   -80802  -140272  -102992     9401    93153 
   69592   -25705  -111033  -156002  -159725  -133045   -89787   -33435 
    7511    13955     7405    -4505   -24295   -48733   -80276   -98409 
  -70722    -2819    76640   142074   153910    89043    -8912   -75558 
  -77464   -11134    70187    89969    49763     1337   -34194   -40605 
  -13418    -2065   -30270   -50462   -38688   -15812     9599    30256 
   37601    32741     5012   -39702   -68988   -80387   -91894   -94323 
  -80868   -74433   -80711   -70490   -27764    38291   119812   189615 
  196196   114650   -29911  -160294  -203711  -171665  -112700   -57376 
  -27834   -14681     1365     9910    -1714   -25175   -30889    -9738 
   13526    33230    42486    24528     1859     9501    48738    79330 
   69367    51581    57892    65606    56338    39070    24405    26597 
   50181    63192    43387    30280    58524    78343    21428   -88589 
 -165342  -159164   -80887    18188    64398    26413   -26613   -16307 
   34448    58346    35469    -6795   -44600   -69883   -67779   -46809 
  -35552   -29698   -21694   -18735    -8842    12049    28365    28439 
    4503   -19942    -6478    34666    70585    87432    68883      822 
  -81299  -110096   -75227   -25322      -11   -20801   -73572  -103554 
  -88726   -50523   -14017   -10868   -48969   -96403  -126058  -121362 
  -70707     3470    52302    60854    55335    43216    22123     7346 
   -2981    -7451    18920    61502    71758    40888    -4490   -43500 
  -58254   -36018    -2560    -5728   -47922   -86313   -80517   -10416 
   85594   114713    46571   -44923   -78155   -34886    37285    72755 
   52829     5480   -37786   -54423   -31104     9410    18055   -23560 
  -86758  -123534  -116659   -81906   -32092     -915   -10843   -25414 
  -20631    -2928    28458    45624     5928   -52523   -49035    -2754 
   20206    20645    -2009   -61679  -115975  -124639  -107498   -90559 
  -68304   -40999   -20909    -8924   -13583   -43051   -94176  -148768 
 -146803   -61520    35947    66837    29288   -10032    -1755    28000 
   40161    29510     3100   -24843   -22577    26032    75687    84357 
   71763    44347      333   -12737     3118   -26855  -102035  -148665 
 -139053   -92963   -39510    -9922    -7607     1288    36409    82208 
  111999   100189    64339    47674    33622     6566     8934    39346 
   61756    85143    89675    21401   -75085  -102966   -53858    27752 
   84118    48522   -58545  -148354  -162420   -79196    30329    35138 
  -48075   -67748     6686    51947    22161   -10454   -21703   -32187 
  -27437    -2384    15574     8507    -4287     8815    25022    -2626 
  -75898  -162334  -175661   -58878    64885    60938    -8702   -20952 
   32903    66259    25899   -43716   -98925  -139869  -131757   -57149 
    8372    13636    18409    72014   124416   125102    71447   -15324 
  -60200   -28061     9922    18969    12705   -29123   -87753   -99113 
  -60724   -14899    16847    16134   -12857   -30244   -39677   -64107 
  -75917   -55744   -18423     1884   -34398   -92479  -111538  -104124 
  -70050    -1711    32132     4569   -35808   -70121   -69733    -2495 
   70757    74821    29068   -11330   -35261   -55835   -68488   -61028 
  -40816   -22958     3507    44547    64743    44389    12046    -1242 
   -6461   -35610   -70206   -77459   -83315   -89709   -41045    55827 
  125043   122146    48438   -50257   -89575   -49999     5100    31471 
   13962   -34809   -64846   -75610  -104152  -125900  -107010   -61138 
   -9852    20928    25157    26384    29074    34597    37586    14206 
  -12162     6981    48123    26706   -58743   -77818    19773   112482 
  123171    85055    15004   -69115  -108033   -76863   -26185   -12258 
  -26053   -51423   -95517  -126077  -124339  -105867   -54312    11418 
   48316    83524   122694   113972    41421   -64319  -133386  -122046 
  -80167   -41589     4968    44152    72479    75637    25783   -39772 
  -88422  -128114  -140758  -109338   -53453   -19029   -19713    -9909 
    1413   -37808   -88626   -82649   -22621    44899    77074    53206 
  -27969  -110101  -110288   -45037    20252    67952    78220    43360 
   -3255   -40910   -56842   -24672    48609    82957    23133   -57234 
  -72116   -33855     9557    35513    48748    35261   -43373  -156222 
 -204403  -159043   -83069   -28204   -21529   -63501   -91315   -53784 
   26366   101731   127819    62512   -71568  -152181   -87989    61886 
  168135   170737   115278    73925    48869   -11004  -105972  -171438 
 -171274  -110801   -16102    49747    63154    53179    23978   -14858 
  -51345   -77452   -42204    37424    58945    25191     1240   -20738 
  -24095    38594   110629    94904    -1483  -109680  -176453  -154241 
  -61460    19312    71993   108087    98117    55426    18945   -24825 
  -71967   -69400   -32401   -18602   -17063   -28965   -87174  -157520 
 -177410  -120886   -13626    71452    80317    25472   -34636   -53475 
  -16805    70606   142383   130987    77622    24349   -27897   -34765 
    2812    19588   -10430   -69120  -106992  -105633  -106678  -117088 
 -109561   -79740   -46054   -13894    49224   111489    66643   -80591 
 -207289  -226816  -139183    -8299    87763   120194   116151    90353 
   36154     4391    21853     8131   -36706   -26213    10748    27695 
   50668    58165    13535   -46720   -74191   -84037   -96473   -91104 
  -73029   -42656    18888    79368    96009    52613   -23705   -77041 
  -99227   -82570   -18709    31386    34867    33346    54719    86031 
   89422    38665   -40373   -93258   -86882   -39224    -2519     1978 
  -11740   -61397  -158360  -211524  -129426    27050   123831   103824 
   13068   -78148  -129841  -115540   -61708   -24438     7813    44353 
   42822     8173   -13312   -22182   -31525   -19049   -11816   -77373 
 -163866  -146822   -31811    68429    72244   -19272  -112227  -121057 
  -52326    46998   112501   112258    81425    43457    10505     6172 
   23545    51924    67263     9911   -90062  -125055   -92409   -64937 
  -72437  -104352  -116728   -76509    -6429    61427    85231    29936 
  -47921   -71346   -53624   -32301   -10134     2893      101   -10976 
  -44828   -80929   -73402   -50946   -39416   -19963    -7078    -2396 
   12421    24822    28385    19981    19741    69851   113771    65417 
  -46832  -155250  -203182  -142189    -2185   115352   129136    43506 
  -65483  -122420   -92322   -11009    27297   -21199  -117278  -194862 
 -189671   -91407    31833   111706   138662   107877    -2685  -124905 
 -129410    -2959   149726   215897   165857    65612   -25500   -63337 
  -34489   -16832   -60004  -116265  -116641   -48486    11463     8763 
  -25519   -49159   -27792    26862    25182   -69177  -164991  -184903 
 -135772   -39407    44976    48360    19769    30139    40122    37695 
   65470    65842   -22618  -127202  -152177   -63887    91806   188726 
  153182    18905  -154112  -275962  -269480  -152902     5774   102981 
   61167   -49592  -133991  -169019  -110777    40056   163420   160167 
   64858   -20278   -53582   -63204   -65047   -61302   -79784  -135365 
 -169871  -105914    32150   141939   163594    78133  -100923  -270219 
 -333607  -290407  -143546    77293   246187   269266   170371    21351 
 -102928  -155553  -144279   -94484   -24704    47248    99924   120190 
  131734   137984    70804   -77356  -169925  -124233   -35439    36254 
  126873   177309   106489   -28377  -117688  -117118   -50345    41212 
   89541    41200   -34742   -56106   -49020   -44096   -38631   -54744 
  -91282   -74941    27401   122360   116053    22424   -89021  -146863 
 -107869    -5289    77063    98979    81789    21768  -109712  -249481 
 -306626  -281850  -189821   -75419   -53998  -128762  -150413   -40604 
  110594   188079   176571   125346    91094   102590   123821   125857 
  116903    71190     1832   -34931   -65851  -103439   -62096    73719 
  175268   131602    -7697  -112611  -137950  -129410  -140857  -187735 
 -224981  -194866  -107272   -23865    25675    47808    28483   -22899 
  -23564    63800   132671    64161   -85111  -148812   -99378   -45881 
  -24925   -26018   -66689  -103360   -97421   -64864    22520   130669 
  146176    83413    13230   -74230  -141969  -100860    26143   122681 
  127461    81887    43041    18078     7732    23444    41963    30577 
   20235    53060    81182    34495   -75087  -184988  -239106  -200792 
  -69896    81461   151607   107310   -15769  -123087  -132632  -102663 
  -78095   -14758    28678    12055    -1370   -44251  -130932  -167256 
 -152153  -119522   -26940    89708   125783    89116    45359   -13473 
  -90950  -122420   -69744    36270   118172   108751    45310     1580 
  -22721   -54159   -98893  -132485  -112663   -46498     1485    -2794 
  -11339    15136    33998     8750   -31541   -58861   -73015   -45977 
   38049    94476    46969   -53629  -123938  -136681  -105645   -70597 
  -83601  -142843  -156502   -78437    33913   138943   192787   139247 
   17851   -58196   -11779   109321   191376   205955   169189    79534 
  -29522  -115367  -154093  -121132   -33866    33232    22871   -39993 
  -86656   -95909   -83275   -64935   -70424   -88854   -67465    -9392 
   25881    -2537   -64688   -69544    16557    95901    66892   -37231 
 -100281   -68299     6786    52449    15357  -101970  -173859  -126207 
  -56113   -21164    -9832   -27109   -19850    35646    72331    71393 
   46358     -387   -37910   -64684  -105563  -146336  -162154  -135935 
  -53926    54649   111760    83510    17370   -50047   -95445   -72866 
   16038   121315   204250   245074   231724   143084     7911   -74784 
  -84946   -69190    -2001    97895   139869   135486   105336     9983 
  -93110  -119938   -94593   -60568   -43884   -99415  -212210  -272421 
 -269441  -262895  -213975  -107186   -16485    31324    49404    32441 
   -5285   -31781   -41616   -33958    -3690    16326     4490    -9581 
  -11014     2457    38396    73255    86360    66841    -9445   -94590 
  -98316   -44539     4580    61408    91879    47284    15310    64791 
  118430    94683   -20752  -181780  -287093  -288489  -237622  -155203 
  -18061   131607   239567   293305   272815   161685    -1264  -117034 
 -137076  -133072  -163488  -178810  -114339    11069   121943   167292 
  149706   106878    69223    49865    57672    56013    10108   -53492 
 -135635  -208154  -175273   -64141    35296   111453   108822   -34781 
 -212039  -258320  -188539  -130646   -99823   -42636    31909   105634 
  177134   225713   232762   160018   -30306  -236518  -295214  -212173 
  -93189    19322   112409   198217   296903   330920   219233     3917 
 -228468  -386400  -401766  -284326   -78906   136293   277175   341367 
  349996   281824   132264   -50273  -192078  -233866  -153749    22035 
  204214   270228   153582   -74810  -260092  -344939  -364078  -302232 
 -162870   -18369    85496   131076   126416   104037    55330   -19981 
  -62467   -93126  -202426  -322775  -331437  -247874  -120432    -6621 
   50857   125070   226058   254557   201030   108772     2176   -38829 
   55159   213137   287836   219500    78516   -24301   -41167   -25445 
  -38737   -65716   -97108  -147649  -193356  -235031  -288513  -306393 
 -241977  -116022    -9788    14911     5360    17178    12685   -43476 
 -103939   -76916    60454   214454   282550   208566     1497  -209244 
 -290692  -210075    17794   270391   377195   361784   307366   156611 
  -57134  -171856  -183401  -182098  -152740   -82634   -12419    44012 
   37220   -79773  -224951  -284717  -240097  -133266    -8166    86034 
  109396    70492   -28580  -197015  -370317  -459244  -414294  -208754 
   90359   295718   303074   223160   169432    90332   -37121  -116441 
 -123119  -106607   -81542   -73034   -93373  -109380  -112323   -94662 
  -38165    34145   107538   184865   229019   195631    97742    24745 
   59277   182759   318999   404543   411586   362878   312186   272659 
  198670    90553   -10280  -129668  -291590  -458339  -592024  -671153 
 -710515  -702595  -586007  -414055  -328268  -351647  -424129  -490767 
 -475007  -357235  -241988  -230584  -292525  -302159  -208897   -67088 
  103067   285566   440451   580759   726273   854690   862792   625847 
  247989    19261    22565    88966   128774   104990   -54351  -183498 
  -62333   214803   441640   527162   523403   479316   313924    65254 
 -127479  -319170  -570716  -706946  -552324  -195097    96246   132877 
  -46795  -274745  -388305  -313755  -150515    -4059   122875   171909 
  107223     4846   -90018  -191039  -294631  -363246  -347334  -202620 
   38593   273367   473446   622299   605858   399193   153018   -23355 
 -186646  -381486  -490258  -402263  -166978    51440   102885    34328 
  -17722   -66338  -144184  -193868  -190795  -159786  -123579  -109796 
 -147894  -196604  -142971    28585   188634   242394   214863   164583 
  127727    83753   -37029  -207660  -323640  -373522  -343932  -174854 
   73226   290212   442103   514620   489751   371810   231096   161714 
  130830    73722    36983     7168   -97048  -269997  -472660  -632762 
 -657525  -552862  -379412  -181682    12976   225456   448652   609086 
  687123   618385   307324   -58676  -271633  -430713  -511247  -313739 
   26386   175624    82705   -84522  -232129  -291846  -198198   -71974 
  -20347    21598    50728    15357   -55153  -115664  -151142  -128709 
    3012   184325   264868   183633    56533    49440   126572   151861 
  152768   169801   151987   128520   149750   189569   214725   180346 
   63397   -90038  -210906  -259785  -290779  -364450  -406737  -328202 
 -153455    42579   175576   191560   134626    49340   -69466  -152120 
 -130009   -57871     3169    27786      584   -42538   -89785  -163077 
 -192974   -97033    76221   216403   264396   208531    30026  -219873 
 -375599  -389259  -312111   -91360   185787   262770   118956   -79582 
 -257584  -381273  -395013  -255721    22567   298078   424865   390382 
  227528   -19443  -286111  -512642  -635873  -623033  -490130  -261034 
   53438   394709   635730   681903   532663   270061    10925  -185448 
 -332916  -349527   -93487   287381   512499   587824   541190   247674 
  -99390  -179555  -167265  -207342   -77016   111845   118456    70227 
   42861   -29904  -123925  -200414  -259861  -317010  -335422  -238885 
  -77174    -6940   -47691   -90233  -115457  -141179  -143697  -151535 
 -149495   -56842    85175   197037   302129   394976   370695   178583 
  -59331  -175562  -161671   -90117    45482   193922   247522   245209 
  250132   265864   315218   359582   357259   312020   193611    39598 
  -69890  -155644  -247743  -315871  -330895  -246844   -53461    89908 
   57527   -26088   -64364  -117980  -180082  -217925  -268370  -327437 
 -361346  -384530  -422742  -465234  -471419  -420895  -347303  -282014 
 -205587   -93950    49871   208546   322795   297604   156661    56405 
   57862   136578   282439   387917   335596   189015    92444    53023 
  -52126  -220708  -313181  -291162  -200461   -91227   -15879    23228 
   31157    21263    46731   113183   172686   193884   192354   185805 
  143215    50966   -38304   -62608   -35039   -20782   -33422   -69565 
 -141584  -210983  -225611  -168582   -29087   159190   275410   254104 
  210352   242379   268833   214658   107294   -41351  -223097  -378792 
 -433950  -326456   -80213   164545   310851   367963   310231   132018 
  -40439  -154452  -283328  -402508  -433914  -379019  -239791   -23015 
  187522   307096   270995    36693  -246264  -326916  -231884  -127285 
   34124   223915   252699   192037   188743   144968    12082   -54223 
   16203   109315   188430   299159   359433   283040   105293  -118392 
 -339445  -506569  -579878  -538521  -419565  -309966  -266905  -270344 
 -273870  -271479  -278181  -294263  -304957  -284024  -222697  -141875 
  -58346    -4777   -45135  -153836  -185335   -89129    26493    87436 
  108382   120017   130521   128782   147108   198850   216623   203027 
  213789   205552   145588   100542   104690   112257    84929    30793 
  -58380  -177657  -197386   -41532   144395   247721   299635   278425 
  148317     -973   -87233  -154681  -232193  -270130  -265102  -250325 
 -221029  -179311  -146996  -128443  -104259   -63153   -55043  -121470 
 -207685  -265938  -304584  -301167  -232557  -137845   -57362    26173 
  137156   267380   407850   510170   476281   290563    64526   -77787 
  -90812    23103   220325   372934   409429   388962   325829   215678 
  145764   142733   124740    56931   -44081  -173690  -295543  -362726 
 -388076  -409716  -428694  -413090  -359720  -303161  -265593  -263446 
 -306983  -367335  -380676  -279023   -61116   193415   395242   453641 
  321594    74026  -171920  -357860  -471660  -475595  -327068   -96715 
  114293   291768   400052   401545   368114   355103   320349   238386 
  157983   145662   202637   273026   300616   238875   104556   -18780 
  -96954  -135036   -93395    10929    51920   -16000  -106655  -170075 
 -227778  -292356  -343707  -346518  -272811  -130588    16984   103737 
   93862   -11983   -99316   -53622    64797   188688   305153   313374 
  186804    60826   -10476   -90249  -180148  -215985  -191907  -147410 
  -76955     5874    35336     7560   -38382   -91508  -130078  -155812 
 -212779  -282937  -305594  -262871  -160804   -48470    20077    94858 
  206991   274601   275416   245039   156421    32351   -38713   -50028 
  -48038   -53164   -51883   -16095    44791    91699    91572    47374 
   -6363   -78415  -184945  -284949  -316173  -232136   -97964   -41048 
  -15864    82996   157580   114536    48988    -5535   -64413   -29796 
   99867   218686   305213   354655   361196   338668   244502    84793 
  -33289   -98167  -187311  -260375  -238854  -179945  -149015  -114397 
  -55487     3930    34433     4575   -82828  -179525  -234671  -218514 
 -153902   -92021   -44937   -17796   -24355   -44830   -62009   -99506 
 -153544  -172415  -151071   -99188    -5293    72724   100626   132850 
