Origin Time       2011/03/11 14:46:00
Lat.              38.103
Long.             142.860
Depth. (km)       24
Mag.              9.0
Station Code      FKS022
Station Lat.      37.6005
Station Long.     139.6472
Station Height(m) 159
Record Time       2011/03/11 14:47:17
Sampling Freq(Hz) 100Hz
Duration Time(s)  300
Dir.              N-S
Scale Factor      3920(gal)/6182761
Max. Acc. (gal)   137.566
Last Correction   2011/03/11 14:47:02
Memo.             
[...]
   43484    53845    59713    64492    70210    74438    75343    74547 
   71590    63736    52381    42031    34923    29861    24084    16257 
    7185    -1544    -8097   -13369   -21518   -33186   -43894   -49599 
  -49204   -44801   -39929   -36369   -35117   -37507   -42708   -47527 
  -48460   -42106   -27453    -9072     5717    12707    12468     8076 
    2390    -1729      130     9984    22912    32551    37764    40339 
   41480    41319    39970    38960    38843    37589    33912    28453 
   22458    18121    17614    21047    27145    34687    42257    47348 
   47194    41649    33522    25449    18406    13406    13107    19193 
   28905    37637    42740    42457    34938    20667     4791    -5723 
   -8650    -7004    -3638      761     6823    15670    27030    37690 
   43297    43129    41040    40654    42380    45217    49492    56083 
   63456    68996    72334    73316    69104    57545    41203    25289 
   12256     -522   -16109   -32739   -45741   -51049   -47123   -37735 
  -30210   -29205   -33375   -37354   -36594   -30430   -20861    -9014 
    4762    17201    24062    25799    27002    31540    39634    48919 
   58693    70685    83815    90972    83705    62315    39726    29251 
   30910    35663    37015    33519    26428    16887     3266   -15843 
  -37300   -55918   -68927   -75586   -74745   -66671   -55565   -45940 
  -39303   -36196   -36230   -36459   -35402   -34905   -33721   -27880 
  -18849   -11288    -5301     2099    12284    24521    37437    50728 
   64158    75398    82917    88688    94725   100326   103592   103328 
   99995    94931    88903    82365    74713    64548    54332    47554 
   40242    27479    11994    -3377   -18538   -30881   -39588   -48532 
  -58940   -67033   -69926   -67920   -62710   -57472   -55514   -56676 
  -57271   -53864   -47508   -43799   -45465   -46337   -37631   -18519 
    3367    20114    30266    38126    48324    62077    76192    85843 
   90358    93521    98233   103640   105454    98889    83239    62170 
   40889    24400    14386     7535     -252    -9149   -16144   -18910 
  -17212   -12876   -10341   -13360   -19871   -24746   -26940   -27864 
  -25356   -17089    -6381     3281    14745    29785    42254    47517 
   48654    48807    48796    50111    52972    55791    56648    55368 
   56660    65054    77385    87077    90960    88943    83115    77510 
   73334    65551    49133    25698     1911   -15554   -25051   -28963 
  -27657   -21904   -17050   -16836   -19689   -23270   -26578   -28750 
  -28210   -23938   -18183   -13751    -9386    -3007     3692     8567 
   13912    23033    33476    38803    36518    30311    23768    16288 
    7568       69    -4481    -5036      104     9739    18906    23166 
   20981    13953     6140     1414      917     2902     4909     6040 
    7784    11489    15095    17106    19962    24655    29807    35981 
   43946    52235    58389    58917    49366    29798    10501     3776 
    8733    14431    14971    11388     5197    -3019   -11811   -18505 
  -22385   -25964   -30759   -35302   -38359   -40791   -43234   -44728 
  -43935   -39307   -31263   -24270   -21157   -19862   -19424   -21512 
  -25975   -30205   -30860   -26422   -20002   -16123   -15544   -16760 
  -17996   -16144    -9814    -2128     3001     3105    -3343   -14275 
  -23841   -27473   -24869   -19474   -15547   -13733   -11808    -9404 
   -7336    -4730    -1001     2916     6901    11493    15799    18069 
   17485    15466    15059    17062    19519    21572    23006    22258 
   19217    16385    14958    13593    11308     8456     6148     6472 
   11911    23018    35195    40607    37775    33219    31086    31048 
   32910    35789    39481    45067    50627    53660    55074    55937 
   55384    50899    39641    22736     5035    -9930   -21603   -31487 
  -41751   -52481   -60286   -61339   -56388   -50130   -44842   -38970 
  -31773   -24793   -19883   -17851   -18098   -18676   -15166    -2985 
   14651    28120    34976    42139    53917    68241    81325    89651 
   91788    88882    82316    73814    66590    64230    68836    78992 
   88809    91667    85853    74553    61475    48868    38696    31647 
   24698    15272     5109    -5084   -16527   -26135   -29394   -27177 
  -23713   -22944   -27603   -36529   -45267   -50872   -52817   -52050 
  -50948   -50060   -46606   -39301   -30904   -25000   -23636   -26926 
  -32791   -38585   -42942   -44183   -39216   -28365   -18823   -17087 
  -19899   -18497    -9059     5805    22111    37174    49545    58756 
   64435    65338    61813    58313    59919    67485    76528    81498 
   82070    81162    79736    78305    76876    73030    65734    57413 
   51248    49309    50268    49420    43966    35261    25727    17174 
   10933     7848     8152     9438     7105     1850      924     7338 
   17099    26605    33072    33203    26951    17278     6869    -1656 
   -5491    -3994      197     3312     3907     3335     2112     -934 
   -4922    -5892     -284    11119    22974    30080    31791    31162 
   30820    30726    29316    26264    23385    21790    20701    20187 
   21868    26375    32189    37103    39543    39446    38916    40250 
   43969    49383    54293    55881    53278    45585    30934    11949 
   -4836   -16855   -25697   -31529   -33024   -30478   -25971   -20945 
  -15429   -11171   -11999   -17431   -21211   -19489   -15412   -13867 
  -14391   -11284     -679    15311    31357    42056    42743    31446 
   11592    -8933   -22771   -28314   -28926   -26168   -18966    -8868 
     213     6020    10338    16884    25155    30625    30330    23028 
    8323   -11001   -29849   -43189   -46028   -35978   -16356     7484 
   32264    55393    73619    83529    83660    77457    70077    63001 
   56752    53223    51730    50897    53493    61551    70744    73499 
   64273    44327    22499     6555    -3796   -13006   -23210   -33560 
  -43685   -53424   -59122   -55918   -44359   -31169   -22907   -20056 
  -19234   -18754   -17892   -15567   -12783   -11887   -12525   -10316 
   -1183    13984    30198    41499    45426    45465    44981    42839 
   39122    36956    35169    30133    25685    27976    35207    41866 
   43849    38275    25078     8035    -5368    -9780    -9420   -11394 
  -15977   -19969   -22143   -23243   -23481   -20947   -15057    -7739 
    -815     3477     4407     4059     2754     -234    -3136    -5063 
   -7567   -11057   -14762   -17823   -17673   -11880    -2764     3599 
    3051    -3444   -11692   -19048   -25740   -31228   -33094   -29864 
  -22621   -14867   -11537   -15733   -24900   -32588   -34739   -32162 
  -28160   -25302   -22679   -16199    -3016    15255    34292    50411 
   61158    63629    55004    37020    17310     2782    -6205   -12877 
  -17495   -16898   -10627    -3313     1278     5054    12623    26796 
   46017    62656    68540    63086    50760    35964    23481    15993 
   11550     7640     3500    -2325   -11099   -20944   -28382   -30727 
  -25790   -12187    10128    38566    65708    84358    93959    95136 
   87490    76163    66663    58169    48622    36796    22248     7274 
   -4719   -10611    -7916     3717    21698    41731    59260    69535 
   71424    70963    73930    78524    81221    82703    83556    81420 
   74498    62516    46244    28870    14418     5117      864    -1717 
   -7340   -16445   -24802   -28888   -27671   -20910   -11694    -8131 
  -14744   -26230   -36413   -46447   -60318   -78556   -96866  -108896 
 -110112   -98647   -75769   -47124   -20883    -1583    14043    31111 
   49350    64676    72881    73084    69947    68759    70233    71855 
   71202    68448    67204    71908    82974    95564   103688   101160 
   80917    43432     3094   -24358   -36264   -36874   -27551   -10357 
   10368    31508    49108    55881    44919    17008   -17572   -44587 
  -53471   -43734   -20525    12234    46803    73695    92048   104494 
  107709    96583    73156    48449    32106    22085    11905     2333 
   -2073    -1933    -1486    -2692    -6587   -14984   -27333   -40992 
  -53696   -63161   -67503   -65834   -57499   -43901   -29591   -18767 
  -12648    -9866    -8090    -6107    -3282     2657    14000    30288 
   50220    73412    98504   122871   142628   151720   146213   128336 
  103147    76815    57178    47222    41407    33071    20685     9706 
    8798    17385    22628    13967    -4918   -22779   -34861   -41594 
  -40615   -30545   -14339     3951    20482    32368    38274    37833 
   31168    19500     7218     1230     5802    18799    34841    49384 
   57253    54347    42758    27727    12245    -1792   -11862   -16581 
  -17179   -16181   -15399   -16537   -22136   -31634   -39349   -42878 
  -47147   -55414   -65595   -75595   -84345   -89648   -87794   -75814 
  -56634   -38266   -23853    -9178     7612    22056    28664    26300 
   21712    24961    39268    59510    76563    80491    65751    36000 
    3134   -20158   -29126   -26430   -16024    -5089    -4083   -14604 
  -25802   -28859   -27552   -30497   -38108   -44001   -45815   -46416 
  -46607   -42327   -28655    -5302    21403    42511    52557    51465 
   40732    19400   -11970   -44001   -63466   -66113   -56284   -37933 
  -14633     7144    22400    33481    44028    49953    46907    40023 
   37030    38168    38329    35147    32023    35557    48237    63988 
   75529    81210    82967    81230    70739    46246    13592   -14151 
  -30233   -35441   -30049   -13186    11242    31874    35384    17079 
  -16712   -56228   -93112  -121303  -137788  -140892  -129304  -104564 
  -71415   -37453   -13479    -5314    -6045    -1715    20336    59742 
   97438   119269   129899   133521   129943   123460   114410    97799 
   74189    50467    34156    28358    28414    26173    19840    14353 
   11611     9730     7997     3907    -6682   -21156   -29895   -28276 
  -23129   -23167   -27904   -30961   -28411   -20317   -10223    -3442 
   -2119    -1117     9217    32150    59672    82697    99509   111324 
  117348   117239   114236   113312   116061   119328   120565   120101 
  115868   102887    80064    52008    25570     6441    -5458   -15195 
  -25332   -33599   -37231   -38875   -45925   -59212   -69945   -70997 
  -64325   -59313   -62594   -68945   -70693   -68024   -64117   -61342 
  -58259   -48968   -34038   -21026   -11047     2441    23557    49062 
   73236    95055   117248   140673   162441   177815   184435   184890 
  183204   181258   178380   170408   153330   129213   102087    72038 
   40019    10391   -15805   -40242   -60705   -74059   -80431   -81314 
  -80994   -86199   -97520  -105971  -101767   -85688   -69831   -63195 
  -61196   -55326   -43788   -29248   -15752    -5822     1878     6703 
    5299     -502    -4951    -4073     4007    18357    34774    48246 
   56597    60736    59559    49534    29799     3851   -22341   -44810 
  -62753   -74781   -79698   -78680   -72005   -58004   -38012   -18461 
   -7676    -9535   -19860   -32679   -42919   -41116   -20179    11209 
   35729    47612    52710    54105    49239    33512     8808    -9561 
   -9720     4210    25316    48089    65450    76308    84291    90250 
   92025    83683    58441    18570   -20762   -43275   -48324   -44945 
  -35583   -23010   -17655   -25870   -43857   -63147   -76101   -79883 
  -78276   -76180   -71751   -59813   -37532    -2671    41607    81883 
  108485   126471   142260   153801   157506   151482   136106   115805 
   97257    86410    83023    81158    76769    68102    53885    36156 
   21864    18172    23230    27738    27659    25930    23582    18694 
   11302     2816    -6173   -14066   -17534   -14095    -5932      -72 
    -113    -1594     -202     3423     8565    15213    21243    24330 
   25108    26723    32078    41628    52688    60488    60698    51953 
   36558    18489     1541   -10965   -16443   -12742     -389    12865 
   18091    17292    20244    33286    55690    80365    99022   109224 
  113628   113938   109485    99870    85898    69502    52123    33241 
   14275      601    -4533    -3798    -2456    -3839    -6581    -7697 
   -8971   -15885   -30557   -48789   -63630   -69569   -64944   -53922 
  -44064   -41344   -47839   -60577   -74130   -85414   -92188   -91312 
  -81559   -62528   -35501    -9057     5960     5611    -8151   -29172 
  -47273   -53911   -46808   -30893   -16147    -9894   -14257   -29846 
  -52254   -70258   -75683   -70432   -62064   -55378   -48910   -39776 
  -28830   -17255    -2810    15343    32804    45507    54483    63059 
   74064    88254   103897   120298   138201   156703   173220   184348 
  187285   182737   175070   169427   168256   169220   167908   160681 
  143466   114699    79328    43223     8108   -25397   -55561   -79441 
  -94290  -100476  -100734   -99305  -100714  -104392  -106097  -104905 
 -101298   -93580   -81624   -67366   -50329   -29135    -6458    13094 
   28265    39887    47993    53617    58318    60080    53356    34062 
    5057   -24395   -46159   -58227   -62917   -63828   -63667   -62638 
  -59920   -55538   -51200   -49818   -51699   -55550   -60930   -64423 
  -61544   -52463   -39814   -24658    -6538    15709    42812    73031 
  103746   134106   161955   181882   189551   185329   173867   160897 
  149999   142319   136353   127341   110163    84215    54339    26074 
    2176   -16257   -28998   -36162   -38258   -39374   -45833   -59951 
  -80336  -105433  -133777  -163302  -188881  -203542  -205180  -196068 
 -176588  -145778  -107045   -68378   -35291    -9647     5964    12997 
   19252    29703    43526    59334    77373    96779   113935   126065 
  132550   132042   122288   103114    78891    56641    40282    29066 
   22784    22575    26911    33808    41717    46309    44183    37461 
   30999    26713    22467    17213    12474     8622     5839     7045 
   15093    29170    46558    64498    79248    87887    90642    89258 
   85304    79907    74210    69908    67967    68184    71085    78258 
   90293   104523   115159   116425   105709    85468    62237    41529 
   24624    10948      557    -6369   -11084   -16742   -25697   -38258 
  -53628   -67480   -73752   -71030   -62384   -53815   -54354   -69707 
  -95432  -121921  -143171  -156003  -157846  -150709  -140454  -129936 
 -117927  -101258   -77470   -52037   -33847   -20167    -1859    19982 
   35812    39338    32704    25637    27799    39158    51638    59349 
   61759    60824    60742    65762    75499    86050    95317   104441 
  114545   124272   131024   133537   130758   118377    92029    54396 
   16090   -10697   -22094   -25215   -27701   -29314   -26391   -17787 
   -4534     9566    18586    22694    30168    45962    65782    82273 
   90544    91069    89536    90481    93741    97118    98596    96001 
   85324    63030    31462    -2576   -33409   -59167   -80387   -94879 
  -98057   -90356   -78929   -72097   -73437   -79667   -86416   -94377 
 -104669  -113371  -117050  -116785  -112800  -103988   -92674   -81137 
  -67037   -47985   -25778    -4239    12534    21995    26970    32002 
   37054    40663    43034    44656    46447    48414    48281    43036 
   31092    14289    -2722   -16158   -25906   -34655   -44517   -55281 
  -64889   -70119   -68326   -59220   -44927   -28772   -13542    -1944 
    3963     6010     7480     8508     8119     6913     7207    12268 
   22954    37557    54331    70337    82883    91587    94798    89662 
   75247    51908    22773    -5091   -26532   -41477   -49286   -46339 
  -31415    -8504    16030    37046    51060    54825    48653    40267 
   38853    46811    60188    73207    81307    82179    76049    66225 
   57742    54749    58521    67898    81546    96708   109116   117351 
  122002   121043   110894    91832    70667    56039    50348    49650 
   51110    55277    62068    69527    76081    79988    77262    65138 
   46786    28713    14702     4049    -5301   -13705   -20370   -24637 
  -26097   -25568   -25568   -29399   -39780   -55301   -69024   -74931 
  -73702   -69168   -64087   -60839   -58581   -50890   -34754   -17616 
   -7887    -5474    -6560    -9581   -14529   -20519   -24880   -26323 
  -27002   -28294   -29432   -32297   -39351   -47034   -49279   -42556 
  -26089    -5232    10925    19079    21931    21729    19927    19337 
   22531    30560    41850    52217    59826    65845    69181    67446 
   61867    56733    54377    52641    48993    45137    44927    50036 
   58998    68629    77306    86677    97829   109365   119661   126852 
  129269   126133   117225   105760    98610    99815   106620   113632 
  118195   120116   119085   112991    98285    75619    52524    35763 
   24565    14012     2379    -8503   -18827   -31566   -47653   -64535 
  -80620   -96551  -111269  -122214  -127595  -125669  -115343   -99033 
  -83703   -76686   -80133   -90227  -100638  -106700  -105668   -95415 
  -76526   -52292   -25344     2789    29075    49328    63695    77190 
   92279   106801   117430   120670   113709    96206    73772    59604 
   63784    81855   102062   116456   121617   120159   118609   117439 
  110492    92881    64989    33175     6035   -13354   -28369   -41996 
  -54781   -66898   -76845   -82126   -82174   -78745   -76336   -79955 
  -89532   -99682  -105259  -104715   -99472   -92235   -84491   -75328 
  -64185   -53137   -44877   -40651   -40292   -41375   -39462   -30906 
  -15471     2549    17880    29491    38706    45718    50750    53865 
   53981    50480    43650    33656    21101     8157    -2121    -8260 
  -11139   -12166   -13201   -16543   -22247   -27879   -31154   -31857 
  -32031   -33062   -33606   -32395   -30104   -27110   -22122   -13592 
   -1781     9763    16588    18432    18157    17608    18358    21668 
   26343    30503    33644    35533    35734    34023    29930    22866 
   13635     4895     -839    -3345    -4464    -5945    -8248   -10472 
   -9305     -915    12927    24785    29285    27650    25157    25479 
   28651    34425    43405    55817    71631    88559   102135   109614 
  109210    99130    80992    59325    37214    15199    -7262   -30960 
  -55013   -75156   -87370   -91540   -89331   -82949   -75822   -70448 
  -67811   -68309   -69327   -66858   -61069   -54073   -46127   -36963 
  -25373   -10565     3493    11099    12127    11482    13808    22667 
   39663    61365    82123    98250   106970   107081   101768    96947 
   96123    97916    99028    97139    90342    78243    63873    51156 
   42026    36938    35895    38597    43693    49150    54361    59800 
   65081    69213    71584    71949    70938    71617    77471    87488 
   96752   100089    93297    74806    47439    18472    -4111   -18198 
  -26894   -31849   -32607   -30818   -31137   -37480   -49602   -63819 
  -75304   -81403   -84590   -88978   -95369  -102092  -106638  -106552 
 -101254   -91748   -79486   -65358   -47609   -23636     5224    33437 
   55152    68188    76231    86056   100788   118389   135822   149380 
  154207   148395   134992   119360   105249    92385    79173    67157 
   58643    51575    42253    29957    14594    -4558   -24829   -40854 
  -50331   -54949   -57680   -61062   -65763   -71296   -77412   -82993 
  -85821   -84835   -80846   -74082   -63799   -51196   -38466   -25740 
