Origin Time       2011/03/11 14:46:00
Lat.              38.103
Long.             142.860
Depth. (km)       24
Mag.              9.0
Station Code      FKS013
Station Lat.      37.0893
Station Long.     140.5546
Station Height(m) 303
Record Time       2011/03/11 14:47:00
Sampling Freq(Hz) 100Hz
Duration Time(s)  300
Dir.              U-D
Scale Factor      3920(gal)/6182761
Max. Acc. (gal)   221.546
Last Correction   2011/03/11 14:46:45
Memo.             
[...]
   41783    14294   -17197   -62039  -128098  -146094   -57339    60591 
  103904    57880   -28766   -79815   -69827   -60150   -58679    -2618 
   61751    44727   -12257   -41623   -54234   -48961    -4978    29003 
   18343    18388    32930     1251   -66601  -103074   -72198   -12891 
   14534     5741   -13430   -31473   -54534   -72676   -64360   -60152 
  -80701   -76603   -55614   -82474  -109191   -53026    22038    23382 
  -16979   -30279    -5517    30183    48608    35192    -7010   -35374 
  -16789    -1224   -28227   -63889   -66477    -9502    62379    46823 
  -50616  -116285  -103455   -63136   -29549    -5447     -417     2285 
   12742    -3026   -50363   -89740   -85635   -15814    77875    92688 
   25003   -43744   -82237   -55281    41639   104161    81256    32544 
     232   -10558   -20862   -53853   -53290    29349   104422    76845 
  -22859  -119301  -159555  -125788   -43200    39246    65510    13722 
  -66581   -95914   -57317   -15707   -17634   -27153     9025    57070 
   26900   -66422  -111132   -74384   -13464    23106     8896   -33941 
  -46007   -42486   -67786   -69753     8287    95621    70581   -48903 
  -92419    -8654    43659    -3648   -48192   -57872   -66602   -46471 
   -1270    10167     4835     7462   -28284   -65043   -34121   -15560 
  -63033   -81450   -28788    12011   -18058   -59999   -38287     2831 
  -11858   -56973   -61897    -8085    45563    45039    11499   -41046 
  -97190   -77096    11849    53632    17965   -51998  -106131   -74215 
    1975    -9282   -74626   -71547   -23950    -5943   -16941   -30794 
  -25994    -2371     1183   -47207  -103592   -85251    -4788    38883 
   30358    34699    35446   -31069  -121192  -124638   -40616    23004 
   36303    38894    -2291   -89420  -129148   -94585   -41125   -11717 
   -5066     6395    -3118   -54673   -64959     -744    37306     2133 
  -43908   -55228   -26554    18379    27974    -7173   -55799   -90801 
  -76950   -19566    12329    -7757   -38360   -60465   -89804  -123068 
 -115225   -41850    20101     8039   -15524   -15491   -36089   -69459 
  -81227   -59892     1276    28816   -46528  -104517   -34798    44483 
   26724   -11278    15031    68901    33893   -89079  -126186   -40022 
   22091    -4629   -81196  -135968  -120790   -85517   -78128   -50913 
   24679    65433     6700   -79105  -104014   -85506   -66618   -24062 
   56419   109629    68799   -34515   -81617   -49619   -49688   -99891 
 -122058   -98700   -38957    40387    69316    26276    -5935    10323 
   22455    -2434   -34424   -22709    19077    29313     1997   -32167 
  -54453   -45309   -11105     5481   -10876   -42409   -74329   -78547 
  -53400   -41174   -42026   -39632   -56083   -73838   -54635   -43132 
  -63526   -42962     5251    -9780   -54100   -49672    -4913    43290 
   46121   -34537  -116417   -76568    26047    51449    -1761   -66017 
  -90565   -62897   -35295   -30203   -11575     8575   -17587   -62598 
  -50298     9642    36787     3911   -49927   -62635    -1331    63763 
   28211   -67829   -92416   -38577     9414    18896     -916   -20540 
  -13701    -1599   -27310   -70257   -46209    26051    28197   -32884 
  -55560   -38137   -44147   -76720   -90539   -55995     9673    40179 
  -10964   -95847  -132008  -120663  -100082   -52778     7028    12951 
  -24919   -45195   -48108   -59884   -66660   -59954   -48124   -26270 
  -21285   -55143   -78815   -78034   -93292  -106149   -85377   -32682 
   39522    48935   -47843  -116436   -54228    35970    35939   -19578 
  -41866   -15220     -783   -45430   -93111   -59038    26413    48724 
  -14566   -66832   -60054   -22945    18445    10040   -53716   -47969 
   60458    94044   -30456  -132462   -98734   -51459   -42723    -4679 
   19147   -19430   -46249   -37875   -31190    -7354    19827     5611 
  -18747   -23540   -15541     8289    24349    14277    18605    60852 
   60400   -40168  -133517  -138425  -112717   -82613   -29886    20068 
   37126    33065    43752    71339    59195   -37262  -160937  -186447 
  -81026    33222    40311   -10895    -9536    25140    25551    13011 
   14671    18437     9044   -24316   -71143   -95434   -52675    19900 
   33019    13112     9370   -18475   -68800   -79092   -52190   -41468 
  -47588   -34668    11535    48361    19029   -29782   -31912    -9776 
   -8167   -79164  -169058   -94898    93454   126852    -2850   -76859 
  -51824   -45279   -78646   -70695   -10085    21619    -2377   -19095 
  -16241   -53257  -106609   -89971   -31886   -21599   -58843   -94244 
  -78004    18843   102549    33042  -118763  -153374   -65856     1062 
  -11557   -57122   -69891   -61986   -67140   -35922    26427    37584 
    3745   -37405   -55602     3438    86330    77283   -18994  -107608 
 -118360   -45393    73971   161647   119961   -35019  -136685   -89127 
  -14394   -43094  -110241   -98368   -18147    22639   -45015  -116057 
  -38469    92278    76841   -25114   -36916    20447    37560    10442 
  -12531   -15548    -6002    -8520   -67871  -125756   -56865    49647 
   22969   -68958   -70854     2447    21740   -32198   -69029   -59374 
  -24321    10137    18536    -6109   -67249  -129771  -120545   -35684 
   33886    18957   -41850   -58693   -13115    30395    14868   -42184 
  -42557    47720   102993    58283    21262   -11800  -149647  -260813 
 -177937   -13486    62079     8079   -98855  -157729  -165578  -135028 
  -52102    11384     -927    -2079    57841    70643   -37515  -154058 
 -128177    26670   139703    77613   -64466  -102661   -12500   103890 
  101280   -50490  -141069   -42770    75966    67069    -1960   -13777 
   42345    61922   -40562  -168265  -137405    32147   122111    34540 
  -84089   -81429   -22866   -15054   -18330   -29242   -70788   -42719 
   46716    68753    45115    18230   -42582   -87938   -42585    58700 
   74197   -31609  -114595  -110041   -55695     -665   -27625   -94784 
  -73899   -10822   -13538   -42994   -41413   -23987     4569    -2882 
 -101522  -161199   -64096    35637     8269   -44602   -36695   -20557 
  -56037   -93408   -43784    55650    79764    12459   -48089   -56927 
  -32006    10767    27893    -4812   -52055   -81681   -69126    -7441 
   57300    64298     6156   -54475   -60259   -13020    20658   -41220 
 -127421   -97978   -50021  -110286  -114128    -1669     3526   -81277 
  -57236    -8224   -35893   -19321    12921   -56686   -88697     3997 
   59046    10489   -49025   -52733     1209    39914     1429   -50678 
  -56613   -35468    16489    42909   -30239   -76640   -18027   -18004 
  -95534   -81512     7545    50895    43902    14246     8716    61001 
   55079   -70330  -107928    45333   126565      236  -112852  -100567 
  -53484   -19501   -33459   -93513   -79554    19246    17764   -99422 
 -130082   -52929     4969    27229     8695   -37249   -15331    38689 
   12671   -46412   -51762   -24002   -12837   -23689   -20414    -6515 
  -48371  -119776  -111181   -33463    15137     4686   -36568   -74554 
  -74356   -28698   -12109   -71148   -82372    22289    92946    31507 
  -74877  -115183   -77190   -12567    56629    66885   -57585  -165632 
  -79499    50981    32619   -58868   -97106   -56150    31141    55393 
  -21915   -85945   -73302    -8220    63930    43806   -60328   -75379 
   23342    71649     5790  -105772  -168215  -114493    -2070    41746 
   -1702   -33809    11264    52335   -24549  -138000  -154466  -130483 
 -112299   -45470    49706   104111    62376   -60778  -136990  -108852 
  -72772   -67486   -14452   103371   184575   120946   -60563  -178150 
 -134981   -47590      -46    44164    66886    31441    -9947    -9089 
  -10478   -63226  -116081  -100218   -15845    86236    97527   -15188 
 -111566  -111053   -66503     3999    72257    47334   -79267  -167079 
 -113266    -6757    30049    10262    -2255   -34766  -113628  -132655 
  -40463    47327    57538    20085   -42850   -85799   -59007    -1472 
   67345   160588   176288    67946   -30554   -88233  -138296   -73112 
   66578    86535    12089   -31376   -55823  -109753  -147347   -91203 
   13398    77722    91980    29002  -109793  -189751  -125953   -27184 
  -28496  -119796  -172010   -88495    45202    82650    35043    11759 
   31783     6977   -42509    -1625    70273    49764   -26622   -80212 
  -96133   -76094   -33563   -14083   -33972   -25160    16033     1280 
    -997    88160    87067   -85604  -193316  -126600   -34229     3484 
    4664      -75    36343    70643    18291   -82184  -135315  -106979 
  -11548    80193    74621     7799   -25143   -43743   -77344   -85176 
  -49058   -11697   -24337   -60351   -56511   -34432   -37364   -59160 
 -108381  -153979  -115668   -21743    32382    20277   -34715   -69371 
  -27585    21931   -25977   -92831   -34193    40861   -32855  -118323 
  -49401    83486   131402    60961   -55876  -128125  -128291   -87302 
  -47128   -23858   -11761     1171     -821   -38067   -67037   -69204 
  -61683   -20524   -15216  -113905  -152392   -19234   107200    62007 
  -96007  -234037  -245536   -88911    70530    40228   -35042    39842 
  105268     9169  -103208  -111994   -72656   -58693   -69431   -41810 
   39388    88303    39953   -52573  -101623   -88658   -46786     2260 
   40235    29292     2693    33668    66453    13952   -87659  -161270 
 -160090  -100651   -49080   -14999    10334    17750    44579    69067 
   -7090  -150816  -223605  -191716  -110034   -11723    69404    98561 
   91014    88525    87527    31292   -89974  -192376  -176747   -73762 
  -44306   -90546   -40686    94192   125433     7768  -114520  -128145 
  -55281    24255    58911    66965    95230   116345    68379   -28193 
 -113771  -146954   -95425    31406   156491   191866   148195    91145 
   36569   -23126   -92514  -136852  -119963   -85219   -77890   -99211 
  -96823   -20548    18844   -68671  -140408   -93568   -37072   -65017 
 -105690   -55912    42937    79465    53479    36782    12545   -77727 
 -155324  -104725    32412   137657   124983    12975   -68389   -64477 
  -41793   -38995   -42722   -46825    -4425   125365   210585   110635 
  -74176  -165214  -122755   -17177    26427   -65980  -177640  -158718 
  -47251    29262    25169   -25895   -65394   -53328   -32046   -38880 
  -27617    -3127    -5172   -14136   -35538   -66848   -38223    28472 
   18173   -57160   -66769    14531    44888   -40599   -72869    42930 
  143330   121748    30902   -84292  -125078   -17268    51754   -58864 
 -117152    27124   153262   133746    89160    30865   -94697  -165223 
  -81107    44914    52432   -36968   -51808    -1792   -36440   -88459 
  -62255   -36243   -40232   -54458   -86187   -99688   -54524    14761 
   24342   -37384   -95056   -85346    11236   126281   117890   -33565 
 -153333  -100323    38017    80761     3306   -80684  -102305   -67646 
    1812    58288    42459   -27907   -89514  -124019   -99520    23089 
  163813   156859    -6580  -112655   -77921   -48388   -81028  -111111 
 -114573  -116625  -111651   -66855    -6055    27047     3805   -58162 
  -76785   -66285   -95897   -94294    -4665    44169   -24134   -82536 
  -46387    25938    47715   -25388  -119488  -137137   -76582    17949 
   74969    71737    34085   -52123  -111799   -51116    16350    -7628 
  -34362   -12147    -3244   -63278  -135089  -100138     4146    33197 
  -29320  -107785  -153570  -151948  -108008     2726   165774   226398 
   84750  -106466  -137363   -41125    11943   -21293   -86247   -78310 
   46547   113048    23173   -58645   -56292   -38490    16044    86903 
   40510   -68965   -52007    21115   -37608  -127219   -76977     2904 
  -16034   -55532   -37610    22212    49158   -23496  -124722  -130295 
  -35025    52820    55912     6511   -64062  -141585  -147634   -71079 
  -42741  -102571  -115996   -19538    73396    68873    18779   -20534 
  -44034    -2643    78160    78708    31965    35870    41981     8602 
  -38387  -112099  -180969  -143437     2311    70908   -77704  -238498 
 -142602    61056    64320   -93563  -171987   -98275    29757    82169 
   27977   -22958   -35092   -86546  -144573  -159171  -114879    61510 
  182554    19065  -136731   -82425   -84250  -136164    -1471   151201 
   62923   -91707   -69319     2120   -30477   -56938   -46212  -131584 
 -260350  -219841   -26140    78723    30550   -29171   -52075   -56237 
  -17056     8508   -46059   -81454   -22978    42712    79463   115545 
   71609   -57591   -86344   -17660   -44710  -121267  -111562   -65567 
  -29958     7481    33724    59531    83594    54392   -43249  -127587 
 -121705   -54870    16697    31936   -31329   -87663  -109095  -110515 
  -28098    96662    95102   -38554  -101309     -814   113844   104108 
    7699   -49101     -454    92381   102133   -22709  -150583  -117541 
   12337    55141     3880   -47154   -83890   -48733    83565   133984 
   37462   -52180   -76312   -75175   -60529   -53719   -89203  -119177 
  -68235     9268    52827    89955    95873     5875  -149298  -197786 
  -10564   254721   301578   111627   -29134    -5104    11182   -61731 
 -157551  -219244  -146907    86394   250238   174588    -4594  -117415 
 -127063  -124828  -202905  -224870   -37812   197427   251182   158943 
   41315   -95202  -187016  -125817    -5374    -2740   -62275   -35550 
   12510     2072   -12378   -49151  -117415  -143306  -133277   -83432 
   46618   135582    81989    10240   -26100   -82081   -67553    33843 
   11349  -205153  -375798  -326232  -199906  -141625   -99635   -45431 
  -30251   -56799   -80097  -109760  -154719  -134105   -59231   -41363 
  -52257   -15070    21383    27678    75089   142003    97512   -35611 
  -53759   113772   252148   190244    50246   -45931  -113875  -137640 
 -129277  -144943  -163634  -148394  -110215   -62067   -22945     1500 
  -27530  -192814  -298223   -75634   183992   121104   -28239    32402 
  148526   103911     6734   -27603   -78888  -117171   -55096    19171 
    6925   -65813  -112705   -71258   -11355   -16411   -14187    42207 
   65577    38034    33939     5666  -100427  -158570   -96701   -30643 
  -63317  -130919  -117461   -27106    58237    84170    24773  -104276 
 -161253   -37924    76266    -6073  -108492   -66745    -2759    14760 
   30674    20336    -7339   -13668   -23367   -37448   -67393  -125511 
  -95550    69502   180109   117007    35581    45017    23786   -84807 
 -168324  -143934   -65636   -56298  -101368   -81115   -13518     6234 
  -50377  -154488  -203247  -120508   -14322   -25623   -82081   -18021 
  113074    96742   -38645   -70659    -5913    26012    15668   -26212 
  -53141    -5678    36540   -31489  -142176  -107914    98784   212601 
   43745  -176089  -151431    19104    79220    17030   -20174    -6520 
   -4973    21701    55490   -32266  -131613   -45784    80255    43835 
  -94650  -212658  -233795  -136656    21629   157739   156608    28114 
  -40061     9731    73623    70488   -21824  -138890  -206044  -191933 
  -51725   122358   106966   -80027  -184005  -107896      843    -1556 
  -65387   -34273    79901   101456    26119   -16365   -48975  -106305 
 -105338   -58757   -52285   -73826   -92003   -69903    61692   207307 
  149490   -54601  -170474  -222312  -270007  -185695   -10878    74197 
   73760    48515   -11763   -38631    10591   -16265  -151027  -179552 
  -53884    79130   144366    99722   -45883  -126700   -33439    96153 
  132638   115423    83894    50367    18098   -28034   -38807    16602 
   35779   -47021  -119911   -84270    11532    98961    99105   -30045 
 -119620   -49834     5520   -33777    -5018    85523    54828   -82724 
 -147847   -76685     6522   -12722   -54112   -52442   -88374  -129295 
  -73532     5864    16971    24340    65983    37595   -73256  -126647 
 -110259  -139027  -190740  -132435    -3339    19625   -45482   -58385 
  -19417    -4289   -81020  -219925  -235396   -56130   157968   230315 
   85746  -130984  -133666    47206   134393    92625    10290   -88763 
 -102125    18483   105093     6304  -172038  -213191   -72600    79413 
   95423    40532   -10132   -57989   -51947   -30113   -57249   -89147 
 -117180   -88208    44938   132939    67231   -48438   -62083     9137 
   -3719   -80629   -51499    12203   -23217   -51812    20433    93583 
   39058  -104622  -138710   -33413     1161   -77308   -61695    95582 
  159943    33887   -86151   -72784    -1101    41704    23740   -30015 
  -25800    31101    10885   -88525  -174395  -190893   -66905   115240 
   79443  -182774  -314369  -155554    71586   173122   130547   -44871 
 -211252  -134760    75522   104778    -1949   -30734    -4167   -35323 
 -101272   -97634   -46778   -35917      985    98214    81170   -56390 
  -78335   -40055  -101927   -89094    19785     -196   -68014    -7015 
   52179   -38710  -137488   -60279    77831    65220   -53517   -73082 
   61962   129766   -43106  -218668  -139189     2623   -33419  -128697 
 -111422   -16179    39018     2708   -68681   -98111   -95956   -73601 
   14565    62476   -40148   -81178    29021    13034  -137534  -140238 
  -48447   -83730  -131684   -18075    88890    12438   -92922   -86920 
  -65753   -70592   -29159    50951   101751    77133    -2345   -37527 
   12549    87228    88081   -17074   -62084    33984    64153   -47652 
 -111295   -61404   -12099    -1455   -27253   -61752     5460   112744 
   72409   -50727   -66714   -27813   -83906  -142820   -63415    28572 
   11494     7566    50301     9525   -72246   -56972    -5826   -57535 
 -144846  -135921   -57228    70793   214333   182161   -45514  -200146 
 -196069  -183443  -141413    29878   167317    87183   -56152   -83218 
  -65984   -80825   -97627   -55702    43259    73350    -8749   -67493 
  -42662   -31623   -84147  -129801  -107357   -13658    90919    96865 
   31552     2002   -36410  -105688  -129065  -131473  -141518   -74982 
   84850   191132   137230   -14943  -159724  -206647  -122296   -31525 
  -67543  -107585      376    91744    26420   -64453  -107114  -113745 
  -46049    40188    26291   -53977   -67696      899    33651     5170 
   13485    35490     -314   -50671   -83609   -81976     8329   130775 
  125132   -19656  -113583   -13446   136313    77759   -76543   -23526 
  100941    32091   -42133    48605    86635   -25291   -98874   -48676 
   -6805   -84536  -181255   -91557   156472   244202    72252   -95006 
 -156246  -201355  -201891  -124541    -1897   106533    67490  -114218 
 -177620   -38449    48257   -39889  -128209   -59283   105588   155466 
   35775   -39759      447   -27396  -114359   -98366   -35078   -38236 
  -74402   -93563   -75765   -23792   -15568   -58542   -37641    38721 
   65068    39043    -9757   -84448  -134051  -104966   -80827  -115652 
  -76532    63866   121489    24310   -88038  -113895  -112380  -103818 
  -24930    73786    67004   -44138   -96680   -11493    59428    11128 
  -67601   -68890     7283    49580    -6496   -81178   -92701   -34331 
   53681    55164   -89092  -176105   -34886   118384    67141   -44803 
  -56277    -3196    97264   181617    55496  -197240  -238182   -79957 
  -34769  -114763   -73897    38786    -4123  -126526  -128786   -35882 
   19510     5258   -29256   -32856    -4501    19165     6985   -71124 
 -132338   -61996    40783    80145    86671     7826  -115305  -121136 
