Origin Time       2011/03/11 14:46:00
Lat.              38.103
Long.             142.860
Depth. (km)       24
Mag.              9.0
Station Code      FKS028
Station Lat.      37.3491
Station Long.     139.3144
Station Height(m) 375
Record Time       2011/03/11 14:47:26
Sampling Freq(Hz) 100Hz
Duration Time(s)  300
Dir.              U-D
Scale Factor      3920(gal)/6182761
Max. Acc. (gal)   25.431
Last Correction   2011/03/11 14:47:11
Memo.             
[...]
  -29953   -26568   -22692   -18668   -16060   -16016   -17288   -17837 
  -18162   -19214   -19881   -20267   -22303   -25254   -26873   -28437 
  -31753   -34631   -35975   -38986   -44298   -48214   -49711   -50341 
  -49512   -47969   -49319   -53189   -56056   -58083   -60618   -62803 
  -64786   -66965   -67941   -67636   -66901   -64303   -58439   -50310 
  -41177   -32333   -26746   -26031   -27346   -27481   -26804   -26137 
  -23964   -19726   -16237   -15036   -13105    -8536    -4224    -2665 
   -3289    -5805   -10511   -16212   -21559   -26082   -28958   -30212 
  -31683   -34300   -36526   -36449   -34798   -34479   -35879   -36263 
  -35402   -35660   -36870   -37430   -37374   -37221   -37168   -37174 
  -36496   -34763   -33343   -33256   -32640   -30085   -28583   -31246 
  -35430   -36885   -36816   -38181   -39546   -38658   -36422   -34000 
  -31007   -27582   -25100   -24101   -23539   -23201   -24295   -27018 
  -30065   -32206   -32895   -32050   -29938   -26786   -23080   -20379 
  -20011   -21902   -25183   -27785   -28286   -28989   -31707   -33073 
  -30403   -27414   -27583   -28042   -26330   -25524   -28357   -33132 
  -36600   -37346   -36432   -35666   -36484   -38865   -40296   -39595 
  -39492   -41050   -40842   -37482   -34489   -33546   -31907   -28587 
  -26406   -26545   -26807   -26276   -26334   -26818   -26303   -24717 
  -22680   -21458   -22731   -25290   -26567   -27781   -30687   -33258 
  -35215   -39747   -45753   -48072   -46396   -45346   -46181   -46326 
  -45554   -44937   -43902   -43185   -43790   -43767   -41899   -39157 
  -35502   -31593   -29999   -30573   -30946   -31880   -34628   -37172 
  -38333   -39061   -39407   -39089   -38688   -39058   -40296   -40192 
  -37324   -34989   -34917   -33630   -30996   -30669   -31307   -30098 
  -29649   -30947   -30413   -29037   -30260   -30914   -27306   -22854 
  -21448   -22051   -23108   -24953   -27167   -28363   -28660   -29565 
  -31928   -35291   -38310   -39787   -39072   -36442   -34095   -34002 
  -35511   -37220   -39056   -41598   -44329   -46035   -46576   -45998 
  -43489   -39495   -36461   -34874   -32175   -29052   -29347   -31171 
  -30195   -29541   -32883   -36170   -35985   -35199   -36195   -37633 
  -38217   -37943   -37418   -37609   -38936   -41235   -43134   -42794 
  -40428   -36799   -32519   -29887   -30237   -31891   -33218   -34116 
  -35166   -37465   -40759   -42422   -41412   -39956   -39620   -39741 
  -39244   -37441   -34560   -31907   -30702   -31196   -33032   -35631 
  -37689   -38178   -37873   -36490   -32028   -27057   -26740   -29118 
  -29243   -28806   -30589   -31755   -30030   -28332   -29558   -32300 
  -33740   -33624   -33157   -32214   -30418   -27886   -23836   -18607 
  -15151   -15216   -17106   -19083   -21604   -24427   -25589   -24987 
  -25193   -27516   -30303   -32092   -33499   -35409   -37749   -39756 
  -40215   -38205   -34056   -29772   -27912   -28623   -29414   -29625 
  -31383   -34715   -37430   -39261   -40800   -41976   -43479   -44741 
  -43346   -40299   -39225   -39586   -38570   -36939   -36929   -38984 
  -42093   -43488   -41462   -38385   -36999   -37699   -39300   -39543 
  -37657   -35638   -34966   -34813   -34463   -33728   -31815   -29727 
  -29625   -30588   -29894   -27388   -25557   -25060   -24413   -24480 
  -25867   -25783   -23897   -23231   -23623   -23043   -22365   -22250 
  -21674   -20794   -19354   -17468   -18218   -21030   -20183   -16609 
  -16897   -19375   -18344   -16178   -16689   -17991   -19738   -24139 
  -28796   -29776   -27961   -26040   -25509   -27558   -31738   -35527 
  -37454   -38943   -41792   -44825   -45520   -44498   -44593   -46066 
  -46890   -46206   -44852   -44247   -44596   -44373   -43045   -41823 
  -41866   -43191   -44132   -44016   -45693   -50159   -52992   -52182 
  -51266   -51121   -49592   -48007   -47207   -43814   -38757   -37163 
  -36722   -32745   -29857   -32025   -33509   -31645   -31131   -31179 
  -27320   -22491   -20744   -19575   -17960   -19298   -22411   -22313 
  -19564   -18617   -19597   -18876   -15959   -14339   -15256   -15862 
  -14161   -11514   -10235   -10694   -11839   -14106   -18851   -24327 
  -26583   -26569   -29343   -34230   -36243   -36121   -38032   -41465 
  -43498   -44260   -45012   -45779   -47328   -49670   -50412   -49441 
  -49042   -48560   -46709   -45774   -46558   -46195   -44737   -44455 
  -44406   -43389   -42844   -43898   -45488   -45228   -41870   -37743 
  -35970   -35394   -33507   -31279   -29922   -28245   -25736   -23725 
  -22845   -22799   -23637   -24118   -22116   -18497   -16859   -18257 
  -19100   -17338   -16057   -17286   -19949   -23274   -26190   -27706 
  -27966   -26850   -25132   -25566   -29583   -34702   -37881   -39563 
  -41272   -42393   -42343   -42358   -42755   -42637   -43475   -46490 
  -48485   -47719   -47517   -49306   -50201   -49000   -48505   -49678 
  -48424   -43382   -39569   -38901   -37286   -34169   -33540   -34673 
  -33175   -29282   -26816   -27651   -29957   -30497   -29055   -28064 
  -28146   -28198   -27991   -27332   -25675   -24592   -25991   -27920 
  -28365   -28721   -28678   -26461   -23767   -22166   -20599   -20127 
  -21934   -22019   -17981   -14968   -16180   -17779   -18097   -19316 
  -20489   -20407   -21692   -24728   -26201   -25798   -26059   -26948 
  -26485   -24449   -22382   -20872   -18376   -15194   -15108   -18255 
  -20462   -22079   -26089   -30613   -33299   -35249   -36323   -35950 
  -36631   -39311   -40811   -40358   -41271   -43679   -44182   -42056 
  -38354   -33951   -31129   -30359   -28273   -24189   -22846   -26023 
  -29334   -30668   -32000   -33149   -32726   -32030   -32753   -34029 
  -34241   -34189   -35127   -34720   -31795   -31349   -35432   -37749 
  -35227   -32266   -31150   -30549   -30431   -31139   -32552   -35114 
  -37916   -39002   -38530   -37807   -37281   -37100   -37241   -37788 
  -38911   -38955   -35874   -31470   -29229   -29280   -29631   -29791 
  -30362   -30698   -29792   -28004   -25800   -23760   -22931   -22429 
  -20451   -17892   -16705   -16332   -15583   -15419   -16034   -15445 
  -14873   -18220   -23303   -25221   -26818   -31588   -34832   -34267 
  -35124   -37565   -36683   -34550   -34855   -34526   -32161   -31408 
  -32445   -32370   -31921   -33066   -34808   -35871   -36671   -37693 
  -38628   -38780   -38306   -38738   -40688   -42576   -42946   -41932 
  -40483   -39437   -38999   -39205   -39653   -39062   -37500   -36468 
  -36112   -36325   -37551   -37872   -35381   -32400   -31267   -31486 
  -32684   -34203   -34951   -35354   -36168   -37190   -37622   -36215 
  -33324   -32279   -33989   -34880   -34038   -32840   -30505   -28310 
  -28501   -28372   -25527   -23383   -24538   -25707   -24538   -24199 
  -25890   -25410   -21891   -20427   -22283   -22442   -19920   -18760 
  -18973   -19708   -23891   -29959   -32331   -31471   -31608   -33429 
  -34903   -34532   -33077   -32521   -32370   -30979   -29708   -30116 
  -30797   -31143   -33231   -36769   -37993   -37243   -38910   -42027 
  -42670   -43535   -47719   -49752   -46744   -45876   -50036   -53000 
  -52409   -51602   -50620   -47226   -43860   -44369   -46186   -44734 
  -41492   -39007   -36923   -37637   -42968   -48005   -48591   -46919 
  -45545   -43786   -40669   -35747   -28320   -20278   -16067   -16744 
  -18750   -19743   -20563   -21462   -22080   -23145   -23717   -21752 
  -18344   -16005   -15691   -17971   -22844   -28929   -34318   -37456 
  -39048   -40986   -42751   -43098   -41897   -37743   -30193   -23973 
  -23210   -24869   -25141   -25551   -27652   -30184   -33135   -36169 
  -35814   -31518   -27442   -24526   -21212   -20075   -22946   -27001 
  -30447   -32269   -30686   -27656   -25488   -21778   -16050   -12451 
  -12690   -15540   -19860   -22891   -22870   -22565   -24398   -26654 
  -26461   -23452   -20629   -20287   -20945   -22333   -26231   -30295 
  -31449   -32974   -38527   -44334   -46868   -49917   -53925   -52555 
  -46762   -44103   -44947   -45562   -46831   -49514   -50680   -49063 
  -46449   -43787   -40311   -36121   -33938   -34439   -32627   -27460 
  -25267   -26973   -27877   -28132   -29416   -29581   -27279   -23859 
  -21133   -21045   -23411   -25271   -25675   -27167   -31243   -35643 
  -37609   -37248   -36872   -38454   -40682   -40310   -37482   -34971 
  -32784   -29511   -27236   -28730   -31509   -31217   -29168   -29068 
  -29288   -26672   -23300   -21655   -19404   -16140   -16809   -21767 
  -24440   -22713   -20700   -20471   -21587   -23949   -26526   -28245 
  -29943   -31091   -29178   -26168   -26569   -28592   -27878   -25763 
  -25221   -25369   -25807   -28225   -30995   -32071   -34271   -38060 
  -38689   -36476   -36809   -39422   -40453   -40917   -42703   -42837 
  -39035   -34189   -31208   -29302   -28203   -30243   -34358   -35632 
  -34432   -35596   -38466   -38815   -37623   -38701   -41378   -41714 
  -37726   -31302   -27124   -27787   -29879   -29626   -29375   -32281 
  -35669   -34988   -30912   -28364   -28875   -29176   -27966   -27839 
  -30119   -33463   -37600   -42667   -46428   -47554   -47683   -46995 
  -43938   -40958   -41310   -41225   -36751   -32104   -32298   -35768 
  -37491   -35339   -32146   -30364   -28255   -24910   -23146   -23360 
  -22738   -21640   -21378   -21094   -21392   -22769   -24121   -26184 
  -29140   -30677   -30947   -31748   -31701   -30036   -29385   -29849 
  -29020   -27845   -28349   -29527   -30022   -29829   -28854   -28530 
  -32265   -39597   -44336   -43458   -41110   -39877   -38422   -37825 
  -39827   -42728   -44902   -46991   -48707   -48320   -45420   -41949 
  -39946   -38151   -34513   -30663   -28997   -29349   -30501   -31820 
  -33822   -36966   -39138   -37016   -31058   -26014   -25111   -25940 
  -25305   -25433   -28175   -29259   -27877   -30121   -36508   -41336 
  -43274   -43591   -42189   -41168   -41923   -41222   -37754   -34916 
  -34044   -33035   -30936   -28267   -26081   -25872   -26389   -23863 
  -18097   -12813    -9984    -8708    -8013    -7906    -8425    -9313 
  -11186   -14559   -17566   -17914   -16427   -15519   -15082   -14435 
  -16405   -22599   -29234   -33567   -36562   -37398   -34878   -32577 
  -33878   -35730   -35008   -34681   -36948   -38615   -37575   -36061 
  -36488   -38957   -41856   -43285   -42793   -41706   -41177   -40895 
  -40795   -41318   -41511   -40725   -39592   -37233   -33348   -31645 
  -34653   -38148   -37006   -33685   -32885   -33043   -32039   -32358 
  -34636   -34881   -31611   -29225   -30235   -31837   -32904   -34442 
  -34269   -29978   -24686   -22023   -19175   -14486   -12388   -13902 
  -15359   -14855   -11325    -4846      553     1417    -1231    -6088 
  -12649   -18041   -20124   -20419   -20787   -22401   -26700   -33123 
  -37568   -36435   -32251   -31076   -34469   -38777   -41020   -41723 
  -42715   -43871   -43742   -43685   -46972   -51974   -53002   -50137 
  -49164   -50681   -49673   -45451   -41866   -40411   -40174   -39426 
  -36949   -35046   -35846   -37040   -36278   -34403   -32813   -31968 
  -31625   -30699   -30210   -33685   -39442   -41575   -41357   -44133 
  -48114   -48934   -47617   -46505   -46287   -47560   -48294   -46313 
  -45507   -48498   -49724   -47259   -47501   -49750   -45714   -36412 
  -29794   -27565   -26916   -25978   -24642   -24533   -24975   -23652 
  -23107   -25077   -24651   -19899   -14783   -11614   -11181   -13438 
  -15412   -15549   -14942   -13100    -9847    -7301    -6510    -6679 
   -7024    -7938   -10744   -15030   -19844   -25964   -30700   -30132 
  -29411   -34918   -40976   -40679   -37690   -36376   -35866   -37056 
  -41677   -46276   -47592   -48596   -51307   -52755   -51533   -48854 
  -44678   -39186   -35073   -34782   -37491   -40796   -43274   -43551 
  -40970   -38293   -37793   -37479   -35767   -33427   -31259   -31397 
  -35344   -39877   -42569   -45463   -48034   -48584   -50458   -54045 
  -54024   -51013   -49375   -47617   -45243   -45697   -45877   -41147 
  -37797   -41257   -44273   -42357   -41905   -43569   -40212   -33887 
  -31995   -32310   -30442   -29700   -31708   -32360   -31956   -34200 
  -36492   -34393   -30301   -28760   -29771   -30793   -31050   -31395 
  -30627   -27589   -25870   -28111   -30568   -30260   -29504   -29024 
  -25742   -20175   -16915   -16660   -16396   -15797   -16907   -20419 
  -24273   -25265   -23287   -22360   -24650   -27050   -28108   -30015 
  -30380   -25965   -22227   -23971   -26709   -27241   -28158   -30292 
  -31916   -31700   -30016   -29960   -32824   -34928   -35249   -37283 
  -39145   -36797   -34535   -36438   -38986   -40657   -43038   -43427 
  -40148   -38283   -40368   -41863   -40163   -37114   -34540   -34176 
  -37451   -42581   -45612   -45423   -43631   -40401   -36366   -35167 
  -38007   -41300   -41986   -39036   -32788   -26858   -25472   -28169 
  -31503   -34722   -38367   -40024   -39040   -38414   -38155   -37345 
  -39104   -44867   -50703   -52763   -50262   -45669   -44328   -45880 
  -44195   -41138   -42151   -43456   -40922   -39124   -41245   -42155 
  -38021   -33420   -33217   -34820   -34932   -36569   -40711   -41093 
  -36774   -35023   -36745   -36818   -35696   -35936   -35896   -34510 
  -34532   -37702   -40602   -39258   -35723   -33263   -30090   -25887 
  -23964   -22913   -19260   -15167   -13301   -11824    -8468    -2873 
    2224     2838     1825     4476     7345     5776     2074    -2764 
  -10182   -16779   -19720   -22180   -25461   -26949   -27572   -29873 
  -31857   -31299   -29468   -27475   -25912   -25625   -26051   -26190 
  -26307   -27480   -29630   -31153   -31602   -33017   -37317   -42062 
  -42476   -40096   -41848   -48082   -51822   -50734   -48606   -46500 
  -43229   -40144   -38570   -38484   -39523   -40812   -43383   -48339 
  -52755   -54810   -56653   -57982   -56478   -52950   -49079   -46530 
  -47317   -48945   -47754   -46043   -45191   -42133   -39005   -40305 
  -42435   -40695   -37946   -37652   -38593   -39439   -40675   -42020 
  -42115   -40057   -36620   -33547   -31976   -33567   -38406   -41121 
  -38198   -34224   -32332   -29846   -27267   -27068   -26574   -23806 
  -21267   -19578   -17427   -15749   -16320   -18644   -19571   -17655 
  -15990   -16037   -14857   -12528   -12699   -14819   -15334   -14537 
  -15510   -18599   -20900   -21913   -24956   -28672   -27641   -25187 
  -28681   -34752   -36821   -37285   -39820   -41955   -41291   -39748 
  -40081   -42463   -43860   -42062   -40331   -41540   -42192   -40322 
  -39502   -40983   -43221   -46349   -49306   -49632   -48610   -49795 
  -53463   -57215   -59714   -60245   -57464   -51399   -44797   -40912 
  -39525   -37934   -35961   -33785   -30277   -27666   -27563   -26642 
  -24410   -25034   -28085   -28174   -24925   -23287   -24955   -27696 
  -30520   -34909   -40916   -45821   -49341   -52783   -53161   -48442 
  -43890   -43641   -43826   -41702   -41223   -43905   -45140   -42632 
  -39464   -38290   -39173   -40884   -40039   -34806   -29740   -28986 
  -29318   -26904   -23636   -22609   -23571   -23664   -21106   -18308 
  -17534   -17089   -15913   -15045   -14891   -15759   -18734   -23517 
  -28061   -32110   -35528   -35866   -34304   -35206   -38028   -38955 
  -36907   -33762   -33063   -37315   -43154   -45456   -46225   -48648 
  -50179   -49883   -49005   -46381   -43925   -45396   -46959   -43431 
  -39548   -39894   -38543   -32796   -30197   -33291   -36252   -37429 
  -39433   -41538   -42533   -43374   -43678   -42996   -41650   -38224 
  -33134   -29522   -26879   -23445   -21616   -22419   -23696   -25456 
  -28075   -28525   -24668   -21378   -24164   -28149   -26694   -24498 
  -27613   -32390   -34874   -36647   -37518   -36417   -35781   -36267 
  -36791   -39292   -42992   -44050   -45049   -49212   -51784   -49940 
  -47567   -46583   -45358   -43614   -42749   -42083   -38718   -33241 
  -30035   -29995   -30526   -31626   -34392   -36968   -36378   -32726 
  -29800   -30282   -32801   -35287   -38032   -41143   -42434   -41158 
  -39374   -39011   -41069   -44621   -46816   -46648   -45693   -44797 
  -42789   -38409   -34060   -34485   -38764   -41381   -41698   -42908 
  -45693   -49424   -52910   -53409   -52192   -54429   -58571   -58107 
  -53840   -52490   -55653   -58344   -57572   -54981   -50505   -43208 
  -37841   -38209   -39008   -36605   -35576   -36298   -33562   -28261 
  -25302   -25213   -24726   -21256   -17027   -15658   -14547   -11116 
   -9707   -11962   -14020   -16063   -20060   -23593   -25735   -27657 
  -26641   -22665   -21432   -23320   -23865   -23392   -24485   -27170 
  -31449   -35777   -35812   -32923   -33339   -35818   -35865   -36154 
  -38079   -36604   -32004   -30420   -32003   -32924   -33741   -36086 
  -38679   -39949   -39328   -37889   -38030   -39018   -37781   -35558 
  -36058   -39110   -42086   -43874   -45273   -47396   -49396   -49403 
  -47597   -44988   -41344   -36828   -33473   -33220   -34646   -34721 
  -33754   -34465   -37044   -38825   -38100   -35302   -31868   -29313 
  -26815   -23367   -22697   -26237   -27024   -22141   -19059   -21818 
  -25146   -25195   -24173   -24366   -25287   -24902   -22239   -20019 
  -19474   -18593   -19899   -25398   -29181   -28733   -29586   -32878 
  -34154   -33716   -34423   -35016   -34246   -33858   -35032   -36720 
  -37711   -38376   -39216   -39020   -36357   -33400   -33796   -35491 
  -34972   -35586   -39968   -42880   -41308   -39673   -40536   -42579 
  -45150   -46629   -44916   -40242   -34781   -32541   -34353   -34520 
  -31656   -32044   -35730   -35687   -31523   -29120   -30142   -31477 
  -31427   -31110   -30445   -27668   -24519   -25210   -29081   -32041 
  -33164   -33128   -31806   -29825   -27200   -23627   -20876   -20245 
  -20423   -20120   -19830   -20677   -23880   -29491   -35059   -38180 
  -37733   -34639   -33195   -34676   -34670   -32890   -33810   -36594 
  -38156   -40120   -42573   -43157   -43691   -45221   -44876   -43609 
  -44579   -45948   -45641   -45556   -46406   -47409   -49185   -51283 
  -52101   -52673   -55341   -59024   -60045   -57070   -52203   -47769 
  -44884   -45084   -48425   -50586   -49032   -48406   -51034   -51222 
  -48487   -49550   -52393   -50040   -44521   -40751   -38955   -38791 
  -40702   -43034   -43254   -41554   -40988   -42525   -41730   -37288 
  -36229   -40658   -42882   -40147   -38230   -38890   -38203   -36087 
  -34499   -31315   -26307   -23759   -24223   -23720   -21416   -20220 
  -21009   -21904   -22284   -23509   -24842   -23624   -21264   -21089 
  -22029   -23001   -25886   -29344   -30555   -31548   -34418   -37313 
  -39527   -41842   -42931   -42768   -44807   -49383   -51680   -50647 
  -50601   -51197   -48350   -43274   -39861   -39079   -39440   -38056 
  -34043   -31480   -33041   -34910   -33422   -29767   -25813   -22398 
  -21401   -22116   -20618   -18509   -20632   -25210   -28116   -29197 
  -28647   -25784   -23477   -25440   -28644   -28719   -28835   -32896 
  -38093   -40303   -39705   -38592   -37896   -36769   -33680   -28419 
  -22801   -18990   -17982   -18980   -20463   -22767   -27474   -32819 
  -35421   -36841   -39488   -40571   -37802   -33587   -30092   -26924 
