Origin Time       2011/03/11 14:46:00
Lat.              38.103
Long.             142.860
Depth. (km)       24
Mag.              9.0
Station Code      FKS007
Station Lat.      37.4061
Station Long.     140.9632
Station Height(m) 70
Record Time       2011/03/11 14:46:55
Sampling Freq(Hz) 100Hz
Duration Time(s)  300
Dir.              N-S
Scale Factor      3920(gal)/6182761
Max. Acc. (gal)   608.534
Last Correction   2011/03/11 14:46:40
Memo.             
[...]
  174023    54103    36605    88226   172719   247763   177187    55183 
   24499    -1145   -10232    68165   106502    87674    68392   -66842 
 -226520  -250817  -280380  -258654   -31829   121777    16889  -110389 
  -90776   -37342  -100507  -164235    -6237   243973   285276   148053 
    7829  -127523  -219184  -225961  -285803  -412264  -373528  -109952 
  149227   218877   129896    27847    19537    70939    65304     7350 
   -5259    48615   122068    69529  -142368  -241425  -139804   -38142 
   18858    29882   -18580   -19208   -49574  -206815  -267019  -172657 
 -103225   -40486    -7236   -79197   -93142    -9988    41595    76007 
   68757    34837    97033   164620   151036   120721    49437   -29462 
  -44660   -41020   -18030     8182   -29691   -54416    -5951    -9941 
 -104416  -121852    -7331    43080   -68853  -189489  -237199  -248436 
 -167695    11406   151069   192642   144718    26460    41359   215102 
  138179  -224092  -390270  -267313  -120226   -22113    34002    37762 
   34673   -12776  -133361  -161409   -13140   105267    37361  -103173 
 -184896  -184761  -125212   -73157   -76266  -109091   -75584    52351 
  176168   292032   404668   380259   197216   -10277   -97884    25748 
  214543   192704    48039    72006   150397    52855  -105617  -204813 
 -242798  -169191   -66484  -114040  -254596  -280218  -201531  -127460 
   -7728   132839   169362   147806   165079   173342    87450    -2506 
   38700    66626   -37708   -68225    43256   133996   186985   199021 
  111105    36710    55197    49901   -46798  -202941  -353570  -397665 
 -349415  -321776  -264418   -90830    93771   202844   242687   181957 
   20177  -148208  -147876    36721   130171    55590    -3055   -18002 
     -27    23717   -29295   -30613    63362    13822  -154079  -214960 
 -143792    58845   249846   142960  -124308  -193673  -114896  -119708 
 -176244  -165626  -127017  -107145  -110108  -189724  -282453  -250699 
 -168638  -133968   -66355    98832   318232   457884   405139   255304 
  210967   319063   403064   286003    48533  -115666  -148350   -76874 
   12310    42842    67805    73698   -18625  -105336  -102429   -70853 
  -32915   -42037   -68024    11800    25012  -121103  -125719    35849 
  105559    66773     6605    -7316    56292    86710    51321    39291 
   40227    25190   -12360   -92107  -113556   -10371    64275    54902 
  115961   167870    -1333  -198355  -185356   -84120   -17341   -31951 
 -110532  -123950  -121173  -182919  -192378  -166564  -221873  -231464 
  -65034   125317   210535   254385   298279   345443   335727   161156 
  -29287   -34842    24855    65910   117298    60441   -53472   -43332 
   13012    23373     4117   -39828    -8942   100199    93791   -66171 
 -233565  -307163  -226967    -2850   162126    92943    -3372   152636 
  393800   400601   232375   124426    69605    -4706   -58324  -161617 
 -339576  -375092  -234440  -130468   -87077   -55338   -92766  -113090 
  -18800    35664   -33368   -98576  -111192   -62599   -12238  -113439 
 -214374  -136230   -73089   -89969  -104407  -160308  -170680  -117603 
 -165792  -203431   -45125   107065    20946  -135864  -147467   -86957 
  -32720    47685   128676   193658   250936   199527   -16923  -217170 
 -235800  -151266   -40722   129175   264277   251659   212938   269660 
  361137   402212   316927   171916   200526   339305   268899    22263 
  -58039   103149   235990   141876   -78496  -172005  -110710  -118002 
 -238760  -345166  -379524  -279426   -46204   159351   222502   190664 
  184863   285533   381608   255003     -529   -83736   -26136   -33193 
 -160041  -365337  -471786  -368290  -198864   -80028    11896    90036 
  138896   158789   102004   -63606  -175637  -126665   -97312  -181417 
 -198089   -51926    96604   108980    39668   -78282  -257827  -344074 
 -247338  -156004  -148943   -89253   -13014   -65239  -145932  -126408 
 -143493  -207871   -74984   198827   307059   207965    45815   -72005 
  -82656   -79509  -212857  -346894  -254527   -83072   -71313   -97008 
   11022   127436   122704   141034   315855   438693   200170  -260238 
 -357895    53787   324632    98171   -92147   185237   580038   660470 
  473282   163805  -144901  -315242  -410117  -411206  -174423   139890 
  232686    52763  -165340  -183745  -111332  -169495  -231975   -75299 
  184095   287807   141278   -76902    -7064   252480   142723  -285900 
 -444814  -206025   117293   147495   -98343   -18555   457994   707570 
  574780   166882  -393651  -526702   -87193   205365    46949  -161035 
 -224712  -310387  -442278  -465962  -378255  -225974    38169   321888 
  422198   274599    65223    91705   277807   246766     8295   -95078 
   42602   195231   182962   119292    91206   -19479  -191875  -203767 
   -1698   187757   182392    29818  -121013  -108586    63267   146598 
  115828   180262   221030   106959    14083   -50176  -107940    17359 
  242767   285277   109066  -114089  -231427  -265444  -373579  -495564 
 -350115    31098   284724   268850   173775   183844   266850   272401 
  144450   -15929   -90133  -113724  -125579   -55634    25868    41762 
   88532   122981    46233   -42581  -100229  -185075  -253235  -277765 
 -292924  -271534  -219076  -182292  -108880    40971   150429   163611 
  194901   202193    75268   -29383   -14171    35685    86174    35615 
 -100278  -126731  -129319  -206036  -150778    24325    88458    50495 
   27453    55790    58156  -119228  -372571  -402525  -209622  -106288 
 -267189  -415619  -212237   125898   173613   -12005   -68820    59203 
  130132   136560   179497    77505  -163255  -158829    88065   151449 
   15241   -37352   -55720  -152993  -214467  -226134  -271522  -271307 
 -181893  -143971  -165652   -85024     -395  -119974  -201156   -12558 
  116711    13806   -20345   125218   269424   268890   140196    28748 
    2488    25034    67807    64204   -42030  -179924  -201275   -24536 
  229983   318798   236289   209053   245889   187359    56991   -72513 
 -190567  -208877  -151932  -188263  -208433    -4912   240411   302501 
  289216   299030   285273   285491   290685   176988    21198   -15717 
  -30584  -130252  -215067  -241547  -267066  -258156  -165923   -80606 
  -75067   -48496    48615   137201   132582   -24772  -170851   -94342 
   74005   139299   105051    53383    79194   159369   135091    44722 
   78542   141904   131111   167050   127770   -59225  -101477    -7312 
   -4759   -63098  -154412  -177874    27650   202120    98563   -75650 
 -176425  -210491  -104882    83138   167302    60785  -134044  -189018 
  -61421    14522  -116736  -274980  -191493   -11601   -50351  -205504 
 -271386  -242944  -111604    67258   148481    88772   -21648   -95102 
 -106836   -30010    71411    58860   -71843  -240926  -355069  -318685 
 -148893     3498    -9982   -92576   -45255    61030    95289    87780 
   71806    70310    95487   140273   203168   138758  -102907  -191670 
  -64107   -58963  -124382   -47946    32809    48173    89240   129906 
  163535   229704   283909   243221    87771   -18946   -40519  -199214 
 -331099  -161524    21146   -37045  -166971   -95227   215300   344028 
   99139  -108342  -120742  -109994   -50251    60799   126551   110030 
  -32077  -116763    40693    88989  -158213  -316915  -245596   -79625 
   68168   -14660  -178074    -7913   297397   287039   -26890  -351941 
 -387044  -106508   164484   194338    72910    -3062     9670     2354 
  -22606    25496    71397    52925    57754    27316   -94015  -108784 
   25126   102504    60850    12232    23386   -14877  -134477   -54568 
  250556   307798     2956  -231912  -176214    -8779    16221   -80968 
  -39678   125587   194282   135969    13816   -67686   -21441    53745 
   60442   -15993  -204714  -349369  -278730  -153047   -96999   -11201 
   79814    37966   -96623  -129846     5059   154427   168600   167809 
  272671   303112   263091   329829   338334   240310   224972   158084 
   56004   180297   213128   -82023  -192150     4759    50611   -56567 
  -65753    -6606    77201   127161    51110   -28535   -79537  -214473 
 -281452  -193285  -120545   -68949   -70713  -253888  -367216  -182960 
  -10419   -82047  -123796    93720   300303   196084     7978   -10473 
  -35730  -159758  -176742   -42918   -22856  -212331  -349662  -306742 
 -165684    31020   143330    85000    42876   128214   212779   201765 
  169621   141646    78168   114205   213811   147585    30283   -12398 
   -9416   110692   122170  -157623  -303361  -121529    78070   126272 
  -63083  -317836  -251026   -88258  -179870  -260065  -163943   -65870 
   33725   135626    50983  -224736  -413843  -303284   -12523   141339 
   67670   -49496  -116084  -195716  -261298  -253869  -231826  -129096 
  111094   303767   417565   460153   285242    24365  -133310  -202111 
 -137477   -50814  -138214  -218788  -158848  -175799  -219524   -75661 
   60725    53932    78761   129420   117643    55995   -56257   -26677 
  203352   176302  -133653  -230710  -162101   -79238   105873   143342 
   23418    65145   115907   108028   239812   266092    69305   -46706 
  -49240   -26221     4256    -9797    58292   198204   175809     8666 
 -127580   -76063   122186   155542    32092    19175    42810    10425 
    5132   -84048  -255149  -276216  -213213  -151244     9463    51655 
  -97682   -55402   130200   109283    36272   172928   277943    56958 
 -176120   -81529    75931    91799    48733   -84283  -229164  -165203 
   85892   304619   367338   313247   187836    51532    42339    48219 
 -175964  -399211  -261346    30370    88872   -46251  -122340   -26716 
  180553   249118    10768  -219010  -145748  -114736  -352118  -405976 
  -86388   150400    86215   -25793   -38186    74401   288102   277964 
  -37600  -159297     6169    56179   -39743  -158583  -214067   -71276 
   51158     3370     4771    34147    60253   181372   116035  -220660 
 -378676  -319003  -288607  -142336    53562    90001   216342   424794 
  366790   149546   111802   264168   310594   130791   -70533  -200288 
 -245855   -91461   192661   309788   213584   223003   285616    52454 
 -225324  -228197  -157512   -87359    18681    24772   -35999  -123462 
 -298150  -343338  -158279   -49394   -58273    44019   218060   321099 
  283417   119142   -38519  -156303  -200139  -110215   -79108  -194850 
 -221708   -95444   -33920  -156985  -340503  -356759  -157074   -10652 
  -81938  -131523    30326   229223   181693  -157735  -471033  -496787 
 -398503  -363532  -298163  -118788    96960   250757   243780    87480 
   25057   166274   260831    94230  -160120  -210544  -126795  -103116 
  -59094    38794    86797   197437   412440   408687   105878   -65278 
   97094   297761   279697    -4692  -377543  -457252  -228253   -83677 
 -162798  -246543   -53651   354719   492448   247150    41318    59649 
  165767   199731   100054    17861    69024    87527     5612    72232 
  267634   276612   118848   -69035  -185966   -55629    79565   -36677 
 -138715  -128434   -85775    38630   130195   116045    36796  -135685 
 -243511  -127609     2354   -43251  -100844   -47963    -6129     -644 
  -25576  -153587  -165743    41121    66677  -106090  -105316    -6334 
   31695   105946   215441   243618    67878  -235954  -283992    -4945 
  136245   -54071  -260936  -284212  -215257  -155337  -126391  -113743 
  -67792    74304   280430   366257   219160   -30232  -172348   -80634 
   73350    -2304  -119307   -47089   -20302   -99911   -62900   134167 
  331594   340239   208158   126025   104635    96644     5362  -182621 
  -98983   237116   264824    33960   -58469   -15529   107865   215974 
   99749  -146414  -223251   -72292   133549   209615   137884    63141 
   41458    11711   -22176     8168    26984   -35043    10702    90754 
  -49604  -170979  -152100  -253262  -382759  -405486  -428293  -305273 
   19565   174929    79430    33818   -12728  -259287  -517429  -546922 
 -345171   -63984   138430   234211   203757    68661   -92077  -286815 
 -409586  -359782  -268942  -185505   -95578   -17691   118971   217092 
  115196    -2277    87507   246487   288699   242179   151439   109147 
   96519   -84852  -136480   155719   219790     3350    19319   170981 
  138169   -99243  -368981  -497221  -443374  -244696   -85039   -59910 
   -9256    24367   -70330   -88521    54667   226332   383947   373265 
   68158  -226816  -163252    68135    72549   -12489    63922    27466 
 -234376  -336201  -167103   -30641   -90752  -245933  -292677  -180433 
 -149020  -286872  -370208  -313657  -157648   144880   413846   346914 
  163380   246003   382538   238967   -87371  -391548  -443509   -65844 
  446528   574175   265625    -4648   -38693   -35624    61354   110532 
  -62284   -44189    22130  -214298  -203128   145860   300773   323451 
  278035    15126  -184673  -140362   -22137   140668   270746   186926 
   55932    94831   151751   142543   135361    68992    38873   142352 
  138798    30767   111659   253473   169141    36065   120791   213701 
  125375   181183   439503   472875   279925   203632   241277   127268 
 -132717  -128464   249989   507827   359198   115905   120188   331957 
  495015   419144   100954  -188015   -85185   298290   424179   167799 
  -34349    67428   251677   269832   162311    87139    75751    30317 
  -97611  -234855  -348126  -461418  -551161  -589892  -553460  -456856 
 -416984  -467656  -459894  -346203  -274494  -237508  -133263  -150694 
 -421834  -686868  -804060  -902464  -968366  -926666  -778523  -450576 
  -45688    48667  -258282  -541080  -453079  -160545   -24247   -83606 
 -192799  -365748  -503034  -386783  -143810  -118574  -345983  -417266 
 -135626   135719   191091   160942   164740   316131   525343   555401 
  378835   157533    80065   113961    71669    74334   302686   496124 
  414974   248955   212789   256604   191870     1002   -95715   -55193 
  -23898   -32310  -103851  -197261  -181775  -128935  -101511    -4253 
  108455   183020   298737   356313   240776   133337   217993   425125 
  554745   443756   183389    81616   172466   142817   -88121  -255001 
 -243267  -183767  -156466  -150542  -154191  -118773   -25048    27109 
   -7029   -64636  -116936  -137642  -130149  -128315   -71859    18590 
  -31235  -234022  -400492  -396044  -211404    81467   281155   231387 
  125286   179047   240388   200863   222411   236523    46223   -66014 
   94233   127123   -47582  -117058  -134175  -157243   -15528   200070 
  225780    44786  -135419  -162287   -34729   124855   162782   125129 
   97139   -12904   -97088    40881   170992    38190  -169144  -226443 
 -248944  -360896  -407537  -279153   -61804   104054    18482  -303740 
 -543866  -557640  -393547  -126336    -6294   -68692    11296   195948 
  218541   217617   368562   531199   501101   278191   133544   233765 
  370112   313760   166517   153727   241288   253632   153024    21681 
   -1241   108642   207790   243796   224211    97597   -81588  -231598 
 -379969  -475795  -428457  -291212  -150378   -81412  -118614  -182966 
 -177910   -24126   212786   362481   382517   218634   -44747   -64301 
  157945   280989   240426   194621   192516   135002   -41898  -199651 
 -225297  -177468  -107829   -85493  -125977  -120521  -112730  -140333 
  -80330   -53462  -161303  -190837  -161380  -201175  -204686  -199289 
 -250885  -291033  -331407  -350685  -306939  -288786  -352092  -395746 
 -277126   -45327    92143    68627   -52715  -230237  -332268  -263697 
 -206947  -266315  -288402  -251887  -212754   -96150    83539   237420 
  342850   305745    50700  -186084  -118507    55075     1290  -119998 
    8827   340451   558756   499163   329920   166949    17725    94380 
  336377   291063    -6479  -154827  -142571   -96618    13434   122089 
  159954   217698   320765   396983   386308   266168   140174    74315 
   21860    21945    50240    17152    20179    96677   114853   114030 
  207602   280366   174850   -12724   -22999   164912   245023   124583 
   13659   -77629  -196860  -227274  -210357  -277693  -383265  -415484 
 -296657  -108216  -107789  -275848  -294884  -125910    26117   109347 
  170487   140184   -57421  -210484  -114103    27611     9520   -82007 
  -88387    55504   201746   185868   100834    19762  -107123  -157016 
  -35367   142353   298610   348331   209946     2988   -80330    14258 
  115839    86846   102759   259857   300077    93055  -111204  -160509 
 -174818  -160194   -52623    67505   124900    73045   -92062  -170580 
  -52461      112  -140587  -264245  -326283  -397968  -369848  -234300 
 -158554  -110894     4883    14916  -146893  -236373  -180911   -79915 
   64570   208972   332766   423360   340385   160059    86838   119724 
  245341   301664    79914  -150658  -112218    66045   208411   125982 
 -182097  -326601  -143871    79498    96947   -94284  -278360  -237107 
  -98896  -125173  -222043  -107892   140994   216505    85915  -102363 
 -249234  -259958  -151953   -70117   -88610  -143963  -142295  -124699 
 -158452  -181759  -167011  -139609   -93222   -42691    16333   103876 
  164113   133762    33448   -90827  -147604   -48981    31654  -110944 
 -249299   -75572   212749   237886    70148   -22123   -53582   -88493 
  -56492    37489    95177    44620   -53818   -42968    26674   -56625 
 -189316  -113776    68089   155057   141285    71357    60776   125018 
   75647   -78995  -134209   -75669     6528   125709   197501   108595 
   25926    64623    81693    72869    98398    33898   -83468   -45552 
   32441   -42600  -138312  -171188  -161589   -27961   108987    72969 
   17698    75458   121214    78575    49150    77528    59905    61881 
  192983   175109  -110998  -282733  -224088  -131735   -24858    61973 
   57839    12062   -58256   -90364    -8663     8033  -146667  -249274 
 -159426    61215   283250   314246   142758     7767    68136   222463 
  214716     4760   -77378    78376   129202   -17921   -84257   -29013 
   10642    24309   -45834  -158424   -73338   121748   120662   -36482 
 -139798   -99344    26885    22654  -123687   -88024   135542   192825 
   59601   -61134  -100493   -25924   124524   221465   180455    51184 
  -46225  -113419  -171678  -194868  -248784  -308412  -243122   -59958 
  121666   101597  -205765  -460946  -305867    47736   173020    36517 
 -119778   -91307   103329   198898   148009   135247   137947   202957 
  388966   361558    14930  -284652  -326043  -115152   170510   151125 
 -206587  -427959  -271639   -47998   -49123  -169240  -140440    63343 
  161031    39475   -71408   -28176   105387   209567   186211    90515 
   35407    -7867   -70844   -88431  -110587  -173098   -72945   176809 
  261601   159565    21092  -153605  -222616    -5767   294190   347197 
  150353   -44005   -76498   -34438   -50224  -134713  -222074  -185401 
  -26082    32904   -61382   -99186   -25157     4210   -88680  -207979 
 -174328    21090   168340   195816   150952    19768   -83828   -87315 
 -144366  -227698  -176662   -59208    46713   121698    93660    29618 
   63361   180118   251343   153568   -84780  -274306  -285685  -207493 
 -154432  -103286   -65627   -83093   -72156    41758   157815    84276 
 -172201  -276450   -85574    48860   -10489   -27037    31105   113423 
  199140   152285    12048   -29231    -6418   -66129  -174301  -272187 
