Origin Time       2011/03/11 14:46:00
Lat.              38.103
Long.             142.860
Depth. (km)       24
Mag.              9.0
Station Code      FKS003
Station Lat.      37.7624
Station Long.     140.4781
Station Height(m) 64
Record Time       2011/03/11 14:46:58
Sampling Freq(Hz) 100Hz
Duration Time(s)  300
Dir.              E-W
Scale Factor      3920(gal)/6182761
Max. Acc. (gal)   298.507
Last Correction   2011/03/11 14:46:43
Memo.             
[...]
  125760    90254    46975     8882    -4161    24995    64317    81372 
   79437    48981    -1774   -17958    15092    58778    89111    92309 
   56232   -10443   -70713   -70321    -7163    51929    60160    20173 
  -38911   -67529   -45533    -1034    37739    43074     7506   -19244 
   -4061    33725    78127   106178    86393    42557    35984    73658 
  101077    83149    28412   -40903   -80715   -61255   -22204    -6451 
  -10421   -27090   -40994   -23472    15836    43247    49547    32354 
   -8826   -48603   -59294   -35896    12324    53559    47878     1071 
  -42173   -52824   -39640   -23911    -2398    25225    34854    27895 
   16603    -8674   -30839   -28188   -19907   -13879     3151    28429 
   43537    43557    51851    64166    53805    45423    67359    97487 
  101063    57358    -8833   -44531   -40582    -2870    71427   137614 
  147201   115210    80769    62098    50318    31966      -93   -44165 
  -60813   -19191    48221   100448   125306   130872   134314   133192 
  117618    91481    48574    -7795   -36311   -15269    21660    41881 
   52750    65259    72526    77687    84142    74607    47446    13645 
  -35056   -67202   -30805    28719    41515    25898    19550    21318 
   19083    17424    23833    34936    49587    45144     3814   -35642 
  -42321   -22304    10186    24803    11343    -5209    -6577     2031 
    -429    -5649     9794    20059    10205     8385    13595    15016 
   28678    56226    74836    72710    61935    57136    59398    68246 
   88644   112674   117735    92238    40191   -24887   -73698   -86682 
  -67568   -17147    43696    67441    36084   -23488   -61339   -49890 
  -11227    28292    52397    38358    -8151   -43810   -42538   -23786 
  -11082    -3839    -4471   -14101   -12286     8472    34968    62265 
   74605    49753     8780    -9991    -1821    24547    49026    34472 
  -16546   -58764   -64277   -31510    24403    72661    85317    55872 
   10899   -13287   -18946   -21073   -16688   -24942   -46784   -34133 
   10940    41545    58421    76966    69918    22250   -14680     1170 
   35523    48726    43624    26594    11339    24073    60445   100707 
  138559   156014   138872   100938    65653    53561    55113    47323 
   42213    38575     9086   -22814    -4688    64300   133742   155104 
  119270    55503     4840    -6443    29771    91101   116825    79808 
   20575    -9983    16425    75501   121350   142101   112909    36508 
   -2636    34797    88547   100472    78241    56416    47062    58041 
   85299    89307    54487    21610    13937     -228   -21612   -11097 
     599   -31888   -65083   -60850   -37772    -4204    29324    29502 
   -3707   -24843   -16521   -10553   -17867   -19609   -23802   -35173 
  -20731    10833    18717    17203    18289    -2770   -30870   -29016 
  -12245   -20290   -56316   -90630   -89678   -44138    24215    82599 
   94926    66055    48256    49511    53390    69841    66663    12410 
  -42528   -54561   -33927     6872    49489    72909    74729    49896 
    8440   -10440     7212    52134   108299   133968   120115   100630 
   81688    71419    92195   120484   123176   101913    62122    15653 
  -19547   -36621   -24862    10846    47210    76225    92200    91398 
   69834    11901   -64565  -114777  -118327   -74897    -9173    35827 
   46731    38795    29612    29676    37383    52654    63875    44261 
    3712   -26546   -40195   -23873    41130   117319   145095   130492 
   99797    46490     5680    23634    46126     6577   -52556   -64045 
  -36251    -3857    37768    86921    93889    48341     8108   -15185 
  -49387   -56508     4076    78578   111505   117046   108478    84693 
   48705    -4977   -63929   -89256   -48977    45634   140915   185517 
  159011    98121    67798    66380    60174    52517    25779   -37989 
 -106739  -155639  -171267  -143236   -65041    70198   189403   193218 
  103128     5012   -52071   -59775   -24687    30068    55581    32609 
  -18106   -54673   -36965     1813    19705    25343    14383     5681 
   30060    58256    64467    43126   -11176   -51220   -37271   -11248 
   -7950   -15126   -41471   -89972  -112405   -73672     9041    77967 
   84276    53715    19738   -24176   -63145   -66651   -23812    29275 
   46087    46926    50586    41237    37654    49380    54541    57128 
   68771    75612    65822    53902    55752    68364    81851    82386 
   58059    21128     4838    21352    42061    47066    50886    45328 
   10173   -17211    -3089    22913    42776    60773    55179    21006 
   -6328    -2587    30585    77965   104834    95114    75517    51867 
    8461   -40019   -71963   -76894   -62148   -49024   -29783      897 
   19775    28436    34153    20663     3174    25778    73377    76861 
   19951   -57269  -126601  -167336  -150123   -63455    49035   124387 
  150505   135100    91849    68597    87072   119683   136445   126992 
  106997    89862    75611    67882    63991    78313   132303   184449 
  185159   163323   158010   154001   123069    58091   -20124   -65595 
  -53278   -20582   -21628   -60138  -105166  -132933  -121741   -49966 
   60139   132272   115496    41339   -23616   -53489   -59979   -36682 
   10015    32328    17665    -7510   -22103   -12231    11910    40531 
   73354    87719    62201    -1359   -75026  -122094  -138036  -131383 
  -97181   -39946    21833    54484    23776   -46959   -91587   -76840 
  -23398    23243    35224    18901     7149    28089    64772    91628 
  110287   110575    85717    65870    66089    63847    52131    49029 
   47933    22154   -14107   -15716    21949    61949    80302    77121 
   61197    38182    12332     6699    35315    66112    57822     2339 
  -61186   -75592   -33597    30864    86306   112966   112944    89815 
   49844    15143   -16019   -47644   -50686   -17086    28519    71749 
   97528    86792    44593    -6263   -25460     7647    48988    70242 
   83672    77128    49074    28706    33440    59927    82228    80530 
   60680    25180    -9424   -24036   -33978   -32489     -853    33094 
   62662   109033   131540    94053    45822    25046    24499    37438 
   31902    -8039   -38574   -36586   -11690    38525    98328   125497 
   85932    -6788   -76824   -63385    17677   111550   155030   102517 
   -4440   -69625   -76728   -61130   -14973    40684    41007    -8230 
  -38789   -24617     3565    23426    34813    31225    11887    -1277 
   11537    29425    15701   -19152   -44203   -59898   -61245   -22568 
   39023    68155    52313    20023    -7293    -9324    17200    41346 
   43026    32694    29518    32897    27409    30388    59992    83599 
   68670    23421   -23633   -52628   -51394     -906    86559   156508 
  163317   103272    32610    10168    25207    47497    61974    48242 
    4155   -40702   -48966    -6370    62791   107712    87804    27368 
   -3525    20698    66964    96678    96046    67667    17842   -22361 
  -10544    46022    89327    71762     2644   -55803   -33723    74927 
  183372   199930   112222   -20404  -108972  -111878   -60994    -5474 
    9367   -27057   -74787  -107548  -108944   -57588    12067    42524 
   25512   -24593   -84744  -107545   -75799   -35424   -17804    -3931 
   10625    17988    30981    53973    91246   134499   139914    96993 
   45881    26736    52225   100369   134151   123751    79170    47637 
   46779    55710    55975    44743    33912    24431     1601   -27291 
  -34411    -5258    49543   101779   112732    79095    55413    59900 
   67602    79812    85838    76432    67776    54039    32106    17020 
   21328    57554   110702   140834   130099    83838    24715    -5443 
    4412    30037    54997    54582    13294   -45687   -88174   -78132 
  -16957    31516    26080    -9143   -42977   -47908     4580    83829 
  127551   119067    67871     1117   -44071   -55483   -28174    28152 
   74398    88120    70575    35653    26012    56146    72272    43357 
   11694    15297    28673    16499    -9356   -30800   -44515   -27977 
   34473   105523   119370    58608   -13958   -36629    -8718    50388 
  106295   111153    74964    46389    24039     1783    22616    85961 
  132136   147164   143142   103023    37550    -9299   -20141   -12171 
  -18466   -41281   -44250   -23422     -220    21928    40051    61814 
   93091    96189    50883     2404   -25103   -52625   -62996   -25901 
   28118    49571    36408    16143     5396    26231    83062   119267 
   95693    44860    13344    10948    18384    30274    41236    39548 
   46728    71812    81657    58466    30180    40927    79029    97663 
   97599    88391    69799    60796    62980    74340    96027   101722 
   86769    75602    71060    71956    84107    95690    99225   105886 
  113675   108454    92721    76503    48791     2580   -29933   -18437 
   26477    75274   109926   117849    79353    11027   -40114   -57129 
  -33862    17294    42492    28479     7894   -24103   -68266   -78783 
  -48939   -25111   -28776   -50311   -77866   -93036   -75990   -38373 
  -29625   -70814  -117099  -131557  -118790   -83201   -32420    11386 
   13764   -40023  -108695  -150755  -145460   -77303    18783    88843 
  106368    60771   -10939   -56592   -62843   -15393    72192   136922 
  150277   122780    77352    58951    80154    99673    89380    58588 
   24100    -9747   -58781  -132553  -194586  -191679  -107104    33130 
  173274   249801   225753   121653       47   -78702   -73183     2171 
   77855   112962   103547    65433    48653    59497    57126    53303 
   62293    57078    39053    28927    31201    41594    51093    44353 
    1573   -62070   -92408   -76633   -56587   -42061     5481    87522 
  155475   193312   218428   226652   221227   226702   222580   166761 
   90579    51717    45389    51481    71883   105326   156274   207052 
  209039   161515    97958    32287   -25663   -81992  -137370  -168413 
 -179212  -176344  -156884  -157839  -187883  -187515  -117880    12115 
  147892   196758   122759   -10003  -115926  -156782  -125130   -37674 
   34991    51075    55697    79496   104943   107636    82471    68714 
   88416   101350    80608    49994    18317   -40525  -103661  -105249 
  -43141    39299   118847   156861   106750    -1662   -87897  -110269 
  -60597    52952   182481   254254   234927   157591    57430   -35031 
  -40754    74335   196696   211771   131500    16671   -61085   -61455 
  -13828    43886    58337     9565   -46559   -77771   -55403    21599 
   58969    34754    35598    79774   130823   175314   185920   139377 
   40257   -94419  -194227  -181780   -96170   -18834    57920   132889 
  131768    27427  -137216  -296965  -394058  -420090  -375315  -256240 
  -97841    53030   117388    18632  -142695  -191947  -147528  -100031 
  -47123     1534    16301    -3668   -49657   -86762   -67929    19858 
  133305   220186   277810   323828   366400   389391   367948   307972 
  205512    55037   -76544  -102675   -33212    33163    40505    10196 
  -45374  -108071  -139518  -135127   -88166    16518   133022   161155 
   57674   -82529  -139376   -78800    72141   228078   302579   270352 
  138466   -18583  -109961  -129777   -75852    31124    98820   105397 
  106841   130477   162588   166209   120429    37333   -60124  -141631 
 -176997  -139404   -24739    86632    93978    19776   -53451   -91740 
  -78490   -25741     8638    -8823   -49745   -84203  -114627  -112082 
  -49301    23586    67372   105997   144337   150242   106341    34491 
  -13999    -2855    66170   165644   251107   301944   332215   339026 
  300795   222801   138815    73930    38851    19403   -19530   -67282 
  -96946  -128233  -156223  -130093   -63660   -52031  -113458  -145266 
  -82519    52158   175728   179483    87662    31039    45143    91508 
  154816   225308   251943   165165    -7825  -136835  -136401   -29019 
  114827   216207   238777   225217   214657   210331   208768   183061 
  122852    48223   -53483  -199586  -333067  -364824  -295292  -203125 
 -117372   -28005    24879    22016    14966    25002    55295   133225 
  205618   176745    69556   -25994   -71572   -53013    24895   102067 
  137390   142118   111936    48813    -7739   -12151    49713   117299 
  114907    32564   -85183  -167028  -188817  -178654  -132167   -64466 
  -31110   -22354    -2118    16384    17799     3695   -23270   -62282 
 -105345  -115164   -73440   -26723   -11794    -9924     1769    31878 
   79187   133345   196896   263960   298308   269510   179702    57621 
  -50710   -80017   -12261    63289    88896   117540   160010   177770 
  183536   154071    28643  -146530  -245489  -203672   -81278    27439 
  123661   226409   271350   228986   170402   154903   165210   166477 
  155480   113485    34028   -10321    35967   138222   220390   232181 
  173294    68832   -11673   -12525    17012    22511     3599   -46133 
 -113927  -146470  -120209   -62139    16281    97203   111736    36252 
  -61916  -124545  -158215  -169478  -139380   -92256   -61554   -33680 
  -23465   -49400   -58096   -19041    39200   107813   177828   206605 
  170048    96877    41560    39908    76077   102848    79912   -17245 
 -148464  -211706  -157660   -29571   101702   190143   215448   183327 
  136910   110022   104849   109608    63577   -68528  -198463  -248953 
 -250918  -226627  -133191    45499   241955   333875   243205    58633 
  -60363   -57059    40331   128149   107513    20093   -60846   -80070 
   23811   193523   330247   432600   497149   478759   375778   255194 
  176010   121742    86283   105911   136948   100841    10744   -63846 
  -67222   -21354   -19520   -89511  -150198  -144925  -117301  -117872 
 -122605   -90535   -27248    44016    99771   132920   158773   164370 
  132302    80842    47028    50712    67637    82175    86151    55783 
    7211   -52987  -142617  -219737  -249857  -237974  -169362   -97920 
 -115868  -171989  -180905  -188298  -235592  -264597  -210433   -92811 
  -15675   -19968   -45023   -77466  -122309  -138829  -127105  -103557 
  -48464    26522    55916     9347   -59313  -107218  -141170  -130715 
  -50611    32702    63714    61045    30364   -17071   -19020    43103 
  114700   158076   178585   195207   222485   243376   216844   124088 
   -7610   -92665   -54984    59939   165078   249954   313965   339980 
  344757   343919   321966   255817   136481     -197   -83807   -91101 
  -73346   -63257   -30573    47603   154394   238341   252792   209588 
  124271     9712   -87118  -155717  -203616  -214588  -197591  -153731 
  -78018   -21948   -32307   -73955   -65019    16074    91747   101734 
   73327    45425    28793    31392    61112   112053   171328   227054 
  245623   192630   100158    33117    -5231   -30354    -5927    88104 
  201391   244501   166703    18697  -111237  -194780  -258824  -293024 
 -231750   -98001   -22270   -43107   -90342  -131197  -135275   -80920 
  -24083    11729    27201   -15071   -98996  -175437  -209380  -168652 
  -71738    33617   124326   192965   241136   261807   236700   170803 
   96986    39093    -2924   -13992     6616   -10301  -102631  -203735 
 -238139  -193517  -103781   -11903    50047    59603    22404   -28145 
  -80644  -141627  -194097  -213076  -200694  -172785  -117461   -25745 
   63570   104347    81533    22868   -14624     5395    77051   152470 
  178737   150120    81322       33   -49630   -70452   -64796    -2731 
   73774   110490   123183   113899    77889    36371   -12449   -71344 
 -107465   -81953      921    82508   121966   137137   145272   136280 
  112340   102497   123896   152050   162269   157702   133127    95928 
   78314    65476    31626    20829    63904   112608   132291   127102 
   68416   -53092  -158324  -166414   -79365    34840   102847    95524 
   19333   -84791  -149759  -150194   -94802    -2501    61539    43455 
  -33426  -104745  -115593   -57380    30851   115159   195138   246684 
  237795   214932   213370   191196   126870    24777   -89266  -148805 
 -144054  -114044   -59485   -18608   -38177   -58449   -57214   -90689 
 -122269   -91772   -22790    51724   111383   126571    80928    10619 
  -17842     1347    25122    41887    50384    32893     6880    32038 
  117952   192934   218801   212915   155121    34323   -73190   -76161 
   18078   112206   133130    72340   -45486  -154371  -177371  -109612 
  -21755    16699     2708   -35269   -83729  -100719   -61291      624 
   64618   120972   155039   160212   150925   164853   198236   221256 
  224069   186846   125441   100900   120285   153518   191788   215489 
  203709   172590   144914   111069    52179   -23785   -88567  -104929 
  -61115   -14364   -20154   -45351   -46768   -53192   -90165  -120224 
  -95920   -25432    31691    28178   -27164   -76286   -80402   -68578 
  -74696   -88491   -97150  -115035  -146000  -153086  -113028   -63711 
  -36364   -15847    -8471    -6885    55479   167083   227434   215439 
  186263   170063   179306   219224   259041   248771   159942    24968 
  -72075   -92072   -56689    34049   159222   232731   227185   198011 
  178535   160761   120257    74063    68064    82734    81316    57472 
    8963   -51408  -109405  -125292   -53487    53419   112016   101838 
   17558   -94211  -143103  -130948  -106314   -87767   -97161  -113174 
  -82347    -6993    65089    89231    54259   -23376  -106706  -130018 
  -82123   -56707  -106337  -168856  -203475  -200523  -105839    62936 
  196107   246447   218765   119416   -10826  -127404  -183337  -147595 
  -91539   -87106  -108783  -145209  -167397   -84799    70607   175624 
  221751   242011   211920   160147   158568   189709   198478   184455 
  166506   155596   155368   170292   200009   211177   178271   120787 
   72914    60703    82514   107965   108255    88214    71959    52802 
   20489   -10149   -36402   -69453  -104814  -107356   -66432   -27865 
    1303    40690    54727    39727    40468    52939    56100    44937 
   13742   -16020   -18447   -15591   -39573   -66721   -62524   -50944 
  -55444   -61263   -78633  -120070  -152016  -160630  -156864  -124195 
  -79299   -75714  -102390  -108772  -100121  -110051  -124833  -116224 
  -97141   -81523   -67939   -72151  -104832  -153914  -195261  -196739 
 -152016   -95169   -60242   -51703   -39209    11267    78198   122537 
  160173   198550   203701   182020   169786   165166   153538   146557 
  136978    87725    18885    -6630    23148    84569   149858   197169 
  233595   263956   281804   293877   295665   275214   240387   197536 
  147789   108647    92255    84843    79281    86955   108319   139158 
  175080   184355   135208    48976   -18786   -37492   -15670    22035 
   50636    49503    13305   -16179    14890    86845   156770   211693 
  205537   124887    58909    49448    29531   -29919   -72132   -77772 
  -97539  -129885   -98486     6996    79102    56710     1351   -53451 
 -117193  -153206  -143160  -119192  -105556   -97974   -80793   -63506 
  -65357   -73813   -60199   -11361    57211   115625   135500   108433 
   70717    54758    39421     1214   -32122   -26027    -4369     3375 
   22723    67502   102993   102239    68867    17518   -46746  -116512 
 -145394  -107269   -59256   -51730   -70240   -93140  -109758  -106703 
  -76989   -17303    62214   122988   127195    75938    22624    12104 
