Origin Time       2011/03/11 14:46:00
Lat.              38.103
Long.             142.860
Depth. (km)       24
Mag.              9.0
Station Code      FKS031
Station Lat.      37.3363
Station Long.     140.8087
Station Height(m) 415
Record Time       2011/03/11 14:46:56
Sampling Freq(Hz) 100Hz
Duration Time(s)  300
Dir.              N-S
Scale Factor      3920(gal)/6182761
Max. Acc. (gal)   451.460
Last Correction   2011/03/11 14:46:41
Memo.             
[...]
   12475    25137    46078    18625   -10983    13321    40444    13422 
  -21598    10622    58562    45793    25956    50715    85822    98796 
   91120    76718    70512    88229   102133    76556    56872    50622 
    6662   -42821   -66288   -71812   -44377    -9083     9506    31791 
   58574    65880    30733   -14864   -14741    16180    33119    22253 
   20987    54223    57707    32739    61516    99917    80176    55057 
   58286    56643    38167    20734    24324    41868    38550    21084 
   29530    43767    19717   -19883   -26196     1511    21494    12084 
   -1609    -3048     2340     6066   -12634   -23486    12848    33580 
   23235    47677    68703    46767    41134    50347    29536     9632 
   21243    39808    44710    27434     8611    46493   101438    56526 
  -31809   -22460    33743    31013     1409     1483    16600    18692 
   13319     -632   -20170     4167    55355    58291    50111    75240 
   89442    95725    93519    39877   -12894    -4502    19045     6975 
  -32794   -38380    -2669   -19548   -63028   -30878    20777    14560 
  -17296   -20196    14504    36079    34838    53414    81947    93983 
   59719    -4038    17641    89528    70967    32656    50900    50390 
   30456    23788     -902   -20802     7427    27855     -529    -3955 
   31925    29791      -63    -1924    20957    37861    27174    18670 
   42842    63381    67949    76821    73698    76625   111619   100615 
   15139   -29023    -3270    11030    16237    46586    82800   114301 
  131523   107868    53658     3346   -21134   -16399   -10497    -9809 
    3282      518   -29294   -50032   -65358   -85020   -52040    39542 
   76031    34932    23365    53825    55460    29226    26756    24449 
  -18066   -17389    48404    57163    23196    43427    70633    73601 
   97868   118117   116995   109867    76719    34275     8312   -10368 
  -23441   -22264    14802    48342    12736    -7992    54787    87233 
   53487    42950    58137    75940   106606   117246    87691    72008 
   99425    94955    36520    14704    22622    -3950   -22027    -2779 
   -2139   -47792   -74260   -21542    22788     2441    31509   102552 
   93569    53347    68109   109079   129063   107212    61392      702 
  -72372   -73331    -2401     4620   -32608   -31152   -47348   -67915 
  -47943   -41807   -36987   -17028     7773    58107    43830   -32687 
  -18194    38659    43139    46093    56390    51805    40617    38092 
   59106    73685    58125    41341    33825    18910    -2725    -5811 
   20828    36833    17537     7238    41703    77171    57415    27847 
   42654    53114    33523    22352    22588    -5170   -57445   -51375 
   17526    32600     2112    37188    72326    17612    -7762    46228 
   79461    82423    58702    25078    64352   108602    64095     3058 
  -34231   -51642   -40297   -34032   -13872    22743    23251    45408 
   99368   107588   133503   179083   131958    80158   108477   110438 
   68742    25673   -17431     1221    58889    47407     1744     4788 
   33466    36933    13407     3741    18597    24356    29582    47346 
   47069    28671     4803   -28962   -43535   -18468     2822   -18772 
  -43032   -11801    28841     8708   -23982   -13722    21824    72527 
  125218   136187    82067    25939    39335    46543   -21040   -61561 
  -15852    44217    66400    49470    23421     7487   -16938   -23504 
   26903    86422    84860    34834    45281   149068   171518    45848 
  -18779    54400   106265    68598     9989     4217    51931    66621 
   27136     9091    17952    23236    41767    61338    55862    37023 
   33812    68381   106915   104017    91805    90289    75579    73889 
   74328    22788   -26056    -3401    56443    96425    91496    52982 
   25183    42957    57508   -12069   -90277   -41081    53990    42388 
  -26354   -28808    20019    14014   -48831   -76828   -69326   -63599 
  -43848   -33922   -63142   -57319    27394    70676    18623     8248 
   88908   132495    56514   -41855   -22877    47692    12077   -62894 
  -29617    40534    27067   -12930     -565    31687    41035    35946 
   51628   111159   151500    97862    40287    78059   120839    89403 
   41842    27466    19634   -13336   -43739   -42599   -41909   -56121 
  -41777      193    18862    20839    20025      593    -2562     3909 
  -29723   -50338   -28945   -12101    -8096   -43011   -87988   -37268 
   60896    83727    51854    49433   100637   146234   136584   117804 
  114973    96068    61166    31571    40877    74087    45033   -21911 
    8316   131718   170460    60136      793    89317   107751     9793 
   -9405    -6879   -74825   -77463   -32026   -65264  -107687   -69989 
  -35334   -73250   -77984    -4407    35108    25560    37754    73693 
   81453    32496     8042    53831    51920   -25524   -35750    48801 
   71210     1245    32819   165295   168419    76791    73181    93524 
   39008    -5860    12080     4186   -48092   -68854   -74226   -75557 
  -24554    20560    18689    29332    34261    37328    99164   142169 
  112183   100941   120370    97895    55754    65029   110623   114901 
   50814     -656    35092    69476    14623   -46121   -62224   -63057 
  -37987   -19141   -34897   -39764   -28648   -43449   -89118   -98686 
  -40527    18208    29088   -11506   -24574    65740   129781    82467 
   45482    71131    98215    78163    16562   -23413     3056    67178 
   76598    -9743   -72228   -13755    75431    87545    45429    40913 
   85008    93484    56854    21266    -7115    -4642    31184    66713 
   90029    77394    41724    48832    69525    22741   -19848    32947 
   61072   -15952   -79193   -84446   -72216   -47464   -33330   -35229 
  -44598   -55093   -36904   -13460   -10903   -10501   -27344   -34940 
  -17229   -34907   -45714    -5046    36421    72113    80806    58292 
   51951    52733    63184    47119   -32107   -18499   103173   107086 
   25587    31863    60902    24226      482    56364   104533    80861 
   80761   137334   145453    95860    86213    86356    38481    37406 
   64333    16940     -913    56570    59937     5470   -12623    -1265 
  -34955   -96807   -93448   -34168    10681    37088    55969    66471 
   72956    82139   100538   116010   102849    56571    33696    53201 
   37752    13129    69280   121269    57199   -29632     2317    86886 
   61805   -46987   -85161   -31230    -1745   -49918   -97591   -66557 
  -15398   -71301  -164855  -113327   -40803  -127654  -163946   -29391 
   44107     3047    -2782    55761   134593   178978   129022    25014 
   19437   142631   202552   135589   104859   122093    85454    47852 
   40190    -9648   -56900   -12036    40189    -9389   -84064   -88824 
  -48422    -4749    -6166   -41401    -3752    83315   145403   215099 
  230121   156404   119937   118944    94507   112580   148524    93229 
   33184    92933   124614    29063     -455    68394    46652   -43855 
  -46414    28894    48948     3125     3987    27793      530   -51801 
 -113148  -108838   -16056     3225   -26627    49582   118423    63990 
    6053    16979    30864    18807    18867    44380    70030    70498 
   43809    18222     6489   -12235   -28440    -7138    32963    73469 
  141025   182441   132787    76917    77394    67134    46897    57004 
   41577    14548    26756    -6767   -79054   -59429     9627   -20473 
 -126796  -139056   -45211   -33439  -139840  -178637   -93337   -42784 
  -70452   -45750    48386   104757    88432    74246   130072   196216 
  186848   125282    69819    71238   107835    83063    45793    87973 
  144091   157634   138607   110797   102189    83263    38134    -9408 
  -55443   -49956     2317   -14007   -65312   -77229  -142191  -198647 
  -96997     -133   -66060  -126621   -30784   108271   130571    51757 
  -21259   -12301    71710   100408     2063   -91644   -57873    21789 
    -278  -123008  -219201  -179502   -37373    52982    43457    10695 
   -4323    29642   102232   116056    66296    47144    74281    91503 
   72039    53928    50365    22464    -8423   -10220    -6092    -5560 
   -1545    29354    98457   139701   111353    88503   121247   154864 
  183380   218764   183877   106256    92060   105767    93050    86101 
  104704   120672   116762   113465   104445    84407    82689    86614 
   90343   114693   118892    75597    29541     3013   -18560   -29816 
  -25239   -32214   -54586   -49178   -42655  -114930  -209795  -213301 
 -147732   -68033    15344    55676    58419   110966   187049   172492 
   88535    51145    73409    88667    84084    77589    44243   -28084 
  -64698   -11024    59018    70106    47893    35079    38513    42472 
   26491    10561    20461    14416   -45783  -116292  -134660  -102307 
  -69038   -58437   -50709   -54249   -99052  -114821   -27658    53907 
   33027    12795    71850   140286   151822    96205    58648   134532 
  195768   120867    26315   -17712   -58792  -113430  -152557  -107707 
  -20236   -20210   -49994     -432    39095    -3629   -38233    -2324 
   65747    90351    60702    89555   176993   163859    73941    73578 
  133746   116554    79671   118964   138269   128100   175563   181827 
  101513    61519    68236    67634   110725   177983   151961    57568 
   22498    42358    30023   -23266   -92391  -169934  -214823  -198719 
 -170646  -192123  -228287  -168671   -33824    31339    18811     8184 
  -10164   -33818   -35181   -57766   -84893   -39106    13700    -5069 
  -19219     8827    28033    45176    58069    27760    21060   102016 
  174473   184013   220518   302930   316781   197983    64029    60078 
  136014   176663   176376   135898    71665    73698   124625   110190 
   35569   -26645   -45903   -16017    10437   -28589   -85131   -95912 
  -93080   -85435   -62947   -88577  -138311  -127706  -108763   -93328 
  -17464    39277    31490    35216    41815    44097    68879    76464 
   91182   185301   305496   324262   222487   138261   134739    82357 
  -36670   -91426   -96052  -103171   -78100   -27461    14949   -13837 
  -91449   -50728    56686    85805   122778   148647    88534    53707 
   41295     2175     6777    36602    36698    33162    70827   152779 
  201772   177479   144354   134133   138447   150592   104349     9801 
   24049   147901   189998    92273   -13254     -285    69183     4230 
 -180059  -220115   -73039   -38342  -154388  -123989    10951   -29041 
 -170017  -189342  -112207   -98853  -173117  -189407  -122910   -70706 
   10612   107869    91909    33310    65923   114750    45413  -103488 
 -146002   -22677    91679    84471    45576    43769    65171    79774 
   33491   -35738   -23595     2815   -63881  -115386   -62136   -22513 
  -50247   -81391  -106508   -81987    -4720    -6506   -55454   -24161 
   24331    42381    60864    60341    84069   145729   115862     3929 
   15867   138142   136677    45969    48029    91393    94421    50199 
  -30991   -42364    15900    25489    21825    55052    73114    73686 
   84395    89835    69222    46925    75383   135007   146922   133006 
  149573   132803    59818    10846     1361    -3729   -15840   -24012 
   -9841    33271    73686    16012  -110165  -106342    11727    63001 
   36253    -5425     3426    56372    31042   -35817   -19284    31670 
   23500   -24718   -26648    22157    65736   109924    95797     -704 
   -1803   103821   149990   125259    41688   -21316    71000   142076 
   31407   -38456    44483    68864   -59859  -179606  -169283  -110881 
 -128886  -188141  -182994  -129366   -95385   -99527  -117234  -109269 
  -80463   -12998   105113   150117    71338    37391   137408   221922 
  203932   156417    84288    29910    92827   165458   127759    58440 
   18560    16001    57028    32487   -84600   -99935    -6568     8134 
  -48069   -70345   -15588    46393   -10062   -71337    -6602    49026 
   47767    50603    -5207   -82958   -37125    53941    45634    30799 
   87230   142405   183826   205806   176082   151532   165626   150462 
   90061    42298    10222   -10759     7247    18365   -25705   -79970 
  -92388   -23870   109055   176255   115759    46477   101399   239428 
  296477   241646   177235   134666    75249   -25374  -120887  -131202 
  -69035   -13611    11776    30858    27963     2948    17105    49961 
   44887    75662   184732   271864   268649   192754    95636     8248 
  -61224   -64736   -31485   -39009   -22795    34268    23070   -33589 
  -48992   -74260  -133732   -99566    35299   105852    74332    18396 
    3733    41994    40625   -17828   -13494    69072    87242    -5536 
  -71682   -81080  -121245  -132340   -64123   -10035    20926   101682 
  149660    46602   -52291    12466    66522    -4163   -60001   -58190 
  -28505    26180    15981   -37681     2424    80808   110133   145471 
  199416   218906   163900   102860   154634   206797   140757   110359 
  156067   125900    17636   -45436    -9146    24957   -46054  -111439 
  -58962    14503     -705   -42580    23031   118753    84116    44311 
   55837   -31545   -71991    36126    54332   -12067    -1717    48865 
  108018   122365    31040   -37882    23669   106293    89725    20981 
  -16860   -27446   -43006   -78387  -109671   -98298   -74329   -98960 
 -137490  -129289  -164224  -288908  -329529  -258575  -253218  -294942 
 -274154  -246636  -258172  -259399  -254198  -270619  -280569  -279057 
 -271724  -212199   -99114     8582    98238   147942   136417   198346 
  395753   511233   472224   486642   596661   687298   739893   737048 
  658636   573282   554378   589628   598903   548976   481712   423004 
  369986   304014   181858   -26515  -283857  -485455  -553100  -505326 
 -404176  -301440  -240386  -239391  -301175  -399528  -421636  -320586 
 -233694  -227534  -199316  -115236   -22791    87448   181097   160184 
   72567    78256   212136   370924   456596   430416   325029   253076 
  248040   175327    14074   -91665  -145585  -185990  -152981  -157175 
 -282952  -333615  -236815  -164837  -186765  -193349   -99173    -5702 
    3613    62371   178387   176013   102487   113568   174585   178465 
  120745    74551    48990    12916   -16650   -48150   -89271  -116726 
 -144525  -169175  -182282  -194292  -144293   -36477     1016   -19314 
   21443   117222   191135   180850   108834   100605   134838    81853 
    8439     9416    69194   157827   147579    62455    86940    88442 
   -4009    10814    30405   -44177   -29845    20758   -15951   -50804 
  -72706   -79235   -20388    17829    47093   129569   109014    -6527 
  -14015    23036    -7720   -31718   -11653    38670    69181    17829 
  -40365    -5703    93956   142002    93202    57127    64615    62000 
   87328    78223   -41611  -118155   -81150   -59318   -77682   -61101 
  -20312    -2629    65658   187590   163631    19624   -21560    34446 
  102191    83289   -67536   -84091    74673    65035   -45119   -16065 
   11317   -14204     1607    -6621    -7621    70871    70241   -49653 
  -93971   -44322    26447   102178    85553     -239   -16981    55768 
  131795    83094   -23774   -24904    14630    20069    -5003   -72954 
  -98732   -67717   -65104   -61357   -50492   -62785   -57321   -45715 
  -11035    65941    52399   -22697    39241   166413   192670   184921 
  203270   199656   201601   187459    92297    37231    97823   146639 
  105703    12556   -40016    -2301    38714    43006    53918    49470 
   65831   128258   108671     8656   -20924    20507    35144    20596 
   13446     1966    -6534     7564    21948     5513   -29557   -14410 
   43167    18435   -77269   -84610   -33460   -48597   -69448   -45911 
    3598    68537    66613     8829     4064    69853   147732   137583 
   44545    -3507    28691   109207   165950   122038    87565   160920 
  210553   138335    37142    42909   105547    41185   -86826  -114795 
  -98332   -56818    25701    40457     4640    47901   137094   138889 
   97161   148238   201656   145050    72717    36117     3643   -46315 
 -121478  -138841   -86190   -79921   -85256   -68935  -130780  -138517 
  -22901   -42430   -83545    99978   201473    73964    28450   146708 
  245031   204531   101616   103045   167173   117598   -17429   -37043 
   62897    68572   -31399   -43814    47129    87934    54534    66294 
   87951     7433   -12392   108873    63329  -129464   -77065    93938 
   56909   -49404   -66461   -19614    61982    72074     3307     5231 
   65156    59169    47968    72803     1578   -77870   -22061       75 
  -46472   -41617   -49316   -46931   -16072   -70195   -90834     5938 
   35417   -27693   -42520   -14180   -54566   -99130    17006   179979 
  186253    80759    22440    78587   128673    61642    -3709    27723 
   62893    57678   103115   167047    96214    19216   118192   204239 
  150321    81153    75275   116321   101796    25880   -18043   -31797 
    7105    56029    22183    -6297    -3644   -24581   -10755    24102 
   31943    34742    16564    21835    88200    87411     3039    -6580 
   87967   167704   123540    10903    15672   105004    74047   -46269 
 -114264  -111685   -24584    56740     6189   -22145    58681    70656 
  -11937   -75474   -48125    20839   -14109   -60484    -4977    -2734 
  -49976   -31644    -8618    47574   172117   187973    70750    42474 
  128001   126380     7105   -71981   -66621   -46638   -56491  -126704 
 -144026     8769    86963   -36804   -48105   107714   159077    74461 
   11462    44606   102249   113530   115255   105100    98433   127320 
   92211    -2701   -70815  -129268   -97194     8582   -34326  -134513 
  -86109   -40144   -69890   -59322   -45414   -24034    34347    73411 
  155020   239983   183396   108312   144099   165509   130132   124795 
   89775    37659   108406   156246    69137    81411   181921   140547 
   51098    39035    37586    48503    42189   -25529   -45537     3251 
    8475   -70284  -152339  -110235   -32315   -98876  -134502     9257 
   52518   -71781   -82471    14126    41879    -7126   -38135    23513 
   34346   -61453   -21135   104646    95878    43020    16300    20678 
  102317   123775    25074     5541   106942   138111    58809     3354 
   -8261     9634    86366    90097   -18296   -30241    43081    46567 
   44341    50616    10280    53943   146334   104623    56045    60275 
   24643    69134   110106     -669   -29059    77447   106558    59363 
   23413    24855    47703    17831   -47483   -68340   -65463   -85405 
 -128418  -138523   -77967   -35528   -27555    14293    20753     4801 
   31694   -34839  -110711    17996    94266   -34548   -55687    38217 
   35453    26292    49041     7792    27099   162939   153596    -8285 
   -8197   117985   173953   193108   153647    84749   112891   121572 
   17231   -49491   -22532   -22004   -78990   -69453     3268   -42473 
 -174602  -159132      434    76408    -6359   -75272   -22921    28249 
   16720     9606   -22903   -99688  -112606   -42594   -19038   -72536 
  -72238    10599    70746    62189    -5741   -21579    93294   155654 
  116123   152080   232426   273993   290799   240394   162586   151397 
  176127   151174    65335     9188    16611    30586    18914   -81972 
 -254133  -312756  -232735  -193407  -247113  -259348  -144543   -41539 
  -70981   -65925    46681    68801    54050   166312   214882   132988 
