Origin Time       2011/03/11 14:46:00
Lat.              38.103
Long.             142.860
Depth. (km)       24
Mag.              9.0
Station Code      FKS014
Station Lat.      36.8683
Station Long.     140.4300
Station Height(m) 178
Record Time       2011/03/11 14:47:09
Sampling Freq(Hz) 100Hz
Duration Time(s)  300
Dir.              U-D
Scale Factor      3920(gal)/6182761
Max. Acc. (gal)   165.081
Last Correction   2011/03/11 14:46:54
Memo.             
[...]
   40623    -3558     9849    41044    41482    36630    57252    77477 
   60447    18192      658    19485    38934    38297    26444    23782 
   41293    66997    79890    78707    69532    52285    49837    64962 
   66777    57048    53627    57033    47047    20422    10212     6831 
   -2922    10926    23510    12317    25184    59582    64100    46340 
   44289    50143    31992    -7411   -27694    -5197    19403    12673 
    5362     4003    -5123     9448    55903    80077    47872    15435 
   46320    82160    56033    29151    43034    45582    22485    13873 
   39529    67239    56520    26811    22090    58637   111149   124718 
   96170    66333    36505    11321    17416    26705     7447     1018 
   30538    41697    16234    19032    58709    59112    25427    34515 
   64401    52186    24691    16964    21006    36194    54357    55473 
   39399    29898    34687    24702     6465    19129    45876    57352 
   75440   101589    85861    35250    15018    24309    33009    36338 
   14185    -2359    32007    53049    30957    35860    47557    15708 
    5952    30664    17223    -7913    -2573     6748    33060    73408 
   72422    43561    20822      861    10744    37300    26696    12410 
   19877    23303    47940    68357    32350    14477    51675    65592 
   44490    35807    40810    34748    19478    20707    35333    37830 
   45691    76366    77059    43042    54353    88364    69523    27117 
   -3510    -6060    34376    54314    35660    48499    73078    57484 
   35906    44624    74849    82318    33701   -18243   -27141   -23579 
   -8679    17575    15627     9803    23514    27575    41181    60008 
   42970    33043    43841    26371    18163    37241    15712   -24588 
  -17200     2280     5079    31920    56443    30884    26044    79566 
   93787    49435    51221    98494    83325    13251   -12367    21769 
   51854    34389    12018    28041    27376     2288    16569    52544 
   71292    58534    14496    28274   111678   115191    50469    64685 
  115032   117032   129216   153184   107736    34608    20936    16720 
   -6371    19812    51059    29302    15035    20164    32163    50543 
   32132      337     4983    19865      803   -32295    -8026    36089 
   16240     -397    57754   124438   110198    35231     7472    40740 
   61018    73487   104449   117265    95149    67389    52396    45903 
   39916    37727    49716    51493    27858    36337    69155    43454 
   -2264     5603    41434    67828    65812    43277    33765    46923 
   59106    35559    13719    47705    69341    43715    52893    75656 
   47342    48802    93467    68673     6178    -4245     5525     4062 
     709    -1612     9244    30152    45087    51807    39555     9813 
    3946    15975    -1449   -16812     6841    51605    88645    56255 
  -14085     2914    67806    58955    13510    15462    35717    28667 
   24213    41903    62776    72438    55898    41934    53529    48455 
   37316    35898    10642     3418    43587    76760    75957    40035 
     752    -2985    -5939   -10658    16105    28601     9731     5694 
   18021    27389    23903    14032    17933    23714    27409    38233 
   39216    40930    48285    29664    11171    34673    60877    42989 
    6782    -9368     1857    43581    76692    57840    45451    81738 
   80343    14067     6293    64988    43225   -30659   -17674    20101 
  -11050   -29604    10167    40755    40196    31719    38096    64983 
   71764    49991    33536    16719    25649    83562    86039    23663 
   36930    94747    88895    59299    50189    65258    85077    51434 
    1341    13271    49411    56035    62204    67020    22207    -8956 
   36252    57170    25953    44956    75552    33497    15330    70886 
   80405    36344    29999    36488    28794    54256    96555    82784 
     222   -50755     4947    55673    21149    -2224    31531    60433 
   36934     1123    41678   117147   118441    85522    58758    -3762 
  -33853    14743    40372    10811    -6631    11270    39057    56282 
   64226    58081    23533     4792    53669    95592    40759   -39922 
  -26536    47233    71513    54600    42786    43364    77947    96451 
   63474    59230    69068    31460      768     9149    32210    55117 
   72262    82492    59197    21975    43049    88799    66661    20457 
   39488    57163    23694    27877    53604    24126     2777    18365 
   -7336   -40568     3882    63649    72642    62563    41624    24601 
   53829    82388    21295   -68579   -52694    21757    42591    30993 
   35872    60879    64964    12540   -28957    -4293    27077    42981 
   71512    57564    -5110    -8472    41628    50249    37101    61805 
   88589    73632    48576    33067    26410    35005    33275    30800 
   36062     7599   -20817   -10443    13581    45719    45016    -3657 
  -13893    10814     3934      197    13773    27204    54642    40048 
  -14377     8704    79950    92039    67665    42871    33788    74163 
  104933    61272    26006    66937   101031    64652    21221    24316 
   40250    42407    42455    33059    24993    41231    29565    -5896 
   24023    31085   -62495   -67083    40951    48931    -4129    22947 
   56430    56909    74869    47559    -4435    48088   107340    45926 
  -26659   -27042    11323    46369    19669   -37137   -12395    34091 
   -8482   -31702    37616   103882   122203    81795    38402    89952 
  129714    57262     2497    29876    59841    54872    46014    58757 
   54009    23600    10137    20936    54470    50240    -9454     7750 
   81353    67781    31180    38605    -4410   -52341    19776    73585 
   -2889   -17289    46712     8119   -32828    26540    50413    23803 
   47312    98090    94723    44971    33086    73786    97822    87474 
   69354    40254    29461    55302    41409    10828    48889    70187 
   34518    26822    29810     8775      -98    13786    36641    41663 
   11682    11277    56457    47932    11002    34762    58172    38970 
   32942    44660    30180     -399    27654   107772   108687    29147 
    4370    15075    14101    75804   141353   104536    65127   104339 
  129193    75284    13237    22537    66253    74035    51487    37873 
   40059    30012    17560    45383    81237    67912    43400    54735 
   65503    68156    88973    81018    17255   -38405   -19990    54226 
   77806    20236    -7840    60144   137512    99496      835    -7712 
   37638    35817    -3298   -23567    37173   121205   106368    45842 
   33934    32923    19034    24961    12048   -49222   -56079    18283 
   33602   -25876   -26245    47226    93352    63181    10514    19928 
   64768    61132    54996    93512   105218    79905    55187    38470 
   61432    80461    12122   -57414    -5083    73161    47243     4131 
   35536    77936    70675     3467   -70803   -57821     1187    -7927 
  -78147  -114585   -47995    72690   118725    33958   -59905    17630 
  146435    80049   -46829   -17571    60901    57153    40765    68855 
   76701    53962    40171    26574    46217    85247    60376    43540 
  108086   119926    39108    26608    67069    17685   -17642    68379 
   80993   -42053   -45707    48200    -5507   -85938   -36564    10555 
    2454    -4122    -4651     3703    17174    11179    -7653    -5011 
    8619    33341    95004    97039    34550    68740   100678    18762 
    7616    76202    80305    46369    34777    67339   110037   115008 
  110390    93111    72575    89797    80158    32613    36844    55890 
   12186    -3615    72038    80935    -2852     4260    43017    -6017 
  -18273    32968    43893    16091    12083    81284   133382    49336 
  -42157   -23388    -2693    -9559    29887    61126    39895    39086 
   50025    26664    43431   110430   119585    79040    57951    31642 
   -5801     3843    54857    67102    15825    -6393    64852    95777 
    9988   -28426    -3170   -20511     7674    76760    36313   -28196 
   19949    55296    17153    52744    97212    15198   -17507    62689 
   68904     4762    -2320    71390   137384   105670    47350    73194 
  132470    80194   -23956    24589   110593    54457    20205    83279 
  121212   129025   117215    93884    99485    95161    69889    57484 
   69108    91653    34769   -85150   -74456    66736   115828    45690 
  -14062   -43746   -15456    52655    23318   -51411    -7947   102276 
  138302    91260    32761    20030    59529    71488    44861    48677 
   22713   -14156    26508    15619   -53375   -12581    84670    89926 
  -12585   -88046   -24764    60462    45649    -3570     -463    50996 
   96309    95714    58195    33500    21662   -17108   -25593    21772 
   30434   -10945   -33152   -18179    14072    36925    38073    43543 
   78724    78344    -8212   -42154    45967    76383    28152    73576 
  133114    40374   -95237  -110250   -36950     7100    10965    48609 
   87240    48491      562     7562    16500    38241    73438    60281 
   51358    48791     5913     5041    46927    64143    56338    44664 
   62868    67705    52432    73410    58527    39133   107347   137530 
   98354    71791    32416     9236    41759    93167   107506    28641 
  -50654     9090    92900    57823    19370    57762    79822    74819 
  103484   107333    28114    -7479    30510   -10372   -57028    22858 
   85091    40826    18687    62997    96138   101678    80247    27745 
   11837    40476    40215    13463    -8578   -35874   -54977   -37385 
     256    24806    25742    35375    75901    74963    28588    25055 
   43509    60010    64787    16235     9326    68599    46373   -24040 
  -13002    27149    18363    21311    66811    44981   -51478   -82352 
  -21977    39192    38718    11622    21544    23715   -30503   -79395 
  -56771    -6558   -16200   -38223    26154    87258    30012   -17788 
   36611    57726    25289    45291    82064    50151   -17229     5282 
  102588    89150   -14447   -24868    33857    38175    -2744     1230 
   70102   120245   111345    92073    76385    56154    50523    61540 
  105310   144692    72350   -22216    17488    77021    50990    44638 
   74396    58765    31035    34069    24121    18249    62029    82953 
   41751    28469    48403    26084    10769    65298   127892   138802 
  100304    63421    70160    79636    68780    48991    33253    54439 
   76083    76501    84703    62882    25347    19413    -9592   -58613 
  -18677    65357    39447   -32678   -36502   -27685   -19427     4491 
   21656    65912    94984    27261   -38764    -4190    57550    83262 
   71897    63567   130867   162046    30578   -61595    20859    72154 
    5009    -7122    98453   170735   116533    65188   114246   105962 
  -23955   -83672   -49964   -21938    41808    61155   -43361   -58095 
   71465   116438    45473   -43311   -96152   -15141    97518    37073 
  -73698   -42026    63069    71529   -28824   -50177    43336    71500 
   36734    65299   120657   105673     5615   -76109   -10800    90319 
   85236   102631   121464    16990   -16039    62519    41472   -14139 
   12215    35486     2112   -76765  -130140   -52289    68709    64275 
    1496     5834    15910     -777    40296    77134    10199   -10598 
  114752   183004    82108   -12872    -5934     8889    37573   134839 
  152650    25266     4842   127335    79532   -96984  -100074   -34542 
  -77081   -86645   -26020     1792    14503    25389    29715    57916 
   92622    63666    -1912    53494   168461   139175    30738   -16111 
   25776   101022   107550    90244   104314    77785    65280   116230 
   87114    26369    87576    93183   -55786  -104129    72672   219378 
   70211  -107680    27264   133088   -24964   -59305    87821   103561 
    4298   -27004    45562    99377    27738   -48624    -8058    52184 
   32464    -4240    31440    56464   -38282   -87778    35274   127913 
   84291    27682    41030   118865   170243    98947   -63461  -165691 
 -116284    -2926    64380    48801   -13354   -35445   -32408   -40947 
   -3321    39670   -11633   -44135    52106    81321   -27870   -39759 
   49001    67288    18184   -39440   -12149   118854   157770    43824 
  -14816    70003   145068    98448    19900    45974   136252   159090 
   87684   -21139   -53251    11087    47958    47072    22476   -19782 
   43024   152528   139270    47189     5468    76517   152463    90180 
   20835    78708   109304    27864     2350    78591    86619    11818 
   -9269    55396   143857   133076    59927    99030   132377    41009 
  -14237    32528   112545   126868    42909    14726    85883    83282 
   -3089   -11621    54298   102384   123101    96790    44033     7572 
  -23618    24399   128111   115313    52576    57263    47225    16679 
   45290    80476    -5654  -101537     2927   117821    59198    49023 
  121136    78217    -4497     7086    30233    30409   100217   166527 
   85968    28014   149634   193360    16160  -135159   -86748    61878 
   96460   -16889  -112754  -121716   -56917    22316    23896   -15479 
  -28305    13257    85853    76539   -16583   -62172    34976   185509 
  143045   -84810  -177956    12787   212436   129276   -40237   -28355 
   27449    16673    54130   119577    76407   -15510    36501   187757 
  173240   -10144   -75239    35992   104165    63576    13092   -43867 
  -87680   -41959    45810    67731   -20306   -93861    -7989    74253 
   -6609   -84107   -10802   102939    81390     1863    12195    15251 
   33003   153318   176338    43917    -4886   150766   297978   200060 
   88156   159289   159573   129487   191981    55297  -142104   -57658 
   39390   -16921    -9521    55776    -7905  -146828   -44499   245986 
  226759   -57509   -97482    31230    24634    60146   151074    35319 
  -92278    17128   175346   195762    84453     -499    98115   196552 
   72362   -91185   -73327    19455    45386    58336    70410    35235 
   43775    85081    50165    12669    30978    65307    72218    14283 
    1637    93450   126990    60201    -4713   -27816    10906    60187 
   48731    26843    23568    29732    42089   -13689   -71408   -28755 
  -43547  -105429      621   138118    59821   -93109   -61751    77324 
  101274    -5911  -108319   -81432     8696   -26867  -150055  -166052 
  -39515    81161    44435   -45922    36775   136052    36944    29616 
  210005   215106    92640   109404   155514   101588     5047   -42728 
   -7185    31067    23767    19072    63661   133148   106395    29223 
   87229   149211    56881    16128   101708   106071    35042    38190 
   39208   -18349    -6806    60262    49658     9433    66275   117871 
   54961    23143    37387   -28858   -43841   109180   230007   169498 
   33778   -30609    47761   159469   107551   -35471   -27936    77987 
   16889  -121464   -69481    40733    22871   -26684   -20925    13053 
   34997    59846    71145    59858   132358   208508   110057     3552 
   84765   162740    68738    -6109     8112   -31122   -10304    97529 
   55321   -25135    50524    78321   -10249     3246    63859   -11522 
  -56429    24815    11538   -67335   -53824   -33247   -22915    50886 
  128347    93542   -44061   -82143    39654    97616     -892   -78641 
   11902   118289    49505   -45598   -36641    27608   126922    64481 
 -171312  -131418   141108   166321    33423   -13971   -11923    80492 
  150009    12096  -108577     1139   160299   138422   -19011   -18577 
  181984   207196    12889   -25895    74425    55165     3620    14749 
    7684    49285   128178    51339   -76503   -30134    72154   108151 
  104671    28276    10108   132942   138301    11408    17460    99356 
   82457    32755    26033    67648   134749    87186   -42338     9759 
  146109    61031   -41344    94861   160886    11747   -37889    91254 
  214348   176080    14044    -6014    85014    35908    -5572   102055 
  103815   -18057    39085   158643    73502    13624   114523   142902 
  106845   117975    98213    69826    59867   -20008   -64971     8922 
   46960    23265   -17114   -71097   -25415    77820    78912   -14408 
  -88854    29776   214859   110114   -95813   -36708    89536    56881 
   39872    88704    77703    82714   102463     6479   -99558   -80247 
  -39446   -79177   -96744   -55045   -63992   -69655   -33154   -78056 
 -120978   -17639    66464    -5916   -40467    72025   136691   106947 
  114478    92050    30563    88338   144087    48029       23    67718 
   88869   105737   120352      851   -61468    72838   103712   -35605 
  -37753    83757    69673     4809    55395    62814   -14573   -16242 
   -4115   -38404    -9942    77154   112314    40494    -9717   105773 
  193920    70723   -51465     3139    91019   100485   104468   112471 
   82666    47687   -21183   -87532    37894   220643   138145   -34226 
    -825    70492    13679   -21280    21168    17368   -44159   -42174 
   88439   136477   -42860   -63308   205496   252876    33487     6242 
  132056   145841    83801   -21825   -37228   140039   156722    10742 
   90279   167569    68735   125267   230927   109954    14062   170101 
  285412    84319  -145032  -109819    19942    83271    77539    58955 
   84606    54051    18007    96953   129340    84864    46389   -19497 
  -16304    32093    -1872    -1619    30855   -18715   -36307    14813 
   59196   125775   129225    18817    14526   142588   132624   -31427 
  -68290    64159    94547    12616    26110    30500   -20452    66248 
  120338   -33443  -108225    17419   134091    86433   -61250   -54935 
   92526   116933    50366    35918     7860   -35949     1109    -5945 
 -117640   -57165   159080   185652    30032   -65148   -18142    59790 
   18952   -87230   -83894    12102    11843   -87343   -80382    27818 
   50873    15243    12808     8001    45058    97919    67521    76511 
  111516    40685    17017    61204    24387    -7409    45460    99985 
   71638   -20765   -53641     7540    76563   110116    73618   -40929 
  -98174   -34889    41600    68139    10544   -77337   -33834    72432 
  100549   126318   141744   103626    91399    55551     2692    18082 
  -43714  -119914    56592   223619    55132  -124283   -22665   115287 
   92302    14705   -20161    20465   113194   119329     6519   -48906 
   14167    68342    69847    31418   -22389     5003    72932    74775 
   65728    44833   -25377   -25110    37977    35831    31558    68065 
   55014    16211    39583   111827   157533   109335   -24219   -80663 
   27487   112753    93319    90891    85284    30583    -3435    23273 
   99977   153913    90243   -47477   -90033    16165   120015   113112 
   26407   -59685   -29714    77336    83072    -2269   -32988    21437 
   59409    17336   -37111   -74682  -119171   -83032    42704    66783 
  -42278   -91511   -18358    64288    92545    77023     7297   -47918 
   11398   102509   112314    63969    37267    60131    83401   121801 
  192416   165229    35135    33015   160562   173850   144511   223886 
  216227   111527   128096   147187    46742   -14923   -19991   -48954 
  -24128    85827   143587    51863   -78760   -86242   -24182   -11894 
  -17718     6436    81760   145989    71718   -40105   -41346     5472 
   61958   130012   101837   -31404   -36191    90469    68683     6273 
   65017    29606   -39976    31549    52494   -10607    -9831    12822 
