Origin Time       2011/03/11 14:46:00
Lat.              38.103
Long.             142.860
Depth. (km)       24
Mag.              9.0
Station Code      FKS003
Station Lat.      37.7624
Station Long.     140.4781
Station Height(m) 64
Record Time       2011/03/11 14:46:58
Sampling Freq(Hz) 100Hz
Duration Time(s)  300
Dir.              N-S
Scale Factor      3920(gal)/6182761
Max. Acc. (gal)   327.532
Last Correction   2011/03/11 14:46:43
Memo.             
[...]
   61893    22209     3027    -1261     2077    14379    21121    13332 
   -4015   -24197   -30431   -10750    29692    71775    96977   115115 
  136192   129477    63188   -44177  -146486  -219927  -258405  -252895 
 -213633  -170035  -131194   -86318   -50690   -52301   -59503   -18140 
   53879    96967    89903    69103    81999   115810   117886    69702 
  -13470   -93618  -119722   -83067   -20906    27614    51875    68783 
   70671    55792    71691   117084   135158   105488    40647   -35162 
  -98403  -136995  -133227   -81635   -12427    43611    72266    51815 
  -25075  -113270  -161435  -168474  -157845  -142235   -98484    11679 
  153003   239708   240328   185563   131307   113320   113143   102664 
   87064    62558   -15332  -145858  -230848  -210656  -136298   -38652 
   97811   224363   274343   262808   219979   146461    45712   -74800 
 -172074  -198732  -177831  -158138  -159770  -164782  -136295   -92196 
  -78948   -70101   -18336    61040   127743   155248   146340   125878 
  101586    76335    41755   -48367  -182052  -258836  -223738  -105054 
   44270   176509   253047   245522   175981    93838     6082   -83980 
 -140133  -136105   -82673   -23039   -10928   -57110  -106516  -118249 
 -103762   -63067     7761    74959   102688    87417    44416   -10927 
  -57843   -67401   -19907    72142   152017   180836   178488   137058 
   43050   -28564   -29635    -6749     7462    10730     2209   -31736 
 -109615  -177472  -161142   -74918    20421    71574    59105    10278 
  -23108     1436    57818    88624    84349    53657     2540   -61110 
 -121220  -145291  -129792   -97761   -54027      559    56214    86850 
   54194   -32792  -112023  -129374   -58186    80628   192938   198443 
  112520   -14711  -119166  -130090   -56936    28170    70206    64224 
   24127   -58468  -149216  -190627  -185049  -137193   -49316    37995 
   90472    90359    43206     -842     -125    37467    81322   112447 
  132070   131808    73727   -63958  -232315  -342865  -344805  -251028 
 -129613   -51972   -19218   -14474   -60980  -146306  -220917  -260328 
 -260168  -229319  -160894   -33157   107786   157947    98201    26286 
   12271    51048   127062   195677   190644    90011   -59633  -152418 
 -143069   -89522   -18313    52049    67887    29587   -27235   -70848 
  -73310   -35509    23619    74904    86177    53524    -2800   -59669 
  -87066   -66317   -18299    30102    75241   117363   138080   111263 
   56541    21957    15834    17736    13952    21930    73452   152936 
  215921   249950   262538   249074   209428   163129   124419    88987 
   41878   -29572  -119738  -210950  -286957  -341213  -368620  -348579 
 -278338  -180896   -49127   128152   278063   292602   194560   112759 
   87864    85352   101026   119809   120264   107013    64028   -10292 
  -63976   -73261   -69603   -78685   -96001   -99302   -78904   -45257 
    4278    65924   112345   139654   150166   120441    49429   -22913 
  -64292   -86614  -120482  -165807  -200150  -214033  -207889  -192590 
 -186407  -188497  -191174  -188092  -165703  -128556   -89950   -55302 
  -47435   -82469  -125523  -134991  -116024   -83399   -35375    17988 
   54452    55054    15333   -43171   -94698  -134803  -161682  -166638 
 -158501  -147292  -107520   -30648    27545    40603    46069    50436 
   40116    28218    13627   -14865   -47065   -63404   -47368    -4218 
   39777    73978    97832   105506   103122    97070    79284    38876 
  -13980   -42060   -28173     7984    46055    84872   130586   158847 
  131252    66796    31562    58449   117139   160309   168568   140455 
   86711    37421    14859    19329    37051    45520    46103    59527 
   78417    87966    96375   111579   125507   115533    70668    16303 
  -19720   -33486   -29056   -14814    -1338     6352     9083      528 
  -39186   -97815  -133874  -152437  -185652  -231569  -264795  -264240 
 -240859  -219358  -193504  -165203  -163980  -177996  -161352  -110769 
  -41113    55200   142008   145900    69913    -6408   -30625   -18681 
  -10651   -36119   -97839  -149296  -150916  -116894   -70499   -27416 
    9465    43082    57624    46834    23498      483   -17559   -36650 
  -54739   -70390   -84935   -70427    -9306    54203    66260    32168 
    1761     6098    32892    54088    61717    76324   115136   162679 
  188783   183865   142044    47526   -66687  -122006   -92147   -20823 
   53486   120400   163020   166747   138944    77998   -18153   -97714 
  -91703    -7935    74492   108386   109129    84287    38200     2450 
  -16973   -35720   -42087   -20602    12905    19603   -17254   -71131 
 -117180  -148977  -150311  -102862   -33801   -17326   -68154  -108503 
 -103861  -100965  -125855  -165983  -207475  -242492  -262747  -243280 
 -193393  -173426  -173933  -126892   -34755    53016    96146    77569 
   19911   -47716   -90000   -72351   -14183    32609    32588     5706 
    5255    33473    62632    76333    69075    63668    71914    90548 
  129439   168387   171504   145525   118270    93801    68810    56449 
   56973    48586    11394   -61317  -155528  -244703  -306766  -330555 
 -303733  -211363   -80212    29218    95509   142415   196132   255415 
  286311   274635   247350   206420   130122    36358   -40108   -81683 
  -77024   -25175    65885   172726   248869   268703   243565   183429 
  108826    64864    57213    33095   -39009  -121881  -168500  -188080 
 -207381  -219293  -201077  -145089   -74850   -29260   -41958  -117835 
 -205624  -254075  -252246  -198093  -114350   -27749    58186   112878 
  113370    98826   112275   137677   130857    89544    22570   -66011 
 -132798  -164401  -191996  -206594  -166352   -51581    87114   168969 
  181604   161997   130196    88984    44822    -8345   -84949  -169400 
 -244502  -300216  -315263  -298826  -261254  -181010   -77889   -12977 
   11778    49539    95081   109062   102857    77656    19332   -38506 
  -55023   -17520    51947    96227    84811    31910   -50431  -134916 
 -156210   -82015    34450   115149   133848   108710    54276   -12150 
  -52477   -55537   -50859   -51653   -39593   -11197     4236     7388 
   24801    25936   -24278  -103264  -161879  -142457   -54534    14199 
   18632   -21116   -65617   -75251   -45875    -6961    21611    41361 
   58216    57599     9904   -79106  -152179  -161024  -107004   -15718 
   71929   122459   142696   144168   131783   118234   104306    98775 
  126016   164271   154776    85882    -2744   -59756   -46130     9795 
   33480     6659   -39859   -75039   -72925   -36389      769    -8252 
  -63620   -94131   -79788   -70125   -63904   -21405    51128   102879 
  102378    57559   -11526   -56013   -28581    39703    85947    94346 
   83382    68036    51494    41649    48434    61881    59538    46576 
   60431   106421   140241   122363    36496  -105990  -252445  -336583 
 -324649  -241783  -160540  -126225  -113792  -102882   -99641   -82532 
  -49797   -39922   -57063   -68300   -48051   -12885   -11747   -44834 
  -64105   -52260   -19242    25895    68280    98937   117816   120360 
   96714    32780   -68661  -168903  -221797  -202158  -112651     1143 
   76914   105211   116035   116666    94793    44019   -14076   -37709 
   -1366    77986   119479    55905   -55151   -95280   -24980    95648 
  180919   191348   146887    79060    12878   -27350   -49258   -75083 
  -98530  -103339   -93628   -85418   -80373   -77820   -79575   -68015 
  -32947     4959    16359   -12336   -62057   -99162  -120116  -140036 
 -149232  -131543   -95332   -55900   -13704    31804    61588    61707 
   43523    32475    61633   128348   172110   142779    56081   -27641 
  -83057  -129661  -143115   -96074   -36194   -18851   -64949  -154249 
 -224896  -235462  -174262   -49289    74976   125091    89312    -6278 
 -112043  -163143  -119070    16688   171235   258820   267761   211092 
  111817    14487   -78710  -166673  -203512  -174258  -112895   -40635 
   54369   159101   217309   217333   202007   185857   149034    80783 
   -4939   -83914  -146607  -195058  -209387  -169541  -111904   -75728 
  -44679   -11940    -7589   -27414   -30650   -21987   -36147   -71958 
 -115906  -148363  -136780   -85098   -24762    33385    87188   119595 
  118258    99352    80660    50798     2549   -23254    13056    68029 
   78245    61349    49795    36818    39793    71663    89485    69456 
   38836     8680   -45122  -118800  -157055  -122025   -41785    22412 
   48568    52047    20499   -46458   -97101   -98455   -67104   -38308 
  -36670   -48776   -31466    23703    64453    55219    17373    -8738 
    3111    31363    32898     1111   -46068   -82696   -80890   -35495 
   35387    90859    87621    33510   -36605  -101785  -136750  -131170 
 -108937   -95066   -89009   -70108   -30672     8439    26789    27478 
   20073     6996    -4251    -1212    19420    41093    32066   -21333 
  -86978  -118025  -104067   -60655    -4430    40768    56610    52742 
   58280    82750   100642    94555    80266    70133    52017    17454 
  -15657   -22700    -5798     6759   -16443   -77256  -133036  -150959 
 -141972  -117384   -79437   -52256   -67622  -117444  -150709  -134767 
  -86862   -33305    23115    86877   138901   149465   123218    79697 
   26104    -9134     1411    40218    77473   103020   118685   120430 
  103395    65559   -12453  -117189  -171414  -145448  -103534   -93689 
  -73497    19224   150224   210298   151094    36101   -54714  -105143 
 -106508   -46768    17088    22106   -16667   -47908   -26030    43458 
   76372    20812   -47438   -39048    11708    23104    -8208   -39488 
  -48053   -17445    59003   146317   203609   218377   189653   135275 
   74562    -5731  -104668  -173213  -174984  -123911   -46276    43681 
  121758   158729   170888   181302   158946    95839    26516   -24811 
  -32161   -12999   -29097   -86269  -143969  -173226  -162538  -138061 
 -141828  -168048  -186460  -200888  -230135  -267492  -293538  -298537 
 -282971  -253885  -208546  -151487  -113775  -103909  -100602   -84696 
  -41155    11950    37337    26045   -14558   -59365   -70038   -29265 
   48517   117675   143440   131871    93874    50896    31650    22025 
    2977   -17501   -40427   -69840   -99973  -107432   -63802    11868 
   63216    69497    66458    78928    88553    74034    32949    -8280 
  -15113    22377    86102   133595   140380   115319    69430    24094 
    1722     3413    26606    67359   123637   183940   205430   189434 
  193489   216773   213235   164985    70560   -46356  -126822  -130865 
  -78022   -27087   -26192   -65407   -93887   -91772   -73509   -51868 
  -50643   -75246   -82447   -52002     5101    79319   112497    57114 
  -32109   -84857   -96523   -96292  -100339  -107275  -110444   -95107 
  -57653    -9071    46859    98690   118572    95240    51490      873 
  -63142  -114722  -129966  -139454  -166641  -191403  -189168  -157953 
 -116507   -68063    -7559    29424    17357   -13777   -31159   -38245 
  -71279  -117008   -96176    -8130    70345   113561   140454   151185 
  130717    86087    45737    30417    32504    17803   -29491   -87845 
 -125663  -109934   -32946    64218   124681   110244    33588   -39743 
  -65232   -59283   -46901   -30339    -8514     8029     -638   -23910 
  -32074   -41215   -68613   -83585   -58032    -1375    39686    21215 
  -37960   -77476   -65464    -8937    61452    86576    34389   -44353 
  -78374   -48007    15325    56386    43637    10031     1845     3698 
  -11958   -26824   -17389    14338    43296    48496    55894   104964 
  172822   195773   151671    69752    -6240   -46559   -49908   -24954 
    3829     2938    -4302    18210    34210     6840   -33498   -32675 
   20561    69877    74738    65189    67757    79899    97365   108428 
  108246   101713    84504    52179    14587      456    19285    28092 
   -3348   -49674   -83251  -109022  -139325  -158551  -144056  -117169 
 -123749  -167344  -207639  -220689  -214529  -203261  -194860  -186002 
 -174482  -164290  -152213  -139104  -124842   -88116   -15870    66486 
  119008   130533   119377    89946    34498   -23362   -50105   -53229 
  -59876   -70917   -60804    -9260    66934   126048   134429    87454 
   27148   -11809   -47542   -76681   -61499    -2786    53226    55734 
    8481   -38013   -62364   -74106   -80433   -76730   -64739   -63874 
  -62337   -38759   -18634    -9784    24106    92839   163497   200797 
  201670   189017   185111   192547   188403   164609   143071   134843 
  129811   104311    32517   -77982  -168296  -164646   -54877    76303 
  124439    78611    18310    -7548   -20113   -17586    21514    55203 
   37030    -8811   -42318   -56145   -57465   -56809   -61929   -59463 
  -47102   -47659   -53684   -42955   -25752   -21690   -31509   -37805 
  -30004   -18896   -12555   -11720   -19633   -26639   -23697   -24020 
  -35385   -50107   -60702   -63069   -61432   -62789   -65882   -62213 
  -56466   -68506   -94480  -105585   -85137   -42482     3854    46436 
   76911    82232    65973    42345    10998   -43856  -116019  -161636 
 -147492   -88146   -24918    15827    35408    37714    23679    14391 
   38447    94829   152344   175761   154181   118361    98787    82988 
   68517    82661   112595   116931    96336    81964    91445   127578 
  182091   226705   234422   214592   197819   190419   169852   123898 
   64704     3228   -63322  -145246  -237646  -316002  -384345  -462779 
 -522902  -525651  -478711  -402351  -303261  -199293  -118206   -63075 
  -19917     9649    29175    67822   139763   219255   276709   305714 
  308906   278799   182545    -2003  -207677  -312975  -274042  -171486 
 -110532  -109957  -150148  -218598  -263281  -260377  -244557  -230823 
 -223266  -198039  -120740   -34559     9066     7313   -36051   -88913 
 -109225  -100627   -82196   -62179   -43154    -5712    58130   111600 
  132220   137836   130028    87002    17774   -38451   -58608   -50309 
  -38185   -46003   -85115  -141616  -173212  -135199   -27084    96932 
  202251   284535   302011   231095   113295    -4885   -79340   -74167 
    6801   127103   229987   270411   256377   234238   231380   245555 
  276310   305653   295877   247436   189950   135581    89785    63697 
   58724    67039    79068    71174    24689   -27349   -38466   -22172 
  -20973   -55117  -124914  -213239  -303418  -378634  -411684  -394799 
 -337089  -255827  -168571   -59794    73616   180281   215259   187865 
  154699   147722   116159    35066   -37986   -92816  -158578  -207115 
 -221971  -224676  -211469  -173368  -120833   -69261   -25265    12274 
   25696    -9857   -73816  -121578  -151465  -168899  -154168  -112532 
  -58303     4759    50429    50204    12373   -27234   -42329   -33083 
  -14570    -4566   -11125   -21866   -22024   -16868   -10540    10924 
   56551   118873   181622   224027   224884   169995    81540    18507 
    4721     8402      -22   -29513   -71191   -88346   -54759     1475 
   33391    23186   -18248   -57721   -64847   -48932   -36968   -36855 
  -36730   -25317   -20587   -45672   -89422  -126820  -132123   -86045 
   -6308    70665   131356   176022   192091   164257   103636    27460 
  -54461  -105818  -109598  -104606  -121205  -160545  -196791  -183135 
 -101771    14841   101875   121987    96890    49632    -3536   -47652 
  -96506  -134431  -112761   -42560    16446    35618    35774    42789 
   58281    64901    35514   -28108   -83741  -104863  -104495  -105949 
 -117727  -126661  -104834   -28644    91389   208645   279070   292986 
  266047   194318    67995   -66173  -144584  -148794   -98015   -56880 
  -79332  -124464  -133778  -100431   -30814    45790    95200   117874 
  108411    60751     4913   -23267   -14870    13056    39448    58221 
   65732    48761     4638   -44563   -71363   -68186   -56522   -61163 
  -74346   -77354   -64719   -23849    40333    85304    93102    90977 
   99544   109089    98124    59413     4147   -47917   -74958   -78456 
  -81002   -70299   -14452    66474   124273   145113   135726    91629 
   22958   -39324   -82372  -105759  -120688  -149962  -190072  -218512 
 -208162  -143449   -52775    17707    41741    15306   -51359  -129485 
 -176799  -170058  -114495   -48952   -10715    21728    63847    89860 
   86993    45531   -30707  -106577  -151236  -149920  -101782   -12356 
   92448   166620   194309   168637    74813   -55056  -163919  -212069 
 -186323  -124920   -66457    -7189    40617    63758    82460    82004 
   25281   -64153  -131536  -156106  -146587  -115812   -75538   -44457 
  -42450   -39215    21326   113348   178600   212077   221249   208842 
  163155    66691   -55424  -154833  -190167  -147927   -66336    14230 
   96962   185285   253971   288036   279921   208216    94497     6617 
  -19915     7358    54624    79196    69786    20869   -73007  -158600 
 -173941  -126967   -57302    13262    84263   140045   113916   -10549 
 -129165  -173405  -166342  -121234   -63462   -24942     7547    31939 
   37648    47618    53308    19313   -33283   -50128   -29473   -12658 
  -23807   -68216  -131895  -181452  -194741  -169307  -137916  -144902 
 -173459  -181730  -162316  -106578     1160   135494   220556   208167 
  137168    55630   -30890  -113402  -167757  -171918  -121843   -44650 
    9243    12254    -5547   -10443     2390    41652   114936   204316 
  267384   275775   240249   178351    94579    -1514   -69929   -63532 
    3239    73501   119141   134713   120834    85475    27844   -50694 
 -122552  -147666  -119816   -72250   -19567    51937   135477   194496 
  195823   146891    93349    57921    18671   -33858   -85884  -127897 
 -148011  -145051  -129596  -106846   -82610   -56646   -26374     4251 
   24990    20478   -12031   -64894  -131259  -193747  -232346  -245614 
 -237133  -217752  -205726  -178497  -113509   -39922    18928    50305 
   40911    15428    13804    35719    39393     9265   -14789    -7456 
    9988     4573   -35981   -88857  -120059  -118093  -111430  -132361 
 -155590  -130040   -48234    40349    85166    98052   107231   110549 
  114182   129561   144131   144975   142437   143395   121530    44541 
  -73532  -174611  -217154  -201863  -140095   -43549    60806   138912 
  161112   120910    68500    58159    80421   105236   107580    77519 
   48232    43703    52752    66414    82949    96971    84678    17992 
  -86141  -152828  -115155    -3606    80774    86492    48426    16422 
     322   -15052   -29601   -15124    32684    70295    69281    38819 
   -1837   -40023   -75545   -99334   -97553   -77132   -50508   -30663 
  -32591   -57494   -95994  -132122  -153162  -149458  -109421   -44977 
   17881    62976    87232   100517    99443    73053    31030    -5729 
  -17366      938    26227    27029    -6340   -68060  -148203  -209818 
 -206962  -143474   -78469   -60304   -73296   -80221   -74859   -70887 
  -72318   -61451   -33536     3211    62581   131957   161973   140498 
   89693    25603   -30569   -46282   -10014    49822   100804   125838 
  101893    26896   -63063  -141809  -186274  -149854   -37086    62855 
   81634    34074   -31772   -83823  -105187   -71560    22917   118861 
  142694    97741    48274    25837    15366    16180    34102    55156 
   74065    94607   109660   110171    92964    64311    31061   -12356 
