Origin Time       2011/03/11 14:46:00
Lat.              38.103
Long.             142.860
Depth. (km)       24
Mag.              9.0
Station Code      FKS011
Station Lat.      37.0917
Station Long.     140.9031
Station Height(m) 162
Record Time       2011/03/11 14:46:58
Sampling Freq(Hz) 100Hz
Duration Time(s)  300
Dir.              N-S
Scale Factor      3920(gal)/6182761
Max. Acc. (gal)   373.516
Last Correction   2011/03/11 14:46:43
Memo.             
[...]
   71473    58056    41143    27214    15153     9093    38358   104788 
  163713   181806   155496   102855    50138     4701   -25229   -17367 
   23777    59178    55092    19371    -4300    13069    62484   103239 
   78473   -12917   -96644  -127352  -123674  -105564   -81593   -63482 
  -63136   -75221   -78052   -77474   -97003  -140123  -198455  -244302 
 -249285  -227759  -212231  -211354  -201810  -160197   -97007   -29357 
   30880    63308    70526    75893    78871    69990    54404    19039 
  -43754   -83812   -73596   -55477   -42204   -16315    17435    72915 
  142325   170839   151630   113168    74136    61231    77516   106427 
  140793   166758   178307   189075   207673   215014   183201   137846 
  134337   158900   154517   120769    94598    88017    93231   105996 
  138425   186987   203661   167355   128044   127406   139718   119298 
   71293    33449    22217    50797   118938   170540   149676    65832 
  -28625   -94809  -138610  -179902  -205742  -198060  -181025  -174423 
 -146580   -86344   -54532   -95109  -157334  -174263  -156834  -141287 
 -126523  -106518   -87061   -58714    -3706    57875    82283    67402 
   46460    41527    51425    60713    51345    17786   -17400   -21247 
   20270    87368   127833   129179   140361   161569   133257    43480 
  -43514   -66681   -41506    -5267    34143    61790    73002    81999 
  101655   135718   138627    72042   -19507   -78720   -86189   -39536 
   35000    89077   116947   149531   181061   188277   164751    97614 
    9918   -35033   -34249   -26571   -21305   -26477   -45410   -62315 
  -74153   -81353   -72370   -42165     3647    48825    68338    61261 
   48613    32873     8386   -30045   -88554  -135689  -133049   -94431 
  -39084    21813    41160    -1315   -49594   -54132   -44409   -77965 
 -137254  -155035  -101137      -61    75497    93137    84705    46281 
   -7079   -11406    32232    80505   101039    79620    64140    84771 
   89700    58832    22674   -13502   -44175   -37042    20814    85938 
   98530    56368    10859     3388    35692    76373    85962    66305 
   58176    85525   145225   200369   190100   102938    -9061   -85198 
 -105620  -104193  -103500   -87507   -57690   -25147    10459    33951 
   37307    26012   -10914   -64967   -98270   -94183   -65129   -28806 
    8319    41395    60761    67417    63501    59189    69076    75128 
   62395    38130     4493   -22949   -39759   -57845   -56471   -21627 
   26991    72760   109681   137899   144580   108261    44092    -2864 
  -14823   -20189   -49800   -95785  -122845  -110933   -63381     6089 
   49580    28484   -18230   -46730   -56998   -53406   -54367   -65497 
  -54779   -10252    51214    95343    84989    34574     5746    46265 
  127754   177406   180750   158310   126033   116215   122959   112651 
   91091    61655    22596    -2130    -5506     3867    15794     9323 
  -10140   -20390   -27100   -50028   -98395  -147049  -148729  -102840 
  -53427   -17310    22172    69369    98661    76132     9854   -49153 
  -78948   -85869   -55351     1129    28131    14944    16292    65713 
  125783   143937   113589    66682    40503    35442    25110    11695 
   11470    27880    63874   118403   164320   153901    85710    18013 
   -2968    16517    19172   -34000   -99827  -122804  -107264   -88565 
  -90490  -115045  -150800  -178493  -152913   -45293    66589    90219 
   57926    32004    20109    25041    37067    47345    80380   134378 
  171958   169454   116842    35497   -35611   -97440  -137410  -117287 
  -69608   -48331   -38690   -21886   -18126   -29773   -38485   -37687 
  -22561    -4491    -5356   -13886    -8532    16575    55535    74075 
   41738   -10233   -27456   -12895    -4036   -12355   -34097   -55579 
  -55204   -27076    25031    77304    93950    79368    63742    61704 
   72556    73460    38105   -21046   -76954  -116217  -127179  -104547 
  -48453    27533    94508   149052   210493   269664   283425   229477 
  139223    65500    39348    48291    63691    85076   110723   124162 
  142663   188400   237672   256627   236315   189152   140985   112397 
   95129    63325    13466   -39710   -81160   -86300   -55017   -24983 
  -14496    -9345    10894    50940    89566   110678   121917   129785 
  125044   118107   144619   176342   143710    75536    53782    77246 
   84224    56423    32827    26873     8305   -29979   -54510   -43349 
  -22701   -18791   -11936     7387     1785   -41758   -82958   -97907 
  -99169   -90688   -67004   -41293   -24881   -13041   -14918   -34172 
  -43377   -31309    -5407    39441    75527    65176    28122   -19946 
  -77463  -110494  -105902   -82687   -58508   -54677   -77754  -108985 
 -132557  -137020  -111204   -69729   -31879     1313     5536   -39126 
  -88292  -100594   -87855   -64162   -32509     5877    48034    73110 
   61861    23617   -21274   -52743   -38916    31675   121947   177884 
  178389   161294   158016   143517   117512   116307   119952    82379 
   10828   -62803  -123401  -172873  -214244  -230363  -195261  -118657 
  -47804      117    49846    99168   121020   122052   120028   105612 
   75164    28309   -38257   -83354   -78251   -57857   -25571    37157 
   93353   118450   133738   148790   154262   141148   107524    55255 
   15590    42951   123730   192658   221674   210770   179033   158095 
  147021   120291    59233   -39098  -138492  -170770  -105829       52 
   64616    68489    35724      199    -7964    -6401   -22420   -57142 
 -109395  -153336  -161431  -139286   -93242   -33289    12120    26849 
   31639    46639    50804    25567   -10060   -39450   -64029   -59343 
    6538    98326   160063   186578   178912   126948    61028    30922 
   23571    12118    24439    50956    51919    48904    45352    -2919 
  -91733  -181237  -232109  -201113  -103089    -8562    50490    71577 
   40841   -16099   -37690   -31041   -66174  -139725  -185004  -179823 
 -115816    -6031    71346    94719   101372    73493    33452    39958 
   45802     4099   -41335   -37274    28437    97680   113085    94072 
   65839    28116   -11904   -43928   -60795   -72686  -104874  -145000 
 -148189  -117398   -97366   -80247   -25877    45454    94097   115796 
  121163   124087   105947    46536   -14156   -37146   -22952     9904 
   32564    34102    24899     7649   -18260   -47962   -99048  -187415 
 -278374  -329270  -317264  -235639  -121626   -22825    57479   133994 
  188007   189517   139252    53989   -25345   -49119   -20652    29471 
   80342   109419   114534   124713   149088   156592   145031   136644 
  100570    28664    -3540    26910    52826    42374    11084   -32997 
  -64582   -54069   -19000    11301    34631    48973    57487    81541 
  121875   136650    74983   -40477  -115388  -112529   -64405    16179 
  120422   203579   230807   219012   213698   238079   260527   246094 
  217394   212841   237598   261244   245319   201838   171173   147124 
  111815    63461   -17564  -126168  -215640  -237894  -187361  -140943 
 -145435  -142009  -110170   -88130   -65878   -35012   -27179   -47742 
  -99038  -184102  -233748  -193057  -126176   -94351   -55544     4696 
   19175    -1868    12142    52316    66110     2350  -126217  -196142 
 -139284   -21086    82712   137645   140387   104264    56146    38293 
   33663   -16667   -92645  -132465  -106478   -13895    77488    98497 
   95914   114858   116224    99608   111698   134471    91857     -479 
  -39711   -24820    -8038    26258    83059   136688   168808   173795 
  174954   196124   213434   167835    64866      762    -2965   -37131 
 -112623  -157834  -177401  -196871  -167828   -58315    80599   189587 
  256768   256199   168412    72250    18639   -39299   -79650   -47844 
   16929    72637   120406   156777   175157   147122    53844   -31026 
  -32086     5722    10929   -25921   -83210  -128989  -146280  -141305 
 -137385  -154215  -163007  -135010   -87694   -42460    -9503     7145 
     463   -37842   -90836  -132239  -165234  -209298  -251510  -250064 
 -179761   -55318    71974   158960   196286   199548   201491   197645 
  168561   152017   171069   185332   142278    54339    20152    62432 
  104053   127839   148134   147715    98311   -13776  -133746  -186932 
 -182412  -167565  -134881   -58816    24185    57742    58618    62433 
   34671   -43019  -120043  -172595  -193924  -139240   -25250    67057 
  136188   200368   225610   233320   248576   222619   152121    97163 
   79997    81571    81125    66660    47478    39236    33944    27958 
   27489     1565   -58775   -76049   -12093    61577    91480    99523 
  117115   144958   174154   215933   268081   266400   159004    25365 
  -44739  -101085  -175562  -214594  -186483   -77536    57880   139484 
  192609   220021   167885    67093     4505    48715   171937   263484 
  296560   314654   320218   302736   265401   209480   139342    67662 
   -1269   -76261  -149311  -204286  -243644  -272429  -299970  -324111 
 -307402  -251146  -213660  -202805  -181096  -150119  -117512   -79709 
  -65167   -78057   -84076  -108328  -180402  -233890  -239311  -265036 
 -287939  -203297   -32285   129974   260617   345184   345096   269340 
  153876    40709   -27921   -60417   -82427  -104843  -134694  -143561 
 -101328   -25238    46956    82691    83660   100963   174099   280058 
  363863   390043   353324   238190    51540  -122254  -229355  -264440 
 -194397   -58186    70245   199875   308941   356269   377972   400186 
  410519   396661   340684   254466   200736   202654   186820   118012 
   57482    15523   -58315  -165906  -276733  -377908  -455253  -482092 
 -474452  -486031  -504072  -455033  -333983  -206912   -61786   148010 
  348827   464863   476261   341548   143227    47250    45479    23015 
  -58751  -158324  -216847  -223303  -198405  -116197    37274   159145 
  172998   174828   233171   294751   343265   355615   302946   251392 
  207144   105205    -3569   -40943   -57974  -139103  -262884  -345188 
 -357495  -347184  -331815  -251841  -107773     4747    48167    72570 
   91142    51308   -48217  -113991   -71952    37419   120334   134216 
   98751    79100   111227   141580   160213   212188   221081    97638 
  -66781  -153588  -180328  -179906  -126981   -57789   -38967   -49335 
  -55058   -53605   -40345   -42201   -76572   -90371   -42990    27744 
   71681    89188    96206    64891    -6519   -46726   -36424   -12448 
   23598    72736   118522   138441   124562   121712   162161   220921 
  257115   230154   171132   147923   123761    73203    78870   160180 
  239561   270858   259711   242011   228211   146354   -16084  -148432 
 -211763  -250890  -277245  -294452  -275005  -200278  -147035  -146368 
 -127364   -63000    16123    96709   157177   160793   132608   108583 
   49793   -59012  -175100  -259315  -250595  -145937   -56279   -35591 
  -40570   -36548     5992    87638   123952    43624   -89086  -162418 
 -161431  -111418   -39890   -53695  -169723  -202392   -91668    15404 
   76903   154243   207090   183394   189045   311618   432003   422895 
  319318   239666   252905   292224   266881   190439   132061   148821 
  204831   229786   235010   188651    63449   -37690   -90535  -143915 
 -167319  -170105  -189060  -193330  -131729      878    87777    11523 
 -140277  -184616  -107528   -56739   -86070  -133854  -171640  -194681 
 -202295  -185845  -134675   -52648    46556   114161   149719   172999 
  136546    81511    80313    50813   -58582  -165882  -228214  -259588 
 -269342  -239930  -169877  -165364  -244666  -252696  -158280   -43278 
   47501    49179    -3854    33045   165911   293229   364529   367767 
  313859   239090   222103   295064   337886   274756   154604    29741 
  -39386   -73951  -144117  -217779  -228734  -140616    -7034    86464 
  163402   211488   166876    91103    32415   -81675  -220896  -236523 
 -120315    16662   134887   231650   255628   173871    30028  -109298 
 -204071  -269841  -328551  -333571  -280374  -212678   -97351    49952 
  157832   241433   236346    71780   -74039  -100703  -145059  -231846 
 -287485  -285966  -195948   -58302    59869   167993   227384   222572 
  235767   264649   263350   233243   181036   139141    94241    34689 
   48783   119551   137088   124227   120711   100448   107408   182662 
  264881   328087   389099   405034   366660   327470   321133   311583 
  182920   -50725  -226946  -316844  -351266  -323440  -279852  -211674 
  -96689   -18937   -11081   -22988   -78096  -210857  -345085  -427342 
 -440222  -335758  -221507  -181758   -70994   100038   179344   180624 
  131991    24309   -96539  -194574  -272398  -343123  -382401  -333164 
 -197690   -64950     9116    54488    35647   -88357  -221419  -320452 
 -395319  -375380  -282432  -209539  -127865     1263   132789   269493 
  415120   445759   336025   221017    93844   -54635  -116174  -138482 
 -167981  -158327  -164487  -168014   -96737   -29015   -11280    64693 
  216385   260042   174522   160729   237146   269150   194468    48789 
  -72033  -121876  -109565   -91949  -138373  -201632  -242649  -302367 
 -290700  -118338    49904    88835    96142   109981    88947    61398 
   40654   -26575  -156311  -260508  -210598    -7887   175286   233097 
  187698    50932  -128120  -297687  -432471  -420247  -228074    -8242 
  141178   247872   330632   336661   256390   184797   132393   101917 
  180006   245198   182406   186854   327066   452311   527503   583105 
  607085   537166   365152   215056   133719    52297   -35887   -98747 
 -152410  -182661  -119323    26163   149719   191561   184143   164187 
  159111   200038   212341   158822   170435   273300   367407   420681 
  448604   447995   358105   206393   125217    96109    36997   -54026 
 -160166  -199860  -111406    19750    83871    76726    51966    26139 
     279     -639    29036    72005   130127   211108   296994   345018 
  318353   236836   118911   -39586  -149244  -160995  -168867  -194136 
 -182009  -114794    -7195    65530    54339     4195   -41837   -55555 
   -6956    75936   144387   212485   279695   282694   247882   246882 
  209330   106518    42374    13360     1922    85378   220727   314036 
  372663   378232   288517   152554    45182   -39637  -139612  -259310 
 -378258  -455477  -477641  -455140  -387916  -314481  -276618  -262011 
 -248190  -226719  -183064  -108143   -20191    67890   134274   119387 
    7463  -126704  -190549  -207340  -299957  -453341  -503175  -416237 
 -322351  -261948  -178873  -124259  -173354  -251953  -230416   -85842 
   74894   155833   168932   172087   212032   256673   241285   206799 
  209510   224736   189161    80625   -14571   -51102   -80128  -105508 
 -108315   -75117   -30793   -45525   -85893  -103669  -124331  -113351 
  -47645    31590    90679    85712    36548    49171   155643   266021 
  297124   270452   249346   231052   182451   132162   119385   126093 
  121171    76927    -7337   -77412  -107843  -123033  -135554  -146122 
 -145225  -123840  -103879  -105368   -92668   -44551   -30282   -59287 
  -43136    13298    65253   115242   119502    42262   -68875  -149080 
 -199210  -209681  -112242    11076    48782    62786    47639    -5006 
   18461    84886    93160   102095   157074   203813   241929   287052 
  287370   221903   151463   125494   112273   100832   117162    99711 
   23592   -11317    32867    98675   142969   141769    89273    42598 
   43562    35783   -10146   -56938   -82341   -73212   -38259    15152 
   78962   103837    88490    78850   106475   186715   271396   325491 
  374234   385348   315799   216443   160009   115668      552  -137800 
 -196664  -190155  -163290  -121874   -90241   -70774   -20904    36926 
   69107   149230   297560   395419   380301   320599   251841   130752 
   10109   -11432    17351    25282    44253    74558    51537      425 
    7194    44240    61212    71910    37636   -59825  -125068   -92313 
  -11003    31813     4171   -63057  -149392  -238965  -284624  -301204 
 -335832  -351079  -351014  -405143  -452051  -365181  -171325    -5890 
   71588    72915     5498   -51768     8233   123054   142987    74760 
   41765    82084   135488   154866   124339    51460   -29570  -110404 
 -195410  -249681  -251725  -233558  -241657  -251888  -171064   -13724 
  115506   183414   197401   212999   274771   284638   190945    84570 
   -4410   -91398  -120575   -79965   -59492   -92669  -119559  -104866 
  -46722    34776    58738   -22333  -132238  -207623  -258612  -266177 
 -233720  -197403  -130800   -27890    66130   157199   238475   206532 
   31278  -114029   -87752     8944    26610   -11960   -39590   -58389 
  -30187    52385   101282    99365    56082   -22280   -30251    49940 
  107024    96826    14280   -68167   -11619   125481   211221   276643 
  313886   272567   218500   189574   169424   138863    66782     3434 
  -13013   -17616    -1391    28893    62744   144051   245356   293257 
  295034   276237   219996   165624   166092   146914    92101    93789 
   87782    37007    62614   118413   106187    79568    38043   -38067 
  -65162    -6647    52640    53484    53567    84067    93384    60191 
      89   -59071   -85471   -56696    22504    91638   123637   140189 
  121897    77989    44108    -2073   -75801  -161177  -244891  -310744 
 -341940  -312820  -223814  -134023   -49338    85165   188709   163148 
  126801   168831   211754   232767   252957   268543   291744   307760 
  305387   320164   360626   387414   348040   225928    99462    28600 
  -30045   -61724   -34801   -17123   -31048   -58199   -94338   -95127 
  -42624    47491   141582   171671   140801   134932   201130   282539 
  290251   231277   151224    48015   -61863  -132600  -136467  -100529 
 -103531  -169200  -214023  -156607   -47418    -4195   -29673   -62468 
 -103677  -140375  -137433  -103138   -53662   -30367   -75350  -132503 
 -139092  -127995  -133915  -140066  -123109   -91408   -69516   -43358 
  -14177     -939    38924    90944    64567   -26235   -88387  -103288 
 -136055  -195590  -185161   -73226    38386    93878   159133   252089 
  298645   288380   244685   175288   146958   158792   134942   117365 
  140013   122884    57141     4013   -36776   -89920  -152441  -203313 
 -213382  -177223  -134303  -123912  -136346  -161233  -212069  -256864 
 -250245  -209122  -176634  -163696  -130677   -47598    42071    73156 
   21477   -78118  -163734  -214310  -223420  -168602   -71476    16939 
   84878   138424   178472   206040   217288   219919   194405   115905 
   48128    39644    46885    38000     5326   -48565   -89830  -104042 
  -94569   -52535      622    45346    84657    77428     4247   -93272 
 -179009  -187852   -87537    24582    76327   112407   137709   108096 
   75689   110340   186494   247125   259694   241692   237133   266348 
  322551   364467   360332   320107   228304    63899  -116116  -248719 
 -333996  -366125  -359731  -369839  -365136  -269368  -101532    64388 
  178672   228935   233144   215715   173174   100250    47132    31986 
   -8843   -81459  -131394  -151709  -161985  -163898  -147095  -114435 
  -92016   -98085  -114458  -101247   -53940   -10704    18097    45832 
   47323    17944     6678    -4575   -53445   -87125   -76228   -13220 
  115840   224354   258708   284993   320115   324501   271276   162855 
