Origin Time       2011/03/11 14:46:00
Lat.              38.103
Long.             142.860
Depth. (km)       24
Mag.              9.0
Station Code      FKS021
Station Lat.      37.6537
Station Long.     139.8607
Station Height(m) 209
Record Time       2011/03/11 14:47:16
Sampling Freq(Hz) 100Hz
Duration Time(s)  300
Dir.              E-W
Scale Factor      3920(gal)/6182761
Max. Acc. (gal)   76.573
Last Correction   2011/03/11 14:47:01
Memo.             
[...]
  -46009   -34233   -26784   -29366   -40682   -50467   -51664   -48869 
  -47362   -44650   -39477   -35944   -35686   -36785   -36784   -32814 
  -26386   -23831   -28184   -36794   -42622   -39004   -29479   -22423 
  -17859   -13634   -13850   -21528   -32638   -39580   -37570   -29366 
  -22492   -20868   -22955   -27181   -32648   -35967   -34584   -31772 
  -32045   -34412   -35757   -35221   -31056   -21979   -12278    -6605 
   -4371    -5192   -12204   -26549   -43132   -55286   -62270   -67109 
  -69274   -65551   -57042   -51051   -52542   -55356   -50458   -40534 
  -33317   -28082   -23058   -22615   -27296   -31797   -33935   -34283 
  -33163   -33077   -36831   -43950   -51688   -55205   -49850   -38519 
  -29884   -27659   -29846   -35862   -45856   -56281   -64333   -71704 
  -77842   -78563   -73695   -67479   -62771   -58156   -49866   -38337 
  -29730   -27191   -25509   -18332    -8204    -3405    -5347    -8434 
  -10422   -12827   -14415   -12860   -11589   -16500   -24947   -29547 
  -31442   -35039   -36127   -28685   -16097    -7243    -5709    -8613 
  -13720   -19830   -24089   -25971   -26610   -24608   -20444   -17899 
  -17798   -18489   -19333   -19466   -19350   -21287   -24867   -27832 
  -29141   -28129   -26359   -27188   -29980   -31731   -31788   -29595 
  -24953   -20061   -16618   -16800   -24546   -38946   -52109   -56429 
  -50770   -41069   -34907   -34758   -39091   -46086   -52607   -55148 
  -51841   -43043   -33565   -29194   -29814   -31027   -30502   -30336 
  -33028   -36862   -40773   -48678   -59457   -63600   -58267   -51660 
  -49412   -49532   -49942   -51981   -55944   -56308   -47711   -36845 
  -34913   -39547   -40776   -36493   -29292   -20303   -12167    -8577 
   -9502   -12239   -16136   -22058   -28125   -29850   -25980   -21742 
  -23015   -27621   -27467   -21808   -20059   -26540   -33755   -35465 
  -34609   -35155   -34931   -31392   -29464   -33913   -38174   -35268 
  -31837   -34967   -39008   -37835   -34620   -34683   -38112   -41295 
  -43550   -47555   -53582   -59023   -60820   -57120   -49743   -41648 
  -34148   -28920   -25702   -21374   -15967   -12874   -15477   -25214 
  -37209   -44469   -46542   -44890   -38386   -28695   -19763   -13739 
  -11989   -13737   -15929   -18455   -23378   -28534   -28017   -20795 
  -14473   -15359   -19462   -20523   -19368   -17961   -14913   -12056 
  -14628   -22191   -27010   -24058   -17666   -15242   -18495   -24119 
  -29777   -35565   -42376   -49511   -52614   -49344   -44365   -42296 
  -42484   -43645   -45062   -43518   -37974   -33263   -31791   -29554 
  -24551   -20250   -19791   -22912   -26950   -29645   -32097   -34988 
  -35708   -34345   -32785   -28095   -18715   -10568    -8854   -11772 
  -15117   -17565   -19258   -19408   -19912   -24656   -31827   -36325 
  -37115   -35257   -32625   -32307   -33187   -31823   -30385   -31137 
  -29023   -20792   -12431   -10045   -12424   -15977   -20172   -26627 
  -34223   -36926   -32723   -31398   -41482   -56296   -64793   -66224 
  -65913   -65442   -62187   -54287   -44136   -36850   -34856   -36307 
  -39117   -43530   -49478   -54368   -56258   -56824   -58212   -57936 
  -51762   -42507   -38453   -42632   -50109   -53677   -49882   -41453 
  -33369   -28123   -25896   -25837   -25614   -23039   -19974   -21480 
  -29636   -39890   -44621   -40218   -30872   -25426   -27273   -29299 
  -26133   -25363   -34261   -43660   -41422   -32810   -29295   -27974 
  -21632   -16843   -22830   -34818   -43728   -49929   -56278   -60194 
  -61394   -65403   -72738   -75469   -69357   -59695   -52429   -47612 
  -42693   -37512   -33048   -26956   -17632   -10279   -10914   -19509 
  -32267   -44038   -49993   -49820   -47725   -47393   -48370   -47898 
  -47001   -49069   -52193   -52826   -51455   -46902   -36812   -26163 
  -23773   -32048   -45518   -54989   -54701   -48078   -42352   -41774 
  -46868   -53349   -55213   -51636   -47101   -44182   -39528   -31684 
  -26699   -27334   -27257   -23144   -19443   -18455   -18042   -17876 
  -19694   -22246   -20793   -16309   -17847   -27261   -34758   -36146 
  -38073   -42578   -42482   -34815   -26057   -22231   -22360   -22174 
  -19230   -15487   -14712   -15252   -12160    -7092    -5132    -5673 
   -6517    -9277   -15440   -22897   -27211   -26670   -26367   -32705 
  -44012   -52777   -56170   -57827   -61464   -66450   -69144   -69497 
  -72303   -78971   -84400   -84174   -79718   -75022   -71637   -68270 
  -65009   -64469   -65310   -62699   -57532   -53608   -49734   -44730 
  -40856   -37588   -32286   -26319   -22930   -22852   -26216   -33792 
  -43507   -50353   -52182   -51605   -51508   -52954   -55534   -56434 
  -52924   -45788   -36892   -27938   -22550   -22315   -24041   -26263 
  -30666   -35688   -36574   -32370   -29208   -33369   -41883   -47065 
  -48232   -47705   -43190   -37231   -38080   -43200   -42663   -36719 
  -32218   -30591   -28160   -22600   -18651   -23305   -34112   -43279 
  -49463   -53801   -53489   -48643   -46072   -50192   -57609   -63862 
  -67969   -68696   -64475   -57952   -54117   -53630   -52828   -50808 
  -50404   -50957   -49346   -48499   -53452   -60927   -63541   -60254 
  -55579   -52204   -48346   -42663   -38513   -39260   -42350   -42847 
  -40804   -39859   -40778   -41485   -40654   -39467   -40972   -45657 
  -50095   -52183   -51734   -47749   -41829   -38651   -39657   -42105 
  -43491   -41907   -35872   -28174   -23961   -24191   -27056   -31669 
  -36095   -37248   -35115   -33708   -35744   -38264   -37349   -33729 
  -28078   -18898    -8746    -2434    -1750    -7026   -15256   -18853 
  -14752    -8208    -4901    -7109   -16217   -31454   -46901   -55011 
  -53692   -48424   -46155   -47310   -48007   -47787   -47316   -43429 
  -33954   -23332   -19737   -27221   -41744   -54309   -56655   -47753 
  -34386   -21818   -11759    -9423   -17790   -28563   -32735   -32351 
  -32688   -32991   -30740   -27789   -27955   -30528   -30666   -26424 
  -20894   -17946   -19888   -27638   -37823   -43094   -41762   -40959 
  -44692   -47050   -42536   -33870   -25196   -17992   -14780   -17312 
  -22824   -26672   -26628   -23984   -21385   -20611   -23011   -29523 
  -38114   -43424   -41470   -34033   -26552   -22372   -22165   -25446 
  -28806   -29813   -32234   -39507   -48408   -54864   -59493   -63440 
  -65023   -62653   -57164   -52419   -52291   -55404   -58112   -59699 
  -59076   -54579   -49517   -47904   -48451   -50666   -56780   -63669 
  -64930   -61422   -60087   -63562   -67913   -70494   -72863   -73372 
  -66658   -53809   -42051   -35728   -36720   -44924   -53591   -54975 
  -48810   -40839   -37870   -40302   -41906   -43421   -49772   -52999 
  -42825   -26362   -17065   -16143   -16007   -14043   -15069   -20924 
  -27050   -31493   -36292   -39407   -36305   -29214   -26406   -32441 
  -42129   -46094   -44216   -45293   -50953   -54425   -53844   -53278 
  -54758   -54431   -44783   -25112    -5808     4563     5752     -903 
  -12389   -23484   -32395   -38661   -41311   -45172   -56009   -68979 
  -73461   -65414   -50398   -37219   -29218   -24249   -20992   -19719 
  -20123   -20604   -18891   -16689   -19596   -28771   -40126   -50454 
  -56604   -53767   -42618   -32866   -31557   -33482   -31069   -26139 
  -24262   -24916   -24495   -25746   -34190   -46069   -54142   -59412 
  -63729   -64244   -62845   -65551   -71322   -74807   -75658   -74009 
  -64950   -47675   -30739   -20916   -15828   -10269    -3480      821 
    -110    -3874    -6785   -10935   -20734   -33398   -42495   -47841 
  -51832   -52654   -48425   -40609   -31748   -24307   -19072   -14182 
   -9691    -9644   -15558   -23498   -29173   -31450   -32745   -36704 
  -43308   -48493   -48672   -44281   -41029   -45035   -54977   -65018 
  -71917   -73048   -66070   -54191   -44470   -40690   -40381   -38987 
  -36813   -37136   -39001   -39548   -38882   -38158   -38894   -41677 
  -42072   -36137   -26786   -17189    -8031    -1892     -142    -1114 
   -4664   -11637   -21138   -30828   -36762   -35941   -30060   -23168 
  -17798   -14875   -13530   -11710    -9751    -9195    -8155    -4951 
   -2422    -1870     -338     2533     3965     4132     5757     8382 
    7678     1851    -6393   -14922   -22564   -27200   -28525   -28213 
  -26638   -24715   -26308   -32624   -38740   -40774   -39576   -34116 
  -22001    -9087    -4702    -8331   -14160   -20662   -26555   -28165 
  -25084   -21202   -19707   -20368   -22343   -27293   -35548   -42536 
  -44249   -42186   -39653   -36059   -28894   -20982   -19084   -24728 
  -32196   -35740   -35978   -36674   -37443   -36657   -37713   -43426 
  -49924   -53438   -55963   -60095   -65148   -68942   -70070   -69553 
  -69253   -68479   -64879   -57885   -49085   -40541   -33921   -29315 
  -26883   -28721   -32749   -32627   -28685   -26201   -26242   -29592 
  -38868   -51128   -60718   -68113   -75684   -81032   -81497   -78120 
  -72901   -67856   -64759   -62356   -57854   -51720   -46790   -45132 
  -48016   -54452   -60283   -62817   -64336   -67876   -71762   -72425 
  -70801   -70864   -72879   -73199   -69944   -64582   -59063   -54204 
  -50320   -48404   -50023   -54021   -54829   -49166   -41046   -34705 
  -29350   -25728   -28337   -37244   -47256   -54874   -58944   -58794 
  -55365   -50832   -46455   -41698   -36435   -34050   -37529   -43761 
  -48195   -48740   -43377   -34050   -28790   -34397   -50964   -70480 
  -81581   -81476   -75195   -63297   -46370   -33987   -31637   -31791 
  -30397   -33934   -42427   -46084   -42875   -42447   -50166   -59521 
  -64211   -66515   -69150   -70262   -69579   -71602   -79565   -88791 
  -91199   -85040   -74898   -67312   -68658   -79012   -90005   -95093 
  -95425   -92569   -85277   -75388   -67995   -63561   -56206   -44391 
  -37329   -42260   -53231   -61774   -68007   -74007   -76924   -73856 
  -66606   -58759   -51301   -43221   -36209   -34241   -36053   -35309 
  -30148   -25017   -23609   -24610   -23614   -18295   -11251    -7598 
  -11128   -21695   -34403   -44681   -52783   -58236   -58225   -54756 
  -52229   -50025   -45153   -37344   -28983   -21391   -12789    -5042 
   -6763   -19928   -33572   -39479   -40187   -37692   -30373   -21921 
  -19637   -23965   -27567   -24649   -17719   -13308   -14406   -20446 
  -29739   -39104   -44989   -46560   -46995   -50813   -58271   -64923 
  -68577   -70265   -69466   -66201   -63100   -61134   -58158   -51676 
  -41836   -32138   -25594   -23222   -27376   -39348   -54180   -65905 
  -73809   -76611   -70122   -55655   -40378   -29261   -22848   -19160 
  -15633   -12911   -15167   -24363   -38405   -53698   -65784   -70706 
  -66852   -56334   -45001   -36986   -32338   -30840   -30284   -26470 
  -20611   -17609   -19723   -28593   -43291   -55664   -59770   -60922 
  -65044   -66153   -54789   -35019   -20571   -16883   -18919   -20442 
  -17990   -12862   -11314   -17101   -25118   -28720   -29743   -32730 
  -35393   -33852   -29632   -26483   -25941   -25008   -18651    -7935 
     546     3833     3398    -1040   -10721   -22014   -30074   -37349 
  -50038   -68331   -85249   -94689   -98357   -99872   -93777   -71376 
  -37308    -7857     8134    15441    18159    13936     6309     4303 
    6810     3163   -12559   -37876   -67185   -92834  -105168   -99801 
  -83913   -68399   -57780   -52774   -52955   -55279   -57924   -59999 
  -57251   -48375   -37753   -26349   -12981    -2170     -574    -9415 
  -22724   -32432   -34349   -28340   -17278    -6472      168     3023 
    5464     9938    12712     5452   -12452   -30084   -39307   -42491 
  -42342   -36682   -26149   -17263   -16139   -21989   -28088   -30929 
  -30857   -23225    -4098    18488    30791    24940     2899   -25781 
  -53241   -76317   -90054   -93522   -95175   -99402  -102045   -99087 
  -87738   -69427   -54140   -51185   -59470   -70893   -78869   -82616 
  -83443   -80045   -72044   -63788   -60113   -59814   -55581   -43681 
  -31886   -31227   -42306   -56088   -64276   -64733   -60753   -56207 
  -52705   -52802   -57082   -59322   -53910   -42357   -31223   -28302 
  -36531   -51585   -66972   -78025   -81736   -76973   -67900   -64068 
  -71304   -84283   -91192   -85476   -72119   -60523   -54437   -52184 
  -51171   -49204   -43668   -31346   -14612    -4365    -7512   -19263 
  -32234   -42595   -47421   -43894   -32474   -18778   -10483   -11791 
  -21438   -36175   -52346   -63583   -64296   -57454   -53651   -60221 
  -73606   -82590   -77060   -55367   -25750      180    14706    14940 
    1855   -19620   -42097   -59807   -71480   -76950   -73838   -61802 
  -46351   -35433   -31891   -30901   -31358   -41978   -64513   -85531 
  -94941   -96473   -94251   -84158   -63769   -41254   -26726   -21279 
  -23217   -33611   -50647   -68723   -82308   -89977   -93867   -91947 
  -80011   -62456   -48801   -42908   -42407   -40118   -28911   -12329 
    -280     4715     4441    -4610   -23817   -45234   -62661   -76031 
  -83570   -84806   -82842   -76999   -65619   -51411   -37643   -26702 
  -18643    -9854     1094    11724    19656    23018    19968    10004 
   -4907   -22568   -43014   -63052   -73254   -68801   -56793   -45887 
  -37171   -30757   -28775   -28165   -23051   -12874    -1094     8521 
   11848     5724    -8935   -25826   -35674   -33228   -24493   -22098 
  -30790   -46354   -65536   -83481   -90682   -82981   -65461   -45500 
  -26924    -8320    12886    35180    54451    68221    77116    82456 
   80154    62122    29087    -6077   -32526   -47283   -45584   -24494 
    5011    24579    20910    -8206   -50459   -88085  -111188  -115676 
 -100292   -72038   -40701   -10433    14061    25585    24269    16774 
    6738    -3939   -10308    -8463    -1372     2693      400    -2078 
    -398     -886   -11338   -26396   -32074   -25625   -16829   -12020 
  -12015   -17296   -24129   -27880   -30877   -34085   -30658   -17468 
   -1990     6218     5025    -1474   -11006   -23753   -37152   -46148 
  -46439   -36497   -18213     2790    18166    21273    11280    -4673 
  -15615   -16091    -8285      176     1188    -4149    -8937   -12454 
  -16967   -21285   -26130   -35130   -47484   -56147   -53500   -40160 
  -25098   -14229    -7899    -8273   -18230   -34033   -47609   -56415 
  -62728   -67297   -72097   -81096   -93312  -101400  -100322   -94296 
  -90251   -87842   -83390   -79089   -78724   -79678   -77439   -70793 
  -61252   -54328   -55579   -62524   -66671   -61340   -45163   -22740 
   -2706     6729     1164   -18987   -48203   -77102   -98824  -113230 
 -122447  -124945  -115623   -95514   -75485   -61801   -51112   -43483 
  -42582   -45277   -46692   -47602   -47969   -45575   -41096   -35135 
  -27241   -20236   -17867   -18829   -18261   -15439   -15201   -20285 
  -27743   -34125   -38889   -42088   -44182   -49476   -62218   -78048 
  -87949   -87511   -76728   -58335   -37790   -21085   -14399   -20940 
  -35773   -52270   -68035   -77245   -72567   -58175   -43962   -30715 
  -14792     2750    19605    33453    40196    38137    27977     9584 
  -14882   -38237   -50738   -48126   -39846   -39406   -46177   -50154 
  -48884   -46400   -45556   -49633   -60294   -72345   -77774   -72669 
  -59358   -43932   -31161   -22539   -18314   -19166   -23577   -26286 
  -26219   -28152   -31030   -29096   -22258   -12573      -45    13854 
   26296    35234    38773    34783    24381    12303      -21   -14197 
  -25872   -26191   -14612    -2051     1957    -1971    -9999   -20082 
  -26945   -24438   -14523    -5994    -5619   -12071   -17545   -17528 
  -14831   -11117    -4937      275    -1848   -11518   -24755   -40885 
  -61552   -85019  -104577  -114226  -113716  -104462   -88303   -71731 
  -61812   -60557   -65913   -71571   -68218   -52786   -33173   -19895 
  -17513   -23481   -33141   -46278   -62377   -74316   -78253   -79448 
  -82214   -84998   -84919   -80956   -73282   -61449   -46461   -34616 
  -33426   -42193   -51917   -56315   -58761   -64334   -68179   -60459 
  -41542   -22372   -10983    -6319    -4148    -5323   -15178   -32803 
  -49151   -58348   -60495   -55938   -46666   -39439   -39991   -45995 
  -51333   -55768   -63672   -73894   -80064   -80038   -76450   -70632 
  -61452   -49277   -39778   -40594   -50826   -59650   -60761   -59604 
  -61083   -60981   -56425   -53628   -55608   -55480   -52002   -54015 
  -62369   -66570   -60401   -46833   -32293   -23157   -24242   -36941 
  -54081   -61609   -52923   -34029   -14488      435    12015    21439 
   25111    22814    17917     9873      160    -5991    -9275   -12884 
  -16110   -19141   -20723   -15258    -3769     5614    10797    13513 
   11433     4280    -4447   -14088   -23630   -29240   -32154   -39946 
  -57233   -78235   -92036   -97344  -102094  -106872  -106141  -103216 
 -104513  -105904   -98833   -81329   -56748   -30674   -11204    -5808 
  -17741   -44855   -78005  -104326  -116988  -118807  -114226  -104242 
  -90246   -73789   -52834   -24797     9141    43113    66644    70852 
   57831    39115    24160    14818     9309     3494    -8331   -25963 
  -42860   -56149   -68674   -80318   -86151   -84659   -79546   -73373 
  -65966   -56884   -46716   -39196   -39942   -51099   -69806   -88097 
  -96214   -93631   -87578   -79140   -66413   -53964   -45603   -38633 
  -29971   -20051   -12686   -12281   -19067   -31596   -49972   -69675 
  -80700   -78931   -70216   -61211   -53278   -43601   -29543   -13935 
   -1946     5428     8983     6992    -4748   -28706   -58450   -80526 
  -86067   -75694   -56744   -40837   -37405   -46096   -60974   -78786 
  -96294  -106768  -107044  -100763   -91410   -80087   -66818   -50227 
  -32478   -20835   -20809   -32561   -51212   -67998   -76959   -80466 
  -83221   -85685   -86684   -86969   -87495   -84944   -74435   -58448 
  -44442   -33996   -23127   -10640     -329     2601    -3259   -13288 
  -22053   -27304   -27458   -20935    -9420        8     -702   -11128 
  -22868   -29132   -26771   -14365     6467    30483    48853    52452 
   38605    10222   -29581   -73738  -108848  -124999  -122127  -105723 
  -83646   -63198   -43689   -20585     1731    14226    13098    -1314 
  -24497   -48744   -66658   -71370   -62373   -49254   -41911   -39990 
  -37596   -36635   -42181   -49071   -48934   -42847   -40861   -51714 
  -69479   -78306   -71567   -52969   -27294      -46    22405    34928 
   35770    28183    17088     6685     1987     4422     8315     7832 
    1408    -9605   -21621   -31426   -37784   -39691   -36630   -31722 
  -30798   -35328   -39108   -35563   -26943   -21447   -23891   -32696 
  -42433   -49618   -55425   -60448   -62627   -63128   -65946   -69877 
  -70378   -68169   -69062   -77204   -89307   -97804  -100836  -102146 
 -103557  -103145   -98070   -88812   -78406   -67154   -53892   -40306 
  -30299   -27014   -29441   -32406   -31878   -28156   -23510   -18209 
  -10658     -861     9387    17732    23339    29441    38140    45169 
   46949    46539    45713    39197    23534     2964   -18075   -40904 
  -68687   -98569  -121831  -134151  -137229  -131327  -116293   -95634 
  -74995   -59752   -52712   -51073   -47312   -37162   -23830   -12344 
   -7159   -11982   -23797   -33275   -34735   -29620   -20973   -11809 
