Origin Time       2011/03/11 14:46:00
Lat.              38.103
Long.             142.860
Depth. (km)       24
Mag.              9.0
Station Code      FKS023
Station Lat.      37.4775
Station Long.     139.9309
Station Height(m) 219
Record Time       2011/03/11 14:47:14
Sampling Freq(Hz) 100Hz
Duration Time(s)  300
Dir.              U-D
Scale Factor      3920(gal)/6182761
Max. Acc. (gal)   127.806
Last Correction   2011/03/11 14:46:59
Memo.             
[...]
   39785    38184    24101     3684   -13536   -19516   -14042    -3603 
    5354     9616    11557    17488    30139    45029    52762    43907 
   15625   -25721   -68481  -100207  -111490  -101133   -77756   -53463 
  -35386   -24351   -19345   -18330   -16327    -8837     3797    16445 
   21437    14441    -1375   -19786   -36689   -48828   -51700   -43833 
  -28377    -7494    17153    42146    65081    83888    95912   100469 
   98588    90360    75952    59193    46527    41066    40673    41757 
   39939    30572    14633     -800    -9238    -8358     -717     6587 
    6599    -2129   -15077   -25198   -27699   -23410   -17397   -14091 
  -15259   -21014   -29033   -35036   -35546   -28239   -12181    10535 
   35189    55257    62491    50351    19646   -20435   -56850   -79317 
  -85638   -80911   -72221   -64308   -56638   -44844   -26976    -7405 
    5095     4257    -7894   -21207   -23120    -8945    15011    38135 
   47175    29050   -15796   -67982  -104309  -116156  -106942   -80925 
  -48213   -23670   -13140   -16324   -31194   -48022   -54147   -43769 
  -20695     5476    25778    33061    25351    11018     1062      125 
    7307    18843    29295    30743    18780     1157   -11036   -13564 
   -5361    11645    32017    50891    60568    52028    25658   -10915 
  -49092   -76320   -80940   -64569   -39502   -15219     1843     6519 
    5177     8311    14496    22810    39724    62044    79128    87054 
   87330    84154    82520    83368    83140    75082    53696    21321 
  -12699   -37323   -45396   -39436   -31192   -33077   -48088   -67606 
  -78855   -72805   -49529   -19936      909     3147   -11823   -30939 
  -40529   -37584   -26428   -13234    -4251     -484     2094     8304 
   22837    43495    59068    62851    57864    48936    41135    39107 
   43522    53034    64619    72494    72409    63624    49835    40754 
   44399    59891    80125    91868    79324    39759   -12539   -59609 
  -88355   -91713   -71088   -38365    -8171    11912    17414     7125 
   -8394   -15621   -11304     2738    23465    39711    40131    26676 
    8328    -5051    -4076    10990    29890    42670    44454    34538 
   16445    -3328   -19759   -29983   -31879   -25333   -12723     1236 
   10801    12599     6263    -6721   -23299   -40213   -54686   -64501 
  -68354   -66288   -60985   -54883   -47781   -42009   -41317   -42903 
  -40663   -32927   -19664      294    23447    42011    51525    50464 
   38486    19738     1161   -12391   -18287   -16152   -11523   -11911 
  -19751   -36168   -60024   -83930  -104060  -121605  -132356  -131676 
 -122403  -106287   -79848   -43947    -5947    26297    46768    54031 
   52003    45484    38034    31392    27170    29074    34970    34638 
   21527    -6529   -47770   -86655  -104818   -99230   -75813   -42509 
  -10279    11968    21848    23422    20650    12365    -2630   -22996 
  -46293   -67526   -77919   -69134   -42760   -11100    11493    15034 
    1309   -16208   -24590   -17229     6097    38543    69231    87289 
   85419    63302    29679    -2790   -25987   -36080   -33013   -21388 
   -6565     6866    15854    18735    13033     -814   -17494   -31933 
  -40054   -38575   -28350   -12401     6307    21729    25991    15833 
   -4194   -23825   -32259   -23431      757    30763    55068    66325 
   63627    53751    48383    54363    68643    85524   101986   114112 
  116383   103689    73676    31174   -14283   -54247   -80552   -85994 
  -71926   -48651   -23922    -3288     1528   -15215   -41731   -61433 
  -63751   -45310   -14990    10119    17157     2898   -24324   -50278 
  -64469   -61011   -41344   -16629     1502     6985    -1718   -18971 
  -33639   -37671   -29666   -12068    10971    32176    42789    38229 
   19509    -6811   -29940   -42840   -44750   -36248   -20797    -4819 
    7717    15002    16635    14876    12156     8856     4139    -1502 
   -6456   -10408   -11819    -8138     -961     4916     4572    -4696 
  -20434   -37942   -54652   -69116   -80650   -90788  -100477  -107675 
 -108929  -101098   -85193   -67071   -51998   -43252   -41832   -43834 
  -44255   -41100   -31981   -14746     7834    28869    39317    34263 
   20356    10291    13742    33438    62970    90104   104856   103415 
   86850    61430    35032    10231   -11660   -26777   -34307   -36700 
  -35533   -30909   -23381   -16115   -11267    -6785    -1849     1753 
    4373     6413     5922     2861     -654    -3091    -2502     1981 
    8251    12460     9877    -2239   -23087   -49515   -74687   -90771 
  -95377   -90923   -81081   -69447   -57976   -47367   -37296   -25694 
  -11395     4125    18844    31476    40927    46032    45243    38589 
   30372    26310    30830    45484    64541    77316    75606    56387 
   22861   -15909   -49461   -69991   -75730   -73078   -70844   -72695 
  -77826   -83281   -82815   -68688   -38253     3074    46036    80936 
   99981   101139    88975    73314    65244    71507    90102   108110 
  111789    98112    70651    36972     8527    -8544   -14621   -11620 
   -5194    -2024    -3328    -8333   -18064   -30937   -43110   -53084 
  -59356   -59307   -52643   -41298   -28052   -15508    -4720     3722 
    8909     9981     5514    -3263    -9712    -8779    -3184      301 
   -4281   -19765   -43450   -67030   -81119   -82377   -75486   -66610 
  -57993   -48017   -32533    -8811    19685    45085    61285    66963 
   64354    57013    49129    44176    43434    47033    53067    57034 
   55948    49938    40148    28696    19008    13069     7649    -4618 
  -28017   -59086   -88167  -102322   -92434   -61038   -18055    26066 
   59239    72938    70267    59509    46460    36130    32415    36637 
   46209    52348    45589    24471    -3316   -25951   -34543   -28586 
  -16603   -10391   -16442   -32545   -50590   -62092   -64057   -60760 
  -58031   -56827   -54443   -46934   -31692   -14902    -9076   -19565 
  -39928   -57082   -58677   -40565    -8485    25328    46348    46613 
   32150    16695     9895    12167    16497    15085     5112   -10909 
  -27343   -38439   -41797   -38618   -31202   -22205   -13874    -7167 
   -3701    -6176   -15737   -30392   -45548   -57109   -64110   -66450 
  -63387   -55860   -46522   -38410   -34842   -37565   -44808   -51736 
  -51486   -37430    -8078    29571    64321    87814    95325    86345 
   67207    46480    28608    14787     5666     1406     -133    -4008 
  -14634   -32161   -52328   -69375   -80536   -86987   -89841   -88933 
  -86061   -82111   -72869   -56249   -37493   -23701   -20117   -29345 
  -48506   -68834   -81343   -81988   -71313   -52787   -31280   -11330 
    4134    14569    19895    19864    16890    15072    17107    24268 
   36684    52359    65947    70547    63280    47722    30605    17559 
   11257    11757    17243    24127    27051    21496     8380    -5806 
  -13076    -7923     9535    34490    60862    82191    91913    85669 
   64392    33896     2764   -17387   -16459     6973    45151    83310 
  104786    99337    68375    24895   -13438   -32442   -26294     -988 
   28467    46953    46289    26756    -4993   -38054   -61084   -69092 
  -65864   -58348   -50343   -41925   -33147   -24414   -12966     2742 
   16992    23039    18544     3861   -16214   -32793   -40495   -40040 
  -32812   -20002    -6669     -907    -8081   -26183   -47149   -63082 
  -70411   -68392   -57362   -40152   -21789    -7882    -4426   -16239 
  -42011   -70396   -86051   -80818   -57470   -27335    -4249     2739 
   -8207   -30107   -48209   -51615   -41053   -23148    -5459     3775 
   -1466   -19865   -42405   -58646   -62676   -54739   -38482   -18619 
    -618    12937    23149    30982    36246    37295    31986    20690 
    6795    -4560    -8970    -6891    -3982    -5693   -13813   -27440 
  -43048   -56476   -67222   -75673   -79248   -76264   -66350   -47041 
  -18140    13764    39106    51483    50011    38547    25422    19645 
   24001    35214    47597    53982    48062    27578    -3812   -37222 
  -63103   -75551   -73635   -61774   -48147   -40126   -42124   -55223 
  -73024   -83269   -78137   -57585   -26328     7402    33944    46216 
   43126    28511     8348    -9935   -18501   -11192    12690    46142 
   76487    89425    76620    42611     2357   -27634   -36780   -25356 
   -4453    12321    16759     7941    -7222   -18262   -20348   -16680 
  -12621   -10269    -7669    -2543     3712     7059     3614    -8960 
  -28571   -49234   -66200   -75336   -72428   -58886   -40355   -20964 
   -4766     4133     4351    -3371   -15222   -23723   -22557   -10621 
    7303    22382    27372    20896     6279   -10261   -20114   -15925 
    2867    29488    53400    64082    55825    31618     2040   -21484 
  -33235   -32967   -23406    -9524     3304     9359     3512   -12399 
  -30492   -44707   -50907   -46069   -32296   -16325    -4609     -578 
   -3919   -10818   -16593   -17262    -9992     4738    23666    42246 
   53568    50375    30391     -102   -28559   -44826   -47542   -42807 
  -38141   -37594   -42505   -53656   -70226   -88125  -101016  -102633 
  -88677   -60469   -26894      690    14216    10402    -7368   -29902 
  -48901   -60156   -62445   -57676   -49453   -40454   -32138   -25426 
  -21362   -22172   -30130   -44447   -60240   -69634   -65180   -45684 
  -18449     5193    15845    10637    -3936   -16575   -20205   -14265 
   -2334    10383    20206    25016    23370    15396     1994   -14605 
  -29262   -36647   -34222   -22755    -6263     8922    15603     9596 
   -6586   -26168   -41840   -47528   -40516   -23227    -4054     7523 
    7676    -3586   -22804   -40458   -47798   -42083   -25301    -4747 
   11613    21209    24982    25443    25612    25701    24184    20387 
   13235     1755   -12797   -27435   -40643   -53383   -65106   -74715 
  -82366   -83821   -76551   -68656   -65442   -62074   -54578   -42339 
  -26074    -7888    10739    27392    39388    47760    53029    51419 
   41967    29595    20901    22765    37610    58364    73368    73649 
   56777    31084    13184    13167    27122    45637    59724    61152 
   46622    20715    -8931   -35010   -50299   -51454   -37874   -10412 
   21362    45542    60444    68773    72218    74221    76117    75848 
   72165    64270    52024    37763    25135    15396     5772    -3922 
   -7629       20    18559    41100    56488    56002    39184    13101 
  -13711   -35601   -49630   -54884   -52774   -46944   -40928   -35218 
  -27824   -16625    -1463    14468    26133    29383    22917     9456 
   -4593   -10631    -1856    21524    51626    76393    83164    63415 
   19721   -30945   -66167   -73029   -52055   -12061    32568    66002 
   78858    71576    51073    25587     1163   -19852   -37450   -50348 
  -56681   -58624   -60480   -61282   -55697   -42304   -24739    -7763 
    2708     2211    -6274   -14995   -18333   -13563    -1846    10901 
   18126    15447     2303   -17246   -38061   -55415   -63399   -56659 
  -33212     2877    39370    62057    64104    47571    20894    -6006 
  -28345   -47287   -64418   -76171   -74760   -55304   -20655    19419 
   52277    67792    63055    43772    20787     5308     4847    18247 
   35339    44366    39549    22887     1286   -17541   -28919   -33491 
  -35797   -39418   -43593   -44617   -38611   -25552   -11205    -2435 
   -5096   -22055   -46796   -66865   -73004   -60901   -31322     8856 
   48089    74210    79725    65017    38259    11487    -6813   -15816 
  -19388   -23071   -33937   -55021   -79804  -100044  -113957  -122392 
 -123465  -112368   -87991   -59459   -39832   -35910   -45435   -59987 
  -71119   -72372   -60477   -39640   -19041    -7603    -9565   -21454 
  -37004   -49645   -50868   -36095    -8577    25384    58852    84599 
   99115   104229   103885   101279    96953    88154    72329    52495 
   38734    40059    55638    78611    98899   103498    87323    57540 
   26172     3877    -7105   -16344   -35578   -62706   -86264  -105447 
 -121322  -126990  -124337  -114800   -92491   -67153   -49665   -34540 
  -21079   -11286     1313    16714    25002    18269    -3676   -33231 
  -61094   -82194   -94837   -97353   -87221   -67216   -47936   -37819 
  -37972   -45769   -54147   -52998   -36714    -6196    35453    82819 
  123680   145771   147649   133809   110013    84416    62084    45285 
   36855    36964    43912    54612    62206    59996    46627    27631 
   12306     5174     3480     4079     6009     8028     8176     5226 
    1699     2060     6618    12234    17410    24071    36608    58013 
   85258   110493   125287   123679   105350    75695    44493    23844 
   20186    30428    47457    61288    59847    37892    -1298   -50628 
  -98355  -133261  -151554  -153443  -143259  -130915  -122595  -116800 
 -112590  -111363  -111972  -113219  -116447  -120502  -120656  -114824 
 -105003   -90860   -70194   -45180   -16977    15245    43275    55724 
   50323    31339     7336   -10630   -15780    -8287     5873    18836 
   24198    17973     1067   -24944   -60389   -98682  -130946  -155921 
 -170949  -169953  -153508  -126401   -92091   -54902   -19323    13914 
   45481    73344    96388   116762   134682   145927   144907   129744 
  105382    78656    53339    33389    22811    21204    27143    42585 
   66186    88588   101229    99399    76380    30089   -24829   -66627 
  -92205  -111984  -122786  -119973  -113363  -109871  -113924  -132319 
 -160373  -187624  -206836  -206647  -180271  -137353   -91495   -50378 
  -17270    10054    35800    64006    96709   125818   138028   126863 
   94774    53353    20106     8831    22533    53835    90937   119024 
  122026    96323    51606    -4590   -60295   -96085  -108986  -103840 
  -75214   -34597    -6969     6893    13086     6269    -5071    -5566 
    4502    20997    43202    69235    97332   122980   138786   142943 
  142666   144514   146831   147911   149508   148334   136305   107970 
   64652    16144   -23517   -42409   -34422    -4533    30296    45677 
   15847   -59633  -129322  -142783  -120425   -93711   -47041    14479 
   58747    83176    94137    88971    67979    34094    -4492   -37005 
  -53114   -45806   -17984    21295    60936    87289    90457    71473 
   39259     4198   -26694   -54260   -82045  -107343  -124606  -131276 
 -126078  -111057   -93916   -80483   -73821   -76254   -81122   -78632 
  -66438   -45764   -22623    -5285     5859    16541    31043    49019 
   69442    91943   109844   113959   102287    78516    50143    26792 
   12966     7914    10945    19293    28143    35755    38720    30294 
    9143   -21422   -54564   -77866   -83388   -71948   -48137   -19783 
    5252    19085    13592   -11143   -47143   -85364  -117140  -134746 
 -133679  -118167   -99683   -86654   -82340   -87298   -96699  -100621 
  -90165   -61453   -17438    30069    64354    74239    59617    28570 
   -6212   -32424   -45134   -46937   -42877   -38170   -37093   -39896 
  -42324   -40083   -33267   -27424   -28832   -38162   -52246   -67299 
  -77718   -80198   -76776   -69612   -59557   -46941   -29011    -2363 
   31242    64290    87492    93134    77287    44275     7588   -17220 
  -19170     2582    35593    61763    69049    57700    37377    18179 
    7735    10592    24391    42225    56781    59988    46244    18412 
  -13790   -39849   -51781   -46935   -27888     -313    27007    44236 
   45355    31135     8472   -13377   -29212   -39071   -42447   -38980 
  -31992   -26564   -28464   -41182   -61478   -83375  -104307  -121110 
 -125633  -113729   -91646   -67980   -50084   -46149   -57301   -71814 
  -75020   -61619   -37086   -10713     9716    20284    24824    32480 
   48026    68150    86449    96694    90801    64839    28294    -2147 
  -13982    -4507    15512    27970    21280    -4828   -39478   -61843 
  -54776   -17499    39006    99652   149583   180530   191763   186810 
  171303   148769   122352    98887    83691    78541    84016    95673 
  104294   103110    90748    69856    44358    18084    -4039   -19661 
  -31527   -40600   -43661   -38525   -24901    -3685    21179    43273 
   55925    55271    44677    31752    20979    14494    13320    14165 
   11991     5727    -1698    -8342   -15843   -25257   -35745   -47808 
  -60511   -70078   -75286   -77453   -75762   -69763   -62572   -55388 
  -46269   -35203   -23272   -11532    -2199     3194     5781     9521 
   18626    34133    53469    70960    78999    71462    47040    10121 
  -30509   -64043   -81596   -79783   -60752   -31338    -2418    15581 
   18116     7622    -7939   -19316   -20887   -11399     6342    26683 
   44354    54854    54579    43974    28187    13696     5138     3522 
    6551     9827     7083    -4521   -19206   -29554   -31741   -23028 
   -6613     6507     7610    -6224   -34956   -72791  -108639  -133280 
 -141936  -132950  -109502   -80037   -52116   -28192    -9989     -130 
    2529     1873     -657    -6028   -14688   -26164   -40286   -56577 
  -72214   -82458   -83447   -73859   -53919   -24924     8712    40327 
   63459    71886    62982    40385    10767   -17503   -35583   -39917 
  -35085   -29511   -28364   -30668   -33213   -33828   -30069   -19618 
   -3833    12140    23323    26359    19722     4969   -15315   -38439 
  -59435   -74059   -82501   -85397   -81203   -71048   -59836   -50322 
  -41593   -31979   -18523     1557    25407    45880    56902    54404 
   38619    16470    -3345   -15543   -18936   -16536   -14126   -15794 
  -20543   -24033   -21924   -12219     1854    14106    20087    18276 
   13421    13199    18799    26446    31212    29917    27080    30767 
   42253    53288    53092    37936    11550   -19148   -44341   -53783 
  -42697   -14718    20226    51505    71835    77306    66688    42818 
   14130    -9474   -24216   -31272   -31327   -27346   -24161   -22603 
  -21984   -22842   -25322   -29507   -33505   -32976   -26541   -17310 
   -8334     -622     6355    14398    23145    27874    23839    11437 
   -2826    -9488    -1104    22749    54410    83938   103540   108119 
   96797    72324    38553       -5   -36863   -64880   -81278   -86753 
  -81500   -68305   -53556   -42438   -35948   -32018   -30359   -31975 
  -34303   -34558   -32692   -27405   -16676    -1031    17270    35998 
   54073    70189    81104    84100    79275    71046    68487    76901 
   90962   104714   118554   128442   126014   112581    94804    72051 
   42886    13818    -7932   -19011   -16964    -4007    12682    28424 
   40045    44385    41663    28903     1160   -34900   -66625   -86864 
  -91873   -83299   -69813   -59248   -55963   -62314   -76205   -92798 
 -107930  -117279  -117983  -110196   -95388   -77462   -64147   -62393 
  -72255   -87134   -97841   -95899   -77124   -43870    -3903    33026 
   58794    68832    65611    60154    60604    63616    63939    58907 
   44969    24082     5863     -942     6198    23488    43581    56987 
   55535    40565    19905      257   -10536    -6794     8895    29598 
   48690    61515    64804    57935    45665    33013    20696     8241 
   -2563    -8251    -6838      658     9877    14443    10535      540 
   -9369   -16255   -22632   -31803   -44040   -56800   -69238   -82990 
  -94209   -96316   -91521   -86398   -81431   -73454   -65516   -67235 
