Origin Time       2011/03/11 14:46:00
Lat.              38.103
Long.             142.860
Depth. (km)       24
Mag.              9.0
Station Code      FKS014
Station Lat.      36.8683
Station Long.     140.4300
Station Height(m) 178
Record Time       2011/03/11 14:47:09
Sampling Freq(Hz) 100Hz
Duration Time(s)  300
Dir.              E-W
Scale Factor      3920(gal)/6182761
Max. Acc. (gal)   227.027
Last Correction   2011/03/11 14:46:54
Memo.             
[...]
  -49059   -85197   -85542   -68852   -70495   -58703   -24555     7753 
   33116    25053    -4559    10106    47717    44701    19636     6602 
   -3150   -21618   -39513   -40044   -30043   -25280   -25668   -20530 
     702     9203   -18023   -26996     3584    14147    -9363   -35759 
  -61109   -71973   -53207   -43416   -63232   -68553   -55772   -60075 
  -58576   -31409   -10001    -7595   -17910   -42661   -82111  -118360 
 -111554   -58280   -11137      434    -9336   -22296    -8523    37511 
   59550    39943    17591     3513    11343    49723    84174    95755 
   87466    71546    71775    73685    50418    24939    15563     4577 
   -3174     3394     4013    -7758   -10733     2970     7881   -22608 
  -58377   -56856   -45551   -47092   -30247    -7298    -5492     3013 
   16506     7197     4258    37098    74728    72291    34446     9325 
   15868    30369    40689    50521    48028    19663   -14027   -22082 
  -15100   -25822   -50859   -62636   -60698   -58689   -55486   -48858 
  -39230   -22933     5772    38612    44609    17021    -2519    21109 
   63089    66320    34909    26743    52466    75879    64760    21379 
   -4465     1189   -11980   -41085   -31606     8570    31658    28025 
    5405   -29148   -40828   -10084    19394    14020     2622    10626 
   20835    16266    11210    21086    26627     8886   -19059   -52198 
  -84756   -88306   -76675   -84235   -85723   -61964   -52775   -65885 
  -50676    -6906     7656    -5719     3074    40016    65611    40137 
  -21093   -52866   -35233    -6204     8165    11400    22036    41889 
   37259   -13427   -69869   -69585   -36211   -57955  -127652  -153327 
 -119672   -89371   -84988   -84953   -74050   -43642   -11511     1276 
   17211    35637    25978    16630    41312    61274    55604    66769 
   90595    81135    66256    88454   106382    90546    90844   118729 
  121855   101153    86462    71414    58370    52532    45286    44343 
   49529    42652    27185    13432    -5533   -18399   -12511   -23073 
  -58516   -65853   -47862   -45119   -36051    -7753     4864    -8455 
  -24649   -24498   -18325   -22547   -30064   -43279   -64425   -74327 
  -76589   -81025   -63090   -20161    -1832   -14169    -8937    -5539 
  -33053   -42566   -28965   -28717   -30477   -31443   -38541   -41728 
  -39255   -21131    -2626   -28485   -75595   -93887  -105316  -129468 
 -138195  -133352  -125772   -91797   -44026   -25097   -23029   -10233 
    2451    11602    26093    34806    25962     5015   -18108   -45475 
  -83158  -103150   -64878    -2462    23462    32103    44036    43206 
   56602    83925    70447    37980    38070    41748    31748    37714 
   38759     4999   -22947   -12844    11414    25447    21510    14239 
   16378     4507   -16401    -2117    39355    49674    26714    35803 
   80789   101522    92750    79349    64994    47703    12020   -30227 
  -42986   -40131   -46090   -57968   -66624   -50634   -23267   -23882 
  -21903    16463    37994    15303   -17328   -47865   -60888   -56558 
  -79030  -115722  -111586   -74357   -48757   -49147   -66378   -81442 
  -79282   -85518  -105787  -104891  -101703  -105485   -84882   -69681 
  -82665   -90498   -68952   -13692    50801   102599   143387   152324 
  105103    23128   -32499   -28517     1232    21043    32017    47369 
   58692    33120   -15853   -38515   -32570   -17887       34    13401 
   16830     6392   -23279   -54062   -51810   -24054    -8472     6177 
   42090    58887    41706    41072    57485    48436    24880    29149 
   62767    74896    46500    27012    28472    20010    13561    16522 
    9551     5808     9614     3718     4043    12909    13755    21804 
   40956    56292    59961    48112    33497    23867    17108    11770 
   -6397   -26528   -21000      475    26062    53659    64352    50545 
   22640    -7585   -35734   -66152   -83693   -65538   -29851   -19544 
  -41588   -64220   -75039   -85311   -83533   -62693   -47617   -38092 
  -26900   -43962   -81299   -94498   -94605  -109591  -118691  -102394 
  -74332   -47092   -29308   -17673    12140    56132    84063    90065 
   79762    55797    33166    24659    25293    25918    20869    10702 
   -4342   -36683   -82863  -119265  -125068   -71528    20993    73862 
   80395    77520    47893     4669    -3616     4810    -6297   -25468 
  -28974   -12794     1656    -5887   -26529   -47384   -70740   -80978 
  -53332    -5168    32616    58462    84542   105670    87936    38284 
   22297    41889    35353     -419   -37113   -78699  -110687  -105251 
  -70989   -34199   -26403   -48470   -60777   -70456   -92404   -77967 
  -15297    47539    83303   100539   127182   160883   161919   125004 
   81328    50261    31216    13951    -8537   -43819  -101463  -154736 
 -151385  -102776   -72573   -68193   -60635   -57560   -60913   -58925 
  -66293   -77040   -67130   -53267   -40969     5090    77055   118051 
  109819    83081    64667    50877    27582    19336    53556    92341 
   89676    43596   -22788   -72540   -89724   -75829   -32264     5525 
    2757   -33276   -91143  -150061  -167670  -151063  -143528  -134733 
 -116997  -117040  -116523   -91099   -44178    40007   140413   181879 
  154140   114361    82522    38777   -19397   -47803    -8470    44915 
   41834    20207    47423    80455    45096   -17278   -24970     9450 
   21202     9529    14665     2563   -62356  -114224  -108296   -63783 
   15361    79083    45012   -47388  -112538  -154392  -171813  -163871 
 -168085  -135418   -23362    88793   153821   184687   179016   133131 
   51903   -18676   -42169   -59043   -81491   -77871   -64204   -63330 
  -72829   -63289    27431   149770   171563   121148    64307   -29065 
 -103514   -97497   -57592      793    74026   115436    92722    -9199 
 -146024  -203835  -149352   -71073   -22683    24259    73891   102525 
  137691   180641   159678    95847    73070    64068    34493    31610 
   57765    59222    25792   -29386  -119740  -229279  -278170  -215054 
 -103763   -41571   -21966    -2007    -8251   -41068   -60870   -66995 
  -49596   -10175     9150    15838    44674    66136    51258    53769 
  100163   126159    91129    18402   -45511   -77641   -91063   -74655 
  -33464   -22478   -23776    12981    43140    51043    84465   103217 
   59820    11109    13162    24113   -44715  -142411  -108775    21630 
   74903    44603    26469    31150    35007    50865    88863   111829 
   58472   -59749  -141065  -142630  -129378  -149762  -181746  -181240 
 -156272  -142834  -127602  -115789  -141756  -172186  -158437  -111215 
  -59878   -24421   -13239    -5442    18398    45026    52532    20360 
  -31372   -49691   -51926   -70547   -65276   -34504   -43192   -81604 
  -84594   -76960   -92525   -75728   -17621    32514    51494    30629 
   20465    68462   106130    75493    25890    10393    18012     7659 
  -20973   -10643    49551    98896   110191   109356   134929   194872 
  252644   280260   259821   205805   188832   215659   210134   150653 
   90762    70663    72110    55070    17473   -14549   -46311  -103158 
 -165506  -192809  -187928  -183054  -202046  -223120  -198960  -160852 
 -156951  -145482  -105041   -65927   -35289    -5624    39922    85903 
   90572    83650   108935   126836   107906    96436   116921   141028 
  137094    85977    -2446   -88069  -146151  -175577  -178477  -177042 
 -189212  -184665  -149537  -127760  -120018   -82157   -54897   -73664 
  -62610   -16659      226    31389   104320   143549   128588   100882 
   73928    61226    59038    13553   -80769  -132426   -86816   -21918 
  -35303  -124143  -193951  -169948  -114817   -99847   -92439   -76869 
  -48533    -4105    14828     3259   -15717   -26952   -22888   -33948 
  -71449  -102770  -101850   -74015   -59217   -91177  -142527  -123913 
  -31152    10931    -8643     7735    54887    95032   128266   133148 
   97820    52612    47942    96876   129351    96421    57206    60912 
   76007    76341    58343    15965   -17146    -4383    35912    71746 
   68920    29690    18547    29167    -2553   -37099    -5846    44457 
   25359   -50200  -108634  -141389  -156837  -139087  -110772  -112797 
 -145948  -133847   -60919   -62590  -126289  -128065  -134606  -156041 
 -104949   -58790   -44887     1814    28597    12465    31135   109432 
  175533   167599   159264   225383   276230   246370   206302   194740 
  195307   209175   218671   187755   140254   144562   186707   178787 
  103297    38743    47998    74987    19292   -98632  -183073  -202581 
 -178154  -120280   -42701     6418    -8738   -79248  -171412  -230979 
 -234158  -208063  -189117  -206656  -231204  -212712  -187703  -197687 
 -222055  -236298  -213269  -160804  -114199   -58726     2268    58282 
  133596   174878   148137   112973    64428     6700     1462    15203 
   -7278   -31913    -6190    69469   131974   119166    53057    31744 
   90245   130751    87133    17077    -6680    20291    36696    13453 
      40    -8496   -70939  -136099  -128394   -92310   -74337   -69852 
  -77790   -78586   -62724   -43419   -28093   -35415   -76716  -132676 
 -153296  -108609   -66458   -86779  -116561  -125613  -148885  -165345 
 -147206  -138015  -149475  -140325  -111941   -88399   -59556   -18381 
   -7833   -36506   -20026    61890   131114   149054    98778    -6770 
  -54594    20285   110495   106093    31212   -32791   -21524    50893 
   91469    71447    59287    81020    86774    77901   105988   152582 
  177407   187214   197770   220990   245230   227130   128596   -11308 
  -57687    31455   109078    86464    57697    76036    89396   101694 
  115665    91731    65962    35528   -62406  -153133  -158060  -162582 
 -230446  -293263  -286999  -242674  -184314   -92894   -22822   -12369 
    -828    21985    35336    63626    97737    87230    15389   -59955 
  -71413   -23298    30602    48310    46635    32212   -34573  -104802 
 -106004   -68822   -14398    21927   -27438   -75484   -38337   -23938 
  -62442   -78411   -69880   -19388    42715     6249   -96504  -145943 
 -122864   -95396  -130361  -172515  -122180   -58668   -78794   -80232 
    3648    83485   111310    98962    71650    86201   115418    82233 
   36289    49547    94850   135347   145230   110796    83798    83388 
   39530   -41240   -70609   -39017    16719    72376    85288    68881 
   84639    92064    43765     9480    -5727   -76196  -148631  -133832 
  -77119   -51030   -76924  -133981  -143659  -110727  -118151  -117347 
  -55312   -16440   -17614     8490    27280    20085    78513   168514 
  184410   171820   166785   121713    32001   -75444  -152281  -164123 
 -161100  -196093  -223959  -186560  -119931   -73641   -62364   -97528 
 -137691  -135617  -103463   -84567  -113753  -128369   -77647   -49956 
  -47171    52512   216565   303947   296234   240369   177372   157592 
  140401    70719     9943      339    20060    58501    94983   110721 
  108042    99275    89749    66632    68423   138131   199507   183391 
  139268   105284    60548     2990   -60570  -132395  -182225  -179142 
 -157018  -160928  -165943  -139551   -91626     4206   119844    97259 
  -55113  -144934  -162311  -187441  -161997   -81591   -47038   -46271 
       3    66299   111428   141309   123830    71608    57699    70508 
   58294     8389   -48895   -50454   -17532   -32620   -71344   -62728 
  -38142   -62118  -106385  -110604   -54169    57186   126809    62198 
  -19486   -12551   -21165   -71399   -74783   -51489   -36793    -9019 
   35840    86002    96853    56533    42657    34933   -40546   -70632 
    3067    24213   -42468   -96032  -130584  -148024  -125090  -120837 
 -113370    -4236   104115   131571   180345   194509   118700    95566 
  107953    51106    -2884    -2557     9386    13162     2430   -14396 
  -12125     -438   -17856   -50186   -49944   -50718   -94501  -147373 
 -185646  -189129  -160151  -154424  -150140  -110494   -68529     7158 
  113165   129502    52885    -9388   -13438    36376    84016    73184 
   63296   109255   145679   127378   107683   118114   115036    69696 
   13250   -16308    -2048    47026    60438   -18880  -116643  -137091 
  -95038   -56770   -69324  -103267   -95366   -87283  -118639  -118574 
  -81711   -48628    23959    94487    66820    25265    60541    88134 
   34814   -45559   -67863   -34244   -11040    -5217    28204    86234 
   97790    21445   -82676  -141883  -144169  -104225   -66124   -77315 
  -97710   -84393   -83898   -99277  -108799  -142459  -167720  -145385 
 -104911   -58799   -14618    15429    17062   -40885  -122684  -153342 
 -140941  -125291  -106239   -71316    -5460    73795   126706   154767 
  139347    65453     7826    -5124   -22857   -43616   -48702   -28556 
   22864    50503    25529   -15109   -83676  -156229  -144657   -84763 
  -54811   -24297    35179    94439   137461   163400   173213   207271 
  286578   329547   259822   111304   -17252   -53066   -29604   -32353 
  -72978  -102006  -104137  -115899  -148680  -182508  -212695  -205199 
 -134901   -64682   -53153   -78748   -92643   -82579   -65364   -30832 
   45711   139739   185608   178443   182724   206244   219976   239443 
  265661   275604   273542   277567   300494   331465   320558   239004 
  122658    22345   -29305   -27806     3043    32259    49436    78344 
  103539    76095    28942    21047    34547    33358    25940    31298 
   41979    47545    37275   -22718  -128566  -217989  -266780  -305678 
 -349777  -363923  -296004  -155368   -10608    77602    56132   -86017 
 -233873  -250352  -148000   -21273    81069   117665    55764   -39052 
  -91471  -132927  -182070  -202785  -214448  -232515  -206840  -130408 
  -53069     9017    55501    74978    79806    75257    46772     3869 
  -30694   -35809     1594    66939   122161   142080   152493   163582 
  128322    61490    33179    47808    75362    84673    32455   -63928 
 -121104  -120264  -122876  -127891  -106152   -93774   -80492   -40706 
  -32502   -57900   -52792   -15250    28965    47152    13269   -37645 
  -83678  -123281  -122648  -100038   -88447   -73934   -76800   -94409 
 -102351  -121030  -127016  -127190  -145023   -96770   -10019     7900 
   40722   146443   187733   114905    36884    -4909   -48626   -84354 
  -57822    36677   140188   204887   188618   102891    63103    65458 
  -23715  -172153  -242864  -209505  -127043   -76598   -68004    15574 
  168098   215073   158082   122957   100182    81845   102960   125489 
  128876   129025   115583   107838   154709   231444   248772   191173 
  128489   106987   115471   118224   116006   124785    95601     9970 
  -41616   -14520    17064     4045   -14512   -16577   -22557   -19800 
   13310    59086    92675   103513   104916   109163    93630    67612 
   74188    98243   100723    81994    46696    -7160   -50451   -52385 
  -53631  -108244  -175624  -199834  -192459  -159772  -111625   -94923 
 -102949   -98899  -103411  -125493  -148022  -164525  -144587   -92801 
  -44043   -10721   -31475   -82866  -104549  -122759  -123297   -99642 
 -111222  -109709   -70286   -64559   -70444   -76799  -120454  -126480 
  -63357   -18020    12519    66003    97122   118737   173143   190705 
  148874   133593   125560    57768     2865    40429   129581   208372 
  247521   232663   196566   194502   184334    92585   -12594   -48521 
  -50124   -54925   -72132  -114259  -170805  -209559  -209608  -187211 
 -155591  -104638   -54536   -43444   -71290  -118159  -179881  -231756 
 -218465  -159523  -157257  -218559  -246506  -219603  -184653  -160928 
 -103653    51455   192732   150930    13325   -76210  -125358  -119981 
  -34184    52430    64850    40809    38302    42271    50366    93660 
  140646   148775   139025   160327   225282   271101   252257   207924 
  166929   122409    84732    62468    42619     8032   -51372  -125470 
 -189616  -230804  -235430  -177839   -70423    28272    91240   100967 
   22546   -60023   -49105   -43500   -99348   -95614    -8816    63473 
  102238   133178   123266    64123    14131   -10287   -23951    -5847 
   46451    79722    44678   -23479   -63227   -81114   -78432   -53142 
  -44482   -39470   -15147   -24310   -83835  -122102  -120138  -147792 
 -206219  -222697  -192908  -168097  -145109   -67161    20687     -283 
  -53690    -2972    70630    82927    57661    -3172   -35747    31675 
  124452   148551   113114    77338    67425    57309    23550   -24745 
  -68114  -111237  -161819  -191877  -187074  -157989  -110986   -75554 
  -42134    61693   193892   231924   199622   176123   161532   156906 
  152442   126970   114698   134839   151219   155030   169246   178790 
  164470   152051   131333    69831     6980   -36840   -83922  -100049 
  -74847   -66802   -95083  -127118  -148320  -171331  -176455  -131297 
  -69861   -34160      486    40754    25336   -41029   -71778   -55313 
  -36555   -46829  -113971  -195657  -198802  -133104   -92350   -81717 
  -65331   -86477  -120047  -101949  -117478  -177547  -165102  -137330 
 -180615  -203737  -159870  -114646   -62123    40792   118942   104761 
   75477    71659    48517    27838    27613    17141    32756   105782 
  167132   167320   151139   156390   148578   103564    58772    41070 
   49872    87082   123570   118437    80610    45353    36009    54657 
   75949    97231   134503   150842   133588   119988    86757    23609 
  -22384   -56843   -94985  -107850   -96225   -89913   -67373    -5065 
   40810    65189   119744   144384    99568    61149    37579    -5434 
  -44026   -72148   -98932  -108254   -91156   -49549   -16109   -29325 
  -56179   -63786   -64820   -41416     6354    29120    15070   -12403 
  -37176   -50997   -60516   -74739   -94047  -119498  -127164   -87186 
  -29220     6522    13784   -11381   -51026   -95545  -148391  -158968 
 -121800  -101873   -88966   -47518    -8380    -1600    -9922     -989 
   20262    20398    -9926   -55563   -95417   -94404   -33915    41268 
   91350   128549   140896   110562    70470    58002    74598    91555 
   94232    88669    57558     1798   -29062   -13723    10912     8177 
   -6562    -2703    -6084   -39614   -65436   -74391   -91871  -104661 
  -92913   -66097   -47100   -19692    58121   125997   117550   112798 
  136728   117487    98306   123881   113854    24865   -93768  -179541 
 -188611  -128118   -62702   -36240   -30879   -25910   -13432    33275 
  114281   160955   126884    73681    70646    85279    66453    26427 
  -11661   -34347   -19998    22317    52356    57689    54776    47550 
   41809    54748    70903    64909    43194    15786   -10666   -26939 
  -39658   -56052   -57323   -43453   -52922   -69031   -44247   -25845 
  -56608   -75583   -65170   -78280  -119805  -161000  -183462  -185182 
 -170918  -140481  -122127  -132609  -134101  -113278   -76654     1218 
  103276   163700   162507   127576    90938    73470    76764    87011 
   91451    96380   109406   110347    83220    47475    14808   -26535 
  -67151   -96087  -131955  -167383  -163644  -127752   -92751   -58122 
  -33295   -30502   -29178   -40767   -69401   -61981   -29123   -35497 
  -67374   -70502   -50262   -34170     -904    46532    59295    49239 
   33025     1426     3101    37315    44542    58136   105895   132730 
  127761    91570   -12321  -138969  -203083  -195102  -137035   -49545 
