Origin Time       2011/03/11 14:46:00
Lat.              38.103
Long.             142.860
Depth. (km)       24
Mag.              9.0
Station Code      FKS028
Station Lat.      37.3491
Station Long.     139.3144
Station Height(m) 375
Record Time       2011/03/11 14:47:26
Sampling Freq(Hz) 100Hz
Duration Time(s)  300
Dir.              N-S
Scale Factor      3920(gal)/6182761
Max. Acc. (gal)   35.322
Last Correction   2011/03/11 14:47:11
Memo.             
[...]
   22393    27047    32144    35515    38754    41846    42993    43730 
   45493    46765    47411    48414    48781    47659    46188    45644 
   45860    45540    43683    41218    39626    37744    34182    31129 
   30267    29235    26722    25201    25735    26305    26154    26286 
   27328    29320    31223    32484    34000    34755    33288    31668 
   31640    32057    32553    33260    33584    34640    36825    37409 
   36421    36941    37837    36786    35805    35227    32032    27226 
   24212    22522    20333    17785    15379    13090    10806     8834 
    7469     5789     3580     2717     3355     3832     5513    10316 
   15633    18941    21876    25155    27356    29176    31393    32255 
   31066    29577    29225    29660    29684    29336    29310    28553 
   26215    24211    23965    23710    21624    18903    17625    16723 
   13710     9960     8074     6054     2119     -239      417      163 
   -1791    -1672     1357     4712     7117     9163    12080    16500 
   20799    23751    27026    30640    32208    32708    34349    35526 
   34788    33515    32300    30755    29204    27282    23967    19670 
   15507    11153     5836      388    -3635    -6252    -8760   -10707 
  -10605    -9648    -8765    -5775     -671     4114     9347    16417 
   23150    28188    33343    39254    44859    50217    56015    61801 
   65604    66343    65626    64174    60728    56325    53208    50376 
   45833    40549    36214    32119    27191    22277    18065    13980 
   10680     9278     8302     6594     5865     6319     6048     5623 
    7005    10266    14658    19352    23125    25673    27557    28876 
   29530    29757    29684    28973    27049    23799    20246    17321 
   14498    11687    10020     9465     9173     9228     9145     7867 
    6415     5740     4109     1435     -396    -2580    -5594    -6162 
   -4669    -4298    -2744     2351     6351     7019     8777    11327 
   10342     8523     9727    10985    10596    11279    13272    15043 
   16699    17708    17579    17768    18292    17814    17262    17013 
   15003    11661     9712     8769     6938     5497     6035     5715 
    2405      347     2028     3403     3935     7249    11232    12312 
   13187    15707    17585    19694    23300    25494    26548    28713 
   28818    25978    25292    26966    26967    26516    28714    31701 
   32518    32438    33762    35296    35166    34219    33373    31617 
   28522    25436    23760    23638    23776    23364    23781    25583 
   26963    27867    30005    32356    33147    33351    33723    33868 
   34112    33904    32037    28867    25408    21927    17540    11985 
    8008     7212     7119     6959     7875     7916     6330     6311 
    8134     8975     9412    11394    13342    13598    14587    18401 
   21951    22720    24177    28184    30695    30765    32184    34131 
   33038    31331    32460    33968    33495    32597    32193    31403 
   29261    25796    22800    20885    18671    17242    18179    19264 
   19613    21397    23290    23023    22892    23298    21412    19322 
   20115    21724    23461    26846    29786    30774    31749    31989 
   30198    30087    32453    31463    26320    22127    18835    14079 
   10950    11898    13563    13433    12950    12494    10672     7476 
    3964     1442      890     1138      378    -1406    -4074    -8129 
  -13005   -17123   -19285   -19551   -18858   -17646   -16205   -15331 
  -14802   -13220   -10046    -6171    -2575      883     4767     8665 
   11708    13920    16091    19201    24398    31360    37252    41078 
   45671    51267    54446    55511    57328    58480    55992    50784 
   46009    43259    41302    38505    36102    35499    34733    33070 
   32933    32786    28415    22092    18739    17283    15266    14169 
   14720    15160    15197    15547    15603    14785    13772    13648 
   14982    17090    18631    19638    20519    20038    18193    17474 
   18168    18024    17145    17131    17490    17356    17459    18803 
   21172    23024    24124    26237    28350    27359    25195    25989 
   27530    25359    21022    18053    15415    11054     7055     5700 
    4395      675    -3070    -5362    -8187   -11569   -13900   -15684 
  -17484   -18784   -19811   -20146   -18575   -15898   -13512   -11178 
   -8802    -6742    -5136    -4448    -3845    -2502    -2074    -1862 
     693     3101     3140     4345     7625     9567    11150    15282 
   19852    23312    27982    33585    38406    44141    51547    58162 
   63504    68972    73443    75212    75221    74648    72988    70410 
   68710    68181    66788    63760    60079    56005    52166    50003 
   48022    43062    36886    33617    31189    25579    19697    16714 
   13248     8713     7910    10688    12973    14598    17268    20470 
   22177    21969    22571    24561    24406    22612    22976    23729 
   21744    19236    18205    16609    13501    10923     9036     5876 
    2137     -450    -2845    -5700    -7253    -6312    -3902    -1834 
    -472     1427     4199     7492    12092    17383    20953    23269 
   26390    29491    31932    35251    38788    40749    42572    45205 
   46332    46014    46643    46158    40939    33255    27062    21425 
   14840     8822     4271     1143     -137     -435     -456     1350 
    4573     5999     6089     7845    10050    10760    11870    13748 
   14908    17361    22485    27586    31559    35420    38345    40048 
   42877    47204    49564    48048    44377    39724    33997    28304 
   23666    19011    13417     7939     3075    -2076    -7284   -11609 
  -15139   -17783   -18579   -17191   -14820   -13379   -12859   -10671 
   -5698      150     5392     9946    13447    15535    16895    19283 
   23805    29206    34174    39275    44225    47327    48245    47929 
   47002    45433    43233    41304    40152    39043    37956    37838 
   39221    41867    44425    45552    46018    47506    49980    52432 
   54892    57261    58094    57122    55902    54028    49518    43472 
   38076    32033    24390    18211    15776    15755    16789    18853 
   20916    21103    19443    17532    16007    14066    10420     5297 
     517    -3850    -8777   -13021   -15223   -16378   -17756   -19183 
  -19882   -19431   -18313   -17580   -17445   -17146   -16156   -14501 
  -11849    -7652    -2617     2234     7413    13419    19621    25832 
   32183    37945    42245    44641    44890    42797    37776    30150 
   22502    16594    11309     5676      340    -4285    -8525   -12467 
  -15215   -15196   -12397    -9108    -6580    -3740     -766      521 
     652     1676     2930     2605     1546     1711     3119     5443 
   10205    17060    22266    25779    31209    36658    38212    39021 
   42540    45710    46526    47105    47596    46529    44167    40793 
   37486    36768    37655    37592    38113    40116    40977    41091 
   43682    47792    50101    50854    51420    50660    47890    44802 
   42070    38119    33472    30998    29713    26668    23935    23741 
   23239    21429    20935    21805    23163    25980    29658    33218 
   37709    42507    45648    47805    49955    50885    49680    46696 
   42533    37485    31541    25956    22067    17669    10498     2870 
   -3660   -11694   -21086   -27340   -29504   -30726   -31795   -31708 
  -30808   -29713   -29086   -28941   -27235   -23078   -18111   -12834 
   -6799     -516     5668    11278    15721    20429    26900    33438 
   38248    41814    43772    43223    41379    39656    38489    38722 
   39787    39333    38132    38564    37943    33537    29225    27448 
   24950    21511    20335    20865    21124    21635    22027    20506 
   17606    14752    11155     6426     2501      -35    -2829    -5640 
   -6723    -7052    -8946   -11707   -12934   -12699   -12199   -10366 
   -6370    -1976     1727     5291     8488    11325    14655    17677 
   19662    22179    24894    25231    24070    24241    25317    25843 
   26534    27944    28907    28521    27216    25754    24478    23466 
   22880    23110    24228    25377    26092    27597    30721    34636 
   39228    44718    49388    52146    54407    56406    56868    57099 
   58447    58006    54035    49547    45881    41380    36327    31331 
   25507    19487    13932     8303     4628     5324     8852    13394 
   19403    26543    33219    38474    42243    44885    46599    47147 
   46624    45750    44503    41788    37562    33236    29000    23625 
   17687    12896     8503     3902     1842     3091     4007     3390 
    3531     4044     3089     2030     2414     2924     2770     3182 
    4670     6531     8302     9650    10307    10837    12719    17345 
   24049    30757    37119    43522    48734    51915    54003    55944 
   57820    59039    58822    57251    54424    49716    44130    39325 
   34125    27496    21115    15284     8680     2520     -973    -2594 
   -4700    -7421    -9553   -12270   -17178   -21923   -23401   -22395 
  -20868   -18749   -15641   -12661   -10684    -8399    -4986    -2066 
     414     4845    10014    12001    11260    10677     9943     9020 
   10351    13551    15463    15210    13984    12116     9188     6725 
    7299     9401     9320     7576     6321     4953     3006     1206 
    -459    -1628    -2033    -2696    -2754      -33     4063     6964 
    9822    14323    18550    20725    23220    27649    31317    33200 
   35363    38113    41686    47158    52480    55690    58332    60227 
   59448    57759    57177    55519    51368    46777    42672    37981 
   32682    27314    21912    17005    12904     9489     7666     7709 
    8209     8993    10703    11326     8791     5363     3609     2401 
     941      -79    -1249    -3077    -5355    -8278   -10801   -11518 
  -11244   -10353    -7906    -5542    -5667    -7120    -8381   -10401 
  -12107   -10233    -5526     -936     4026     9692    14170    18375 
   23954    28915    31874    33845    34627    33306    30128    25700 
   20255    13991     7987     3343      -10    -1427     -181     1289 
    1002     1703     5100     8254    10478    14482    19067    21031 
   22322    25925    29397    30004    29686    29552    28140    27245 
   29105    30885    31040    32371    34477    34958    35224    34993 
   30791    24373    20079    16667    11725     7117     4782     3688 
    2732     2212     2085     2066     2928     5091     7649     9883 
   11684    13099    14340    16212    20459    27133    33373    37698 
   41207    44041    45433    46072    46899    46719    44150    41068 
   40020    39534    37234    34653    32898    29738    26071    25396 
   26208    25628    25436    27020    28240    28548    29945    31995 
   32474    32364    33729    35047    34443    33687    34504    35069 
   33297    30226    27771    25549    22926    21130    19888    17275 
   14154    12288    10713     8832     7556     6136     3882     2542 
    2906     3860     5805     9777    14395    18177    21693    24422 
   25131    25870    28841    32439    35516    39155    42105    42507 
   42626    44779    46943    46586    44311    41911    38994    33886 
   27919    24019    21519    18792    17191    16523    13837     9312 
    5051      741    -2933    -3611    -2374    -1582     -260     2694 
    6620    12190    19676    25468    26561    25325    24733    24071 
   23177    24039    25927    26135    25154    24835    24335    21927 
   18473    16810    17291    17469    17568    19802    22884    24355 
   24970    25553    25174    24165    22744    19710    16224    14141 
   11879     8310     5043     1964    -2239    -5098    -3191     1929 
    7898    16285    26512    33631    36848    40031    42207    39978 
   37231    39042    42571    44513    47168    51126    53336    54118 
   55934    57778    58390    58853    58201    54071    47369    40887 
   36347    33812    32089    31000    30792    29557    26057    22157 
   19650    18669    18754    19144    19749    20738    21395    22338 
   25487    30101    33655    35570    35997    34106    30292    26890 
   25301    24492    23406    23152    23971    22979    19389    16654 
   16227    15982    15478    16477    18727    20277    20969    21333 
   20567    18897    17572    15784    12318     7849     3440      301 
    -764    -1307    -2792    -4457    -6399    -9359   -12109   -13817 
  -14804   -14339   -12415   -10267    -7280    -2618     1580     3883 
    6536    10589    14214    17907    23063    27185    28743    30138 
   31593    31517    30989    30578    29309    28275    28735    30089 
   31351    30920    28064    24185    20113    16306    14613    15543 
   17253    19238    22492    26381    29485    31767    33646    34821 
   34905    34424    34959    37245    39218    38838    37017    34379 
   29642    23712    19329    15729    10522     5356     2072    -1755 
   -6734    -9697   -10315    -9959    -7383    -3095     -514      509 
    2978     6583     9586    12920    17452    22540    28366    34816 
   40189    43266    43957    42644    40795    39935    39325    37441 
   34695    32017    29574    28181    28263    28674    29442    31404 
   33203    34526    37897    42663    45321    47173    51679    56960 
   60196    62812    64788    62762    56542    48981    40685    31278 
   22421    15393     8767     1107    -6907   -14498   -21405   -26871 
  -30901   -34151   -35934   -35798   -35412   -35346   -33484   -29695 
  -26607   -23654   -17693    -9200     -378     8748    17334    23472 
   27986    32280    35248    36271    36501    36183    34717    32452 
   30707    30553    31567    32167    31773    31367    30981    29879 
   29410    30791    32021    31202    29668    29648    31289    32649 
   31685    28052    23425    20323    19644    19720    19623    20663 
   22512    23443    24185    25161    24413    21821    18792    14942 
   10095     5697     2517       87    -1820    -2718    -2548    -2007 
    -903     1334     3520     5003     7680    11872    15594    18828 
   21643    21996    20609    20726    22497    24493    26530    27836 
   28110    28780    30142    31461    32313    31148    27404    23935 
   22816    22583    21670    19942    16978    13023     9701     7816 
    7082     6781     6101     6358     9873    15516    20173    24136 
   29799    36117    40401    43244    45708    46623    46308    46487 
   46690    45906    44524    42282    38552    34449    31457    29953 
   30035    31201    32523    33983    34607    32635    29505    26680 
   21957    15522    10836     8025     5517     4514     5435     4969 
    1604     -823      -74      996     1166     1834     2459     2736 
    3925     5414     6088     6325     5327     2480      -39    -1536 
   -3330    -3782    -1423     1328     3029     4222     3987     2428 
    2142     3645     5106     6916    10350    14056    17511    22627 
   29031    34609    39261    43298    46003    47140    47326    47603 
   48472    48433    45893    42342    39658    37025    33889    30673 
   26841    22861    20360    19211    17883    15542    12989    11936 
   12259    11908    10466     9172     8347     7579     6430     4934 
    4386     5593     7430     9264    11841    14875    17570    20359 
   22780    22994    21029    18511    16374    15205    15030    14868 
   15024    17623    22645    27306    30658    33527    35349    36084 
   37294    38759    38879    38289    38088    36991    34064    30132 
   26206    24100    24886    26170    25619    24249    23039    21162 
   18715    16885    16046    15739    15229    14146    12824    11201 
    8819     6780     7091     9451    12121    15606    20960    26121 
   28832    30103    31138    31261    30204    28521    27009    26564 
   26283    24325    21497    19160    15837    11352     8538     7260 
    4966     2720     2786     4202     5805     8541    12767    17456 
   22353    27322    31108    33892    37046    39702    41266    43584 
   45855    44757    41160    38622    37440    36135    34752    33323 
   30570    25835    20399    16151    13276    10372     7522     6131 
    5591     5197     6663     9835    11743    11858    12040    12727 
   12899    11762    10208     9880     9794     8491     8076     9596 
   10449    10706    12640    15246    17199    19281    21135    21410 
   19858    17245    15003    14083    13633    12776    12292    12129 
   10530     7968     7163     7862     7676     7438     9054    11197 
   12411    13562    14776    14564    12549    10430     9858    10446 
   10989    11551    12751    14846    18037    21698    24794    27617 
   30488    32530    33569    34277    34867    35913    37882    40186 
   42714    44899    44823    42843    41056    39310    36856    34664 
   33722    33791    33919    33342    32023    30145    27831    25174 
   21568    17288    14587    13490    11408     8361     6302     5502 
    5207     5157     5535     5821     4773     2904     2631     4762 
    7780    10753    14000    16963    18505    19657    21902    23633 
   23743    24160    24891    24727    25591    27773    27777    25754 
   24882    23639    20007    18289    21018    23361    22987    23076 
   23298    20533    15963    12293     9359     6377     3460     1178 
     432      742      475      -90      243      228    -1713    -4074 
   -5306    -6399    -7359    -6716    -4426    -1027     2852     5696 
    7423     9818    12944    15419    17807    21061    23833    25012 
   25792    27125    28201    28599    29351    30635    31106    30958 
   32113    34592    36925    39451    43085    46922    50020    52346 
   53511    53592    53274    52282    50435    48725    47043    43900 
   39363    34651    29669    24478    20845    19554    19384    19890 
   21398    23033    23579    22852    21876    21718    21730    21252 
   21533    22772    23211    22881    23436    24524    24560    23764 
   23021    21852    19834    17380    15069    13394    11596     8506 
    4783     1118    -3108    -7514   -10780   -12470   -12623   -11704 
  -10541    -8476    -4363      672     4889     8257    11138    13505 
   15469    16620    16657    16618    17197    17778    17966    17819 
   17292    16221    14177    11163     8304     6477     5414     5438 
    7599    11038    13753    16251    20061    23820    25804    27021 
   28016    27877    27459    28402    30417    32663    35150    37585 
   39599    41691    43592    43902    43094    42684    41281    37496 
   33907    32070    29730    26576    24971    24450    22745    20815 
   20952    22395    23229    23878    25702    28273    30111    31338 
   33344    35582    36101    35009    33322    30717    27675    25542 
   23437    19821    15861    13449    12254    11482    11682    12720 
   12922    11684    10090     8281     5438     2111     -773    -3804 
   -7037    -8964    -9438    -9434    -8645    -7311    -6411    -5188 
   -3364    -1828      723     5450    10547    14974    19226    22119 
   22499    22086    22456    22604    22491    24058    26693    28292 
   30303    34192    37576    39516    41987    44966    46944    47859 
   47774    45798    42289    39468    37911    35641    32343    29708 
