Origin Time       2011/03/11 14:46:00
Lat.              38.103
Long.             142.860
Depth. (km)       24
Mag.              9.0
Station Code      FKS025
Station Lat.      37.3082
Station Long.     139.8994
Station Height(m) 439
Record Time       2011/03/11 14:47:10
Sampling Freq(Hz) 100Hz
Duration Time(s)  300
Dir.              E-W
Scale Factor      3920(gal)/6182761
Max. Acc. (gal)   146.871
Last Correction   2011/03/11 14:46:55
Memo.             
[...]
   22613    28055    28012    26950    29463    31459    21230    -4073 
  -32130   -45746   -36359   -10278    17161    34412    39344    34344 
   21126      594   -22917   -40447   -43197   -25240     9990    43832 
   57439    45729    12603   -27671   -50918   -41227    -2074    49292 
   89950   100304    75878    30957   -11638   -34218   -30506    -3511 
   37050    76323   100760   103027    82126    46558    14027       68 
    7213    26955    48904    64564    67064    52222    19725   -24088 
  -63849   -82051   -73374   -47560   -18991    -1792    -4962   -21961 
  -32583   -19921    14044    50003    65735    49932     9743   -35701 
  -67503   -73975   -56418   -26130     5805    30326    39189    31506 
   16767     2599   -12159   -24744   -24733    -9841     8074    16336 
   12348     -660   -17134   -24790   -14526     3838    13703    14012 
   18597    38115    65093    80873    76374    57374    33514     9635 
  -12698   -30534   -39906   -34156    -7075    28706    43295    23914 
  -12375   -41762   -48947   -28606    10564    47979    63450    51296 
   24547      341   -14133   -16808    -3701    25071    57642    76628 
   70479    36010   -18669   -71556   -98810   -92002   -62569   -31255 
  -14502   -18032   -35226   -51915   -57932   -51541   -34293   -10730 
    9636    19564    20183    17248    17072    24522    37363    44939 
   39205    22349     -359   -26326   -50023   -59795   -46126   -12124 
   26164    52013    59735    53167    39129    25556    18580    18104 
   18210    11883    -1822   -15665   -22734   -22629   -19239   -18607 
  -26314   -41692   -56734   -62893   -55636   -33652     1414    43427 
   79665    94453    78102    32470   -25683   -70106   -83519   -66087 
  -27859    14937    42725    44005    22400    -7733   -30401   -38279 
  -37871   -39420   -39059   -20862    18508    61678    90304    96341 
   76013    30596   -26993   -76975  -104419  -104481   -78182   -29646 
   23181    50907    41864    10566   -20829   -32398   -12829    33379 
   87844   126935   132641    99302    40243   -10614   -22691     4897 
   49112    83822    93962    80443    52638    20328    -6797   -23462 
  -29363   -21338     2688    33393    55768    62547    53195    26494 
  -12746   -47432   -61190   -52557   -31165    -7917     8384    14559 
   14417    12560     8815      -89   -14417   -30443   -42339   -42391 
  -26051     3278    34547    53525    52657    34784     7688   -17725 
  -28846   -21004    -3116    11868    18037    14846     2012   -17123 
  -32994   -36617   -23972     3904    37214    61346    69466    63767 
   45947    15414   -22082   -51803   -61246   -49052   -23055     2375 
   12729     4807   -10500   -14937     1665    27654    44608    50220 
   50025    39809    11926   -26319   -53476   -56149   -39725   -16820 
    3217    15837    21455    21446    12084   -10209   -37002   -50202 
  -39316   -13284     6436     4728   -16442   -44318   -65827   -72454 
  -63237   -45431   -29099   -19648   -15443   -12087    -5270     9946 
   33225    54142    62396    58223    48640    40229    37021    39614 
   45171    51588    60364    72650    86791   100534   107659    94741 
   52857    -7621   -61263   -87001   -80014   -49709   -14187     7924 
    6136   -18699   -53607   -78810   -81225   -61443   -30104    -2302 
   13592    24311    37790    47034    39519    16114    -6411   -10980 
    4013    25713    40282    42206    32932    17125     2548    -2950 
    2352    14258    27633    39918    51725    60990    58268    35469 
   -1012   -31598   -39351   -22338     5774    23954    19147    -2830 
  -24161   -31355   -22768    -5802     7966     9953     2220    -4232 
    -476    12486    27016    38137    46519    51761    46090    20509 
  -18910   -48081   -46543   -16823    19614    36700    19010   -24306 
  -64315   -76541   -58639   -25595     6994    29836    35418    19380 
  -11087   -37621   -44488   -32678   -17268   -11631   -20041   -37328 
  -49460   -45184   -26267    -2417    18677    34931    41784    27628 
   -9318   -47177   -58272   -36213     2260    35671    51770    47801 
   26855    -2433   -29449   -45812   -44415   -22771    11348    42548 
   57421    55936    50949    52536    57547    54083    35899    13135 
    1046      539      464    -6277   -16580   -21843   -16648    -5813 
    -753    -7308   -19177   -23137   -10939    11503    27785    26555 
   12218     -696     -203    17630    49005    82004   100629    94886 
   67026    30415     3005    -4079     5566    17365    17050     2583 
  -13036   -14472     1664    24443    35409    21632   -12072   -45582 
  -60281   -52948   -32765    -9238    12730    30180    38281    31063 
   10017   -11635   -19729   -11872     3768    16364    18552    12588 
    7242     7297    12336    20916    31552    42212    49402    48961 
   39707    26566    17419    14674    13393     8694      389    -7762 
   -9782    -1762    15940    40442    65055    78807    72134    44965 
   10074   -15604   -22873   -12281     7250    21875    22547     8056 
  -17503   -39974   -39483   -11374    26255    48948    42965    10935 
  -28638   -51384   -47744   -30013   -16293   -16548   -30534   -50933 
  -70459   -84550   -86537   -68281   -31317     9339    39288    53614 
   50160    29282      257   -22451   -29167   -20227    -2962    14147 
   24542    25980    20922    11934    -3378   -27256   -49187   -50525 
  -28262    -1213    12341     8793    -7751   -26748   -31692   -16621 
    8774    35138    57807    68834    60870    35906     4440   -19260 
  -21883     2693    47507    90602   105027    78262    21284   -39586 
  -77271   -77833   -47518    -9632     7982    -5375   -31942   -43928 
  -29186     4115    38063    57922    60636    50542    31398    10586 
    1150     8775    25210    37895    38277    23413    -2338   -26191 
  -33636   -22987    -9043    -6828   -17162   -29629   -33943   -28777 
  -21564   -18371   -16978   -12039    -2042     9746    18272    20651 
   17470    13566    18440    37909    63333    76012    62157    21295 
  -32037   -73000   -81629   -54240    -2623    51612    87680    95204 
   74109    32353   -13628   -40708   -31438     9189    59155    97461 
  106309    77217    24203   -26726   -57958   -66004   -55675   -32188 
   -2418    23067    37099    36622    19256   -10743   -39554   -50391 
  -34658    -2955    19465    11900   -25113   -65963   -79308   -55485 
  -10011    33872    62743    74669    65511    31436   -14044   -47632 
  -55599   -37852    -8473    10425    10440     7675    22281    53234 
   79906    79804    42825   -19002   -72391   -84955   -52122     2973 
   50092    67925    53227    19397   -15512   -37197   -37791   -16663 
   20060    60016    86254    81999    41577   -20383   -75783   -99661 
  -81302   -28917    31816    71432    75357    47562     2044   -40480 
  -59609   -48628   -15462    24910    56758    69260    59058    32335 
    3374   -17236   -31095   -44048   -54341   -51845   -28450    11733 
   53670    79333    78049    56265    30060     8974    -3394    -2844 
   13057    41284    72562    94496    98105    83635    61076    42361 
   33732    36331    47284    56527    48869    17388   -24404   -51439 
  -49376   -22810     9534    22957     6212   -26193   -51053   -56371 
  -40703    -8328    30880    64743    78410    53776   -11869   -88935 
 -136577  -138017  -103724   -51207     5822    57779    95662   106515 
   79355    18083   -53102   -98285   -92087   -36936    40113   103640 
  129421   114294    69237     8626   -55724  -116715  -166224  -189635 
 -173370  -114760   -25874    66106   127812   136061    88205     6475 
  -64591   -83464   -40697    39175   114195   151756   146873   109533 
   50856   -14502   -70741  -102548   -96610   -54786     3528    52573 
   70959    52505     6558   -46683   -82012   -84537   -58383   -22662 
   -3649   -22711   -78995  -139521  -158335  -114653   -31885    42817 
   78452    72771    39532     5305    -6178     4167    21947    32774 
   29810    19364     2090   -27715   -56963   -57943   -16803    51094 
  114869   150586   148749   114509    61393     2681   -48283   -79531 
  -85899   -67871   -31630     5116    18030    -5482   -55003  -103668 
 -122965  -100382   -51493    -6077    16903    13869    -6891   -23650 
  -12025    32732    89273   129481   138097   114231    68073    19844 
   -9832   -15395    -6561     5686    13611    11050    -2262   -19881 
  -36514   -53282   -70797   -82694   -80226   -57235   -17460    21250 
   43827    51298    52009    52798    53913    47309    26885    -1371 
  -22650   -25835   -13501      923     5524    -3527   -23492   -46680 
  -64063   -70156   -63530   -46701   -24325     1428    26757    41550 
   37783    15855   -17176   -49904   -74258   -90746  -100599  -100397 
  -89034   -71584   -50879   -23234    11405    43546    61439    59027 
   39854    17307     8748    24626    59588    97088   123159   130270 
  114665    78372    29721   -17710   -47514   -51661   -38224   -23632 
  -24211   -47179   -76299   -79520   -38449    34912   104795   137520 
  127083    94138    65662    56029    61821    71199    70541    49339 
   11640   -26873   -54821   -68641   -65612   -41930     -949    43594 
   78238    95033    87695    55436    11365   -22617   -32110   -18151 
    6499    25447    26512     7330   -20891   -41296   -49828   -57913 
  -74163   -91029   -88425   -48713    23651    98197   141803   140520 
   97632    30461   -29236   -53897   -36614    13416    76559   128088 
  142826   101324     9130   -95777  -164939  -169914  -116502   -31877 
   53078   109893   122131    93330    42661    -5633   -36700   -50291 
  -49209   -31543      699    34356    53739    48695    13828   -45468 
 -106668  -142166  -136874   -93348   -30524    24129    54972    64823 
   57895    35520     5436   -18105   -20543     1258    33961    59004 
   63289    44332    13169   -10791   -13858     1431    23224    41978 
   49557    38553     9474   -28054   -62487   -84778   -87423   -67551 
  -32916     2600    28738    40216    36568    24777    13607     4418 
   -5165   -10672    -3009    17770    39809    49666    36311    -5970 
  -67325  -122603  -150798  -152511  -141316  -122415   -91982   -50582 
   -6152    31261    53401    54636    33591    -2460   -37383   -55338 
  -49525   -18300    35864    93981   124532   109504    56348   -10028 
  -57868   -66305   -41338    -5697    19713    19759    -8125   -45606 
  -64658   -46838     4122    63648   105806   119594   108145    82314 
   54564    33937    25422    29778    42544    58147    71184    70842 
   47991    11070   -19292   -29621   -18291     9751    42647    64347 
   66628    52827    30088     3065   -29904   -70854  -111296  -137671 
 -141836  -122728   -88293   -52826   -27623   -17138   -16277    -8020 
   22113    66764   102122   108076    80251    33429    -9337   -36839 
  -52725   -62872   -67343   -60010   -33318     9799    48862    60704 
   39861       80   -38629   -61374   -60851   -37883    -2521    33186 
   61683    72664    55107    14168   -31707   -67407   -85058   -82768 
  -65340   -42997   -26755   -23529   -35203   -57882   -79984   -87067 
  -72367   -41299    -6352    22898    46120    64540    71505    58625 
   24508   -22256   -60390   -66385   -35193    18914    75814   116644 
  132389   127740   113366    98690    84916    67372    49195    40240 
   42775    47644    42149    18676   -18067   -48488   -52166   -28283 
    4311    24259    24537    19376    30677    66358   115628   157908 
  173420   153469   106282    52143     9698   -14535   -26001   -33811 
  -43060   -52747   -55761   -44613   -21419     -828     -829   -23925 
  -53042   -71315   -73332   -59419   -30835     8654    46127    59870 
   34946   -20934   -81260  -122948  -138175  -125543   -88591   -40747 
    7140    52408    86031    94733    75497    36598    -6704   -39487 
  -51577   -37259    -2503    34359    54537    49384    23402   -11702 
  -42944   -59979   -58218   -37768    -3727    35993    71849    87701 
   71859    35538     7228    12224    53640   105954   134522   122369 
   78190    27309    -5645   -14081   -12129   -17889   -35482   -54031 
  -60004   -50172   -34383   -27235   -39105   -66950   -91948   -98189 
  -87948   -72646   -59285   -46292   -28909    -6667    17625    42740 
   68457    91989   108250   111163    94902    60636    21503    -2654 
    1508    28340    55887    62275    40441     3486   -24067   -24164 
    2649    38529    61873    60115    31134   -17203   -67032   -99898 
 -107659   -92304   -61023   -23582    12498    43608    65600    75436 
   72969    57053    27712    -9842   -45708   -66565   -62276   -36771 
   -6460    15495    28409    36997    40352    33997    20324     9095 
   10823    31434    65431    95313   106016    98138    80595    56579 
   22807   -22446   -69619   -98868   -97858   -71853   -37529   -16046 
  -22178   -47671   -61997   -39838    15614    80341   129845   146821 
  123717    68881     4483   -46623   -72171   -71288   -48841   -12407 
   28357    63731    83476    78406    49879    11308   -20825   -30201 
   -8705    29477    54072    42472    -2861   -55648   -87650   -90883 
  -75540   -55465   -42110   -41440   -49259   -54231   -46885   -23426 
   13561    52779    79634    89720    91869    95056    97167    89829 
   70543    45171    18302   -11477   -41811   -67821   -97386  -140989 
 -189736  -223553  -228215  -197817  -138326   -70371   -19734    -1445 
  -10375   -23995   -17533    11580    42563    57828    48381     9793 
  -41824   -73218   -63143   -15238    49090   101718   118250    87493 
   19891   -53481   -97886   -95551   -50252    19288    82602   110382 
   94688    50589     5049   -16995    -8363    19990    51984    76904 
   90318    84069    51013     4971   -24909   -20340    14837    62415 
   97685    96414    55202     -192   -39652   -50328   -35107    -5767 
   21145    30648    16686   -15400   -49656   -66943   -59196   -37117 
  -25570   -43202   -81896  -116366  -125051   -96851   -38217    26062 
   70256    81830    63318    30512     3175    -7162     1532    23148 
   43805    53255    52014    42931    27583     7686   -15127   -35539 
  -46215   -42889   -25222     1126    26509    42939    46052    36876 
   23527    17193    21294    25077    13221   -18680   -57887   -80099 
  -68312   -28316    21070    61867    78146    63931    32496     6026 
   -1431    11490    35132    52612    50033    24620   -13972   -47361 
  -61563   -55416   -32760    -1262    23138    27655    13945    -5400 
  -16299   -12605     2010    19161    28634    22997     4581   -13788 
  -15184     9348    51316    89937   106476    93996    59355    19167 
  -12629   -34158   -47522   -51942   -49359   -41643   -23915     5067 
   32745    44826    39426    22839     1667   -18870   -36608   -50083 
  -55319   -51152   -45292   -52368   -82832  -129462  -167806  -174214 
 -142277   -83062   -16720    37413    69584    79787    74505    64776 
   58242    53527    46777    37275    24387     6536   -14873   -35424 
  -51996   -63906   -68370   -56212   -19548    33457    81446   107650 
  107183    85249    56419    39606    48650    83484   128231   161439 
  167794   143854    99967    53803    17820    -7304   -26335   -39189 
  -40468   -25572     2399    30993    48332    47830    25581   -11605 
  -43557   -51063   -29161     8061    34567    29831    -7199   -56537 
  -93172  -108178  -108014   -97299   -73550   -37127     3975    41066 
   68116    80495    80223    76571    76398    81223    89678    92995 
   76800    37543   -11059   -51059   -69927   -61892   -33006    -1889 
   13168     8487    -4093   -10406    -6488     2841    10734    10625 
     244   -15289   -26034   -22958    -6708    13227    28071    30477 
   17893     -465   -13130   -16401   -11309    -2014     5264     5398 
   -5400   -26601   -50524   -68760   -77847   -77261   -68583   -55609 
  -41258   -26529   -14514   -10211   -15281   -27532   -41579   -50718 
  -52020   -44096   -25857    -3222    14348    22161    18237     2979 
  -14999   -20338    -5293    19349    35003    32897    19322    11115 
   22731    50201    71598    68569    45534    23785    17554    22901 
   27428    23055    11128    -4538   -22370   -37071   -43098   -40586 
  -29142    -7939    18158    41335    55515    60236    61663    63176 
   60562    50783    35977    19542     5805     -700     1131     9349 
   21073    31687    34629    25180     3829   -23788   -46419   -51440 
  -35254    -4932    28689    53380    55663    27565   -23280   -74244 
 -102846   -99464   -66825   -17068    30296    57752    57988    32037 
  -11334   -53807   -77307   -75484   -49761    -6318    39300    71353 
   83828    74519    47390    15664   -13497   -42130   -66367   -74469 
  -58352   -19943    29787    74533    98842    92383    53820    -1274 
  -44982   -58650   -42363    -8484    23249    39205    45123    52095 
   56791    45938    14040   -25865   -48185   -35796     4521    49792 
   78243    75609    39036   -15381   -62067   -84575   -79467   -55045 
  -27055    -5682     8311    14543     9724    -4478   -16889   -15973 
     -96    24264    46322    52079    34526     4640   -15161    -8095 
   26026    70776   101822   101067    68470    21839   -15088   -28587 
  -23473   -14106    -9701   -12198   -19405   -23912   -17442      805 
   24613    45557    55485    49995    30114     -583   -34950   -56856 
  -47428    -4633    50826    94213   110943    93186    41654   -25081 
  -76468   -90844   -67140   -17969    38102    75533    72242    30009 
  -25073   -60619   -58369   -23976    24409    67618    88895    82095 
   53358    14878   -20348   -43551   -49748   -37281   -10880    22923 
   59663    91141   101518    73039     3075   -81066  -134828  -130742 
  -74886     5064    69132    80404    36383   -32429   -90281  -113973 
 -105704   -81090   -46307    -1223    49834    90261   100467    79644 
   40779      -39   -24138   -17925    19383    70742   108267   106132 
   50295   -38673  -105362  -109422   -56419    24490    96259   120577 
   89358    34211    -6510   -19104   -14452    -4382      753   -11158 
  -34907   -51814   -49856   -28637      928    25215    35167    23661 
   -6568   -34411   -37526   -12996    25709    60212    72522    51449 
    5935   -32920   -44573   -41481   -36950   -30488   -34076   -56833 
  -76348   -64971   -20327    41911    99131   122895    97632    44588 
    6244     4388    23628    36827    34972    28454    31212    45857 
   66463    89181   106953   110651   101927    91415    85155    76511 
   58360    38034    24846    13628    -7861   -43876   -87009  -126688 
 -154892  -160361  -132853   -80354   -28479    -1600    -8198   -37507 
  -67844   -82346   -77615   -57526   -25587     7964    19435    -7907 
  -61486  -111619  -134465  -118597   -66861      517    55480    79788 
   68615    28324   -21818   -58615   -66514   -40756     9982    63584 
   95087    94366    71561    42439    17318     3591     5338    21926 
   51406    87555   113883   109318    65794      127   -54934   -71917 
  -41742    26227   104629   155483   155823   111963    48943    -1368 
  -16078     2791    35830    60893    56840    15664   -42298   -84262 
