Origin Time       2011/03/11 14:46:00
Lat.              38.103
Long.             142.860
Depth. (km)       24
Mag.              9.0
Station Code      FKS006
Station Lat.      37.5022
Station Long.     140.7593
Station Height(m) 471
Record Time       2011/03/11 14:46:57
Sampling Freq(Hz) 100Hz
Duration Time(s)  300
Dir.              E-W
Scale Factor      3920(gal)/6182761
Max. Acc. (gal)   525.438
Last Correction   2011/03/11 14:46:42
Memo.             
[...]
  106810   132862   166586   212991   239536   219212   167506   101743 
   35869    -5359   -24141   -58089  -112822  -154052  -173185  -179416 
 -178859  -193819  -224327  -239256  -230695  -202126  -150158   -84921 
  -20954    29858    72772   138052   224814   292568   321308   320683 
  310522   306247   295662   254945   185885   105374    20624   -69907 
 -168175  -267308  -354009  -411821  -423090  -404324  -392829  -370614 
 -298843  -201811  -121139   -48162    48331   169089   280315   356369 
  400128   417144   408933   386155   353069   315199   293827   268166 
  191513    80560   -31722  -148333  -263213  -360088  -432195  -479406 
 -501719  -496358  -467579  -409923  -308844  -189376   -96717   -22648 
   73036   182847   265760   313109   347525   380317   392806   376367 
  355252   331976   284802   209618   118779    32092   -53956  -161635 
 -281469  -390344  -472625  -498375  -447839  -345780  -233770  -135661 
  -69561   -44630   -34626    -9847    26089    61735    90962   111135 
  138345   185207   229289   233386   188724   128278    82157    50009 
   34270    33668    26814     8237   -14688   -35019   -42730   -58898 
 -107671  -159822  -182684  -180388  -162634  -137934  -112606   -76646 
  -26406    17329    35458    25319    -2761   -16850    11085    62334 
  104010   122462    99739    38840   -17937   -48253   -63157   -71987 
  -78481   -71297   -23538    59412   135401   188955   230365   247617 
  231935   197676   151122    95520    39657   -19481   -94214  -177663 
 -234392  -252806  -262596  -263173  -235934  -206611  -176319  -120368 
  -72464   -48719   -14504    43900   129131   227376   303780   343176 
  344155   305530   234897   145187    52417   -20251   -58783   -70889 
  -72963   -88575  -141789  -229695  -321238  -376884  -362564  -273624 
 -152519   -54507    15813    88031   144203   155448   156802   166377 
  145073    97842    80935   116352   172510   197552   162925    89125 
   15436   -44713   -96300  -136584  -172261  -216933  -241460  -199128 
  -99796     6113    89077   151199   196784   214876   199964   168691 
  136913   104943    82355    88600   114101   128890   126346   113087 
   80187    23814   -36370   -90512  -152652  -227278  -307931  -392996 
 -460204  -468851  -399585  -266060  -126921   -46112     -157    58142 
   95724    97515   110034   140056   170021   198842   217357   220025 
  195483   127435    47540     3932    -9130   -18295   -33446   -65720 
 -109411  -145854  -180133  -211381  -218183  -189082  -126137   -44469 
   35713   101593   149685   188564   220798   237475   236127   215734 
  181842   159639   165967   186786   192550   154741    65192   -52611 
 -171137  -271671  -335220  -355061  -329326  -266758  -206907  -172499 
 -156950  -161585  -179095  -200695  -223771  -215331  -151450   -58810 
   28734    95805   145699   193347   247669   306640   351137   356683 
  328409   293889   249167   169065    68667   -15979   -78302  -139510 
 -208851  -262553  -296503  -340158  -394296  -433817  -440168  -386608 
 -254187   -81463    61597   163658   263964   355835   401186   414173 
  433053   460403   482665   492829   473860   399318   272233   135644 
   27130   -55235  -137897  -234359  -336271  -433246  -520463  -596856 
 -655026  -678121  -657975  -589602  -461634  -291570  -140223   -43988 
   36492   143291   250569   325442   379262   425078   458542   483858 
  512035   535875   530520   477235   368870   213480    56477   -49633 
 -106756  -139367  -150041  -160818  -209302  -293620  -383682  -455144 
 -489022  -476236  -441852  -416954  -379471  -286976  -145623    -6967 
   82451   123840   151189   184157   220200   249740   261235   256875 
  263462   288370   301700   297000   279936   224284   127948    29443 
  -35981   -52182   -46776   -57958   -82089  -118462  -170265  -194270 
 -165973  -137074  -151826  -189549  -227102  -268525  -291617  -271140 
 -238446  -218372  -192143  -153660   -99366   -13702    91184   191040 
  281720   362289   424027   457907   465603   456021   420435   347896 
  252299   145107    20714  -120020  -251851  -339100  -380789  -400386 
 -395931  -354482  -281547  -206434  -169685  -179624  -204537  -207132 
 -162726   -65850    62270   179029   251618   279971   283275   271221 
  236652   187815   151499   133110   113643    73205    12702   -51762 
 -120287  -189148  -242333  -282776  -298843  -259883  -175470   -82847 
   -6334    49454    91123   115667   125387   141707   170178   196683 
  204959   172386    94204     7403   -41969   -44534   -28810   -21265 
  -21133   -20936   -26021   -40997   -58072   -63977   -62259   -75674 
 -101044  -111181  -101144   -70535    -6787    81648   162205   209246 
  219322   203876   181840   164741   137588    92991    58037    45456 
   38434    18613   -26488   -90405  -160219  -230433  -281630  -296907 
 -277683  -229726  -167581  -100449   -38094    -7109     8125    49680 
   98815   126356   146979   167806   176873   164039   133878   115673 
  117299   102833    62581    26450     1515   -23068   -47508   -82594 
 -147839  -233413  -312618  -377055  -411525  -385672  -286195  -128546 
   23937    97055   101349   101086   111998   125909   164120   222914 
  250452   229362   186617   133158    83968    60609    50531    35002 
    7254   -38197   -93172  -144029  -173217  -165583  -145675  -143943 
 -150260  -157069  -169992  -177014  -168767  -150814  -126619   -84391 
   -4808    91234   151540   172475   180906   175364   166920   180130 
  194628   173928   112448    28525   -50219   -98316  -106027   -87940 
  -54411     7643    76640    94583    63357    21184   -45589  -122574 
 -127080   -62063   -34361   -80391  -126865  -128580  -117766  -114915 
 -120772  -143480  -153336  -115775   -39468    45755    94855   104130 
  119024   131772   125624   137570   161319   154615   121444    74131 
   11573   -47028   -83441  -108947  -136849  -164966  -183632  -169778 
 -121824   -81606   -71029   -73778   -72812   -63055   -55463   -57175 
  -55630   -36528     7030    68687   126862   162447   168935   147494 
  106870    69270    64108   106027   177577   243497   274019   244119 
  158954    76083    24258   -36694  -104216  -129799  -130776  -139143 
 -141566  -139392  -140552  -137641  -138607  -150839  -169352  -193950 
 -204914  -168834   -91695    -3829    74225   122403   129567   108713 
   88989    89224   104824   128022   144685   129434    74028    -4842 
  -70489   -89330   -72605   -51341   -32118   -20102   -29367   -58735 
  -99329  -147844  -199769  -244537  -264384  -235337  -152329   -63543 
  -16601    18728    70959   101791   112533   151985   209625   251662 
  280265   288627   264856   220866   157707    73352    -4865   -56201 
  -88255  -112407  -138299  -179967  -245677  -325403  -399102  -450275 
 -463386  -424490  -328806  -188352   -38370    90273   198914   285734 
  336752   359928   352894   306130   252664   205492   137178    67803 
   39366    37797    27235     6274   -16857   -63970  -146981  -233222 
 -300768  -349372  -345089  -247407   -83379    60542   140184   193989 
  230656   210924   160995   141900   159378   177022   159750   101586 
   28581   -20700   -42880   -76852  -131150  -182268  -232200  -281267 
 -295646  -263368  -227590  -220466  -216054  -173588   -81549    28108 
   88446    74783    54339    85215   140440   199374   274719   336508 
  358873   361483   348293   309420   241758   140289    20494   -76067 
 -127796  -165218  -219961  -274744  -304894  -307930  -286316  -253088 
 -218916  -163597   -72504    17808    66574    92024   126492   162270 
  185104   185817   150148    97110    74467    85160    82598    51245 
   11131   -34320   -83580  -129723  -170830  -188483  -173426  -163108 
 -191111  -233422  -246389  -210918  -122393      -26    95542   120153 
   97495    65288    31963     8733    15303    47132    84134   129972 
  190610   233371   213150   123132    36004    30807    58878    50132 
   35380    26858     3708   -15126   -21270   -25165   -34279   -61371 
  -99708  -126537  -136358  -134755  -122978  -103664   -73698   -24422 
   28096    57125    64350    64575    69721    86740    98618    77162 
   20107   -36873   -57898   -64898   -95533  -123723  -111950   -71997 
  -32001   -11705    -9445     -626    28287    66427    90102    71135 
    7618   -47158   -39837     1860    13195    -9071   -35114   -61807 
  -82483   -88773   -92944   -91306   -66285   -24350    14168    41381 
   53669    47804    45877    66835    84877    75443    46049     8811 
  -22958   -37266   -42586   -54644   -70592   -87290  -111233  -133486 
 -145983  -149405  -130627   -92282   -57914   -27836    -1058     2979 
   -5245      626     5835    -4217   -10550    -2325    18174    53500 
   91096   100838    75381    33570    -6700   -25684   -17864    -2277 
   13240    26145    21334     -375   -24209   -45466   -63067   -74099 
  -67720   -29800    16292    33972    41524    54296    39908     6847 
   -2542     9464    24184    34335    27152     1403   -16888    -2226 
   37004    67801    74230    64670    42403    10732   -13415   -20667 
  -14813   -13709   -50521  -120879  -169130  -161489  -118425   -92594 
 -108061  -117483   -90754   -50558     2987    69015   124835   168133 
  205163   233266   237634   201925   139301    76886    26288   -11449 
  -48363  -104666  -181927  -252931  -270519  -218832  -157472  -134950 
 -117492   -83980   -62298   -46427   -13639    16828    20413     8986 
   18596    67102   127002   164131   175345   167303   142449   101041 
   36657   -40469   -98234  -128619  -146514  -149786  -134904  -115136 
  -97129   -77804   -60706   -47815   -29120      575    32187    61166 
   88884   100260    87073    80329    96504   106611    97349    78174 
   48854    16663   -10823   -36692   -49381   -41741   -34263   -47428 
  -83144  -123766  -142429  -134306  -119079  -107919   -99892   -87651 
  -45226    33870   101789   122734   117539   110383   106186   109806 
  110132    87702    53648    26751     1691   -27772   -66853  -122241 
 -176459  -207126  -206689  -167473  -107492   -64741   -34600     4783 
   39242    54058    54426    40712    16708    -1294     1544    30513 
   71955   103874   119006   113277    84569    48047    13049   -32313 
  -95679  -162633  -208413  -214861  -174321   -91943     9201    90794 
  131954   159978   196124   211051   192517   157231    97737    24721 
  -28744   -70759  -113566  -148782  -179139  -193551  -182686  -172327 
 -171293  -164278  -145835  -103360   -39404    13413    56923   110395 
  147206   152076   154147   166155   183164   205647   229778   251201 
  258184   229284   159895    71584    -4203   -55182   -94074  -126440 
 -154970  -189330  -217696  -230678  -247259  -274916  -299238  -303641 
 -267801  -177524   -59540    19824    44309    78158   138234   171995 
  179522   191281   196297   188779   182852   174000   156883   141825 
  125660   101521    72979    27716   -45180  -132742  -216522  -274874 
 -287851  -256529  -204949  -166249  -157340  -153177  -110416   -39400 
    8303    26522    38556    49895    71595   111699   158163   203117 
  247009   279429   270189   201939   103677    27393      861    -8984 
  -45815   -86630  -110428  -140034  -170872  -192704  -214533  -222850 
 -200054  -144119   -59791    24218    72054    95242   123183   134087 
  108842    84254    82089    89929   101273    97706    58466     2865 
  -31911   -37497   -28936   -15545    -5524    -8798   -24404   -48931 
  -69708   -63432   -32838    -4180     9820    16541    19973     5143 
  -29603   -60395   -79548   -95977  -117037  -145719  -163935  -150592 
 -104523   -34013    39094    94408   134693   156851   147798   118339 
   87424    50058     3012   -28686   -31418   -26329   -34281   -62287 
 -103713  -136413  -148425  -143507  -123868  -100386   -91970   -91950 
  -71306   -25584    22616    59122    78754    80878    72531    55487 
   37168    38475    62370    90662   111023   114452    94743    65297 
   44417    31976    12814   -23543   -66429   -96804  -106037   -95222 
  -76731   -72086   -85114   -87963   -57664    -4290    46931    80684 
  104768   127497   132845   116172   100922    91542    71881    44354 
    9358   -48746  -117164  -161691  -173152  -157411  -117063   -69225 
  -38278   -24177   -15524   -14100   -18764   -17068    -2894    23299 
   63564   109705   143238   158976   162521   152310   127433   100276 
   78693    50981    12693   -21865   -51196   -85963  -123347  -159616 
 -195735  -223226  -238711  -245392  -235720  -204503  -154690   -83761 
    4305    85965   143845   183561   207330   211449   205352   191447 
  164441   136154   110306    73629    27546   -19829   -61137   -84296 
  -94187  -111745  -142819  -167502  -169408  -161240  -157288  -156633 
 -164598  -179346  -175145  -134376   -71486    -6487    61464   131489 
  186696   216408   224973   223236   210167   165988    82029   -11453 
  -71163  -100698  -133634  -162449  -171539  -184460  -209178  -227510 
 -226429  -176974   -67446    43006    96863   120675   155107   179667 
  184340   196688   216244   225816   217255   183484   122347    47424 
   -5995   -26093   -39070   -48440   -49408   -73708  -141033  -229870 
 -315152  -380519  -415977  -420395  -388301  -310287  -191942   -58290 
   62331   162398   260401   362681   441560   482003   500595   502464 
  479508   439329   397347   363018   335465   289095   183587    26854 
 -109599  -217479  -388833  -620026  -787022  -836076  -770227  -603553 
 -435893  -367764  -377890  -357579  -223992   -37515    70748   111221 
  183266   269267   302768   318106   352272   355604   321111   321317 
  375685   436918   468057   449418   353927   173900   -39997  -229148 
 -355319  -372085  -301109  -246374  -240759  -232247  -214515  -217286 
 -226238  -223104  -221732  -212270  -154813   -35699    88130   116566 
   47934    -4014    -2451     1976    19742    78504   150860   211295 
  245804   232397   177957   120239    86749    87564   116730   151519 
  174114   171983   134737    75650     9363   -70975  -158305  -235915 
 -303315  -346605  -341459  -296167  -240963  -193262  -158118  -142765 
 -148140  -158753  -155943  -121958   -44444    61462   164940   254562 
  335704   409275   465118   480272   438253   363321   297642   234013 
  130747     1921   -98613  -167098  -224433  -264255  -281756  -285973 
 -282986  -277630  -278248  -287506  -280212  -219382  -125751   -60463 
  -18579    40295    98315   132182   152993   166538   181875   204496 
  214366   189441   117670    21853   -27568    -7831    18205    15283 
   -2311   -40751  -101412  -157106  -196430  -221802  -229057  -225547 
 -212348  -170359  -101257   -29881    26311    66890   100162   123397 
  132600   142522   163288   184854   196443   183483   128758    56466 
   22136    28183    26592     7896   -13824   -51490   -97942  -129169 
 -150654  -159667  -139302  -104458   -78347   -52633   -21966    -6099 
   -2062    12181    37037    69062    99100   102207    79494    56768 
   40485    19771    -3872    -8586    14192    36768    36350    23660 
    8890   -16493   -52518   -88805  -120976  -137008  -120710   -81406 
  -44292    -8587    40531    85640   108564   128770   151968   157906 
  157387   168338   167831   137168    83864    13335   -59536  -118215 
 -170277  -217617  -236454  -217664  -196265  -202912  -211869  -193048 
 -154662   -96857   -20759    39094    67028    91826   133794   173160 
  192184   202158   205392   195924   179746   155939   121791    79613 
   27262   -31292   -84243  -122608  -148137  -172889  -196610  -203078 
 -188109  -156899  -110464   -65828   -47420   -53411   -63587   -51284 
     521    65337   101106    99062    69816    29464     6357    16470 
   41225    60356    80413   105335   122246   119548    89137    38299 
   -9840   -45158   -71811   -95880  -123691  -154534  -177174  -182678 
 -176191  -166173  -157640  -143482   -97450   -29755     5825     7512 
   13314    26058    52924   107939   159549   177447   167831   137610 
   95819    67381    72388   103897   123480    98390    38806   -35693 
 -118633  -195405  -250481  -273126  -256898  -210897  -152834   -96015 
  -45254   -11251    -8616   -15920     8997    62144   107005   139966 
  174428   202093   216725   224756   225869   210147   170510   114575 
   58140    10744   -27660   -60000   -87389  -111510  -134776  -158286 
 -181091  -199774  -206994  -194446  -161737  -120715   -89746   -79338 
  -84599   -92648   -87091   -51624     9112    69049   119703   170517 
  213509   229233   207904   163319   132459   129944   130034   110333 
   77515    50837    28780    -5737   -48795   -89870  -129449  -159967 
 -168784  -149681  -112277   -83051   -70921   -62667   -60775   -76711 
 -102513  -122607  -127133  -106490   -57481    11962    88293   148612 
  169602   156054   135506   120433   112821   119445   121557    96128 
   61615    36103    10875   -18298   -49828   -86074  -124837  -159035 
 -179654  -172092  -138171  -113508  -115095  -114835  -107649  -111052 
 -102405   -65347   -20334    27879    78740   121591   160723   192113 
  193158   159047   102792    45313    17105    15888     2390   -28313 
  -45931   -48295   -56888   -79117  -109777  -139719  -156536  -151820 
 -127356   -91052   -44760    15990    87102   152021   192766   202192 
  185659   148125    92287    28829   -31207   -82332  -114750  -116427 
  -88724   -56198   -44351   -44537   -38633   -36030   -42095   -46443 
  -49291   -45680   -22438    16226    56930    89239   103783    98956 
   79120    54654    46568    60282    75595    86226    98899    90395 
   34437   -42919   -93597  -112381  -126111  -137324  -135419  -132029 
 -131381  -120669  -102384   -86411   -74443   -67041   -59365   -42943 
  -18497     8999    36098    63829   101083   139473   150483   130290 
  100093    69023    34899     7792     3811    12205     9596     -253 
  -10865   -41922  -103265  -166376  -192158  -168355  -115000   -66150 
  -45972   -44306   -32826   -11430     8030    30980    52082    64713 
   91268   138240   166418   146017    94485    45499    22589    36389 
   67310    80699    69786    46211    17381   -14538   -53871   -89733 
  -95249   -73059   -50081   -45517   -75878  -127225  -151421  -134464 
 -102219   -82611   -87001   -93394   -84753   -65027   -24532    26857 
   56120    60082    49134    31777    27940    40872    54312    71508 
  105350   146390   175732   180286   149824    94139    41614     3440 
  -28002   -60706  -102582  -154766  -205611  -245894  -277911  -297469 
 -290107  -254538  -203200  -148556  -104306   -71219   -28814    30680 
   91076   140621   181676   220983   257959   291498   330313   369211 
  384379   351057   239930    60099   -94293  -150789  -169757  -222188 
 -269676  -271243  -250182  -227530  -213108  -219390  -232644  -220278 
 -169471   -88805    -1162    63146   101271   133730   167945   199785 
  222774   231626   224016   199883   173406   159093   148907   130700 
   98628    43471   -30650   -97360  -145643  -190249  -230960  -259584 
 -283525  -297613  -287157  -255794  -211949  -157700   -97357   -35176 
   32275   105177   166172   201275   220693   232637   233045   228588 
  220172   196678   169544   157525   152828   132426    83429    14242 
