Origin Time       2011/03/11 14:46:00
Lat.              38.103
Long.             142.860
Depth. (km)       24
Mag.              9.0
Station Code      FKS005
Station Lat.      37.6389
Station Long.     140.9853
Station Height(m) 17
Record Time       2011/03/11 14:46:51
Sampling Freq(Hz) 100Hz
Duration Time(s)  300
Dir.              U-D
Scale Factor      3920(gal)/6182761
Max. Acc. (gal)   264.369
Last Correction   2011/03/11 14:46:36
Memo.             
[...]
  -33504   -53559   -34598   -21705   -25791   -43909   -61826   -40477 
    8680    30462    16407    -5494   -14805    -5206    -1079   -39484 
 -108640  -136890   -84803   -15772    -3622   -37778   -73097   -87720 
  -81363   -62207   -44259   -47867   -61967   -35734    30200    57793 
   15118   -43725   -77381   -81051   -64451   -61730   -83882   -98130 
  -92048   -74776   -39898     2154    16067    -1154   -25756   -46273 
  -42626    -3403    27985     7730   -45275   -90392  -108542   -88794 
  -47137   -31246   -36226    -9785    42025    71887    64900    36125 
    5732   -18693   -30664   -17872      258   -15199   -60763   -81937 
  -43036    23826    75086    77842     1709  -102273  -126248   -51408 
   31901    40214   -15949   -71901   -81924   -38744    11484     4645 
  -56933  -103068   -78132     5690    82699    71415   -38218  -129731 
 -111571   -31233    32655    25104   -65260  -141074  -109540   -19701 
   35224    39541    18458   -15030   -32088    -3756    31036    20847 
  -21423   -67858   -97513   -82694   -35635   -12657   -41974   -99959 
 -147511  -144052   -82702   -19380    -1004   -21105   -52976   -56799 
  -10410    39644    27677   -40063  -102037  -122693  -103016   -53446 
   -9408   -11420   -38047   -30635    11262    21621   -28379   -79292 
  -80979   -39967    29072    65479     6862   -80170  -117258  -111711 
  -51489    26861    16297   -55699   -84430   -69106   -28383    24583 
   15876   -53192   -72707   -18737    30171    22690   -31047   -64734 
  -35620    -7218   -33061   -76224   -95885   -68958    -4376    38426 
   25605   -35399  -109113  -118895   -34589    64611    90441    42607 
  -19259   -41015   -27542   -36562   -74613   -85622   -60274   -38061 
  -39335   -54645   -57540   -41759   -33887   -38799   -41392   -50925 
  -70197   -75037   -55926   -25332       82    -3855   -52513  -122800 
 -150441   -88653     9135    44669     7305   -39988   -63910   -69677 
  -52226   -34015   -57176   -73995   -24396    33965    27217   -38173 
 -105478  -100508    -3575    92769    82681   -19300  -108719  -122018 
  -73041     3125    48603     5797   -68442   -72186   -27347      867 
    2939   -28846   -80859   -96864   -53599    -3878   -16685   -76363 
 -102959   -50048    52338   105429    43586   -68254  -113412   -71955 
  -14813    10563    -9485   -67206   -99605   -66293   -25968   -43789 
  -91913  -100839   -59737   -14180    -3507   -32187   -63015   -54531 
  -17832    16797    25190   -20303   -85824  -106143   -81833   -43821 
  -23236   -38651   -53670   -44892   -45455   -49790   -19526    28917 
   66275    84203    61303     1538   -63815  -113865  -103095   -21559 
   35444    -4593  -100042  -153448  -101458    14310    95024    86665 
    8218   -60417   -59375   -24962   -11332    -7386    -1451   -13837 
  -30480   -37826   -50960   -41907     4110    32078    13170   -25916 
  -66694   -95227   -72649    -4156    27437   -17939   -89744  -136841 
 -132350   -77004   -30583   -30048   -43073   -47903   -25876    33155 
   65615    21328   -55758  -103271  -100244   -75907   -73659   -72343 
  -42052   -20323   -18648   -13347   -13805   -21629   -33014   -43380 
  -26766    -7037   -23185   -34876   -15620     8932    39399    52016 
   14543   -22995   -29675   -30208    -8468    25672    13956   -26758 
  -47302   -49257   -36605   -16252    -6175    -4880   -20616   -70715 
 -132301  -149736   -86833    24301    83694    15555  -129418  -209734 
 -152951   -33463    38103    33193    -8953   -41980   -52409   -57193 
  -73096  -101761  -107391   -39019    58841    62046   -29961   -93499 
  -85494   -20462    92501   145971    48519   -94113  -155028  -142574 
  -83234    11171    94052   117350    58682   -53912  -138498  -135620 
  -72274   -18759      541     3426    -6794   -26959   -40014   -52144 
  -67173   -45685    12930    27954   -37004  -112149  -121911   -70026 
  -21502   -26022   -75062  -133190  -164233  -127647   -17718    87926 
   81856   -38127  -135491  -109782   -26260    14475    -1441   -44279 
  -78780   -85825   -82505   -90239   -97040   -67510    -5778    48238 
   83466    70913   -15434   -79821   -49601    -8366     3071    16554 
  -17051   -98356  -117913   -58320    19608    69361    10524  -125550 
 -145089   -10298   129236   181982   113542   -44170  -165299  -189135 
 -138058   -49323    -1940   -23425   -47251   -52264   -67804   -82317 
  -52156    28594    88549    63321   -21018   -97246  -118208   -72790 
  -16642   -34778   -99441  -121021  -112561  -107724   -86003   -43124 
    2659    36954    55757    42143   -12832   -50303   -28541    -5118 
  -20428   -44429   -69024   -84822   -66319   -54147   -77242   -76744 
  -40397   -33984   -49828   -38788   -19969     4085    40435    39390 
   -7602   -57092   -83458   -73316   -40607   -48350  -125684  -187557 
 -156901   -75442    -6268    32440    39176    21034    -6847   -16297 
   20466    70891    67845    26006    -2437   -32887   -56720   -25391 
   13040     1967   -36829  -114284  -191015  -160538   -65090      646 
   39037    30599   -43411  -125958  -160716  -109595    21359   123987 
  112109    27547   -48275   -56346      970    47860    37440   -27513 
 -120391  -164320  -112312    -9689    80011   104494    39119   -46971 
  -63845   -33388   -14351     2288    25397    24069    -4790   -21061 
  -22832   -58126  -107221   -94191   -46197   -40729   -51824   -51994 
  -67642   -60926   -15638   -10751   -64608  -116728  -135044  -102713 
  -31029      400   -26733   -25186    10641     8686   -19182   -37327 
  -50352   -25745    52394    98026    48013   -24638   -35448   -13526 
  -16721   -35807   -39507   -18858    27915    74199    60623   -20416 
  -92822  -103526   -82179   -51309    -8630     -818   -64656  -141499 
 -129034   -15967    63471    10829  -114955  -236117  -280338  -156670 
   76897   218038   155659   -35630  -173312  -129759    10077    69459 
   19378   -77427  -153653  -121106    -9483    62557    73412    26155 
  -68393  -112883   -52911    61016   141606   117266    24617   -30840 
  -16533    21417      -92  -106468  -183682  -152918   -57651    64868 
  111581   -35415  -235185  -257899   -98176    81090    99798   -52805 
 -186056  -181288   -79175    28066    45383   -39809  -158307  -227502 
 -160237    23091   144581    93850   -37896  -112684   -82568    19332 
   98879    49236  -104144  -188464  -126923   -28869     8687   -31409 
 -140276  -231459  -196830   -74408    10500    22993    -4454   -43873 
  -43914     5351    21557   -32663   -99229  -115944   -50845    52710 
   91771    38508   -42644   -72013   -25926    35710    69728    79232 
   41001   -41030   -89081   -53914    25945    76503    41137   -69380 
 -164723  -168337   -97534   -16554    21173   -19571  -100133  -127564 
  -75477     9960    53842     6911   -76707  -100668   -36224    78183 
  146904    69771   -89029  -160906  -116210   -10850    94965    82223 
  -55886  -150807  -121225   -41296   -14897   -94648  -170885   -90685 
   84718   187067   125578   -80248  -239434  -167477    23505    88303 
   10951   -60070   -77828   -53577    20853    65947    -2881   -81286 
  -23638    91227    89611   -22999  -120513  -138711   -74764    28977 
   50557   -73769  -214268  -211681   -63973    92879   111501     1558 
  -86250   -81576   -39680   -20584   -49946  -106058  -133198  -105216 
  -41334   -10190   -71721  -152305  -125584     2502   126610   155140 
   58051   -81053  -120841   -37246    65567   109094    86928    29391 
   -9083   -27213  -100003  -215693  -252279  -183128   -72222    67402 
  177751   133246   -35808  -154811  -148727   -78181   -24941   -34762 
  -81651   -85655   -12425    75967    95379    31041   -71642  -135403 
  -92869    16233    93130    89797     6556   -79516   -75285    -7243 
   53874    67926   -13018  -157763  -241268  -209823   -95907    43842 
   99205    -5909  -172705  -206529   -49164   138576   182066    92496 
  -38094  -168656  -211017   -78175    98799   108122   -53326  -223330 
 -269784  -171228    12681   181822   233439   159322    38172   -63074 
  -78680    -3515    61674    60951     3736   -88697  -135898  -102310 
  -76117   -86592   -56337    13930    70455   107439    84194   -12638 
  -95858   -99734   -45567   -19419   -44851   -77276  -141097  -197136 
 -112453    63451   126535     7438  -176547  -261263  -168652    17989 
  142083   115850   -41565  -193675  -193077   -72470    23346    46022 
   17763   -53052  -108175   -81651   -16059    31380    71648    87155 
   51157     9649    -2291    -4084   -14507   -48715  -105836  -148718 
 -135891   -69758    -9874   -11180   -47898   -37861    26623    56328 
    7108   -78944  -133819  -102452    -1518    53074   -17402  -123060 
 -171842  -169469  -102875   -14458    -8325   -60735   -61622    -9348 
   24450    54128   106493   135429   114085    56249     4112      629 
   19655    -3314   -89688  -180205  -189839   -97652    38461   107241 
   55637   -28104   -62565   -62036   -44060   -31369   -53266   -81751 
  -88474  -101067  -134300  -173417  -220449  -237027  -153410   -17080 
   39819   -30063  -146587  -179723   -71528    91191   178133   182218 
  137323    20971  -107649  -157420  -132427   -63645   -10840   -17048 
  -10877    47878    86145    81612    83881    97385    61243   -66041 
 -182436  -167405   -68150    31092    58112   -39156  -139104  -118944 
  -53792     3371    81183    72785   -87978  -194244  -104203    49806 
   97198   -19395  -192729  -252610  -174833   -50746    29438    20995 
   -9889    31968    82125    43124   -24632   -77957  -133847  -103289 
   45325   147768   103665    11068   -37004   -48693   -43475   -37705 
  -30317    21853    90983    83929    14735   -17308    23023    60432 
   20483   -55436  -120098  -151573   -80761    50958    91974    15230 
  -92016  -153468  -120346   -23750    17322   -36922   -87303   -62654 
  -25275   -75629  -179549  -200858  -132257   -72156   -36948   -52537 
 -150739  -162639    27901   205623   170297      704  -141982  -168843 
  -72466    74254   177474   149270   -21886  -149311   -95947   -13057 
  -28504   -62662   -50936   -15892    12997     9882   -35862   -88309 
  -85458   -16504    42209    16445   -63808   -96619   -32674    65768 
  104304    25624  -154402  -288895  -233078   -14676   222754   273266 
   36400  -237077  -234400     2167   236182   298138   126439  -163273 
 -331416  -234360    43488   231339   173575    23897   -50041   -55279 
  -48433   -91119  -144947   -81997    52102   109068    76159     -234 
  -90771  -141568  -109826   -31002     9958     4113       55   -13739 
  -58053  -116487  -144095   -91051   -30613   -48424   -89269  -135533 
 -164100   -59974   123071   181937    51332  -119934  -157644   -90760 
  -11971    72458   108250    70461     7430  -103281  -218326  -198786 
  -67114    33648    78091   115563    85154   -71836  -219346  -217366 
 -111601    15741   112929    86929   -70224  -209236  -194336     2740 
  248767   282491    33649  -258347  -357998  -252957   -52397   124681 
  162239    59293   -32850   -18028    45528    54476    -4741   -42380 
  -33393   -27323   -32578   -55405   -74820   -57543   -54641   -91577 
 -121039  -145439  -168846  -100580    57035   107336   -10905  -124661 
 -144771  -116528   -67908   -11736    35175    44914    -9956   -80835 
  -94813   -57819     3554    56088    51709    19658   -16667   -90962 
 -130940   -38503   113319   168813    81965   -51706  -133971  -136156 
  -47188    86225   135955    40805  -108656  -172520   -94140    70613 
  214204   203544   -19902  -281818  -346849  -195362    18217   116188 
   48322   -66415  -145205  -179495  -114008    22584    85685    62047 
   39243   -21735  -142243  -191795  -124050   -22940    40423    21700 
  -70800  -179227  -220646  -140165   -23018    27808    35666     5582 
  -57836   -66979   -46000   -55703   -39553   -21135   -49299   -58177 
  -33831    -3384    65307   138707   117816    22538   -57724  -107851 
 -113470   -62154   -13223    -3039   -29433   -86274  -129957  -138875 
 -123279   -82833   -38892    -6775    23184    38296     2076   -87643 
 -164288  -159595   -91755   -69208  -156829  -228765  -138715    14174 
   85810   101047    62123   -14448   -13713    30093     1543   -69776 
 -114670  -101177   -18187    82481    95209   -39253  -204216  -206224 
  -46709    99489   102353   -17284  -106421   -82448   -24180    27742 
   62196     5753   -88188   -74968    11663    33217   -18808   -48977 
  -23533    11274    34116    59149    57240   -12747   -79040   -35729 
   23631   -27069   -74108   -62113  -109543  -189083  -192607   -78276 
  117464   234212   188693    54343   -71234   -82403     9966    70005 
   38968   -38355   -48952    63363   141598    38182  -138094  -198311 
 -125075   -14497    80785    87588   -56199  -219871  -221337   -85491 
    7012   -14877   -49869   -69580  -133505  -187829  -160923   -91590 
   -6436    96054   129252    31294  -106947  -191018  -206787  -144928 
   -7186   126490   128641    -1565  -121159  -131794   -33513    81634 
   78467    -7725    -3976    81101    89651    16693   -36412   -80855 
 -164784  -223652  -209207  -197752  -193944   -90228    68547   108874 
   40065   -16780   -98724  -212178  -207911   -93565    -3049    60516 
   82402   -10151  -115964   -92912   -14866    18581    20194   -28736 
 -119308  -175961  -184261  -130369    -7029    83150    65488   -28712 
 -124746  -126146   -17880   140029   306323   384173   274747    50240 
 -136350  -220031  -195390   -95626   -18137     5893    34511    36211 
  -27357   -59328   -37481   -36507   -13177    55491   103002   129552 
  104828    -1167   -93706  -140080  -162983  -105642     9888    86406 
  129444   142263    57920   -65231   -89215   -44590   -19610     6886 
     680  -101774  -193851  -163942   -58939    35115    72242    63307 
   26688   -48281  -120965  -160054  -168817   -91947    22933    26171 
  -53392  -136213  -242515  -289064  -200785   -98083   -60917   -41886 
  -19188    23287    90949    99814     5593   -90204   -99136   -49248 
    7366    45947    28631   -53859  -130795  -156209  -144523  -118778 
 -101720   -61164    26984   105307   134699   108812    17062  -112025 
 -171053   -80435    58349   117757    83289   -41859  -165562  -156912 
  -68675   -16199   -12164   -30764   -57077   -87765   -99302   -51529 
   21137    40620    -6617   -91198  -141881  -101348   -66275  -107082 
 -111479   -31698    44616    72674    44954   -35135   -93435   -78155 
  -22762    43791    68647     9317   -69039  -111881   -97909   -14696 
   54872    50472     1092   -68629   -71211    42943    99228    -5192 
 -119978  -159116  -150314   -96817   -47914   -18929    47073    96662 
   52862   -37200  -118277  -154058  -107369    -9394    62984    56799 
   -2382   -60206  -106938  -101963   -15149    67216    42637   -54792 
  -50771    96174   164853    45549  -115741  -199383  -168711   -47301 
   34674    19519   -16245   -57080  -116309  -130254   -77559   -21173 
  -17406   -54913   -50820    14316    46407    33107    47712    49977 
    -226   -19734    -4279   -16292   -38537   -54965   -65496   -56222 
  -35414   -24205   -43799   -80469   -82083   -36627    24146    72484 
   72413     6732   -89231  -167110  -172509   -86896     5966    13156 
  -54514  -118182  -136065  -110324   -20021    92386   114599    45759 
  -56619  -157949  -189001  -146280   -89340   -18875    32585   -21914 
 -142234  -176010   -81348    57566   174502   219361   150636    33962 
  -16615    -4131     5394    -1348   -12009   -33525   -86936  -136435 
 -124098   -85646   -60508   -35152   -41057   -91907  -112585   -82585 
  -77300   -91436   -52386    -2955   -12514   -29511   -31951   -79048 
 -112259   -47136    25020    51863    91859    79757    -6183   -19869 
   33324    41798    16270   -30019   -99583  -155906  -168014  -118402 
  -52847   -13005    22163     9430   -81607  -157292  -163461  -128234 
  -41901    77491   103491   -23825  -179320  -243153  -200808   -68118 
   48594    34770   -27869    -4292    74961    78051   -37589  -174768 
 -223959  -131341    66227   216561   214069    79190  -141423  -313818 
 -251399   -16509   154264   180353    86554   -90232  -251049  -300611 
 -211413   -41260   100687   158739   134114    27826  -103402  -159174 
 -126973   -50413    42958   110341    99474    10777   -64708   -57469 
    8029    85305   104025    13489  -113485  -157572  -112006   -46870 
    8566    23394   -12302   -16220    28929    58532    81999    56081 
  -87665  -203723  -179144  -108162   -36971     9041   -29502   -85867 
  -74426   -43812   -43024   -32315    -7412   -16307   -60685  -110154 
 -127359  -101566   -66250   -21588    28747    41104    21185    -1440 
   -6672    10869    -5273   -59826   -67480   -15418    41990    86866 
  105626    47674   -71810  -141867  -154394  -193285  -215739  -148255 
  -54081   -14027   -15570   -34105   -68664   -64034    17323   106247 
  120137    22048  -108827  -114416   -35822   -44751  -121069  -143952 
  -93505    -8985    57883    55932   -19649  -100762   -94640   -15181 
    7578   -82728  -183618  -163755    -5456   158200   150408   -47065 
 -252690  -297077  -157835    89612   277518   222406   -18858  -157070 
  -81691    41679    89374    31174  -107116  -200441  -199290  -157316 
  -97504   -33576    31236    68241    32770    -8103    -8367   -29779 
  -44951   -23460   -56110  -102926   -49021    -4399   -75496  -141012 
 -111354   -44989     -542    -9214   -99186  -226505  -261629  -142604 
    1076    36135    17708   -10984   -81925   -98721      111    76782 
   42251   -67529  -189155  -208159   -93895    35004   108710    93712 
  -32931  -148591  -163791  -132798   -52897    41022    19355  -105410 
 -235303  -269405  -104610   138394   225543   112452   -89937  -191306 
  -93844    59804   122018   114567    74163   -21063  -126295  -152406 
  -81594    49780   153606   144937    30694  -116449  -166899   -68601 
   61681   155256   189795    83179  -121682  -274546  -297802  -189350 
  -29046    72517    61858   -58303  -203203  -253208  -175419   -27654 
   94955   119326    44725   -83437  -174986  -152617   -67354     3157 
   34248    25058    19214     7124   -23691     2201    46548    22828 
    6513    50223    83245    92296   115789   124065    80012    -3038 
  -92601  -131101   -80471    25372   138386   212057   183803    44878 
 -110126  -137683   -32320    20686   -46647  -116255  -148095  -143642 
  -80428   -26337   -52305  -114909  -137683  -122115  -115207  -105929 
  -56426     -913    -4656   -34279   -37948   -85448  -168746  -161258 
 -107292  -109406  -102601   -28063    45969    61844    58704    58275 
   30441     8776    19273   -15275   -98956  -112988   -56000   -21854 
  -16321   -62183  -185259  -225291   -71675    82898    82722    -2333 
 -115145  -168405   -46149   128548   140497    -5303  -174453  -291463 
 -328014  -233231    -9793   173296   176370    79315   -34920  -135714 
 -104584    53118   124173    31525   -78024  -117884   -98181    -7836 
   59305   -22199  -180427  -296860  -314701  -200458   -34810    69021 
   78160     9991   -45498   -24299   -18510  -100744  -168792  -129316 
   -1975   155779   206148    47281  -175649  -231762   -67320   166099 
