Origin Time       2011/03/11 14:46:00
Lat.              38.103
Long.             142.860
Depth. (km)       24
Mag.              9.0
Station Code      FKS009
Station Lat.      37.2796
Station Long.     140.6344
Station Height(m) 430
Record Time       2011/03/11 14:47:00
Sampling Freq(Hz) 100Hz
Duration Time(s)  300
Dir.              N-S
Scale Factor      3920(gal)/6182761
Max. Acc. (gal)   491.882
Last Correction   2011/03/11 14:46:45
Memo.             
[...]
  -11145    47244    68777    81263    58121   -20923   -74718   -68405 
  -70310  -113134  -170684  -191608  -136879   -53600    18421   100735 
  156521   178777   260995   372170   397096   350310   231059     5506 
 -192975  -254619  -294050  -363803  -333055  -207758  -142695  -127083 
  -25743   114543   152622   133430   123329    70701   -19798   -60474 
  -29562   -71505  -237155  -329370  -299419  -251238  -140691    46342 
  186942   209428   168662   115800     3133  -144936  -208763  -191862 
 -168523  -126573   -57187   -22843   -58539  -133350  -186005  -167206 
  -92335   -13614    21567   -28570  -118210  -132614   -70650   -12352 
   34137    86196   133709   181240   234274   241727   104738  -143547 
 -260721  -140840    28494   121959   157458   113991    28751   -11611 
  -54978  -149993  -203696  -186008  -143887   -50486    60845   130232 
  203632   251396   174827     5979  -120486  -134325  -145478  -253807 
 -321570  -216239   -26717   127042   199964   130871   -44777   -90020 
   48210   105890    32040     4097   -16092  -102160  -116790   -28668 
  -17660   -82653   -25580    85625    43264   -21147    55720   110244 
   23250   -97148  -122697   -33854    12874   -80603  -155584  -125768 
  -78964   -34712    -2089     2476    22798    31198     3447     5558 
   38184    54369    67878   108938   124700    58924   -16301   -71821 
 -154105  -212891  -248810  -316149  -325750  -239350  -157187   -79285 
   44835   147533   163478   134992    79595   -15651   -52078    32428 
  126977   151027   129772    79248     1676   -76848  -136122  -172491 
 -144660   -60320   -47773  -111887   -80783    58482   148128   160290 
  158665    96896   -60006  -164562  -142972  -183963  -344082  -408461 
 -292739  -135415   -56339    -7286    89119   116813     5548   -70833 
  -26151    43528    80219    57943   -11293   -27021    17295   -10003 
 -127539  -184583  -120967   -89276  -172449  -213150  -126049   -44106 
  -42185   -53560   -64164  -111227  -122186   -52282   -34060  -102492 
 -120346   -77135   -63412   -63167   -34726   -13117    -7988    25542 
   75298    92693    70307    13683   -28298    20972    95684    64503 
  -41291  -130654  -169354  -131910   -60586     2414   100355   187901 
  167114    96634    61369    38999    31656    57007    73536    81952 
  111715   123786    95824    70885    75592   105649   138520   111586 
   -6123  -111084  -106517   -51008   -32083   -89782  -206423  -280429 
 -207735     8230   171852   146109   124739   219888   266635   247281 
  234980   142743   -51252  -231341  -336613  -330959  -204823  -113694 
 -144967  -122650    -8483    18548   -32644   -90818  -175523  -168520 
  -27032    40599   -40305  -128170  -177309  -242899  -256381  -118858 
   72375   162967   148969    84800   -14856  -102400  -120404   -93682 
  -86440  -142023  -228692  -236060   -92801   136746   281330   286090 
  242221   145189     6371   -72797  -129430  -213346  -255564  -222246 
  -96587   115673   288620   336907   333974   319745   225336    41654 
 -133015  -244977  -331986  -372288  -325169  -252503  -167629    -9595 
  196423   326870   287341   158553    83433    50244   -14926   -59584 
  -11196    27604   -22584   -44963    20428   100591   135959    80765 
  -65615  -190295  -191350  -129051   -95196   -69066   -19103    31899 
   51948    73635   146390   165977    42809   -82428   -95991   -88098 
 -126646  -123002    -7053   161403   299121   366153   380308   363148 
  265033   122664    74435    85375    16014  -127531  -267534  -351553 
 -348862  -281353  -182949   -98664   -97097  -143443  -131573   -62050 
   12457    84313   127500   111225    32846  -103537  -207339  -178692 
 -101161   -71608   -41486   -15938   -64957  -145354  -156641   -83652 
    1793    78919   166112   165162    50097   -17443   -21007   -89224 
 -198054  -197110   -44784    48648   -44230   -82956    38441   118794 
  124565   119524    68289    43150    92638    72649   -55773  -171969 
 -231960  -275548  -331198  -355158  -301451  -231867  -184191   -77075 
  108583   245783   281225   292189   278053   203672   124299    78875 
    2387  -175200  -337375  -325654  -227661  -147665   -37957    67166 
   98142   123983   202931   223147    99187   -41299   -68756   -28702 
    -591    33364    83339    94971    90660   122649   159341   177142 
  152870    41665   -96527  -161947  -149777   -55684    78148    63513 
  -81063   -79135    68358   123914    48882   -34713   -95077  -200268 
 -318969  -328578  -194476   -31403     3999   -20716    84182   239467 
  235046    65152  -126336  -222736  -176554    11333   195199   184758 
  104940   184067   324303   312361   127060   -57743  -111511  -144658 
 -210444  -195124  -165027  -232602  -301602  -323386  -355000  -369179 
 -336867  -258873   -97224    97320   217252   274555   308514   306498 
  255346   155818    80083    77248    47090   -37886   -58294   -71862 
 -250597  -479094  -496556  -312579  -131668   -14961   153949   373651 
  470613   462023   476255   392122   168563    55990    74738   -33379 
 -243559  -343011  -367517  -394985  -354942  -222943   -88250   -40034 
   -8874   107478   224628   262002   236992   118917   -62136  -157366 
  -73006   118179   209443   116648   -23098  -144420  -269995  -338985 
 -340596  -314940  -248574  -178216  -138317   -59616    45027    50526 
   22657   146023   341296   414839   332993    99266  -188465  -302350 
 -254091  -272007  -374350  -375217  -158674   149597   302102   294966 
  215704    40895   -41504    94167   164401    48476   -37929   -29883 
  -42664   -85571   -91997  -111669  -193732  -231408  -168618  -107549 
 -118386  -150271  -146813  -117566   -26133   120272   156284   100601 
  129796   189481   179603   127388    45601   -58757  -172636  -274216 
 -343452  -374317  -272581   -19551   140152    99511    56759    57300 
   54885   132534   167335    27651   -71762   -48313   -64496   -52552 
   98914   210798   171630    65763   -85499  -197568  -154370   -80119 
  -83107   -33954    88922   108994    15391   -49412   -77026   -80361 
   12308    95363    -6909  -150853  -122656      640    76048    83722 
   81802   142207   220001   210652    99257   -45136  -117311  -106198 
  -77431   -33609   -35602  -140674  -230822  -280321  -360958  -343686 
 -132282   112588   227790   196459    44842  -171552  -247015   -65175 
   99567    32855  -109728  -189933  -229568  -243995  -194667  -113670 
  -98899   -88051    36172   184491   200927   146203   125098    16710 
 -144332   -95340    68449    75009    14918    55947    95671    40524 
   -1278    15076   -15455  -113426  -203137  -262019  -270109  -170723 
   -7625   107363   168142   214028   223747   181384   116089    54558 
  -28404  -144800  -225183  -237028  -181014   -45146    68357    75407 
   75236   144339   195514   146886    59336     2688   -45580   -81874 
  -74765   -79191  -116037   -70617    63549   104060   -21364  -170478 
 -223314  -243335  -306109  -316853  -156933   128892   327003   299805 
  201764   150116    61410   -53688  -133235  -153697  -142520  -238058 
 -401577  -378561   -89922   256460   408426   403278   428956   409055 
  180278  -152687  -350081  -389888  -391605  -290544  -102883   -33825 
  -32578    35663   112690   204952   314160   269678    43195  -134654 
 -147995  -114221   -82561   -32708   -64120  -166299  -186645  -164069 
 -171755  -120024   -17080    41250    78804   124052   121240    45015 
  -57030  -123601   -88500    79033   237021   222078   126118   112450 
  164348   150644   -15358  -213470  -269669  -264897  -300645  -260526 
 -144828  -150863  -270056  -294531  -188436   -30214   162232   329842 
  405728   344201   145194   -11708   -13655    35325    41481   -43195 
 -147226  -148998  -126404  -149782  -171836  -183443  -141947   -19331 
  127673   264070   336376   308789   227441    66642  -148806  -225227 
 -113733    64181   189301   132093   -79399  -254926  -317869  -285003 
 -154955    12248   115417   130801   100468    45707   -35454   -89469 
  -57594    18757    80080    87712    14470   -87447  -134186   -62192 
   81097    94307   -43489  -108513   -81904  -114034  -128402   -47263 
  -35599  -132091  -196460  -218946  -231823  -153210    49239   217426 
  190960    47650   -21047    30253    92324    72218    24085    -1654 
  -85698  -187189  -176485  -115981   -69267    16798    86588    66404 
   34264    49838    52563   -17335  -126917  -193846  -202254  -173159 
  -64122   113856   191702    68423   -62852      540    88207     8389 
  -73022   -86492  -167430  -190866   -54638    28287    11312    66950 
  167048   152725    23172   -97252  -130708  -126543  -126918   -39383 
  109944   127588     2293  -124753  -199896  -207124  -129605   -43432 
   -8255    34533    79911    96062   127350   108781     -105   -80137 
 -109913  -106314   -19266    89140   112190    45871   -32812   -43529 
  -21016   -19800   -11170   -66215  -251396  -399839  -363982  -173530 
   68528   183388   116761    31096     3548    30860   114746   143718 
  104332   120199   145570    89198    -2736  -106350  -222484  -283033 
 -249877  -164138   -53207    83377   186183   206386   230531   282583 
  265706   238341   215229     7740  -280759  -374734  -328819  -207498 
  -14101    49176    -4831    53960   173788   172446    60666    -1622 
   28918     5329   -79744   -89099   -41046   -44232  -138330  -263729 
 -311870  -251364  -112548    45535   126211   125238   124615   148214 
  184511   206674   192245   152825    52988   -84333  -126997  -108181 
 -179564  -292947  -315308  -242491   -98014    49925    75284    10155 
  -33186   -31933    39266   137684   151834   128343   158901   203015 
  186435    73802   -83390  -191492  -252883  -308619  -362185  -385673 
 -291734   -83363    66414   105484   179798   305498   340941   272066 
  184889   119336    65652   -32822  -173766  -317511  -468551  -533766 
 -416790  -215590   -47101   108259   257152   301355   230587   165364 
  140683   117157    86340    41308   -16446   -54311   -53951   -82325 
 -173426  -188148   -37718   117162   108611    38454    40436     4050 
  -93604   -98655   -46014     5094   100946   141490    76889    30713 
  -23123  -168331  -236784   -77147   148364   215150    88530   -63538 
  -93530  -121465  -226080  -230402  -106630   -40425   -81831  -108787 
  -48993    -7853   -46940   -38447    27294    17593   -68907  -159963 
 -213725  -211246  -197523  -209986  -189233   -89633    52056   193759 
  276302   255338   199290   204793   261555   236328    75200   -24779 
   51534   101187    10749   -60568   -15618    77413   124627    76528 
  -30552  -117339  -148128  -156158  -191387  -269288  -400584  -555497 
 -650176  -609102  -369941    -9221   238180   281240   245626   244799 
  272501   202350   -45512  -295249  -359717  -296377  -197271   -80714 
   23594   116307   192008   189743   134446   149899   265176   369868 
  393984   382981   346169   217044   -22256  -278558  -437414  -470622 
 -352685  -128404    11211    64086   196272   353012   364409   251864 
  145716    28179  -170101  -341405  -399423  -439534  -470015  -366590 
 -121373   130956   237074   177807    69901   -63321  -227070  -263239 
  -99131   109780   250525   348827   391244   218394  -211909  -595614 
 -733424  -775896  -760410  -599453  -351198   -45186   276635   435711 
  394470   330782   355301   367564   316457   356826   490588   489120 
  260551   -24717  -142723  -103782    -3379   177621   328182   360596 
  382899   390090   337375   281419   236419   180056   101116    -7070 
 -158952  -333193  -444588  -492542  -554425  -609727  -598420  -502758 
 -316996   -92362    84278   164601   137629    63000    63193   176359 
  316977   427291   520352   576591   485654   161414  -202867  -341344 
 -359250  -360541  -183991    63639   158764   221769   285725   141097 
 -162779  -359541  -335250  -114669   163335   226408   -12453  -279126 
 -367797  -383269  -385180  -314825  -189548    -7550   188375   244708 
  170691    99697    35867   -55209  -109574   -86638   -68620  -110376 
 -172215  -239050  -292044  -251355   -86563   100286   201530   252372 
  301989   308390   276176   263309   265185   205105    28297  -180336 
 -291429  -259066   -31138   254256   209285   -94022  -193973  -121185 
  -98257   -23369   110340   164925   140954    64865   -47048  -118317 
 -109282   -85220  -129599  -221359  -286718  -320479  -347769  -387103 
 -425292  -347881   -98969   155915   284771   347202   345848   247064 
  157889   151670   183944   182691    99387    -6107   -76134  -182714 
 -322423  -377963  -374122  -400217  -390385  -243489   -11690   177700 
  341860   509505   493225   220442   -69941  -184680   -97540   108501 
  175611   -26138  -242878  -314848  -357076  -316749  -112731   110606 
  265427   309217   185425    57272   103049   193881   153225    38253 
  -55005  -145815  -222789  -218707  -162215  -163249  -225587  -220571 
  -78486   123034   289804   390747   397284   313776   199579    65058 
  -94155  -212817  -254418  -233681  -117973    51519    80479  -105893 
 -324387  -387619  -340622  -316094  -300940  -246794  -177312  -104885 
  -31107    56730   190889   375472   552906   541941   253998    -3061 
   12481    56939    17130    76240   131230    21911  -133049  -268765 
 -418955  -538245  -564239  -480994  -317815  -157968   -78452   -77887 
 -125059  -153452  -100808   -41853   -16842    57612   169301   282005 
  457902   677142   759098   544877   147229  -120389  -186978  -211582 
 -133650    83525   142210   -26894  -177626  -301878  -471572  -547868 
 -430065  -179988    70595   212807   259965   215067    18966  -198244 
 -273187  -292018  -299692  -192687   -19686   105854   193159   228090 
  187808   194092   303129   296900    53230  -169725  -174867   -54509 
  152113   367951   325795    13820  -255907  -308657  -241531  -150358 
  -30244     9586   -89300  -124413    19591   198558   272401   258499 
  184641    40021  -108358  -193331  -184052   -50442   122146   178395 
  106572    -2005  -124149  -241156  -294510  -271363  -170960   -16106 
   83114    44268   -80482  -166937  -126280    24870   197388   315438 
  319555   163039   -99262  -319992  -450095  -481923  -301990    25027 
  247172   334710   334942   181737    35591   112120   220148   164057 
   66128   -31450  -175130  -276577  -287852  -241911  -155879  -112414 
 -176758  -232030  -149499    10145   126076   184612   235321   285480 
  310952   308662   254993   123412   -30916  -142468  -222137  -269009 
 -225518   -85502    64430   135517   151492   180797   152051     8589 
 -105969  -105048   -88268  -101054   -99799  -109479  -160901  -219274 
 -245279  -169125    42555   269650   377619   295442    27503  -188923 
 -188434  -161568  -178652  -156570  -162017  -146400   -41887    10734 
  -10458     3504    15083   -46953  -113770  -129086  -144551  -140614 
  -63745   -12098   -58687  -120217  -166386  -213894  -212005  -166299 
 -118114   -45481    50759   133218   205840   300453   368189   286209 
   91372    10961   110939   199178   150029     -342  -166313  -243502 
 -236365  -228209  -243386  -299601  -330249  -225446   -90717   -77688 
  -92903    16916   215185   401854   568036   659313   554991   298948 
   72778   -52833  -173096  -353918  -453802  -294142    25844   176009 
   39837  -139539  -199727  -203080  -185327  -139756   -59971    69391 
  235336   371396   355035   135680  -139546  -314521  -408817  -398908 
 -210339   -22540   -38919  -161369  -229484  -219752  -158185   -76762 
   -3845    36143    10723   -37989   -12357    97924   226634   317565 
  387020   467639   456457   247367   -40714  -236542  -385187  -555838 
 -631011  -584695  -502244  -355768  -185209   -70111    69544   266717 
  391713   349320   224614   184916   224529   205082   148051   137706 
  114588    35445   -45084   -92970  -134950  -206054  -300658  -403164 
 -477508  -420072  -197899    21852   118564   202585   327009   409614 
  455321   466407   373683   199455    49928   -50581  -164005  -241063 
 -176453   -38493    36833    -2112  -113010  -174150  -165500  -197682 
 -271044  -294895  -236217   -79244   117412   228218   276056   318804 
  237959     8554  -131707   -76890   -12970   -22133   -15630   -15862 
  -52921   -46385     8463    24670   -40181  -142561  -192935  -112978 
  101910   294796   298688   189402   120966    86849     1796  -138851 
 -253666  -318982  -336062  -245566  -107144   -82032  -145998  -129049 
   -5152   112280   170433   188917   212095   283638   314649   148311 
  -97900  -157005   -95825  -101537  -131515  -182671  -288762  -334886 
 -268348  -157267   -66713    -8291    40203    41708   -16192   -52011 
  -29081    55317   204591   326797   306224   109432  -177368  -369694 
 -436198  -412812  -177278   134485   255813   304180   292483    84596 
  -71936   -18671    37947    53963    81298    16928   -94401  -129207 
 -157591  -194110  -181422  -175138  -166307   -59997   141777   337163 
  441633   430227   284692    69613   -69768  -146111  -244587  -270629 
 -181026  -126548  -130233   -66092    67456   130716    53536   -29982 
  -11492   -11465  -113033  -204962  -199093  -118310   -18378    62238 
   92375    11471  -155465  -260397  -220656   -85945    -9308  -103228 
 -238321  -257652  -170924    12065   227898   368964   453853   451520 
  278012    20376  -163617  -249956  -306806  -258360   -19645   218077 
  272392   146156   -93031  -242312  -191872   -90107     1300    97674 
  142562   167940   172273    61627  -106097  -220036  -276052  -234794 
  -60107   113096   159085   163610   233411   308646   281980   131694 
  -69171  -218507  -320375  -399557  -341092  -107448   130548   235179 
  195540    56723   -28081    84854   267545   334932   285333   131832 
  -32463   -75689   -92720  -169563  -212123  -154572   -14372   110829 
  143575   140871    97446   -25108  -106854  -121026  -184626  -279809 
 -323387  -278604  -149708   -32332    51526   201589   344162   275407 
   39379   -87039   -38483   -20564   -82164  -160275  -298492  -413418 
 -358453  -213642  -160574  -221523  -238565  -140838   -53613   -44676 
  -71784  -134910  -200954  -156755    -2490   132091   228598   329106 
  304324    89194  -108088  -161146  -174688  -173660   -87133    20814 
  104320   257091   449691   540829   517734   449626   351935   218376 
   89198     4256   -28374    -3835    23163   -25024  -127570  -249682 
 -393596  -514437  -559465  -502745  -334317   -88549   170644   320367 
  210693   -74470  -244745  -240366  -195886  -100720    30350    88605 
  108825   150502   194679   247816   276747   185773   -11731  -123527 
  -47916    62858    89918    50623   -15513   -48430   -70800  -136693 
 -227011  -352611  -477311  -452033  -232027    13876   175256   324846 
  373241   198355    50859   105476   151297    89376    43189    27704 
  -30125   -81677   -17175    90403    40802  -132413  -226488  -262743 
 -294844  -183064    48111   217526   261332   136195   -98200  -217064 
 -191871  -164641  -108192    13431    96777    80237   -19927  -121034 
 -157050  -184936  -233184  -234004  -139400    20667   163988   294832 
  454080   502141   309709    15220  -170272  -226774  -250952  -216650 
 -105370   -74416  -166481  -258453  -305522  -283244  -140593    56203 
