Origin Time       2011/03/11 14:46:00
Lat.              38.103
Long.             142.860
Depth. (km)       24
Mag.              9.0
Station Code      FKS029
Station Lat.      37.0159
Station Long.     139.3806
Station Height(m) 957
Record Time       2011/03/11 14:47:27
Sampling Freq(Hz) 100Hz
Duration Time(s)  243
Dir.              N-S
Scale Factor      3920(gal)/6182761
Max. Acc. (gal)   109.038
Last Correction   2011/03/11 14:47:12
Memo.             
[...]
  -16581   -15173   -17924   -22483   -21834   -13606    -1841     5174 
     499   -13914   -26537   -24601    -6361    16039    29575    30573 
   21408     7103    -6431   -17048   -24231   -24670   -17102    -5593 
    4668    10006     8602      577   -11479   -20581   -20932   -16777 
  -15276   -16264   -17871   -19306   -16019    -5753     5698    10327 
    3590   -11982   -26605   -30548   -21896    -7439     3946     8473 
    5833    -5884   -22625   -29799   -19862     -512    16834    22345 
   12104    -7985   -28586   -40799   -38267   -23079    -4019    10094 
   12858     2661   -15375   -32237   -39417   -32008   -11133    14354 
   29411    22077    -4755   -34220   -50550   -49592   -36246   -18618 
   -2768     7852     7977    -5491   -26616   -44153   -49576   -42215 
  -27296    -8622    10952    23565    20460      575   -28234   -50852 
  -50843   -25214     8938    29251    26484     7785   -12542   -25787 
  -32803   -34749   -27340    -9283    11083    21278    13147    -8999 
  -29084   -35235   -28877   -16966    -5033     1692    -1845   -15026 
  -29200   -33181   -22442    -6547    -1408    -9923   -20516   -24095 
  -21431   -17259   -14482   -11178    -3733     2822    -1463   -14992 
  -27040   -29965   -22080    -9212      375     5393     8479     7514 
   -3067   -22295   -39768   -44780   -33792   -11478    10837    20753 
   14032    -2200   -18977   -32312   -38757   -33971   -18504    -1776 
    5791     4276      209    -3057    -5778    -9349   -14014   -18564 
  -21918   -21846   -16844    -9373    -1843     3011    -1452   -15922 
  -30329   -37000   -34925   -24340   -10268    -1366      970      806 
   -2606   -12757   -29239   -45732   -50923   -38518   -16156     2769 
   10963     8722     -760   -15943   -33893   -45874   -44350   -30260 
  -10481     6502    13531     8709    -2314   -11198   -14417   -14915 
  -17923   -23208   -23779   -14733      844    13322    13799     2085 
  -13230   -21484   -19152   -11877    -6702    -7292   -13691   -21597 
  -26067   -27192   -26094   -20108    -8844     2566     7997     3852 
   -8793   -24199   -35748   -39799   -35933   -25720   -11882     1458 
    8356     4916    -8278   -27136   -43073   -48164   -42161   -28300 
   -9713     6591    12088     5390    -6408   -15721   -22310   -30456 
  -37850   -34744   -17731     3987    18704    22227    18430    12131 
    2848   -10210   -21724   -24386   -15597     -829     8696     6974 
     106    -3423    -4367    -7165    -9729    -6984     1249     9285 
   10988     6773     2567     1922     1305    -5223   -16647   -25976 
  -27712   -21087   -11621    -6206    -6528   -11218   -18070   -22810 
  -20976   -13272    -5759    -3818    -9556   -19870   -25084   -17236 
     -30    14512    17840     9885    -4531   -20953   -36515   -47307 
  -46683   -29502    -1784    19549    21155     5083   -15011   -27641 
  -29034   -21925   -11717     1251    15102    16999    -1167   -25463 
  -32360   -13937    15785    33925    26368     -349   -22768   -21999 
   -3041    14522    19584    13352      303   -15214   -27130   -29021 
  -18995     -111    20168    30347    22429     -611   -25190   -35956 
  -28518   -12396     -763      922    -2759    -3357     1732     5432 
    1030    -7582   -13332   -17023   -20205   -18293   -10767    -3319 
     335    -2296   -10688   -18382   -22752   -26655   -28030   -24048 
  -19651   -18869   -16460    -6178     8908    18181    13790     -300 
  -12321   -16507   -15432   -11863    -6807    -1209     3795     5564 
    1726    -5439   -12124   -17667   -20125   -15011    -3034     8919 
   14394    10055      166    -2327     5758     9721     1362    -8280 
   -7433     2041     9742     8142     -891    -8241    -6862     -204 
    2296    -2277    -8354   -10904   -10734   -10763   -11729   -11486 
   -6045     4944    14653    15214     5957    -6088   -13908   -16066 
  -14366   -10354    -5603    -2865    -3959    -8340   -13697   -16460 
  -16063   -15998   -16602   -15085   -14891   -23575   -39193   -47080 
  -33631    -4278    18372    18638      687   -20667   -32237   -29789 
  -19002    -6994     6393    22134    32001    27768    12890    -4614 
  -18591   -22276   -14004    -2272     3140      591    -3827    -5607 
  -10288   -23396   -36145   -36574   -25755   -12704    -5860    -9609 
  -17724   -16837    -3795     9758    12499     3057   -13449   -30087 
  -39847   -38518   -29821   -20597    -9696     6094    20593    24744 
   16179    -2682   -26180   -44618   -49741   -40037   -21241    -5229 
   -2456   -10779   -16006    -7463     9512    20674    19195    10401 
    1541    -7287   -17825   -24958   -19935     -889    21858    32297 
   23580     5434    -6396    -5693      522      593   -10014   -24919 
  -31758   -20251     5467    24111    19604      686   -12701   -13052 
   -5573     3511     8647     6417     1500     -553    -4726   -16050 
  -25735   -24782   -18648   -15606   -15541   -14118   -10128    -8035 
  -11841   -21642   -35140   -44533   -41359   -28921   -17807   -12092 
  -11725   -17663   -25680   -28186   -24578   -21103   -22788   -30459 
  -40671   -45371   -38315   -20177     3321    21544    24212    10798 
  -10188   -27390   -32517   -26295   -15999    -7400    -3492    -5384 
   -9791    -9391      419    14577    22099    16926     1665   -17001 
  -32300   -38669   -34190   -21550    -6527     3085     2802    -2419 
   -2872     4566    11650     6477   -12135   -30839   -34996   -22288 
   -1740    15554    20860     9564   -14275   -38013   -48104   -38500 
  -14245    10952    23035    16710    -3457   -26277   -39510   -39998 
  -33506   -23493    -9694     3015     5418    -5094   -23285   -39080 
  -39553   -23336    -3395    12052    22607    24679    13934    -6124 
  -24779   -31681   -22479     1368    32887    57326    59910    38068 
   -1623   -48430   -83897   -87392   -51777     8399    63224    84057 
   62056    13706   -31399   -49333   -36626    -8370    18348    32795 
   29534    11321    -9556   -21700   -25799   -26864   -23764   -16865 
  -12202   -14286   -20950   -21609    -8229    10795    20824    16967 
    1694   -20733   -42644   -52080   -39774    -8205    27773    46884 
   34884     -200   -32907   -44268   -36456   -22410    -9038     1547 
    3970    -5013   -20612   -37169   -51089   -53981   -38997   -13228 
   10422    25955    31463    24322     5146   -19417   -43534   -64847 
  -75078   -60117   -17734    31847    60310    53605    16012   -37637 
  -85690  -107139   -92826   -49633     3338    43362    52591    28162 
  -12366   -44558   -55917   -48079   -26980      758    25769    41394 
   44843    31198     2136   -25968   -36438   -25899    -1189    25292 
   37886    27367     -608   -29347   -41005   -29035    -2727    23534 
   37184    29889     4572   -27656   -56800   -74650   -71321   -40088 
    7602    45504    56608    39408     1050   -40784   -63276   -57071 
  -30314     2737    23651    17058   -10432   -31180   -21218    15071 
   47338    49238    19295   -21744   -48284   -49620   -30438     -912 
   25215    34536    22072    -5327   -30967   -38446   -27614   -14073 
   -8075    -5442    -1034     2031      824    -1368    -1822       51 
    4378     7158     5877     6152    13077    23453    27491    14286 
  -16277   -47246   -59130   -46898   -18394    13253    32020    27669 
    5618   -19303   -36426   -43589   -41670   -29954   -11591     3983 
   10347     6537    -6131   -19778   -22809   -15668   -12169   -17150 
  -18457    -6734    15284    39683    53589    44501    14676   -21284 
  -49646   -60027   -47509   -16157    24114    56908    61150    27533 
  -27189   -72071   -88013   -70694   -22846    37544    81514    91667 
   69471    25176   -30800   -83605  -110971   -98337   -49017    18259 
   70201    75574    31500   -35233   -85799   -89579   -44768    19309 
   64214    65989    25478   -34760   -80839   -85302   -46630    11623 
   56322    61438    26531   -24233   -61732   -65320   -30493    27309 
   77454    91450    60116    -5452   -76156  -116139  -106198   -54164 
   10893    58540    74719    57304    10826   -46426   -84164   -83903 
  -53778   -10559    34007    64352    61686    26632   -14219   -40783 
  -54228   -52955   -33443    -9316     2986     2503    -2365    -3926 
   -3749   -10426   -23725   -33709   -34662   -28136   -18159    -9510 
   -4012     1085     7127    11400    10630     3084    -9202   -17661 
  -14017    -3106    -1068   -18334   -46146   -59768   -40492     3963 
   44581    55955    35946     1474   -29474   -45657   -41879   -23111 
   -5788    -4041   -16353   -31051   -39431   -43218   -48494   -49919 
  -35689    -7026    23756    40540    25158   -21968   -70871   -90952 
  -76265   -38592     6921    44760    58313    39089    -3444   -47362 
  -73526   -74826   -49665     -829    50091    72852    55779     8350 
  -47328   -84932   -85465   -46222    12226    56362    66432    43958 
    -795   -51269   -85557   -91394   -70423   -29437    18242    54831 
   70610    63561    36260     4577   -11549   -12148   -13565   -25497 
  -43163   -55409   -53540   -35603   -10320     6269     5960    -6768 
  -25344   -43912   -51779   -39509   -13189     8856    15798    10888 
     -19   -14801   -31053   -46113   -56562   -51389   -20248    26930 
   64589    72584    45514    -5305   -57238   -88775   -86312   -50480 
   -1084    36446    51694    45494    16835   -26345   -61237   -71473 
  -59064   -32433     1950    30743    36167    20972     6149    -2601 
  -16550   -35648   -43669   -29680     -173    29967    45987    36302 
    2492   -37680   -63615   -64696   -43197    -9388    24611    48625 
   55368    38394      -10   -40988   -67607   -78347   -69732   -32610 
   24508    71970    83688    53433    -4838   -60378   -81606   -62195 
  -26887    -4496      603     2701    12249    29831    46005    44070 
   15291   -31453   -72783   -86920   -71660   -37318     4442    37399 
   47999    37079    15085   -10106   -35516   -55655   -59793   -39769 
   -2982    27673    36813    27372     4012   -27971   -49168   -41838 
  -13426    11703    17434    11672    10896    11367    -2220   -30600 
  -59841   -72288   -54110    -8259    38116    55329    40125     8227 
  -30668   -69455   -91434   -83409   -46826     5225    52555    80625 
   81002    46108   -13603   -70537  -106355  -113841   -85666   -25074 
   43224    90599   106168    92506    50465   -17894   -91900  -138557 
 -141019   -99222   -16011    85421   152605   145562    74606   -18186 
  -96584  -134891  -114862   -46057    31946    81369    88266    62391 
   24929   -11446   -43379   -63298   -65809   -50615   -16800    24594 
   54504    65117    54493    22869   -21950   -69849  -107490  -117877 
  -94409   -45628    12008    56321    69426    51276    10502   -43935 
  -92452  -111236   -91433   -39649    25940    77895    96065    80260 
   41378    -9361   -58468   -89900   -93234   -67109   -17489    42396 
   91067   101974    61341   -13051   -82705  -115307   -93978   -23711 
   57571   102826    94394    41859   -34258  -103311  -134411  -111749 
  -41172    45029   106269   122938    93513    29815   -40908   -94286 
 -114561   -90715   -32537    29157    69868    80182    57723    13609 
  -32347   -66760   -74403   -42982    13784    66468    92231    75482 
   14228   -64288  -113826  -103542   -42207    26618    57265    33385 
  -27980   -86876  -103563   -68936    -3817    61287    93508    73579 
   13143   -57280  -109897  -131739  -119797   -70827     5315    79936 
  122135   110791    51613   -24876   -90321  -120597   -98064   -33193 
   40105    88267    90898    49545   -12859   -69519   -99250   -84729 
  -31605    18057    28898    10055   -10772   -15035     -972    11978 
    8587    -3157   -15014   -28703   -43008   -51327   -44731   -19825 
   12750    35070    34210     9162   -26163   -50042   -53276   -45309 
  -32208    -8898    22507    44767    36881    -5967   -61688   -93577 
  -76546   -18459    46104    81927    68324     8797   -60310   -92942 
  -77823   -39596     -623    26487    28913    10107    -6774    -6580 
    3261     4972   -11683   -43178   -74544   -82798   -52767     3874 
   57756    87528    85576    51300    -5562   -64316  -102088  -101083 
  -58410     7031    62721    76693    35146   -37823   -93708  -103420 
  -67384      107    68120    99372    80626    29437   -24775   -61622 
  -74093   -57842   -16460    27335    50815    45173     8901   -41249 
  -74189   -74288   -47106    -9588    22580    44922    53194    42029 
   16366   -14943   -45647   -71372   -87570   -82672   -52210   -13982 
   17207    40289    46811    31265     7988    -7378   -12980   -13831 
  -14392   -16655   -18620   -12903    10342    48750    76097    64583 
   16351   -43963   -91018  -101646   -69759   -23097     9083    26097 
   32355    27670    25270    33573    31143    -4483   -59603  -102225 
 -115657   -93102   -29507    57576   123106   130203    77912    -9807 
 -100877  -162337  -171957  -128992   -53128    29429    94415   119170 
   97195    46796   -11037   -64504   -95629   -84577   -36177    22403 
   64539    69634    33611   -20165   -62517   -74276   -48191    -2670 
   30955    38740    20771   -16906   -53365   -67999   -65831   -58228 
  -36668     6583    55489    80239    60270     3355   -61978  -113484 
 -138521  -121127   -53321    43598   123474   142200    87802   -10552 
 -106464  -166346  -175502  -129261   -37186    70193   149208   162257 
  110247    27658   -59328  -122747  -126726   -75778   -11191    34213 
   46283    29667     4574   -14769   -31614   -49008   -57954   -52878 
  -33061     6644    55236    76178    45113   -18716   -71597   -86300 
  -60706    -5972    47020    59672    24507   -30582   -71629   -77523 
  -44030    12860    60653    71730    44274    -2070   -43824   -61036 
  -46788   -15643     8043    10568     3383     2892      855   -11559 
  -23246   -29235   -35283   -36994   -23192     3701    25739    30456 
   18084   -10044   -44756   -63029   -47985    -3858    45198    69607 
   54963     5107   -61393  -112148  -119499   -82209   -19896    43217 
   82686    83338    50714     1459   -47569   -79185   -81357   -53801 
   -7538    38646    63013    51927    13464   -26772   -43851   -25681 
   17964    56723    62641    27221   -38207  -100488  -120993   -88595 
  -20978    56117   114781   128759    88583     9436   -78716  -143339 
 -157241  -111876   -27014    57514   101013    85070    27411   -36937 
  -83273   -96372   -68796   -14410    36543    61572    58248    33183 
   -4477   -33396   -35993   -24264   -16589    -7260    11138    23592 
   17552     1567   -17736   -39670   -50366   -37331    -6209    28067 
   44339    27681   -13547   -57983   -83104   -71665   -26424    30056 
   71350    78070    45689    -8194   -52223   -67836   -58793   -31625 
    9559    45758    51976    28210    -4896   -31683   -41931   -30849 
   -9729     4398     5048    -3207   -10907   -13383   -12516    -9808 
   -6147    -2383     -713    -6412   -18372   -27697   -31222   -30434 
  -21223     -860    21260    32021    28108    11978   -15016   -42508 
  -51776   -42300   -33011   -30000   -24736   -17557   -12762    -4961 
    6809     7671    -9898   -30810   -39877   -32545    -5273    33644 
   57202    46384    10960   -28233   -61500   -79515   -65592   -21826 
   25017    57239    70783    52097    -1960   -60526   -92311   -90654 
  -55329     8288    70056    89252    50666   -25746   -99328  -133676 
 -117078   -56460    25456    86041    91160    44892   -18229   -62156 
  -73214   -56375   -20450    19158    40683    31416    -2549   -39249 
  -56935   -50938   -28065     1999    21942    18999     1726   -14163 
  -21220   -15161     1607    12181     2568   -18800   -33562   -32584 
  -15623     9027    25517    24617     7708   -21802   -58021   -87286 
  -90883   -59426    -4574    47490    71004    52958     1406   -59301 
 -104371  -116368   -88800   -31740    33930    84432    99571    75203 
   20148   -53201  -120221  -148275  -120851   -44894    53955   133302 
  151998   101104     8972   -83575  -140931  -138450   -76190    11694 
   76993    92172    60300     3256   -48284   -73533   -76938   -68965 
  -47676   -13695    20767    40393    32668      185   -35465   -56319 
  -60829   -50144   -23875     9776    38220    54304    52007    24149 
  -24025   -67770   -81552   -59259   -13083    35871    63717    54103 
   13781   -32132   -65814   -78610   -60247   -15993    27152    47017 
   37273     1260   -44659   -75911   -79557   -56958   -13166    35156 
   59861    45107     -818   -48669   -66523   -49264   -18485     3283 
    5575   -10733   -35120   -50110   -40079    -5556    31201    40775 
   11992   -34661   -63056   -51808    -7520    40119    58628    40880 
    3603   -33947   -53702   -43634   -11766    18173    28948    21851 
    4806   -15121   -25803   -22349   -17091   -18473   -17467    -4414 
   13660    20872    10464   -11748   -32145   -39133   -32818   -20196 
  -10722   -12410   -19893   -18818    -4655    15677    35103    43843 
   26973   -15298   -60286   -85839   -81298   -44381    12085    62629 
   85602    69815    19337   -39863   -78135   -85635   -66420   -28061 
   15329    45385    49822    30346      941   -24227   -38654   -41843 
  -36258   -22645     -962    21815    33862    27686     4564   -24403 
  -45357   -51095   -38681   -10393    17421    24770    11498    -5273 
  -15774   -20197   -15485    -2928     5299      512   -13956   -26508 
  -27553   -22588   -24838   -33698   -36940   -27998    -9291     8103 
   10602      771    -7519   -10934   -10090    -1433     6595     -448 
  -18101   -30768   -31485   -20982    -5750     5571    12568    16880 
   12702    -2926   -23647   -42796   -54122   -47016   -19648    10223 
   23260    15228    -9616   -41576   -62926   -60997   -35976     5305 
   44077    55126    32627    -6882   -41128   -55300   -51094   -41084 
  -33053   -23547    -5462    20475    44233    52291    34388    -5502 
  -44387   -57253   -40305    -9810    17489    32682    30686    10616 
  -19297   -42163   -43322   -22593     8551    37228    48740    31527 
   -4397   -32851   -41613   -35038   -14583    13760    30477    26362 
   11873    -3455   -15452   -17280    -7252     5472    12283    11045 
    -251   -20994   -40069   -44141   -31063    -8435    14284    28247 
   25225     3630   -24769   -42325   -40152   -23281    -5146     2850 
   -1876   -13590   -20472   -13084     2718    11727     8172    -3122 
  -16920   -27073   -24145    -8326     4992     6674     2419    -2820 
   -7374   -10041   -13789   -20255   -23871   -16182     4191    24663 
   27897     8451   -21462   -40461   -35419   -10566    18440    32977 
   23031    -2975   -26963   -36672   -30044   -11085    13951    32746 
   30703     7097   -23729   -45776   -51345   -41775   -19958     7919 
   27464    29834    19333      743   -23367   -45699   -56286   -46379 
  -14730    23804    46207    40739    13732   -18414   -39258   -40922 
  -29783   -19372   -15300   -11605     -800    15491    23888    10641 
  -19691   -47031   -58483   -53820   -36747   -14037     7733    26801 
   37876    29017    -2497   -41189   -64765   -59915   -31025     5025 
