Origin Time       2011/03/11 14:46:00
Lat.              38.103
Long.             142.860
Depth. (km)       24
Mag.              9.0
Station Code      FKS001
Station Lat.      37.7946
Station Long.     140.9192
Station Height(m) 7
Record Time       2011/03/11 14:46:50
Sampling Freq(Hz) 100Hz
Duration Time(s)  300
Dir.              E-W
Scale Factor      3920(gal)/6182761
Max. Acc. (gal)   552.302
Last Correction   2011/03/11 14:46:35
Memo.             
[...]
  459393   321534   193901    68229   -42133   -69669    54713   275167 
  453562   561292   613419   550134   414682   353419   350138   317814 
  295820   303494   287230   235747   158470    80293    47516    66225 
   99248   104450   123314   232928   348257   328441   186281    10301 
 -159428  -331565  -476126  -482395  -293939   -56524    21475   -29928 
  -88610  -223462  -416780  -483708  -432571  -394166  -366826  -256930 
  -40535   158646   223285   164423    37286  -100797  -223151  -353103 
 -403009  -233959     7760    92854   105976   104074   -75476  -339421 
 -441787  -429532  -384027  -247262   -74604    40943   113273   149630 
  154009   179669   221206   206672   133676    86029   118091   183046 
  226807   278705   336917   315989   207706   109597    45628   -33525 
  -71639    -1690    82879   117348   167114   225023   235830   241570 
  246519   187980   144836   216809   303033   298452   253616   234070 
  218068   144517    -6226  -204261  -361405  -368202  -255446  -155855 
 -109992   -98794  -132819  -225371  -349994  -441942  -484740  -512913 
 -533877  -543472  -533723  -502290  -475335  -466700  -479995  -524301 
 -571381  -571264  -525781  -465556  -387379  -298819  -233793  -186811 
 -136591  -101136   -97654  -109582  -108923   -70972    -4119    48804 
   73669    86573    91237   100230   139849   214221   317030   453481 
  596426   642087   516292   312686   177486   123088   121180   226825 
  412102   513162   490688   433063   348487   232062   120617    11441 
  -84540  -126599  -114384   -90518  -102723  -146144  -179549  -190184 
 -170989  -120034   -84261  -109909  -179382  -243755  -275992  -272612 
 -242988  -225284  -263500  -341888  -410574  -447694  -428599  -341108 
 -247310  -202428  -173340  -130645  -106790  -120711  -164691  -225673 
 -261662  -240056  -154229     4981   170478   195857    62638   -83939 
 -157290  -171183  -132625   -77459   -58694   -53528   -20691    26361 
   56195    60389    57246    59521    69250   106277   189145   309245 
  433896   517646   534317   499069   449027   401189   345213   291701 
  267275   272215   312232   371926   353627   234368   184552   290437 
  392657   418657   430623   347992   182258   130413   152389   104474 
   65415   104858   169939   205502   169062    96490    60820    32109 
  -34460  -108472  -183963  -298421  -447418  -583429  -666176  -676403 
 -616423  -520870  -440091  -396260  -371476  -345435  -325872  -328080 
 -360124  -427958  -519121  -601226  -630694  -568916  -440848  -326149 
 -245258  -153108   -55572    -2311     3608    -7568   -23057   -48420 
  -80086   -95080   -76720   -21638    76366   203790   305401   335804 
  295020   205015   118155    89465   116015   178483   270134   351202 
  368969   316343   238491   188277   179915   228240   371443   548038 
  592616   481673   393998   415589   415102   319936   220602   148140 
   78531    56926    89998   108598    62340   -51751  -180950  -266259 
 -303544  -296610  -224680  -109416   -40606   -61630  -122280  -195816 
 -289509  -381696  -460855  -514647  -517075  -493666  -472948  -421668 
 -333975  -261569  -203434  -122263   -48831   -14390    -1437   -12899 
  -27076     7380    72601   130806   176557   201837   224619   266892 
  309243   346702   386746   404840   365065   247793   122719   113685 
  183864   179673    74135   -46450  -133903  -221461  -318003  -347602 
 -281607  -163057   -28803    61183    51816   -41660  -148800  -201372 
 -214453  -236331  -254364  -275829  -320190  -338544  -311392  -275709 
 -248289  -230761  -213301  -176032  -116997   -53551   -24593   -62108 
 -117769  -123297   -91272   -32713    60940   134490   142390   119560 
  118956   130663   122806   159389   290964   404036   397111   348654 
  361511   396926   392676   384026   350429   187370   -52048  -202941 
 -230615  -165435   -24083   105976   160727   164046    83524  -100581 
 -264087  -336083  -377366  -383146  -317107  -228685  -137454   -14850 
   80810    54614   -74381  -207903  -295738  -350898  -380727  -361203 
 -308294  -284113  -289401  -277568  -253116  -244632  -238164  -220930 
 -232435  -305673  -406544  -455772  -388337  -213062   -21213   107112 
  166382   142876    17804  -121905  -166250  -121920   -51388    14012 
   74862   172302   312959   411635   425179   393297   364867   356760 
  310994   225250   221269   315923   401090   448835   470633   415507 
  255398    60954   -54791   -56230    -6174    18933   -28185  -121713 
 -178457  -183240  -171916  -148281  -120414  -100129   -90551  -122284 
 -205076  -276133  -281738  -265889  -295544  -354135  -400909  -413307 
 -351978  -235713  -142933   -87184   -55182   -72539  -105012   -86470 
  -61124   -82992  -102464   -71664     5644   105224   188927   226510 
  210074   151981    67966   -27719   -96963  -101683   -45201    54701 
  182084   306321   394122   421672   386781   314864   228327   137012 
   72469    86771   173239   235329   211419   157205   128130   116085 
  131030   169105   180361   157601    99658   -13339  -108089   -87839 
    5933    53390     7034   -71438  -112066  -129157  -136247  -110864 
  -96735  -146334  -230493  -302844  -332445  -290665  -191344  -111531 
 -116691  -161623  -137382   -39607    25570    15747    -4822    16604 
   77143   155355   220959   245182   221066   170215   121419    72230 
   27484    46389   154095   278537   330700   266091   112565   -19926 
  -55024   -24602    29306    90747   129681   154709   200862   232535 
  215165   197050   182119    95183   -47466  -136639  -144010  -124939 
 -117092  -128833  -147672  -152735  -141541  -121770   -96211   -71413 
  -62430   -69055   -72843   -63991   -42028   -23965   -48529  -126417 
 -217544  -286172  -328669  -311445  -171192    52153   186992   125731 
  -43463  -148706  -103154     7458    44964    23958    28315    61920 
   86726    54327   -71769  -250138  -356088  -310365  -170099   -10996 
  150158   270680   316223   323024   282365   157622   -12271  -191715 
 -341763  -374860  -267193   -87587    58320   104876   114137   143941 
  118217     2568  -100033  -134989  -163485  -205965  -231211  -247953 
 -250697  -226027  -205936  -200650  -191149  -178588  -145945   -49668 
   84080   164546   157628    87190   -12500   -93145  -150405  -217109 
 -250261  -217122  -206488  -252847  -270659  -198230   -42842    97288 
  102729   -22841  -190312  -297998  -291956  -225660  -162929  -134659 
 -137858   -82136    55824   167286   195617   132409   -20586  -161907 
 -204707  -195905  -159564   -52735   103078   232670   266082   195761 
  108710    69526    57706    49474    76868   173927   262599   225384 
  134943   162704   245086   214045   137947   141725   179080   178454 
  128840    26882  -118013  -245566  -275271  -203336  -103651   -21060 
   52142   108264   108817    27683  -101638  -204681  -275418  -350215 
 -368303  -277224  -173118  -143218  -134262   -81091   -25677   -12162 
    -595    28330    45784    55090    79941   109512   107925    66003 
    7863   -41939   -60382   -33061    16034    56943   101381   164926 
  231830   273897   271476   242384   218553   176058    86744     -319 
  -40917   -55437   -44471    15088    94744   141385   121914    46791 
  -15490   -42789   -78948  -109136  -110742  -116420  -131626  -139781 
 -138175  -143651  -190890  -266184  -307778  -278115  -187368  -100006 
  -81193  -108983  -106681   -31008    89898   178308   186033   135793 
   90717    95799   130255   141119    98909    -8326  -141977  -187288 
  -88889    84243   260331   398314   446970   365698   175300   -24675 
 -153086  -173226   -11813   265538   380444   284256   234056   287432 
  297020   260148   218104    82970  -166706  -359249  -371560  -266118 
 -155993  -130995  -171680  -178427  -166116  -163529  -120164   -72875 
  -87457  -124331  -145320  -183078  -257669  -346894  -427531  -468954 
 -446790  -390433  -336120  -271381  -187947  -114033   -74219   -91037 
 -168577  -214143  -137553   -25817    23667    76189   167024   243355 
  293650   317975   320930   324133   310815   250120   154947    87521 
   92064   148819   238081   329049   336911   248005   145877    66131 
   13650    27472   101883   164347   165288   125764    81567    25139 
  -50577  -119810  -177482  -245319  -308322  -305097  -214797  -114692 
  -84037  -115532  -174286  -235264  -268318  -265502  -254725  -255262 
 -210620   -63977   106742   179094    94876  -125202  -337517  -411623 
 -373991  -262089   -75600   113765   255268   371840   456923   511989 
  560894   534128   317136   -11201  -171258   -84473     8689    -5745 
   45912   264054   485683   536597   423573   212759   -18621  -176810 
 -213195  -128873    -9730    45022    16332   -84125  -175234  -173019 
 -109895   -10040   103399   133484    79059    27428   -32557  -115876 
 -156075  -166451  -219499  -303153  -373587  -413488  -409371  -349500 
 -216720   -23802   139080   168182    35929  -177926  -342235  -418507 
 -450884  -441890  -400991  -380437  -378521  -324334  -157555    95607 
  333139   465491   464189   389161   348058   358353   359450   311576 
  187347    12240  -134599  -226708  -252852  -177751   -42514    58198 
  109890   173313   247310   226875    74596   -80667  -147262  -193217 
 -252064  -243631  -129185    36263   159220   188568   158262    98806 
   18813   -22158    43702   183230   287433   315843   270007   139196 
   13691   -26748   -54465   -84270   -40389    45690   103336   142374 
  178793   153089     4108  -188949  -312489  -386041  -428241  -396929 
 -316565  -211490   -70713    37184    58148    46361    10876  -106441 
 -249298  -301092  -287089  -266224  -200672  -116100   -98433  -110905 
  -78470   -29151     6027    59093   127695   174315   204123   236295 
  266137   279681   263188   209436   125768    63047    90573   175066 
  198808   145028   101778   101887   130688   204620   290628   285633 
  174854    43021   -66119  -128392   -84756    63568   231935   324725 
  276141   126799    15549    18818    92664   169151   217361   223119 
  182144   120460    69282    25983   -23932   -78096  -118998  -122420 
  -94857   -71627   -44944     5022    17808   -58579  -164361  -248157 
 -332281  -398860  -400774  -361588  -344118  -377979  -422607  -389914 
 -252315   -86922   -10679   -92960  -274510  -385145  -321586  -169540 
  -39736    67172   139733   143575   102937    64953    57861    57261 
   26313   -11153   -18691    14512    70892    78662    -7203   -92864 
  -56694    69960   184483   265074   300863   226755    65712   -26443 
   14470    89703   151570   219838   222415   107453     1731    21600 
   81102    77064    64130    95481   127865   139369   137321    90056 
  -24021  -145475  -200323  -197447  -171080  -136643  -138890  -177758 
 -166833   -72178    34845    76493    40322   -49971  -173236  -294417 
 -373992  -406620  -426229  -452241  -445956  -374113  -261651  -150569 
  -70962   -46853   -72530   -96940   -80604   -43695   -48337  -134270 
 -247541  -271589  -154861    18253   113087    96526    42957    22720 
   59956   120370   143485   148390   192429   264493   321416   317422 
  218519    75444   -27622   -85573   -79836    63136   255622   308197 
  240328   189308   189253   208993   213021   212783   231818   217312 
  144322    55687   -23517   -53180    -3697    70070    97120    49659 
  -43729   -96604   -95926  -118982  -144499  -108959   -58242   -49438 
  -75143  -110795  -155549  -218264  -274286  -307034  -329473  -308039 
 -202817   -67988    45534   150012   193514   142438   110286   144293 
  127042     1120  -135476  -169774   -89190    77710   266351   298786 
   95954  -144398  -239060  -255374  -281135  -220480   -23319   154295 
  177014    73626   -63515  -184392  -289422  -366302  -367306  -282738 
 -164742   -32700   133283   286804   314786   180711     6736   -73659 
  -85926   -99156   -45794   142967   354995   421460   305662   124275 
   45015   100386   170444   222668   302631   323891   190129    -7102 
  -98346   -51048    49485   157288   237510   256265   246430   211360 
  103904   -65399  -217373  -280952  -243787  -132093    -5843    86182 
  145044   140561    44208   -99503  -253471  -391024  -447629  -387697 
 -262788  -173272  -168853  -217804  -294990  -386099  -429550  -392339 
 -322372  -276796  -277133  -298786  -275334  -162439    -3743   120073 
  171169   140466    64563    12573    -5293    -9223    -9730   -28441 
  -68797   -98483   -68282    13840    65262    81378   126155   160718 
  140545   124535   131614   132686   146105   185913   223269   233697 
  236224   268714   339285   406845   385991   242833    90714    54252 
   84967    68439    -3484   -74730  -109901  -129834  -163217  -177176 
 -164450  -166246  -174702  -169502  -166754  -170413  -167141  -159639 
 -161123  -187994  -270712  -427634  -622632  -767931  -756347  -533548 
 -199077    63029   212550   319400   336407   195995    -5491  -150452 
 -233722  -265835  -215576  -103545   -18404     2100   -13674   -20208 
   32839   140647   222396   221715   206519   255281   301554   304977 
  361497   476018   529763   474864   377747   341890   380077   368635 
  234283    91294    90315   234431   399306   492680   532222   533948 
  470377   359807   233708   111468    35185    -7325   -58315   -93240 
  -97676  -116014  -175338  -247265  -296937  -320041  -299303  -233641 
 -180411  -138412   -54552    17698   -14457  -144841  -309240  -448676 
 -561416  -691992  -821463  -884114  -832794  -642312  -383165  -169142 
    9069   183384   265597   199212    68991   -24654   -75001  -156143 
 -301639  -430281  -447584  -311185   -45317   229068   408049   453211 
  332314   159903   136841   224316   264135   253636   239498   220671 
  207108   203490   176079   106271    53758    97424   223965   349950 
  393747   291095    62374  -153702  -248879  -243615  -190914  -127997 
  -88866   -74294   -80578  -111671  -152238  -187845  -202669  -187403 
 -160065  -149454  -155385  -125236   -46793    15873    39151    35516 
   -1490   -59124  -119619  -172190  -190988  -173668  -138005   -89848 
  -70272  -122505  -197832  -235409  -238561  -198146   -98288    12131 
   70512    71991    35032   -18869   -39625   -24710   -61005  -167117 
 -231991  -174312   -16067   138429   159339    76819    59065   131388 
  188284   207780   201911   130028    24003   -32490   -87550  -201988 
 -265955  -200929  -101120   -30788    62557   195949   279915   251464 
  182080   168514   203948   228161   235905   248427   220618    98291 
  -72353  -179512  -157730   -47549    43363    79565   133698   175571 
   86953   -56273  -136645  -221567  -320894  -321353  -196040   -12663 
  134090   173686   106602   -19245  -111362  -101137   -50715   -16672 
   56479   155860   195359   182407   146191    77475     3527   -45893 
  -87955  -134715  -148268  -107309   -58039    -4483   119040   270243 
  287728   142194   -10069   -66239   -47431    48688   234832   381529 
  297788    27092  -192890  -289548  -337623  -341122  -313613  -301495 
 -296309  -289025  -283145  -276963  -273359  -267140  -267747  -296307 
 -362189  -430584  -395632  -214336   -25069    33820     9890      261 
   14013    54664   146444   255114   301862   231390    51343  -130304 
 -190606  -118599    30851   204979   380377   544984   632395   583046 
  392557   104836  -156180  -322091  -427678  -412753  -209179    67702 
  287766   428266   454572   340264   173466    39767   -72113  -157995 
 -156875   -32305   121932   153278    68682   -14037   -65129  -137804 
 -212040  -189015   -61266    93570   207727   210236    68150  -143376 
 -286097  -295926  -196352   -33264    73228    42938   -15715    -5689 
   34940    38334   -46632  -186699  -276919  -291128  -259486  -185023 
 -120145  -135960  -177975  -147554   -66723   -21534   -33379   -76765 
 -135940  -176812  -154879   -70639    40743   143040   199758   165528 
   53757   -24071    -4307    82532   210071   308180   300751   266186 
  302750   336792   264063   125845    29542    -5807   -18033   -10708 
   -8174   -42833   -60469   -16922    19649   -14253   -76707  -104243 
  -98179   -90222  -121152  -215116  -301393  -289866  -196132   -86715 
   11431   126868   251733   277959   170140    34605   -65421  -152032 
 -233073  -264268  -216062  -156241  -137448  -110392   -65348   -63624 
 -127826  -215592  -245367  -172699   -36618   105915   188396   146233 
   19253  -102226  -222157  -378479  -514985  -550428  -476983  -312087 
  -89203   144039   343283   403532   293175   175788   134542    47312 
 -141444  -297291  -293970  -183983   -88489   -32352     1422     5206 
   13501    60329    85823    41221   -41152  -135822  -220093  -244934 
 -185312   -68618    29349    62547    69575    98444   162313   233484 
  244505   146089   -40168  -202744  -218401   -74794   122701   232376 
  219161   187480   176896   110141   -11071   -74705   -13022   119544 
  214789   246539   265310   247741   136003   -33419  -188027  -268766 
 -229029   -96942    11808    26348    10418    16416     4198   -35675 
  -52605   -14157    48517    70453    37934   -13427   -56114   -45664 
   45594   134637   109057   -24339  -150421  -198734  -211947  -202413 
 -128590   -44203   -14607    22618   116059   192149   191445   156452 
  148897   163573   150500   114267    96599    81591    52328    21094 
  -36601  -129036  -212627  -265080  -296798  -302225  -250108  -138405 
  -23582    48210    63980     3861   -97780  -156936  -188004  -234408 
 -209994   -68133    62302    94444    76253     7922  -135028  -255540 
 -283712  -266106  -215066  -137016   -73604    -8719    71456   122116 
  135861   156695   183246   159428    76353    -5517   -51250   -69160 
  -59992   -37248   -14518    43017   148534   250404   311348   324455 
  279342   179426    44818   -90838  -162526  -105057    58052   177154 
  168773   165728   225414   205112    82923   -42497  -156351  -263355 
 -319968  -274950  -146861   -47631   -27483    -4165    42615    19758 
  -77814  -173631  -257574  -341932  -411196  -454847  -448355  -363681 
 -215724   -29124   175039   310726   264463    65481  -109979  -186931 
 -263421  -339034  -264213   -55755    84413    97486    88723    67839 
   -3435   -51185   -59670  -106832  -180188  -232575  -226031   -96539 
  111386   235740   204898    97797     2600   -83140  -177923  -189190 
  -16980   208683   254115   156640   128535   163518   168552   224033 
  340470   371526   255848    37224  -160948  -213053  -189514  -195666 
 -189864  -144957   -62935    72621   216816   286400   229709    93399 
  -12081   -84078  -193167  -297981  -302310  -212894  -114109   -67462 
  -71541  -102912  -152538  -190860  -185622  -149520  -119619  -124075 
 -161215  -197261  -193632  -155026  -125582  -109472   -68376     2737 
   69078   103927   112052   111251   105392   101013   131239   202122 
  249649   230756   191764   172337   124925    11747  -101962  -134846 
  -81594    16724   127103   235489   306816   276145   148575    39690 
   11074    -4966   -35749   -14886    67351   129320   124390    77001 
    9948   -48501   -41321    45332   145291   184316   161208   126901 
  105805    97282   104870   124585   124904    46513   -91342  -172210 
 -176158  -169579  -147571   -93928   -20884    65413   121807   101275 
