Origin Time       2011/03/11 14:46:00
Lat.              38.103
Long.             142.860
Depth. (km)       24
Mag.              9.0
Station Code      FKS008
Station Lat.      37.4343
Station Long.     140.5670
Station Height(m) 442
Record Time       2011/03/11 14:46:58
Sampling Freq(Hz) 100Hz
Duration Time(s)  300
Dir.              U-D
Scale Factor      3920(gal)/6182761
Max. Acc. (gal)   327.402
Last Correction   2011/03/11 14:46:43
Memo.             
[...]
  -29072  -145253   -76362   -37965   -95590   -76464  -119237  -190065 
  -51475   105627    46298   -42547    18533   124062   144928    55675 
 -123618  -245704  -147567    46603    82622   -61380  -220134  -233521 
  -28380   262540   326439    93246  -103599   -70730    19230    26358 
  -26313   -88079  -120803  -131613  -134248   -89594    -7203    33779 
   32473    15415    -9064    57855   148620    43793  -113647  -129502 
 -115181   -73069   -14904   -91671  -213159  -224304  -126056    46613 
  153980    50455  -145498  -169010    -9032   102004    79032   -25109 
 -145458  -130209    17653    49562   -51826   -24435   168359   299433 
  230558    58169   -59290  -123962  -149301   -49465    77168     6162 
 -166526  -184189  -139003  -199193  -227753  -125736    38905   145984 
   19696  -189396  -105692   126830   117813   -54037  -150785  -153297 
  -71778    21294   -27754  -169772  -208654   -93573    62884   159962 
  174885   113420    62325    90675    55552  -108579  -186138  -111152 
  -56588   -65008  -104826  -167158  -144346   -24614    29484    -2079 
  -33085   -68918   -65500   -18478   -32424   -43060   -28996  -116465 
 -139409    17053    62030   -17364    41460   103510    -4095   -66711 
   22510    45876   -40761     8431   123898    28625   -76454   -17328 
   -4788    15340    90416     3105   -95522   -12385    13005   -63443 
  -18657    46276   -24935   -41417    44380   -17420  -108716    62248 
  143728  -141633  -208945    87217    83579  -166850  -177980  -128681 
 -176382   -89603    88469   100182   -23769   -41796    55823    17147 
 -166291  -177149   -18396    38578    77004   129478   -13930  -193129 
 -208196  -200646  -197966   -60470   189032   284045    44655  -283899 
 -386270  -236025    65151   268828   123461  -130383   -81017   157686 
  220918    83566   -33632  -100105  -166955   -75181    63215   -67049 
 -234267  -180044   -92086   -43493    33039    98978    73174    25342 
   82750    62639   -20907    95561    95657  -144136  -154092   -37314 
  -38168    58988    76963  -210883  -352050  -135968    17832     5182 
    5133   -32060   -42592    31818    15207   -16639    65610    54311 
  -87537   -87841    59063    80340    34321   123231   103682  -105265 
 -148714   -74427  -137441  -201051  -139993   -36237    56317    74973 
  -16002  -155747  -266092  -236137   -22349   171347   162551    75215 
  -11040  -126929   -72337   131145   110871   -53568   -46722    33418 
   36647    -2571   -61862   -74429    17483    45760  -104998  -183424 
  -86658   -34610      978    43745   -51508   -94215    -7119    -9396 
  -26846    -9267   -48456   -50022   -63585  -151662   -99927    20843 
  -67894  -135411    33926   102520    31185    66380    34901   -45925 
   38635    34243  -123922  -190478  -221647  -204219   -81823   -51160 
  -81443   -12996    58387    36191   -57493  -129006   -66699    70038 
   96412   -30115  -114540   -56054   -16348   -30211    -3771     7179 
  -27835   -15669    10330   -88858  -138918    18879    -1720  -226428 
 -105207   181704    79043   -98797    78013   220267      630  -201803 
 -141246   -70591   -41430    56110    42422   -88823   -48313   111240 
   91061   -57836   -50775    84428   108839    24299   -81137  -192517 
 -172400   -10423    32793   -97490  -188790  -117704    49925   119200 
   15096   -55627    12430     2632  -110019  -114464   -65218   -14289 
   43677   -84888  -226617   -62514   119709    49025   -74220  -130188 
 -131657   -34471    38493   -31807   -82383   -14564    76463    93487 
  -13911   -84425     8025    42564   -19632    28241    23874  -144565 
 -109791    55176   -82391  -183967    20543    30062   -61111   108304 
   86081  -135427   -43761   122666    54792   -88451  -176341  -136673 
  -12434    60126    35975   -54247  -125269  -113458   -41822    13398 
   35298    44464   -32469  -135543   -36169   148086    56094  -202080 
 -238848   -42934   185807   255762    24610  -250087  -189315    25267 
    5772  -187152  -265970  -129384    68439   147713   116727   -33858 
 -190785   -33262   247374   230899    49115  -134676  -239404   -67841 
  121387    35896   -52839    -8749   -12662   -34416   -31297  -152247 
 -297876  -211635    15819   108135    15136   -49704    24718    58627 
   20882    51206    25891   -69400   -30808   -43580  -215553  -233698 
 -185670  -256742  -125996   135147    51462  -119844    51601   196709 
   90573    95699    96004  -156977  -275297  -155193  -120584  -146789 
 -112083   -56914   -72545  -114347    26029   176228    93944    -1847 
  -44615   -48019    93465    70550  -225879  -302067   -63342    84856 
   44200   -12643  -113193  -196694      315   206023    37318   -90863 
   75636    55110  -169245  -130785    11628   -58863  -126403   -76008 
  -10925    29266   -62999  -152286   -37862    31580   -32523     2388 
   37690   -59475   -96157   -18730    30718   -13586  -135677  -143974 
   -8671   -11679   -49324    49899    31628   -15619    97794    83435 
    5411    89672     7284  -192857   -92686    41126   -57007  -126265 
  -90356   -36671    24632    73431    97945    53758   -33820   -92111 
  -61962    31713   -96426  -318863  -190583   -42054  -135731   -94985 
   -6178  -106701   -99516   172431   309993    77230  -130613  -125283 
 -146767  -159753  -106306   -25309   106430    29189  -190339   -37240 
  223115   108595    -5027    41406  -152150  -374657  -158090   142074 
   25869  -160149   -55741    -3890   -73885    55212   201365    33301 
 -241775  -146211   208363   194621   -92751  -134942   -85423  -149426 
  -81029   138405   124415  -138890  -158845    83787   172313    61409 
 -112875  -259529  -263727   -65738   221900   181825  -201420  -253008 
   33700    45306   -50863    45264   -37543  -234520   -78345    80681 
 -171453  -329329   -58961   163102    74194    -7676   -23346  -127771 
  -68668   137204    16362  -253221  -184655     1749     2767   -12630 
  -16869  -146614  -186799    10499   123331    27451   -43894   -78591 
 -112762   -66458   -11245   -13393   -92787  -206211  -155453    14202 
   80989    80899    90905    14345  -136455  -114559    34073      844 
  -70888   -47957   -76586   -35800    51784    59528    56451   -52162 
 -128325     7291    21042  -143695  -141128    17743    61559   -13704 
  -28620    -3821    44638   143877   104735   -90457  -173935   -54606 
   87120    40724  -165357  -276294  -131622    81462    39030  -120853 
  -48869    63639   -18966  -113967  -180606  -195102   -20614    86711 
   -6496   -17443    13481   -59122   -95179   -48808    -2956   -31723 
  -98778   -84520  -108493  -206219   -92144   103094    28145  -104265 
  -88184   -57680   -20680     -149   -17557    19891     3956   -85263 
  -43545    24379   -54901  -108416   -44322   -19357   -41246    -3892 
    -518   -80314   -67187    25404    12765     7663   139407    77871 
 -259847  -330789   -66855    68493    30792   -47823  -152940  -124624 
  103256   189502   -96378  -242580    43106   177797    36790   -68787 
 -246997  -283484    35163   136743  -147825  -223494    27744   165219 
   39364   -63944      481    17522   -25030    44949    24360  -177434 
 -118050   205149   143427  -233529  -225271    34768    77481    77564 
   76876   -88719  -141861    -2327    28556    22702    88968    -9172 
 -195980  -201891   -94574    37470   124316    56888   -23266   -41525 
 -134632  -173750    -6770   110767    10749  -104757  -123263  -121875 
  -90976    -6163    19573   -34259   -22357    26708    -4199   -35903 
  -36981   -28420    31615   -39078  -250678  -193334    39221    19757 
  -27281    69320   -70389  -298577  -102097   260028   264831    18957 
 -125474  -159735  -236051  -240102   -51092   185428   256322     6834 
 -234658   -62989    55227  -134953   -95933    90903    -3328  -113668 
  -16189    28384   -80575  -153708   -32626   174530   164562   -39780 
 -148131  -101112     1448    -8538  -152993  -145962    -8532    25335 
  109250   192579   -14237  -157851     5858   -76079  -324339   -71912 
  225063   -13186  -187688   -44553   -43127  -109916    -7697    55798 
  -82190  -186395     3539   212348    65002  -188846  -182862   -94000 
 -180728  -173074    92166   108223  -192681  -143167   204415   220692 
   21067   -43859  -110245  -159282   -23748    57633   -57770   -83581 
  -17699   -57599    21467   196831   103635   -49846   -35443   -72842 
 -131515   -53992    28751   -51198  -205458  -184458    25099   128414 
  -10684  -143600   -80330     3531   -89238  -152592    28420    84737 
 -120150  -104157    60938     7196   -39750    -2833  -112240  -207989 
 -116733    11013    76262    41230   -73599   -76067    38479    50020 
   39156   209286   267836   -33598  -212952   -25965    37873  -123762 
 -155855   -42837    12316   -37956   -18650    99362    56942   -54132 
   11541    69708    16795   -81766  -188869   -97188    27775  -125332 
 -204465   -55275   -51815  -142039   -51720    75993    59510    44164 
  118445   131278    -6006  -172698  -150221    34583   102525     3936 
 -150218  -306276  -261151    12866   167198   104008   -36037  -194155 
 -144400   105484    52848  -270753  -295648   -64905    29085   -25414 
  -93579  -164780  -182983    27101   197289   -52276  -230944   -29110 
   56215   -27177   -50262  -125005  -198691   -89344    73879    57754 
    3222   123026   123846   -66122    39694   219145   -65303  -265956 
  -15851     4528  -265482  -256925  -158217  -332111  -408159   -95782 
  155724    28392  -136161   -42253   114949    31717  -122875    10316 
  160163   -12305  -143162   -39301    -1619   -32976    32484    84605 
    4605   -68282     3339    89740    68967    26849   -10930   -89756 
  -78506    89195   194333   114258     9052    23451    42567   -73745 
 -160095  -125312   -47636   169384   356594   238767    58077    15580 
   11530    16936    68297   167367   196199   106086    22318    -2124 
  -15748  -105978  -185694   -57190   122362   150987    73300   -83826 
  -96717   134850   143817  -157941  -323492  -295257  -240859  -209610 
 -234486  -265563  -233203  -146779   -66800   -10306   -10103  -138761 
 -219739  -128456   -95236  -166490  -169017  -126842  -180847  -298618 
 -335214  -335378  -330334  -221447  -102037   -17167   131523   187255 
   43188  -101040   -74631   155466   264841   -64142  -378836  -305419 
 -184558  -202401  -222590  -153370   -40854   -38563   -49249    49881 
    5365  -110405   124053   412246   224064   -84213    -6603   169916 
   66720   -52723    46115    31889  -140143   -18754   245636   177113 
  -30211  -119755  -183712  -169709   -66720   -32024   -70092   -67029 
   65835   244848   293512   239882   115212  -114902  -202538    16009 
  146171  -108036  -421208  -452120  -236363    47819   191200   137817 
   84370    91934    72459    35467   -56750  -153995  -101947    19356 
   59738    22769   -20603   -60881  -156216  -221051  -150008   -37078 
   82431   165957    41285  -149786  -152736  -113867  -110748    48812 
  240272   185828    -7702   -93611   -64359   -42894   -50480   -58823 
  -77004   -86003   -43416    85416   156634   -17213  -183345   -45794 
  177700   223524   127345    14637    -4633    -5880  -146406  -273701 
 -255137  -239573  -196174   -31421    66998    23748    48495   177040 
  108926  -224031  -384530  -205583   -14738    93578   207928   222578 
   69670  -105160  -166076  -181548  -180811   -87765   -16313   -82904 
 -115591    37155   179887   101904   -32241     -891    74822    16766 
  -29724     7509   -86167  -182475   -17832   130897    38189   -60377 
  -75441  -128120  -179104  -137359   -18447   103768   148143   152957 
  129421   -46556  -173850      592   106782  -108302  -222751   -67717 
    6517   -91734  -120078   -46831  -102656  -198109    32214   357370 
  299571    38684  -170682  -334114  -228924   102820   148761   -99872 
 -126661   153838   276665     7600  -233337  -141694   -58783  -117886 
  -20615   165269   110467   -81770   -28579   153463   -12597  -360376 
 -269726   117157   136543  -158667  -252399   -75062   108894   127058 
   -3781  -146569  -126282    52731   113581    12485    -5102   -12786 
 -133818  -148212   -42723   -44057   -74311    31662   148301   125601 
  -10019  -165471  -185457   -30862    46298  -126168  -310943  -223689 
  -45029   -74307  -158388   -76811    66238   107776    29252   -38921 
  -22043   -32659   -63965    28248   114594   -33050  -210491  -150187 
  -12591   102836   184310    -1169  -334659  -363220   -51959   141418 
   -6121   -27232   197941   118225  -130740   -68746    14650  -133571 
 -179936   -40471    11269     9084    39264   -84827  -237409  -142981 
   -3693     6737    34242    89402   115877   154686   160003    51841 
   12824   266211   469171   188624  -231905  -294641  -120550    38496 
   92947   -17515   -90653    -4907   -16414  -135167  -160510   -85120 
   17445    66446   112722   160854    25455  -176197  -184107  -146732 
 -280638  -422246  -308058   -25114   163881   239656   259052   132432 
  -73234   -92548    -9500  -110381  -198825   -57138    46516    -2756 
  -14103     8252   -59406  -167128  -133467   102661   306110   233532 
  -11321  -158982  -129718   -79385   -99738  -106560  -141237  -235340 
 -161824    82881   174262    85684    57649    42918  -121369  -320939 
 -379450  -234331    39339   218379   187103    25282  -129367  -162775 
  -34351   200659   396537   432623   228797  -156493  -358377  -203641 
   11662    34206  -149919  -414446  -547426  -359465   106042   425143 
  290794   -47681  -206836   -93633    76590    22473  -175092  -194319 
  -22899    66667   -58716  -194598  -105368    39507    60577    75652 
   19982   -95636    11781   177301    70961  -182232  -338827  -225071 
   82068   198256    58399   -27161    65567   150764    81804   -22846 
  -63120   -97125   -75468    50848    41067  -135800   -84390   124025 
   69563  -102558  -111993   -99595  -127759    -2649   198467   159849 
  -60666  -176373  -205127  -209253  -115109   -11663       33     4739 
   38809    15065   -23656    -5452   -55248  -120133   -18674    47951 
  -89885  -156731   -46254   -18600   -27114   106844   113938   -77120 
  -82459    60208    15350  -121703  -129732   -76545   -21253    67746 
   69299   -44139   -81485   -32288    21922    96456    89971    -6940 
  -70326  -172495  -264630  -148932    31832   128078   219921   173634 
  -68347  -180410   -96190   -60948   -88375   -81527   -70891  -111739 
 -150650   -51706   102410    38295  -167057  -142138    91377   173534 
   46313  -107854  -182016  -102556    66421   121996      344  -140388 
 -105984    54469    89237   -64209  -197045  -139647    10454    39506 
  -32091   -72725  -113135   -84044   137741   285014    85402  -201782 
 -225579   -32254    65492   -44535   -81075    -9352  -122779  -207122 
   63850   287277    69338  -172960   -17246   120477   -59275   -96604 
   17535  -123380  -207856    33444   139186   -70578  -157331    21993 
   83277   -44650   -30602    77402    33265   -37084   -31306   -75356 
 -110423   -69750   -34052    38291    72518   -42218   -81671     6609 
  -13230   -99189  -134037  -133432   -20393    65508   -59145   -87502 
   58827    17363  -117475   -61395    29556   -49955  -138663    -6741 
  131520    12808  -143504  -174702  -189016  -179368  -107395    -5360 
  112793   167961    37837  -150174  -123389    38010    50559   -59463 
  -86699   -56066   -57075    17181    97690   -42578  -214076  -159609 
  -24089   100757   165521     8740  -115580    54428   131610   -89517 
 -247049  -204106  -101897     -673    51234   -13914  -199550  -263416 
  -29316   139285    22159   -80220   -93333  -142679  -108479    37441 
  100690    77653    84714    74738    14108   -44109   -78514   -57403 
   -4249   -66669  -202928  -163925   -39541   -54513   -42746    75805 
   51369  -109045  -103309   106319   197113    27381  -109285   -76091 
 -102240  -149670   -15984   141776   148777    96579    80937    77538 
   -1882  -114071   -54881    97799    67946   -34654   -43701   -38222 
   40129   132307    86314    82392    61117  -142249  -165514     6057 
  -83421  -276632  -186720   -12801   -48612  -146819   -72267    66815 
   18064  -138095  -102059    22190   -69749  -161606    -1627    97795 
  -56070  -187117  -100195    66017   111404    67540    39794   -10847 
  -81644  -100506   -85831   -49465     8624    21588    -5930   -15781 
  -37331   -94004   -90818    27713    93246   -28623  -161631  -179051 
 -218408  -226755   -47082    77936   -40064  -154376   -88798   106532 
  271447   248136   143262    24515  -189165  -270027   -63498   106566 
   25744  -119271  -141759   -74805    -4960     4091   -38455    18391 
  137311   109949    -1459   -86486  -190992  -220974   -62952    79525 
  -17354  -151645  -101670   -16670    27531    79582    48188   -48025 
  -72839     9582   105735    56640   -74617  -111597  -115912  -137058 
  -89575    29365   133048    91671   -47755   -81715   -44191   -18712 
   39077    48021   -33582   -89402   -74394   -29801   -15493   -77290 
 -139464   -97677   -23379    -9904   -29265   -57923   -73230   -45112 
   12933    49302     9965   -68701   -50534   126883   221821     8627 
 -257202  -303422  -226769  -151903   -80794   -11901    32543    61032 
   28844   -66407   -18868   121464    63115   -14740   126747   186600 
   77316    94889    58544  -233594  -354066  -163490     4521    84225 
   63986   -63087   -69765    37782    55825    30860    22917   -77703 
 -247095  -245087    -6759   172190    78614   -73977    -3877   137042 
   69695  -100409  -202661  -285771  -355992  -263800   -14870    71649 
  -70796  -140228  -130307  -190735  -201406  -107603   -46083   -25925 
   77179   282534   368837   125532  -176711  -151658    23729    55156 
   30693    68597    84688    18645    18660   111607    88854    26740 
   82419    74194   -51866  -148816  -205550  -218876  -163188   -84326 
  -40338   -50657   -80398  -110455  -129942   -74096    58083   150942 
  116074   -18777  -165214  -231120  -176944   -65899    40935    93919 
  -16164  -219762  -205585    42778   103670   -92641  -130678   -12974 
  -75392  -206350  -161204   -82386  -128941  -156098   -54500    18440 
  -19796   -18009    43107   -50250  -307311  -372550  -102572   155891 
  143084   -22174  -107279    -6826   138719   193393   174197    26768 
 -153522   -85134    92063    11191  -202428  -213330   -63361    21334 
  -14017  -106092  -206708  -247035  -157109    13219   103234   -10083 
 -167082   -84078   102537   108875    47529    30440   -54296  -125437 
  -37018    62328     7457   -85095   -12657   173194   190973    35205 
   12543   121705   102323   -26868   -87171   -68812   -48189   -52777 
  -62869   -49275   -62146  -138997  -119982    84213   246303   171789 
  -36791  -152136   -93899   -19907   -53216  -108433  -112095   -91230 
  -38085    63593    77542   -92900  -166236    63259   231590   110291 
   40007   130853    79647  -103976  -139744   -43115    23771    68700 
   59780   -97555  -301220  -312648   -83558    83821   -34046  -170866 
  -53368   137401   148542    39187    -1016    25253    19118    13521 
  -25994  -176704  -227020   -39395    87221   -16283  -125111  -113637 
  -61770   -23188    22650    75653    12393  -161442  -199603   -62327 
