Origin Time       2011/03/11 14:46:00
Lat.              38.103
Long.             142.860
Depth. (km)       24
Mag.              9.0
Station Code      FKS002
Station Lat.      37.8453
Station Long.     140.6008
Station Height(m) 43
Record Time       2011/03/11 14:46:55
Sampling Freq(Hz) 100Hz
Duration Time(s)  300
Dir.              N-S
Scale Factor      3920(gal)/6182761
Max. Acc. (gal)   477.787
Last Correction   2011/03/11 14:46:40
Memo.             
[...]
 -103581   -21244    33131    35212     8146   -36279   -86302   -98269 
  -52947    21254    82396    94826    60434    15516    -5608    24782 
   92702   128333    99548    45663     9753     7225    25472    52785 
   99611   138407   104886     8333   -61281   -50706     -829     5919 
  -59903  -129116  -117870   -36798    40353    56190    12904    -9220 
   34672    70167    38818   -24301   -71418   -76831   -36567    21154 
   69670   107633   127121   100415    16059   -90911  -163512  -178337 
 -157376  -120969   -58520    27684    85146    75690    32013     5297 
   25033    83509   122419   105533    48906   -23395   -62391   -25830 
   45053    71252    25200   -42691   -54100    -8366    26629    22321 
   -9800   -56316   -96896  -114041   -91349   -24666    52138   100385 
  114768   104360    64973    -3034   -59669   -54050     4210    49538 
   48959    36136    38260    28672   -20374   -86051  -121096  -110221 
  -73298   -28393    18015    69685   123183   145617   105951     5961 
 -102202  -133647   -76315     3010    65266    92985    74225    40094 
   16132    -2381    -9059    -6589    -8268     5549    43209    58645 
   24353   -22724   -29618     9586    37152     6619   -60244  -112480 
 -109558   -57168    -1966    33221    41640    14135   -19433   -14076 
   29024    78550   114479   118917    75683    12040   -14482    16453 
   68297    84499    55220    32528    44392    64749    70400    47088 
   -8263   -59269   -73292   -67833   -64336   -57426   -49840   -47051 
  -30693     7087    38984    36272    -1841   -49800   -76907   -68341 
  -27285    26590    62764    70982    73917    82793    74632    33199 
  -21299   -56165   -66797   -63590   -32422    38812   117690   144338 
   90610   -11661  -109805  -155679  -129871   -71422   -25507     9006 
   63992   145374   195467   164869    81319     9554   -13003    -3419 
    1181    -9420   -23690   -16678    24017    51215    23646   -24483 
  -71666  -124025  -133649   -64976    43478   129577   140025    76305 
    4189   -20259    -2730    13959    22012    33331    22626   -17435 
  -45304   -37777   -12883    12459    39737    57079    34375   -25043 
  -77203   -93932   -77730   -51587   -51704   -64078   -31356    24230 
   34007    18216    26223    49792    73023    89227    91760    88101 
   75963    46015    22042    29414    41104    28599    21637    45836 
   75173    75569    22307   -69133  -118388   -87723   -29367    13709 
   30518    25615    28622    40569    28500    -3942   -21573    -7876 
   30643    65169    59097    30386    22267    10490   -33304   -59542 
  -22839    36394    39121   -21862   -64707   -41433    -1279    -6635 
  -55382   -90626   -64037     2288    40558    36414    36047    47878 
   42582    22447    -5042   -37368   -40034     6648    65492    77611 
   36466    28547    99142   150241   113836    53053    35924    61867 
   61326   -21753  -122055  -160104  -142738   -78898    15509    67148 
   33022   -28901   -36306    22712    91394   103031    69151    59880 
   63242    25293   -33530   -79131  -106287  -110240  -103651   -92976 
  -46276    33352    83016    85672    82772    85312    80669    51848 
  -28176  -118355  -138381   -92955   -23652    47608    93459   114178 
  118122    88429    30112   -23785   -32721    11830    55221    50274 
   -2755   -73614  -113702  -112788   -90099   -38365    23117    42355 
   35461    50595    72421    76519    50101   -35449  -144922  -192787 
 -152073   -41017    90086   141372    82953    18688    22452    44005 
   18362   -40942   -67353   -26828    44899    74391    20481   -55759 
  -65421   -18050    21867    26780     5258   -23384   -30590     6004 
   70971   115706    97419    42811    33924    72588    87202    67689 
   40318     3061   -33106   -45234   -33161    -1265    39071    46982 
    1036   -38285    -4863    60470    82304    51332     2107   -14498 
    9249    22666    22783    34051    32803     5439   -34829   -57850 
  -25547    25373    31086     4845   -16449   -17166    -9449   -35078 
  -92303  -126249  -109215   -62077    -6642    65524   145957   189417 
  183604   146733    83130    24323    16547    41260    39882   -11710 
  -86056  -133094  -128392   -77296     5744    88651   146871   173117 
  132088    14908   -97971  -134300   -89839     -539    37727   -34885 
 -113606   -81605    34913   139693   134606    11557   -94353   -89764 
  -28426    26218    59151    55077    22227   -18639   -75949  -115254 
  -80697   -10036    38758    67177    76970    71322    70367    63017 
   47956    72879   123641   118649    58151    20579    25740     9944 
  -54740  -103753   -83645   -21779    26630    47796    69827   100802 
  112605    71701   -35418  -159008  -221433  -215402  -163099   -59921 
   51912   112718   130843   105771    16290   -84859  -135714  -138338 
  -87932     5956    55300    25110    -7681    -8199    11504    59934 
  101237    86433    25952   -44682   -80722   -65185   -43235   -32868 
    2484    63834   110959    98527    13017   -68259   -64738    -2714 
   59198    83119    43581   -20370   -36972    -3890    24289    21246 
   20843    40726    35973     7467    20789    78052   125651   138271 
   99258     4243   -85788   -90979   -10677    78378   108432    77700 
   35504    14127    -5714   -38495   -65526   -84137  -118211  -162813 
 -167684  -100329     9406    93639   104616    67840    46868    55653 
   62500    46813    15220   -27295   -81493   -99996   -40830    51158 
  122832   156752   150771   121946    85619    66976    72132    63569 
   48285    64210   111819   162377   161202    86493   -27308  -144519 
 -220981  -230752  -191883  -115129    -8013   102726   171121   147847 
   42200   -75727  -145264  -145145   -84240     4081    83659   142536 
  171091   144695    64057   -20005   -52424   -47410   -63771   -97063 
  -92396   -30545    65197   125790    91993    19257    -5937     3043 
  -13831   -47615   -24680    51180    97887   113098   126809    99393 
   16678   -61473   -79891   -47195   -14577     8983    50164    91396 
   83736     4712   -96031  -138935  -135835  -144897  -149982  -102668 
    5243   115706   135638    67540    17905    43160    91591    77394 
  -21918  -145140  -216635  -191298   -56691   139400   278644   283121 
  177241     5864  -143141  -157323   -61133    29220    39687   -34630 
 -102849   -81842   -14610    37167    72005   102455   137739   155811 
  111129     3148  -118589  -183883  -134804     2475   121286   164193 
  162469   119216    19894   -63911   -74957   -54929   -33341    -8223 
    5489    29900   100013   153350    91103   -71458  -219169  -247941 
 -137456    29108   119678    67319   -62025  -141491   -82979   103145 
  279487   312557   191852   -20306  -205414  -238023  -108140    95030 
  239506   204701    26273  -127811  -142261   -34494    74618   110588 
  101156    76325    91830   176721   209976    93448   -81767  -175307 
 -138012   -15534    86332    81331   -16480  -103461   -98108   -27733 
   29210    54629    92477   152050   177209   113559   -32238  -181553 
 -225384  -113248    87080   246996   285273   201495    45271  -113097 
 -216404  -248339  -199466   -66335    99111   232273   296740   251155 
   89382   -81119  -134264   -94001   -68062   -86815  -112393  -111180 
  -88260   -62683   -14678    63029   108199    71938   -17575   -96372 
 -105326   -27506    88085   157904   108948   -34803  -130091  -107343 
  -46561     4337    56929    87396    83021    64519    37818     3196 
  -35582   -80387  -114214   -93222    -4277    97441   135211    76674 
  -28739   -82231   -54307   -17019   -14319    -9811    26219    85560 
  147039   176141   142044    54338   -41044  -102533  -108293   -58422 
   -7850   -25201   -68842   -36752    46480    69485    13505   -56860 
  -81646   -37788    42421   109366   130943   108181    86702    76565 
   34564   -44794  -127969  -174456  -142259   -31263    97286   168392 
  163506   124144    74205    24467    -9714   -69679  -152003  -143569 
  -27137    77049   101229    75453    40717    11110    -8857   -17299 
  -29055   -58227   -78813   -42410    46363    97085    34437   -71654 
  -85528   -23607   -33626  -141169  -223932  -213476  -116077    37432 
  154344   177651   160337   129270    65690    -4800   -56370   -64871 
    1604    91590   120915    89792    48450    22370     8778     5487 
   -5962   -55532  -114387  -123218   -84665   -43121   -26294   -32184 
  -24143    19482    41327   -14240   -98376  -137483  -128027   -84780 
    -570    83380    92963    59305    54430    56438    63738   105273 
  126888   104488    71284    17668   -21986    -2641    -4929   -73801 
 -115628   -80260   -12725    42225    60890    36184   -17696   -72098 
 -108756  -131014  -133770  -118092   -95386   -35665    68307   142405 
  141246    96726    50331    21067    -9576   -66785  -112120   -95977 
  -39917    12240    53756   100989   149894   175101   165404   116629 
   51609    11354   -30667   -91997   -98217   -29483    37135    52463 
   19986   -21676   -24182     7950    36606    46399    31897   -17865 
  -92257  -140933  -114529   -19056    89801   136716    93876    32786 
   19472    39767    52187    18913   -42014   -58172   -10075    49779 
   73052    68091    72538    87113    75965    16071   -67490  -116160 
  -97508   -22375    68014   107603    69224     6640   -24794   -39149 
  -63610   -66430   -29028    -5009    -4269    24999    66530    65677 
   29057    -1471     -103    10262   -14562   -45724   -19934    52255 
   99145    50644   -62538  -114271   -77839   -29768     7499    42524 
   81283   141921   193266   181882   115612    40889   -13236   -49991 
  -77583  -110691  -167177  -193629  -119838     5811    84969   110939 
  142913   179406   161832   100567    51409    21069    -8810   -60208 
 -125322  -134030   -52527    58140   120438   108560    50789   -12531 
  -52068   -47188     -702    48912    48502     -968   -53583  -105039 
 -154826  -172986  -159692  -116174   -37515    22231    13866   -23789 
  -34914   -23146   -23639   -57436  -113491  -150641  -138731  -102895 
  -81285   -58482    -9640    51480   102982   107765    38614   -48661 
  -85347   -72821   -27031    27747    40305    24682    54514   120949 
  158464   177828   223034   257731   204020    63925   -80749  -173885 
 -223233  -251217  -251808  -204165  -101304    38634   163285   221979 
  205497   141438   106481   159474   225657   185638    31110  -139979 
 -207755  -144847   -11519   159307   307455   332500   216396      612 
 -225899  -338511  -311498  -217039  -139907  -133584  -165772  -159287 
  -64388   115300   290417   345528   226217   -30870  -276634  -378223 
 -339205  -179128    57430   208929   191167    61574  -108475  -182239 
  -84067    35855    75298    86247    80710    86130   143421   186413 
  167032   115758    61215    26666    -2523   -45537   -53436    -6429 
   45122    70042    56567     4210   -42185   -36686     2529    28432 
   37371    31582    -3910   -34631   -23951    17621    84828   144417 
  127162    30059   -80545  -155384  -182742  -170213  -114280     8965 
  140454   158409    70787   -28894  -109445  -162180  -175860  -146821 
  -59280    55178   116980   121634   119671   102791    63303    41027 
   20129   -36421   -71166   -26484    42989    58275    13171   -53736 
 -117034  -156161  -121309     7995   167723   274862   281735   178106 
    8380  -127965  -148785   -75190     8003    45258    37643    35363 
   60029    47406   -25793   -70379   -63948   -75317   -63796    33334 
  142616   197728   197502   125775     1658   -95859  -133498  -147215 
 -151142  -145859  -167131  -230657  -285088  -240486   -64780   144052 
  260504   275456   238900   137403   -36584  -210649  -308850  -285057 
 -128518    91825   253979   255707    59689  -228542  -390721  -361223 
 -251906  -108835    39342   112660   107651    48553   -71543  -216571 
 -338202  -416673  -427654  -363482  -238405   -50255   188427   424376 
  598545   664652   609999   457709   228999   -22500  -202196  -290436 
 -308652  -205924    13891   246589   443634   585324   622327   572123 
  519619   486946   416561   297467   169822    34986  -113782  -256000 
 -341548  -278078   -54472   182101   293353   256222   121638   -21423 
 -118734  -190586  -263765  -328264  -377581  -407381  -372619  -236015 
  -54697    40333     3875   -66812  -119833  -185447  -225111  -183879 
  -72597    74428   196873   249973   259288   261371   271546   299175 
  339329   364474   314825   177967    47063   -11710   -25549   -46853 
  -73950   -46547   -15534   -92490  -226949  -342171  -450361  -525581 
 -495381  -312698   -28112   220591   345365   321446   141520   -74951 
 -127146   -24660    65706   149027   301953   412623   349307   191053 
  101965   118937   183906   267444   325559   266655    61110  -192512 
 -353272  -392206  -355068  -231609   -52937    78106   140849   151421 
   81002   -45431  -151564  -211611  -245543  -266254  -270689  -258076 
 -198030   -36720   180181   325323   349327   277541   131174   -47299 
 -192906  -284282  -324268  -250169    -4414   303486   497119   550867 
  517853   376446   158406    -9804  -148287  -348430  -512240  -507324 
 -362631  -162495    31662   151901   170780   140925   121002   117242 
   91592   -12251  -204631  -384666  -427548  -327962  -122073   164548 
  404140   483272   451993   385207   311166   264039   200361    32089 
 -206423  -434190  -585247  -538492  -236829   197631   567547   760924 
  756141   532217   180059   -78527  -214945  -375549  -544249  -633630 
 -656121  -593688  -402052  -134117    81924   150123   116303    90531 
  101615   131472   124626    22161  -144220  -299599  -371745  -309209 
 -115264   143869   355279   459596   474025   412358   300693   196646 
  126594    67279   -11176  -131286  -279233  -381360  -389922  -337394 
 -261511  -142786    48163   263964   395994   365776   153550  -144795 
 -311791  -300378  -258827  -172781   -26678    15746    -7011    61430 
  118093    44292   -77216  -163527  -186845  -133923   -35204   115592 
  327410   483020   466733   268296   -66695  -383463  -519467  -513701 
 -460747  -356245  -218708   -77413    88358   257376   381991   454686 
  452913   315188    66032  -125433  -187612  -240163  -255717  -103546 
   63955    81075    89461   157502   127826    10210     2579    97108 
  119456    52290   -27117   -84346   -91886   -52497    19357   112129 
  144017    41804  -124163  -220414  -222531  -223435  -264884  -278435 
 -230149  -136378    -2303   103358   109840    52313   -29374  -110148 
 -121192   -53810    10210    11669   -63746  -157310  -144048   -25623 
   75117   117517   132440   158042   210541   240775   212614   161618 
  138572   140544   125130   105124   125280   167331   174078   122822 
   56819    40201    95989   203476   292307   300957   257443   196132 
  106254     2146   -88079  -159018  -204743  -205764  -144510   -34986 
   83930   200713   319149   388933   322774   104056  -154245  -324855 
 -410120  -430750  -343030  -216590  -148057   -41556   157487   319943 
  374422   309595   108382  -107830  -179453  -117871   -14585    68324 
   51319   -79748  -181321  -163269  -106249   -75597   -69602   -87442 
  -93733   -25091   108381   216832   237076   144938   -49607  -235785 
 -322338  -374707  -440352  -453042  -377069  -213748    13997   200439 
  265374   240440   174450    90350    12027   -34744   -34616     1904 
   74405   196091   311362   360991   384072   382661   273535    67579 
 -121841  -240975  -319937  -347913  -259423   -72566   120271   259114 
  323427   313386   228073    87336   -42742  -140600  -256064  -361667 
 -339293  -181489    -1884   131591   192153   156795    61066   -35552 
  -90319   -48784    92410   239711   341490   446066   529885   498827 
  374844   232474    81572   -56855  -136317  -147109   -88748    52496 
  219507   289729   238226   146885    64065     -901   -55304  -146672 
 -287745  -414643  -450686  -380153  -300669  -308223  -335637  -263678 
  -94890    89236   211893   210373    61580  -168916  -355959  -452628 
 -491712  -422663  -196412    46038   174254   271646   410805   534266 
  611497   604431   445892   189488   -38844  -181533  -250459  -233618 
  -88778   111373   241258   313289   367855   349661   249996   154677 
   94365    26126   -38466   -49259   -33349   -33360   -23089    12538 
   58061   132314   255021   376710   428874   410608   359705   302892 
  244343   150969   -28066  -291567  -538773  -660488  -656269  -567501 
 -369705   -79673   120934   119677    53958    31128    28233    42233 
   22036   -76066  -200954  -338739  -468992  -486038  -304211    33155 
  349165   518046   566009   502883   319822   131394    15132   -80232 
 -162386  -221790  -270290  -269310  -205853  -114262     3806   158214 
  289838   287551   155895    47739    31015    37114    44871    71134 
   79021    17321  -128898  -305183  -415512  -392349  -236944   -50471 
   47134    61342    76012   105705   139884   202939   249347   198139 
   44009  -169150  -348098  -371462  -192644    97159   300109   337435 
  347642   358694   248734    61049   -98262  -218065  -279825  -237676 
  -61168   177787   342876   429371   495461   486710   369494   232504 
  102100   -68536  -219317  -263493  -238292  -212580  -191937  -146694 
  -54703    41822    71965    22619   -95626  -239028  -296153  -239423 
 -165061  -104628   -41724   -20904   -45922   -68799   -94172  -140039 
 -183094  -201405  -210373  -222278  -208939  -145158   -38821    88804 
  209488   289755   299828   221700    71575   -90886  -210650  -257485 
 -196722   -46642    75803   103873   116989   145047    88158   -47646 
 -132880  -154351  -194813  -240846  -205308   -58435   125354   219832 
  179020    26576  -177226  -285857  -262084  -195787   -87392    14245 
   39844   107613   265919   357945   302878   165269    29777   -41707 
  -53640   -28984    60720   178897   220553   183308   132945    78527 
   17458   -22888   -32380   -14038    36544    88344    75561   -11641 
 -100884  -143722  -172592  -202967  -192175  -127142   -31650    75590 
  153014   136565    15934  -117963  -171111  -160366  -114369     4810 
  154336   229474   239918   219970   147864    59668     7710   -14928 
  -21595   -38267   -93012  -146651  -134255   -57394    33960   107789 
  142103   133687   121583   106549    54975   -13772   -79809  -140623 
 -166240  -145408   -80785    50398   238412   381808   361053   176077 
  -55518  -211383  -256735  -241445  -181582   -65654    45736   105582 
  124649    80998   -30902  -127338  -126177   -44619    48370   126818 
  203130   271309   292303   234761   135365    68045    31151   -23090 
  -65200   -60488   -67031  -128170  -193463  -211162  -212956  -231904 
 -224482  -143391    16833   209404   351728   412324   371281   205706 
   25304   -64587  -141783  -238658  -237171   -87181   135107   326099 
  429520   451524   392864   269580   135701   -14830  -189678  -345360 
 -462601  -468703  -294446   -51268   122111   208795   213591   124214 
  -23637  -125473  -122276   -69229    -3316    57849    30507   -75256 
 -107647   -18686    65104    52560     2991     5664    70777   156044 
  235306   325761   419258   452170   376906   195298   -20755  -168048 
