Origin Time       2011/03/11 14:46:00
Lat.              38.103
Long.             142.860
Depth. (km)       24
Mag.              9.0
Station Code      FKS019
Station Lat.      37.6031
Station Long.     140.4381
Station Height(m) 224
Record Time       2011/03/11 14:46:57
Sampling Freq(Hz) 100Hz
Duration Time(s)  300
Dir.              U-D
Scale Factor      3920(gal)/6182761
Max. Acc. (gal)   171.246
Last Correction   2011/03/11 14:46:42
Memo.             
[...]
  -92532   -73298    -2570    53040    33226   -56501  -119272   -70920 
   32997    80125    40063    -8380     -514     2489   -41414   -57963 
   -7857    55545    63068     2158   -53725   -52948   -36736   -29432 
  -10325    -5831   -29411   -31986   -13823    -6051    -2079    12306 
   31991    15994   -31134   -32424    20269    58384    48761    17204 
    3938    10325     3745   -25683   -51606   -52678   -32373   -10067 
   -3004    -2223      891    -1251    -4533     7005    35677    37166 
  -10305   -44101   -32342    -7089    14251    33957    50193    28838 
  -36483   -68089   -38179   -25327   -69955  -102337   -63310   -11034 
  -18137   -52316   -26599    56561    72194   -13468   -57221    21329 
  118767   107927    17781   -36384   -43008   -40594   -27344   -13676 
  -20143   -45775   -43282    18270    63634    35239    -4756    16655 
   64634    52885    -1405   -31917   -33650   -24410   -31789   -48289 
  -31439    -6456   -24275   -69312   -66800    13880    74724    49390 
   21679    53302    83003    43812   -13715       95    37287     3788 
  -55014   -59822   -32605   -12857     2156    11754    18605    37375 
   48167    20302   -23077   -19591    53468   106931    38136   -85505 
 -126962   -72980    15692    69484    44890   -11998   -28556    19525 
   80767    61831   -14119   -37990    -4291     8151   -51721  -134688 
 -121497   -17624    36372   -11589   -76300   -66063     2624    23004 
  -16467   -17047    25678    51084    58842    45908     9732   -23872 
  -44387   -25778    31635    53305     9494   -51534   -87946   -87775 
  -62616   -29892    -1699     3456   -16078   -35306   -37915   -27292 
  -18231   -14845     5130    38905    21840   -60530   -89438    -5304 
   72683    49246   -31147   -63950   -11327    26282   -11651   -28438 
   32265    93588    73945   -16469   -77832   -37747    42978    52467 
  -18188   -72034   -57831   -24754   -24390   -49623   -49322    -1088 
   57268    79006    39540   -22000   -23532    42198    86643    45406 
  -21069   -32069   -16542   -26645   -49984   -36745    18383    48957 
   30677     3865    -5068     1318     5518     2877    -7766   -22854 
  -28654   -41924   -60778   -50456   -15317    19758    29318    11258 
    4653     9459     2127     5019    25536    19957   -29406   -56113 
  -12487    20509   -12537   -25554    32571    79206    34806   -33853 
  -19345    14747   -16115   -30462    15298    33587   -27055  -113276 
 -122801   -30356    67497    74380    -6604   -81465   -70377     1272 
   36466   -11540   -57328   -36420   -26520   -57729   -60982   -33177 
  -11349     2512    10845     9374   -16365   -33190    17623    65329 
   29015   -17773    -3154    35285    33063     2812     4169    18135 
     856   -31255   -52204   -30251    31325    46420    -7748   -50124 
  -45616   -25566   -21983   -22673      508    14063    -9055   -30542 
  -27951   -14409    -5187    -8858   -16199    -2492    30794    37504 
   15680    14613    19923    -5096   -41470   -46907     -359    27811 
  -32025   -94733   -84371   -44011    11407    49855    -8718  -105467 
 -113867   -31708    47456    26872   -53402   -52626    17747    51491 
   48246    53057    71987    66256    -4040   -77130   -65142   -10580 
   -3710   -41958   -52744   -13046    20279    23274    25321    47355 
   84632    91926    39466   -30750   -62376   -52942   -37720   -37708 
  -62471  -100304   -98758   -26606    59161    68633    31970    34384 
   44815    24365    -2894    -8399    12647   -23098  -120058  -117958 
  -16902    22384   -16429   -48741   -26701    34668    66479    70641 
   77532    36745   -23864   -17806    19893    26984      606   -36749 
  -61603   -76365   -68878   -30089     5299    22375    20037     2573 
    5519    27700    26192    -9355   -27342    12217    29291   -45481 
 -118627   -82639    20135    46031   -40042  -101266   -62428     6440 
   40298    35998    17450    -2763    -9429    26651    62310    33446 
    2822    24902    45725    52901    45531     6661   -18279   -19138 
   -9245    20453    16348   -47473  -101015   -85162   -19746    22689 
   14909   -25602   -81429   -90148   -25163    41862    57599    17303 
  -34989   -25816    15759     8894   -27626   -27848    19341    48765 
   -8481  -100037  -100664    -1637    77001    61357     -124   -30653 
  -16785    18965    69081    96946    43836   -60876  -109181   -57773 
    5513   -15712   -89520  -107620   -28758    51283    34260   -18528 
  -11301    43103    83344    53282   -41724  -103819   -72284     8355 
   59371    27978   -28638    -4760    47025     3633   -92738  -104892 
   -6935    84430    66712   -23140   -89242   -77992    -2371    57372 
   39040   -17633   -28877    -8144   -22360   -31324     4555    29277 
   17646   -12923   -27816    -6560    -4508   -27593   -15424    10235 
   16560   -10738   -93637  -123707   -13608    92684    64205   -39289 
  -99824   -78060   -17157    64032   120759    43593   -99632  -107932 
     292    47481    -7244   -50865    -9913    38437    18337   -26583 
  -43770   -28817    -7971   -11863   -38633   -71349   -67516    -2067 
   45535    21038    -2934    30351    87202    99235    48618     4612 
    8549    17620     5647   -15398   -46019   -56088   -12769    15846 
  -24863   -72211   -59317     -663    14991   -42457   -66456   -11890 
   34257    32586    10132   -17296   -18761    16319    36399     1743 
  -69734   -98352   -39627    11753   -15980   -75054  -107328   -66132 
   25198    68050    41707    -1354   -11833    31364    53727    -8383 
  -57067    -4651    61478    22663   -86888  -122060   -40567    46828 
   45886   -21200   -56178    -9739    41525    33171    18256    45282 
   74337    47276   -19612   -58628   -47582    -5603    39629    43618 
  -11111   -67385   -58424      372    41576    22082   -28329   -26691 
   23248    26218   -14125   -10159    41587    67286    14854   -64447 
  -66317    -2122    29098     -640   -28028   -19994   -31955   -64438 
  -50049    -5098    16007     4841   -12175   -10708   -20148   -21506 
   52903   108114    28405   -84202   -99289   -33955    17940      -58 
  -45065   -54220   -24756    14804    32886    18796    -1689    -5017 
  -11922   -43323   -52481    -3616    38682    23617   -13640   -54535 
  -92308   -87312   -38760    16430    45402    28119   -10875   -33095 
  -26514    11127    59727    67324    27869     6216     9282   -13830 
  -51246   -66339   -51579   -31463   -39441   -48418   -23494    16135 
   45785    60394    64364    58646    48764    31496    -4521   -40538 
  -58058   -59630   -60971   -72077   -77713   -82327   -87262   -61685 
   10836   104733   134211    68244     4711    -8576      -78    40950 
   80091    44661   -24252   -57694   -70482   -58885   -11532    10751 
   -9413   -28816   -38945   -27445   -26795   -72761   -77132   -29277 
   -5625    14703    25158    -5073   -42309   -61270   -31974    40077 
   79635    61357    15987   -19947   -19707    -7979    -2109    10165 
    5375   -25861   -55877   -71475   -64397   -43591   -26391     3707 
   28393     7573   -17693   -16973   -25011   -37882   -27195     7742 
   55153    77426    29056   -49488   -55665     9095    56645    58390 
   34580     8414    -4809   -25311   -57832   -53777    -2165    36761 
   13154   -43683   -50468      336    33866    22639    -5257   -10624 
   11056     3858   -29183   -37096   -49827   -66844   -28109    17625 
   -8112   -58948   -62923   -30427    -9542   -19205   -29843   -31153 
  -56462   -78510   -52455   -28718   -49797   -77864   -67491    -5612 
   66770    88818    58363    27881    47512   110133   152790   139048 
   85131    13999   -32822   -19759    28861    70627    43677   -67194 
 -143081  -123547   -75824   -41230   -38450   -56692   -43998    -5365 
   19974    23598    -1570   -52769   -90508   -76354   -19601    34385 
   33651   -45363  -134365  -140471   -64951    28087    55730      988 
  -35034    -2090    37365    41189    15805   -19505   -19045    35613 
   70734    28155   -49476   -92052   -53989    34308    65248    26713 
   14962    38326    39035     7483   -23813     6329    79328    76044 
   -5630   -58570   -52258   -13712    -3010   -55286   -83328   -44842 
  -33091   -78961   -98766   -53089    -2050    -9665   -65118   -83829 
  -38595   -24746   -64560   -78052   -50328     -198    39315    26070 
    7025    23686    48806    71197    73966    55665    50286    47921 
    7709   -70757  -136752  -140990   -82761    -9372    30177    32868 
   13957     -584    33394    95712   100500    29964   -33653   -33223 
  -19616   -62844  -115017   -80195      453     9820   -55680   -91220 
  -37884    43234    95159   131814   136117    80451     4521   -42606 
  -43382    -7513     1675   -62951  -129376   -98808     5451    69448 
   34990   -46716  -103478   -83837    17186   104452   113604    85696 
   39757   -22494   -61755   -46588     2969    27269     6981   -25248 
  -44572   -45539   -50699   -83890  -121483  -128779  -103497   -65912 
  -41845   -54062   -97572   -91742    31646   172911   183294    72702 
  -21182    13671   130856   170441    86204    -6962   -30184   -15234 
   -4502   -15155   -51023  -101148  -137994  -111973   -37152   -27487 
 -109975  -156967  -105327   -26906    13029     8993    24985   105688 
  167470   148592   112090   120943   159027   165369   114900    60969 
   56060    37475   -53791  -127106  -128438  -111107   -98720  -103555 
 -103624   -57178   -29388   -73291  -109228   -75358   -16046    12129 
   25250    56724    75022    43968   -17110   -48124     2608    79076 
   86839    45173     5773   -33165   -65085   -59761   -27603   -13472 
  -13461    -8584   -11872   -17849   -16707   -34307   -67829   -31990 
   88903   166303   140291    67709    20720    44411    65662    33770 
   29262    40424    14752    -5963   -11210    10211    62543    57592 
  -16480   -78921  -104353   -76810   -24399   -38235   -95279  -107510 
  -62481    29702   112380    99905    30361   -11728     1948    98497 
  201799   172291    52408   -34017   -53465   -20327    -5299   -47883 
  -59785     -679    44980    11248   -75245  -134189  -134953   -96323 
  -30507    13981    -8100   -69690  -110391   -75875    14790    60706 
   45463    48317    75986    76789    32962   -17639   -14528    36044 
   53254   -13436   -86961   -55345    38348    78827    45713   -32237 
 -103706  -101051   -44339   -28336   -66725   -74201   -14935    61307 
   87404    40311    -6027    14469    48997    32189   -11331   -32533 
  -39458   -46842   -44238   -50246   -84545  -105610   -53651    34121 
   85557   116554   116799    64240    20660     5162     6577    24480 
   -3494   -70737   -79634   -54741   -76513  -115711  -134631  -120058 
  -55873     1934    24902    45153    32736     -405     8958    39229 
   61976    70333    43575      272   -31617   -42555   -20130    33849 
   82039    68240    -7954   -72954   -67997   -16513    18582    15322 
  -17060   -60621   -90742  -115805  -121340   -59685    21622    68556 
  105835   106590    37012   -49711   -76355   -34562     2837    -1224 
  -34924   -80200   -76443   -11378    40243    36608    -5560   -31757 
   23290   121926   124849    22336   -26221    30234    73751    24275 
  -74199  -109720   -28857    72423    84031     8292   -78576   -82455 
  -20767     4803    -9959   -27238   -50268   -80086   -94269   -68859 
  -35128   -30089    -9030    39526    19172   -62049   -69897    -9508 
   31556    40735     1250   -65203   -85346   -61159   -15209    45886 
   71411    47865    24978    19988    17437    11487    -7524   -61960 
 -128320  -150594  -138811  -124344  -128598  -169253  -151690     3097 
  165175   185042    76405   -25605     2817   104338   111364   -12320 
 -120289   -92459   -10894     -221   -58024  -116424  -114154   -39796 
   46988    82541    63184    11275   -22456     2069    33798    36499 
   11246   -45749   -88443   -77459   -10263    46585    -5016   -85298 
  -59781    30321    68719     1659   -71419   -27160    49599    55117 
   16780   -36860   -72574   -80000   -81480   -63766   -23302    16677 
    4218   -75151  -121924   -72009    35941   140012   152135    57795 
  -12931     5667    46748    73348    55041   -21210   -46689    13464 
   42800     5947   -52290   -77850     -771   113307   113968    17077 
  -63099   -91824   -93209   -89053   -57573     4910    12636   -41027 
  -43075    13286    48179    42581     1505   -41423   -23057    17287 
  -11400   -73136   -82557   -41787    -4304    -2546   -11897    -6870 
  -19645   -57666   -54297    -1564    15260   -23594   -67170   -82389 
  -61761   -28303     7800    43243    40092     8872     2099    -6832 
  -43505   -44899   -16113   -23474   -31264    -7712    -4857   -24260 
  -32504   -28940    -5624     5120   -21345   -10510    48316    77381 
   47594   -12268   -16925    45819    63514    17957    -2129    35053 
   66520      -12  -130573  -174988   -94329    17404    73409    27810 
  -67777   -89344   -35911     4647    39380    94361   114904    79927 
   42263    13893   -28382   -55978   -54102   -50842   -21225    24394 
    9007   -35503   -63489   -86156   -32074    85428   122670    69930 
    -533   -28906    26908    69644    31191   -13089   -43328   -67082 
  -84380  -117973  -114948   -41578    25543    27220   -18472   -54352 
  -16727    94703   165055   100066   -13598    -6910    96026    56536 
 -165633  -276760  -145243   -21189   -82949  -181003  -122906    60952 
  152049    34982  -113071   -95999    35870   161087   203445   106743 
  -21345   -45032   -24680   -14345    12835    28459    14435    -6056 
  -39706   -68769   -49553    -5576    30635    70413    91139    46652 
  -34420   -52467    32975   136121   143749    40298   -66244   -75629 
  -31369   -19912   -54794  -119215  -168258  -156969  -128622  -129798 
 -105554   -20112    62517    72071    24058     9832    42692    38998 
    2953    17395    67348    59242   -10206   -70388   -63918    10365 
   58340    58247    60545    18872   -25768    25195    83928    61132 
  -26734  -119202   -92714    12567    17992   -40320   -60250   -69470 
  -68909   -46270   -11133    37490    67896    61392    41007    34273 
   44511    61782    78254    77496    94164   118882    55608   -49971 
  -85278   -40995    45018    67506   -43754  -170841  -169766   -78789 
  -29926   -33027   -27208   -23434   -28886   -41061   -61092   -14643 
  100626   147777    63019   -55426   -57058    49142   110080    82915 
    4498   -86903  -111566   -70225   -40897   -61270  -101365   -74653 
    6820    23247   -21566   -18854    56789   122582    96045    18987 
   -8048    15045    27376     8887   -13000    -8156    21388    54356 
   48509   -37429  -153681  -177565   -93810   -14364    -1992   -43976 
  -83356   -59264   -21153   -27071   -33530    -6919    32731    55528 
   57800    35382   -28228   -81136   -55007    23421    62731     7683 
  -77963   -72460     6646    23872   -18702   -18458    34138    98393 
  121731    72055     9484    -1589    23827    49943    73633    75159 
   11311   -64298   -75524   -76178  -104409  -119833   -98892   -26809 
   30285   -32157  -152313  -179582   -95743   -11905    -7336   -42338 
  -35340    10756    25175    -5813   -31822    -1087    80182   106616 
   47777    13500    19364    15567    17922    13855   -14633   -37429 
  -41602   -45165   -61818   -68669   -24241    46916    39279   -55087 
  -77816    23845   100679    59436   -14657      702    91705   132225 
   83944    45221    62304    68545    43012    21290     6505     5871 
   20196    14377   -26656   -88373  -150763  -176530   -96323    60771 
  121069    49983   -41453  -112415  -116536   -40745    41657    94447 
   67632   -45465  -120369   -89454     5473    65577    13444   -71005 
  -85831   -27727    32298     -185   -61065   -43493     6771    45918 
   77293    87345    65522    24303    10733    32257    59480    76509 
   43597    -8760    -6080     6499    -9127   -16728   -26100   -52008 
  -65331   -69670   -99723  -115636   -78261   -46134   -31179   -25147 
  -67278   -83747   -32443   -36205   -85109   -65936    -5057    63822 
  122115    86917   -12962   -52266   -19509    27062    80067   106242 
   46073   -33852   -56316   -57640   -25322    53702   102817    86019 
   11564   -56522   -23808    60481    91802    58012   -25525   -96087 
  -56549    55445    84413    -3348   -84040  -104051   -75511    -4194 
   26044    -6343   -38460   -57834   -40142   -10124   -26142   -67356 
 -110329  -112279   -41235    32892    35929   -27099   -64036     2649 
  120021   181454   132263    44188    43019    93417    89326    30500 
  -33961   -38655     7135     8809   -27032   -27147   -13230   -51400 
  -99608   -87386   -43045   -11121   -36129  -105088  -109629   -48181 
  -23262   -41047   -28464    36488    99366    95743    31924   -10379 
   27453    80602    42282   -39353   -60248   -52074   -40269    -9566 
   -4262   -16259   -25390   -62049   -86308   -61172   -19905   -12471 
  -69161  -107187   -30941    81786    95744    23283   -26975   -23351 
   26235    94774    70281   -33725   -61630    -4498    54716    57453 
  -18540   -62295   -10545     9434   -35549   -32671     6422    -8191 
  -60906   -77847   -24559    40418    44627     8879   -30689   -41949 
    4689    51780    56371    55291    31618   -23475   -12664    53336 
   40960    -3090    29406    49831      593   -41027   -57521   -42128 
   34505    85681    18311   -81987  -116273  -118475   -97529   -50634 
  -50388   -90261   -96545   -79363   -61782   -18126    35950    49231 
   30967    28236    51172    79284    70746     3147   -59349   -61151 
  -25235    24303    39037    -6886   -16816    44858    85546    80241 
   48849    -1437   -18068    -1083   -15748   -57606   -63073   -11348 
   17586   -37383  -101025  -115536   -95448   -31221    38039    39764 
  -14715   -73291   -88680   -40837    27217    54175    25633     4856 
   34970    42074    -6842   -21064    33547    78118    76556    48013 
  -29760   -90739   -47230    19976    77356   103561    17798   -45288 
   24575    96192    85865    14855   -46382   -33165    29750   104987 
  113674   -15572  -158423  -169268   -76253    24184    59427    44441 
   44165    37332    -1401   -14021     5813     5526   -14953   -27443 
  -20540   -15055   -37948   -55380   -43341   -43387   -53087   -40808 
  -30462   -40431   -67164   -84892   -35222    43603    78609   100091 
   95009    49645    39445    38383     -255    -5202    30347    20354 
  -50377   -85119   -10115    71843    27645   -83391  -135174  -113070 
  -76976   -57205   -29367     1200    13116    26137    40778    44446 
   45232    46823    27182   -38832   -83589   -25844    50290    45630 
   -3521   -51791   -59532   -12466     1383   -18223    34302   115315 
  121558    59824   -21282   -51092    -4782    31257    27973    50892 
   73066    23019   -56168   -80361   -48794    -9669    21149    11116 
  -42159   -42919    10025    39214    22866   -43824   -78094   -24123 
   23940    34850    31881     2158    -4237    24112    35115    47134 
   38991   -23387   -82305  -116833   -99777    -9705    18023   -83005 
 -155639   -98497      760    26354   -11048    -4201    47512    39370 
