Origin Time       2011/03/11 14:46:00
Lat.              38.103
Long.             142.860
Depth. (km)       24
Mag.              9.0
Station Code      FKS013
Station Lat.      37.0893
Station Long.     140.5546
Station Height(m) 303
Record Time       2011/03/11 14:47:00
Sampling Freq(Hz) 100Hz
Duration Time(s)  300
Dir.              N-S
Scale Factor      3920(gal)/6182761
Max. Acc. (gal)   296.351
Last Correction   2011/03/11 14:46:45
Memo.             
[...]
   37497    94019   119948   120335   119722   125026   118577   104352 
  103156   116899   147264   198380   248436   258385   200178    99089 
   27515     9127     9158    11876    18183    15206   -21645   -85683 
 -127498  -151721  -202270  -259956  -292518  -301395  -280209  -230881 
 -188206  -167827  -150592  -127854   -91827   -31327    29193    52757 
   44591    38322    34619     5350   -42097   -88074  -135227  -160734 
 -147680  -128876  -129430  -132957  -105162   -51279    -4223    56221 
  144350   214588   245711   243781   216038   181493   139824    77359 
  -11190  -112026  -191131  -229613  -230722  -196856  -129611   -50341 
   19418    91190   168827   203788   152750    47708   -45380  -103600 
 -151652  -200941  -231673  -223848  -171322  -100459   -41514      633 
   31659    55980    56831    43539    64058   100739    81448   -17926 
 -149723  -231158  -245177  -230958  -155688   -12739    87324   104593 
  134434   214214   254948   220116   148778    45369   -36622   -34007 
    6903    39210    50830    19345   -56494  -162020  -255887  -298001 
 -326472  -353108  -322547  -267871  -244045  -227466  -216756  -212393 
 -190374  -169994  -160603  -120572   -23353    89928   150984   158542 
  150127   128951   103269   102405   135410   185938   236881   276467 
  284062   255533   213327   183644   175895   155660   104591    60299 
   46946    57180    59569    20961   -45163  -115466  -192141  -273279 
 -341771  -377792  -365523  -280653  -125910    -3781   -14689   -73580 
  -47587    11745    23135     5058   -51940  -137615  -184269  -196552 
 -223276  -269587  -325273  -375586  -368633  -252569   -59385    96546 
  148670   150729   150801   150091   182096   226051   217003   190081 
  204753   253712   289623   281757   252838   208401   143704    96230 
   85296    94329   111067   141427   185143   216859   221976   203724 
  155365    93501    71115    86656    78062    28893   -21219   -50016 
  -93222  -178391  -269342  -339542  -385515  -381889  -319623  -228682 
 -140001   -75472   -66017  -103806  -127564  -141908  -186649  -218657 
 -212162  -191430  -149677   -76348    13655    75468    94404   126661 
  205212   289389   315503   279358   215204   129023    65119    58139 
   45001     8436    -6837   -16379   -32132   -24833     -345    11474 
    6822    10202    43199    78799    76430    54275    38920    12843 
  -23085   -34072   -16969   -10796   -55623  -141867  -209926  -243289 
 -277166  -306329  -282481  -204245  -142269  -123583   -96043   -40376 
    3771    25221    66629   134571   172680   145826    98409    96890 
  122428   106351    40117   -27738   -65281   -70631   -42800      153 
   27581    39433    52364    65686    76610   100003   135911   163273 
  168964   146242    99045    38410   -32510   -97256  -135287  -161904 
 -194449  -216552  -214334  -201366  -196131  -185233  -158158  -148183 
 -154019  -122566   -37510    53525    93710   102387   136958   193571 
  247631   286673   265370   138422   -49433  -175652  -184018  -154861 
 -157902  -146460   -89850   -30192    24883    90497   149635   176654 
  162266   135451   132049   138141   121287    79186    19237   -49373 
  -97935  -105457   -76797   -39998   -36828   -76771  -117993  -114282 
  -85231   -88630  -107322   -76760    -5946    36144    32394    32005 
   44428     8542   -93383  -170885  -164777  -141226  -166783  -236258 
 -291016  -273244  -204273  -132057   -72874   -19098    25775    34138 
   48981   106180   129885    98565    73340    72763    76868    67752 
   63916    92740   119231   104599    71844    51132    59269    88280 
   89081    54460    16862   -20286   -38156   -22582   -11508   -28073 
  -62241  -100187  -125128  -143315  -166346  -166240  -117254   -27569 
   54760    70553    54893    61971    50876    30902    51463    52271 
   -9402   -83480  -117236   -90858   -49141   -51868  -101601  -149622 
 -140966   -90821   -58525   -60922   -61235    -1368   111558   179252 
  152553    95701    63590    42664    41492    86043   122195    91358 
   13807   -71067  -111010   -82181   -51791   -60033   -69892   -65467 
  -48107   -30042   -45677   -77641   -82526   -67508   -49461   -28238 
    -307    44329    95969   129363   139826   123040    67466     2217 
  -10460    29281    55279    51998    30774   -36581  -130552  -184967 
 -190473  -185271  -177801  -130043   -30496    56332    61592    20127 
   22791    62938    51893   -26031   -88597   -94164   -80133   -79805 
 -107067  -144120  -164358  -171475  -156546  -127898  -106474   -54518 
   28859    66481    60390    92027   149356   167010   179974   212947 
  193283   140702   131235    87693   -54958  -180726  -212678  -209465 
 -179636   -93528   -11948     3165   -18961    -8839    66331   165565 
  244204   289468   271694   173740    36524   -46790   -24474     7985 
  -60575  -185726  -270394  -292241  -231283   -57858   126761   178941 
  160929   186229   204504   213567   252758   216184    59381  -107500 
 -179078  -149121  -118217  -146137  -202126  -260516  -309755  -317535 
 -219574   -22499   122795   112944    60986    91064   132618   125573 
  134965   158580   135699    71319   -12084  -110422  -184894  -184717 
 -111555   -13003    45768    62918   107846   184344   244603   275834 
  271391   231091   166611    85730    25255    11285   -22441  -106588 
 -154737  -174076  -240875  -315765  -355035  -349505  -270037  -130463 
   24006   147537   196194   172540   155474   200872   241621   223176 
  176239    98231     2906   -24611   -14946   -84964  -179434  -197462 
 -176222  -145048   -97611   -38860    43191   108643    84209    -8375 
  -77370   -80027   -16543    92034   157939   115182    18612   -36082 
  -18970    13185     1439   -33148   -50826   -61031   -77225   -97487 
 -117534  -127603  -150299  -198587  -222899  -199698  -155094  -102475 
  -49268   -24161   -35710   -35080    -3881    12678    12819    30862 
   54352    59900    72025   111712   138482   109447    26632   -72988 
 -138948  -182362  -250732  -320377  -342660  -300067  -195424   -92671 
  -65223   -77612   -47557     4930    17685     9546     8129     2619 
    1308    16864    36202    58278    90814   122047   156416   197781 
  233875   259058   279893   335845   389204   329089   180832    46597 
  -34078   -58665   -73600  -125825  -172986  -184507  -193552  -198641 
 -201320  -201526  -160530   -82942     7813    78721    83141    60952 
   71081    62427     8668   -36935   -91028  -170722  -242564  -299000 
 -312859  -258622  -181594  -137330   -93026    -6999    55451    62814 
  101249   202905   292080   308250   259386   195631   148991   113228 
   76686    11002   -74103  -129940  -187363  -254843  -252434  -187555 
 -129824   -58659    47583    97713    62768    47402    58547    26215 
  -22989   -39503   -30588   -31375   -58278   -85698   -98556  -104441 
  -85952   -34215    25271    67185    76225    57726    20789   -32566 
  -74704  -103148  -146798  -169892  -147019  -139102  -169980  -196313 
 -184510  -136087   -85754   -63851   -62988   -31261    71597   176853 
  184884   131626   131198   195115   245875   259485   253510   215692 
  144568    62835    -6329   -28450    -5397    10941    12054    22799 
   26620     4924    -9647    10790    27469     3594   -55826  -128087 
 -161272  -149002  -156339  -213630  -271044  -252235  -174078  -134157 
 -141319  -143753  -159570  -180267  -130416   -18790    83813   154708 
  190222   182149   144374    94005    33228   -32823   -99272  -142803 
 -139691  -126890  -116902   -84089   -78323  -109700   -83792     8286 
   66333    59600    66801   105396   116884   133089   187482   211867 
  185727   139840    59422   -16403    -4439    33418   -13373  -102161 
 -179032  -265437  -319356  -293263  -200948   -63643    47309    75996 
   75828    85249    88835   105248   128292   105627    38287   -23759 
  -40918   -18651     8023    35985    64253    63453    38003    27517 
   53855    96161   113941   114948   137205   177217   199789   180881 
  127171    72737    49103    41602    21053     -268   -11474   -14442 
    1222    27072    41568    28033   -17316   -72811  -124390  -170698 
 -206328  -230584  -246477  -261472  -279426  -295788  -312992  -337318 
 -358953  -361642  -340773  -284708  -186852   -85127   -21712     8760 
   13207    -8060     2682    60895    86520    87740   112005   120646 
  124520   151520   145958    80807    15922    28699   125517   238003 
  303835   322244   327404   322160   294408   227531   115583    27499 
   -8588   -55357  -108251  -122692   -94228   -34928    -1367   -26279 
  -53308   -70949  -109677  -132054  -126137  -129774  -143820  -161309 
 -185456  -207618  -186303   -86414    12453    -3376   -97205  -143306 
 -124249  -112494  -110561   -67358     -426    32290    42829    59942 
   59313    39117    19455    14660    30945    46046    76801   127273 
  108440    -1312  -101936  -120460   -62028    16278    39295   -18734 
  -95268   -81295    16695    47761   -24716   -85154   -62094    10793 
   29264   -21222   -61959   -91979   -95775   -16549    63152    41470 
   -6623   -31458   -94681  -142313  -109931   -76085   -75168   -71543 
  -59995   -31004     9364    43318    95778   161810   184809   152245 
  102079    49670     7437    19818    58073    46828    10109    -9321 
  -18493   -25238   -36595   -11622    59904    83874    43963     -165 
  -29998   -37081   -60914  -133465  -191654  -206059  -210838  -192631 
 -132018   -69509   -38896   -31734   -34016   -42475   -30207    42614 
  126244   132555    79843    28348   -17191   -60306   -86091   -86640 
  -68051   -57496   -79065  -100121   -61163    16906    66094    85332 
   99996   118973   140757   132274    68535   -17367   -73076   -97322 
 -105053  -109181  -152550  -215687  -231023  -201685  -136636   -28623 
   42733    17648    -1575    54823    91992    85675   126422   184026 
  178916   139801    75502   -25517  -106339  -162730  -237924  -281971 
 -238081  -122299    16239    71935    24570   -18620   -35550   -38198 
    4603    76764   129749   134290   108718    47431   -86206  -209016 
 -243002  -254149  -254311  -183836   -46718   100519   178033   176686 
  173775   193251   189441   151378   134019   157908   151603    71988 
  -22473   -76332  -102516  -144275  -203508  -217823  -174296  -118045 
  -62653   -16700    25281    69438    88758    86081    76214    62420 
   63827    85171   102515    88729    58702    32708   -39150  -161092 
 -221447  -187076  -148727  -129139   -98776   -99865  -125557   -92172 
  -27351    -1768    -7887   -10923    30306    83087    92321   109241 
  150209   140724    78634    14025   -66169  -149227  -174634  -155877 
 -114566   -51263   -27709   -36124    22131   114736   136812   110635 
   83759    30414   -30830   -33703    -3290   -13113   -57868   -94644 
  -62791    43023    93119    58418    33033    19188     1825   -34446 
 -120132  -191516  -205668  -195956  -129350    10769   109663    97352 
   57542    63330    98285   132390   141941   137412   150966   153703 
  113531    43889   -36857  -100853  -160513  -233186  -268001  -253701 
 -203304  -101728    -2826    41791    60956    84010   116829   140253 
  121408    54428   -32836  -105149  -153769  -166131  -117205   -51637 
  -47813   -79873   -62713    -3937    19394   -12185   -48304   -52543 
  -40911   -46978   -82853  -113223   -74006    23640    90905   103950 
  107752   118149   124830   113057    60883   -10938   -29249    25598 
   79692    75783    50132    30373   -19243   -74879   -83273   -67916 
  -50985   -28752   -36332   -76440   -90612   -74082   -50914   -16510 
   16914    33526    18161   -25858   -45170   -32018   -32903   -45522 
  -63410  -101573  -142448  -172235  -189250  -173225   -97986    23842 
  110801   133169   161416   194078   183486   156990   112680    20988 
  -52018   -27315    53013    81485    14216   -82447  -103688   -57157 
  -39967   -52177   -27115    28720    85578   129932   122867    61943 
  -13658   -87363  -130507  -125843  -102821   -69412   -21173    11209 
    6966   -12048    -5220    50423   115946   124731    94310    89881 
   79902     6456   -78773  -108263   -94172   -70122   -51170   -41479 
  -21712     5347   -23383  -105729  -161492  -186607  -216850  -231401 
 -220785  -223248  -248210  -264333  -241330  -167786   -69657    20770 
   92962   130793   121222    98891   109057   131464   142064   157715 
  147336    68814   -12731     1531    65540    66929    51170    87922 
  112528    85515    28898   -31253   -60831   -53199   -18059     4636 
  -20424   -45667   -40658   -22219    13039    55240    84762    98207 
  101364    92699    50768   -30025  -116909  -169057  -181804  -192437 
 -223346  -228191  -151581   -25076    79086   132657   153504   161332 
  158242   162120   166600   140547   103058    57407    -6727   -47587 
  -74649  -133518  -203333  -264830  -304498  -268134  -137539    25669 
  129447   164551   194010   179243    80589     7743    16137    52972 
   81772    68590    43003    76097   126260   100229   -18496  -151614 
 -200738  -186681  -192459  -200483  -145687   -23728    84072    80629 
   26818    57084   120071   141410   202015   285803   260652    95358 
 -133196  -275714  -279332  -291766  -365767  -381340  -315684  -243832 
 -206238  -203685  -176741   -72069    56047   139105   199680   279286 
  359077   402320   393657   348974   299451   191688   -25767  -204858 
 -229075  -239165  -313342  -365718  -415643  -481510  -417583  -154939 
  113074   179271   142941   174248   182167   134886   158983   153809 
   11155  -128751  -221526  -317574  -346366  -316499  -325128  -320861 
 -243674  -153531   -82672   -26497    33347   114438   187818   266776 
  371992   434038   425591   420286   437831   408545   320123   240460 
  195142   162580   137575    97279     3082  -129882  -254144  -316915 
 -280738  -190305  -115207   -77341   -86462  -126483  -159033  -160761 
 -117753   -66472   -48717   -31912     6363    49267    85071   113922 
  128050    88170     2295   -54850   -30458    42926    50867   -41118 
 -120758  -126186  -103766   -59053    17066    68093    66620    45934 
   29804    14383   -15718   -67258  -119856  -142054  -142021  -156947 
 -194000  -224365  -218944  -185941  -152009  -122152   -97019   -65772 
   -6615    58922    86407    62410    -1688   -86105  -156042  -182938 
 -198342  -248233  -279819  -204561   -75652   -22557   -44917   -65875 
  -76633   -71102    -7406    86739   131674   115066   109825   160455 
  198385   168546   114417    60142     4287   -11702    14241    27909 
   43516   112447   200921   236048   198288   150926   169229   207226 
  198600   188693   191024   137148    26569   -47806   -68458  -126143 
 -221832  -296155  -358927  -392742  -361877  -285419  -178042   -65929 
  -19973   -51581   -76853   -65814   -71623   -86971   -70843   -59485 
 -103674  -185211  -248074  -256758  -236695  -231529  -208126  -121812 
  -12040    66551    98367    96976   100521   130551   164917   183692 
  194853   203020   206756   208419   197672   163472   117575    77659 
   61022    64957    46405     -728   -40911   -83248  -142658  -190439 
 -195721  -159768  -116110   -92764   -82084   -70610   -63828   -50207 
   -3543    49187    46898    -8262   -51403   -66213   -88496   -93952 
  -43316    16478    25433    -6422   -33403   -29667     8194    63467 
   96754   100209    97513    99339   119064   156969   188812   182089 
  124020    59969    36941    64339   114006   122186    86032    42459 
  -27402  -111199  -150495  -155606  -159221  -155851  -149657  -143974 
 -134309  -113961   -78880   -51203   -10870    64133    79511      201 
  -42086   -10607    -1612   -23820   -54789  -108793  -147026  -159047 
 -200462  -257847  -267383  -218900  -116119    32415   141210   141373 
   91402    69961    84784   107817   112578   122433   152173   139360 
   87047    46204    -4522   -31571    13234    63482    88106   120953 
  138294   116226    88652    86726    98009    91505    71634    44087 
  -14200   -89081  -153112  -216220  -285139  -340158  -366913  -360125 
 -286977  -162719   -86150   -87716  -111191  -120625  -107761   -70425 
  -14229    39064    65937    58130    27370      198   -12755     -454 
   37829    62621    64120    75337   111872   152965   156705   126507 
  128875   177780   198787   163780   130971   146301   192734   208109 
  145956    27830   -75001  -118614  -136488  -152022  -138685  -135336 
 -183108  -214851  -202248  -188249  -166720  -124171   -68168    -6720 
   23067     5632   -21208   -46065   -77529   -90491   -90509   -97934 
  -97547  -116987  -163368  -149801   -55629    24113    36434    34739 
   61444    79304    92487   133860   160290   162418   164079   151986 
  123792    59005   -19363   -33505   -11875   -17386   -31511   -54564 
  -99545  -130185  -149702  -167339  -139457   -96209   -79352   -27360 
   79244   167458   172782    99064    21192    -4777    -4543    -7038 
   10448    15728   -43124   -90853   -91741  -125096  -169116  -141237 
  -56599    21218    59392    78541   109365   113374    42702   -55063 
  -92081   -52977     2231    37900    39583   -18082   -86451  -114861 
 -124159  -119281  -101485   -63336     1508    48054    91219   168363 
  203090   149617    69395    23486    37821    64974    26802   -57696 
 -109265  -124491  -148415  -135120   -45706    -3844   -83520  -145351 
 -109807   -90461  -117781  -102327   -59976   -40426   -21030    -3876 
    1673    14319     -283   -78468  -151806  -144233   -63237    58073 
  139027   106431    58808    77632    58922    -5282     3247    56070 
   54702    -3663   -69067   -87324   -55595   -27190    -4702    45547 
   83317    66713    38596    17338   -18036   -38053   -31050   -15214 
   23855    55837    44084    21792     6090    -6093   -27580   -80627 
 -148000  -213900  -261750  -248290  -158033   -23185    57820    -1047 
 -109342  -126535   -95671  -113554  -140578  -127053  -102726   -72500 
  -27766     1753     1091    -5250     1759    11917    34052    81253 
  122672   143161   148619   137225   130933   137846   145180   156657 
  147653   105652    90147    97320    59810    21471    36411    50518 
   49312    50305     2616   -77954  -115251  -138268  -178014  -190092 
 -185861  -209324  -219009  -161581   -77193   -42114   -68900   -69552 
    3778    64109    88474   135144   167816   136443    67208    -8148 
  -71582  -104925  -119254  -134520  -132257  -105324   -59270     3538 
   30823    14713    15089    34545    58221    90454   114096    95754 
   19112   -52008   -60694   -64873   -99315  -118608  -101040   -56971 
  -18253    -1146    26880    70539    99275   111359   132742   138280 
   52128   -78044  -115300   -73660   -71311  -113678  -119159   -81811 
  -48375   -25616    -6240     6041     6032    12466    61146   116829 
  119671    90203    43147   -20276   -51824   -53185   -62109   -73218 
  -87915  -100781   -98495  -116461  -149875  -128114   -44114    32200 
   39523     3283    12183    54904    42882    12090    35727    55847 
   19113   -19559    -3476    32375    12657   -59832  -127595  -151851 
 -111936   -38098    -3042   -27565   -60422   -68388   -63533   -31746 
   38878    97102   112612   129069   172298   194999   137378    17023 
