Origin Time       2011/03/11 14:46:00
Lat.              38.103
Long.             142.860
Depth. (km)       24
Mag.              9.0
Station Code      FKS012
Station Lat.      36.9066
Station Long.     140.7928
Station Height(m) 3
Record Time       2011/03/11 14:47:03
Sampling Freq(Hz) 100Hz
Duration Time(s)  300
Dir.              U-D
Scale Factor      3920(gal)/6182761
Max. Acc. (gal)   231.372
Last Correction   2011/03/11 14:46:48
Memo.             
[...]
   13891     5235    57928   115954   101055    16558   -73254  -104185 
  -61217   -18292   -41541   -67815   -23710    21691   -25649  -114998 
 -120586   -29930    45764    40959    -7639   -45796   -37712     4326 
   13532   -14203    -1825    54366    77101    56772    59886   102638 
  124456    91706    37260     2491     7048    37999    55475    42492 
   12877   -18899   -29263    -4526    16137     6782     9459    37379 
   52076    46706    24517   -11725   -20880     4157     3952   -48609 
 -105986   -99727   -15934    72775    79641     9278   -44993   -18206 
   49060    63418    -2397   -60474   -36018    22337    46574    33159 
   -1918   -38009   -55527   -47866   -17250     1277   -22085   -38450 
    4773    66898    83509    57944    39632    60795   108271   139491 
  119158    58675    19524    30809    28843   -30542   -77262   -53334 
   -9433    -9468   -39730   -45603   -26014   -14834     1500    25623 
   12518   -23588   -20459     7669    -3119   -49378   -61501   -11520 
   31887     8345   -30115   -16955    20422    29162     7822   -10993 
   -2471    18172      192   -63635   -83574   -12108    38914    -9623 
  -48508    11692    72637    45962     2970     4047    23463    57654 
   91801    80292    52851    61890    66440    30441    19682    57170 
   55755     8010     -770    20043    25516    47716    74335    40208 
  -16740   -21479    -5686     -328    43268    94935    46712   -49845 
  -43296    24583    30344    26146    66951    63201   -10169   -53369 
  -18607    40754    56228    19871   -20748   -47018   -72379   -72954 
  -31171     2857   -12139   -31656       97    47432    50746    23509 
  -12564   -37657     3015    71048    55617   -15439   -32446    -3959 
   -9742   -40469   -24872    24786    18369   -56528   -96454   -59030 
  -40608   -87093  -113029   -64377     2059    15398    -1933    24149 
   77797    77593    16690   -33241   -16722    30604    32502    16428 
   57222   102171    66547    18665    57251   122510   107328    29401 
  -16702     8900    47571    25378   -32636   -42087     -828    29282 
   43583    50230    16442   -18543    35043   128582   120294    12915 
  -59433   -48828    -7206    30634    43732    25739    16442    42517 
   84004   111488    95556    38555     2151    16442    22101   -19012 
  -52849   -42701   -40718   -59730   -30029    23337    14788      805 
   42376    52864      597   -34209   -33992   -26409    -5035    25023 
   32808    10745    12107    74522   111212    62335    33945    62748 
   39460   -23760   -22512    20858    42034    42894    25452     2958 
   20754    71816    96911    77085    48831    39952    31091     8479 
    4639    20251     6740   -22987   -18868   -17313   -66086   -97721 
  -48320     4796   -31829  -112719  -121094   -38549    22328    -7723 
  -46759   -21794    11443    -5601   -41224   -51529   -46993   -69425 
 -113993   -96978     6780    80654    48623     6009    60820   152840 
  141258    34849   -11976    45701    78960    21637   -38553   -22125 
   53704   112498   100368    68248    89322   109654    53934      -49 
   29909    57892    15545    -9365    28999    51613    32915    21634 
    8696   -29181   -51529   -34406   -10658   -23527   -76922   -92418 
  -19103    40932    -6283   -85569   -93562   -45334    -1028    26569 
   37827    25947    17476    25828     5355   -38188   -27326    16499 
    1832   -44338   -53486   -52306   -64264   -54198   -17248     4203 
  -13948   -48052   -65484   -45825    20308    79463    53457   -16627 
  -13650    58444    76829    20611    29594   142789   181164    58169 
  -56183   -32717    38228    49290    22908    26586    81108   139745 
  131865    74694    57503    74976    47357     2702    24850    72123 
   60599    22850    20628    37399    29138    -9564   -31741    -6516 
    5948   -50624  -106758   -81041   -30167   -26998   -27650     7396 
   38741    35750    11292     3082    16283    -1978   -36488      401 
   74978    71977    20853    32391    74697    53501    18198    53690 
  100360    78787    26627    -6484   -27385   -29100        3    12166 
  -30300   -66067   -40072     3546    28641    44591    49089    63336 
   89018    48371   -40355   -27664    72258    75490   -37377  -100751 
  -41785    34890    25065   -24070   -11354    22061   -30291  -102500 
  -57439    49614    65764   -11691   -59414   -28500     3637   -16815 
  -43215   -30825    -2056     2689   -19460   -35205   -26629    -9983 
    2000    17519    47581    76187    64164    20571    10287    46489 
   68188    37228   -19295   -46509   -14788    36326    36496     1922 
   18829    79801    94978    53697    18497    24298    54398    61400 
   27223   -11721   -27102   -32348   -45299   -56844   -55046   -47285 
  -31457     1425    45332    92627   114884    74260     3362   -14628 
   35316    70569    31348   -24739   -21028    17553    32078    32554 
   43987    43380    27733    28603    30944     6431   -10574    13269 
   41971    39608    36025    60807    71543    19835   -50674   -58604 
   -6921    30830    17564   -15779   -30296   -12119    25778    34494 
    6038     6393    37392    22028   -40500   -67599   -28040    18176 
    6603   -54378   -93773   -72940   -50642   -79805  -101976   -50331 
   23904    27238   -26471   -35288    32130    87393    50049   -34237 
  -51088    18222    67161    21298   -45322   -30042    17412     6587 
  -10909    17260    26986    -3020   -11632     9182    17119    10591 
   14080    16667    -5987   -33315   -35654   -33879   -51353   -69041 
  -72714   -68814   -47531   -11714    -6425   -35630   -36963     3553 
   30005    26239    31341    51385    70429    87666    58955   -25018 
  -43397    40713    73731     3352   -10832    86367   124271    37863 
  -10286    36053    35493   -28753   -15624    51428    29837   -30694 
  -19687    10260    26653    73566    84470    -1753   -61981   -10424 
   35979     -704   -28107     5867    22999    -5391    -3070    45085 
   64037    28453   -18649   -36666     3216    77500    82891    -4651 
  -50089    10764    67880    57026    35427    28951    10960   -16662 
  -33856   -32250   -20338   -24845   -35597     4631    79641    92756 
   41520    29764    76180    87814    39701    10224    13956   -13389 
  -50588   -25014    18289     1012   -12565    45464    65926   -27664 
  -97764   -50791     1158   -17585   -34167   -13192   -19526   -61270 
  -48435    34532    90672    56468   -35102   -62571    54125   186172 
  162135    36292   -25059   -11165    -7747    -7385    11589     2420 
  -38433   -56116   -25339    33724    56421   -30121  -184753  -250827 
 -155876   -17562    20817    -9535    15069    76100    68891    36736 
   84624   151541   134277    93226    98196    87625    29429   -19631 
  -12265    53412    98827    51377     1852    40943    66599    12770 
   -2344    60949    70850    -3526   -12921    69114    70089   -10543 
   17070   106675    46782  -101001  -108271    -2351    14656   -63115 
  -93348   -46624    -3211   -31091  -113488  -150965   -96594   -36886 
  -42528   -61154   -37400    14876    46001    11813   -12981    75140 
  162205   121655    84855   141334   146024    40878   -28688     1777 
   34554     9985   -47242   -76825   -11593    80080    68003    25325 
   68042    87906    -9175   -82248   -16995    74286    66054     5089 
  -29654   -36968     5225    82560    66793   -25167   -13219    54398 
    -644   -85910   -47615    21075    19063    -3303   -40470  -119022 
 -134645   -23266    70794    41684   -22125   -31049     6646    47909 
   63456    87377   149844   160655    67287     9486    74141   128261 
   66466   -18966   -11564    34990    -3019   -82008   -73659   -22085 
  -21349   -17676      462   -42906   -76969   -25654   -14910   -89573 
  -99318   -33480   -23063   -44985    -1617    74969   103931    66286 
   13198    28345    93628    76484   -34566   -90115   -39481    30738 
   65745    43095   -26681   -46551    26443    98440   100463    62702 
   36286    49666    77538    50405   -39508   -93264   -12773   129430 
  109559  -104486  -226310   -84479   109241   100604   -51182   -84177 
   73995   188030   105243   -10916    -3348    51074    45520     9733 
   -1559    -1787     8905    68893   131836    79579   -53654   -95929 
  -20023    48527    47820    21673    10592   -11282   -43883   -19347 
   38693    25064   -26333    -6165    23889   -32002   -63376    17429 
   84477    53417    -5487   -24751     5858    46329    48122    41649 
   57899    31363   -49860   -86020   -53412   -31300   -69004  -120103 
  -82263    13139    -2214  -102062   -82779    16495     -426   -51169 
    7057    23443   -58322   -42748    42130    20513   -31674    -8455 
  -13540   -79871   -30225   165972   240748    72912   -88910   -56853 
   41183    71132    69971    73332    89578   126751   109773    23046 
  -15429     1418    14335    64748   111529    79373    62252    88948 
   50981   -21820   -47671   -64098   -64591    -4418    32420   -16216 
  -58919   -41610   -27343   -44031   -39019     1517    32706    62870 
   89179    17202  -114598  -110840    25255    98340    61801     8952 
  -36982   -69546   -18979    66704    23024  -100339   -83394    40971 
   55213   -18880   -36943   -30495   -16334    59177    96009    32002 
   11419    81154   124555    77357   -27563   -46440    93612   154307 
  -30450  -182883   -67791    89736    39020  -102063  -128366   -47332 
    3390   -64298  -153156   -81659    83747    97185   -46774  -128961 
  -46396    88986   118792    46429     3710    31237    72548    86120 
   16353   -91167   -20173   202791   238370    20853  -158812  -123804 
   19761    74700    -5007   -93858   -76039    10499    39995    14574 
    4335     1931    40459   123937   113204   -31971  -152838  -123661 
    6717   103183    83313    -6408   -26675    50035    86416    35830 
  -16012   -41770   -32535    40157    75819   -16861   -71452    40424 
  112850    -2908  -101518   -10943   117021    97315   -28429  -100690 
  -23011    90923    34504  -116089  -103450    62058   140228    29858 
 -105200   -76957    41782    54049   -13856    20508   124251    78730 
 -101033  -176684  -100788   -31488   -26806     2796    73098    61094 
  -24379     2369   129652   165186    99641    11428   -87177   -95676 
   21582    71847    -6367   -32860    43400   106786   111104    64012 
  -24911   -54131    56026   136467    20460   -81062    42236   158182 
   60503   -33301    38527    80562   -18732   -86837   -46848    17893 
   82131    64948   -94644  -194901   -87824    54604    43948   -50125 
  -35987    56529    46140   -19954     2783    59940    47144    -9519 
  -35398   -44278  -109558  -204733  -211016  -109682   -21296    -9399 
    1922    41764    59072    75435    85193    14207   -62475   -20624 
   47881    15297   -35586   -38175   -62751   -40479   123811   253689 
  176054    37896    58720   158478   119781    -5984   -15690    67794 
   47477  -107378  -202908  -118874    17505    28860   -52253   -64037 
  -14318   -34200   -91633   -87914   -41244    40598   107163    11861 
 -132234   -41187   170369   202045   139108   182495   240366   169010 
   32299   -39939   -23248    -4460  -106260  -275368  -273716   -95703 
   -3018   -41333   -22151    80695   112801    18573   -75680   -42310 
   55919    37617   -90457  -116331    -5280    59149    26065    30165 
  132523   197352   127664    52174    54735    45991    26154    54060 
   41416   -64444  -106692    28366   189324   170770    38400    -4214 
     525  -100361  -209208  -136911    65054   181555   161816   143641 
  124735    -6479   -99654    30505   137246   -27409  -197695  -143258 
  -71650   -66209    41555   152417    80355    -4198    51831    63176 
  -76145  -154717   -25853    99709     2846  -129507   -55352    67586 
   35983   -20585    29543    46725   -70392  -149441   -61053    33038 
    6385   -26439     2846    20086     7194    14392    40742    43457 
   30790    33756    -5257  -110397  -127109    24342   169890   170810 
  121633   119541   110836    89805   123763   151135    98105    54698 
   87182    95438    22930    -7198    25232   -29897   -84251    26292 
   72345  -118166  -230208   -75319    29213  -107553  -184692    -4929 
  150026    50449  -115754  -122104     4391   106579    84040      293 
  -18640    27549    40749   -36227  -150882  -152694    -3222    96459 
   68451    78306   107172    51184    46037   126044   127584    72240 
   69308    62449     4471   -34174   -31466    -8335    47445    74176 
   35505    98070   295323   287597   -32346  -185871    86874   329929 
  162663  -122801  -144678   -19085    14826     5907     4676   -73653 
 -178413  -170597  -101984  -102036  -101349   -30743   -22227   -95600 
  -51848   159407   280841   131035   -11914   118738   190709   -69672 
 -248947   -45117   161075    50892  -133692  -103801    61575   129173 
   12233  -159709  -175411   -25708    54477   -41704  -122700   -47986 
   15422   -36623     1950   136376    92965   -74652   -93384    28127 
  111735    80074    -3336     -196    98273   100063   -83003  -234157 
 -138070    45922    -4384  -218901  -211483    52468   172698   -15013 
 -176377   -52855   142054   116029   -83366  -187900   -57235    91498 
  -17668  -198785   -93033   188450   257056    95161    18762    72327 
   63068    52805   112130    53367   -83407   -61446    10050   -69593 
 -120468    89099   339449   297028   142236   220256   375317   281338 
   30530   -72656    13665    29958  -170642  -291393   -74211   134806 
    5684  -152924   -73650     7105   -44466   -46470    26845    -4293 
 -149959  -186220   -20794   115588   100554   135547   216240   105821 
  -48313    36037   176353   157955   108209    65107   -26757   -17258 
  137245   195378    60258  -103515  -173782  -126534   -22079   -17546 
 -127172  -149869    -7244    94432    10023   -94751   -67366   -15026 
  -58451  -128223   -62542   169089   346493   227005   -90026  -240512 
  -63072   215471   276194    88845   -93276  -138570  -147770  -116217 
   58505   241617   194900    -1251   -43631    97779   139463     3894 
  -42906    87386   134692   -36042  -223428  -231067  -143426  -154999 
 -256906  -258315  -100863    31723    -4701   -81595    -4099   136147 
   88371   -58920    -5127   144054   126898    85187   162812   220491 
  202020   103349   -88648  -194620  -110402     4059    34420    -1349 
  -50767   -56409   -11791   108700   270766   246083    33741   -19571 
  137256   216432   104020   -99251  -234377  -236971  -202667  -136273 
   25021   148171   102857    -2254   -33841   -20713   -12017     4187 
  -34023  -155598  -150456   110794   359208   300505    70587    35426 
  154795    35768  -209357  -115679   148588   135616   -49548  -123134 
  -55747    78606   163065   113390    14933    49849   222212   258955 
   16191  -232629  -194179    37527   185141   155412    62828    18274 
    6560    14243    84512   155737   118998    16200    -4183    93791 
  134850   -21834  -234054  -270095  -124837    42998   140421   126838 
   -7961  -153694  -159735    20425   248493   260340    36442   -78214 
   73782   225034   186306    61621     6260    86174   224923   249383 
   69482  -152246  -161678   -46738   -80575  -191721  -134301    48130 
  129370    74385    28215    31528    -2596   -93124  -161886  -159957 
 -131544  -132606  -116386   -13872    86003    34264  -116292  -167539 
  -67909    63676   143044   140050    59834    27244    92535    83283 
  -42559   -82680    -9199   -23479  -130532  -106009    89288   204388 
   74086  -117155  -124606   -15337    -1474   -65107   -30698    73505 
   43443  -127527  -177510    23313   213625   152132     5359   -14065 
   29886    76040   138362    95884   -50030   -26594   176697   199639 
  -15664  -109562     -922    16950   -36307   124566   349761   276837 
   48707    28983   118518    39933  -103643  -125413  -104024  -109336 
  -69892    30995   113438    75247   -85314  -165548   -33965   111581 
  131608   170503   234476   158187    -2383   -38339    82784   189433 
  144886    31145    21841   120636   184865   135959    25265   -28553 
   34082   109232    40786  -128533  -180452   -53481    53231   -23030 
 -181194  -212782   -60252   128356   144211    -2921   -51534    55062 
   25752  -180362  -218911   -32377    87183    45351   -14091    20842 
  100150   123892   138781   165128   124230    76371    61348   -24507 
 -127223  -116573   -82497  -138260  -197008  -156745   -72220   -33949 
  -19376    33055    96486   100484    73288   106466   135510     5346 
 -199532  -208436    10288   176341   106848   -56317   -73891    60860 
  101747   -48730  -117901    61200   185683    17066  -193935  -187413 
  -67417   -22860   -46353   -30266     6069   -18708   -61554   -42344 
   -8766   -66597  -168950  -152866     1799   113714    59001   -11147 
   59816   153929   138446    51185   -29669   -19270   100166   193292 
  144444   -17121  -164900  -176529  -113880  -122390  -133599   -23150 
   89540    44858   -50506     9036   160837   170782    84712   127356 
  215937   160017    89243   132676   154549   115588   101709    63100 
  -62425  -208507  -228982   -63026    88329    21785  -130841  -135800 
    6061   105067    28402  -102090   -71356    42306     8025  -119275 
 -138870   -30706   103673   170724   141222    97810   124898   157477 
  119859    70159    35798     1928    49239   174519   199999    70909 
  -37188     3615   100812   115328    62190    46319    61274    -7189 
 -117350   -99642    26973   119765   116123    48003    29527   111015 
  194788   206302   178337   129535    29011   -80173   -78624    57504 
  191959   206084   145209    91609    16632  -107691  -193393  -204136 
 -217737  -249461  -268816  -283193  -286802  -252224  -173650   -96170 
  -80651  -118791  -108272    -3590    38492   -71841  -125597     6331 
  123094    91181    70841   137384   128338    18482   -26177    -5026 
  -86658  -270756  -338741  -186915    13605    64539   -14351   -48534 
   23364    66671     -905   -78159   -90293  -109757  -155907  -134551 
  -74422   -92719  -131364   -47874   135409   236122   156880    38325 
   12536    27426    -9317  -119487  -211750  -145380    81398   233074 
  104755   -86209   -10790   162383    78117  -135605  -121605    79493 
  221797   289689   337651   323627   201679    26269   -13051   159665 
  313370   227677    27425   -14564   122694   196199   106519    61442 
  166225   223322   135714    42752    -9437   -31721    77772   260790 
  256812    65405   -13407    99029   156662    23070  -136260   -86459 
  143076   223830   -14647  -278468  -232300    16798   128256    13551 
 -144320  -199456  -127297    32749   188846   245556   181058    93161 
   59825    49464    43376    10374   -80681  -145038  -142796  -159936 
 -206110  -189111   -85295    -4463   -48235  -145297  -131494    10883 
   97698     8594  -111643   -54921   167646   312028   174209  -117529 
 -244519  -121712     5166   -46874  -138528  -156758  -190868  -241846 
 -233652  -200510  -214216  -252440  -234428  -157739   -75223   -41668 
 -106627  -141002    25628   231888   229231    62015   -62561   -33225 
   47101    46699    21498    69562   177671   222877   137451    65323 
