Origin Time       2011/03/11 14:46:00
Lat.              38.103
Long.             142.860
Depth. (km)       24
Mag.              9.0
Station Code      FKS010
Station Lat.      37.2338
Station Long.     141.0018
Station Height(m) 43
Record Time       2011/03/11 14:46:57
Sampling Freq(Hz) 100Hz
Duration Time(s)  300
Dir.              N-S
Scale Factor      3920(gal)/6182761
Max. Acc. (gal)   1115.902
Last Correction   2011/03/11 14:46:42
Memo.             
[...]
  -68412   -32565    26159    72423    56372   -11142   -93465  -158571 
 -227800  -288204  -220549   -15640   180580   300911   367644   373700 
  279287    73589  -145772  -280745  -341815  -324014  -231585  -125024 
    5501   167096   272173   251594   123645    -8024   -54166   -65030 
  -93996   -94450   -68814   -46117   -12219     7058    18744    75117 
  134199   150792   150256   110982    11657  -114769  -253391  -348984 
 -348391  -309598  -265222  -202763  -147982   -88298   -42775   -85746 
 -144316  -106138   -33189   -10467   -20631   -29831   -37623   -31588 
   22303    95701   138086   153321   132021    71060    12675   -19005 
  -10943    56179   160463   250144   321439   390593   424041   407648 
  355499   272755   201904   151453   100103    80048    71427    36429 
    4508   -21216   -42908   -54333   -73235   -76758   -40886     -146 
   10312   -22471  -108152  -223729  -319725  -383212  -415365  -409507 
 -368856  -267185  -112352    12739    88441   140898   144227   100273 
   61525    47095    34273    -8964   -98440  -198650  -257930  -268876 
 -253583  -246606  -238080  -169948   -48897    72936   138962    99537 
   -1534   -67207   -45564    37603   109988   131977   114263   114292 
  148818   148305   106653    81079    68685    36235     7517    28899 
   71079    97820   107478    66981    18576    47108   101019   122519 
  143309   170902   178156   132648    33131   -72236  -140179  -147103 
 -107796   -85149  -109328  -150568  -195233  -248196  -264720  -174738 
   27941   232766   299428   230492   123559    24405   -51702   -93271 
  -66936    54358   168451   171863    91739   -46553  -196633  -271866 
 -278181  -227712  -103728    19059    83248   139110   186477   163579 
  124219   126899    88963     9435   -12272    24484    90507   169304 
  218450   211900   135368    10327  -104383  -182602  -193965  -106043 
    7871    47052     2459   -94904  -186386  -229516  -252533  -256752 
 -224065  -179286  -143421  -122089  -110707   -91751   -47228    25079 
   82901    63564   -13120   -42533    -1525    43585   108964   228244 
  322739   353395   359588   320142   230851   125775   -20740  -176793 
 -235553  -192196  -110961   -31665     7287    11348     6209   -43447 
 -138730  -206187  -206375  -145592   -48807    21347    15447   -40200 
  -99607  -152214  -186795  -157120   -40361    86982   158212   206162 
  247731   258586   236632   199192   166980   142650   112974    75341 
   35912   -13210   -81575  -161051  -214095  -176231   -52128    84276 
  187281   203651   111968     6947   -27187      680    54821    80061 
   39664   -19828   -45004   -17449    52434    81758    28342   -20324 
   10333    91347   150463   159440   133826    79822    15544   -35835 
  -80900  -116531  -121047   -86726   -25452    40578    88494    90739 
   31200   -58857  -122750  -149379  -154574  -130286   -79709       14 
   96544   141832   115405    43724   -30416   -54024   -57945   -81999 
 -112363  -146071  -153061  -125741  -121397  -133718  -121190  -118792 
 -152249  -172835  -140271   -57310    48647   129784   165587   185642 
  202928   184199   111087    17696   -56853   -98204   -90762   -27082 
   61894   112258    93532    46752    16443    13116    13350   -22046 
  -89699  -145419  -137626   -60867     7374   -13950  -106897  -168758 
 -157231  -122808  -107133  -139543  -189286  -158749   -55022    35751 
   92762    92610   -31862  -241133  -373240  -365247  -293183  -201211 
  -96736     4430   108245   189330   187163   109535    21231   -55003 
 -141286  -222939  -230792  -145513   -41396    27982    74646    89446 
   70111    71061    81570    50491    30290    69588   109067    88290 
   25357   -33154   -91280  -147114  -141094   -75777    -9305    42332 
   64574    64473    88052   130388   161896   184802   195281   189025 
  174489   142936    73594   -17751   -57469   -24522    -5235   -24328 
  -10740    22544    -5868   -86038  -147365  -161583  -156150  -162169 
 -140257   -62290    19894    78525   123598   157580   159087   108943 
   47555    18352    27983    65246    83497    25462   -73707   -65869 
   71107   179414   206077   201493   164414    72027   -67993  -181800 
 -215504  -207968  -191217  -170219  -156503  -157004  -183070  -223739 
 -242839  -236426  -231700  -254902  -318548  -394430  -437559  -429256 
 -330413   -99725   163040   263873   180223    74089    43396    48988 
   30967    20038    87131   211793   301386   292704   208566    96875 
  -17516  -105651  -165015  -192766  -167477  -111264   -64369   -13480 
   70971   126951    80475    -5876   -32115     6382    68808   124939 
  168187   225019   273862   266713   239778   234706   249951   258418 
  204582   108251    36176   -26956  -120459  -232753  -319429  -328723 
 -255605  -148157   -50640   -26064  -111614  -208326  -218003  -158774 
  -97468  -121585  -191196  -170126   -86046   -32689   -40475   -79598 
  -47235    55802   134670   150111    86213     1752   -20025   -15716 
  -15591    20961    71761   108301   171839   245387   284040   322094 
  369112   363408   248982    16245  -253828  -420422  -454684  -472144 
 -531946  -582997  -597534  -588692  -571716  -559791  -536773  -486247 
 -425926  -358055  -270640  -201868  -190934  -185281  -135274   -75293 
   -9522   110263   288648   460841   568148   613208   574111   445332 
  306908   132798  -140213  -359209  -354605  -144854   139749   318627 
  338913   260809    68541  -131699  -203282  -226320  -158185    77896 
  306719   448751   525002   463746   309129   191122   112657    61085 
  131932   306477   409053   395407   298148   100836   -99652  -177412 
 -140823   -13315   179882   346847   439812   481953   482403   425476 
  280061    46449  -224265  -478334  -624755  -575351  -384423  -198369 
 -105583   -78292   -37810     2465   -12624   -28506   -19518   -62656 
 -110893   -71868   -20082   -19979   -30621   -46670   -85324  -111381 
  -92006   -54769   -27837     7269    76877   179401   250108   204302 
   78127   -37157  -162795  -285637  -292524  -211987  -142618   -58414 
   52104    97913     1698  -177633  -310959  -357213  -295436  -124429 
   42110   150473   234829   275440   307338   342852   265216    91761 
 -117455  -376769  -483192  -307413  -110771   -71041   -97712  -118224 
 -135258  -155018  -159137  -141724  -140184  -147464  -119897   -90677 
 -119166  -190856  -242824  -218452  -108246    -2651     7408    17695 
  108127   167557   209773   326228   403662   360708   287440   267117 
  300050   304708   207569    57543   -54151  -154421  -308404  -448635 
 -427232  -171857   177614   386391   469161   556148   589305   545193 
  490861   377272   185226    24717   -62737  -163984  -285324  -346580 
 -357033  -329980  -259218  -183972  -116907   -83898  -123977  -204525 
 -285462  -362639  -423437  -431001  -339540  -142093   111678   347452 
  507972   549984   414573   174740    60839   131252   248418   319896 
  307157   250803   242671   269410   244215   125077   -19434   -72103 
  -52591   -78824  -155206  -194176  -169416  -127855  -141204  -240661 
 -336971  -317300  -181269    17482   195656   254501   204070   140694 
  157807   237888   184138   -64711  -291108  -355867  -286403  -104503 
  154540   425836   646457   731086   658487   531982   407281   249834 
   98225    16719   -23314   -46976   -27235    20928    44584    36381 
   33314    44123    39713     4991   -47767   -77779   -65042   -26699 
   26325     7611  -109986  -186770  -255780  -398742  -509884  -605181 
 -679861  -534774  -108624   422891   769297   825924   792981   800460 
  769848   620873   415498   278379   171770   -25649  -258067  -396277 
 -446360  -466337  -501152  -597574  -703644  -715446  -627301  -489160 
 -330500  -153761    28658   154152   191471   173220   118782    13185 
 -146415  -272902  -309406  -354473  -454507  -559566  -635865  -588933 
 -396216  -208889   -86375    39638   199660   379661   514497   556737 
  557713   561507   558105   538843   481095   362828   185541   -37227 
 -238668  -376257  -499691  -583995  -533082  -395521  -311965  -262585 
 -121619    84461   269190   418646   486548   451973   335805   161734 
   13064  -117874  -271630  -298814  -134211    42097   123075   146094 
  140621   155599   241515   348836   382609   305229   162568    37376 
  -80692  -223483  -295524  -322918  -474118  -652820  -662876  -552022 
 -403309  -211631    26249   248701   284565    93160   -90335  -103310 
  -45948     4710   110776   261552   363582   350075   218644    66095 
  -31001   -53827    20923   135023   211776   219915   129338    13426 
  -83142  -227966  -317943  -232442   -96483    -1693   117234   267114 
  356421   328222   206116    40451  -120499  -264361  -375304  -377226 
 -266761  -141081   -84258   -99341   -56413   101237   236031   268395 
  225965   155413   128802   149794   142689    62797   -80130  -238502 
 -346273  -346730  -225579   -48393   106638   191039   128413   -37572 
  -89025    -6152    30447    52260   125820   158142   228434   379457 
  386069   239882   103943   -42482  -228526  -405062  -475725  -340950 
  -68034   179755   334359   386611   350004   298392   234668   152216 
  127896   101671    52916   111562   219628   243261   160207   -13962 
 -182660  -268381  -312813  -287390  -109716    65681    16176  -117935 
 -108300   -69684  -137118  -233060  -289278  -322666  -394498  -440289 
 -372679  -334683  -355913  -195899   225867   548304   510086   436224 
  429165   308501   286182   365595   291436   108332   -41791   -46310 
   39821    45855    -1394   -79864  -280198  -535178  -627992  -534999 
 -473475  -494264  -447051  -323086  -195935   -21881   193628   349794 
  414020   379336   322740   296210   149295    -1113    74440   133780 
   84694   104287    16627  -202420  -278082  -274673  -328495  -301656 
 -120245     9896  -102122  -288128  -408068  -575764  -718018  -702938 
 -569565  -382305  -180015    87162   362082   444277   337827   187473 
   58708   -47905  -125975   -73453   154356   335072   333697   355434 
  449215   427860   297679   158415    95207   150008   186374   215945 
  371358   475177   381817   226984    35948  -198151  -355103  -445713 
 -484585  -394744  -237398   -81518    68468   108049   -52148  -303805 
 -469410  -529893  -568922  -616601  -617341  -489012  -240326    20243 
  141980   100026    69072   122529   205683   318657   457665   625101 
  761560   750040   583780   286838   -73106  -362564  -559710  -654306 
 -577757  -388387  -145366   126496   199183     3058  -146307  -130687 
 -132501  -185883  -175235  -127722  -166885  -196175   -80559    46295 
  118743   228677   303027   281506   296529   373490   380041   243201 
  -26200  -271795  -323013  -266088  -153393    75242   255923   283357 
  289980   332250   382372   385206   332363   310415   259790   105915 
    3149    37053    80891    68960    57551    17614  -112433  -251229 
 -308495  -296872  -256887  -219196  -161616   -44849    13399   -70131 
 -111928   -84351  -111768  -120538  -109595   -81779     9230    45702 
   80052   185734   187558    71083   -45865  -128206  -151384  -141766 
 -130614  -109649   -84238   -65540   -91541  -181792  -275209  -314934 
 -302492  -229036  -111567   -35558    -6971    66043   234007   392012 
  411634   390743   356233   169407   -40384   -94401   -84625   -74089 
   12931   181886   332133   375969   292900    96783  -153580  -325257 
 -315264  -146389    69941   214860   253485   215305   162129   138180 
   40270  -152595  -257477  -231526  -165037  -122769  -107940   -43221 
  -13410   -94717   -96162     6303    86298   178465   229034   169411 
  128111   152458   190445   286047   429392   502588   444237   263063 
  -10823  -313686  -510750  -500070  -360844  -226482  -160358  -127692 
    4485   234031   420453   491547   384003   171723    74895    86411 
   80317    29905   -73714  -152491  -148152  -209881  -407353  -542091 
 -488995  -294067      251   294795   538169   708338   692156   616283 
  627913   510063   209706   -41773  -217994  -359494  -330689  -147797 
  -41273   -91118  -218437  -334155  -381443  -394165  -400534  -373537 
 -309579  -247144  -192622   -30545   208642   263330   115295   -56721 
 -204889  -280084  -238637  -140073    -8053   169540   323301   377030 
  349275   272516   163968    85628    29203   -68237  -112869     4474 
  207317   353927   364588   272048   179721   113678    16881   -80856 
 -114969  -144087  -155155  -111871  -173082  -324482  -397070  -456343 
 -511458  -449740  -323943  -221952  -190726  -243318  -281186  -202249 
  -48905    23498   -30400   -46190    75136   198025   237422   309996 
  448814   480209   343041   269329   372078   454124   426157   320381 
  147388    58908    97831    74642   -19525   -41846    -9532     8527 
   39184    61688   -25302  -161040  -192455  -161997  -102887    38102 
  141486   126539    74493    23847    19090    81055   130921    86656 
  -59869  -199905  -271767  -333761  -420909  -562925  -718212  -760539 
 -557410    48966   812155  1098244   943452   861611   716773   276822 
 -240282  -717032  -968642  -827846  -509399  -149355   177650   346525 
  376184   152984  -278657  -488359  -423926  -310196   -48115   473260 
 1037028  1179863   870068   675873   518331  -112882  -864114 -1268324 
-1412762 -1338272 -1083367  -523961   668597  1738217  1385882   282277 
 -144582  -474929 -1215116 -1478873 -1339973 -1197033  -669603   286570 
 1325102  1755447  1266099   679285   352621  -170972  -764691 -1139055 
-1318215 -1045684  -265656   666516  1417308  1504153  1040199   893338 
  842726   237019  -191502  -184213  -337332  -391153  -262810  -233895 
 -202993  -225879  -247165   -26615   305322   420836   261926    22083 
 -164503  -264996  -381458  -516825  -433613  -181420    38347   240928 
  370824   341328   183546      926  -102806  -164239  -209964  -204901 
 -165989   -44388   166430   340464   462252   589805   672999   574568 
  200240  -281331  -567472  -654591  -730799  -747062  -541213  -146576 
  329541   798972  1068444   925964   449135     8008  -261846  -521695 
 -695696  -562298  -106452   455621   769813   714562   476675   172680 
 -193202  -536741  -757690  -891209 -1010454 -1081763  -978236  -642225 
 -241775    40660   132622   -76598  -372673  -252597   168894   448533 
  625559   782877   768240   515259   136303  -226673  -554235  -826622 
-1000973 -1003955  -597375   242340  1087078  1532929  1482242  1186705 
  958553   662659   181365  -316738  -755834  -986839 -1036771 -1082452 
 -934320  -533016  -128610    41699  -123585  -330564  -324471  -277070 
 -237598   -97699    49612   135831   168369   151385   180197   241964 
  261397   252603   132421  -103216  -255255  -242375  -100400    82346 
  131503    72667   101867   206683   223768    67867  -177388  -314287 
 -350635  -416213  -433953  -391289  -337291  -166330    45321   159862 
  223573   258190   332373   420893   355649   276964   364830   493012 
  565924   599918   640436   723225   762669   666869   484606   294051 
   58703  -241872  -517695  -728111  -851993  -788572  -530567  -254273 
  -99212  -108470  -310315  -532460  -638032  -793962  -922074  -822282 
 -617015  -266341   309169   796380   993574  1027321   893889   515669 
  188122    86612  -100375  -306578  -248186   -70447   175455   370152 
  287771   199531   190352    48984   -34995     5580   -14556   -26948 
   25907    31854   -39125  -114370  -143438  -133640   -93199   -29581 
   16829      188   -63117   -91994   -88781  -100492   -29915   144300 
  259899   311962   410521   524772   573753   527820   407576   292033 
  235621   200518   164656   167932   195861   222227   247136   177010 
  -10047  -153918  -232712  -347980  -411499  -315449  -149268     -304 
  125950   199194   182909   102337    43576    58893   142785   254034 
  299903   250470   172929    81416   -50446  -144430  -129051  -111220 
 -178680  -278600  -373038  -448513  -463223  -391580  -287105  -198338 
  -94893   -26992   -47539   -52272    29561   163338   265802   254153 
  176841   105316   -12415  -178156  -296477  -387118  -488000  -490060 
 -344409  -138210    29544    89938    52756   -32919  -165201  -319507 
 -402480  -371238  -243680   -39415   183045   365326   465005   493636 
  464723   279905    18447  -160720  -313240  -379562  -272850  -112326 
   -6628   -34391  -182188  -304862  -340619  -307447  -196918   -34040 
  117591   209424   219397   177763   107952     -637  -117817  -230800 
 -331907  -361951  -325489  -264987  -187515   -88134    42680   162498 
  224264   220767   168640   146434   138860    17304  -170241  -292819 
 -363702  -317612   -54415   249468   383254   322387   113859   -98859 
 -191239  -222131  -256149  -229192   -81305   125474   263563   262502 
  150793    21284   -64096  -130633  -172483  -102754    64640   200923 
  284855   366921   413868   401308   327260   182416    70282    86895 
  170234   208554   118010   -78844  -291647  -508612  -693799  -751767 
 -695937  -620220  -543715  -378644   -41594   359132   564798   496001 
  274999    -9674  -243069  -315013  -295962  -202876    49009   311361 
  401235   368583   270226   129013    -6819  -142452  -220363   -89913 
  219100   471183   546590   520214   466427   370206   187763   -33039 
 -187903  -270849  -288954  -218299  -134353   -81626     -712    96957 
  173299   202134    91658  -119220  -259611  -325829  -366739  -297355 
  -70646   220357   461205   596542   569323   393455   216666    90930 
  -64708  -226604  -282522  -254062  -221431  -182976  -192791  -244778 
 -207492  -103145   -20477     1141   -62215  -103550   -68136   -35128 
   18905   117927   206727   278359   354353   448156   510063   447433 
  261342    37212  -156583  -306742  -376923  -283215   -33130   260540 
  484496   572293   524155   350280    49877  -281471  -506140  -617446 
 -657882  -584370  -369650  -153179  -121686  -202783  -223656  -202233 
 -152412   -70182     7781   114616   205300   242395   306074   370139 
  413730   479087   471579   369273   279568   165525     7182   -98815 
 -159199  -190688  -151787   -67659    14754    21281   -90667  -193992 
 -198623  -201679  -284977  -377306  -387095  -353550  -288401  -132753 
   68599   276857   425051   388453   259338   150410    14597  -123094 
 -227286  -257836  -139448    11598    82868   173618   264050   185991 
  -33050  -245785  -452141  -655889  -727967  -596116  -301696    70207 
  384958   526507   450231   179172  -135239  -312643  -347996  -308336 
 -161290   112939   389666   491357   383330   217619   117771    18949 
 -123479  -182268   -63414   153663   299456   337081   367340   315661 
   59329  -233936  -350811  -354983  -369148  -338770  -253672  -233663 
 -306800  -389050  -402646  -335079  -212689   -87681   -24859    33048 
  148799   198555   132471    56427   -30999  -138898  -186210  -184289 
 -169583   -84218    94477   266291   342255   382109   440993   464745 
  436514   382151   298037   171461    36278   -16421    26038    63823 
   30039    -5600    70372   152528    76200   -64839  -191504  -330467 
 -407034  -379105  -246973   -36928   105258   125621    77713   -11168 
  -43452   -38956  -104976  -138167  -135088  -183672  -157062   -11236 
  132244   156591    49944   -36587   -41331    -9129    51478    94513 
