Origin Time       2011/03/11 14:46:00
Lat.              38.103
Long.             142.860
Depth. (km)       24
Mag.              9.0
Station Code      FKS013
Station Lat.      37.0893
Station Long.     140.5546
Station Height(m) 303
Record Time       2011/03/11 14:47:00
Sampling Freq(Hz) 100Hz
Duration Time(s)  300
Dir.              E-W
Scale Factor      3920(gal)/6182761
Max. Acc. (gal)   353.382
Last Correction   2011/03/11 14:46:45
Memo.             
[...]
  -89774   -78696   -36078    16679    49557    56528    41034    14616 
   -6010   -27415   -62129   -91108  -103819  -112724  -110397   -96685 
  -82157   -44941    14763    41388    10946   -37148   -62703   -48737 
  -11015    10415     6284   -18816   -54497   -55870   -19309    10086 
   30669    58006    78102    88630   112093   146424   161666   149683 
  117166    83071    80936    88639    59362    13463    -4488    15486 
   49963    67476    63426    61671    79968    91773    65020     5801 
  -68393  -121033  -139224  -166627  -200516  -216624  -234557  -240311 
 -221521  -212998  -214106  -202379  -173239  -129191  -100852   -99876 
  -87005   -58501   -54621   -78223   -96623   -88089   -43520    20872 
   74514   115802   142275   148494   151478   152189   159571   192973 
  212374   182118   138068   114748    95647    56519    22431    28222 
   48026    40874    22439    25466    31724     8999   -31521   -69302 
 -109305  -150895  -174675  -179542  -184329  -195053  -219669  -259921 
 -277660  -266274  -265216  -242687  -146347   -47507   -36167   -67282 
  -77678   -86981   -88468   -50462     9687    67133   108435   141953 
  189858   240336   279191   310684   317913   279062   209027   139383 
  105202   134683   187047   196466   160401    92574    24522    19478 
   54022    62871    58854    37543   -30253  -107466  -169589  -232339 
 -272062  -265734  -241415  -234970  -263500  -313601  -351475  -348249 
 -269132  -123162    -5803    35859    57816    65200    28650    -3686 
   -1008    -6681   -30439   -17120    41073    83005    95345   106161 
  110165   105236   117074   157500   204622   223889   196288   135489 
   90558    85608    72007    18228   -42209   -91030  -127910  -130534 
  -95494   -53713   -25183   -14432   -25965   -31326     2011    37829 
   49830    65702    69538    50663    39770     4999   -69098  -118380 
 -138241  -161157  -169677  -174824  -192175  -175810  -126045  -102692 
 -103941   -76524    -6237    70634   113390   110252    83549    60625 
   43629    20638   -15156   -51888   -62488   -53645   -55564   -46792 
   -7233    15960    -4176   -40837   -66117   -62944   -37910   -15534 
   -2778    11280    24360    17463   -11397   -52571  -102152  -145221 
 -169808  -183065  -206643  -260701  -321909  -351528  -343987  -291753 
 -196480  -111288   -77933   -66184   -48190   -42476   -13358    75400 
  124763    77067     6591   -65668  -109776   -51830    32229    46015 
   36495    29437    11225    26120    82703   118168    89321    30980 
   40714   122833   181217   208395   210827   140078    45349     3251 
    -239    11055    19932      636   -43175   -88059  -106812   -89613 
  -72274   -73755   -58191   -18840    11521    28388    52961    97893 
  140653   151909   139718    96078    -5875  -122726  -175531  -173469 
 -189880  -217249  -199432  -155326  -111183   -51862    11195    43019 
   29421    -8307   -38903   -45108   -26663    -9709    -4177     3604 
  -13356   -64008   -97922   -95237   -59838    -7901     9049    -8940 
  -12453     9851    50725   108051   157300   160149   129397   122957 
  150933   189620   228379   248505   253872   255070   213911   121097 
   44077    39832    89238   131865   140670   122202    82799    28995 
  -30967   -76069   -95767  -109300  -123189  -132157  -139513  -147468 
 -158282  -169679  -179257  -186256  -177491  -160470  -176771  -226347 
 -267224  -293753  -314374  -317332  -303621  -292022  -281932  -234669 
 -123010     6751    71794    63995    47084    47159    47951    40804 
   35380    56145    97153   126910   134765   117916    95130    99949 
  124118   147347   173396   189630   156479    69115   -13439   -54353 
  -87857  -132652  -160381  -152128  -118406   -85175   -71457   -86610 
 -116862  -133157  -157818  -208928  -228931  -203174  -185109  -182963 
 -191081  -218045  -212505  -115054    24729    93933    83058    81009 
   98053   109418   151822   194707   177117   136038   109666    95578 
   98843   115384   126794   114177    80777    53993    51779    72789 
   92771    73920    18492   -18810     5903    64690    83019    36200 
  -35875   -94164  -125044  -140541  -153171  -159832  -174163  -196929 
 -173296   -74457    25711    39573   -20628   -90314  -144657  -171365 
 -134060   -42540    34558    71911   104530   160328   221104   255800 
  273920   257365   169842    75263    34136    13889     2111     7173 
    2090   -12435    -6933    14845    43223    64639    47267     -296 
  -45526   -78148   -97322  -125573  -177211  -230538  -278351  -297721 
 -248898  -169230  -120971  -107677  -122053  -150330  -151726  -101973 
  -16641    44644    37712    10130     4731    -3859   -19936   -32585 
  -41665   -36455   -15231    19384    55737    73150    71189    61449 
   47858    29875    39825   108137   183826   196816   119423   -35411 
 -171027  -195173  -146700   -95562   -60673   -42923     -773    81777 
  132919   121052    73284     -331   -78043  -134837  -166429  -170442 
 -158706  -160561  -168712  -127262   -44433    -9789   -46872   -95489 
 -114530  -103471   -78085   -68019   -98029  -143905  -142898   -68669 
   34193   106987   142418   168303   199517   226531   223569   185060 
  134580    76705    22951    10704    30547    35970     7339   -28114 
  -27968   -18024   -54118  -107269  -115786   -90873   -84273   -98385 
  -95517   -68493   -47666   -63269  -103021  -125046  -101170    -8935 
   97360   102559    44723    16357   -29586   -85626   -75315   -30246 
   19303    74671    94359    74695    54526    62545    98596   105631 
   33760   -80955  -163951  -195440  -198774  -174174  -136367  -132186 
 -150079  -130146   -49064    72768   161119   158496   125871    97765 
   24419   -53040   -63225   -47305   -49764   -37045     5242    45549 
   67016    41154   -48441  -131495  -166574  -192501  -192993  -137060 
  -62640     3142    79653   161744   203173   212161   213322   170573 
   82558   -24215  -124325  -170269  -167407  -140126   -91155   -47282 
   -8045    60281   148411   189300   132658    31511   -24332   -21068 
   -4871   -29949   -84457   -81965   -13160    43516    61564    51137 
   30426    46230    92153   108118    88452    70209    59531    50576 
   45989    10263   -78687  -154861  -163629  -118041   -43915     4387 
  -16365   -50752   -37115      682    53632   126202   153805   113411 
   55119     9608     3359    30971    26089   -28431   -61239   -27899 
   43709   105097   113807    83534    79173   110432   131601   133766 
  125236    81052     3451   -57941   -78205   -77991   -74215   -63322 
  -74378  -138214  -214999  -269976  -308697  -317626  -307161  -305153 
 -288526  -250441  -212175  -147286   -65822   -43006   -69636   -99860 
 -152960  -199238  -184425  -153034  -153899  -155328  -111124   -13773 
   93033   152874   177416   194697   180686   152956   143055   128769 
  131347   154422   118582    25383   -43735   -72176   -90321  -114830 
 -145564  -177078  -211552  -242387  -239707  -176545   -53573    80801 
  146131   147267   165232   188543   172337   144410   110132    67842 
   42464    12001   -18408     7275    53792    68462   103420   151194 
   98905   -47464  -155142  -199822  -249030  -280296  -258820  -211923 
 -148494   -60453    31398    51530   -41833  -160803  -217047  -225255 
 -213350  -198273  -214735  -253389  -266716  -236833  -174581   -88155 
   18274   113971   158856   159239   146153   107878    45062    21183 
   49783    88847   128908   165609   204664   252776   262872   234820 
  237848   260113   263196   274751   268670   171568     1547  -124885 
 -105894    13151   100158   108133    79366    50371     2517   -63371 
 -100166  -119260  -146480  -168871  -198535  -243370  -295769  -343695 
 -352716  -322634  -279054  -230144  -192003  -160008   -96128   -15077 
    1473   -65046  -134413  -144097   -77222    35308   106822   127137 
  164246   208191   223717   235920   261289   290561   288984   207101 
   92974    64012   113734   131312    97577    78331   109191   182626 
  225755   164370    38626   -63987   -98519   -89577   -98329  -126403 
 -150469  -180835  -209262  -217085  -212684  -198745  -181836  -184826 
 -205040  -243772  -292016  -271666  -138836    34147   146045   184496 
  206165   189722    87317   -14580   -22411    15034    18251   -14567 
  -28427    26030   122413   168544   138382    99034    75530    56712 
   62982    74939    38806   -48506  -141082  -171655  -106461    -3355 
   32442   -37502  -124099  -159503  -208573  -290780  -354020  -385113 
 -352792  -254940  -140720   -16206    81653    84731    36781    30696 
   60038    81554    92949    89306    75329    70972    87328   117801 
  132288   133816   147329   160104   145696   104850    81098   105823 
  152599   187514   209466   229907   239041   219199   167038    89428 
   18819   -31107  -108279  -212838  -267717  -248070  -184288  -104562 
  -52780   -43701   -41067   -20311    27665    80898    75433    -6768 
 -127399  -245685  -309141  -307846  -298665  -305057  -314914  -308994 
 -250191  -147968   -52190    14869    48173    42872    20021    22220 
   38526    30274     4375   -40647   -80698   -50646    17209    46304 
   48446    65724   101268   129590   129986   122698   129296   123536 
   95068    63768    13165   -58687   -89664   -69068   -64065   -86563 
 -105842  -112844   -92563   -47901    -3904     5472   -41752   -87798 
  -77760   -44539   -22653   -18472   -19059     1791    28556    25025 
   -9327   -41827   -44245   -34880   -45388   -58233   -47191   -32969 
  -34912   -30658     9521    74413   102575    68795    41536    62109 
   66510    29118     7059    11832    22876    24593    -3956   -22185 
   16576    49086    14045   -25147   -17737   -11555   -18636    -1921 
   20224     7010   -35122   -80253  -120100  -141440   -99404    11423 
   94183   102763   103703    89785    41327    37380    51325   -24739 
 -149798  -227179  -249461  -229406  -173625  -127813  -137074  -181838 
 -176856   -66798    80071   161630   161258   123247    90417    81535 
   87603    69732    14855   -36933   -59042   -54627   -31012    19896 
   91109   110122    49238    -3781     9589    56027    90804   105234 
  111605    79116   -34946  -162486  -203988  -186952  -180445  -172786 
 -127758   -67563   -36060    -7758    49790    89804    85333    51706 
  -23653  -114706  -157426  -156782  -151596  -148342  -132224   -68931 
   45504   142776   163246   129103    91459    67994    67160    85631 
   92633    80731    59398    26531    12226    30933    28997    -7015 
  -38926   -68082  -113882  -173670  -228860  -254836  -208803   -63881 
   95532   156432   146639   126446    65393      160    14833    42646 
    9932   -21323   -33090   -85409  -163421  -201347  -181241  -129180 
  -90454   -76856   -33969    52887   112434   125907   133883   113372 
   48378   -13261   -48946   -54762   -53188   -99020  -158372  -156682 
  -98476   -11833    53297    60056    67696    80649    40124     5923 
   20298    24099    27616    68876   115257   135519   134725   105631 
   50624    28034    61648   108490   141093   149034   139888   117861 
   49863   -47820  -103851  -101791   -74141   -40949   -27410   -59361 
 -107810  -120069   -97156   -96154  -131544  -139979  -113308   -86433 
  -48454   -31515   -78818  -145171  -189815  -213630  -190012   -95510 
   29394   110344   142902   158277    94146   -47496  -117114   -73883 
   -5535    28956     5642   -51198   -81299   -72396   -53859   -28707 
   -2895   -14106   -48586   -48601    -8995    37191    61106    37792 
  -45576  -145414  -143034    -5792   118598   111123    34095     8621 
   17775   -19202   -59678   -85736  -143015  -174539  -143147   -79764 
    3629    47091    15561    -3073    45749   106624   140598   143904 
  109145    85341   115109   117383    30617   -50952   -43475      713 
   16871    10603   -16427   -71561  -116127  -119245   -98267   -71557 
  -20799    67975   136715   132569    88234    35296   -26028   -75356 
  -99130  -105462   -86733   -41381    -8719   -22503   -73529  -130326 
 -155852  -118565   -16023    76588    76340    31371     7945    10322 
   65996   135810   143667   106740    44809   -20934   -46191   -50276 
  -59352   -62854   -55155   -16452    42150    36830   -45822   -83735 
   -8508    97238   150029   155388   134496   103709    73974     1988 
 -113348  -168482  -118982   -34718    12489    13330    15455    51846 
   85564    69805    23609   -12998   -55369  -123238  -181644  -207685 
 -214334  -201064  -188876  -201387  -192175  -149102  -120600  -101294 
  -84191   -69889   -24551    26155    35633    26410    25853    33611 
   46513    61923    78747    94738   100500    88447    77571    84590 
   90177    91426   101839   116275   142955   189758   240103   268566 
  254068   212604   183575   179825   176087   121374    10367   -75518 
  -89153   -80688   -77647   -65024   -69667  -110412  -146039  -155887 
 -173583  -216330  -256847  -258551  -201118  -115733   -83583  -130132 
 -198626  -247116  -265672  -271872  -300395  -330414  -333508  -339983 
 -353398  -332589  -285677  -243005  -180165   -93503   -16931    71949 
  172581   223910   236376   254489   282840   309357   294095   259441 
  282470   328869   356526   407280   440698   389419   315610   290736 
  279685   208560    77739   -23377   -66033  -113033  -162362  -177939 
 -175478  -135319   -45235    10021   -21668   -97637  -180188  -249776 
 -272807  -252710  -263389  -349801  -458340  -534288  -571211  -567610 
 -539320  -509417  -449773  -296307   -76103    39441    -8695   -34895 
   29488    75586   107756   119226    66860    46029    89562   126484 
  169863   222502   238459   245969   280301   311158   347230   429716 
  509327   506609   433702   353171   316635   335817   318853   153007 
  -69712  -158028  -152661  -172407  -162937  -115546  -107962  -124220 
 -139996  -152061  -132506  -103503   -90540   -68388   -24855    25758 
   39973   -10484   -78920  -115208  -101433   -48523   -35870  -102908 
 -165235  -177129  -182233  -165367   -88240    11162    95663   154204 
  171539   158065   140646   107073    14916   -75893   -41149    89696 
  183902   170203    58774   -87335  -207633  -274142  -302177  -315095 
 -292221  -228237  -167307  -139014  -122632   -94016   -65825   -39903 
    -233    48151   104404   173845   238030   238536   106497  -116569 
 -276579  -298670  -243845  -182259  -172489  -235714  -279587  -256676 
 -218268  -149624   -66289   -59924  -105498  -105412   -50835    14507 
   97520   191244   210876   166263   151612   136589    77875    55037 
   98068   127113   112362    92380    93264   129490   194325   259969 
  300525   291587   249413   220594   204175   175332   151036   168793 
  204668   159317    20841   -80436   -88706   -73553   -70161   -70182 
  -83956  -117473  -136404  -118317  -117608  -160813  -190806  -199851 
 -225849  -242326  -196607  -112348   -75271  -101854  -119899  -103455 
  -82147   -65055   -74079  -113746  -132234  -123475  -103780   -45976 
   34074    82206    90266    93303   122131   164471   185283   169510 
  134056   113143    98733    36621   -59172   -97130   -75861   -75495 
  -83667   -76242  -111853  -171762  -180062  -139156   -58771    34346 
   61375    18010   -58098  -161548  -228541  -219566  -209304  -211502 
 -174178  -117881   -75458   -43078   -13748    10008    29973    60818 
   72461    49249    59882    90669    59228    17632    30220    41730 
   34891    43126    52033    67488   110028   135392   105532    52854 
   22948    15202    13006    28025    43769    26464     2216   -12675 
  -36490   -51473   -36447    -3435    20681    12475   -19254   -37322 
  -33735   -35986   -37296   -12516    28473    86203   158646   198032 
  190206   162671   107853    17060   -81858  -154117  -195607  -226824 
 -216087  -129350   -24452    33435    17170   -64619  -140559  -181828 
 -219118  -228416  -200251  -174202  -164566  -184453  -202679  -167645 
 -115375   -75079   -30281     8277    23807    13755    -2919   -18940 
  -60890   -92916   -37237    71134   134385   156352   184974   196690 
  170137   143501   139511   146671   162166   183346   195506   165834 
   75579     -721    29870   111458   119107    64533    28555    15834 
   -8982   -64574  -108626   -94680   -58387   -34159   -29460   -64248 
 -119407  -145721  -128690   -72957     4200    40940    12884   -16782 
  -22291   -42083   -84356  -121492  -116054   -59949    -4161    10274 
   -3836   -31468   -97023  -189332  -213132  -142866   -66806   -24641 
   21089    92008   152553   163692   136301    82458    29158    28069 
   44085    24581     3282   -32803  -123095  -190988  -172185  -111898 
  -33844    59457   109975   109988   128177   173574   211746   249677 
  283703   246237    84912  -102832  -161229  -131990  -130653  -121294 
 -104857  -134035  -152356  -153425  -171673  -167779  -163006  -177704 
 -145317   -71530   -27226   -12816    15835    55734    66326    34346 
  -15835   -67220  -122196  -149434  -135568  -142905  -164947  -120875 
  -29860    35101    59983    62819    68539    84111    89959    86299 
   84769    82349    82369    86462    74661    32529   -19325   -57275 
  -79286   -69541   -20742    33773    65054    58777    14082   -50563 
 -119275  -156991  -133275   -81352   -46840   -42436   -48524   -30535 
   -2833     9142    18162    27460    53793   104679   133026   121059 
   81147    18072   -25034    -7751    40286    69356    64845    41904 
   24946    25407    36660    40794    40011    50392    38850   -23170 
  -95557  -131014  -108625   -47276      595    10929   -11225   -51488 
  -90713  -124411  -143281  -152893  -184411  -216486  -189708   -81218 
   51978    85184    13337   -26860   -23087   -38091   -30227    -2784 
   -6049   -20056   -56941  -138014  -203770  -215003  -200572  -164051 
  -94979   -50537   -52948   -38685      644    39909    91190   128916 
  111777    64066    50483    92152   130627   130907   101677     -722 
 -122677   -94326    22544    44820    29864    69841   102014    89310 
   48323   -13403   -53916   -24114    44123    76531    66028    41860 
     114   -52723   -88857   -92373   -53161    14024    58043    43385 
   -4632   -36374   -43969   -47031   -58142   -95104  -151481  -180682 
 -181165  -166630   -72169    78679   132402   102754   110115   119001 
  102104    98822    61485    -3975   -22827    -8541     5872    -1175 
  -33011   -18897    58298   105013    78433    22576   -26643   -55633 
  -56315   -51780   -77135   -99613   -88677  -100675  -141130  -147067 
 -115788   -72601   -23302    12784     6210   -43337   -96262  -118130 
 -105899   -63538    -7862    28525    40459    44707    48882    61557 
   84761   109072   135951   166361   180799   147519    61322   -23553 
  -68724  -108259  -159299  -187836  -160879   -92567   -47026   -42085 
  -41926   -21797    28983    53454     3810   -36171   -11265    20860 
   28758    18315    -9763   -27796   -23549   -30277   -33972    16746 
   90576   124804   136852   131729    45395   -88047  -149471  -156309 
 -179620  -171903  -105489   -37506   -21164   -76474  -135207  -140402 
 -134693  -106191   -33188    17881    16303   -15417   -41964   -31181 
  -11269   -17925   -22240    -2433    13337    34734    85192   106722 
