Origin Time       2011/03/11 14:46:00
Lat.              38.103
Long.             142.860
Depth. (km)       24
Mag.              9.0
Station Code      FKS031
Station Lat.      37.3363
Station Long.     140.8087
Station Height(m) 415
Record Time       2011/03/11 14:46:56
Sampling Freq(Hz) 100Hz
Duration Time(s)  300
Dir.              U-D
Scale Factor      3920(gal)/6182761
Max. Acc. (gal)   270.531
Last Correction   2011/03/11 14:46:41
Memo.             
[...]
   35957   -11756   -86357   -41698    -5083   -38366   -48399   -65221 
  -83830   -75411  -101138  -110922   -51895   -23321   -49528   -32386 
    4207   -30543   -46707    10393    42364    33358   -38219   -97607 
    4936    49857   -60257   -26705    72162    23665    -7218    24227 
   19260    26402    26949   -16116   -20707     6772   -24970   -71568 
  -31588    19060   -22728   -58619     2512   106825   193096   188335 
   47416   -80797   -62335   -50752  -107428   -52838    46640    48281 
   58298    55158   -40509   -40899    80202    73926   -10925    15694 
   42116   -15290   -85834  -148490  -152693  -112716  -107573   -88224 
  -42513   -65388  -156138  -190597   -70851   116349   168881    67055 
   10064    66255    70680     -410     3758    38318     5208    -8915 
   13632   -15281   -63926   -28426    52181    23185   -59738   -35492 
    3561   -13765   -11161   -14395   -26822   -33142   -64622   -71678 
  -65786   -95241   -75145    -3463   -15380   -76015   -20350    71895 
   14567   -88324  -105819  -101928   -78911   -28453   -17158   -63580 
 -111284   -63709    24014     5507   -40898     7832    47705    11657 
   52071   157335   108009    -6594      193      872   -42795   -37540 
  -41842   -21042    92343   136035    28821   -56940   -34018    20410 
   68656    74286    14570   -27993   -21938   -22454   -48579   -63699 
  -36002   -14660   -27892   -28798     3740    62626    56631   -67994 
 -119417     3481   101711    71436    17813     -827    10555    34733 
   47555    69249    56266   -32962   -85760   -61739   -39102   -61606 
 -119777  -137083  -120571  -131321   -96566      -76    51671    39787 
   -2618   -64893   -65409    45935   109610    13066   -64445     -416 
   47602    -7909   -74672  -111133  -107024   -75058   -52545    -3498 
   17758   -50676   -86935   -53422    -2825    55041    71832    51713 
   25177   -16615   -33186    -2450    23471     9487    15716    84101 
  117677    79793    41552    -2012   -40695   -15790    38337    73389 
   74023     4856   -80778   -82533   -48013   -61725   -61461   -27297 
  -52143   -80541   -60928   -76441   -68986   -26491   -66546   -91093 
  -23557    -1771   -26843   -16880   -42869  -112306   -95651      966 
   74924   120375   132432    83348    30816    31922    66881    87928 
   30479   -87205  -139223   -92592   -30608    -8621   -23737   -57424 
  -93305   -89638    -5065    81061    20165  -128270  -162105   -53847 
   77266    98433     7037   -46947   -58261   -75700     1680   112147 
   81412     7105    10954   -18619   -82753   -41060    50250    51857 
  -24474   -65653    -7473    70851    93122    94835   101392    71595 
  -31754  -116306   -92163   -92379  -158879  -111947    15295    31929 
  -32842   -19205    89664   130239    41335   -25008    -3752    42748 
   69181    22864   -60624   -78200   -52577   -21505    45789    66745 
  -39890  -131553   -60113    92783   132673    30247    -4218    54387 
  -14929  -113276   -53321     6363    22476   101488   134845    46656 
  -64604   -96644   -26274    21087   -49449  -103211   -64991   -75855 
 -128890   -96695   -79558  -123409   -50977    93264    93178   -13170 
  -46692    -3320    31075    63349    60833   -23470  -105168  -148090 
 -114856     7292    13582   -23206   112704   117861  -103428  -128844 
   37318    77786    10373   -39636   -81345   -98942   -62659   -22531 
  -14356   -44671   -72886   -31165   -14810   -72911   -75058   -36053 
  -19673    -8070   -29336   -26829    48238    78972    47313    56177 
   83022    68567    22458   -44851   -31118    97318   103326   -41069 
  -69868    -4489   -19163   -66826   -73855   -51163      995    70010 
   80574    14318    -5070    59842    81715      676   -49884    43227 
   72973   -47081    -7999   102442   -16790   -98642     5857    28070 
    9806    74881    61204   -56051  -141091  -183762  -175815   -86290 
   -1360    38530    57167    18568   -31964   -50240   -39184    49009 
  104102    37358   -10430       59    -7692   -29284    -9392    40065 
    6241   -92981   -68960    64524    83077   -14820   -66563   -75033 
  -67808   -26620     9132    42778    63749    21015   -35582   -47342 
  -23671    -8627   -63323  -150191  -169839  -116236   -40058    15881 
   15841   -28653   -41930   -10970   -33296   -69484    20378   115229 
   39541   -82750   -91015   -34332   -44081  -126219  -129921   -20600 
   30400   -64401  -155856   -68667    82592    51559   -44242    37885 
  130928    59427   -15499   -39771   -80780   -65504     2176    51647 
  109508   121204    53789    20257    -5540   -91041  -133945  -116023 
 -131957  -166346  -143428   -47812    76164   150756   106024   -27002 
 -109302   -82642   -24142    14778    29573    -6973   -86757   -94388 
   19139    80115      875   -31954    70815   114896   -15525  -134502 
 -104472   -20662    54251    99082    87884    57652     6295   -57308 
  -92058   -98183   -47969    -6969   -77036  -124034   -39064    61352 
  111687    81162   -52593   -94225    31149    74570   -12705  -110080 
 -235038  -249389   -72658   -16059  -137825  -139219   -26070    64705 
  181574   240356   112507   -34069   -23878    64173    76715   -40894 
 -142548   -95109   -33344   -19863    74646   155597    88098    39263 
   67478    12732   -78797   -65129    36132   159697   196460    95697 
  -11453   -66967   -62291    51213   151985   131221    38948   -50696 
  -17640    85942    50054   -18172    21445   -34701  -173886  -138776 
   -2465    40041    -9571   -57878   -21063    71672   132959   108963 
   21752   -19210   -34103   -76088   -65601   -83133  -156493   -73913 
   54554    11734   -22123    55886    93784    69645    54714    41369 
   22366     8643   -37655  -127452  -206959  -207386  -136041  -110877 
  -82517    99172   257340   170823   -16949   -69403    38291   137617 
   56425  -139642  -198209   -82206    -5098    -6942    36641    62414 
  -36229   -83305    41242   100776     8306   -35426   -13787     4869 
   72878    88812   -29443   -59351    34169    85049   134255    48059 
 -216470  -209773    55644   110026   -60281  -206857  -185517   -48535 
   -2249   -45890   -18249    52691     9363  -121838  -139771   -20811 
   38394   -74703  -185068   -81442    83849   140296   171239   171169 
  143317   182990   207103   115455     6524   -31869   -29421   -13349 
  -15054   -64570  -125303  -118932   -73634  -153998  -242254   -74394 
  102976    39823   -41808   -22510    31829    43431   -51490  -102022 
  -13357    16339   -91006  -122503     8001    92557    17338   -81875 
  -95572   -50647    39670   132439    95667   -22316   -60408   -21803 
   29574    73324   119249   108700    -6242  -109894  -168753  -163348 
  -18152    43202   -75959  -103757   -44616     -510    70381    49517 
  -36096   -82632  -140575   -70992    24724  -163456  -271131    -3169 
  140971   -19898   -72929    31440    69696    60221    52998    46503 
   59324    50476    12518    -1135    45819   113676   104232    32186 
   14570    98836   151239    15293  -168078  -194804  -104263    21905 
   66856   -73971  -220348  -192078   -69005    50911    90072    14210 
  -60853   -67483   -33019    46343    42223  -149887  -225780   -17607 
   92002   -39232  -119551   -80070   -24337    29271    44382    31756 
   34820   -13647   -90010   -46126    45267    26225     5245   108483 
  145679   -23744  -101305    54050   126831    44972     1424    21903 
   37797   -12497   -88334   -95483   -41931    57450   161085   171761 
   82422   -45688  -118998   -61735    18829   -10522   -54000   -16715 
   17223     5615   -48140  -121807   -56076    97830    60204   -25553 
   24526   -81975  -233191   -55700   109832     5451   -73016   -54526 
   -7068    67629    94974    96461    71703   -11790   -60206   -88978 
  -89852    30659    70100  -103655  -198891   -42823   142349   146363 
   25366  -106984  -168987  -106191   -83931  -202247  -192691    13266 
  146145   151341    84149   -24461     8532   130744    91851    41909 
  117897   100530    15150    -4397   -72892  -130610   -54228    75874 
  220920   238699    36425  -136051  -170767  -143772   -50042    10488 
  -38740  -133789  -219686  -150251    55429    48761  -116822   -56150 
   60748  -102487  -338199  -313711   -81796    57136    42980    62563 
   90294    62439    23985   -74488  -120800   -33719   -26806   -56281 
   29759    37394  -102986  -150032     -813   134986   168176   266556 
  280374    37286  -129592   -53484    64074   121482    75613   -12249 
   -7278    -4864   -58311   -14668    72006     3479  -154436  -167255 
  -13442   142193   195384   105475    -9381    21374    48693   -56925 
  -74627    19316     5973   -45809   -57199  -142601  -207994  -135007 
  -26222    68356   126731   131468   152790    42643  -238611  -297942 
 -132120   -88483   -90895   -40936  -126298  -203925    -4482   143929 
   42213    57206   126763   -30735  -115967    84140   162172   -78077 
 -155629    88029   127371  -163333  -337149  -212282   -15182    23362 
  -92020  -209086  -184231     1406    81719   -27345    42664   213818 
  115427     7699    98080    86814   -61877   -93456    50522   198322 
   95672  -169874  -146114    83204    23970  -113612    54448   161656 
  -36498  -132441   -22625   -70849  -217435  -157916    11531   146587 
  189851    27655  -179213  -170510   -70906   -66414   -41227     4072 
  -72425  -119111   -19906    30726   -17256   -39856   -63423   -38133 
  113250   186249   138461    94297   -56396  -188364    -9914   222171 
  146015   -75787  -197429  -202096   -49770   178317   190903    48507 
  -18496  -172416  -403169  -382970   -73944   229295   216395    12657 
  -54026   -47032   -98747   -81234   103727   236712   130461    56317 
  128102    76143   -41128   -80453  -151719  -104311   112468    78363 
 -122586   -21437    78308  -131782  -152018    89310    80902   -63309 
  -20664    26009    -5719     -440   -15680    32571   205316   163653 
 -106330  -136776    54691    77709   -51872  -158244  -205759  -118315 
    6704   -29273   -78898     7710    73932    68221    42689   -47462 
  -76880    71988   200385   168499    23088  -157519  -215412   -92307 
   46715    60738   -30585   -91793    40173   215525    89665  -111828 
   12934   168358    74394   -33938   -44842   -16962   -26632  -169333 
 -277212  -177741   -72654  -109625  -117316    43634   265214   284460 
   35902  -145823   -34647   116461    77067   -36390  -117304  -155945 
 -126652   -67578    15334    97999    70593   -64658  -176630  -117052 
   39042    27063   -56030    44198    87453  -134954  -306529  -212460 
  -11724    41625   -92067   -84136   121460   110476  -101523  -141158 
  -80249  -133973  -176773  -104623   -34208    47558   204532   188941 
  -36762    -7099   214206    99805  -119302   -55306   -42330  -215336 
 -185679    64036   153883    61060    77631   138309    28702   -89840 
  -96629   -88510   -65346   -65402  -116860  -114193   -52726      241 
   -6200   -91327   -66785   191697   324600    54333  -208960   -96041 
   77326    13101   -57410    18858    22760   -78467   -44830    70215 
   17798   -93618   -41538    77021    56180   -93780  -163401   -75903 
  -26368   -95363   -65344    82575    98231    28598     -548  -121461 
 -220727   -68312   170816   275730   166586   -61855  -108589     -828 
    9368   -39936   -76028   -90630   -84202  -183668  -269492  -131681 
  -26606   -55021    32485    98633     -383   -25145    39133    39132 
   41255    51262   -40385  -140060   -26749   219281   247813    70737 
   23168   100526    98899    17994   -98238  -140791    20113   173994 
  146039   123080   129342    82682    82997    67645   -48555  -100074 
  -84060  -169856  -253263  -162051   -50281  -123645  -225554   -94853 
  129564   156893    12319  -143955  -153443    93793   317530   190627 
  -36599   -20721   102354   124986    37087  -146723  -254693  -159464 
  -30432    53306    66182    17047    89840   155943     1429  -159234 
 -154694   -69088    29304   127829   152335    19766   -99133   -56887 
  -49288  -123550   -51130    89765     -251  -189441  -157456   -32325 
  -36261   -94397  -149641  -234010  -306748  -277440   -87791   141076 
  167363    24173   -12533    43631   -13060   -98529   -49309    43334 
   42498   -45587  -104902   -29523    58789    49659    77713   119433 
   72117    62206   117979   120793    70996    18496   -28275   -40386 
   18808   104380   154704   180685   144099    11775   -61362    62446 
  256450   238132   -80351  -340208  -211509    22133   -29837  -232313 
 -251364   -54694    90022    74759    83866   108976    61266    54138 
   29492   -78065   -53526    79721    37087  -103186  -100649  -117396 
 -237444  -145245    45495   -91998  -299902  -122521   185070   170259 
  -70460  -160209   -79601   -73466  -125831  -109264   -24660   109173 
  136883    23338     -519    63266    80456    41328   -80199  -253288 
 -360626  -310122  -167605   -85722   -49584     7819    52801    -5305 
 -150244  -171993   -71690   -89929  -241691  -323536  -205305   -38728 
   13224    80612   151275    96256    68220    50735   -93125   -85672 
  134692   230935   222718   135678  -153400  -324326  -194887   -91390 
  -81195    47541   219111   218143   101328    37665     1235   -24666 
   92056   253055   223857   118427    54992   -54572   -69275     3950 
 -120618  -204520    20925   158656    11445  -181564  -278640  -206010 
 -123765  -280847  -438396  -288991    -8631   120148    88458    52125 
   92667   171680   217491   185483   132800   125804   127805    96023 
   -9396  -157960  -205272  -166687  -113297    32723   144899    15012 
 -166447  -131075    17366    19352  -125258  -182327  -104114   -51292 
  -32760    13058    15857   -28045    18206   133358   109977    -3033 
     282    11204   -53117   -42672    -2239   -29822   -26203    18837 
   11817   -26992   -52690   -42382    18864    42617    10371    53728 
  103285   -32148  -218747  -184483    30300   160331   110193    51988 
   98931   133053    79475    33398    41063    65034    83566    68122 
   22152   -17807   -30407    26085    93876   -19203  -214239  -149283 
   37060    14982   -20385    55809    11681   -74179   -44121   -13613 
    2386    29763     4823   -70187  -132326   -96235   -26147   -55917 
 -162311  -264748  -201806     2410    44347    -4019    71319   121646 
  118250   126324    23232   -90034   -23169    68642    50340    21428 
  -25751  -133699  -140265   -12266   -16144  -168992  -118140   117730 
  106004  -146572  -222561   -47645   115182   132370    25585   -96402 
  -32898   108926    36348   -74694    -4841    81382    91692    33408 
  -36063    29103   120623    45132   -63334    -6780   111796    89515 
   12704    63973   105807     1847   -43692    37831    20558  -108238 
 -151048   -92696   -32857    -4882   -12992    20549   119945   112471 
   -7525   -45822     7177    43778     3484   -89874   -84646    23892 
   10073  -122942  -106523    81077   185841   114618    14052    14407 
   74833    59853   -55727  -167002  -206254  -176205   -92803   -12919 
   31006    37525   -38550   -71249    64633   139226    18783  -113139 
 -135390   -75277     2639    45094   -10187   -84183     9335   108922 
     463  -124690  -151455  -206054  -255460  -150352   -14267   -44245 
  -61686    -9849   -80921  -124425   -53172   -62163   -59987    74412 
   93560   -71502  -133339   -61977    18076   140990   179926   102378 
  155201   220295    97816    62005   175529   179019   120396    86646 
  -13270   -96523   -16522    79605   -27671  -149203   -11630   144065 
   63446   -26298   -23519   -81995  -133345  -105716   -71653   -43342 
  -63338  -137523  -133547   -14443    71334    58406    58622   101673 
  149007   171389   120946   105948   130833    -3547  -108516    33509 
  104954   -41058  -160607   -94341    87129    82922  -101074  -135640 
  -87064  -113127   -91249     5115    67066    53135   -23064  -138668 
 -202083  -111096    55543   127521    80703    -8860   -70165   -47353 
   32579   125006   188308   128248    13523   -36775  -129955  -218280 
  -99436    31721   -22014   -46019    -7048   -40398   -36207    20538 
   50388    93061    78329    -4109     -901    38143    -1631   -46159 
  -81160  -154531  -215744  -214491  -113360    42698    87789   -11624 
  -77127    -4863    43489   -39621   -84257   -31962   -17942   -26706 
   -1983    13270    45425    79521    29203   -34012   -33258   -57558 
 -129942  -119453   -26396   -22286   -98874   -96146   -47751   -59921 
  -36453    19002   -64879  -109541    54817   122669     5724   -42332 
   -2726    56007   124660    80537   -50438   -29815    81956    61096 
   47171   122930    58097  -130750  -216405  -156426   -72091   -48733 
    -184    98373    82634   -45973   -92881   -54586   -50207   -32429 
   27632    87800   157450   127177    -7643    -5977   152440   226795 
   83706   -86184   -24558   111005    87590    49466    82311    26095 
  -65711   -10464    65028     5416   -85375  -107366   -58719     6538 
   26005   -17980  -105040  -140223  -110495   -85150   -37792    14183 
   36655    49842    17180   -10117    65527   145200   110049    42998 
   57590   110670    58727  -114548  -163737    -1620    64662   -36954 
  -47823     6472   -56417  -142867  -102625   -37932   -57351   -56539 
  -24099   -40660    11317   103025     7136  -105953    -2142   120074 
  149145   147176    86849    55658    67052   -32486  -147897  -113607 
  -51777  -103756  -189707  -184922  -101333   -57420  -104498  -103638 
   43953   135552    13477   -72717    51760   104537   -54241  -148099 
  -85820   -36078    -4330    59823    49201   -80076  -158732   -66696 
   88571   146295    82174    23997    40938    37131   -18387   -50981 
  -48347   -36596   -46790   -96503   -91176    16700    96282    98601 
   95351   104327   137785   162721    91346   -10092   -20500    31932 
   74041    48876   -60847  -148357   -82496    50538    28701   -72075 
  -25566    49365   -10287   -53483     5213    24213   -15017   -36948 
  -37118      -20   -19902  -104491   -72361   -24265   -38907     9486 
  -16953   -73056    61995   141420    32042   -31963    -8772    29076 
     125  -108833  -127546   -75849   -99028  -127875  -113609   -86985 
  -24611    33839    46295    68008    76297    -6572   -54591    43467 
  103311    34595   -17188    -8692    28871    41512   -53783  -151149 
 -104143    -5187   -18006  -125258  -145101   -54132   -37689  -132749 
 -201551  -120276     8376   -44821  -122031   -32596      892   -36557 
   37867    53300   -81489   -35379   218361   234438    64315    66173 
   49300   -52335    32764   141243    58659   -42233   -14640    49115 
   41723    52536   121973   115491    32575    -2939      -72   -34883 
  -54123   -21322   -28306   -81189   -96794   -58479   -40113   -85791 
  -99633   -28864    37578    14260   -57824   -47581    10052     5981 
    3558    38154    72806   105113    69286   -30662   -52586   -17923 
  -28136   -26306   -28499   -59077     9834   110744    85248     2896 
  -54932   -62803   -14043   -16970   -95599  -101613   -34033   -48352 
 -111116   -92223   -58484   -71241   -67078   -96722  -156247   -90286 
    5743   -32723   -56722    12222    26473    -2194    39480    95625 
