Origin Time       2011/03/11 14:46:00
Lat.              38.103
Long.             142.860
Depth. (km)       24
Mag.              9.0
Station Code      FKS005
Station Lat.      37.6389
Station Long.     140.9853
Station Height(m) 17
Record Time       2011/03/11 14:46:51
Sampling Freq(Hz) 100Hz
Duration Time(s)  300
Dir.              N-S
Scale Factor      3920(gal)/6182761
Max. Acc. (gal)   734.561
Last Correction   2011/03/11 14:46:36
Memo.             
[...]
 -350704  -450666  -548085  -491711  -285676   -72958    88222   201146 
  269120   279853   261143   262256   262394   251708   217999    83176 
 -116471  -201142   -96201    84022   217434   332272   448627   438536 
  307167   209765   121524   -32893  -150819  -109703    57060   184468 
  176003   125629   106806    87723   122215   197998   123330  -115141 
 -351259  -550193  -690446  -690464  -628569  -574011  -392989   -75549 
  222526   468733   586453   414111   109414   -65140  -223048  -436535 
 -445334  -244304  -123535  -105803   -42844    24569     5820   -41838 
  -35907    32057   123485   190940   250510   327515   368324   282508 
   22216  -310445  -513913  -511613  -371453  -195181   -57057    68985 
  181804   208230   215631   249283   169007   -50658  -244573  -277636 
 -137979    61909   222676   401311   587191   629569   559962   490762 
  392307   256903   101580   -80543  -225142  -262293  -199153  -115092 
 -101084  -141159  -174571  -199300  -221659  -274968  -373519  -431078 
 -409370  -365877  -333102  -308077  -265410  -172287   -48039    46065 
   60824   -32930  -195932  -273774  -176958   -37698    18496    37918 
   41514    -1820   -18519    54390   120429    81179    10982    18828 
   90435   206040   343235   366649   253760   179804   178863   119570 
    6942   -31729    21029    57436     1466  -124689  -257697  -349024 
 -372275  -346302  -310083  -237250  -106886     9661    72355    96780 
   53122   -47598  -127918  -167609  -161810   -89372    12023   108401 
  208577   270350   224534    75227   -97374  -211535  -247863  -194828 
  -50944    92653   199646   326611   391889   292986   117939   -40423 
 -176715  -277183  -335305  -345739  -302497  -232510  -148035   -37720 
   93963   224175   293732   270329   245207   277348   268165   206143 
  216394   262358   228214   155010    69667   -66049  -193968  -254992 
 -281152  -319475  -354910  -290936  -109182    94094   274891   364890 
  276194   102754   -33086  -145381  -249144  -300760  -240564   -89067 
   16958    63231   202565   382288   387431   243378    90066   -71114 
 -284735  -515963  -618875  -537429  -399182  -225048    60307   371261 
  555923   551290   428169   332239   220360   -11497  -226896  -353351 
 -435820  -379686  -254785  -261654  -315866  -314823  -351227  -407461 
 -392569  -322488  -178243    51087   253801   364487   378708   288826 
  180947    84543   -97069  -262569  -228370   -92722   -30247   -59160 
 -131662  -185408  -150405   -22667    89991   134713   192745   258073 
  246831   173445    72145   -60850  -227559  -413806  -531888  -491352 
 -343793  -187334   -11053   186097   295168   282434   212814    98312 
  -39800  -139549  -181705  -183595  -168945  -119063    12541   164539 
  207626   161918   153805   205276   267496   302020   269926   171848 
   32882   -99536  -150062  -128041   -95633   -48962    32281   133482 
  217859   257300   262654   240740   178491    96357    34130   -26811 
 -142536  -293212  -401084  -449429  -493539  -573808  -659042  -706242 
 -700439  -598396  -374481   -84885   219667   523100   712895   655827 
  498106   440701   338006   110544   -40400   -99114  -115108   -22249 
   62006    70391   152240   249506   222774   183438   193657   136238 
  -20946  -197735  -306834  -268215   -73095   126364   195712   206263 
  170726    -8357  -220730  -311918  -310382  -253664  -167120  -114285 
  -98773   -70147   -24850     -246    30036   121989   228924   252396 
  188450   120489    87077    56512    26253    -6187   -79175  -137520 
  -84371    57469   210557   304900   260164    47821  -212845  -326403 
 -288134  -241309  -202581  -160346  -163244  -163251   -73245   109300 
  310161   407242   352346   238581   138704     -991  -187554  -269067 
 -151105    31386    95416    59805    27850   -57005  -209366  -238957 
  -92262    58148   113807   105059    72318    29295   -24418   -87006 
 -151746  -194613  -205798  -224533  -279502  -348824  -407462  -441742 
 -407759  -278968  -109104    49292   195474   308490   349877   335298 
  297605   224306   103890   -14570   -74737  -105049  -146618  -160065 
 -100842    35681   209005   325562   318561   215401   141811   156937 
  114416   -52902  -211433  -288563  -235330   -45468    67928     3021 
  -58097   -49772   -77376  -165288  -281381  -387740  -438701  -396861 
 -222067     8515   165623   282783   367921   328174   227321   154548 
   42629  -134466  -285469  -284965  -111805    49094   101678   158325 
  179663    63125   -61135   -98453  -144339  -234769  -280742  -225185 
 -138276   -84154   -25222    25668    29176    43496    98922   140741 
  127661    75925    54111   100120   159234   165145   129051    88317 
   31096   -50418  -131542  -181191  -169958  -118845   -59493    21024 
   98797   127210   113681    91047    93302    97350    37298   -50260 
 -113123  -176950  -194017  -125278   -51687    21927   138516   226460 
  223079   142560     6707  -167454  -354495  -468933  -447812  -357604 
 -248708  -119020     1089   111338   187268   150038    46923    13224 
   45017    40985    22246    74208   143789   155076   166830   219697 
  225195   134156    33388   -16936   -36507   -41873   -65504  -108778 
 -102476   -17919   118578   263247   347435   352782   286720   115059 
  -95336  -180705   -92634    62360   138477   119972    82023    -6960 
 -146949  -228206  -232621  -205618  -185592  -191586  -154364   -41623 
   43866    37506    -2634   -16458    10357    44464    21215   -41007 
  -71075   -78375  -111964  -162943  -195010  -205891  -177444   -88415 
      82    15133   -49478  -152171  -225930  -234455  -216836  -221404 
 -219105  -152137   -13957   162722   293379   265670   114397    14895 
   13615    33016    76934   151800   194090   184901   147711   101788 
   59305     7972   -51181   -82591   -75586   -65441   -75126   -93659 
 -121980  -175526  -252847  -321852  -326431  -257926  -180845  -146560 
 -154921  -167309  -153354  -150739  -165417  -123765   -37933    25331 
   90047   150440   147289   116080    94601    63700    38542    -2125 
  -91413  -142517   -84520    -2462     7071    -7977    31653    73868 
   94592   177026   281820   322754   318181   250049   133375    77342 
   86837   107529   143176   172288   165384   129400    51710   -73512 
 -199810  -268478  -257649  -193069  -111307   -33531    21946    34522 
   -4412   -66066  -103158  -102524   -78785   -28306    60120   156822 
  237172   312440   346350   290900   181498    75696   -22559  -112986 
 -151926  -144086  -155518  -172177  -132425   -56116    16173   103297 
  213871   310549   378629   433223   461488   402330   210510   -61459 
 -319937  -494012  -524961  -462627  -436646  -441130  -416103  -386161 
 -293215   -63482   191583   348051   351449   209534   127846   206076 
  241752   205998   228973   228020   132636     4796  -116627  -184555 
 -190918  -163703   -70783    70428   150157   118298    31488   -32237 
  -41826   -43687   -80041   -93871   -39868    46123   130345   181792 
  154678    69259    50189   128348   143336    38503   -85967  -204640 
 -287094  -267889  -206354  -190448  -212593  -237016  -236418  -174611 
  -60931    39076   117254   195755   222946   194864   214308   269891 
  224880    80178   -43818   -95756   -99121  -112565  -162739  -184535 
 -141487   -88713   -47883   -11918      456    35299   140296   223245 
  179128    37228  -103165  -194229  -260826  -281968  -217468  -157483 
 -150286  -109940   -56525   -48290   -54167   -98662  -195468  -273252 
 -298763  -263254  -172637   -65345    68153   219683   291396   239566 
  124553    -4704  -148112  -288782  -333969  -235001  -125027   -84830 
   12260   161363   182509    82017   -21050  -111308  -224540  -371804 
 -445838  -363056  -220278   -70192   106858   238467   239007   133168 
   37794     3977   -22176   -23957    52570   136716   156227   144560 
  127365    85203      516   -81403   -73406    -6751    32973    81486 
  155555   168928   123048   114213   144427   146729   135725   121437 
   47378   -34379   -26432    27989    60181    69992    71441    60871 
   14611   -54794  -120135  -196402  -265661  -276102  -213077   -89588 
   44490   153435   245323   259948   167065    83033    54835    12376 
  -35351   -45163   -47060   -55232   -53783   -71370  -117261  -140149 
 -118555   -74382   -16482    36227    46749    22074    16717    60716 
  100258    71075    21856    16941    33750    80407   166132   207293 
  186313   167125   137475    80044    34763    14474    -6922   -45715 
  -62393   -27356     -558   -14481   -28740   -50756   -93418  -116735 
 -141892  -190561  -183295  -100938   -21523    -1167   -62026  -154065 
 -184230  -161249  -164230  -195637  -203069  -195059  -202638  -213383 
 -233459  -278261  -323266  -333065  -284024  -195960  -108509   -17338 
   67425    94051    62097     3617   -80220  -172471  -236714  -239799 
 -177184  -120173   -79277    21538   106309    78907    38292    50853 
   77858   103257   119868   120519    59230   -97059  -248729  -277974 
 -213689  -176113  -165956   -76896    89710   275774   427293   425258 
  274359   182902   217325   195210    54024  -106059  -267012  -345770 
 -225810   -63824   -28403    -7334    76587    98175    22755   -24241 
    -153     8875   -25579   -18616    51154   110188   134963   132396 
  112952   111349   107431    68252    48773   109233   227637   315544 
  285991   162189    62812    13792   -78698  -185517  -185191  -109341 
  -24058    61510   111746   146817   187946   181733   130623    78645 
   50709    72456   106724   102393    93116    87633    47996    -2675 
  -43426   -74442   -39901    70291   177086   238983   265640   279848 
  290481   243628   101568   -82608  -234905  -291689  -227825  -116241 
  -56459   -64964   -77303   -71145  -120389  -234482  -342143  -422393 
 -426317  -290567  -104887     9688    83032   157670   172297    95983 
  -16330  -119173  -202757  -250799  -242915  -187682  -106253   -20164 
   69417   192591   306726   330888   264776   146634    55467    24901 
  -29861   -95512  -109421  -131619  -163998  -166801  -179129  -175324 
 -123833   -95074  -109387  -128629  -156552  -196334  -215764  -167198 
  -54894    33035    61473    71269    73810   109316   193377   225816 
  166862    55565   -67297  -104794   -60343   -54561   -56184    -9781 
   -6926    -9516    74742   112733    61949    53229    67611    59784 
   53654    16276   -55711  -107475   -89662   -11243    14755   -48976 
  -85188   -65052   -48697   -20415    14515     3196   -36027   -37031 
   10239    35307    -1726   -56572   -67588      282    90087   111756 
   86761    76578   107533   166434   151964    10106  -156283  -254459 
 -277751  -231528  -152752   -81251    23810   156015   206698   164742 
  110925    65654   -16799  -143118  -195939  -133280  -101953  -162064 
 -206557  -168617  -109860   -93872   -94665  -103656  -120342   -84506 
  -15731     5889    16836    68504   112466   127901   132726   103034 
   32403   -52675  -128045  -159610  -128649   -46443    47243   102405 
  131620   165340   171142   134950   105548   123862   170804   202688 
  213912   187891   121498    96193   117356    85902     5520   -42315 
  -36824    -2142    31115    35446    -8780   -91251  -138598  -110241 
  -91408  -150135  -209448  -191716  -162139  -177770  -179568  -150050 
 -108006   -26125    62983   117576   172656   202772   134138    19909 
  -21304     -387    -1298   -13927    -6087   -11268   -26668   -24718 
  -41996   -84718  -102778   -87684   -48450     7034    58147    77735 
   15469   -80708   -62577    28000    37621    13554    29968    34900 
   34740    68350    92068    61270    20719    36066    57607     7320 
  -67018   -94600   -83428   -48563    -1887     2435   -49767   -83682 
  -67262   -48218   -48570   -65450   -86053   -83619   -72690   -58029 
  -22956    -9369   -29122   -42201   -64537  -110284  -144509  -167276 
 -194853  -197699  -165529  -131223  -102568   -66334   -41626   -64220 
 -106641   -98580   -34229    33608    79754   134369   211131   267752 
  278069   249832   204953   165726   106665    10938   -77309  -130919 
 -165954  -197587  -212956  -189878  -129268   -50558    15073    38798 
   12757   -30282   -36614   -23973   -46029   -74127   -55580     1222 
   62336   113049   168173   228463   252278   228086   190821   154709 
  100802    -9356  -174377  -312620  -361884  -348170  -319984  -261361 
 -132098    26983   160803   252471   245757   143656    61624    15890 
  -46385   -43139    72916   182693   241865   301708   306996   208641 
  104626    52592     8841   -19364   -36993   -88458  -105029   -34781 
   -1123   -68092  -112926   -86050   -79453   -80534   -16063    52732 
   63126    56067    74995   119709   135199    70983   -12403   -19053 
   34726    39683   -51630  -152466  -189619  -193523  -194057  -202639 
 -212885  -171645   -97262   -74523   -95230  -102885  -107213  -127567 
 -106210     4301   127099   196397   262174   339545   386344   399237 
  377400   344216   350341   333470   191175   -22311  -190876  -258733 
 -184903   -37732    20442     8627    45804    90582    88844    78755 
   57029    14834   -41590  -135565  -236011  -296828  -352031  -430230 
 -500935  -551542  -604737  -654785  -664040  -574127  -324894    28864 
  339046   522772   537060   426556   355372   273324    42408  -146923 
 -122034    48887   305148   541559   684392   790907   800953   569741 
   77681  -564139 -1092007 -1170919  -856302  -698490  -825900  -817651 
 -742693  -801402  -744090  -612426  -567738  -425022  -216486  -103671 
    7539   121382   129005    98892   151144   270816   373000   441487 
  522394   632550   744814   812015   831494   847765   829991   698047 
  499247   362715   264025    74347  -178594  -360899  -415332  -357957 
 -285161  -276607  -261333  -222474  -271340  -386674  -439967  -401074 
 -308206  -198940  -111117   -63317   -49515   -39059   -10937    23794 
   72117   130483   170575   199480   214628   198673   196161   254778 
  327565   338562   303224   293095   309234   281639   205223   161045 
  169385   154826    47055  -131433  -259478  -268714  -242004  -276112 
 -338820  -339686  -294751  -285622  -311955  -344906  -385374  -401841 
 -376481  -338867  -275616  -149765    12187   167738   299828   365523 
  363215   379260   403309   322975   169951    82580   101279   202405 
  333125   396643   365577   251982    62348   -97510  -160323  -173794 
 -113431    28076   170809   290639   310472   152846   -22771  -100382 
 -205868  -376734  -524183  -614336  -614717  -549626  -481273  -354467 
 -159782     7434   116260   142048    71516    11057    42022    98982 
  124643   171060   255888   316183   321390   254800   120156    -7662 
 -107297  -221091  -323410  -365997  -341252  -258291  -139532   -22331 
   26352   -11978   -34527    16593    53446      554  -100400  -173987 
 -203988  -202272  -166875  -118554   -97957  -106594  -121530  -139753 
 -150281  -161431  -204864  -213883  -133105   -66799   -61127   -62948 
 -101677  -162803  -148718   -62784    51605   188077   288904   274984 
  139782   -47957  -215293  -339302  -372159  -252697   -68208    52264 
  120343   146950    99317    37658     4655   -58285  -130180  -118407 
  -41853    29102    93852   159868   197094   203013   214949   233922 
  225029   188629   141363    74097   -12875  -100839  -182200  -242725 
 -241552  -158552   -37928    66572   135987   152739   135561   139133 
  121659    16807  -100639  -146136  -120376   -51871   -18433   -43309 
  -48718   -27429   -12230    25934    76242    76916    50565    77952 
  150057   197034   200380   190697   211150   267281   323164   374335 
  432066   467572   435625   304498    94448  -109826  -261092  -350754 
 -330908  -235370  -167743   -98646    32941   182840   304228   353609 
  299975   212147   152874    89538     4280   -42386    16219   153235 
  272633   326510   318786   261796   188795   117203    30461   -48320 
  -80759   -81994   -58110    -8758    35974    72659    89170    70660 
   58824    48861   -16360  -124524  -228815  -322346  -388739  -379376 
 -307635  -257335  -263352  -289738  -313214  -339969  -352515  -329431 
 -294338  -269470  -250497  -237366  -224015  -208517  -205502  -206523 
 -187902  -148879  -107495   -72396   -35227     1261    38281    82955 
  112565   118468   124072   146205   191525   242861   264892   244528 
  198051   134362    32960   -98019  -204231  -273719  -318408  -295433 
 -204371  -141894  -131758   -87828    -8355    -3067  -105027  -212840 
 -272475  -344502  -373316  -236104   -61014    -7761    19763    69634 
   44877   -23519   -56103   -79823  -111850  -129186  -123150   -94474 
  -59693   -26377    19805    65357    76719    60995    58385    81600 
  113051   151807   200138   232311   224187   172088   102364    48845 
  -20041  -119477  -171016  -173517  -212328  -265218  -256579  -196117 
 -124772   -30703   119246   279223   334917   269261   193269   159519 
  115980    59774    46366    71852    96141   112046   123118   129986 
  133685   131598   134737   158126   192936   234739   291416   321476 
  265730   136487   -10323  -146498  -275748  -373840  -409604  -429066 
 -464028  -460879  -386092  -248936   -83320    53070   144593   182549 
  118171    -5639   -58901   -30265     4395    44774    91367   105116 
  117317   168364   224634   256152   269259   261588   201479    90134 
   -1718   -54629   -89322   -34127   117661   220565   227241   200156 
  128648     2441  -112948  -179819  -209242  -201393  -152157   -85437 
  -52379   -59789   -64963   -85176  -148448  -222823  -295639  -332618 
 -260334  -100873    51899   144422   160978   114913    54811    -5739 
 -103985  -207515  -225179  -146066   -41114    13515    21330    44512 
   47321   -32810  -132399  -177011  -187524  -201625  -183821   -97045 
   -9204     9935   -21490   -74509  -121261  -117368   -82723   -86303 
 -123008  -149188  -176852  -221903  -269717  -286550  -204279   -19434 
  158818   261693   298838   281164   226262   138796    25938   -43869 
  -37985     2054    44426    51610    47342   110897   174481   149237 
  103798    67540    -1949   -72983   -89629   -53375   -34063   -79416 
 -142385  -194989  -243590  -242923  -187350  -145265  -122791   -72850 
  -15898    -2230   -15133   -11569      914    -7860   -29769   -28068 
   19602   100326   165327   164540    91762    -2911   -48889   -36383 
  -18246   -22896   -38312   -38496   -16340    -5539    -7191    12704 
   33656    34374    42799    64242    76275    60048    28589    39176 
  103199   170051   213525   226236   205087   181499   171229   132492 
   57217    -2040   -37619   -75301   -95644   -83481   -70213   -70778 
  -56343   -26597   -34410   -85430  -114216   -96145   -63098   -18596 
   31803    31571   -13748   -19160    18317    37625    45053    68126 
   95455   110177    79140   -12555   -98893  -131078  -133135  -103265 
  -36419     5039   -15844   -61682  -112843  -185129  -249112  -232368 
 -128345    -2512   123580   258019   355486   370139   316070   240298 
  169597    78004   -53223  -171901  -215966  -182452  -119989   -85764 
  -81493   -68545   -53510   -70235  -102165  -101583   -67664   -27692 
   20300    69133    83457    35021   -60778  -142953  -170159  -131140 
