Origin Time       2011/03/11 14:46:00
Lat.              38.103
Long.             142.860
Depth. (km)       24
Mag.              9.0
Station Code      FKS026
Station Lat.      37.2664
Station Long.     139.5368
Station Height(m) 494
Record Time       2011/03/11 14:47:17
Sampling Freq(Hz) 100Hz
Duration Time(s)  300
Dir.              E-W
Scale Factor      3920(gal)/6182761
Max. Acc. (gal)   64.177
Last Correction   2011/03/11 14:47:02
Memo.             
[...]
  -37340   -43633   -44299   -39885   -30804   -17405    -3353     4595 
    2621    -6664   -17394   -26091   -33203   -39241   -42433   -41243 
  -36553   -30514   -24795   -19930   -15008    -8448     -494     5910 
    7724     3661    -5567   -17094   -27831   -35440   -37445   -33175 
  -24305   -12447      236    10991    19800    28936    39133    48427 
   53826    54265    51081    44528    33235    17472     -825   -20095 
  -38068   -50611   -54371   -49135   -37816   -25607   -16469   -10326 
   -5776    -2981    -2693    -4623    -7523    -9581    -8371    -2615 
    5516    11426    11307     5158    -2862    -7948    -7577    -1799 
    7402    17881    28594    38493    44986    44867    37437    25725 
   14684     8684     8226     9111     7313     2494    -3426    -7941 
   -9994   -11011   -12973   -16983   -21895   -24252   -22082   -16574 
  -10196    -5093    -1462     2021     5577     8087     8964     9044 
    9269     8961     7633     5943     2036    -6971   -19980   -33271 
  -42731   -46017   -45740   -45113   -42290   -33648   -19166    -3477 
    7359    11114    10704     9893     9251     7278     3704     -620 
   -5659   -12168   -20229   -27934   -32959   -36214   -39971   -42787 
  -41151   -33048   -18202     -219    14450    23694    29666    32021 
   28719    20999    13134     9667    12581    19054    23374    21463 
   13224     1956    -8279   -15999   -22451   -28269   -32102   -32225 
  -28507   -24036   -23091   -25990   -28849   -28649   -25504   -20935 
  -16493   -13219   -11588   -12232   -15413   -20270   -26147   -32569 
  -37380   -37871   -33811   -28000   -23790   -22256   -21811   -20113 
  -16703   -13508   -11984   -11505   -11239   -11840   -14413   -18123 
  -20676   -20509   -16320    -7920     1840     9747    14292    14755 
   12186     9226     7184     5517     3913     2869     1967     -187 
   -3085    -4470    -3893    -2814    -2047    -1255      556     4147 
    8388    10422     8172     2446    -3875    -8578   -11071   -11387 
   -9832    -6964    -3233      209     1228    -1021    -5264    -9871 
  -13321   -14029   -11604    -7627    -4441    -3302    -3953    -5323 
   -6791    -9305   -13565   -17749   -19131   -16183    -9625    -3029 
    -207    -1998    -5998    -8860    -9449    -8698    -7338    -5164 
   -1243     4074     8197     9533     8931     8117     8910    11334 
   12810    11455     7836     3105    -2395    -8770   -15763   -22874 
  -29722   -35168   -36524   -31017   -19036    -5747     1846     1043 
   -3827    -6376    -4445      -84     4923    11493    20779    30426 
   34908    30806    20981    11697     6484     3910      422    -5259 
  -11269   -15855   -18574   -18296   -13827    -6135     3068    13690 
   26231    39716    51803    59758    60919    53696    39335    22802 
   10211     3850     1019    -1875    -5786    -9109   -10026    -8871 
   -7661    -7517    -7206    -4349     1087     6615    10427    11164 
    8242     3904      524    -1382    -1371       14      511     -726 
   -2589    -5182    -9293   -14205   -19221   -23643   -25724   -25151 
  -23615   -22428   -21592   -20037   -16376    -9914    -1317     6869 
   11334    10278     4298    -3695   -10243   -13414   -13287   -12375 
  -12423   -10861    -5385     1606     6103     5531     -221    -7998 
  -13961   -17030   -19147   -22712   -27234   -29388   -26069   -16239 
   -1818    12229    21401    25566    27037    26375    22405    14387 
    3731    -5431    -9255    -7770    -3745      210     2468     2456 
     672    -1306    -1000     3133     9356    13674    13463     8703 
    1063    -7450   -16043   -23719   -27251   -23289   -11569     4620 
   20569    32508    38835    39501    34056    23222    11052     1370 
   -4795    -8168   -10856   -13529   -14503   -14580   -16846   -20850 
  -22206   -18574   -12651    -7803    -5260    -5860    -8694   -10921 
  -12070   -13094   -13318   -12826   -12318   -10150    -4444     3913 
   12435    18973    21453    17983     9200    -1601   -10659   -14934 
  -14351   -12117   -11402   -13145   -15765   -17701   -18179   -14803 
   -7354      423     6948    12018    13249     9585     2664    -4845 
   -9229    -7585      242    12018    23278    29600    30510    27954 
   22010    11525    -3143   -19411   -32639   -37696   -32715   -21032 
   -8240     1576     7333     9944    10340     9812     8040     1461 
  -10046   -21824   -32120   -40587   -43905   -41558   -36163   -26852 
  -13803    -2514     3472     5008     4576     5695     9024    12064 
   14132    14997    13747    11588     9358     6307     3251     1411 
     413     -454    -1372    -3153    -7865   -15316   -22208   -27422 
  -31095   -29945   -22066   -11981    -4903    -1475    -1254    -5106 
  -12800   -22475   -31671   -38087   -40405   -38322   -32262   -23245 
  -13600    -6491    -2439     1341     6465    11324    14252    14886 
   12263     5566    -4177   -14351   -21102   -21939   -18664   -14387 
   -9498    -3087     5041    14786    25106    33871    39442    40065 
   33825    21701     7278    -6265   -16958   -24707   -30557   -33758 
  -32827   -28446   -21713   -12842    -3585     3209     6372     6837 
    7149     9454    12492    13194    10625     5626    -1107    -8693 
  -15771   -21250   -24430   -24289   -19817   -11834    -3483     1922 
    3104     1019    -1882    -2989    -2263    -2011    -2144      451 
    7517    17987    28731    35171    34463    28543    21500    14464 
    5577    -5649   -16213   -23029   -27367   -32986   -40843   -47972 
  -50079   -44600   -31852   -13204     9485    32080    49600    59805 
   63362    62515    60067    56618    50537    41720    31654    20803 
    8333    -6421   -21867   -33964   -39567   -39471   -37058   -34495 
  -30778   -22624    -8273     9180    24162    33064    35127    31643 
   24762    16114     6925    -2524   -13462   -25350   -34706   -38809 
  -36151   -26964   -16110    -8380    -2933     2912     9700    17305 
   25663    32920    37022    38125    35102    25838    12477    -1471 
  -15044   -26502   -32612   -31923   -25522   -16336    -7885    -1833 
    3052     9047    15874    19586    17224     9755    -1136   -14289 
  -26856   -34665   -35718   -31735   -24997   -16005    -4360     9995 
   24690    35501    40072    38103    30374    18924     5298    -9203 
  -21967   -31542   -38442   -42935   -45316   -45613   -44137   -44172 
  -48137   -52800   -54085   -51405   -45035   -36020   -28302   -25511 
  -27310   -30642   -32440   -31919   -30928   -30284   -27183   -18387 
   -5371     4997     7402     5449     7479    16354    27427    33773 
   32233    25730    18198    10504     3090    -2906    -6767    -7841 
   -5713      443    11330    23997    33576    38560    40460    41647 
   43984    46148    44702    38598    29934    21854    16676    13557 
    9177     2636    -3459    -7283    -9379   -11350   -15646   -23406 
  -31580   -35313   -32333   -24109   -14556    -7155    -2764     -448 
     334    -1411    -6289   -12074   -15938   -17637   -17901   -16126 
  -11374    -4144     3092     6986     5689      601    -4626    -7683 
   -9244    -9900    -7738    -1141     7876    15778    21360    24549 
   24350    21359    18977    20524    26632    34022    37202    33106 
   22889     9738    -3308   -13924   -20628   -23190   -21304   -14303 
   -4430     3844     7951     8064     6352     4969     3795     1010 
   -4480   -10850   -14783   -15131   -13504   -11434    -7982    -1933 
    5134     9535     8217     2878     -959    -2108    -5277   -14137 
  -27682   -41532   -50585   -52287   -47600   -37744   -22858    -4937 
   12330    26722    36340    38338    34665    31966    30961    27733 
   21811    13119     2039    -7714   -14563   -20296   -24902   -26217 
  -23005   -15381    -4159     7937    17539    23962    26633    23177 
   13732      535   -14925   -30357   -42639   -49405   -49992   -45494 
  -37408   -27492   -16982    -5261     7127    16467    19452    15612 
    6848    -2295    -6084    -2982     1206    -1714   -15121   -34754 
  -51420   -59968   -63100   -63472   -60148   -52677   -42624   -32647 
  -23796   -14294    -3206     7435    14727    17188    14755     8289 
     719    -5164    -9869   -14140   -17057   -17571   -14805    -9418 
   -3208     2255     5033     5368     6385     9563    14192    20013 
   26629    32196    34926    34905    32393    26421    17218     6111 
   -6398   -18258   -25616   -27276   -25876   -24539   -23747   -21583 
  -16440    -9437    -3837     -357     3721     8884    12489    13614 
   14926    18998    23336    22941    16487     5978    -5190   -13859 
  -20914   -29397   -38604   -45365   -48585   -47665   -40463   -27297 
  -12491      212     9491    14885    17057    17639    16552    12246 
    6446     3691     4950     7370     8457     7347     5464     5324 
    6724     6379     2194    -3859    -8755   -12249   -15651   -19829 
  -25157   -31136   -36628   -40899   -43480   -44042   -44037   -45003 
  -43881   -37519   -28610   -20904   -16316   -14630   -12250    -7811 
   -4273    -2533     -547     1868     2446    -1164    -9572   -19902 
  -27840   -31809   -32322   -29246   -23334   -19211   -21529   -28329 
  -33092   -30610   -19724    -4991     7379    16062    22625    27269 
   29368    28315    24521    20043    16844    16610    20471    26279 
   30198    30023    24424    14690     6323     2964     2484     1191 
   -2346    -6921    -9435    -7684    -3040     1296     3848     5618 
    9429    18097    30588    43175    54302    62592    64432    57680 
   42766    22553     3056   -11805   -22733   -29421   -30194   -26142 
  -19652   -12820    -8197    -7082    -8959   -12302   -14902   -17577 
  -24054   -33498   -39943   -39103   -30760   -18106    -6032     2917 
    9500    13897    14421    11939    10850    13659    18380    20371 
   15803     5874    -3349    -6611    -4861    -4412   -10146   -21253 
  -32622   -38105   -35066   -26681   -18094   -11788    -7882    -5579 
   -2558     2483     7331     9912     9984     7606     4391     2383 
     976    -1695    -5538    -8160    -8334    -8721   -13569   -24210 
  -36226   -42745   -41867   -37212   -32325   -27886   -22337   -14623 
   -6668    -1023     2345     3891     2141    -3996   -12905   -20225 
  -21921   -19445   -18111   -18726   -15689    -5643     6037    11836 
   11556     9347     6846     3823    -1490   -11379   -23657   -33551 
  -38081   -34861   -23050    -5682    11212    21316    22736    18605 
   12775     8353     5603      579    -8605   -17394   -19605   -14271 
   -6332     -731     1907     3798     6700     9664    10860    11708 
   14595    18463    20885    20067    15565    10457     8424     9920 
   13757    18268    21920    25841    32643    41039    45368    41060 
   28183    10789    -6731   -22687   -36712   -47770   -54119   -54121 
  -48641   -41748   -37176   -34925   -31579   -24322   -14452    -6492 
   -4930   -10645   -18592   -21862   -19545   -16071   -14320   -13489 
   -9409     1636    15688    24434    25397    21761    16251     9750 
     673   -14568   -35349   -55223   -69270   -76404   -76750   -72949 
  -68113   -61230   -49152   -28950     -629    28607    51084    66140 
   74134    72888    61048    39534    13563    -9298   -24892   -32139 
  -31587   -25630   -15614    -2947     7126    11124    12470    13955 
   13696    10753     6914     6662    11112    11874     5001    -4573 
  -14396   -19020   -11269     5793    24645    38599    41382    34033 
   24398    17020    10680     4468    -2221   -13237   -28454   -42226 
  -54146   -66577   -78641   -89690   -97022   -94794   -80287   -55701 
  -24883     8844    42229    70160    85704    84912    68560    40288 
    8710   -15882   -29355   -32576   -27671   -19152   -14196   -18727 
  -32065   -46195   -53952   -56028   -55839   -53274   -46287   -35126 
  -25052   -21418   -23246   -25676   -22217    -8587     9288    22045 
   29172    35159    41504    44572    38319    22127     3089   -10793 
  -17494   -20843   -21984   -16676    -3774    13410    31880    47267 
   53878    49225    34093    11156   -13191   -30885   -39091   -40601 
  -37644   -29844   -17081      -81    19567    36333    45136    48776 
   50274    45681    32939    15351    -5932   -30521   -53650   -70733 
  -80742   -82902   -75542   -58118   -34507   -14015    -2732     2396 
    4848     5325     6845    11890    20485    31489    41404    46957 
   47076    42648    36963    30334    17654    -3316   -27328   -46805 
  -57767   -60641   -58116   -52226   -42336   -28152   -12246     2076 
   13231    23668    35486    44437    46472    42757    35151    25100 
   14157     2383    -8950   -15836   -18075   -18026   -13553    -4842 
    2871     7834     9576     6014    -1024    -7973   -14076   -16920 
  -12197     -331    13773    23216    23990    22805    25953    27444 
   22689    13398     -957   -16784   -27340   -34295   -40726   -43551 
  -41193   -37064   -34909   -33942   -29068   -17544    -1783    13772 
   23959    24972    17316     3285   -15790   -37812   -59145   -74424 
  -77125   -65794   -47635   -30707   -15580     2085    23654    45486 
   62798    72602    75332    74335    70670    61606    45975    25349 
     908   -26098   -52423   -72609   -80835   -75778   -62410   -45867 
  -27554    -9051     6516    17933    26186    31932    35967    38554 
   35431    21468    -3171   -35203   -68432   -93594  -104394   -97979 
  -73579   -37415    -1906    23286    36763    42864    45669    45757 
   41952    35227    28385    21847    13779     3799    -6117   -14108 
  -20146   -23917   -25631   -28276   -30870   -25450    -8119    12894 
   24585    23067    15951    11533    12068    14616    15353    16718 
   21824    24509    18819     5982   -10545   -23047   -23253   -13720 
   -4722    -2612    -5249    -4968     3081    15293    25002    29900 
   30289    24598    10571   -10341   -30282   -40006   -38176   -30042 
  -18912    -5992     5136    11142    12913    11229     4935    -4101 
  -11997   -16442   -16847   -14265    -9612    -3807      653     2555 
    1976    -1723    -7011   -11171   -13827   -15520   -16888   -18604 
  -21593   -26795   -31730   -31900   -24468    -9737     5947    16564 
   24585    32099    34630    30983    26485    24481    23862    20775 
    9305   -10054   -28402   -40245   -43713   -36509   -22482    -8413 
    3067    10014    11302     7217    -2838   -16072   -26176   -30737 
  -31298   -28004   -21517   -15556   -12210   -10752   -10223   -10012 
  -11633   -15719   -17926   -14860    -7185     4057    15029    19707 
   18621    17034    16266    15901    16044    14310    10077     5660 
    -148    -7732   -12018   -12051   -12268   -13607   -15983   -20343 
  -23631   -23281   -20206   -12121     3249    21115    34198    37356 
   29707    16702     3433   -10758   -25697   -36095   -38575   -35790 
  -31164   -27546   -26919   -27180   -26893   -27610   -27170   -21273 
  -10870      169     9902    16355    18441    19064    19704    17421 
   11086     3748     -368      753     4831     8308     9812     9384 
    7148     3444     -110     -753     3140    11469    22546    32101 
   36551    35456    29679    23300    22251    26451    28946    24069 
   13923     4987      746      738     2963     5330     7941    12170 
   15306    12843     5717    -3582   -14915   -26053   -34455   -39120 
  -36756   -25000    -7201    11479    29152    45420    57992    65499 
   69301    69392    64038    53556    40891    29998    22596    15834 
    7335      255    -1007     3361     9399    14032    16931    17937 
   15239     6395    -8096   -22453   -31371   -35173   -35743   -33793 
  -30410   -26962   -24518   -23655   -25047   -29474   -36122   -43098 
  -48092   -47854   -41745   -33589   -26468   -20324   -14521    -8000 
     513    10768    21308    29772    34415    36790    38065    34546 
   23227     8417    -2701    -8655   -13422   -19974   -27687   -32957 
  -32763   -29818   -29030   -30697   -31593   -28586   -21514   -13862 
   -7399      623    10623    16085    10303    -6511   -27924   -44665 
  -50378   -46592   -38203   -27009   -13174     2436    18377    32434 
   43892    53708    60678    63425    62132    54889    41196    25236 
   10991     1505    -1391    -1162    -3394    -7580    -7869    -2516 
    5658    15634    25974    35447    47243    61417    70984    70420 
   59331    40907    19756    -1479   -21593   -40102   -56563   -67073 
  -67508   -59112   -45130   -28824   -14781    -3379     9646    25524 
   42344    56460    63046    62595    58516    49049    31219     6086 
  -20637   -39121   -43252   -36055   -23061    -6121    13920    33309 
   47827    55299    53856    43082    26282     8889    -3817    -8974 
   -7603    -3053     1317     4580     8589    12613    10653     -226 
  -12219   -15828   -12113    -7768    -6730    -9166   -12968   -17959 
  -23829   -26627   -24669   -18839    -9812    -2105     1190     4034 
    7333     6324     -351   -10568   -22389   -34321   -45743   -54329 
  -56137   -51927   -46300   -41378   -36695   -30303   -20556    -9953 
   -1069     7340    14166    15215     9482     -828   -12869   -23553 
  -30903   -35323   -38090   -38939   -35980   -28283   -18528   -11490 
  -10260   -14667   -20325   -21349   -17138   -11781    -9259   -12716 
  -20739   -26147   -25307   -23349   -26145   -31020   -29998   -21294 
  -12824   -12573   -17511   -17996   -12201    -7682   -10839   -19930 
  -27603   -31212   -35790   -43261   -48645   -47302   -37713   -23533 
  -13172    -9760    -8380    -4341     2531     8865    12174    13998 
   15489    14302     7580    -5255   -20791   -34427   -45821   -56473 
  -64812   -66491   -58245   -42109   -22994    -4159    11440    21059 
   23340    15798    -1692   -21351   -35557   -44588   -50667   -53667 
  -52862   -46871   -36033   -24805   -15651    -5461     6773    16672 
   21853    24004    24921    26722    28983    26476    18105     9404 
    3133    -2419    -7792   -10883    -9769    -5005      906     4532 
    3125    -2030    -5299    -1814     7721    17986    23851    24394 
   22895    22620    24219    26818    28637    28632    27751    25373 
   18913     8144    -4811   -16598   -23586   -25625   -24915   -21335 
  -13290     -882    12526    21128    21988    18783    17354    19001 
   20369    18645    13607     6652     1501      470       95    -2605 
   -5958    -8567    -9241    -5367     2820    11586    17376    19017 
   18726    19828    23762    29905    35564    38064    37802    36715 
   34988    30831    23053    12581     1565    -7287   -11982   -12863 
  -10565    -3320    10630    28557    43953    52581    54799    51629 
   43032    29150    11125    -7393   -20999   -26459   -25212   -21637 
  -18586   -15021    -8472      155     6944    10079     9362     3444 
   -7392   -19497   -28722   -33652   -35708   -36160   -35711   -33683 
  -27631   -19947   -14860   -10457    -7418   -10429   -17105   -22246 
  -23743   -20504   -15994   -14275   -12263    -8498    -8952   -16379 
  -25435   -31024   -32441   -30969   -28436   -25753   -24239   -24564 
  -24818   -25284   -26153   -24426   -20090   -13827    -3976     6269 
