Origin Time       2011/03/11 14:46:00
Lat.              38.103
Long.             142.860
Depth. (km)       24
Mag.              9.0
Station Code      FKS026
Station Lat.      37.2664
Station Long.     139.5368
Station Height(m) 494
Record Time       2011/03/11 14:47:17
Sampling Freq(Hz) 100Hz
Duration Time(s)  300
Dir.              N-S
Scale Factor      3920(gal)/6182761
Max. Acc. (gal)   71.957
Last Correction   2011/03/11 14:47:02
Memo.             
[...]
   26041     2366   -21214   -33850   -35093   -24433    -4286    16119 
   31481    41948    47593    50320    52298    50949    41684    25230 
   10038     4980     9591    17608    28093    42399    54198    54718 
   43709    26641     8235    -6178   -10713    -1920    20125    49368 
   73607    84033    83104    77195    68583    59541    53859    51970 
   51251    48460    40746    27967    14114     6106     8277    17803 
   28941    37523    39639    32641    19305     7626     3841     6059 
    7474     4345    -1878    -7765   -11913   -14854   -14533    -8127 
    1786     8724     8244     2388    -1921    -1285     2841    10541 
   21506    30466    32610    27920    18323     7183     -599    -1197 
    6355    18646    29536    35206    36098    35354    34921    34054 
   32728    30318    23387    11660     -195    -8940   -13774   -13252 
   -7004     2356    11239    17316    21268    26140    32735    38417 
   42009    44794    45929    43663    40021    37584    35445    33065 
   32326    32591    30119    24182    17984    13817    11205     8824 
    6922     6830     7829     8277     9553    13434    17982    20767 
   22392    24450    26984    28411    27284    23913    18179     8318 
   -3229    -8077    -1844     9825    19367    25770    31800    38190 
   42913    42346    35162    25921    17640     5471   -14211   -36568 
  -52265   -53437   -40069   -19605      889    16349    24101    27162 
   29825    32480    35419    41461    51798    63243    69488    65577 
   53825    41217    30969    23294    20313    22706    25958    25466 
   22987    23992    28185    28933    24877    21610    19801    15211 
    8632     2699    -4160   -11782   -16427   -16594   -12036    -2382 
    9990    22911    36427    48196    53082    47133    29823     5685 
  -16862   -31798   -38713   -39331   -34638   -24571    -9815     5069 
   14853    20130    24494    28497    32071    36547    40413    40515 
   38556    39790    44801    48923    50600    51645    50994    48553 
   47669    47205    44322    43079    46411    48517    43093    30465 
   15254     1137   -10569   -18441   -21692   -21613   -19149   -15102 
  -11108    -7311    -3086     1431     7125    15617    26179    35590 
   42469    48856    54566    54273    44805    30380    16729     4709 
   -7804   -19294   -23639   -17881    -5430     8938    21800    31505 
   38643    43911    47104    48315    46997    42289    35066    25642 
   13753     4191     3648    10530    17108    19797    19018    14133 
    5705    -3118   -10316   -13332    -5763    15742    44154    68452 
   83915    90622    86480    69446    43431    17002    -1611    -9713 
  -11354    -9939    -3836     7698    20933    31691    37841    38502 
   33666    22676     4732   -16039   -30415   -31534   -19422     2568 
   30613    57617    75943    84147    83515    72675    52114    28391 
    9623    -2046   -10027   -13584    -7382     7519    24151    38035 
   46472    46605    38516    25997    14015     7229     9220    20218 
   36057    50719    59504    61006    57360    51235    43272    33814 
   23701    12932     2062    -7678   -15572   -19482   -17677   -13051 
   -9866    -8561    -7992    -8812    -9904    -7293     -382     7524 
   14310    18801    20094    21133    26611    36642    47601    54364 
   51834    40533    25242     9250    -3913   -10757   -11764    -8147 
    1627    16981    32720    43898    48596    47892    44755    39940 
   32122    22685    14442     8244     5968    10562    20406    30021 
   36150    39439    41107    40677    37353    30933    21710    11590 
    3237    -1742    -1991     2655     9228    15177    21515    29283 
   36835    42174    43922    39742    28693    13930     -521   -11461 
  -16150   -14484    -6886     6603    20954    29576    32139    30436 
   23740    14118     7489     5451     4680     5567    10854    18048 
   23453    28482    35899    44524    50374    51671    48981    41509 
   29872    18461    10310     6210     7534    13490    20761    28267 
   36079    42014    44383    42993    37537    29491    20628    10385 
     255    -3548     4387    21102    37269    48826    57074    59451 
   54068    45829    39663    36368    34738    32937    30673    30013 
   32640    36000    34335    26769    18619    13821    12729    12751 
    9333     1843    -6565   -14823   -21470   -22182   -15083    -2733 
   10312    18981    18908     7179   -13514   -31848   -38546   -35324 
  -26928   -14825      306    17393    33426    44348    49251    48879 
   44588    39891    36055    31836    30118    34521    42179    47404 
   45661    35096    19828     4594   -10160   -21514   -22853   -11918 
    6307    24236    38616    50716    58474    57594    50940    44968 
   39589    31920    25724    28290    39720    53092    63735    69658 
   66865    53135    33370    16312     5819     -993    -5847    -5854 
    1763    14909    26540    31953    33540    35462    38850    41619 
   41533    41130    43837    47951    52013    56662    59168    56985 
   51010    39704    20596    -2000   -19967   -28856   -29015   -23749 
  -16230    -7493     2081    13106    26546    38212    42358    41089 
   38465    33170    25884    22760    29363    44755    59991    68173 
   71698    70453    58189    37967    22498    18030    21354    27740 
   32898    32608    25683    14710     4103    -2345    -3391     1750 
   12841    24172    29191    28062    24602    19753    12187     3993 
    1098     6937    18787    28611    28181    18027     6576    -1411 
   -7349   -12933   -17952   -20369   -19424   -18192   -19145   -20543 
  -18543   -11230    -1200     8686    20089    32211    36707    27958 
   10459    -6684   -16411   -15919    -5302    12660    30089    38689 
   36645    25971    10832    -2309   -10202   -12074    -6234     4761 
   14395    21059    27463    32513    32167    26422    19325    12072 
    2225    -7975   -12154   -10164    -8062    -9235   -10860    -8813 
   -3320     4699    17065    31688    40540    37777    25716    11250 
   -2606   -15696   -24155   -24303   -18193   -10057    -1868     6186 
   12895    16763    19288    22497    25082    24029    17281     7360 
    1770     3912     9648    16542    27032    41560    56210    65569 
   66774    62740    56000    43373    25628    14055    18082    32037 
   42925    45160    38757    23179      972   -20708   -35354   -39257 
  -30353   -10174    12863    25637    21564     8843     -761    -7377 
  -16361   -23283   -19244    -4287    15974    37962    57459    70924 
   80915    90479    97912   102317   104037    99993    87145    66747 
   42882    20626     4744    -2683    -3614     -685     6025    15663 
   24299    29816    35658    45397    55127    57598    52913    47211 
   41602    31506    17231     5655     1465     4093    10850    19132 
   28683    41242    54574    60738    53801    35269    11691    -9529 
  -23578   -31122   -37241   -43087   -42345   -32012   -17693    -4354 
    7760    18724    27975    33543    30942    19048     3599    -7808 
  -10253    -3704     8190    23558    42536    63162    81815    94480 
   96739    85985    64041    36144     5925   -24599   -49647   -62200 
  -61834   -54101   -42359   -25048    -1319    24793    45500    54114 
   50769    42014    34217    30761    35056    48699    66283    80418 
   89622    94450    91309    75140    45410     8996   -22916   -43064 
  -50565   -45410   -28142    -4415    17621    34128    44870    48627 
   45038    37808    31457    26288    19919    13703    12206    16461 
   23608    31233    37751    40063    36182    30537    28251    26775 
   21253    10788    -2106   -13078   -22062   -32009   -37593   -32069 
  -20060    -8511      774     8618    18965    32455    42385    43920 
   37995    27989    19963    18293    18577    15972    14375    16852 
   19814    20715    21303    24375    30251    36471    39693    34441 
   15958    -9899   -27406   -26177    -9594    11809    29178    38873 
   40662    34134    22428    16459    24226    40968    57555    69315 
   75699    77199    70109    50524    25999    10301     6611     5630 
   -1180   -10944   -13088    -2548    14859    29163    33336    26143 
   12059    -3757   -19460   -33871   -45478   -51180   -43635   -22288 
    -120    13737    22478    29035    31303    28561    25526    29331 
   41533    56864    70685    83288    97751   114433   127419   129369 
  118679    97938    68720    33615      142   -23390   -33110   -28604 
  -12683     6790    20578    25578    25547    24000    20982    17059 
   15137    15825    15056     9482     1097    -4826    -5291    -1527 
    5253    15867    30203    45234    56822    63950    69229    74108 
   76852    75035    67315    53860    35726    16540     5692    11255 
   29853    50430    63932    68011    65289    56691    42036    27899 
   22926    25610    28368    28255    25648    20985    15724    11878 
   11343    13319    11982     3881    -6032   -14125   -23039   -30279 
  -27343   -13507     1848    10774    15515    24024    36717    46111 
   49095    46653    39207    32167    32326    37153    38955    35447 
   29912    23679    14441     3895    -1991    -2723    -1500     2956 
   11339    18702    20170    15885    11109    11262    16469    24719 
   35265    45006    47778    37713    11980   -24215   -57363   -76154 
  -77879   -65244   -45032   -25700   -11709    -4337    -4245    -8560 
   -9989    -2076    15307    35905    52827    64416    71637    72214 
   65084    53750    38545    18642     -279   -13497   -21838   -23554 
  -13612     8780    38372    66382    83764    86951    77907    59943 
   37888    17053     2951      253     6776    16046    23685    27487 
   28828    31646    36379    38200    34050    27676    21829    13352 
    -400   -18554   -35828   -42593   -33736   -12730    14832    42280 
   60821    65484    57941    43013    26294    11979      161   -10829 
  -19301   -20815   -14243    -2810    12813    35333    62608    86162 
   98253    96247    82036    59664    33505     8286   -11169   -21171 
  -19327    -6722     8818    19890    28281    35945    37043    28644 
   15876     4520    -1550      -96     8814    21375    29824    30808 
   29651    31723    37972    48701    63007    74945    75950    60801 
   33271     7708    -2770     1511    13884    32943    56814    73961 
   73586    59951    46345    41149    43619    46785    43498    31873 
   14492    -5119   -24284   -42318   -57708   -64759   -59449   -44223 
  -23499    -2651    13230    26495    41739    54579    59211    59879 
   63280    68112    70201    70531    71211    68368    56066    35284 
   13004    -5622   -19629   -30351   -37993   -39086   -33005   -25802 
  -19843    -9625     7567    27414    45644    60352    70528    77203 
   79550    72752    55538    33120    11338    -8112   -25115   -36008 
  -38384   -36616   -34455   -29316   -17907    -2454    11292    20624 
   24553    20768    14022    16267    30236    46129    56023    62211 
   71159    79950    75122    52512    25944     8755      -64    -8558 
  -19808   -29727   -33892   -31939   -25688   -16338    -4525     5140 
    6734     4856    10171    23079    36054    46332    56052    65270 
   70458    66043    46814    17320    -6103   -13390   -10313    -6096 
   -5779   -11394   -18879   -20294   -13079    -1928     6638    10114 
   11242    12683    13648    12143     7114     -160    -6335   -10013 
  -10717    -3777    13127    31535    40671    38098    25676     3957 
  -21448   -36399   -31333   -11317    13359    36814    52379    52515 
   41443    31060    23622    15866     9084     3859     -137     -655 
    2257     7430    16634    28960    39947    47568    50801    48463 
   42509    37169    35686    37526    39431    41584    48333    60467 
   72438    80177    85570    89686    87780    75102    54146    33736 
   22171    20988    24211    25513    25175    25291    23188    16701 
    8994     3577      912      693     3211     9273    19206    29533 
   33627    29278    21320    15193    12386    12043    14439    21402 
   32197    42812    50793    54950    52849    44733    35468    31179 
   34006    36984    31533    22085    20260    25826    29073    28537 
   30648    36273    39423    35052    23719    11386     2728    -3481 
   -8301    -9445    -6633    -4378    -7729   -14716   -18613   -18151 
  -14944    -6278     9434    28311    46228    61446    72172    75687 
   70603    59909    48426    36125    21201     8380     5566    14689 
   29291    40907    48376    55222    58495    51416    34810    15930 
    -634   -14249   -22879   -22165   -10980     5874    22479    37146 
   49681    55291    49028    34818    21145    10830     2372    -4321 
   -9569   -13105   -10830    -2724     4763    10766    17962    20679 
   11343    -6489   -21131   -26205   -24557   -18456    -6607     7810 
   20512    35097    55310    75475    86757    85551    74907    60633 
   44258    26201    14195    16208    29182    42351    47914    45033 
   35655    22328     9160     -298    -4930    -4363     3321    18440 
   34683    46348    57004    70481    81743    82716    70064    48459 
   28487    17059    12256    10243    11773    19724    33253    44952 
   44829    30428    10955    -3614   -12409   -17550   -18766   -18143 
  -18095   -13923     1122    25863    53932    82085   109514   130318 
  133341   114245    81255    45028     9946   -23410   -52712   -73350 
  -82276   -80570   -71369   -56435   -36833   -13455    13572    40294 
   58265    62929    56817    45460    34430    27050    23249    21677 
   21101    19744    16447    11568     5868     1914     2628     5374 
    4891     1271    -2127    -5240   -10587   -17521   -20841   -17206 
  -10170    -5517    -4388    -4933    -7435   -12711   -18458   -21209 
  -20234   -17586   -14250    -8405     2112    17249    33597    47156 
   57959    67403    72080    66454    50513    30272    10921    -8702 
  -31588   -54004   -69353   -76763   -78424   -73491   -58454   -33754 
   -7666    12431    26824    36239    38017    31759    20424     6210 
   -9310   -20696   -18950      227    30277    58821    78342    88236 
   87397    73539    49733    24278     6074    -1281    -4162   -10409 
  -18848   -24645   -26752   -26033   -23435   -19992   -14797    -6782 
    1668     7676    10710    12045    15288    23958    36665    46564 
   47549    40147    26749     7058   -15618   -32464   -35539   -20453 
   11988    50938    79586    90198    87437    75992    57367    37147 
   22336    12949     4848    -2508    -9300   -20373   -37913   -56625 
  -71168   -78874   -73496   -47455    -3488    44264    81577   101277 
  103079    92629    79171    70098    67287    68824    72771    77349 
   77731    69251    53992    38067    26040    19051    14658     9326 
    -242   -15164   -30616   -40229   -43040   -39038   -22950     9497 
   51619    87451   105058   105107    94483    78390    60366    41892 
   21903     1279   -14415   -19617   -13956    -1160    13608    24707 
   28545    24479    12363    -5316   -19820   -23062   -16160    -5654 
    3222     9208    16905    31290    50549    68785    81778    91263 
  101119   106905    99406    77543    50165    27107    13527    11351 
   17416    24816    31566    39036    44640    43967    37126    28944 
   21704    12130     -959   -12969   -20997   -27767   -34891   -37284 
  -29402   -13794     1823    12783    20750    28840    34590    34950 
   34878    39614    44621    44354    40944    39236    43592    54392 
   67066    80714    96039   106431   105017    93781    79045    66740 
   61239    61447    61672    57491    48031    35498    22901    11170 
    1718     -345     7978    22809    38486    49557    50139    41245 
   31021    22430    12014     -458   -10639   -13703    -7629     4051 
   14953    22601    29778    37536    41876    41278    39740    39620 
   39877    39949    38149    29982    14080    -1929    -5654     6234 
   21177    25188    17223     2803   -13880   -28082   -34460   -31298 
  -23617   -18757   -18290   -18521   -15913    -8590     4149    21631 
   40547    55346    62715    63844    60632    52457    38204    21378 
    9808     4828     -643    -6478    -4265     5894    15486    20391 
   21414    18945    13562     8174     7123    11232    16000    19597 
   25169    32405    36900    35949    29190    17397     3437    -6404 
   -7161    -3219    -2081    -1179     5408    12427     9524    -4593 
  -21865   -32299   -31116   -21441    -7914     7149    19476    23798 
   19550     9533    -3207   -13328   -14070    -1726    21525    45751 
   59909    62751    58336    46577    25876    -2422   -31948   -51793 
  -55310   -45277   -27608    -5996    18718    46075    70789    84991 
   85153    72000    50242    29595    17545    11410     5112     2558 
   12807    32356    45935    44819    33534    20106     7864    -3416 
  -12065   -12962    -4718     5094     9475    11610    16376    20490 
   19787    17012    15846    15515    14284    12511    10742     7360 
    2796     4487    18141    37920    56268    73918    89957    96669 
   91776    81389    69143    53135    33550    16128     4030    -7037 
  -19570   -29193   -32828   -33170   -32585   -27778   -15308     -481 
    8504    11650    12556    11275     6428    -2209   -11568   -17010 
  -17736   -14994    -7296     7043    24250    37303    43829    44654 
   37973    24330    10167      304    -4810    -4188     3764    17345 
   31278    39920    40144    32584    22340    17903    24224    35925 
   43913    46899    48476    48342    44439    39655    40700    50764 
   66038    79682    87879    89661    81946    61667    32967     6132 
  -11948   -21848   -24616   -18498    -3993    15213    34198    46491 
   47486    40180    32530    28117    23730    17358    13833    16872 
   21194    21209    18675    15999    12479     8540     6847     9009 
   11976     9416     -332   -11094   -16685   -16837   -14142    -9357 
     416    17685    38392    54609    62286    62847    58552    49970 
   38658    27455    18957    16242    19564    23631    24014    22764 
   24340    29358    34522    37324    39268    42629    45698    46334 
   47655    54248    64738    73029    75535    73448    70059    67439 
   65212    62630    59793    58562    61017    63183    57436    42427 
   22074     -545   -20661   -32095   -35222   -35590   -34257   -26752 
  -11085     7060    19861    26080    28164    23963    11204    -4123 
  -13530   -14848   -10491    -1979     9737    18564    17415    11052 
   10083    14206    17697    22012    29208    34435    33409    29489 
   30265    39610    52794    60748    59203    50014    36412    21901 
    9942     1041    -7199   -15448   -20430   -19522   -15907   -15482 
  -18317   -18787   -16106   -15751   -18260   -16526    -5730    10175 
   22779    27494    25389    18423     8043    -1718    -6149    -5175 
   -1669     3157     8679    12880    14392    14754    16588    19764 
   22186    23705    25428    26313    24603    22216    23266    27955 
   32437    34287    33363    28797    20845    15178    19147    32196 
   45905    54867    58843    55238    41740    23465     8005    -1627 
