Origin Time       2011/03/11 14:46:00
Lat.              38.103
Long.             142.860
Depth. (km)       24
Mag.              9.0
Station Code      FKS017
Station Lat.      37.2844
Station Long.     140.3689
Station Height(m) 259
Record Time       2011/03/11 14:47:02
Sampling Freq(Hz) 100Hz
Duration Time(s)  300
Dir.              U-D
Scale Factor      3920(gal)/6182761
Max. Acc. (gal)   298.094
Last Correction   2011/03/11 14:46:47
Memo.             
[...]
 -132610   -21005    40917    34273     4600    41981    66487    18857 
  -19620   -51687   -82029   -63240   -48202   -55291   -13764    39005 
   39028    36144    27101   -42942   -84437   -38346   -43357  -129510 
 -133539   -44474     3706   -13850   -66706  -114159   -68712    33664 
   29206   -85652  -104761    39145   105907    -8512   -64815    -5188 
   -1125    26674   137548    84182  -105828  -149436  -128840  -182776 
 -206109  -202991  -210250  -165654   -89345    -2407    80219    70375 
   31592    70355    89670    76574    89486    54871    13016    -5608 
 -117309  -230632  -192459   -90305   -10883    51580    55668     8737 
  -13366   -10895      481     2669   -83187  -198662  -181020   -48245 
   79785   134784    73723   -36097   -42048    45790    82498    39838 
  -13211   -72282  -139229  -159739  -156584  -163312  -112743   -56918 
  -82334   -50594    52284    51891    42109   116503   103877    11499 
  -44728  -113778  -162961  -124147   -78478   -75158   -96445  -135747 
 -139894   -63569    56926   140226   128292    67892    26767      363 
   12260    32925   -54504  -139609   -76668   -96641  -287245  -314922 
 -146679   -68306   -69402   -27733      435    13887    51025    39977 
  -18595    -2912   105631   190555   162215    60087    18900    68297 
   67234   -53561  -173579  -147260    -9706    39376   -41003   -67488 
   -5392     8367   -29938   -64969  -111982  -109400    -8329    53190 
  -34860  -201097  -317023  -283392  -150484   -71505   -26522    49296 
   66094     5443   -48193   -64175   -51668   -60893  -109968  -133933 
 -106862   -51005    -2379     7159    41732   155642   246510   224035 
  146600    92527    61277     3823   -83535  -106772   -36086    -7492 
  -87746  -130583   -51283    23673    75937   171688   163338    22494 
  -34477    13586    10937  -123481  -299325  -326639  -216094  -123293 
  -83736   -75203   -87594  -106327  -111809   -89668   -70058   -68395 
  -78608  -110382  -113187   -57934    -7845    43341   141180   195632 
   88716   -68905   -67883     8341   -24141  -102732  -168500  -208083 
 -107935    64496    82181   -53876  -109929    13332   114409    75644 
   10335   -64374  -147606  -188373  -238276  -250135  -160245   -66497 
   44570   125399    -6384  -126236    25202   133883   -32152  -180720 
 -122191   -46778   -53178   -28142    10163   -17649   -30746    34672 
  123966   124767   -42603  -172211   -41926   104108    28695  -114448 
 -170147  -111421    17238    75465     4468   -62805   -52940   -39528 
   17412    92354    21240   -72938   -66890  -118420  -184789  -100935 
   24418    39503    -1683    10372    72944   114498    73934   -19808 
  -50845   -34140   -72395  -155539  -237803  -250870  -164256  -112342 
 -162850  -186885  -105356    -7952    18892     9642   -22465   -67300 
  -24714    38267      347   -23824   -19293   -43774      451     8325 
 -123404  -146420     2604    60628   -34847   -89842   -19750    38245 
   28910    52130    37821   -85639  -156682  -141862  -135029   -96704 
  -28968   -33349  -118027  -152937   -47309    89079    86639   -45376 
 -117536   -51560    -5273   -30557   -13322    18725   -25604  -124198 
 -177289   -77672    69269    18528  -154220  -170793   -28245    84108 
   79395    15036    14512    89650   110810    75472    64496    20476 
  -20627    25877    24052   -47555   -70314   -70810   -17089    82918 
   44796  -101103  -154702   -95997   -28443    -6320   -14619   -72445 
 -146788   -79342    54083    33081   -50832   -80968  -121141  -129249 
  -78372   -35042    16867    58618    58343    60138    33473    -6068 
   29339    47865   -46569  -119191   -40015    48435   -34727  -155365 
 -169638  -167959  -148691   -76332   -48969   -57367   -36620   -26607 
  -29869   -28904   -56485  -107697  -160265  -184443  -145541  -103295 
 -130290  -161030  -106461   -40323   -57213   -55420    30600    56521 
   -7760   -31467   -39512   -95890   -96816   -58488  -119098  -139366 
   16573   117463    38620   -24632     8484    33154      968   -69849 
 -139275  -154813  -116824   -73690   -50480   -44599   -46710   -37269 
   -1463    71278   131973    56548  -117031  -170559   -76126   -12907 
  -14018    18316    49807      392   -24849   127585   297082   214331 
   65708   107046   116584   -25314   -76248   -23465   -45995  -114641 
 -139183  -137462  -151422  -171926  -159206  -135832   -95702    30109 
  147850   119633    14958   -50781   -30384    57009    84268   -14973 
 -155843  -206789  -105065    19436    23159   -34744   -61474   -50455 
  -54460  -126589  -176159  -102358   -21153   -57767  -107475   -30077 
   66030    14191   -84560   -67830    26308    63590    -4499   -52340 
    6077    52859    50860    58000     3529   -60453    -2953    24840 
  -70680  -139431  -139701  -106807   -79325  -114448  -116817   -13714 
   49904     1605   -36463    23295    89390    31475   -29253    75889 
  156182    54941   -28105   -46369  -121660  -130869   -39632   -58237 
 -176350  -214431  -164295  -147335  -178670  -131214   -58687  -132215 
 -243121  -211796   -84736    -6576   -20920   -19492     9820    -9571 
   10592    52536   -13874   -44670    57608   103141    14518   -76843 
  -74225   -32234   -43578  -111863  -179162  -136545    15454    74578 
  -34909  -120956   -54991     9168   -47346   -95976   -82774   -57264 
    7365    49220   -12144   -65854   -62258  -114315  -170512   -90511 
   34350    56314   -16240  -123609  -174906  -118006   -61082   -84044 
 -110951   -74022    -4789    32992    30424    29605    47973    51005 
   17124    -7930   -10754   -25481   -44596   -70975   -43749   101295 
  172148    39392   -90642  -101712  -110250  -135931  -106193   -52600 
  -16596    10941   -13079   -68106    -9841   139464   176412    55814 
  -70754   -63882    32159    51657   -21291   -88491  -143075  -175190 
  -83359    79475   117754    87915    77741   -23615   -87082    -4774 
  -33743  -158167  -126996   -51925   -96246  -123796   -28467    43806 
   18496    46189   122545   113845    73203    46969   -27542  -114517 
 -134600   -99828   -57680   -43939   -68588   -71782    -4128    78770 
   99512    54201     6552   -31261  -111678  -178215  -157309   -97415 
  -22719    30368   -28658  -108039   -24522   113479    59053   -73581 
  -47569     1230   -58709   -88999   -83415  -110745   -92909   -35822 
  -22445   -44989   -76402   -85341   -73279   -82400   -67150   -23070 
  -59302  -115924   -35646    63157   -23748  -168851  -146037   -45282 
  -48899  -112940  -128588   -64148    10475   -20320   -74434   -49665 
  -47566   -80364   -87060   -85247   -52484   -21411   -38046   -44517 
  -48087   -48147    -1205     7437   -51014   -75225   -65811   -52185 
   22067    96762    49102    -6316     2310   -87456  -166775   -75795 
  -75003  -204377  -184485   -77964   -27999    24621    47421    15203 
   13329    27290     5784    -6140     5312   -22328   -83513   -76346 
   26679    84694    27962    10254    72347    82835    64060    47499 
  -24487   -87774  -113889  -148988  -139111   -73173   -23117   -28716 
  -99094  -196307  -249014  -193685   -62209     5133   -10862      699 
   66175   103124    19772  -114974  -139930   -91292  -110809  -189029 
 -219316  -190857  -194639  -221891  -149981    -4232    61624    43742 
   17259   -15254     -194   111948   207348   198302   156901   110031 
   44894    10731   -29328  -110566  -158912  -160226  -134584  -127225 
 -186992  -171308   -16508    41942   -80437  -191607  -202570  -150090 
  -61136   -49797  -162813  -188393   -67279   -32936  -111406  -144032 
 -125759  -114962  -125197  -131157  -132316  -167667  -170529  -104060 
 -108062  -216561  -233628   -54927   100002    14365  -129811   -70792 
   87755   131605    81679    56681    59677    -1361  -125028  -185522 
 -186961  -208021  -154751   -17173    19474   -55911   -90508   -57000 
  -51786  -135089  -247512  -284917  -238386  -187136  -185523  -209930 
 -188203  -101976     -588   106182   227638   297316   216950    43411 
  -26126    13506    11684    10207    88338   116513    19756   -75372 
 -105910  -119118  -104009   -68327   -59397   -15141    87947   138509 
  149014   191683   209654   177205   120925    88326   131602   158076 
   88651   -18086  -122068  -194756  -219071  -181939   -54848    59255 
   62452    48977    62415    26925   -16916    34411   134943   159912 
   78470   -27899   -43875    13466     3128   -79504   -90919     3644 
   40717   -49494   -44371   122282   191243   144805   172489   189579 
  109148   110458   195459   115453   -63709   -53619    39151   -44831 
 -177732  -150500   -58846   -59093  -117830  -151181  -160022  -136806 
  -46029    48471    22954  -104837  -167172  -118110   -97417  -118228 
  -85356   -64146   -80844   -26304    41611    10158   -31526   -13400 
  -39960  -165336  -286755  -297303  -214794  -138389   -76455    21400 
  100503   125440   113924    27494   -54344    -5041    75831    74657 
   27086   -47314  -134137  -183178  -155050   -77765   -90593  -218158 
 -264995  -150173   -22296    -3382   -38758   -24352    11426    42022 
  118949   138130    26392   -56280   -84534  -120561   -55637    62328 
   25505   -94606   -93115   -26765   -56332  -153777  -178147   -62634 
   75377    72402    14941    34983    34717    -2365    28813    60780 
   19927   -25446   -81151  -221700  -340079  -278446  -134420   -41524 
   25142    26704   -76285  -145237   -74959    26398    53399    60786 
   45112   -36302   -74361   -43071   -49646   -89053  -120120  -133060 
 -143581  -210069  -232502   -91880    19797   -43599   -93116   -45641 
  -82375  -209564  -194335   -12462    92890    33689   -52582   -90126 
  -83313   -12540    74837    62681   -30674   -59760    -8512     2947 
  -33063   -16819    20756   -32763  -112278   -76292    -6353   -52956 
 -132793  -123256   -61980    12976    43256   -64061  -191187  -179377 
 -104777   -30205    38247   -11608  -151177  -192224  -141845  -138353 
 -177697  -178622  -124745   -50208   -12924   -39253   -59927   -44325 
  -59782   -78736   -37541   -12136   -77307  -148310   -84948    35844 
   11054   -99914  -151372  -157972  -111349   -45462   -37277   -13473 
   43149    37931    19972    57876    83223    86964   103308    79023 
   52509    90375    94551    51920    50708    29961   -22596     9798 
   84582   100739   109416    93379   -23362   -81874    47956   170637 
  147660   117680   153330   139748    61049    30262    45914    46302 
   18086   -42031   -49572     8817   -38789  -157307  -134722   -19408 
   31405    22621    -6211   -23228      867    -7932   -75493   -83682 
  -29902   -40052   -96030   -66696     5338   -34009  -109100   -59263 
   25011    -2059   -74397   -88489   -77779   -26326   123410   199231 
   41500  -174601  -241622  -164757   -31704    61637    48034   -22355 
  -27094    62016   150307   123780   -38327  -161121   -83827    18753 
  -56641  -190870  -260229  -273456  -206841  -138558  -178294  -229512 
 -205564  -149116   -67776    -4060    -2019    12661    57885    52489 
  -26357  -119864  -183714  -201536  -110068    35560    24810  -119874 
 -190354  -172634  -140226  -123980  -164474  -215477  -212857  -178460 
 -132731   -95623   -90399  -107532   -87797    27722   145935   155562 
   99790    -2744  -120038  -121411   -47840   -51997   -86229   -56850 
  -38897   -80526   -87950    -7708    82347    67167   -37350   -53504 
   90549   207887   145821    28767   -21681   -80906  -122211   -49898 
  -20675  -165862  -293218  -249631  -146806   -84314   -19327    95824 
  232565   309809   261521   107248      373    70912   168731   125764 
   66560    39308   -32453   -15317    92684    66549   -52985  -119533 
 -162865  -151779   -68435   -62677  -141619  -123558      670    49947 
  -17836   -72993   -92496  -101376   -10796   116006    96469   -14356 
  -89396   -90503   -21424   -25216  -105859   -72309    -8690   -41823 
  -23804    48963    11490   -85833  -102799   -64467   -51728   -56933 
  -32408   -11991   -84938  -170882  -117806   -21990    -7231   -29481 
  -69404   -79816   -27053    -7482    -5988    62960   106505    48669 
  -27070   -68510   -93544  -122156  -140435   -79041     9407   -41078 
 -175192  -226481  -202299  -103364    50593    89803    20982   -20549 
  -53975   -54404      833    -4421   -53763   -52239   -44948   -93701 
 -177093  -213637  -174374  -136327   -94493     1323    56688   -15833 
 -156136  -216069  -101217    55947    77986    28046    23628    15852 
  -24217    12841   115559   111845    33318    50931    81775     5240 
  -35084    14048   -21721  -152522  -198034  -115271   -27778    22069 
   85178   100038    -2953  -110432  -102991   -19327    54795    54226 
  -48489  -135716   -83714    -1548    -3379   -23823   -51557   -89948 
  -32632    67179    73916   104516   233322   264874   157594   116472 
  145058    70555   -18148     5981   -24686  -114093   -56428    31178 
  -38367  -125120  -108697   -89498  -129938  -186665  -214315  -161387 
  -42514    24564    20136    34629    37270   -45462  -125852  -134279 
 -133097  -120979  -102795  -143375  -158379  -136493  -216300  -246163 
  -93106     2944    10920    91313   124721    46367     8849    27571 
   39266    60390    46341   -20586   -52043   -74837  -126907  -144669 
 -153046  -164117  -138301  -145788  -191508  -148740   -33357    -3156 
  -91960  -189222  -218880  -212649  -262761  -353586  -348064  -316670 
 -429143  -506772  -379838  -227403   -72790   137341   161054    49895 
  145873   300567   254613   160600   107206    47882    79175   181533 
  166001    54683    37818    76514    41379    28817    46105   -25239 
  -61243   -11987   -73557  -229506  -285099  -204882   -85793    -4691 
   41475    40776   -48503  -130377   -80765    24148    63654    85086 
  146713   131545   -27801  -141625   -49161   138890   218763   115731 
  -36443   -49685    28520    31986    -4820    19273    50497    30591 
   13828    37609    81931    95077    -7874  -143343  -120980   -36299 
  -58238   -95354   -66473   -22627    16265    73977   154581   175558 
   60038   -89074  -122227   -74926   -59636   -55097   -13666     3497 
  -35960   -76782   -83079   -79856  -109666  -140507   -92913     -680 
   27358    -8046   -46466   -93758  -133940   -89942    31345   109018 
   95658   106830   167452   106976   -62247  -135090  -119909   -99619 
  -66728  -103989  -192455  -189979  -175064  -231578  -224475  -118584 
  -29875    -3701   -11664    -4093    21737   -22781  -121462  -115440 
  -55824  -116847  -179907  -145633  -193240  -298465  -246285   -89437 
    6982    37460    26895   -24930   -54874    -1518    92114   127621 
   70555    20940    75174   112960    17844   -59099    -4801    53912 
   20321   -23922     9724    37228   -34853   -81217     3734    73553 
   15857   -24959    17992   -46419  -198226  -186111   -59991    21377 
   78905    64393    -5673    35390   126561   128036   126263   133900 
   50811   -42235   -57152   -31459    -1710   -42651  -161587  -226360 
 -191527  -104912      547    72495    95771    82628    13153   -57362 
  -64295   -50187   -32632   -45234  -159140  -238538  -126634   -15732 
 -102568  -182015   -84384   -12140   -56376   -66334   -54372   -69684 
  -38248    -2478   -23695   -51144   -93709  -154837  -127672    24688 
  162315   136897    11829   -19219    70248   118848    52346   -41848 
  -91246   -57620    50401   104002    45484   -45224   -98062   -53651 
   47873    63052   -11376   -47196    -4764    28861    10548   -10163 
  -63113  -189984  -261778  -173665   -48576   -41182  -106202  -125750 
 -119900  -144314  -172919  -186371  -168244  -113081  -111342  -194724 
 -248524  -218156  -146502   -84166   -69946   -40936    64363   109770 
    4639   -59776    44621   118391    33070   -45554   -48950   -67286 
  -96970  -125103  -160388  -146209   -75212   -14305    13951    22593 
   18869      426   -22012    20156   118879   160207   119606    26520 
  -53202     -304   123342   135139    44806    29074   146228   235199 
  211312   174107   144924    79476    -7209   -68796   -14758   151262 
  203320    21149  -135958   -66575    12205   -55156  -108736   -90055 
  -80463   -74212   -31681    19251   -26547  -137828  -133402   -69687 
  -94922  -103211   -54432   -88918  -164055  -140624   -71602   -67646 
 -117471  -127452   -84050  -136087  -254514  -181680   -19427   -37813 
  -79247   -36240  -105950  -213831  -168605   -87189   -91710  -147250 
 -228444  -263340  -187358  -113059  -143193  -164579   -79453   -26680 
  -95578  -130483   -56994    27272    78342    87057    68656    75964 
   48530   -27183    30457   184106   166042     6728   -86173   -99532 
  -83466   -70375   -82247   -23944   116290   130340   -38306  -177746 
 -148404    -8497    67728   -35656  -163669  -134866   -54072   -15593 
   63495   151851   157019   121234    82832    23106   -49554  -110012 
 -118750   -64684   -34741   -92963  -140908   -97273   -77694  -136389 
 -135899   -76772   -73244   -48851    68726   158113   147992    89392 
   33166    21337    54412    67598     6314   -50393    -6725    10754 
  -39151    17147   108570    89221    53406    38328    10169    -1632 
  -13434   -24526    -4047    14004    11038    15373    21396    -5560 
  -52227   -58146   -22993   -31479  -106768  -128001   -32430    23536 
  -49356   -86093   -22512   -14147   -75351   -50418    59448   100660 
   39055   -31086   -55270   -32539    13537     7332   -78390  -136466 
  -98467   -36875   -15729   -30049   -80846  -152189  -147511   -11550 
  117401   103124    39742     9133   -70166  -153979  -134814  -115279 
 -150331  -108668     6872    21956  -104984  -178495  -109707   -62492 
  -77996   -86855  -123502  -154343  -130005   -96626   -45630     7775 
  -40508  -156732  -160113   -51536   -13181   -25098    -1709   -55614 
 -158145  -123118    12098    47989   -64306  -116979     2295    46994 
  -94870  -141581     7907    99550    22840   -67027   -61080   -41172 
  -66145   -22088    53792   -21765  -129776   -90306   -21060   -30614 
  -86175  -145384  -134477   -49360    -8490   -30355     -834    70507 
   48440   -37051   -49448   -29254   -53309   -63328   -19982    15613 
  -16837   -47832   -12564   -10237   -49393   -20552    23844    14905 
   16337    22309   -18826   -67478   -87760   -78351   -52029   -54462 
  -42669    66421   152083    78089    -8771    18603    19278   -19862 
   84346   204820   115529     8374    51991    61478   -20544   -31195 
   18091   -10694   -74130   -59501    -1884    30889    39466    25385 
  -18550   -50481   -29856    -7904   -40659  -102906  -138946  -138566 
 -152801  -158207   -95299   -73539  -134930   -99021    34442    84896 
   42870   -15770   -55370   -37015    14273   -13926  -140898  -201819 
 -167816  -203709  -234485  -114558    24194    55650   -26180  -127484 
  -87817    -2228   -30189   -83204  -121305  -164425  -139687  -106968 
 -155445  -191181  -182766  -176037  -124445   -49000   -29071   -57023 
  -83091   -33593    41385   -32694  -172705  -136372    28452    98758 
   46698    27245    73663    43272   -56889   -55751    26029    50900 
   32839     7617   -50234  -110272  -123989   -89382   -37326   -11260 
    9715    44360    10108   -58386   -13855    75326    82574   107502 
