Origin Time       2011/03/11 14:46:00
Lat.              38.103
Long.             142.860
Depth. (km)       24
Mag.              9.0
Station Code      FKS023
Station Lat.      37.4775
Station Long.     139.9309
Station Height(m) 219
Record Time       2011/03/11 14:47:14
Sampling Freq(Hz) 100Hz
Duration Time(s)  300
Dir.              E-W
Scale Factor      3920(gal)/6182761
Max. Acc. (gal)   420.952
Last Correction   2011/03/11 14:46:59
Memo.             
[...]
 -242639  -225486  -203827  -181198  -157988  -133111  -108178   -85342 
  -64426   -43994   -24647    -8410     4389    15171    23953    26935 
   20650     7740    -8211   -26738   -44513   -58439   -70342   -81041 
  -90236   -99821  -108940  -112649  -108826   -98747   -83664   -64540 
  -42967   -22959    -7399     4360    13824    24811    41919    65094 
   89883   112394   131459   147033   160352   170711   175486   178626 
  184532   190826   197431   204337   207514   206441   201555   190798 
  173875   152296   128426   104233    79415    54481    31101     8027 
  -16777   -43407   -72073  -101870  -130938  -159093  -185537  -209036 
 -228841  -242210  -245315  -235797  -215890  -191173  -164886  -138737 
 -114129   -90294   -66227   -41630   -14968    14909    46935    80377 
  113711   141828   161402   173355   177768   174934   166926   153605 
  134629   111588    84233    52528    19121   -15718   -53561   -91980 
 -128646  -166428  -205205  -239188  -265422  -281442  -284225  -276840 
 -262722  -242972  -221157  -197990  -171887  -143780  -111003   -70727 
  -27586    13589    50706    81888   108312   131834   152239   170264 
  186897   200490   208552   210284   205230   192573   172211   144273 
  110060    74673    44285    20474     2106   -11838   -24391   -38614 
  -56177   -77893  -100276  -117548  -126596  -127147  -121630  -112465 
 -100188   -86010   -69878   -50155   -28545    -8541     8070    20949 
   30448    35828    36261    33046    27019    18169     9005     2039 
   -2620    -3754     -461     4354     6376     2289    -7829   -19679 
  -29574   -36778   -40833   -41557   -40785   -40309   -40652   -41946 
  -43492   -43280   -38198   -28034   -14636     2586    21467    38146 
   52795    65489    75526    83695    91487   100446   109237   112841 
  109764   103979    95355    81696    67081    54732    42935    30895 
   18788     5276   -10443   -26674   -41955   -55692   -65750   -69827 
  -67588   -60649   -51624   -43530   -38361   -35439   -34044   -35106 
  -38492   -42572   -46707   -51413   -56261   -60432   -63944   -66364 
  -67082   -67193   -67872   -67946   -66617   -64575   -60983   -53956 
  -43063   -29852   -16285    -5256      124      458    -2839    -9019 
  -15208   -18985   -18888   -15095   -10892    -8613    -9058   -12656 
  -19729   -31664   -47915   -66066   -84174   -99782  -111627  -119557 
 -122385  -118467  -107876   -94483   -80506   -62295   -37807    -9217 
   21914    53407    80933   101819   114997   119066   115020   104863 
   87949    63356    31208    -7280   -47527   -83239  -111407  -133025 
 -147920  -153129  -148793  -138116  -123017  -105791   -89700   -76996 
  -66360   -52252   -30447    -1170    32753    67116    97884   122487 
  139551   147385   144799   133444   113186    82251    45423     8478 
  -27925   -61901   -90185  -109900  -118710  -118902  -114636  -108717 
 -104059   -99788   -92128   -79748   -62485   -41047   -16218    11776 
   40181    66825    91323   111260   125453   134478   137829   136244 
  130418   119900   105643    87697    65119    39773    14170    -9529 
  -27531   -37984   -43588   -48477   -53221   -55318   -55032   -53380 
  -48501   -40417   -32030   -25299   -21079   -18239   -13828    -6583 
    4236    18498    33851    50981    69869    85079    94722   101982 
  109136   117022   125495   133913   140889   144903   145393   141945 
  136659   133523   133554   135657   138585   139683   134787   121680 
  101559    76788    50629    26356     6459    -7059   -13899   -15388 
  -14004   -12732   -13408   -15960   -18058   -15475    -6129     6668 
   20163    34907    48567    59134    68061    74687    79325    84489 
   88846    89909    87031    78733    64491    46441    25823     3133 
  -20331   -44161   -67571   -88929  -108252  -126533  -144457  -163799 
 -185884  -208330  -228989  -247898  -262025  -267583  -264284  -252689 
 -234980  -214748  -192682  -168570  -143550  -118177   -91757   -62632 
  -30790     1242    31650    59220    81887    98485   109779   116862 
  118876   114691   105335    90949    71017    48282    27030     9837 
   -3861   -16188   -26941   -34917   -40731   -45475   -50496   -56959 
  -63946   -69652   -72851   -72849   -69224   -62038   -52894   -43639 
  -35509   -30679   -30228   -32850   -37341   -42203   -45986   -49226 
  -53079   -57932   -63794   -70924   -78625   -84871   -88859   -91090 
  -91557   -90252   -88220   -87163   -89383   -96824  -109090  -123823 
 -137574  -147267  -152133  -152960  -150445  -145436  -139735  -134676 
 -130128  -125730  -121249  -115963  -107736   -93534   -72327   -44478 
   -9610    29004    63195    88819   108102   123626   139165   158927 
  182347   207026   231214   252822   269484   277696   275724   263429 
  238701   201899   159947   120422    84221    49063    13989   -23490 
  -64351  -106464  -149081  -190208  -226561  -257393  -280643  -292012 
 -290800  -276879  -246054  -198339  -140453   -79449   -20249    36017 
   87006   128044   159828   186135   211126   238193   265021   288073 
  304958   309953   298619   272154   233079   182968   125142    63556 
     142   -59879  -108978  -145722  -170745  -184648  -191524  -192447 
 -187125  -178886  -169756  -161493  -153909  -144961  -136431  -127327 
 -114663   -99692   -80835   -54817   -25035     2593    23332    30294 
   20801     1580   -22466   -50938   -80406  -107872  -131655  -149251 
 -160892  -167776  -170810  -172253  -173194  -172533  -169473  -166967 
 -167890  -167405  -160908  -149282  -130754  -105149   -76614   -46303 
  -15066    13947    39225    61587    81071    96450   108183   116444 
  120091   119795   117751   116669   116697   114718   109918   104072 
   98441    92839    84330    69978    50660    29435    10464    -2845 
  -10090    -9327      877    14315    24572    31240    32787    25693 
    9510   -13565   -39180   -61823   -77754   -85326   -84957   -79016 
  -70677   -62750   -55081   -44700   -29793   -11112     8012    22935 
   31069    32180    27585    21622    21128    29400    43810    61885 
   82837   104536   124063   137366   139276   128834   110870    89220 
   65637    44850    31364    23885    18471    12250     2477   -13211 
  -35192   -60650   -84883  -102875  -108539   -97949   -73318   -41782 
  -10197    18568    41581    54925    58760    55503    46526    33597 
   20269    11033     6863     3997     -431    -5875   -12603   -23752 
  -40660   -62101   -88321  -117939  -145691  -167986  -183183  -189200 
 -186704  -177810  -162987  -143447  -120335   -92377   -58052   -19153 
   19306    52876    78450    96211   111169   126783   145397   170009 
  196880   219889   238581   254247   267762   279035   285880   286905 
  282525   273362   257725   232726   199191   161175   124751    94096 
   66810    36919    -6335   -70835  -146611  -218410  -283295  -341578 
 -388759  -426038  -460341  -490884  -512289  -524945  -532068  -533294 
 -526463  -510640  -484329  -451300  -417288  -374872  -322150  -272623 
 -225370  -174100  -123154   -67293    -2477    64457   134274   206800 
  275814   342389   404977   455802   497218   532055   550977   550198 
  536327   512195   477900   436208   389776   339506   285181   225732 
  160999    94021    28240   -34445   -91118  -137392  -167648  -179484 
 -177908  -169714  -161396  -157454  -151586  -137941  -125985  -119310 
 -108597   -96009   -86315   -72059   -52099   -32284    -8995    22281 
   56497    87895   114349   135428   153682   170409   181377   181772 
  170251   146126   111476    73584    37891     6452   -18879   -37768 
  -50783   -59175   -66133   -73942   -82870   -93677  -104738  -112364 
 -117999  -124255  -129709  -134676  -142082  -151612  -159661  -165915 
 -170016  -167719  -162210  -159751  -160607  -168379  -184075  -203461 
 -228014  -253826  -273721  -290149  -299482  -291324  -264295  -225017 
 -185823  -155247  -128097   -99910   -76437   -61872   -55466   -53927 
  -51236   -44945   -31829    -8364    19027    46490    73047    92216 
  107339   125006   142956   164865   196091   230498   262863   293425 
  318616   337600   356018   374329   388215   401511   420311   436890 
  443159   438030   410746   358245   297622   239540   180047   110228 
   26260   -67674  -169223  -272568  -364463  -440658  -504886  -553850 
 -586629  -614642  -641593  -658497  -665460  -667191  -659160  -639529 
 -613576  -581219  -536863  -478610  -408486  -327607  -239639  -152460 
  -65428    26313   117544   205667   287599   354822   414623   473621 
  523832   564280   597304   618937   623759   610705   583063   540409 
  483243   413263   327947   230117   124336    10231  -104905  -207868 
 -298493  -379618  -439673  -475997  -505075  -534980  -556574  -569460 
 -587367  -597360  -577822  -548013  -518778  -474686  -429577  -395013 
 -348195  -283686  -213460  -131926   -40680    48746   140017   225940 
  293544   351237   401518   446242   494619   537330   566775   590299 
  608523   602319   550379   466042   373342   280768   208014   162024 
  126369   106987    98305    63880     5568   -57332  -133274  -210003 
 -258850  -278088  -275507  -264271  -260470  -251839  -226658  -200363 
 -171782  -132038   -90484   -48773   -10837    15901    39670    60972 
   73672    81444    85509    85030    84308    87333    91793    92243 
   89442    88910    93338   106863   133266   159483   169816   170637 
  173744   180730   183696   178265   176132   178166   176429   175540 
  171498   159490   143453   114932    67962    10570   -53101  -121398 
 -185017  -236346  -277520  -308324  -327649  -345000  -365778  -384835 
 -401089  -417295  -432294  -443517  -450154  -451491  -446351  -430864 
 -400409  -354580  -297835  -242852  -196174  -150439  -106341   -64716 
  -17516    29878    69414   109427   155576   200364   238074   270066 
  301799   339157   379135   416725   448036   464748   469436   464586 
  438048   388425   324779   254465   191110   139913    87995    30541 
  -23624   -74389  -127105  -180394  -231374  -277048  -316484  -351401 
 -381353  -404482  -417486  -420977  -414853  -388509  -336991  -269342 
 -195281  -116723   -35317    42388   116698   186322   244127   293059 
  334637   367201   395959   421875   443367   460653   471035   471481 
  459636   435146   400712   357797   305827   247497   187605   127435 
   68831    12110   -45795  -103477  -160501  -217574  -270161  -315343 
 -351995  -379888  -405228  -431221  -451078  -462936  -469821  -467709 
 -453955  -427941  -388325  -341232  -293794  -248938  -208255  -168910 
 -124627   -74206   -23136    27035    77608   124986   167118   204918 
  238710   269945   298523   324370   348489   366743   374534   370158 
  350906   317934   277852   234559   186394   133055    78494    28694 
  -11462   -48456   -92481  -136572  -172504  -208681  -248442  -283378 
 -312433  -339879  -359018  -357018  -336035  -305862  -268162  -231154 
 -200536  -165583  -126563   -93432   -67164   -49072   -37112   -23790 
  -10236      455    11815    23751    32533    38457    40327    34465 
   21972     6689    -8977   -24858   -42622   -60605   -76731   -93527 
 -108588  -114928  -112078  -104268   -94844   -86035   -80355   -78567 
  -78000   -76052   -70135   -57644   -39562   -16612    11608    41242 
   69455    95925   117956   134741   146778   154007   159712   165277 
  169170   173274   177412   178478   177149   174360   169970   164459 
  154052   134190   109014    84965    62982    44842    32135    21658 
   11030     -693   -14672   -29740   -43838   -54836   -59973   -57510 
  -47371   -30606   -10503     7132    19781    28272    31671    31149 
   29516    27945    28381    29797    28221    22869    13544    -1200 
  -20370   -41991   -64767   -87686  -111932  -138547  -166071  -192005 
 -212980  -226630  -231983  -228668  -218124  -202522  -184535  -167493 
 -154522  -146981  -142365  -138344  -133523  -123670  -107263   -86756 
  -62756   -35437    -6666    20866    45971    70403    95422   121974 
  152461   183461   208154   229145   248781   261131   266535   269562 
  270448   271052   271756   268897   261718   249218   227622   195916 
  156175   113460    74646    41145     8680   -24835   -58768   -94322 
 -130651  -163288  -191233  -214811  -231887  -242127  -245849  -240819 
 -223794  -194042  -153976  -105236   -51296     1344    52246   103346 
  150168   189677   223286   250569   270235   280932   280331   269103 
  252489   235076   216207   191677   160294   124286    82972    36484 
  -12282   -63431  -116073  -167911  -218268  -264969  -307025  -345104 
 -377070  -399639  -412139  -416534  -414522  -405637  -389070  -365971 
 -335266  -295627  -254851  -217977  -180901  -145645  -115432   -88054 
  -61660   -32206     4730    47577    91466   136260   180295   216381 
  242655   254942   250872   241681   231910   221703   215119   206703 
  193213   178071   160643   140899   117042    84471    45901    11354 
  -12445   -29182   -45339   -58530   -64882   -67773   -68842   -68746 
  -72900   -81952   -91581  -100567  -108345  -114654  -120166  -119877 
 -108419   -90612   -70458   -43459    -9176    26933    60767    90391 
  117969   146038   173993   203058   233912   265502   297900   328954 
  356400   379851   395538   396822   380799   350472   310052   262286 
  209815   156127   103646    49080   -11796   -77876  -148338  -223628 
 -302170  -381420  -458008  -527502  -583886  -623407  -649465  -666563 
 -674175  -672112  -662584  -644864  -619231  -590255  -558779  -522980 
 -481733  -430845  -370926  -308588  -244971  -180979  -119230   -56964 
    4894    61985   116856   167411   205208   232683   252754   261230 
  265232   271672   273402   271238   272750   277672   286576   297054 
  305869   321438   344513   362392   367093   356602   335729   308814 
  274026   238638   210016   184760   165536   154600   145556   138934 
  135637   129830   121214   109553    89779    61854    31255     6063 
   -8607   -16478   -20682   -19952   -17814   -19896   -27874   -42759 
  -64935   -91366  -117130  -138290  -154562  -169254  -184726  -200782 
 -218142  -237927  -257682  -274701  -290934  -306203  -316362  -323431 
 -330647  -335189  -338906  -347635  -357762  -362414  -363791  -362172 
 -351529  -334348  -312785  -280152  -236431  -188373  -140239   -90526 
  -37876    10740    51746    89008   123977   157948   195072   238783 
  288614   340409   391834   444245   491120   521378   538962   545978 
  530652   495762   449122   389738   329027   270834   203840   135619 
   77771    27399   -14964   -49454   -82392  -113226  -138603  -160391 
 -177001  -183420  -180949  -171363  -155909  -143178  -135811  -125901 
 -112436   -99083   -83473   -63988   -44201   -25791    -7153    10710 
   27043    43362    56276    61090    58718    49588    31212     8480 
   -8695   -20884   -32155   -39756   -45433   -53712   -59076   -52731 
  -35472   -16481    -2576     3964      683    -9580   -19812   -28345 
  -35254   -39479   -43025   -47874   -50401   -49133   -46396   -37694 
  -23357    -9343     8518    29200    46959    67682    91799   113129 
  132767   150872   167939   185213   198823   208342   214771   218897 
  225547   232553   234300   230418   216566   188785   150398   104914 
   56728     8533   -45201  -105288  -160396  -203958  -241512  -274497 
 -293700  -297970  -298820  -297225  -286115  -275635  -272583  -263851 
 -251952  -241606  -220340  -195009  -172524  -145172  -120861  -102651 
  -83947   -66174   -47983   -26334     -187    27430    50090    68782 
   84754    93892    96495    96118    95280    96595   102726   114800 
  127301   134360   139710   144852   144465   139404   130921   115325 
   96379    78911    59369    34123     4981   -23502   -53539   -83693 
 -101301  -107506  -111534  -111427  -109845  -112922  -115877  -118105 
 -124064  -130154  -137611  -148937  -160224  -172178  -182973  -189174 
 -190659  -184324  -169411  -147017  -118200   -86797   -58903   -39470 
  -23628    -4410    16650    40289    69206    96774   120435   146386 
  170001   187112   202331   209960   206821   200740   191603   177154 
  162974   150783   138326   128539   120237   106402    84692    52949 
    9981   -37284   -83756  -128937  -167331  -198205  -225939  -245586 
 -255085  -258821  -255803  -246306  -231384  -210007  -185752  -160950 
 -135491  -112153   -89847   -65697   -40176   -10393    26103    67305 
  112798   157850   194738   226245   253677   268047   269685   264167 
  245888   212928   172398   127552    81069    36607    -3936   -36133 
  -58998   -78719   -99066  -120970  -144634  -166802  -185808  -201407 
 -212283  -219553  -224957  -230223  -233960  -230625  -219515  -202427 
 -178237  -149623  -122111   -93138   -58979   -24193    11546    51843 
   91772   129759   169499   206110   233438   254021   268695   276568 
  282714   286646   282676   274600   265392   249907   226633   194403 
  153235   110524    68031    22275   -25141   -71299  -114154  -152533 
 -187552  -220269  -249476  -275104  -297363  -313458  -322551  -324780 
 -319078  -307954  -294844  -278499  -255433  -225436  -191134  -153795 
 -112751   -68291   -22024    25210    73034   120840   166538   208515 
  247574   281604   309374   331845   342637   340898   335872   325821 
  306439   281988   252348   218375   185499   152303   116953    82727 
   48771    12304   -24515   -59726   -93202  -123057  -148235  -170052 
 -189623  -206603  -220363  -232450  -244735  -256195  -266083  -274362 
 -278520  -277217  -271186  -259559  -242688  -222360  -198997  -174075 
 -148753  -123063   -98592   -75183   -52966   -35968   -23681   -13404 
   -8991   -10814   -14583   -21298   -30777   -40136   -50180   -60433 
  -67114   -69101   -67791   -62605   -53597   -42706   -29055   -12774 
    4214    24197    47507    71075    96413   122433   142086   157235 
  173221   182817   182445   178090   167171   149813   133626   116754 
   98876    84857    71087    55340    40858    24884     4620   -15986 
  -35778   -55716   -75014   -95990  -117927  -138077  -158355  -177165 
 -191449  -203699  -214687  -222102  -226909  -230485  -231105  -227736 
 -219888  -204633  -180236  -148695  -112644   -76009   -42055    -8870 
   25441    60346    95141   127472   156446   183152   205098   219883 
  230554   238495   237753   226346   212582   198489   180468   163119 
  145674   124461   106861    93863    81603    75499    74997    71708 
   64692    56391    45285    30430    14769      233   -14978   -30013 
  -41887   -50480   -54878   -52925   -46807   -41614   -36635   -27801 
  -17064   -11008   -17473   -34370   -46713   -53839   -66559   -80758 
  -95182  -117958  -142156  -153248  -144366  -117618   -84160   -58430 
  -49349   -49472   -50520   -56991   -62800   -63558   -69301   -76375 
  -80313   -86036   -87365   -81131   -73897   -65924   -55748   -46559 
  -41755   -41444   -43065   -45642   -48073   -49022   -55551   -70277 
  -80965   -85383   -85373   -68159   -36251    -6868    20826    50297 
   76494   103019   133051   164929   201755   238117   263816   283897 
  303140   316959   328990   342037   351417   359771   366669   363594 
  349299   324182   284515   232036   173699   116761    68474    28755 
   -8650   -42283   -71419  -102661  -134474  -161631  -184288  -200156 
