Origin Time       2011/03/11 14:46:00
Lat.              38.103
Long.             142.860
Depth. (km)       24
Mag.              9.0
Station Code      FKS012
Station Lat.      36.9066
Station Long.     140.7928
Station Height(m) 3
Record Time       2011/03/11 14:47:03
Sampling Freq(Hz) 100Hz
Duration Time(s)  300
Dir.              E-W
Scale Factor      3920(gal)/6182761
Max. Acc. (gal)   250.245
Last Correction   2011/03/11 14:46:48
Memo.             
[...]
 -194386  -183721  -175743  -162710  -115409   -22691    75680   133786 
  149347   141609   120294   101188   103802   114888   110046    97860 
   93442    88211    71062    43456    10413   -24608   -59090   -91502 
 -121594  -146934  -161803  -167998  -172573  -166828  -132386   -69699 
      34    56391    92613   110745   115584   118603   130241   146389 
  160300   173815   191137   213074   227846   222928   208984   194346 
  155921    78356    -6691   -56349   -71995   -83294   -93076   -93794 
  -98596   -99892   -73136   -32684    -3156    27382    70034   107750 
  129862   138701   125663    88283    53451    41497    32953     7449 
  -21037   -32627   -32669   -38926   -54992   -73662   -91944  -106172 
 -113676  -124062  -141247  -146533  -129344  -107066   -95973   -90189 
  -78475   -60569   -38541   -19251   -12041    -3588    21643    46412 
   50673    46736    51870    53426    31725    -5763   -38069   -53677 
  -50616   -35521   -18694     -167    26762    55131    68581    69787 
   76011    86397    88700    89144   102264   125617   144064   147548 
  136656   119748   107566   101847    92052    68181    35388    10899 
   -1741   -19332   -50452   -87295  -121721  -145949  -153059  -145249 
 -133428  -125175  -114607   -91337   -51317     -724    45911    80430 
  102489   110030   104574    94211    95268   122264   154559   156488 
  133672   112832    97906    88142    92867   109423   123680   128932 
  128735   130332   130982   117806    94210    77901    67558    53663 
   41753    35956    30914    19680     5956     3173     5897     2573 
    3723    12508    12412     -541    -7855     3900    22479    38821 
   63907    93997   105939    94046    73668    53993    36497    26106 
   23388    15764    -8068   -39658   -63917   -74260   -73604   -72519 
  -71890   -62714   -39390    -2385    28738    30354    12520    -5677 
  -29769   -51534   -39836     2060    34139    41605    53100    79075 
   87962    72281    53230    37391    35915    54303    70639    78550 
   92508   109718   117038   120653   134150   146708   141481   124304 
  103862    81198    64694    58118    47429    22540    -7700   -36065 
  -67532   -93498   -94597   -84443   -94499  -112941  -111348  -105377 
 -108372   -96124   -66239   -44320   -40490   -45723   -50178   -57412 
  -68926   -73600   -69130   -65013   -61795   -43578    -5025    29071 
   39682    39808    42394    44488    47024    45952    31413    18660 
   25430    36697    37925    40594    55164    69679    70257    70757 
   89763   110282   102426    68153    32686    11737     8551    18850 
   29503    25376    -8205   -63302   -93443   -71702   -24022    18221 
   40510    49591    68665    89628    92422    97399   114327   114244 
   90360    64923    48186    37793    31524    27620    29617    40897 
   48405    36087     8050   -26267   -66320  -103427  -119659  -119514 
 -130220  -156546  -177024  -179565  -167690  -151099  -140628  -142573 
 -155749  -173985  -188149  -185224  -157736  -114105   -71250   -38085 
  -13397     3998    17109    24480    14047    -8899   -19347   -14407 
  -14149   -18669   -14339    -7376     -569    19210    47752    69596 
   83951    94620   101379   106725   111137   108488    87773    46505 
    8073    -8948   -18454   -25933   -14980    10847    33061    53237 
   79338   105127   122778   128055   119285   101144    74475    41082 
   17034     9607     9744    15266    21464    20806    23300    31452 
   33562    34665    38377    31867    15007     1551     -795     -282 
  -15960   -42133   -46374   -21548    10245    36693    57152    66744 
   60237    44160    35721    41884    46663    33764     9094    -9833 
  -14954   -13546    -7792    14430    50502    78772    87876    85313 
   85212    89724    86698    72636    59012    52812    47077    30329 
    3886   -10690    -2546      850   -18297   -31095   -22682   -16430 
  -13104     5905    32486    53787    71814    84673    90640    93209 
   94103    97110    98838    83385    52411    30714    23701    10629 
  -11902   -24079   -20491   -15429   -15884   -17296   -18981   -21199 
  -19246   -19396   -33573   -50362   -52738   -49216   -48151   -39713 
  -22901    -9318    -3045     -844     1291     9381    26775    46504 
   55166    47958    32335    10719   -18542   -40774   -39199   -27720 
  -35866   -58623   -61031   -34837    -8245    -3888   -13591   -21103 
  -28179   -39504   -51003   -54724   -46840   -42084   -52976   -63135 
  -58192   -56054   -74793   -98552  -102970   -86869   -59715   -23971 
   16663    48278    57398    47740    38899    38149    29608    11381 
    6212    16993    22414    16663     8435     2597     3320    10304 
   21786    41075    57043    56081    58402    81423    99389    95075 
   88831    85446    64918    34681    26523    43441    60219    64309 
   58012    43102    26929    23805    34674    41153    35166    26302 
   16744     7843     9586    22786    48359    89183   119301   115026 
  103115   115733   141492   154470   150358   142651   139086   127777 
   97743    65145    49248    37961    12566   -17722   -29858   -21013 
  -18598   -38434   -55231   -52828   -50128   -56973   -60996   -48555 
  -20671     -448    -2982   -13833   -22245   -34430   -51485   -62913 
  -54127   -24843     6091    23789    26507    20364    13253     5635 
   -2135     -527    10557     8577   -17604   -42785   -46740   -40349 
  -34173   -28064   -21976   -15904   -12409    -9234     1672    17683 
   27250    26082    21917    25715    43225    68265    82899    84143 
   91503   110714   129378   142532   152535   164104   176719   178087 
  166279   154666   147914   140848   131792   125591   124328   122281 
  117357   108108    87508    58132    28329    -1864   -29936   -49051 
  -56338   -48532   -32377   -27946   -37243   -40770   -26960     3165 
   39182    63365    72226    74698    65691    40820    18302    10637 
    5323   -13157   -45868   -79216   -96866   -95180   -84755   -75280 
  -61239   -41912   -39765   -65092   -92686   -97387   -85781   -82070 
  -94646  -104844   -92388   -62493   -32138      350    47500    98842 
  124377   118088   110058   118201   120374   103864    90151    87785 
   88057    97007   118939   138227   135036   106780    74820    57246 
   50996    53326    59921    54588    39402    33536    39333    54720 
   82291   109327   122436   125200   122250   108701    79186    39604 
    2009   -26613   -42086   -47474   -63835   -99863  -119532  -101211 
  -83666   -84700   -61734    -8266    17788    -1492   -20785   -25544 
  -40968   -61258   -61788   -46264   -27588    -9404    -6992   -32661 
  -61792   -70840   -77121   -92657  -100783  -100168  -108802  -122780 
 -116971   -88845   -66136   -63072   -65155   -60081   -46187   -27092 
  -15303   -10109     8147    40960    66839    77992    85136    88413 
   79842    66263    60518    61762    59139    45310    21719    -1848 
  -13747   -14097    -9728     3300    25762    44981    58366    72378 
   81338    77133    66663    62622    65578    67776    71146    79919 
   81954    72214    68949    71370    55399    25994     5994   -11116 
  -40657   -70019   -75469   -55400   -29489   -11542    -1490     7216 
   22517    33318    24199    22113    54149    90792   102287    98358 
   88151    65344    29408    -3600   -15947    -6441     5734    -2086 
  -17977    -5773    35982    67274    56533    17726   -13495   -32523 
  -54554   -68976   -57445   -38074   -43310   -63243   -63996   -46542 
  -29701   -10669    21800    66315   102211   109732   103872   106332 
  103905    87806    83706    99862   104637    81303    54847    47632 
   46780    38457    35514    35934    11841   -27621   -39498   -25218 
  -27683   -55581   -76617   -76678   -74028   -84181   -97116   -85100 
  -45179   -14593   -10558    -5340    15941    32931    28808    11449 
    1575     4430    -3061   -29256   -43476   -37910   -49483   -80800 
  -90984   -81099   -87578  -111279  -130702  -131344   -94898   -30062 
   20290    50621    82408   101682   104475   122824   156614   169998 
  151958   124299   106103    93873    78335    59802    33450    -1238 
  -23848   -32288   -46961   -51285   -18463    18616    24751    27118 
   45386    58075    59352    47909    11101   -31518   -49960   -46508 
  -33139   -18065    -4622    20388    57481    79876    87594   108360 
  132151   127451   103024    91257    98643   102617    87829    73656 
   79864    81341    58263    40828    38998    22565    -9036   -36023 
  -60484   -82977   -87601   -74078   -65650   -63213   -44709   -17718 
   -1995    10084    29563    51064    57186    32136   -10250   -42977 
  -68700   -96114  -109208  -103708   -97852   -90933   -68314   -33072 
    6904    47433    73767    81716    88319   100706   116451   130619 
  124637    90161    43663     4854    -9450     -370    -2937   -35458 
  -64395   -63571   -55009   -72378  -110828  -123186   -93865   -70763 
  -79322   -88695   -77617   -67553   -80252   -95350   -93377   -96006 
 -112629  -115839   -95831   -76448   -67205   -48622   -20678   -10293 
  -15154    -8457     6850    11102    13024    32483    55768    63668 
   75849   102682   117430   115690   120970   138022   153502   159216 
  157543   152123   140756   117151    82595    55342    46238    46042 
   51161    63922    79549    86971    72966    51546    59068    86960 
   95287    95432   115365   127481   116236   115423   116141    85960 
   55323    53837    51964    29404    11372     7559   -18170   -72708 
 -104025   -91381   -76777   -84723   -85577   -60635   -34467   -18072 
   -1274    16005    30063    21737   -15676   -42731   -50360   -68507 
  -85133   -84227   -80642   -63449   -21386    17846    37330    42966 
   36961    26890    26631    36803    42685    38814    38678    43856 
   39577    30188    32313    39023    39043    46247    61487    58363 
   39646    34215    39823    38367    32528    24313     8018    -4993 
    1524    18287    25141    27465    41045    56076    63137    72856 
   74424    52526    27367    11278     4099    20224    53446    83971 
  101738    90315    63991    70242   107325   123433    96932    66689 
   66326    64006    29668   -12598   -31896   -18905    -4185   -23386 
  -43126   -26449    -3453    -6459   -33217   -50352   -24471     9572 
    9095    -4227   -17318   -31957   -22693      654    -9306   -49130 
  -77572   -82440   -78904   -85820   -97785   -86876   -52567   -19181 
    3590    24221    44802    48204    36215    33600    35226    29496 
   38291    68033    93196    97728    80784    57050    47128    37745 
    1114   -46837   -71042   -74008   -74044   -71785   -73514   -87421 
  -89220   -62423   -40840   -46398   -43388    -6503    32683    49864 
   64034    94107   133306   152370   132318   100598    84158    54974 
  -11629   -76355   -88109   -47365     1076    13452     2038    11918 
   21385   -20188   -70698   -61502   -16816     3762    -2197     -310 
   15504    19220    17887    52896   109665   128224   110492   104537 
  116045   123107   116375    87930    43554     9030   -16056   -52323 
  -86304  -100385  -110345  -113924   -90857   -66855   -74136   -79778 
  -51247   -27180   -34587   -22790    34506    73644    57054    33037 
   41691    68971    83282    70709    53008    63160    90325    92259 
   69730    57007    55256    32682   -31534  -104710  -115243   -45277 
   33286    60863    65169    74460    69225    59497    71044    89342 
   93749    84260    79081    89351    95147    89125    85433    80214 
   76113    84251    81999    49019    11624    -5548   -23798   -53385 
  -64573   -68812  -105240  -148628  -151855  -122794  -103297   -97210 
  -64992   -21563   -22854   -47475   -32476    26581    81779    92953 
   76943    80375    98932    93860    76506    80653    89990    81982 
   71780    66689    65675    81833    94715    71956    50698    70608 
   95196    94669    92019   103368   115311   110046    92702    85176 
   88585    76549    28581   -29318   -46022   -24720    -7348    -2498 
    6430    33339    62854    53690     9103   -27378   -50776   -95008 
 -171251  -238649  -247960  -209636  -171261  -141330   -94766   -30870 
   23011    50335    50920    31782    12686     4230   -11638   -49921 
  -91863  -106829   -90816   -63167   -30522    12546    37556     3572 
  -59423   -85197   -79014   -88451  -107670  -104657  -103344  -137256 
 -154408   -89235    25884   122773   176431   178506   144511   129811 
  152095   176123   196382   221920   216230   143607    28289   -68734 
 -100010   -86902  -103372  -143144  -142381  -130007  -150808  -159162 
 -120659   -77442   -67856   -65250   -40830   -20856   -22484   -18820 
    3064    32900    77063   134555   163795   147911   132085   134720 
  123168    91178    59243    30795    -7391   -52676   -69561   -53454 
  -41609   -31060   -13056   -20837   -50884   -61716   -52263   -43485 
  -23889    24205    69143    78684    81325    86059    61587    31718 
   40420    66741    59789    13103   -14904    15692    54687    45629 
    8226   -16638   -29927   -45884   -62941   -82436  -100694   -99693 
  -83609   -86171  -107776  -105716   -79523   -63870   -47791   -17007 
   -1019      936    23969    54943    62657    55198    38134     4313 
  -31467   -57522   -78551   -80844   -59459   -46134   -32808    43260 
  173830   248845   218551   180486   218912   276566   279995   265482 
  289689   333366   366842   392187   407078   404254   367736   287538 
  190897   109697    54125    28516    33566    43020    27977    16416 
    8591   -53824  -119578   -97492   -48165   -69332  -133467  -154751 
 -132370  -131143  -164932  -192027  -166280   -73086    24780    45838 
   28384    51275    64014    13062   -23412    -3583    -2948   -43876 
  -60828   -46507   -51464   -73153   -69679   -40179   -24083   -42723 
  -73686   -69839   -10259    51379    51278    19767    25625    66262 
   83842    49777     8990     9192    18820    -5095   -47382   -76203 
  -86681  -120612  -224530  -333783  -289319   -86610    45874    12402 
  -12011    38453    70583    88121   118511   141546   165106   192093 
  208521   206483   164995    72490   -31393  -100499  -132477  -119747 
  -71575   -64943  -106214  -100430   -30132    32749    43203    37162 
   72272   105070    70247    27230    52938   111541   132470   114103 
   86322    45399    -4786   -29561   -13159    22230    28070    -7613 
  -39243   -60757   -85739   -77083   -36557    -5452    26942    61654 
   72329    81637   106502   115018   102683    98649    92642    50315 
   -6049   -43726   -83135  -118089  -121693  -129260  -171724  -212927 
 -212773  -172436  -112204   -44306    23386    71809    67958      132 
  -68396   -62812     3960    75842   114708   122672   138985   169804 
  184832   172783   149641   120625    36000  -115301  -223133  -216070 
 -168532  -154156  -139987   -94289   -65239   -76976   -80054   -43288 
    6661    35375    54284   100757   154794   148277    72481    -4765 
  -28922    -5531    28012    48998    74391   105438    99213    67312 
   65857    81088    67157    10284   -88476  -197757  -259779  -262683 
 -256896  -270193  -276788  -272526  -268423  -227568  -147160   -99669 
  -94922   -67725    -5493    42474    46033    41301    69378   103686 
  120697   136607   151079   155923   144556   118421   107161   117240 
  116859   102306    93189    79308    47680    16538    -4449   -31899 
  -66047   -73542   -54239   -76311  -150837  -179682  -128896   -81512 
  -60795    -8368    51296    48158      389   -46750   -66016   -35885 
   11774    29329    17261     7750    33900    82210    94702    60746 
   35403    48851    80223   104205   109003    99571    84413    65311 
   56954    68837    76177    55455    25538    26133    64038    94991 
   78262    34066     6845    11886    45550    84228    82346    25407 
  -41590   -63779   -36363   -11769   -31205   -52499   -13250    73801 
  146150   160694   146234   160661   191904   200179   191347   187503 
  200871   221196   219320   194449   180302   187681   187615   174666 
  173901   183309   190813   192272   174216   135469    89446    42285 
   -4308   -43276   -68765   -92611  -124903  -147708  -151081  -146380 
 -133669  -129447  -159331  -189672  -184584  -185500  -225245  -248018 
 -208683  -165762  -176826  -205097  -207174  -188305  -151691   -89562 
  -14481    37775    36062   -17411   -65979   -48856    -7519   -16140 
  -45845   -47015   -36351   -30161   -22159   -25925   -48331   -52886 
  -24064    -4913   -12788    -3000    46195    90381    98023    98058 
  102276    72188     7535   -26069    -4597     8485    -8364     2628 
   38195    48946    46220    50679    51384    46414    44423    52233 
   74547   100907   104561    81196    58661    37986    -1780   -34873 
  -29731   -19081   -39551   -65235   -63893   -53562   -58685   -75183 
  -85137   -79445   -74752   -82893   -97809   -95894   -36842    45883 
   68679    42962    15392   -14735   -26640    -9665    -4291   -27354 
  -53909   -53446   -37365   -48875   -58813    -9869    44977    37766 
   16267    24508    27578    17858    18486    24351    29100    36523 
   50146    70085    76795    54160    22561     7715     4696     7018 
   25158    42155    32959    20002    21750    22109    18648    25653 
   47874    72244    85017    86261    75513    58501    46834    36830 
   33771    51130    75978    94913   113511   137253   150804   126781 
   96507   121208   173643   187804   177483   192289   222127   222897 
  181918   109475    18313   -63853   -98207   -64708    16638    92365 
  114170    88110    56213    21962   -32377   -81020   -99009  -107300 
 -118908  -127131  -137773  -150676  -151067  -107266     2604   112651 
  144289   140994   155528   145107   102970    82924    86519    80738 
   56222    25619     3393   -21876   -62168   -88151   -82786   -76052 
  -75310   -61565   -55150   -85346  -122559  -125231  -112128  -115969 
 -131332  -144628  -150023  -152085  -175169  -218555  -240292  -234561 
 -241860  -270910  -287317  -247707  -126312    39951   156768   177870 
  153060   121309    85028    74222    85255    89570   104691   126439 
  126835   103388    68489    54820    67408    69011    54934    52048 
   71432   100634   125038   140196   122271    40475   -71013  -126459 
 -107621   -74041   -43800   -12664    -6852   -22010   -45313   -78504 
  -99011   -87936   -53773   -21476    -4262    12703    36078    53674 
   64229    79443    96093   101012    95720    87950    85797    93409 
  105135   115455   121114   123099   124190   115656    79010    23161 
    1882    38592    85715   100104    88520    78808    76037    60585 
   36580    27338    30097    28938    27171    31473    32919    29999 
   27456    22055    23486    38590    51505    55091    61874    82025 
  105063   114871   119838   133239   146529   153305   160439   168803 
  170719   156378   126587    85770    21667   -49960   -78349   -68294 
  -71217   -81110   -48621     8877    32048    35357    46354    31355 
   -2951    -5153    14180    12039    -8700   -29499   -60686  -108312 
 -149080  -160914  -143999  -106085   -52408    -2446    16930     6012 
  -20949   -55648   -80077   -84110   -77546   -63158   -28712    41146 
