Origin Time       2011/03/11 14:46:00
Lat.              38.103
Long.             142.860
Depth. (km)       24
Mag.              9.0
Station Code      FKS021
Station Lat.      37.6537
Station Long.     139.8607
Station Height(m) 209
Record Time       2011/03/11 14:47:16
Sampling Freq(Hz) 100Hz
Duration Time(s)  300
Dir.              U-D
Scale Factor      3920(gal)/6182761
Max. Acc. (gal)   42.411
Last Correction   2011/03/11 14:47:01
Memo.             
[...]
  -12846   -10826    -8424    -2590      133    -4654    -8783    -7714 
   -7130    -7279    -3535     -724    -4962   -12202   -18487   -25397 
  -30999   -29398   -20947   -13632   -12602   -13879   -10665    -3726 
    -191    -2689    -7652   -12844   -18004   -20322   -18689   -17626 
  -19567   -22483   -24971   -24668   -19256   -11897    -6056    -1244 
   -1432    -9707   -16385   -15239   -12680   -10880    -9576   -13715 
  -20098   -16327      783    19824    27057    18692     3699    -6353 
   -9017    -7127    -3980    -6863   -17999   -27485   -29698   -28892 
  -25015   -17169   -12646   -15029   -19047   -21295   -21557   -19336 
  -15468   -12096   -11747   -16366   -24929   -33875   -38990   -36326 
  -26946   -17250    -8926    -1236     -435    -6449    -9545   -11147 
  -14431   -11265    -4047    -1719      910     6796     9504    10834 
   16332    22337    22720    19531    19811    23262    20631     9128 
    -257     -611     1115     2213     7185    11660     9626     4957 
    1556     -714    -1312    -1025     -530     1593     3053    -1364 
   -9964   -13499    -7271     3811    13014    15046     7191    -4054 
   -9359   -10086   -10761    -9899    -9220   -11218    -9913    -4667 
   -3662    -5593    -5002    -4419     -472    14027    26730    20633 
    4053    -6449   -10746   -15038   -22036   -30684   -32183   -22246 
  -12238    -6957     2763    13837    16487    15599    13940     6326 
     172     4556    10639     6483    -5938   -17019   -21664   -19843 
  -13433    -7767    -5373    -2115     2121     3770     2613    -3359 
  -12401   -12938    -4491    -2206    -7543    -9556   -10148   -12569 
  -11764   -11883   -17560   -21352   -21144   -22298   -25568   -31935 
  -40446   -40809   -29645   -19625   -18100   -18594   -18296   -19402 
  -16670    -7259     -811    -2175    -3460    -1834    -4541   -13664 
  -20920   -18647    -8644      653     3317     2130     3295     6110 
    7757     9254     4969    -8557   -16848   -14796   -16711   -21193 
  -17883   -14322   -16649   -16615    -9037    -1034    -3761   -11880 
   -8652    -2098   -10017   -18221   -12768   -12901   -27098   -35005 
  -30066   -26204   -25673   -18994    -7399    -1428    -4263    -9506 
  -13330   -17757   -21828   -23583   -23863   -20508   -15027   -15078 
  -18960   -21524   -26321   -30017   -25328   -19982   -18712   -14719 
   -9481    -5417    -1033    -3161   -10866    -9173     1919     5123 
   -4980   -17922   -24914   -23028   -16021   -14197   -20058   -26033 
  -29098   -30605   -29844   -27184   -22916   -16780   -13125   -14180 
  -15762   -17208   -19676   -21377   -22181   -20223   -13711    -8336 
   -9420   -14488   -15929    -9850    -4819    -8217   -11353    -7293 
   -3116    -3663    -5502    -4637      541     6252     6256      556 
   -5530    -9157   -11032    -9837    -6081    -8119   -18988   -29031 
  -31537   -28771   -21834   -11407    -5420    -9862   -19091   -25537 
  -25797   -20175   -14521   -10124    -1193     8931    11418     7722 
    2565    -2871    -5098    -3865    -4828    -6947    -3481     4953 
   11313    12968    13781    13946     6979    -6348   -13770   -10148 
   -3455     2193     4624    -2419    -9978    -5711    -1548    -7683 
  -16269   -21605   -19221   -11869   -14980   -26209   -28832   -25660 
  -24746   -22301   -20756   -23082   -22171   -19539   -20191   -17227 
  -10677    -8590    -5800     2402     7138     5670     4161     1887 
   -3950    -7928    -6781    -7189   -11012   -11399    -8750    -9446 
  -13025   -13827    -9438    -4551    -6261   -14365   -20198   -17156 
  -10172    -7767    -7137    -2954    -2755   -10710   -14280    -9563 
   -8674   -12093   -13988   -21045   -31537   -30895   -19551    -6238 
    7725    15798    14266    13766    14984     8132     -955    -3131 
   -2838     -702     8075    16039    14396    10395    12830    17843 
   19280    14303     2710    -6614    -5254     -949    -3313    -5846 
     752    11201    15104    13677    13291    13163    12936    16412 
   20674    16914     4203    -4425     1236     9604     7075     1661 
    3715    10163    16954    22172    21307    12759     2377    -3360 
   -6071    -8301    -5316     1407     3043     1833     2527      280 
   -3931    -4977    -7192   -10230    -6102     1478     4707     3156 
   -4621   -13941   -13860    -7883    -6046    -8114   -12122   -14740 
   -9029     1017     4631     1676    -2464    -6107    -9231   -11712 
  -12586   -11615   -11096   -13114   -17897   -22859   -22876   -17379 
  -10333     -938    12443    23556    23799    13590     3792     -862 
   -9185   -21176   -23733   -17778   -15135   -12469    -2036     7480 
    4783    -7395   -16426   -12094    -2204    -4239   -14802   -19094 
  -18540   -14754    -2189     8642     6069     1052     3038     5262 
    3421    -1263    -6989    -8873    -8463   -15681   -29025   -34645 
  -31409   -32013   -35957   -30004   -15502    -5330    -1504      976 
    2768     -386   -12012   -21927   -19246   -16302   -23203   -26109 
  -17524    -7087     -467      911    -4382   -10547    -9038     1155 
   12540    16750    11739      -87   -12036   -15582   -12556   -10468 
   -9831   -10838   -15498   -21140   -25693   -28258   -27334   -28340 
  -34041   -35924   -33433   -34778   -38664   -41857   -44137   -38738 
  -26575   -22765   -30345   -37334   -38456   -35459   -29451   -22439 
  -17790   -18204   -20612   -17701   -12195   -14510   -21948   -22648 
  -15988   -10187   -10155   -15977   -23387   -25095   -19283   -14062 
  -15095   -15627    -9977    -3828    -1273    -2437   -13637   -33873 
  -45781   -42880   -39058   -38238   -31720   -24958   -27075   -31081 
  -30691   -27574   -21244   -16178   -18222   -22734   -29827   -44364 
  -54916   -51854   -46127   -43770   -39397   -36056   -36846   -34088 
  -24224   -15148   -14114   -18358   -22030   -23285   -19564   -12929 
  -12402   -14515   -10198    -8007   -13818   -16311   -15431   -23317 
  -36081   -41182   -38531   -34103   -33260   -39948   -44680   -35883 
  -27131   -34860   -47877   -54275   -57203   -53300   -41081   -30849 
  -24741   -18283   -12699    -6313     5257    16134    16347     8227 
    1929     1986     4642     1441    -8966   -16657   -15867    -8426 
    4360    16963    21017    16228     7016    -3073    -9145   -10692 
  -13483   -17456   -15812    -7176     2993     9225     9233     6940 
    9269    13699     9933    -1403    -5628     3706    12600     9509 
    4719     7912     8543       12    -4051     3686    10931    12024 
   15849    20862    16717     7507     3424     2584    -1154    -5746 
   -5849    -3680    -5995   -12843   -16967   -13820    -8654    -9240 
  -13799   -15771   -15036   -13255   -10717   -11774   -16318   -17719 
  -16367   -15814   -16271   -18927   -23275   -26801   -26754   -19310 
   -8133    -5601   -13576   -20056   -21105   -21614   -22154   -24973 
  -31321   -34039   -30626   -25710   -21928   -21627   -22763   -17268 
   -6717    -3457   -10314   -15959   -13899   -11183   -11350    -9100 
   -7531   -12232   -16672   -17345   -20318   -25489   -25951   -18039 
   -6127     -789    -3129    -1597     2682    -3894   -17513   -21947 
  -15811    -9852    -9960   -16145   -24543   -25466   -16567    -9729 
   -9348   -10437   -17267   -29711   -33594   -26197   -19258   -15929 
  -12867    -9875    -5216    -2529   -10623   -23655   -27941   -24483 
  -21927   -21352   -20702   -19454   -16962   -16292   -18810   -17915 
  -12800   -10357   -11042   -10561    -6191      664     3912     2963 
    1242    -6037   -18728   -24915   -24795   -27096   -27293   -22715 
  -21933   -24090   -21022   -15535   -15504   -21389   -29054   -35276 
  -37626   -34517   -27868   -22141   -17718   -13232   -12405   -15560 
  -18634   -24253   -30498   -26312   -15262   -12409   -17647   -20209 
  -16647   -10731    -7458    -7690    -8914   -12161   -14828    -8009 
     408    -7414   -20762   -20217   -16800   -21893   -26304   -26863 
  -24092   -15782    -9473    -6926     -754     2964     -736    -1093 
    1810    -4471   -16144   -20339   -18180   -15065    -8183      483 
     643    -8715   -16971   -16608    -9986    -5134    -4671    -4927 
  -10293   -25960   -39425   -37961   -28600   -23083   -24468   -29563 
  -31903   -29098   -24773   -18931    -7451     6549    13152     8903 
   -2208   -14502   -21121   -21249   -19497   -17167   -17226   -21758 
  -23792   -20001   -16249   -13634   -10167   -10493   -15114   -16552 
  -16870   -22528   -26477   -23817   -22124   -21123   -15049    -9938 
  -12713   -18209   -17848   -11647    -7966   -10547   -14827   -19610 
  -23588   -19455   -10333    -6504    -4260      540      217    -3487 
   -1857    -1272    -8924   -16161   -16188   -12820    -9857    -8871 
   -7999    -3724     -428    -3269    -6730    -4805     1590    10174 
   15908    13154     5863     3358     6631     8608     7655     5884 
   -4821   -26056   -37473   -30408   -22763   -24502   -28197   -30614 
  -33151   -32987   -29803   -26875   -24186   -21483   -20489   -22644 
  -29137   -35667   -32412   -20164   -13399   -16840   -19513   -17929 
  -17543   -15366    -8942    -6506   -10123   -12651   -14213   -19055 
  -26184   -33422   -37594   -36082   -33330   -33751   -33819   -30039 
  -24527   -18933   -13239   -11193   -15785   -22522   -28277   -37165 
  -47372   -48632   -39792   -28820   -19097   -13004   -13823   -18534 
  -24840   -34257   -41498   -41472   -39618   -38437   -35021   -35015 
  -40973   -42503   -38715   -37869   -33770   -20005    -8810    -9876 
  -16612   -21585   -25058   -28417   -28845   -23681   -16916   -12528 
   -9101   -10483   -20803   -28879   -26314   -21440   -19700   -22129 
  -27477   -23527   -13315   -15411   -19242    -8014      971    -4668 
  -11321   -14088   -18380   -20405   -16476   -10581    -6599    -7492 
  -11984   -12649   -10660   -16189   -28555   -34339   -25157    -9950 
   -3831    -6239    -7846    -8146    -7459    -5515    -7874   -12656 
  -14268   -17615   -20713   -13290    -1644     3535     4120    -1455 
  -12826   -17673   -16907   -22373   -27734   -22003   -10195     -540 
    2019    -5341   -15374   -17433   -12237    -8116    -8379    -9744 
   -9488    -5707     3344    11324     8046    -4003   -11739   -11680 
  -14221   -21675   -21415   -10991    -4385    -7145   -10503   -10093 
  -10867   -14165   -13842   -10171   -11925   -15622   -10032     -225 
    6610    16105    24304    18880     7032     4737     9529     9625 
    1356   -12804   -25940   -28696   -21244   -13794   -10100    -6357 
   -6157   -13459   -18882   -17248   -18187   -24326   -28620   -32516 
  -38291   -41203   -44262   -49803   -44912   -25160    -3666    12965 
   23873    23889    17089    14636    15483    13272     9574     6294 
    2257    -3017   -10358   -17175   -19639   -20290   -19460   -13656 
   -8287   -10164   -14937   -14719    -6997     2605     4803    -1391 
  -10751   -18493   -18324   -12528   -11526   -13395   -12544   -14094 
  -14993    -7340    -1072    -3267    -3810    -1319    -1097      873 
    3051    -1395    -7858   -11958   -17854   -23735   -24972   -23733 
  -19775   -12669    -9150    -9762   -11188   -19288   -31473   -34498 
  -31774   -33190   -33082   -28172   -25321   -23981   -19823   -15783 
  -15793   -17963   -17964   -16658   -16290   -12968    -6707    -5674 
  -11058   -15936   -20489   -29111   -35240   -30908   -25029   -27396 
  -29073   -24826   -24827   -25843   -17696   -10339   -11523   -12933 
  -10859    -7133    -3545    -2574    -1743     1533     1278    -8202 
  -19636   -21980   -18030   -17383   -20856   -22916   -19441   -11439 
   -4898    -2927    -4410   -13350   -30505   -42032   -39637   -31580 
  -24091   -18288   -16791   -17864   -18793   -22153   -25725   -22969 
  -17355   -14266    -9880    -3133     3283     8351     4409   -10392 
  -22259   -28246   -34327   -33818   -30317   -38891   -50543   -51906 
  -53282   -58749   -57984   -53761   -52720   -49046   -43381   -45323 
  -51331   -53126   -54450   -56263   -53337   -49962   -49203   -43038 
  -31725   -26964   -31893   -37539   -36494   -30944   -27864   -31186 
  -39254   -46683   -48582   -43795   -36037   -31080   -32772   -42330 
  -53236   -52756   -40062   -28062   -23046   -21353   -22152   -25707 
  -25697   -20211   -18755   -22512   -21191   -14412    -9110    -8502 
  -14377   -23861   -30761   -31012   -22489   -11972   -10513   -14471 
  -14088    -9780    -2321     7963    14530    15157    10446     -323 
   -7002    -2570    -1733    -9826    -8518     1661      -21    -9275 
   -9369    -6599    -9733   -10753    -3763     5684     9664     5602 
    -376      664     6611     6800      662    -5677   -11617   -12556 
   -4027     2593    -2285   -11342   -19417   -27148   -25890   -11018 
    2519      117   -13971   -24358   -22266   -16080   -16228   -17243 
  -12711    -7576    -2104     8241    15869    11323     -407    -8789 
   -7506     1307     6026     1891    -1886     -458     1349     1242 
    -353    -2835     -853     9575    22600    29690    29306    26105 
   23511    19803    14978    12903    11219     6610     5751    11334 
   15125    11956     3190    -4564    -4897    -3903    -5840     1378 
   18177    25620    22738    23727    24899    19696    16935    19746 
   22523    24870    24998    20791    18751    21107    21666    20115 
   18320    14091    10671    15702    30317    46789    55359    53893 
   46933    37748    29551    26724    29229    33569    37862    41241 
   41917    35996    21886     7841     1250    -3286    -8104    -6967 
   -4418    -7851    -9649    -5103      458     7532    13325     9476 
    3350     6736    13328    14190    10768     3300    -7625   -14499 
  -12936    -6309    -1338    -2425    -6779   -12444   -19987   -26875 
  -36443   -47939   -43068   -18067      936    -3023   -18170   -29295 
  -35316   -37743   -34066   -29587   -31501   -32286   -26060   -22426 
  -23998   -20576   -12278   -10861   -18603   -26188   -27857   -22976 
  -14604   -12814   -20699   -27820   -30213   -32280   -31375   -27598 
  -31971   -45462   -54348   -52233   -45039   -38873   -35340   -32579 
  -27967   -25223   -30976   -38544   -35486   -27878   -28308   -29038 
  -17949    -5098    -4652    -9417   -10486   -16170   -26586   -27284 
  -19383   -14558   -11923    -8102    -6374    -7925   -10721   -12466 
  -10886    -6359    -2486    -2962    -7796   -12982   -17989   -28109 
  -41116   -45836   -40442   -31664   -20748    -7721     2588     8115 
   14272    22909    25201    15303    -2829   -20748   -26863   -19054 
  -10930    -9840    -9682   -10817   -21205   -37087   -45966   -46660 
  -45493   -42243   -33649   -19408    -6644    -6336   -14699   -17955 
  -15000   -11688    -8345    -4643    -2788    -6191   -13869   -16438 
  -10500    -5776    -6245    -7280    -9021    -9443    -4304     -253 
   -3341    -7711    -8288    -7512    -9448   -15107   -19978   -17568 
   -8427     -754     -225    -1745     4079    14477    18828    16704 
   11732     5373     3316     4762     3422     2836     3602     -462 
   -3156     2658     8621     8895     7858     7546    11107    21708 
   29135    24034    14216     6175    -2926    -8679    -4220     5926 
   15167    19639    14365     3036    -4021    -5424    -4931     -606 
    9975    18963    14001    -2995   -17997   -24907   -25454   -19733 
  -12038   -11435   -20499   -34745   -47909   -52893   -49434   -45675 
  -43070   -36670   -28941   -25034   -24632   -25923   -25903   -19526 
   -7982       35     -512    -8980   -21702   -29394   -26458   -19816 
  -16945   -17413   -19243   -19473   -12809    -3412    -3906   -11009 
   -8709      185     -882   -10086   -13513   -12234   -13990   -14535 
   -7410     1088     1264    -1853      364      808    -7369   -16637 
  -20753   -20000   -16016   -13902   -13117    -6549     1917     4738 
    4092     -232    -9919   -19451   -27704   -37412   -40578   -29543 
  -16577   -15144   -16332   -13751   -15398   -15444    -8300    -8749 
  -15963   -10728     4071    11877     9071    -1884   -15926   -24098 
  -24758   -22693   -21772   -25245   -30033   -27025   -16977   -12633 
  -17275   -19446   -17705   -22773   -31866   -34941   -35633   -38215 
  -35174   -23680   -14100   -12856   -13638   -12979   -14095   -14318 
  -11484    -9560    -7209    -3570    -2945     -114     8901    11496 
    4127     -128    -1672    -8861   -17427   -24088   -28294   -23663 
  -14279   -13337   -18002   -14874    -3966     4994     6600     2809 
    3250    10435    12398     7946     7968     9611     7488     8554 
   11462     7940     2842      985    -1996    -7413   -14887   -21144 
  -18017    -9185    -6843    -8880    -6490    -4270    -9279   -13631 
   -9208    -4196    -8185   -18096   -22957   -15182    -3582    -3898 
  -11658    -8928     2502     6193     1738    -5598   -17678   -20787 
   -2987    14221    13990     9940     9674     6271     2023     3267 
    6668     7778     8398     8799     5159    -1393    -4479    -4488 
   -7415   -11934   -13175   -12251   -11204    -8863    -5347    -2985 
   -4389   -11623   -20122   -22748   -24568   -28986   -24492   -11198 
   -4245    -4475    -2661      594     -586    -8557   -19743   -24966 
  -21537   -17523   -14573    -8827    -5927    -7306    -3052     3635 
    -869   -11541   -12194    -3342     1662    -1932    -7023    -7231 
   -3931     -536     1993     1363    -2156    -2263     -470    -3178 
   -3475     4326    11456    13492    11993     4302    -5326    -6672 
    -119    10468    27282    44544    47595    34345    17060     4974 
   -1783    -8897   -16742   -14637    -2317     6583    12181    20648 
   23004    14761     4838    -4078   -11143    -9190    -1278     1065 
    -206     4779    13227    15916    12621     6712    -2677   -14772 
  -22481   -20657   -15837   -16411   -17798   -13848    -9809    -9517 
  -11254   -16338   -22392   -25836   -29767   -30570   -24096   -20732 
  -21468   -14798    -9524   -17803   -25436   -23406   -22446   -22106 
  -17720   -16983   -18538   -13579    -8455   -12014   -18560   -19920 
  -16509   -15585   -24394   -37336   -43021   -43995   -43419   -36273 
  -30449   -36058   -44058   -45750   -44850   -42452   -36378   -29526 
  -23096   -14639    -9572   -13061   -17183   -18833   -24139   -26829 
  -20037   -16256   -22800   -28744   -31427   -34937   -33135   -28194 
  -31535   -36295   -28767   -16644   -15269   -21833   -25822   -28482 
  -33837   -37145   -35062   -34537   -40543   -45875   -46253   -48407 
  -54436   -59098   -58530   -49195   -32659   -19983   -15318   -11612 
  -11928   -21843   -28930   -25822   -23392   -26061   -29449   -31370 
  -29301   -26103   -27951   -30051   -27683   -27241   -30878   -36575 
  -46605   -56163   -57813   -56739   -59087   -61381   -58520   -49334 
  -40325   -38392   -37306   -32180   -29873   -29738   -26900   -27011 
  -32855   -38538   -38304   -27802   -11508    -4048    -9635   -15482 
  -12868    -7192    -5454    -7345    -7503    -3163     1476     2501 
    1557     2439     6089     7532     5325     5963     8125     6115 
    6320    12453    14573    10300    10119    16971    22806    22148 
