Origin Time       2011/03/11 14:46:00
Lat.              38.103
Long.             142.860
Depth. (km)       24
Mag.              9.0
Station Code      FKS005
Station Lat.      37.6389
Station Long.     140.9853
Station Height(m) 17
Record Time       2011/03/11 14:46:51
Sampling Freq(Hz) 100Hz
Duration Time(s)  300
Dir.              E-W
Scale Factor      3920(gal)/6182761
Max. Acc. (gal)   445.202
Last Correction   2011/03/11 14:46:36
Memo.             
[...]
   44702    54198    75791   119760   155950   164596   164958   148822 
  102436    50516     5785   -23437   -20498     6065    52554   105963 
  130619   141451   162549   163223   124995    58399   -28165  -109636 
 -149646  -143091  -113187   -77550   -62420   -85054  -100910   -41016 
   97953   225746   271308   256853   221290   216580   270016   302878 
  262314   196496   136405    79665    65673   134098   227216   247391 
  192075   124191    45434   -72404  -170687  -189648  -182553  -169218 
 -100919   -36171   -58321  -132634  -178739  -141493   -45707    17753 
   -8381  -119444  -250652  -328859  -331982  -233897   -31677   158270 
  226795   208036   171296   141281    98828     4545  -106979  -185350 
 -213747  -144338     9190   174864   304814   319419   193714    53913 
   11080    21470    29733    67201    98448    51856    -6721     -358 
   19125     4421   -38134  -115947  -191022  -210763  -189230  -162209 
 -183345  -243497  -252797  -212437  -152826   -69451   -18804   -28198 
  -60177   -80765   -74707   -85758  -107028   -58728    23908    87703 
  167454   236381   244222   219644   192764   125621   -11188  -132055 
 -175342  -212633  -268646  -291440  -274387  -251657  -245476  -224274 
 -162891   -88552    -8443    68690   102521    92662    73215    35917 
  -36825  -101582  -130116  -130958   -79358    15239   106607   192552 
  244352   218483   167738   135003    83741    30244    33457   109113 
  213530   255768   206525   112624     1084  -107114  -173054  -169239 
 -123206   -92126   -74386   -56025   -40155     8466    98606   182362 
  217180   192050   138086    89081    39699   -30124  -113874  -171444 
 -192085  -198638  -192374  -182739  -181307  -160757   -88032    37081 
  156362   201541   185780   142949    63314   -20337   -59466   -90574 
 -156198  -224245  -262080  -284653  -281820  -254969  -271467  -287821 
 -203506   -72418    68784   239597   323097   247784   165801   201735 
  284234   351831   426345   418565   246984    55376   -24718   -23991 
   42417   144253   169267   122284   130978   178108   155908    86394 
   -9436  -172439  -320431  -349151  -306316  -280504  -310368  -379847 
 -427011  -417248  -354855  -254242  -142175   -37587    42618    80215 
   72797     1004  -143173  -291173  -363596  -334151  -192397    37592 
  241333   298139   228813   162991   135078    38023  -138077  -246900 
 -254842  -241770  -190310   -88151   -21678   -18158   -38014   -84971 
 -148780  -178910  -174600  -140083   -42892    74791   143200   190039 
  238770   257201   235044   164973    58236   -45542  -128425  -167710 
 -154947   -94107    31204   157386   179256   116090    69967    72843 
   50701   -29453   -84495   -85735   -89302   -72140    15742    99405 
  100974    75233    41907   -41276   -99257   -54618    26376    69022 
   78808    83775   116108   172878   168740    67125   -75177  -193083 
 -192976   -67136    82600   214684   290582   275178   225381   194827 
  171458    98414   -54346  -226729  -306106  -244797  -122845   -15496 
   90722   226070   344850   361774   314414   226911    43758  -124378 
 -194819  -249889  -259846  -197861  -135500   -42477    76066    95061 
    5148  -117085  -243761  -305591  -254348  -157944   -46195    84765 
  172852   193743   203713   245088   271582   227493   159052    98305 
   36332    22189    51928    49608   -14247  -128138  -256161  -355713 
 -391135  -340818  -264002  -233553  -202140  -107890    34195   213181 
  358672   340308   223881   214737   268844   201333   103668   128257 
  186749   215761   246204   244618   190140    89495   -40687  -148144 
 -210059  -230028  -235782  -291365  -391941  -467887  -487265  -444290 
 -352485  -253991  -164352   -82473   -23911    18082    40738    -4056 
 -117348  -222898  -262266  -250639  -238231  -257463  -303985  -339903 
 -342136  -326393  -300038  -242454  -116938    68969   208311   230009 
  194306   156557   106523    39184     2107    40030    96200   126147 
  187680   274292   291279   218116   126263    72799    47275     9016 
  -30565   -42461   -81262  -149252  -123890      903    93248   105304 
   72165    14169   -18560    28871    88625    75674    33637    23025 
   71422   176372   266499   304630   292399   223415   168528   177508 
  175927   110187    -6233  -155766  -305536  -415036  -469528  -490758 
 -498899  -479418  -421441  -333539  -231951  -133712   -48240    -8350 
  -36172   -61362    -4746    93909   147472   147430   131404   129980 
  171685   220199   189271    82963     4127    26295   119830   218417 
  288676   291836   198645    67885     7009    41524    86818    68710 
   21625    24300    58016    51827    39715    69194    78601    18355 
  -90129  -206621  -277612  -294303  -293958  -264292  -186925   -99583 
  -44805   -32369   -12221    56194   119468   143183   154720   150719 
  113903    60140    14384   -44253  -137613  -214050  -246492  -240950 
 -153316    -1383   123777   195864   242891   281157   286467   222965 
  127952    61397   -11450  -112960  -162004  -150167  -155893  -176384 
 -171075  -143070  -134365  -183355  -232836  -227589  -228530  -221150 
  -99986    80081   206503   283942   309195   286705   274192   254523 
  193940   131679    68956   -20888  -100768  -142357  -160472  -175916 
 -208625  -229822  -211604  -191516  -161752   -79019    17102    83804 
  120719    87682   -20541  -131561  -191902  -165772   -84015   -46562 
  -51661   -34414    -7197    -7718   -40061  -104472  -178614  -213167 
 -207578  -191135  -178762  -178030  -152350   -66972    41152   138686 
  226245   274936   265076   210875    97323   -64975  -185019  -205866 
 -177523  -141146   -52363    67651   107075    71049    53559    61147 
   53755    55021    97244   115665    60517     8746     6579    16391 
   47445    85799    31849  -114476  -257043  -363966  -417656  -407882 
 -357210  -235719   -49318   111377   225535   293252   271214   202834 
  143873    76659    35298    62122   116211   139795   107191    61653 
   58676    31289   -92849  -212686  -227978  -193009  -153932  -102684 
  -63348   -48437   -31868    10524    71893   136321   208796   281921 
  336074   363314   364135   342593   284024   183607    90177    45994 
   43328    71142    99662    89188    87399   156352   257348   324128 
  310304   201000    77470    30217    42033    80664   121306    98956 
   34911    13153    24949    23693   -18132  -104071  -186922  -236529 
 -257442  -254352  -259490  -286959  -287686  -219666  -107123   -26256 
  -23511   -68255  -121209  -175986  -240924  -320199  -386053  -381399 
 -249911   -27723   154186   268947   354441   353356   275117   212036 
  165428   113887    60908    11956   -13305   -45928  -106909  -128836 
  -89402   -41286    10345    82364   142047   164761   161890   155317 
  164042   169806   154158   130205   100956    79574    84799    98499 
  100018    82523    49459    40254    69088    71816    15100   -71942 
 -187731  -313015  -372522  -343332  -288013  -239822  -157232   -41958 
   37215    54782    -6377  -155702  -269403  -273547  -285874  -325357 
 -303770  -253348  -213058  -158622  -100363   -72821   -81798   -76346 
   -2605   109169   169471   142814    70225   -18113   -89116  -114122 
 -147205  -204161  -210060  -164431  -108191    -9664   130714   223133 
  211922   139584    78947    42950    -5543   -37648     2186    59778 
   81421   106780   144936   157879   112751   -20828  -193508  -287301 
 -276271  -210676  -107039    27729   163341   237214   230392   238492 
  274060   242778   187723   173723   173670   217167   289176   282327 
  179247    48086   -49842   -98584  -105787   -68597   -48308  -112325 
 -190025  -199693  -172973  -151698  -159660  -224133  -298429  -314221 
 -276975  -181588   -12468   168289   297577   375930   400292   370298 
  315952   232687   140422   122380   173768   202805   151058    38685 
  -51356   -77840   -75024   -70696   -46908     1746    33679    33074 
    9666   -28416   -45414   -34843   -35896   -63264   -77597   -20582 
   86492   162982   178786   128452    21484   -90932  -181327  -241591 
 -268101  -303881  -356166  -329318  -155660    49872   129770   141475 
  174582   124533   -51104  -183235  -154090   -70450   -43469     -291 
   79297    74789   -34936  -174186  -274728  -312803  -354908  -429089 
 -475435  -464103  -389404  -264691  -131116   -23980     7231   -56074 
 -141862  -157992  -101245   -61903   -63925    -6570   136056   256074 
  290290   254620   160774    60708    36824    61540    57124    28840 
  -30044  -128675  -169893  -127795  -116591  -176474  -268004  -360578 
 -404948  -373318  -275857  -138931   -48619   -72881  -154524  -197458 
 -175774  -152183  -173703  -169725   -89347    13940    84416    84008 
   37872    33761    62998    71217    65114    34267     6145    56891 
  150914   202592   195648   151119   108399    70179    12436   -29018 
  -43695   -55858   -18999    86504   212331   309848   312540   243587 
  238638   308618   345235   340637   327778   242750    74340   -63132 
 -132647  -165707  -118380    13563   149346   259061   346479   387817 
  370762   308989   231258   152788    52383   -74668  -190873  -242114 
 -194464   -92264     5843   105745   176855   150616    65121    -4584 
  -84992  -189009  -247605  -249792  -219468  -121177    19257   103938 
  123977   100515    34392    21840   104052   178590   228181   251245 
  176898    80436    80840   131063   147253   135894   147618   194340 
  226384   181748    68009   -35394   -93427  -129457  -163972  -216323 
 -261172  -262358  -251312  -220928  -134592   -61225   -51011   -59368 
  -94464  -169329  -207206  -190882  -178988  -133159   -11058   105446 
  197372   313901   382989   354148   297254   202238    10147  -201574 
 -336095  -393363  -367045  -286967  -239788  -209011  -149036  -127200 
 -184194  -244731  -271142  -296785  -289298  -197533   -58333    74793 
  160413   115609  -100147  -364135  -492923  -441274  -294003  -124433 
   60485   248348   344124   264781    65055  -142250  -309594  -421956 
 -425436  -290543  -118867   -27168    43872   155530   233110   317180 
  478196   588895   581420   512339   364204   148744   -42908  -209593 
 -411994  -560906  -495106  -311836  -261942  -326220  -294387  -145241 
    5315   125661   231347   353039   477156   472937   319571   171364 
   89228    41610    52940   135586   223845   247216   212282   154193 
   44452  -107987  -218972  -315010  -437034  -450557  -272844   -37031 
  142120   308149   434189   351073    97127   -59099   -92815  -209672 
 -351972  -334897  -250943  -186805   -56501    83373   112107    63723 
   32194    63616   108754   114949   127055   166898   204191   249277 
  324322   408591   460129   457354   396322   308955   251127   227059 
  209486   182953   150701   133429   120795    66606   -37499  -118027 
 -134650  -160906  -195648  -157376  -104244  -113869  -147453  -158447 
 -124026   -63238     9883   106959   158328   106697   -11445  -138477 
 -221699  -264006  -284756  -269218  -224694  -137452   -11248    56691 
   47517    59859   127875   205473   223469   124551   -37336  -141510 
 -184253  -217420  -198127  -126082   -70892    -2682   101656   172425 
  175592   123138    45626   -33111  -135805  -250929  -304979  -267869 
 -182291   -91153    -8213    44297    28470   -88932  -292485  -461428 
 -496739  -456798  -383847  -222200    33792   302892   439770   398077 
  325484   279715   176809    57758    41328   101278   132877   128548 
  120950    84338   -17299  -138867  -199605  -211057  -212524  -198939 
 -173912  -152085  -142908  -125151   -84576   -47374     7012    90913 
  132941   109655    60111    10132    -9900    -7578     1831    46399 
   83587    28572  -100052  -215585  -292019  -361146  -391109  -341085 
 -266893  -197658   -92757    42935   156979   217020   224915   193162 
  141210   101245    98651   137437   191498   212826   195386   166239 
   97484   -30692  -147667  -190659  -176871  -142488  -109690  -111830 
 -152624  -193548  -217192  -200178  -122880   -43843   -26133   -60986 
 -116915  -167189  -158456   -43704   128292   261956   318683   292656 
  219750   174680   145868    84645    21773    -1837    18525    46114 
   76986   174046   283915   332591   334181   171854  -164282  -387797 
 -430983  -476380  -510011  -452686  -292698     3655   287128   373671 
  370424   407797   456594   469282   427134   332637   133466  -189116 
 -443438  -465541  -337516  -198382  -106566   -60555   -64897  -130502 
 -176262  -176820  -232422  -329879  -398502  -421508  -339880  -147008 
   76716   280522   402945   384265   285743   237811   278290   341499 
  382049   378666   296707   179582    98951    16916   -86176  -111861 
  -45806    -8877   -18549   -10064   -25959   -96906  -154571  -157045 
  -84739    91678   289282   305975   109308   -79880  -172309  -303252 
 -445996  -416634  -259108  -162519  -138305  -110281   -77563   -59630 
  -45402   -23680   -10632    -3743    11906    26375    44923    77441 
  120920   160231   148554    53878  -112989  -292189  -375353  -317712 
 -178704   -26947    76753   104358   102632   105350   110412   114406 
   77072   -33282  -182482  -319931  -424459  -456259  -369605  -236882 
 -158908  -110164   -49922     6637    66707   143330   212257   235505 
  198168   132966    49083   -89665  -236952  -279092  -148699   125820 
  410081   585334   636076   615604   586155   498943   288637    23221 
 -276474  -585046  -710315  -604165  -426442  -237885   -20497   195190 
  317297   216262   -18416   -54508    94547    99583    37786   116107 
  161551   118376   156948   228446   220891   146332    15839  -100189 
 -122675   -95370   -51565    20982   100809   151753   119437     2533 
  -91214  -107132  -105432   -88738   -16990    36437    12565   -32953 
  -89698  -168287  -220098  -254938  -291523  -274215  -202336  -130817 
  -93298  -105712  -127209  -113655   -78421   -13371    72706   109538 
  104439   119506   130907   114320   108678   108939    72162     5567 
  -51427   -78467   -76569   -67717   -91134  -123620   -92722   -45957 
  -57728   -50475    18278    89525   170415   275947   372370   434096 
  426259   335287   189042    10385  -171858  -333226  -463861  -513191 
 -433792  -280633  -150521   -62697     6655    44075    57957    93730 
  102155    24914   -24258    31702    91006   111465   135994   144541 
   84178   -50422  -155587  -137752   -73995   -48675   -33482   -12199 
  -26821  -107459  -192624  -206541  -182630  -155304   -96168   -11185 
   67659   127669   173181   216548   223677   146143    44269   -10317 
  -74713  -158627  -140321    -2673   116895   143779   106735    10388 
 -119446  -208148  -268259  -301648  -224448   -78722    47558   175744 
  286554   331942   306188   208601   110953    96070   124039   140624 
  186282   281816   344500   304997   188375    36265  -110637  -187815 
 -197832  -204231  -206497  -165924  -102302   -85917  -147981  -217762 
 -237010  -260410  -269781  -143986    73337   250270   376827   445756 
  436933   413193   399809   341805   250968   182669   100382   -18715 
 -110317  -190654  -305421  -375872  -357882  -331629  -339586  -366965 
 -403473  -398313  -296365  -122154    31575   104463   155906   225501 
  242840   181691    68147   -44501   -52199    31505    72173    35375 
  -19663   -69088  -103123   -84248   -21159    26080    49367    45734 
   -5380   -46109   -47655   -71977  -134519  -207715  -267646  -274605 
 -224004  -153547   -70216     3061    10954     4527    53833    83622 
   30673   -48103  -107581  -155441  -152375   -38699   133241   270893 
  343719   307951   162643     2050  -149665  -295305  -356437  -355064 
 -393683  -438598  -426113  -403566  -415728  -426419  -363730  -168148 
  142096   435712   578052   552903   452998   390155   378275   374747 
  383194   349147   201778    13721  -141915  -273381  -379811  -458925 
 -462732  -354631  -247895  -230159  -258193  -287837  -228933   -24731 
  181396   281526   336803   391932   437045   417442   281616    73578 
 -133259  -241432  -200935  -140255  -112117     7198   200051   318989 
  335164   316413   301769   265605   173482    68125    17634    14681 
    9570   -26383   -65444   -50070     9148    63364    95715    72457 
  -17347   -87866   -76473   -25364    34935   118897   199329   250483 
  316913   384902   324445   136905     -772   -68397  -172617  -250146 
 -220689  -160054  -112374   -57522   -34174   -81600  -144019  -142764 
 -104914   -89860   -55311    28433    76034    37442   -14235   -12299 
    9314    -2597   -40536   -92916  -168969  -248826  -291179  -274776 
 -227389  -187247  -140608   -51144    59849    97186    39163     -486 
    8858   -21476   -67715   -37562    32351    92276   194827   333901 
  397829   297688    67412  -102999   -94053   -25261    10264    17077 
  -36683   -85937   -71800   -86936  -127451  -140579  -201145  -311300 
 -371769  -356842  -315355  -292210  -239387   -94295    54045   129836 
  201160   264317   228654    97793   -61168  -189495  -247959  -254377 
 -241037  -194371  -116262   -60091   -43073   -22005    17625    48802 
   51745    17510   -39831   -84812   -96495   -78388   -55523   -45741 
  -35822    -5824    51958   112861   132621    95261    12251   -84944 
 -149838  -164659  -169926  -199688  -206967  -144449   -35961    94795 
  228251   301392   258592   117828   -30015  -112817  -149177  -148284 
  -52272   136387   316858   403554   374753   257183   126601    12466 
 -133292  -245114  -221230  -153285  -112155   -22277   100757   174379 
  189528   122988   -44910  -185218  -169950   -97950   -73988   -62383 
  -86459  -120519   -69021    16319    98999   181006   189544   148449 
  122401   101485    84231    63920    41511    64327   156319   241964 
  220487   124769    25201   -81126  -152513  -148964  -117326   -94115 
  -61649     9480    98198   144227   133757   118929   138933   137408 
   53274   -76239  -185857  -220884  -155173   -32490    73947   109417 
   86020    64559    39576   -21624   -91184  -138671  -165778  -200696 
 -249688  -258589  -229283  -219646  -215889  -177678   -83026    68202 
  194153   207783   113532   -41541  -198479  -298848  -302321  -199322 
  -62395    30964    96851   134970   109230    54753     8151   -53414 
 -119514  -142891  -119064   -79698   -50461   -29104     2552    42108 
   83472   118702   111249    49294   -19109   -48988   -45778   -35719 
  -38224   -44708     2127   111605   186984   149000    20540  -103667 
 -153398  -149040  -125679   -87198   -56754   -56500   -60480   -44120 
  -39407   -84225  -155849  -188651  -154728   -98962   -52296    -9526 
     395   -19596   -10813     8126   -29707  -103497  -154708  -194976 
 -240209  -238016  -157703   -23802   114255   198412   246003   273667 
  230679   165795   155793   162656   155313   127423    71580    33442 
   30617    17735    -9645   -20832   -11794    16357    56391    89868 
  122910   143099   115781    94371   136888   162196   115562    59748 
   -3347  -117149  -245809  -338378  -371078  -334417  -255332  -139912 
   20441   172624   277742   328038   305649   249076   177634    49643 
  -93988  -165917  -135797   -28194    86679   173771   220162   154794 
   -1219  -102552  -118127  -111273   -78092   -37356   -28755    -6351 
