Origin Time       2011/03/11 14:46:00
Lat.              38.103
Long.             142.860
Depth. (km)       24
Mag.              9.0
Station Code      FKS027
Station Lat.      37.0701
Station Long.     139.6807
Station Height(m) 771
Record Time       2011/03/11 14:47:21
Sampling Freq(Hz) 100Hz
Duration Time(s)  300
Dir.              N-S
Scale Factor      3920(gal)/6182761
Max. Acc. (gal)   150.366
Last Correction   2011/03/11 14:47:06
Memo.             
[...]
   -5777    37860    65902    58082    14614   -37172   -58924   -36645 
    8193    38376    28677    -8518   -31124   -13382    29760    64748 
   71310    49090     9757   -25499   -39771   -32113    -7424    23371 
   43725    51237    48405    28408     2898    -3788     7725    22616 
   25919     4643   -27091   -36704   -13947    24158    52293    55783 
   41279    19699    -4844   -24894   -38569   -46158   -29530    17221 
   62380    75686    54176    17188    -2406     9115    33846    52092 
   49374    17935   -22393   -42968   -39315   -19656     8392    28875 
   26063     6916    -4632     3980    22305    32306    28476    16475 
    1493   -12251   -20806   -18952       72    29726    46510    37726 
   15965    -4475   -23877   -44781   -57675   -45342    -6820    33433 
   52500    46965    21271   -12118   -30565   -28472   -22589   -21711 
  -22546   -21983   -16169    -4370    12074    31872    44312    42216 
   35096    27110    12209    -5437   -15126   -10966     8706    31360 
   34012    13397   -14997   -40851   -52167   -34530     1661    30409 
   46469    56948    57726    46145    27511     1035   -31501   -56799 
  -61655   -38260     4053    38693    54166    55213    40651    17053 
    1055    -6378   -11643   -12428    -7236     5778    25330    36125 
   26366      951   -26933   -39953   -26143     8713    41966    48808 
   27319      330   -11917    -9505    -8510   -17578   -25789   -19205 
    7899    45178    67077    59249    27842   -11282   -39675   -46118 
  -27709     4968    26567    29897    32265    41150    47728    36168 
   -2332   -44781   -57912   -37228     7116    58754    84515    68447 
   29447   -12261   -41110   -43744   -25904      975    28469    41214 
   35620    21475     2392   -12955   -11254     4308    17818    15081 
   -1954   -12104    -3845    11761    23222    25789    18822    10252 
    4802    -3243   -11525    -5572    19529    46587    53300    40333 
   22457     2988   -14782   -21329   -18653   -12884    -3004     8267 
   15830    21093    20738     7037    -7606    -2115    18459    35495 
   39130    23849    -1638   -12811    -1739    13879    19187    17648 
   17888    20385    21667    18420     6747    -8143   -13063    -2032 
   24079    52245    55782    28598    -5254   -20692    -8840    15577 
   28818    23707     5374   -14945   -21694   -10353    10578    26969 
   25656    13057    10596    18831    19713    10746     2142    -2249 
   -5994   -15092   -24342   -17558     5662    28346    40368    39267 
   23771      996   -15600   -16077     2092    31590    53792    49277 
   16739   -26382   -60692   -73118   -54655    -6984    46259    77093 
   76110    45097      598   -26815   -31866   -29966   -18861     1581 
   14884    13661     3121    -3230     5960    18920    19859    11885 
   -2930   -26490   -47602   -54147   -42851   -11574    33485    70190 
   77227    56268    27939     8339    -1758   -11184   -24022   -28559 
  -10182    28222    66226    80177    57902     5748   -52741   -87794 
  -84189   -48959    -2444    30784    39485    34994    28694    16523 
   -4452   -24988   -31356   -13690    18441    36127    25930     4822 
   -2052    13083    32447    35721    19702    -8145   -27487   -16384 
   16087    41722    43860    17399   -25834   -57127   -59070   -35695 
    1092    34407    46068    32656     8170    -9738   -10844      504 
    8557     3468    -6088    -3306    11192    22673    29127    32955 
   27402    16890    14775    16253     7815    -5220    -7071      775 
    1556    -9823   -19785   -17472    -9294    -6595    -8265    -3408 
   10935    22033    18834     7250     1489    13462    40012    57146 
   49082    22277   -15440   -51781   -67324   -56864   -24046    22432 
   55595    56986    39325    19030      322   -14433   -19442    -6888 
   16560    29364    28600    27962    31945    42032    51874    38434 
   -6109   -55988   -76187   -51051     2484    50940    70853    54458 
   15878    -9139    -3025     9667     3814   -15203   -29469   -22486 
    5651    33199    47467    49042    35444    12070    -7910   -19143 
  -21823   -14570     2465    22704    34644    28706     4396   -26756 
  -47352   -45715   -21600    11977    34781    41914    45745    48182 
   42340    32251    22737    11746     -646   -11914   -18243   -14010 
    6384    38149    58740    54967    37826    14095   -14943   -34283 
  -32126   -17135    -3519     7797    21172    27744    19626     6644 
     -71     2513    11691    19230    23896    32101    42916    48573 
   40082    16453    -7856   -25612   -43570   -54229   -45768   -24246 
    3671    31244    47579    55887    56542    40581    22519    18726 
   20392    24226    29102    22550     9233     2942     4788    14340 
   25962    28212    18429     1477   -11305    -8014    10931    34411 
   43446    26286       41   -15477   -25292   -27679    -7865    19646 
   25663    12181    -3914   -14679    -9870    13812    38081    43064 
   28233    13451    19229    33607    25092    -7217   -36665   -44102 
  -22301    21106    54853    47214     5399   -28425   -26876    -1851 
   17677    10759   -20457   -45671   -34377     8106    49229    61935 
   45291    23415    14883    14689    15222    13543     1216   -17126 
  -18258     4069    31895    44772    30591    -3357   -36817   -51650 
  -34624     2100    25134    25606    15570    -2524   -19466   -16081 
    6743    32444    46085    38808    19102     1091   -12821   -22644 
  -29916   -33707   -20757    13483    49644    65378    57748    38757 
   14746   -13762   -39351   -53335   -50609   -27168    10777    44904 
   57485    40445     6073   -20939   -36304   -43956   -28983     3781 
   26270    39887    50705    44129    26150     7987   -17361   -36350 
  -24353    14775    56745    70313    41789    -1397   -25398   -26901 
  -22102   -21741   -24660   -27760   -24542    -6908    18775    36695 
   37465    21972     1954    -6913    -1357     7378    11946    17685 
   34249    59786    69430    41259   -10125   -52033   -66174   -48530 
   -6820    33120    47459    40805    30393    21729    13331     3880 
   -7442   -17073   -17318    -7169     -490    -5174    -4279    13890 
   35131    44688    43748    43711    45270    27275   -13456   -43321 
  -39943    -8896    34486    61262    51272    20352    -7112   -20794 
  -16970     2186    28181    50096    59699    56030    39034     9545 
  -15096   -10941    18735    47505    58364    49947    27992     4147 
   -9911   -10985    -1138    16722    33274    36793    23501     2043 
   -4926    14758    41966    53848    46877    30643    17467     8424 
   -1390    -8801   -14079   -20711   -24843   -27121   -27505   -15393 
    9873    34750    47534    40910    18261     -263     1896    17658 
   23998     6444   -18282   -19460     1891    18019    15826     3398 
   -3905     3084    17637    31547    43986    44856    18959   -25504 
  -55740   -47151    -4213    49578    86090    83954    44481    -4682 
  -28142   -16228     3717     3274   -16867   -31757   -18355    12691 
   31954    25804    -5258   -38912   -38447    -5769    21042    24919 
   21109    28537    49826    69896    68332    35642   -12731   -47273 
  -54235   -32660    12338    54957    71894    61908    24461   -26181 
  -55390   -54975   -36162    -2634    21995    14203    -6082   -11800 
    2179    30332    50338    37541    -6663   -50322   -45276    15661 
   76156    89786    56134     2142   -26190   -14800      993     5536 
    7792     6938    12194    23963    15027   -12012   -20918     1278 
   33808    45104    26007     1569    -5339     4392    22751    39421 
   39052    19750      880     -480    14643    32595    36033    21249 
    6866     9854    29037    54290    67052    49988    11445   -23861 
  -40538   -33732    -7951    17904    26198    19908    12624    11933 
   17752    22835    19191     6764   -11500   -26123   -19802     4496 
   24035    29437    24980    15986     6468    -5167   -20603   -33167 
  -29462     -900    35698    46676    27171      542   -25437   -52544 
  -66866   -52929   -12690    37603    81871   104484    90787    50468 
   12232    -8074    -7704     5375    10605     4389     4684    14490 
   23424    25433     9294   -21947   -42719   -48231   -39846     -112 
   54190    78947    66504    31797    -3844    -8587     7859     6492 
   -6252   -14033   -25372   -28329    -8533    23693    56449    69042 
   41575    -6690   -32463   -17656    11733    20236     4706   -13057 
  -15526    -3666     5853    -1369   -19792   -29479   -20935    -2648 
    7547    -7327   -33482   -31340     5431    48865    77033    72272 
   37677     9961     5920     6618    -6333   -38066   -65625   -53754 
   -6905    45855    87259   101051    81374    41137   -16034   -83575 
 -127234  -118371   -58167    30245    98367    97916    32916   -41181 
  -71486   -47923     8127    67018    92036    70430    34616     8293 
   -8296    -6255    10184    17297     3281   -23483   -37618   -22595 
    6668    29504    33407    10036   -22083   -27526    -2149    27411 
   36499    16945    -9836    -6371    24517    37980    16082   -18166 
  -46494   -61321   -49068   -10779    24571    36214    34435    34357 
   35814    30701    14042    -8636   -30111   -47004   -45160   -15006 
   24877    51346    52408    17183   -42625   -81375   -72397   -34302 
    5162    25040    26462    38425    58116    51659    24094    -8619 
  -54657   -92153   -83237   -32797    31200    72149    60754    24558 
    4102    -8652   -22723   -31431   -43354   -53703   -40852    -3956 
   45417    95588   124188   103399    27405   -61891  -106753   -90711 
  -30924    39123    71145    52694    20770    -1680   -18510   -33061 
  -50711   -65028   -54076   -17451    22926    43291    27067    -9319 
  -27645   -20182    -8159    -1239      -36    -6145     -933    33720 
   75920    89300    57925    -8034   -73316  -106282  -102141   -63697 
    -630    58845    96629   107340    77176    22229   -12125   -24397 
  -37191   -40574   -28163    -8598    19383    41480    34633     4307 
  -30217   -52764   -55011   -48432   -40869   -18522    22248    60164 
   73953    58077    21027   -15068   -26381    -9321    11885     1798 
  -40786   -68902   -47827     5346    52933    67840    39553   -14983 
  -55293   -59560   -42223   -16182    15857    37283    39631    34607 
   19778   -12145   -46704   -63637   -48205    -1049    45827    56207 
   29234    -9474   -30937    -8332    52634    97912    85503    25692 
  -43616   -86108   -94930   -83049   -49240     2041    50962    96527 
  136304   130239    52238   -53618  -116481  -109869   -50758    34335 
   98831    88210    17230   -29273    -7794    31071    32794    12516 
    3706    21154    66446   109498   113863    75972    18996   -22162 
  -33427   -29707   -12913    19868    37425    14156   -22629   -35659 
  -20396    12063    43451    53547    49686    57051    71529    67553 
   38709    -6459   -51719   -70904   -57089   -27451     8617    44307 
   59372    46698    25590    12493     7570    12034    33395    61432 
   60127    17111   -23284   -20900     6039    21446    14246    -9889 
  -38396   -48635   -18124    44008    95663   104004    64210    -1751 
  -45018   -34641     5182    29719     9558   -41997   -60205   -13365 
   50545    80887    59106    -5133   -53247   -36398    19719    71398 
  106665   115808    92832    52950     5504   -45162   -74139   -60406 
  -19468    20120    51118    73152    85707   101636   109908    71124 
   -9906   -83983  -118797  -105850   -51927    20350    84845   112617 
   84339    24484   -13007   -10372     2039    10421    23950    33120 
   42643    67650    82387    74088    60595    26309   -33012   -74564 
  -81412   -66019   -35271   -10070    -1105    17185    54062    80103 
   66776    19424   -21158   -24652    -2469    20611    21736     1768 
    6960    53449    85043    64054    14654   -29268   -47664   -37463 
  -15992     8267    39108    79336   134283   173981   139383    26890 
  -97885  -163275  -147583   -80323       24    56080    64640    54025 
   64632    73999    35157   -27843   -46966    -6749    46933    56391 
     201   -75124   -98582   -58485     4721    62424   102084   117699 
  115019    86520    16769   -76482  -154261  -189536  -175243  -125967 
  -58048    24069   109856   185335   235716   231030   155405    33336 
  -87588  -157246  -157033  -103411   -28086    19369    15535    -8881 
  -13781     6322    20616    27581    61878   114047   140758   116685 
   36556   -66216  -125136  -102599    -9880   107908   176440   143088 
   32430   -89399  -170615  -175873   -91524    38947   118288    86950 
   -7015   -66108   -43753    22958    75771    88254    52039     4704 
    1245    11478   -13898   -43601   -30578    28031   100020   132624 
   91030     1164   -65783   -69719   -38868   -11557     2832     3624 
   10204    52050   105792   107570    31594   -75823  -135205  -116015 
  -60821   -18782    -6548   -18649   -23802    12651    82320   132684 
  107771     7215   -98091  -135878   -87663    20318   122471   134789 
   39499   -72735  -103125   -55874     3513    33452     1034   -91102 
 -150421  -124378   -66268      795    73352   100200    74963    47919 
   38946    46920    71657    85302    54898   -10998   -76996  -110662 
  -88371   -15908    59643    86794    47523   -28010   -75259   -56344 
   13994   101868   152389   105959   -25272  -160523  -230035  -201402 
  -72260   104251   219775   191593    42170  -102257  -136191   -91631 
  -23246    67151   123718   110081    84035    68995    35395   -15496 
  -34492    15212    91497   116253    55193   -56205  -141088  -154508 
  -98577    14567   140563   198568   149328    35944   -58671   -83261 
  -49820    12067    75368    94278    48751   -20221   -61041   -62148 
  -41269       11    51093    55488     8778   -22082   -29412   -50630 
  -73722   -56511    14680    98185   131423    88441     -503   -56451 
  -24472    50493    84803    45089   -36755   -77484   -38046    11318 
    7017   -30293   -58150   -44383    21473   102223   144626   120215 
   34306   -54109   -75201   -41848   -10814     4533    10441    19620 
   55040    95951    83066    -4583  -107736  -132023   -51349    71799 
  159113   155488    62757   -30841   -50424   -36021   -42354   -50125 
  -50778   -54811   -33880    10498    26911     7754    -6509      185 
    6670    -5208   -29358   -40791   -20085     9656     6771   -22310 
  -36078   -18555    15686    44258    47780    30416    28900    66142 
  104908    93279    37292   -11278    -8827    45171    99461    97474 
   42321    -5640     2083    47518    73695    53599     1965   -57347 
 -103889  -121566  -100655   -42422    29628    70306    47206   -21773 
  -85867  -107327   -87713   -47074    10536    64888    79881    61679 
   34969     8668   -13314   -33571   -49099   -49456   -28002    22549 
   96045   166703   205956   198826   161014   112294    45934   -38989 
 -125826  -193313  -213472  -181313  -119734   -48120    14327    62848 
  113345   151104   135393    55135   -55330  -136601  -149708   -94124 
     221    72770    86831    71987    78969   124649   157088   105488 
  -12701  -108343  -119265   -65951   -24997   -32221   -67639  -105508 
 -101469   -30331    61945   130185   161029   134479    60956   -13602 
  -70655  -104954   -91789   -26863    52962   109750   123513    73763 
  -29915  -110931  -105862   -36707    47742   104564    88914    15661 
  -47608   -74674   -79054   -57642    -4169    43053    31763   -28224 
  -85780  -108293   -90224   -49634    -9641    19440    37593    50873 
   52780    20307   -46700  -101246   -99014   -51677     8618    62192 
   85969    73311    42155     3137   -35127   -49877   -20185    50991 
  131127   186638   200696   152013    44079   -62119  -119468  -130014 
  -95104   -34870    -2300     -668    15648    52822    86973   107291 
   93962    36569   -18335   -32553   -42381   -77256  -108797  -108998 
  -62216    33806   130900   165193   119569    31332   -30305   -17778 
   52167   112027    93161       -3   -76192   -67377       69    67333 
   87924    33201   -67601  -131817  -111825   -47741      -36    13983 
    4897     8951    52259    97489    99269    55449   -11339   -59001 
  -47983    19847    94650   106527    33494   -54188   -70879   -17383 
   53624   102823    89164     9989   -52114   -42359    -9578     2712 
    6471    -3269   -31134   -41116   -27918   -17377     -592    21141 
   22324    10767     2628    -3318    -2780      637    -7201   -18785 
  -10986    19380    47704    50283    25128   -19038   -55685   -50653 
  -16837    15844    51468    77804    67332    36286    12725      179 
    2664    16529    13889   -23086   -74618   -97083   -60404    18787 
   87134   105038    72676    11747   -38606   -37544     9098    52836 
   52250     7187   -46556   -73554   -58615   -17120    16157    31490 
   44515    61123    67785    48281    12046   -10769    -2514    32186 
   63200    43370   -25675   -70137   -47393     3892    37622    41094 
   31742    37921    48746    17111   -64565  -133750  -126867   -37300 
   98479   206602   203506    86760   -46971  -105686   -81318    -7256 
   79719   106727    38932   -31567   -20596    18810     8096   -36590 
  -64937   -60677   -23381    27460    59152    65356    55506    32468 
   -9760   -78176  -148718  -168892  -114965   -17571    75470   129472 
  117733    37459   -58991  -105202   -93290   -41832    41172   104810 
   94195    39522    -4624   -34136   -45552    -4950    77854   133738 
  120023    42772   -54350  -100000   -68875     2487    71029   103149 
   98072    90044    86673    58976      467   -55008   -71546   -36301 
   32050    87824    95866    52606   -17348   -66149   -66595   -34749 
   20032    92894   136144   111060    51414    13893    10304    14546 
   12647     9743     4159     4105    17996    18824   -12866   -45548 
  -28296    43325   105411   100037    29271   -65363  -121695  -101743 
  -28828    56935   125671   147575   121472    71887     9413   -58729 
 -109567  -116725   -75751   -15487    40722    93590   125820   110299 
   55733    -4993   -40736   -35102     3640    53249    78735    51958 
    1457   -28062   -41814   -48154   -30991    10769    67411   119915 
  127072    67553   -24932   -90622   -93459   -47362     3603    28934 
   29437    25061    25409    10773   -29598   -59187   -37994    23734 
   81111    95148    59423     6883   -25664   -34534   -28338      180 
   55286   110094   117014    62228    -6002   -41601   -52076   -53668 
  -51851   -55778   -43299    15547    93582   146817   153180    98123 
    5234   -69572   -99253   -84928   -31188    36985    74836    64772 
   28824    -6271   -18920    -7458    -3932   -29723   -67604   -82280 
  -54947   -14669      211    -1006     5096    21956    46397    51367 
    3780   -65932   -93509   -67814   -17953    32764    63296    67465 
   56362    29414    -8378   -40689   -59765   -40171    30828    87726 
   65712     9209    -2031    18242    13443    -5893   -10489   -12518 
  -13177    -1434     1696   -14487   -21513    -9565    -4702   -15669 
  -20107    -2570    31372    59131    47041    -4548   -46038   -48289 
