Origin Time       2011/03/11 14:46:00
Lat.              38.103
Long.             142.860
Depth. (km)       24
Mag.              9.0
Station Code      FKS027
Station Lat.      37.0701
Station Long.     139.6807
Station Height(m) 771
Record Time       2011/03/11 14:47:21
Sampling Freq(Hz) 100Hz
Duration Time(s)  300
Dir.              U-D
Scale Factor      3920(gal)/6182761
Max. Acc. (gal)   65.762
Last Correction   2011/03/11 14:47:06
Memo.             
[...]
   -1168     3074     8820     6092    -5638   -21237   -32208   -31388 
  -21890   -12360    -7960    -4781     2968     9820     9243     3854 
   -4509   -14820   -21196   -19436    -9544     8362    25517    22335 
   -3352   -27341   -38003   -49488   -58650   -43959   -19924   -15476 
  -14019     6172    26310    28353    17359     1457   -13244   -22359 
  -22203   -14778   -12076   -14898   -11043    -1249     4837     5472 
    3995     4595     7380     5407    -1940    -6594    -9411   -17260 
  -25417   -22710   -10814    -6125   -13557   -14888    -4901    -3115 
  -13441   -19113   -12586     1046    12623    11440    -3377   -14677 
   -9495    -3217   -15349   -34106   -37357   -30426   -29082   -26133 
  -10328     1897    -6967   -20467   -16797    -1659     5943    -3334 
  -15932   -10850     1879    -4573   -23570   -28330   -19678   -13325 
   -4370    12593    19751     8083    -4948   -10684   -16263   -15966 
   -5148      566    -5803   -15412   -22225   -17419    -1590     3547 
   -8198   -14381    -1583    16871    25748    27078    22839     8052 
   -9040   -15212   -11122    -5988   -14202   -36485   -43247   -20879 
   -1655    -5465    -7079     8652    17005     2316   -12346    -7456 
    2087    -4002   -22942   -37006   -36654   -31919   -35729   -40209 
  -30765   -14440    -2959     4846     3294   -13681   -29712   -26817 
  -13649   -10978   -19956   -22436   -13064    -6740    -7013    -2532 
    2943     -833    -5771    -5243    -7065   -11813   -13572   -10946 
   -2732     5781     5222    -3879   -14903   -19688   -15199   -12600 
  -21774   -32430   -25152    -4574    -1584   -20670   -28214   -14466 
   -3310    -5586   -14145   -18110    -9731     4583    10967     7099 
    4845     8747     2945   -17470   -27590   -14382     1583    -1097 
  -21122   -36217   -27683   -10416   -11289   -26730   -35864   -34511 
  -32062   -34737   -38067   -34041   -29213   -33319   -37435   -32743 
  -27490   -28370   -28466   -20320   -10395    -8126    -9199    -8742 
   -6864     1501    13120    14344     3310    -8043    -9908    -3765 
     159    -5794   -14291   -12837    -8380   -14953   -23519   -17328 
   -4348    -3796   -11340    -8899     -597    -2820    -7406     2227 
   15404    16596    11774     8096     1465    -7873    -9376    -1445 
    2786     -584    -4133    -5538    -7861   -16446   -25734   -19445 
   -3904        1    -1066    10926    21216     3430   -23938   -23924 
   -7578    -2841    -4837    -7319   -18957   -31761   -27015    -8712 
    3999     1962    -7909    -9951    -4789    -9091   -20794   -26536 
  -28517   -30337   -24062    -6002    11018     9078    -9519   -20328 
  -15576   -18444   -34404   -37458   -23299   -16365   -24242   -33234 
  -35653   -31241   -20393   -10882   -12979   -24080   -28313   -21492 
  -20570   -27209   -24552   -17997   -20986   -19232     -255    15413 
    6587   -16449   -30661   -33194   -34769   -33827   -26188   -20005 
  -22264   -25278   -18457   -10773   -17335   -29310   -27555   -11375 
    5965    14922    11684    -3474   -15006    -7827    -4000   -22426 
  -29515    -9983    -7602   -31487   -30129     2966    11590   -13726 
  -23546    -7716     1125    -4169   -12018   -21769   -23318    -5050 
    8055    -6971   -21450    -9171     6381     4606     1000     2690 
   -4417   -15887   -15024    -9386   -14101   -25979   -35733   -34006 
  -17267     2216    17628    30537    28301     8859    -1432     7161 
    9756    -2930    -1322    21692    27971     8005   -10202   -18822 
  -21739   -16939    -9755    -6345    -9236   -19614   -29820   -30971 
  -30525   -35799   -29853    -7150     3932    -4181    -7918    -8384 
  -21480   -28264    -5357    21647    17967     -391     1162    19324 
   23442     2980   -18688   -21433   -12508    -6309    -8368   -18644 
  -31327   -33901   -24653   -18094   -11947     6955    18456     -159 
  -21569   -16763   -10738   -27563   -38814   -22433    -9534   -23440 
  -35574   -20946      651     3552    -3078     1682     9366     3860 
   -7127   -13573   -15190   -11448    -2382     6791     8871     3592 
   -6838   -20993   -30220   -26086   -14537    -9695   -10524    -4637 
    1788    -1507    -2692     5558    12004    12856    13998    14693 
   13516    13188    10764     4884     2093       88    -7303   -12467 
  -10429    -9193    -9084    -2203     5859     2643    -6394   -10193 
  -15048   -23140   -19581    -5211    -2298   -13547   -19133   -16874 
  -16520   -14463    -8128     1275    15322    27411    32877    32588 
   18388    -7454   -24729   -29383   -34784   -41540   -40985   -37242 
  -34801   -23300    -2453     8602     -784   -19785   -30918   -28002 
  -17432   -12166   -19430   -26920   -17484     9645    32463    22097 
  -11111   -23899    -5773    17120    23878     9498   -12969   -20524 
   -9190      405    -7334   -16021    -4818     5535    -5209    -9149 
    4887     1651   -23338   -29013    -1978    15995   -10960   -48493 
  -41335    -5716     8602     1442      818    15944    32470    27112 
     115   -19467   -17170   -11959   -17821   -15873     8298    28176 
   16998    -6468   -12477   -10616   -22865   -33789   -21732    -2813 
    3564     2369    -4281   -21294   -36193   -32173   -18134   -10628 
   -5917     -107     -511    -1378     6659    13630    11020     4627 
     612     5285    16317    17938     6622    -7065   -15568   -18180 
  -21211   -27424   -34326   -40819   -42752   -36135   -22789   -10974 
   -8919   -14365   -20659   -20234    -6776    10349    17721    17316 
   14509     7963    -1394    -6543    -5296    -3211    -5095   -13603 
  -19209   -10142    -6705   -25891   -36188   -18420    -6873   -19326 
  -24031    -8423    -5596   -26329   -36095   -18531      198    -4221 
  -23907   -31165   -15786     -798    -3565    -9831    -7378    -5415 
   -6086     1443    11259     2134   -22900   -32291   -17896    -9075 
  -18048   -21323    -8859    -2739   -10144    -8017     8580    15969 
    6568    -4504   -11496   -16483   -17313   -19936   -27917   -26332 
  -11316    -5943   -18555   -23833   -10610     -650     4309    22231 
   22937   -24725   -56700   -14840    33771    16954   -25031   -28798 
    -724    18305    11878    -7609   -25673   -32571   -20974    -4141 
   -2256    -7349    -6844    -2738     5565     8858      843     1126 
   10991     3390   -15751   -11352     3715   -13172   -39888   -27869 
    1855     8076     6056    18505    22509     -867   -27027   -28381 
   -6462    13523     6360   -14266   -13135     5255    12641     4379 
  -10214   -18297   -11523    -5194   -12646   -17873   -12808   -18658 
  -35791   -32527    -5330     7800   -14826   -45393   -46198   -18814 
   -1966   -19506   -39010   -26728    -5171      125       -7     4554 
    8628    14021    20845    11527    -9079   -11724    -4347   -11755 
  -18797    -7533      -65   -10272   -18627   -24200   -38686   -49197 
  -47286   -36566   -15377     5139    10079    10787    22393    29573 
   15212    -5849   -16473   -17308    -9062     4091     7860    -6552 
  -27287   -29238   -12526    -5793   -13556   -16968   -15653   -19637 
  -30909   -40428   -34302   -21249   -23288   -38443   -45132   -26372 
    3064    11559    11895    28357    32302     5654   -13925    -7859 
   -4673   -11016     2445    31685    39680    18939   -13238   -39278 
  -44011   -32265   -18391    -1870    17755    30205    25788     7790 
   -8595   -20912   -31517   -26240    -9719    -3299      466    10862 
   19178    23733    15641   -11490   -30629   -22058    -5299    -2374 
   -9984   -17354   -25082   -32583   -35511   -34331   -23373    -1706 
    8966    -7273   -31383   -38806   -38392   -42158   -30516     6281 
   29214      384   -43326   -35425     5570     7702   -23991   -30720 
  -17704   -20602   -19118     4663     8986   -30242   -65881   -56305 
  -32927   -32491   -29921    -6123     3689   -19796   -40579   -28011 
   -4416    -5690   -29126   -44749   -43420   -44488   -43828   -15817 
   14254     2624   -17359     1475    18846    -4648   -20466     3240 
   16741    -5548   -19079     1250    22285     9613   -23246   -35453 
  -28447   -33955   -39490   -24840   -13809   -18759   -16628     5099 
   28799    29669    15663    17473    23786     -700   -38150   -46190 
  -25500    -4966    -3569   -14807   -20016   -17461   -15703   -18105 
  -20974   -14569    -7257   -14811   -17526    -4308    -8146   -28246 
  -26146    -8970    -5355    -6317      -91     -561    -6379     4038 
   21830    12412   -19378   -28137   -10686   -13295   -41805   -56506 
  -45121   -25725   -11106   -10140   -20928   -24829   -23637   -32349 
  -35524   -20274    -5075    -5245   -19198   -29326   -22019   -20138 
  -38574   -44212   -17201     9875     5855    -7971     5939    30874 
   18404   -21886   -31029    -6329     1377   -12048   -17205   -14523 
  -17074   -31241   -49182   -43955   -12211    12023     4263   -25526 
  -44826   -31298      -25    16588    11264     5006    10012    12975 
      71   -14223    -4505    17027    15296   -11589   -35596   -35433 
  -16573    -7676   -22147   -36857   -28753    -5674     5127    -8594 
  -22869   -17258   -10678   -18258   -23095   -18869   -22244   -25965 
   -9457     3739   -12701   -29861   -21591    -5879    -1298    -1285 
    5499    13428    15161    12870     1686   -19737   -35964   -34951 
  -21227    -5470    10554    31253    40625    15236   -22847   -27983 
   -1796     8356   -16997   -36038   -24145   -15484   -28139   -45562 
  -52232   -39029   -16387     3775    18580    18330    15033    17696 
    2507   -23505   -31380   -24312   -11674     -833     -194    -2022 
   -2345     -106     8811     9780      318    -1441     2584     8639 
   19455    22157     9511   -11475   -30500   -28504     4305    39317 
   35232     1959   -13323   -12576   -31319   -56884   -48197     2206 
   44609    23447   -20604    -5052    40092    28859   -16976   -19310 
   11858    16096    -7663   -15107     6552    30547    39307    36490 
   25324    13680    13865    13405    -6314   -22019    -1946    32461 
   38421    19587     8346     4594    -9857   -26431   -29265   -22935 
  -22527   -25611    -3968    37765    47530    19063     -168     -121 
    1180    10208    19631     1563   -33647   -49391   -26529    21406 
   46854    23139   -11889   -18047   -10781   -17080   -25544   -10056 
   20128    18419   -24365   -45627   -12135    16094    -9368   -37778 
  -20569    -5027   -22416   -21705    11093    26103     8778    -7158 
    1245    20825    23287    -1872   -37789   -55156   -42367   -21479 
  -13348      951    34799    51756    37522    17875   -17795   -69472 
  -82037   -47176   -14721    -5136    -9404   -15424   -22446   -41036 
  -51674   -47117   -62554   -79991   -57897   -17694    14168    35324 
   42666    33107     9397    -8268   -11015   -15832   -26531   -34712 
  -37547   -32742   -19482    -2070     7447     4864     8037    19781 
   14461    -5180    -5175    10088     2224   -25237   -32812   -15582 
    -612     7561    27235    52267    52793    23896    -8329   -23077 
  -28115   -41222   -53895   -51843   -43931   -31698    -3767    36608 
   66542    59237    22793     -258     7409    15672    -7396   -36563 
  -20223    15725     2732   -39032   -44771   -32139   -47586   -61418 
  -35809    -7187   -11846   -23167   -14321    -3079    -7657   -15852 
  -12368    -3252    -7803   -26863   -33829   -23528   -23946   -38393 
  -38285   -18593    -8942   -21845   -32704   -26800   -12378     8150 
   19369     4197   -13072   -12518   -11642   -18145   -18207   -13296 
  -18298   -22577     -747    29225    21177   -14019   -20293     4792 
    9827   -13030   -13751    22669    46978    27039    -9343   -27614 
  -22250    -9900   -19737   -52717   -67389   -43152   -16148   -23507 
  -47021   -44739   -12976    11858     5178    -9838    -4814     3395 
   -7093   -24372   -35625   -39894   -24910     4859    12542    -3776 
  -19235   -34898   -37964   -22575   -24265   -36726   -28805   -30818 
  -59034   -63542   -24305    19286    29843    10473   -11114   -33269 
  -52621   -30120    19294    31112     9868    -6038   -20836   -40532 
  -47889   -34186   -19929   -19399    -5811    25416    21558   -30584 
  -56489   -10721    30784    -6330   -58751   -45960   -21207   -47306 
  -65304   -38117   -21051   -25737   -22105   -12643   -20285   -55597 
  -79891   -58030   -15103    14639    24749    36420    49085    19051 
  -35444   -41411   -12505   -10877   -22974    -4745    24709     9941 
  -42369   -62450   -39296   -23002   -17942   -11614   -19500   -37156 
  -43352   -32028    -6289    20102    22910     3637   -10868   -18640 
  -32397   -42177   -32020    -1492    26426    22823     1247    -8730 
  -12896   -13253    -2180     5451    12845    31811    36546    17810 
   -3421   -19117   -22194   -20579   -35220   -47787   -30574    -7617 
  -14605   -33360   -30662   -16292   -15040   -33351   -50755   -42813 
  -27549   -20879    -4295    10182     -630   -22210   -32220   -16469 
    3733   -11221   -28636    -1177    25212     7396    -7515     7889 
   11601    -8678   -17821    -2248    16712    20215    14388    14332 
   22665    26161    13903      241     3101     7948    -8521   -31392 
  -28564    -7054     1311   -12995   -37811   -48899   -30828   -11107 
  -17067   -24018    -9108     -304   -21881   -41802   -28598    -5331 
    4302     2806    -9035   -10279    28759    81096    94144    67177 
   34416    17662    16616    13817      202    -9687   -10965   -18071 
  -27698   -28531   -31045   -45094   -55103   -35235     1310     3725 
  -22199   -16602    15102    22343    11882     6931   -12867   -59743 
 -101824  -101930   -62208   -22584   -17413   -28733    -6784    44083 
   72783    65310    47529    45478    57576    47295    -6345   -66861 
  -85762   -64848   -42672   -36621   -30138   -21578   -32727   -52878 
  -47977   -24389   -21917   -44317   -48801   -21320     4664    12822 
   22704    40922    50410    46533    31437     2961   -24058   -26767 
  -14340   -17838   -40022   -57714   -48311    -1116    49047    40054 
  -12748   -33739    -9577    25627    44774    29393     1907     3659 
   23584    20095    -7030   -14760     8584    14376    -8053    -9117 
    7641    -3630   -30270   -27518    -5422    -3431   -15307   -15694 
   -7899   -10578   -31566   -51960   -54646   -45470   -24101    11171 
   42706    47331    21075   -10498   -25875   -28809   -21702   -11121 
  -11433   -13998    -9244    -6421    -8210   -16413   -30978   -40813 
  -41601   -37427   -34517   -29071    -5153    30656    48322    40162 
   23165     2533   -20568   -33117   -33247   -26226   -12653    -7066 
  -13708    -8860    13012    28536    15567   -17744   -41828   -51900 
  -48544   -27447   -15042   -24772   -31064   -25865   -27246   -34009 
  -22053     3827     4782   -21339   -33829   -18860     1440    16471 
   34035    47481    43482    28224    14023    10136     6924   -27466 
  -71017   -60906   -20313    -9169   -13606   -11254    -6561    -4713 
  -24390   -52186   -45642   -23189   -28588   -44393   -44643   -45118 
  -41695   -14453     9770    12112    18730    24819     8759    -5370 
     833     5354    -5409   -19904   -24936   -16933    -7181   -13718 
  -29609   -24576     3712    19338     6081   -10995   -16369   -23301 
  -28940   -15036     4771     4157   -10347   -10485     6886     6254 
  -20563   -28481    -9526   -11276   -34082   -34000   -13606    -4893 
  -12892   -19754   -16255   -10764   -10558   -24951   -43856   -33051 
  -10726   -21285   -41153   -29592   -13282   -37415   -74223   -68256 
  -34689   -11244     4148     8987    -3690   -16992   -24532   -33972 
  -36998   -27091   -21977   -32236   -38539   -31232   -21510   -12445 
   -9253   -13251   -10524    -8807   -21935   -37417   -48637   -57745 
  -56309   -35142     4868    36393    25167   -16412   -45806   -45411 
  -27299   -13874   -17265   -19771     3827    32103    23832    -2927 
  -14166   -22425   -27244    -5967    26402    45101    52273    44125 
    9607   -33952   -64655   -82003   -72062   -28107    10168    25446 
   47833    66980    41556   -19148   -66207   -59486   -15703     5932 
   -3100    -6450     8611    17826    -4518   -20417    16525    62491 
   59887    22409     -206     6776    -1376   -35526   -38240    -5100 
   13939    21673    32799    13760   -37769   -63893   -47597   -31984 
  -27246    -7064    19215    21910    10055     6802     3264    -7461 
   -6535     8753    23346    29107    21623     6281    -7090   -20525 
  -41391   -60294   -56578   -41713   -33563   -13168    12972     6172 
  -19797   -23942   -11593    -1226    13639    26730    16698    -7221 
  -15418    -4414     1382       74    13771    23550    -7547   -55263 
  -64647   -41458   -35610   -45016   -27987    12575    37735    35800 
   24518     8055   -17464   -36084   -38472   -32219   -16264     3219 
    8786     1233    -4502      208     8997     6797    -3311     1119 
   13758     -395   -32866   -38045   -18395   -17265   -38225   -43699 
  -20634     7201    18484     9961    -7261   -13129    -7875   -21895 
  -50019   -43980    -7271    11441     1932   -10452   -12421    -6063 
    7280    17411    15275     6512    -1405    -1031     6096     5928 
   -2559    -4566    -4183   -10963    -1289    34326    55251    31411 
  -10936   -29570   -23154   -13721    -7034    -9172   -29181   -41646 
  -23506    -9705   -27931   -47506   -42783   -22855     1143    13592 
    6575     3794     8531     1622     2975    21607     9718   -36971 
  -48407   -13713    -1312   -25682   -33550    -6074    15370    -5616 
  -38991   -29505     8533    19689    -4797   -35573   -47825   -38173 
  -25031   -19424   -12848    -4291    -2704    -7963    -8739    -4277 
  -13874   -32184   -28784   -11522    -6990    -2351    19201    34460 
   22561     1224    -9719   -19667   -33492   -33318   -23456   -26815 
  -36760   -35600   -30926   -28042   -10649    10203     1701   -24545 
  -36588   -28241    -5450    10618    -4366   -30975   -35797   -33749 
  -42613   -34640     -591    25443    30507    29162    20074    -3251 
  -18419    -1839    17640    -3382   -40018   -37963    -8356     5155 
    3951     4385     1311     2526    14158    15775     4941    -8049 
  -26942   -39299   -25952    -2501     4148     4948    25008    50523 
   52134    29731     2967   -16853   -34101   -44559   -37013   -30765 
  -45342   -54349   -38025   -19398    -9986     8110    34912    39231 
    8135   -28519   -40502   -25708    -2001    12302    22330    37444 
   38134     7500   -21850   -17673   -15984   -40603   -52643   -47715 
  -56300   -67958   -50515    -4703    32779    38557    17272   -24295 
  -59171   -51792   -22173   -10758    -5107    20511    43410    20496 
  -31655   -45568   -20791   -24265   -53596   -45707    -3613    18519 
    4359   -13919    -3543    10432    -8541   -19657    10497    21246 
  -23570   -65613   -58941   -25688   -11552   -34061   -52181   -24424 
   12099     2559   -27380   -29509   -16896   -12091   -14276   -19763 
   -9540    19186    37917    40548    38473    22414   -13812   -46061 
  -52560   -36925   -17652   -21171   -39533   -26795    15136    35936 
