Origin Time       2011/03/11 14:46:00
Lat.              38.103
Long.             142.860
Depth. (km)       24
Mag.              9.0
Station Code      GIF001
Station Lat.      36.2743
Station Long.     136.8979
Station Height(m) 481
Record Time       2011/03/11 14:49:13
Sampling Freq(Hz) 100Hz
Duration Time(s)  133
Dir.              N-S
Scale Factor      3920(gal)/6182761
Max. Acc. (gal)   4.384
Last Correction   2011/03/11 14:48:58
Memo.             
[...]
  -21684   -21683   -21713   -21737   -21811   -21912   -21960   -22014 
  -22134   -22268   -22395   -22551   -22705   -22863   -23063   -23214 
  -23304   -23398   -23466   -23551   -23638   -23667   -23724   -23768 
  -23734   -23694   -23606   -23458   -23343   -23288   -23306   -23349 
  -23372   -23436   -23532   -23563   -23560   -23604   -23657   -23685 
  -23755   -23901   -24034   -24105   -24226   -24388   -24436   -24429 
  -24482   -24493   -24459   -24494   -24535   -24519   -24508   -24505 
  -24497   -24472   -24379   -24319   -24321   -24227   -24117   -24103 
  -24055   -24015   -24063   -24082   -24079   -24081   -24012   -23969 
  -23958   -23840   -23712   -23651   -23513   -23318   -23169   -23013 
  -22849   -22727   -22649   -22604   -22533   -22440   -22410   -22385 
  -22301   -22276   -22317   -22298   -22278   -22275   -22224   -22188 
  -22154   -22122   -22184   -22262   -22277   -22279   -22274   -22261 
  -22290   -22341   -22402   -22489   -22511   -22462   -22451   -22433 
  -22341   -22279   -22332   -22415   -22465   -22504   -22585   -22717 
  -22847   -23030   -23250   -23389   -23553   -23779   -23926   -24068 
  -24297   -24531   -24715   -24821   -24879   -24971   -25059   -25095 
  -25119   -25172   -25278   -25382   -25419   -25448   -25466   -25417 
  -25385   -25395   -25375   -25368   -25422   -25486   -25513   -25534 
  -25585   -25594   -25529   -25461   -25460   -25503   -25482   -25437 
  -25432   -25312   -25103   -24992   -24915   -24789   -24667   -24576 
  -24512   -24435   -24295   -24143   -24049   -23967   -23860   -23808 
  -23815   -23734   -23581   -23460   -23329   -23194   -23079   -22952 
  -22829   -22703   -22566   -22420   -22300   -22249   -22208   -22153 
  -22100   -22048   -22030   -22010   -21947   -21904   -21925   -21952 
  -21925   -21885   -21840   -21764   -21697   -21664   -21663   -21672 
  -21626   -21545   -21516   -21505   -21406   -21250   -21138   -21010 
  -20846   -20779   -20828   -20922   -21055   -21191   -21283   -21368 
  -21494   -21622   -21737   -21900   -22110   -22341   -22520   -22599 
  -22748   -22998   -23124   -23147   -23208   -23240   -23188   -23138 
  -23192   -23331   -23421   -23463   -23527   -23543   -23516   -23545 
  -23603   -23663   -23825   -24057   -24189   -24240   -24350   -24495 
  -24563   -24577   -24657   -24783   -24845   -24856   -24891   -24958 
  -24999   -24961   -24861   -24729   -24591   -24484   -24371   -24227 
  -24094   -23947   -23789   -23634   -23458   -23347   -23315   -23256 
  -23218   -23276   -23316   -23290   -23332   -23477   -23580   -23598 
  -23680   -23853   -23944   -23958   -24022   -24079   -24099   -24172 
  -24254   -24296   -24328   -24352   -24411   -24493   -24564   -24686 
  -24838   -24934   -25007   -25095   -25147   -25145   -25169   -25237 
  -25324   -25419   -25486   -25573   -25697   -25728   -25709   -25724 
  -25676   -25541   -25380   -25216   -25052   -24878   -24748   -24672 
  -24558   -24407   -24256   -24074   -23881   -23720   -23590   -23453 
  -23335   -23261   -23107   -22912   -22813   -22717   -22637   -22610 
  -22520   -22410   -22345   -22301   -22272   -22249   -22275   -22309 
  -22257   -22226   -22273   -22247   -22144   -22094   -22092   -22092 
  -22079   -22083   -22153   -22224   -22340   -22571   -22739   -22881 
  -23109   -23204   -23182   -23237   -23268   -23289   -23387   -23428 
  -23384   -23289   -23079   -22820   -22633   -22535   -22484   -22408 
  -22305   -22250   -22231   -22239   -22359   -22578   -22788   -22891 
  -22847   -22752   -22701   -22743   -22954   -23326   -23779   -24189 
  -24431   -24530   -24511   -24364   -24253   -24278   -24300   -24262 
  -24287   -24337   -24236   -24042   -23892   -23739   -23526   -23294 
  -23088   -22878   -22611   -22364   -22186   -22087   -22219   -22588 
  -22863   -22855   -22683   -22373   -21946   -21658   -21637   -21863 
  -22273   -22534   -22439   -22244   -22136   -22100   -22177   -22410 
  -22744   -22986   -22920   -22546   -22089   -21864   -21962   -22237 
  -22657   -23106   -23293   -23268   -23261   -23232   -23182   -23234 
  -23314   -23402   -23679   -24144   -24526   -24519   -24104   -23647 
  -23472   -23531   -23619   -23619   -23587   -23680   -23750   -23532 
  -23248   -23233   -23398   -23419   -23186   -22891   -22592   -22146 
  -21691   -21620   -22007   -22511   -22752   -22525   -22064   -21826 
  -21864   -21915   -21880   -21897   -22097   -22388   -22384   -21755 
  -20945   -20915   -21871   -23177   -24380   -25200   -25223   -24441 
  -23352   -22445   -22011   -22294   -23361   -24605   -25128   -24720 
  -23894   -23216   -22926   -23115   -23784   -24555   -24831   -24494 
  -24070   -23996   -24305   -24864   -25387   -25642   -25610   -25315 
  -24761   -24010   -23349   -23278   -23954   -24834   -25387   -25530 
  -25163   -24394   -23698   -23327   -23443   -24137   -24767   -24599 
  -23750   -22656   -21754   -21490   -21825   -22615   -23839   -24918 
  -25189   -24592   -23413   -22234   -21756   -22264   -23319   -24159 
  -24465   -24266   -23608   -22797   -22230   -22093   -22403   -22928 
  -23293   -23277   -22875   -22342   -22020   -21948   -21906   -21760 
  -21612   -21674   -21892   -21812   -21205   -20533   -20468   -21128 
  -21966   -22534   -22833   -22822   -22494   -22132   -21904   -21913 
  -22334   -23169   -24237   -25010   -24947   -24345   -23848   -23665 
  -23969   -24843   -25749   -26084   -25859   -25357   -24703   -24020 
  -23528   -23328   -23566   -24393   -25355   -25683   -25294   -24640 
  -23855   -23102   -22995   -23662   -24437   -24634   -24151   -23730 
  -23862   -23929   -23694   -23795   -24333   -24818   -24922   -24648 
  -24322   -24178   -24069   -23905   -23868   -24072   -24483   -24910 
  -25019   -24758   -24181   -23339   -22847   -23155   -23823   -24460 
  -24984   -25305   -25419   -25073   -24123   -23179   -22830   -23010 
  -23315   -23648   -24271   -24807   -24539   -23857   -23497   -23343 
  -23223   -23069   -22603   -22089   -22035   -22399   -22988   -23430 
  -23412   -23284   -23253   -23024   -22659   -22652   -23142   -23493 
  -23204   -22754   -22659   -22862   -23325   -23677   -23358   -22671 
  -22001   -21135   -20352   -20323   -20973   -21662   -22140   -22470 
  -22479   -22064   -21458   -21071   -21095   -21115   -20961   -21135 
  -21732   -22488   -23229   -23519   -23158   -22426   -21474   -20746 
  -20791   -21240   -21684   -22358   -23068   -23239   -22664   -21554 
  -20762   -21033   -21786   -22142   -22096   -21963   -22150   -22872 
  -23504   -23362   -22693   -22162   -22145   -22460   -22608   -22609 
  -22697   -22555   -22272   -22548   -23411   -24329   -24806   -24445 
  -23407   -22233   -21309   -20974   -21409   -22441   -23721   -24727 
  -24813   -23756   -22225   -21335   -21543   -22390   -23342   -24094 
  -24428   -24353   -23866   -23122   -22821   -23256   -23843   -24053 
  -23855   -23517   -23208   -22784   -22357   -22350   -22753   -23193 
  -23380   -23294   -23243   -23234   -22929   -22450   -22153   -22261 
  -22818   -23464   -23755   -23555   -23045   -22727   -22929   -23207 
  -22953   -22449   -22380   -22697   -23021   -23312   -23526   -23643 
  -23714   -23503   -23078   -22976   -23160   -23196   -23134   -23158 
  -23243   -23404   -23619   -23907   -24384   -24814   -24898   -24754 
  -24466   -24027   -23658   -23507   -23442   -23345   -23240   -23179 
  -23312   -23844   -24663   -25384   -25679   -25370   -24805   -24621 
  -24802   -25036   -25159   -24924   -24416   -23986   -23795   -24008 
  -24525   -24918   -25131   -25261   -25077   -24616   -24237   -24005 
  -23912   -24039   -24165   -24069   -23931   -23870   -23727   -23501 
  -23465   -23813   -24274   -24494   -24614   -24744   -24693   -24461 
  -24122   -23741   -23615   -23777   -23970   -24278   -24669   -24793 
  -24737   -24651   -24444   -24417   -24851   -25419   -25712   -25565 
  -25131   -24859   -24778   -24561   -24370   -24498   -24867   -25268 
  -25487   -25522   -25478   -25218   -24754   -24411   -24359   -24496 
  -24703   -24900   -24886   -24681   -24452   -24044   -23646   -23627 
  -23707   -23829   -24276   -24822   -25205   -25326   -24937   -24128 
  -23334   -22799   -22745   -23352   -24284   -25005   -25323   -25234 
  -24740   -23995   -23405   -23297   -23558   -23894   -24075   -23920 
  -23548   -23262   -23319   -23875   -24519   -24786   -24883   -24760 
  -24100   -23314   -23021   -23387   -24190   -24851   -24995   -24812 
  -24577   -24441   -24307   -23987   -23827   -24213   -24797   -25072 
  -24999   -24803   -24661   -24612   -24526   -24218   -23773   -23573 
  -23863   -24441   -24966   -25382   -25712   -25713   -25321   -24982 
  -24969   -25008   -24863   -24788   -25096   -25614   -26014   -26278 
  -26508   -26639   -26540   -26221   -25789   -25390   -25243   -25489 
  -25923   -26163   -26026   -25664   -25453   -25433   -25234   -24870 
  -24738   -24904   -25029   -24865   -24488   -24151   -24137   -24510 
  -24907   -24926   -24623   -24223   -23871   -23854   -24195   -24502 
  -24581   -24454   -24162   -23732   -23132   -22666   -22889   -23835 
  -24945   -25739   -26147   -26183   -25934   -25777   -25919   -26213 
  -26490   -26565   -26428   -26355   -26381   -26185   -25754   -25598 
  -25864   -26098   -26117   -25975   -25638   -25309   -25162   -25091 
  -25098   -25156   -24989   -24680   -24631   -24804   -24907   -24794 
  -24556   -24568   -24914   -25295   -25639   -25811   -25558   -24993 
  -24353   -23878   -23720   -23736   -24045   -24924   -25955   -26454 
  -26290   -25631   -24808   -24282   -24159   -24401   -25001   -25551 
  -25618   -25308   -24921   -24564   -24334   -24383   -24494   -24372 
  -24251   -24420   -24758   -24983   -24836   -24360   -23968   -23855 
  -23869   -23941   -24081   -24300   -24508   -24485   -24336   -24210 
  -23860   -23371   -23021   -22679   -22301   -22051   -22101   -22554 
  -23091   -23317   -23249   -22986   -22573   -22104   -21665   -21380 
  -21354   -21462   -21584   -21691   -21664   -21602   -21687   -21741 
  -21691   -21755   -21935   -22095   -22153   -22194   -22518   -23039 
  -23365   -23507   -23515   -23239   -22811   -22485   -22422   -22788 
  -23528   -24312   -24788   -24669   -23951   -23032   -22387   -22355 
  -23089   -24136   -24558   -24009   -23011   -22198   -21975   -22301 
  -22762   -23181   -23436   -23203   -22648   -22300   -22160   -21970 
  -21840   -21950   -22188   -22410   -22611   -22849   -23278   -23837 
  -24029   -23724   -23523   -23700   -23971   -24204   -24412   -24602 
  -24667   -24285   -23665   -23569   -24053   -24570   -24864   -24846 
  -24577   -24231   -23863   -23754   -24072   -24316   -24189   -23926 
  -23535   -23097   -22938   -23033   -23328   -23917   -24451   -24478 
  -24059   -23571   -23290   -23226   -23396   -23850   -24302   -24411 
  -24251   -24012   -23699   -23342   -23132   -23238   -23641   -24152 
  -24466   -24434   -24320   -24344   -24374   -24426   -24657   -24922 
  -25012   -24939   -24753   -24553   -24504   -24597   -24747   -24964 
  -25189   -25292   -25194   -24900   -24574   -24465   -24636   -24964 
  -25463   -26312   -27330   -27862   -27615   -26921   -26097   -25339 
  -24913   -24920   -25181   -25460   -25557   -25238   -24513   -23687 
  -22982   -22528   -22329   -22282   -22393   -22554   -22432   -21874 
  -21084   -20443   -20223   -20414   -20830   -21220   -21344   -21169 
  -20912   -20815   -20954   -21116   -21109   -21153   -21460   -21816 
  -22131   -22610   -23231   -23892   -24607   -25215   -25468   -25097 
  -24119   -23172   -22767   -22786   -22830   -22633   -22281   -21836 
  -21209   -20713   -20792   -21337   -22000   -22543   -22840   -22886 
  -22448   -21345   -20161   -19555   -19427   -19408   -19359   -19530 
  -20471   -22370   -24687   -26641   -27767   -28020   -27454   -26017 
  -24023   -22392   -21695   -21663   -21906   -22162   -22315   -22509 
  -22751   -22932   -23010   -22811   -22242   -21497   -20828   -20418 
  -20336   -20555   -21053   -21751   -22380   -22806   -23449   -24629 
  -25869   -26712   -27142   -27046   -26417   -25342   -23908   -22777 
  -22650   -23413   -24622   -25796   -26319   -26055   -25578   -25295 
  -24910   -24035   -23031   -22640   -22789   -22816   -22764   -23107 
  -23640   -23789   -23359   -22585   -21929   -21637   -21589   -21910 
  -23077   -24940   -26496   -27123   -27185   -27048   -26390   -24908 
  -22934   -21078   -19778   -19163   -19413   -20983   -23800   -26747 
  -28497   -28466   -26926   -24547   -21990   -20139   -20160   -22248 
  -25043   -27058   -27678   -26782   -24576   -21978   -20305   -20196 
  -21259   -22702   -23793   -24056   -23584   -22891   -22419   -22303 
  -22300   -22022   -21435   -20947   -20965   -21588   -22756   -24139 
  -25041   -25087   -24318   -22985   -21967   -22150   -23512   -25541 
  -27461   -28254   -27537   -25760   -23674   -22131   -21613   -21857 
  -22221   -22300   -22284   -22325   -22076   -21543   -21284   -21622 
  -22484   -23671   -24873   -25817   -26638   -27503   -28117   -28211 
  -27927   -27535   -27068   -26538   -26335   -26594   -26914   -27098 
  -27174   -27129   -26836   -25927   -24316   -22638   -21736   -21987 
  -23032   -23997   -24394   -24505   -24287   -23361   -22275   -21813 
  -21941   -22464   -23171   -23848   -24873   -26424   -27868   -28952 
  -29925   -30372   -29796   -28526   -26922   -25241   -24093   -23806 
  -24244   -25182   -26092   -26379   -25933   -24843   -23276   -21911 
  -21432   -21796   -22707   -23946   -25061   -25622   -25552   -24903 
  -23920   -23336   -23722   -24769   -25849   -26523   -26692   -26690 
  -26841   -27015   -26709   -25684   -24344   -23178   -22473   -22667 
  -24090   -26195   -27818   -28245   -27503   -25992   -24283   -23126 
  -23077   -23821   -24568   -25011   -25277   -25617   -26194   -26783 
  -27013   -26673   -25694   -24364   -23299   -22926   -23308   -24231 
  -25225   -25749   -25490   -24555   -23368   -22355   -21894   -22315 
  -23401   -24551   -25414   -25746   -25504   -24949   -24322   -23908 
  -23683   -23231   -22799   -23093   -23933   -24584   -24725   -24347 
  -23722   -23225   -22827   -22496   -22435   -22718   -23445   -24632 
  -25813   -26493   -26627   -26377   -25784   -24933   -24242   -24168 
  -24627   -25164   -25617   -26131   -26804   -27583   -28184   -28382 
  -28262   -27768   -26907   -26193   -26022   -26391   -27237   -28197 
  -28579   -27913   -26238   -24228   -22903   -22820   -23826   -25326 
  -26537   -26881   -26274   -25121   -23887   -22743   -22072   -22366 
  -23257   -23910   -24104   -23966   -23460   -22767   -22259   -21965 
  -21856   -22151   -22949   -24014   -24871   -25203   -25241   -25279 
  -25151   -24847   -24780   -25067   -25467   -25681   -25358   -24553 
  -23829   -23522   -23629   -24240   -25384   -26693   -27501   -27388 
  -26624   -25833   -25419   -25408   -25661   -26041   -26257   -25939 
  -25163   -24399   -23987   -24117   -24761   -25480   -25798   -25559 
  -24816   -23707   -22589   -22020   -22170   -22785   -23630   -24367 
  -24530   -23915   -22871   -22114   -22163   -22992   -24000   -24557 
  -24634   -24463   -24133   -23753   -23525   -23624   -23972   -24217 
  -24073   -23535   -22916   -22643   -22823   -23350   -24258   -25408 
  -26243   -26371   -25933   -25318   -25017   -25172   -25275   -25196 
  -25414   -25982   -26550   -26938   -27042   -26741   -26021   -24821 
  -23049   -21204   -20267   -20520   -21282   -22017   -22787   -23472 
  -23572   -22904   -21914   -21427   -21945   -23072   -24146   -24822 
  -24896   -24420   -23601   -22498   -21509   -21335   -21958   -22686 
  -23184   -23509   -23604   -23476   -23302   -23184   -23253   -23672 
  -24260   -24580   -24397   -23880   -23451   -23328   -23446   -23744 
  -24018   -23967   -23671   -23402   -23122   -22767   -22689   -23109 
  -23653   -24073   -24403   -24437   -24094   -23658   -23342   -23145 
  -22840   -22049   -20867   -20183   -20855   -22845   -25294   -27146 
  -27694   -26807   -24909   -22726   -21067   -20576   -21172   -22267 
  -23606   -24971   -25728   -25582   -24994   -24555   -24424   -24205 
  -23536   -22766   -22401   -22497   -22963   -23652   -24256   -24507 
  -24542   -24949   -26142   -27849   -29261   -29634   -28810   -27016 
  -24599   -22094   -20238   -19760   -20712   -22354   -23926   -24920 
  -24984   -24063   -22396   -20620   -19624   -19692   -20543   -22029 
  -23807   -25113   -25587   -25510   -25149   -24686   -24553   -25047 
  -25915   -26624   -26752   -26173   -25064   -23766   -22646   -22003 
  -22032   -22587   -23170   -23546   -23986   -24526   -24776   -24571 
  -23898   -22825   -21870   -21451   -21389   -21361   -21240   -21038 
  -20893   -20975   -21412   -22230   -23238   -24215   -25028   -25347 
  -24785   -23427   -21835   -20609   -20035   -20108   -20670   -21464 
  -22136   -22353   -22059   -21402   -20587   -19965   -19871   -20315 
  -21021   -21604   -21684   -21100   -20137   -19315   -19078   -19751 
  -21188   -22741   -23933   -24543   -24488   -24127   -23829   -23603 
  -23563   -23784   -23927   -23685   -23139   -22551   -22166   -22026 
  -21960   -21893   -21798   -21587   -21392   -21442   -21769   -22235 
  -22525   -22332   -21552   -20327   -19276   -19104   -19852   -21182 
  -22747   -23961   -24387   -24214   -23792   -23210   -22669   -22460 
  -22542   -22751   -22954   -22972   -22921   -23079   -23496   -24155 
  -24941   -25418   -25299   -24909   -24712   -24737   -24810   -24882 
  -24929   -24861   -24622   -24285   -24039   -24031   -24262   -24588 
  -24724   -24573   -24476   -24677   -25050   -25488   -25934   -26177 
  -25974   -25268   -24246   -23287   -22723   -22564   -22673   -23004 
  -23491   -23956   -24228   -24237   -24010   -23648   -23167   -22554 
  -21966   -21540   -21307   -21317   -21547   -21911   -22362   -22746 
  -22819   -22592   -22298   -22004   -21657   -21361   -21289   -21551 
  -22137   -22806   -23338   -23800   -24213   -24445   -24466   -24314 
  -24051   -23783   -23602   -23506   -23467   -23529   -23609   -23513 
  -23261   -23036   -22928   -23048   -23468   -23858   -23871   -23577 
  -23093   -22649   -22621   -22895   -23204   -23617   -24082   -24404 
  -24505   -24390   -24196   -24152   -24301   -24436   -24486   -24645 
  -25015   -25516   -26080   -26568   -26731   -26477   -25975   -25455 
  -25145   -25184   -25378   -25401   -25214   -24914   -24500   -24000 
  -23589   -23436   -23412   -23348   -23361   -23495   -23709   -24036 
  -24338   -24461   -24359   -24037   -23766   -23775   -23876   -23840 
  -23587   -23159   -22820   -22826   -23161   -23642   -24101   -24355 
  -24264   -23917   -23549   -23368   -23378   -23376   -23208   -22796 
  -22166   -21636   -21515   -21759   -22138   -22436   -22561   -22490 
  -22231   -21983   -21922   -21957   -22037   -22211   -22406   -22576 
  -22800   -23100   -23384   -23605   -23796   -23921   -23962   -23969 
  -23935   -23900   -23939   -23932   -23757   -23593   -23552   -23483 
  -23480   -23751   -24133   -24386   -24409   -24179   -23882   -23743 
  -23802   -24086   -24549   -24924   -24961   -24604   -23937   -23245 
