Origin Time       2011/03/11 14:46:00
Lat.              38.103
Long.             142.860
Depth. (km)       24
Mag.              9.0
Station Code      GIF017
Station Lat.      35.4830
Station Long.     136.5713
Station Height(m) 40
Record Time       2011/03/11 14:48:58
Sampling Freq(Hz) 100Hz
Duration Time(s)  173
Dir.              N-S
Scale Factor      3920(gal)/6182761
Max. Acc. (gal)   5.790
Last Correction   2011/03/11 14:48:43
Memo.             
[...]
  -61536   -61473   -61427   -61416   -61422   -61454   -61525   -61640 
  -61786   -61950   -62137   -62323   -62487   -62616   -62689   -62738 
  -62771   -62757   -62759   -62820   -62881   -62963   -63115   -63300 
  -63484   -63699   -63971   -64258   -64508   -64769   -65044   -65245 
  -65375   -65480   -65525   -65498   -65435   -65361   -65300   -65225 
  -65130   -65063   -64990   -64875   -64780   -64720   -64659   -64582 
  -64497   -64452   -64420   -64353   -64320   -64323   -64283   -64265 
  -64329   -64425   -64544   -64734   -64983   -65231   -65495   -65823 
  -66160   -66463   -66758   -67069   -67379   -67632   -67822   -67982 
  -68088   -68130   -68145   -68137   -68089   -68014   -67927   -67832 
  -67719   -67577   -67422   -67249   -67025   -66759   -66484   -66182 
  -65856   -65562   -65281   -64968   -64668   -64413   -64173   -63962 
  -63794   -63638   -63480   -63332   -63197   -63083   -62998   -62934 
  -62893   -62860   -62806   -62738   -62655   -62538   -62397   -62251 
  -62111   -61992   -61897   -61825   -61777   -61746   -61744   -61786 
  -61853   -61929   -62019   -62124   -62227   -62314   -62403   -62480 
  -62509   -62515   -62501   -62444   -62372   -62292   -62173   -62030 
  -61920   -61821   -61685   -61531   -61350   -61132   -60941   -60776 
  -60599   -60457   -60390   -60392   -60454   -60583   -60771   -60972 
  -61175   -61404   -61625   -61807   -61997   -62189   -62360   -62563 
  -62809   -63057   -63327   -63660   -64028   -64383   -64736   -65105 
  -65452   -65753   -66021   -66264   -66464   -66613   -66721   -66831 
  -66988   -67183   -67394   -67624   -67870   -68134   -68418   -68696 
  -68924   -69073   -69155   -69148   -69026   -68795   -68456   -68018 
  -67506   -66944   -66377   -65831   -65322   -64878   -64493   -64154 
  -63880   -63639   -63398   -63182   -62990   -62800   -62645   -62569 
  -62558   -62608   -62747   -62959   -63202   -63501   -63869   -64266 
  -64691   -65155   -65617   -66046   -66464   -66883   -67253   -67578 
  -67862   -68056   -68204   -68320   -68349   -68317   -68250   -68118 
  -67929   -67710   -67466   -67186   -66877   -66573   -66277   -65948 
  -65604   -65294   -64979   -64626   -64292   -63988   -63685   -63410 
  -63173   -62978   -62869   -62857   -62905   -62992   -63135   -63323 
  -63510   -63696   -63892   -64082   -64273   -64465   -64634   -64795 
  -64952   -65094   -65236   -65388   -65539   -65673   -65789   -65885 
  -65945   -65973   -65980   -65959   -65934   -65919   -65876   -65806 
  -65740   -65648   -65511   -65342   -65138   -64902   -64637   -64346 
  -64030   -63685   -63328   -62941   -62521   -62118   -61719   -61301 
  -60926   -60610   -60324   -60081   -59906   -59813   -59784   -59789 
  -59850   -59979   -60158   -60376   -60645   -60976   -61343   -61727 
  -62126   -62527   -62933   -63350   -63748   -64132   -64536   -64950 
  -65358   -65759   -66134   -66463   -66766   -67041   -67257   -67435 
  -67600   -67726   -67813   -67879   -67903   -67882   -67828   -67729 
  -67580   -67405   -67223   -67037   -66841   -66630   -66430   -66277 
  -66133   -65971   -65824   -65670   -65476   -65274   -65066   -64835 
  -64618   -64444   -64294   -64175   -64084   -63965   -63812   -63656 
  -63474   -63274   -63076   -62847   -62620   -62445   -62300   -62193 
  -62157   -62160   -62205   -62326   -62480   -62655   -62874   -63083 
  -63276   -63490   -63707   -63947   -64236   -64550   -64897   -65263 
  -65586   -65875   -66159   -66384   -66527   -66621   -66640   -66590 
  -66525   -66401   -66204   -66023   -65847   -65640   -65456   -65323 
  -65239   -65209   -65211   -65235   -65268   -65299   -65337   -65358 
  -65337   -65290   -65236   -65172   -65119   -65097   -65080   -65093 
  -65180   -65280   -65374   -65507   -65626   -65698   -65775   -65871 
  -65999   -66159   -66312   -66470   -66648   -66825   -67006   -67172 
  -67326   -67511   -67695   -67843   -68014   -68180   -68285   -68383 
  -68462   -68470   -68470   -68461   -68377   -68266   -68171   -68060 
  -67925   -67774   -67608   -67412   -67172   -66927   -66685   -66431 
  -66191   -65943   -65678   -65448   -65239   -65025   -64816   -64601 
  -64370   -64122   -63842   -63538   -63230   -62925   -62625   -62338 
  -62072   -61837   -61634   -61450   -61288   -61146   -61002   -60860 
  -60721   -60563   -60403   -60260   -60116   -59975   -59876   -59840 
  -59837   -59860   -59944   -60078   -60225   -60408   -60625   -60845 
  -61084   -61318   -61515   -61714   -61909   -62096   -62282   -62472 
  -62706   -62948   -63165   -63401   -63619   -63814   -64033   -64229 
  -64402   -64586   -64723   -64814   -64901   -64959   -65005   -65059 
  -65118   -65190   -65239   -65265   -65277   -65216   -65078   -64894 
  -64642   -64341   -64033   -63726   -63426   -63155   -62951   -62812 
  -62709   -62671   -62684   -62718   -62774   -62815   -62843   -62896 
  -62950   -63015   -63129   -63281   -63452   -63640   -63860   -64114 
  -64344   -64526   -64704   -64852   -64901   -64876   -64816   -64709 
  -64555   -64372   -64182   -64002   -63828   -63663   -63548   -63483 
  -63442   -63430   -63410   -63349   -63254   -63119   -62949   -62738 
  -62473   -62192   -61920   -61641   -61382   -61174   -61009   -60889 
  -60800   -60715   -60659   -60647   -60643   -60644   -60665   -60693 
  -60739   -60841   -61019   -61255   -61527   -61871   -62304   -62771 
  -63268   -63809   -64313   -64769   -65222   -65638   -66002   -66330 
  -66589   -66778   -66945   -67080   -67162   -67229   -67308   -67353 
  -67322   -67229   -67078   -66843   -66539   -66202   -65829   -65435 
  -65060   -64669   -64253   -63862   -63464   -63040   -62626   -62212 
  -61779   -61322   -60868   -60471   -60134   -59847   -59632   -59506 
  -59458   -59470   -59543   -59660   -59812   -59995   -60185   -60364 
  -60554   -60756   -60959   -61176   -61408   -61667   -61982   -62312 
  -62622   -62945   -63281   -63591   -63869   -64138   -64386   -64594 
  -64804   -65024   -65228   -65429   -65630   -65810   -65992   -66208 
  -66411   -66563   -66706   -66818   -66842   -66787   -66675   -66491 
  -66256   -66013   -65736   -65409   -65060   -64705   -64363   -64049 
  -63788   -63620   -63522   -63458   -63409   -63362   -63317   -63277 
  -63269   -63342   -63486   -63670   -63901   -64193   -64547   -64918 
  -65264   -65579   -65842   -66064   -66235   -66288   -66238   -66120 
  -65910   -65605   -65237   -64858   -64482   -64082   -63676   -63276 
  -62870   -62465   -62023   -61521   -60990   -60401   -59744   -59082 
  -58443   -57859   -57367   -57001   -56814   -56805   -56955   -57258 
  -57655   -58091   -58536   -58963   -59377   -59805   -60265   -60750 
  -61248   -61773   -62309   -62863   -63452   -64012   -64531   -65032 
  -65477   -65865   -66229   -66575   -66901   -67193   -67451   -67674 
  -67881   -68094   -68287   -68435   -68548   -68639   -68712   -68751 
  -68753   -68730   -68669   -68561   -68414   -68223   -68008   -67812 
  -67625   -67429   -67246   -67061   -66843   -66629   -66421   -66195 
  -65975   -65759   -65538   -65332   -65137   -64950   -64772   -64614 
  -64503   -64420   -64357   -64343   -64356   -64380   -64384   -64323 
  -64216   -64084   -63920   -63753   -63591   -63434   -63306   -63189 
  -63080   -63018   -62990   -62972   -62987   -63039   -63095   -63140 
  -63168   -63164   -63129   -63077   -63014   -62946   -62894   -62882 
  -62890   -62896   -62915   -62932   -62903   -62842   -62754   -62598 
  -62387   -62153   -61881   -61576   -61262   -60960   -60678   -60411 
  -60161   -59936   -59738   -59589   -59519   -59504   -59549   -59694 
  -59891   -60077   -60252   -60405   -60535   -60664   -60802   -60969 
  -61194   -61442   -61665   -61874   -62080   -62266   -62415   -62538 
  -62638   -62700   -62730   -62723   -62670   -62574   -62413   -62200 
  -61977   -61754   -61539   -61367   -61268   -61211   -61184   -61214 
  -61278   -61336   -61379   -61413   -61437   -61452   -61470   -61492 
  -61556   -61684   -61851   -62060   -62338   -62683   -63056   -63437 
  -63842   -64261   -64659   -65026   -65363   -65667   -65936   -66179 
  -66389   -66561   -66725   -66885   -67016   -67115   -67186   -67217 
  -67217   -67181   -67099   -66993   -66869   -66715   -66533   -66329 
  -66142   -65984   -65821   -65668   -65538   -65392   -65208   -65004 
  -64787   -64570   -64369   -64147   -63898   -63673   -63475   -63286 
  -63123   -62984   -62847   -62711   -62599   -62519   -62471   -62458 
  -62481   -62546   -62645   -62777   -62953   -63176   -63467   -63810 
  -64143   -64459   -64754   -65000   -65195   -65335   -65404   -65408 
  -65374   -65303   -65188   -65051   -64878   -64676   -64483   -64289 
  -64098   -63950   -63858   -63808   -63770   -63738   -63719   -63695 
  -63667   -63626   -63571   -63542   -63547   -63551   -63557   -63593 
  -63651   -63688   -63701   -63708   -63690   -63654   -63626   -63600 
  -63605   -63677   -63785   -63901   -64044   -64210   -64371   -64523 
  -64697   -64893   -65082   -65264   -65457   -65669   -65885   -66067 
  -66226   -66371   -66490   -66596   -66683   -66734   -66774   -66814 
  -66852   -66879   -66894   -66893   -66853   -66774   -66650   -66456 
  -66215   -65936   -65640   -65354   -65062   -64777   -64530   -64328 
  -64197   -64124   -64063   -64012   -63954   -63848   -63717   -63604 
  -63490   -63382   -63312   -63265   -63229   -63213   -63215   -63239 
  -63285   -63345   -63428   -63561   -63727   -63885   -64032   -64183 
  -64334   -64490   -64657   -64817   -64977   -65166   -65377   -65606 
  -65853   -66081   -66252   -66334   -66340   -66315   -66257   -66161 
  -66043   -65924   -65822   -65708   -65566   -65424   -65275   -65094 
  -64893   -64674   -64442   -64206   -63948   -63638   -63263   -62832 
  -62383   -61936   -61485   -61046   -60643   -60267   -59909   -59601 
  -59380   -59252   -59228   -59294   -59408   -59589   -59838   -60090 
  -60331   -60585   -60820   -61032   -61284   -61592   -61941   -62358 
  -62834   -63316   -63803   -64321   -64846   -65355   -65837   -66276 
  -66691   -67116   -67546   -67946   -68311   -68661   -68967   -69206 
  -69418   -69615   -69769   -69874   -69940   -69969   -69951   -69889 
  -69810   -69722   -69632   -69565   -69514   -69464   -69427   -69397 
  -69311   -69149   -68954   -68728   -68461   -68184   -67898   -67589 
  -67274   -66969   -66673   -66373   -66074   -65775   -65455   -65121 
  -64792   -64462   -64126   -63778   -63422   -63077   -62761   -62473 
  -62215   -62016   -61873   -61786   -61794   -61876   -61972   -62075 
  -62173   -62233   -62250   -62232   -62199   -62129   -62009   -61889 
  -61788   -61691   -61609   -61537   -61465   -61405   -61354   -61298 
  -61253   -61221   -61184   -61130   -61052   -60956   -60840   -60716 
  -60624   -60538   -60437   -60384   -60381   -60384   -60417   -60484 
  -60578   -60725   -60916   -61150   -61423   -61707   -61972   -62191 
  -62380   -62576   -62762   -62912   -63028   -63101   -63139   -63159 
  -63153   -63139   -63145   -63169   -63204   -63274   -63369   -63438 
  -63471   -63476   -63443   -63355   -63230   -63099   -62962   -62818 
  -62699   -62618   -62576   -62571   -62574   -62585   -62638   -62736 
  -62869   -63053   -63285   -63525   -63777   -64051   -64289   -64471 
  -64649   -64838   -65017   -65195   -65379   -65561   -65733   -65871 
  -65982   -66098   -66197   -66274   -66353   -66412   -66455   -66526 
  -66627   -66748   -66884   -67007   -67091   -67138   -67157   -67146 
  -67099   -67002   -66863   -66697   -66500   -66282   -66060   -65838 
  -65626   -65428   -65228   -65006   -64763   -64511   -64248   -63970 
  -63671   -63341   -63002   -62673   -62334   -61965   -61586   -61226 
  -60875   -60520   -60199   -59931   -59701   -59514   -59383   -59312 
  -59297   -59313   -59369   -59492   -59676   -59912   -60171   -60441 
  -60763   -61119   -61457   -61784   -62108   -62409   -62677   -62920 
  -63149   -63362   -63564   -63742   -63873   -63973   -64060   -64127 
  -64140   -64086   -63977   -63835   -63687   -63533   -63356   -63171 
  -63003   -62855   -62708   -62569   -62467   -62388   -62301   -62200 
  -62088   -61966   -61841   -61719   -61604   -61496   -61409   -61365 
  -61369   -61397   -61430   -61470   -61529   -61605   -61668   -61740 
  -61859   -61969   -62014   -62024   -62034   -62043   -62039   -61987 
  -61924   -61923   -61932   -61913   -61953   -62065   -62158   -62205 
  -62317   -62572   -62862   -63108   -63382   -63686   -63932   -64094 
  -64249   -64474   -64704   -64823   -64906   -65072   -65223   -65246 
  -65226   -65309   -65527   -65693   -65688   -65750   -65988   -66112 
  -66012   -65964   -66146   -66391   -66472   -66417   -66385   -66396 
  -66313   -66093   -65890   -65842   -65822   -65624   -65330   -65176 
  -65174   -65135   -64973   -64849   -64892   -64944   -64847   -64705 
  -64660   -64678   -64661   -64531   -64287   -64106   -64066   -63956 
  -63662   -63369   -63203   -63055   -62826   -62579   -62404   -62251 
  -61971   -61549   -61170   -60936   -60734   -60510   -60376   -60397 
  -60498   -60554   -60583   -60774   -61189   -61640   -61976   -62280 
  -62681   -63145   -63549   -63908   -64362   -64928   -65503   -66033 
  -66525   -67023   -67590   -68216   -68847   -69461   -70037   -70570 
  -71095   -71591   -71998   -72320   -72624   -72945   -73243   -73480 
  -73659   -73771   -73810   -73801   -73749   -73641   -73484   -73293 
  -73070   -72785   -72419   -72037   -71682   -71312   -70934   -70633 
  -70372   -70014   -69584   -69197   -68853   -68509   -68132   -67716 
  -67273   -66782   -66277   -65805   -65316   -64822   -64431   -64094 
  -63663   -63195   -62844   -62599   -62382   -62149   -61892   -61687 
  -61545   -61340   -61052   -60796   -60597   -60415   -60263   -60170 
  -60142   -60187   -60242   -60227   -60199   -60210   -60238   -60273 
  -60308   -60345   -60430   -60559   -60657   -60721   -60895   -61262 
  -61681   -61995   -62238   -62532   -62897   -63222   -63436   -63602 
  -63785   -63970   -64170   -64463   -64837   -65177   -65436   -65663 
  -65949   -66323   -66704   -67015   -67231   -67364   -67486   -67627 
  -67725   -67775   -67843   -67971   -68183   -68441   -68648   -68788 
  -68924   -69086   -69262   -69382   -69380   -69304   -69231   -69152 
  -69027   -68840   -68593   -68286   -67952   -67655   -67398   -67141 
  -66887   -66617   -66326   -66070   -65826   -65505   -65106   -64684 
  -64289   -63969   -63693   -63402   -63152   -63026   -63005   -63019 
  -62982   -62871   -62775   -62706   -62603   -62541   -62601   -62673 
  -62638   -62580   -62613   -62713   -62789   -62834   -62954   -63181 
  -63424   -63629   -63792   -63958   -64182   -64428   -64678   -64985 
  -65333   -65616   -65856   -66148   -66433   -66615   -66736   -66864 
  -66964   -66996   -67039   -67121   -67170   -67132   -67028   -66948 
  -66906   -66766   -66482   -66207   -66042   -65903   -65682   -65400 
  -65152   -64938   -64724   -64518   -64307   -64089   -63862   -63551 
  -63178   -62862   -62582   -62276   -62019   -61865   -61769   -61713 
  -61692   -61654   -61595   -61564   -61535   -61470   -61392   -61352 
  -61431   -61632   -61901   -62246   -62643   -63016   -63318   -63578 
  -63873   -64219   -64546   -64783   -64921   -65016   -65117   -65224 
  -65309   -65358   -65357   -65292   -65177   -65074   -65056   -65102 
  -65128   -65101   -65090   -65160   -65269   -65331   -65312   -65281 
  -65315   -65358   -65368   -65452   -65627   -65781   -65880   -65936 
  -65975   -66066   -66229   -66434   -66680   -66938   -67121   -67211 
  -67238   -67180   -67037   -66878   -66745   -66583   -66324   -66036 
  -65804   -65612   -65398   -65123   -64864   -64693   -64563   -64443 
  -64375   -64375   -64421   -64522   -64676   -64845   -65004   -65148 
  -65317   -65570   -65909   -66304   -66720   -67140   -67519   -67779 
  -67963   -68194   -68408   -68431   -68268   -68080   -67965   -67886 
  -67790   -67685   -67587   -67457   -67239   -66964   -66753   -66696 
  -66759   -66871   -67002   -67148   -67255   -67255   -67121   -66913 
  -66741   -66611   -66463   -66356   -66336   -66355   -66379   -66395 
  -66420   -66475   -66535   -66604   -66738   -66904   -66988   -66937 
  -66824   -66728   -66663   -66622   -66559   -66487   -66489   -66526 
  -66487   -66402   -66347   -66295   -66183   -66004   -65809   -65617 
  -65390   -65136   -64925   -64800   -64726   -64661   -64581   -64459 
  -64295   -64143   -64071   -64081   -64103   -64081   -64010   -63926 
  -63881   -63881   -63890   -63884   -63863   -63821   -63739   -63622 
  -63512   -63413   -63285   -63115   -62940   -62773   -62568   -62356 
  -62228   -62203   -62250   -62312   -62351   -62383   -62388   -62363 
  -62377   -62455   -62540   -62618   -62753   -62940   -63085   -63185 
  -63290   -63417   -63548   -63652   -63717   -63801   -63918   -63986 
  -63968   -63909   -63812   -63644   -63446   -63311   -63257   -63228 
  -63178   -63135   -63163   -63275   -63438   -63661   -63933   -64215 
  -64508   -64815   -65165   -65563   -65952   -66337   -66743   -67132 
  -67473   -67791   -68118   -68429   -68715   -69025   -69344   -69628 
  -69857   -70003   -70112   -70285   -70505   -70714   -70921   -71113 
  -71247   -71316   -71323   -71276   -71210   -71134   -71010   -70831 
  -70647   -70484   -70361   -70336   -70405   -70484   -70539   -70592 
  -70660   -70721   -70756   -70804   -70881   -70926   -70894   -70798 
  -70673   -70547   -70411   -70248   -70101   -69979   -69809   -69572 
  -69283   -68899   -68422   -67904   -67348   -66787   -66307   -65886 
  -65445   -65013   -64610   -64219   -63905   -63689   -63543   -63481 
  -63454   -63399   -63353   -63324   -63290   -63308   -63438   -63679 
  -63974   -64258   -64577   -64990   -65423   -65768   -66009   -66182 
  -66292   -66345   -66385   -66448   -66516   -66543   -66512   -66441 
  -66357   -66253   -66098   -65900   -65722   -65624   -65585   -65543 
  -65498   -65475   -65436   -65332   -65170   -64962   -64735   -64525 
  -64327   -64144   -63996   -63849   -63712   -63635   -63574   -63504 
  -63502   -63579   -63672   -63770   -63887   -64028   -64179   -64329 
  -64471   -64585   -64665   -64711   -64728   -64763   -64826   -64839 
  -64777   -64715   -64663   -64537   -64337   -64152   -64020   -63894 
  -63756   -63655   -63578   -63462   -63302   -63107   -62857   -62562 
  -62275   -62041   -61876   -61734   -61544   -61333   -61125   -60872 
  -60568   -60258   -59990   -59774   -59567   -59361   -59203   -59113 
  -59038   -58933   -58821   -58704   -58515   -58301   -58234   -58358 
  -58596   -58876   -59133   -59353   -59557   -59719   -59843   -59971 
  -60115   -60291   -60547   -60906   -61310   -61666   -61955   -62220 
  -62479   -62743   -63016   -63298   -63594   -63910   -64226   -64496 
  -64711   -64891   -64996   -65018   -65025   -65050   -65092   -65150 
  -65194   -65165   -65071   -65004   -64978   -64942   -64903   -64858 
  -64809   -64772   -64710   -64627   -64598   -64625   -64628   -64561 
  -64478   -64416   -64353   -64298   -64248   -64164   -64054   -63935 
  -63790   -63626   -63448   -63239   -63024   -62827   -62619   -62395 
