Origin Time       2011/03/11 14:46:00
Lat.              38.103
Long.             142.860
Depth. (km)       24
Mag.              9.0
Station Code      GIF021
Station Lat.      35.4426
Station Long.     136.9996
Station Height(m) 72
Record Time       2011/03/11 14:48:59
Sampling Freq(Hz) 100Hz
Duration Time(s)  170
Dir.              U-D
Scale Factor      3920(gal)/6182761
Max. Acc. (gal)   4.917
Last Correction   2011/03/11 14:48:44
Memo.             
[...]
  -11752   -11411   -11044   -10647   -10235    -9909    -9680    -9477 
   -9344    -9311    -9278    -9218    -9193    -9244    -9415    -9680 
   -9944   -10239   -10635   -11011   -11301   -11644   -12075   -12474 
  -12788   -13013   -13080   -12947   -12709   -12452   -12155   -11838 
  -11552   -11193   -10671   -10103    -9613    -9159    -8693    -8221 
   -7706    -7148    -6660    -6301    -6017    -5793    -5682    -5714 
   -5833    -5980    -6159    -6343    -6501    -6706    -6999    -7318 
   -7674    -8149    -8648    -9055    -9468    -9955   -10405   -10756 
  -11101   -11510   -11892   -12169   -12382   -12517   -12488   -12331 
  -12131   -11842   -11433   -11012   -10650   -10350   -10163   -10086 
  -10047   -10034   -10053   -10053   -10004    -9916    -9770    -9558 
   -9366    -9273    -9256    -9261    -9312    -9486    -9746    -9959 
  -10103   -10235   -10331   -10364   -10385   -10405   -10406   -10430 
  -10483   -10547   -10683   -10929   -11200   -11391   -11463   -11420 
  -11280   -11071   -10861   -10728   -10651   -10583   -10563   -10600 
  -10681   -10871   -11143   -11385   -11653   -12029   -12419   -12745 
  -13046   -13311   -13499   -13648   -13771   -13785   -13632   -13371 
  -13041   -12605   -12134   -11729   -11320   -10860   -10448   -10102 
   -9746    -9384    -9057    -8757    -8473    -8247    -8117    -8017 
   -7912    -7907    -8008    -8138    -8304    -8514    -8752    -9026 
   -9373    -9821   -10287   -10703   -11108   -11510   -11856   -12125 
  -12312   -12395   -12365   -12256   -12080   -11847   -11608   -11382 
  -11193   -11075   -10969   -10830   -10719   -10676   -10668   -10666 
  -10695   -10771   -10841   -10876   -10920   -10977   -11019   -11116 
  -11337   -11577   -11715   -11796   -11863   -11873   -11837   -11792 
  -11743   -11712   -11699   -11690   -11727   -11827   -11953   -12090 
  -12254   -12435   -12609   -12745   -12787   -12708   -12565   -12415 
  -12231   -12031   -11909   -11820   -11654   -11497   -11436   -11360 
  -11215   -11096   -11010   -10878   -10724   -10596   -10458   -10317 
  -10229   -10173   -10120   -10089   -10069   -10060   -10115   -10215 
  -10279   -10300   -10321   -10341   -10345   -10372   -10482   -10655 
  -10831   -11030   -11289   -11556   -11818   -12103   -12353   -12549 
  -12735   -12889   -12991   -13081   -13190   -13284   -13310   -13268 
  -13168   -13016   -12856   -12713   -12563   -12426   -12356   -12325 
  -12294   -12306   -12360   -12398   -12423   -12465   -12555   -12690 
  -12829   -12964   -13080   -13171   -13300   -13477   -13614   -13679 
  -13663   -13544   -13417   -13363   -13316   -13244   -13203   -13212 
  -13225   -13215   -13190   -13127   -12989   -12778   -12527   -12256 
  -11989   -11739   -11464   -11143   -10830   -10557   -10324   -10143 
  -10033   -10025   -10128   -10295   -10519   -10819   -11155   -11490 
  -11812   -12099   -12332   -12507   -12627   -12729   -12848   -12944 
  -13006   -13073   -13125   -13117   -13049   -12923   -12744   -12527 
  -12279   -12021   -11782   -11563   -11318   -11044   -10796   -10581 
  -10357   -10159   -10082   -10115   -10178   -10274   -10400   -10476 
  -10509   -10556   -10587   -10601   -10674   -10787   -10855   -10922 
  -11059   -11199   -11293   -11396   -11485   -11508   -11487   -11451 
  -11419   -11429   -11485   -11547   -11574   -11579   -11602   -11593 
  -11504   -11396   -11310   -11222   -11123   -11044   -10987   -10919 
  -10860   -10867   -10935   -11020   -11103   -11167   -11210   -11262 
  -11298   -11251   -11142   -11016   -10888   -10808   -10812   -10864 
  -10908   -10914   -10894   -10873   -10865   -10876   -10914   -10999 
  -11125   -11264   -11414   -11581   -11752   -11942   -12142   -12281 
  -12324   -12282   -12174   -12005   -11801   -11643   -11504   -11325 
  -11180   -11075   -10951   -10842   -10732   -10587   -10471   -10364 
  -10164    -9901    -9636    -9346    -9055    -8807    -8618    -8532 
   -8518    -8516    -8566    -8688    -8863    -9094    -9360    -9658 
  -10001   -10345   -10670   -10982   -11274   -11555   -11791   -11916 
  -11969   -12040   -12147   -12279   -12448   -12651   -12872   -13104 
  -13258   -13272   -13244   -13199   -13094   -13005   -12945   -12830 
  -12659   -12498   -12386   -12303   -12212   -12117   -12073   -12132 
  -12259   -12404   -12585   -12811   -13059   -13280   -13416   -13453 
  -13420   -13342   -13232   -13057   -12817   -12626   -12519   -12404 
  -12273   -12172   -12048   -11854   -11634   -11408   -11156   -10895 
  -10647   -10400   -10103    -9751    -9417    -9112    -8840    -8676 
   -8623    -8630    -8692    -8823    -8995    -9139    -9229    -9284 
   -9305    -9285    -9287    -9392    -9573    -9732    -9836    -9958 
  -10178   -10455   -10716   -10978   -11238   -11420   -11495   -11509 
  -11513   -11561   -11649   -11703   -11759   -11890   -12011   -12051 
  -12062   -12069   -12043   -11977   -11842   -11620   -11380   -11149 
  -10904   -10698   -10544   -10367   -10169   -10011    -9870    -9679 
   -9439    -9194    -8923    -8663    -8547    -8554    -8571    -8616 
   -8726    -8831    -8883    -8947    -9054    -9129    -9157    -9208 
   -9311    -9430    -9505    -9524    -9529    -9533    -9506    -9484 
   -9539    -9660    -9796    -9953   -10152   -10369   -10568   -10720 
  -10783   -10743   -10647   -10497   -10276   -10085    -9994    -9922 
   -9806    -9691    -9594    -9472    -9372    -9339    -9300    -9232 
   -9182    -9148    -9132    -9151    -9199    -9281    -9424    -9586 
   -9706    -9800    -9873    -9908    -9955   -10047   -10140   -10186 
  -10156   -10047    -9879    -9694    -9548    -9438    -9295    -9121 
   -8991    -8897    -8803    -8780    -8845    -8910    -8960    -9012 
   -9033    -9032    -9028    -8981    -8884    -8785    -8674    -8534 
   -8418    -8345    -8289    -8282    -8325    -8356    -8382    -8420 
   -8469    -8583    -8769    -8958    -9173    -9468    -9778   -10048 
  -10325   -10605   -10812   -10934   -10988   -10945   -10834   -10695 
  -10486   -10224    -9952    -9631    -9279    -8974    -8715    -8517 
   -8431    -8407    -8396    -8438    -8504    -8552    -8654    -8841 
   -9032    -9209    -9411    -9606    -9730    -9816    -9954   -10140 
  -10260   -10283   -10294   -10294   -10232   -10174   -10212   -10285 
  -10326   -10372   -10392   -10298   -10157   -10079   -10008    -9909 
   -9873    -9887    -9840    -9742    -9680    -9620    -9425    -9116 
   -8819    -8521    -8191    -7907    -7715    -7627    -7641    -7735 
   -7900    -8102    -8275    -8453    -8649    -8759    -8811    -8937 
   -9114    -9290    -9480    -9655    -9766    -9835    -9904    -9974 
  -10004    -9955    -9844    -9713    -9523    -9215    -8859    -8553 
   -8291    -8040    -7835    -7728    -7718    -7791    -7947    -8149 
   -8369    -8639    -8959    -9258    -9538    -9858   -10190   -10463 
  -10692   -10911   -11070   -11119   -11100   -11038   -10905   -10725 
  -10528   -10308   -10090    -9873    -9630    -9420    -9286    -9155 
   -9000    -8879    -8803    -8739    -8709    -8765    -8873    -8972 
   -9084    -9242    -9435    -9645    -9852   -10048   -10268   -10499 
  -10675   -10780   -10825   -10822   -10776   -10679   -10584   -10516 
  -10426   -10300   -10126    -9973    -9950    -9970    -9984   -10050 
  -10091   -10093   -10114   -10092   -10076   -10210   -10426   -10612 
  -10843   -11082   -11163   -11145   -11157   -11143   -11076   -11014 
  -10975   -10996   -11097   -11202   -11280   -11361   -11392   -11348 
  -11312   -11261   -11089   -10820   -10548   -10290   -10049    -9874 
   -9774    -9713    -9668    -9591    -9505    -9539    -9667    -9761 
   -9841    -9955   -10058   -10134   -10189   -10223   -10266   -10316 
  -10339   -10363   -10409   -10411   -10361   -10329   -10269   -10105 
   -9894    -9679    -9422    -9151    -8908    -8639    -8334    -8062 
   -7844    -7671    -7565    -7553    -7629    -7758    -7875    -7907 
   -7868    -7834    -7832    -7846    -7843    -7779    -7722    -7777 
   -7899    -7999    -8106    -8230    -8320    -8396    -8500    -8627 
   -8773    -8908    -9012    -9156    -9346    -9476    -9549    -9631 
   -9669    -9661    -9707    -9773    -9786    -9838    -9988   -10166 
  -10359   -10588   -10809   -10995   -11128   -11176   -11145   -11058 
  -10936   -10809   -10690   -10602   -10543   -10476   -10400   -10330 
  -10260   -10180   -10081    -9985    -9920    -9883    -9903   -10033 
  -10268   -10559   -10856   -11155   -11444   -11658   -11787   -11855 
  -11833   -11726   -11579   -11394   -11162   -10877   -10549   -10200 
   -9796    -9326    -8857    -8427    -8040    -7754    -7614    -7543 
   -7486    -7519    -7644    -7772    -7916    -8075    -8188    -8257 
   -8270    -8212    -8132    -8042    -7926    -7825    -7731    -7607 
   -7487    -7387    -7294    -7233    -7242    -7331    -7455    -7584 
   -7807    -8170    -8594    -9047    -9545   -10064   -10587   -11125 
  -11650   -12114   -12499   -12840   -13162   -13419   -13609   -13788 
  -13909   -13941   -13957   -13917   -13717   -13375   -12968   -12506 
  -11977   -11477   -11051   -10594   -10096    -9662    -9316    -9008 
   -8755    -8618    -8531    -8400    -8266    -8176    -8127    -8122 
   -8179    -8335    -8587    -8864    -9149    -9470    -9789   -10065 
  -10329   -10585   -10768   -10873   -10950   -10974   -10940   -10874 
  -10729   -10471   -10186    -9933    -9660    -9367    -9130    -8934 
   -8741    -8581    -8435    -8251    -8069    -7912    -7765    -7683 
   -7694    -7779    -7950    -8171    -8412    -8693    -8960    -9161 
   -9336    -9503    -9616    -9671    -9738    -9834    -9931   -10030 
  -10124   -10179   -10209   -10231   -10224   -10188   -10128   -10012 
   -9863    -9755    -9691    -9627    -9579    -9557    -9486    -9329 
   -9126    -8881    -8580    -8246    -7889    -7517    -7156    -6813 
   -6509    -6269    -6062    -5860    -5742    -5763    -5847    -5956 
   -6136    -6354    -6558    -6794    -7101    -7446    -7807    -8197 
   -8623    -9069    -9494    -9872   -10207   -10496   -10736   -10967 
  -11215   -11456   -11672   -11859   -11994   -12067   -12112   -12131 
  -12064   -11914   -11720   -11459   -11110   -10701   -10253    -9790 
   -9384    -9059    -8737    -8406    -8142    -7935    -7757    -7675 
   -7671    -7653    -7670    -7746    -7794    -7852    -7988    -8139 
   -8270    -8417    -8562    -8700    -8899    -9197    -9535    -9876 
  -10263   -10689   -11092   -11496   -11969   -12470   -12906   -13267 
  -13577   -13812   -13947   -14035   -14142   -14227   -14236   -14216 
  -14178   -14086   -13958   -13801   -13597   -13391   -13212   -13031 
  -12880   -12804   -12772   -12772   -12830   -12945   -13086   -13236 
  -13366   -13468   -13555   -13587   -13528   -13446   -13409   -13424 
  -13537   -13784   -14114   -14466   -14824   -15167   -15467   -15721 
  -15921   -16024   -15980   -15782   -15465   -15057   -14590   -14116 
  -13646   -13179   -12738   -12321   -11912   -11507   -11137   -10866 
  -10674   -10478   -10291   -10138   -10006    -9922    -9913    -9962 
  -10050   -10187   -10363   -10507   -10637   -10803   -10937   -11054 
  -11209   -11292   -11302   -11310   -11232   -11062   -10875   -10636 
  -10303    -9910    -9514    -9132    -8734    -8319    -7922    -7554 
   -7188    -6844    -6566    -6358    -6225    -6181    -6194    -6234 
   -6318    -6443    -6542    -6578    -6578    -6558    -6487    -6369 
   -6256    -6181    -6171    -6279    -6497    -6756    -7060    -7448 
   -7894    -8400    -8972    -9511    -9964   -10389   -10773   -11055 
  -11296   -11541   -11717   -11833   -12007   -12228   -12420   -12599 
  -12756   -12835   -12808   -12655   -12376   -11971   -11446   -10855 
  -10214    -9521    -8837    -8196    -7590    -7055    -6649    -6365 
   -6162    -6032    -5966    -5942    -5964    -6039    -6150    -6302 
   -6486    -6694    -6958    -7252    -7514    -7738    -7940    -8139 
   -8317    -8458    -8576    -8644    -8624    -8544    -8435    -8318 
   -8235    -8198    -8155    -8057    -7894    -7676    -7455    -7287 
   -7174    -7142    -7204    -7301    -7417    -7551    -7683    -7865 
   -8138    -8439    -8721    -9003    -9282    -9566    -9928   -10365 
  -10820   -11329   -11834   -12211   -12493   -12655   -12680   -12730 
  -12788   -12793   -12866   -12980   -12994   -12927   -12823   -12599 
  -12260   -11937   -11615   -11261   -10948   -10687   -10499   -10395 
  -10325   -10310   -10329   -10318   -10314   -10281   -10174   -10081 
  -10001    -9929    -9952   -10004   -10030   -10120   -10258   -10425 
  -10669   -10936   -11186   -11466   -11760   -12036   -12325   -12618 
  -12905   -13211   -13505   -13719   -13852   -13961   -14043   -14073 
  -14119   -14187   -14186   -14167   -14219   -14262   -14277   -14365 
  -14496   -14605   -14722   -14828   -14899   -14976   -15043   -15113 
  -15273   -15516   -15774   -16045   -16311   -16548   -16794   -17043 
  -17235   -17345   -17407   -17468   -17547   -17618   -17623   -17520 
  -17308   -17036   -16758   -16430   -16011   -15572   -15153   -14696 
  -14173   -13606   -13037   -12524   -12094   -11741   -11455   -11225 
  -11036   -10865   -10748   -10777   -10961   -11237   -11541   -11869 
  -12311   -12910   -13557   -14177   -14831   -15498   -16073   -16560 
  -16954   -17243   -17490   -17678   -17779   -17912   -18092   -18167 
  -18153   -18162   -18130   -17998   -17836   -17659   -17451   -17223 
  -17003   -16793   -16495   -16105   -15744   -15334   -14816   -14352 
  -13939   -13456   -12939   -12443   -11975   -11537   -11123   -10798 
  -10617   -10484   -10386   -10408   -10534   -10757   -11069   -11435 
  -11856   -12252   -12613   -13043   -13479   -13844   -14215   -14598 
  -14873   -15071   -15267   -15322   -15202   -15043   -14841   -14579 
  -14276   -13917   -13549   -13183   -12738   -12229   -11760   -11272 
  -10709   -10182    -9719    -9299    -8968    -8689    -8421    -8218 
   -8129    -8122    -8128    -8149    -8233    -8357    -8492    -8685 
   -8973    -9303    -9613    -9920   -10202   -10419   -10603   -10696 
  -10696   -10687   -10596   -10400   -10169    -9908    -9681    -9509 
   -9338    -9152    -8914    -8603    -8226    -7771    -7282    -6819 
   -6400    -6033    -5760    -5593    -5497    -5506    -5626    -5783 
   -5916    -6021    -6183    -6414    -6629    -6831    -7077    -7384 
   -7707    -8046    -8474    -8943    -9351    -9710   -10050   -10333 
  -10500   -10570   -10581   -10544   -10490   -10392   -10228   -10035 
   -9817    -9606    -9431    -9219    -8975    -8764    -8533    -8259 
   -8030    -7945    -7971    -7967    -8046    -8273    -8397    -8444 
   -8579    -8659    -8635    -8624    -8601    -8516    -8438    -8450 
   -8580    -8823    -9173    -9641   -10133   -10550   -10941   -11261 
  -11437   -11576   -11691   -11714   -11665   -11592   -11570   -11541 
  -11458   -11469   -11473   -11320   -11193   -11077   -10814   -10562 
  -10403   -10210   -10050   -10073   -10226   -10390   -10650   -11088 
  -11555   -11982   -12424   -12848   -13253   -13681   -14123   -14579 
  -15054   -15515   -15900   -16178   -16359   -16418   -16373   -16291 
  -16191   -16046   -15856   -15703   -15598   -15434   -15263   -15179 
  -15095   -14967   -14864   -14789   -14683   -14580   -14573   -14625 
  -14714   -14907   -15123   -15249   -15349   -15469   -15511   -15430 
  -15299   -15151   -14966   -14737   -14492   -14277   -14090   -13951 
  -13870   -13742   -13534   -13311   -13011   -12565   -12120   -11758 
  -11357   -10888   -10488   -10195    -9903    -9625    -9441    -9315 
   -9291    -9395    -9517    -9699    -9968   -10191   -10456   -10855 
  -11181   -11363   -11575   -11778   -11849   -11905   -12036   -12167 
  -12229   -12218   -12210   -12178   -12009   -11755   -11499   -11204 
  -10827   -10371    -9854    -9322    -8797    -8284    -7897    -7721 
   -7646    -7547    -7467    -7460    -7465    -7425    -7365    -7341 
   -7344    -7281    -7136    -6995    -6917    -6888    -6861    -6841 
   -6786    -6584    -6330    -6123    -5853    -5552    -5317    -5096 
   -4886    -4751    -4716    -4718    -4754    -4943    -5207    -5398 
   -5582    -5827    -6058    -6203    -6292    -6368    -6349    -6227 
   -6126    -5988    -5768    -5649    -5647    -5651    -5716    -5877 
   -6006    -6063    -6153    -6231    -6193    -6132    -6138    -6164 
   -6151    -6128    -6099    -5985    -5837    -5756    -5678    -5553 
   -5412    -5295    -5243    -5200    -5128    -5150    -5293    -5440 
   -5587    -5772    -5987    -6199    -6350    -6445    -6508    -6497 
   -6461    -6515    -6642    -6845    -7173    -7500    -7737    -7965 
   -8148    -8177    -8096    -7963    -7764    -7538    -7309    -7098 
   -7015    -7075    -7132    -7192    -7363    -7534    -7627    -7771 
   -7944    -8025    -8045    -8078    -8104    -8117    -8200    -8327 
   -8433    -8615    -8844    -9034    -9264    -9505    -9686    -9879 
  -10118   -10356   -10575   -10750   -10855   -10970   -11090   -11088 
  -10995   -10926   -10870   -10790   -10751   -10760   -10766   -10805 
  -10855   -10910   -11067   -11285   -11487   -11722   -11952   -12049 
  -12050   -12072   -12031   -11894   -11810   -11784   -11787   -11866 
  -12008   -12234   -12548   -12843   -13130   -13472   -13788   -13998 
  -14122   -14202   -14223   -14188   -14173   -14117   -13952   -13779 
  -13598   -13336   -13055   -12748   -12349   -11955   -11635   -11339 
  -11142   -11107   -11117   -11148   -11214   -11253   -11307   -11439 
  -11593   -11800   -12153   -12562   -12920   -13306   -13678   -13874 
  -13958   -14025   -13980   -13773   -13512   -13258   -12924   -12494 
  -12061   -11602   -11076   -10555   -10095    -9711    -9417    -9162 
   -8944    -8847    -8809    -8753    -8791    -8905    -8976    -9078 
   -9247    -9438    -9678    -9976   -10336   -10723   -11033   -11268 
  -11509   -11670   -11681   -11732   -11881   -11993   -12149   -12412 
  -12672   -12923   -13193   -13446   -13667   -13843   -13967   -14044 
  -14086   -14089   -14002   -13831   -13603   -13313   -13003   -12718 
  -12422   -12033   -11585   -11203   -10892   -10590   -10331   -10122 
   -9896    -9650    -9415    -9157    -8887    -8674    -8490    -8309 
   -8210    -8189    -8164    -8187    -8342    -8570    -8792    -9029 
   -9314    -9647    -9996   -10304   -10573   -10808   -10960   -11022 
  -11061   -11112   -11122   -11070   -11071   -11144   -11171   -11122 
  -11029   -10875   -10654   -10413   -10179    -9930    -9684    -9452 
   -9187    -8913    -8734    -8614    -8461    -8302    -8144    -7942 
   -7726    -7512    -7294    -7137    -7055    -6999    -7002    -7063 
   -7106    -7144    -7207    -7242    -7195    -7074    -6958    -6856 
   -6748    -6779    -6974    -7142    -7332    -7655    -7942    -8109 
   -8263    -8387    -8457    -8564    -8711    -8880    -9104    -9310 
   -9452    -9627    -9831    -9965   -10048   -10112   -10118   -10077 
  -10026    -9956    -9905    -9905    -9898    -9860    -9875    -9938 
   -9959    -9963   -10008   -10039   -10051   -10106   -10141   -10142 
