Origin Time       2011/03/11 14:46:00
Lat.              38.103
Long.             142.860
Depth. (km)       24
Mag.              9.0
Station Code      GIF001
Station Lat.      36.2743
Station Long.     136.8979
Station Height(m) 481
Record Time       2011/03/11 14:49:13
Sampling Freq(Hz) 100Hz
Duration Time(s)  133
Dir.              U-D
Scale Factor      3920(gal)/6182761
Max. Acc. (gal)   2.420
Last Correction   2011/03/11 14:48:58
Memo.             
[...]
   19810    19945    20070    20179    20278    20389    20495    20605 
   20724    20813    20873    20926    20962    20980    20983    20986 
   20991    20977    20955    20928    20877    20809    20741    20678 
   20623    20588    20572    20577    20600    20597    20562    20548 
   20560    20560    20543    20544    20571    20590    20584    20559 
   20518    20458    20362    20237    20109    19983    19861    19761 
   19665    19544    19425    19300    19146    19007    18895    18771 
   18640    18512    18372    18248    18150    18036    17940    17900 
   17876    17861    17880    17920    17968    18047    18146    18234 
   18308    18359    18396    18432    18460    18489    18529    18546 
   18549    18549    18527    18510    18502    18506    18548    18600 
   18628    18657    18710    18761    18813    18879    18936    18988 
   19042    19103    19159    19189    19226    19291    19356    19385 
   19381    19378    19371    19351    19335    19326    19305    19290 
   19306    19296    19268    19290    19317    19324    19339    19337 
   19320    19325    19337    19359    19422    19472    19463    19452 
   19449    19422    19401    19409    19442    19505    19571    19608 
   19618    19608    19586    19575    19590    19610    19615    19594 
   19549    19499    19419    19316    19238    19178    19134    19126 
   19124    19093    19035    18960    18875    18812    18795    18802 
   18805    18797    18790    18785    18771    18750    18749    18784 
   18829    18852    18850    18842    18849    18864    18886    18932 
   18991    19022    19024    19040    19075    19096    19107    19122 
   19138    19138    19108    19064    19052    19073    19085    19105 
   19142    19135    19070    18988    18913    18843    18774    18703 
   18647    18613    18581    18529    18474    18449    18445    18443 
   18446    18461    18462    18427    18408    18421    18425    18415 
   18391    18384    18420    18450    18485    18537    18567    18595 
   18638    18668    18684    18729    18808    18855    18881    18928 
   18957    18968    18998    19062    19160    19258    19313    19327 
   19341    19358    19346    19319    19312    19327    19354    19382 
   19407    19432    19448    19457    19475    19505    19543    19581 
   19618    19618    19586    19571    19540    19486    19449    19404 
   19358    19341    19318    19279    19266    19275    19260    19211 
   19167    19133    19094    19046    18994    18967    18951    18898 
   18842    18795    18728    18678    18657    18640    18631    18616 
   18598    18605    18627    18664    18699    18718    18734    18742 
   18758    18794    18824    18850    18890    18956    19038    19107 
   19177    19246    19301    19366    19432    19471    19498    19512 
   19496    19470    19447    19400    19332    19287    19280    19271 
   19229    19169    19108    19049    18991    18929    18861    18787 
   18725    18680    18648    18632    18630    18649    18663    18664 
   18684    18717    18757    18813    18879    18952    19021    19069 
   19123    19200    19264    19339    19455    19567    19680    19784 
   19846    19920    20011    20096    20203    20307    20390    20477 
   20529    20513    20492    20460    20381    20298    20215    20124 
   20035    19927    19794    19671    19591    19547    19504    19426 
   19303    19135    18932    18734    18593    18572    18679    18836 
   18983    19083    19085    19012    18948    18943    19007    19047 
   18963    18848    18843    18901    18928    18937    18993    19163 
   19418    19562    19434    19123    18859    18675    18547    18666 
   19087    19549    19823    19877    19806    19706    19624    19671 
   19912    20114    20010    19672    19348    19221    19437    19987 
   20527    20786    20844    20685    20197    19555    18977    18676 
   18801    19065    19210    19421    19734    19956    20089    20281 
   20517    20449    19950    19498    19318    19145    19014    19111 
   19347    19687    20117    20447    20562    20417    20022    19646 
   19434    19155    18794    18618    18700    18970    19316    19596 
   20012    20707    21075    20697    19956    19200    18658    18544 
   18691    18862    19124    19471    19697    19819    19888    19713 
   19317    18915    18503    18123    17947    17886    17874    18201 
   18880    19228    18818    18333    18460    18859    19065    18901 
   18189    17258    16781    16988    17671    18417    19032    19643 
   20037    20018    19978    19884    19320    18777    18901    19305 
   19544    19670    19585    19351    19247    19275    19580    20106 
   20202    19763    19285    18868    18458    18376    18814    19502 
   20075    20233    19884    19290    18888    19033    19608    20140 
   20469    20567    20158    19237    18439    18373    18965    19675 
   20001    19874    19578    19240    18820    18426    18295    18604 
   19116    19275    19026    18885    18999    19011    18792    18583 
   18625    18982    19544    20001    20003    19569    19027    18677 
   18785    19294    19736    19905    19947    19807    19338    18760 
   18528    18844    19356    19496    19290    19196    19195    19074 
   18970    18895    18702    18570    18766    19130    19234    19009 
   18706    18466    18345    18340    18560    19138    19746    19920 
   19588    19022    18713    18952    19431    19617    19501    19427 
   19315    19041    18975    19252    19546    19733    19941    20126 
   20098    19928    19902    20104    20304    20291    20084    19739 
   19544    19844    20248    20377    20542    20714    20701    20608 
   20235    19941    20492    21213    21257    21011    20612    19825 
   19122    19304    20338    21059    20881    20642    20578    20234 
   19960    19758    19297    19217    19624    19598    19024    18691 
   18977    19300    19132    18757    18450    18369    18622    18741 
   18615    18634    18558    18304    18345    18501    18412    18317 
   18367    18403    18299    18056    17831    18026    18716    19149 
   18990    18788    18714    18712    18848    18808    18637    18795 
   19006    19029    19196    19440    19662    19820    19597    19228 
   18872    18401    18510    19196    19346    19159    19312    19375 
   19383    19759    19991    19773    19461    19179    19098    19368 
   19648    19629    19196    18544    18314    18488    18638    19078 
   19665    19767    19817    19904    19400    19013    19496    20089 
   20226    20172    20167    20162    20007    19897    20234    20999 
   21632    21609    21280    21154    20797    20182    20131    20574 
   20827    20787    20592    20333    19958    19521    19562    20120 
   20431    20216    19702    19088    18656    18390    18058    17883 
   18150    18709    19288    19702    19846    19681    19318    19040 
   19022    19111    19063    18977    19024    19114    19196    19224 
   19241    19552    19932    19929    19852    19818    19555    19372 
   19326    18997    18513    18107    17846    18014    18498    18836 
   18975    19027    18944    18799    18745    18796    18976    19127 
   18874    18444    18366    18419    18209    17943    17863    17852 
   17858    18064    18519    18981    19162    19028    18708    18320 
   18118    18180    18167    18099    18257    18313    18048    17911 
   18038    18208    18522    18793    18591    18162    17824    17513 
   17358    17424    17428    17373    17581    18075    18607    18918 
   18920    18867    18955    19165    19453    19521    19247    19033 
   18900    18615    18438    18476    18694    19168    19370    19106 
   19034    19020    18715    18740    19094    19056    18800    18717 
   18636    18488    18267    17961    17771    17775    18030    18577 
   19114    19401    19426    19123    18568    18115    17937    17922 
   18041    18194    18307    18647    18997    18948    18921    19112 
   19076    18827    18631    18401    18126    17981    17912    17753 
   17425    16960    16651    16745    17193    17814    18268    18303 
   18063    17730    17209    16483    16011    16215    16802    17336 
   17768    17946    17773    17485    17282    17525    18200    18378 
   17866    17449    17211    16932    16845    16980    17203    17559 
   18017    18310    18242    18074    18113    18203    18104    17801 
   17493    17404    17467    17521    17666    17908    17897    17610 
   17493    17649    17783    17763    17638    17504    17468    17418 
   17171    16964    17148    17563    17820    17887    17977    18180 
   18387    18489    18521    18527    18430    18287    18408    18868 
   19287    19428    19346    19063    18655    18361    18450    18868 
   19242    19521    19864    20118    20043    19674    19307    19209 
   19342    19462    19491    19609    19768    19567    19051    18867 
   19151    19411    19547    19741    19822    19677    19571    19556 
   19573    19838    20217    20385    20500    20601    20464    20196 
   19988    19883    19908    19930    19869    19940    20167    20305 
   20268    20187    20240    20344    20278    20142    20027    19821 
   19654    19701    19865    20052    20226    20383    20536    20559 
   20524    20667    20794    20719    20654    20659    20636    20642 
   20682    20675    20562    20372    20368    20578    20609    20468 
   20336    19937    19344    19005    18914    18968    19197    19456 
   19659    19804    19719    19356    18978    18650    18257    18094 
   18302    18423    18361    18500    18882    19242    19367    19296 
   19309    19414    19369    19167    18914    18766    18785    18737 
   18689    18848    18954    18982    19245    19561    19537    19252 
   19023    18964    18922    18702    18443    18313    18182    18137 
   18297    18389    18294    18122    18019    18074    18087    17930 
   17788    17761    17817    17969    18222    18613    18983    18898 
   18540    18569    18884    19042    19004    18677    18120    17860 
   18115    18619    19147    19482    19452    18979    18110    17469 
   17718    18426    18889    19096    18935    18281    17618    17221 
   17133    17532    18044    18189    18132    18093    18048    17915 
   17622    17303    17250    17537    17936    18178    18259    18317 
   18260    18065    17864    17602    17294    17189    17400    17786 
   18026    17908    17638    17438    17280    17279    17441    17524 
   17613    17743    17702    17657    17643    17468    17456    17644 
   17493    17112    16978    17114    17497    18047    18407    18476 
   18422    18360    18442    18665    18836    18965    19189    19534 
   19848    19965    19925    19805    19530    19136    18924    19106 
   19487    19767    19869    19780    19584    19484    19553    19718 
   19825    19726    19439    19137    18958    18830    18668    18553 
   18544    18546    18472    18413    18438    18543    18637    18521 
   18301    18267    18303    18284    18439    18639    18484    18143 
   17912    17696    17512    17470    17447    17411    17334    17068 
   16826    16821    16965    17316    17775    17955    17925    18035 
   18099    17873    17739    17853    17872    17885    18163    18473 
   18625    18795    18930    18804    18614    18558    18460    18314 
   18311    18438    18569    18663    18809    19019    19022    18775 
   18598    18545    18585    18812    18975    18888    18812    18838 
   18835    18844    18826    18711    18674    18736    18944    19434 
   19784    19717    19590    19480    19373    19492    19644    19593 
   19555    19552    19478    19469    19478    19373    19400    19731 
   20082    20102    19854    19742    19760    19499    19043    18698 
   18400    18242    18400    18683    18930    19068    18998    18868 
   18746    18488    18256    18321    18632    19075    19492    19495 
   19141    19103    19497    19888    20320    20888    21302    21556 
   21726    21626    21324    20873    20286    20044    20122    19944 
   19702    19623    19364    18945    18664    18763    19342    19849 
   19807    19579    19261    18417    17186    16252    16124    16705 
   17492    18313    19265    20155    20624    20505    20025    19592 
   19356    19298    19296    19127    18855    18561    18129    17777 
   17722    17776    17826    17807    17623    17501    17571    17444 
   17034    16878    17162    17547    17837    17945    17727    17312 
   17128    17388    17839    18209    18502    18601    18239    17665 
   17525    17930    18470    18911    19140    19002    18533    17843 
   17130    16856    17137    17532    17645    17324    16912    17040 
   17628    18166    18651    19217    19553    19189    18210    17422 
   17417    18024    18856    19575    19921    19915    19663    19160 
   18619    18330    18137    17858    17681    17680    17644    17445 
   17285    17190    16978    16995    17456    18055    18717    19298 
   19496    19360    18854    17873    16933    16574    16555    16699 
   17178    17610    17608    17565    17746    17998    18220    18278 
   18373    18868    19206    18780    18145    17693    17144    16845 
   17052    17145    17066    17163    17222    17366    17849    18138 
   17931    17655    17491    17371    17315    17071    16438    15686 
   15122    15021    15600    16533    17271    17808    18257    18347 
   18074    17790    17535    17306    17366    17690    17925    17892 
   17766    17671    17429    17118    17101    17311    17401    17380 
   17320    17074    16848    17040    17459    17675    17631    17490 
   17299    16943    16510    16318    16459    16861    17393    17757 
   17884    17991    18198    18575    19091    19452    19360    18925 
   18547    18312    18135    18168    18312    18205    17953    17875 
   17878    17869    17999    18287    18630    18815    18833    18945 
   18876    18381    18017    17963    17861    17854    18042    17992 
   17699    17543    17479    17483    17753    18124    18408    18660 
   18681    18315    17804    17377    17158    17240    17575    17994 
   18204    18080    17929    17905    17786    17540    17338    17343 
   17577    17759    17779    17930    18270    18482    18441    18321 
   18286    18439    18788    19039    18906    18560    18274    18003 
   17764    17801    18230    18873    19348    19454    19356    19131 
   18746    18531    18785    19196    19352    19351    19415    19372 
   19081    18806    18726    18870    19269    19709    20003    20143 
   20104    20074    20197    20270    20275    20408    20546    20484 
   20305    20041    19628    19280    19089    18875    18866    19329 
   19933    20260    20047    19304    18595    18436    18692    19050 
   19561    20153    20430    20329    20105    19889    19644    19430 
   19511    19843    20029    19909    19593    19347    19358    19416 
   19357    19242    18902    18303    17759    17259    16802    16811 
   17288    17761    18114    18360    18334    18075    17832    17783 
   17941    18061    17942    17809    17821    17811    17827    17980 
   18197    18507    18748    18609    18282    18096    18021    18051 
   18250    18471    18564    18605    18657    18737    18918    18971 
   18685    18390    18317    18289    18213    18188    18242    18324 
   18500    18740    18761    18504    18228    17965    17626    17284 
   16978    16914    17317    17727    17650    17415    17301    17128 
   17038    17313    17772    18047    17948    17598    17380    17539 
   18002    18508    18799    18922    19050    19135    19183    19281 
   19354    19450    19630    19634    19383    19283    19533    19754 
   19741    19826    20076    20108    19894    19834    19977    20053 
   19974    19756    19674    19937    20156    20155    20225    20394 
   20597    20893    21201    21460    21644    21483    20821    20026 
   19489    19198    19097    19209    19445    19747    20062    20183 
   19969    19455    18763    18160    17899    17935    18101    18344 
   18474    18266    17862    17499    17308    17445    17895    18454 
   18864    18985    19050    19219    19300    19195    18986    18773 
   18573    18370    18242    18185    18166    18170    18084    18047 
   18294    18544    18503    18387    18337    18242    18091    17819 
   17441    17227    17221    17265    17463    17902    18375    18645 
   18681    18724    18994    19317    19433    19346    19180    18926 
   18414    17766    17448    17633    18108    18660    19151    19452 
   19532    19518    19542    19652    19841    19966    19773    19276 
   18742    18308    18042    18099    18451    18782    18862    18758 
   18692    18737    18727    18610    18523    18509    18496    18422 
   18378    18553    18838    18960    18898    18769    18697    18808 
   19043    19225    19361    19546    19691    19646    19441    19209 
   18994    18862    18920    19064    19108    19042    18915    18749 
   18642    18625    18579    18484    18459    18488    18418    18216 
   18035    18014    18115    18237    18365    18485    18531    18569 
   18677    18696    18605    18611    18614    18498    18509    18718 
   18937    19122    19255    19257    19140    18978    18788    18541 
   18262    18014    17908    17981    18177    18490    18826    19016 
   19019    18904    18800    18768    18749    18734    18753    18769 
   18761    18787    18858    18922    18939    18922    18969    19126 
   19357    19604    19795    19930    19977    19931    19905    19832 
   19584    19348    19364    19495    19465    19275    19121    19070 
   19018    18971    19047    19127    19065    18953    18795    18530 
   18251    18040    17909    17899    17982    18040    18045    18156 
   18357    18362    18140    17929    17746    17510    17417    17612 
   17877    18062    18278    18484    18591    18677    18745    18778 
   18826    18828    18749    18652    18502    18310    18207    18192 
   18233    18382    18511    18475    18392    18392    18502    18720 
   18996    19278    19506    19689    19845    19887    19878    19871 
   19726    19531    19495    19494    19385    19278    19272    19312 
   19283    19189    19173    19252    19273    19203    19110    19040 
   19063    19135    19106    19078    19225    19457    19652    19787 
   19859    19879    19847    19804    19834    19900    19911    19905 
   19995    20209    20433    20516    20463    20407    20392    20393 
   20425    20391    20172    19857    19609    19489    19376    19118 
   18822    18684    18700    18739    18718    18650    18580    18572 
   18657    18795    18910    18937    18846    18652    18436    18341 
   18425    18619    18861    19093    19192    19120    19030    19022 
   18979    18848    18744    18700    18710    18804    18825    18606 
   18281    18067    17990    17959    17922    17858    17771    17692 
   17626    17584    17565    17562    17671    17937    18208    18376 
   18475    18485    18413    18439    18616    18793    18915    18990 
   19003    19017    19060    19145    19342    19614    19849    20007 
