Origin Time       2011/03/11 14:46:00
Lat.              38.103
Long.             142.860
Depth. (km)       24
Mag.              9.0
Station Code      GIF004
Station Lat.      36.2493
Station Long.     137.5175
Station Height(m) 811
Record Time       2011/03/11 14:49:11
Sampling Freq(Hz) 100Hz
Duration Time(s)  131
Dir.              U-D
Scale Factor      3920(gal)/6182761
Max. Acc. (gal)   26.192
Last Correction   2011/03/11 14:48:56
Memo.             
[...]
  -37877   -38034   -38054   -38092   -38245   -38310   -38309   -38377 
  -38391   -38376   -38419   -38323   -38118   -38035   -38004   -37950 
  -37966   -38019   -38042   -38002   -37905   -37818   -37698   -37526 
  -37371   -37211   -37118   -37145   -37157   -37157   -37232   -37281 
  -37224   -37223   -37335   -37333   -37262   -37276   -37219   -37102 
  -37012   -36848   -36676   -36602   -36575   -36588   -36642   -36665 
  -36670   -36717   -36778   -36802   -36778   -36712   -36665   -36697 
  -36741   -36778   -36860   -36903   -36870   -36886   -36974   -37057 
  -37141   -37297   -37551   -37778   -37896   -37920   -37801   -37723 
  -37823   -37900   -38013   -38250   -38368   -38313   -38208   -38002 
  -37688   -37439   -37295   -37179   -37137   -37167   -37194   -37204 
  -37214   -37279   -37373   -37446   -37499   -37423   -37251   -37155 
  -37038   -36836   -36736   -36710   -36645   -36677   -36823   -36929 
  -37006   -37089   -37134   -37188   -37295   -37367   -37372   -37381 
  -37343   -37216   -37128   -37070   -36963   -36911   -36927   -36938 
  -36974   -36978   -36986   -37041   -36981   -36896   -36923   -36976 
  -37070   -37161   -37146   -37095   -37042   -36947   -36864   -36800 
  -36721   -36671   -36617   -36458   -36306   -36301   -36305   -36293 
  -36370   -36380   -36254   -36168   -36147   -36110   -36078   -36116 
  -36249   -36462   -36719   -36938   -37055   -37135   -37189   -37137 
  -37087   -37131   -37093   -36928   -36796   -36659   -36488   -36470 
  -36545   -36541   -36610   -36807   -36926   -37010   -37179   -37304 
  -37332   -37335   -37320   -37377   -37511   -37592   -37742   -37923 
  -37916   -37921   -37905   -37779   -37888   -37980   -37844   -37938 
  -38157   -38122   -38004   -38001   -38010   -38008   -38082   -38123 
  -38077   -38122   -38240   -38239   -38144   -38037   -37900   -37733 
  -37544   -37363   -37276   -37241   -37152   -37124   -37127   -37082 
  -37227   -37323   -37158   -37177   -37280   -37194   -37155   -37074 
  -36874   -36865   -36973   -36958   -36950   -36951   -36841   -36785 
  -36834   -36872   -36961   -37045   -37070   -37131   -37104   -36957 
  -36914   -36978   -36924   -36692   -36491   -36399   -36320   -36379 
  -36578   -36595   -36264   -35777   -35689   -36444   -37402   -37514 
  -37048   -36806   -36732   -36900   -37472   -37621   -37141   -36987 
  -37231   -37478   -37750   -37850   -37731   -37667   -37768   -37888 
  -37976   -38070   -37914   -37767   -37993   -37980   -37705   -37564 
  -37304   -37248   -37541   -37571   -37502   -37523   -37354   -37336 
  -37526   -37423   -37331   -37421   -37235   -37176   -37487   -37510 
  -37428   -37537   -37490   -37534   -37807   -37984   -38048   -37967 
  -37848   -37905   -38052   -38230   -38312   -38234   -38076   -37840 
  -37780   -37885   -37849   -37904   -38148   -38262   -38273   -38332 
  -38348   -38329   -38290   -38101   -37949   -38025   -38064   -37926 
  -37749   -37603   -37543   -37679   -37901   -37926   -37852   -37954 
  -38082   -38123   -38194   -38240   -38299   -38411   -38303   -37936 
  -37912   -38564   -39025   -38719   -38556   -38815   -38784   -38774 
  -38965   -38768   -38525   -38615   -38833   -39078   -39115   -39128 
  -39185   -38922   -38849   -39070   -39026   -39057   -39159   -39008 
  -39054   -39333   -39297   -38981   -38903   -38820   -38501   -38608 
  -38884   -39004   -39636   -40509   -41092   -40342   -35897   -30784 
  -33396   -41131   -42336   -39545   -40158   -39721   -39122   -40335 
  -36571   -32611   -34899   -36926   -37839   -40076   -39884   -37984 
  -37033   -35957   -35655   -36833   -37724   -37489   -37577   -38606 
  -38606   -37840   -37124   -36226   -35827   -35060   -35298   -37899 
  -38821   -37943   -37954   -37398   -36802   -36934   -36122   -35572 
  -36035   -36414   -36831   -36313   -35286   -35499   -35997   -36303 
  -36772   -36807   -35733   -35156   -36754   -37756   -37274   -36475 
  -35278   -36054   -37371   -36516   -36541   -36562   -34256   -33769 
  -36202   -37561   -37970   -38631   -37645   -37242   -38151   -35714 
  -34602   -38806   -39699   -37223   -37659   -36919   -35819   -39196 
  -38518   -32510   -33659   -38653   -38078   -37880   -40455   -39636 
  -38367   -39794   -37787   -34198   -36198   -38968   -37676   -36517 
  -36032   -34582   -36483   -41214   -41587   -39474   -39867   -39812 
  -38599   -38640   -38309   -36665   -35578   -36161   -37220   -37203 
  -37186   -37611   -37709   -38315   -38449   -37045   -36788   -38363 
  -39435   -39391   -38431   -37194   -36709   -36961   -37342   -36895 
  -35972   -35953   -36451   -36386   -36743   -38195   -38317   -37328 
  -37536   -37542   -37244   -37457   -36959   -36554   -36853   -36523 
  -36032   -37080   -38655   -38853   -38576   -38802   -38994   -38796 
  -38568   -38101   -36858   -36324   -36823   -37230   -37978   -37999 
  -37040   -37149   -37934   -38350   -38688   -39090   -39083   -38503 
  -38195   -37975   -37691   -37915   -37778   -37408   -37681   -37846 
  -37822   -38082   -37845   -37237   -37547   -37937   -37754   -38281 
  -38381   -36970   -36334   -37043   -37253   -37007   -36950   -36679 
  -36771   -37383   -37377   -37000   -37307   -38239   -38459   -37548 
  -37193   -37405   -36718   -36127   -36484   -36527   -36334   -36788 
  -37292   -37440   -37276   -36728   -36538   -36970   -37324   -37580 
  -37882   -37956   -37849   -37721   -37469   -36963   -36655   -36657 
  -36240   -36286   -37161   -37074   -36855   -37549   -37532   -37392 
  -37879   -37963   -38251   -38630   -38226   -37774   -37532   -37314 
  -37149   -37086   -37456   -37829   -37892   -37807   -37239   -36827 
  -37346   -38036   -38302   -38301   -38377   -38636   -38766   -38896 
  -39194   -39290   -39060   -38966   -39101   -38827   -38396   -38635 
  -38971   -38737   -38690   -39025   -38977   -38840   -39011   -38924 
  -38593   -38476   -38435   -38207   -38031   -38348   -38543   -38089 
  -38024   -38298   -38136   -38137   -38225   -38044   -38224   -38626 
  -38719   -38768   -38859   -38820   -38813   -38725   -38559   -38695 
  -38743   -38425   -38250   -38347   -38599   -38661   -38258   -38047 
  -38296   -38608   -38910   -38924   -38730   -38885   -39100   -38953 
  -38766   -38899   -39015   -38774   -38714   -38850   -38718   -38773 
  -38972   -38906   -38903   -38798   -38527   -38482   -38443   -38386 
  -38224   -37991   -38310   -38375   -37773   -37883   -38258   -38129 
  -38253   -38034   -37604   -37797   -37459   -36985   -36945   -36619 
  -37184   -38163   -38005   -37782   -37669   -37194   -37110   -37372 
  -37409   -37150   -36963   -36870   -36618   -36863   -37041   -36506 
  -36743   -36963   -36477   -36891   -37176   -36868   -36937   -36714 
  -36484   -36391   -35973   -35939   -36096   -35859   -35834   -36102 
  -36083   -35990   -36053   -36112   -36161   -36053   -36009   -35871 
  -35367   -35477   -35856   -35548   -35266   -35218   -35394   -35815 
  -35884   -35940   -36076   -35856   -35824   -35934   -35825   -36134 
  -36531   -36204   -35974   -36234   -36299   -36345   -36511   -36772 
  -37023   -36789   -36760   -37113   -37056   -36979   -36943   -36718 
  -36615   -36257   -35862   -36085   -36425   -36560   -36419   -36048 
  -35994   -36055   -36144   -36316   -36035   -36086   -36711   -36715 
  -36562   -36548   -36209   -36138   -36131   -35825   -35758   -35864 
  -36148   -36648   -36728   -36479   -36651   -37047   -36997   -36954 
  -37426   -37697   -37549   -37508   -37431   -37244   -37295   -37355 
  -37189   -37253   -37428   -37143   -36954   -37156   -37168   -37165 
  -37201   -37148   -37260   -37245   -36951   -36671   -36716   -36982 
  -37199   -37653   -37666   -37108   -37456   -37805   -37191   -37213 
  -37584   -37174   -36928   -37022   -36775   -36859   -37396   -37272 
  -36997   -37457   -37622   -37454   -37871   -38113   -37981   -38094 
  -37786   -37166   -37231   -37683   -37959   -37764   -37333   -37286 
  -37129   -36913   -37311   -37577   -37347   -37075   -36635   -36605 
  -37488   -37718   -36779   -36161   -35968   -36008   -36604   -37017 
  -36760   -36323   -36366   -36867   -37343   -37839   -37576   -35888 
  -34711   -35282   -36318   -37076   -37539   -37567   -37293   -36967 
  -36584   -35896   -35788   -36839   -37219   -36682   -36730   -36702 
  -36408   -36780   -36949   -36481   -36421   -36494   -36232   -36562 
  -37011   -36679   -36702   -37060   -36657   -36151   -36311   -36759 
  -37088   -37189   -36515   -35535   -35695   -36397   -36628   -36319 
  -35804   -36223   -36939   -36556   -36056   -36272   -36446   -36353 
  -36304   -36208   -36375   -36683   -36590   -36542   -36442   -36388 
  -37104   -37514   -36923   -36345   -36326   -36679   -37211   -37703 
  -37515   -37257   -37919   -38083   -37512   -37581   -37578   -37308 
  -37514   -37644   -37885   -38378   -38152   -37733   -37852   -37856 
  -37616   -37514   -37721   -38118   -38255   -38078   -37783   -37524 
  -37633   -37876   -37666   -37399   -37502   -37494   -37502   -37747 
  -37560   -37099   -36938   -36894   -36883   -36891   -36929   -36965 
  -36787   -36808   -37167   -37260   -37206   -37351   -37586   -37967 
  -38237   -38072   -37968   -37999   -37878   -38073   -38464   -38551 
  -38633   -38658   -38493   -38681   -38961   -38688   -38301   -38166 
  -38236   -38519   -38634   -38663   -39007   -39270   -39193   -39005 
  -38848   -38892   -39057   -39141   -39239   -39317   -39263   -39327 
  -39512   -39338   -39017   -39045   -39047   -38998   -39233   -39241 
  -38879   -38745   -38741   -38560   -38616   -38809   -38823   -39219 
  -39569   -39110   -38734   -38861   -38728   -38455   -38678   -38949 
  -38948   -39120   -39229   -39148   -39287   -39320   -38957   -38536 
  -38420   -39030   -40261   -41291   -41521   -40459   -38672   -37765 
  -37739   -38322   -39040   -38754   -39063   -40171   -40513   -40616 
  -39051   -37894   -39596   -38971   -38332   -40577   -39228   -37400 
  -38901   -38564   -37995   -39195   -38657   -38119   -39338   -39097 
  -38218   -38995   -39032   -37823   -37908   -38659   -38696   -39150 
  -39230   -38212   -38332   -38744   -38043   -37889   -38110   -37964 
  -38135   -38544   -38291   -37627   -37632   -37583   -37244   -37624 
  -37959   -37782   -37740   -37771   -37646   -37407   -37481   -37779 
  -37709   -37731   -38099   -38328   -38431   -38253   -37938   -38079 
  -38241   -38129   -38011   -37797   -37740   -37755   -37617   -38109 
  -38485   -37695   -37534   -38267   -38104   -38067   -38948   -39007 
  -38376   -38321   -38434   -38297   -38139   -38438   -38747   -38199 
  -37963   -38261   -38129   -38524   -38991   -38488   -38332   -38835 
  -38997   -38637   -38455   -38615   -38475   -38531   -38557   -37996 
  -38073   -38158   -37709   -37863   -37465   -37009   -38229   -39287 
  -39870   -40667   -40011   -38693   -38669   -39824   -40959   -40634 
  -40357   -40788   -39103   -37566   -37911   -35253   -32369   -34870 
  -37964   -40439   -44423   -43219   -38555   -40729   -44297   -41501 
  -38365   -37420   -37629   -41170   -41957   -35493   -30151   -29362 
  -31614   -39155   -45816   -45876   -44869   -42606   -37704   -37413 
  -39770   -36303   -31835   -34633   -39786   -39900   -38207   -37756 
  -36260   -37304   -44545   -51055   -47573   -36828   -33102   -37913 
  -37894   -34399   -35292   -35709   -37763   -45766   -46172   -37060 
  -35370   -39534   -39876   -40534   -41340   -39441   -40649   -41628 
  -34238   -29711   -33867   -35092   -37596   -43297   -41163   -40180 
  -42942   -36454   -31839   -39912   -47723   -46172   -39558   -34724 
  -32078   -33159   -41338   -47102   -42400   -37451   -39418   -41732 
  -42511   -39872   -32625   -30745   -32340   -34081   -42724   -46730 
  -42213   -46911   -52084   -35447   -19991   -34697   -43812   -31745 
  -40492   -47925   -30798   -39105   -53810   -32814   -25094   -46695 
  -54414   -48556   -52313   -50719   -24819   -13843   -32487   -35465 
  -39266   -58520   -46262   -25566   -35646   -36772   -25290   -38415 
  -50866   -45197   -47672   -48010   -34876   -30527   -35864   -25450 
  -13901   -35044   -50760   -43793   -52272   -50707   -33411   -34588 
  -30705   -20812   -28649   -38337   -44584   -51342   -52186   -50341 
  -42636   -25668   -20760   -33239   -38362   -40205   -47807   -41731 
  -34599   -45359   -49534   -38449   -33210   -33160   -23746   -21832 
  -41588   -53619   -51440   -54900   -46779   -22452   -17405   -32856 
  -39847   -41686   -43749   -35437   -33783   -44910   -48955   -48025 
  -45526   -38141   -35430   -41716   -40817   -31093   -35020   -38520 
  -29469   -36016   -43977   -34726   -39253   -49703   -40581   -38842 
  -42817   -29407   -31341   -46196   -41213   -40109   -41706   -34607 
  -47785   -58129   -37456   -22194   -23556   -25261   -36254   -50789 
  -47846   -41067   -48614   -51366   -36732   -24888   -26586   -30694 
  -31274   -33997   -42753   -46285   -38713   -34855   -28568   -11347 
  -10832   -24940   -27463   -34343   -48097   -45675   -43114   -53111 
  -54656   -51496   -58738   -60949   -52075   -45648   -38485   -30315 
  -39132   -58752   -56402   -30358   -11030   -10603   -15452   -18984 
  -33247   -56061   -68128   -67933   -61435   -47078   -44907   -60931 
  -44122    -9075   -33889   -66015   -35079   -14448   -28295   -15094 
    3138   -19702   -56900   -67602   -58129   -55942   -56821   -53617 
  -59958   -60916   -38151   -27097   -41279   -34024   -12091   -16857 
  -20145    -9326   -20463   -40632   -49481   -63175   -71011   -55749 
  -39801   -37123   -36489   -35166   -30148   -22586   -26808   -39610 
  -47883   -53888   -59104   -59676   -57264   -52100   -43881   -33810 
  -22019   -15136   -16376   -17094   -15619   -20900   -36721   -57995 
  -73692   -72868   -58126   -45618   -44740   -45053   -38426   -37293 
  -41656   -32849   -16418   -15267   -26996   -29456   -28125   -40858 
  -47977   -43006   -50339   -55070   -43608   -42885   -46191   -33683 
  -28014   -35017   -35818   -36198   -41696   -41941   -38111   -40487 
  -43510   -39057   -39831   -42117   -32628   -33403   -47282   -49091 
  -49372   -54717   -47679   -40027   -40115   -33982   -30674   -35469 
  -37427   -38860   -40070   -41799   -43112   -33547   -26014   -33437 
  -38044   -37400   -45568   -51744   -42176   -30445   -33872   -42505 
  -39654   -32145   -32290   -39874   -43470   -37043   -30830   -31165 
  -37538   -44945   -44489   -39309   -37227   -36388   -33611   -33507 
  -38542   -43682   -42806   -33053   -27860   -36962   -43345   -45652 
  -54871   -51990   -35909   -33993   -38108   -35984   -40900   -46429 
  -43145   -37621   -29685   -24275   -27015   -30801   -34833   -42095 
  -48507   -51995   -52813   -48466   -40169   -33494   -31060   -35234 
  -41486   -36221   -25327   -26823   -33401   -36936   -47703   -57091 
  -52742   -47519   -42957   -28969   -18821   -23569   -30929   -35584 
  -42752   -50358   -54296   -51765   -45473   -43758   -43697   -40089 
  -35103   -27636   -23453   -27604   -30754   -32967   -40919   -48916 
  -53137   -52614   -44161   -33878   -28397   -26468   -28716   -35051 
  -35812   -31046   -36441   -43885   -39591   -39829   -45314   -40204 
  -35688   -38552   -34502   -29013   -34702   -42304   -46566   -50921 
  -51508   -47971   -42992   -37504   -34407   -34510   -36094   -36324 
  -35449   -37232   -39553   -37729   -35761   -38352   -39464   -37993 
  -39834   -41046   -41029   -43642   -44888   -45871   -47161   -44066 
  -40666   -39958   -39970   -41018   -40100   -35234   -34503   -41676 
  -44501   -40457   -39673   -38954   -35374   -34946   -38389   -42716 
  -44808   -45083   -43941   -39882   -38153   -40007   -39884   -40481 
  -43732   -43683   -41230   -42470   -44185   -42779   -43198   -41332 
  -33551   -31800   -35340   -36457   -40043   -44458   -48061   -52778 
  -50272   -43782   -43303   -42055   -39914   -41283   -39230   -36792 
  -36816   -33085   -30425   -30760   -30589   -34189   -37896   -38735 
  -43596   -48371   -48230   -46723   -42819   -39719   -41716   -42013 
  -39615   -40244   -39856   -36795   -37102   -39906   -40296   -37529 
  -34274   -33650   -37105   -41928   -45107   -49066   -51189   -47272 
  -44372   -44608   -41773   -38424   -38222   -36613   -32908   -32571 
  -35070   -35422   -36177   -41439   -44929   -43856   -43277   -40499 
  -37685   -43633   -50701   -50370   -48827   -46603   -40302   -35635 
  -33244   -29498   -30616   -36719   -37715   -36770   -40936   -43759 
  -44437   -47815   -47735   -43328   -41195   -41597   -44063   -44485 
  -41506   -40322   -36411   -32095   -36420   -38955   -35599   -37298 
  -40234   -40820   -46058   -50244   -44773   -36780   -34208   -34094 
  -33130   -34335   -39019   -41718   -41051   -41065   -39429   -36206 
  -36788   -38801   -38687   -39020   -40307   -38589   -37517   -44217 
  -49021   -43642   -41152   -43472   -38939   -36553   -40837   -38970 
  -36278   -38628   -37459   -36391   -41215   -44926   -42365   -37650 
  -35867   -35847   -37315   -43285   -48384   -45936   -42361   -41840 
  -38296   -35773   -40320   -41494   -37463   -39907   -43380   -40932 
  -42671   -46319   -41542   -37429   -40363   -41299   -40865   -43536 
  -41844   -36200   -35877   -36575   -34516   -36449   -38608   -36340 
  -37310   -40070   -36569   -33650   -38224   -42242   -41879   -42161 
  -42206   -40087   -39150   -39914   -39258   -37355   -37166   -38252 
  -38764   -40571   -40592   -35578   -34636   -38837   -38841   -37648 
  -40683   -43360   -42488   -42030   -41758   -38390   -38061   -41004 
  -38270   -34480   -34921   -34438   -35375   -38915   -39435   -38983 
  -39466   -40087   -41866   -41381   -39358   -40240   -40622   -39114 
  -40052   -42309   -41713   -39832   -38989   -37539   -36586   -37746 
  -37440   -35360   -36681   -39904   -40238   -40190   -40072   -37725 
  -38436   -43154   -44330   -42715   -42721   -39720   -34799   -35357 
  -38133   -39953   -41940   -40649   -38322   -38371   -37548   -36870 
  -37415   -39148   -43285   -44604   -42411   -41669   -40402   -38436 
  -38100   -37308   -36394   -37014   -38269   -39118   -38622   -38284 
  -39628   -41019   -42584   -43257   -40806   -40028   -41949   -39941 
  -35716   -34984   -36175   -35934   -36152   -39033   -39948   -37728 
  -38068   -39184   -37551   -38128   -40913   -40392   -39312   -39232 
  -36348   -34625   -37123   -38081   -36667   -37486   -39421   -39660 
  -40806   -42411   -40512   -38052   -36586   -33628   -33022   -35868 
  -37428   -38415   -39498   -38240   -36914   -36793   -35928   -36680 
  -39795   -41073   -39755   -38187   -37119   -36377   -36768   -39427 
  -42353   -41843   -38230   -35318   -34773   -34553   -33642   -33181 
  -33161   -34575   -39114   -44315   -46041   -43392   -38590   -35110 
  -35179   -37063   -37973   -39032   -40273   -38739   -36314   -35688 
  -35703   -36463   -37206   -37760   -40562   -41763   -37696   -34403 
  -34266   -33988   -34929   -36479   -36123   -36178   -36412   -35484 
  -36798   -39873   -40174   -38690   -38078   -37849   -38507   -39186 
  -37896   -36094   -34824   -35387   -37812   -37630   -36342   -38020 
