Origin Time       2011/03/11 14:46:00
Lat.              38.103
Long.             142.860
Depth. (km)       24
Mag.              9.0
Station Code      GIF016
Station Lat.      35.5427
Station Long.     137.1195
Station Height(m) 137
Record Time       2011/03/11 14:48:53
Sampling Freq(Hz) 100Hz
Duration Time(s)  147
Dir.              E-W
Scale Factor      3920(gal)/6182761
Max. Acc. (gal)   4.577
Last Correction   2011/03/11 14:48:38
Memo.             
[...]
   -8293    -8219    -8158    -8139    -8184    -8333    -8504    -8593 
   -8607    -8582    -8600    -8701    -8743    -8606    -8364    -8146 
   -7976    -7821    -7705    -7694    -7746    -7738    -7643    -7546 
   -7497    -7418    -7238    -7089    -7077    -7110    -7103    -7046 
   -6973    -7003    -7210    -7457    -7558    -7523    -7501    -7574 
   -7686    -7734    -7702    -7682    -7743    -7886    -8123    -8450 
   -8790    -9088    -9349    -9606    -9916   -10305   -10710   -11039 
  -11284   -11519   -11777   -12002   -12093   -12027   -11916   -11820 
  -11674   -11444   -11148   -10806   -10469   -10193   -10026    -9959 
   -9912    -9822    -9669    -9506    -9473    -9606    -9743    -9754 
   -9705    -9760    -9996   -10305   -10523   -10575   -10485   -10318 
  -10124    -9954    -9852    -9753    -9568    -9369    -9271    -9267 
   -9273    -9234    -9169    -9111    -9069    -9091    -9185    -9266 
   -9247    -9061    -8729    -8378    -8121    -7996    -7950    -7885 
   -7776    -7645    -7495    -7367    -7351    -7453    -7539    -7477 
   -7273    -7110    -7110    -7114    -6968    -6757    -6590    -6495 
   -6448    -6348    -6157    -5952    -5807    -5765    -5822    -5945 
   -6100    -6256    -6405    -6531    -6610    -6692    -6857    -7100 
   -7336    -7530    -7714    -7903    -8117    -8363    -8582    -8741 
   -8887    -9075    -9318    -9554    -9670    -9593    -9416    -9325 
   -9414    -9622    -9780    -9758    -9614    -9515    -9568    -9726 
   -9818    -9750    -9604    -9494    -9421    -9280    -9010    -8732 
   -8598    -8620    -8737    -8838    -8827    -8790    -8842    -8937 
   -9018    -9078    -9087    -9072    -9104    -9184    -9292    -9457 
   -9690    -9937   -10139   -10294   -10413   -10495   -10567   -10669 
  -10855   -11124   -11364   -11454   -11386   -11270   -11230   -11251 
  -11205   -11054   -10854   -10659   -10548   -10541   -10530   -10450 
  -10343   -10285   -10348   -10491   -10565   -10496   -10376   -10367 
  -10474   -10485   -10257    -9885    -9558    -9394    -9351    -9234 
   -8941    -8612    -8408    -8341    -8353    -8406    -8477    -8555 
   -8683    -8903    -9148    -9351    -9560    -9877   -10292   -10644 
  -10837   -10990   -11272   -11692   -12084   -12268   -12252   -12221 
  -12332   -12562   -12717   -12680   -12535   -12395   -12327   -12298 
  -12167   -11890   -11602   -11445   -11374   -11199   -10840   -10446 
  -10212   -10144   -10066    -9877    -9644    -9452    -9337    -9279 
   -9182    -8980    -8771    -8667    -8634    -8580    -8507    -8495 
   -8598    -8790    -8969    -9039    -9017    -9002    -9054    -9146 
   -9205    -9188    -9127    -9086    -9115    -9182    -9155    -8956 
   -8660    -8374    -8193    -8113    -7977    -7735    -7487    -7294 
   -7189    -7160    -7147    -7089    -6978    -6918    -7017    -7199 
   -7313    -7345    -7363    -7397    -7444    -7479    -7493    -7498 
   -7477    -7457    -7509    -7635    -7794    -7957    -8096    -8181 
   -8210    -8226    -8319    -8551    -8841    -9055    -9124    -9071 
   -9010    -9026    -9105    -9197    -9269    -9333    -9382    -9412 
   -9501    -9653    -9765    -9799    -9746    -9609    -9508    -9505 
   -9508    -9451    -9342    -9230    -9169    -9101    -8952    -8748 
   -8543    -8403    -8397    -8504    -8650    -8813    -9014    -9228 
   -9381    -9480    -9631    -9880   -10176   -10419   -10482   -10368 
  -10265   -10314   -10463   -10580   -10611   -10590   -10573   -10556 
  -10489   -10353   -10195   -10058    -9903    -9718    -9639    -9738 
   -9883    -9947    -9909    -9874    -9977   -10211   -10467   -10629 
  -10652   -10631   -10659   -10697   -10641   -10458   -10234   -10052 
   -9887    -9698    -9524    -9442    -9463    -9512    -9510    -9444 
   -9364    -9313    -9297    -9306    -9311    -9311    -9332    -9383 
   -9467    -9533    -9482    -9393    -9460    -9659    -9781    -9713 
   -9523    -9334    -9219    -9177    -9102    -8926    -8765    -8723 
   -8754    -8810    -8849    -8767    -8544    -8285    -8109    -8095 
   -8168    -8178    -8125    -8126    -8238    -8365    -8364    -8262 
   -8194    -8230    -8369    -8556    -8677    -8686    -8655    -8677 
   -8784    -8919    -9022    -9148    -9300    -9383    -9419    -9454 
   -9479    -9565    -9773   -10057   -10295   -10390   -10423   -10537 
  -10676   -10712   -10674   -10624   -10568   -10508   -10448   -10415 
  -10417   -10398   -10345   -10297   -10301   -10414   -10595   -10728 
  -10813   -10917   -11027   -11070   -10976   -10768   -10559   -10414 
  -10310   -10184    -9986    -9796    -9744    -9812    -9870    -9839 
   -9777    -9791    -9881    -9982   -10061   -10130   -10224   -10345 
  -10461   -10584   -10709   -10814   -10927   -11022   -11055   -11092 
  -11191   -11320   -11437   -11495   -11470   -11401   -11323   -11288 
  -11365   -11488   -11492   -11320   -11026   -10702   -10452   -10335 
  -10288   -10162    -9921    -9708    -9636    -9673    -9726    -9688 
   -9505    -9270    -9139    -9166    -9256    -9222    -9002    -8756 
   -8632    -8620    -8626    -8587    -8542    -8562    -8642    -8723 
   -8769    -8783    -8776    -8751    -8728    -8697    -8612    -8499 
   -8460    -8498    -8555    -8603    -8590    -8493    -8357    -8216 
   -8084    -7965    -7856    -7757    -7700    -7719    -7749    -7676 
   -7500    -7342    -7264    -7193    -7087    -7002    -6985    -7081 
   -7327    -7605    -7756    -7835    -7992    -8258    -8566    -8851 
   -9084    -9255    -9403    -9563    -9708    -9833    -9963   -10089 
  -10207   -10266   -10211   -10120   -10052    -9945    -9768    -9547 
   -9316    -9132    -9030    -8964    -8848    -8656    -8489    -8449 
   -8497    -8541    -8549    -8508    -8443    -8420    -8461    -8544 
   -8644    -8713    -8737    -8791    -8937    -9142    -9314    -9405 
   -9418    -9356    -9302    -9365    -9487    -9552    -9572    -9599 
   -9608    -9563    -9460    -9312    -9121    -8876    -8604    -8352 
   -8151    -7992    -7800    -7550    -7350    -7260    -7203    -7101 
   -7000    -6982    -7029    -7095    -7122    -7064    -7069    -7295 
   -7611    -7850    -8049    -8270    -8523    -8807    -9076    -9274 
   -9406    -9479    -9466    -9367    -9247    -9177    -9192    -9259 
   -9295    -9320    -9437    -9637    -9813    -9931   -10048   -10210 
  -10365   -10406   -10283   -10047    -9791    -9617    -9587    -9597 
   -9518    -9394    -9333    -9352    -9374    -9318    -9221    -9179 
   -9217    -9303    -9357    -9317    -9268    -9278    -9272    -9222 
   -9193    -9266    -9443    -9593    -9633    -9631    -9670    -9745 
   -9776    -9708    -9573    -9411    -9243    -9089    -8956    -8857 
   -8800    -8726    -8648    -8716    -8967    -9233    -9360    -9387 
   -9466    -9651    -9865   -10019   -10079   -10098   -10184   -10344 
  -10463   -10477   -10424   -10358   -10279   -10168   -10104   -10151 
  -10202   -10133   -10010    -9979   -10036   -10073   -10061   -10037 
  -10000    -9950    -9963   -10076   -10157   -10092    -9934    -9804 
   -9798    -9907   -10049   -10165   -10228   -10299   -10487   -10755 
  -10977   -11100   -11146   -11162   -11186   -11213   -11211   -11182 
  -11141   -11103   -11085   -11057   -10948   -10720   -10425   -10186 
  -10072   -10028    -9951    -9819    -9713    -9759    -9912    -9927 
   -9733    -9538    -9492    -9571    -9679    -9699    -9586    -9447 
   -9419    -9502    -9604    -9703    -9813    -9879    -9870    -9881 
  -10003   -10168   -10274   -10388   -10584   -10763   -10847   -10850 
  -10821   -10848   -10932   -10950   -10824   -10625   -10510   -10509 
  -10482   -10332   -10127    -9991    -9919    -9809    -9641    -9524 
   -9547    -9651    -9748    -9789    -9729    -9636    -9659    -9758 
   -9748    -9616    -9539    -9592    -9671    -9666    -9517    -9233 
   -8978    -8914    -8954    -8915    -8834    -8856    -8913    -8830 
   -8640    -8504    -8527    -8735    -8980    -9019    -8848    -8773 
   -8994    -9335    -9542    -9562    -9464    -9388    -9497    -9779 
   -9956    -9855    -9699    -9726    -9844    -9904    -9924    -9925 
   -9914    -9973   -10069   -10029    -9846    -9731    -9811   -10022 
  -10262   -10443   -10524   -10550   -10573   -10629   -10739   -10839 
  -10864   -10803   -10693   -10625   -10664   -10761   -10803   -10744 
  -10650   -10624   -10674   -10710   -10659   -10542   -10435   -10351 
  -10228   -10098   -10050   -10095   -10194   -10301   -10397   -10513 
  -10637   -10681   -10607   -10507   -10497   -10572   -10643   -10681 
  -10721   -10746   -10731   -10760   -10916   -11144   -11338   -11453 
  -11513   -11617   -11830   -12043   -12101   -12006   -11921   -11959 
  -12073   -12196   -12292   -12316   -12300   -12322   -12355   -12335 
  -12273   -12205   -12150   -12085   -11953   -11749   -11500   -11212 
  -10942   -10727   -10508   -10232    -9894    -9567    -9371    -9322 
   -9321    -9269    -9145    -9017    -8941    -8877    -8783    -8716 
   -8776    -8972    -9179    -9303    -9370    -9385    -9348    -9343 
   -9393    -9447    -9512    -9607    -9704    -9810    -9956   -10063 
  -10068   -10077   -10186   -10318   -10337   -10254   -10169   -10118 
  -10115   -10150   -10137   -10010    -9798    -9571    -9371    -9205 
   -9084    -9016    -8957    -8845    -8679    -8567    -8618    -8744 
   -8778    -8711    -8642    -8674    -8790    -8844    -8820    -8819 
   -8867    -8960    -9039    -8984    -8768    -8510    -8309    -8169 
   -8087    -8069    -8075    -8046    -8005    -8015    -8053    -8090 
   -8136    -8157    -8146    -8165    -8239    -8334    -8442    -8606 
   -8816    -8976    -9048    -9117    -9273    -9510    -9757    -9959 
  -10123   -10286   -10460   -10621   -10708   -10697   -10647   -10614 
  -10623   -10648   -10634   -10583   -10494   -10332   -10172   -10081 
   -9974    -9798    -9628    -9485    -9313    -9107    -8932    -8855 
   -8881    -8918    -8865    -8785    -8837    -9049    -9306    -9443 
   -9375    -9212    -9118    -9124    -9160    -9127    -8998    -8857 
   -8766    -8643    -8442    -8253    -8163    -8208    -8321    -8354 
   -8290    -8276    -8408    -8598    -8691    -8636    -8511    -8422 
   -8329    -8122    -7899    -7815    -7823    -7824    -7811    -7812 
   -7866    -7972    -8053    -8059    -8002    -7921    -7855    -7832 
   -7873    -7951    -8014    -8056    -8038    -7952    -7888    -7902 
   -8002    -8184    -8396    -8593    -8763    -8906    -9077    -9308 
   -9545    -9770   -10020   -10279   -10535   -10769   -10912   -10981 
  -11064   -11193   -11339   -11450   -11480   -11468   -11540   -11742 
  -11962   -12088   -12128   -12170   -12282   -12435   -12514   -12447 
  -12306   -12212   -12235   -12321   -12306   -12119   -11876   -11712 
  -11611   -11481   -11306   -11113   -10917   -10727   -10512   -10276 
  -10089    -9979    -9887    -9790    -9746    -9792    -9933   -10186 
  -10518   -10877   -11246   -11586   -11818   -11934   -11988   -12018 
  -12043   -12043   -11959   -11780   -11593   -11509   -11552   -11664 
  -11783   -11886   -11956   -11947   -11848   -11672   -11424   -11184 
  -11001   -10785   -10506   -10291   -10267   -10440   -10669   -10799 
  -10829   -10878   -11010   -11159   -11220   -11182   -11120   -11068 
  -10980   -10824   -10634   -10458   -10292   -10084    -9852    -9690 
   -9628    -9607    -9532    -9339    -9099    -8940    -8876    -8859 
   -8830    -8724    -8581    -8542    -8655    -8841    -8999    -9093 
   -9161    -9258    -9366    -9429    -9418    -9367    -9367    -9450 
   -9513    -9467    -9332    -9199    -9173    -9277    -9416    -9502 
   -9541    -9575    -9620    -9687    -9767    -9844    -9926   -10020 
  -10080   -10055    -9966    -9883    -9853    -9850    -9827    -9804 
   -9832    -9910    -9970    -9962    -9926    -9943   -10061   -10251 
  -10393   -10385   -10234   -10024    -9799    -9539    -9212    -8824 
   -8422    -8052    -7751    -7478    -7126    -6695    -6248    -5804 
   -5425    -5182    -5079    -5070    -5085    -5073    -5062    -5119 
   -5234    -5335    -5404    -5495    -5636    -5773    -5867    -5965 
   -6116    -6339    -6638    -6989    -7320    -7578    -7804    -8063 
   -8380    -8738    -9021    -9154    -9262    -9497    -9821   -10082 
  -10216   -10290   -10369   -10436   -10436   -10300   -10053    -9848 
   -9765    -9752    -9715    -9562    -9335    -9145    -9037    -9051 
   -9174    -9299    -9366    -9410    -9484    -9613    -9764    -9879 
   -9914    -9857    -9731    -9571    -9428    -9327    -9190    -8958 
   -8711    -8512    -8395    -8389    -8386    -8279    -8154    -8133 
   -8274    -8592    -9010    -9404    -9734   -10037   -10372   -10790 
  -11242   -11603   -11790   -11815   -11777   -11801   -11939   -12113 
  -12179   -12077   -11913   -11863   -11993   -12153   -12148   -11961 
  -11716   -11520   -11391   -11233   -10973   -10698   -10472   -10266 
  -10074    -9866    -9590    -9267    -8961    -8741    -8630    -8599 
   -8617    -8621    -8562    -8523    -8624    -8860    -9160    -9425 
   -9578    -9668    -9796    -9996   -10244   -10483   -10680   -10859 
  -11062   -11269   -11428   -11538   -11677   -11923   -12261   -12592 
  -12847   -13051   -13286   -13590   -13919   -14247   -14582   -14946 
  -15379   -15845   -16228   -16472   -16602   -16622   -16523   -16349 
  -16141   -15934   -15722   -15480   -15243   -15022   -14773   -14511 
  -14255   -13969   -13653   -13336   -13034   -12794   -12652   -12587 
  -12533   -12412   -12253   -12167   -12178   -12206   -12153   -11998 
  -11815   -11681   -11584   -11438   -11178   -10815   -10410   -10040 
   -9761    -9563    -9424    -9339    -9271    -9167    -9034    -8893 
   -8740    -8595    -8479    -8398    -8368    -8404    -8493    -8609 
   -8726    -8814    -8866    -8957    -9148    -9355    -9465    -9495 
   -9505    -9506    -9534    -9615    -9678    -9626    -9457    -9259 
   -9103    -8972    -8802    -8562    -8279    -8015    -7804    -7629 
   -7458    -7300    -7217    -7273    -7429    -7613    -7814    -8004 
   -8177    -8371    -8576    -8760    -8863    -8821    -8713    -8686 
   -8770    -8826    -8688    -8407    -8198    -8160    -8266    -8418 
   -8469    -8411    -8406    -8542    -8765    -8968    -9097    -9243 
   -9486    -9727    -9824    -9761    -9641    -9580    -9571    -9511 
   -9363    -9191    -9096    -9102    -9124    -9095    -9007    -8885 
   -8804    -8769    -8743    -8761    -8816    -8830    -8814    -8799 
   -8731    -8625    -8553    -8486    -8375    -8239    -8106    -8009 
   -7972    -8000    -8058    -8057    -7988    -7965    -8060    -8209 
   -8326    -8382    -8351    -8260    -8227    -8322    -8502    -8707 
   -8930    -9150    -9304    -9380    -9436    -9518    -9622    -9707 
   -9684    -9516    -9307    -9138    -8974    -8801    -8638    -8547 
   -8657    -8992    -9397    -9708    -9824    -9738    -9616    -9597 
   -9600    -9497    -9280    -9089    -9105    -9329    -9566    -9660 
   -9653    -9662    -9763    -9958   -10166   -10305   -10365   -10362 
  -10309   -10224   -10149   -10113   -10112   -10155   -10249   -10390 
  -10555   -10712   -10867   -11051   -11298   -11628   -12039   -12502 
  -12970   -13401   -13807   -14236   -14653   -14928   -15000   -14951 
  -14903   -14917   -14966   -14969   -14900   -14791   -14664   -14572 
  -14572   -14624   -14652   -14605   -14488   -14361   -14249   -14129 
  -13996   -13819   -13552   -13184   -12764   -12392   -12144   -11976 
  -11825   -11694   -11601   -11558   -11571   -11613   -11648   -11658 
  -11675   -11713   -11737   -11718   -11627   -11441   -11222   -11065 
  -11034   -11150   -11330   -11455   -11504   -11522   -11541   -11560 
  -11531   -11412   -11228   -11015   -10817   -10698   -10674   -10692 
  -10712   -10775   -10938   -11170   -11394   -11585   -11734   -11834 
  -11915   -12002   -12120   -12320   -12574   -12758   -12787   -12673 
  -12522   -12429   -12367   -12289   -12171   -11990   -11797   -11658 
  -11552   -11428   -11277   -11121   -11003   -10953   -10944   -10908 
  -10790   -10588   -10333   -10078    -9934    -9945   -10030   -10096 
  -10091   -10005    -9901    -9815    -9711    -9593    -9468    -9283 
   -9010    -8683    -8357    -8060    -7776    -7506    -7283    -7131 
   -7059    -7009    -6942    -6937    -7035    -7186    -7344    -7490 
   -7604    -7693    -7754    -7778    -7798    -7788    -7668    -7497 
   -7414    -7473    -7666    -7902    -8010    -7934    -7778    -7633 
   -7533    -7430    -7231    -6968    -6754    -6671    -6725    -6798 
   -6759    -6601    -6416    -6305    -6261    -6221    -6167    -6074 
   -5953    -5883    -5874    -5880    -5910    -5955    -5986    -6032 
   -6136    -6318    -6519    -6657    -6756    -6875    -7029    -7227 
   -7428    -7592    -7732    -7868    -8020    -8231    -8530    -8893 
   -9250    -9490    -9550    -9528    -9577    -9725    -9874    -9946 
   -9982   -10063   -10174   -10261   -10306   -10299   -10275   -10253 
  -10179   -10090   -10033   -10017   -10108   -10242   -10339   -10444 
  -10548   -10653   -10787   -10925   -11051   -11148   -11248   -11405 
  -11609   -11832   -12035   -12188   -12290   -12341   -12409   -12527 
  -12568   -12480   -12421   -12474   -12537   -12492   -12368   -12245 
  -12164   -12158   -12144   -12031   -11967   -12057   -12167   -12163 
  -12064   -11989   -12058   -12294   -12496   -12404   -12086   -11804 
  -11752   -11980   -12207   -12149   -11957   -11859   -11899   -12047 
  -12162   -12140   -12082   -12116   -12255   -12403   -12470   -12444 
  -12353   -12277   -12262   -12270   -12290   -12304   -12283   -12291 
  -12325   -12285   -12200   -12112   -11911   -11536   -11046   -10564 
  -10254   -10140   -10071    -9978    -9910    -9877    -9865    -9837 
   -9797    -9858   -10008   -10079   -10013    -9874    -9767    -9743 
   -9668    -9475    -9298    -9213    -9232    -9361    -9522    -9640 
   -9740    -9862    -9992   -10128   -10276   -10405   -10532   -10706 
  -10939   -11218   -11477   -11652   -11735   -11796   -11918   -12066 
  -12228   -12460   -12679   -12792   -12796   -12650   -12403   -12256 
  -12302   -12462   -12625   -12714   -12729   -12724   -12775   -12931 
  -13080   -13082   -12944   -12743   -12562   -12353   -11982   -11448 
  -10832   -10243    -9788    -9411    -9020    -8664    -8360    -8099 
   -7914    -7743    -7569    -7462    -7429    -7432    -7402    -7311 
   -7228    -7228    -7357    -7543    -7665    -7726    -7758    -7782 
   -7856    -7972    -8064    -8129    -8212    -8307    -8380    -8407 
   -8378    -8375    -8470    -8604    -8697    -8714    -8710    -8757 
   -8788    -8699    -8521    -8343    -8169    -7935    -7655    -7392 
   -7123    -6865    -6661    -6462    -6262    -6054    -5777    -5499 
   -5341    -5305    -5254    -5052    -4782    -4599    -4544    -4633 
   -4775    -4886    -5030    -5223    -5412    -5559    -5636    -5684 
   -5761    -5855    -5931    -6056    -6320    -6641    -6896    -7072 
   -7133    -7109    -7106    -7122    -7197    -7358    -7464    -7478 
