Origin Time       2011/03/11 14:46:00
Lat.              38.103
Long.             142.860
Depth. (km)       24
Mag.              9.0
Station Code      GIF017
Station Lat.      35.4830
Station Long.     136.5713
Station Height(m) 40
Record Time       2011/03/11 14:48:58
Sampling Freq(Hz) 100Hz
Duration Time(s)  173
Dir.              U-D
Scale Factor      3920(gal)/6182761
Max. Acc. (gal)   3.194
Last Correction   2011/03/11 14:48:43
Memo.             
[...]
  -37103   -36990   -36840   -36612   -36312   -35978   -35742   -35692 
  -35723   -35692   -35564   -35414   -35351   -35319   -35156   -34959 
  -34965   -35081   -35021   -34886   -35031   -35328   -35328   -35045 
  -34887   -34996   -35066   -34987   -35089   -35321   -35255   -34931 
  -34785   -34996   -35116   -34771   -34492   -34697   -34790   -34300 
  -33878   -34156   -34287   -33459   -32825   -33324   -33749   -33230 
  -32795   -33211   -33734   -33522   -33002   -33297   -34337   -34749 
  -34176   -33795   -34322   -35117   -35327   -35134   -35333   -35940 
  -36178   -35661   -35029   -35241   -36131   -36559   -36214   -35823 
  -35869   -36212   -36362   -36109   -35958   -36143   -36086   -35638 
  -35489   -35790   -35734   -34988   -34373   -34583   -35017   -34625 
  -33623   -33185   -33504   -33583   -32903   -32212   -32320   -32747 
  -32593   -32073   -31926   -32198   -32397   -32270   -32179   -32589 
  -33232   -33354   -32902   -32685   -33078   -33496   -33535   -33504 
  -33664   -33865   -33906   -33765   -33624   -33727   -34069   -34285 
  -34112   -33839   -33823   -33941   -34029   -34171   -34346   -34463 
  -34468   -34287   -34020   -33984   -34305   -34642   -34660   -34524 
  -34502   -34507   -34431   -34385   -34369   -34329   -34452   -34732 
  -34864   -34846   -34924   -35119   -35261   -35277   -35307   -35443 
  -35544   -35469   -35292   -35247   -35455   -35615   -35286   -34663 
  -34341   -34335   -34311   -34151   -33780   -33405   -33415   -33551 
  -33321   -33021   -33141   -33441   -33458   -33229   -33158   -33503 
  -33921   -33920   -33739   -33833   -33988   -33808   -33389   -33096 
  -33132   -33321   -33346   -33190   -32999   -32800   -32635   -32532 
  -32404   -32260   -32200   -32222   -32207   -32069   -32024   -32297 
  -32512   -32231   -31825   -31883   -32280   -32462   -32252   -32059 
  -32307   -32744   -32807   -32544   -32405   -32529   -32776   -33034 
  -33184   -33144   -33103   -33326   -33695   -33851   -33737   -33648 
  -33756   -33923   -34038   -34134   -34234   -34323   -34340   -34311 
  -34413   -34642   -34726   -34526   -34238   -34111   -34272   -34732 
  -35178   -35254   -35124   -35124   -35270   -35389   -35403   -35524 
  -35881   -36120   -35945   -35685   -35754   -35996   -36045   -35861 
  -35742   -35949   -36156   -35930   -35652   -35794   -36111   -36275 
  -36301   -36375   -36621   -36747   -36512   -36351   -36557   -36591 
  -36102   -35644   -35635   -35678   -35403   -35067   -35045   -35230 
  -35237   -35000   -34776   -34791   -35002   -35189   -35346   -35513 
  -35515   -35486   -35752   -36082   -36138   -36103   -36093   -35986 
  -35825   -35569   -35205   -35060   -35127   -34986   -34712   -34740 
  -34978   -35026   -34940   -35036   -35315   -35507   -35485   -35490 
  -35729   -35942   -35916   -35878   -35888   -35703   -35427   -35363 
  -35424   -35380   -35260   -35195   -35145   -34938   -34669   -34658 
  -34788   -34687   -34473   -34440   -34543   -34683   -34858   -34971 
  -34848   -34467   -34177   -34348   -34746   -34907   -34850   -34848 
  -34887   -34782   -34523   -34276   -34208   -34309   -34437   -34436 
  -34236   -34052   -34154   -34366   -34369   -34254   -34351   -34633 
  -34661   -34388   -34367   -34776   -35136   -35092   -34813   -34625 
  -34599   -34578   -34478   -34404   -34368   -34220   -33999   -33903 
  -33930   -33898   -33769   -33719   -33743   -33587   -33301   -33302 
  -33646   -33856   -33770   -33730   -33838   -33846   -33674   -33526 
  -33560   -33666   -33652   -33577   -33646   -33769   -33736   -33663 
  -33673   -33620   -33484   -33448   -33556   -33615   -33474   -33299 
  -33309   -33346   -33158   -32877   -32793   -32894   -32908   -32700 
  -32499   -32556   -32720   -32699   -32631   -32889   -33372   -33645 
  -33674   -33744   -33988   -34387   -34782   -34979   -35125   -35360 
  -35454   -35407   -35514   -35793   -36069   -36195   -36067   -35810 
  -35668   -35674   -35699   -35716   -35780   -35786   -35610   -35414 
  -35421   -35543   -35509   -35295   -35150   -35152   -35068   -34787 
  -34579   -34708   -35004   -35107   -34960   -34870   -35045   -35274 
  -35365   -35457   -35559   -35524   -35446   -35422   -35395   -35367 
  -35348   -35321   -35246   -35026   -34734   -34589   -34643   -34773 
  -34821   -34710   -34574   -34579   -34689   -34783   -34774   -34685 
  -34729   -34958   -35158   -35323   -35616   -35928   -36085   -36166 
  -36304   -36523   -36794   -37030   -37151   -37182   -37214   -37339 
  -37553   -37736   -37827   -37833   -37792   -37825   -37925   -37902 
  -37738   -37587   -37482   -37385   -37354   -37406   -37408   -37304 
  -37224   -37230   -37206   -37102   -37098   -37291   -37460   -37435 
  -37357   -37369   -37406   -37357   -37215   -37087   -37077   -37082 
  -36995   -36956   -37031   -37086   -37075   -37050   -37020   -36954 
  -36901   -36939   -36999   -37017   -37076   -37231   -37373   -37360 
  -37240   -37131   -36991   -36800   -36646   -36556   -36496   -36456 
  -36411   -36301   -36164   -36067   -35911   -35717   -35711   -35829 
  -35815   -35657   -35498   -35441   -35484   -35515   -35475   -35479 
  -35599   -35635   -35500   -35432   -35555   -35763   -35946   -36030 
  -36046   -36052   -36064   -36119   -36188   -36196   -36219   -36303 
  -36353   -36332   -36204   -35984   -35898   -35984   -35980   -35854 
  -35741   -35629   -35533   -35489   -35374   -35159   -35011   -35008 
  -35037   -35008   -34932   -34775   -34568   -34493   -34568   -34591 
  -34480   -34395   -34456   -34467   -34234   -33958   -33914   -34081 
  -34269   -34332   -34325   -34403   -34507   -34481   -34391   -34391 
  -34449   -34441   -34336   -34239   -34299   -34463   -34476   -34290 
  -34158   -34180   -34235   -34304   -34412   -34520   -34642   -34772 
  -34881   -35018   -35164   -35242   -35295   -35318   -35219   -35070 
  -34982   -34931   -34856   -34707   -34537   -34460   -34401   -34288 
  -34266   -34306   -34192   -33985   -33910   -33959   -33975   -33970 
  -34048   -34140   -34132   -34044   -33957   -33970   -34071   -34109 
  -34052   -34016   -34032   -34040   -34065   -34151   -34228   -34213 
  -34155   -34226   -34439   -34532   -34442   -34424   -34522   -34509 
  -34309   -34148   -34229   -34397   -34424   -34424   -34549   -34646 
  -34562   -34432   -34389   -34345   -34174   -33924   -33754   -33666 
  -33472   -33180   -33009   -32968   -32835   -32561   -32367   -32339 
  -32309   -32216   -32159   -32206   -32362   -32560   -32682   -32704 
  -32717   -32786   -32868   -32933   -32970   -32910   -32799   -32792 
  -32877   -32939   -32936   -32884   -32845   -32858   -32909   -32974 
  -33039   -33110   -33198   -33321   -33454   -33518   -33554   -33664 
  -33775   -33785   -33817   -33975   -34122   -34175   -34238   -34396 
  -34659   -34931   -35079   -35201   -35438   -35650   -35744   -35900 
  -36180   -36416   -36567   -36728   -36891   -37018   -37142   -37254 
  -37291   -37250   -37190   -37150   -37159   -37193   -37124   -37004 
  -37050   -37162   -37075   -36884   -36838   -36879   -36796   -36581 
  -36385   -36268   -36169   -36024   -35851   -35728   -35655   -35577 
  -35522   -35535   -35545   -35500   -35451   -35429   -35435   -35453 
  -35487   -35550   -35594   -35591   -35619   -35727   -35864   -35975 
  -36062   -36145   -36215   -36264   -36294   -36325   -36391   -36475 
  -36526   -36520   -36518   -36601   -36669   -36531   -36269   -36128 
  -36111   -36087   -36055   -36042   -36069   -36134   -36158   -36166 
  -36228   -36256   -36219   -36210   -36219   -36210   -36162   -36060 
  -35938   -35766   -35533   -35382   -35342   -35281   -35167   -35053 
  -34961   -34910   -34896   -34900   -34949   -35043   -35121   -35122 
  -35067   -35077   -35212   -35348   -35349   -35286   -35326   -35439 
  -35460   -35416   -35453   -35555   -35636   -35733   -35887   -36032 
  -36143   -36276   -36418   -36506   -36539   -36575   -36654   -36735 
  -36792   -36869   -36911   -36863   -36871   -36974   -36963   -36812 
  -36709   -36691   -36657   -36572   -36515   -36551   -36587   -36470 
  -36264   -36210   -36319   -36345   -36257   -36256   -36381   -36510 
  -36575   -36569   -36516   -36509   -36642   -36813   -36871   -36902 
  -37047   -37249   -37362   -37361   -37409   -37639   -37876   -37907 
  -37832   -37815   -37844   -37842   -37754   -37621   -37544   -37485 
  -37347   -37115   -36795   -36478   -36287   -36152   -36000   -35897 
  -35794   -35613   -35485   -35485   -35492   -35463   -35474   -35518 
  -35529   -35513   -35495   -35491   -35520   -35512   -35400   -35262 
  -35192   -35145   -35009   -34791   -34598   -34448   -34323   -34245 
  -34155   -34014   -33893   -33798   -33680   -33607   -33625   -33659 
  -33673   -33654   -33564   -33455   -33435   -33479   -33511   -33550 
  -33598   -33633   -33689   -33749   -33755   -33758   -33793   -33785 
  -33750   -33779   -33842   -33883   -33891   -33855   -33818   -33865 
  -33990   -34055   -33989   -33947   -34067   -34227   -34284   -34309 
  -34426   -34575   -34609   -34578   -34619   -34720   -34781   -34767 
  -34781   -34895   -34954   -34866   -34829   -34959   -35123   -35197 
  -35212   -35231   -35246   -35265   -35355   -35513   -35651   -35720 
  -35792   -35962   -36158   -36192   -36116   -36147   -36239   -36204 
  -36103   -36094   -36170   -36231   -36219   -36127   -36009   -35935 
  -35847   -35691   -35582   -35546   -35497   -35452   -35372   -35197 
  -35050   -34969   -34853   -34738   -34683   -34630   -34569   -34575 
  -34640   -34700   -34747   -34773   -34796   -34873   -35013   -35146 
  -35208   -35232   -35299   -35423   -35601   -35779   -35873   -35949 
  -36081   -36191   -36289   -36411   -36454   -36387   -36293   -36280 
  -36371   -36430   -36426   -36513   -36676   -36744   -36712   -36704 
  -36799   -37004   -37207   -37299   -37334   -37402   -37479   -37524 
  -37566   -37610   -37656   -37766   -37856   -37790   -37725   -37850 
  -38015   -38019   -37887   -37785   -37807   -37830   -37708   -37527 
  -37471   -37534   -37520   -37357   -37189   -37088   -36982   -36846 
  -36703   -36569   -36485   -36428   -36281   -36082   -35976   -35934 
  -35870   -35815   -35792   -35802   -35883   -35988   -36026   -36050 
  -36149   -36239   -36237   -36265   -36436   -36600   -36626   -36626 
  -36669   -36716   -36816   -36920   -36925   -36901   -36920   -36968 
  -37023   -36999   -36888   -36834   -36865   -36859   -36736   -36543 
  -36442   -36450   -36373   -36179   -36040   -35952   -35771   -35560 
  -35483   -35471   -35349   -35165   -35093   -35105   -35038   -34913 
  -34877   -34950   -35024   -35005   -34933   -34904   -34874   -34792 
  -34722   -34679   -34664   -34683   -34650   -34613   -34685   -34720 
  -34614   -34517   -34507   -34509   -34467   -34371   -34295   -34358 
  -34485   -34487   -34362   -34264   -34274   -34365   -34459   -34482 
  -34453   -34452   -34534   -34661   -34716   -34680   -34685   -34741 
  -34760   -34774   -34769   -34650   -34555   -34644   -34774   -34762 
  -34679   -34645   -34656   -34691   -34695   -34637   -34647   -34784 
  -34895   -34902   -34886   -34940   -35045   -35098   -35066   -35026 
  -35077   -35189   -35192   -35053   -34962   -35009   -35092   -35147 
  -35220   -35352   -35514   -35646   -35737   -35834   -35991   -36176 
  -36282   -36297   -36321   -36421   -36563   -36689   -36770   -36813 
  -36913   -37099   -37243   -37303   -37412   -37613   -37761   -37787 
  -37834   -37966   -38078   -38148   -38243   -38410   -38577   -38554 
  -38345   -38211   -38239   -38195   -37933   -37664   -37582   -37518 
  -37264   -36932   -36732   -36662   -36563   -36364   -36142   -35963 
  -35808   -35706   -35702   -35716   -35658   -35553   -35435   -35328 
  -35256   -35164   -35017   -34913   -34911   -34926   -34897   -34863 
  -34829   -34780   -34814   -34930   -34944   -34852   -34830   -34903 
  -34957   -34914   -34775   -34678   -34768   -34966   -35067   -35028 
  -35006   -35067   -35095   -35065   -35011   -34898   -34765   -34630 
  -34398   -34110   -33924   -33869   -33884   -33970   -34091   -34157 
  -34206   -34334   -34474   -34551   -34626   -34707   -34736   -34773 
  -34902   -35026   -35062   -35121   -35261   -35357   -35341   -35337 
  -35442   -35550   -35552   -35531   -35575   -35614   -35557   -35465 
  -35469   -35583   -35647   -35564   -35510   -35611   -35674   -35560 
  -35431   -35481   -35652   -35703   -35618   -35641   -35794   -35824 
  -35653   -35480   -35492   -35580   -35506   -35363   -35427   -35666 
  -35820   -35768   -35650   -35610   -35578   -35469   -35370   -35339 
  -35282   -35168   -35134   -35232   -35292   -35226   -35179   -35250 
  -35361   -35398   -35311   -35165   -35089   -35110   -35145   -35153 
  -35170   -35228   -35277   -35282   -35309   -35376   -35438   -35508 
  -35573   -35599   -35615   -35624   -35591   -35576   -35622   -35642 
  -35634   -35701   -35834   -35982   -36139   -36255   -36337   -36474 
  -36644   -36773   -36887   -37011   -37127   -37249   -37383   -37522 
  -37688   -37895   -38071   -38147   -38188   -38280   -38390   -38456 
  -38497   -38597   -38803   -39004   -39080   -39089   -39146   -39275 
  -39391   -39414   -39425   -39495   -39559   -39645   -39816   -39962 
  -39990   -39986   -40073   -40263   -40464   -40538   -40499   -40538 
  -40654   -40647   -40545   -40509   -40499   -40456   -40421   -40402 
  -40395   -40391   -40341   -40245   -40142   -40046   -39895   -39670 
  -39475   -39351   -39220   -39065   -38900   -38680   -38398   -38139 
  -37946   -37762   -37557   -37316   -37036   -36797   -36626   -36424 
  -36187   -36016   -35911   -35777   -35600   -35449   -35368   -35311 
  -35249   -35233   -35298   -35425   -35586   -35722   -35779   -35774 
  -35757   -35765   -35793   -35825   -35893   -35982   -36026   -36085 
  -36260   -36488   -36643   -36708   -36723   -36722   -36700   -36596 
  -36469   -36522   -36751   -36901   -36868   -36772   -36685   -36594 
  -36526   -36489   -36463   -36470   -36514   -36548   -36566   -36585 
  -36584   -36563   -36512   -36424   -36362   -36354   -36372   -36400 
  -36436   -36498   -36588   -36638   -36586   -36502   -36485   -36488 
  -36452   -36421   -36404   -36361   -36307   -36286   -36300   -36275 
  -36157   -36027   -36021   -36144   -36268   -36321   -36364   -36412 
  -36391   -36323   -36289   -36271   -36240   -36237   -36274   -36325 
  -36384   -36453   -36518   -36589   -36669   -36687   -36633   -36620 
  -36672   -36722   -36804   -36943   -37058   -37128   -37199   -37245 
  -37246   -37271   -37346   -37427   -37490   -37555   -37650   -37702 
  -37620   -37498   -37455   -37451   -37437   -37412   -37406   -37444 
  -37466   -37470   -37528   -37571   -37545   -37547   -37573   -37536 
  -37474   -37455   -37462   -37477   -37507   -37527   -37516   -37515 
  -37508   -37422   -37318   -37318   -37359   -37300   -37168   -37058 
  -36963   -36857   -36753   -36605   -36425   -36317   -36275   -36255 
  -36277   -36305   -36300   -36327   -36424   -36518   -36528   -36494 
  -36484   -36471   -36428   -36382   -36330   -36287   -36314   -36410 
  -36501   -36565   -36622   -36651   -36641   -36626   -36662   -36791 
  -36910   -36895   -36832   -36858   -36939   -36938   -36826   -36712 
  -36657   -36620   -36590   -36597   -36619   -36597   -36542   -36506 
  -36493   -36476   -36396   -36236   -36138   -36157   -36179   -36176 
  -36174   -36131   -36105   -36168   -36221   -36205   -36194   -36184 
  -36132   -36098   -36092   -36040   -35974   -36005   -36106   -36171 
  -36212   -36272   -36333   -36417   -36535   -36606   -36624   -36666 
  -36710   -36724   -36783   -36901   -36975   -36980   -37013   -37101 
  -37159   -37173   -37210   -37266   -37277   -37247   -37211   -37163 
  -37111   -37069   -37037   -37069   -37215   -37367   -37390   -37319 
  -37269   -37256   -37219   -37125   -37003   -36927   -36951   -37020 
  -37040   -36994   -36908   -36802   -36707   -36636   -36552   -36434 
  -36353   -36334   -36281   -36179   -36142   -36177   -36169   -36127 
  -36150   -36201   -36200   -36203   -36315   -36521   -36693   -36772 
  -36840   -36920   -36965   -37016   -37080   -37066   -36989   -36929 
  -36881   -36863   -36914   -36978   -37014   -37045   -37033   -36952 
  -36901   -36940   -36973   -36929   -36867   -36821   -36785   -36764 
  -36741   -36676   -36569   -36489   -36504   -36571   -36593   -36580 
  -36624   -36698   -36644   -36467   -36384   -36444   -36446   -36339 
  -36254   -36224   -36215   -36209   -36171   -36113   -36104   -36145 
  -36160   -36112   -36064   -36109   -36207   -36242   -36201   -36172 
  -36226   -36298   -36263   -36149   -36118   -36194   -36236   -36222 
  -36260   -36366   -36462   -36511   -36532   -36561   -36586   -36608 
  -36659   -36722   -36731   -36677   -36625   -36609   -36580   -36517 
  -36493   -36542   -36580   -36539   -36473   -36438   -36436   -36446 
  -36456   -36462   -36466   -36483   -36522   -36571   -36610   -36622 
  -36616   -36615   -36656   -36761   -36871   -36914   -36904   -36887 
  -36893   -36892   -36837   -36780   -36764   -36727   -36647   -36572 
  -36532   -36534   -36537   -36473   -36378   -36378   -36476   -36526 
  -36457   -36346   -36240   -36123   -36011   -35901   -35772   -35659 
  -35637   -35725   -35837   -35908   -35966   -36020   -36047   -36027 
  -35983   -35987   -36044   -36078   -36089   -36128   -36200   -36281 
  -36338   -36329   -36281   -36273   -36297   -36267   -36187   -36148 
  -36165   -36180   -36183   -36171   -36107   -36030   -36024   -36038 
  -35977   -35884   -35850   -35860   -35867   -35842   -35761   -35680 
  -35683   -35697   -35642   -35594   -35586   -35568   -35550   -35517 
  -35452   -35450   -35558   -35677   -35738   -35748   -35732   -35716 
  -35683   -35602   -35504   -35428   -35390   -35359   -35275   -35166 
  -35105   -35080   -35043   -35009   -35029   -35135   -35254   -35282 
  -35254   -35258   -35238   -35116   -34999   -35021   -35139   -35251 
  -35327   -35356   -35347   -35308   -35261   -35273   -35336   -35323 
  -35189   -35060   -35037   -35051   -34991   -34878   -34798   -34728 
  -34608   -34492   -34458   -34466   -34461   -34450   -34452   -34500 
  -34571   -34590   -34613   -34749   -34913   -34943   -34891   -34937 
  -35095   -35248   -35350   -35429   -35541   -35737   -35949   -36076 
  -36145   -36207   -36278   -36399   -36580   -36771   -36940   -37096 
  -37197   -37176   -37104   -37112   -37177   -37167   -37044   -36902 
  -36831   -36807   -36737   -36608   -36524   -36512   -36443   -36294 
  -36216   -36224   -36192   -36138   -36146   -36199   -36245   -36236 
  -36163   -36130   -36180   -36178   -36062   -35949   -35927   -35942 
  -35911   -35851   -35845   -35926   -36061   -36163   -36164   -36141 
  -36201   -36284   -36301   -36273   -36241   -36204   -36153   -36122 
  -36182   -36321   -36415   -36433   -36473   -36555   -36599   -36595 
  -36604   -36620   -36597   -36558   -36568   -36631   -36722   -36821 
  -36871   -36866   -36889   -36933   -36957   -37020   -37113   -37160 
  -37198   -37315   -37469   -37533   -37487   -37443   -37446   -37422 
