Origin Time       2011/03/11 14:46:00
Lat.              38.103
Long.             142.860
Depth. (km)       24
Mag.              9.0
Station Code      GIF004
Station Lat.      36.2493
Station Long.     137.5175
Station Height(m) 811
Record Time       2011/03/11 14:49:11
Sampling Freq(Hz) 100Hz
Duration Time(s)  131
Dir.              N-S
Scale Factor      3920(gal)/6182761
Max. Acc. (gal)   50.719
Last Correction   2011/03/11 14:48:56
Memo.             
[...]
  -32666   -32405   -32163   -31920   -31731   -31647   -31668   -31760 
  -31953   -32261   -32583   -32899   -33273   -33646   -33953   -34244 
  -34501   -34609   -34592   -34566   -34511   -34332   -34086   -33925 
  -33816   -33675   -33564   -33397   -33106   -32902   -32802   -32699 
  -32781   -33074   -33346   -33596   -33798   -33762   -33611   -33558 
  -33472   -33275   -33165   -33159   -33015   -32692   -32452   -32315 
  -32031   -31765   -31842   -32040   -32203   -32556   -32929   -33146 
  -33480   -33851   -34036   -34275   -34542   -34546   -34471   -34429 
  -34151   -33752   -33559   -33419   -33097   -32803   -32731   -32631 
  -32405   -32321   -32365   -32335   -32289   -32226   -32062   -31880 
  -31705   -31499   -31305   -31167   -31085   -31014   -30992   -31089 
  -31180   -31169   -31113   -31054   -30979   -30923   -31082   -31532 
  -31945   -32145   -32400   -32759   -32985   -33190   -33556   -33918 
  -34177   -34422   -34573   -34524   -34374   -34181   -33877   -33583 
  -33423   -33211   -32873   -32541   -32189   -31805   -31574   -31476 
  -31324   -31249   -31371   -31462   -31526   -31768   -32078   -32377 
  -32711   -32915   -32921   -32936   -33000   -33065   -33295   -33644 
  -33875   -34015   -34193   -34432   -34563   -34485   -34418   -34360 
  -34169   -34059   -34114   -34130   -34123   -34244   -34297   -34124 
  -34036   -34027   -33786   -33559   -33563   -33491   -33252   -33067 
  -32913   -32645   -32388   -32351   -32509   -32711   -32917   -33208 
  -33596   -33959   -34255   -34476   -34526   -34562   -34782   -34990 
  -35066   -35180   -35297   -35252   -35068   -34828   -34585   -34366 
  -34230   -34215   -34135   -33980   -33984   -33999   -33859   -33688 
  -33476   -33199   -32921   -32684   -32480   -32240   -32070   -32040 
  -31940   -31872   -32106   -32328   -32240   -32225   -32526   -32790 
  -32783   -32761   -33043   -33424   -33462   -33409   -33645   -33691 
  -33358   -33319   -33533   -33426   -33285   -33450   -33465   -33043 
  -32676   -32714   -32669   -32313   -32089   -31945   -31663   -31575 
  -31671   -31590   -31482   -31531   -31538   -31491   -31540   -31712 
  -32010   -32257   -32245   -32040   -31937   -32146   -32276   -32121 
  -32233   -32374   -32072   -32056   -32365   -32362   -32481   -32814 
  -32847   -32801   -32833   -32759   -32617   -32349   -32020   -31934 
  -31973   -31939   -32028   -32224   -32335   -32495   -32696   -32698 
  -32646   -32759   -32753   -32508   -32299   -32057   -31756   -31684 
  -31700   -31612   -31583   -31617   -31585   -31443   -31263   -31148 
  -31086   -31125   -31236   -31206   -31073   -30942   -30760   -30597 
  -30444   -30308   -30417   -30642   -30613   -30426   -30512   -30934 
  -31166   -31109   -31248   -31309   -30955   -30856   -31158   -31188 
  -31037   -31171   -31333   -31187   -31094   -31323   -31425   -31289 
  -31417   -31699   -31791   -31955   -32153   -32151   -32293   -32536 
  -32571   -32726   -32935   -32898   -33011   -33262   -33176   -32595 
  -31419   -30667   -32195   -34129   -32028   -28615   -30135   -32783 
  -31725   -31471   -31809   -28845   -27845   -30626   -31022   -30015 
  -30868   -31296   -31650   -33026   -33731   -33711   -32309   -29957 
  -29862   -30612   -29524   -29220   -30914   -32059   -32107   -31822 
  -30956   -29983   -29752   -30307   -31386   -31935   -31819   -32440 
  -32572   -30838   -29564   -29537   -29665   -30573   -31829   -32378 
  -32435   -31839   -31253   -31374   -31144   -31146   -32105   -32092 
  -31615   -32182   -31985   -31248   -31930   -32555   -32098   -31914 
  -31795   -32226   -35169   -37338   -34806   -31381   -29222   -25941 
  -25282   -30400   -34591   -32408   -28584   -29895   -33999   -34005 
  -31666   -32985   -35410   -33650   -31952   -35199   -35095   -28836 
  -30763   -37777   -32710   -26611   -32150   -33988   -28825   -28964 
  -29735   -28059   -31979   -36138   -34598   -34050   -34290   -31978 
  -31558   -33333   -33326   -32450   -31388   -29156   -28740   -29946 
  -28764   -27433   -28415   -30435   -32589   -33284   -33420   -33813 
  -32975   -33043   -34561   -34375   -32348   -30772   -31570   -32817 
  -31743   -31549   -33551   -34062   -33332   -32683   -31710   -31629 
  -32038   -32153   -32635   -31931   -30354   -31045   -32340   -31454 
  -31452   -33409   -34033   -34025   -34703   -34793   -34893   -35615 
  -35987   -35448   -34671   -34367   -33812   -33232   -33087   -32780 
  -33403   -34368   -34014   -34165   -34323   -33335   -33729   -33872 
  -32274   -32708   -34254   -34581   -35130   -34828   -34133   -35680 
  -36770   -35659   -35741   -36336   -33444   -30368   -31632   -31743 
  -28413   -28495   -30593   -29886   -30347   -32525   -31984   -31005 
  -32567   -33608   -32993   -33027   -33767   -34289   -34472   -34469 
  -34337   -33214   -31516   -31378   -32490   -32606   -31948   -32045 
  -32832   -33604   -33478   -32668   -32856   -33291   -32683   -32357 
  -32308   -31931   -32190   -32627   -32634   -32659   -32026   -30748 
  -30423   -31062   -31154   -30718   -30776   -30890   -30595   -30809 
  -31702   -32400   -32729   -32748   -32454   -32634   -33210   -32800 
  -31668   -31102   -31111   -31537   -32059   -31759   -31148   -31430 
  -31878   -31501   -31465   -32437   -32535   -31395   -31063   -31291 
  -30822   -30579   -30718   -30221   -29610   -29775   -30340   -30310 
  -29596   -29290   -29677   -30053   -30295   -30201   -29282   -28269 
  -28201   -28490   -28319   -28437   -29397   -30121   -30123   -30360 
  -30924   -30886   -30482   -30528   -30712   -30873   -31286   -31235 
  -30390   -29681   -29458   -29356   -29363   -29330   -29055   -28945 
  -29255   -29797   -30390   -30838   -31046   -31194   -31291   -31123 
  -31078   -31365   -31286   -30990   -30885   -30520   -30355   -30706 
  -30632   -30397   -30839   -31331   -31188   -30873   -31098   -31671 
  -31809   -31833   -32284   -32254   -31762   -32022   -32479   -32267 
  -32016   -32009   -31926   -31629   -31162   -30877   -30758   -30697 
  -30708   -30310   -30044   -30455   -30271   -29647   -29768   -29911 
  -29767   -29982   -30359   -30496   -30244   -30060   -30534   -30881 
  -30755   -31075   -31161   -30302   -30099   -30882   -31170   -31228 
  -31635   -31588   -31406   -31777   -31912   -31656   -31562   -31422 
  -31306   -31518   -31542   -31103   -30988   -31387   -31484   -31345 
  -31776   -32537   -32571   -32131   -32286   -32587   -32397   -32163 
  -32098   -32179   -32349   -32634   -32995   -32701   -32068   -32297 
  -32743   -32612   -32792   -33283   -33069   -32689   -33028   -33172 
  -32414   -31813   -31866   -31826   -31627   -31539   -31457   -31431 
  -31306   -31163   -31413   -31403   -30913   -31004   -31267   -30847 
  -30570   -30529   -30164   -30214   -30936   -31601   -31796   -31405 
  -31220   -31818   -32118   -31901   -31919   -31902   -31915   -32070 
  -31731   -31329   -31557   -31839   -31688   -31409   -31441   -31694 
  -31567   -31257   -31454   -31638   -31181   -30825   -31149   -31409 
  -31094   -30924   -31159   -31079   -30861   -31210   -31855   -32153 
  -32019   -32241   -32971   -33093   -32771   -32873   -33025   -33022 
  -33047   -32924   -32713   -32570   -32476   -32345   -31978   -31651 
  -31894   -32171   -31811   -31624   -32045   -32309   -32646   -33223 
  -33052   -32608   -32611   -32124   -31874   -32812   -32723   -31621 
  -32213   -33184   -32905   -33144   -33648   -33338   -33373   -33794 
  -33916   -34058   -34106   -33861   -33625   -33601   -33565   -33329 
  -33390   -33655   -33487   -33384   -33317   -32037   -30088   -29467 
  -30735   -32956   -34361   -33610   -31534   -29701   -29251   -30934 
  -33470   -34729   -34040   -32412   -32213   -33132   -32707   -32377 
  -33316   -33331   -32991   -33757   -34066   -33490   -33727   -34133 
  -32689   -31309   -31861   -31942   -31694   -32536   -31823   -30083 
  -30707   -31705   -30891   -30493   -31182   -31574   -31472   -30958 
  -30725   -31523   -32095   -31991   -32684   -33230   -31721   -30467 
  -31669   -32533   -31561   -30994   -31272   -31866   -32948   -33569 
  -34140   -35342   -35037   -33515   -33162   -32837   -31980   -31990 
  -31812   -30917   -30911   -31513   -31716   -31852   -31824   -31754 
  -32108   -31924   -31205   -31269   -31390   -31081   -31412   -31709 
  -31368   -31444   -31738   -31573   -31363   -31070   -30703   -30889 
  -31117   -30964   -31135   -31165   -30626   -30571   -30932   -30829 
  -30364   -29875   -29596   -29404   -29023   -28812   -28872   -29037 
  -29499   -29953   -30278   -30765   -30800   -30361   -30471   -30779 
  -30707   -30713   -30586   -30374   -30673   -30714   -30147   -29758 
  -29560   -29582   -29876   -29968   -30086   -30380   -30398   -30237 
  -30197   -30451   -30866   -30903   -30880   -31275   -31447   -31315 
  -31373   -31467   -31672   -31841   -31588   -31677   -32284   -32270 
  -31907   -32293   -32764   -32550   -32503   -32986   -33257   -33320 
  -33735   -34271   -34403   -34248   -34096   -33894   -33556   -33219 
  -32991   -32729   -32328   -32041   -32104   -32186   -31940   -31642 
  -31527   -31467   -31513   -31677   -31638   -31373   -31291   -31480 
  -31499   -31183   -31104   -31525   -31885   -31881   -31645   -31271 
  -31038   -30939   -30641   -30405   -30456   -30468   -30457   -30652 
  -30768   -30509   -30334   -30625   -30837   -30792   -30941   -31074 
  -30987   -30975   -30752   -30130   -29688   -29537   -29763   -30618 
  -31474   -32164   -32763   -32856   -32769   -31974   -30812   -31605 
  -32324   -31194   -32042   -33710   -32521   -32153   -33906   -33669 
  -32265   -32404   -32745   -32487   -32755   -33217   -33221   -33271 
  -33014   -32070   -31630   -31911   -32257   -32922   -33328   -33119 
  -33276   -33218   -32281   -31922   -32468   -32742   -32892   -33242 
  -33110   -32727   -32607   -32122   -31579   -31879   -32290   -32365 
  -32755   -33066   -32782   -32549   -32523   -32238   -32094   -32394 
  -32270   -31674   -31628   -31720   -31266   -31075   -31298   -31334 
  -31588   -32143   -32143   -31631   -31498   -31763   -31785   -31798 
  -32357   -32853   -32718   -32745   -33102   -32853   -32257   -32147 
  -32172   -31873   -31883   -32592   -32722   -32008   -32243   -32598 
  -31487   -31287   -32498   -32417   -31743   -31787   -31632   -31603 
  -32011   -32211   -32247   -32054   -31838   -32116   -32468   -32847 
  -33573   -33787   -33233   -33304   -34110   -34046   -33127   -32631 
  -32215   -31470   -31428   -31826   -31167   -30570   -31779   -32147 
  -30407   -30834   -32548   -31194   -31087   -34482   -35253   -34240 
  -35105   -33991   -31060   -30240   -28869   -26099   -26283   -28920 
  -30848   -32132   -33074   -33825   -34617   -34742   -35384   -37151 
  -37672   -37342   -36955   -33770   -29193   -27794   -28116   -27136 
  -28326   -34041   -37446   -35431   -36123   -40595   -39477   -33552 
  -32539   -34315   -29168   -22971   -26972   -31124   -26319   -26764 
  -35108   -35459   -30992   -33378   -36130   -33833   -31610   -29906 
  -28302   -29505   -31044   -30455   -29698   -28500   -28199   -31452 
  -33745   -33791   -36871   -39827   -38899   -38876   -37657   -30438 
  -25424   -28497   -30551   -26471   -26145   -34149   -37667   -31818 
  -30982   -36342   -34346   -29855   -32375   -34432   -31892   -31952 
  -37347   -39261   -31299   -24596   -26564   -25631   -22781   -32652 
  -41983   -30856   -22454   -33602   -32395   -20439   -34342   -47317 
  -32900   -34017   -50852   -38428   -18406   -25306   -33202   -27524 
  -34599   -50606   -46179   -33626   -34192   -32582   -27680   -35599 
  -43692   -42621   -41307   -33514   -20828   -17259   -16367   -15560 
  -24309   -31885   -28541   -31928   -44216   -38894   -23675   -26453 
  -32585   -29732   -34777   -40936   -35422   -31323   -30946   -24999 
  -20101   -24897   -37396   -46049   -43588   -42844   -45990   -37757 
  -26412   -24804   -27325   -37381   -50013   -42579   -24458   -22678 
  -27246   -19339   -13634   -21421   -24948   -21951   -28725   -35649 
  -32503   -37451   -46070   -35159   -23140   -29640   -36850   -40797 
  -47379   -45698   -37453   -33786   -31921   -28208   -25170   -22986 
  -24840   -31914   -33431   -31998   -39342   -40805   -30747   -29972 
  -28942   -13848   -12289   -29842   -40830   -40379   -28511   -18714 
  -35675   -52721   -39624   -28762   -37440   -36063   -25493   -28287 
  -32588   -30548   -38259   -44807   -30462   -14883   -19891   -33779 
  -41592   -39685   -29840   -23653   -22065   -12946    -3074    -5440 
  -15305   -23728   -25481   -22275   -20807   -18588   -17273   -23554 
  -24106   -16766   -25774   -47534   -60684   -67333   -66149   -56068 
  -61609   -84138   -91697   -84010   -78620   -59470   -16509    18152 
   18790     1072    -8920    -9031   -15215   -32034   -46654   -51510 
  -48967   -43986   -41660   -36688   -25838   -13610     8918    22069 
  -14977   -62563   -66246   -55271   -41716    -9216     7244    -3251 
  -18609   -48186   -73187   -65385   -50142   -36179    -7523    12298 
    6812     9592    25389     6260   -43132   -62984   -53847   -57617 
  -70672   -74546   -74775   -73023   -64944   -56152   -41266   -12810 
    4464     1915    15255    33614    -1414   -71162  -100194   -86800 
  -85177   -96654   -75919   -21679    11713      336    -9191    19184 
   47726    35603     6591    -9780   -27287   -53796   -76914   -93783 
  -97639   -84963   -73569   -63032   -37514   -13431    -7984    -6344 
   -2393    -7433   -21027   -36668   -50544   -52823   -39924   -25454 
  -13448     7579    24908    13732   -11636   -23397   -25969   -37593 
  -58460   -67970   -58405   -50628   -55037   -64200   -76158   -84897 
  -82887   -75916   -65117   -42472   -14232     8276    25677    35500 
   30240    10910   -11885   -23907   -23293   -25267   -35444   -38014 
  -28228   -28186   -45454   -53468   -39358   -26993   -31793   -36600 
  -33342   -43054   -68641   -84264   -84273   -80466   -70420   -51737 
  -30688   -12122    -2669    -1232     6124    20452    23605     8864 
   -6759   -13184   -23392   -43340   -56518   -51029   -41437   -46727 
  -54794   -46151   -35956   -39452   -39218   -33713   -44782   -57921 
  -49158   -37446   -33955   -26442   -23311   -29169   -31169   -31672 
  -36928   -42078   -42594   -37327   -34953   -41553   -36010    -8346 
    5560   -10311   -19734   -11467   -14501   -34159   -54040   -67167 
  -70411   -61349   -43966   -31238   -31877   -30036   -12811    -3184 
  -17245   -30085   -23253   -16754   -27416   -37042   -33099   -35109 
  -47576   -48464   -37339   -33318   -38761   -43973   -45538   -48657 
  -55951   -53377   -30820    -8482    -6151   -12242   -13433   -16508 
  -24666   -29401   -28666   -28019   -28127   -24216   -17255   -15201 
  -17928   -18002   -17908   -25392   -36142   -40439   -41874   -48132 
  -52140   -46134   -36747   -30020   -22589   -14783   -16921   -31891 
  -43088   -41535   -42479   -51573   -55800   -54208   -52233   -45626 
  -35187   -26336   -18282   -11715    -9924   -13041   -18865   -23658 
  -26997   -29842   -28662   -26022   -28736   -33666   -36973   -39845 
  -39734   -36029   -31779   -26158   -23846   -32797   -44336   -47448 
  -49439   -53775   -48587   -33796   -23907   -21333   -18668   -17537 
  -22206   -29558   -35695   -40023   -42111   -41629   -40766   -41604 
  -42553   -41720   -37346   -30229   -28558   -33774   -35157   -30099 
  -26030   -23997   -19969   -18237   -26217   -36361   -37434   -35452 
  -36521   -33548   -27430   -30361   -41734   -46776   -43113   -43125 
  -45236   -37686   -27550   -26639   -25515   -14214    -4608    -7184 
  -12046   -11608   -13689   -22692   -30182   -28982   -26900   -34656 
  -44346   -43007   -39043   -45888   -56418   -59017   -55532   -51785 
  -48823   -43106   -33777   -27106   -25175   -24675   -26291   -28258 
  -26954   -27843   -33258   -33692   -28849   -28596   -28623   -21563 
  -17156   -20763   -24559   -27024   -29298   -29741   -31175   -32660 
  -29529   -29076   -39432   -49677   -49482   -48096   -50413   -46108 
  -35851   -34056   -39998   -38895   -31617   -30118   -32918   -33169 
  -32663   -32971   -30973   -25405   -20413   -22627   -28542   -27407 
  -22907   -25981   -33355   -35912   -34438   -34429   -34949   -32998 
  -31165   -32448   -35274   -36569   -36406   -36212   -34985   -33998 
  -35184   -36225   -36977   -36277   -30939   -27885   -31395   -31987 
  -28770   -31618   -38287   -37267   -29565   -27084   -28008   -24674 
  -27956   -39409   -40501   -34777   -36531   -38346   -34684   -32945 
  -34737   -36348   -36988   -37944   -39273   -39982   -40494   -38975 
  -33207   -29350   -32095   -36700   -38834   -34590   -24798   -20934 
  -25215   -27520   -28456   -34218   -38758   -36209   -34034   -36264 
  -35714   -32046   -31132   -31639   -31837   -32298   -32189   -34484 
  -38592   -38130   -36496   -39507   -41951   -40822   -41021   -41682 
  -37960   -33674   -32188   -28369   -23884   -24598   -25340   -23551 
  -26179   -31489   -32465   -32994   -37402   -38401   -32957   -29601 
  -31544   -35481   -40010   -42743   -42412   -40465   -37110   -34280 
  -35471   -37505   -34370   -30830   -33899   -35990   -30435   -26425 
  -28657   -29399   -27020   -27234   -31437   -34549   -31572   -27637 
  -30226   -33483   -32070   -33269   -36986   -35095   -32638   -36049 
  -37850   -35344   -36532   -40995   -41534   -40036   -41536   -43858 
  -43604   -40494   -36461   -33645   -29861   -24439   -23772   -29126 
  -34123   -38229   -41978   -40066   -34511   -32177   -31646   -31818 
  -34897   -37291   -36199   -35040   -35439   -35406   -34695   -36075 
  -39100   -38511   -35561   -36223   -37147   -34200   -32021   -32091 
  -31461   -31027   -32048   -33513   -34373   -34240   -34318   -35111 
  -35000   -34274   -34175   -34314   -34948   -34786   -32731   -32402 
  -33472   -32509   -32961   -35517   -34221   -30674   -31792   -36046 
  -37989   -38762   -40102   -39456   -37676   -37367   -36416   -35111 
  -37262   -39680   -37154   -32958   -31139   -30477   -29721   -27582 
  -25327   -28027   -32424   -31741   -30032   -31047   -33540   -38415 
  -41479   -39780   -39404   -39567   -35356   -32060   -33381   -34598 
  -34527   -34762   -32775   -28108   -25693   -28494   -33497   -36557 
  -38721   -42008   -41431   -34940   -32139   -35600   -35796   -33881 
  -37570   -42290   -41765   -39195   -38214   -36977   -33929   -31737 
  -32005   -32833   -32973   -32684   -32032   -30475   -28878   -29921 
  -32880   -34880   -36505   -37231   -34922   -32055   -30740   -29832 
  -30572   -33596   -37473   -41777   -43309   -40879   -39129   -37983 
  -35105   -32634   -31730   -33259   -36371   -35925   -32467   -30506 
  -28937   -27342   -27875   -30102   -34090   -37663   -37007   -36421 
  -38581   -37348   -32599   -29620   -29252   -30756   -33222   -36471 
  -40481   -41324   -37846   -35264   -34207   -30896   -27897   -29052 
  -31069   -30669   -29492   -28834   -28118   -27351   -27455   -29368 
  -32978   -35929   -35345   -33047   -33237   -34194   -33290   -33636 
  -35532   -36622   -38577   -40249   -39716   -39261   -36580   -31363 
