Origin Time       2011/03/11 14:46:00
Lat.              38.103
Long.             142.860
Depth. (km)       24
Mag.              9.0
Station Code      GIF022
Station Lat.      35.2836
Station Long.     136.4730
Station Height(m) 116
Record Time       2011/03/11 14:49:46
Sampling Freq(Hz) 100Hz
Duration Time(s)  125
Dir.              N-S
Scale Factor      3920(gal)/6182761
Max. Acc. (gal)   2.950
Last Correction   2011/03/11 14:49:31
Memo.             
[...]
  -45742   -45875   -45966   -46060   -46152   -46205   -46251   -46282 
  -46277   -46310   -46328   -46287   -46308   -46339   -46303   -46284 
  -46323   -46346   -46343   -46359   -46347   -46320   -46304   -46245 
  -46178   -46159   -46169   -46141   -46116   -46164   -46208   -46230 
  -46255   -46287   -46317   -46328   -46346   -46336   -46309   -46326 
  -46369   -46415   -46473   -46577   -46705   -46798   -46907   -47057 
  -47165   -47230   -47348   -47458   -47515   -47630   -47758   -47855 
  -47974   -48104   -48209   -48273   -48331   -48396   -48447   -48485 
  -48494   -48526   -48589   -48630   -48640   -48648   -48697   -48727 
  -48711   -48713   -48713   -48669   -48600   -48534   -48459   -48396 
  -48341   -48259   -48200   -48179   -48143   -48076   -48029   -48048 
  -48036   -47995   -48009   -48016   -47975   -47942   -47938   -47888 
  -47807   -47778   -47762   -47713   -47654   -47625   -47593   -47496 
  -47380   -47277   -47137   -46928   -46723   -46553   -46353   -46145 
  -45952   -45793   -45682   -45554   -45453   -45423   -45415   -45395 
  -45400   -45467   -45511   -45497   -45494   -45495   -45452   -45384 
  -45364   -45347   -45273   -45231   -45245   -45223   -45155   -45131 
  -45135   -45094   -45059   -45067   -45059   -44986   -44906   -44859 
  -44762   -44636   -44546   -44461   -44367   -44288   -44245   -44216 
  -44206   -44242   -44296   -44374   -44456   -44535   -44633   -44729 
  -44812   -44901   -45009   -45088   -45148   -45247   -45323   -45349 
  -45398   -45499   -45581   -45638   -45743   -45825   -45862   -45969 
  -46130   -46255   -46358   -46514   -46683   -46782   -46861   -46956 
  -47004   -47011   -47051   -47077   -47055   -47062   -47071   -47061 
  -47077   -47116   -47169   -47223   -47271   -47295   -47304   -47318 
  -47281   -47206   -47144   -47087   -47002   -46903   -46823   -46729 
  -46627   -46510   -46347   -46207   -46103   -45979   -45848   -45749 
  -45663   -45553   -45461   -45388   -45302   -45215   -45142   -45078 
  -44973   -44865   -44802   -44734   -44630   -44512   -44426   -44341 
  -44249   -44217   -44220   -44225   -44232   -44254   -44300   -44352 
  -44431   -44506   -44572   -44664   -44753   -44827   -44873   -44916 
  -44971   -45010   -45054   -45097   -45135   -45170   -45188   -45204 
  -45216   -45204   -45167   -45110   -45053   -45025   -45003   -44979 
  -45015   -45080   -45143   -45246   -45360   -45450   -45470   -45469 
  -45505   -45496   -45485   -45522   -45552   -45602   -45695   -45805 
  -45937   -46112   -46288   -46448   -46628   -46771   -46877   -46998 
  -47102   -47151   -47173   -47207   -47210   -47184   -47163   -47100 
  -47014   -46956   -46924   -46901   -46883   -46868   -46879   -46955 
  -47028   -47075   -47148   -47202   -47237   -47305   -47398   -47440 
  -47456   -47534   -47592   -47599   -47676   -47805   -47886   -47970 
  -48126   -48262   -48367   -48513   -48651   -48775   -48908   -49040 
  -49168   -49285   -49370   -49424   -49484   -49519   -49517   -49522 
  -49502   -49444   -49392   -49375   -49351   -49292   -49280   -49291 
  -49263   -49244   -49241   -49213   -49143   -49067   -48992   -48875 
  -48736   -48612   -48470   -48307   -48181   -48083   -47983   -47904 
  -47815   -47700   -47574   -47452   -47345   -47193   -47021   -46901 
  -46767   -46575   -46408   -46295   -46144   -45985   -45886   -45767 
  -45623   -45498   -45386   -45296   -45217   -45131   -45063   -45033 
  -45016   -45008   -45006   -44990   -45014   -45042   -45025   -45035 
  -45062   -45042   -45007   -45008   -44982   -44928   -44938   -44951 
  -44902   -44848   -44825   -44774   -44688   -44662   -44625   -44521 
  -44467   -44425   -44328   -44270   -44285   -44272   -44251   -44306 
  -44357   -44402   -44508   -44633   -44737   -44828   -44928   -45020 
  -45122   -45249   -45384   -45548   -45687   -45763   -45840   -45950 
  -46055   -46111   -46156   -46227   -46323   -46406   -46437   -46488 
  -46569   -46638   -46705   -46745   -46734   -46700   -46680   -46639 
  -46576   -46558   -46526   -46443   -46384   -46395   -46421   -46437 
  -46534   -46670   -46731   -46812   -46965   -47097   -47202   -47320 
  -47419   -47531   -47680   -47799   -47907   -48012   -48091   -48133 
  -48133   -48142   -48145   -48128   -48098   -48039   -47987   -47927 
  -47841   -47776   -47719   -47599   -47398   -47215   -47059   -46862 
  -46666   -46491   -46331   -46185   -46035   -45907   -45832   -45785 
  -45707   -45603   -45502   -45411   -45378   -45395   -45426   -45496 
  -45581   -45659   -45742   -45786   -45825   -45917   -45985   -46043 
  -46140   -46199   -46213   -46239   -46282   -46302   -46305   -46356 
  -46391   -46336   -46288   -46264   -46207   -46130   -46051   -45970 
  -45862   -45710   -45538   -45377   -45233   -45092   -44961   -44822 
  -44625   -44407   -44228   -44072   -43946   -43895   -43897   -43889 
  -43868   -43879   -43902   -43905   -43940   -44007   -44047   -44099 
  -44190   -44250   -44276   -44346   -44487   -44632   -44752   -44897 
  -45047   -45152   -45274   -45426   -45524   -45600   -45726   -45826 
  -45868   -45933   -45979   -45940   -45906   -45890   -45815   -45754 
  -45751   -45748   -45753   -45767   -45764   -45757   -45760   -45778 
  -45813   -45846   -45830   -45802   -45796   -45753   -45702   -45706 
  -45722   -45712   -45703   -45708   -45691   -45646   -45618   -45629 
  -45639   -45623   -45628   -45653   -45646   -45650   -45714   -45753 
  -45760   -45830   -45915   -45933   -45965   -46054   -46108   -46149 
  -46266   -46380   -46453   -46572   -46706   -46802   -46893   -46997 
  -47096   -47185   -47275   -47354   -47404   -47416   -47395   -47364 
  -47299   -47195   -47110   -47041   -46937   -46831   -46740   -46605 
  -46475   -46420   -46347   -46239   -46222   -46257   -46224   -46190 
  -46245   -46330   -46384   -46444   -46523   -46570   -46586   -46582 
  -46555   -46537   -46499   -46416   -46340   -46292   -46240   -46188 
  -46182   -46212   -46219   -46231   -46298   -46361   -46368   -46357 
  -46360   -46331   -46251   -46182   -46137   -46072   -45985   -45889 
  -45788   -45680   -45583   -45485   -45372   -45282   -45191   -45073 
  -44987   -44906   -44787   -44689   -44629   -44583   -44562   -44550 
  -44550   -44562   -44553   -44528   -44484   -44412   -44352   -44306 
  -44243   -44184   -44178   -44210   -44224   -44248   -44307   -44370 
  -44445   -44528   -44589   -44631   -44670   -44709   -44735   -44747 
  -44771   -44778   -44760   -44786   -44830   -44837   -44860   -44902 
  -44927   -44949   -44950   -44938   -44965   -44992   -44977   -44982 
  -45019   -45040   -45055   -45065   -45089   -45152   -45175   -45143 
  -45166   -45210   -45189   -45163   -45165   -45159   -45154   -45163 
  -45191   -45250   -45348   -45477   -45628   -45804   -45995   -46183 
  -46356   -46536   -46723   -46865   -46985   -47127   -47263   -47374 
  -47492   -47628   -47762   -47896   -48057   -48239   -48399   -48544 
  -48704   -48846   -48952   -49040   -49100   -49128   -49121   -49094 
  -49100   -49102   -49060   -49043   -49042   -49013   -48997   -48987 
  -48920   -48814   -48722   -48637   -48536   -48432   -48329   -48232 
  -48151   -48081   -48024   -47982   -47954   -47961   -47993   -48002 
  -48016   -48057   -48061   -48034   -48033   -48010   -47958   -47955 
  -47979   -47977   -47989   -48019   -48025   -48044   -48100   -48141 
  -48165   -48231   -48318   -48377   -48438   -48515   -48589   -48663 
  -48738   -48821   -48859   -48828   -48819   -48820   -48750   -48702 
  -48732   -48704   -48616   -48612   -48631   -48603   -48618   -48656 
  -48654   -48660   -48679   -48656   -48645   -48672   -48632   -48540 
  -48498   -48446   -48341   -48253   -48181   -48070   -47966   -47906 
  -47830   -47731   -47645   -47567   -47485   -47379   -47250   -47131 
  -46997   -46819   -46669   -46577   -46452   -46300   -46195   -46081 
  -45927   -45820   -45772   -45719   -45669   -45635   -45594   -45574 
  -45571   -45532   -45486   -45465   -45449   -45454   -45495   -45524 
  -45507   -45509   -45557   -45587   -45614   -45693   -45751   -45757 
  -45790   -45863   -45930   -45956   -45949   -45963   -46027   -46136 
  -46267   -46358   -46415   -46518   -46674   -46808   -46918   -47040 
  -47117   -47109   -47089   -47066   -47003   -46952   -46885   -46719 
  -46558   -46477   -46398   -46331   -46322   -46319   -46291   -46255 
  -46170   -46041   -45953   -45911   -45912   -45965   -45971   -45870 
  -45741   -45650   -45591   -45584   -45648   -45663   -45580   -45541 
  -45578   -45615   -45629   -45629   -45613   -45563   -45550   -45682 
  -45807   -45780   -45723   -45713   -45716   -45747   -45830   -45899 
  -45862   -45779   -45727   -45667   -45638   -45701   -45766   -45734 
  -45647   -45576   -45513   -45437   -45401   -45413   -45367   -45244 
  -45133   -45024   -44885   -44757   -44667   -44596   -44538   -44538 
  -44574   -44550   -44520   -44536   -44501   -44444   -44425   -44389 
  -44337   -44283   -44185   -44069   -44032   -44059   -43999   -43881 
  -43808   -43711   -43628   -43655   -43675   -43633   -43602   -43575 
  -43555   -43555   -43532   -43500   -43508   -43546   -43546   -43522 
  -43519   -43511   -43534   -43623   -43719   -43766   -43777   -43794 
  -43784   -43741   -43768   -43822   -43814   -43829   -43897   -43974 
  -44064   -44138   -44206   -44295   -44370   -44448   -44551   -44663 
  -44769   -44860   -44949   -45025   -45120   -45264   -45386   -45532 
  -45729   -45867   -45972   -46126   -46303   -46462   -46621   -46797 
  -46939   -47071   -47284   -47494   -47630   -47738   -47812   -47867 
  -47925   -47981   -48029   -48075   -48141   -48159   -48094   -48038 
  -47966   -47859   -47754   -47608   -47460   -47334   -47171   -46993 
  -46823   -46664   -46534   -46443   -46398   -46380   -46356   -46310 
  -46295   -46326   -46280   -46203   -46207   -46217   -46208   -46206 
  -46212   -46247   -46264   -46217   -46122   -46035   -45989   -45955 
  -45946   -45957   -45923   -45858   -45822   -45866   -45954   -46011 
  -46052   -46116   -46192   -46253   -46311   -46392   -46475   -46579 
  -46719   -46832   -46919   -47022   -47155   -47316   -47483   -47653 
  -47820   -47984   -48154   -48279   -48338   -48353   -48372   -48472 
  -48611   -48723   -48834   -48958   -49073   -49169   -49249   -49325 
  -49404   -49453   -49429   -49375   -49328   -49280   -49261   -49268 
  -49254   -49244   -49269   -49287   -49267   -49230   -49178   -49091 
  -48989   -48890   -48801   -48717   -48604   -48478   -48375   -48264 
  -48111   -48008   -48022   -47997   -47855   -47724   -47629   -47503 
  -47389   -47350   -47312   -47238   -47201   -47206   -47255   -47345 
  -47452   -47536   -47556   -47574   -47613   -47664   -47754   -47858 
  -47957   -48022   -48058   -48077   -48063   -48099   -48215   -48370 
  -48539   -48703   -48855   -48958   -49058   -49192   -49276   -49315 
  -49362   -49376   -49303   -49237   -49269   -49315   -49370   -49451 
  -49526   -49621   -49695   -49755   -49868   -49986   -50065   -50133 
  -50212   -50237   -50201   -50147   -50011   -49877   -49887   -49958 
  -49965   -49915   -49880   -49859   -49834   -49830   -49870   -49950 
  -49964   -49864   -49738   -49621   -49494   -49397   -49351   -49262 
  -49141   -49077   -48963   -48757   -48625   -48577   -48481   -48344 
  -48214   -48036   -47840   -47733   -47642   -47502   -47400   -47326 
  -47225   -47119   -47022   -46910   -46793   -46697   -46589   -46506 
  -46527   -46577   -46544   -46475   -46471   -46489   -46487   -46533 
  -46644   -46777   -46859   -46886   -46902   -46895   -46896   -46898 
  -46843   -46753   -46662   -46596   -46571   -46605   -46675   -46729 
  -46794   -46875   -46972   -47073   -47109   -47084   -47048   -47048 
  -47060   -47049   -47054   -47045   -47023   -47062   -47124   -47164 
  -47238   -47324   -47334   -47347   -47433   -47477   -47493   -47577 
  -47658   -47632   -47585   -47591   -47592   -47656   -47822   -47952 
  -47998   -48010   -48014   -47974   -47896   -47810   -47692   -47619 
  -47609   -47533   -47411   -47317   -47220   -47116   -47045   -47002 
  -46963   -46913   -46815   -46720   -46665   -46559   -46440   -46380 
  -46334   -46310   -46353   -46426   -46434   -46413   -46450   -46480 
  -46489   -46556   -46652   -46703   -46761   -46852   -46929   -47045 
  -47206   -47339   -47425   -47478   -47546   -47634   -47739   -47862 
  -47994   -48126   -48204   -48286   -48411   -48508   -48616   -48737 
  -48795   -48786   -48767   -48800   -48842   -48879   -48946   -49021 
  -49067   -49066   -49040   -49020   -49024   -49017   -48947   -48867 
  -48786   -48655   -48531   -48472   -48405   -48273   -48129   -47963 
  -47765   -47620   -47518   -47381   -47198   -47001   -46813   -46672 
  -46578   -46464   -46361   -46305   -46248   -46188   -46127   -46080 
  -46030   -45999   -46077   -46180   -46221   -46248   -46279   -46279 
  -46242   -46227   -46263   -46362   -46465   -46514   -46554   -46565 
  -46608   -46731   -46833   -46889   -46893   -46858   -46834   -46853 
  -46920   -46967   -47025   -47109   -47119   -47102   -47155   -47225 
  -47241   -47272   -47340   -47406   -47545   -47736   -47869   -47972 
  -48094   -48203   -48325   -48513   -48718   -48928   -49146   -49370 
  -49623   -49843   -50068   -50361   -50625   -50802   -50936   -51059 
  -51148   -51252   -51379   -51438   -51475   -51534   -51591   -51619 
  -51580   -51523   -51483   -51435   -51369   -51313   -51267   -51148 
  -50977   -50869   -50792   -50675   -50592   -50557   -50491   -50450 
  -50444   -50381   -50299   -50253   -50223   -50192   -50162   -50086 
  -49975   -49925   -49885   -49785   -49681   -49599   -49525   -49460 
  -49417   -49370   -49339   -49343   -49308   -49272   -49261   -49179 
  -49065   -48980   -48867   -48716   -48599   -48504   -48377   -48238 
  -48079   -47875   -47660   -47470   -47301   -47138   -46994   -46847 
  -46671   -46505   -46400   -46321   -46193   -46057   -45929   -45779 
  -45676   -45603   -45501   -45388   -45307   -45249   -45160   -45114 
  -45137   -45137   -45102   -45056   -45017   -44982   -44950   -44918 
  -44893   -44907   -44919   -44900   -44876   -44867   -44870   -44871 
  -44873   -44862   -44869   -44860   -44814   -44845   -44889   -44856 
  -44855   -44893   -44860   -44781   -44767   -44760   -44734   -44751 
  -44775   -44825   -44911   -44979   -45028   -45113   -45246   -45345 
  -45422   -45511   -45572   -45630   -45707   -45785   -45847   -45909 
  -45977   -46040   -46158   -46286   -46340   -46377   -46452   -46536 
  -46608   -46698   -46799   -46893   -46999   -47113   -47242   -47339 
  -47374   -47404   -47415   -47375   -47319   -47308   -47326   -47325 
  -47336   -47370   -47382   -47355   -47323   -47307   -47310   -47348 
  -47368   -47344   -47315   -47292   -47297   -47334   -47370   -47352 
  -47304   -47283   -47241   -47208   -47246   -47283   -47268   -47257 
  -47285   -47281   -47290   -47376   -47435   -47458   -47493   -47514 
  -47524   -47554   -47587   -47588   -47621   -47691   -47712   -47680 
  -47657   -47676   -47710   -47784   -47905   -48039   -48209   -48374 
  -48519   -48707   -48911   -49047   -49127   -49221   -49301   -49340 
  -49384   -49463   -49580   -49669   -49711   -49746   -49756   -49733 
  -49728   -49758   -49743   -49690   -49674   -49619   -49508   -49408 
  -49307   -49185   -49069   -48970   -48837   -48689   -48549   -48352 
  -48137   -47988   -47844   -47651   -47489   -47387   -47259   -47117 
  -47013   -46912   -46800   -46716   -46665   -46595   -46485   -46345 
  -46223   -46117   -45976   -45884   -45851   -45761   -45635   -45529 
  -45407   -45276   -45197   -45125   -45018   -44969   -44943   -44861 
  -44804   -44781   -44729   -44674   -44667   -44678   -44720   -44808 
  -44868   -44942   -45055   -45163   -45299   -45445   -45562   -45660 
  -45773   -45912   -46043   -46161   -46275   -46393   -46489   -46589 
  -46728   -46880   -47099   -47339   -47501   -47659   -47846   -47968 
  -47976   -48011   -48139   -48234   -48299   -48386   -48460   -48487 
  -48520   -48591   -48643   -48680   -48742   -48808   -48804   -48734 
  -48684   -48612   -48524   -48485   -48488   -48509   -48498   -48475 
  -48468   -48463   -48497   -48563   -48600   -48601   -48637   -48674 
  -48634   -48609   -48635   -48617   -48514   -48422   -48414   -48381 
  -48290   -48187   -48059   -47897   -47719   -47573   -47462   -47366 
  -47253   -47152   -47137   -47098   -46932   -46760   -46704   -46724 
  -46717   -46691   -46685   -46704   -46696   -46653   -46683   -46726 
  -46729   -46794   -46871   -46880   -46867   -46891   -46941   -47025 
  -47157   -47258   -47340   -47439   -47538   -47642   -47743   -47896 
  -48081   -48213   -48301   -48359   -48391   -48407   -48453   -48514 
  -48527   -48547   -48593   -48625   -48617   -48581   -48569   -48535 
  -48455   -48381   -48335   -48285   -48205   -48123   -48001   -47863 
  -47770   -47682   -47603   -47517   -47394   -47237   -47096   -46998 
  -46887   -46800   -46745   -46670   -46604   -46560   -46537   -46494 
  -46436   -46414   -46393   -46351   -46307   -46307   -46338   -46356 
  -46396   -46460   -46506   -46510   -46527   -46568   -46564   -46563 
  -46584   -46575   -46553   -46563   -46616   -46643   -46645   -46678 
  -46689   -46671   -46693   -46762   -46828   -46902   -47000   -47092 
  -47182   -47258   -47319   -47372   -47437   -47543   -47645   -47732 
  -47818   -47877   -47887   -47874   -47909   -47936   -47893   -47881 
  -47935   -47965   -47947   -47961   -47988   -47943   -47881   -47828 
  -47750   -47677   -47663   -47648   -47573   -47501   -47434   -47332 
  -47213   -47117   -47054   -46958   -46844   -46758   -46650   -46486 
  -46297   -46157   -46024   -45831   -45642   -45495   -45360   -45195 
  -45033   -44938   -44868   -44780   -44697   -44636   -44570   -44518 
  -44493   -44439   -44383   -44359   -44337   -44317   -44329   -44404 
  -44478   -44524   -44570   -44607   -44658   -44706   -44766   -44843 
  -44885   -44916   -44960   -45013   -45066   -45109   -45167   -45223 
  -45283   -45351   -45395   -45429   -45486   -45533   -45532   -45534 
  -45525   -45497   -45511   -45532   -45558   -45610   -45665   -45707 
  -45752   -45838   -45912   -45949   -45994   -46045   -46112   -46175 
  -46248   -46369   -46490   -46588   -46704   -46840   -46965   -47089 
  -47205   -47300   -47417   -47545   -47656   -47766   -47854   -47893 
  -47911   -47960   -47995   -48017   -48086   -48134   -48129   -48126 
  -48144   -48170   -48178   -48211   -48281   -48337   -48340   -48304 
  -48267   -48218   -48164   -48107   -48033   -47983   -47956   -47933 
  -47885   -47810   -47747   -47683   -47638   -47613   -47580   -47545 
  -47497   -47446   -47414   -47405   -47366   -47293   -47266   -47273 
  -47279   -47314   -47368   -47379   -47373   -47419   -47484   -47540 
  -47600   -47662   -47724   -47764   -47831   -47950   -48050   -48088 
  -48120   -48193   -48220   -48223   -48265   -48258   -48217   -48229 
  -48274   -48278   -48233   -48217   -48205   -48165   -48125   -48056 
  -47980   -47948   -47923   -47865   -47815   -47789   -47749   -47694 
