Origin Time       2011/03/11 14:46:00
Lat.              38.103
Long.             142.860
Depth. (km)       24
Mag.              9.0
Station Code      GIF026
Station Lat.      35.5909
Station Long.     136.7418
Station Height(m) 112
Record Time       2011/03/11 14:49:10
Sampling Freq(Hz) 100Hz
Duration Time(s)  147
Dir.              U-D
Scale Factor      3920(gal)/6182761
Max. Acc. (gal)   3.196
Last Correction   2011/03/11 14:48:55
Memo.             
[...]
    3009     3182     3331     3468     3617     3788     3967     4121 
    4240     4333     4410     4481     4553     4646     4779     4942 
    5103     5241     5345     5404     5423     5428     5431     5417 
    5380     5325     5253     5168     5061     4922     4767     4611 
    4454     4293     4128     3950     3741     3491     3216     2942 
    2687     2464     2292     2183     2126     2108     2112     2114 
    2090     2035     1958     1872     1800     1757     1737     1741 
    1760     1770     1769     1776     1797     1821     1860     1932 
    2044     2199     2369     2509     2622     2734     2855     3012 
    3204     3385     3542     3707     3885     4074     4271     4453 
    4606     4758     4947     5165     5377     5567     5735     5879 
    5995     6069     6096     6101     6121     6169     6235     6307 
    6365     6384     6356     6299     6236     6174     6102     6028 
    5980     5983     6022     6073     6130     6188     6238     6270 
    6278     6258     6223     6184     6149     6115     6068     5997 
    5920     5863     5821     5772     5701     5605     5500     5420 
    5378     5353     5335     5328     5337     5368     5426     5504 
    5584     5649     5710     5789     5871     5935     6002     6093 
    6185     6250     6306     6369     6443     6547     6682     6820 
    6932     7012     7061     7097     7125     7135     7122     7098 
    7062     7001     6917     6812     6671     6492     6292     6083 
    5860     5628     5407     5217     5060     4919     4758     4572 
    4384     4206     4049     3926     3828     3720     3586     3454 
    3355     3286     3221     3158     3114     3086     3065     3061 
    3064     3048     3008     2946     2867     2783     2708     2645 
    2594     2553     2530     2536     2570     2630     2718     2827 
    2945     3058     3144     3196     3216     3197     3156     3123 
    3095     3056     2985     2873     2747     2629     2501     2345 
    2177     2000     1802     1591     1401     1250     1132     1043 
     988      958      916      835      741      676      641      621 
     604      577      535      477      425      426      482      546 
     588      611      620      612      600      608      630      618 
     548      475      467      522      558      509      401      272 
     142       62       45       38        1      -46      -53        4 
      76      111      113       99      101      172      314      470 
     614      764      900      998     1118     1303     1513     1683 
    1793     1896     2027     2146     2247     2331     2355     2340 
    2368     2427     2482     2569     2688     2796     2903     3009 
    3076     3081     3063     3087     3156     3235     3322     3410 
    3490     3562     3597     3567     3496     3438     3394     3347 
    3316     3320     3365     3426     3442     3389     3306     3216 
    3110     3003     2942     2938     2956     2976     3022     3072 
    3060     2966     2861     2834     2884     2937     2942     2895 
    2804     2684     2576     2515     2488     2465     2437     2404 
    2376     2351     2318     2259     2160     2049     1942     1816 
    1700     1629     1576     1527     1484     1428     1365     1319 
    1271     1213     1146     1072     1011      949      854      765 
     711      656      613      629      667      691      707      725 
     788      896      995     1101     1246     1409     1573     1706 
    1804     1936     2106     2251     2389     2546     2679     2781 
    2892     3003     3065     3071     3060     3096     3225     3406 
    3574     3725     3865     3981     4106     4241     4335     4391 
    4435     4451     4438     4410     4360     4276     4169     4086 
    4056     4030     3955     3851     3732     3555     3314     3076 
    2891     2755     2637     2537     2464     2397     2333     2287 
    2248     2213     2185     2154     2124     2119     2123     2098 
    2057     2013     1946     1864     1787     1724     1711     1760 
    1823     1864     1878     1864     1863     1924     2030     2127 
    2190     2234     2281     2325     2332     2305     2283     2272 
    2265     2290     2385     2524     2643     2728     2789     2802 
    2739     2637     2563     2523     2487     2451     2401     2339 
    2313     2311     2286     2258     2263     2290     2315     2349 
    2413     2507     2610     2679     2698     2677     2610     2526 
    2470     2438     2427     2443     2461     2478     2515     2562 
    2600     2628     2649     2675     2718     2753     2751     2735 
    2729     2735     2779     2880     3005     3130     3245     3350 
    3478     3635     3770     3890     4049     4239     4395     4497 
    4580     4684     4807     4911     4965     4961     4894     4798 
    4719     4645     4564     4504     4465     4454     4471     4439 
    4319     4146     3965     3818     3720     3653     3592     3494 
    3334     3144     2950     2778     2671     2623     2596     2568 
    2524     2471     2451     2472     2503     2535     2560     2555 
    2517     2460     2398     2346     2296     2245     2226     2257 
    2331     2443     2555     2623     2667     2733     2833     2954 
    3074     3177     3240     3258     3283     3343     3411     3484 
    3565     3630     3679     3714     3733     3744     3722     3648 
    3565     3486     3386     3301     3273     3303     3368     3420 
    3431     3427     3426     3407     3367     3341     3357     3416 
    3480     3497     3491     3513     3551     3604     3704     3850 
    4002     4128     4241     4369     4488     4568     4630     4688 
    4727     4751     4766     4752     4696     4610     4492     4344 
    4193     4045     3893     3746     3612     3508     3457     3427 
    3385     3355     3371     3443     3551     3670     3810     3967 
    4105     4258     4476     4701     4872     5013     5126     5197 
    5271     5374     5501     5658     5821     5965     6067     6106 
    6107     6093     6049     6004     5992     5978     5927     5855 
    5762     5642     5518     5401     5255     5082     4937     4851 
    4802     4747     4653     4519     4349     4148     3950     3781 
    3647     3556     3508     3484     3453     3395     3316     3247 
    3201     3173     3182     3241     3322     3391     3439     3458 
    3442     3388     3334     3332     3361     3371     3378     3405 
    3425     3408     3361     3332     3373     3490     3648     3817 
    3988     4152     4288     4406     4515     4589     4633     4697 
    4816     4988     5170     5312     5409     5489     5548     5581 
    5589     5560     5508     5469     5445     5404     5333     5245 
    5167     5119     5080     5016     4915     4808     4721     4645 
    4552     4428     4277     4126     3993     3879     3771     3645 
    3501     3378     3294     3222     3122     2996     2892     2849 
    2862     2895     2919     2931     2933     2941     2972     3013 
    3065     3170     3355     3589     3839     4085     4301     4494 
    4686     4851     4962     5010     5007     5008     5060     5130 
    5174     5203     5236     5275     5313     5334     5323     5280 
    5227     5170     5112     5068     5035     4985     4917     4849 
    4780     4711     4631     4545     4505     4521     4555     4614 
    4694     4729     4708     4676     4651     4648     4691     4799 
    4961     5127     5279     5418     5529     5602     5653     5702 
    5778     5892     6019     6134     6228     6303     6374     6438 
    6500     6588     6679     6719     6695     6605     6451     6279 
    6131     6010     5901     5795     5663     5473     5229     4972 
    4732     4504     4273     4058     3890     3754     3638     3570 
    3536     3479     3382     3278     3223     3231     3267     3303 
    3325     3341     3386     3504     3685     3870     4015     4124 
    4193     4222     4236     4255     4290     4343     4413     4495 
    4584     4667     4728     4758     4774     4787     4785     4756 
    4717     4696     4701     4688     4653     4636     4608     4539 
    4478     4443     4396     4325     4238     4162     4126     4124 
    4134     4148     4144     4106     4055     3992     3907     3801 
    3667     3522     3404     3301     3178     3034     2888     2747 
    2612     2510     2468     2458     2440     2418     2409     2409 
    2404     2372     2313     2259     2224     2210     2211     2204 
    2187     2172     2153     2141     2163     2207     2231     2211 
    2172     2152     2158     2203     2282     2353     2406     2465 
    2540     2640     2762     2880     2977     3054     3131     3231 
    3339     3410     3420     3395     3372     3335     3247     3120 
    2990     2869     2763     2666     2562     2453     2329     2180 
    2042     1916     1761     1593     1437     1286     1137     1002 
     882      761      627      497      383      264      123      -22 
    -142     -224     -272     -304     -322     -326     -357     -451 
    -572     -669     -725     -741     -714     -642     -542     -457 
    -422     -432     -428     -365     -259     -102      113      328 
     483      571      640      745      879     1031     1222     1441 
    1636     1779     1899     2018     2105     2136     2148     2176 
    2234     2320     2400     2463     2530     2596     2641     2681 
    2717     2732     2726     2711     2701     2713     2739     2756 
    2781     2829     2870     2879     2873     2867     2872     2891 
    2907     2913     2902     2886     2905     2968     3045     3127 
    3228     3362     3512     3633     3709     3746     3744     3723 
    3727     3742     3714     3646     3592     3576     3594     3634 
    3692     3773     3864     3943     3996     4026     4036     4041 
    4091     4206     4327     4431     4549     4690     4851     5001 
    5088     5120     5157     5223     5303     5384     5451     5483 
    5478     5445     5401     5355     5291     5212     5132     5047 
    4961     4865     4733     4582     4455     4346     4238     4162 
    4144     4177     4239     4297     4342     4384     4408     4386 
    4350     4366     4452     4582     4732     4867     4948     4964 
    4948     4960     5009     5059     5108     5155     5177     5168 
    5119     5026     4906     4783     4696     4664     4661     4664 
    4639     4549     4429     4338     4253     4156     4067     3991 
    3946     3956     4001     4032     4017     3976     3951     3960 
    4000     4067     4154     4251     4363     4490     4632     4794 
    4955     5088     5219     5375     5528     5639     5717     5786 
    5837     5849     5847     5867     5901     5903     5857     5791 
    5698     5561     5398     5232     5067     4885     4681     4506 
    4372     4232     4089     3984     3920     3874     3832     3809 
    3811     3806     3776     3729     3656     3552     3449     3373 
    3343     3374     3429     3457     3454     3433     3395     3332 
    3254     3199     3189     3226     3323     3453     3568     3664 
    3735     3778     3823     3869     3898     3936     3992     4036 
    4055     4067     4077     4071     4030     3964     3910     3892 
    3910     3954     4008     4054     4087     4107     4114     4133 
    4174     4214     4236     4255     4287     4333     4387     4427 
    4440     4449     4468     4474     4483     4527     4568     4528 
    4424     4390     4506     4663     4715     4701     4758     4886 
    4972     4990     5009     5027     4999     4989     5067     5186 
    5222     5070     4829     4723     4746     4673     4405     4110 
    4011     4045     3966     3759     3615     3578     3514     3346 
    3156     2982     2724     2416     2272     2331     2360     2191 
    2003     2067     2298     2397     2265     2037     1892     1925 
    2142     2501     2833     2906     2813     2920     3244     3446 
    3475     3598     3832     3947     4009     4344     4947     5385 
    5378     5041     4617     4361     4460     4837     5241     5462 
    5385     5135     5001     5080     5306     5464     5149     4513 
    4411     5101     5829     5988     5735     5467     5297     5234 
    5371     5481     5273     5170     5598     6171     6422     6324 
    6006     5777     5944     6375     6698     6707     6493     6469 
    6822     7130     7045     6713     6416     6438     6837     7236 
    7301     7017     6594     6492     6801     6888     6474     6089 
    6067     6193     6235     6179     6119     6111     6108     6056 
    6023     5945     5584     5257     5467     5844     5855     5532 
    5024     4680     4873     5255     5239     4880     4567     4409 
    4319     4332     4528     4708     4480     3847     3354     3380 
    3653     3696     3524     3499     3614     3532     3232     3061 
    3177     3210     2800     2400     2747     3542     3910     3758 
    3583     3759     4137     4161     4029     4354     4792     4878 
    4853     4988     5310     5722     6074     6312     6502     6680 
    6740     6728     6846     6939     6971     7347     7851     8042 
    8150     8092     7681     7587     8136     8645     8445     7573 
    6898     7258     8205     8462     7649     6729     6523     6793 
    7185     7619     7739     7345     6814     6603     6887     7229 
    6950     6407     6589     7389     7777     7378     6880     7000 
    7440     7324     6706     6511     6807     6837     6776     7222 
    7619     7296     6654     6317     6464     6683     6398     5766 
    5320     5171     5238     5415     5491     5391     5242     5071 
    4729     4291     4154     4300     4318     4249     4298     4279 
    4050     3771     3603     3589     3678     3672     3465     3319 
    3470     3642     3414     2888     2729     3361     4106     4126 
    3683     3277     2930     2785     2973     3223     3279     3114 
    2861     2815     3055     3201     2966     2578     2392     2478 
    2544     2183     1515     1216     1524     1831     1551      953 
     835     1324     1635     1338      822      540      648      883 
     869      694      566      486      496      657      982     1116 
     625       94      358     1037     1260      864      490      756 
    1244     1151      687      529      592      535      523      671 
     649      302       46      297      750      794      562      655 
     955      986      880      810      730      947     1488     1795 
    1709     1525     1437     1489     1616     1884     2359     2622 
    2394     2134     2190     2326     2323     2298     2489     2910 
    3211     3152     3074     3365     3769     3839     3596     3399 
    3422     3406     3289     3582     4272     4652     4722     4935 
    5029     4681     4215     4065     4290     4548     4604     4682 
    4781     4706     4729     4978     5109     4981     4783     4775 
    5009     5227     5408     5733     5952     5769     5444     5390 
    5685     6021     6031     5771     5595     5571     5592     5754 
    5989     5790     5100     4666     4801     4977     4866     4696 
    4657     4533     4147     3897     4019     4038     3814     3762 
    3890     3830     3490     3174     3172     3287     3088     2650 
    2429     2558     2846     3129     3269     3128     2728     2389 
    2530     3072     3451     3442     3307     3227     3270     3502 
    3789     3857     3664     3528     3660     3904     4189     4470 
    4434     4158     4236     4746     5092     4989     4791     4831 
    4951     4963     5051     5299     5415     5308     5287     5489 
    5664     5639     5532     5488     5470     5345     5041     4685 
    4618     4912     5123     5027     4910     4879     4690     4285 
    3953     3818     3710     3633     3715     3890     4062     4135 
    4020     3831     3705     3667     3700     3738     3826     3948 
    3884     3860     4314     4800     4660     4196     3977     4065 
    4288     4547     4894     5233     5193     4807     4612     4755 
    4919     4973     4988     5003     5051     5115     5160     5254 
    5411     5470     5398     5383     5591     5964     6157     5971 
    5762     5883     6158     6317     6415     6520     6432     6224 
    6374     6885     7236     7237     7044     6872     6919     7134 
    7297     7293     7184     7187     7417     7693     7785     7712 
    7696     7834     7982     7993     7917     7954     8132     8129 
    7778     7443     7536     7918     8146     8085     7832     7458 
    7170     7153     7273     7272     7039     6688     6460     6458 
    6468     6167     5617     5306     5368     5334     4997     4662 
    4461     4305     4257     4317     4297     4133     3897     3725 
    3747     3821     3738     3604     3605     3743     3880     3847 
    3682     3640     3813     4023     4039     3713     3169     2838 
    3046     3572     3861     3737     3577     3631     3681     3548 
    3424     3487     3591     3629     3714     3769     3576     3276 
    3228     3435     3547     3372     3059     2817     2763     2814 
    2654     2294     2175     2376     2561     2555     2406     2253 
    2156     2064     2088     2273     2313     2111     1946     1932 
    1971     2003     2015     2059     2142     2168     2093     2006 
    2019     2115     2205     2291     2426     2542     2480     2290 
    2212     2328     2515     2594     2536     2481     2467     2463 
    2486     2492     2495     2575     2664     2710     2778     2896 
    3005     2994     2902     2955     3160     3320     3436     3550 
    3530     3376     3261     3256     3363     3577     3744     3695 
    3537     3481     3496     3445     3341     3267     3245     3197 
    3098     3078     3140     3073     2835     2619     2552     2517 
    2347     2177     2201     2267     2222     2140     2028     1845 
    1603     1415     1504     1798     1877     1708     1670     1830 
    1981     2103     2239     2334     2348     2272     2171     2238 
    2519     2826     3084     3364     3560     3564     3574     3812 
    4175     4360     4297     4260     4421     4608     4660     4679 
    4793     4913     4979     5068     5140     5114     4997     4796 
    4660     4767     4989     5119     5163     5233     5396     5565 
    5553     5335     5112     5026     5014     5026     5106     5194 
    5160     5077     5099     5211     5273     5185     5006     4855 
    4715     4596     4555     4457     4273     4196     4180     4093 
    4083     4188     4223     4226     4299     4297     4102     3837 
    3689     3700     3677     3517     3467     3615     3694     3616 
    3513     3487     3582     3632     3466     3261     3246     3382 
    3503     3518     3500     3548     3645     3792     3937     3937 
    3846     3868     4053     4335     4557     4534     4363     4372 
