Origin Time       2011/03/11 14:46:00
Lat.              38.103
Long.             142.860
Depth. (km)       24
Mag.              9.0
Station Code      GIF010
Station Lat.      35.8005
Station Long.     137.2484
Station Height(m) 360
Record Time       2011/03/11 14:48:06
Sampling Freq(Hz) 100Hz
Duration Time(s)  228
Dir.              U-D
Scale Factor      3920(gal)/6182761
Max. Acc. (gal)   6.990
Last Correction   2011/03/11 14:47:51
Memo.             
[...]
  -13607   -13665   -13686   -13666   -13567   -13367   -13111   -12836 
  -12507   -12079   -11570   -11052   -10572   -10131    -9716    -9342 
   -9074    -8969    -9011    -9173    -9421    -9709   -10047   -10438 
  -10807   -11115   -11364   -11502   -11508   -11351   -11000   -10507 
   -9912    -9216    -8479    -7787    -7220    -6828    -6622    -6573 
   -6593    -6624    -6666    -6699    -6694    -6630    -6490    -6338 
   -6257    -6209    -6131    -6079    -6113    -6201    -6318    -6427 
   -6474    -6448    -6373    -6309    -6304    -6349    -6448    -6616 
   -6840    -7141    -7525    -7931    -8295    -8585    -8803    -8957 
   -9061    -9134    -9118    -8957    -8715    -8488    -8354    -8360 
   -8491    -8717    -9022    -9382    -9721    -9980   -10188   -10368 
  -10515   -10634   -10692   -10693   -10676   -10639   -10576   -10444 
  -10214    -9930    -9662    -9497    -9456    -9484    -9573    -9716 
   -9862    -9967   -10043   -10090   -10014    -9788    -9523    -9269 
   -8987    -8640    -8305    -8113    -8044    -8017    -8030    -8059 
   -8074    -8098    -8151    -8204    -8210    -8198    -8258    -8387 
   -8528    -8673    -8838    -9014    -9217    -9485    -9768    -9988 
  -10143   -10265   -10367   -10432   -10469   -10515   -10540   -10516 
  -10479   -10452   -10461   -10523   -10591   -10623   -10625   -10622 
  -10634   -10658   -10724   -10864   -11041   -11233   -11435   -11598 
  -11729   -11888   -12096   -12369   -12691   -12991   -13244   -13458 
  -13604   -13649   -13616   -13575   -13578   -13665   -13872   -14155 
  -14424   -14671   -14941   -15215   -15425   -15540   -15581   -15568 
  -15521   -15462   -15385   -15289   -15211   -15158   -15106   -15047 
  -14979   -14942   -15006   -15171   -15403   -15682   -15969   -16221 
  -16371   -16400   -16378   -16343   -16282   -16187   -16045   -15884 
  -15741   -15631   -15593   -15639   -15724   -15810   -15880   -15970 
  -16145   -16371   -16581   -16730   -16760   -16670   -16536   -16356 
  -16057   -15636   -15130   -14561   -13964   -13358   -12737   -12089 
  -11420   -10764   -10117    -9489    -8940    -8463    -8030    -7664 
   -7383    -7215    -7187    -7267    -7444    -7750    -8150    -8565 
   -8957    -9343    -9736   -10125   -10485   -10810   -11114   -11392 
  -11655   -11928   -12172   -12334   -12402   -12388   -12321   -12203 
  -12012   -11782   -11587   -11433   -11322   -11325   -11480   -11766 
  -12164   -12622   -13103   -13616   -14146   -14657   -15113   -15457 
  -15668   -15765   -15776   -15679   -15387   -14888   -14256   -13532 
  -12750   -11960   -11179   -10420    -9692    -8979    -8263    -7559 
   -6938    -6443    -6051    -5745    -5510    -5329    -5178    -5049 
   -4959    -4869    -4730    -4577    -4438    -4335    -4305    -4358 
   -4480    -4625    -4769    -4956    -5212    -5563    -6009    -6450 
   -6776    -6963    -7047    -7076    -7087    -7086    -7041    -6887 
   -6628    -6326    -6009    -5680    -5367    -5082    -4810    -4532 
   -4218    -3909    -3691    -3558    -3523    -3663    -3997    -4520 
   -5165    -5819    -6474    -7112    -7664    -8127    -8495    -8749 
   -8927    -9039    -9071    -9042    -8971    -8853    -8713    -8588 
   -8431    -8169    -7855    -7595    -7441    -7394    -7413    -7445 
   -7467    -7529    -7682    -7911    -8232    -8678    -9215    -9776 
  -10291   -10738   -11138   -11489   -11776   -12006   -12170   -12268 
  -12318   -12317   -12313   -12383   -12513   -12670   -12855   -13014 
  -13065   -13020   -12944   -12839   -12675   -12465   -12233   -12005 
  -11764   -11478   -11211   -11010   -10815   -10605   -10389   -10128 
   -9828    -9529    -9250    -8954    -8570    -8100    -7572    -6974 
   -6335    -5685    -5023    -4403    -3863    -3360    -2879    -2443 
   -2051    -1703    -1417    -1239    -1225    -1398    -1777    -2320 
   -2925    -3565    -4249    -4951    -5662    -6367    -7049    -7710 
   -8348    -9004    -9717   -10445   -11118   -11687   -12107   -12369 
  -12510   -12568   -12534   -12401   -12235   -12100   -11972   -11783 
  -11526   -11221   -10873   -10536   -10256   -10000    -9730    -9454 
   -9222    -9071    -9006    -9010    -9044    -9064    -9072    -9090 
   -9132    -9181    -9215    -9264    -9352    -9469    -9650    -9907 
  -10209   -10579   -11024   -11499   -11989   -12479   -12931   -13330 
  -13664   -13918   -14070   -14084   -13956   -13691   -13316   -12870 
  -12346   -11763   -11175   -10620   -10135    -9740    -9459    -9332 
   -9331    -9359    -9385    -9438    -9495    -9536    -9577    -9579 
   -9520    -9425    -9306    -9182    -9051    -8869    -8623    -8340 
   -8067    -7848    -7670    -7502    -7385    -7362    -7447    -7646 
   -7913    -8189    -8452    -8723    -9036    -9373    -9699    -9990 
  -10184   -10228   -10119    -9839    -9396    -8849    -8254    -7646 
   -7083    -6585    -6102    -5597    -5051    -4483    -3979    -3607 
   -3378    -3300    -3369    -3566    -3878    -4296    -4825    -5477 
   -6243    -7076    -7903    -8680    -9388    -9988   -10461   -10830 
  -11079   -11188   -11180   -11090   -10958   -10786   -10566   -10362 
  -10211   -10108   -10070   -10070   -10040    -9954    -9870    -9855 
   -9859    -9797    -9650    -9433    -9211    -9060    -8958    -8849 
   -8721    -8584    -8461    -8352    -8208    -8007    -7810    -7688 
   -7623    -7637    -7773    -7983    -8242    -8537    -8827    -9151 
   -9531    -9938   -10374   -10835   -11345   -11919   -12487   -13009 
  -13497   -13933   -14285   -14523   -14657   -14708   -14664   -14533 
  -14343   -14114   -13848   -13573   -13339   -13167   -13046   -12949 
  -12853   -12772   -12738   -12789   -12931   -13128   -13344   -13520 
  -13606   -13567   -13355   -12993   -12540   -12026   -11519   -11048 
  -10587   -10169    -9805    -9455    -9117    -8771    -8363    -7926 
   -7556    -7294    -7138    -7094    -7200    -7474    -7846    -8230 
   -8623    -8987    -9271    -9516    -9751    -9929   -10035   -10079 
  -10095   -10114   -10125   -10135   -10190   -10278   -10388   -10583 
  -10899   -11305   -11746   -12177   -12588   -13009   -13493   -14073 
  -14719   -15360   -15910   -16329   -16628   -16802   -16848   -16781 
  -16565   -16178   -15708   -15204   -14636   -14027   -13413   -12798 
  -12196   -11608   -11056   -10550   -10050    -9541    -9026    -8506 
   -8018    -7561    -7125    -6751    -6475    -6317    -6282    -6342 
   -6502    -6794    -7185    -7626    -8091    -8542    -8924    -9184 
   -9350    -9516    -9706    -9869    -9959    -9996   -10025   -10016 
   -9922    -9769    -9591    -9397    -9179    -8938    -8696    -8488 
   -8384    -8434    -8613    -8914    -9319    -9748   -10189   -10687 
  -11187   -11591   -11874   -12100   -12343   -12562   -12703   -12802 
  -12900   -12958   -12927   -12792   -12585   -12353   -12100   -11789 
  -11404   -10989   -10606   -10278    -9984    -9708    -9468    -9294 
   -9176    -9102    -9054    -8997    -8991    -9131    -9361    -9617 
   -9921   -10273   -10677   -11113   -11497   -11834   -12179   -12483 
  -12691   -12839   -12951   -12994   -12930   -12801   -12705   -12655 
  -12612   -12595   -12626   -12686   -12765   -12840   -12904   -12941 
  -12926   -12882   -12815   -12669   -12380   -11939   -11405   -10826 
  -10234    -9683    -9210    -8810    -8460    -8147    -7885    -7667 
   -7481    -7385    -7391    -7448    -7570    -7769    -7986    -8144 
   -8214    -8235    -8220    -8108    -7915    -7711    -7498    -7275 
   -7036    -6780    -6572    -6434    -6352    -6309    -6255    -6202 
   -6222    -6343    -6569    -6847    -7087    -7320    -7660    -8124 
   -8588    -8959    -9286    -9605    -9847    -9981   -10035    -9995 
   -9861    -9671    -9446    -9191    -8920    -8706    -8611    -8576 
   -8630    -8861    -9131    -9323    -9557    -9873   -10210   -10542 
  -10826   -11068   -11300   -11469   -11558   -11641   -11740   -11798 
  -11791   -11721   -11590   -11460   -11386   -11364   -11385   -11428 
  -11470   -11530   -11614   -11708   -11773   -11758   -11679   -11571 
  -11427   -11262   -11118   -10998   -10872   -10727   -10581   -10456 
  -10338   -10182   -10010    -9887    -9788    -9668    -9556    -9495 
   -9487    -9522    -9604    -9739    -9921   -10126   -10366   -10672 
  -10976   -11198   -11347   -11402   -11341   -11213   -11030   -10789 
  -10527   -10287   -10065    -9806    -9505    -9198    -8866    -8509 
   -8184    -7926    -7701    -7481    -7308    -7163    -6993    -6860 
   -6803    -6794    -6880    -7093    -7427    -7877    -8404    -8987 
   -9622   -10291   -10993   -11723   -12448   -13107   -13656   -14121 
  -14516   -14802   -14983   -15097   -15144   -15143   -15141   -15156 
  -15196   -15242   -15231   -15156   -15075   -14976   -14791   -14524 
  -14210   -13856   -13473   -13043   -12576   -12116   -11675   -11264 
  -10888   -10563   -10357   -10277   -10271   -10332   -10430   -10531 
  -10661   -10827   -10995   -11114   -11190   -11253   -11305   -11383 
  -11497   -11574   -11586   -11553   -11493   -11400   -11241   -11008 
  -10751   -10481   -10152    -9746    -9272    -8735    -8133    -7492 
   -6876    -6311    -5777    -5303    -4952    -4732    -4624    -4643 
   -4786    -5005    -5266    -5563    -5891    -6211    -6495    -6737 
   -6929    -7070    -7172    -7247    -7299    -7291    -7247    -7245 
   -7251    -7208    -7113    -6972    -6783    -6545    -6288    -6048 
   -5816    -5618    -5507    -5476    -5516    -5622    -5743    -5858 
   -5955    -6015    -6062    -6102    -6129    -6204    -6355    -6559 
   -6814    -7096    -7393    -7758    -8197    -8604    -8905    -9123 
   -9285    -9428    -9609    -9797    -9912    -9963    -9978    -9932 
   -9807    -9619    -9389    -9113    -8817    -8556    -8350    -8191 
   -8073    -7991    -7958    -7982    -8034    -8086    -8163    -8267 
   -8350    -8412    -8498    -8586    -8621    -8636    -8649    -8617 
   -8569    -8522    -8436    -8341    -8247    -8130    -7997    -7845 
   -7722    -7663    -7636    -7644    -7676    -7720    -7847    -8024 
   -8150    -8248    -8375    -8540    -8767    -9048    -9359    -9700 
  -10004   -10222   -10353   -10333   -10191   -10025    -9803    -9513 
   -9214    -8913    -8629    -8377    -8140    -7936    -7750    -7542 
   -7343    -7190    -7110    -7118    -7159    -7191    -7209    -7219 
   -7253    -7306    -7398    -7589    -7853    -8141    -8436    -8716 
   -9013    -9349    -9662    -9941   -10208   -10428   -10610   -10763 
  -10842   -10884   -10956   -11028   -11067   -11106   -11178   -11277 
  -11370   -11478   -11614   -11697   -11686   -11645   -11597   -11501 
  -11364   -11203   -10969   -10656   -10294    -9863    -9408    -8996 
   -8597    -8205    -7847    -7539    -7304    -7139    -7033    -6987 
   -6965    -6971    -7087    -7339    -7639    -7894    -8134    -8382 
   -8569    -8690    -8767    -8754    -8703    -8729    -8836    -8974 
   -9099    -9218    -9399    -9648    -9914   -10169   -10406   -10649 
  -10931   -11243   -11507   -11679   -11817   -11928   -11998   -12055 
  -12085   -12093   -12106   -12091   -12046   -11957   -11832   -11741 
  -11683   -11613   -11500   -11328   -11179   -11114   -11096   -11117 
  -11191   -11319   -11485   -11676   -11907   -12188   -12534   -12917 
  -13238   -13480   -13660   -13754   -13788   -13728   -13488   -13156 
  -12823   -12426   -11927   -11379   -10860   -10382    -9893    -9399 
   -8912    -8454    -8079    -7753    -7404    -7056    -6777    -6636 
   -6632    -6710    -6898    -7188    -7505    -7876    -8328    -8752 
   -9106    -9467    -9821   -10107   -10355   -10578   -10733   -10827 
  -10923   -11024   -11083   -11125   -11165   -11145   -11049   -10867 
  -10558   -10142    -9651    -9101    -8523    -7935    -7357    -6799 
   -6237    -5682    -5183    -4748    -4367    -4072    -3902    -3836 
   -3799    -3774    -3835    -4039    -4352    -4735    -5210    -5791 
   -6442    -7140    -7890    -8697    -9527   -10317   -11049   -11729 
  -12318   -12806   -13219   -13535   -13715   -13757   -13674   -13498 
  -13243   -12908   -12578   -12299   -11973   -11616   -11353   -11147 
  -10942   -10786   -10675   -10568   -10464   -10399   -10400   -10407 
  -10381   -10399   -10472   -10549   -10679   -10874   -11063   -11265 
  -11538   -11830   -12073   -12252   -12350   -12385   -12417   -12438 
  -12383   -12231   -11981   -11664   -11348   -11035   -10694   -10349 
  -10007    -9657    -9278    -8869    -8509    -8239    -7980    -7707 
   -7511    -7450    -7492    -7639    -7829    -7884    -7905    -8057 
   -8041    -7718    -7542    -7666    -7719    -7626    -7575    -7553 
   -7626    -7693    -7361    -7010    -7288    -7674    -7558    -7400 
   -7648    -8199    -8749    -8823    -8564    -8848    -9594    -9894 
   -9785    -9793    -9992   -10385   -10560   -10245   -10402   -11246 
  -11430   -10942   -11128   -11869   -11990   -11467   -11142   -11371 
  -11892   -12107   -11824   -11930   -12922   -13720   -13591   -13194 
  -12793   -11935   -10992   -10751   -10783   -10254    -9859   -10743 
  -12272   -12951   -12222   -10430    -8881    -8896    -9404    -8664 
   -8061    -9456   -11140   -10808    -9012    -7148    -5492    -4427 
   -4577    -5342    -5638    -5228    -4915    -6025    -7648    -6242 
   -1724      741    -1068    -3659    -4408    -3740    -3644    -5432 
   -6822    -5958    -4773    -4749    -5527    -6617    -7433    -8450 
  -10124    -9695    -6272    -5302    -8735   -10968    -9565    -7219 
   -5880    -7015    -9992   -10487    -7619    -5801    -6593    -8029 
   -9362    -9702    -8284    -6990    -7502    -9075   -10185   -10186 
   -9784    -9550    -9567   -10620   -12194   -12454   -11851   -11443 
  -11372   -12791   -14611   -14042   -13011   -14512   -16353   -16097 
  -15075   -14383   -14122   -14825   -15416   -14656   -13433   -12726 
  -12708   -12544   -11405   -10495   -10377   -10043   -10038   -10694 
  -10649   -10095   -10043    -9641    -8374    -7765    -8412    -8740 
   -8361    -8782    -9696    -9132    -7681    -7547    -8023    -7468 
   -7139    -7977    -8291    -7529    -7197    -7470    -7428    -7413 
   -7619    -7483    -7504    -7922    -8183    -8707    -9535    -9940 
  -10298   -10898   -11205   -11312   -11033   -10056   -10100   -11662 
  -11889   -10626   -10829   -11863   -11566   -11367   -12055   -11722 
  -10956   -11235   -11181   -10790   -11656   -12557   -12146   -11662 
  -11857   -12326   -12849   -13010   -12978   -13185   -12825   -12135 
  -12572   -13487   -13636   -13525   -13635   -13845   -14191   -14523 
  -14759   -15063   -15349   -15512   -15475   -15188   -15158   -15354 
  -14887   -14445   -15143   -15645   -15174   -15255   -15736   -14978 
  -13755   -13835   -14513   -14302   -13806   -13997   -14324   -14300 
  -14297   -14284   -13818   -13299   -13670   -14739   -15095   -14090 
  -13206   -13542   -13623   -12891   -12815   -13055   -12489   -11930 
  -11884   -11506   -10853   -10787   -11122   -11087   -10739   -10578 
  -10646   -10777   -10941   -10813   -10294   -10124   -10265    -9914 
   -9737   -10208    -9996    -9138    -9092    -9215    -8415    -7832 
   -8065    -8157    -8182    -8466    -8302    -7843    -8184    -8992 
   -8863    -8171    -8383    -8908    -8655    -8702    -9510    -9562 
   -8931    -8919    -9064    -8927    -9061    -9000    -8448    -8314 
   -8777    -9256    -9451    -9351    -9260    -9221    -9013    -8701 
   -8082    -7252    -7102    -7539    -7494    -7054    -7061    -7193 
   -6993    -7155    -7796    -7808    -6813    -6008    -6208    -6570 
   -6521    -6364    -6146    -6287    -7098    -7762    -7838    -7655 
   -7546    -7938    -8413    -8169    -7785    -7894    -8135    -8552 
   -9133    -9230    -9179    -9646   -10039    -9957    -9769    -9521 
   -9255    -9183    -9166    -9030    -8937    -8987    -8937    -8791 
   -8963    -9329    -9419    -9552   -10067   -10302    -9906    -9707 
   -9971    -9899    -9740   -10185   -10477   -10384   -10808   -11350 
  -11278   -11141   -11133   -10890   -10715   -10931   -11193   -10914 
  -10184    -9878   -10109   -10267   -10461   -10889   -11083   -10902 
  -10870   -10935   -10440    -9869   -10245   -10756   -10362   -10221 
  -10957   -11132   -10727   -11129   -11806   -11574   -10972   -10889 
  -11334   -11795   -11792   -11403   -10982   -10788   -10798   -10729 
  -10687   -10616   -10000    -9197    -8899    -8839    -8527    -7858 
   -7353    -7540    -7648    -7307    -7416    -7531    -6789    -6410 
   -7194    -7515    -6651    -6259    -6778    -6890    -6732    -7096 
   -7143    -6393    -6163    -6892    -7586    -8198    -8971    -9283 
   -9173    -9122    -8873    -8592    -8989    -9720    -9878    -9732 
  -10099   -10506   -10228   -10301   -11539   -12237   -11423   -11265 
  -12680   -13344   -12543   -12394   -13388   -13992   -13963   -14090 
  -14286   -14240   -14188   -14122   -13911   -13885   -13868   -13307 
  -12622   -12288   -11993   -12068   -12905   -13320   -12820   -12694 
  -12927   -12549   -12141   -12300   -12315   -12007   -12032   -12176 
  -11952   -11954   -12427   -12279   -11394   -11291   -11926   -11745 
  -11189   -11381   -11433   -10947   -10940   -11045   -10526   -10200 
  -10404   -10480   -10558   -11029   -11381   -11292   -11380   -11571 
  -11206   -11001   -11531   -11861   -11911   -12515   -13102   -13006 
  -13166   -13596   -13177   -13006   -14259   -15068   -14655   -14830 
  -15419   -15103   -14922   -15700   -16038   -15412   -15090   -15287 
  -14951   -14083   -13557   -13445   -13442   -13725   -14022   -13827 
  -13830   -14273   -13922   -12936   -12720   -12995   -12935   -12872 
  -12997   -13053   -12985   -12803   -13012   -13651   -13252   -11822 
  -11431   -12022   -11813   -10920   -10522   -10610   -10620   -10588 
  -10683   -10693   -10370    -9836    -9721   -10233   -10534   -10425 
  -10613   -10652   -10099   -10213   -10899   -10299    -9151    -9423 
  -10070    -9824    -9948   -10872   -11164   -10455    -9672    -9317 
   -9412    -9924   -10473   -10509    -9979    -9504    -9598    -9827 
   -9717    -9710   -10164   -10415    -9829    -9204    -9564   -10173 
   -9895    -9476    -9860   -10175    -9881    -9466    -8855    -8390 
   -8814    -9710   -10509   -11154   -11162   -10424   -10073   -10615 
  -10896   -10684   -11304   -12546   -12882   -12613   -13064   -13745 
  -13461   -13271   -14214   -14186   -12778   -13158   -15007   -15296 
  -14760   -14958   -14885   -14219   -14172   -15027   -15594   -15128 
  -14550   -14725   -15349   -16177   -16859   -16774   -16463   -16174 
  -14860   -13525   -14223   -15451   -14810   -13466   -13100   -12719 
  -11663   -11380   -11942   -11647   -10802   -10695   -10914   -10898 
  -10570   -10003    -9883    -9918    -9261    -8899    -9533   -10084 
  -10134    -9839    -9500    -9992   -10363    -9155    -8162    -8520 
   -8112    -6912    -7195    -8649    -9599    -9980    -9986   -10003 
  -11121   -12277   -11752   -11436   -12866   -13905   -13951   -14750 
  -15783   -15552   -14624   -13914   -13237   -12359   -11606   -11361 
