Origin Time       2011/03/11 14:46:00
Lat.              38.103
Long.             142.860
Depth. (km)       24
Mag.              9.0
Station Code      GIF014
Station Lat.      35.6582
Station Long.     137.4253
Station Height(m) 468
Record Time       2011/03/11 14:48:46
Sampling Freq(Hz) 100Hz
Duration Time(s)  189
Dir.              N-S
Scale Factor      3920(gal)/6182761
Max. Acc. (gal)   13.292
Last Correction   2011/03/11 14:48:31
Memo.             
[...]
  -27047   -27385   -27737   -28138   -28526   -28861   -29156   -29354 
  -29419   -29459   -29461   -29455   -29527   -29584   -29669   -29823 
  -30021   -30372   -30773   -31155   -31605   -31952   -32168   -32457 
  -32716   -32794   -32847   -32872   -32717   -32520   -32356   -32177 
  -32054   -31957   -31895   -31885   -31867   -31923   -32067   -32249 
  -32436   -32575   -32763   -32920   -32935   -33050   -33252   -33338 
  -33410   -33511   -33550   -33612   -33768   -33952   -34146   -34241 
  -34142   -34019   -33870   -33606   -33362   -33091   -32715   -32311 
  -31888   -31500   -31145   -30836   -30654   -30464   -30235   -30143 
  -30143   -30152   -30256   -30500   -30797   -31132   -31562   -32025 
  -32519   -33036   -33490   -33891   -34180   -34337   -34428   -34425 
  -34412   -34423   -34355   -34231   -34094   -33918   -33695   -33521 
  -33402   -33247   -33115   -32974   -32755   -32552   -32373   -32231 
  -32155   -32130   -32198   -32272   -32293   -32290   -32214   -32130 
  -32086   -32072   -32144   -32250   -32347   -32464   -32599   -32730 
  -32828   -32987   -33266   -33632   -34080   -34488   -34737   -34843 
  -34849   -34723   -34421   -34085   -33762   -33350   -32934   -32505 
  -31958   -31369   -30802   -30266   -29788   -29431   -29193   -29013 
  -28987   -29104   -29227   -29397   -29607   -29788   -29912   -29922 
  -29793   -29491   -29038   -28570   -28165   -27800   -27453   -27162 
  -26866   -26520   -26218   -25950   -25732   -25610   -25473   -25350 
  -25305   -25305   -25396   -25575   -25847   -26232   -26652   -27098 
  -27612   -28171   -28721   -29274   -29850   -30316   -30657   -31027 
  -31451   -31905   -32415   -32995   -33510   -33904   -34322   -34642 
  -34778   -34985   -35269   -35475   -35653   -35852   -36011   -36103 
  -36173   -36211   -36230   -36218   -36081   -35878   -35651   -35277 
  -34781   -34242   -33655   -33024   -32376   -31736   -31109   -30540 
  -30050   -29613   -29254   -28966   -28725   -28514   -28306   -28133 
  -27988   -27804   -27566   -27305   -27014   -26609   -26111   -25557 
  -24904   -24255   -23640   -23023   -22533   -22158   -21837   -21644 
  -21589   -21620   -21650   -21670   -21715   -21747   -21775   -21777 
  -21811   -21945   -21979   -21957   -22048   -22090   -22105   -22224 
  -22320   -22347   -22423   -22512   -22547   -22649   -22761   -22777 
  -22810   -22813   -22716   -22617   -22487   -22289   -22115   -22032 
  -22014   -22075   -22264   -22506   -22772   -23055   -23325   -23658 
  -23988   -24285   -24669   -25077   -25470   -25857   -26197   -26507 
  -26727   -26861   -26960   -27033   -27194   -27436   -27749   -28209 
  -28700   -29145   -29568   -29927   -30155   -30267   -30331   -30315 
  -30310   -30394   -30458   -30622   -30854   -30885   -30844   -30779 
  -30545   -30299   -30173   -30076   -30026   -30086   -30147   -30186 
  -30331   -30510   -30669   -30863   -31010   -31048   -30999   -30901 
  -30778   -30639   -30528   -30402   -30257   -30167   -30092   -30077 
  -30141   -30188   -30217   -30175   -30053   -29917   -29732   -29505 
  -29232   -28880   -28481   -28080   -27689   -27298   -26967   -26666 
  -26321   -26043   -25834   -25642   -25559   -25621   -25785   -25982 
  -26241   -26589   -26918   -27242   -27641   -28066   -28435   -28763 
  -29104   -29326   -29399   -29483   -29522   -29490   -29483   -29525 
  -29641   -29831   -30133   -30486   -30810   -31182   -31515   -31800 
  -32165   -32550   -32988   -33475   -33935   -34440   -34932   -35374 
  -35863   -36426   -37028   -37620   -38204   -38714   -39077   -39270 
  -39204   -38941   -38537   -37916   -37129   -36224   -35284   -34387 
  -33547   -32896   -32443   -32139   -32040   -32047   -32059   -32079 
  -32086   -32017   -31834   -31559   -31175   -30769   -30423   -30092 
  -29856   -29696   -29540   -29489   -29529   -29652   -29885   -30188 
  -30596   -31066   -31553   -32080   -32621   -33166   -33660   -34063 
  -34306   -34324   -34232   -34035   -33689   -33316   -32966   -32651 
  -32365   -32069   -31771   -31444   -31094   -30736   -30385   -30091 
  -29788   -29472   -29166   -28770   -28280   -27736   -27194   -26686 
  -26214   -25840   -25537   -25336   -25281   -25299   -25436   -25658 
  -25910   -26238   -26575   -26920   -27252   -27503   -27684   -27665 
  -27403   -26973   -26371   -25701   -25020   -24297   -23546   -22824 
  -22232   -21783   -21461   -21286   -21308   -21511   -21741   -22057 
  -22507   -22961   -23533   -24225   -24881   -25560   -26250   -26879 
  -27456   -27964   -28345   -28601   -28817   -28943   -28998   -29097 
  -29160   -29217   -29246   -29091   -28847   -28559   -28241   -28043 
  -28003   -28109   -28372   -28735   -29108   -29482   -29814   -30000 
  -30121   -30178   -30132   -30097   -30004   -29845   -29719   -29567 
  -29435   -29343   -29223   -29078   -28888   -28704   -28561   -28501 
  -28593   -28771   -29042   -29368   -29716   -30185   -30579   -30866 
  -31251   -31595   -31918   -32330   -32632   -32893   -33318   -33652 
  -33840   -34241   -34647   -34828   -35124   -35451   -35617   -35847 
  -36156   -36462   -36791   -37151   -37503   -37764   -38008   -38196 
  -38206   -38182   -38097   -37861   -37566   -37180   -36714   -36229 
  -35738   -35238   -34673   -34107   -33568   -33019   -32513   -32043 
  -31593   -31154   -30756   -30457   -30192   -29985   -29873   -29772 
  -29625   -29378   -29012   -28515   -27968   -27404   -26657   -25886 
  -25201   -24403   -23705   -23190   -22597   -22068   -21742   -21455 
  -21161   -20993   -20935   -20865   -20866   -20920   -20930   -21031 
  -21205   -21361   -21581   -21857   -22064   -22218   -22453   -22685 
  -22847   -23071   -23312   -23483   -23608   -23689   -23723   -23670 
  -23577   -23473   -23312   -23165   -23046   -22935   -22860   -22805 
  -22739   -22545   -22179   -21678   -20969   -20081   -19091   -18066 
  -17111   -16230   -15486   -14955   -14628   -14515   -14583   -14849 
  -15343   -16030   -16826   -17694   -18808   -20055   -21247   -22634 
  -24079   -25362   -26756   -28222   -29548   -30825   -32132   -33346 
  -34444   -35649   -36919   -38096   -39272   -40390   -41318   -42032 
  -42534   -42844   -42913   -42791   -42516   -41975   -41264   -40480 
  -39603   -38725   -37878   -37069   -36294   -35514   -34764   -34051 
  -33426   -32895   -32389   -31965   -31534   -30949   -30269   -29582 
  -28951   -28375   -27895   -27546   -27247   -27075   -27091   -27256 
  -27648   -28301   -29122   -29984   -30913   -31932   -32853   -33681 
  -34540   -35312   -35849   -36198   -36478   -36548   -36306   -36043 
  -35723   -35166   -34648   -34150   -33513   -32919   -32392   -31872 
  -31367   -30872   -30389   -29869   -29331   -28761   -28164   -27674 
  -27372   -27326   -27548   -27976   -28509   -29066   -29650   -30191 
  -30667   -31076   -31325   -31439   -31432   -31296   -31071   -30755 
  -30389   -29958   -29483   -29031   -28624   -28382   -28219   -28100 
  -28186   -28238   -28136   -28046   -27876   -27578   -27223   -26831 
  -26334   -25673   -24911   -24043   -23105   -22168   -21253   -20455 
  -19764   -19245   -18995   -18935   -19091   -19424   -19839   -20362 
  -20947   -21599   -22307   -23041   -23834   -24598   -25314   -25978 
  -26542   -27068   -27499   -27808   -28050   -28204   -28362   -28536 
  -28705   -28951   -29238   -29524   -29786   -29986   -30109   -30127 
  -30075   -29967   -29876   -29843   -29787   -29788   -29887   -30059 
  -30334   -30644   -30959   -31195   -31307   -31378   -31376   -31414 
  -31607   -31877   -32281   -32796   -33325   -33842   -34313   -34765 
  -35175   -35604   -36161   -36772   -37420   -38071   -38646   -39139 
  -39528   -39879   -40199   -40434   -40582   -40584   -40493   -40333 
  -40108   -39936   -39834   -39840   -39967   -40128   -40309   -40464 
  -40579   -40624   -40524   -40357   -40110   -39791   -39534   -39322 
  -39185   -39150   -39153   -39189   -39163   -39060   -38940   -38725 
  -38387   -37921   -37284   -36465   -35496   -34488   -33506   -32620 
  -31870   -31218   -30688   -30255   -29906   -29657   -29458   -29314 
  -29194   -29052   -28920   -28780   -28610   -28413   -28245   -28134 
  -28044   -28058   -28161   -28244   -28322   -28354   -28285   -28073 
  -27718   -27268   -26656   -25899   -25075   -24113   -23051   -22015 
  -21042   -20156   -19383   -18754   -18262   -17906   -17702   -17623 
  -17683   -17865   -18126   -18489   -18919   -19333   -19681   -19945 
  -20071   -20005   -19785   -19431   -18978   -18452   -17857   -17304 
  -16794   -16315   -16044   -15992   -16076   -16306   -16606   -16882 
  -17111   -17319   -17530   -17739   -17973   -18213   -18414   -18575 
  -18677   -18705   -18659   -18584   -18499   -18372   -18244   -18048 
  -17728   -17440   -17213   -17081   -17133   -17317   -17685   -18223 
  -18823   -19513   -20240   -20957   -21720   -22537   -23380   -24232 
  -25110   -25958   -26737   -27498   -28183   -28770   -29316   -29829 
  -30296   -30643   -30879   -31046   -31132   -31229   -31335   -31427 
  -31605   -31808   -32000   -32231   -32473   -32740   -33027   -33344 
  -33731   -34182   -34729   -35347   -36011   -36687   -37313   -37945 
  -38542   -39041   -39477   -39827   -40103   -40302   -40427   -40548 
  -40643   -40692   -40673   -40541   -40258   -39733   -38998   -38135 
  -37170   -36157   -35120   -34100   -33074   -32029   -31016   -30020 
  -29168   -28534   -28023   -27726   -27566   -27370   -27174   -26869 
  -26403   -25881   -25305   -24680   -24060   -23522   -23040   -22623 
  -22363   -22205   -22156   -22228   -22405   -22775   -23301   -23946 
  -24715   -25556   -26517   -27523   -28518   -29538   -30490   -31396 
  -32298   -33137   -33928   -34700   -35476   -36269   -37103   -37969 
  -38822   -39667   -40418   -41070   -41720   -42366   -43091   -43909 
  -44802   -45741   -46509   -47127   -47654   -47953   -48119   -48203 
  -48150   -48041   -47955   -47899   -47822   -47782   -47771   -47672 
  -47579   -47460   -47238   -46999   -46684   -46324   -45924   -45352 
  -44624   -43674   -42481   -41104   -39535   -37870   -36148   -34401 
  -32671   -30923   -29234   -27696   -26298   -24977   -23742   -22619 
  -21457   -20305   -19276   -18277   -17428   -16785   -16274   -15951 
  -15711   -15476   -15290   -15137   -15040   -15034   -15198   -15524 
  -15951   -16526   -17194   -17936   -18788   -19678   -20612   -21573 
  -22507   -23419   -24310   -25191   -26032   -26862   -27739   -28621 
  -29459   -30215   -30882   -31438   -31861   -32200   -32426   -32608 
  -32850   -33089   -33371   -33672   -33873   -34038   -34122   -34066 
  -33915   -33639   -33219   -32706   -32085   -31276   -30407   -29632 
  -28837   -28117   -27590   -27106   -26702   -26444   -26283   -26226 
  -26297   -26522   -26913   -27480   -28104   -28706   -29361   -29937 
  -30393   -30823   -31128   -31310   -31422   -31421   -31257   -30918 
  -30564   -30225   -29904   -29735   -29641   -29560   -29452   -29183 
  -28768   -28241   -27693   -27132   -26477   -25866   -25250   -24509 
  -23823   -23231   -22601   -21922   -21287   -20668   -20047   -19583 
  -19261   -19054   -19067   -19165   -19288   -19480   -19668   -19897 
  -20208   -20593   -20988   -21326   -21678   -22006   -22308   -22733 
  -23291   -23951   -24722   -25555   -26373   -27180   -28003   -28794 
  -29638   -30549   -31459   -32490   -33569   -34583   -35558   -36368 
  -37010   -37558   -37972   -38284   -38497   -38536   -38349   -37964 
  -37415   -36676   -35865   -35062   -34176   -33177   -32047   -30757 
  -29291   -27687   -26105   -24598   -23225   -22088   -21123   -20359 
  -19802   -19302   -18879   -18567   -18249   -17882   -17584   -17392 
  -17192   -17007   -16847   -16635   -16395   -16082   -15714   -15401 
  -15162   -15065   -15177   -15485   -15927   -16438   -17030   -17654 
  -18283   -19007   -19823   -20755   -21837   -23052   -24377   -25686 
  -26921   -28049   -28965   -29684   -30206   -30555   -30843   -31077 
  -31320   -31647   -32047   -32562   -33210   -33951   -34707   -35452 
  -36190   -36846   -37443   -38000   -38456   -38832   -39075   -39161 
  -39143   -38995   -38725   -38366   -37935   -37447   -36941   -36499 
  -36115   -35784   -35532   -35328   -35121   -34824   -34466   -34076 
  -33581   -33093   -32643   -32177   -31768   -31341   -30847   -30390 
  -30016   -29709   -29477   -29349   -29245   -29171   -29182   -29151 
  -29073   -28929   -28639   -28327   -28022   -27691   -27371   -27052 
  -26714   -26260   -25693   -25084   -24394   -23717   -23157   -22751 
  -22552   -22543   -22729   -22995   -23256   -23547   -23732   -23838 
  -24005   -24243   -24689   -25342   -26122   -27053   -28011   -28898 
  -29696   -30409   -31059   -31600   -32118   -32649   -33122   -33637 
  -34229   -34790   -35259   -35692   -36104   -36401   -36657   -36927 
  -37137   -37320   -37492   -37694   -37922   -38093   -38316   -38574 
  -38763   -38949   -39163   -39419   -39657   -39825   -39907   -39760 
  -39398   -38841   -38054   -37187   -36310   -35429   -34573   -33743 
  -32948   -32137   -31323   -30502   -29640   -28780   -27871   -26954 
  -26060   -25082   -24097   -23132   -22167   -21235   -20271   -19397 
  -18609   -17738   -16880   -16020   -15070   -14139   -13234   -12370 
  -11607   -10914   -10328    -9868    -9464    -9131    -8908    -8742 
   -8656    -8689    -8747    -8841    -9007    -9189    -9437    -9762 
  -10165   -10727   -11421   -12218   -13144   -14175   -15245   -16333 
  -17437   -18476   -19426   -20319   -21134   -21902   -22597   -23192 
  -23746   -24234   -24664   -25063   -25416   -25771   -26094   -26353 
  -26546   -26667   -26755   -26780   -26780   -26768   -26657   -26564 
  -26502   -26378   -26298   -26252   -26216   -26222   -26261   -26426 
  -26694   -26966   -27241   -27474   -27584   -27564   -27511   -27460 
  -27409   -27413   -27438   -27501   -27627   -27791   -28010   -28224 
  -28447   -28720   -29004   -29323   -29640   -29966   -30335   -30715 
  -31200   -31818   -32564   -33458   -34402   -35385   -36376   -37273 
  -38084   -38849   -39616   -40283   -40819   -41336   -41703   -41870 
  -41930   -41887   -41813   -41711   -41572   -41383   -41054   -40599 
  -40018   -39346   -38598   -37727   -36813   -35828   -34763   -33727 
  -32688   -31676   -30725   -29809   -28923   -27997   -27068   -26175 
  -25336   -24644   -24077   -23636   -23287   -22971   -22715   -22434 
  -22249   -22300   -22420   -22710   -23226   -23762   -24325   -24948 
  -25574   -26139   -26614   -26943   -27048   -27062   -27020   -26874 
  -26794   -26756   -26679   -26622   -26574   -26566   -26621   -26827 
  -27266   -27838   -28529   -29292   -30069   -30941   -31887   -32955 
  -34153   -35333   -36476   -37546   -38493   -39361   -40216   -41116 
  -42005   -42834   -43597   -44297   -44882   -45271   -45561   -45768 
  -45833   -45857   -45821   -45743   -45676   -45552   -45420   -45201 
  -44826   -44367   -43716   -42904   -42018   -41001   -39881   -38695 
  -37520   -36338   -35147   -34102   -33131   -32237   -31487   -30752 
  -30073   -29503   -28994   -28485   -27925   -27433   -26977   -26528 
  -26233   -26015   -25820   -25672   -25497   -25245   -24872   -24380 
  -23782   -23175   -22636   -22098   -21660   -21367   -21143   -21060 
  -21074   -21078   -21114   -21235   -21347   -21358   -21422   -21544 
  -21592   -21684   -21845   -21999   -22143   -22301   -22508   -22668 
  -22808   -23028   -23267   -23565   -23893   -24226   -24686   -25175 
  -25608   -26038   -26484   -26915   -27268   -27677   -28149   -28499 
  -28818   -29055   -29128   -29170   -29050   -28742   -28413   -28043 
  -27603   -27100   -26569   -26019   -25394   -24721   -24037   -23368 
  -22755   -22296   -22024   -21841   -21808   -21960   -22157   -22417 
  -22764   -23147   -23539   -23948   -24412   -24821   -25189   -25637 
  -26103   -26643   -27258   -27855   -28530   -29223   -29817   -30367 
  -30842   -31196   -31468   -31698   -31893   -32061   -32253   -32489 
  -32736   -32910   -33048   -33209   -33289   -33335   -33384   -33356 
  -33359   -33376   -33320   -33268   -33298   -33432   -33550   -33706 
  -33988   -34211   -34351   -34513   -34746   -34889   -34876   -34953 
  -34870   -34547   -34304   -33913   -33413   -33022   -32559   -32135 
  -31792   -31396   -31076   -30828   -30548   -30310   -30155   -29992 
  -29841   -29774   -29727   -29779   -29955   -30151   -30463   -30839 
  -31211   -31669   -32120   -32515   -32917   -33338   -33726   -34053 
  -34375   -34562   -34595   -34655   -34603   -34370   -34078   -33654 
  -33049   -32341   -31638   -30966   -30337   -29906   -29643   -29452 
  -29430   -29517   -29651   -29897   -30174   -30415   -30636   -30780 
  -30783   -30699   -30552   -30296   -30015   -29683   -29252   -28873 
  -28542   -28219   -27919   -27597   -27291   -26947   -26533   -26139 
  -25715   -25264   -24910   -24514   -23878   -23206   -22503   -21519 
  -20541   -19672   -18725   -17904   -17213   -16623   -16243   -15929 
  -15750   -15761   -15785   -15892   -16070   -16225   -16448   -16735 
  -16985   -17224   -17530   -17831   -18098   -18463   -18920   -19415 
  -19988   -20667   -21405   -22159   -22985   -23831   -24640   -25497 
  -26300   -26952   -27445   -27738   -27889   -27932   -27847   -27679 
  -27570   -27524   -27358   -27271   -27397   -27453   -27550   -27800 
  -27984   -28167   -28420   -28656   -28899   -29226   -29599   -29909 
  -30238   -30594   -30882   -31269   -31754   -32268   -32957   -33776 
  -34679   -35704   -36824   -38015   -39215   -40433   -41591   -42635 
  -43672   -44603   -45377   -46038   -46511   -46805   -46901   -46808 
  -46594   -46262   -45894   -45502   -45094   -44736   -44352   -43957 
  -43554   -43111   -42700   -42253   -41746   -41238   -40696   -40111 
  -39493   -38916   -38329   -37678   -37106   -36551   -35923   -35370 
  -34910   -34362   -33757   -33226   -32568   -31836   -31236   -30553 
  -29844   -29239   -28555   -27863   -27225   -26546   -25857   -25210 
  -24549   -23803   -23121   -22509   -21846   -21343   -21005   -20701 
  -20552   -20506   -20547   -20703   -20906   -21211   -21585   -22004 
  -22508   -23065   -23731   -24472   -25257   -26116   -26941   -27763 
  -28618   -29402   -30151   -30912   -31596   -32146   -32698   -33259 
  -33678   -34052   -34381   -34548   -34624   -34637   -34605   -34518 
  -34419   -34422   -34391   -34307   -34326   -34320   -34213   -34121 
  -33998   -33748   -33520   -33349   -33107   -32952   -32861   -32670 
  -32607   -32597   -32491   -32514   -32578   -32584   -32641   -32663 
  -32592   -32437   -32224   -31956   -31606   -31195   -30688   -30092 
  -29414   -28682   -27980   -27230   -26490   -25867   -25242   -24639 
  -24140   -23732   -23373   -23086   -22936   -22789   -22658   -22651 
  -22626   -22671   -22880   -23127   -23483   -23982   -24527   -25140 
  -25863   -26636   -27411   -28289   -29276   -30262   -31279   -32366 
  -33429   -34400   -35401   -36374   -37166   -37961   -38674   -39119 
  -39521   -39782   -39761   -39706   -39558   -39160   -38701   -38246 
  -37703   -37257   -36997   -36749   -36596   -36498   -36236   -35976 
