Origin Time       2011/03/11 14:46:00
Lat.              38.103
Long.             142.860
Depth. (km)       24
Mag.              9.0
Station Code      GIF014
Station Lat.      35.6582
Station Long.     137.4253
Station Height(m) 468
Record Time       2011/03/11 14:48:46
Sampling Freq(Hz) 100Hz
Duration Time(s)  189
Dir.              E-W
Scale Factor      3920(gal)/6182761
Max. Acc. (gal)   11.249
Last Correction   2011/03/11 14:48:31
Memo.             
[...]
  -32783   -33472   -34060   -34540   -34928   -35168   -35265   -35183 
  -34959   -34649   -34168   -33597   -33059   -32552   -32101   -31718 
  -31411   -31106   -30758   -30444   -30071   -29590   -29114   -28629 
  -28096   -27546   -27029   -26557   -26075   -25556   -25014   -24462 
  -23873   -23195   -22406   -21464   -20306   -18908   -17285   -15459 
  -13456   -11405    -9401    -7450    -5680    -4178    -2911    -1935 
   -1320    -1056    -1052    -1285    -1770    -2375    -3028    -3724 
   -4416    -5118    -5753    -6234    -6606    -6872    -7048    -7188 
   -7324    -7448    -7553    -7685    -7792    -7825    -7851    -7860 
   -7870    -7940    -8058    -8236    -8485    -8861    -9417   -10165 
  -11155   -12336   -13656   -15079   -16459   -17740   -18893   -19869 
  -20667   -21280   -21767   -22093   -22184   -22104   -21847   -21435 
  -20959   -20458   -19987   -19570   -19216   -18921   -18654   -18419 
  -18178   -18000   -17943   -17948   -18085   -18335   -18577   -18864 
  -19209   -19565   -19951   -20375   -20842   -21371   -21942   -22517 
  -23114   -23713   -24256   -24761   -25140   -25307   -25295   -25036 
  -24491   -23688   -22592   -21259   -19817   -18339   -16885   -15575 
  -14497   -13638   -13028   -12632   -12379   -12300   -12341   -12427 
  -12520   -12559   -12554   -12482   -12400   -12422   -12527   -12748 
  -13045   -13258   -13408   -13523   -13627   -13838   -14199   -14672 
  -15227   -15858   -16487   -17042   -17607   -18170   -18668   -19133 
  -19583   -20062   -20609   -21275   -22090   -22989   -23904   -24734 
  -25423   -25968   -26325   -26593   -26842   -27050   -27303   -27588 
  -27852   -28110   -28384   -28736   -29197   -29776   -30411   -31025 
  -31625   -32134   -32559   -33012   -33449   -33808   -34075   -34272 
  -34397   -34369   -34238   -34045   -33744   -33374   -32937   -32422 
  -31868   -31304   -30736   -30190   -29718   -29306   -28954   -28691 
  -28444   -28215   -28035   -27797   -27487   -27195   -26957   -26727 
  -26485   -26353   -26319   -26276   -26283   -26353   -26434   -26536 
  -26709   -26972   -27299   -27728   -28236   -28768   -29366   -29977 
  -30552   -31085   -31511   -31870   -32166   -32323   -32320   -32110 
  -31661   -30976   -30086   -29034   -27843   -26587   -25336   -24109 
  -22917   -21707   -20451   -19196   -17972   -16838   -15867   -15068 
  -14406   -13848   -13295   -12664   -11991   -11212   -10313    -9415 
   -8497    -7598    -6802    -6070    -5455    -4978    -4642    -4525 
   -4571    -4670    -4756    -4796    -4809    -4802    -4814    -4833 
   -4870    -5073    -5472    -6035    -6786    -7640    -8488    -9285 
   -9998   -10631   -11262   -11957   -12707   -13553   -14538   -15564 
  -16541   -17475   -18424   -19350   -20254   -21292   -22450   -23632 
  -24847   -26023   -27075   -28000   -28813   -29517   -30085   -30551 
  -30920   -31122   -31171   -31085   -30881   -30555   -30103   -29633 
  -29117   -28495   -27883   -27283   -26636   -25995   -25405   -24840 
  -24258   -23679   -23078   -22416   -21727   -21017   -20313   -19627 
  -18937   -18285   -17690   -17147   -16641   -16162   -15746   -15404 
  -15105   -14836   -14611   -14451   -14327   -14186   -14002   -13772 
  -13483   -13149   -12786   -12355   -11903   -11469   -10995   -10561 
  -10230    -9957    -9819    -9778    -9712    -9640    -9507    -9281 
   -9057    -8838    -8621    -8429    -8245    -8084    -7998    -7982 
   -7974    -7975    -8005    -8043    -8129    -8292    -8556    -8957 
   -9419    -9874   -10317   -10725   -11101   -11437   -11669   -11777 
  -11819   -11790   -11688   -11633   -11660   -11812   -12163   -12621 
  -13201   -13895   -14549   -15211   -15895   -16511   -17121   -17784 
  -18522   -19311   -20095   -20865   -21562   -22132   -22598   -23016 
  -23406   -23764   -24135   -24486   -24780   -25063   -25334   -25632 
  -25995   -26363   -26685   -26886   -26910   -26797   -26603   -26384 
  -26159   -25940   -25697   -25388   -25089   -24794   -24464   -24183 
  -23919   -23621   -23336   -23070   -22835   -22684   -22693   -22876 
  -23145   -23478   -23892   -24368   -24941   -25657   -26499   -27452 
  -28452   -29403   -30321   -31198   -31945   -32524   -32882   -33003 
  -32898   -32544   -32048   -31404   -30503   -29483   -28346   -26968 
  -25475   -23912   -22178   -20300   -18421   -16668   -15054   -13614 
  -12439   -11546   -10895   -10422   -10109    -9946    -9915   -10046 
  -10339   -10784   -11309   -11808   -12338   -12953   -13667   -14515 
  -15478   -16593   -17821   -19015   -20143   -21237   -22301   -23290 
  -24223   -25156   -26025   -26835   -27598   -28210   -28680   -29045 
  -29303   -29537   -29787   -29986   -30089   -30127   -30059   -29870 
  -29661   -29395   -29086   -28766   -28283   -27671   -27014   -26258 
  -25494   -24802   -24186   -23687   -23325   -23069   -22809   -22500 
  -22130   -21598   -20908   -20093   -19118   -18036   -16899   -15750 
  -14641   -13569   -12591   -11745   -11035   -10510   -10107    -9764 
   -9501    -9277    -9076    -8943    -8851    -8814    -8900    -9055 
   -9289    -9701   -10223   -10851   -11638   -12512   -13469   -14498 
  -15585   -16803   -18112   -19500   -20996   -22520   -24035   -25548 
  -27001   -28317   -29498   -30531   -31372   -32062   -32575   -32899 
  -33148   -33312   -33309   -33140   -32853   -32474   -31975   -31368 
  -30665   -29878   -29019   -28011   -26885   -25698   -24400   -23106 
  -21952   -20940   -20074   -19341   -18737   -18204   -17674   -17150 
  -16585   -15983   -15410   -14855   -14329   -13879   -13531   -13281 
  -13092   -12983   -12976   -13022   -13050   -13036   -13014   -12969 
  -12889   -12836   -12844   -12947   -13194   -13540   -13924   -14276 
  -14511   -14665   -14783   -14824   -14845   -14955   -15163   -15438 
  -15793   -16291   -16957   -17718   -18590   -19609   -20724   -21961 
  -23323   -24695   -25990   -27133   -28102   -28916   -29548   -30016 
  -30379   -30671   -30870   -30927   -30868   -30750   -30579   -30276 
  -29781   -29181   -28493   -27674   -26797   -25872   -24869   -23855 
  -22873   -21869   -20805   -19745   -18675   -17571   -16520   -15474 
  -14430   -13527   -12719   -11967   -11359   -10907   -10618   -10514 
  -10535   -10590   -10653   -10742   -10836   -10903   -10953   -11014 
  -11084   -11136   -11189   -11284   -11412   -11501   -11516   -11485 
  -11377   -11214   -11082   -11013   -11069   -11281   -11570   -11868 
  -12142   -12418   -12671   -12845   -13059   -13363   -13666   -14007 
  -14381   -14735   -15193   -15827   -16605   -17568   -18686   -19813 
  -20882   -21854   -22678   -23416   -24095   -24679   -25182   -25560 
  -25790   -25928   -26016   -26064   -26071   -26060   -26021   -25956 
  -25953   -25984   -25979   -25962   -25936   -25914   -25879   -25833 
  -25824   -25766   -25648   -25538   -25402   -25275   -25207   -25158 
  -25150   -25203   -25290   -25404   -25547   -25663   -25636   -25441 
  -25128   -24696   -24176   -23584   -22936   -22336   -21794   -21264 
  -20779   -20291   -19694   -18995   -18206   -17296   -16276   -15181 
  -14045   -12885   -11748   -10723    -9765    -8823    -7973    -7198 
   -6474    -5802    -5120    -4412    -3673    -2946    -2351    -1869 
   -1450    -1172    -1052    -1012    -1038    -1119    -1178    -1234 
   -1380    -1622    -1948    -2302    -2688    -3239    -3812    -4282 
   -4869    -5545    -6237    -7084    -8009    -9025   -10208   -11447 
  -12738   -14081   -15452   -16879   -18293   -19644   -20939   -22126 
  -23139   -24023   -24826   -25530   -26184   -26803   -27380   -27934 
  -28427   -28881   -29288   -29640   -30038   -30434   -30734   -30960 
  -31103   -31060   -30712   -30227   -29795   -29207   -28498   -27940 
  -27340   -26648   -26059   -25353   -24520   -23699   -22761   -21863 
  -21045   -20179   -19474   -18900   -18301   -17800   -17388   -17012 
  -16743   -16587   -16550   -16631   -16769   -16928   -17108   -17306 
  -17563   -17867   -17988   -17990   -18199   -18258   -18068   -18249 
  -18434   -18364   -18587   -18785   -18878   -19180   -19350   -19527 
  -19829   -19936   -20004   -20088   -20040   -20023   -20067   -20031 
  -19972   -19911   -19778   -19628   -19473   -19239   -18951   -18756 
  -18559   -18169   -17816   -17482   -16933   -16457   -16010   -15461 
  -15104   -14758   -14336   -14042   -13718   -13354   -13060   -12827 
  -12665   -12552   -12562   -12702   -12888   -13156   -13544   -14002 
  -14490   -15103   -15823   -16506   -17280   -18184   -19087   -20091 
  -21199   -22336   -23523   -24639   -25696   -26707   -27519   -28188 
  -28814   -29298   -29626   -29902   -30096   -30214   -30426   -30743 
  -31096   -31474   -31861   -32225   -32437   -32551   -32708   -32717 
  -32504   -32319   -32128   -31656   -31055   -30542   -29839   -28978 
  -28246   -27481   -26708   -26049   -25309   -24567   -23912   -23161 
  -22378   -21674   -20922   -20148   -19471   -18781   -18058   -17339 
  -16526   -15714   -14988   -14316   -13803   -13453   -13215   -13066 
  -12919   -12786   -12656   -12472   -12279   -12076   -11840   -11555 
  -11195   -10849   -10571   -10348   -10284   -10397   -10507   -10552 
  -10640   -10742   -10737   -10756   -10980   -11329   -11749   -12305 
  -12937   -13594   -14313   -15071   -15878   -16712   -17472   -18255 
  -19065   -19727   -20346   -20948   -21395   -21812   -22274   -22677 
  -23016   -23345   -23606   -23700   -23682   -23600   -23405   -23152 
  -22860   -22488   -22048   -21555   -21057   -20585   -20148   -19783 
  -19466   -19179   -18957   -18780   -18580   -18378   -18203   -18039 
  -17945   -17941   -17902   -17828   -17751   -17576   -17322   -17038 
  -16700   -16347   -15996   -15665   -15347   -15008   -14692   -14285 
  -13711   -13139   -12564   -11984   -11533   -11103   -10599   -10117 
   -9629    -9061    -8503    -7989    -7412    -6790    -6193    -5591 
   -5048    -4643    -4341    -4131    -3990    -3853    -3715    -3591 
   -3472    -3375    -3318    -3306    -3338    -3407    -3548    -3808 
   -4215    -4804    -5564    -6515    -7687    -8970   -10299   -11688 
  -13041   -14309   -15530   -16672   -17694   -18592   -19367   -19992 
  -20450   -20768   -20961   -21005   -20914   -20764   -20531   -20215 
  -19977   -19832   -19802   -19967   -20200   -20520   -20954   -21329 
  -21791   -22440   -23145   -24018   -25049   -26087   -27156   -28223 
  -29227   -30163   -30982   -31649   -32161   -32505   -32728   -32899 
  -33002   -33092   -33278   -33469   -33616   -33839   -34095   -34283 
  -34445   -34556   -34529   -34403   -34232   -34009   -33707   -33334 
  -32910   -32364   -31698   -31016   -30267   -29425   -28559   -27633 
  -26666   -25696   -24697   -23712   -22755   -21811   -20926   -20124 
  -19402   -18734   -18145   -17666   -17192   -16742   -16356   -15908 
  -15525   -15265   -14961   -14769   -14730   -14630   -14571   -14602 
  -14556   -14529   -14639   -14735   -14851   -15107   -15341   -15556 
  -15856   -16165   -16547   -17044   -17556   -18128   -18787   -19422 
  -20060   -20732   -21279   -21724   -22122   -22359   -22541   -22660 
  -22587   -22489   -22347   -22086   -21826   -21535   -21221   -20967 
  -20755   -20585   -20436   -20274   -20095   -19913   -19749   -19568 
  -19397   -19255   -19101   -19002   -18930   -18817   -18768   -18770 
  -18742   -18791   -18903   -18927   -18952   -19003   -18957   -18938 
  -19023   -19140   -19306   -19489   -19697   -19955   -20226   -20551 
  -20914   -21287   -21683   -22051   -22382   -22634   -22744   -22742 
  -22591   -22271   -21895   -21504   -21074   -20684   -20425   -20233 
  -20054   -19919   -19792   -19634   -19479   -19306   -19027   -18637 
  -18235   -17822   -17362   -16894   -16424   -15988   -15609   -15283 
  -15041   -14833   -14629   -14422   -14148   -13812   -13412   -12949 
  -12494   -12054   -11661   -11367   -11158   -11033   -10978   -11029 
  -11143   -11186   -11249   -11360   -11407   -11476   -11593   -11650 
  -11708   -11797   -11827   -11852   -11988   -12175   -12355   -12531 
  -12633   -12658   -12685   -12713   -12758   -12883   -13086   -13341 
  -13656   -14019   -14403   -14785   -15124   -15453   -15789   -16053 
  -16272   -16513   -16775   -17098   -17493   -17917   -18339   -18746 
  -19139   -19507   -19859   -20191   -20427   -20560   -20720   -20979 
  -21187   -21298   -21466   -21639   -21668   -21562   -21363   -21120 
  -20834   -20475   -20079   -19685   -19352   -19022   -18648   -18337 
  -17975   -17496   -17057   -16563   -15988   -15485   -14987   -14516 
  -14183   -13924   -13796   -13865   -13987   -14089   -14214   -14367 
  -14509   -14541   -14455   -14322   -14111   -13849   -13594   -13306 
  -13046   -12873   -12788   -12852   -13025   -13252   -13542   -13818 
  -14084   -14408   -14738   -15072   -15461   -15847   -16209   -16592 
  -16974   -17335   -17685   -17997   -18290   -18593   -18832   -18961 
  -19059   -19166   -19193   -19163   -19238   -19276   -19150   -19106 
  -19057   -18844   -18691   -18590   -18459   -18359   -18236   -18134 
  -18094   -18109   -18241   -18455   -18752   -19149   -19592   -20091 
  -20614   -21132   -21660   -22162   -22639   -23138   -23704   -24355 
  -25085   -25895   -26764   -27671   -28560   -29364   -30095   -30792 
  -31444   -32043   -32664   -33310   -33896   -34474   -35079   -35600 
  -35985   -36258   -36420   -36413   -36221   -35915   -35488   -34940 
  -34346   -33682   -32906   -32130   -31426   -30660   -29819   -29051 
  -28255   -27401   -26624   -25805   -24930   -24147   -23386   -22630 
  -21959   -21367   -20854   -20426   -20066   -19712   -19325   -18939 
  -18543   -18081   -17585   -17098   -16546   -15937   -15368   -14817 
  -14311   -13903   -13539   -13240   -13009   -12794   -12608   -12442 
  -12287   -12095   -11833   -11555   -11252   -10944   -10691   -10486 
  -10320   -10158   -10007    -9865    -9665    -9397    -9088    -8805 
   -8536    -8201    -7856    -7570    -7302    -6993    -6712    -6538 
   -6378    -6232    -6147    -6066    -6024    -6058    -6140    -6278 
   -6507    -6806    -7125    -7524    -7974    -8348    -8712    -9043 
   -9264    -9488    -9698    -9866   -10049   -10198   -10330   -10465 
  -10537   -10569   -10585   -10558   -10502   -10459   -10402   -10329 
  -10297   -10240   -10178   -10264   -10431   -10624   -10950   -11414 
  -11966   -12609   -13372   -14201   -14986   -15729   -16437   -17047 
  -17553   -18033   -18522   -18928   -19263   -19631   -19958   -20229 
  -20506   -20725   -20852   -20943   -20998   -20999   -21014   -21018 
  -20933   -20828   -20667   -20406   -20147   -19889   -19608   -19312 
  -18996   -18686   -18366   -18049   -17740   -17411   -17076   -16733 
  -16397   -16057   -15721   -15451   -15207   -15005   -14924   -14906 
  -14947   -15094   -15296   -15509   -15737   -15984   -16205   -16374 
  -16500   -16573   -16608   -16585   -16527   -16515   -16482   -16424 
  -16429   -16471   -16550   -16654   -16733   -16842   -17023   -17251 
  -17530   -17884   -18264   -18603   -18947   -19287   -19568   -19837 
  -20171   -20557   -20896   -21229   -21612   -21904   -22097   -22304 
  -22525   -22722   -22863   -22989   -23114   -23190   -23224   -23198 
  -23127   -23015   -22798   -22510   -22159   -21716   -21202   -20603 
  -19980   -19352   -18655   -17949   -17247   -16513   -15763   -14991 
  -14239   -13532   -12851   -12244   -11703   -11196   -10784   -10490 
  -10250   -10060    -9958    -9890    -9867    -9915    -9975   -10103 
  -10307   -10511   -10743   -10996   -11249   -11513   -11779   -12069 
  -12353   -12615   -12920   -13253   -13598   -13987   -14424   -14891 
  -15363   -15830   -16313   -16822   -17324   -17785   -18237   -18684 
  -19073   -19434   -19804   -20117   -20320   -20481   -20691   -20890 
  -21016   -21113   -21232   -21372   -21480   -21570   -21656   -21721 
  -21800   -21850   -21849   -21829   -21782   -21720   -21589   -21390 
  -21248   -21141   -21022   -20951   -20930   -20924   -20961   -21064 
  -21168   -21275   -21473   -21744   -22019   -22262   -22504   -22781 
  -23056   -23315   -23569   -23785   -23918   -23971   -23966   -23843 
  -23630   -23386   -23041   -22668   -22328   -21960   -21665   -21438 
  -21192   -20994   -20828   -20654   -20494   -20341   -20206   -20076 
  -19935   -19787   -19624   -19428   -19180   -18915   -18636   -18283 
  -17866   -17420   -16962   -16467   -15937   -15406   -14825   -14211 
  -13619   -13007   -12396   -11815   -11240   -10690   -10151    -9623 
   -9142    -8695    -8249    -7846    -7551    -7296    -7067    -6933 
   -6849    -6831    -6906    -7050    -7298    -7621    -7995    -8432 
   -8914    -9467   -10067   -10717   -11436   -12175   -12956   -13788 
  -14609   -15416   -16247   -17109   -17940   -18755   -19570   -20303 
  -20997   -21642   -22141   -22599   -23105   -23620   -24098   -24597 
  -25178   -25697   -26179   -26711   -27099   -27375   -27709   -27986 
  -28166   -28457   -28886   -29198   -29423   -29714   -29899   -29963 
  -30053   -30073   -29963   -29851   -29724   -29384   -28894   -28439 
  -27918   -27357   -26881   -26354   -25730   -25064   -24352   -23606 
  -22846   -22127   -21403   -20612   -19874   -19225   -18558   -17831 
  -17182   -16735   -16384   -16030   -15666   -15269   -14881   -14580 
  -14319   -13966   -13630   -13472   -13321   -13033   -12667   -12397 
  -12297   -12071   -11753   -11707   -11705   -11485   -11369   -11420 
  -11321   -11225   -11334   -11218   -10905   -10959   -11031   -10724 
  -10591   -10714   -10613   -10451   -10493   -10626   -10952   -11429 
  -11683   -11988   -12719   -13303   -13601   -14237   -14972   -15521 
  -16383   -17240   -17611   -18073   -18684   -19038   -19437   -19969 
  -20384   -20735   -21054   -21246   -21262   -21260   -21315   -21164 
  -20915   -20873   -20814   -20587   -20525   -20818   -21120   -21097 
  -20977   -20999   -20949   -20781   -20656   -20498   -20348   -20271 
  -19998   -19632   -19531   -19406   -19088   -18967   -18945   -18750 
  -18665   -18735   -18654   -18540   -18588   -18581   -18410   -18228 
  -17998   -17717   -17562   -17431   -17272   -17240   -17015   -16411 
  -15941   -15709   -15340   -15018   -14954   -14762   -14446   -14367 
  -14341   -14258   -14400   -14653   -14796   -14950   -15113   -15206 
  -15342   -15522   -15660   -15823   -15976   -16081   -16265   -16493 
  -16685   -16976   -17349   -17542   -17565   -17605   -17479   -17159 
  -17015   -16982   -16823   -16670   -16602   -16467   -16131   -15661 
  -15207   -14831   -14545   -14364   -14252   -14113   -14054   -14145 
  -14103   -14046   -14227   -14351   -14453   -14687   -14766   -14750 
  -14831   -14926   -15097   -15208   -15085   -15100   -15335   -15413 
  -15509   -15868   -16254   -16617   -16990   -17261   -17542   -17928 
  -18259   -18571   -19121   -19648   -19857   -20166   -20597   -20846 
  -21225   -21679   -21959   -22416   -23020   -23411   -23701   -24136 
  -24669   -25089   -25390   -25708   -26019   -26252   -26406   -26480 
  -26420   -26304   -26298   -26339   -26276   -26089   -25972   -25959 
  -25726   -25437   -25374   -25175   -24883   -24775   -24538   -24176 
