Origin Time       2011/03/11 14:46:00
Lat.              38.103
Long.             142.860
Depth. (km)       24
Mag.              9.0
Station Code      GIF012
Station Lat.      35.6364
Station Long.     136.4879
Station Height(m) 217
Record Time       2011/03/11 14:49:37
Sampling Freq(Hz) 100Hz
Duration Time(s)  116
Dir.              E-W
Scale Factor      3920(gal)/6182761
Max. Acc. (gal)   2.119
Last Correction   2011/03/11 14:49:22
Memo.             
[...]
     211      161      142      143      178      258      354      425 
     471      497      488      428      323      213      155      182 
     302      509      761     1001     1193     1307     1325     1280 
    1235     1230     1287     1410     1582     1759     1876     1894 
    1826     1694     1523     1361     1274     1285     1367     1474 
    1561     1588     1532     1411     1273     1163     1102     1086 
    1097     1124     1142     1116     1034      912      775      650 
     547      449      348      243      124      -14     -168     -291 
    -336     -302     -213      -92       39      154      217      216 
     176      119       69       52       66       83       70        5 
    -102     -218     -312     -375     -423     -464     -487     -498 
    -526     -592     -682     -754     -780     -778     -784     -807 
    -840     -880     -932     -990    -1031    -1049    -1025     -927 
    -757     -569     -418     -328     -293     -301     -336     -370 
    -382     -374     -371     -386     -417     -472     -562     -657 
    -703     -685     -637     -586     -549     -542     -572     -619 
    -651     -678     -723     -761     -739     -645     -510     -383 
    -284     -205     -135      -77      -33      -14      -27      -47 
     -47      -47      -86     -172     -277     -388     -516     -646 
    -730     -754     -749     -720     -652     -555     -474     -451 
    -482     -524     -540     -503     -407     -288     -186     -126 
    -112     -126     -151     -180     -195     -177     -112      -15 
      79      136      141      109       62        7      -31      -29 
      29      163      354      530      646      706      731      734 
     703      641      591      597      656      743      831      885 
     878      822      747      666      565      448      360      348 
     409      502      604      707      774      781      736      646 
     517      375      250      174      137       98       32      -60 
    -161     -228     -238     -189      -89       29      107      102 
       4     -146     -288     -385     -418     -400     -372     -369 
    -413     -514     -639     -751     -832     -874     -876     -860 
    -849     -849     -857     -871     -888     -901     -904     -907 
    -931     -978    -1024    -1057    -1080    -1087    -1075    -1070 
   -1110    -1211    -1368    -1568    -1785    -1994    -2168    -2282 
   -2339    -2362    -2361    -2359    -2392    -2469    -2557    -2622 
   -2650    -2631    -2556    -2437    -2313    -2217    -2157    -2128 
   -2113    -2093    -2054    -1985    -1898    -1814    -1743    -1701 
   -1697    -1722    -1769    -1822    -1860    -1877    -1880    -1877 
   -1871    -1857    -1837    -1815    -1784    -1711    -1582    -1417 
   -1263    -1150    -1079    -1044    -1033    -1022     -993     -943 
    -862     -739     -605     -507     -459     -466     -523     -614 
    -735     -866     -954     -965     -910     -807     -671     -527 
    -399     -293     -197     -115      -69      -58      -62      -53 
     -12       52      109      131      101       14     -103     -218 
    -308     -344     -308     -196      -37       96      128       41 
    -131     -347     -545     -674     -715     -659     -516     -339 
    -200     -137     -146     -197     -263     -324     -341     -276 
    -123       86      307      485      563      513      356      153 
     -37     -182     -259     -259     -188      -72       35       87 
      72       21      -23      -62     -120     -200     -293     -385 
    -460     -508     -546     -598     -666     -758     -883    -1034 
   -1214    -1422    -1621    -1772    -1871    -1921    -1912    -1848 
   -1733    -1579    -1423    -1305    -1242    -1231    -1245    -1247 
   -1207    -1098     -914     -677     -412     -154       46      159 
     187      157       85      -24     -143     -227     -255     -234 
    -190     -156     -157     -201     -288     -413     -558     -707 
    -835     -930    -1011    -1105    -1218    -1325    -1390    -1389 
   -1333    -1254    -1167    -1080    -1015     -989    -1010    -1087 
   -1203    -1328    -1429    -1466    -1440    -1378    -1297    -1194 
   -1055     -897     -764     -688     -680     -717     -770     -819 
    -838     -808     -736     -639     -531     -426     -348     -327 
    -365     -435     -498     -530     -517     -449     -334     -208 
    -112      -62      -55      -90     -156     -231     -286     -301 
    -281     -247     -205     -159     -131     -133     -169     -245 
    -350     -444     -488     -484     -455     -401     -319     -237 
    -175     -133     -117     -150     -236     -324     -371     -386 
    -387     -367     -323     -258     -181     -106      -46       -5 
      14       25       52      102      157      198      241      312 
     396      463      506      527      534      537      548      573 
     617      674      732      794      857      910      940      948 
     950      967     1005     1057     1125     1204     1276     1324 
    1345     1354     1355     1324     1250     1148     1042      944 
     852      759      666      589      538      512      500      491 
     503      553      627      705      792      893      980     1015 
     984      913      851      820      814      836      864      853 
     784      663      514      373      257      186      163      161 
     153      113       16     -123     -270     -421     -589     -766 
    -922    -1023    -1048    -1003     -900     -759     -603     -453 
    -331     -265     -298     -458     -702     -953    -1155    -1297 
   -1381    -1400    -1348    -1250    -1161    -1124    -1145    -1197 
   -1255    -1304    -1331    -1323    -1279    -1211    -1136    -1050 
    -951     -855     -770     -692     -623     -573     -558     -579 
    -596     -589     -565     -526     -472     -413     -354     -315 
    -318     -362     -433     -519     -588     -605     -580     -532 
    -465     -391     -345     -331     -322     -299     -266     -247 
    -252     -270     -297     -331     -340     -296     -194      -35 
     154      331      457      507      482      408      300      168 
      42      -69     -176     -264     -316     -351     -400     -464 
    -516     -559     -620     -693     -739     -731     -684     -627 
    -579     -556     -550     -536     -517     -529     -597     -701 
    -810     -893     -944     -966     -935     -833     -677     -495 
    -310     -160      -81      -57      -32       25      115      229 
     351      466      555      606      610      557      454      328 
     213      141      115      120      143      172      190      181 
     145      103       72       56       62       90      125      156 
     176      169      135       95       57       14      -38      -95 
    -164     -258     -380     -509     -620     -693     -716     -706 
    -699     -728     -799     -886     -976    -1075    -1175    -1249 
   -1286    -1289    -1267    -1226    -1172    -1108    -1039     -978 
    -919     -857     -795     -742     -708     -677     -628     -577 
    -550     -558     -594     -623     -623     -599     -564     -524 
    -497     -501     -548     -633     -736     -840     -927     -956 
    -915     -830     -724     -628     -568     -544     -537     -538 
    -547     -567     -610     -673     -734     -784     -826     -856 
    -874     -867     -833     -814     -834     -881     -963    -1073 
   -1164    -1199    -1172    -1121    -1096    -1060     -951     -772 
    -554     -334     -157      -32       36       47       36       32 
      51      137      297      466      583      610      535      427 
     367      373      434      530      667      860     1029     1093 
    1070     1005      935      889      845      778      709      664 
     643      635      610      569      545      561      605      622 
     601      609      654      686      699      699      677      629 
     541      406      247       94       -6      -28       17      118 
     244      344      412      464      485      492      543      655 
     795      912      962      956      921      860      777      694 
     643      640      676      705      698      667      599      490 
     374      252      114        7      -51      -87     -134     -246 
    -428     -623     -808     -974    -1094    -1146    -1104     -981 
    -801     -589     -400     -268     -205     -234     -340     -449 
    -520     -557     -543     -474     -342     -184     -102     -121 
    -183     -283     -425     -587     -748     -834     -778     -607 
    -387     -183      -45       22       29      -30     -157     -321 
    -454     -509     -458     -275        2      258      395      411 
     337      170      -79     -337     -517     -588     -566     -477 
    -380     -315     -271     -235     -208     -216     -296     -426 
    -526     -556     -522     -431     -313     -199      -99      -40 
     -17       -9      -42     -103     -115      -47       91      290 
     537      814     1079     1282     1408     1454     1420     1328 
    1232     1180     1170     1195     1248     1300     1299     1214 
    1083      952      844      782      777      838      923      945 
     869      714      508      296      145      101      155      255 
     330      330      254      116      -67     -259     -423     -555 
    -636     -623     -527     -402     -279     -168      -75      -12 
      11       11        8       -2      -20      -35      -34        0 
      81      195      315      436      548      630      682      722 
     752      776      807      874      994     1132     1254     1362 
    1435     1440     1377     1237     1022      778      547      364 
     257      216      227      261      272      247      193      134 
     111      147      232      354      491      586      601      536 
     385      176      -28     -193     -303     -357     -371     -366 
    -362     -363     -378     -428     -493     -524     -531     -578 
    -692     -852    -1038    -1237    -1398    -1491    -1524    -1488 
   -1400    -1304    -1224    -1206    -1266    -1367    -1444    -1433 
   -1301    -1051     -746     -457     -221      -74       -7       19 
      31       73      195      393      608      768      824      770 
     640      464      267       66     -131     -312     -470     -605 
    -697     -722     -663     -547     -439     -381     -369     -382 
    -407     -434     -417     -306     -109      116      318      471 
     557      547      437      269       71     -140     -337     -494 
    -567     -551     -503     -457     -438     -447     -437     -412 
    -417     -456     -502     -528     -541     -546     -511     -419 
    -286     -128       55      244      397      489      529      534 
     504      428      355      343      372      430      537      650 
     708      683      593      471      337      194       58      -38 
    -106     -177     -260     -344     -428     -526     -619     -681 
    -722     -756     -804     -879     -939     -953     -929     -862 
    -772     -679     -581     -514     -498     -519     -573     -612 
    -592     -529     -428     -297     -175      -78      -13       10 
      19       50      114      211      315      370      364      297 
     148      -60     -276     -477     -633     -703     -685     -610 
    -528     -503     -539     -618     -742     -889    -1024    -1117 
   -1124    -1026     -850     -624     -388     -182      -53      -68 
    -221     -431     -623     -745     -779     -739     -627     -455 
    -286     -173     -139     -205     -351     -493     -554     -510 
    -388     -214        6      231      402      479      452      358 
     242      118       -5      -96     -147     -180     -199     -217 
    -260     -348     -478     -610     -703     -761     -769     -691 
    -537     -342     -161      -70      -97     -229     -415     -579 
    -689     -753     -765     -711     -610     -525     -499     -533 
    -615     -704     -756     -780     -824     -919    -1072    -1287 
   -1526    -1766    -2000    -2170    -2233    -2229    -2203    -2156 
   -2090    -1994    -1838    -1608    -1299     -959     -676     -472 
    -343     -303     -336     -392     -435     -453     -469     -519 
    -609     -716     -847    -1005    -1132    -1169    -1132    -1072 
   -1008     -933     -862     -823     -809     -808     -811     -793 
    -728     -615     -496     -425     -426     -514     -691     -929 
   -1172    -1357    -1463    -1504    -1478    -1378    -1269    -1256 
   -1378    -1614    -1910    -2185    -2370    -2414    -2331    -2197 
   -2050    -1898    -1769    -1691    -1670    -1695    -1699    -1634 
   -1529    -1420    -1335    -1304    -1333    -1393    -1442    -1441 
   -1379    -1270    -1125     -954     -803     -708     -646     -601 
    -568     -514     -451     -426     -471     -606     -809    -1035 
   -1264    -1460    -1588    -1665    -1743    -1857    -2012    -2196 
   -2381    -2536    -2625    -2623    -2534    -2381    -2186    -1990 
   -1851    -1804    -1855    -1968    -2101    -2237    -2358    -2436 
   -2457    -2427    -2378    -2343    -2322    -2318    -2338    -2381 
   -2445    -2547    -2698    -2865    -3001    -3105    -3179    -3186 
   -3104    -2937    -2714    -2492    -2304    -2165    -2105    -2108 
   -2132    -2165    -2188    -2168    -2076    -1893    -1653    -1420 
   -1244    -1158    -1158    -1244    -1417    -1640    -1872    -2073 
   -2211    -2286    -2284    -2209    -2116    -2018    -1899    -1771 
   -1645    -1506    -1332    -1101     -826     -522     -185      143 
     387      522      541      423      202      -54     -293     -476 
    -595     -665     -679     -643     -622     -660     -743     -847 
    -946    -1008    -1024     -997     -937     -868     -797     -728 
    -681     -656     -631     -610     -603     -597     -598     -618 
    -649     -675     -667     -617     -531     -413     -296     -224 
    -196     -225     -330     -474     -621     -757     -826     -780 
    -649     -500     -388     -327     -310     -364     -502     -664 
    -790     -849     -831     -755     -657     -591     -591     -666 
    -784     -858     -854     -812     -722     -563     -388     -270 
    -243     -281     -311     -297     -258     -201     -137      -97 
    -137     -292     -528     -795    -1054    -1264    -1393    -1425 
   -1387    -1346    -1320    -1286    -1260    -1247    -1210    -1128 
   -1002     -854     -716     -611     -566     -597     -676     -745 
    -769     -743     -665     -556     -446     -347     -261     -198 
    -133      -25      137      336      530      688      801      838 
     759      586      361      104     -135     -303     -402     -426 
    -375     -304     -237     -156      -68        6       23      -37 
    -161     -320     -493     -682     -859    -1009    -1167    -1325 
   -1448    -1539    -1591    -1587    -1495    -1287    -1000     -700 
    -438     -258     -179     -162     -175     -224     -280     -334 
    -419     -506     -558     -596     -650     -749     -868     -927 
    -940     -997    -1127    -1280    -1399    -1464    -1476    -1421 
   -1321    -1220    -1160    -1182    -1303    -1504    -1766    -2029 
   -2196    -2208    -2069    -1836    -1602    -1428    -1330    -1316 
   -1366    -1438    -1485    -1449    -1319    -1137     -943     -787 
    -685     -617     -579     -546     -506     -466     -392     -273 
    -147      -21      115      232      310      343      325      285 
     250      212      200      223      253      311      386      436 
     464      479      474      459      448      465      503      538 
     613      764      965     1197     1439     1654     1808     1885 
    1878     1773     1609     1456     1338     1265     1262     1354 
    1540     1756     1921     2012     2021     1929     1779     1639 
    1546     1528     1584     1654     1698     1691     1568     1301 
     929      505      110     -202     -431     -589     -695     -767 
    -791     -749     -659     -573     -517     -488     -486     -502 
    -545     -604     -631     -612     -519     -360     -200      -76 
     -19      -35      -91     -180     -288     -371     -372     -246 
      18      381      749     1026     1158     1107      878      551 
     213      -63     -231     -294     -277     -243     -266     -352 
    -482     -653     -822     -996    -1179    -1316    -1391    -1411 
   -1374    -1298    -1196    -1075     -963     -890     -874     -931 
   -1055    -1213    -1374    -1518    -1620    -1652    -1608    -1505 
   -1372    -1243    -1127    -1038     -988     -974     -979     -963 
    -904     -796     -623     -382     -101      192      464      689 
     868     1019     1169     1322     1432     1497     1554     1576 
    1532     1422     1265     1125     1018      905      802      744 
     717      694      662      626      576      533      549      619 
     711      777      761      651      460      212      -32     -229 
    -358     -361     -211       18      251      436      534      526 
     427      305      236      274      435      660      880     1059 
    1173     1208     1185     1150     1147     1174     1205     1247 
    1325     1405     1431     1407     1353     1269     1181     1089 
     990      914      862      840      873      900      868      797 
     717      628      517      426      408      456      546      634 
     658      572      385      164      -58     -325     -662     -989 
   -1179    -1200    -1152    -1149    -1209    -1266    -1275    -1267 
   -1271    -1318    -1456    -1598    -1570    -1376    -1210    -1247 
   -1426    -1510    -1446    -1459    -1697    -1981    -2052    -1913 
   -1770    -1723    -1699    -1616    -1481    -1396    -1477    -1691 
   -1882    -1954    -1954    -1976    -2021    -2003    -1860    -1625 
   -1398    -1272    -1313    -1512    -1723    -1805    -1769    -1728 
   -1757    -1894    -2118    -2245    -2104    -1810    -1652    -1726 
   -1829    -1778    -1623    -1431    -1124     -758     -674     -862 
    -818     -523     -470     -726     -938     -822     -462     -272 
    -357     -406     -291      -86       97       72     -118     -151 
     102      473      742      759      543      292      173      177 
     202       88     -200     -301       54      510      563      244 
      84      281      353       17     -331     -272      114      435 
     563      689      783      773      890     1113     1098      801 
     549      605      859      994      946      995     1238     1300 
     970      554      312      210      184      143      103      221 
     463      750      986      863      400      -29     -260     -202 
      95      276      258      200      120      125      244      210 
     -53     -404     -740     -858     -731     -695     -854    -1023 
   -1162    -1187    -1053    -1005    -1093    -1106    -1028    -1016 
