Origin Time       2011/03/11 14:46:00
Lat.              38.103
Long.             142.860
Depth. (km)       24
Mag.              9.0
Station Code      GIF009
Station Lat.      35.9250
Station Long.     136.8318
Station Height(m) 436
Record Time       2011/03/11 14:49:30
Sampling Freq(Hz) 100Hz
Duration Time(s)  124
Dir.              E-W
Scale Factor      3920(gal)/6182761
Max. Acc. (gal)   3.164
Last Correction   2011/03/11 14:49:15
Memo.             
[...]
  -38298   -38280   -38293   -38312   -38308   -38307   -38350   -38397 
  -38391   -38356   -38358   -38415   -38496   -38564   -38598   -38619 
  -38652   -38681   -38667   -38600   -38504   -38403   -38305   -38223 
  -38170   -38153   -38171   -38219   -38279   -38347   -38454   -38612 
  -38795   -38962   -39073   -39169   -39303   -39449   -39573   -39651 
  -39667   -39653   -39618   -39537   -39451   -39428   -39447   -39460 
  -39460   -39433   -39390   -39376   -39399   -39443   -39508   -39566 
  -39578   -39577   -39602   -39623   -39633   -39661   -39685   -39684 
  -39693   -39737   -39798   -39862   -39921   -39956   -39980   -40011 
  -40028   -40024   -40044   -40106   -40183   -40233   -40233   -40195 
  -40160   -40154   -40162   -40149   -40113   -40087   -40044   -39939 
  -39814   -39713   -39642   -39621   -39657   -39731   -39831   -39940 
  -40035   -40109   -40186   -40284   -40389   -40481   -40544   -40556 
  -40519   -40473   -40444   -40405   -40333   -40255   -40178   -40091 
  -40014   -39969   -39946   -39934   -39932   -39959   -40029   -40114 
  -40187   -40258   -40340   -40404   -40443   -40470   -40469   -40429 
  -40357   -40281   -40246   -40254   -40263   -40266   -40296   -40352 
  -40412   -40479   -40564   -40674   -40809   -40947   -41055   -41127 
  -41172   -41204   -41240   -41266   -41245   -41186   -41110   -41026 
  -40958   -40909   -40876   -40875   -40914   -40982   -41057   -41114 
  -41160   -41236   -41372   -41503   -41572   -41620   -41669   -41681 
  -41662   -41637   -41611   -41593   -41574   -41540   -41515   -41507 
  -41489   -41463   -41438   -41393   -41312   -41186   -41016   -40821 
  -40630   -40473   -40337   -40198   -40063   -39939   -39837   -39767 
  -39720   -39684   -39647   -39593   -39545   -39522   -39522   -39548 
  -39583   -39603   -39601   -39574   -39532   -39472   -39380   -39282 
  -39204   -39134   -39062   -38990   -38924   -38865   -38823   -38787 
  -38728   -38645   -38541   -38419   -38322   -38279   -38277   -38284 
  -38282   -38281   -38288   -38283   -38259   -38233   -38213   -38198 
  -38200   -38245   -38345   -38464   -38566   -38647   -38704   -38736 
  -38763   -38811   -38878   -38944   -39009   -39053   -39029   -38928 
  -38772   -38591   -38437   -38322   -38212   -38139   -38146   -38176 
  -38201   -38240   -38280   -38334   -38424   -38521   -38585   -38620 
  -38673   -38761   -38844   -38901   -38946   -38973   -38986   -39003 
  -39022   -39038   -39041   -39013   -38942   -38859   -38810   -38792 
  -38779   -38759   -38729   -38685   -38607   -38496   -38381   -38283 
  -38232   -38211   -38195   -38215   -38252   -38253   -38254   -38277 
  -38297   -38333   -38402   -38481   -38552   -38591   -38567   -38497 
  -38418   -38340   -38257   -38176   -38126   -38123   -38166   -38235 
  -38295   -38332   -38364   -38402   -38447   -38489   -38507   -38498 
  -38476   -38437   -38395   -38384   -38381   -38342   -38291   -38253 
  -38205   -38126   -38012   -37873   -37739   -37657   -37632   -37633 
  -37650   -37667   -37647   -37613   -37616   -37643   -37669   -37712 
  -37758   -37793   -37863   -37983   -38125   -38281   -38423   -38511 
  -38582   -38677   -38782   -38902   -39047   -39185   -39301   -39421 
  -39539   -39615   -39694   -39831   -39944   -39968   -39941   -39850 
  -39682   -39515   -39399   -39309   -39253   -39261   -39274   -39246 
  -39229   -39239   -39245   -39249   -39263   -39298   -39352   -39416 
  -39524   -39661   -39773   -39916   -40111   -40259   -40353   -40444 
  -40519   -40565   -40593   -40603   -40580   -40540   -40541   -40589 
  -40635   -40671   -40703   -40711   -40694   -40688   -40700   -40702 
  -40674   -40638   -40627   -40641   -40663   -40671   -40650   -40614 
  -40598   -40647   -40735   -40799   -40860   -40925   -40955   -40977 
  -41017   -41047   -41069   -41087   -41081   -41041   -40989   -40920 
  -40796   -40613   -40421   -40243   -40068   -39886   -39697   -39506 
  -39335   -39200   -39116   -39061   -38992   -38929   -38904   -38893 
  -38894   -38922   -38956   -39000   -39067   -39128   -39172   -39220 
  -39259   -39267   -39247   -39216   -39200   -39187   -39148   -39094 
  -39049   -39011   -38970   -38947   -38964   -39005   -39061   -39136 
  -39203   -39249   -39288   -39321   -39347   -39383   -39412   -39418 
  -39421   -39436   -39452   -39468   -39492   -39510   -39499   -39475 
  -39477   -39489   -39478   -39444   -39384   -39313   -39271   -39263 
  -39259   -39269   -39306   -39353   -39405   -39448   -39468   -39474 
  -39473   -39469   -39466   -39460   -39450   -39427   -39372   -39307 
  -39272   -39271   -39283   -39295   -39293   -39281   -39259   -39228 
  -39179   -39103   -39041   -39022   -39006   -38974   -38957   -38941 
  -38903   -38867   -38827   -38773   -38739   -38738   -38739   -38720 
  -38700   -38675   -38622   -38584   -38590   -38617   -38666   -38726 
  -38759   -38752   -38726   -38714   -38690   -38608   -38506   -38424 
  -38344   -38281   -38251   -38218   -38180   -38173   -38200   -38232 
  -38250   -38260   -38291   -38357   -38427   -38492   -38585   -38705 
  -38821   -38939   -39064   -39185   -39304   -39417   -39513   -39611 
  -39740   -39897   -40047   -40184   -40306   -40391   -40450   -40498 
  -40512   -40494   -40490   -40510   -40543   -40583   -40623   -40680 
  -40759   -40833   -40871   -40853   -40783   -40685   -40571   -40478 
  -40431   -40400   -40384   -40399   -40422   -40442   -40467   -40483 
  -40466   -40410   -40325   -40208   -40071   -39952   -39841   -39714 
  -39606   -39540   -39495   -39463   -39449   -39447   -39454   -39474 
  -39506   -39546   -39596   -39654   -39704   -39741   -39757   -39723 
  -39647   -39573   -39520   -39473   -39434   -39416   -39403   -39381 
  -39367   -39369   -39386   -39418   -39447   -39445   -39410   -39381 
  -39383   -39400   -39424   -39462   -39520   -39605   -39715   -39835 
  -39954   -40050   -40111   -40157   -40180   -40157   -40140   -40180 
  -40244   -40313   -40385   -40436   -40445   -40414   -40355   -40284 
  -40203   -40121   -40060   -40018   -39982   -39927   -39855   -39789 
  -39733   -39682   -39626   -39537   -39407   -39245   -39062   -38866 
  -38662   -38463   -38298   -38198   -38180   -38234   -38307   -38360 
  -38373   -38328   -38248   -38177   -38132   -38107   -38097   -38108 
  -38136   -38183   -38216   -38190   -38128   -38051   -37956   -37869 
  -37800   -37746   -37698   -37650   -37618   -37614   -37644   -37700 
  -37766   -37858   -37992   -38157   -38330   -38491   -38617   -38690 
  -38722   -38721   -38684   -38629   -38588   -38570   -38558   -38546 
  -38529   -38491   -38437   -38399   -38402   -38435   -38469   -38485 
  -38476   -38449   -38414   -38357   -38290   -38226   -38155   -38090 
  -38047   -38041   -38072   -38101   -38137   -38200   -38248   -38265 
  -38282   -38313   -38342   -38364   -38395   -38439   -38480   -38528 
  -38594   -38671   -38755   -38841   -38898   -38921   -38933   -38950 
  -38982   -39013   -39007   -38968   -38933   -38926   -38924   -38909 
  -38909   -38925   -38910   -38855   -38788   -38729   -38699   -38704 
  -38719   -38755   -38813   -38864   -38937   -39050   -39171   -39287 
  -39392   -39467   -39514   -39560   -39630   -39727   -39831   -39921 
  -39975   -39996   -40032   -40110   -40217   -40315   -40372   -40394 
  -40409   -40430   -40485   -40586   -40694   -40770   -40801   -40780 
  -40689   -40538   -40370   -40199   -40023   -39870   -39772   -39736 
  -39738   -39761   -39806   -39873   -39944   -40000   -40048   -40098 
  -40140   -40174   -40208   -40244   -40281   -40324   -40379   -40437 
  -40462   -40440   -40384   -40297   -40211   -40167   -40153   -40154 
  -40165   -40170   -40182   -40220   -40257   -40272   -40260   -40215 
  -40159   -40107   -40047   -39958   -39823   -39677   -39549   -39430 
  -39348   -39317   -39296   -39264   -39240   -39235   -39239   -39254 
  -39297   -39374   -39475   -39583   -39686   -39783   -39870   -39924 
  -39946   -39959   -39960   -39936   -39893   -39822   -39722   -39645 
  -39620   -39631   -39672   -39717   -39751   -39789   -39818   -39825 
  -39807   -39765   -39714   -39657   -39611   -39595   -39603   -39609 
  -39583   -39533   -39476   -39396   -39301   -39221   -39144   -39075 
  -39045   -39030   -38999   -38970   -38942   -38915   -38904   -38910 
  -38961   -39076   -39211   -39348   -39510   -39690   -39873   -40061 
  -40230   -40333   -40402   -40485   -40573   -40650   -40689   -40692 
  -40705   -40724   -40735   -40753   -40762   -40735   -40685   -40622 
  -40549   -40493   -40448   -40393   -40349   -40325   -40300   -40287 
  -40302   -40330   -40341   -40329   -40321   -40313   -40294   -40303 
  -40323   -40298   -40249   -40189   -40077   -39917   -39748   -39604 
  -39501   -39404   -39330   -39320   -39350   -39382   -39397   -39391 
  -39347   -39268   -39208   -39158   -39085   -39012   -38942   -38902 
  -38936   -38996   -39055   -39133   -39190   -39201   -39202   -39223 
  -39255   -39266   -39263   -39247   -39162   -39012   -38849   -38684 
  -38521   -38363   -38232   -38151   -38112   -38104   -38117   -38137 
  -38174   -38197   -38178   -38150   -38120   -38063   -38002   -37964 
  -37936   -37897   -37845   -37782   -37709   -37657   -37627   -37595 
  -37570   -37565   -37569   -37596   -37651   -37721   -37815   -37908 
  -37962   -37999   -38017   -37993   -37934   -37839   -37721   -37586 
  -37414   -37213   -37008   -36807   -36613   -36425   -36264   -36150 
  -36091   -36097   -36169   -36270   -36375   -36498   -36645   -36814 
  -36992   -37155   -37298   -37414   -37488   -37537   -37574   -37602 
  -37622   -37623   -37616   -37626   -37654   -37690   -37724   -37750 
  -37760   -37750   -37742   -37750   -37766   -37800   -37835   -37827 
  -37772   -37701   -37643   -37606   -37594   -37621   -37688   -37754 
  -37811   -37893   -37984   -38064   -38138   -38191   -38226   -38262 
  -38297   -38350   -38431   -38513   -38578   -38639   -38689   -38700 
  -38680   -38640   -38582   -38525   -38486   -38475   -38488   -38515 
  -38567   -38653   -38752   -38857   -38970   -39088   -39201   -39279 
  -39304   -39319   -39362   -39439   -39559   -39708   -39860   -40005 
  -40109   -40145   -40135   -40111   -40087   -40069   -40057   -40037 
  -40009   -39986   -39956   -39913   -39868   -39817   -39752   -39689 
  -39650   -39633   -39622   -39625   -39646   -39673   -39704   -39749 
  -39809   -39857   -39890   -39929   -39950   -39950   -39949   -39930 
  -39884   -39839   -39814   -39809   -39798   -39777   -39779   -39809 
  -39844   -39877   -39922   -39993   -40060   -40093   -40121   -40157 
  -40199   -40267   -40332   -40359   -40368   -40361   -40329   -40289 
  -40259   -40280   -40369   -40499   -40634   -40737   -40790   -40806 
  -40794   -40767   -40748   -40744   -40741   -40751   -40791   -40833 
  -40828   -40804   -40801   -40778   -40711   -40630   -40549   -40470 
  -40386   -40294   -40212   -40134   -40058   -39987   -39892   -39778 
  -39675   -39576   -39490   -39459   -39477   -39512   -39559   -39607 
  -39644   -39670   -39686   -39691   -39686   -39665   -39639   -39640 
  -39648   -39632   -39610   -39573   -39500   -39397   -39289   -39194 
  -39093   -39012   -38999   -39041   -39109   -39199   -39300   -39408 
  -39526   -39636   -39726   -39813   -39896   -39950   -39979   -40015 
  -40064   -40095   -40088   -40046   -39989   -39941   -39911   -39898 
  -39892   -39865   -39815   -39773   -39752   -39742   -39741   -39758 
  -39792   -39838   -39896   -39969   -40072   -40201   -40312   -40386 
  -40446   -40508   -40556   -40585   -40613   -40632   -40616   -40561 
  -40462   -40315   -40156   -40036   -39962   -39899   -39829   -39765 
  -39698   -39608   -39503   -39399   -39309   -39248   -39194   -39125 
  -39047   -38970   -38907   -38849   -38776   -38692   -38617   -38557 
  -38496   -38428   -38364   -38328   -38326   -38319   -38270   -38194 
  -38119   -38057   -38010   -37977   -37940   -37881   -37814   -37756 
  -37718   -37712   -37741   -37786   -37811   -37823   -37844   -37859 
  -37872   -37912   -37978   -38055   -38139   -38225   -38302   -38368 
  -38414   -38441   -38461   -38444   -38389   -38342   -38328   -38347 
  -38378   -38395   -38403   -38414   -38424   -38429   -38428   -38426 
  -38419   -38391   -38328   -38217   -38075   -37943   -37840   -37768 
  -37716   -37648   -37567   -37517   -37497   -37503   -37547   -37626 
  -37738   -37876   -38038   -38229   -38425   -38602   -38782   -38953 
  -39071   -39144   -39201   -39234   -39221   -39178   -39150   -39139 
  -39120   -39101   -39083   -39069   -39095   -39170   -39272   -39364 
  -39411   -39412   -39389   -39365   -39344   -39326   -39337   -39373 
  -39407   -39447   -39514   -39596   -39679   -39775   -39873   -39960 
  -40053   -40160   -40257   -40333   -40382   -40381   -40336   -40305 
  -40312   -40348   -40398   -40425   -40422   -40411   -40396   -40378 
  -40362   -40340   -40288   -40221   -40186   -40190   -40209   -40220 
  -40221   -40242   -40290   -40350   -40443   -40572   -40694   -40796 
  -40908   -41045   -41176   -41296   -41434   -41582   -41699   -41781 
  -41854   -41918   -41964   -41987   -41982   -41978   -41996   -42022 
  -42054   -42115   -42215   -42342   -42478   -42614   -42756   -42896 
  -43020   -43126   -43219   -43305   -43391   -43473   -43545   -43608 
  -43675   -43749   -43824   -43891   -43930   -43918   -43865   -43793 
  -43703   -43575   -43415   -43243   -43065   -42877   -42691   -42517 
  -42348   -42172   -41976   -41761   -41544   -41328   -41112   -40897 
  -40676   -40464   -40282   -40135   -40031   -39959   -39903   -39863 
  -39825   -39779   -39725   -39665   -39609   -39559   -39487   -39392 
  -39312   -39256   -39218   -39203   -39196   -39186   -39206   -39257 
  -39299   -39325   -39361   -39405   -39444   -39493   -39547   -39584 
  -39584   -39538   -39443   -39306   -39157   -39030   -38935   -38849 
  -38763   -38705   -38665   -38630   -38605   -38561   -38481   -38392 
  -38295   -38183   -38070   -37977   -37927   -37941   -38001   -38073 
  -38137   -38197   -38252   -38287   -38306   -38330   -38355   -38371 
  -38373   -38358   -38349   -38350   -38330   -38290   -38262   -38264 
  -38291   -38334   -38379   -38427   -38491   -38564   -38635   -38696 
  -38738   -38767   -38791   -38826   -38886   -38953   -39010   -39054 
  -39074   -39072   -39057   -39035   -39000   -38949   -38913   -38896 
  -38867   -38819   -38768   -38695   -38585   -38453   -38293   -38102 
  -37913   -37752   -37631   -37569   -37556   -37549   -37518   -37474 
  -37437   -37411   -37408   -37442   -37497   -37575   -37680   -37789 
  -37894   -38005   -38129   -38256   -38357   -38434   -38534   -38649 
  -38743   -38818   -38887   -38953   -39042   -39151   -39235   -39295 
  -39359   -39415   -39447   -39453   -39418   -39341   -39255   -39172 
  -39073   -38963   -38867   -38800   -38766   -38757   -38781   -38843 
  -38921   -39015   -39116   -39212   -39325   -39454   -39570   -39667 
  -39748   -39822   -39907   -39985   -40045   -40112   -40189   -40276 
  -40367   -40427   -40445   -40441   -40418   -40379   -40347   -40351 
  -40390   -40433   -40472   -40503   -40524   -40557   -40580   -40568 
  -40575   -40632   -40702   -40763   -40831   -40900   -40968   -41059 
  -41160   -41228   -41258   -41277   -41294   -41300   -41292   -41269 
  -41217   -41136   -41033   -40892   -40738   -40627   -40556   -40515 
  -40524   -40554   -40580   -40609   -40644   -40672   -40688   -40717 
  -40771   -40837   -40923   -41037   -41166   -41280   -41359   -41420 
  -41466   -41491   -41511   -41513   -41464   -41385   -41305   -41236 
  -41175   -41109   -41033   -40979   -40950   -40909   -40842   -40757 
  -40632   -40464   -40301   -40149   -39985   -39828   -39695   -39591 
  -39509   -39436   -39377   -39328   -39268   -39204   -39134   -39058 
  -39003   -38969   -38933   -38885   -38821   -38745   -38674   -38613 
  -38545   -38457   -38373   -38333   -38334   -38355   -38402   -38473 
  -38559   -38644   -38722   -38800   -38885   -38992   -39108   -39185 
  -39235   -39298   -39378   -39458   -39523   -39568   -39580   -39539 
  -39470   -39416   -39400   -39411   -39435   -39477   -39519   -39534 
  -39536   -39517   -39415   -39227   -39021   -38827   -38636   -38465 
  -38344   -38271   -38217   -38161   -38106   -38063   -38034   -38027 
  -38068   -38161   -38266   -38359   -38416   -38418   -38377   -38326 
  -38303   -38306   -38310   -38336   -38421   -38546   -38673   -38780 
  -38860   -38919   -38971   -39020   -39053   -39057   -39038   -39010 
  -38975   -38933   -38904   -38906   -38932   -38977   -39028   -39054 
  -39046   -38999   -38905   -38787   -38672   -38582   -38536   -38504 
  -38458   -38400   -38327   -38255   -38186   -38101   -38029   -37997 
  -37986   -37992   -38034   -38122   -38229   -38340   -38454   -38539 
  -38572   -38605   -38683   -38772   -38844   -38913   -38981   -39032 
  -39057   -39064   -39057   -39043   -39047   -39060   -39036   -38983 
  -38925   -38863   -38813   -38785   -38772   -38757   -38732   -38702 
  -38679   -38669   -38679   -38699   -38710   -38705   -38688   -38669 
  -38649   -38648   -38702   -38818   -38965   -39109   -39232   -39332 
  -39393   -39408   -39406   -39405   -39393   -39363   -39309   -39257 
  -39231   -39228   -39258   -39327   -39419   -39523   -39619   -39680 
  -39712   -39732   -39743   -39737   -39713   -39687   -39670   -39646 
  -39598   -39538   -39486   -39425   -39333   -39225   -39125   -39039 
  -38983   -38959   -38928   -38870   -38806   -38749   -38694   -38651 
  -38627   -38609   -38584   -38543   -38483   -38432   -38407   -38402 
  -38404   -38395   -38396   -38418   -38453   -38518   -38605   -38708 
  -38855   -39014   -39148   -39287   -39444   -39582   -39664   -39696 
  -39709   -39722   -39730   -39734   -39746   -39783   -39838   -39880 
  -39894   -39879   -39831   -39755   -39682   -39611   -39518   -39413 
  -39325   -39262   -39205   -39124   -39029   -38953   -38897   -38850 
  -38796   -38718   -38637   -38570   -38490   -38400   -38312   -38212 
  -38120   -38058   -38017   -37998   -37995   -38009   -38057   -38138 
  -38242   -38360   -38466   -38554   -38628   -38673   -38696   -38699 
  -38644   -38543   -38436   -38324   -38231   -38187   -38173   -38181 
  -38218   -38245   -38217   -38142   -38072   -38024   -37971   -37939 
  -37960   -37990   -38019   -38046   -38030   -37980   -37913   -37847 
  -37839   -37868   -37838   -37739   -37633   -37536   -37445   -37374 
  -37317   -37273   -37283   -37322   -37336   -37335   -37327   -37304 
  -37272   -37224   -37171   -37141   -37148   -37185   -37246   -37343 
  -37459   -37547   -37605   -37641   -37661   -37665   -37660   -37682 
  -37749   -37841   -37926   -38026   -38162   -38267   -38320   -38369 
  -38406   -38432   -38473   -38508   -38534   -38582   -38641   -38676 
  -38680   -38651   -38567   -38460   -38395   -38365   -38343   -38361 
  -38438   -38564   -38744   -38971   -39191   -39371   -39483   -39508 
  -39497   -39512   -39535   -39555   -39629   -39787   -40010   -40243 
  -40456   -40649   -40799   -40906   -41008   -41111   -41195   -41280 
