Origin Time       2011/03/11 14:46:00
Lat.              38.103
Long.             142.860
Depth. (km)       24
Mag.              9.0
Station Code      GIF012
Station Lat.      35.6364
Station Long.     136.4879
Station Height(m) 217
Record Time       2011/03/11 14:49:37
Sampling Freq(Hz) 100Hz
Duration Time(s)  116
Dir.              U-D
Scale Factor      3920(gal)/6182761
Max. Acc. (gal)   2.464
Last Correction   2011/03/11 14:49:22
Memo.             
[...]
  -13146   -13047   -12942   -12860   -12806   -12747   -12689   -12646 
  -12595   -12522   -12428   -12322   -12207   -12089   -11976   -11853 
  -11697   -11512   -11331   -11168   -11028   -10916   -10833   -10793 
  -10799   -10839   -10903   -10962   -10987   -10993   -11016   -11055 
  -11085   -11084   -11064   -11068   -11088   -11082   -11053   -11007 
  -10967   -10967   -10989   -11021   -11062   -11081   -11073   -11070 
  -11095   -11132   -11166   -11210   -11281   -11377   -11467   -11524 
  -11570   -11634   -11725   -11836   -11938   -12001   -12037   -12066 
  -12091   -12100   -12077   -12025   -11967   -11917   -11876   -11836 
  -11771   -11683   -11608   -11559   -11527   -11485   -11415   -11332 
  -11249   -11171   -11099   -11023   -10944   -10876   -10835   -10835 
  -10856   -10871   -10886   -10903   -10927   -10969   -11027   -11059 
  -11052   -11032   -11003   -10964   -10924   -10884   -10851   -10820 
  -10777   -10724   -10685   -10688   -10705   -10698   -10674   -10636 
  -10606   -10622   -10662   -10710   -10771   -10801   -10792   -10789 
  -10784   -10776   -10777   -10754   -10724   -10734   -10778   -10838 
  -10881   -10882   -10867   -10857   -10856   -10864   -10875   -10899 
  -10928   -10940   -10946   -10958   -10973   -10988   -11000   -11020 
  -11053   -11062   -11049   -11054   -11083   -11120   -11148   -11146 
  -11113   -11101   -11158   -11276   -11412   -11509   -11541   -11554 
  -11604   -11675   -11719   -11720   -11689   -11665   -11673   -11670 
  -11626   -11563   -11487   -11399   -11303   -11200   -11097   -10986 
  -10866   -10765   -10693   -10647   -10615   -10589   -10599   -10646 
  -10699   -10758   -10852   -10980   -11121   -11240   -11310   -11361 
  -11423   -11487   -11561   -11633   -11665   -11655   -11640   -11659 
  -11717   -11780   -11824   -11843   -11840   -11832   -11832   -11822 
  -11785   -11745   -11733   -11737   -11728   -11720   -11733   -11765 
  -11807   -11844   -11868   -11886   -11893   -11895   -11927   -11977 
  -12003   -12007   -12002   -12000   -12036   -12098   -12125   -12092 
  -12028   -11983   -11951   -11907   -11859   -11789   -11697   -11627 
  -11593   -11587   -11592   -11588   -11594   -11635   -11708   -11806 
  -11901   -11942   -11913   -11857   -11829   -11834   -11836   -11807 
  -11743   -11671   -11635   -11653   -11684   -11688   -11695   -11749 
  -11849   -11945   -12001   -12041   -12078   -12118   -12185   -12268 
  -12349   -12435   -12513   -12579   -12646   -12692   -12703   -12682 
  -12643   -12615   -12615   -12618   -12598   -12559   -12507   -12449 
  -12381   -12280   -12157   -12057   -11974   -11880   -11773   -11642 
  -11508   -11396   -11300   -11229   -11173   -11102   -11033   -10981 
  -10940   -10927   -10935   -10946   -10961   -10977   -10982   -10988 
  -11005   -11025   -11046   -11060   -11058   -11052   -11060   -11084 
  -11112   -11144   -11166   -11171   -11174   -11178   -11185   -11203 
  -11222   -11265   -11354   -11445   -11535   -11653   -11769   -11868 
  -11966   -12053   -12111   -12157   -12220   -12279   -12300   -12312 
  -12336   -12338   -12319   -12317   -12336   -12364   -12410   -12454 
  -12470   -12470   -12450   -12402   -12343   -12281   -12220   -12160 
  -12096   -12046   -12034   -12058   -12105   -12163   -12218   -12271 
  -12340   -12433   -12522   -12584   -12595   -12553   -12522   -12520 
  -12497   -12438   -12358   -12269   -12188   -12144   -12134   -12103 
  -12041   -11986   -11940   -11914   -11909   -11891   -11862   -11843 
  -11841   -11842   -11818   -11757   -11668   -11566   -11489   -11455 
  -11446   -11472   -11529   -11598   -11677   -11750   -11807   -11865 
  -11942   -12065   -12215   -12336   -12439   -12541   -12649   -12791 
  -12950   -13078   -13159   -13216   -13278   -13340   -13388   -13414 
  -13422   -13452   -13532   -13615   -13673   -13726   -13786   -13849 
  -13911   -13963   -13982   -13966   -13954   -13968   -14007   -14062 
  -14100   -14100   -14085   -14085   -14101   -14114   -14111   -14086 
  -14049   -14010   -13977   -13939   -13868   -13777   -13686   -13589 
  -13484   -13375   -13277   -13208   -13157   -13085   -12976   -12861 
  -12773   -12706   -12649   -12601   -12555   -12504   -12466   -12450 
  -12429   -12379   -12312   -12244   -12186   -12158   -12149   -12116 
  -12060   -12018   -12012   -12032   -12039   -12007   -11956   -11896 
  -11832   -11773   -11716   -11664   -11637   -11621   -11567   -11468 
  -11357   -11260   -11183   -11138   -11130   -11115   -11047   -10963 
  -10914   -10888   -10856   -10801   -10712   -10608   -10524   -10466 
  -10405   -10318   -10223   -10135   -10062   -10007    -9944    -9876 
   -9832    -9777    -9690    -9618    -9582    -9576    -9587    -9596 
   -9597    -9572    -9531    -9536    -9596    -9637    -9619    -9585 
   -9625    -9785    -9973   -10034    -9952    -9900    -9995   -10182 
  -10387   -10509   -10452   -10340   -10365   -10529   -10663   -10610 
  -10430   -10363   -10508   -10676   -10626   -10399   -10224   -10190 
  -10211   -10187   -10089    -9990    -9996   -10073   -10083   -10000 
   -9918    -9884    -9868    -9849    -9835    -9840    -9892   -10011 
  -10136   -10166   -10086    -9965    -9917   -10054   -10280   -10333 
  -10135    -9836    -9662    -9823   -10292   -10715   -10741   -10413 
  -10160   -10298   -10701   -11116   -11468   -11659   -11583   -11495 
  -11740   -12175   -12390   -12235   -11916   -11766   -11881   -12036 
  -11985   -11759   -11604   -11610   -11574   -11368   -11157   -11175 
  -11432   -11720   -11808   -11636   -11390   -11395   -11748   -12201 
  -12443   -12289   -11841   -11615   -12041   -12701   -12725   -12076 
  -11525   -11535   -11907   -12158   -12127   -12077   -12013   -11766 
  -11568   -11619   -11818   -12105   -12377   -12465   -12333   -12070 
  -11888   -11977   -12284   -12487   -12332   -12059   -12024   -12167 
  -12318   -12350   -12142   -11915   -11950   -12118   -12253   -12293 
  -12198   -12116   -12115   -12056   -11958   -11973   -12206   -12593 
  -12880   -12931   -12878   -12882   -13061   -13454   -13863   -14035 
  -13874   -13495   -13271   -13487   -13865   -13889   -13483   -12967 
  -12665   -12725   -13000   -13186   -13155   -12964   -12701   -12454 
  -12275   -12206   -12281   -12419   -12427   -12217   -11957   -11803 
  -11766   -11934   -12240   -12208   -11614   -10857   -10471   -10730 
  -11404   -11807   -11551   -10962   -10520   -10490   -10854   -11170 
  -11004   -10505   -10183   -10349   -10872   -11338   -11398   -11130 
  -10934   -11056   -11446   -11855   -11928   -11584   -11189   -11077 
  -11234   -11538   -11851   -12001   -11992   -11982   -11981   -11839 
  -11626   -11661   -11960   -12123   -11914   -11557   -11424   -11557 
  -11761   -11992   -12144   -12051   -11969   -12153   -12353   -12304 
  -12053   -11821   -11874   -12191   -12400   -12283   -11996   -11780 
  -11887   -12342   -12684   -12564   -12256   -12158   -12243   -12214 
  -11979   -11731   -11642   -11721   -11781   -11580   -11197   -10960 
  -11008   -11174   -11155   -10845   -10498   -10401   -10558   -10704 
  -10548   -10130    -9834    -9968   -10424   -10793   -10731   -10227 
   -9704    -9653   -10066   -10499   -10531   -10127    -9813   -10073 
  -10576   -10701   -10431   -10215   -10363   -10798   -11153   -11077 
  -10669   -10402   -10525   -10888   -11138   -10953   -10501   -10360 
  -10810   -11463   -11632   -11142   -10539   -10407   -10832   -11409 
  -11652   -11495   -11248   -11150   -11186   -11260   -11220   -10932 
  -10668   -10804   -11125   -11251   -11194   -11033   -10814   -10671 
  -10709   -10886   -11010   -11041   -11180   -11405   -11501   -11425 
  -11227   -10999   -10841   -10692   -10466   -10318   -10492   -10835 
  -10846   -10373    -9806    -9514    -9495    -9568    -9664    -9808 
   -9895    -9734    -9419    -9379    -9752   -10087    -9993    -9617 
   -9285    -9105    -9131    -9403    -9649    -9508    -9017    -8604 
   -8677    -9142    -9454    -9205    -8570    -8154    -8367    -9031 
   -9587    -9610    -9167    -8714    -8718    -9219    -9742    -9864 
   -9657    -9452    -9509    -9840   -10210   -10398   -10350   -10170 
   -9990    -9897    -9985   -10168   -10266   -10375   -10561   -10634 
  -10598   -10641   -10805   -11027   -11197   -11241   -11144   -11008 
  -11128   -11568   -11938   -11874   -11450   -11099   -11160   -11577 
  -11963   -11903   -11399   -10843   -10552   -10661   -11093   -11470 
  -11432   -11049   -10763   -10912   -11303   -11437   -11129   -10664 
  -10441   -10589   -10889   -11009   -10831   -10534   -10373   -10369 
  -10321   -10166   -10084   -10201   -10413   -10525   -10451   -10254 
  -10058   -10046   -10245   -10322   -10023    -9624    -9501    -9687 
  -10007   -10195   -10046    -9722    -9531    -9567    -9796   -10119 
  -10307   -10220   -10098   -10251   -10556   -10678   -10556   -10356 
  -10200   -10110   -10074   -10099   -10182   -10255   -10289   -10327 
  -10377   -10414   -10430   -10476   -10631   -10856   -11029   -11079 
  -10949   -10686   -10574   -10803   -11136   -11205   -10986   -10834 
  -11018   -11425   -11835   -12072   -12034   -11890   -11869   -12030 
  -12384   -12793   -12985   -12923   -12834   -12949   -13318   -13768 
  -14039   -14029   -13887   -13830   -13904   -14043   -14221   -14388 
  -14404   -14229   -14053   -14061   -14236   -14403   -14392   -14206 
  -14003   -13906   -13867   -13782   -13682   -13627   -13525   -13310 
  -13096   -13026   -13100   -13168   -13126   -13032   -12932   -12759 
  -12560   -12512   -12658   -12863   -12875   -12612   -12425   -12538 
  -12721   -12786   -12704   -12508   -12319   -12237   -12326   -12562 
  -12736   -12663   -12438   -12282   -12310   -12532   -12799   -12891 
  -12792   -12659   -12587   -12496   -12332   -12253   -12385   -12572 
  -12559   -12344   -12200   -12267   -12368   -12328   -12234   -12260 
  -12377   -12419   -12365   -12323   -12302   -12258   -12204   -12193 
  -12264   -12352   -12325   -12196   -12070   -11967   -11820   -11634 
  -11567   -11647   -11677   -11599   -11499   -11421   -11404   -11461 
  -11498   -11444   -11389   -11420   -11493   -11544   -11539   -11467 
  -11337   -11202   -11167   -11284   -11429   -11415   -11247   -11116 
  -11090   -11062   -10991   -11002   -11131   -11208   -11168   -11164 
  -11301   -11520   -11683   -11685   -11615   -11646   -11760   -11784 
  -11690   -11645   -11697   -11686   -11543   -11377   -11303   -11320 
  -11321   -11312   -11421   -11528   -11359   -11026   -10915   -11102 
  -11325   -11384   -11268   -11064   -10889   -10817   -10835   -10883 
  -10934   -10950   -10862   -10701   -10598   -10569   -10524   -10491 
  -10565   -10659   -10643   -10567   -10490   -10372   -10241   -10169 
  -10122   -10077   -10082   -10099   -10112   -10206   -10320   -10290 
  -10155   -10035    -9951    -9977   -10168   -10401   -10478   -10325 
  -10125   -10122   -10273   -10357   -10268   -10098   -10018   -10050 
  -10086   -10104   -10098   -10018    -9884    -9783    -9784    -9885 
  -10023   -10120   -10120   -10046   -10022   -10124   -10298   -10400 
  -10370   -10343   -10432   -10579   -10721   -10887   -11051   -11080 
  -10972   -10934   -11081   -11316   -11498   -11565   -11552   -11530 
  -11515   -11548   -11707   -11934   -12045   -11969   -11901   -12062 
  -12338   -12466   -12419   -12308   -12214   -12250   -12437   -12609 
  -12650   -12585   -12495   -12503   -12668   -12893   -13035   -13038 
  -12985   -13009   -13153   -13331   -13462   -13546   -13576   -13580 
  -13690   -13970   -14264   -14346   -14234   -14155   -14166   -14183 
  -14258   -14422   -14499   -14435   -14376   -14368   -14364   -14401 
  -14510   -14584   -14517   -14325   -14129   -14052   -14073   -14092 
  -14074   -13984   -13856   -13831   -13927   -14022   -14031   -13937 
  -13781   -13656   -13629   -13651   -13624   -13510   -13343   -13234 
  -13266   -13368   -13439   -13461   -13443   -13378   -13287   -13224 
  -13251   -13397   -13566   -13569   -13402   -13258   -13236   -13342 
  -13539   -13695   -13714   -13639   -13569   -13597   -13730   -13800 
  -13608   -13272   -13145   -13284   -13454   -13562   -13578   -13427 
  -13225   -13188   -13309   -13415   -13404   -13288   -13170   -13221 
  -13433   -13553   -13436   -13214   -13110   -13159   -13189   -13111 
  -13019   -13003   -13039   -13026   -12905   -12733   -12616   -12602 
  -12606   -12568   -12547   -12545   -12557   -12586   -12499   -12288 
  -12192   -12308   -12467   -12484   -12341   -12173   -12124   -12210 
  -12314   -12289   -12115   -11922   -11814   -11773   -11754   -11742 
  -11716   -11672   -11623   -11556   -11492   -11514   -11619   -11705 
  -11697   -11623   -11557   -11527   -11508   -11475   -11467   -11505 
  -11529   -11511   -11484   -11481   -11498   -11465   -11335   -11184 
  -11110   -11168   -11312   -11379   -11276   -11091   -10931   -10793 
  -10663   -10588   -10586   -10581   -10531   -10475   -10395   -10252 
  -10153   -10181   -10239   -10256   -10248   -10186   -10052    -9933 
   -9910    -9942    -9891    -9708    -9486    -9316    -9288    -9381 
   -9397    -9249    -9046    -8887    -8789    -8733    -8717    -8739 
   -8750    -8690    -8506    -8262    -8158    -8254    -8360    -8347 
   -8269    -8161    -8087    -8185    -8387    -8439    -8293    -8117 
   -8056    -8161    -8407    -8636    -8663    -8553    -8560    -8772 
   -9035    -9176    -9195    -9193    -9224    -9337    -9544    -9702 
   -9701    -9623    -9569    -9608    -9734    -9787    -9692    -9604 
   -9635    -9735    -9825    -9864    -9830    -9764    -9757    -9878 
  -10078   -10201   -10170   -10100   -10116   -10232   -10405   -10542 
  -10575   -10549   -10520   -10496   -10518   -10609   -10712   -10757 
  -10749   -10769   -10881   -11075   -11271   -11391   -11421   -11406 
  -11393   -11433   -11563   -11733   -11816   -11780   -11724   -11726 
  -11814   -11976   -12104   -12081   -11984   -11994   -12115   -12204 
  -12193   -12107   -12023   -11994   -11960   -11844   -11736   -11759 
  -11827   -11827   -11819   -11832   -11820   -11803   -11798   -11791 
  -11801   -11830   -11858   -11908   -11982   -12035   -12019   -11948 
  -11911   -11960   -12061   -12209   -12357   -12386   -12294   -12170 
  -12070   -12050   -12119   -12188   -12164   -12055   -11979   -12057 
  -12253   -12374   -12285   -12098   -12030   -12149   -12347   -12452 
  -12335   -12080   -11962   -12139   -12491   -12741   -12667   -12357 
  -12129   -12158   -12390   -12644   -12714   -12572   -12374   -12276 
  -12369   -12561   -12624   -12512   -12412   -12500   -12733   -12902 
  -12890   -12775   -12714   -12783   -12910   -12937   -12810   -12699 
  -12800   -13045   -13186   -13108   -12917   -12802   -12851   -12992 
  -13102   -13095   -13012   -13008   -13141   -13293   -13320   -13210 
  -13108   -13189   -13458   -13707   -13750   -13656   -13619   -13708 
  -13865   -13999   -14010   -13878   -13739   -13763   -13930   -14051 
  -14002   -13880   -13817   -13779   -13690   -13628   -13672   -13734 
  -13680   -13511   -13338   -13284   -13359   -13469   -13534   -13510 
  -13407   -13303   -13297   -13447   -13652   -13646   -13354   -13082 
  -13117   -13343   -13471   -13416   -13299   -13248   -13284   -13350 
  -13401   -13446   -13464   -13412   -13329   -13284   -13281   -13265 
  -13220   -13168   -13074   -12927   -12844   -12893   -12999   -13065 
  -12958   -12663   -12440   -12493   -12705   -12810   -12633   -12305 
  -12123   -12202   -12405   -12491   -12318   -12005   -11805   -11860 
  -12072   -12158   -11984   -11758   -11690   -11712   -11681   -11607 
  -11547   -11479   -11375   -11261   -11164   -11106   -11084   -11044 
  -10971   -10936   -10959   -10923   -10797   -10710   -10735   -10822 
  -10877   -10809   -10631   -10506   -10576   -10756   -10861   -10873 
  -10895   -10958   -11021   -11043   -11065   -11176   -11303   -11277 
  -11157   -11172   -11364   -11532   -11524   -11413   -11378   -11473 
  -11524   -11386   -11210   -11209   -11336   -11385   -11291   -11167 
  -11094   -11022   -10952   -10952   -10965   -10868   -10680   -10515 
  -10459   -10502   -10502   -10343   -10164   -10152   -10260   -10374 
  -10415   -10278   -10007    -9823    -9852    -9991   -10003    -9802 
   -9560    -9476    -9579    -9759    -9844    -9763    -9612    -9485 
   -9400    -9408    -9518    -9626    -9655    -9618    -9609    -9755 
  -10032   -10235   -10215   -10053    -9956   -10001   -10097   -10132 
  -10090   -10078   -10203   -10399   -10517   -10573   -10661   -10725 
  -10667   -10619   -10783   -11042   -11073   -10840   -10651   -10718 
  -10932   -11049   -10952   -10753   -10696   -10857   -10991   -10915 
  -10825   -10933   -11116   -11141   -11023   -10969   -11030   -11090 
  -11086   -11016   -10957   -11002   -11086   -11110   -11104   -11140 
  -11195   -11161   -11045   -11015   -11123   -11183   -11052   -10903 
  -10975   -11138   -11156   -11067   -11006   -10987   -10927   -10832 
  -10851   -10990   -11021   -10859   -10721   -10772   -10911   -10958 
  -10912   -10911   -11006   -11106   -11158   -11253   -11423   -11520 
  -11490   -11486   -11590   -11695   -11691   -11628   -11609   -11635 
  -11648   -11659   -11734   -11927   -12179   -12291   -12155   -11977 
  -12015   -12228   -12431   -12538   -12534   -12485   -12517   -12709 
  -12999   -13156   -12989   -12642   -12468   -12639   -12969   -13139 
  -13082   -12976   -12962   -13065   -13239   -13367   -13306   -13059 
  -12826   -12771   -12854   -12912   -12854   -12806   -12870   -12898 
  -12799   -12732   -12805   -12900   -12841   -12666   -12620   -12826 
  -13090   -13168   -13085   -13033   -13059   -13102   -13188   -13317 
  -13358   -13241   -13080   -13067   -13248   -13435   -13452   -13372 
  -13349   -13442   -13600   -13669   -13574   -13468   -13560   -13839 
  -14048   -14021   -13905   -13921   -14097   -14302   -14396   -14334 
  -14240   -14257   -14367   -14507   -14646   -14673   -14580   -14531 
  -14548   -14574   -14698   -14932   -15080   -14990   -14795   -14734 
  -14795   -14813   -14758   -14726   -14755   -14772   -14745   -14729 
  -14751   -14755   -14668   -14515   -14403   -14365   -14358   -14349 
  -14323   -14278   -14208   -14095   -13975   -13895   -13861   -13879 
  -13913   -13867   -13746   -13655   -13607   -13473   -13210   -12997 
  -12978   -12997   -12860   -12664   -12625   -12732   -12791   -12712 
  -12574   -12483   -12457   -12434   -12363   -12302   -12340   -12400 
  -12349   -12246   -12240   -12359   -12534   -12668   -12630   -12413 
  -12233   -12281   -12490   -12654   -12615   -12389   -12182   -12163 
  -12274   -12359   -12365   -12328   -12288   -12274   -12306   -12327 
  -12256   -12121   -12006   -11931   -11864   -11778   -11668   -11577 
  -11600   -11691   -11647   -11462   -11361   -11450   -11636   -11770 
  -11745   -11590   -11490   -11581   -11764   -11841   -11734   -11541 
  -11430   -11505   -11674   -11700   -11487   -11181   -11000   -11029 
  -11111   -11055   -10926   -10890   -10944   -10987   -10964   -10914 
  -10921   -10974   -10954   -10845   -10791   -10833   -10844   -10781 
