Origin Time       2011/03/11 14:46:00
Lat.              38.103
Long.             142.860
Depth. (km)       24
Mag.              9.0
Station Code      GIF003
Station Lat.      36.3326
Station Long.     137.3019
Station Height(m) 402
Record Time       2011/03/11 14:50:06
Sampling Freq(Hz) 100Hz
Duration Time(s)  65
Dir.              U-D
Scale Factor      3920(gal)/6182761
Max. Acc. (gal)   7.558
Last Correction   2011/03/11 14:49:51
Memo.             
[...]
   13973    13882    13904    14012    13938    13882    13956    13979 
   13988    14083    14170    14161    14132    14117    14096    14163 
   14188    14049    14056    14104    13923    13930    14112    14008 
   13855    13874    13863    13859    13919    13875    13762    13703 
   13652    13657    13734    13793    13803    13750    13779    13921 
   13927    13896    14019    14065    13988    14015    14128    14144 
   14024    13952    14006    14022    14008    13972    13781    13620 
   13641    13571    13352    13230    13186    13055    12927    12922 
   12904    12787    12661    12661    12797    12746    12545    12605 
   12709    12681    12752    12814    12775    12758    12704    12653 
   12749    12806    12734    12727    12779    12800    12776    12768 
   12797    12777    12773    12829    12874    12909    12891    12891 
   13017    13087    13073    13226    13452    13487    13449    13490 
   13509    13511    13576    13648    13667    13582    13432    13362 
   13366    13321    13258    13259    13256    13166    13077    13081 
   13068    12982    12995    13067    13050    13129    13264    13233 
   13241    13290    13235    13314    13425    13359    13377    13472 
   13424    13441    13594    13631    13621    13691    13776    13842 
   13883    13984    14129    14192    14245    14343    14423    14499 
   14554    14592    14695    14758    14763    14896    15035    15064 
   15171    15261    15227    15304    15425    15422    15471    15501 
   15359    15304    15335    15250    15233    15280    15193    15115 
   15131    15151    15164    15166    15217    15322    15351    15355 
   15446    15517    15568    15694    15777    15792    15853    15928 
   15991    16077    16118    16073    16107    16231    16243    16275 
   16389    16310    16198    16286    16333    16251    16240    16295 
   16264    16233    16326    16414    16415    16423    16492    16530 
   16449    16371    16378    16332    16235    16232    16259    16192 
   16129    16131    16087    16033    16031    15977    15918    15910 
   15819    15744    15797    15787    15716    15704    15666    15622 
   15658    15704    15692    15663    15670    15646    15579    15608 
   15709    15719    15682    15721    15779    15731    15672    15739 
   15769    15701    15696    15740    15786    15808    15781    15804 
   15862    15875    15858    15805    15764    15768    15741    15670 
   15660    15680    15656    15707    15755    15676    15648    15667 
   15666    15685    15645    15584    15529    15456    15443    15406 
   15299    15250    15192    15085    15024    14955    14874    14869 
   14895    14921    14966    14981    14985    15000    14982    15019 
   15121    15093    14953    14879    14898    14904    14842    14789 
   14722    14686    14706    14622    14600    14691    14660    14664 
   14733    14710    14754    14808    14769    14799    14791    14729 
   14858    14944    14786    14737    14823    14803    14845    14944 
   14905    14874    14897    14893    14941    14984    14923    14933 
   15014    14956    14957    15086    15038    14962    15049    15123 
   15174    15221    15186    15193    15319    15356    15298    15383 
   15473    15355    15210    15155    15076    14957    14903    14894 
   14781    14602    14519    14545    14568    14550    14537    14553 
   14626    14674    14633    14634    14714    14733    14695    14791 
   14945    14856    14700    14860    15111    15054    14892    14864 
   14780    14716    14806    14741    14613    14785    14974    14863 
   14779    14891    14904    14853    14952    15125    15265    15245 
   15058    15091    15359    15304    15130    15360    15413    15105 
   15220    15406    15153    15074    15105    14948    14925    14944 
   14846    14753    14689    14693    14780    14782    14696    14808 
   15086    15125    14924    14823    14915    15077    15081    14903 
   14769    14670    14711    14964    15039    14928    14898    14873 
   14883    15040    15170    15082    14928    14967    15145    15193 
   15076    15112    15250    15191    15133    15146    15041    14930 
   14976    15138    15149    14869    14685    14899    15108    15042 
   15047    15087    14910    14805    14921    15011    15012    15016 
   14942    14813    14946    15192    15138    15106    15374    15495 
   15413    15553    15757    15761    15834    15984    15948    15900 
   16005    16130    16202    16193    16120    16085    16060    16066 
   16233    16238    15882    15798    16023    15927    15738    15827 
   15865    15636    15464    15617    15717    15521    15561    15820 
   15725    15550    15536    15540    15699    15808    15723    15591 
   15315    15195    15479    15581    15395    15340    15198    14986 
   15103    15266    15238    15236    15246    15190    15137    15132 
   15166    15241    15268    15128    15171    15515    15487    15096 
   15072    15255    15189    15156    15332    15339    15122    14925 
   14849    15099    15199    14775    14780    14995    14566    14508 
   14864    14488    14147    14349    14211    14032    14120    13937 
   13892    14088    13820    13604    13908    14028    13978    14005 
   13734    13645    14154    14407    14119    13929    14040    14182 
   14221    14389    14509    14125    13963    14471    14547    14202 
   14395    14537    14280    14436    14672    14493    14328    14174 
   14388    14892    14343    13704    14293    14316    13707    14037 
   14340    13906    13583    13735    13942    13742    13477    13575 
   13656    13542    13583    13534    13221    13312    13665    13546 
   13267    13183    13280    13647    13718    13295    13275    13599 
   13501    13385    13667    13735    13506    13548    13717    13613 
   13492    13742    14033    13857    13506    13392    13474    13687 
   13782    13643    13555    13549    13518    13512    13449    13391 
   13662    13855    13458    13103    13236    13575    13890    13783 
   13334    13326    13602    13614    13801    14011    13626    13336 
   13668    13944    13934    14172    14530    14405    14105    14361 
   14976    15101    14623    14570    15086    15031    14772    15014 
   14819    14571    15039    15022    14762    15168    15020    14469 
   14906    15289    14863    14984    15522    15138    14554    14915 
   15354    15159    14947    15135    15519    15331    14757    15118 
   15790    15603    15367    15389    15106    14923    15214    15739 
   15971    15315    14657    15146    15712    15645    15690    15615 
   15157    15163    15797    15987    15517    15470    15882    15927 
   15805    15873    15664    15312    15643    16264    16047    15362 
   15320    15519    15532    16000    16194    15324    14927    15818 
   16202    15418    15321    15901    15613    15194    15549    15772 
   15477    15478    15591    15201    15132    15703    15796    15142 
   14920    15510    15729    15229    15043    15166    14982    15065 
   15423    15222    14786    14656    14937    15434    15238    14675 
   14877    15088    14715    14747    15100    14877    14465    14440 
   14629    14769    14676    14559    14439    14158    14188    14394 
   14398    14406    14119    13813    14079    14257    14164    14204 
   14164    14150    14301    14246    14205    14446    14216    13847 
   14427    14693    14052    14164    14480    14049    14062    14385 
   14284    14403    14465    14140    14280    14449    14214    14502 
   14736    14307    14322    14752    14759    14388    14324    15095 
   15322    14281    14408    15619    15255    14607    15082    15079 
   14858    15279    15406    14869    14481    14819    15277    15097 
   14643    14616    14805    14795    14982    15056    14491    14407 
   14993    14996    14714    14758    14663    14566    14752    14854 
   14837    14699    14430    14456    14662    14754    14924    15069 
   14898    14610    14784    15217    15262    15100    15002    15105 
   15392    15272    15065    15407    15278    14661    15043    15578 
   15192    14887    14950    14937    14830    15000    15465    15257 
   14422    14423    15317    15455    14771    14876    15310    14935 
   14897    15443    15258    14815    15019    15269    15170    15039 
   14901    14674    14584    14765    14863    14522    14278    14616 
   14764    14495    14502    14518    14461    14750    14847    14679 
   14817    14930    14743    14559    14651    15237    15453    14253 
   13387    14690    16084    15694    14849    14229    13953    14861 
   15882    15774    15139    14693    15130    15213    12686    11061 
   15250    20276    17979    11336     9493    13529    17435    18820 
   17782    11854     6101    10902    20138    20591    14835     9969 
    8976    14698    20835    19693    15267    10607     8079    13933 
   20695    18152    14324    13895    11366    10942    16603    20942 
   19763    16129    12484    10051    11237    16488    19473    16908 
   14489    12010     8634    13234    21579    21091    16339    12175 
    9254    14153    18514    12511    11793    20412    18927     9368 
    7688    12612    20037    25098    18674    10208    10332     9533 
   11116    22216    23401    12729    11639    12700     8206    12719 
   19204    19338    20898    14180     4883    14137    20061    10359 
   14280    21288     7719     4310    21516    24334    14448    12951 
   11586    10057    17875    22362    14512     6920     9376    18541 
   24663    19983     9101     5430    13342    22743    25260    21233 
   12418     6879    11423    16172    16260    19778    22362    17287 
   12867    14358    16568    15757    15194    19340    21037    12938 
    8345    17221    24008    18504    13552    16290    16696    11777 
   12550    19327    19506    15426    15270    12593    10004    18002 
   24171    16985    11057    12037     9790    12197    23765    23109 
    9874     8539    16013    16451    15562    17351    15196    11176 
   11547    15261    15406    11686    13908    18526    13370     8441 
   14674    19029    15423    13428    13584    13652    14392    12488 
   11834    15906    15877    12784    13071    11715    11692    16601 
   16886    15675    18127    12514     3688     9533    22015    23213 
   14584     7714     8058    12477    16641    18326    16089    14593 
   16780    14713     9271    11561    17128    16923    17068    18324 
   12859     8968    14362    17574    16582    17392    14223    10061 
   12583    15400    15230    14724    14441    16297    17071    13865 
   13666    16897    14475    10484    13873    16713    14883    15929 
   14782     9223    12150    18928    16972    14440    14478    11458 
   12279    15695    13858    13332    16149    17394    16532    11569 
    8547    13563    16338    14600    16274    15290     9533     9610 
   13981    15974    16070    14154    12966    13412    12597    14203 
   16472    13847    13333    15252    11484     9818    15184    16174 
   13303    15030    14834    10116    11787    17193    14659    10481 
   13065    14129    10553    10639    14431    15523    12327     9477 
   12698    16179    12383    10365    12526     9226     9142    18001 
   19286    12848    12145    13777    13311    14057    14913    13999 
   11985     9735    10144    15113    17971    12029     8305    16879 
   20942    12236    10347    14452     9877     7573    13553    18786 
   21629    15341     4409     9338    18620    15403    17539    25017 
   15565     3098    11799    22447    15641    10444    14341    12045 
    7912    13727    21137    19274    12097     8897    13082    17935 
   13384     9681    20776    24647     9555     4964    13080    10157 
    8950    21414    21742    10056    11039    12871     9048    16320 
   20499    12700    13432    16185     6837     5353    19322    20294 
    7807    12057    22007    14677     9601    18002    18609    11028 
   13087    14538     7644    10732    17138    12580    12490    17157 
   14568    12991    14985    14586    14116    12211     9072    11737 
   15728    14689    12350    10664    12654    17118    14987    12766 
   16890    15490    12060    15479    13700     8142    11814    15064 
   11140    10848    13254    10686     8924    13341    16000    13292 
   12393    13390    12996    13548    13321    10837    13712    20779 
   18684    11721    12450    13392    10867    13667    17648    15633 
    9561     7024    15384    21107    12070     7615    15148    15961 
    9889     8232    10392    15580    18573    14278    14038    19059 
   15709    11258    16885    19670    13261    11054    13229     8574 
    4180    10679    18217    17478    15925    17199    14776    11167 
   14694    20848    21515    16440     8489     6506    12400    12983 
    6994     5797    10577    15959    18338    15458    10166     7726 
    8263    11129    15898    16085    11475    11825    13737    11258 
   12888    15034    11459    14022    18734    13820     9941     9469 
    8483    16474    24665    19500    14257    15427    13064    10120 
   11345     9595     7235    13912    19355    11765     4087     4978 
    9761    18085    21956    15775    12027    13980    12570    10278 
   11107    11468    14071    19244    15644     7185     9417    12906 
    8686    13876    26237    23599    13318    12443    11816     7118 
   10058    16086    17252    19615    19361    10722     7036    11762 
   11325    10038    17140    20482    12881     6183     6763     9166 
   10472    14330    18883    16444    10909    11234    15265    16308 
   12903     9739    11431    16225    18212    15880    13858    11829 
    8800    11808    17594    16863    16254    18182    14281     9719 
   11443    14068    14595    14820    15061    15527    16018    15407 
   15415    18113    19179    15107    12268    15216    14015     5042 
    4036    12809    16040    15573    17766    15518     9944     8924 
   10432    11168    13575    17098    16070    11765    11688    14516 
   12916     8897    10380    16160    18787    16826    14790    13793 
   11142    11339    17615    20516    16799    13655    11471     8331 
    9694    17262    19328    12319    10421    13561    12443    12401 
   12047     8878    12668    16499     9892     7051    13785    15072 
   12501    15393    14789    10565    12573    13414     9709    10814 
   15474    19346    21300    17574    12791    11688     9898    11634 
   18325    18710    15914    17401    14812    10431    13746    12304 
    3162     7076    17786    15025     9522    11420    12579    11575 
   10327     9589    11622    13926    12774     9297     9965    14681 
   14398    12346    13610    11698    11125    16974    20346    19520 
   16798    13211    13462    13393    10545    13850    18077    13001 
   11249    18392    17785    11878    14456    15715    11545    13574 
   16881    14417    11691     9926     8949    10539    12396    13840 
   15708    15873    14595    13850    13076    13770    15497    13338 
   10271    11941    15142    15888    15196    14383    12875    11201 
   11703    16024    18830    15238    15146    20284    16657     8781 
    8915    11162    12278    15968    16472    12982    14104    16635 
   14647    14163    15518    14364    13254    11785    11413    15288 
   16183    12695    12780    14251    12606    13376    17983    17950 
   13075    11481    12546    13625    16322    16787    11915     7755 
    9251    12728    16049    19775    17572    10250     7226     7635 
   10254    15730    17365    15892    16003    13914     9884     8826 
   11662    15478    14427    11019    13054    15579    12643    10137 
   11051    13475    17482    17848    12120     9999    14504    16913 
   16219    17590    16979    10934     8896    15176    18913    16733 
   15875    15109    12006    10827    12616    14913    15433    13415 
   10951    11244    14093    14824    14424    16894    17381    13389 
   10906    12155    13672    12951    12603    15494    17303    12949 
    8218    13456    19824    12888     8286    17512    20438    13081 
   11375    14200    14642    15095    16476    16527    14193     9891 
    8134    13253    18565    14475     7730     9792    15124    15993 
   14645    12230    12226    15643    14187    11815    14981    15130 
   13906    15164    10892     7660    13277    15742    11192    11433 
   17863    19290    13747    11162    13470    13888    13835    16754 
   16820    13239    13963    16619    14145    12578    14702    12083 
    9640    15980    20266    16152    12628    12929    14568    13689 
    8960    10156    17025    14938     9916    14188    16888    14247 
   14908    13588     9282    10775    14648    16308    16547    13819 
   12557    14769    12656     9181    12832    16307    12882    11546 
   14982    13692    11262    14526    13823     9787    12898    15763 
   13225    13117    15188    14107    10270     9351    14374    18102 
   15091    12082    14776    15643    11293    12542    16482    13235 
   12503    16200    14169    11300    12066    13332    15466    15677 
   12649    11418    12726    13497    14649    15840    13266    10619 
   12014    13060    14363    17270    16258    14099    14994    13451 
   10953    12350    13209    13435    15036    13453    12005    14695 
   15125    15165    18279    15189     8749    11452    15361    12403 
   12142    14370    12283    11129    13364    15154    14227    10237 
   10486    16108    14777     9704    12985    16026    12514    12155 
   14635    13573    11925    12324    13771    15080    13547    11448 
   12854    13928    13924    15826    14590    10407    11640    15829 
   16146    13867    11503    11571    13903    13840    14493    17249 
   13906     8893    10406    12643    13466    15967    16990    14961 
   13651    12723    10801    12364    14294    12817    15872    18990 
   13951    11129    13943    15214    16244    16963    14183    13142 
   15926    15675    15163    18015    15843    12168    15310    16661 
   13704    13720    14297    13661    14400    15129    16472    16796 
   13351    12873    16040    14918    12171    14394    18439    17196 
   12655    12695    15160    14235    12898    13793    15690    17590 
   15904    12585    14767    17272    13996    12793    15591    15092 
   13442    14406    14979    16100    17337    14717    13437    15661 
   14210    12515    15924    17415    15566    14645    12637    12357 
   15776    15348    12811    14025    14773    14151    15328    16305 
   15146    14552    15401    14463    13639    15359    15906    15488 
   15534    14315    13570    14120    15573    17787    17025    13927 
   12560    13028    15123    16793    15491    14678    16694    16153 
   11891    12065    16099    15306    13216    15266    15991    14988 
   15761    14287    11764    14116    16591    15191    15100    16074 
   14256    12441    13400    14716    13766    12868    14805    15822 
   14052    13296    13924    14844    15538    14044    12636    13964 
   14773    14201    14311    13960    13226    13393    13574    13907 
