Origin Time       2011/03/11 14:46:00
Lat.              38.103
Long.             142.860
Depth. (km)       24
Mag.              9.0
Station Code      GIF005
Station Lat.      36.1537
Station Long.     137.2513
Station Height(m) 563
Record Time       2011/03/11 14:49:39
Sampling Freq(Hz) 100Hz
Duration Time(s)  103
Dir.              N-S
Scale Factor      3920(gal)/6182761
Max. Acc. (gal)   32.411
Last Correction   2011/03/11 14:49:24
Memo.             
[...]
  -19937   -19990   -20036   -20060   -20014   -19956   -19982   -20061 
  -20096   -20094   -20113   -20131   -20127   -20120   -20104   -20052 
  -19969   -19908   -19888   -19858   -19781   -19683   -19606   -19518 
  -19328   -19049   -18780   -18562   -18408   -18337   -18297   -18231 
  -18200   -18301   -18499   -18685   -18860   -19082   -19343   -19613 
  -19880   -20077   -20193   -20340   -20558   -20746   -20841   -20888 
  -20940   -20999   -21059   -21109   -21146   -21225   -21357   -21464 
  -21540   -21603   -21600   -21535   -21437   -21296   -21166   -21115 
  -21130   -21124   -21073   -21048   -21034   -20968   -20878   -20801 
  -20753   -20689   -20537   -20356   -20243   -20179   -20104   -20001 
  -19931   -19962   -20046   -20065   -19997   -19935   -19911   -19833 
  -19675   -19585   -19606   -19557   -19411   -19325   -19325   -19327 
  -19298   -19239   -19176   -19159   -19219   -19330   -19451   -19601 
  -19831   -20136   -20448   -20713   -20960   -21200   -21371   -21479 
  -21547   -21497   -21335   -21169   -20999   -20724   -20362   -20064 
  -19860   -19646   -19433   -19341   -19394   -19481   -19492   -19450 
  -19425   -19389   -19284   -19117   -18964   -18882   -18837   -18815 
  -18843   -18892   -18950   -19048   -19177   -19293   -19391   -19505 
  -19637   -19770   -19910   -20080   -20251   -20360   -20454   -20584 
  -20652   -20642   -20631   -20587   -20495   -20432   -20407   -20389 
  -20383   -20383   -20381   -20378   -20331   -20211   -20069   -19879 
  -19591   -19324   -19118   -18864   -18590   -18335   -18041   -17776 
  -17605   -17403   -17116   -16899   -16849   -16903   -16983   -17130 
  -17436   -17791   -18007   -18204   -18512   -18782   -18943   -19073 
  -19216   -19418   -19613   -19654   -19661   -19833   -20047   -20165 
  -20324   -20581   -20789   -20941   -21147   -21386   -21558   -21624 
  -21615   -21616   -21656   -21635   -21506   -21329   -21147   -21001 
  -20881   -20729   -20619   -20623   -20625   -20609   -20663   -20702 
  -20632   -20593   -20707   -20824   -20803   -20738   -20744   -20810 
  -20904   -21045   -21205   -21304   -21405   -21577   -21715   -21774 
  -21798   -21778   -21757   -21818   -21949   -22083   -22173   -22170 
  -22078   -21983   -21921   -21851   -21762   -21680   -21658   -21702 
  -21694   -21542   -21265   -20955   -20731   -20544   -20267   -19992 
  -19821   -19690   -19591   -19498   -19287   -19009   -18805   -18627 
  -18443   -18302   -18147   -17990   -17923   -17905   -17940   -18052 
  -18144   -18299   -18634   -18915   -18987   -19058   -19255   -19497 
  -19645   -19554   -19310   -19198   -19262   -19335   -19395   -19522 
  -19747   -20050   -20339   -20529   -20637   -20730   -20826   -20946 
  -21105   -21198   -21177   -21153   -21150   -21150   -21129   -20940 
  -20642   -20481   -20423   -20289   -20068   -19877   -19830   -19873 
  -19867   -19848   -19900   -19976   -20036   -20084   -20090   -20046 
  -19969   -19892   -19915   -20071   -20254   -20372   -20420   -20453 
  -20499   -20540   -20635   -20849   -21109   -21346   -21581   -21816 
  -22038   -22218   -22296   -22271   -22207   -22115   -22000   -21904 
  -21781   -21613   -21539   -21594   -21637   -21595   -21535   -21532 
  -21564   -21550   -21444   -21303   -21230   -21209   -21127   -20976 
  -20818   -20660   -20520   -20403   -20285   -20227   -20244   -20182 
  -20056   -20057   -20151   -20183   -20149   -20130   -20163   -20171 
  -20167   -20330   -20657   -20939   -21111   -21305   -21577   -21806 
  -21915   -22020   -22231   -22505   -22781   -23071   -23359   -23567 
  -23712   -23876   -24003   -24022   -24014   -24070   -24096   -24003 
  -23910   -23885   -23841   -23817   -23859   -23831   -23696   -23565 
  -23434   -23214   -22896   -22556   -22281   -22090   -21988   -22006 
  -22099   -22157   -22184   -22217   -22229   -22264   -22357   -22494 
  -22653   -22675   -22482   -22223   -22005   -21873   -21832   -21775 
  -21664   -21633   -21763   -21917   -21977   -22040   -22183   -22334 
  -22455   -22595   -22731   -22788   -22763   -22645   -22381   -22042 
  -21818   -21761   -21714   -21610   -21540   -21536   -21548   -21530 
  -21474   -21476   -21585   -21656   -21626   -21648   -21717   -21686 
  -21567   -21413   -21253   -21165   -21124   -21002   -20805   -20674 
  -20607   -20503   -20396   -20305   -20133   -19943   -19895   -19884 
  -19755   -19637   -19618   -19575   -19494   -19409   -19322   -19313 
  -19359   -19374   -19398   -19457   -19504   -19548   -19646   -19767 
  -19799   -19804   -19942   -20122   -20163   -20113   -20096   -20114 
  -20117   -20093   -20087   -20191   -20408   -20604   -20702   -20754 
  -20846   -21009   -21162   -21204   -21128   -21035   -21037   -21031 
  -20911   -20873   -21022   -21178   -21268   -21315   -21265   -21125 
  -20948   -20751   -20573   -20427   -20300   -20242   -20217   -20141 
  -20084   -20083   -20096   -20162   -20255   -20351   -20468   -20544 
  -20586   -20671   -20731   -20684   -20581   -20472   -20332   -20156 
  -19993   -19867   -19788   -19794   -19868   -19972   -20110   -20283 
  -20471   -20607   -20664   -20729   -20771   -20671   -20519   -20476 
  -20487   -20423   -20319   -20244   -20153   -20029   -19912   -19819 
  -19763   -19744   -19767   -19840   -19884   -19853   -19873   -20013 
  -20141   -20228   -20402   -20660   -20903   -21078   -21202   -21348 
  -21547   -21800   -22104   -22407   -22661   -22859   -22989   -23046 
  -23071   -23099   -23103   -23054   -22996   -22958   -22911   -22845 
  -22781   -22753   -22753   -22764   -22771   -22700   -22523   -22282 
  -21970   -21637   -21370   -21126   -20913   -20827   -20825   -20845 
  -20953   -21166   -21401   -21639   -21944   -22282   -22531   -22737 
  -23023   -23301   -23428   -23453   -23461   -23439   -23369   -23284 
  -23210   -23100   -22954   -22846   -22760   -22648   -22567   -22556 
  -22580   -22614   -22670   -22759   -22819   -22828   -22882   -22992 
  -23063   -23075   -23104   -23158   -23108   -22947   -22794   -22624 
  -22428   -22303   -22188   -22007   -21841   -21703   -21512   -21358 
  -21375   -21475   -21527   -21558   -21618   -21688   -21733   -21708 
  -21622   -21574   -21567   -21492   -21415   -21483   -21577   -21529 
  -21432   -21375   -21270   -21086   -20944   -20914   -20900   -20887 
  -20964   -21011   -20902   -20795   -20829   -20941   -21033   -21102 
  -21173   -21228   -21284   -21344   -21253   -20938   -20577   -20276 
  -19934   -19554   -19285   -19160   -19099   -19105   -19233   -19434 
  -19616   -19792   -19987   -20125   -20156   -20144   -20207   -20314 
  -20360   -20434   -20566   -20585   -20479   -20395   -20379   -20354 
  -20280   -20211   -20137   -20023   -19930   -19861   -19778   -19738 
  -19781   -19856   -19945   -20068   -20126   -20008   -19837   -19783 
  -19760   -19657   -19577   -19574   -19520   -19446   -19541   -19702 
  -19671   -19519   -19554   -19849   -20154   -20316   -20407   -20355 
  -20109   -19872   -19695   -19493   -19383   -19431   -19469   -19395 
  -19307   -19244   -19043   -18683   -18410   -18280   -18118   -17917 
  -17811   -17784   -17754   -17780   -17896   -17982   -18053   -18254 
  -18532   -18765   -19002   -19263   -19431   -19522   -19664   -19782 
  -19741   -19643   -19662   -19723   -19672   -19610   -19596   -19497 
  -19418   -19549   -19729   -19770   -19740   -19696   -19612   -19506 
  -19415   -19334   -19267   -19253   -19251   -19156   -18991   -18901 
  -18906   -18925   -18974   -19066   -19114   -19128   -19197   -19295 
  -19364   -19462   -19645   -19840   -19986   -20157   -20386   -20573 
  -20711   -20917   -21201   -21456   -21592   -21635   -21723   -21887 
  -21985   -21978   -21920   -21739   -21434   -21158   -20931   -20699 
  -20534   -20456   -20378   -20326   -20397   -20506   -20542   -20634 
  -20868   -21070   -21187   -21375   -21623   -21812   -22043   -22342 
  -22459   -22412   -22472   -22555   -22475   -22413   -22531   -22675 
  -22745   -22801   -22831   -22825   -22855   -22979   -23143   -23227 
  -23290   -23421   -23509   -23588   -23735   -23814   -23798   -23731 
  -23553   -23271   -22933   -22543   -22156   -21812   -21547   -21407 
  -21325   -21214   -21123   -21083   -20973   -20789   -20733   -20831 
  -20905   -20893   -20828   -20724   -20620   -20570   -20546   -20452 
  -20290   -20146   -20044   -19975   -19932   -19842   -19619   -19323 
  -19093   -18933   -18789   -18698   -18697   -18789   -18969   -19193 
  -19456   -19707   -19894   -20111   -20310   -20316   -20243   -20219 
  -20110   -19923   -19842   -19828   -19769   -19729   -19733   -19649 
  -19431   -19262   -19222   -19113   -18919   -18812   -18730   -18630 
  -18665   -18802   -18821   -18747   -18801   -18964   -19029   -19061 
  -19245   -19419   -19383   -19345   -19469   -19493   -19324   -19260 
  -19356   -19381   -19386   -19517   -19637   -19670   -19773   -19909 
  -19881   -19773   -19788   -19868   -19870   -19884   -20045   -20244 
  -20338   -20408   -20525   -20594   -20614   -20652   -20612   -20456 
  -20354   -20312   -20183   -20042   -20039   -20080   -20003   -19887 
  -19887   -19917   -19873   -19930   -20111   -20144   -20043   -20001 
  -19944   -19813   -19757   -19806   -19783   -19642   -19591   -19653 
  -19628   -19626   -19833   -20036   -20151   -20451   -20899   -21191 
  -21408   -21778   -22131   -22296   -22422   -22608   -22726   -22686 
  -22642   -22690   -22589   -22275   -22116   -22202   -22130   -21835 
  -21753   -21920   -21883   -21676   -21676   -21718   -21533   -21395 
  -21515   -21670   -21697   -21730   -21905   -22073   -22083   -22057 
  -22083   -22085   -21958   -21693   -21573   -21781   -21929   -21678 
  -21535   -22014   -22337   -21737   -21181   -21473   -21714   -21391 
  -21160   -21154   -20857   -20368   -20653   -21692   -21534   -19653 
  -18647   -19557   -19907   -19141   -19500   -20504   -20510   -20597 
  -21222   -21342   -20828   -19820   -18936   -18872   -18989   -18863 
  -19209   -20545   -22018   -22429   -21782   -20520   -19298   -18942 
  -19228   -19721   -20646   -21480   -21366   -21406   -22713   -23778 
  -23579   -23019   -22239   -21066   -20520   -21128   -21742   -21449 
  -20880   -21066   -21763   -21636   -20728   -19621   -18162   -18497 
  -21472   -22633   -20325   -18338   -18128   -18415   -19236   -20457 
  -20815   -19815   -18113   -17584   -19368   -21328   -21594   -21128 
  -20572   -20028   -20364   -21545   -22394   -22116   -21367   -21676 
  -22346   -21025   -18913   -19001   -20183   -20706   -21877   -23186 
  -21924   -19350   -19448   -21685   -22554   -21915   -21607   -21663 
  -20768   -20066   -22306   -24664   -23380   -22208   -23409   -23388 
  -22932   -25111   -26809   -25548   -25440   -27529   -26470   -22479 
  -21136   -21739   -21350   -22188   -24982   -26167   -24831   -22819 
  -20357   -18449   -18502   -18273   -17041   -18079   -20628   -20997 
  -20235   -20570   -21629   -23201   -23387   -21144   -21588   -25279 
  -24533   -20604   -22377   -26895   -24839   -20344   -22714   -27214 
  -26361   -24320   -24039   -22335   -21295   -24003   -25603   -22700 
  -20086   -20567   -21465   -22024   -22693   -21901   -20246   -20213 
  -20473   -19421   -20165   -23290   -23635   -20073   -18130   -20196 
  -22345   -22236   -21308   -20246   -19972   -21162   -21188   -19934 
  -21765   -25964   -26413   -22468   -19966   -21741   -23890   -22500 
  -20571   -22031   -23202   -20731   -19116   -21437   -23511   -22240 
  -21127   -22795   -23602   -22185   -22386   -23656   -23100   -22832 
  -23189   -21368   -19986   -21837   -23038   -22325   -23983   -26945 
  -26247   -23909   -23925   -23728   -21294   -20205   -21967   -22596 
  -20396   -19018   -20164   -21362   -21113   -20948   -22175   -22654 
  -21409   -21718   -23305   -22469   -21043   -21915   -22191   -20507 
  -20133   -21062   -20416   -19479   -20808   -22312   -21355   -19585 
  -18958   -19023   -19699   -21220   -22570   -22728   -21630   -20365 
  -20296   -20578   -19766   -19279   -20330   -21605   -22654   -23073 
  -21699   -20800   -22494   -23696   -22741   -22461   -23380   -23037 
  -21504   -20935   -21084   -20554   -20806   -22806   -23405   -21868 
  -22115   -23954   -23545   -22419   -23943   -25000   -22656   -21030 
  -21537   -20179   -18157   -18791   -19577   -18595   -18766   -20749 
  -20546   -17685   -17308   -19970   -20082   -17624   -18135   -21533 
  -23467   -23025   -22096   -22020   -22423   -22004   -20991   -21177 
  -22088   -21230   -19359   -18810   -18601   -17865   -18127   -19163 
  -19863   -21503   -23960   -23985   -21894   -21701   -22599   -21416 
  -20555   -21728   -21339   -19684   -20381   -21091   -19254   -18337 
  -19382   -19424   -19470   -22482   -27142   -29818   -29576   -29524 
  -31662   -32995   -32283   -32378   -32950   -32436   -32707   -33782 
  -32801   -29640   -25594   -20352   -14851   -10575    -6174     -774 
    3564     5268     5176     5255     4842     -661   -13057   -27242 
  -36097   -36247   -31295   -28844   -31458   -34408   -32982   -27288 
  -19860   -13461   -11627   -17008   -28281   -38773   -40183   -31860 
  -22475   -19572   -22939   -27895   -30331   -29409   -26782   -23057 
  -17634   -11996    -8228    -5940    -5569   -10694   -22536   -35073 
  -40432   -37775   -30813   -20502    -7750     2691     5803     -258 
  -13311   -28236   -41697   -54605   -66499   -71971   -67450   -54628 
  -35805   -14091     4199    13803    15518    13225     7542    -2541 
  -14892   -26211   -33968   -35876   -33478   -31732   -30882   -27444 
  -23213   -22077   -22782   -24709   -30606   -38782   -43739   -42921 
  -37001   -28069   -19071   -12116    -6996    -3568    -3021    -4311 
   -5709    -8698   -13413   -16178   -15015   -11534    -8570    -8318 
  -10907   -15637   -22908   -32319   -39420   -38642   -30580   -21544 
  -16411   -15777   -18462   -23168   -26906   -26717   -24149   -23208 
  -25573   -30171   -34141   -33966   -28575   -20464   -12422    -6712 
   -5308    -7238   -10506   -14629   -17309   -15826   -13532   -15711 
  -19841   -20598   -19347   -19454   -20558   -22016   -23677   -23684 
  -22541   -22801   -22082   -18672   -17975   -21936   -24705   -23560 
  -21684   -20538   -18611   -15843   -13730   -13392   -15657   -20185 
  -24031   -24592   -23430   -22886   -21525   -17708   -14096   -14102 
  -16381   -17714   -19477   -24381   -29314   -30114   -28461   -26581 
  -23644   -20640   -19736   -19709   -18489   -17146   -17116   -17656 
  -18387   -19812   -20747   -19591   -17876   -17944   -18773   -18563 
  -18019   -17828   -17043   -15931   -16060   -17290   -18425   -19150 
  -19445   -19111   -18520   -18812   -20449   -22255   -23332   -23885 
  -23327   -21913   -21986   -23661   -25107   -26404   -27417   -26421 
  -23483   -21521   -22327   -23495   -22807   -21929   -20988   -16856 
  -10969    -9032   -11518   -14475   -16939   -19207   -20101   -20524 
  -22165   -22985   -20733   -17170   -14893   -14820   -17064   -20241 
  -21788   -20832   -18580   -16468   -16278   -19584   -25403   -30890 
  -33486   -32050   -27966   -23751   -21100   -20963   -21980   -21132 
  -18574   -16428   -14434   -12663   -12862   -14071   -13961   -13403 
  -14415   -17407   -21726   -25915   -28945   -30505   -29289   -24388 
  -17563   -12137   -10060   -10078   -10836   -14362   -21570   -28346 
  -31309   -31403   -29615   -26053   -22319   -19963   -19233   -20196 
  -21950   -22417   -20777   -18026   -15879   -16090   -18473   -20851 
  -22379   -23453   -22773   -19045   -14661   -13573   -16120   -19067 
  -20546   -21593   -22495   -22579   -22780   -23152   -21771   -18800 
  -16507   -16329   -18614   -22041   -24332   -25767   -27589   -28135 
  -25976   -22813   -20186   -17767   -15528   -14894   -17057   -20908 
  -24096   -25632   -25840   -24978   -23219   -20827   -18398   -17379 
  -18467   -19280   -16990   -13323   -13094   -17733   -23584   -27390 
  -29401   -29456   -26445   -22694   -21798   -23177   -23825   -22779 
  -20968   -18700   -16425   -16630   -20116   -23517   -24927   -25746 
  -25399   -22232   -18879   -19099   -21536   -22384   -21168   -20576 
  -21914   -22930   -22076   -21176   -21083   -20663   -20440   -21591 
  -23697   -26267   -29122   -30619   -29001   -26048   -25289   -26296 
  -26576   -27222   -29336   -29891   -27601   -25252   -23595   -21267 
  -18925   -17261   -15631   -14808   -16247   -19386   -22728   -25361 
  -25893   -23194   -19333   -17873   -19013   -20103   -19923   -19656 
  -20338   -20880   -19842   -18396   -18550   -19484   -19696   -20571 
  -23370   -26181   -27515   -28429   -29157   -28405   -26264   -23864 
  -21067   -17506   -14455   -13147   -12901   -13086   -14725   -17700 
  -19593   -20015   -21354   -23428   -23448   -21345   -19265   -17519 
  -15661   -15013   -16520   -18710   -20258   -21365   -21762   -21066 
  -19973   -18794   -17579   -17414   -18589   -19689   -20199   -20977 
  -22127   -23112   -23443   -22494   -20893   -20187   -20400   -21127 
  -22600   -23524   -22284   -20202   -19853   -21728   -24328   -25655 
  -24592   -21949   -19242   -17311   -16549   -16806   -18106   -20835 
  -23653   -24796   -25322   -26594   -27170   -25719   -23387   -21513 
  -20126   -18572   -16330   -14577   -15424   -18350   -20728   -21904 
  -23138   -24626   -25399   -25130   -24633   -24461   -23546   -21158 
  -19119   -18895   -19126   -18984   -20152   -23112   -25330   -24926 
  -23202   -22615   -23660   -24698   -24842   -24458   -23439   -22311 
  -22383   -23149   -23306   -22970   -21788   -19063   -16636   -16513 
  -17846   -19347   -20825   -22504   -24717   -26635   -26738   -25319 
  -24102   -23782   -23267   -21833   -20976   -21262   -20541   -18957 
  -19277   -20909   -21496   -21745   -22409   -21783   -19608   -18180 
  -18310   -18892   -20110   -22396   -23925   -23313   -22134   -22154 
  -23255   -24792   -26071   -25994   -24204   -21738   -19525   -17892 
  -17387   -18092   -19338   -20672   -21536   -21201   -20283   -20312 
  -21195   -21640   -21660   -21921   -22246   -22754   -23965   -25451 
  -26404   -26411   -25411   -24088   -23128   -22306   -21607   -21677 
  -22679   -24306   -26025   -26643   -25529   -23778   -22564   -21951 
  -21665   -21598   -21739   -21749   -21314   -20627   -19278   -17029 
  -15824   -17385   -20457   -23018   -24562   -25221   -24833   -23329 
  -21475   -20556   -20662   -20743   -20763   -21529   -23004   -24435 
  -25156   -25338   -25610   -25126   -22825   -20064   -18495   -18196 
  -19281   -21165   -21751   -20541   -19201   -18434   -18359   -19597 
  -21587   -23309   -24632   -24999   -23809   -21755   -19794   -18466 
  -18711   -21137   -23950   -24299   -22302   -20296   -18854   -17807 
  -18662   -21729   -24221   -24254   -23041   -21577   -19402   -17325 
  -17082   -18522   -20373   -22273   -23811   -23879   -22561   -21387 
  -21026   -21040   -21365   -21944   -22228   -21835   -21048   -21115 
  -22719   -24162   -24023   -23616   -23944   -23756   -22525   -21534 
  -21319   -21226   -21124   -21061   -20455   -19356   -18706   -18718 
  -18995   -19435   -19601   -18918   -18062   -18374   -19825   -21128 
