Origin Time       2011/03/11 14:46:00
Lat.              38.103
Long.             142.860
Depth. (km)       24
Mag.              9.0
Station Code      GIF007
Station Lat.      36.0378
Station Long.     137.4854
Station Height(m) 994
Record Time       2011/03/11 14:47:52
Sampling Freq(Hz) 100Hz
Duration Time(s)  215
Dir.              E-W
Scale Factor      3920(gal)/6182761
Max. Acc. (gal)   36.056
Last Correction   2011/03/11 14:47:37
Memo.             
[...]
   24329    26152    28138    30111    31794    32910    33342    33124 
   32361    31178    29766    28277    26628    24688    22497    20260 
   18383    17271    17121    18089    20177    23039    26274    29577 
   32574    34832    36055    36195    35357    33685    31363    28579 
   25537    22584    20133    18387    17396    17269    18069    19640 
   21671    23864    26008    27789    28816    28994    28589    27918 
   27167    26439    25799    25194    24549    23918    23407    23104 
   23056    23209    23483    23839    24244    24684    25130    25512 
   25816    26148    26614    27211    27842    28449    29139    30029 
   30993    31836    32500    32962    33151    32949    32254    31047 
   29376    27380    25226    23098    21272    19949    19179    18968 
   19262    20027    21249    22861    24795    26903    28990    30918 
   32490    33591    34243    34353    33750    32263    29971    27217 
   24224    21248    18785    17254    16765    17299    18895    21429 
   24593    28101    31598    34742    37302    39150    40346    40884 
   40547    39286    37280    34501    30954    27104    23558    20797 
   19115    18510    18812    19803    21411    23724    26530    29342 
   31887    34078    35818    36989    37372    36670    34801    32108 
   29201    26599    24389    22512    21293    20908    21004    21321 
   21825    22564    23520    24513    25547    26704    27966    29248 
   30260    30850    31086    30985    30509    29663    28527    27173 
   25806    24675    23788    23292    23296    23465    23705    24244 
   25128    26274    27434    28492    29685    30891    31582    31708 
   31707    31763    31745    31582    31233    30684    30053    29312 
   28271    27014    25967    25244    24469    23841    24025    24832 
   25646    26308    26816    27348    28261    29181    29284    28912 
   28805    28562    27959    27464    27126    26951    27118    27444 
   27682    27986    28561    29178    29597    30105    31069    32087 
   32461    32189    31383    29813    27715    25726    24014    22636 
   22156    22801    24269    26442    29046    31702    34275    36353 
   37627    38374    38722    38472    37540    35934    33641    30923 
   28230    25599    22990    20763    19348    19129    20099    21776 
   23992    26861    30064    33077    35763    38027    39478    39899 
   39368    38023    36027    33534    30783    27974    25160    22548 
   20514    19338    19143    20003    21901    24584    27720    31131 
   34565    37553    39828    41294    41789    41176    39354    36450 
   32787    28738    24806    21429    19059    18095    18522    20194 
   22942    26414    30207    34008    37585    40649    42966    44292 
   44221    42752    40367    37404    33991    30354    26906    24135 
   22318    21416    21279    21963    23520    25565    27731    29991 
   32175    33891    34921    35213    34740    33672    32300    30876 
   29689    28847    28213    27710    27504    27880    28963    30430 
   31729    32753    33613    34013    33680    32772    31456    29781 
   27848    25886    24249    23075    22284    21863    21829    22237 
   23081    24370    26016    27700    29409    31178    32563    33366 
   33751    33605    32788    31473    29793    27642    25105    22618 
   20687    19660    19447    19943    21416    23804    26583    29443 
   32297    34826    36669    37663    37591    36596    35174    33420 
   31427    29435    27480    25827    24720    24023    23778    23978 
   24377    25136    26518    28290    30165    32001    33512    34412 
   34580    34083    33221    32165    30669    28800    27091    25618 
   24375    23837    24175    25090    26237    27372    28409    29232 
   29793    30234    30516    30473    30055    29117    27657    26238 
   25473    25397    25478    25373    25694    26940    28490    29666 
   30358    30768    31182    31532    31658    31340    30244    28920 
   28197    27655    26571    25400    25057    25477    25992    26545 
   27560    29047    30348    31099    31729    32383    32661    32501 
   32096    31565    31142    30746    30105    29460    28905    28164 
   27171    25863    24541    23819    23365    22609    22168    22768 
   24117    25553    26847    28409    30435    32139    32887    33013 
   32931    32594    31843    30791    29777    28803    27739    27027 
   26897    26785    26307    25276    23867    23449    24632    25762 
   25692    25131    24351    23541    23890    24859    25044    25435 
   26656    27680    28845    30416    30956    30418    30124    30060 
   29943    29889    29255    27862    26929    26946    26583    25392 
   24639    24424    23826    23146    23364    24475    25764    26965 
   28020    29059    30434    31636    32007    31940    31706    30923 
   29499    27650    25660    23895    22539    21538    20852    20693 
   21163    21983    22801    23396    23982    24836    25777    26756 
   27967    29299    30255    30549    30517    30357    29850    28979 
   27942    26653    24948    23322    22283    21609    21339    21705 
   22514    24022    26491    29115    31243    33130    34709    35332 
   34768    33528    32227    30884    29170    27168    25356    24231 
   23871    23766    23733    24339    25829    27694    29381    30692 
   31714    32386    32187    30963    29395    27970    26663    25539 
   24712    24400    24932    26076    27282    28481    29694    30767 
   31626    31990    31720    31187    30537    29560    28334    27267 
   26508    25912    25737    26417    27704    28951    29946    31057 
   32521    33784    34196    34045    33906    33606    32724    31286 
   29612    27888    26106    24524    23613    23354    23354    23589 
   24251    25281    26555    28035    29541    30719    31383    31661 
   31610    31053    29794    27931    26057    24568    23279    22210 
   21643    21545    21807    22587    23933    25548    27187    28778 
   30136    31071    31667    32053    32021    31407    30452    29358 
   28226    27210    26234    25207    24347    23885    23726    23699 
   23858    24154    24479    24962    25646    26337    26854    27097 
   27154    27214    27304    27413    27687    28164    28641    29056 
   29535    29943    30020    29825    29597    29346    28859    28193 
   27622    27148    26615    26129    26093    26628    27295    27821 
   28460    29431    30549    31440    31937    32165    32256    32096 
   31432    30261    29046    28117    27255    26318    25601    25381 
   25625    26270    27297    28550    30022    31759    33368    34438 
   34961    35004    34564    33588    32010    30052    28117    26435 
   25167    24497    24489    25036    25991    27270    28728    30131 
   31285    32135    32758    33124    33107    32644    31859    31029 
   30154    29144    28307    27916    27830    27955    28407    29172 
   30122    31013    31671    32199    32465    32137    31269    30139 
   28970    27959    27207    26710    26629    27069    27725    28332 
   29005    29849    30638    31165    31498    31600    31321    30666 
   29732    28725    27715    26500    25206    24228    23598    23290 
   23426    23853    24335    25006    25998    27250    28885    30753 
   32222    33064    33535    33771    33517    32435    30792    29038 
   27231    25664    24768    24297    23867    23789    24455    25786 
   27600    29635    31582    33315    34765    35965    36842    37085 
   36659    35632    34085    32409    30808    29191    27847    27097 
   26431    25627    25482    26290    27714    29566    31387    32754 
   33862    34821    35138    34531    33405    31994    30378    29193 
   28501    27639    27027    27157    27317    27449    28069    28800 
   29615    30913    31971    32127    31836    31249    30236    29146 
   28054    27059    26739    27052    27499    28060    28794    29550 
   30174    30517    30484    30048    29296    28349    27278    26283 
   25644    25604    26193    27061    28083    29542    31226    32445 
   32963    33028    32771    32237    31621    31105    30736    30471 
   30188    29830    29574    29609    29826    30011    30217    30507 
   30764    30895    30724    30235    29742    29290    28785    28520 
   28736    29276    29857    30275    30512    30700    30746    30453 
   29942    29473    29167    28982    28804    28724    28965    29448 
   29900    30218    30472    30710    30777    30574    30269    29937 
   29589    29322    29058    28718    28529    28641    28941    29411 
   30053    30672    31095    31357    31573    31767    31822    31610 
   31148    30567    29866    29031    28236    27510    26655    25783 
   25327    25375    25617    26039    26816    27821    28957    30228 
   31439    32425    33141    33468    33373    33031    32492    31597 
   30522    29655    28913    28201    27884    28047    28329    28652 
   29121    29606    30005    30372    30678    30840    30852    30801 
   30803    30878    30946    31056    31383    31879    32234    32249 
   31988    31569    31021    30338    29509    28603    27754    27019 
   26552    26518    26756    27157    27934    29004    30070    31203 
   32378    33260    33849    34309    34534    34415    34021    33398 
   32533    31489    30441    29525    28716    28092    27912    28196 
   28813    29707    30718    31755    32868    33914    34700    35195 
   35362    35131    34468    33423    32155    30774    29406    28297 
   27606    27451    27942    28984    30434    32177    33958    35468 
   36387    36585    36306    35690    34636    33161    31389    29541 
   27828    26225    24913    24309    24341    24692    25414    26583 
   28033    29677    31369    32716    33647    34322    34485    34009 
   33198    32160    30849    29398    28104    27288    26887    26612 
   26544    26882    27484    28233    29100    29837    30398    30981 
   31448    31593    31622    31803    32032    32063    31769    31161 
   30376    29445    28365    27396    26845    26887    27504    28521 
   29848    31386    32891    34083    34875    35305    35146    34213 
   32756    31093    29361    27585    26098    25500    25707    26221 
   26862    27804    29663    31841    32763    32959    33871    35227 
   35726    34717    33288    32687    32268    30981    28476    25634 
   24442    24316    23285    22384    23251    25277    27246    28999 
   31047    33837    36582    36954    34809    33679    34606    34002 
   30802    27665    25825    24947    24719    25409    27516    29580 
   29350    28044    28531    30302    31738    33518    36020    37901 
   38289    38610    40029    38994    32877    27215    26000    24832 
   22625    24185    29187    32801    33782    34320    35988    38132 
   37216    30943    24143    22530    24315    25233    25439    27356 
   31150    33508    31842    30572    33473    34692    32602    35345 
   41663    42443    39043    35904    32591    29119    23392    16204 
   12844    12560    14617    21856    29827    33273    35853    38546 
   38513    40680    46847    48500    41142    26841    14297    15325 
   22476    22670    23337    25748    23452    25776    28621    15431 
    1360    10698    33139    46212    47435    42490    34599    30902 
   32264    30199    24273    20761    22608    28933    34324    34764 
   30508    22228    14569    13372    17076    21295    25720    31517 
   37313    38452    31225    21113    20737    32409    42514    39729 
   28643    25151    35207    42233    34708    22196    13572    10593 
   15786    27446    32860    26153    22199    27621    32412    35369 
   36455    30547    26924    35697    49054    56342    49913    32029 
   17720     9520     3503     5833    15278    21926    22140    20800 
   22589    26657    35119    47798    52461    41717    27888    27884 
   38857    46240    44726    31659    10923      339     3213     5027 
    2409     1718     8682    23704    35846    42735    54626    62330 
   52515    39867    39285    46850    57319    67610    69991    57578 
   37630    22140    11235     4187     3743     6718    12557    26626 
   43938    49431    38829    21118     2407    -9669     2546    36759 
   56134    42648    25173    26460    36852    44735    41071    22594 
   14026    33883    50552    28972    -6506    -3495    40386    67821 
   46395    19555    19650    17739    13490    32484    44649    34348 
   44306    66775    56455    30117    11665   -11643   -17974    13257 
   34685    27170    30118    36792    20756     6403    12675    24401 
   37091    49217    41965    23016    21906    29369    28475    29880 
   27819    11110     1289    19152    47736    57363    47145    35075 
   36056    56003    76805    74169    50626    26100    11152      -89 
  -13309   -20932   -14349    -3115      607    11610    39197    59274 
   63756    67162    64456    49054    35367    31980    28649    14990 
   -8649   -27845   -24290    -2581    20202    42180    61103    69289 
   75045    78883    62133    33119    17356    13203    10949     9894 
    8245     7214     9939    19508    38299    52686    43220    25456 
   27326    34785    27201    14489     8998    15496    29258    36103 
   36477    39187    43209    47767    48581    43671    43661    43058 
   29463    12492    -2737   -19728   -24182    -6122    14909    22455 
   27548    41330    59830    76378    85335    82725    70592    55228 
   37800    16920    -1251   -12969   -21052   -23027   -13740     4678 
   25272    44297    58994    66677    65102    50722    29982    16069 
   11327    11280    14007    18021    20861    24572    35104    48363 
   53984    56134    61647    60701    47052    29722    13243    -2417 
  -13275   -19510   -18309    -3691    15632    29153    40552    53780 
   62798    62554    58975    57460    53965    43812    30764    22680 
   16923     8249     4790    11537    17744    16268    14503    18072 
   22039    21752    18053    15862    21622    34152    43468    47963 
   58019    70275    70194    61503    54342    45576    34385    26014 
   15158    -2207   -14354   -16443   -14244    -6022     9036    24933 
   38760    51739    63168    69076    69172    68499    67274    57636 
   38297    21497    14533    10876     4324    -1872    -1552     4607 
   13372    21565    25671    30682    39734    47328    54495    61704 
   61656    52293    37669    26557    27181    31645    28519    23439 
   23601    24897    25069    23869    18123    12657    14046    18086 
   20633    22959    26364    31434    36315    38198    37875    38908 
   41029    39251    31822    21441    12940    10027    11159    14573 
   19587    23980    26589    28586    33526    42082    48290    47896 
   41953    31645    22115    21075    23992    21366    16756    18013 
   24434    28999    26954    24237    27353    28593    23135    21954 
   27756    32894    38470    40540    31894    24835    29109    33811 
   32331    30008    28446    25416    22940    22292    19509    15027 
   14356    16745    19182    23495    28805    32265    35531    38993 
   41375    42491    39856    35786    34886    31384    22506    15748 
   14473    16469    17214    14713    14683    18610    21088    24628 
   32897    37926    35268    33274    37208    40003    35506    30546 
   30764    30520    26432    21798    18769    16213    13899    13811 
   16551    21823    28404    32368    32294    31440    31013    30565 
   31507    33119    32192    27934    25571    27749    27079    22896 
   22664    22813    19011    17022    18545    21738    27714    34228 
   38291    40018    38757    35027    30757    26360    22955    20578 
   17161    15619    21040    29423    32154    29457    26884    25788 
   27766    33858    37459    34392    30343    28280    24173    17334 
   11781    10899    15461    22241    28105    34093    40231    44135 
   44729    41828    35734    29309    26196    24366    20577    17444 
   16592    17297    20223    23708    25775    28429    32525    36126 
   38265    38815    39134    38738    34995    30722    28694    26678 
   23949    22193    23623    26792    27763    28908    32628    34334 
   31786    28619    27591    27483    25616    22638    22025    22689 
   21923    23333    28206    32153    34916    37119    37231    36642 
   35275    30924    26704    26453    27406    26517    24930    23203 
   20988    20560    23365    25433    25530    27198    28990    30253 
   33187    33541    30066    30159    34810    37416    36626    34440 
   31413    30120    30313    27217    22615    22633    25584    27787 
   30204    31097    30269    32388    34558    31626    28826    31733 
   35963    35571    32185    28339    24219    24512    28979    28525 
   25095    27437    32067    34643    36992    36223    32608    32488 
   32377    27453    24516    25752    25323    25021    29276    33752 
   34469    34754    35634    36026    37675    37989    33918    29787 
   27098    22155    17371    16949    18383    19726    22942    28137 
   32356    33704    35448    40377    44395    43378    38603    34054 
   32318    30759    25594    19316    16410    15884    15849    17451 
   19889    21056    22014    24062    25657    27035    31413    37202 
   39634    39943    41260    43071    43660    40450    33705    28046 
   24220    19671    15705    12957     9703     9059    13688    18703 
   21219    25482    32241    37421    41656    46288    48073    46297 
   43614    40552    36251    31068    26114    22618    21130    20117 
   18584    18181    19032    19938    22182    25704    28186    30214 
   33065    35202    36186    37735    39247    39865    41038    41059 
   37870    34670    32472    28933    25654    24435    23429    22426 
   22752    24003    25643    27108    28688    31358    33953    35890 
   36970    36514    36736    37523    35126    30979    29052    28446 
   26975    24495    22584    24368    28655    30237    29163    28192 
   27808    29194    31363    31782    32695    36338    39981    40522 
   37910    34059    30385    27027    24440    23339    23230    23231 
   23120    23620    25301    26266    25986    27835    32182    36013 
   38471    39355    38472    36883    33926    27586    20324    17687 
   19563    21386    21408    21208    23516    27649    29559    29604 
   31008    32667    32784    33574    35808    35733    30928    24707 
   21952    21895    21089    20635    21953    22413    21228    21303 
   23989    26978    27185    25766    26177    27337    26174    23446 
   22425    24595    27783    28802    27653    26992    27418    26793 
   24689    23415    23738    23656    22733    23150    24664    24986 
   25000    25814    26550    28015    30369    31491    30457    28085 
   25817    24992    25584    25278    22596    20328    21129    23982 
   26129    25560    24802    27029    29931    30992    29751    26349 
   24319    25468    26202    24960    23804    24054    25145    25332 
   25080    26900    29308    28969    27157    25431    22785    20872 
   21271    22236    23613    25137    24408    22763    23252    24968 
   25937    25801    25580    27108    30375    33296    33878    31009 
