Origin Time       2011/03/11 14:46:00
Lat.              38.103
Long.             142.860
Depth. (km)       24
Mag.              9.0
Station Code      GIF007
Station Lat.      36.0378
Station Long.     137.4854
Station Height(m) 994
Record Time       2011/03/11 14:47:52
Sampling Freq(Hz) 100Hz
Duration Time(s)  215
Dir.              N-S
Scale Factor      3920(gal)/6182761
Max. Acc. (gal)   36.947
Last Correction   2011/03/11 14:47:37
Memo.             
[...]
  -69814   -69735   -69317   -68594   -67619   -66397   -65033   -63733 
  -62697   -62155   -62224   -62796   -63678   -64705   -65740   -66713 
  -67541   -67918   -67609   -66845   -66019   -65388   -65042   -64881 
  -64830   -64893   -65039   -65291   -65668   -66104   -66536   -66885 
  -67070   -67119   -67122   -67099   -66978   -66704   -66246   -65572 
  -64798   -64088   -63464   -62868   -62233   -61541   -60909   -60524 
  -60521   -60891   -61505   -62253   -63052   -63796   -64411   -64850 
  -65053   -64983   -64614   -63921   -62947   -61767   -60458   -59159 
  -58067   -57374   -57304   -58028   -59477   -61340   -63251   -64956 
  -66356   -67433   -68162   -68466   -68229   -67414   -66111   -64501 
  -62851   -61428   -60360   -59670   -59338   -59308   -59583   -60179 
  -60883   -61314   -61254   -60821   -60410   -60453   -61207   -62653 
  -64468   -66147   -67267   -67625   -67220   -66259   -65163   -64329 
  -63868   -63673   -63631   -63694   -63806   -63854   -63744   -63471 
  -63151   -63036   -63382   -64215   -65317   -66455   -67437   -68142 
  -68615   -68850   -68709   -68263   -67717   -67210   -66865   -66633 
  -66313   -65832   -65258   -64662   -64048   -63474   -63073   -62894 
  -63016   -63491   -64220   -65193   -66351   -67478   -68431   -69095 
  -69359   -69294   -69177   -69082   -68583   -67368   -65614   -63627 
  -61753   -60337   -59472   -58984   -58828   -59271   -60521   -62491 
  -64812   -66979   -68705   -69956   -70677   -70858   -70585   -69839 
  -68582   -66903   -64886   -62747   -60862   -59433   -58468   -57933 
  -57931   -58738   -60449   -62938   -65874   -68568   -70474   -71529 
  -71975   -72182   -72116   -71362   -69844   -67938   -66084   -64482 
  -63115   -61970   -61129   -60775   -61074   -62163   -63948   -65933 
  -67726   -69185   -70275   -71203   -72047   -72528   -72260   -71225 
  -69953   -68821   -67805   -66807   -65636   -64161   -62533   -61251 
  -60897   -61549   -62979   -65112   -67830   -70713   -73112   -74664 
  -75373   -75017   -73561   -71564   -69382   -67058   -64906   -63250 
  -62166   -61674   -61747   -62247   -63013   -64005   -65370   -67344 
  -69932   -72763   -75229   -76607   -76550   -75474   -74007   -72318 
  -70166   -67516   -64940   -63237   -63027   -64445   -66633   -68101 
  -68297   -67880   -67315   -66788   -66679   -66838   -66717   -66411 
  -66511   -67222   -68102   -68575   -68572   -68337   -68191   -68657 
  -69615   -70251   -70305   -69927   -69327   -68876   -68604   -68299 
  -67822   -67208   -66770   -66692   -67094   -68042   -68958   -69284 
  -69129   -68626   -67892   -67088   -66127   -65101   -64393   -64161 
  -64421   -65205   -66335   -67612   -68880   -69821   -70417   -70857 
  -70909   -70460   -69847   -69264   -68788   -68487   -68131   -67518 
  -66780   -66080   -65596   -65464   -65449   -65328   -65179   -64999 
  -64812   -64821   -65165   -65797   -66499   -67099   -67490   -67457 
  -67028   -66442   -65729   -64913   -64068   -63296   -62783   -62457 
  -62200   -62113   -62204   -62528   -63289   -64469   -65787   -66888 
  -67499   -67596   -67340   -66872   -66246   -65326   -64016   -62624 
  -61528   -60873   -60658   -60814   -61297   -62157   -63445   -65063 
  -66824   -68456   -69627   -70154   -70029   -69438   -68661   -67790 
  -66835   -65890   -65102   -64717   -64927   -65583   -66338   -66907 
  -67217   -67365   -67314   -67034   -66690   -66311   -65780   -65091 
  -64354   -63666   -63000   -62343   -61731   -61002   -60166   -59654 
  -59788   -60632   -62128   -63973   -65797   -67463   -68895   -69906 
  -70418   -70357   -69698   -68783   -67753   -66451   -65088   -63990 
  -63283   -62977   -62871   -62845   -63027   -63553   -64709   -66597 
  -68622   -70262   -71386   -71768   -71503   -70887   -69741   -68016 
  -66108   -64240   -62583   -61453   -60926   -60768   -60634   -60235 
  -59590   -59137   -59297   -59966   -60928   -62363   -64211   -65930 
  -67273   -68524   -70015   -71541   -72401   -72311   -71534   -70259 
  -68630   -66862   -65116   -63438   -61861   -60616   -59840   -59436 
  -59527   -60381   -62026   -64187   -66445   -68464   -70193   -71908 
  -73779   -75370   -76007   -75480   -74028   -72117   -70153   -67913 
  -65030   -61792   -58814   -56872   -56447   -56985   -57763   -58899 
  -61072   -64407   -67802   -70174   -71541   -72480   -73228   -73392 
  -72772   -71710   -70495   -69222   -67836   -66402   -65214   -64253 
  -63170   -61794   -60647   -60581   -61524   -62730   -63946   -65234 
  -66333   -67088   -67927   -69050   -69886   -69919   -69550   -69728 
  -70546   -71156   -71230   -71209   -71262   -70945   -70038   -68933 
  -67756   -66334   -64951   -63852   -62839   -62025   -61699   -61800 
  -62455   -63789   -65453   -67066   -68066   -67973   -67398   -67427 
  -68410   -69642   -69832   -68546   -66503   -64591   -63813   -64642 
  -66113   -66773   -66149   -65375   -66107   -68461   -70949   -72167 
  -71607   -69599   -67168   -65420   -64538   -63678   -62545   -61861 
  -61987   -62991   -64907   -66961   -68080   -68074   -67850   -68262 
  -69186   -70174   -70593   -69736   -67798   -65765   -64408   -63789 
  -63574   -63466   -63248   -63256   -64127   -65561   -66887   -68027 
  -69001   -69848   -70506   -70769   -71005   -71459   -71464   -70525 
  -68796   -66618   -64558   -62934   -61368   -59849   -59094   -59394 
  -60382   -61662   -63004   -64422   -66214   -68401   -70467   -72076 
  -73141   -73372   -72629   -71072   -68914   -66509   -64192   -62124 
  -60466   -59208   -58294   -58042   -58682   -60098   -62156   -64580 
  -67108   -69616   -71579   -72547   -72864   -72887   -72507   -71685 
  -70668   -69726   -68715   -67277   -65692   -64579   -64002   -63565 
  -62967   -62354   -62225   -62986   -64649   -66667   -68442   -70075 
  -71723   -72866   -73197   -72957   -72208   -71077   -69885   -68600 
  -67186   -65986   -65094   -64221   -63378   -62934   -63049   -63494 
  -64115   -65003   -66021   -66883   -67565   -68135   -68563   -68737 
  -68492   -67730   -66592   -65549   -65001   -64786   -64537   -64168 
  -63736   -63363   -63336   -63817   -64463   -64764   -64624   -64254 
  -63888   -63684   -63554   -63333   -63064   -62965   -63312   -64233 
  -65498   -66787   -68042   -69193   -70028   -70625   -71095   -71123 
  -70529   -69559   -68383   -67077   -65836   -64849   -64162   -63605 
  -63128   -63063   -63633   -64751   -66265   -67799   -68837   -69310 
  -69560   -69779   -69809   -69501   -68965   -68309   -67625   -67161 
  -67124   -67513   -68101   -68611   -68990   -69352   -69698   -69757 
  -69299   -68525   -67654   -66559   -65290   -64216   -63487   -63021 
  -62866   -63100   -63652   -64534   -65902   -67639   -69216   -70175 
  -70497   -70457   -70294   -70004   -69408   -68418   -67049   -65384 
  -63749   -62607   -62160   -62361   -63109   -64255   -65621   -67033 
  -68365   -69498   -70151   -70218   -69991   -69682   -69384   -69109 
  -68690   -68040   -67138   -66024   -64900   -63844   -62924   -62359 
  -62171   -62263   -62725   -63641   -64829   -65978   -66967   -67823 
  -68450   -68801   -69074   -69377   -69608   -69610   -69242   -68523 
  -67620   -66660   -65633   -64584   -63755   -63217   -62848   -62821 
  -63313   -64161   -65240   -66603   -68217   -69755   -70796   -71304 
  -71566   -71594   -71165   -70297   -68998   -67096   -64769   -62533 
  -60800   -59724   -59289   -59598   -60813   -62822   -65329   -68088 
  -70774   -72859   -74055   -74490   -74327   -73699   -72516   -70466 
  -67764   -65055   -62787   -61245   -60399   -60094   -60502   -61750 
  -63711   -66170   -68865   -71437   -73407   -74572   -75143   -75236 
  -74732   -73472   -71476   -69113   -66878   -65137   -64093   -63735 
  -63763   -63781   -63726   -63806   -64145   -64811   -65858   -67172 
  -68549   -69751   -70431   -70462   -70054   -69202   -67901   -66442 
  -64950   -63710   -63187   -63288   -63748   -64580   -65736   -67012 
  -68172   -68948   -69190   -69026   -68464   -67405   -66150   -65155 
  -64696   -65067   -66315   -67863   -69089   -69854   -70117   -69845 
  -69275   -68489   -67181   -65396   -63757   -62801   -62744   -63336 
  -64023   -64719   -65500   -66109   -66634   -67352   -68026   -68451 
  -68785   -69139   -69523   -69722   -69520   -69256   -69133   -68773 
  -68167   -67575   -66835   -65968   -65291   -64775   -64285   -63957 
  -63995   -64371   -64805   -65091   -65202   -65264   -65451   -65721 
  -65998   -66263   -66401   -66545   -66932   -67360   -67548   -67458 
  -67142   -66656   -66050   -65410   -64708   -63869   -63097   -62549 
  -62099   -61829   -61933   -62301   -62926   -63887   -64999   -66133 
  -67210   -68081   -68670   -68829   -68599   -68235   -67617   -66523 
  -65065   -63389   -61684   -60408   -59928   -60183   -60972   -62314 
  -64211   -66374   -68441   -70155   -71303   -71727   -71488   -70891 
  -70131   -69112   -67709   -65980   -64173   -62622   -61531   -60885 
  -60566   -60464   -60602   -61122   -62074   -63366   -64773   -66001 
  -66969   -67753   -68318   -68553   -68337   -67653   -66730   -65799 
  -64872   -64024   -63429   -63024   -62783   -62934   -63466   -64119 
  -64652   -64879   -64874   -64819   -64742   -64691   -64683   -64550 
  -64232   -63922   -63714   -63522   -63317   -63079   -62856   -62809 
  -63001   -63392   -63934   -64684   -65735   -66857   -67657   -67994 
  -67849   -67279   -66542   -65722   -64650   -63360   -62089   -61093 
  -60628   -60699   -61111   -61757   -62527   -63314   -64210   -65307 
  -66473   -67514   -68383   -69008   -69219   -69135   -68958   -68391 
  -67125   -65399   -63603   -62041   -60931   -60318   -60176   -60444 
  -61091   -62247   -63914   -65698   -67249   -68513   -69414   -69837 
  -69764   -69230   -68346   -67267   -66112   -64997   -64002   -63066 
  -62204   -61560   -60988   -60347   -59962   -60077   -60629   -61585 
  -62856   -64203   -65373   -66292   -67116   -67899   -68429   -68504 
  -68040   -67055   -65732   -64279   -62884   -61891   -61441   -61223 
  -61118   -61321   -61839   -62643   -63796   -65121   -66347   -67413 
  -68269   -68830   -69082   -68871   -67981   -66420   -64390   -62281 
  -60505   -59130   -58121   -57694   -58019   -59050   -60626   -62389 
  -64013   -65448   -66718   -67788   -68696   -69469   -69909   -69816 
  -69189   -68114   -66777   -65381   -64030   -62780   -61676   -60800 
  -60285   -60396   -61225   -62444   -63861   -65442   -67056   -68635 
  -69812   -70153   -69665   -68586   -67336   -66318   -65699   -65277 
  -64826   -64652   -64662   -64509   -64435   -64333   -64072   -63979 
  -64423   -65682   -66622   -66094   -65207   -65459   -66783   -67272 
  -65763   -64577   -65614   -66918   -66242   -64498   -64684   -67725 
  -70761   -71606   -70912   -69465   -68389   -69303   -71247   -71605 
  -70046   -68294   -67792   -68956   -71089   -72960   -73890   -73178 
  -70379   -67891   -67679   -66628   -63132   -61893   -64147   -63681 
  -60018   -61121   -67696   -71608   -69483   -65500   -65009   -67798 
  -68312   -65852   -64744   -65745   -67600   -70272   -72928   -71729 
  -64296   -56180   -52755   -53770   -60036   -70127   -76775   -75572 
  -71349   -71386   -76235   -81829   -82044   -74068   -67179   -70506 
  -77812   -78101   -71429   -65668   -63920   -63874   -63068   -60260 
  -58403   -59714   -61659   -64756   -68500   -69196   -69365   -69892 
  -68335   -69583   -74529   -75032   -71464   -71517   -70330   -59316 
  -52645   -64315   -78159   -79974   -75026   -65616   -53284   -45610 
  -48011   -58158   -68035   -72973   -71395   -66352   -65950   -68973 
  -71835   -76508   -78853   -77304   -76275   -72857   -66034   -63208 
  -63831   -60302   -58600   -68122   -77195   -75360   -71408   -64949 
  -51021   -43711   -51258   -64160   -77945   -91819   -99195   -96270 
  -84541   -66276   -48371   -40885   -44524   -52593   -61891   -68003 
  -66215   -60835   -57388   -58942   -68608   -78800   -79742   -77503 
  -78576   -79947   -83160   -88176   -84041   -66640   -48243   -39898 
  -42306   -53168   -65267   -68869   -63461   -56603   -55494   -60326 
  -69121   -83658   -97181   -97665   -88980   -83821   -83843   -82750 
  -75900   -61002   -43848   -37107   -39163   -39821   -43523   -50841 
  -52765   -57953   -74402   -85861   -83453   -80650   -82644   -82556 
  -83225   -86017   -84540   -82072   -79059   -67566   -53181   -45772 
  -43221   -44193   -48247   -48216   -49125   -62519   -76383   -76042 
  -71556   -72052   -69021   -62601   -66940   -79417   -83783   -76456 
  -63995   -56539   -58772   -60753   -59141   -62275   -65977   -65498 
  -71934   -81949   -73572   -47197   -27791   -32328   -55399   -81009 
 -104377  -120883  -109461   -67926   -29226   -19887   -39120   -72055 
  -94400   -82898   -48079   -28793   -39929   -64081   -86083  -104520 
 -120030  -121617   -98379   -65904   -47620   -39970   -33112   -39880 
  -62361   -71205   -58632   -49447   -50276   -53526   -56647   -55043 
  -56900   -72968   -90438   -96635   -95547   -88361   -73853   -66556 
  -78418   -90379   -84116   -71534   -64436   -56650   -44373   -43740 
  -67109   -89900   -86913   -71619   -59230   -47507   -44382   -51697 
  -48430   -31824   -25354   -43420   -78198  -102234  -100375   -95375 
 -103579  -111073  -111447  -107937   -92972   -65125   -40412   -31220 
  -30543   -23747   -11003    -8190   -24925   -52362   -78025   -97988 
 -106086  -100399   -95125   -96994   -98919   -97843   -90983   -74570 
  -50976   -27039   -11960   -14767   -33799   -51922   -57841   -57586 
  -61560   -76452   -96707  -111341  -117795  -111717   -92135   -75322 
  -69526   -61276   -45122   -31600   -26803   -27464   -29741   -34876 
  -42661   -51050   -63002   -78943   -94319  -105087  -110377  -112759 
 -108892   -92950   -70705   -53333   -44573   -39307   -34171   -35458 
  -43821   -47476   -47100   -56323   -72307   -82595   -85613   -83767 
  -79400   -75498   -73954   -74175   -70401   -62940   -59509   -60028 
  -63887   -74331   -81339   -70970   -51046   -41364   -46625   -54877 
  -56654   -56962   -64371   -75502   -81907   -82830   -81907   -76879 
  -63946   -53734   -58244   -67228   -66925   -62470   -63365   -67310 
  -69462   -73383   -78425   -74624   -61420   -50313   -48945   -55626 
  -65123   -72042   -72303   -69641   -72675   -79353   -80113   -74985 
  -69515   -64578   -61812   -65066   -70302   -69485   -67161   -69182 
  -68219   -63471   -61426   -59591   -57875   -61424   -69153   -77224 
  -81599   -79547   -77213   -79409   -78975   -75484   -77673   -78216 
  -65628   -49114   -39918   -37853   -43189   -55375   -66974   -70545 
  -68423   -68875   -73882   -78972   -81414   -81094   -77418   -72277 
  -71288   -75679   -78305   -73870   -64894   -54076   -44433   -42686 
  -49686   -57185   -58042   -54004   -55311   -67437   -80994   -85288 
  -80433   -70708   -60020   -54320   -57486   -66277   -75822   -83114 
  -84107   -78212   -71855   -69450   -67527   -62547   -56469   -51419 
  -48609   -51624   -60098   -66486   -66743   -65012   -64981   -67174 
  -70766   -71713   -69480   -68588   -70063   -74420   -80831   -82438 
  -77642   -71227   -63267   -55458   -53565   -55041   -53459   -51123 
  -54932   -64618   -72075   -74097   -74393   -73303   -71296   -71589 
  -72357   -70791   -68288   -66263   -63493   -59093   -57621   -62287 
  -67355   -67795   -66008   -64729   -62954   -62126   -66597   -72963 
  -73577   -70974   -70299   -67959   -62931   -60783   -62298   -63582 
  -62305   -59203   -57553   -59562   -66629   -76678   -79291   -72221 
  -67677   -69777   -72751   -72689   -66235   -55722   -49181   -49616 
  -56860   -67055   -70239   -65805   -63373   -65147   -68400   -72484 
  -74893   -73255   -68160   -63046   -62287   -64648   -65468   -64822 
  -64725   -64068   -61707   -61397   -65920   -68336   -65110   -64527 
  -68277   -69562   -69305   -70157   -66900   -59740   -57518   -60207 
  -60655   -60442   -64301   -68829   -69844   -68953   -67025   -62730 
  -57893   -56936   -61012   -65905   -68299   -68812   -67588   -65249 
  -63747   -62680   -62585   -66197   -70605   -69756   -65850   -64965 
  -66690   -68014   -66624   -60775   -53893   -50946   -52223   -56011 
  -60562   -63927   -66062   -68573   -70480   -69889   -68912   -67904 
  -64156   -60237   -59886   -62144   -66294   -70905   -71231   -65628 
  -57261   -51705   -54248   -62293   -69126   -73002   -73747   -71745 
  -70367   -71333   -71737   -68683   -63295   -58104   -55422   -56994 
  -60521   -62640   -63587   -64165   -64660   -66254   -69149   -71080 
  -69617   -66089   -64819   -66758   -68464   -68900   -69115   -67367 
  -64307   -64995   -69101   -70838   -69251   -67373   -66065   -65986 
  -67952   -69659   -68445   -65234   -63108   -64164   -67803   -70362 
  -69219   -66384   -63906   -63015   -65789   -70141   -71681   -70452 
  -70258   -72864   -74983   -75203   -75647   -74222   -68842   -62461 
  -57821   -55767   -55262   -55258   -56783   -59422   -63042   -69305 
  -76232   -79319   -77010   -72922   -72062   -73545   -74383   -74576 
  -73023   -69563   -65951   -61633   -57144   -54233   -53239   -55783 
  -61158   -65582   -68682   -71343   -73650   -75791   -75427   -71743 
  -68196   -66737   -66422   -65385   -62843   -61083   -62265   -65847 
  -69615   -71211   -71018   -70593   -70098   -69819   -68894   -66504 
  -64294   -62759   -61648   -62172   -63454   -63327   -63346   -66431 
  -71013   -73301   -72881   -71479   -70442   -69934   -68606   -66121 
  -63684   -62657   -62865   -62446   -62399   -64713   -67231   -68298 
  -68639   -67541   -65187   -63367   -63052   -65578   -70152   -72665 
  -72242   -71299   -70926   -71958   -74115   -75194   -74772   -73510 
  -70948   -67528   -64944   -63954   -62961   -60659   -59654   -61870 
  -65352   -69401   -74188   -77002   -77078   -78248   -80750   -80809 
  -78776   -76348   -72696   -67957   -63541   -61453   -63088   -66596 
  -68720   -67891   -65263   -63283   -63037   -64712   -68065   -71504 
  -73839   -75919   -77912   -78632   -79101   -79702   -78090   -75015 
  -71984   -67665   -63346   -61700   -61765   -60792   -57685   -54305 
  -53879   -57130   -61165   -64254   -67825   -72886   -79648   -86818 
  -90081   -86653   -78309   -68940   -62775   -60973   -60349   -59525 
  -58965   -57426   -56208   -57830   -61036   -63390   -63249   -61703 
  -62141   -64230   -66479   -70077   -73873   -75129   -74030   -72301 
  -71393   -70967   -69049   -65813   -62511   -58644   -55244   -54542 
  -56055   -58481   -61527   -65487   -70576   -75013   -77590   -79748 
  -80666   -77769   -72906   -69759   -68202   -67105   -66324   -64798 
  -63132   -62867   -63387   -65002   -67394   -67711   -67058   -69188 
  -73122   -76018   -77183   -76062   -72446   -67676   -64155   -63146 
  -63573   -65612   -69441   -72045   -72719   -73288   -72454   -69278 
  -66072   -64924   -65902   -66626   -66001   -66407   -67664   -67848 
  -68445   -69917   -70129   -69755   -71157   -72929   -71916   -69462 
  -68074   -66032   -63392   -63214   -64430   -64733   -65172   -66750 
  -68825   -70398   -71172   -72035   -73401   -74449   -74826   -74249 
