Origin Time       2011/03/11 14:46:00
Lat.              38.103
Long.             142.860
Depth. (km)       24
Mag.              9.0
Station Code      GIF006
Station Lat.      36.0334
Station Long.     136.9533
Station Height(m) 799
Record Time       2011/03/11 14:49:12
Sampling Freq(Hz) 100Hz
Duration Time(s)  135
Dir.              E-W
Scale Factor      3920(gal)/6182761
Max. Acc. (gal)   4.829
Last Correction   2011/03/11 14:48:57
Memo.             
[...]
   -9424    -9310    -9265    -9291    -9374    -9508    -9690    -9907 
  -10139   -10366   -10584   -10791   -10985   -11183   -11402   -11640 
  -11886   -12137   -12390   -12641   -12875   -13061   -13183   -13242 
  -13236   -13182   -13102   -13000   -12885   -12759   -12608   -12432 
  -12243   -12052   -11850   -11626   -11377   -11099   -10793   -10473 
  -10143    -9809    -9485    -9190    -8948    -8778    -8690    -8684 
   -8758    -8920    -9167    -9476    -9834   -10227   -10645   -11076 
  -11494   -11887   -12243   -12543   -12769   -12900   -12927   -12869 
  -12737   -12540   -12301   -12043   -11765   -11459   -11158   -10901 
  -10690   -10540   -10477   -10495   -10586   -10750   -10967   -11200 
  -11434   -11656   -11851   -12019   -12151   -12228   -12258   -12255 
  -12219   -12148   -12036   -11888   -11730   -11578   -11424   -11290 
  -11201   -11155   -11134   -11149   -11221   -11344   -11496   -11663 
  -11827   -11971   -12087   -12175   -12231   -12241   -12202   -12113 
  -11971   -11784   -11564   -11334   -11116   -10921   -10746   -10593 
  -10472   -10394   -10368   -10388   -10444   -10544   -10700   -10905 
  -11145   -11391   -11613   -11792   -11921   -11993   -12011   -11994 
  -11951   -11882   -11783   -11663   -11540   -11427   -11330   -11254 
  -11207   -11180   -11160   -11159   -11194   -11277   -11400   -11529 
  -11636   -11711   -11735   -11703   -11630   -11517   -11352   -11136 
  -10889   -10634   -10388   -10173   -10010    -9906    -9857    -9862 
   -9928   -10050   -10194   -10331   -10462   -10579   -10651   -10690 
  -10724   -10746   -10748   -10731   -10691   -10637   -10574   -10489 
  -10367   -10208   -10016    -9800    -9584    -9393    -9237    -9109 
   -9009    -8956    -8960    -9010    -9091    -9188    -9285    -9374 
   -9455    -9531    -9602    -9660    -9705    -9743    -9781    -9815 
   -9844    -9880    -9935   -10009   -10096   -10183   -10248   -10282 
  -10289   -10272   -10251   -10247   -10262   -10293   -10337   -10392 
  -10459   -10534   -10623   -10725   -10826   -10905   -10937   -10902 
  -10798   -10634   -10426   -10201    -9986    -9795    -9630    -9485 
   -9369    -9295    -9269    -9290    -9346    -9414    -9482    -9552 
   -9626    -9698    -9753    -9772    -9738    -9659    -9560    -9457 
   -9363    -9292    -9242    -9202    -9164    -9126    -9097    -9083 
   -9077    -9079    -9098    -9132    -9175    -9226    -9274    -9306 
   -9320    -9307    -9253    -9169    -9078    -8983    -8886    -8797 
   -8723    -8658    -8607    -8572    -8553    -8563    -8624    -8737 
   -8889    -9068    -9261    -9455    -9649    -9850   -10060   -10275 
  -10490   -10689   -10858   -10996   -11108   -11191   -11247   -11286 
  -11322   -11367   -11432   -11535   -11674   -11832   -11992   -12125 
  -12202   -12211   -12155   -12033   -11846   -11605   -11323   -11016 
  -10705   -10417   -10163    -9947    -9781    -9678    -9637    -9655 
   -9713    -9798    -9912   -10044   -10175   -10291   -10390   -10462 
  -10498   -10502   -10478   -10428   -10345   -10218   -10044    -9830 
   -9597    -9356    -9113    -8886    -8693    -8555    -8489    -8486 
   -8528    -8601    -8690    -8793    -8911    -9036    -9155    -9255 
   -9321    -9346    -9346    -9347    -9354    -9371    -9416    -9509 
   -9653    -9844   -10072   -10311   -10535   -10734   -10903   -11046 
  -11177   -11294   -11390   -11468   -11539   -11612   -11687   -11762 
  -11837   -11906   -11958   -11991   -12002   -11992   -11961   -11900 
  -11810   -11710   -11610   -11520   -11454   -11399   -11348   -11311 
  -11286   -11263   -11246   -11235   -11221   -11201   -11175   -11142 
  -11089   -11010   -10897   -10739   -10526   -10265    -9967    -9648 
   -9328    -9025    -8746    -8497    -8273    -8074    -7911    -7802 
   -7747    -7745    -7797    -7904    -8061    -8258    -8476    -8688 
   -8870    -9022    -9147    -9264    -9393    -9537    -9705    -9903 
  -10114   -10320   -10506   -10655   -10764   -10846   -10903   -10938 
  -10953   -10942   -10901   -10854   -10830   -10838   -10869   -10903 
  -10935   -10978   -11032   -11088   -11130   -11149   -11155   -11158 
  -11156   -11160   -11182   -11217   -11239   -11224   -11158   -11035 
  -10860   -10661   -10465   -10280   -10104    -9935    -9775    -9631 
   -9504    -9404    -9354    -9358    -9397    -9459    -9544    -9658 
   -9793    -9923   -10047   -10164   -10264   -10349   -10410   -10428 
  -10412   -10366   -10279   -10167   -10051    -9921    -9781    -9643 
   -9507    -9373    -9262    -9198    -9188    -9227    -9300    -9385 
   -9490    -9620    -9748    -9857    -9957   -10032   -10075   -10112 
  -10160   -10219   -10286   -10354   -10427   -10514   -10607   -10686 
  -10750   -10795   -10819   -10821   -10805   -10795   -10797   -10792 
  -10774   -10749   -10711   -10665   -10612   -10557   -10508   -10466 
  -10437   -10431   -10437   -10430   -10395   -10336   -10272   -10210 
  -10147   -10111   -10134   -10197   -10272   -10357   -10448   -10552 
  -10661   -10748   -10810   -10846   -10840   -10796   -10730   -10651 
  -10556   -10433   -10279   -10101    -9889    -9660    -9429    -9189 
   -8966    -8791    -8647    -8531    -8455    -8398    -8350    -8327 
   -8338    -8393    -8493    -8624    -8781    -8959    -9142    -9311 
   -9448    -9539    -9587    -9595    -9577    -9552    -9520    -9494 
   -9483    -9490    -9536    -9631    -9766    -9927   -10099   -10265 
  -10410   -10529   -10627   -10710   -10777   -10827   -10863   -10889 
  -10900   -10884   -10847   -10790   -10691   -10543   -10376   -10205 
  -10014    -9813    -9623    -9442    -9272    -9141    -9051    -9006 
   -9012    -9046    -9082    -9109    -9116    -9094    -9060    -9028 
   -9001    -8978    -8948    -8890    -8809    -8740    -8703    -8710 
   -8774    -8883    -9033    -9234    -9482    -9756   -10043   -10318 
  -10569   -10805   -11024   -11203   -11308   -11341   -11328   -11268 
  -11171   -11082   -11023   -10991   -10988   -11009   -11045   -11089 
  -11133   -11180   -11234   -11273   -11279   -11267   -11250   -11224 
  -11187   -11146   -11112   -11087   -11068   -11063   -11081   -11109 
  -11133   -11163   -11186   -11171   -11122   -11046   -10949   -10842 
  -10726   -10612   -10512   -10432   -10392   -10388   -10411   -10458 
  -10498   -10507   -10484   -10424   -10341   -10255   -10166   -10072 
   -9976    -9864    -9732    -9589    -9427    -9247    -9069    -8905 
   -8753    -8615    -8497    -8393    -8287    -8204    -8166    -8147 
   -8133    -8130    -8149    -8202    -8298    -8442    -8635    -8840 
   -9029    -9229    -9449    -9649    -9811    -9938   -10021   -10080 
  -10137   -10196   -10270   -10328   -10328   -10302   -10305   -10338 
  -10399   -10536   -10740   -10888   -10948   -11047   -11253   -11493 
  -11662   -11735   -11745   -11716   -11661   -11588   -11464   -11237 
  -10954   -10797   -10867   -11048   -11175   -11137   -10932   -10738 
  -10750   -11056   -11564   -11892   -11705   -11126   -10528   -10227 
  -10340   -10671   -10857   -10612   -10045    -9716    -9976   -10615 
  -11127   -11006   -10282    -9517    -9197    -9480   -10059   -10378 
  -10128    -9405    -8757    -8717    -9251   -10015   -10483   -10252 
   -9648    -9277    -9212    -9224    -9252    -9097    -8611    -8358 
   -8666    -8858    -8438    -7727    -7208    -7084    -7355    -7997 
   -8747    -9086    -8900    -8936    -9804   -10690   -10618   -10120 
   -9914    -9916   -10033   -10192   -10431   -10862   -10954   -10372 
   -9780    -9745   -10038   -10276   -10518   -10883   -11078   -10797 
  -10050    -9286    -9093    -9336    -9354    -8817    -8016    -7484 
   -7133    -6677    -6602    -7261    -8125    -8533    -8445    -8616 
   -9515   -10432   -10647   -10402   -10174   -10031    -9898    -9908 
   -9994    -9600    -8554    -7533    -7254    -7852    -8623    -8746 
   -8605    -8735    -8788    -9047    -9894   -10585   -10752   -10512 
   -9684    -8877    -9022    -9695    -9904    -9505    -8992    -8918 
   -9270    -9297    -8834    -8745    -9201    -9366    -9031    -8785 
   -8945    -9423   -10103   -10915   -11574   -11535   -10823   -10288 
  -10259   -10207   -10198   -10593   -10860   -10783   -10864   -11082 
  -11219   -11312   -11430   -11695   -11757   -11304   -10885   -10737 
  -10597   -10541   -10415   -10026    -9566    -9127    -9100    -9720 
  -10187   -10074    -9966   -10094   -10192   -10461   -11128   -11549 
  -11305   -11040   -11059   -11163   -11581   -12096   -12020   -11567 
  -11115   -10548   -10228   -10393   -10668   -10915   -10846   -10193 
   -9507    -9210    -9185    -9237    -9203    -9250    -9422    -9434 
   -9483    -9783    -9976   -10004   -10330   -11056   -11693   -11913 
  -11923   -12060   -12375   -12660   -12877   -13100   -13038   -12538 
  -12015   -11829   -11914   -11795   -11251   -10886   -10881   -10647 
  -10334   -10354   -10388   -10299   -10100    -9561    -9036    -9001 
   -9354   -10040   -10679   -10396    -9483    -9130    -9197    -8980 
   -8828    -8834    -8431    -7804    -7648    -8221    -9149    -9738 
   -9891   -10218   -10839   -11316   -11650   -12018   -12246   -12307 
  -12400   -12455   -12249   -11600   -10639    -9930    -9611    -9280 
   -8824    -8285    -7596    -7040    -6960    -7066    -7026    -6987 
   -6927    -6529    -6026    -6305    -7363    -8082    -8090    -7874 
   -7881    -8381    -9074    -9543    -9981   -10391   -10482   -10488 
  -10651   -10608    -9937    -8975    -8575    -8738    -8837    -8857 
   -8741    -8195    -7584    -7271    -7064    -6920    -6998    -7308 
   -7700    -7819    -7426    -6970    -7111    -7560    -7631    -7453 
   -7396    -7464    -7583    -7578    -7533    -7813    -8171    -8064 
   -7691    -7595    -7907    -8526    -9293    -9810    -9782    -9445 
   -9363    -9777   -10377   -10706   -10581   -10330   -10365   -10519 
  -10540   -10568   -10733   -10888   -10813   -10720   -10858   -10864 
  -10696   -10817   -11039   -11000   -10820   -10520   -10181   -10121 
  -10310   -10481   -10457   -10199    -9939    -9913   -10104   -10349 
  -10434   -10447   -10660   -10826   -10663   -10359    -9945    -9556 
   -9713   -10178   -10259   -10044    -9894    -9883    -9930    -9903 
   -9841    -9690    -9415    -9325    -9367    -9248    -9099    -8975 
   -8907    -9015    -9077    -9146    -9510    -9842    -9809    -9602 
   -9379    -9101    -8988    -9407    -9997    -9997    -9563    -9348 
   -9331    -9337    -9537    -9805    -9863    -9632    -9206    -9141 
   -9616    -9845    -9402    -8844    -8864    -9358    -9713    -9870 
   -9949    -9709    -9174    -8816    -8819    -8889    -8982    -9159 
   -9290    -9567    -9968   -10043    -9873    -9717    -9380    -8900 
   -8672    -8710    -8783    -8914    -9147    -9350    -9511    -9732 
   -9952   -10205   -10619   -10963   -11051   -11045   -10974   -10760 
  -10534   -10535   -10727   -10791   -10634   -10409   -10146    -9767 
   -9331    -9088    -9029    -8786    -8324    -8069    -8244    -8579 
   -8880    -9334    -9883   -10224   -10415   -10551   -10498   -10356 
  -10458   -10767   -10822   -10427    -9838    -9333    -9076    -9099 
   -9277    -9357    -9086    -8603    -8276    -8148    -8058    -7885 
   -7685    -7648    -7660    -7671    -8053    -8732    -9145    -9165 
   -8955    -8602    -8416    -8668    -9029    -9173    -9318    -9547 
   -9660    -9794   -10164   -10595   -10867   -10912   -10816   -10933 
  -11251   -11288   -11140   -11185   -11234   -11048   -10770   -10642 
  -10737   -10758   -10435    -9974    -9489    -8943    -8630    -8556 
   -8418    -8224    -7952    -7712    -7868    -8274    -8614    -8926 
   -9062    -8914    -8913    -9306    -9752   -10027   -10250   -10411 
  -10384   -10245   -10185   -10268   -10526   -10817   -10743   -10310 
   -9940    -9735    -9620    -9628    -9602    -9441    -9345    -9285 
   -9091    -8965    -9042    -9129    -9133    -9040    -8939    -9167 
   -9591    -9676    -9630    -9820   -10003   -10036    -9915    -9722 
   -9815   -10139   -10333   -10434   -10525   -10512   -10431   -10491 
  -10862   -11343   -11610   -11692   -11668   -11492   -11393   -11561 
  -11780   -11865   -11775   -11493   -11227   -11177   -11164   -10986 
  -10774   -10556   -10163    -9775    -9638    -9548    -9326    -9094 
   -8837    -8515    -8317    -8235    -8208    -8426    -8698    -8579 
   -8196    -7978    -7966    -7953    -7950    -8044    -8147    -8277 
   -8562    -8971    -9363    -9612    -9797   -10127   -10500   -10587 
  -10361   -10105    -9945    -9775    -9625    -9551    -9450    -9309 
   -9077    -8672    -8309    -8170    -8201    -8381    -8593    -8644 
   -8599    -8654    -8806    -8921    -9091    -9492    -9960   -10270 
  -10529   -10805   -10891   -10616   -10134    -9823    -9772    -9712 
   -9554    -9295    -8849    -8447    -8481    -8991    -9681   -10237 
  -10605   -10921   -11334   -11880   -12353   -12581   -12598   -12438 
  -12114   -11678   -11255   -10998   -10892   -10834   -10797   -10654 
  -10250    -9676    -9078    -8526    -8146    -7885    -7575    -7356 
   -7256    -6999    -6735    -6772    -6910    -6902    -6846    -6991 
   -7436    -8064    -8789    -9585   -10362   -11140   -12112   -13287 
  -14176   -14417   -14403   -14502   -14408   -13669   -12064    -9781 
   -7494    -5824    -4768    -3911    -3131    -2676    -2805    -3576 
   -4544    -5281    -6089    -7189    -8159    -8757    -9227    -9756 
  -10245   -10645   -11179   -11811   -12030   -11666   -11122   -10757 
  -10691   -10863   -11197   -11620   -11862   -11915   -12203   -12749 
  -12775   -11605    -9744    -8159    -6973    -5985    -5400    -5328 
   -5603    -5962    -6043    -5802    -5546    -5369    -5226    -5281 
   -5813    -6695    -7467    -8213    -9099    -9798   -10397   -11227 
  -12273   -13498   -14525   -14963   -15292   -15818   -15945   -15405 
  -14534   -13281   -11560    -9985    -9129    -8995    -9343    -9791 
  -10091   -10232    -9910    -8774    -7395    -6764    -6952    -7367 
   -7742    -8195    -8682    -9101    -9777   -10815   -11817   -12564 
  -12838   -12592   -12342   -12248   -11900   -11185   -10401    -9811 
   -9428    -9174    -9058    -9028    -8968    -8943    -8952    -8812 
   -8787    -9239    -9745    -9770    -9357    -8795    -8524    -8598 
   -8440    -8086    -8098    -8234    -8171    -8430    -9202    -9961 
  -10421   -10611   -10826   -11364   -11884   -12081   -12195   -12343 
  -12389   -12133   -11546   -10955   -10446    -9919    -9616    -9515 
   -9183    -8632    -8228    -7984    -7708    -7555    -7801    -8347 
   -8926    -9580   -10461   -11441   -12206   -12504   -12252   -11497 
  -10487    -9805    -9849   -10348   -10917   -11356   -11322   -10802 
  -10462   -10648   -10882   -10536    -9488    -8313    -7448    -6746 
   -6253    -6000    -5773    -5810    -6249    -6692    -6921    -7153 
   -7839    -9056   -10287   -11149   -11506   -11417   -11273   -11312 
  -11394   -11229   -10565    -9581    -8781    -8490    -8732    -9157 
   -9269    -9024    -8824    -8911    -9126    -9299    -9468    -9558 
   -9280    -8645    -8088    -7923    -8025    -7977    -7626    -7252 
   -7052    -6973    -7008    -7286    -7798    -8304    -8762    -9365 
  -10189   -11080   -11668   -11645   -11061   -10296    -9686    -9172 
   -8710    -8477    -8537    -8823    -8971    -8553    -7817    -7339 
   -7304    -7470    -7536    -7562    -7704    -7871    -7988    -8069 
   -8246    -8760    -9393    -9679    -9736    -9831    -9727    -9390 
   -9212    -9190    -9043    -8805    -8713    -8848    -9023    -9069 
   -8941    -8727    -8731    -9010    -9277    -9499    -9740    -9851 
   -9860   -10074   -10593   -11090   -11286   -11266   -11149   -10919 
  -10543   -10073    -9635    -9281    -9091    -9143    -9306    -9466 
   -9563    -9621    -9894   -10301   -10413   -10231   -10027    -9943 
  -10041   -10214   -10392   -10708   -10933   -10704   -10380   -10404 
  -10596   -10873   -11346   -11849   -12342   -12988   -13406   -13072 
  -12359   -11809   -11332   -10992   -11014   -10969   -10401    -9692 
   -9267    -8956    -8607    -8228    -7921    -8097    -8751    -9258 
   -9501    -9811   -10051    -9951    -9704    -9687   -10108   -10719 
  -10862   -10444   -10088    -9978    -9822    -9569    -9359    -9311 
   -9354    -9183    -8720    -8310    -8224    -8353    -8524    -8722 
   -8990    -9280    -9479    -9625    -9749    -9660    -9421    -9385 
   -9490    -9389    -9107    -8830    -8740    -9070    -9505    -9435 
   -9002    -8682    -8505    -8411    -8505    -8833    -9370   -10020 
  -10531   -10829   -11212   -11766   -12206   -12308   -12096   -11769 
  -11369   -10768   -10034    -9176    -8134    -7301    -7258    -8027 
   -9149   -10304   -11183   -11438   -11258   -11128   -11275   -11709 
  -12180   -12320   -11955   -11202   -10329    -9469    -8704    -8166 
   -7810    -7614    -7805    -8406    -9058    -9570   -10093   -10638 
  -10908   -10715   -10278    -9844    -9543    -9574    -9782    -9818 
   -9732    -9614    -9507    -9629    -9917   -10021   -10001   -10178 
  -10412   -10337   -10011    -9769    -9891   -10357   -10606   -10222 
   -9797   -10057   -10698   -11021   -10907   -10670   -10702   -11051 
  -11190   -10789   -10310   -10335   -10802   -11080   -10795   -10412 
  -10415   -10499   -10402   -10485   -10925   -11442   -11872   -12205 
  -12362   -12363   -12197   -11741   -11286   -11274   -11641   -12122 
  -12406   -12205   -11746   -11337   -10921   -10500   -10109    -9647 
   -9073    -8485    -8082    -7932    -7832    -7568    -7119    -6759 
   -6781    -7080    -7512    -8169    -9013    -9815   -10337   -10474 
  -10506   -10888   -11487   -11701   -11416   -10991   -10841   -11303 
  -12015   -12163   -11602   -10846   -10280    -9811    -9435    -9632 
  -10540   -11522   -11954   -11806   -11453   -11168   -10824   -10215 
   -9464    -8796    -8294    -8134    -8436    -8955    -9263    -9120 
   -8653    -8164    -7964    -8354    -9302   -10332   -11018   -11331 
  -11490   -11703   -12053   -12310   -12000   -11112   -10147    -9391 
   -9078    -9442   -10081   -10506   -10758   -10816   -10624   -10458 
  -10511   -10654   -10708   -10863   -11310   -11462   -10769    -9722 
   -9142    -9310    -9955   -10694   -11369   -11975   -12555   -13137 
  -13791   -14551   -15079   -14967   -14184   -12995   -11935   -11426 
  -11151   -10480    -9407    -8554    -8360    -8685    -9241    -9805 
  -10059    -9953    -9849    -9911   -10050   -10266   -10438   -10393 
  -10307   -10400   -10606   -10789   -10768   -10511   -10388   -10522 
  -10579   -10485   -10560   -11002   -11505   -11642   -11373   -10806 
  -10073    -9331    -8599    -8050    -8069    -8608    -9054    -9114 
   -9070    -9030    -9051    -9417    -9997   -10501   -11029   -11408 
  -11133   -10175    -9172    -8884    -9426   -10262   -10900   -11134 
  -11035   -10894   -10727   -10302    -9887    -9923   -10190   -10407 
  -10681   -10919   -10881   -10481    -9855    -9480    -9664   -10047 
  -10061    -9566    -8939    -8697    -8994    -9618   -10325   -10769 
