Origin Time       2011/03/11 14:46:00
Lat.              38.103
Long.             142.860
Depth. (km)       24
Mag.              9.0
Station Code      GIF026
Station Lat.      35.5909
Station Long.     136.7418
Station Height(m) 112
Record Time       2011/03/11 14:49:10
Sampling Freq(Hz) 100Hz
Duration Time(s)  147
Dir.              E-W
Scale Factor      3920(gal)/6182761
Max. Acc. (gal)   3.609
Last Correction   2011/03/11 14:48:55
Memo.             
[...]
  -23428   -23657   -23912   -24190   -24468   -24700   -24858   -24937 
  -24968   -25010   -25103   -25253   -25448   -25647   -25779   -25783 
  -25628   -25325   -24934   -24538   -24193   -23940   -23784   -23698 
  -23613   -23449   -23180   -22840   -22511   -22288   -22208   -22244 
  -22374   -22573   -22764   -22860   -22810   -22605   -22315   -22044 
  -21832   -21670   -21542   -21431   -21313   -21153   -20908   -20603 
  -20320   -20118   -20019   -20018   -20085   -20188   -20270   -20264 
  -20155   -19967   -19744   -19548   -19438   -19458   -19619   -19885 
  -20182   -20438   -20601   -20652   -20637   -20642   -20730   -20908 
  -21145   -21407   -21677   -21946   -22184   -22372   -22537   -22709 
  -22887   -23047   -23165   -23244   -23316   -23405   -23515   -23626 
  -23726   -23817   -23884   -23898   -23838   -23711   -23543   -23367 
  -23218   -23113   -23047   -23031   -23071   -23135   -23162   -23115 
  -23002   -22832   -22611   -22357   -22098   -21854   -21633   -21431 
  -21230   -21022   -20798   -20553   -20316   -20141   -20061   -20071 
  -20142   -20237   -20332   -20420   -20507   -20601   -20715   -20875 
  -21094   -21349   -21590   -21786   -21932   -22028   -22075   -22076 
  -22042   -21997   -21955   -21915   -21885   -21862   -21816   -21709 
  -21521   -21287   -21074   -20918   -20819   -20764   -20727   -20670 
  -20581   -20480   -20379   -20276   -20178   -20084   -19987   -19886 
  -19786   -19695   -19623   -19565   -19512   -19456   -19408   -19390 
  -19421   -19484   -19552   -19610   -19660   -19707   -19755   -19806 
  -19887   -20014   -20172   -20333   -20468   -20558   -20612   -20636 
  -20642   -20674   -20758   -20877   -20996   -21084   -21129   -21131 
  -21076   -20976   -20879   -20825   -20807   -20810   -20830   -20843 
  -20837   -20800   -20709   -20570   -20403   -20213   -20042   -19934 
  -19864   -19786   -19687   -19572   -19432   -19269   -19120   -19048 
  -19100   -19264   -19496   -19767   -20069   -20393   -20729   -21071 
  -21402   -21678   -21895   -22125   -22414   -22725   -22983   -23154 
  -23277   -23393   -23494   -23586   -23687   -23790   -23887   -23949 
  -23941   -23865   -23746   -23583   -23354   -23065   -22780   -22568 
  -22432   -22303   -22127   -21890   -21568   -21176   -20832   -20604 
  -20453   -20334   -20194   -20018   -19845   -19654   -19410   -19129 
  -18862   -18677   -18602   -18613   -18702   -18862   -19030   -19144 
  -19170   -19094   -18982   -18923   -18947   -19061   -19266   -19546 
  -19858   -20133   -20318   -20393   -20381   -20362   -20414   -20582 
  -20855   -21160   -21438   -21658   -21769   -21705   -21441   -21062 
  -20716   -20478   -20336   -20261   -20250   -20265   -20232   -20120 
  -19956   -19802   -19712   -19706   -19803   -20037   -20383   -20741 
  -21021   -21192   -21286   -21372   -21497   -21696   -22002   -22415 
  -22878   -23303   -23629   -23836   -23942   -23963   -23904   -23815 
  -23771   -23817   -23973   -24178   -24324   -24387   -24379   -24308 
  -24238   -24222   -24258   -24368   -24570   -24799   -24984   -25076 
  -25047   -24941   -24793   -24584   -24337   -24091   -23841   -23598 
  -23340   -23029   -22741   -22515   -22269   -22026   -21859   -21752 
  -21707   -21711   -21726   -21788   -21924   -22074   -22201   -22311 
  -22410   -22507   -22609   -22705   -22795   -22918   -23123   -23410 
  -23741   -24038   -24216   -24283   -24296   -24293   -24323   -24409 
  -24546   -24725   -24871   -24881   -24745   -24534   -24319   -24138 
  -24016   -23979   -24014   -24034   -23946   -23714   -23349   -22908 
  -22489   -22179   -22042   -22072   -22156   -22194   -22168   -22078 
  -21934   -21777   -21663   -21658   -21786   -22004   -22227   -22375 
  -22415   -22344   -22196   -22018   -21831   -21688   -21654   -21721 
  -21828   -21899   -21858   -21701   -21516   -21402   -21428   -21605 
  -21873   -22141   -22321   -22389   -22370   -22274   -22135   -22071 
  -22182   -22458   -22842   -23284   -23731   -24089   -24256   -24187 
  -23934   -23638   -23406   -23253   -23202   -23246   -23319   -23356 
  -23319   -23227   -23150   -23106   -23079   -23080   -23131   -23218 
  -23325   -23459   -23610   -23763   -23917   -24033   -24113   -24232 
  -24409   -24639   -24921   -25197   -25432   -25620   -25733   -25791 
  -25842   -25892   -25899   -25816   -25638   -25407   -25167   -24928 
  -24680   -24444   -24261   -24114   -23956   -23776   -23600   -23462 
  -23354   -23246   -23141   -23025   -22876   -22737   -22656   -22619 
  -22620   -22691   -22831   -22991   -23092   -23041   -22832   -22574 
  -22352   -22190   -22105   -22079   -22075   -22043   -21915   -21686 
  -21389   -21052   -20737   -20485   -20276   -20112   -19983   -19852 
  -19710   -19565   -19449   -19423   -19510   -19681   -19897   -20119 
  -20306   -20430   -20491   -20534   -20625   -20806   -21055   -21334 
  -21615   -21867   -22082   -22267   -22421   -22586   -22823   -23144 
  -23517   -23890   -24202   -24407   -24463   -24384   -24264   -24173 
  -24172   -24282   -24440   -24592   -24692   -24693   -24625   -24528 
  -24400   -24266   -24143   -24024   -23929   -23881   -23884   -23946 
  -24030   -24086   -24126   -24163   -24201   -24276   -24416   -24610 
  -24812   -24955   -25005   -24991   -24941   -24824   -24619   -24383 
  -24176   -24011   -23851   -23656   -23469   -23361   -23308   -23254 
  -23177   -23092   -23039   -23006   -22942   -22845   -22749   -22662 
  -22562   -22432   -22294   -22190   -22151   -22169   -22202   -22236 
  -22274   -22320   -22369   -22388   -22373   -22368   -22381   -22423 
  -22520   -22646   -22776   -22937   -23116   -23269   -23406   -23546 
  -23723   -23941   -24125   -24234   -24275   -24204   -24000   -23700 
  -23353   -23058   -22908   -22885   -22934   -23017   -23069   -23052 
  -22984   -22895   -22852   -22932   -23141   -23423   -23710   -23963 
  -24194   -24418   -24642   -24865   -25096   -25355   -25637   -25912 
  -26172   -26409   -26600   -26719   -26758   -26739   -26685   -26618 
  -26572   -26566   -26581   -26590   -26554   -26442   -26247   -26001 
  -25782   -25663   -25653   -25687   -25705   -25654   -25450   -25070 
  -24570   -24015   -23503   -23118   -22874   -22745   -22648   -22493 
  -22272   -22020   -21760   -21492   -21248   -21108   -21109   -21191 
  -21270   -21316   -21355   -21408   -21463   -21522   -21619   -21794 
  -22077   -22458   -22857   -23202   -23464   -23615   -23649   -23596 
  -23509   -23444   -23431   -23470   -23527   -23552   -23516   -23416 
  -23250   -23043   -22867   -22753   -22683   -22639   -22601   -22579 
  -22573   -22527   -22421   -22305   -22254   -22333   -22532   -22794 
  -23095   -23409   -23718   -24006   -24246   -24445   -24650   -24912 
  -25241   -25574   -25838   -25980   -25968   -25824   -25578   -25241 
  -24869   -24548   -24310   -24127   -23946   -23705   -23380   -23002 
  -22591   -22173   -21794   -21481   -21228   -21016   -20822   -20664 
  -20574   -20543   -20551   -20620   -20786   -21046   -21347   -21647 
  -21959   -22309   -22702   -23107   -23480   -23824   -24143   -24358 
  -24408   -24331   -24194   -24089   -24072   -24116   -24196   -24289 
  -24342   -24305   -24113   -23742   -23284   -22846   -22468   -22173 
  -21956   -21781   -21601   -21337   -20931   -20403   -19822   -19278 
  -18828   -18488   -18315   -18342   -18508   -18738   -18983   -19208 
  -19430   -19673   -19939   -20242   -20583   -20946   -21309   -21646 
  -21977   -22358   -22795   -23234   -23640   -23999   -24280   -24456 
  -24544   -24586   -24621   -24669   -24720   -24739   -24703   -24605 
  -24440   -24227   -23968   -23656   -23315   -22985   -22688   -22408 
  -22111   -21809   -21548   -21367   -21265   -21202   -21143   -21042 
  -20839   -20506   -20044   -19506   -19003   -18640   -18468   -18465 
  -18575   -18761   -18977   -19168   -19273   -19264   -19199   -19147 
  -19105   -19064   -19056   -19109   -19199   -19248   -19217   -19134 
  -19019   -18882   -18752   -18635   -18540   -18498   -18504   -18544 
  -18608   -18668   -18726   -18805   -18874   -18901   -18912   -18942 
  -19002   -19095   -19211   -19354   -19536   -19727   -19909   -20117 
  -20386   -20731   -21136   -21559   -21966   -22314   -22549   -22679 
  -22751   -22801   -22863   -22947   -23038   -23144   -23253   -23315 
  -23295   -23201   -23082   -22975   -22878   -22800   -22749   -22710 
  -22657   -22535   -22332   -22102   -21893   -21733   -21622   -21543 
  -21507   -21520   -21540   -21507   -21392   -21227   -21070   -20949 
  -20885   -20899   -20971   -21045   -21066   -21009   -20915   -20830 
  -20768   -20779   -20916   -21144   -21400   -21633   -21826   -22014 
  -22202   -22368   -22542   -22752   -23004   -23306   -23597   -23809 
  -23954   -24051   -24107   -24136   -24121   -24074   -24033   -23972 
  -23841   -23680   -23563   -23514   -23505   -23468   -23365   -23222 
  -23036   -22777   -22476   -22229   -22127   -22171   -22270   -22343 
  -22345   -22258   -22115   -21975   -21905   -21952   -22083   -22240 
  -22393   -22490   -22502   -22493   -22539   -22661   -22829   -23017 
  -23225   -23440   -23606   -23666   -23631   -23556   -23448   -23288 
  -23113   -22971   -22881   -22827   -22765   -22683   -22620   -22585 
  -22539   -22446   -22314   -22177   -22060   -21982   -21950   -21971 
  -22044   -22146   -22242   -22293   -22269   -22195   -22126   -22096 
  -22120   -22174   -22217   -22241   -22250   -22238   -22237   -22254 
  -22263   -22274   -22306   -22329   -22310   -22236   -22107   -21940 
  -21758   -21560   -21364   -21194   -21046   -20944   -20934   -21004 
  -21101   -21172   -21193   -21162   -21068   -20916   -20738   -20575 
  -20473   -20433   -20438   -20489   -20562   -20638   -20729   -20828 
  -20912   -20944   -20922   -20907   -20952   -21038   -21125   -21221 
  -21361   -21557   -21779   -21967   -22119   -22293   -22483   -22631 
  -22718   -22775   -22852   -22957   -23034   -23052   -23048   -23056 
  -23071   -23070   -23043   -22995   -22924   -22802   -22630   -22453 
  -22310   -22216   -22186   -22212   -22253   -22269   -22240   -22157 
  -22057   -22006   -22063   -22262   -22550   -22844   -23103   -23286 
  -23386   -23437   -23444   -23452   -23553   -23762   -24044   -24354 
  -24594   -24704   -24680   -24533   -24322   -24116   -23946   -23838 
  -23781   -23753   -23741   -23714   -23626   -23472   -23279   -23098 
  -22990   -22963   -22990   -23057   -23135   -23192   -23224   -23242 
  -23289   -23385   -23484   -23541   -23563   -23575   -23580   -23562 
  -23549   -23595   -23693   -23806   -23913   -24003   -24057   -24036 
  -23926   -23785   -23667   -23628   -23716   -23905   -24139   -24357 
  -24504   -24583   -24610   -24566   -24486   -24458   -24514   -24627 
  -24743   -24809   -24804   -24712   -24494   -24166   -23827   -23569 
  -23442   -23440   -23500   -23543   -23488   -23283   -22933   -22473 
  -21969   -21501   -21109   -20804   -20604   -20481   -20368   -20202 
  -19942   -19595   -19220   -18877   -18625   -18489   -18466   -18550 
  -18691   -18806   -18845   -18817   -18749   -18659   -18579   -18538 
  -18583   -18744   -18952   -19118   -19207   -19209   -19144   -19045 
  -18929   -18829   -18775   -18745   -18693   -18602   -18498   -18427 
  -18401   -18392   -18395   -18439   -18508   -18542   -18535   -18557 
  -18622   -18674   -18749   -18972   -19342   -19671   -19817   -19854 
  -19972   -20219   -20452   -20603   -20808   -21157   -21556   -21887 
  -22124   -22347   -22580   -22689   -22685   -22779   -23004   -23187 
  -23230   -23239   -23397   -23606   -23561   -23270   -23049   -23015 
  -22943   -22627   -22207   -21958   -21906   -21934   -22004   -22161 
  -22426   -22678   -22833   -22976   -23075   -22976   -22723   -22510 
  -22443   -22550   -22872   -23359   -23783   -23978   -24051   -24128 
  -24084   -23809   -23522   -23472   -23607   -23699   -23706   -23903 
  -24374   -24599   -24095   -23121   -22313   -22067   -22360   -22824 
  -23182   -23573   -24106   -24462   -24328   -23881   -23598   -23522 
  -23233   -22923   -23384   -24616   -25680   -25770   -24904   -23927 
  -23525   -23422   -23127   -22661   -22399   -22737   -23467   -23787 
  -23441   -22886   -22427   -22060   -21701   -21372   -21485   -22268 
  -23167   -23643   -23664   -23307   -22875   -22729   -22746   -22849 
  -23301   -23999   -24517   -24587   -24188   -23719   -23570   -23489 
  -23269   -23307   -23779   -24205   -24238   -24094   -24016   -23951 
  -23791   -23449   -23077   -23016   -23206   -23433   -23746   -24060 
  -24262   -24334   -24186   -24040   -24202   -24464   -24610   -24864 
  -25421   -26013   -26162   -25886   -25733   -25925   -26051   -25799 
  -25569   -25917   -26593   -26857   -26617   -26450   -26615   -26759 
  -26538   -26064   -25717   -25501   -24977   -24335   -24419   -25057 
  -25273   -24891   -24213   -23526   -23040   -22333   -21332   -20894 
  -21072   -21027   -20533   -19995   -19732   -19700   -19534   -18851 
  -17853   -17343   -17412   -17267   -16747   -16315   -16348   -17040 
  -17721   -17559   -16972   -16571   -16409   -16630   -17142   -17536 
  -17601   -17461   -17643   -18422   -19156   -19048   -18349   -18234 
  -19043   -19680   -19558   -19365   -19613   -20009   -19937   -19225 
  -18679   -18893   -19117   -18683   -18213   -18314   -18590   -18562 
  -18313   -18009   -17579   -16906   -16214   -16166   -16894   -17577 
  -17857   -18201   -18594   -18637   -18319   -17888   -17780   -18147 
  -18510   -18650   -18928   -19544   -20209   -20386   -20033   -19791 
  -20002   -20289   -20155   -19660   -19458   -19812   -20145   -19995 
  -19569   -19340   -19476   -19618   -19347   -18818   -18597   -18781 
  -18925   -18985   -19208   -19361   -19191   -18935   -19056   -19776 
  -20574   -20773   -20563   -20458   -20539   -20639   -20584   -20520 
  -20880   -21595   -22069   -22070   -21902   -21814   -21726   -21474 
  -21137   -21011   -21088   -20937   -20505   -20292   -20441   -20516 
  -20211   -19850   -20101   -20848   -21039   -20280   -19483   -19640 
  -20586   -21057   -20408   -19676   -19933   -20838   -21420   -21342 
  -21299   -21771   -22050   -21713   -21384   -21553   -22113   -22581 
  -22654   -22675   -22762   -22573   -22270   -22227   -22244   -22082 
  -21978   -22114   -22327   -22528   -22788   -23012   -22980   -22614 
  -22175   -22120   -22395   -22499   -22385   -22305   -22426   -22855 
  -23078   -22503   -21731   -21644   -22210   -22822   -22941   -22741 
  -22842   -23078   -22772   -22017   -21503   -21595   -21950   -21999 
  -21888   -22152   -22564   -22489   -22023   -21713   -21641   -21552 
  -21368   -21179   -21156   -21274   -21316   -21413   -21721   -21945 
  -21965   -21866   -21478   -20846   -20344   -20141   -20214   -20415 
  -20677   -21139   -21557   -21577   -21423   -21194   -20729   -20248 
  -20031   -20242   -20925   -21685   -22190   -22524   -22626   -22324 
  -21898   -21887   -22421   -23077   -23477   -23699   -23932   -24110 
  -24141   -24159   -24218   -24108   -23910   -24041   -24427   -24669 
  -24784   -24990   -25317   -25521   -25340   -25103   -25235   -25454 
  -25435   -25286   -25191   -25279   -25455   -25486   -25311   -24890 
  -24221   -23657   -23594   -23872   -24050   -24062   -24049   -23925 
  -23551   -23081   -22874   -23038   -23320   -23463   -23330   -22963 
  -22676   -22636   -22632   -22531   -22427   -22462   -22673   -22843 
  -22806   -22629   -22363   -22170   -22282   -22581   -22724   -22640 
  -22550   -22518   -22279   -21780   -21493   -21788   -22371   -22643 
  -22422   -22132   -22169   -22316   -22108   -21538   -20978   -20650 
  -20575   -20742   -21132   -21566   -21741   -21580   -21186   -20601 
  -19943   -19441   -19286   -19472   -19788   -20041   -20118   -20058 
  -20020   -19835   -19344   -18930   -18853   -18912   -18994   -19126 
  -19348   -19598   -19648   -19626   -19867   -20104   -20000   -19854 
  -19959   -20257   -20629   -20932   -21141   -21309   -21258   -20922 
  -20700   -20877   -21232   -21459   -21502   -21503   -21614   -21789 
  -21886   -21928   -22016   -22031   -21811   -21595   -21806   -22369 
  -22657   -22302   -21711   -21464   -21620   -21798   -21747   -21680 
  -21790   -21954   -22057   -21969   -21631   -21342   -21398   -21698 
  -21952   -22054   -22158   -22348   -22456   -22333   -22025   -21739 
  -21657   -21751   -21887   -21970   -21930   -21762   -21503   -21141 
  -20586   -19846   -19289   -19340   -19941   -20555   -20662   -20227 
  -19631   -19145   -18726   -18304   -18089   -18280   -18581   -18649 
  -18665   -18819   -18915   -18733   -18365   -18154   -18272   -18459 
  -18477   -18494   -18735   -19189   -19709   -20103   -20302   -20467 
  -20675   -20851   -20963   -20956   -20877   -20981   -21351   -21785 
  -22076   -22141   -22070   -21999   -21802   -21280   -20533   -19868 
  -19608   -19885   -20379   -20589   -20368   -20067   -20011   -19939 
  -19469   -18802   -18461   -18627   -18937   -18957   -18740   -18690 
  -18971   -19288   -19265   -18905   -18516   -18388   -18611   -19035 
  -19484   -19841   -19931   -19840   -19904   -20052   -20066   -20112 
  -20363   -20797   -21230   -21357   -21215   -21113   -21084   -21053 
  -21055   -21138   -21353   -21617   -21746   -21728   -21606   -21359 
  -21088   -20948   -20940   -20953   -20928   -20949   -21094   -21217 
  -21104   -20853   -20756   -20830   -20853   -20706   -20552   -20646 
  -20932   -21122   -21058   -20842   -20827   -21087   -21129   -20775 
  -20469   -20509   -20778   -20955   -20854   -20744   -20946   -21273 
  -21296   -20904   -20388   -20105   -20093   -20099   -20046   -20134 
  -20389   -20538   -20433   -20261   -20267   -20446   -20597   -20578 
  -20485   -20586   -21076   -21871   -22549   -22773   -22656   -22464 
  -22372   -22424   -22558   -22946   -23724   -24433   -24644   -24490 
  -24223   -23979   -23783   -23577   -23459   -23559   -23729   -23798 
  -23766   -23565   -23106   -22505   -21934   -21440   -20985   -20642 
  -20640   -21033   -21511   -21691   -21523   -21226   -20908   -20622 
  -20586   -20893   -21323   -21597   -21659   -21684   -21779   -21868 
  -21882   -21936   -22194   -22537   -22684   -22627   -22562   -22619 
  -22692   -22543   -22302   -22400   -22889   -23360   -23449   -23247 
  -23145   -23246   -23245   -23009   -22840   -23002   -23329   -23522 
  -23553   -23568   -23691   -23960   -24166   -24122   -23980   -23891 
  -23803   -23688   -23530   -23387   -23462   -23759   -24023   -24062 
  -23868   -23693   -23816   -24058   -24017   -23711   -23425   -23248 
  -23146   -23088   -23044   -23078   -23167   -23162   -23107   -23102 
  -23032   -22803   -22496   -22277   -22209   -22097   -21825   -21604 
  -21554   -21569   -21537   -21379   -21206   -21184   -21133   -20853 
  -20467   -20135   -19918   -19803   -19684   -19525   -19376   -19242 
  -19097   -18947   -18783   -18598   -18464   -18373   -18247   -18116 
  -17985   -17858   -17894   -18086   -18206   -18156   -17981   -17855 
  -18031   -18370   -18495   -18410   -18334   -18418   -18678   -18944 
  -19190   -19524   -19808   -19938   -20033   -20074   -20003   -19959 
