Origin Time       2011/03/11 14:46:00
Lat.              38.103
Long.             142.860
Depth. (km)       24
Mag.              9.0
Station Code      GIF019
Station Lat.      35.4492
Station Long.     137.4042
Station Height(m) 275
Record Time       2011/03/11 14:48:20
Sampling Freq(Hz) 100Hz
Duration Time(s)  211
Dir.              U-D
Scale Factor      3920(gal)/6182761
Max. Acc. (gal)   7.438
Last Correction   2011/03/11 14:48:05
Memo.             
[...]
   20333    20306    20163    19986    19792    19572    19314    19011 
   18705    18483    18409    18468    18642    18957    19443    20102 
   20818    21431    21883    22148    22211    22134    21999    21860 
   21766    21671    21484    21264    21109    21019    20950    20825 
   20624    20421    20213    19923    19545    19150    18794    18440 
   18057    17726    17529    17446    17413    17365    17259    17127 
   17052    17041    17019    16945    16821    16670    16540    16477 
   16484    16584    16806    17103    17419    17747    18110    18549 
   19056    19549    19935    20169    20258    20221    20056    19820 
   19581    19316    18974    18554    18100    17663    17197    16606 
   15908    15204    14579    14094    13772    13599    13553    13582 
   13595    13598    13708    13951    14236    14483    14663    14805 
   14948    15045    14994    14833    14712    14669    14691    14828 
   15074    15313    15488    15611    15654    15628    15620    15629 
   15581    15495    15513    15740    16113    16499    16792    16924 
   16929    16886    16792    16625    16476    16448    16477    16435 
   16332    16266    16273    16342    16440    16486    16483    16523 
   16568    16524    16446    16397    16337    16232    16117    16015 
   15885    15705    15524    15363    15184    14935    14584    14191 
   13880    13742    13739    13735    13719    13783    13904    14016 
   14139    14324    14571    14845    15109    15364    15722    16229 
   16731    17154    17578    18045    18560    19110    19649    20167 
   20662    21085    21397    21590    21677    21654    21505    21259 
   20938    20525    20059    19573    19062    18524    17950    17333 
   16694    16093    15580    15106    14662    14327    14065    13831 
   13687    13640    13699    13920    14249    14613    14991    15324 
   15600    15858    16059    16151    16160    16096    15981    15879 
   15792    15698    15605    15502    15393    15299    15247    15280 
   15390    15484    15513    15579    15818    16264    16846    17384 
   17724    17909    18075    18252    18343    18275    18019    17543 
   16947    16436    16095    15868    15664    15478    15398    15483 
   15688    15900    16060    16210    16367    16487    16542    16565 
   16637    16790    16973    17122    17204    17235    17240    17268 
   17423    17749    18109    18328    18406    18466    18542    18569 
   18514    18405    18247    18020    17764    17566    17491    17488 
   17450    17352    17251    17180    17136    17083    16956    16768 
   16597    16465    16350    16269    16262    16360    16570    16833 
   17069    17252    17407    17541    17610    17573    17448    17278 
   17103    16928    16725    16506    16294    16065    15825    15591 
   15354    15178    15089    14987    14845    14774    14833    15016 
   15321    15683    16002    16264    16500    16701    16826    16841 
   16753    16597    16361    16042    15728    15490    15310    15192 
   15158    15198    15280    15356    15374    15341    15339    15433 
   15598    15798    16055    16406    16883    17436    17924    18321 
   18713    19106    19473    19780    19942    19936    19857    19794 
   19748    19691    19656    19668    19690    19735    19860    20043 
   20216    20356    20485    20590    20594    20458    20241    20028 
   19892    19850    19892    20058    20317    20553    20770    21038 
   21319    21533    21652    21681    21635    21571    21542    21542 
   21587    21698    21811    21880    21937    22037    22234    22499 
   22733    22908    23001    22960    22849    22739    22585    22350 
   22086    21851    21596    21259    20914    20633    20386    20128 
   19826    19495    19231    19060    18875    18646    18464    18409 
   18547    18859    19202    19452    19590    19693    19817    19909 
   19933    19972    20069    20123    20072    19977    19870    19752 
   19612    19414    19187    18991    18845    18728    18543    18200 
   17725    17209    16736    16369    16149    16051    15998    15948 
   15940    16026    16155    16199    16126    16004    15868    15737 
   15641    15563    15531    15624    15815    16013    16208    16396 
   16548    16628    16596    16476    16342    16231    16149    16104 
   16116    16219    16423    16678    16911    17096    17263    17417 
   17512    17513    17459    17480    17617    17707    17637    17558 
   17636    17831    18038    18217    18379    18541    18663    18672 
   18557    18393    18263    18158    18007    17810    17588    17293 
   16965    16726    16573    16471    16452    16519    16677    16938 
   17262    17572    17814    18032    18288    18543    18769    18980 
   19142    19250    19360    19449    19456    19396    19291    19144 
   18969    18803    18693    18622    18535    18425    18344    18343 
   18358    18268    18043    17726    17382    17054    16729    16412 
   16158    15985    15863    15750    15669    15721    15878    16004 
   16074    16165    16338    16581    16831    17024    17080    16991 
   16841    16674    16499    16320    16111    15912    15791    15712 
   15610    15487    15385    15321    15287    15247    15118    14892 
   14621    14287    13929    13625    13349    13072    12838    12703 
   12642    12612    12674    12893    13209    13512    13737    13872 
   13973    14190    14588    15048    15498    15987    16506    17006 
   17505    18040    18597    19132    19634    20079    20411    20617 
   20710    20679    20541    20325    20040    19731    19412    19061 
   18729    18470    18260    18056    17829    17549    17235    16960 
   16773    16672    16650    16704    16815    16945    17090    17282 
   17515    17787    18103    18453    18820    19157    19440    19680 
   19857    19956    19980    19957    19919    19851    19717    19478 
   19132    18728    18305    17849    17394    17015    16707    16467 
   16341    16332    16402    16473    16494    16553    16736    17000 
   17293    17580    17835    18075    18357    18708    19084    19449 
   19852    20308    20744    21095    21309    21362    21303    21195 
   21079    20950    20746    20432    20071    19723    19374    19024 
   18684    18373    18139    18017    18015    18114    18311    18602 
   18942    19291    19637    19972    20289    20547    20712    20826 
   20951    21098    21217    21277    21324    21420    21544    21633 
   21664    21608    21427    21144    20793    20379    19913    19425 
   18928    18454    18042    17707    17451    17238    16987    16692 
   16420    16192    15988    15778    15517    15202    14896    14660 
   14519    14444    14385    14354    14381    14419    14433    14485 
   14609    14746    14846    14900    14889    14805    14721    14755 
   14942    15212    15456    15631    15815    16092    16443    16802 
   17108    17330    17437    17400    17267    17097    16875    16572 
   16171    15671    15157    14737    14394    13996    13491    12963 
   12493    12116    11822    11520    11197    10933    10733    10560 
   10439    10443    10590    10834    11159    11589    12151    12841 
   13611    14413    15209    15975    16734    17487    18126    18597 
   18962    19251    19436    19518    19521    19463    19357    19183 
   18888    18481    18026    17532    16990    16389    15699    14975 
   14326    13790    13332    12927    12583    12322    12156    12115 
   12210    12438    12834    13383    13988    14563    15135    15753 
   16362    16910    17413    17850    18195    18463    18675    18850 
   18980    19030    18988    18885    18744    18565    18357    18150 
   18007    17941    17913    17893    17852    17780    17681    17586 
   17581    17673    17760    17758    17695    17661    17691    17796 
   17950    18063    18092    18072    18025    17933    17782    17628 
   17507    17365    17162    16924    16733    16680    16757    16852 
   16898    16949    17063    17211    17349    17499    17674    17827 
   17900    17894    17849    17801    17785    17805    17839    17881 
   17887    17816    17768    17864    18047    18190    18273    18306 
   18317    18383    18492    18556    18571    18581    18558    18465 
   18329    18184    18009    17793    17570    17331    17072    16830 
   16656    16624    16726    16884    17099    17360    17628    17904 
   18186    18478    18766    18967    19014    18872    18543    18155 
   17862    17664    17482    17296    17107    16911    16751    16670 
   16681    16816    17068    17383    17755    18158    18511    18799 
   19044    19244    19429    19629    19836    20027    20183    20268 
   20270    20268    20366    20526    20618    20590    20495    20396 
   20344    20331    20287    20219    20201    20235    20297    20397 
   20539    20714    20887    21016    21097    21129    21094    20991 
   20822    20627    20478    20371    20260    20122    19927    19680 
   19431    19213    19022    18829    18599    18341    18109    17907 
   17672    17324    16877    16429    16038    15727    15533    15445 
   15389    15358    15401    15494    15635    15889    16221    16537 
   16817    17080    17320    17502    17604    17657    17695    17711 
   17707    17703    17722    17821    18058    18426    18867    19356 
   19928    20580    21274    21986    22632    23158    23577    23826 
   23885    23812    23620    23323    22940    22493    22030    21591 
   21185    20776    20320    19845    19434    19107    18820    18575 
   18349    18060    17721    17449    17297    17218    17172    17177 
   17255    17413    17678    18064    18563    19132    19679    20161 
   20629    21117    21575    21886    22022    22090    22142    22140 
   22084    22037    22043    22083    22122    22136    22151    22220 
   22348    22499    22620    22699    22799    22947    23122    23314 
   23537    23784    24001    24148    24238    24283    24286    24242 
   24114    23891    23609    23303    23015    22791    22643    22552 
   22484    22413    22357    22375    22488    22621    22667    22621 
   22539    22464    22458    22550    22677    22771    22837    22876 
   22832    22679    22402    21956    21372    20747    20123    19497 
   18878    18319    17879    17579    17400    17286    17184    17129 
   17176    17289    17428    17603    17822    18094    18416    18773 
   19182    19608    19948    20170    20341    20513    20666    20757 
   20767    20682    20522    20342    20152    19951    19732    19470 
   19178    18888    18631    18452    18342    18245    18157    18112 
   18111    18119    18096    18029    17908    17724    17493    17222 
   16889    16548    16273    16055    15877    15722    15559    15377 
   15185    15003    14841    14691    14569    14484    14419    14377 
   14361    14324    14246    14151    14052    13952    13807    13553 
   13204    12826    12449    12106    11828    11591    11402    11343 
   11462    11713    12048    12458    12947    13508    14101    14681 
   15222    15721    16209    16705    17230    17793    18320    18752 
   19102    19344    19450    19416    19229    18900    18460    17930 
   17318    16613    15838    15047    14270    13510    12776    12093 
   11492    11002    10631    10390    10275    10263    10390    10707 
   11234    11994    12911    13842    14716    15542    16356    17142 
   17809    18302    18644    18893    19083    19185    19175    19074 
   18889    18578    18112    17513    16811    16056    15298    14529 
   13739    12977    12296    11712    11223    10859    10640    10542 
   10550    10655    10811    10970    11084    11155    11273    11521 
   11904    12409    13048    13821    14674    15568    16523    17563 
   18653    19698    20605    21357    22015    22613    23139    23588 
   23934    24152    24278    24333    24315    24212    23985    23608 
   23097    22527    21972    21403    20789    20181    19617    19087 
   18618    18252    17960    17695    17469    17303    17206    17219 
   17356    17567    17803    18059    18318    18571    18860    19217 
   19643    20109    20507    20790    21036    21286    21527    21770 
   22011    22219    22386    22511    22570    22528    22384    22160 
   21880    21565    21247    20914    20529    20084    19603    19124 
   18672    18231    17772    17278    16773    16291    15838    15423 
   15063    14764    14531    14347    14189    14056    13933    13795 
   13665    13574    13512    13491    13524    13588    13708    13950 
   14317    14784    15323    15898    16498    17140    17815    18502 
   19209    19888    20483    21031    21545    21979    22334    22599 
   22750    22792    22696    22432    22034    21550    21020    20474 
   19913    19341    18805    18340    17931    17542    17155    16784 
   16426    16055    15677    15323    15006    14725    14484    14288 
   14144    14062    14062    14146    14277    14436    14621    14778 
   14876    14947    15015    15091    15184    15307    15455    15610 
   15784    15984    16184    16386    16619    16866    17096    17322 
   17538    17700    17827    17945    18018    18015    17949    17841 
   17676    17407    17017    16526    15969    15373    14733    14038 
   13319    12638    12008    11406    10805    10165     9486     8813 
    8157     7519     6961     6551     6287     6136     6090     6174 
    6458     6995     7723     8556     9467    10450    11478    12502 
   13507    14498    15430    16230    16866    17348    17687    17892 
   17980    17951    17756    17341    16711    15938    15134    14392 
   13741    13184    12746    12460    12311    12256    12252    12315 
   12497    12771    13078    13416    13796    14205    14635    15074 
   15523    15987    16483    17016    17527    17970    18340    18631 
   18855    19012    19072    19050    18990    18900    18754    18540 
   18321    18182    18149    18174    18200    18199    18210    18296 
   18481    18749    19065    19388    19708    20045    20405    20810 
   21328    21963    22628    23272    23875    24402    24836    25174 
   25416    25530    25450    25198    24849    24434    23982    23505 
   22951    22315    21671    21062    20502    20008    19580    19214 
   18904    18659    18482    18379    18364    18428    18555    18782 
   19087    19360    19572    19763    19969    20206    20435    20621 
   20793    20981    21178    21339    21420    21414    21306    21073 
   20736    20318    19825    19274    18673    18024    17312    16544 
   15788    15129    14590    14185    13927    13795    13791    13958 
   14287    14726    15260    15900    16648    17484    18382    19310 
   20207    21017    21755    22435    23020    23459    23723    23787 
   23680    23471    23152    22665    22019    21282    20557    19915 
   19324    18732    18175    17698    17301    17020    16901    16924 
   17038    17231    17514    17868    18250    18641    19035    19426 
   19831    20265    20705    21123    21530    21944    22333    22640 
   22890    23173    23515    23879    24224    24528    24789    25025 
   25256    25429    25481    25448    25359    25183    24870    24385 
   23764    23072    22312    21487    20623    19776    19020    18373 
   17814    17345    16956    16643    16422    16271    16156    16073 
   16028    16049    16132    16199    16207    16197    16228    16289 
   16286    16210    16163    16139    16079    16010    15939    15806 
   15578    15287    14959    14586    14203    13842    13472    13132 
   12881    12680    12517    12438    12445    12515    12642    12830 
   13091    13412    13766    14158    14569    14965    15360    15747 
   16039    16172    16189    16121    15941    15640    15211    14652 
   14008    13325    12652    12040    11478    10948    10456     9996 
    9597     9317     9185     9179     9246     9341     9459     9637 
    9883    10186    10571    11050    11563    12032    12445    12855 
   13322    13859    14394    14826    15134    15354    15508    15617 
   15702    15735    15686    15590    15494    15383    15252    15110 
   14907    14631    14287    13845    13373    12960    12591    12268 
   12038    11899    11853    11921    12123    12458    12858    13244 
   13580    13841    14054    14276    14497    14690    14874    15069 
   15292    15564    15877    16217    16611    17097    17663    18250 
   18832    19421    20002    20550    21013    21327    21510    21631 
   21703    21674    21525    21297    21003    20657    20327    20012 
   19661    19303    18993    18754    18587    18431    18218    17979 
   17781    17641    17539    17422    17240    17021    16840    16717 
   16622    16565    16605    16744    16924    17083    17192    17331 
   17566    17812    18000    18168    18372    18629    18888    19098 
   19274    19426    19586    19812    20074    20314    20527    20736 
   21001    21356    21740    22117    22511    22929    23372    23842 
   24304    24718    25073    25372    25594    25718    25747    25685 
   25540    25363    25216    25131    25119    25125    25058    24916 
   24784    24692    24602    24440    24150    23800    23487    23223 
   23010    22823    22602    22365    22157    21977    21793    21558 
   21222    20780    20314    19920    19608    19348    19096    18831 
   18581    18393    18310    18342    18432    18519    18582    18655 
   18791    18995    19249    19521    19751    19959    20214    20513 
   20822    21112    21305    21371    21348    21266    21130    20954 
   20765    20601    20487    20415    20379    20363    20335    20313 
   20357    20475    20639    20837    21082    21376    21680    21943 
   22162    22370    22568    22726    22835    22895    22892    22834 
   22744    22624    22508    22442    22427    22405    22313    22157 
   21972    21757    21531    21342    21164    20941    20664    20382 
   20158    20019    19932    19858    19810    19788    19798    19868 
   19961    20055    20179    20306    20386    20400    20346    20259 
   20196    20171    20128    20032    19914    19806    19689    19549 
   19435    19358    19306    19318    19410    19572    19782    20038 
   20368    20738    21043    21215    21278    21281    21209    21054 
   20910    20822    20710    20535    20341    20155    19970    19762 
   19565    19438    19309    19113    18959    18923    18912    18876 
   18863    18901    19006    19179    19369    19541    19695    19804 
   19837    19820    19801    19791    19778    19768    19779    19795 
   19810    19847    19889    19928    20014    20135    20212    20224 
   20219    20205    20140    19996    19778    19494    19134    18719 
   18285    17795    17232    16670    16183    15737    15237    14648 
   14047    13541    13141    12764    12406    12126    11896    11697 
   11561    11482    11426    11355    11219    11041    10918    10864 
   10831    10827    10860    10926    11093    11376    11690    11993 
   12329    12752    13245    13740    14217    14709    15218    15696 
   16100    16459    16857    17292    17675    17998    18312    18624 
