Origin Time       2011/03/11 14:46:00
Lat.              38.103
Long.             142.860
Depth. (km)       24
Mag.              9.0
Station Code      GIF009
Station Lat.      35.9250
Station Long.     136.8318
Station Height(m) 436
Record Time       2011/03/11 14:49:30
Sampling Freq(Hz) 100Hz
Duration Time(s)  124
Dir.              N-S
Scale Factor      3920(gal)/6182761
Max. Acc. (gal)   3.170
Last Correction   2011/03/11 14:49:15
Memo.             
[...]
  -55393   -55861   -56210   -56042   -56004   -56033   -55628   -55382 
  -55639   -55680   -55340   -55196   -55612   -56334   -56696   -56523 
  -56432   -56616   -56396   -55909   -56002   -56535   -56846   -56607 
  -56342   -56792   -57130   -56618   -56366   -56707   -56686   -56501 
  -56627   -56680   -56702   -56681   -56289   -56034   -56249   -56548 
  -56809   -57019   -57096   -57025   -56845   -56716   -56788   -57192 
  -57643   -57576   -57198   -56885   -56602   -56679   -56952   -56760 
  -56598   -56831   -56812   -56666   -56917   -57311   -57248   -56671 
  -56548   -57242   -57831   -58115   -58434   -58392   -57920   -57555 
  -57425   -57470   -57671   -57959   -58272   -58333   -58239   -58264 
  -57988   -57453   -57448   -58052   -58521   -58403   -58101   -57832 
  -57437   -57314   -57672   -58182   -58423   -58080   -57754   -57881 
  -57857   -58095   -59058   -59526   -59317   -59367   -59372   -59088 
  -59005   -59191   -59402   -59349   -58975   -58441   -57897   -57845 
  -58331   -58583   -58442   -58221   -57860   -57299   -56774   -56595 
  -56811   -57194   -57432   -57387   -57171   -56900   -56778   -57036 
  -57586   -58085   -58111   -57583   -57109   -57106   -57219   -57272 
  -57379   -57390   -57324   -57320   -57272   -57020   -56608   -56517 
  -56840   -56802   -56394   -56353   -56501   -56513   -56616   -56665 
  -56647   -56823   -56944   -57014   -57293   -57539   -57616   -57637 
  -57673   -57780   -57904   -58173   -58684   -58976   -58760   -58478 
  -58529   -58631   -58536   -58621   -58956   -59222   -59448   -59478 
  -59147   -58903   -59147   -59580   -59517   -58932   -58632   -58801 
  -58607   -58061   -58176   -58872   -59361   -59578   -59539   -59129 
  -58684   -58554   -58606   -58777   -59095   -59103   -58812   -58724 
  -58636   -58492   -58480   -58311   -58137   -58365   -58733   -58711 
  -58251   -57836   -57696   -57588   -57439   -57577   -58083   -58361 
  -58019   -57625   -57731   -57891   -57751   -57744   -57860   -57752 
  -57676   -57722   -57565   -57136   -56579   -56232   -56307   -56426 
  -56418   -56494   -56392   -56106   -56030   -55896   -55809   -56292 
  -56782   -56860   -56924   -56861   -56522   -56332   -56539   -57016 
  -57342   -57280   -57130   -56865   -56660   -57169   -57801   -57713 
  -57389   -57204   -57005   -56805   -56734   -56986   -57330   -57290 
  -57076   -56902   -56470   -56149   -56580   -57161   -57216   -57326 
  -57626   -57371   -56905   -56863   -56755   -56516   -56681   -57056 
  -57224   -57278   -57431   -57412   -56955   -56686   -57097   -57560 
  -57571   -57348   -57005   -56710   -56835   -57232   -57451   -57423 
  -57216   -56859   -56703   -57100   -57554   -57368   -56996   -57148 
  -57474   -57699   -57991   -57915   -57404   -57154   -57073   -56945 
  -57278   -57817   -57810   -57449   -57094   -56813   -56905   -57321 
  -57633   -57698   -57446   -56951   -56568   -56350   -56194   -56172 
  -56325   -56544   -56548   -56293   -56141   -56214   -56386   -56631 
  -56923   -57156   -57124   -56864   -56768   -56722   -56332   -55874 
  -55671   -55730   -56018   -56202   -56187   -56217   -56214   -56244 
  -56382   -56322   -56173   -56179   -56193   -56223   -56186   -55849 
  -55531   -55630   -55853   -55834   -55814   -56043   -56225   -56092 
  -55731   -55439   -55622   -56009   -55869   -55487   -55621   -56075 
  -56265   -56220   -56184   -56121   -56044   -56039   -55945   -55574 
  -55236   -55350   -55603   -55559   -55338   -55238   -55488   -55958 
  -56361   -56621   -56472   -55800   -55087   -54933   -55463   -56052 
  -56160   -56088   -56219   -56449   -56598   -56679   -56755   -56803 
  -56765   -56749   -56961   -57147   -57031   -57091   -57349   -56975 
  -56150   -55864   -56225   -56704   -56830   -56440   -55947   -55791 
  -55897   -56137   -56420   -56483   -56429   -56562   -56556   -56169 
  -55946   -56190   -56593   -56847   -56833   -56790   -56897   -56879 
  -56804   -56937   -57099   -57337   -57668   -57587   -57228   -57109 
  -57055   -57008   -57077   -57065   -57140   -57362   -57395   -57369 
  -57468   -57576   -57816   -58089   -58015   -57890   -58043   -58136 
  -58108   -58118   -58035   -57928   -58021   -58273   -58438   -58448 
  -58468   -58460   -58192   -57719   -57561   -57972   -58284   -58177 
  -58150   -58121   -57920   -58040   -58378   -58268   -57777   -57581 
  -57806   -57981   -58052   -58016   -57718   -57783   -58482   -58911 
  -58909   -59013   -58905   -58502   -58587   -59163   -59465   -59355 
  -59155   -58994   -58859   -58673   -58424   -58200   -57997   -57986 
  -58404   -58863   -58890   -58662   -58501   -58631   -59156   -59587 
  -59413   -59031   -58863   -58687   -58604   -58867   -59024   -58869 
  -58863   -58940   -58777   -58719   -58981   -59156   -58997   -58780 
  -58849   -59150   -59389   -59474   -59502   -59566   -59614   -59441 
  -59122   -58992   -58998   -59049   -59326   -59575   -59425   -59176 
  -59221   -59411   -59474   -59498   -59722   -59928   -59736   -59558 
  -59852   -60095   -59942   -59802   -59759   -59662   -59669   -59691 
  -59438   -59135   -59140   -59381   -59543   -59306   -58896   -59013 
  -59549   -59728   -59424   -58978   -58704   -58752   -58782   -58636 
  -58715   -58960   -58866   -58415   -57950   -57658   -57485   -57321 
  -57210   -57140   -57055   -57071   -57157   -57123   -57030   -57076 
  -57399   -57939   -58334   -58366   -58128   -57795   -57664   -57847 
  -58098   -58172   -58039   -57810   -57676   -57912   -58302   -58332 
  -58199   -58106   -57962   -58104   -58383   -58346   -58290   -58271 
  -58115   -58245   -58626   -58769   -58668   -58263   -57484   -56815 
  -56511   -56297   -56093   -56106   -56564   -57416   -58147   -58426 
  -58594   -58958   -59175   -58909   -58509   -58504   -58976   -59637 
  -60127   -60166   -59735   -59219   -59004   -58873   -58332   -57425 
  -56576   -55916   -55418   -55145   -55072   -55173   -55460   -55897 
  -56514   -57267   -57785   -57739   -57223   -56612   -56439   -56845 
  -57275   -57647   -58425   -59439   -60072   -59848   -58983   -58284 
  -57836   -57382   -57151   -56902   -56268   -55601   -55184   -55156 
  -55845   -56988   -57700   -57299   -55645   -53624   -52619   -52769 
  -53475   -54694   -56160   -57381   -58239   -58474   -58222   -58192 
  -58423   -58573   -58652   -58718   -58773   -58538   -57717   -56921 
  -56962   -57497   -57629   -57158   -56541   -56190   -56202   -56325 
  -56300   -56399   -56638   -56667   -56845   -57378   -58017   -58977 
  -59662   -58933   -57395   -56472   -56575   -57261   -57819   -57908 
  -57743   -57475   -57197   -57453   -58289   -58596   -58033   -57405 
  -56867   -56303   -55871   -55360   -54887   -55161   -56201   -57098 
  -57164   -56773   -56710   -56818   -56288   -55375   -55218   -55734 
  -56022   -56167   -56464   -56953   -57847   -58472   -57879   -56699 
  -56331   -57053   -57732   -57507   -56941   -56839   -57300   -57920 
  -58186   -57807   -56790   -55559   -54601   -54137   -54443   -55485 
  -56720   -57665   -58099   -58037   -57570   -56832   -56070   -55461 
  -55373   -56147   -57154   -57394   -57009   -57076   -57983   -58878 
  -58914   -58369   -57916   -57445   -56626   -55744   -55198   -54985 
  -55031   -55474   -56282   -57016   -57234   -56778   -55966   -55459 
  -55360   -55116   -54401   -53650   -53706   -54635   -55608   -56206 
  -56586   -56740   -56583   -56281   -56107   -56346   -57022   -57440 
  -57209   -57077   -57336   -57176   -56239   -55183   -54790   -55175 
  -55800   -56055   -55862   -55682   -55740   -55761   -55779   -56178 
  -56736   -56703   -55842   -54789   -54262   -54207   -54202   -54310 
  -54904   -55844   -56542   -56928   -57290   -57519   -57676   -57981 
  -58204   -58267   -58237   -57750   -56797   -56025   -55836   -56153 
  -56607   -56645   -56097   -55455   -55292   -55643   -56093   -56372 
  -56458   -56188   -55677   -55501   -55586   -55489   -55532   -55951 
  -56381   -56820   -57473   -58000   -58045   -57829   -57670   -57586 
  -57339   -56795   -56417   -56550   -56726   -56624   -56456   -56293 
  -56212   -56462   -56985   -57422   -57722   -58162   -58612   -58643 
  -58448   -58220   -57539   -56664   -56500   -57135   -57988   -58385 
  -57955   -57228   -57007   -57348   -57673   -57441   -56872   -56736 
  -57115   -57414   -57433   -57334   -57156   -56989   -57000   -57169 
  -57397   -57469   -57118   -56530   -56256   -56544   -56988   -57233 
  -57427   -57303   -56553   -55982   -56258   -56799   -57016   -56969 
  -56829   -56851   -57213   -57515   -57164   -56328   -55836   -55947 
  -55938   -55275   -54515   -54451   -55051   -55818   -56398   -56660 
  -56599   -56280   -56200   -56775   -57342   -57364   -57316   -57150 
  -56462   -55994   -56550   -57529   -57982   -58047   -58210   -58218 
  -57795   -57269   -57011   -57058   -57198   -57238   -57072   -56559 
  -55815   -55225   -55140   -55639   -56208   -56393   -56370   -56350 
  -56392   -56503   -56652   -56845   -56947   -56759   -56222   -55590 
  -55435   -55858   -56363   -56662   -56626   -56240   -56037   -56360 
  -56667   -56520   -56275   -56336   -56670   -57044   -57209   -57031 
  -56504   -55862   -55599   -55689   -55547   -55171   -54839   -54260 
  -53407   -52839   -52824   -53261   -54023   -54820   -55036   -54439 
  -53895   -54287   -55315   -56166   -56461   -56323   -56150   -56189 
  -56189   -55787   -55281   -55359   -55865   -56033   -55869   -55854 
  -56011   -56120   -55996   -55627   -55142   -54699   -54737   -55439 
  -56054   -56023   -55814   -55920   -56278   -56741   -57197   -57267 
  -56756   -55935   -54940   -54145   -54323   -55465   -56664   -57176 
  -57021   -56529   -55750   -55074   -55256   -56211   -57155   -57558 
  -57204   -56291   -55523   -55362   -55512   -55499   -55270   -54972 
  -54831   -55165   -55837   -56415   -56949   -57384   -57242   -56737 
  -56576   -56651   -56409   -56083   -56163   -56525   -57095   -57862 
  -58324   -58095   -57334   -56576   -56302   -56343   -56493   -57217 
  -58445   -59065   -58724   -58194   -57936   -57979   -58244   -58392 
  -58182   -57679   -57028   -56449   -56198   -56343   -56788   -57510 
  -58317   -58746   -58734   -58572   -58089   -56975   -55765   -55430 
  -56202   -57489   -58460   -58555   -57986   -57475   -57265   -56886 
  -56122   -55492   -55383   -55636   -56181   -56880   -57060   -56445 
  -55809   -55930   -56605   -57270   -57933   -58443   -57958   -56638 
  -55997   -56660   -57810   -58708   -59232   -59220   -58483   -57520 
  -57194   -57724   -58566   -59089   -59182   -58996   -58496   -57709 
  -56985   -56782   -57127   -57595   -58226   -59128   -59537   -59105 
  -58683   -58872   -59404   -59731   -59516   -58905   -58176   -57398 
  -56919   -57235   -58026   -58547   -58781   -59101   -59382   -59227 
  -58619   -57854   -57139   -56659   -56778   -57584   -58416   -58597 
  -58236   -57646   -57026   -56892   -57326   -57469   -56936   -56413 
  -56429   -56840   -57334   -57586   -57324   -56932   -57310   -58185 
  -58111   -56916   -55952   -56077   -57006   -57930   -58142   -57594 
  -56856   -56474   -56618   -57130   -57715   -58212   -58368   -57864 
  -57134   -56947   -57305   -57939   -58694   -58856   -57883   -56650 
  -56260   -56640   -57452   -58460   -58833   -58180   -57513   -57760 
  -58633   -59354   -59463   -59139   -58911   -58792   -58418   -57938 
  -57672   -57401   -56935   -56777   -57405   -58363   -58881   -58746 
  -58079   -57229   -57035   -58042   -59365   -59569   -58594   -57395 
  -56591   -56441   -56840   -57399   -57755   -57644   -57491   -57986 
  -58689   -58841   -58490   -57718   -56615   -55998   -56491   -57419 
  -57726   -57271   -56425   -55587   -55395   -55935   -56373   -56237 
  -55835   -55673   -56035   -56694   -57270   -57446   -57018   -56423 
  -56322   -56745   -57244   -57302   -56917   -56739   -57001   -57363 
  -57785   -58197   -58240   -58054   -57871   -57386   -56794   -56720 
  -56934   -57102   -57503   -57878   -57521   -56565   -55833   -55844 
  -56582   -57690   -58469   -58291   -57479   -57020   -57128   -57327 
  -57655   -58339   -59009   -59200   -58870   -58267   -57786   -57737 
  -58067   -58528   -58862   -58837   -58572   -58394   -58262   -58073 
  -58014   -58157   -58315   -58328   -58299   -58432   -58621   -58715 
  -58833   -58816   -58371   -57934   -58044   -58363   -58498   -58574 
  -58614   -58613   -58788   -59184   -59392   -58892   -57922   -57339 
  -57409   -57734   -58002   -58041   -57726   -57262   -57166   -57630 
  -58169   -58240   -57855   -57411   -57214   -57346   -57645   -57728 
  -57542   -57432   -57450   -57509   -57631   -57755   -57915   -58066 
  -58025   -57907   -57765   -57631   -57877   -58384   -58616   -58684 
  -58892   -59123   -59068   -58531   -57849   -57535   -57603   -57897 
  -58321   -58549   -58384   -58105   -58020   -58142   -58259   -58213 
  -58151   -58203   -58313   -58504   -58657   -58466   -57980   -57502 
  -57337   -57843   -58811   -59285   -58793   -57872   -57334   -57519 
  -57995   -58373   -58911   -59477   -59447   -58874   -58412   -58435 
  -58757   -59030   -59205   -59391   -59516   -59501   -59560   -59815 
  -60045   -60241   -60607   -60900   -60731   -60323   -60095   -60054 
  -60217   -60673   -61142   -61305   -61091   -60617   -60144   -59799 
  -59698   -60166   -61111   -61837   -61860   -61286   -60494   -59907 
  -59870   -60384   -60962   -61144   -60906   -60452   -60042   -59865 
  -59915   -60058   -60118   -60049   -59899   -59678   -59545   -59568 
  -59461   -59149   -58998   -59192   -59408   -59272   -58859   -58520 
  -58405   -58374   -58374   -58555   -58845   -58987   -58917   -58697 
  -58470   -58435   -58610   -58701   -58465   -58148   -58065   -58178 
  -58366   -58466   -58275   -57895   -57638   -57493   -57298   -57195 
  -57289   -57392   -57407   -57505   -57809   -57996   -57786   -57567 
  -57597   -57436   -56894   -56418   -56378   -56721   -57055   -56949 
  -56471   -56119   -56169   -56471   -56793   -56964   -56939   -56929 
  -56960   -56820   -56799   -57164   -57396   -57209   -57091   -57274 
  -57440   -57415   -57320   -57300   -57368   -57384   -57312   -57184 
  -56871   -56499   -56442   -56585   -56583   -56445   -56213   -56058 
  -56380   -56943   -57035   -56658   -56300   -56157   -56290   -56655 
  -56939   -57006   -57082   -57271   -57427   -57422   -57230   -56952 
  -56776   -56710   -56550   -56280   -56153   -56215   -56198   -56099 
  -56175   -56386   -56556   -56731   -56949   -57125   -57236   -57295 
  -57301   -57301   -57344   -57447   -57558   -57636   -57682   -57648 
  -57571   -57567   -57562   -57510   -57650   -58018   -58265   -58255 
  -58149   -57981   -57694   -57395   -57332   -57556   -57763   -57770 
  -57767   -57876   -58024   -58159   -58138   -57857   -57567   -57617 
  -57990   -58333   -58415   -58411   -58502   -58513   -58391   -58359 
  -58404   -58363   -58245   -58200   -58345   -58537   -58535   -58399 
  -58238   -57941   -57603   -57591   -57941   -58314   -58488   -58484 
  -58348   -58132   -57965   -57956   -58023   -57980   -57883   -57913 
  -57949   -57845   -57769   -57808   -57772   -57611   -57550   -57639 
  -57591   -57293   -57050   -57083   -57259   -57310   -57158   -57032 
  -57028   -56971   -56916   -57097   -57405   -57495   -57286   -56994 
  -56769   -56669   -56865   -57337   -57675   -57660   -57579   -57689 
  -57854   -57874   -57733   -57500   -57318   -57360   -57623   -57887 
  -57907   -57666   -57468   -57550   -57742   -57829   -57800   -57641 
  -57338   -56978   -56708   -56660   -56785   -56854   -56778   -56717 
  -56762   -56839   -56941   -57035   -56969   -56742   -56540   -56416 
  -56299   -56225   -56181   -56039   -55889   -55892   -55916   -55808 
  -55661   -55567   -55556   -55666   -55810   -55807   -55681   -55655 
  -55762   -55767   -55611   -55515   -55539   -55547   -55515   -55448 
  -55297   -55196   -55281   -55294   -55048   -54814   -54749   -54723 
  -54696   -54689   -54704   -54777   -54904   -55026   -55082   -55018 
  -54874   -54775   -54822   -55016   -55193   -55194   -55058   -54893 
  -54766   -54712   -54712   -54737   -54843   -55051   -55160   -55022 
  -54854   -54873   -55019   -55197   -55359   -55458   -55489   -55497 
  -55534   -55616   -55749   -55872   -55858   -55693   -55509   -55404 
  -55310   -55144   -55061   -55240   -55515   -55623   -55609   -55659 
  -55798   -55999   -56309   -56618   -56664   -56485   -56338   -56261 
  -56212   -56274   -56457   -56642   -56711   -56683   -56635   -56521 
  -56336   -56249   -56345   -56496   -56521   -56393   -56255   -56204 
  -56219   -56289   -56420   -56588   -56689   -56567   -56257   -56041 
  -56074   -56199   -56280   -56373   -56507   -56590   -56507   -56234 
  -55935   -55825   -55986   -56345   -56693   -56803   -56683   -56542 
  -56492   -56547   -56723   -56923   -57002   -56965   -56991   -57199 
  -57462   -57617   -57685   -57733   -57809   -57925   -58042   -58181 
  -58329   -58290   -58021   -57791   -57769   -57907   -58101   -58182 
  -58106   -58040   -58029   -57983   -57917   -57882   -57877   -57887 
  -57895   -57881   -57830   -57763   -57750   -57841   -57919   -57803 
  -57595   -57494   -57434   -57315   -57197   -57115   -57011   -56870 
  -56783   -56823   -56894   -56844   -56718   -56577   -56346   -56083 
  -55944   -55963   -56100   -56263   -56321   -56199   -55910   -55534 
  -55217   -55125   -55227   -55235   -55022   -54795   -54674   -54562 
  -54443   -54398   -54401   -54348   -54220   -54063   -53873   -53683 
  -53626   -53725   -53825   -53836   -53794   -53745   -53718   -53705 
  -53732   -53887   -54067   -54061   -53935   -53903   -53931   -53898 
  -53898   -54052   -54265   -54415   -54485   -54489   -54489   -54586 
  -54753   -54887   -54991   -55103   -55134   -55090   -55145   -55288 
  -55377   -55398   -55387   -55390   -55448   -55556   -55693   -55759 
  -55714   -55693   -55706   -55621   -55480   -55426   -55475   -55589 
  -55713   -55805   -55905   -56050   -56171   -56200   -56169   -56147 
  -56178   -56281   -56431   -56527   -56450   -56245   -56106   -56088 
  -56099   -56124   -56173   -56196   -56124   -55962   -55809   -55708 
  -55627   -55578   -55597   -55711   -55914   -56055   -55989   -55821 
  -55754   -55845   -56029   -56172   -56149   -56050   -56013   -55954 
  -55845   -55840   -55923   -56009   -56175   -56408   -56528   -56468 
  -56372   -56384   -56463   -56500   -56489   -56467   -56450   -56420 
  -56297   -56083   -55957   -56041   -56248   -56402   -56408   -56313 
  -56276   -56382   -56509   -56580   -56672   -56752   -56700   -56542 
  -56412   -56373   -56395   -56429   -56460   -56470   -56455   -56464 
  -56484   -56434   -56363   -56394   -56546   -56709   -56767   -56757 
  -56760   -56754   -56783   -56862   -56869   -56801   -56770   -56834 
  -56951   -57001   -56936   -56817   -56722   -56706   -56791   -56928 
  -56997   -56939   -56819   -56708   -56637   -56592   -56563   -56556 
  -56518   -56395   -56208   -56008   -55864   -55838   -55924   -56066 
  -56188   -56260   -56300   -56284   -56208   -56136   -56123   -56228 
