Origin Time       2011/03/11 14:46:00
Lat.              38.103
Long.             142.860
Depth. (km)       24
Mag.              9.0
Station Code      GIF015
Station Lat.      35.5456
Station Long.     136.9076
Station Height(m) 80
Record Time       2011/03/11 14:49:05
Sampling Freq(Hz) 100Hz
Duration Time(s)  165
Dir.              N-S
Scale Factor      3920(gal)/6182761
Max. Acc. (gal)   5.128
Last Correction   2011/03/11 14:48:50
Memo.             
[...]
  -10979   -10965   -10848   -10689   -10574   -10423   -10219   -10009 
   -9769    -9453    -9077    -8692    -8336    -8018    -7722    -7530 
   -7531    -7631    -7767    -7995    -8262    -8434    -8553    -8734 
   -8858    -8810    -8761    -8798    -8791    -8793    -8923    -9077 
   -9238    -9486    -9714    -9812    -9846    -9823    -9680    -9524 
   -9435    -9363    -9334    -9374    -9492    -9629    -9681    -9707 
   -9759    -9743    -9605    -9474    -9470    -9500    -9498    -9540 
   -9651    -9795    -9931   -10014   -10075   -10152   -10188   -10095 
   -9916    -9821    -9858    -9949   -10084   -10249   -10348   -10382 
  -10433   -10428   -10381   -10494   -10662   -10725   -10822   -10974 
  -11048   -11059   -11067   -11085   -11196   -11393   -11594   -11897 
  -12275   -12558   -12787   -13004   -13127   -13149   -13073   -12866 
  -12625   -12460   -12360   -12341   -12449   -12614   -12706   -12715 
  -12625   -12367   -12024   -11738   -11599   -11612   -11717   -11904 
  -12162   -12412   -12539   -12496   -12327   -12085   -11838   -11623 
  -11393   -11123   -10866   -10587   -10275   -10059    -9978    -9917 
   -9847    -9849    -9888    -9890    -9907    -9918    -9900    -9908 
   -9905    -9877    -9897   -10013   -10263   -10624   -11034   -11453 
  -11835   -12171   -12442   -12607   -12735   -12863   -12967   -13108 
  -13272   -13379   -13416   -13441   -13482   -13488   -13496   -13560 
  -13624   -13653   -13684   -13762   -13887   -14005   -14027   -13939 
  -13850   -13764   -13540   -13232   -12966   -12654   -12262   -11863 
  -11485   -11102   -10623   -10101    -9699    -9414    -9144    -8859 
   -8677    -8649    -8645    -8633    -8635    -8620    -8654    -8756 
   -8831    -8899    -8997    -9057    -9088    -9193    -9333    -9450 
   -9571    -9665    -9735    -9830    -9959   -10063   -10121   -10213 
  -10324   -10440   -10636   -10803   -10874   -11008   -11221   -11349 
  -11427   -11610   -11900   -12225   -12465   -12570   -12657   -12759 
  -12807   -12756   -12544   -12212   -11917   -11689   -11429   -11147 
  -10912   -10756   -10726   -10826   -10973   -11105   -11203   -11279 
  -11377   -11449   -11432   -11417   -11506   -11642   -11688   -11659 
  -11683   -11742   -11735   -11632   -11445   -11191   -10870   -10490 
  -10148    -9904    -9662    -9410    -9265    -9169    -8994    -8823 
   -8727    -8633    -8585    -8667    -8813    -9002    -9262    -9491 
   -9607    -9689    -9718    -9626    -9563    -9636    -9744    -9815 
   -9848    -9833    -9761    -9630    -9475    -9328    -9181    -9122 
   -9182    -9267    -9401    -9547    -9549    -9427    -9302    -9211 
   -9098    -8974    -8939    -9015    -9199    -9546    -9989   -10351 
  -10614   -10806   -10903   -10917   -10842   -10758   -10787   -10862 
  -10933   -11025   -11113   -11183   -11173   -11039   -10878   -10716 
  -10475   -10193    -9928    -9618    -9293    -9018    -8760    -8475 
   -8094    -7734    -7523    -7233    -6831    -6568    -6483    -6519 
   -6666    -6971    -7432    -7926    -8429    -8988    -9530   -10003 
  -10467   -10904   -11257   -11506   -11586   -11582   -11605   -11521 
  -11288   -11039   -10816   -10611   -10379   -10119    -9936    -9754 
   -9499    -9323    -9153    -8887    -8725    -8697    -8800    -9114 
   -9386    -9504    -9682    -9870    -9934    -9953    -9968    -9953 
  -10021   -10225   -10378   -10484   -10688   -10851   -10902   -10986 
  -11134   -11296   -11493   -11677   -11776   -12011   -12483   -12902 
  -13190   -13502   -13818   -14010   -14076   -14120   -14110   -13948 
  -13748   -13604   -13352   -12972   -12658   -12424   -12210   -11999 
  -11821   -11745   -11637   -11406   -11267   -11287   -11261   -11189 
  -11158   -11090   -11018   -10960   -10813   -10723   -10872   -11120 
  -11237   -11208   -11138   -11021   -10823   -10635   -10525   -10358 
  -10095    -9936    -9835    -9612    -9422    -9378    -9363    -9380 
   -9532    -9857   -10210   -10382   -10479   -10706   -10930   -11035 
  -11178   -11370   -11493   -11586   -11599   -11450   -11376   -11492 
  -11487   -11385   -11498   -11544   -11367   -11379   -11488   -11430 
  -11416   -11500   -11582   -11724   -11885   -12005   -12119   -12178 
  -12231   -12327   -12285   -12121   -12046   -12009   -11848   -11659 
  -11578   -11515   -11490   -11543   -11450   -11221   -11116   -10959 
  -10483   -10040    -9842    -9492    -8994    -8731    -8552    -8251 
   -8060    -7964    -7738    -7537    -7541    -7553    -7415    -7306 
   -7311    -7301    -7258    -7197    -7074    -6952    -6986    -7182 
   -7332    -7425    -7633    -7849    -7957    -8155    -8439    -8534 
   -8563    -8783    -9005    -9146    -9345    -9493    -9651    -9987 
  -10274   -10460   -10764   -10976   -10937   -10949   -11006   -11003 
  -11166   -11353   -11315   -11327   -11543   -11661   -11586   -11469 
  -11263   -11063   -10984   -10732   -10294   -10052    -9955    -9711 
   -9506    -9500    -9416    -9225    -9123    -9028    -8882    -8851 
   -8972    -9054    -9113    -9333    -9575    -9711    -9886   -10086 
  -10274   -10474   -10510   -10444   -10537   -10592   -10382   -10166 
  -10147   -10199   -10179   -10053    -9940    -9922    -9881    -9804 
   -9809    -9856    -9798    -9699    -9827   -10164   -10524   -10948 
  -11426   -11885   -12355   -12700   -12820   -12859   -12815   -12681 
  -12559   -12364   -12186   -12179   -12160   -12100   -12059   -12007 
  -12074   -12189   -12101   -11958   -11940   -11866   -11677   -11519 
  -11359   -11134   -10970   -10841   -10480   -10015    -9793    -9656 
   -9324    -8885    -8567    -8442    -8372    -8262    -8183    -8237 
   -8425    -8591    -8623    -8700    -8869    -8836    -8648    -8589 
   -8637    -8739    -8889    -8985    -9051    -9189    -9313    -9349 
   -9392    -9459    -9506    -9596    -9753    -9874    -9990   -10183 
  -10358   -10552   -10817   -10991   -11041   -11099   -11186   -11211 
  -11244   -11396   -11569   -11729   -11944   -12236   -12566   -12825 
  -13001   -13131   -13148   -13078   -13092   -13078   -12866   -12742 
  -12759   -12628   -12457   -12397   -12326   -12254   -12220   -12162 
  -12118   -12071   -11846   -11474   -11167   -10940   -10624   -10230 
   -9971    -9833    -9677    -9608    -9659    -9681    -9680    -9694 
   -9668    -9629    -9622    -9652    -9722    -9809    -9914   -10072 
  -10287   -10516   -10673   -10725   -10814   -10991   -11105   -11182 
  -11289   -11404   -11601   -11837   -12038   -12268   -12480   -12583 
  -12597   -12541   -12436   -12254   -12000   -11767   -11547   -11312 
  -11145   -11087   -11086   -11109   -11141   -11115   -10999   -10843 
  -10665   -10513   -10530   -10648   -10641   -10658   -10823   -10821 
  -10572   -10340   -10197    -9992    -9623    -9196    -8896    -8759 
   -8637    -8404    -8226    -8384    -8711    -8897    -9029    -9186 
   -9359    -9561    -9639    -9639    -9781   -10001   -10109   -10096 
  -10132   -10333   -10569   -10649   -10635   -10678   -10740   -10751 
  -10703   -10573   -10456   -10460   -10451   -10336   -10209   -10067 
   -9858    -9616    -9360    -9097    -8894    -8787    -8750    -8806 
   -8988    -9237    -9463    -9628    -9737    -9798    -9895   -10034 
  -10129   -10241   -10387   -10484   -10527   -10505   -10441   -10417 
  -10417   -10412   -10434   -10457   -10370   -10126    -9838    -9536 
   -9115    -8628    -8229    -8002    -7939    -7973    -8050    -8162 
   -8271    -8276    -8176    -8057    -7971    -7940    -7946    -8024 
   -8208    -8463    -8740    -8974    -9172    -9358    -9479    -9498 
   -9484    -9530    -9569    -9592    -9741    -9946   -10089   -10268 
  -10429   -10418   -10329   -10227   -10082    -9959    -9877    -9841 
   -9870    -9882    -9845    -9843    -9928   -10093   -10249   -10310 
  -10328   -10319   -10273   -10222   -10135   -10076   -10127   -10250 
  -10417   -10574   -10714   -10865   -11070   -11302   -11445   -11618 
  -11835   -11897   -11881   -11824   -11660   -11514   -11335   -11029 
  -10763   -10527   -10204    -9856    -9531    -9288    -9133    -8983 
   -8920    -8989    -9086    -9221    -9408    -9575    -9725    -9861 
   -9920    -9908    -9869    -9792    -9705    -9697    -9723    -9680 
   -9609    -9616    -9721    -9776    -9725    -9726    -9778    -9795 
   -9766    -9696    -9683    -9780    -9911   -10023   -10150   -10388 
  -10668   -10832   -10973   -11130   -11130   -11018   -10892   -10713 
  -10564   -10527   -10520   -10476   -10462   -10541   -10596   -10521 
  -10395   -10265   -10080    -9889    -9784    -9740    -9694    -9624 
   -9522    -9390    -9246    -9076    -8819    -8516    -8295    -8180 
   -8091    -7959    -7823    -7762    -7743    -7667    -7513    -7342 
   -7197    -7149    -7187    -7225    -7425    -7841    -8230    -8628 
   -9109    -9549   -10004   -10419   -10667   -10909   -11163   -11306 
  -11350   -11314   -11244   -11180   -11078   -10952   -10892   -10930 
  -11032   -11142   -11238   -11357   -11458   -11405   -11193   -11005 
  -10878   -10688   -10474   -10313   -10179   -10052    -9837    -9461 
   -9053    -8692    -8302    -7898    -7600    -7448    -7366    -7251 
   -7110    -7006    -6890    -6664    -6399    -6248    -6214    -6227 
   -6232    -6270    -6404    -6637    -6992    -7367    -7660    -7990 
   -8332    -8539    -8653    -8759    -8886    -9012    -9054    -8977 
   -8789    -8555    -8297    -7921    -7525    -7226    -6931    -6708 
   -6640    -6619    -6661    -6820    -7035    -7284    -7553    -7778 
   -7998    -8250    -8413    -8502    -8670    -8882    -9101    -9408 
   -9741   -10022   -10288   -10480   -10562   -10568   -10491   -10419 
  -10421   -10443   -10468   -10520   -10573   -10582   -10553   -10511 
  -10449   -10404   -10409   -10473   -10568   -10575   -10481   -10375 
  -10282   -10217   -10118    -9973    -9876    -9839    -9871   -10004 
  -10230   -10531   -10815   -11041   -11213   -11232   -11119   -11019 
  -10946   -10881   -10872   -10891   -10926   -11049   -11243   -11462 
  -11690   -11907   -12156   -12424   -12604   -12727   -12881   -13018 
  -13108   -13147   -13067   -12938   -12791   -12469   -12022   -11635 
  -11268   -10918   -10684   -10473   -10207    -9993    -9840    -9615 
   -9333    -9089    -8843    -8585    -8346    -8084    -7882    -7860 
   -7918    -7964    -8073    -8249    -8441    -8628    -8737    -8804 
   -8928    -9055    -9097    -9069    -9022    -8992    -8991    -9019 
   -9155    -9476    -9816   -10045   -10276   -10465   -10496   -10489 
  -10482   -10415   -10405   -10480   -10592   -10799   -11058   -11258 
  -11396   -11558   -11710   -11728   -11674   -11638   -11589   -11451 
  -11096   -10630   -10325   -10090    -9699    -9337    -9184    -9082 
   -8922    -8754    -8632    -8554    -8458    -8310    -8166    -8113 
   -8055    -7884    -7762    -7789    -7894    -8024    -8084    -8085 
   -8113    -7986    -7610    -7270    -7175    -7314    -7659    -8100 
   -8541    -9093    -9716   -10131   -10365   -10614   -10832   -10922 
  -10892   -10786   -10647   -10474   -10218    -9956    -9801    -9661 
   -9419    -9110    -8770    -8399    -8044    -7728    -7443    -7232 
   -7115    -7093    -7101    -7012    -6927    -7020    -7199    -7353 
   -7626    -8100    -8593    -9014    -9399    -9710    -9910   -10065 
  -10273   -10480   -10626   -10778   -10840   -10746   -10693   -10696 
  -10594   -10496   -10496   -10484   -10529   -10708   -10848   -10929 
  -11071   -11165   -11156   -11182   -11247   -11317   -11418   -11512 
  -11581   -11706   -11846   -11923   -12019   -12116   -12074   -11867 
  -11594   -11322   -10952   -10491   -10116    -9909    -9857    -9958 
  -10188   -10461   -10725   -10949   -11078   -11147   -11189   -11194 
  -11208   -11212   -11118   -10949   -10748   -10511   -10279   -10074 
   -9846    -9567    -9249    -8891    -8456    -7998    -7665    -7509 
   -7500    -7638    -7883    -8160    -8398    -8527    -8559    -8493 
   -8341    -8243    -8241    -8286    -8415    -8679    -9090    -9574 
  -10027   -10395   -10644   -10806   -10912   -10936   -10952   -11093 
  -11366   -11688   -11990   -12225   -12352   -12311   -12128   -11885 
  -11612   -11326   -11105   -10981   -10910   -10897   -10900   -10819 
  -10615   -10250    -9804    -9400    -9041    -8797    -8754    -8830 
   -8957    -9138    -9283    -9284    -9202    -9125    -8997    -8803 
   -8631    -8477    -8323    -8197    -8056    -7866    -7671    -7492 
   -7317    -7177    -7141    -7207    -7293    -7380    -7498    -7551 
   -7527    -7553    -7661    -7871    -8247    -8768    -9362    -9985 
  -10624   -11192   -11628   -11992   -12268   -12421   -12551   -12677 
  -12730   -12775   -12890   -13028   -13130   -13226   -13395   -13600 
  -13745   -13862   -14046   -14275   -14458   -14667   -14964   -15210 
  -15347   -15423   -15409   -15305   -15134   -14851   -14461   -13985 
  -13387   -12656   -11827   -11029   -10379    -9850    -9500    -9380 
   -9355    -9373    -9426    -9425    -9422    -9546    -9781   -10126 
  -10592   -11134   -11783   -12459   -12972   -13322   -13570   -13674 
  -13633   -13499   -13284   -12996   -12644   -12243   -11821   -11369 
  -10950   -10671   -10550   -10604   -10839   -11195   -11624   -12088 
  -12550   -12986   -13379   -13738   -14111   -14552   -15060   -15641 
  -16332   -17059   -17679   -18096   -18298   -18294   -18031   -17545 
  -16939   -16217   -15427   -14664   -13851   -12902   -11976   -11197 
  -10487    -9867    -9382    -8941    -8466    -8009    -7603    -7209 
   -6885    -6617    -6384    -6351    -6447    -6551    -6844    -7286 
   -7666    -8104    -8613    -8921    -9104    -9341    -9519    -9634 
   -9783    -9970   -10162   -10345   -10526   -10565   -10394   -10201 
  -10005    -9765    -9667    -9736    -9904   -10161   -10379   -10584 
  -10792   -10911   -11044   -11176   -11241   -11327   -11347   -11199 
  -11007   -10852   -10695   -10501   -10326   -10289   -10321   -10295 
  -10263   -10219   -10114    -9935    -9626    -9256    -8891    -8475 
   -8041    -7636    -7304    -7058    -6719    -6279    -5930    -5562 
   -5106    -4752    -4500    -4306    -4332    -4578    -4893    -5306 
   -5784    -6160    -6507    -6885    -7123    -7206    -7243    -7197 
   -7042    -6902    -6843    -6785    -6729    -6722    -6655    -6454 
   -6181    -5925    -5797    -5774    -5768    -5903    -6230    -6538 
   -6731    -6894    -7004    -7018    -7032    -7079    -7116    -7162 
   -7239    -7316    -7423    -7623    -7865    -8064    -8270    -8532 
   -8770    -8961    -9166    -9374    -9538    -9600    -9607    -9627 
   -9626    -9700    -9853    -9900    -9857    -9788    -9643    -9448 
   -9279    -9185    -9169    -9180    -9181    -9171    -9151    -9161 
   -9239    -9379    -9524    -9616    -9661    -9699    -9726    -9710 
   -9629    -9441    -9156    -8833    -8474    -8130    -7893    -7775 
   -7851    -8146    -8536    -9002    -9492    -9837   -10008   -10006 
   -9812    -9577    -9410    -9315    -9345    -9433    -9433    -9336 
   -9081    -8563    -7925    -7342    -6800    -6331    -5987    -5775 
   -5686    -5598    -5434    -5224    -4931    -4581    -4270    -3950 
   -3588    -3354    -3379    -3541    -3725    -3986    -4259    -4398 
   -4437    -4384    -4173    -3911    -3762    -3747    -3894    -4288 
   -4901    -5579    -6249    -6949    -7621    -8176    -8729    -9305 
   -9785   -10245   -10748   -11219   -11676   -12122   -12501   -12844 
  -13190   -13496   -13750   -13926   -13953   -13891   -13796   -13590 
  -13257   -12896   -12554   -12217   -11873   -11509   -11213   -11047 
  -10912   -10819   -10821   -10812   -10783   -10712   -10480   -10249 
  -10115    -9883    -9591    -9398    -9243    -8935    -8477    -8067 
   -7695    -7229    -6682    -6140    -5512    -4748    -4234    -3984 
   -3651    -3682    -4259    -4638    -4883    -5430    -5789    -5885 
   -6310    -6888    -7273    -7866    -8649    -9100    -9545   -10093 
  -10170   -10243   -10616   -10757   -10858   -11001   -10904   -10748 
  -10583   -10290    -9965    -9843    -9854    -9797    -9914   -10044 
   -9877    -9824    -9757    -9429    -9187    -8923    -8646    -8369 
   -7925    -7629    -7247    -6667    -6530    -6600    -6426    -6397 
   -6597    -6693    -6612    -6420    -6382    -6462    -6360    -6531 
   -6996    -7119    -7299    -7739    -7924    -8030    -8211    -8356 
   -8468    -8476    -8605    -8794    -8682    -8532    -8628    -8793 
   -8895    -9001    -9202    -9319    -9270    -9358    -9470    -9538 
   -9788    -9954   -10083   -10238   -10019    -9580    -9083    -8519 
   -8113    -7784    -7538    -7488    -7497    -7559    -7692    -7984 
   -8507    -9000    -9538   -10337   -10951   -11437   -12173   -12659 
  -13176   -14012   -14339   -14533   -14985   -15276   -15547   -15475 
  -15001   -14727   -14412   -13679   -12664   -11837   -11454   -10881 
  -10010    -9520    -9222    -8819    -8629    -8604    -8586    -8741 
   -9014    -9048    -8941    -9045    -9097    -9116    -9487    -9880 
  -10163   -10492   -10665   -10784   -10848   -10673   -10504   -10420 
  -10335   -10254   -10095    -9978   -10025    -9952    -9818   -10000 
  -10092    -9929   -10034   -10117   -10002   -10186   -10414   -10384 
  -10536   -10857   -10878   -10834   -10927   -10752   -10434   -10263 
  -10069    -9960    -9926    -9623    -9306    -9308    -9201    -8829 
   -8787    -9123    -9235    -9268    -9722   -10235   -10568   -11034 
  -11556   -11944   -12254   -12609   -12943   -13161   -13488   -13783 
  -13839   -13944   -14014   -13861   -13656   -13489   -13394   -13303 
  -13215   -13342   -13605   -13708   -13761   -13956   -13967   -13690 
  -13508   -13382   -13109   -12784   -12567   -12506   -12314   -11941 
  -11661   -11232   -10665   -10251    -9779    -9400    -9245    -8918 
   -8540    -8353    -8096    -7800    -7596    -7295    -7097    -7095 
   -6945    -6778    -6781    -6823    -6927    -7118    -7366    -7619 
   -7835    -8074    -8260    -8317    -8438    -8691    -8843    -8965 
   -9379    -9815   -10007   -10293   -10618   -10734   -10991   -11600 
  -12138   -12478   -12919   -13179   -13045   -12903   -12708   -12350 
  -12091   -11901   -11618   -11359   -11368   -11454   -11351   -11410 
  -11608   -11649   -11800   -12097   -12383   -12580   -12605   -12572 
  -12339   -11789   -11178   -10649   -10220    -9883    -9684    -9552 
   -9381    -9339    -9323    -9126    -8949    -8855    -8754    -8641 
   -8408    -8088    -7766    -7322    -6880    -6559    -6132    -5725 
   -5563    -5364    -5049    -4910    -4927    -4877    -4865    -5034 
   -5203    -5346    -5626    -6000    -6372    -6756    -7219    -7686 
   -8103    -8609    -9207    -9825   -10393   -10828   -11292   -11762 
  -11975   -12070   -12120   -12018   -11967   -11935   -11799   -11742 
  -11720   -11633   -11490   -11318   -11319   -11380   -11282   -11253 
  -11332   -11316   -11269   -11201   -10989   -10762   -10679   -10517 
  -10189    -9922    -9636    -9247    -8919    -8597    -8237    -7935 
   -7668    -7430    -7171    -6852    -6594    -6411    -6269    -6179 
