Origin Time       2011/03/11 14:46:00
Lat.              38.103
Long.             142.860
Depth. (km)       24
Mag.              9.0
Station Code      GIF004
Station Lat.      36.2493
Station Long.     137.5175
Station Height(m) 811
Record Time       2011/03/11 14:49:11
Sampling Freq(Hz) 100Hz
Duration Time(s)  131
Dir.              E-W
Scale Factor      3920(gal)/6182761
Max. Acc. (gal)   73.008
Last Correction   2011/03/11 14:48:56
Memo.             
[...]
   -9754    -9676    -9651    -9580    -9429    -9290    -9167    -9024 
   -8875    -8729    -8544    -8353    -8275    -8235    -8139    -8135 
   -8238    -8282    -8309    -8417    -8561    -8709    -8855    -9002 
   -9232    -9556    -9842   -10032   -10211   -10429   -10595   -10643 
  -10676   -10749   -10731   -10612   -10554   -10547   -10472   -10377 
  -10373   -10436   -10514   -10593   -10666   -10771   -10847   -10763 
  -10592   -10459   -10315   -10147    -9987    -9810    -9657    -9556 
   -9390    -9158    -8970    -8788    -8629    -8639    -8773    -8901 
   -9059    -9317    -9610    -9847   -10035   -10164   -10193   -10190 
  -10165   -10050    -9900    -9734    -9504    -9346    -9324    -9271 
   -9222    -9313    -9407    -9391    -9359    -9374    -9372    -9323 
   -9341    -9444    -9496    -9459    -9365    -9292    -9388    -9608 
   -9825   -10064   -10262   -10316   -10304   -10272   -10208   -10252 
  -10443   -10547   -10507   -10457   -10302   -10021    -9819    -9614 
   -9302    -9123    -9106    -9029    -8930    -8953    -9038    -9103 
   -9190    -9369    -9615    -9804    -9867    -9851    -9830    -9812 
   -9742    -9666    -9698    -9748    -9693    -9636    -9580    -9412 
   -9233    -9131    -9055    -8988    -8911    -8866    -8885    -8957 
   -9135    -9349    -9517    -9783   -10121   -10377   -10619   -10851 
  -11059   -11303   -11422   -11403   -11428   -11349   -11128   -11005 
  -10847   -10516   -10236   -10064    -9918    -9842    -9810    -9729 
   -9706    -9870   -10030   -10098   -10300   -10593   -10780   -10931 
  -11099   -11256   -11396   -11489   -11535   -11510   -11454   -11480 
  -11415   -11092   -10808   -10712   -10613   -10578   -10671   -10725 
  -10766   -10883   -10988   -11037   -11112   -11247   -11402   -11499 
  -11428   -11274   -11219   -11262   -11415   -11605   -11747   -12044 
  -12416   -12588   -12710   -12896   -12962   -12953   -13077   -13154 
  -12987   -12846   -12796   -12585   -12278   -12000   -11737   -11522 
  -11394   -11407   -11513   -11632   -11843   -12143   -12413   -12675 
  -13011   -13296   -13417   -13506   -13531   -13386   -13230   -13106 
  -12915   -12781   -12828   -12910   -12905   -12841   -12708   -12535 
  -12387   -12221   -11986   -11718   -11550   -11548   -11598   -11637 
  -11792   -12121   -12392   -12470   -12618   -12928   -13142   -13210 
  -13326   -13318   -12733   -11946   -11857   -12170   -12025   -11706 
  -11620   -11472   -11509   -12108   -12730   -12935   -12769   -12340 
  -12089   -12159   -12026   -11666   -11490   -11400   -11297   -11396 
  -11737   -12159   -12317   -12225   -12412   -12656   -12457   -12293 
  -12441   -12481   -12359   -12283   -12231   -12110   -11922   -11683 
  -11437   -11338   -11323   -11239   -11173   -11062   -10870   -10837 
  -10980   -11100   -11067   -10961   -11021   -11220   -11424   -11627 
  -11713   -11699   -11849   -12133   -12221   -12056   -11803   -11542 
  -11387   -11299   -11144   -11111   -11207   -11116   -11007   -11167 
  -11384   -11562   -11751   -11711   -11536   -11559   -11562   -11361 
  -11149   -10960   -10800   -10702   -10602   -10578   -10638   -10679 
  -10776   -10918   -10944   -10823   -10742   -10818   -10716   -10383 
  -10419   -10749   -10727   -10482   -10422   -10357   -10150   -10130 
  -10307   -10329   -10249   -10283   -10410   -10567   -10598   -10485 
  -10448   -10532   -10615   -10656   -10770   -10947   -10997   -11083 
  -11263   -11207   -10959   -10668   -10292    -9844    -9493    -9964 
  -11422   -11940   -10215    -9209   -11520   -12931    -9754    -6905 
   -8767   -11651   -11355    -9267    -8061    -7798    -8823   -10774 
  -10601    -8768    -8517    -9599   -10581   -10758    -9858    -9304 
   -9612    -9728    -9847    -9745    -8910    -8887   -10152   -10802 
  -10060    -9370    -9980   -10311    -8613    -7419    -8641    -9511 
   -9417   -10458   -11230   -10499   -10289   -10425    -9742    -9785 
  -10259    -9581    -9286   -10015   -10341   -10112    -9467    -8951 
   -9414    -9783    -9284    -9534   -10669   -10766   -10368   -10717 
  -10648    -9686    -8940    -8666    -7860    -6220    -5402    -6765 
  -10385   -14669   -14287    -9576   -10960   -14850    -6943      608 
   -7393   -13121    -7196    -6012   -10493   -10887   -10635   -10983 
   -8975    -9366   -11211    -9391    -8942   -10654    -9169    -8226 
  -11190   -12603    -9515    -7032    -7529    -7337    -7168    -8357 
   -8912   -10295   -12619   -13676   -13709   -11697    -8646    -7981 
   -7472    -6233    -7634    -8987    -8602   -10362   -12318   -11523 
  -11275   -12299   -10970    -8005    -8203    -9988    -8352    -6644 
   -7873    -8182    -8105    -9646   -10699   -11234   -11080   -10271 
  -11211   -11911   -10447    -9699    -9964    -9019    -7812    -8404 
   -9022    -8595    -8818    -8378    -7566    -9256   -11005    -9945 
   -8993    -9950    -9716    -8168    -8241    -8351    -7352    -7513 
   -8272    -8215    -8225    -9068   -10118   -10158    -9931   -10986 
  -11753   -10737    -9949   -10090    -9634    -9231    -9629    -9544 
   -8797    -8798    -9843   -10451   -10360   -10638   -10678   -10126 
  -10012   -10355   -10264    -9058    -7635    -7353    -7514    -7119 
   -6658    -7076    -8032    -8842   -10200   -11663   -11980   -11901 
  -12035   -12033   -12129   -12314   -12310   -11891   -10708    -9863 
  -10262   -10062    -8841    -8862    -9838    -9750    -9307    -9993 
  -10674   -10246   -10169   -10956   -11180   -11117   -11451   -11186 
  -10331   -10000   -10183   -10214    -9829    -9286    -8972    -8669 
   -8054    -7748    -7810    -7439    -7440    -8195    -8227    -8179 
   -9255    -9799    -8994    -8475    -8758    -8919    -9218   -10072 
  -10378   -10093   -10323   -10591   -10092    -9152    -8445    -8297 
   -8233    -8159    -8483    -8747    -8698    -8633    -8623    -8856 
   -9269    -9733    -9991    -9573    -9208    -9423    -9374    -9056 
   -8878    -8600    -8447    -8510    -8556    -8910    -9290    -9175 
   -9226    -9487    -9321    -9365    -9847    -9788    -9180    -8896 
   -9074    -9233    -9324    -9345    -8914    -8442    -8658    -9107 
   -9124    -9023    -9186    -9335    -9163    -8884    -8905    -9124 
   -9098    -9035    -9242    -9302    -9204    -9419    -9668    -9522 
   -9369    -9615    -9684    -9168    -9001    -9307    -8922    -8349 
   -8712    -9282    -9421    -9493    -9608    -9830   -10063    -9907 
   -9548    -9503    -9697    -9784    -9848   -10132   -10465   -10427 
  -10065    -9907   -10050   -10058    -9854    -9770    -9804    -9816 
   -9847    -9697    -9499    -9732   -10023    -9947    -9749    -9646 
   -9801   -10027    -9995    -9966    -9972    -9868    -9928    -9935 
   -9750    -9851    -9958    -9791    -9813    -9941    -9766    -9462 
   -9368    -9238    -9059    -9346    -9583    -9292    -9013    -8830 
   -8781    -8814    -8604    -8797    -9258    -8986    -8902    -9578 
   -9872    -9795    -9797    -9763    -9838    -9981   -10209   -10282 
  -10130   -10781   -11600   -11155   -10801   -11405   -11688   -11646 
  -11752   -11492   -11186   -11380   -11443   -11134   -11080   -11326 
  -11294   -10712   -10204   -10219   -10189   -10233   -10639   -10600 
  -10385   -10712   -10864   -10791   -10899   -10296    -9138    -8898 
   -9127    -8704    -8510    -9186    -9821    -9957    -9753    -9472 
   -9597    -9741    -9349    -9214    -9537    -9626    -9629    -9666 
   -9757    -9981    -9826    -9436    -9408    -9526    -9426    -9084 
   -8884    -9092    -9125    -8933    -9178    -9427    -9244    -9291 
   -9495    -9288    -9079    -9133    -9428   -10132   -10603   -10587 
  -10818   -11119   -11027   -10829   -10714   -10759   -11026   -11130 
  -10792   -10567   -10875   -11140   -11047   -11138   -11479   -11723 
  -12060   -12155   -11479   -11067   -11494   -11588   -11202   -11250 
  -11447   -11182   -10904   -10921   -10866   -10878   -11163   -11256 
  -11135   -11142   -11090   -10972   -10983   -10941   -10945   -10987 
  -10543   -10007   -10254   -10937   -11435   -11786   -11524   -10383 
   -9540    -9653    -9970    -9892    -9671    -9879   -10143   -10285 
  -11145   -11428   -10144    -9810   -10494   -10257   -10545   -11693 
  -11523   -10645   -10876   -11549   -11427   -10548    -9257    -8606 
   -9553   -10139    -9218    -9160   -10173   -10515   -10300    -9776 
   -9498    -9860    -9603    -9033    -9131    -8737    -8247    -9120 
  -10088   -10196   -10002    -9590    -9681   -10450   -10497    -9714 
   -9193    -9286    -9698    -9788    -9548    -9564    -9890   -10626 
  -11176   -10485    -9803   -10303   -10602   -10095    -9736    -9908 
  -10268   -10275   -10105   -10407   -10795   -10786   -10648   -10281 
   -9678    -9512    -9604    -9150    -8816    -9147    -9132    -9036 
   -9582    -9775    -9316    -8764    -8317    -8541    -9063    -8891 
   -8635    -8867    -8845    -8473    -8352    -8363    -8261    -8218 
   -8081    -7799    -7807    -8051    -8183    -8220    -8264    -8350 
   -8107    -7625    -7894    -8408    -7999    -7625    -8084    -8546 
   -8724    -8902    -9239    -9734    -9983   -10092   -10238    -9986 
   -9601    -9304    -8845    -8792    -8979    -8607    -8338    -8418 
   -8319    -8526    -9003    -9219    -9454    -9674    -9746    -9793 
   -9751    -9861   -10126   -10257   -10352   -10353   -10199   -10129 
  -10133   -10126   -10165   -10147   -10024    -9868    -9604    -9492 
   -9807   -10000    -9889   -10098   -10401   -10271    -9932    -9612 
   -9634   -10039   -10110    -9916    -9982   -10009    -9891    -9800 
   -9582    -9387    -9382    -9295    -9184    -9257    -9282    -9224 
   -9215    -9103    -9006    -9142    -9335    -9402    -9352    -9278 
   -9121    -8884    -8858    -8980    -8965    -8864    -8836    -8980 
   -9167    -9149    -9214    -9766   -10390   -10583   -10485   -10170 
   -9778    -9762    -9940    -9864    -9722    -9288    -8377    -8233 
   -9286   -10250   -10277    -9417    -8953    -9751    -9981    -8998 
   -9005   -10160   -10560   -10524   -11349   -12199   -12091   -11699 
  -11518   -11174   -10658   -10642   -10897   -10617   -10614   -11109 
  -10889   -10646   -10750    -9972    -9208    -9331    -9510    -9858 
  -10104    -9821   -10014   -10294    -9773    -9609   -10049    -9871 
   -9386    -9473    -9694    -9630    -9459    -9291    -9504    -9841 
   -9499    -9175    -9463    -9526    -9367    -9480    -9505    -9382 
   -9515    -9818    -9994    -9971    -9730    -9369    -8988    -8617 
   -8353    -8166    -8263    -8729    -8899    -8869    -9172    -9133 
   -8603    -8357    -8297    -8169    -8367    -8888    -8992    -8657 
   -8794    -9122    -8739    -8300    -8481    -8702    -8691    -8589 
   -8184    -7834    -8254    -8627    -8035    -7537    -7732    -8104 
   -8578    -8536    -8151    -8578    -8961    -8674    -8751    -9038 
   -9228    -9634    -9819    -9695    -9359    -8973    -9439   -10195 
  -10355   -10399    -9879    -9178    -9721   -10393   -10027    -9373 
   -8842    -8559    -8628    -8797    -9224    -9851    -9362    -7851 
   -8376   -10648    -9730    -6059    -5286    -8115   -10957   -11433 
   -9866    -9668   -12227   -13546   -11874   -10099    -8743    -7399 
   -7944    -9804   -11190   -12247   -11278    -7833    -7442   -12457 
  -15842   -13071   -10327   -12112   -13094   -10451    -8548    -8090 
   -6585    -6150    -9449   -13101   -12385    -9756   -10339   -12186 
  -11638   -10472    -9703    -7582    -5747    -6774    -8896    -9935 
  -10876   -13202   -15394   -14344   -12378   -13638   -13631    -8677 
   -6280   -10490   -13886   -12906   -11570   -10905   -11451   -13537 
  -10623    -3737    -6019   -16184   -19248   -13138    -7337    -6986 
   -9545   -10575   -10324   -11122   -10730    -7065    -5056    -8075 
  -12133   -15545   -17236   -11670    -5007    -9377   -13607    -6161 
   -4176   -12561   -10998    -1212    -2214   -11683   -15645   -13963 
  -12962    -9938    -5218    -6089    -7515    -3795    -3427    -7801 
   -9305    -9559   -13077   -15033   -10767    -7123    -9815   -14959 
  -18224   -16053    -8747    -2553    -2161    -6428    -7846    -7468 
  -14598   -19436    -9516     1195    -1003    -8453   -12276   -12502 
  -12446   -17448   -24809   -21583    -9556    -6966   -13368   -11632 
   -5532    -7913   -12855   -14027   -10406    -2717    -3717   -12305 
   -9141      708    -2739   -14069   -15061    -9437    -9891   -10023 
   -7825   -13171   -16777   -12444   -12891   -11861     -952     1299 
   -7945    -9827    -8074   -11640   -10919    -6042    -6599   -11381 
  -15886   -17079   -15202   -13134    -8525    -5045   -12567   -22200 
  -20091   -14912   -12868    -5883      403    -1033     1306     7252 
     738   -13364   -19105   -14315    -3861    -5593   -20418   -12014 
    6679   -11560   -34373   -24489   -18173   -21157    -6686     3073 
   -5519    -9171    -6598    -4273     -384    -4241   -13188   -14250 
  -11587   -10217    -8693    -9144    -5783     5654     8249    -3461 
   -6486     -226    -6445   -12090     3772    19894    22211    26831 
   26571    10329    -4355   -14502   -31382   -52861   -75405   -86814 
  -78019   -71963   -76196   -55878    -2016    45198    54197    27676 
   -8662   -13855    13669     6778   -36107    -7640    70384    32542 
  -94059  -125471   -80924   -87101   -93897   -35151    18383    40663 
   64253    61604    41400    52124    54567    22793    17070    37006 
   21348   -25805   -62326   -77791   -79462   -66588   -32025     9232 
   27415    30643    36101    23629    -5410   -16746   -13476   -20092 
  -29880   -28620   -24610   -27149   -32070   -35852   -31223    -4938 
   28769    38975    29618    19785    10980    -1209   -22231   -41200 
  -41842   -43534   -62120   -67821   -41745   -11058     5030    22170 
   48404    63445    52950    35835    30852    20071   -12259   -46259 
  -66036   -75332   -72417   -61556   -55119   -47910   -32857   -13068 
   10207    23715    18797    16094    21426    17936     9528     1527 
  -12651   -24138   -28933   -35885   -37436   -24750    -5200    11584 
   18881    14717      821   -21869   -44893   -53558   -45425   -31611 
  -20503    -9216     6670    18843    18009     9234     1513      375 
    1683    -7067   -17451   -12266   -10737   -35341   -60785   -56527 
  -33759   -14741    -1164    14619    32140    39996    31835    14993 
   -4802   -27222   -48002   -55501   -37951    -8304     5581    10086 
   26491    36234    15032   -19745   -39453   -35930   -23036   -23977 
  -33810   -26122    -7921    -4593   -10958   -11481    -7018    -2912 
   -4901   -12836   -14302    -8360   -10381   -20643   -26203   -26842 
  -25061   -16149    -7795   -11928   -19103   -17435   -10737     -980 
   11728    20335    18536     5674    -7822   -10608   -12413   -25171 
  -36961   -38270   -40215   -41701   -29001   -11710    -2439     6923 
   17131    21594    19195     4051   -16440   -21164   -15692   -17864 
  -19753   -13169    -9456   -11314   -11934   -12678   -11064    -2964 
    2179     -855    -4430    -6886   -13208   -23382   -29995   -23954 
   -7371     4135     2429    -1217     1381     3600     1623    -3356 
   -9798   -12657   -12473   -13511   -11398    -5899    -5973    -8278 
   -5553    -6599   -12549    -9364    -1446    -3698    -8150    -2643 
    2885    -1652    -8912   -12209   -14990   -19941   -24727   -26476 
  -25060   -22623   -20923   -19798   -15969    -7592     -448     1034 
     590     -229    -3074    -6469    -9843   -12112    -9688    -4926 
   -2882    -2036    -1282    -4449   -10193   -12332   -10667    -9322 
  -11944   -17983   -19478   -16236   -17980   -21368   -17747   -11621 
   -7429    -3850     -869     2433     3616    -2574   -12559   -18110 
  -18570   -19950   -23450   -22821   -17190   -12934   -12591   -12589 
   -9015    -3793    -2073    -3679    -4066    -1245     1824     2168 
     558    -4106   -12844   -18793   -18252   -18371   -22469   -25928 
  -25931   -23610   -22414   -21924   -17915   -14066   -12297    -4089 
    6719     7642     3135     2154     3646     5520     5423      359 
   -7183   -14407   -22690   -28470   -27028   -24116   -25604   -27398 
  -22136    -8643     2955     3028    -2471    -2213     1801    -1141 
   -9923   -14148   -15065   -20003   -27442   -33127   -33303   -27420 
  -23489   -21443   -11854      511     7526    12871    15649    11008 
    1237    -8990   -14616   -15803   -18864   -21373   -16950   -11905 
  -14921   -20953   -21166   -16192   -10118    -5604    -3953    -2647 
   -2213    -5998   -10083   -10264    -8759    -9205   -13283   -16497 
  -15199   -14327   -14547   -11184    -7694    -9191   -11621    -9946 
   -6977    -5203    -2648    -2772    -8782   -13464   -12849   -12460 
  -13913   -14647   -15020   -14167   -10206    -5400    -2152     -334 
    -727    -4403   -10133   -15071   -17601   -18426   -18196   -17012 
  -14813   -10627    -6014    -4766    -5632    -4824    -5372   -10670 
  -13516    -9883    -8280    -9125    -5326    -3088    -7718   -11240 
  -12032   -14513   -15414   -13358   -12660   -11646    -8692   -10340 
  -15019   -13630   -11160   -14507   -15586   -10243    -6024    -5766 
   -4744     -630     2326      374    -2336    -3014    -5890   -10046 
  -10550    -9025    -8468    -9020   -11668   -15658   -17495   -17004 
  -15146   -10164    -5126    -5552    -8994   -10795   -10120    -8196 
   -8502   -10331    -8558    -6062    -8440   -12106   -13587   -13674 
  -11330    -9144   -10549   -11754   -11053   -10585    -8664    -5723 
   -5813    -8261    -9388    -9526   -11550   -14146   -14171   -13471 
  -13716   -13598   -15436   -18717   -16221   -10059    -9435   -11650 
   -9468    -5371    -4472    -6928    -8669    -6560    -4773    -6961 
   -8852    -7839    -5916    -4639    -5626    -8307   -10375   -13318 
  -17792   -19446   -17536   -16685   -17686   -16969   -13945   -11914 
  -11253    -8129    -2705      368     -401    -3053    -4986    -5234 
   -6037    -8407   -10809   -13121   -15519   -16535   -16258   -16860 
  -18308   -17882   -13911    -9440    -8385    -7810    -5343    -4422 
   -4566    -4665    -6885    -9111    -9664    -9992    -9185    -8741 
  -11168   -11991    -8583    -6480    -7388    -7525    -6058    -3501 
   -2261    -6081   -11227   -12092   -11689   -12906   -12986   -12355 
  -12989   -12571   -11030   -11243   -12342   -12355   -11576   -10811 
  -10274    -8370    -4324    -2036    -3962    -5559    -3875    -3535 
   -7248   -10345   -10000    -8997    -9346   -11769   -15885   -17941 
  -16588   -15594   -15856   -13570    -8986    -6894    -6814    -5710 
   -6487   -10229   -11539    -8805    -5724    -4951    -7510   -11317 
  -12666   -12611   -13304   -12994   -10810    -8484    -8209   -10674 
  -13060   -13335   -12730   -11224    -8328    -6026    -5256    -4203 
   -2882    -4208    -8185   -11171   -11651    -9951    -7033    -6579 
   -9628   -12283   -12604   -11316    -9733    -9336    -9371    -8902 
   -8437    -8715   -11169   -13447   -11855   -10674   -12483   -11558 
   -8736   -10054   -12605   -11913   -10620   -10427    -9852    -8768 
