Origin Time       2011/03/11 14:46:00
Lat.              38.103
Long.             142.860
Depth. (km)       24
Mag.              9.0
Station Code      GIF003
Station Lat.      36.3326
Station Long.     137.3019
Station Height(m) 402
Record Time       2011/03/11 14:50:06
Sampling Freq(Hz) 100Hz
Duration Time(s)  65
Dir.              E-W
Scale Factor      3920(gal)/6182761
Max. Acc. (gal)   14.907
Last Correction   2011/03/11 14:49:51
Memo.             
[...]
  -18495   -18500   -18580   -18620   -18556   -18559   -18629   -18717 
  -18781   -18796   -18942   -19089   -19045   -19064   -19178   -19246 
  -19374   -19514   -19590   -19695   -19769   -19795   -19894   -20021 
  -20100   -20176   -20262   -20264   -20239   -20348   -20432   -20394 
  -20455   -20534   -20506   -20522   -20550   -20522   -20491   -20401 
  -20293   -20294   -20322   -20271   -20261   -20345   -20392   -20378 
  -20359   -20361   -20364   -20331   -20333   -20360   -20296   -20164 
  -20051   -19975   -19898   -19792   -19680   -19593   -19524   -19417 
  -19322   -19336   -19341   -19313   -19380   -19425   -19384   -19386 
  -19387   -19320   -19208   -19072   -19000   -18967   -18855   -18697 
  -18525   -18342   -18253   -18261   -18191   -18016   -17941   -17998 
  -17914   -17715   -17661   -17609   -17476   -17417   -17282   -17101 
  -17055   -16953   -16814   -16763   -16637   -16548   -16662   -16774 
  -16734   -16603   -16500   -16491   -16519   -16535   -16598   -16653 
  -16588   -16540   -16626   -16674   -16609   -16543   -16526   -16574 
  -16676   -16761   -16783   -16724   -16631   -16586   -16590   -16638 
  -16680   -16673   -16667   -16614   -16561   -16651   -16724   -16662 
  -16674   -16829   -16913   -16908   -16952   -16958   -16983   -17144 
  -17163   -17045   -17152   -17316   -17287   -17266   -17306   -17294 
  -17277   -17326   -17374   -17305   -17245   -17250   -17181   -17169 
  -17174   -17028   -17011   -17142   -17107   -17003   -17052   -17136 
  -17088   -17011   -16987   -16940   -16841   -16777   -16821   -16900 
  -16979   -16957   -16868   -17006   -17113   -16977   -16994   -17114 
  -17120   -17132   -17097   -17044   -17127   -17229   -17303   -17426 
  -17510   -17562   -17605   -17581   -17625   -17697   -17659   -17649 
  -17645   -17648   -17738   -17705   -17557   -17543   -17620   -17595 
  -17533   -17564   -17568   -17484   -17421   -17412   -17426   -17480 
  -17561   -17569   -17506   -17478   -17548   -17666   -17625   -17400 
  -17220   -17183   -17279   -17475   -17617   -17702   -17831   -17829 
  -17633   -17478   -17454   -17591   -17718   -17619   -17425   -17215 
  -17119   -17154   -17001   -16783   -16867   -17065   -16980   -16763 
  -16664   -16389   -16146   -16470   -16808   -16615   -16385   -16384 
  -16427   -16590   -16752   -16717   -16830   -17020   -16957   -17009 
  -17100   -16996   -17169   -17487   -17534   -17399   -17196   -17182 
  -17346   -17384   -17359   -17240   -17144   -17514   -17843   -17469 
  -17113   -17354   -17584   -17406   -17210   -17380   -17562   -17374 
  -17206   -17135   -17085   -17178   -17005   -16912   -17333   -17407 
  -17033   -16900   -17137   -17444   -17326   -17088   -17306   -17476 
  -17304   -17295   -17450   -17542   -17612   -17609   -17655   -17836 
  -17886   -17829   -17938   -18037   -17929   -17987   -18202   -18089 
  -17919   -17978   -17881   -17853   -18076   -17888   -17443   -17572 
  -18027   -17983   -17616   -17670   -18019   -18043   -17736   -17546 
  -17675   -17938   -18065   -17843   -17468   -17419   -17469   -17357 
  -17439   -17540   -17245   -16923   -17009   -17271   -17231   -16983 
  -17040   -17228   -17112   -17028   -17172   -17178   -17062   -17030 
  -16969   -16840   -16695   -16655   -16738   -16606   -16564   -16917 
  -16828   -16426   -16598   -16762   -16557   -16539   -16646   -16663 
  -16528   -16377   -16539   -16802   -16815   -16551   -16291   -16407 
  -16571   -16235   -15876   -16104   -16247   -15726   -15230   -15323 
  -15679   -15652   -15247   -15145   -15234   -15182   -15409   -15663 
  -15474   -15435   -15852   -16032   -15832   -16024   -16620   -16731 
  -16257   -16067   -16432   -16706   -16591   -16275   -16107   -16390 
  -16597   -16307   -16137   -16319   -16385   -16324   -16328   -16202 
  -16092   -16294   -16364   -16065   -15840   -16000   -16293   -16236 
  -16012   -16009   -16260   -16512   -16355   -16301   -16644   -16598 
  -16443   -16545   -16521   -16701   -16805   -16522   -16689   -17056 
  -16966   -16847   -16986   -17184   -17259   -17244   -17107   -16974 
  -17096   -17150   -17219   -17314   -16953   -17149   -17833   -17219 
  -16722   -17681   -17872   -17264   -17501   -17753   -17550   -17472 
  -17367   -17387   -17717   -17725   -17405   -17400   -17454   -17309 
  -17354   -17464   -17366   -17272   -17474   -17743   -17674   -17508 
  -17453   -17391   -17392   -17507   -17625   -17585   -17235   -16738 
  -16743   -17139   -17048   -16695   -16670   -16803   -16651   -16339 
  -16639   -16892   -16442   -16332   -16408   -16368   -16639   -16729 
  -16591   -16332   -16176   -16585   -16846   -16658   -16493   -16549 
  -16715   -16378   -16002   -16445   -16801   -16523   -16322   -16233 
  -16280   -16715   -16864   -16566   -16519   -16716   -16857   -16881 
  -16725   -16463   -16448   -16827   -16932   -16517   -16482   -16892 
  -16978   -16859   -16927   -17083   -16994   -16964   -17351   -17272 
  -17033   -17447   -17488   -17276   -17614   -17637   -17002   -16928 
  -17566   -17560   -17163   -17172   -16958   -16679   -17031   -17308 
  -16977   -16751   -16773   -17117   -17822   -17662   -16898   -16764 
  -16993   -17489   -17938   -17667   -17098   -16913   -17306   -17641 
  -17418   -17297   -17368   -17207   -17240   -17352   -17316   -17521 
  -17443   -17120   -16958   -16799   -17265   -17430   -16632   -16993 
  -18125   -17748   -16637   -16704   -17642   -17743   -17158   -17336 
  -17851   -17876   -17526   -16805   -16554   -17444   -18125   -17670 
  -17242   -17515   -17601   -17460   -17545   -17319   -17184   -17708 
  -17790   -17238   -17161   -17282   -17006   -16891   -17026   -17231 
  -17511   -17409   -17031   -16867   -17007   -17228   -17269   -17309 
  -17160   -16856   -17020   -17108   -16930   -17265   -17553   -17207 
  -17047   -17338   -17436   -17350   -17422   -17636   -17685   -17554 
  -17673   -17673   -17434   -17578   -17745   -17679   -17812   -18122 
  -18148   -17632   -17283   -17657   -18094   -18045   -17804   -17847 
  -17865   -17574   -17696   -18063   -17949   -17884   -18281   -18713 
  -18477   -17947   -18343   -18643   -17993   -17947   -18472   -18418 
  -18060   -18157   -18561   -18265   -17769   -18112   -18360   -18180 
  -18275   -18361   -18339   -18218   -17880   -17952   -18066   -17838 
  -18243   -18474   -17789   -17630   -17883   -17755   -17637   -17663 
  -17896   -17861   -17331   -17528   -18178   -17810   -17432   -18000 
  -18199   -18019   -18301   -18288   -17661   -17505   -18293   -18637 
  -17886   -17659   -18049   -17917   -17879   -17902   -17457   -17450 
  -17743   -17622   -17506   -17580   -17597   -17373   -17400   -17555 
  -17008   -17036   -17704   -17122   -16438   -17047   -17526   -16904 
  -16248   -16692   -17333   -17088   -16947   -17120   -16683   -16644 
  -17132   -16974   -16877   -16716   -16636   -17410   -17206   -16347 
  -16679   -17236   -17271   -17011   -17169   -17650   -17318   -17201 
  -17606   -17324   -17404   -18036   -17901   -17443   -17559   -17979 
  -17720   -17401   -17870   -17831   -17507   -17774   -17933   -17825 
  -17443   -17331   -17936   -18326   -17993   -17313   -17285   -17977 
  -18018   -17397   -17156   -17496   -17911   -17741   -17186   -16965 
  -17279   -17693   -17022   -16285   -17557   -18222   -16563   -16317 
  -17976   -17931   -16776   -16734   -16968   -17824   -18388   -16639 
  -16175   -17555   -17360   -17014   -16693   -16053   -17298   -19005 
  -18650   -16439   -14704   -15964   -18421   -18435   -16778   -15646 
  -14826   -15464   -17435   -17542   -18030   -18987   -14579   -11010 
  -15921   -20989   -19745   -15054   -11216   -13215   -18070   -18328 
  -16827   -16273   -14427   -15188   -18519   -19103   -18143   -15913 
  -13248   -14655   -17094   -17411   -17796   -17092   -16128   -16040 
  -14240   -15441   -20840   -21082   -17413   -15212   -12305   -13564 
  -20500   -20932   -14907   -14409   -17005   -15724   -15315   -17261 
  -18788   -21110   -17726    -8984   -11551   -21381   -20820   -14905 
  -12132   -12171   -17370   -18494   -10768   -14813   -27706   -22831 
  -10891   -10729   -13405   -17152   -20220   -13974   -12087   -20085 
  -19555   -13692   -15544   -17412   -17441   -20037   -16682   -10159 
  -14711   -24455   -22841   -10755    -5962   -15137   -22528   -20380 
  -16322   -13789   -16506   -21774   -19182   -14996   -15779   -14581 
  -13843   -15680   -16212   -21264   -25866   -17352    -8166   -11008 
  -17635   -22285   -22505   -18483   -17559   -18091   -13458    -8284 
  -10648   -19230   -24150   -19747   -13517   -14182   -19047   -20803 
  -16597   -12741   -15795   -16792   -12245   -15549   -22712   -18984 
  -11692   -12732   -17066   -17941   -18344   -18738   -16222   -14986 
  -14758   -11697   -13859   -20258   -17894   -12127   -13666   -18598 
  -20433   -17939   -15397   -14466   -11937   -11813   -18009   -22422 
  -19551   -15981   -14375   -12364   -14457   -17981   -15486   -14209 
  -17091   -17703   -16903   -14877   -14237   -18305   -18493   -14130 
  -14478   -16793   -16351   -15809   -15924   -16528   -16826   -13974 
  -10224   -12586   -21845   -26130   -16640    -6273   -10613   -20642 
  -19493   -12934   -14604   -19444   -18368   -14215   -12151   -15021 
  -21070   -20639   -13730   -12906   -15710   -14136   -13727   -15669 
  -18869   -22323   -18014   -11575   -13100   -16821   -18102   -18064 
  -16259   -13487   -13790   -17267   -17762   -17315   -18406   -15440 
  -13982   -18833   -19591   -15852   -16050   -16732   -16199   -18897 
  -20301   -18020   -16495   -16489   -17767   -16861   -14170   -17699 
  -22502   -20680   -17246   -14300   -13270   -16612   -17559   -16257 
  -19388   -21310   -18503   -16481   -16029   -18748   -22715   -18654 
  -13172   -17012   -21545   -19910   -16894   -16162   -17854   -19382 
  -18920   -17307   -16728   -18267   -18144   -15327   -14245   -14388 
  -14138   -16198   -18994   -19033   -17878   -15770   -13321   -15195 
  -18715   -18352   -17483   -17498   -18280   -21397   -18826   -10989 
  -11011   -16601   -19142   -18363   -16328   -16947   -19066   -18230 
  -15415   -13306   -15893   -20928   -18724   -13993   -15014   -16360 
  -18506   -20268   -15847   -16301   -20737   -15595   -14523   -22278 
  -19564   -13902   -18754   -23062   -23195   -20776   -13168   -10870 
  -17519   -19085   -13856   -14869   -21709   -19824   -13964   -18296 
  -22750   -19247   -15779   -12638   -11239   -18620   -26761   -21926 
  -12424   -13253   -17453   -16910   -16523   -16719   -17365   -19568 
  -17308   -12039   -16242   -23522   -19283   -16840   -21634   -18035 
  -12712   -14755   -16987   -19307   -22098   -20647   -14658   -11576 
  -17885   -24033   -22412   -17777   -11086    -9376   -18498   -23969 
  -19994   -19758   -21457   -15952   -15224   -22149   -19631   -14504 
  -17674   -18511   -18740   -20963   -17219   -13302   -13543   -14802 
  -18551   -17977   -12422   -16373   -23244   -19439   -14975   -15093 
  -15724   -18108   -17125   -13178   -15516   -18840   -18219   -21238 
  -25430   -22596   -15691   -13308   -17450   -20335   -19345   -18391 
  -16171   -16370   -21454   -19360   -10545    -9840   -14089   -15518 
  -17379   -17079   -15711   -20721   -24227   -19457   -13903   -10103 
  -11841   -22523   -27514   -21083   -14931   -11178   -11830   -17972 
  -17883   -12535   -13848   -19372   -21262   -19834   -20052   -21513 
  -19999   -19711   -24280   -25559   -17653    -6903    -4692   -14372 
  -22974   -18636   -10723   -12451   -20132   -23393   -19855   -16015 
  -18375   -22672   -19293   -12301   -14532   -20733   -17600   -12571 
  -14834   -18234   -19604   -18599   -15723   -15122   -13827   -10607 
  -11926   -18057   -24310   -25497   -16797    -4975    -4961   -15644 
  -21741   -19918   -17425   -18970   -25923   -29504   -20806   -10920 
   -8749    -8306   -13755   -22089   -17904    -9464    -6680    -7270 
  -16954   -29447   -30424   -23917   -20240   -18147    -8308     2864 
   -2810   -20127   -31354   -29541   -18011   -11458   -16519   -23476 
  -25612   -22697   -16956   -12084   -11322   -11555    -6119    -5115 
  -21551   -37641   -33790   -22584   -15946   -10853   -10293   -13710 
  -15011   -17643   -21195   -16546    -8190    -7897   -10529   -11028 
  -19283   -31452   -32074   -23139   -13046    -7745   -12132   -15347 
  -10821   -12794   -24235   -31770   -26420   -12592    -5151    -7807 
  -11649   -14518   -21706   -31394   -31243   -18773    -5727    -2956 
  -12998   -24948   -29990   -30510   -25933   -20327   -19249   -15527 
   -8744    -7776   -11891   -16090   -16716   -12056    -7833   -10595 
  -18416   -23860   -23634   -20401   -16980   -16081   -18760   -19812 
  -16283   -18408   -29268   -29983   -14888    -3586    -5884   -12473 
  -17273   -23786   -25280   -13181    -3224    -9298   -19711   -23257 
  -23129   -22611   -18638   -12508   -10363   -11247   -13609   -18096 
  -19783   -18295   -17358   -15541   -11298    -5889    -5047   -11531 
  -18320   -19462   -17619   -19847   -24922   -25630   -20997   -11893 
   -4979   -10704   -21987   -25569   -24944   -24821   -22714   -20670 
  -16623    -8793    -6474    -8973    -7741    -8591   -18458   -29993 
  -34049   -29741   -19715    -7191     2013     -259   -13508   -21870 
  -18431   -16885   -18741   -12020    -4855    -9361   -16604   -19483 
  -23321   -28099   -29665   -25553   -10253     6065     -388   -20949 
  -30324   -33128   -36116   -27431    -9683    -2688    -9933   -17421 
  -20456   -19546   -16319   -19594   -20351   -10642    -6958    -8199 
  -11828   -25156   -28878   -20642   -19161   -16202    -8198    -6227 
   -8852   -13544   -19982   -21412   -16618   -12808   -12434   -17148 
  -28281   -34778   -25698    -9252    -3784    -8883    -9745   -11018 
  -19230   -23974   -25012   -27272   -26223   -18137    -5536      819 
   -5605   -19801   -32250   -30102   -15086    -5339    -5655   -10540 
  -19839   -28571   -30403   -25707   -14819    -6834   -11533   -19674 
  -23535   -25025   -22010   -14242    -7964   -10322   -19965   -27562 
  -26922   -18111    -9905   -12117   -19077   -21830   -23196   -21568 
  -11293    -2551    -7345   -19132   -26800   -26430   -20010   -16694 
  -18083   -18283   -18754   -15821    -9241   -11385   -17853   -17350 
  -18319   -26633   -29593   -20511   -11060   -10167   -13751   -16811 
  -21174   -25983   -22866   -13300    -9836   -15788   -20084   -17290 
  -18096   -23319   -21866   -16147   -15267   -18831   -18305   -13770 
  -15691   -20739   -18100   -13733   -17145   -21994   -20026   -13931 
   -9474    -9518   -12204   -16233   -21307   -21249   -16236   -14257 
  -15437   -18353   -23112   -23685   -18241   -12795   -10761   -13565 
  -20515   -25756   -25177   -19964   -14468   -14373   -17676   -17367 
  -18051   -23158   -23175   -17006   -11871   -11257   -16014   -21248 
  -21271   -15181    -9324   -13400   -21103   -19282   -14121   -14598 
  -16606   -19818   -22190   -17665   -16618   -25076   -27500   -17161 
   -6368    -7104   -15787   -19573   -18016   -17590   -18062   -17018 
  -11754    -8016   -12698   -18568   -23215   -27421   -23894   -15933 
  -10972    -9268   -13196   -20689   -24929   -23588   -16951   -12425 
  -14982   -15114   -11480   -13553   -21466   -27553   -24582   -18092 
  -18554   -19602   -14787   -11470   -12758   -14607   -17036   -21211 
  -23352   -20419   -15396   -12657   -13054   -14938   -16732   -17938 
  -19780   -21394   -18024   -12864   -13760   -17406   -19431   -19916 
  -17154   -14454   -14780   -15003   -17113   -22769   -23588   -16708 
  -10730    -9970   -13423   -19591   -23570   -22423   -18813   -16520 
  -16081   -14661   -11446    -9468   -13363   -20922   -23141   -20619 
  -18812   -16358   -12540   -11478   -17077   -23993   -23879   -18988 
  -15222   -14316   -12628   -10237   -14215   -18714   -18922   -20902 
  -18298   -13147   -15518   -16030   -13312   -17395   -22177   -19572 
  -15374   -15695   -18308   -18489   -13729    -8312    -9399   -15155 
  -19018   -20901   -21624   -18081   -12529   -10804   -13647   -17769 
  -17786   -13737   -12090   -13979   -16511   -17158   -15487   -16443 
  -19645   -18917   -16059   -17165   -21102   -20287   -14650   -11079 
   -9253    -9421   -15061   -21638   -24868   -23456   -15966   -11394 
  -14268   -14903   -15514   -21186   -22871   -18338   -14514   -13530 
  -13142   -13139   -15202   -17019   -16328   -15457   -16968   -18583 
  -17355   -16997   -19431   -19707   -16389   -15033   -17151   -17891 
  -17340   -17262   -18815   -22620   -22042   -16036   -11178   -10948 
  -15806   -19736   -20335   -20927   -19563   -17264   -15865   -13838 
  -13426   -16269   -20406   -21711   -20249   -19178   -15950   -13218 
  -14933   -16534   -19079   -21783   -17848   -13098   -15149   -17693 
  -16484   -17474   -20144   -19124   -17686   -17268   -15448   -15633 
  -18231   -19550   -19195   -17147   -16305   -18326   -18152   -16376 
  -16012   -16043   -18023   -20116   -19995   -18810   -15277   -12815 
  -14625   -16222   -16456   -15727   -13516   -16392   -25052   -26418 
  -18725   -14097   -14572   -16224   -17060   -15073   -15904   -20110 
  -16691   -10160   -12599   -17606   -18402   -19858   -22536   -21370 
  -17178   -15537   -16414   -17901   -19945   -19298   -15517   -11691 
   -9949   -13444   -20622   -24444   -23089   -19784   -16156   -14190 
  -15763   -17459   -15993   -16223   -20471   -20519   -13932    -9059 
  -12034   -20246   -24790   -22724   -19147   -16792   -14848   -13085 
  -14457   -20090   -22927   -17779   -13944   -18426   -18917   -11580 
   -9922   -15000   -20224   -23124   -19663   -14056   -14497   -16765 
  -15108   -15017   -18856   -18797   -16274   -18170   -18342   -13632 
  -13184   -18143   -18900   -14767   -13083   -13955   -17133   -22028 
  -21024   -14666    -9590    -7837   -12618   -21417   -23741   -18063 
  -13582   -14712   -16463   -15033   -14094   -17823   -22385   -20594 
  -13749   -10029   -13270   -19358   -20728   -16547   -15073   -18116 
  -17751   -13838   -13674   -14562   -11052   -11024   -19319   -25833 
  -23494   -17415   -15331   -15926   -14548   -13988   -16240   -20058 
  -24108   -23376   -15858    -8755    -9535   -15805   -20454   -20808 
  -18531   -17363   -18544   -18611   -15376   -13294   -16165   -19486 
  -20022   -18205   -13869   -11483   -14549   -18724   -19694   -19084 
  -19044   -17800   -15089   -14535   -16925   -17986   -17230   -19686 
  -24091   -23266   -17727   -13895   -12936   -14150   -17193   -18927 
  -20000   -22380   -22118   -17621   -14079   -14905   -16852   -16660 
  -17641   -21751   -23016   -18619   -14477   -15120   -18445   -20336 
  -19861   -18241   -17138   -19032   -21455   -19586   -16310   -15618 
  -16862   -19206   -21115   -21005   -18342   -15888   -17337   -18532 
  -16276   -15866   -19801   -22176   -18352   -14221   -14603   -16657 
  -19500   -20726   -18696   -18170   -19140   -18314   -16528   -14178 
  -13698   -17876   -21858   -21736   -19562   -16645   -14695   -15287 
  -17433   -20575   -22104   -19557   -17630   -17696   -14367   -10739 
  -13691   -19745   -22024   -20717   -18776   -17089   -15943   -14866 
