Origin Time       2011/03/11 14:46:00
Lat.              38.103
Long.             142.860
Depth. (km)       24
Mag.              9.0
Station Code      GIF002
Station Lat.      36.2734
Station Long.     137.0261
Station Height(m) 577
Record Time       2011/03/11 14:49:18
Sampling Freq(Hz) 100Hz
Duration Time(s)  136
Dir.              U-D
Scale Factor      3920(gal)/6182761
Max. Acc. (gal)   4.185
Last Correction   2011/03/11 14:49:03
Memo.             
[...]
   -2743    -2681    -2648    -2639    -2638    -2626    -2594    -2550 
   -2510    -2495    -2517    -2573    -2652    -2734    -2791    -2820 
   -2834    -2829    -2794    -2740    -2671    -2602    -2553    -2523 
   -2512    -2524    -2558    -2585    -2586    -2586    -2615    -2661 
   -2709    -2760    -2802    -2822    -2828    -2825    -2812    -2794 
   -2781    -2769    -2763    -2779    -2822    -2876    -2908    -2902 
   -2862    -2802    -2742    -2703    -2700    -2736    -2795    -2844 
   -2852    -2818    -2764    -2707    -2647    -2587    -2528    -2449 
   -2342    -2225    -2110    -2000    -1896    -1803    -1730    -1688 
   -1683    -1710    -1758    -1821    -1893    -1965    -2038    -2121 
   -2199    -2249    -2271    -2276    -2261    -2224    -2172    -2104 
   -2013    -1901    -1774    -1639    -1514    -1419    -1369    -1374 
   -1420    -1480    -1541    -1590    -1620    -1649    -1707    -1793 
   -1895    -2006    -2113    -2180    -2191    -2148    -2053    -1929 
   -1802    -1693    -1608    -1526    -1426    -1301    -1140     -954 
    -786     -662     -571     -508     -480     -476     -483     -500 
    -535     -594     -669     -758     -850     -928     -982    -1013 
   -1023    -1020    -1028    -1071    -1137    -1197    -1252    -1297 
   -1299    -1261    -1212    -1149    -1069    -1001     -957     -928 
    -917     -919     -911     -875     -811     -745     -698     -673 
    -670     -699     -754     -807     -843     -873     -913     -981 
   -1077    -1181    -1284    -1378    -1442    -1480    -1514    -1540 
   -1546    -1538    -1529    -1534    -1563    -1593    -1596    -1561 
   -1486    -1390    -1312    -1260    -1238    -1247    -1264    -1270 
   -1278    -1298    -1334    -1384    -1433    -1463    -1477    -1484 
   -1478    -1474    -1505    -1583    -1696    -1819    -1940    -2053 
   -2147    -2225    -2306    -2408    -2537    -2677    -2803    -2901 
   -2951    -2955    -2927    -2882    -2842    -2830    -2843    -2850 
   -2840    -2821    -2791    -2737    -2661    -2581    -2524    -2495 
   -2494    -2534    -2611    -2701    -2802    -2919    -3033    -3133 
   -3229    -3309    -3351    -3372    -3405    -3453    -3523    -3617 
   -3703    -3741    -3714    -3617    -3458    -3277    -3136    -3044 
   -2981    -2941    -2914    -2873    -2803    -2712    -2611    -2513 
   -2434    -2400    -2428    -2509    -2620    -2735    -2834    -2906 
   -2950    -2986    -3024    -3061    -3106    -3159    -3204    -3242 
   -3274    -3286    -3273    -3249    -3224    -3208    -3210    -3235 
   -3273    -3307    -3304    -3253    -3168    -3064    -2969    -2918 
   -2927    -2975    -3017    -3029    -3020    -2999    -2977    -2982 
   -3034    -3109    -3178    -3242    -3292    -3312    -3310    -3313 
   -3330    -3354    -3394    -3441    -3464    -3468    -3483    -3508 
   -3536    -3589    -3680    -3784    -3878    -3960    -4038    -4117 
   -4200    -4284    -4373    -4467    -4549    -4608    -4656    -4699 
   -4735    -4774    -4821    -4862    -4891    -4900    -4876    -4816 
   -4742    -4678    -4628    -4599    -4604    -4622    -4623    -4627 
   -4637    -4628    -4618    -4639    -4670    -4683    -4664    -4612 
   -4539    -4478    -4448    -4429    -4406    -4389    -4373    -4339 
   -4308    -4310    -4329    -4357    -4398    -4429    -4424    -4391 
   -4339    -4262    -4192    -4165    -4169    -4195    -4242    -4277 
   -4274    -4258    -4246    -4210    -4164    -4167    -4212    -4259 
   -4310    -4356    -4383    -4405    -4431    -4460    -4512    -4589 
   -4676    -4768    -4857    -4946    -5050    -5156    -5238    -5287 
   -5309    -5315    -5301    -5259    -5206    -5158    -5105    -5043 
   -4994    -4976    -4981    -4990    -4987    -4980    -4979    -4961 
   -4920    -4878    -4857    -4871    -4907    -4952    -5017    -5103 
   -5176    -5222    -5266    -5321    -5376    -5420    -5450    -5479 
   -5523    -5566    -5583    -5588    -5587    -5543    -5442    -5312 
   -5161    -5003    -4881    -4803    -4747    -4706    -4657    -4578 
   -4479    -4369    -4270    -4212    -4196    -4213    -4268    -4339 
   -4387    -4395    -4363    -4283    -4174    -4072    -3990    -3943 
   -3945    -3976    -4006    -4026    -4033    -4027    -4019    -4010 
   -3992    -3979    -3970    -3940    -3898    -3868    -3839    -3802 
   -3771    -3762    -3778    -3813    -3854    -3896    -3953    -4024 
   -4090    -4155    -4228    -4287    -4306    -4295    -4269    -4244 
   -4246    -4277    -4328    -4393    -4439    -4427    -4363    -4248 
   -4087    -3943    -3853    -3799    -3780    -3795    -3801    -3769 
   -3714    -3647    -3563    -3487    -3435    -3395    -3362    -3330 
   -3284    -3249    -3264    -3338    -3449    -3578    -3709    -3816 
   -3892    -3956    -4025    -4099    -4179    -4266    -4355    -4447 
   -4535    -4605    -4666    -4726    -4769    -4808    -4856    -4875 
   -4868    -4863    -4833    -4761    -4680    -4588    -4480    -4381 
   -4295    -4206    -4115    -4032    -3941    -3840    -3750    -3678 
   -3616    -3568    -3536    -3507    -3473    -3430    -3394    -3379 
   -3374    -3393    -3464    -3575    -3707    -3848    -3975    -4068 
   -4112    -4122    -4137    -4162    -4183    -4210    -4226    -4202 
   -4142    -4067    -4009    -4002    -4033    -4080    -4156    -4248 
   -4315    -4358    -4398    -4438    -4451    -4435    -4419    -4399 
   -4362    -4334    -4337    -4369    -4434    -4525    -4612    -4668 
   -4705    -4729    -4736    -4745    -4758    -4771    -4792    -4812 
   -4817    -4810    -4796    -4783    -4780    -4787    -4805    -4835 
   -4861    -4876    -4896    -4920    -4940    -4975    -5034    -5115 
   -5223    -5344    -5449    -5531    -5587    -5624    -5666    -5704 
   -5717    -5733    -5769    -5804    -5827    -5825    -5799    -5757 
   -5687    -5585    -5475    -5357    -5230    -5117    -5008    -4882 
   -4742    -4597    -4459    -4338    -4234    -4143    -4061    -3986 
   -3908    -3831    -3771    -3735    -3723    -3733    -3749    -3763 
   -3780    -3800    -3815    -3831    -3852    -3877    -3898    -3902 
   -3898    -3913    -3925    -3904    -3871    -3838    -3795    -3742 
   -3682    -3603    -3512    -3424    -3335    -3250    -3178    -3127 
   -3089    -3057    -3031    -3007    -2987    -2962    -2913    -2857 
   -2796    -2714    -2634    -2584    -2564    -2574    -2599    -2627 
   -2658    -2680    -2685    -2687    -2705    -2735    -2755    -2771 
   -2803    -2834    -2851    -2871    -2897    -2924    -2960    -3009 
   -3076    -3167    -3271    -3377    -3471    -3526    -3535    -3518 
   -3479    -3425    -3390    -3395    -3427    -3467    -3507    -3532 
   -3512    -3443    -3349    -3260    -3208    -3212    -3266    -3346 
   -3416    -3443    -3423    -3367    -3283    -3185    -3104    -3050 
   -3010    -2977    -2955    -2932    -2903    -2888    -2908    -2951 
   -3000    -3069    -3148    -3203    -3243    -3285    -3305    -3293 
   -3260    -3218    -3173    -3135    -3096    -3053    -3027    -3030 
   -3033    -3010    -2973    -2940    -2905    -2866    -2844    -2848 
   -2854    -2845    -2836    -2819    -2782    -2747    -2734    -2732 
   -2734    -2734    -2709    -2651    -2570    -2463    -2358    -2295 
   -2261    -2229    -2205    -2189    -2152    -2099    -2085    -2108 
   -2125    -2157    -2218    -2281    -2341    -2419    -2507    -2581 
   -2642    -2679    -2689    -2711    -2743    -2780    -2842    -2913 
   -2988    -3049    -3052    -3023    -3005    -2991    -2974    -2985 
   -3020    -3031    -3010    -2968    -2906    -2847    -2798    -2792 
   -2883    -3022    -3110    -3129    -3104    -3030    -2924    -2841 
   -2820    -2846    -2870    -2897    -2932    -2929    -2886    -2839 
   -2808    -2805    -2823    -2834    -2825    -2788    -2698    -2538 
   -2364    -2239    -2167    -2140    -2152    -2187    -2209    -2191 
   -2143    -2074    -1999    -1958    -1933    -1899    -1876    -1868 
   -1863    -1868    -1916    -2008    -2110    -2226    -2333    -2388 
   -2409    -2423    -2413    -2366    -2314    -2279    -2239    -2196 
   -2173    -2147    -2095    -2025    -1953    -1881    -1802    -1745 
   -1715    -1667    -1614    -1580    -1545    -1516    -1524    -1563 
   -1605    -1643    -1696    -1755    -1812    -1891    -1967    -1997 
   -2009    -2014    -1981    -1941    -1936    -1939    -1938    -1977 
   -2052    -2115    -2160    -2179    -2125    -2006    -1901    -1847 
   -1827    -1855    -1937    -1999    -2003    -2000    -2011    -2008 
   -1990    -1980    -1994    -2031    -2073    -2113    -2157    -2189 
   -2193    -2169    -2141    -2129    -2141    -2177    -2233    -2301 
   -2355    -2359    -2321    -2276    -2214    -2127    -2068    -2056 
   -2025    -1955    -1901    -1869    -1829    -1797    -1782    -1766 
   -1783    -1846    -1904    -1947    -1981    -1964    -1902    -1872 
   -1913    -2002    -2138    -2311    -2436    -2482    -2523    -2580 
   -2617    -2652    -2720    -2826    -2962    -3087    -3175    -3272 
   -3358    -3374    -3383    -3438    -3473    -3473    -3485    -3471 
   -3403    -3353    -3353    -3348    -3311    -3245    -3136    -3009 
   -2939    -2941    -2962    -2973    -2955    -2869    -2727    -2600 
   -2520    -2488    -2515    -2578    -2656    -2741    -2780    -2781 
   -2809    -2878    -2982    -3091    -3182    -3254    -3286    -3305 
   -3322    -3304    -3310    -3374    -3423    -3475    -3551    -3571 
   -3533    -3457    -3332    -3233    -3197    -3154    -3078    -2977 
   -2831    -2677    -2553    -2430    -2317    -2253    -2214    -2163 
   -2102    -2061    -2081    -2113    -2096    -2094    -2140    -2172 
   -2187    -2222    -2277    -2355    -2465    -2569    -2594    -2544 
   -2510    -2486    -2416    -2352    -2343    -2363    -2394    -2417 
   -2450    -2520    -2556    -2512    -2491    -2564    -2699    -2851 
   -2957    -3003    -3022    -3008    -3013    -3120    -3303    -3506 
   -3708    -3872    -3971    -4036    -4092    -4099    -4064    -4086 
   -4149    -4183    -4247    -4363    -4436    -4446    -4437    -4399 
   -4300    -4170    -4074    -4018    -3947    -3839    -3741    -3659 
   -3525    -3310    -3114    -3013    -2945    -2868    -2856    -2905 
   -2904    -2836    -2753    -2669    -2622    -2667    -2780    -2891 
   -2967    -3021    -3075    -3098    -3088    -3158    -3353    -3529 
   -3615    -3687    -3733    -3674    -3566    -3513    -3503    -3521 
   -3598    -3694    -3699    -3585    -3432    -3263    -3110    -3070 
   -3090    -3075    -3068    -3056    -2962    -2790    -2675    -2741 
   -2848    -2817    -2779    -2844    -2813    -2605    -2452    -2467 
   -2541    -2624    -2699    -2709    -2718    -2773    -2712    -2551 
   -2537    -2645    -2681    -2664    -2667    -2666    -2650    -2601 
   -2487    -2351    -2275    -2298    -2356    -2351    -2329    -2355 
   -2363    -2280    -2128    -2052    -2161    -2305    -2327    -2332 
   -2413    -2495    -2509    -2477    -2483    -2554    -2626    -2683 
   -2741    -2786    -2827    -2859    -2857    -2826    -2791    -2786 
   -2804    -2801    -2806    -2842    -2850    -2779    -2685    -2630 
   -2583    -2545    -2546    -2552    -2523    -2451    -2346    -2244 
   -2171    -2099    -2032    -1995    -1986    -2032    -2147    -2293 
   -2425    -2531    -2620    -2700    -2761    -2826    -2938    -3050 
   -3105    -3159    -3220    -3219    -3193    -3216    -3282    -3354 
   -3364    -3273    -3160    -3091    -3021    -2926    -2850    -2828 
   -2799    -2694    -2599    -2582    -2566    -2546    -2588    -2660 
   -2730    -2840    -2988    -3116    -3198    -3247    -3292    -3335 
   -3372    -3410    -3438    -3434    -3402    -3348    -3295    -3306 
   -3384    -3445    -3475    -3514    -3501    -3395    -3296    -3238 
   -3152    -3064    -3011    -2971    -2945    -2899    -2860    -2919 
   -2973    -2901    -2788    -2712    -2630    -2536    -2503    -2549 
   -2591    -2582    -2536    -2446    -2322    -2230    -2222    -2269 
   -2300    -2274    -2188    -2070    -1948    -1844    -1807    -1843 
   -1891    -1918    -1936    -1934    -1859    -1740    -1691    -1719 
   -1788    -1902    -1988    -1999    -1987    -1977    -2008    -2117 
   -2251    -2374    -2491    -2578    -2623    -2628    -2606    -2621 
   -2679    -2747    -2872    -3034    -3149    -3239    -3315    -3324 
   -3293    -3278    -3280    -3280    -3270    -3291    -3350    -3349 
   -3277    -3262    -3308    -3284    -3186    -3122    -3066    -2978 
   -2938    -2924    -2890    -2951    -3061    -3086    -3151    -3312 
   -3392    -3337    -3241    -3165    -3147    -3285    -3610    -3940 
   -4124    -4226    -4154    -3547    -2509    -1857    -2098    -2752 
   -3183    -3463    -3826    -4134    -4282    -4064    -3335    -2807 
   -3007    -3209    -2801    -2137    -1895    -2468    -3369    -4031 
   -4728    -5049    -4097    -2754    -2400    -2723    -2900    -2704 
   -2314    -2428    -3283    -4150    -4767    -5322    -5489    -4911 
   -3430    -1334       67      111     -189     -745    -2665    -5243 
   -6504    -5806    -3952    -2221    -1348     -981     -578      -10 
     770     1064     -172    -2350    -4553    -6731    -7647    -6234 
   -3286      434     3283     3066      746    -1635    -4093    -6227 
   -6772    -5536    -2848      -24      643     -791    -2122    -2683 
   -3347    -3955    -3386    -1499      485      723    -1460    -4081 
   -5055    -4719    -4013    -2429      494     2418      653    -3204 
   -5446    -5225    -4424    -4166    -3333     -700     1957      838 
   -3512    -5555    -3649    -1672     -953       85      399    -1584 
   -4065    -4472    -2860     -805     1028     1717        0    -2463 
   -3690    -4680    -5378    -4281    -2107     -335      213    -1037 
   -2750    -3405    -3832    -4077    -3278    -2465    -2315    -2429 
   -2826    -2542     -829      607      359     -521     -993    -1754 
   -3336    -4572    -4123    -2253     -357      579      253    -1426 
   -3563    -4469    -3881    -2927    -1891     -587       -6    -1058 
   -2933    -4280    -4728    -4381    -2869     -420     1523     2221 
    1307    -1870    -5651    -7015    -5335    -2461     -465      235 
     103     -997    -2794    -4609    -5889    -5637    -3816    -1834 
    -575      -90     -923    -3437    -5847    -6261    -5032    -2815 
    -439      101    -1430    -2587    -2840    -4167    -5829    -5309 
   -3476    -2324    -1152      251      109    -1342    -2759    -4768 
   -6778    -6674    -5007    -3290    -1181      818      626    -1636 
   -3844    -5458    -6594    -6486    -5254    -3632    -1958    -1053 
   -1569    -2835    -4024    -5677    -7767    -7843    -5346    -2972 
    -969     1433     1409    -1923    -5288    -7443    -8476    -7017 
   -3004     1111     2324      123    -2916    -4946    -6402    -6862 
   -4673    -1245     -157    -1270    -2595    -4774    -7679    -8436 
   -6085    -2665      143      938     -824    -3333    -5946    -8735 
   -9425    -7048    -3297     -359      427      366     -130    -3148 
   -7372    -8923    -6970    -3459     -449      529     -800    -3028 
   -5205    -6525    -5839    -3776    -1572     -186     -601    -2449 
   -4733    -6479    -6091    -3881    -2626    -2107     -876    -1871 
   -5454    -6934    -5993    -5237    -3992    -2386    -2621    -4060 
   -4673    -4602    -4716    -4882    -4456    -3781    -3698    -4102 
   -4411    -4416    -4612    -4535    -3432    -2647    -2613    -2959 
   -4484    -5581    -4827    -4548    -4485    -2205     -286    -1224 
   -2646    -3872    -5750    -6745    -6097    -4314    -2054     -351 
     107    -1765    -5271    -6993    -6510    -5690    -3781    -1090 
    -152    -1111    -2901    -4805    -6057    -6269    -4991    -3473 
   -2918    -1769     -447    -1401    -3787    -5350    -5998    -6208 
   -5376    -3393    -1942    -1924    -2353    -3355    -5062    -5548 
   -4498    -3608    -3144    -2641    -2270    -2476    -3336    -4044 
   -3822    -2992    -2749    -3230    -3225    -2690    -2614    -3192 
   -3712    -3565    -3130    -2770    -2442    -2634    -3210    -3323 
   -3341    -3753    -3672    -2793    -2639    -3747    -4197    -3347 
   -3093    -3762    -3297    -1895    -1705    -2145    -2447    -3661 
   -4704    -3982    -2773    -2602    -2779    -2597    -2944    -3543 
   -3477    -3652    -3515    -1862    -1280    -2839    -3135    -2113 
   -3028    -4962    -4786    -3153    -2332    -2149    -2072    -2491 
   -3234    -4186    -4888    -4345    -2888    -1913    -1847    -2052 
   -2548    -3411    -3869    -3308    -2238    -2286    -2959    -2493 
   -2466    -3630    -3070     -814     -468    -2372    -3572    -3468 
   -3610    -3662    -2079      233      645     -830    -2389    -3659 
   -4279    -3897    -3067    -1928    -1080    -1180    -1595    -2135 
   -3007    -3578    -3580    -3373    -3201    -3127    -3091    -3388 
   -3891    -3859    -3440    -3160    -3334    -3771    -3705    -3397 
   -3475    -3929    -4298    -3492    -2159    -2118    -2494    -1881 
   -1613    -3016    -4376    -3784    -2660    -2575    -2456    -1834 
   -1846    -2578    -3087    -3200    -3314    -3233    -2926    -2860 
   -2793    -2901    -3847    -4618    -4154    -3461    -3135    -2434 
   -1775    -1946    -2888    -4150    -4693    -4627    -4428    -3502 
   -2279    -1467    -1585    -2826    -3637    -3636    -4011    -4030 
   -2818    -1715    -1834    -2543    -2957    -3222    -4074    -4853 
   -4036    -2671    -2695    -3102    -2838    -3326    -4760    -5321 
   -4803    -4071    -3122    -2636    -3372    -3927    -3363    -3351 
   -4019    -3388    -2208    -2400    -3417    -4080    -4173    -4015 
   -3820    -3484    -3208    -3269    -3711    -4436    -4745    -4451 
   -4446    -4486    -4057    -4136    -4687    -4464    -3776    -3869 
   -4561    -4819    -4717    -4654    -4547    -4587    -4503    -4015 
   -4069    -4866    -5225    -4961    -4686    -4366    -4104    -4042 
   -4021    -4453    -5253    -5602    -5315    -4743    -4291    -3709 
   -3001    -3228    -4335    -5177    -5562    -6069    -6550    -5877 
   -4101    -3049    -3655    -4774    -5209    -5173    -5121    -4908 
   -4368    -3734    -3901    -4944    -5225    -4201    -3252    -3332 
   -3927    -4215    -4609    -5345    -5443    -4891    -4563    -4272 
   -3537    -3275    -4284    -5136    -4867    -4801    -5177    -4937 
   -4745    -5176    -4829    -3682    -3359    -3715    -3985    -4347 
   -4461    -4336    -4797    -5147    -4539    -4312    -4772    -4213 
   -3023    -2898    -3442    -4079    -5191    -6036    -5916    -5392 
   -4725    -3725    -2740    -2680    -3845    -5239    -5950    -6231 
   -6308    -5717    -4549    -3526    -3006    -3134    -4078    -5381 
   -6253    -6618    -6129    -4239    -2257    -1460    -1596    -2949 
   -5120    -6206    -5470    -3635    -2046    -1531    -1456    -1943 
   -3580    -4884    -4743    -4117    -3534    -2652    -1757    -1710 
