Origin Time       2011/03/11 14:46:00
Lat.              38.103
Long.             142.860
Depth. (km)       24
Mag.              9.0
Station Code      GIF023
Station Lat.      35.3879
Station Long.     137.2166
Station Height(m) 288
Record Time       2011/03/11 14:48:13
Sampling Freq(Hz) 100Hz
Duration Time(s)  216
Dir.              U-D
Scale Factor      3920(gal)/6182761
Max. Acc. (gal)   7.119
Last Correction   2011/03/11 14:47:58
Memo.             
[...]
     828      148     -347     -604     -662     -680     -726     -692 
    -529     -125      389      740     1108     1528     1893     2463 
    3238     3910     4314     4274     3912     3520     3064     2700 
    2535     2236     1886     1641     1199      663      241     -252 
    -689     -900     -994     -864     -503     -125      112      113 
      26      -42     -165     -242     -222     -227     -282     -443 
    -725     -921    -1011    -1059     -860     -397      206      916 
    1457     1757     2078     2253     2196     2244     2255     2048 
    1838     1554     1173      911      776      689      517      111 
    -427     -962    -1498    -1878    -1992    -2030    -2008    -1907 
   -1882    -1793    -1541    -1354    -1172     -935     -854     -803 
    -585     -294      -66       -9      -47      -81     -238     -482 
    -591     -669     -853     -986    -1091    -1165    -1102    -1119 
   -1283    -1349    -1225     -972     -623     -153      357      721 
    1033     1478     1892     2263     2693     2946     3009     3051 
    3016     3064     3289     3354     3201     2982     2624     2233 
    1891     1505     1170      875      550      385      391      351 
     391      681      988     1248     1609     1984     2218     2302 
    2338     2377     2339     2234     2003     1402      518     -449 
   -1646    -2941    -3994    -4822    -5340    -5466    -5499    -5547 
   -5565    -5746    -5878    -5510    -4812    -3899    -2743    -1694 
    -822     -101      414      965     1516     1876     2081     1996 
    1641     1282      955      710      513      282      240      277 
     188      243      299        6     -352     -636    -1056    -1339 
   -1238    -1053     -917     -717     -450     -118      208      589 
    1218     1718     1898     2129     2025     1557     1467     1455 
    1437     1997     2613     2892     3307     3575     3360     3163 
    3099     2915     2664     2393     2008     1407      726      122 
    -471     -818     -756     -728     -724     -425     -261     -274 
     -18      285      475      621      721     1022     1410     1699 
    2086     2332     2180     1869     1446      903      440      140 
     -86     -349     -620     -895    -1246    -1595    -1856    -1978 
   -1912    -1621    -1132     -592      -11      557      828      864 
     931      871      571      352      249        2     -269     -438 
    -631     -768     -805     -912    -1131    -1431    -1709    -1916 
   -2025    -1745    -1307    -1138     -928     -732     -780     -568 
      -8      484     1003     1585     1822     1630     1309      976 
     578      310      315      349      363      387      182     -271 
    -776    -1257    -1550    -1497    -1371    -1360    -1287    -1195 
   -1121     -971     -859     -837     -800     -732     -592     -340 
       9      592     1275     1745     2129     2513     2787     2988 
    3132     3194     3161     3016     2707     2227     1631     1049 
     655      395      188      119       31     -239     -460     -505 
    -503     -461     -247      150      476      809     1469     2091 
    2389     2680     2843     2710     2721     2952     3069     3197 
    3427     3479     3364     3302     3312     3260     3097     2874 
    2447     1725     1036      556      201      145      346      418 
     341      269      163       -1     -105      -86     -178     -521 
    -911    -1300    -1796    -2202    -2308    -2241    -2049    -1684 
   -1344    -1139     -875     -579     -429     -338     -320     -444 
    -624     -914    -1283    -1658    -2165    -2781    -3303    -3563 
   -3498    -3221    -2848    -2378    -1951    -1692    -1469    -1179 
    -802     -390      -18      260      316      183       74      -33 
    -236     -374     -487     -790    -1098    -1260    -1314    -1162 
    -818     -431      -74      258      607      886      946      858 
     699      410      191      281      521      639      536      212 
    -194     -465     -617     -678     -614     -619     -846    -1333 
   -1910    -2201    -2284    -2368    -2343    -2385    -2653    -2862 
   -2933    -2762    -2070    -1119     -272      443      982     1420 
    1866     2186     2391     2596     2589     2367     2253     2154 
    1981     1915     1859     1755     1730     1713     1621     1477 
    1390     1464     1569     1721     2037     2318     2538     2756 
    2836     2928     3155     3254     3136     2985     2744     2351 
    1907     1351      761      307      -18     -186     -287     -468 
    -613     -729     -944    -1034     -901     -721     -430      -73 
     164      387      609      612      356       24     -176     -179 
    -113       -4       53     -131     -321     -404     -526     -431 
    -118      -10      -11       98      132      149      266      344 
     399      464      500      462      265       72       46       21 
      31      213      342      414      654      955     1270     1683 
    2030     2097     1910     1647     1388     1164     1008      771 
     244     -399     -842    -1304    -1941    -2416    -2741    -3018 
   -3015    -2781    -2456    -2080    -1905    -1941    -1978    -1927 
   -1609    -1174     -912     -603     -220       18      356      842 
    1120     1204     1153      941      776      622      418      247 
      -3     -222     -299     -437     -628     -788    -1001    -1188 
   -1327    -1603    -1921    -2138    -2368    -2560    -2500    -2209 
   -1903    -1640    -1303     -842     -328      282     1030     1596 
    1846     2033     2112     2009     1937     1739     1105      309 
    -410    -1149    -1742    -2010    -2064    -1999    -1723    -1172 
    -530      138     1000     1869     2474     3032     3455     3421 
    3207     2883     2253     1643     1211      682       47     -533 
   -1041    -1487    -1802    -1807    -1558    -1319     -957     -422 
      -4      386      809      971      970     1080     1214     1359 
    1574     1677     1554     1238      829      467      117     -165 
    -245     -384     -754    -1110    -1435    -1731    -1769    -1706 
   -1723    -1677    -1600    -1510    -1275     -961     -641     -305 
     -56      125      372      665     1031     1402     1518     1448 
    1360     1183     1059     1154     1246     1155      923      585 
     129     -320     -423     -200       32      287      505      488 
     411      500      703      995     1388     1840     2401     3080 
    3754     4220     4384     4437     4480     4469     4553     4726 
    4678     4371     3959     3423     2910     2603     2343     2012 
    1744     1561     1310     1014      779      535      206     -161 
    -536    -1070    -1750    -2296    -2713    -3125    -3358    -3369 
   -3327    -3202    -3029    -2909    -2711    -2493    -2412    -2386 
   -2388    -2362    -2245    -2194    -2249    -2364    -2631    -2867 
   -2895    -2882    -2756    -2422    -2101    -1870    -1656    -1488 
   -1446    -1534    -1648    -1767    -1963    -2103    -2007    -1850 
   -1765    -1692    -1722    -1787    -1741    -1744    -1764    -1677 
   -1682    -1676    -1515    -1433    -1379    -1396    -1572    -1554 
   -1387    -1269    -1121    -1133    -1357    -1541    -1649    -1561 
   -1120     -524      143      790     1172     1468     1744     1830 
    2021     2385     2554     2735     3052     3004     2645     2247 
    1670     1059      593      156     -209     -461     -723    -1010 
   -1341    -1634    -1714    -1752    -1758    -1579    -1491    -1597 
   -1722    -1867    -1906    -1771    -1635    -1441    -1217    -1067 
    -717     -221      223      740     1112     1217     1298     1269 
    1261     1650     2235     2771     3285     3653     3820     3847 
    3835     4016     4435     5052     5877     6637     7016     7148 
    7233     7129     6889     6836     6851     6661     6380     6044 
    5626     5305     5120     4964     4734     4524     4443     4183 
    3783     3526     3139     2700     2483     2181     1864     1790 
    1640     1429     1465     1578     1658     1729     1696     1575 
    1405     1353     1532     1686     1757     1893     1873     1668 
    1680     1835     1910     2119     2493     2861     3188     3415 
    3498     3453     3289     3096     2924     2789     2788     2684 
    2278     1861     1502     1165     1151     1485     1879     2239 
    2492     2653     2889     3098     3245     3418     3415     3208 
    2976     2699     2401     2155     1944     1788     1652     1412 
    1064      693      380      111     -144     -242     -226     -308 
    -390     -440     -631     -759     -600     -422     -273       61 
     438      793     1258     1644     1876     2196     2487     2596 
    2730     2831     2868     2917     2777     2640     2590     2311 
    2173     2315     2261     2184     2176     1998     1859     1723 
    1485     1404     1384     1325     1372     1429     1554     1834 
    1971     1976     1997     1795     1526     1495     1464     1405 
    1361     1058      519      -34     -447     -571     -498     -344 
     -99       33       46      134      164      201      402      510 
     426      309      133     -105     -200      -48      223      395 
     392      322      224      196      382      677      942     1132 
    1059      710      381       82     -296     -585     -761     -963 
   -1149    -1189    -1040     -789     -595     -384       70      636 
    1213     1822     2172     2199     2147     2102     2092     2053 
    2008     2049     1916     1644     1545     1411     1176     1044 
     854      651      717      937     1168     1597     2131     2388 
    2468     2606     2637     2544     2578     2660     2528     2331 
    2191     1963     1807     1839     1760     1524     1366     1171 
     881      789      912     1044     1195     1362     1429     1410 
    1382     1401     1489     1579     1735     1923     1920     1903 
    2012     2036     2156     2582     3031     3357     3536     3469 
    3302     2986     2486     2108     1732     1276      997      713 
     362      168      -16     -215     -203      -82      144      578 
     956     1218     1530     1792     1953     2092     2155     2129 
    2081     1996     1949     1916     1880     2103     2338     2272 
    2355     2547     2390     2212     2113     1818     1578     1470 
    1372     1319     1317     1502     1796     2082     2521     2898 
    3019     3215     3513     3741     4098     4548     4855     5013 
    4933     4679     4471     4256     4108     4158     4081     3776 
    3560     3352     3095     3043     3012     2829     2757     2752 
    2554     2322     2308     2438     2571     2689     2817     2877 
    2795     2712     2632     2400     2113     1883     1666     1423 
    1126     1015     1147     1060      972     1242     1295     1180 
    1278     1202     1075     1196     1367     1656     2031     2241 
    2291     2248     2342     2660     2950     3321     3726     3726 
    3539     3427     3119     2824     2790     2618     2328     2205 
    1909     1340     1055     1209     1344     1506     1936     1944 
    1391     1080      897      629      749      955      707      383 
     161     -190     -303      116      722     1404     2166     2697 
    3107     3636     4079     4525     5021     5211     5101     4700 
    3819     2799     1910     1012      227     -574    -1563    -2356 
   -3008    -3656    -3907    -3783    -3607    -3466    -3340    -3212 
   -3120    -3065    -2985    -2851    -2753    -2713    -2585    -2425 
   -2356    -2251    -2232    -2465    -2688    -2822    -2874    -2633 
   -2150    -1539     -893     -307      338      978     1584     2465 
    3529     4463     5376     6097     6286     6254     6253     6113 
    5902     5744     5525     5145     4610     4030     3485     2962 
    2631     2486     2323     2248     2210     2009     1790     1643 
    1445     1216     1147     1258     1375     1496     1763     2089 
    2382     2838     3434     3924     4316     4660     4800     4736 
    4688     4584     4330     4117     3851     3405     2896     2194 
    1257      364     -387     -975    -1399    -1757    -1950    -2074 
   -2226    -2115    -1863    -1641    -1141     -494       26      662 
    1397     1934     2417     2853     2932     2797     2640     2282 
    1746     1111      322     -526    -1406    -2141    -2526    -2887 
   -3275    -3558    -3999    -4388    -4462    -4517    -4488    -4243 
   -4109    -4068    -4006    -4111    -4193    -4157    -4192    -4041 
   -3707    -3566    -3383    -3010    -2778    -2540    -2191    -1976 
   -1755    -1517    -1389    -1260    -1236    -1253    -1105     -954 
    -793     -599     -671     -817     -740     -661     -466     -122 
    -104     -320     -397     -530     -939    -1248    -1330    -1649 
   -1989    -1972    -1946    -1956    -1750    -1435    -1148     -912 
    -755     -755     -850     -826     -747     -699     -561     -465 
    -569     -787    -1034    -1199    -1211    -1142    -1041     -942 
    -994    -1212    -1519    -1840    -2041    -2389    -3025    -3722 
   -4771    -6068    -7013    -7834    -8610    -9038    -9484   -10010 
  -10245   -10368   -10530   -10558   -10436   -10210    -9753    -9029 
   -8293    -7485    -6447    -5520    -4561    -3316    -2462    -1980 
   -1261     -901    -1031    -1019    -1218    -1667    -2010    -2418 
   -2760    -3037    -3362    -3438    -3400    -3347    -2897    -2193 
   -1461     -458      582     1298     1906     2388     2650     2910 
    3086     3070     3072     3018     2739     2563     2561     2425 
    2314     2240     1915     1621     1471     1218     1169     1330 
    1386     1602     1953     2230     2563     2844     3049     3266 
    3328     3297     3196     2945     2846     2850     2936     3465 
    4076     4500     4864     4966     4864     4641     4441     4572 
    4743     4792     4887     4771     4537     4533     4518     4486 
    4621     4578     4253     3922     3592     3239     2937     2667 
    2452     2182     1718     1244      725      147      -95      -82 
     -85       92      375      430      403      453      360      155 
     -71     -407     -730     -964    -1087     -991     -849     -764 
    -639     -612     -676     -564     -325     -209     -213     -130 
     -60     -111      146      682     1039     1416     1877     2115 
    2267     2457     2532     2397     2138     1936     1672     1409 
    1459     1369      884      572      280     -174     -220     -122 
    -264     -125       38     -222     -334     -369     -661     -719 
    -592     -623     -604     -546     -572     -535     -451     -358 
    -177       36      227      271      277      499      411       28 
     108       23     -519     -643     -774    -1264    -1558    -1890 
   -2308    -2598    -2973    -3288    -3414    -3338    -2983    -2567 
   -2041    -1374    -1028     -877     -578     -517     -609     -371 
    -100       43      342      664      889     1208     1604     1926 
    2073     1967     1637     1034      271     -350     -950    -1589 
   -1991    -2329    -2850    -3265    -3471    -3650    -3636    -3372 
   -3093    -2749    -2289    -1865    -1536    -1263    -1052    -1004 
   -1019     -914     -883     -951     -822     -708     -749     -581 
    -394     -356      -83      247      405      605      672      460 
     185     -112     -365     -518     -587     -410      -98      122 
     383      672      866     1094     1360     1536     1739     2027 
    2213     2168     1841     1362      936      499      127      142 
     432      756     1295     1896     2304     2770     3200     3383 
    3539     3701     3686     3486     3298     3134     2699     2021 
    1365      620      -87     -388     -609     -918    -1042    -1334 
   -2063    -2761    -3164    -3493    -3844    -4188    -4573    -4997 
   -5370    -5534    -5453    -5251    -4952    -4628    -4425    -4273 
   -4098    -3993    -4003    -4115    -4261    -4355    -4443    -4549 
   -4743    -4963    -4810    -4379    -3990    -3339    -2531    -2125 
   -1872    -1437    -1019     -651     -347     -171      -82      -50 
      40      153      239      356      263      -96     -295     -241 
    -221     -176       90      355      442      507      536      460 
     350       21     -470     -697     -733     -681     -474     -313 
    -170      -66     -147     -132      122      479      981     1576 
    2108     2579     2970     3348     3728     3871     3886     4068 
    4290     4462     4643     4688     4641     4638     4490     4312 
    4327     4322     4190     3981     3683     3376     3114     3029 
    3259     3527     3727     4142     4535     4633     4753     5001 
    5099     4990     4907     4897     4785     4555     4404     4446 
    4492     4439     4417     4436     4375     4231     4161     4232 
    4185     3835     3450     3118     2562     2036     1957     2026 
    1957     1974     2122     2089     1850     1815     2020     2053 
    2022     2167     2104     1764     1541     1361     1124      978 
     808      541      258      -42     -239     -256     -223     -127 
      60      250      403      567      926     1435     1753     2062 
    2684     3152     3229     3472     3817     3810     3779     4014 
    4193     4156     4121     4214     4314     4379     4583     4868 
    5010     5182     5451     5574     5605     5639     5616     5516 
    5263     4986     4857     4589     4204     3972     3610     3236 
    3031     2648     2336     2182     1788     1341      957      527 
     203      -41     -184     -168     -343     -608     -644     -888 
   -1342    -1530    -1676    -1848    -1787    -1826    -1997    -1898 
   -1760    -1662    -1340    -1049    -1009    -1103    -1189    -1192 
   -1216    -1118     -680     -312     -187      145      517      567 
     684      983     1111     1318     1827     2168     2212     2200 
    2055     1901     1993     2117     2137     2336     2620     2604 
    2523     2659     2600     2188     1903     1750     1326      851 
     618      308     -248     -695     -827     -894    -1004     -946 
    -733     -594     -471     -216      -28      -12     -106     -376 
    -647     -740     -854    -1097    -1302    -1385    -1430    -1459 
   -1386    -1191     -976     -756     -482     -229       58      415 
     611      619      636      622      536      633     1008     1441 
    1803     2188     2552     2692     2767     2979     3138     3115 
    2932     2534     1936     1359      949      673      573      612 
     625      657      766      915     1206     1580     1924     2316 
    2613     2835     3141     3260     3259     3390     3425     3383 
    3439     3486     3575     3646     3561     3574     3658     3598 
    3627     3741     3743     3674     3371     2825     2419     2174 
    1957     1967     2163     2270     2392     2542     2506     2448 
