Origin Time       2011/03/11 14:46:00
Lat.              38.103
Long.             142.860
Depth. (km)       24
Mag.              9.0
Station Code      GIF024
Station Lat.      35.3015
Station Long.     137.3869
Station Height(m) 435
Record Time       2011/03/11 14:48:48
Sampling Freq(Hz) 100Hz
Duration Time(s)  172
Dir.              U-D
Scale Factor      3920(gal)/6182761
Max. Acc. (gal)   6.068
Last Correction   2011/03/11 14:48:33
Memo.             
[...]
  -14881   -14735   -14589   -14498   -14448   -14410   -14364   -14275 
  -14228   -14232   -14255   -14294   -14275   -14275   -14363   -14441 
  -14494   -14481   -14380   -14240   -14086   -13997   -13995   -14026 
  -14019   -13905   -13767   -13655   -13534   -13480   -13536   -13666 
  -13797   -13884   -14017   -14245   -14537   -14824   -15041   -15249 
  -15448   -15594   -15764   -15961   -16151   -16323   -16477   -16687 
  -16914   -17085   -17198   -17233   -17243   -17247   -17217   -17163 
  -17046   -16883   -16716   -16565   -16478   -16413   -16338   -16251 
  -16106   -15941   -15805   -15736   -15739   -15758   -15823   -15931 
  -16012   -16057   -16014   -15887   -15740   -15580   -15391   -15170 
  -14985   -14872   -14800   -14792   -14839   -14886   -14881   -14854 
  -14836   -14762   -14663   -14597   -14555   -14511   -14355   -14097 
  -13855   -13630   -13453   -13353   -13281   -13220   -13199   -13256 
  -13383   -13558   -13779   -14027   -14305   -14575   -14807   -15017 
  -15155   -15229   -15296   -15333   -15324   -15280   -15243   -15225 
  -15194   -15158   -15160   -15221   -15284   -15346   -15456   -15539 
  -15554   -15531   -15496   -15485   -15466   -15412   -15352   -15288 
  -15211   -15139   -15140   -15198   -15229   -15257   -15299   -15315 
  -15276   -15216   -15205   -15203   -15182   -15191   -15246   -15333 
  -15374   -15387   -15448   -15473   -15428   -15373   -15359   -15380 
  -15321   -15232   -15248   -15306   -15327   -15319   -15304   -15280 
  -15219   -15172   -15196   -15260   -15267   -15191   -15133   -15080 
  -14954   -14825   -14784   -14813   -14817   -14775   -14703   -14551 
  -14305   -13995   -13714   -13489   -13187   -12838   -12511   -12171 
  -11869   -11591   -11361   -11249   -11161   -11080   -11079   -11136 
  -11208   -11339   -11571   -11770   -11880   -12010   -12181   -12370 
  -12554   -12735   -12896   -12965   -12992   -13070   -13173   -13198 
  -13095   -13016   -13016   -12954   -12824   -12693   -12571   -12447 
  -12359   -12410   -12544   -12628   -12671   -12754   -12923   -13120 
  -13339   -13607   -13830   -13929   -13922   -13876   -13791   -13601 
  -13406   -13312   -13273   -13270   -13318   -13449   -13615   -13734 
  -13831   -13945   -14036   -14056   -14071   -14162   -14286   -14390 
  -14477   -14612   -14808   -14939   -15057   -15227   -15332   -15411 
  -15518   -15597   -15635   -15609   -15533   -15450   -15367   -15290 
  -15244   -15231   -15182   -15147   -15205   -15257   -15245   -15225 
  -15219   -15174   -15080   -15043   -15106   -15224   -15353   -15457 
  -15555   -15577   -15483   -15383   -15279   -15128   -14954   -14810 
  -14753   -14738   -14731   -14754   -14778   -14790   -14838   -14997 
  -15204   -15369   -15589   -15838   -15992   -16085   -16173   -16280 
  -16309   -16217   -16145   -16101   -16018   -15893   -15781   -15728 
  -15585   -15343   -15214   -15237   -15335   -15471   -15675   -15903 
  -16020   -16047   -16070   -16126   -16222   -16341   -16544   -16753 
  -16840   -16906   -17043   -17219   -17344   -17397   -17473   -17559 
  -17605   -17683   -17829   -17936   -17925   -17901   -17940   -17986 
  -18038   -18083   -18111   -18111   -18051   -18002   -18011   -18015 
  -17965   -17877   -17783   -17646   -17471   -17271   -17009   -16735 
  -16497   -16323   -16193   -15981   -15708   -15459   -15226   -15032 
  -14918   -14911   -14914   -14842   -14773   -14723   -14666   -14585 
  -14510   -14534   -14565   -14558   -14656   -14857   -15053   -15206 
  -15366   -15580   -15755   -15849   -15909   -15922   -15866   -15753 
  -15690   -15686   -15577   -15371   -15187   -15058   -14931   -14753 
  -14563   -14380   -14166   -13943   -13774   -13655   -13498   -13317 
  -13202   -13135   -13055   -12914   -12713   -12446   -12064   -11711 
  -11503   -11352   -11251   -11207   -11194   -11198   -11167   -11151 
  -11203   -11238   -11240   -11321   -11461   -11539   -11606   -11732 
  -11852   -11940   -12010   -12100   -12215   -12244   -12215   -12221 
  -12224   -12194   -12164   -12138   -12048   -11845   -11584   -11331 
  -11122   -10921   -10692   -10458   -10242   -10104   -10057   -10066 
  -10127   -10210   -10334   -10475   -10525   -10506   -10502   -10533 
  -10528   -10467   -10456   -10432   -10312   -10166   -10020    -9909 
   -9803    -9684    -9693    -9788    -9842    -9885    -9936    -9969 
   -9947    -9929    -9970   -10005   -10033   -10080   -10151   -10235 
  -10295   -10434   -10697   -10968   -11223   -11479   -11685   -11790 
  -11865   -11985   -12081   -12111   -12093   -12081   -12126   -12154 
  -12152   -12150   -12090   -11991   -11923   -11936   -11979   -11957 
  -11955   -12036   -12132   -12217   -12304   -12442   -12574   -12648 
  -12767   -12895   -12912   -12802   -12599   -12355   -12057   -11729 
  -11456   -11248   -11124   -11118   -11242   -11402   -11480   -11546 
  -11676   -11836   -12007   -12202   -12426   -12581   -12622   -12689 
  -12836   -12994   -13114   -13232   -13414   -13606   -13769   -13987 
  -14236   -14392   -14483   -14636   -14820   -14954   -15065   -15175 
  -15281   -15308   -15229   -15175   -15148   -15074   -15040   -15144 
  -15357   -15581   -15814   -16111   -16367   -16507   -16635   -16856 
  -17120   -17337   -17516   -17642   -17677   -17635   -17559   -17541 
  -17496   -17292   -17076   -16952   -16832   -16682   -16562   -16475 
  -16278   -15957   -15674   -15444   -15209   -14975   -14773   -14587 
  -14349   -14099   -13950   -13929   -13925   -13864   -13840   -13829 
  -13741   -13663   -13621   -13546   -13414   -13276   -13214   -13179 
  -13114   -13080   -13150   -13335   -13571   -13876   -14267   -14644 
  -15036   -15470   -15844   -16099   -16216   -16249   -16238   -16148 
  -16006   -15858   -15708   -15503   -15260   -15072   -14887   -14682 
  -14524   -14401   -14284   -14120   -13949   -13880   -13854   -13813 
  -13808   -13886   -13994   -14018   -14003   -14027   -14034   -13974 
  -13865   -13760   -13624   -13416   -13228   -13080   -12935   -12792 
  -12645   -12512   -12375   -12273   -12292   -12390   -12531   -12717 
  -12955   -13206   -13351   -13396   -13405   -13391   -13343   -13246 
  -13153   -13046   -12866   -12681   -12505   -12313   -12105   -11927 
  -11858   -11819   -11773   -11778   -11765   -11705   -11631   -11574 
  -11547   -11472   -11375   -11309   -11179   -10955   -10704   -10516 
  -10384   -10252   -10191   -10225   -10313   -10418   -10534   -10746 
  -10977   -11110   -11248   -11442   -11643   -11815   -12001   -12276 
  -12574   -12841   -13124   -13436   -13756   -14023   -14247   -14466 
  -14620   -14704   -14756   -14795   -14785   -14676   -14582   -14546 
  -14478   -14408   -14394   -14416   -14394   -14330   -14352   -14448 
  -14550   -14684   -14881   -15121   -15294   -15403   -15587   -15845 
  -16084   -16313   -16599   -16882   -17032   -17125   -17266   -17405 
  -17480   -17471   -17446   -17397   -17264   -17154   -17094   -16977 
  -16783   -16566   -16382   -16184   -15955   -15776   -15625   -15427 
  -15154   -14877   -14669   -14451   -14210   -14047   -13938   -13770 
  -13540   -13392   -13354   -13352   -13413   -13534   -13673   -13773 
  -13855   -14042   -14261   -14378   -14441   -14516   -14612   -14684 
  -14769   -14934   -15083   -15204   -15390   -15642   -15867   -15993 
  -16128   -16335   -16535   -16733   -16975   -17289   -17597   -17763 
  -17871   -17958   -17929   -17828   -17748   -17728   -17699   -17631 
  -17636   -17697   -17706   -17651   -17601   -17607   -17562   -17436 
  -17314   -17167   -16952   -16697   -16481   -16309   -16091   -15853 
  -15642   -15448   -15276   -15118   -15011   -14906   -14729   -14595 
  -14555   -14548   -14578   -14672   -14831   -14983   -15080   -15152 
  -15208   -15243   -15217   -15164   -15120   -14992   -14825   -14763 
  -14829   -14964   -15074   -15191   -15391   -15586   -15746   -15957 
  -16221   -16440   -16608   -16781   -16955   -17113   -17228   -17302 
  -17374   -17399   -17382   -17401   -17413   -17318   -17120   -16883 
  -16572   -16154   -15731   -15350   -14972   -14596   -14280   -14068 
  -13891   -13729   -13639   -13618   -13633   -13624   -13605   -13637 
  -13672   -13682   -13697   -13726   -13754   -13763   -13784   -13797 
  -13751   -13700   -13689   -13663   -13522   -13282   -13028   -12710 
  -12287   -11844   -11444   -11086   -10738   -10434   -10242   -10135 
  -10030    -9903    -9765    -9562    -9280    -9010    -8795    -8592 
   -8363    -8192    -8144    -8156    -8238    -8444    -8729    -9042 
   -9370    -9753   -10184   -10566   -10891   -11211   -11492   -11650 
  -11696   -11722   -11712   -11604   -11446   -11341   -11317   -11315 
  -11372   -11549   -11756   -11913   -12036   -12172   -12297   -12367 
  -12452   -12563   -12652   -12758   -12937   -13238   -13620   -14046 
  -14579   -15200   -15844   -16462   -17024   -17546   -17992   -18343 
  -18666   -18943   -19063   -19021   -18929   -18808   -18611   -18382 
  -18144   -17876   -17559   -17211   -16923   -16674   -16370   -16059 
  -15836   -15698   -15557   -15407   -15337   -15366   -15439   -15531 
  -15692   -15878   -15963   -16004   -16070   -16103   -16079   -16008 
  -15962   -15961   -15940   -15949   -16061   -16253   -16458   -16677 
  -16934   -17132   -17249   -17404   -17638   -17925   -18200   -18438 
  -18642   -18743   -18733   -18656   -18514   -18276   -17918   -17515 
  -17129   -16754   -16408   -16109   -15873   -15645   -15413   -15262 
  -15170   -15073   -14974   -14894   -14815   -14652   -14450   -14286 
  -14123   -13997   -13935   -13934   -13982   -13999   -14041   -14208 
  -14444   -14660   -14837   -15022   -15159   -15178   -15150   -15130 
  -15099   -15018   -14925   -14910   -14907   -14852   -14806   -14824 
  -14900   -14973   -15057   -15193   -15343   -15514   -15735   -16018 
  -16302   -16521   -16763   -17050   -17303   -17527   -17740   -17943 
  -18126   -18274   -18412   -18542   -18643   -18725   -18830   -18936 
  -18975   -19017   -19125   -19243   -19353   -19465   -19579   -19666 
  -19690   -19653   -19553   -19394   -19174   -18936   -18752   -18579 
  -18415   -18301   -18175   -18011   -17815   -17613   -17458   -17323 
  -17176   -17046   -16963   -16945   -16998   -17110   -17216   -17305 
  -17401   -17471   -17526   -17554   -17539   -17521   -17486   -17399 
  -17239   -17026   -16808   -16570   -16340   -16138   -15915   -15701 
  -15534   -15429   -15370   -15321   -15321   -15335   -15310   -15267 
  -15184   -15063   -14894   -14681   -14491   -14331   -14196   -14081 
  -13995   -13944   -13888   -13866   -13890   -13882   -13822   -13700 
  -13558   -13427   -13266   -13098   -12906   -12664   -12419   -12209 
  -12076   -11951   -11778   -11638   -11559   -11538   -11566   -11624 
  -11699   -11721   -11678   -11615   -11559   -11503   -11398   -11301 
  -11248   -11200   -11191   -11212   -11274   -11387   -11447   -11451 
  -11426   -11361   -11297   -11230   -11157   -11062   -10947   -10866 
  -10801   -10729   -10657   -10610   -10629   -10640   -10630   -10638 
  -10607   -10556   -10535   -10541   -10568   -10582   -10587   -10599 
  -10644   -10756   -10916   -11131   -11377   -11587   -11764   -11966 
  -12232   -12516   -12773   -12986   -13098   -13110   -13062   -12983 
  -12892   -12745   -12538   -12308   -12064   -11838   -11654   -11542 
  -11493   -11450   -11393   -11338   -11342   -11419   -11540   -11753 
  -12025   -12270   -12523   -12810   -13096   -13347   -13586   -13856 
  -14165   -14533   -14968   -15456   -15953   -16390   -16761   -17077 
  -17335   -17540   -17709   -17874   -17998   -18043   -18094   -18189 
  -18260   -18273   -18273   -18300   -18326   -18326   -18315   -18295 
  -18244   -18143   -18041   -17962   -17893   -17879   -17960   -18111 
  -18282   -18507   -18823   -19158   -19473   -19789   -20098   -20386 
  -20635   -20844   -21019   -21163   -21275   -21333   -21393   -21478 
  -21526   -21595   -21712   -21796   -21868   -21970   -22081   -22187 
  -22270   -22314   -22320   -22265   -22115   -21905   -21640   -21304 
  -20981   -20725   -20503   -20280   -20071   -19937   -19881   -19840 
  -19770   -19687   -19606   -19500   -19408   -19357   -19263   -19109 
  -18972   -18878   -18770   -18613   -18458   -18289   -18098   -17972 
  -17911   -17898   -17945   -17963   -17948   -17985   -18029   -18066 
  -18140   -18179   -18188   -18289   -18421   -18467   -18493   -18537 
  -18578   -18600   -18550   -18487   -18488   -18468   -18356   -18215 
  -18132   -18048   -17936   -17796   -17580   -17423   -17309   -17134 
  -17099   -17140   -17073   -17088   -17194   -17207   -17204   -17248 
  -17224   -17105   -16983   -16932   -16883   -16712   -16492   -16338 
  -16171   -15904   -15643   -15438   -15172   -14839   -14428   -14010 
  -13711   -13276   -12789   -12595   -12361   -12035   -11899   -11815 
  -11791   -11838   -11804   -11772   -11775   -11686   -11505   -11345 
  -11150   -10837   -10518   -10227    -9878    -9470    -9075    -8721 
   -8352    -7960    -7620    -7329    -7021    -6751    -6546    -6362 
   -6204    -6010    -5822    -5721    -5571    -5341    -5171    -5092 
   -4994    -4886    -4962    -5186    -5353    -5437    -5512    -5573 
   -5536    -5542    -5683    -5756    -5771    -5782    -5762    -5845 
   -5893    -5807    -5824    -5858    -5771    -5669    -5574    -5515 
   -5405    -5160    -4983    -4895    -4766    -4702    -4771    -4826 
   -4831    -4899    -5023    -5227    -5459    -5564    -5725    -5960 
   -6080    -6299    -6608    -6859    -7199    -7589    -8041    -8559 
   -8967    -9446   -10010   -10412   -10761   -11116   -11422   -11732 
  -11982   -12256   -12620   -12844   -12942   -13112   -13280   -13354 
  -13405   -13411   -13340   -13316   -13360   -13430   -13526   -13548 
  -13487   -13430   -13362   -13267   -13141   -13002   -12888   -12751 
  -12549   -12366   -12245   -12147   -12139   -12216   -12182   -12079 
  -12046   -12000   -11857   -11608   -11429   -11418   -11310   -11054 
  -10803   -10586   -10412   -10145    -9846    -9692    -9486    -9183 
   -8917    -8647    -8381    -8126    -7868    -7680    -7516    -7221 
   -6882    -6693    -6562    -6459    -6557    -6682    -6685    -6793 
   -6966    -7116    -7384    -7656    -7927    -8333    -8686    -8915 
   -9179    -9497    -9799   -10109   -10442   -10673   -10856   -11131 
  -11378   -11652   -12002   -12273   -12599   -12925   -13153   -13549 
  -13905   -14094   -14403   -14636   -14765   -15040   -15256   -15397 
  -15579   -15527   -15322   -15307   -15271   -15049   -14931   -14924 
  -14776   -14624   -14632   -14624   -14586   -14591   -14585   -14657 
  -14725   -14621   -14577   -14638   -14525   -14340   -14231   -14110 
  -13981   -13818   -13677   -13687   -13643   -13514   -13552   -13632 
  -13667   -13766   -13841   -13855   -13790   -13667   -13648   -13682 
  -13754   -13945   -14173   -14478   -14788   -14981   -15286   -15668 
  -15904   -16127   -16248   -16157   -16124   -16065   -15884   -15857 
  -15790   -15584   -15573   -15555   -15393   -15357   -15301   -15133 
  -15104   -15135   -15039   -14941   -14925   -14883   -14828   -14806 
  -14719   -14547   -14418   -14319   -14139   -14047   -14074   -14008 
  -13987   -14099   -14215   -14359   -14538   -14729   -14902   -15023 
  -15137   -15207   -15199   -15195   -15243   -15298   -15345   -15394 
  -15424   -15490   -15586   -15655   -15788   -15999   -16240   -16511 
  -16754   -17015   -17281   -17411   -17463   -17502   -17493   -17449 
  -17348   -17244   -17207   -17099   -16948   -16902   -16787   -16610 
  -16560   -16511   -16453   -16424   -16308   -16218   -16188   -16059 
  -15920   -15844   -15712   -15575   -15480   -15276   -15057   -14853 
  -14448   -14015   -13693   -13306   -12909   -12606   -12335   -12074 
  -11848   -11660   -11478   -11319   -11260   -11315   -11402   -11534 
  -11702   -11842   -12051   -12299   -12507   -12812   -13154   -13337 
  -13429   -13617   -13828   -13897   -13988   -14149   -14220   -14272 
  -14339   -14439   -14641   -14788   -14793   -14833   -14920   -14899 
  -14849   -14821   -14703   -14555   -14322   -13924   -13567   -13235 
  -12837   -12483   -12097   -11668   -11365   -11097   -10757   -10483 
  -10264    -9963    -9648    -9384    -9133    -8913    -8698    -8496 
   -8406    -8421    -8464    -8561    -8715    -8897    -9136    -9448 
   -9868   -10338   -10749   -11201   -11650   -12009   -12433   -12855 
  -13189   -13563   -13945   -14313   -14708   -15098   -15414   -15677 
  -16021   -16313   -16481   -16741   -16960   -17018   -17108   -17246 
  -17342   -17362   -17342   -17346   -17365   -17411   -17487   -17551 
  -17611   -17618   -17551   -17585   -17678   -17599   -17497   -17527 
  -17506   -17407   -17323   -17217   -17092   -16955   -16794   -16705 
  -16644   -16478   -16369   -16389   -16348   -16294   -16366   -16476 
  -16523   -16542   -16605   -16666   -16654   -16561   -16467   -16454 
  -16398   -16275   -16271   -16344   -16348   -16322   -16411   -16549 
  -16582   -16627   -16692   -16690   -16674   -16559   -16396   -16353 
  -16307   -16241   -16306   -16447   -16532   -16625   -16831   -17013 
  -17095   -17225   -17402   -17558   -17738   -17941   -18148   -18385 
  -18604   -18785   -18983   -19132   -19192   -19283   -19426   -19531 
  -19583   -19686   -19844   -19918   -19899   -19897   -19937   -19949 
  -19918   -19913   -19913   -19861   -19741   -19631   -19620   -19535 
  -19303   -19149   -19004   -18749   -18547   -18389   -18186   -17981 
  -17740   -17457   -17195   -16930   -16670   -16493   -16325   -16119 
  -15987   -15898   -15842   -15827   -15776   -15844   -16001   -16023 
  -16018   -15981   -15835   -15686   -15527   -15397   -15310   -15126 
  -14977   -14978   -14904   -14762   -14647   -14421   -14156   -13934 
  -13659   -13424   -13197   -12913   -12710   -12564   -12409   -12229 
  -12045   -11891   -11671   -11433   -11283   -11158   -11024   -10864 
  -10679   -10504   -10341   -10208   -10113   -10054    -9975    -9871 
   -9837    -9826    -9789    -9772    -9777    -9790    -9780    -9797 
   -9867    -9900    -9929   -10031   -10164   -10244   -10277   -10323 
  -10335   -10315   -10340   -10366   -10452   -10616   -10688   -10686 
  -10700   -10705   -10756   -10849   -10893   -10968   -11132   -11228 
  -11316   -11512   -11668   -11845   -12134   -12376   -12569   -12775 
  -13000   -13245   -13448   -13621   -13816   -14009   -14190   -14358 
  -14517   -14693   -14848   -14971   -15180   -15437   -15631   -15806 
  -15931   -16048   -16250   -16406   -16530   -16733   -16885   -16978 
  -17126   -17301   -17443   -17536   -17655   -17779   -17804   -17857 
  -17948   -17993   -18065   -18120   -18186   -18249   -18129   -17946 
  -17726   -17325   -16927   -16581   -16155   -15749   -15367   -14936 
  -14577   -14268   -13892   -13595   -13449   -13292   -13093   -13005 
  -13032   -12974   -12894   -12922   -12936   -12992   -13065   -13031 
  -13103   -13186   -13098   -13197   -13522   -13732   -13859   -13986 
  -14063   -14156   -14231   -14299   -14507   -14710   -14830   -14979 
  -15097   -15218   -15362   -15485   -15640   -15695   -15647   -15681 
