Origin Time       2011/03/11 14:46:00
Lat.              38.103
Long.             142.860
Depth. (km)       24
Mag.              9.0
Station Code      GIF023
Station Lat.      35.3879
Station Long.     137.2166
Station Height(m) 288
Record Time       2011/03/11 14:48:13
Sampling Freq(Hz) 100Hz
Duration Time(s)  216
Dir.              E-W
Scale Factor      3920(gal)/6182761
Max. Acc. (gal)   10.803
Last Correction   2011/03/11 14:47:58
Memo.             
[...]
  -28904   -29237   -29649   -30299   -31077   -31845   -32560   -33213 
  -33864   -34525   -35081   -35430   -35530   -35331   -34816   -34001 
  -33069   -32344   -31744   -31143   -30869   -30786   -30452   -30101 
  -29926   -29661   -29247   -28919   -28759   -28553   -28306   -28156 
  -27911   -27639   -27535   -27366   -27156   -27062   -26835   -26476 
  -26214   -26018   -25999   -26316   -26895   -27694   -28551   -29359 
  -30259   -31177   -32060   -33121   -34244   -35136   -35882   -36563 
  -37069   -37454   -37774   -38024   -38312   -38599   -38777   -38913 
  -38963   -38851   -38702   -38445   -37994   -37555   -37064   -36373 
  -35619   -34739   -33778   -33055   -32280   -31210   -30351   -29633 
  -28739   -28067   -27709   -27365   -27117   -27092   -27106   -27027 
  -27011   -27146   -27301   -27411   -27529   -27565   -27352   -26925 
  -26466   -26044   -25565   -25135   -24927   -24794   -24655   -24592 
  -24626   -24782   -24908   -24915   -25046   -25062   -24610   -24316 
  -24527   -24611   -24584   -25002   -25555   -25927   -26489   -27062 
  -27332   -27730   -28286   -28802   -29575   -30475   -31255   -32175 
  -33189   -34200   -35476   -36936   -38438   -40058   -41608   -42962 
  -44197   -45310   -46240   -46859   -47135   -47112   -46697   -45992 
  -45158   -44010   -42651   -41361   -39933   -38391   -37011   -35656 
  -34318   -33117   -32006   -31118   -30382   -29606   -28931   -28324 
  -27730   -27337   -27052   -26666   -26349   -26319   -26171   -25682 
  -25568   -25750   -25505   -25280   -25439   -25450   -25264   -25474 
  -26168   -26824   -27542   -28587   -29391   -30033   -31081   -31939 
  -32362   -32978   -33489   -33514   -33479   -33279   -32563   -31705 
  -30920   -30011   -29099   -28384   -27658   -26766   -26336   -26452 
  -26217   -26121   -26742   -27064   -27349   -28409   -29390   -30246 
  -31670   -32960   -33851   -34911   -35678   -35777   -35782   -35722 
  -35234   -34536   -33741   -32652   -31415   -30250   -29160   -28167 
  -27311   -26549   -25795   -25071   -24520   -24068   -23633   -23556 
  -23818   -24096   -24723   -25557   -25971   -26348   -27091   -27937 
  -28730   -29458   -30070   -30286   -30105   -30017   -29920   -29600 
  -29433   -29210   -28585   -27935   -27204   -26232   -25556   -25323 
  -25309   -25608   -26040   -26297   -26605   -27096   -27591   -28132 
  -28735   -29347   -29995   -30630   -31227   -31782   -32388   -33168 
  -33957   -34642   -35198   -35425   -35476   -35642   -35660   -35436 
  -35239   -35025   -34710   -34459   -34355   -34346   -34478   -34775 
  -35063   -35188   -35156   -35032   -34841   -34717   -34750   -34694 
  -34473   -34299   -34034   -33539   -33088   -32568   -31769   -31068 
  -30396   -29464   -28620   -27868   -26953   -26312   -26223   -26393 
  -26726   -27235   -27880   -28638   -29501   -30642   -31944   -33021 
  -33884   -34504   -34697   -34708   -34668   -34462   -34269   -33941 
  -33243   -32464   -31495   -30259   -29112   -28022   -27245   -26804 
  -26078   -25645   -25938   -26134   -26432   -27210   -27838   -28303 
  -28939   -29550   -29996   -30416   -30935   -31380   -31584   -31668 
  -31507   -30967   -30522   -30393   -30324   -30526   -30992   -31211 
  -31512   -32276   -32991   -33581   -34261   -34864   -35563   -36273 
  -36677   -37162   -37736   -38143   -38666   -39015   -38731   -38069 
  -37138   -35953   -34798   -33634   -32402   -31161   -29699   -28195 
  -27005   -25994   -25168   -24546   -23855   -23272   -22912   -22098 
  -21032   -20627   -20358   -19846   -19833   -20006   -19658   -19245 
  -19295   -19555   -19751   -20227   -21050   -21665   -22298   -23396 
  -24415   -25376   -26886   -28441   -29657   -30996   -32223   -33160 
  -34437   -35936   -37272   -38651   -39795   -40340   -40532   -40763 
  -41067   -40985   -40671   -40613   -40366   -39880   -39649   -39279 
  -38692   -38454   -38128   -37403   -36866   -36116   -34783   -33867 
  -33361   -32398   -31374   -30437   -29086   -27882   -27091   -26095 
  -25132   -24288   -23066   -21919   -20916   -19573   -18405   -17681 
  -17239   -17084   -16867   -16758   -17117   -17736   -18878   -20638 
  -22424   -24330   -26469   -28284   -29902   -31647   -33096   -34217 
  -35221   -35712   -35537   -34972   -34274   -33709   -33353   -32991 
  -32503   -32126   -31794   -31129   -30445   -30062   -29697   -29453 
  -29499   -29567   -29735   -30183   -30849   -31782   -32933   -34067 
  -34980   -35796   -36875   -38178   -39525   -40909   -42062   -42785 
  -43036   -42848   -42618   -42347   -41895   -41391   -40568   -39409 
  -37934   -36059   -34433   -33182   -31878   -30806   -29842   -28511 
  -27271   -26397   -25600   -25067   -24853   -24732   -24843   -25170 
  -25514   -25969   -26561   -27367   -28369   -29094   -29647   -30344 
  -30914   -31597   -32636   -33634   -34629   -35737   -36670   -37501 
  -38418   -39193   -39711   -39974   -39797   -39208   -38215   -36839 
  -35498   -34238   -32878   -31635   -30448   -29258   -28352   -27754 
  -27569   -27796   -28196   -28989   -29810   -30294   -31281   -32647 
  -33710   -34895   -36089   -36760   -37067   -37101   -36965   -36960 
  -37199   -37631   -37836   -37717   -37792   -37801   -37569   -37838 
  -38375   -38671   -39118   -39463   -39684   -40387   -40923   -41177 
  -41965   -42493   -42172   -41864   -41511   -40734   -40139   -39700 
  -38783   -37574   -36459   -35354   -34095   -32870   -31880   -30841 
  -29900   -29075   -27695   -26707   -26976   -27044   -26826   -27533 
  -28233   -28025   -27983   -28687   -29435   -30060   -30955   -31752 
  -32095   -32571   -33356   -34025   -34819   -35940   -36688   -36831 
  -36996   -37080   -36733   -36500   -36475   -36035   -35383   -34922 
  -34418   -34047   -34214   -34734   -35174   -35409   -35559   -35509 
  -35272   -35272   -35487   -35525   -35440   -35217   -34639   -34030 
  -33558   -33005   -32580   -32208   -31426   -30504   -29808   -29167 
  -28773   -28804   -28716   -28330   -28076   -27950   -27859   -28066 
  -28583   -29151   -29653   -30020   -30255   -30468   -30763   -31268 
  -31842   -32119   -31961   -31307   -30290   -29238   -28228   -27358 
  -26658   -25793   -24824   -24039   -23313   -22764   -22590   -22595 
  -22671   -22821   -23109   -23585   -24167   -24996   -25984   -26787 
  -27529   -28065   -28167   -28592   -29415   -29893   -30474   -31377 
  -31726   -31644   -31860   -32221   -32426   -32588   -32712   -32573 
  -32170   -31797   -31494   -31214   -31235   -31457   -31418   -31271 
  -31261   -31106   -30909   -31070   -31186   -30916   -30656   -30411 
  -30078   -29945   -29937   -29843   -29711   -29538   -29375   -29310 
  -29380   -29754   -30301   -30623   -30740   -30701   -30477   -30408 
  -30598   -30801   -30886   -30697   -30298   -29849   -29253   -28764 
  -28521   -28079   -27575   -27350   -27161   -27217   -27829   -28616 
  -29508   -30564   -31482   -32380   -33284   -33995   -34797   -35533 
  -35792   -35831   -35679   -35263   -34889   -34496   -34023   -33591 
  -32894   -31810   -30540   -29143   -27935   -27001   -25961   -24790 
  -23536   -22276   -21494   -21268   -21318   -21824   -22632   -23126 
  -23522   -24275   -25286   -26557   -28050   -29411   -30535   -31579 
  -32487   -33304   -34344   -35426   -36012   -36113   -35901   -35344 
  -34732   -34366   -34076   -33613   -32982   -32268   -31410   -30571 
  -30165   -30205   -30409   -30636   -30760   -30788   -31090   -31806 
  -32805   -34180   -35677   -36752   -37547   -38537   -39676   -40721 
  -41788   -42870   -43460   -43429   -43392   -43532   -43387   -42996 
  -42571   -41768   -40444   -39111   -38175   -37558   -37251   -37348 
  -37503   -37421   -37293   -37171   -36992   -36820   -36378   -35477 
  -34458   -33418   -32371   -31764   -31617   -31510   -31459   -31546 
  -31555   -31583   -32004   -32804   -33662   -34430   -35189   -35971 
  -36763   -37753   -39014   -40163   -40952   -41548   -41949   -42034 
  -42074   -42373   -42574   -42184   -41332   -40148   -38659   -37336 
  -36408   -35568   -34535   -33202   -31716   -30290   -29001   -28016 
  -27399   -26916   -26489   -26183   -25981   -26112   -26731   -27505 
  -28140   -28681   -29182   -29498   -29642   -30061   -30780   -31294 
  -31625   -31929   -32047   -31999   -31931   -31974   -32046   -31958 
  -31761   -31427   -31074   -31032   -31177   -31387   -31704   -31826 
  -31711   -31707   -31839   -32045   -32385   -32634   -32469   -32031 
  -31716   -31572   -31455   -31314   -30935   -30073   -28865   -27715 
  -26787   -26046   -25495   -24981   -24304   -23607   -23304   -23466 
  -23848   -24470   -25160   -25404   -25368   -25552   -25840   -26235 
  -26866   -27200   -27071   -26932   -26660   -26260   -26310   -26542 
  -26382   -26046   -25526   -24761   -24256   -24054   -23850   -23677 
  -23457   -23167   -23096   -23317   -23674   -24049   -24401   -24681 
  -24774   -24950   -25661   -26740   -27930   -29115   -29908   -30350 
  -30736   -31004   -31394   -32105   -32645   -32808   -32798   -32556 
  -32178   -31942   -31907   -31951   -31837   -31564   -31434   -31604 
  -32126   -32946   -33634   -33940   -34132   -34260   -34349   -34815 
  -35573   -36182   -36696   -37141   -37454   -37971   -38682   -39301 
  -39776   -39811   -39376   -38915   -38474   -37968   -37461   -36795 
  -35811   -34663   -33725   -33196   -32946   -32911   -32830   -32244 
  -31455   -30906   -30458   -30233   -30275   -29994   -29275   -28492 
  -27574   -26623   -26065   -25675   -24994   -24004   -22932   -22057 
  -21499   -21283   -21326   -21308   -21216   -21247   -21266   -21387 
  -21959   -22692   -23228   -23802   -24561   -25481   -26730   -28329 
  -29926   -31187   -32143   -32977   -33771   -34737   -36086   -37485 
  -38493   -39249   -39896   -40304   -40662   -41126   -41380   -41184 
  -40559   -39669   -38848   -38361   -38131   -37662   -36757   -35883 
  -35023   -34027   -33584   -33576   -33027   -32291   -31816   -31074 
  -30545   -30795   -31081   -31254   -31604   -31608   -31282   -31391 
  -32046   -32854   -33583   -34089   -34333   -34524   -34986   -35705 
  -36330   -36740   -36902   -36723   -36520   -36644   -36824   -36793 
  -36550   -35958   -35255   -34912   -34901   -34969   -34833   -34191 
  -33038   -31682   -30558   -29930   -29606   -29308   -28980   -28523 
  -28050   -27988   -28395   -28970   -29447   -29664   -29706   -29709 
  -29918   -30531   -31034   -31197   -31343   -31119   -30596   -30568 
  -30828   -30689   -30139   -29346   -28241   -27110   -26564   -26430 
  -26143   -25793   -25487   -25162   -25204   -25857   -26732   -27452 
  -27976   -28250   -28357   -28749   -29511   -30173   -30636   -31037 
  -31166   -31016   -30957   -31050   -31062   -30958   -30693   -30239 
  -29897   -29850   -30181   -30594   -30388   -29842   -29427   -28846 
  -28492   -28763   -28839   -28470   -28234   -28075   -28097   -28810 
  -29820   -30368   -30357   -29978   -29372   -28965   -29177   -29352 
  -28886   -28453   -27918   -27021   -26894   -27219   -27026   -26701 
  -25990   -24734   -23772   -23241   -23033   -23214   -23214   -22843 
  -22710   -22977   -23706   -25028   -26248   -26909   -27398   -27811 
  -28363   -29398   -30409   -30982   -31126   -30735   -30347   -30570 
  -31122   -31568   -31634   -31318   -31030   -31012   -31370   -32078 
  -32517   -32357   -32039   -31805   -31855   -32347   -32884   -33167 
  -32867   -32004   -31425   -31099   -30591   -30285   -29734   -28383 
  -27086   -26282   -25754   -25796   -26141   -25993   -25580   -25479 
  -25689   -26292   -27231   -27963   -28276   -28612   -29312   -30160 
  -31212   -32537   -33334   -33373   -33355   -33478   -33655   -33914 
  -34102   -33886   -33246   -32869   -33168   -33762   -34473   -35086 
  -34973   -34380   -34219   -34460   -34733   -35101   -35122   -34438 
  -33755   -33497   -33329   -33274   -33302   -32890   -32060   -31563 
  -31735   -32260   -32888   -33301   -33205   -32917   -32930   -33473 
  -34431   -35304   -35806   -36118   -36503   -37292   -38598   -39932 
  -40855   -41240   -41152   -41146   -41558   -42013   -42291   -42306 
  -41818   -41143   -40772   -40691   -40729   -40489   -39578   -38085 
  -36428   -35196   -34527   -33909   -33113   -32203   -31195   -30517 
  -30515   -30876   -31231   -31301   -31044   -30952   -31366   -32235 
  -33296   -33997   -34154   -34196   -34508   -35368   -36657   -37664 
  -38040   -37918   -37534   -37363   -37545   -37658   -37265   -36253 
  -34997   -33929   -33107   -32505   -31826   -30519   -28684   -26939 
  -25627   -24860   -24398   -23774   -22883   -21857   -21099   -21146 
  -21802   -22511   -23035   -23189   -23315   -24141   -25553   -26937 
  -27978   -28409   -28263   -28240   -28724   -29312   -29671   -29529 
  -28779   -27969   -27517   -27489   -27730   -27535   -26597   -25466 
  -24524   -23966   -23865   -23675   -22989   -21999   -20967   -20328 
  -20425   -20803   -20757   -20223   -19569   -19231   -19531   -20277 
  -20908   -21061   -20939   -21059   -21733   -22995   -24374   -25226 
  -25643   -25997   -26352   -27020   -28093   -28803   -28847   -28774 
  -28841   -29230   -30136   -31052   -31340   -30968   -30325   -29985 
  -30091   -30202   -30036   -29308   -27899   -26499   -25564   -24811 
  -24014   -22799   -20932   -19080   -17837   -17071   -16561   -15969 
  -15071   -14166   -13757   -14253   -15453   -16793   -18024   -18918 
  -19813   -21494   -23599   -25409   -26918   -27946   -28477   -29251 
  -30661   -32133   -33011   -33260   -33063   -32741   -32839   -33281 
  -33376   -32834   -31951   -31165   -30835   -31161   -31685   -31626 
  -30981   -30324   -30099   -30551   -31450   -32110   -32256   -32270 
  -32456   -32947   -33860   -34861   -35292   -35057   -34677   -34591 
  -34870   -35255   -35312   -34767   -33864   -33115   -32689   -32428 
  -31975   -31060   -30038   -29427   -29361   -29789   -30279   -30252 
  -29882   -29678   -29904   -30746   -31916   -32669   -32762   -32747 
  -33215   -34252   -35557   -36568   -36832   -36547   -36467   -36951 
  -37590   -38007   -37981   -37427   -37036   -37354   -37836   -38078 
  -38073   -37516   -36717   -36495   -36822   -37165   -37163   -36625 
  -35801   -35219   -35147   -35356   -35228   -34492   -33589   -32995 
  -33003   -33664   -34379   -34638   -34694   -34942   -35641   -36816 
  -38007   -38701   -38814   -38774   -39162   -39917   -40533   -40713 
  -40090   -38852   -38020   -37808   -37695   -37464   -36791   -35645 
  -34801   -34689   -34963   -35214   -35069   -34525   -34224   -34547 
  -35217   -35722   -35580   -34855   -34141   -33802   -33943   -34327 
  -34281   -33644   -32880   -32371   -32377   -32793   -33053   -32950 
  -32864   -33109   -33801   -34824   -35666   -35961   -35865   -35856 
  -36285   -36948   -37337   -37069   -36032   -34731   -33932   -33534 
  -32781   -31445   -29662   -27582   -25772   -24530   -23296   -21627 
  -19611   -17633   -16236   -15622   -15550   -15507   -15202   -15178 
  -15973   -17424   -19197   -20817   -21863   -22626   -23650   -25063 
  -26595   -27771   -28325   -28474   -28783   -29570   -30375   -30620 
  -30288   -29525   -28637   -28240   -28375   -28332   -27842   -27223 
  -26785   -26734   -26980   -27160   -26915   -26308   -25981   -26319 
  -27062   -27847   -28250   -28084   -27913   -28189   -28688   -29137 
  -29193   -28663   -28086   -27956   -28101   -28201   -28017   -27534 
  -27046   -26891   -27326   -27972   -28044   -27768   -27742   -27970 
  -28691   -29768   -30322   -30363   -30532   -30940   -31674   -32663 
  -33199   -33079   -32954   -33296   -33984   -34541   -34657   -34338 
  -33811   -33590   -33872   -34116   -33836   -33159   -32455   -32057 
  -32171   -32526   -32425   -31772   -31249   -31145   -31361   -31736 
  -31881   -31698   -31489   -31651   -32314   -33044   -33370   -33254 
  -33017   -33098   -33529   -33811   -33632   -33131   -32549   -32286 
  -32516   -32687   -32337   -31690   -31180   -31033   -31212   -31479 
  -31327   -30606   -30006   -29866   -30005   -30345   -30293   -29580 
  -29052   -29120   -29511   -30033   -30299   -30149   -30120   -30613 
  -31460   -32241   -32516   -32364   -32402   -32923   -33825   -34743 
  -35057   -34779   -34719   -35317   -36282   -37091   -37405   -37407 
  -37549   -38091   -38933   -39544   -39594   -39416   -39266   -39348 
  -39871   -40047   -39385   -38714   -38334   -38103   -38080   -37675 
  -36517   -35079   -33836   -33041   -32505   -31632   -30250   -28726 
  -27523   -26926   -26571   -25817   -24696   -23691   -23201   -23301 
  -23581   -23626   -23404   -23349   -24077   -25460   -26879   -27923 
  -28586   -29671   -31560   -33390   -34795   -36053   -36960   -37563 
  -38617   -40010   -40495   -39949   -39343   -38967   -38904   -39209 
  -39092   -38093   -37053   -36713   -36861   -37005   -36723   -35844 
  -34891   -34622   -34903   -34935   -34461   -33822   -33360   -33533 
  -34419   -35075   -34952   -34641   -34605   -35055   -35876   -36294 
  -36001   -35452   -35071   -35109   -35293   -34864   -33775   -32733 
  -32215   -32243   -32234   -31509   -30306   -29258   -28791   -28962 
  -29017   -28326   -27208   -26327   -26222   -26649   -26741   -26362 
  -25991   -26010   -26587   -27338   -27575   -27098   -26560   -26764 
  -27527   -27988   -27832   -27342   -26934   -27194   -28132   -28713 
  -28505   -28229   -28345   -28968   -29950   -30375   -29785   -28960 
  -28597   -28762   -29155   -29101   -28324   -27539   -27473   -27897 
  -28134   -27817   -27069   -26407   -26335   -26729   -26767   -26045 
  -25135   -24662   -24704   -24892   -24639   -23722   -22758   -22549 
  -23030   -23438   -23356   -23000   -22751   -23020   -23869   -24505 
  -24365   -24064   -24270   -24977   -25860   -26306   -26038   -25640 
  -25654   -26105   -26606   -26493   -25789   -25312   -25540   -26228 
  -26650   -26361   -25925   -26071   -26708   -27463   -27931   -27772 
  -27457   -27664   -28178   -28392   -28043   -27300   -26827   -27131 
  -27694   -27771   -27304   -26784   -26862   -27457   -27917   -28046 
  -27761   -27428   -27915   -28820   -29179   -29156   -29134   -29330 
  -29974   -30666   -30861   -30709   -30816   -31540   -32527   -33153 
  -33194   -32915   -32957   -33529   -33899   -33682   -33319   -33105 
  -33271   -33834   -34057   -33624   -33187   -33186   -33581   -34126 
  -34186   -33639   -33330   -33654   -34153   -34386   -34197   -33880 
  -34101   -34866   -35413   -35308   -34820   -34565   -34967   -35760 
  -36189   -35935   -35522   -35503   -35892   -36273   -36108   -35403 
  -34865   -34928   -35115   -34884   -34130   -33062   -32410   -32446 
  -32348   -31589   -30445   -29338   -28657   -28288   -27648   -26564 
  -25373   -24635   -24533   -24461   -23949   -23261   -22906   -23210 
  -24078   -24840   -25078   -25324   -26118   -27403   -28777   -29744 
  -30366   -31266   -32813   -34533   -35625   -36171   -36828   -37783 
  -38871   -39676   -39702   -39233   -39134   -39623   -40159   -40277 
  -39902   -39386   -39299   -39553   -39452   -38744   -37845   -37299 
  -37050   -36565   -35644   -34386   -33196   -32598   -32269   -31475 
