Origin Time       2011/03/11 14:46:00
Lat.              38.103
Long.             142.860
Depth. (km)       24
Mag.              9.0
Station Code      GIF003
Station Lat.      36.3326
Station Long.     137.3019
Station Height(m) 402
Record Time       2011/03/11 14:50:06
Sampling Freq(Hz) 100Hz
Duration Time(s)  65
Dir.              N-S
Scale Factor      3920(gal)/6182761
Max. Acc. (gal)   21.503
Last Correction   2011/03/11 14:49:51
Memo.             
[...]
  -90666   -90610   -90513   -90519   -90550   -90570   -90639   -90685 
  -90692   -90766   -90820   -90817   -90859   -90885   -90855   -90819 
  -90810   -90881   -90942   -90892   -90880   -90979   -91000   -90898 
  -90855   -90929   -91028   -91040   -90978   -91020   -91116   -91054 
  -90954   -91076   -91266   -91202   -91107   -91227   -91365   -91443 
  -91429   -91369   -91506   -91652   -91549   -91464   -91505   -91485 
  -91436   -91389   -91324   -91377   -91488   -91530   -91621   -91693 
  -91594   -91536   -91680   -91866   -91923   -91855   -91777   -91741 
  -91758   -91719   -91487   -91409   -91680   -91713   -91502   -91594 
  -91702   -91583   -91559   -91601   -91608   -91690   -91812   -91871 
  -91839   -91824   -91898   -91963   -92001   -92051   -92072   -92069 
  -92054   -92021   -91978   -91934   -91922   -91923   -91911   -91924 
  -91952   -91993   -92100   -92225   -92221   -92139   -92213   -92378 
  -92400   -92325   -92214   -92137   -92202   -92240   -92184   -92158 
  -92106   -92086   -92224   -92313   -92249   -92175   -92047   -91920 
  -91998   -92125   -92068   -91988   -92085   -92229   -92232   -92126 
  -92070   -92149   -92173   -92119   -92247   -92360   -92226   -92104 
  -92162   -92380   -92557   -92485   -92410   -92477   -92543   -92632 
  -92666   -92612   -92680   -92819   -92925   -93042   -93027   -92876 
  -92889   -93056   -93035   -92880   -92920   -93016   -92940   -92765 
  -92580   -92511   -92512   -92405   -92310   -92302   -92247   -92175 
  -92216   -92331   -92418   -92495   -92550   -92536   -92539   -92609 
  -92643   -92585   -92520   -92436   -92259   -92159   -92215   -92209 
  -92090   -91983   -91939   -91939   -91897   -91809   -91800   -91833 
  -91764   -91688   -91716   -91776   -91820   -91780   -91665   -91677 
  -91828   -91881   -91793   -91748   -91808   -91856   -91868   -91875 
  -91838   -91773   -91680   -91596   -91664   -91794   -91747   -91574 
  -91453   -91425   -91445   -91412   -91359   -91436   -91491   -91357 
  -91230   -91224   -91203   -91081   -90934   -90922   -91087   -91244 
  -91196   -91052   -91039   -91104   -91091   -91089   -91176   -91231 
  -91218   -91216   -91238   -91216   -91091   -91017   -91127   -91188 
  -91068   -90937   -90873   -90874   -90901   -90846   -90788   -90901 
  -91069   -91057   -90951   -91003   -91203   -91325   -91285   -91257 
  -91343   -91402   -91384   -91422   -91483   -91459   -91467   -91584 
  -91648   -91600   -91572   -91612   -91656   -91692   -91774   -91911 
  -91979   -91923   -91934   -92058   -92070   -92003   -92028   -92062 
  -92070   -92092   -92053   -92021   -92016   -91947   -91899   -91782 
  -91537   -91462   -91554   -91546   -91403   -91246   -91185   -91199 
  -91246   -91344   -91347   -91186   -91149   -91295   -91312   -91195 
  -91135   -91073   -91007   -91051   -91067   -91002   -91006   -90984 
  -90895   -90862   -90880   -90929   -90926   -90828   -90824   -90944 
  -91034   -91085   -91139   -91151   -91139   -91201   -91297   -91354 
  -91388   -91376   -91368   -91419   -91407   -91329   -91389   -91530 
  -91525   -91460   -91440   -91438   -91516   -91547   -91447   -91404 
  -91433   -91436   -91434   -91503   -91596   -91545   -91517   -91587 
  -91541   -91542   -91543   -91443   -91595   -91753   -91702   -91727 
  -91744   -91755   -91725   -91601   -91594   -91496   -91288   -91304 
  -91388   -91390   -91330   -91136   -91070   -91235   -91290   -91301 
  -91429   -91501   -91568   -91662   -91592   -91476   -91529   -91542 
  -91372   -91300   -91350   -91301   -91192   -91132   -91126   -91143 
  -91147   -91110   -91127   -91257   -91266   -91166   -91197   -91218 
  -91191   -91206   -91057   -90812   -90733   -90687   -90596   -90606 
  -90585   -90468   -90566   -90812   -90748   -90436   -90289   -90410 
  -90652   -90797   -90812   -90794   -90711   -90695   -90812   -90839 
  -90785   -90806   -90875   -90915   -90918   -90953   -90876   -90617 
  -90603   -90858   -90866   -90634   -90453   -90447   -90596   -90654 
  -90575   -90512   -90524   -90540   -90401   -90336   -90465   -90401 
  -90219   -90314   -90585   -90576   -90319   -90474   -90825   -90576 
  -90312   -90456   -90363   -90412   -90553   -90120   -89909   -89948 
  -89775   -89937   -90138   -90136   -90214   -90180   -90133   -90126 
  -90081   -90120   -90137   -90266   -90566   -90600   -90386   -90245 
  -90326   -90622   -90732   -90561   -90461   -90407   -90370   -90470 
  -90539   -90422   -90128   -89920   -90022   -90170   -90173   -90088 
  -89958   -90000   -90167   -90152   -90002   -89770   -89603   -89732 
  -89890   -90019   -90113   -89879   -89587   -89555   -89781   -90106 
  -90025   -89674   -89786   -90140   -90090   -89869   -89839   -89956 
  -90175   -90287   -90251   -90400   -90635   -90589   -90533   -90787 
  -90924   -90877   -91115   -91387   -91350   -91322   -91389   -91332 
  -91262   -91318   -91430   -91524   -91456   -91305   -91348   -91493 
  -91467   -91315   -91518   -91947   -91783   -91517   -91790   -91856 
  -91781   -91988   -91885   -91658   -91914   -92172   -92092   -91995 
  -92004   -92100   -92147   -92110   -92215   -92267   -92105   -92141 
  -92304   -92174   -91946   -91937   -92144   -92142   -91728   -91695 
  -91992   -91748   -91532   -91793   -91949   -91988   -92022   -91936 
  -91809   -91943   -92470   -92714   -92392   -92206   -92455   -92892 
  -93108   -92880   -92749   -92959   -92868   -92519   -92644   -92988 
  -92845   -92501   -92429   -92541   -92565   -92442   -92470   -92544 
  -92512   -92594   -92784   -92853   -92512   -92329   -92844   -93152 
  -92796   -92596   -92954   -93252   -93101   -92956   -93001   -92978 
  -92987   -93104   -93086   -92964   -92940   -92953   -92969   -92891 
  -92646   -92746   -93044   -92826   -92501   -92545   -92711   -92670 
  -92463   -92498   -92576   -92345   -92114   -92187   -92335   -92269 
  -92131   -91855   -91589   -91647   -91685   -91820   -91997   -91542 
  -91200   -91643   -91653   -91211   -91519   -91754   -91362   -91311 
  -91453   -91554   -91625   -91272   -91144   -91506   -91466   -90997 
  -90918   -91230   -91153   -91028   -91210   -90877   -90380   -90454 
  -90627   -90536   -90140   -89970   -90334   -90220   -89863   -90268 
  -90291   -89619   -89645   -89947   -89886   -89905   -89951   -89992 
  -89784   -89368   -89562   -89963   -89694   -89331   -89525   -89638 
  -89260   -89127   -89505   -89672   -89704   -89980   -89594   -89016 
  -89692   -90305   -89756   -89502   -89921   -89912   -89715   -89939 
  -89772   -89383   -89817   -90026   -89512   -89573   -89964   -89801 
  -89429   -89517   -89823   -89549   -89374   -89613   -89359   -89487 
  -90132   -89648   -88918   -89580   -90172   -89437   -89274   -90020 
  -89800   -89578   -90023   -89434   -88860   -89853   -90580   -90007 
  -89318   -89367   -90016   -90050   -89505   -89686   -89933   -89789 
  -90112   -90278   -89718   -89492   -89934   -90362   -90675   -90576 
  -89828   -89612   -90208   -90560   -90694   -90716   -90368   -90254 
  -90801   -91199   -90671   -89897   -89906   -90677   -91471   -91432 
  -90627   -90252   -90731   -90976   -90554   -90525   -91126   -91330 
  -91189   -91477   -91700   -91241   -90778   -90982   -91542   -91979 
  -91969   -91600   -91709   -92013   -91607   -91353   -91839   -92315 
  -92413   -92233   -92163   -92266   -92240   -92252   -92386   -92492 
  -92436   -92405   -92731   -92829   -92432   -92249   -92495   -92691 
  -92421   -92239   -92620   -92790   -92359   -92028   -92247   -92505 
  -92279   -92107   -92246   -91986   -91687   -92039   -92202   -91749 
  -91497   -91741   -91983   -91782   -91463   -91482   -91608   -91709 
  -91720   -91560   -91463   -91364   -91254   -91256   -91121   -90965 
  -91103   -91090   -90746   -90684   -90719   -90451   -90534   -90974 
  -90852   -90416   -90483   -90650   -90587   -90549   -90450   -90457 
  -90457   -90227   -90340   -90569   -90358   -90236   -90346   -90237 
  -90221   -90809   -91153   -90531   -90220   -90681   -90601   -90170 
  -90680   -91388   -90906   -90223   -90268   -90364   -90339   -90259 
  -90415   -90974   -90957   -90330   -90255   -90589   -90386   -90195 
  -90820   -91106   -90384   -90135   -90847   -91249   -90960   -90732 
  -90891   -91053   -90827   -90659   -90943   -90890   -90568   -90839 
  -91042   -90601   -90175   -90291   -90648   -90643   -90640   -90876 
  -90914   -90933   -90696   -90212   -90662   -91501   -91227   -90716 
  -91100   -91530   -91435   -91170   -90839   -90867   -91546   -91771 
  -91183   -91251   -91773   -91512   -91325   -91380   -91001   -91477 
  -92233   -91190   -90469   -91753   -92159   -90916   -90613   -91540 
  -91660   -90800   -90729   -91457   -91603   -91212   -90999   -91319 
  -91699   -91196   -90775   -91485   -91897   -91394   -91272   -91790 
  -92115   -91840   -91375   -91466   -91954   -92052   -91816   -91811 
  -91876   -91699   -91950   -92334   -91724   -91546   -92417   -92376 
  -91929   -92069   -92076   -92238   -92302   -91847   -92264   -93310 
  -92847   -91649   -91963   -92854   -92795   -92682   -93238   -93278 
  -91767   -90831   -91862   -92421   -92612   -93622   -93390   -91799 
  -91218   -92416   -93381   -92450   -91826   -92453   -92558   -92825 
  -93406   -92772   -91434   -90296   -90479   -93532   -96428   -94095 
  -89320   -88473   -90991   -93918   -95760   -93392   -88315   -87446 
  -90775   -93077   -93766   -93752   -92725   -91314   -90538   -91541 
  -94302   -95349   -91696   -88420   -91181   -94478   -93075   -91822 
  -92236   -89878   -89605   -96037   -98156   -92687   -91166   -92322 
  -90344   -91164   -93918   -91946   -88567   -88632   -91513   -93894 
  -93355   -92196   -92529   -92062   -89919   -90518   -94499   -94116 
  -89050   -87174   -87967   -89916   -93343   -92021   -91153   -98020 
  -97286   -87538   -87896   -91998   -89046   -90090   -94117   -92793 
  -92966   -93870   -89540   -88064   -91305   -92295   -94072   -96885 
  -92862   -87461   -91902   -97886   -94004   -87038   -83776   -84099 
  -90936   -99933  -100266   -94836   -92170   -89100   -85010   -86786 
  -92782   -96464   -95552   -92199   -91662   -93149   -90972   -87852 
  -87852   -89183   -94816  -101813   -97808   -88313   -87590   -91626 
  -90840   -86945   -88837   -97409  -100046   -93061   -88881   -92222 
  -94591   -89887   -84808   -90332  -100233   -99220   -90987   -87629 
  -88586   -90791   -93901   -94437   -91422   -90332   -93382   -94509 
  -92042   -90179   -88242   -88280   -94267   -97201   -90623   -85384 
  -89053   -95673   -97857   -94941   -90628   -87294   -87910   -92121 
  -92821   -91560   -95650   -98807   -93350   -87456   -88576   -90988 
  -91096   -91275   -91344   -93240   -96594   -93878   -87781   -87950 
  -91638   -93526   -94484   -94019   -93226   -92026   -87427   -85635 
  -89699   -91857   -92157   -93418   -95920   -98781   -94037   -86288 
  -87765   -91929   -93504   -94815   -92790   -91556   -93026   -89506 
  -85573   -90190   -97683   -97995   -91564   -87681   -89572   -91353 
  -90517   -90260   -92987   -95932   -94886   -92218   -90790   -89592 
  -89803   -90160   -89272   -91848   -95132   -91431   -86620   -89089 
  -93882   -94705   -92701   -89723   -89445   -94896   -97593   -91435 
  -86646   -89123   -92875   -94575   -93064   -89824   -90413   -93007 
  -92124   -90624   -91872   -93522   -92254   -88797   -89397   -93223 
  -92951   -91301   -92932   -95423   -96076   -92967   -89339   -90602 
  -91932   -90104   -90854   -92844   -92623   -92579   -91926   -90899 
  -92293   -94266   -93594   -91271   -91848   -93914   -92799   -91452 
  -90698   -88446   -88944   -92669   -94865   -95645   -96035   -94135 
  -90158   -87997   -90100   -93483   -93049   -89193   -88464   -91482 
  -92319   -91980   -93179   -92309   -90803   -92548   -93347   -94238 
  -98321   -95743   -85131   -81567   -90563  -100359   -97747   -87792 
  -86849   -92158   -91172   -88867   -93678   -98252   -91133   -81681 
  -88480  -101144   -97735   -85555   -83972   -91204   -95524   -94712 
  -92797   -92415   -89047   -84509   -89853   -98361   -96522   -89220 
  -86642   -89639   -91103   -91209   -94537   -91430   -83387   -86192 
  -92966   -93731   -94399   -94893   -93366   -93925   -94775   -92386 
  -92066   -93130   -86322   -82855   -91536   -93070   -89642   -96869 
  -99284   -89684   -87147   -93583   -93346   -87812   -88373   -93495 
  -96355   -95242   -91780   -89191   -91807   -96424   -93035   -88460 
  -91657   -91811   -91662   -98718   -98232   -89261   -85414   -85841 
  -88987   -96443  -100893   -96539   -90266   -90723   -93437   -90785 
  -87517   -91352   -97238   -94623   -88171   -88723   -93218   -96777 
  -97300   -90704   -86536   -93541   -97795   -92052   -87662   -90466 
  -95646   -96165   -90461   -84107   -84815   -91186   -92537   -89464 
  -87411   -83143   -81323   -87906   -94320   -93315   -89341   -89984 
  -94691   -95272   -90952   -88900   -88690   -86439   -87943   -94888 
  -96422   -88993   -85117   -95094  -105742  -101210   -91955   -91031 
  -95755   -97645   -91776   -87631   -91296   -89280   -78455   -73969 
  -79103   -86572   -95759  -103370  -102250   -95732   -92109   -94961 
 -102564  -104493   -94895   -85028   -84410   -87005   -82997   -76922 
  -78901   -84410   -90785  -101786  -107652   -96410   -75302   -68148 
  -87021  -114161  -125465  -114743   -94246   -84721   -90976   -95701 
  -89349   -80376   -80071   -88059   -89175   -79522   -75295   -83419 
  -94647  -100749  -102098  -103074   -99692   -84449   -68796   -70297 
  -82914   -93384  -100093  -104566  -107067  -101071   -85417   -79324 
  -93315  -110149  -112028   -98170   -79715   -73659   -84242   -92602 
  -87086   -82554   -89317   -98334  -100421   -91783   -80251   -82221 
  -95116  -102169  -101422   -98657   -93339   -86440   -78514   -74216 
  -85472  -105540  -112915  -103639   -89212   -78757   -74676   -77520 
  -91625  -109497  -110374   -98768   -96179   -98244   -89651   -76000 
  -75725   -94845  -115899  -113875   -91068   -76613   -81004   -88685 
  -89955   -88700   -91949   -98684   -97015   -84736   -76999   -81661 
  -93829  -104673  -104962   -99123   -95338   -89670   -82892   -82437 
  -85805   -88588   -95935  -103982   -99627   -89818   -86471   -84980 
  -85536   -92323   -98454   -96959   -89871   -85726   -88916   -91262 
  -86198   -83172   -95154  -113431  -112289   -93122   -84312   -88386 
  -89507   -87206   -84153   -86262   -96663   -99110   -89726   -84229 
  -85260   -87631   -91445   -96664  -100330   -98973   -94327   -88752 
  -84296   -88781   -98628   -98767   -91633   -88404   -87894   -87079 
  -88088   -91802   -95832   -97165   -93935   -90170   -94392  -100454 
  -96644   -92561   -95132   -95679   -90564   -77374   -68402   -83230 
 -104833  -109786  -104492   -98010   -91064   -81549   -71906   -73708 
  -89721  -108086  -112127   -99616   -90398   -91729   -93433   -92949 
  -91489   -91654   -90997   -83475   -77981   -83372   -93273   -95387 
  -87390   -84098   -93001  -106351  -110025   -95128   -87289  -103854 
 -108680   -86977   -73454   -79387   -84840   -85376   -91289  -102971 
 -107605   -95440   -80693   -80960   -85341   -88817  -105343  -120755 
 -105939   -72236   -63200   -88107  -105301   -93115   -77225   -82523 
 -102755  -110799   -99533   -88675   -83922   -79684   -80416   -84814 
  -90770  -106556  -117463  -101703   -81175   -81471   -93003   -97466 
  -85392   -74712   -90993  -115221  -115324   -93828   -72180   -71419 
  -91640  -104199   -91213   -75076   -82743  -100947  -103652   -94217 
  -89425   -94065   -98936   -94166   -84652   -82175   -87814   -91001 
  -87950   -88396   -93533   -97629  -101867  -103149   -98939   -93316 
  -87517   -83148   -83120   -89187   -98884  -102666   -95002   -80901 
  -75329   -88048  -101825  -101034   -94397   -87387   -80726   -79643 
  -88495  -105155  -111923   -99672   -82330   -72742   -78449   -94516 
 -102240   -99279   -97421   -96917   -93014   -90421   -91241   -89494 
  -86618   -87594   -93094  -100860  -102740   -94728   -82485   -78294 
  -89259   -99268   -96304   -90802   -89097   -91567   -95154   -92854 
  -87641   -87255   -91433   -93783   -93165   -93176   -94145   -96205 
  -96259   -91780   -89070   -92657   -98200   -96952   -89693   -86997 
  -90604   -97237  -100710   -93245   -85132   -88202   -96193  -101431 
  -97968   -86284   -81175   -89623   -99082   -96994   -91324   -94632 
  -95314   -86219   -86170   -97075  -101194   -98233   -96327   -96605 
  -95370   -88992   -84912   -90422   -99140  -100061   -93105   -89108 
  -89216   -90688   -95009   -98573  -101554  -101592   -93731   -86051 
  -85163   -89279   -93596   -92032   -88556   -92174  -100116  -100008 
  -89875   -83365   -87865   -96585   -99895   -95456   -91558   -93799 
  -96158   -93354   -89175   -86709   -87433   -94594  -101089   -98406 
  -93146   -92711   -92068   -87497   -89028   -98259  -100117   -93421 
  -90836   -94311   -98532  -100629   -96889   -89187   -87135   -89550 
  -87949   -87099   -92138   -95599   -95624   -95996   -93300   -88745 
  -88741   -90131   -90821   -96529  -103136  -101968   -95758   -89882 
  -87426   -89557   -92335   -94064   -95392   -93956   -90991   -90195 
  -89488   -88713   -93170   -99039   -98927   -95670   -92678   -90312 
  -87811   -85271   -87059   -92942   -97987   -96609   -90213   -90299 
  -94427   -93309   -92231   -91819   -90018   -93449   -97839   -96882 
  -94536   -89317   -85697   -91952   -96463   -92469   -90467   -92318 
  -94369   -94870   -91457   -88428   -89892   -91018   -88164   -87350 
  -93346   -99084   -97815   -92771   -90398   -91911   -93921   -95322 
  -94222   -90743   -92126   -98012   -99029   -93988   -90841   -91598 
  -90526   -87958   -89371   -94847   -96215   -89429   -87141   -95616 
 -101584   -97400   -91173   -93495   -99365   -94779   -84642   -84534 
  -93375   -98288   -94812   -89503   -89948   -95214   -94814   -87811 
  -88454   -98200  -100909   -92755   -87284   -91173   -96740   -95701 
  -91127   -91427   -93995   -92160   -89771   -91303   -94551   -95712 
  -92755   -89257   -90457   -95166   -97705   -95861   -93071   -93285 
  -94460   -90105   -84519   -87931   -96162  -100865   -98052   -87675 
  -83926   -92884   -96914   -91060   -87973   -91398   -99046  -102860 
  -94991   -85105   -83856   -87630   -91678   -95327   -96344   -94711 
  -92552   -88201   -86867   -93460   -95704   -90331   -89640   -92935 
  -93722   -93025   -91807   -91266   -92572   -92097   -90041   -92659 
  -95428   -91794   -89717   -92800   -94621   -94434   -94324   -93334 
  -92769   -93758   -92253   -88759   -88597   -91263   -94613   -97651 
  -96973   -92604   -89781   -89377   -89113   -90382   -92133   -92395 
  -93714   -94223   -91416   -91748   -95990   -95792   -93121   -93667 
  -92778   -89539   -89476   -92021   -95013   -98023   -96812   -91140 
  -89036   -92173   -94488   -92558   -88697   -90124   -95448   -94844 
  -90640   -91039   -92469   -90875   -92686   -97606   -96142   -89520 
  -86814   -89477   -91502   -92324   -96016   -97273   -91453   -85707 
  -86405   -90834   -91134   -87704   -90340   -97489   -98240   -92367 
