Origin Time       2011/03/11 14:46:00
Lat.              38.103
Long.             142.860
Depth. (km)       24
Mag.              9.0
Station Code      GIF010
Station Lat.      35.8005
Station Long.     137.2484
Station Height(m) 360
Record Time       2011/03/11 14:48:06
Sampling Freq(Hz) 100Hz
Duration Time(s)  228
Dir.              N-S
Scale Factor      3920(gal)/6182761
Max. Acc. (gal)   10.511
Last Correction   2011/03/11 14:47:51
Memo.             
[...]
   -9403    -9662    -9905   -10157   -10531   -11064   -11738   -12514 
  -13316   -14061   -14652   -15005   -15105   -14982   -14739   -14469 
  -14196   -13971   -13793   -13595   -13382   -13161   -12925   -12730 
  -12600   -12524   -12483   -12408   -12277   -12105   -11904   -11763 
  -11724   -11739   -11787   -11854   -11917   -11961   -11955   -11912 
  -11910   -11984   -12118   -12336   -12659   -13024   -13369   -13623 
  -13701   -13602   -13371   -13018   -12525   -11886   -11152   -10381 
   -9637    -8992    -8491    -8168    -8028    -8061    -8259    -8559 
   -8929    -9387    -9913   -10473   -11077   -11716   -12257   -12563 
  -12635   -12476   -12096   -11629   -11256   -11065   -11029   -11146 
  -11410   -11751   -12120   -12434   -12586   -12557   -12330   -11939 
  -11534   -11240   -11105   -11145   -11348   -11663   -12060   -12499 
  -12924   -13357   -13815   -14295   -14810   -15276   -15607   -15770 
  -15715   -15509   -15275   -15011   -14718   -14430   -14174   -13977 
  -13776   -13484   -13092   -12561   -11888   -11127   -10279    -9431 
   -8678    -8021    -7494    -7062    -6629    -6181    -5730    -5324 
   -5010    -4774    -4572    -4342    -4066    -3809    -3613    -3432 
   -3238    -3081    -2957    -2819    -2708    -2685    -2812    -3119 
   -3574    -4175    -4905    -5672    -6480    -7393    -8391    -9464 
  -10582   -11626   -12544   -13284   -13739   -13873   -13694   -13262 
  -12743   -12271   -11929   -11805   -11912   -12202   -12610   -13086 
  -13596   -14102   -14597   -15071   -15466   -15746   -15942   -16069 
  -16112   -16104   -16075   -16026   -15982   -15942   -15921   -15937 
  -15928   -15902   -15860   -15729   -15531   -15228   -14774   -14276 
  -13741   -13141   -12519   -11832   -11112   -10409    -9690    -9050 
   -8568    -8232    -8071    -8004    -7963    -7953    -7892    -7768 
   -7604    -7354    -7058    -6711    -6252    -5729    -5179    -4645 
   -4197    -3788    -3407    -3077    -2748    -2455    -2276    -2208 
   -2235    -2270    -2223    -2093    -1883    -1624    -1403    -1240 
   -1143    -1149    -1222    -1328    -1475    -1644    -1823    -2027 
   -2304    -2675    -3052    -3416    -3842    -4337    -4900    -5500 
   -6056    -6557    -7002    -7347    -7620    -7934    -8388    -9000 
   -9729   -10540   -11385   -12165   -12798   -13293   -13695   -14039 
  -14371   -14700   -15069   -15560   -16167   -16877   -17723   -18651 
  -19557   -20377   -21089   -21671   -22086   -22318   -22395   -22375 
  -22310   -22230   -22155   -22093   -22027   -21951   -21889   -21850 
  -21805   -21741   -21650   -21488   -21233   -20866   -20342   -19685 
  -18958   -18146   -17246   -16313   -15353   -14368   -13414   -12518 
  -11674   -10899   -10198    -9520    -8837    -8141    -7433    -6777 
   -6181    -5595    -5011    -4427    -3880    -3386    -2911    -2502 
   -2217    -2086    -2144    -2324    -2563    -2894    -3297    -3735 
   -4186    -4589    -4951    -5342    -5790    -6321    -6968    -7740 
   -8612    -9516   -10380   -11176   -11864   -12405   -12874   -13372 
  -13875   -14349   -14831   -15317   -15764   -16102   -16235   -16128 
  -15776   -15176   -14343   -13280   -12067   -10863    -9753    -8755 
   -7901    -7200    -6606    -6079    -5590    -5094    -4586    -4099 
   -3687    -3406    -3228    -3146    -3263    -3618    -4128    -4739 
   -5423    -6177    -7011    -7856    -8694    -9494   -10165   -10778 
  -11383   -11899   -12370   -12826   -13216   -13566   -13879   -14148 
  -14437   -14734   -14994   -15178   -15184   -15004   -14695   -14268 
  -13779   -13286   -12801   -12390   -12102   -11872   -11632   -11397 
  -11174   -10935   -10655   -10313    -9913    -9467    -8999    -8582 
   -8213    -7793    -7307    -6792    -6231    -5602    -4948    -4338 
   -3771    -3207    -2619    -1999    -1367     -750     -183      233 
     422      392      144     -281     -820    -1457    -2138    -2815 
   -3487    -4132    -4780    -5490    -6243    -7045    -7905    -8744 
   -9488   -10095   -10524   -10741   -10762   -10696   -10622   -10537 
  -10455   -10377   -10299   -10200    -9994    -9713    -9439    -9110 
   -8711    -8295    -7850    -7393    -6914    -6372    -5810    -5219 
   -4573    -3958    -3460    -3109    -2913    -2858    -2942    -3114 
   -3279    -3397    -3451    -3503    -3694    -4079    -4627    -5315 
   -6182    -7237    -8407    -9685   -11060   -12500   -14001   -15485 
  -16913   -18297   -19581   -20771   -21878   -22850   -23688   -24386 
  -24922   -25265   -25381   -25289   -25025   -24626   -24087   -23380 
  -22531   -21580   -20570   -19517   -18368   -17174   -16040   -14952 
  -13885   -12826   -11772   -10762    -9767    -8727    -7631    -6472 
   -5276    -4082    -2899    -1755     -731       86      727     1247 
    1556     1650     1643     1523     1274      938      469     -152 
    -886    -1776    -2868    -4101    -5381    -6673    -7951    -9098 
  -10028   -10814   -11515   -12151   -12773   -13353   -13858   -14269 
  -14532   -14641   -14641   -14568   -14439   -14279   -14129   -13984 
  -13850   -13762   -13695   -13680   -13770   -13907   -14067   -14216 
  -14235   -14098   -13824   -13412   -12942   -12465   -11970   -11521 
  -11185   -10960   -10833   -10809   -10920   -11136   -11373   -11623 
  -11874   -12102   -12322   -12474   -12524   -12512   -12398   -12240 
  -12203   -12249   -12286   -12383   -12581   -12811   -12985   -13068 
  -13081   -13041   -12960   -12858   -12720   -12555   -12426   -12346 
  -12259   -12168   -12128   -12143   -12197   -12244   -12236   -12179 
  -12033   -11734   -11328   -10820   -10168    -9406    -8569    -7679 
   -6787    -5957    -5194    -4433    -3677    -2943    -2211    -1583 
   -1119     -800     -700     -776     -906    -1083    -1232    -1298 
   -1348    -1393    -1520    -1866    -2404    -3068    -3835    -4670 
   -5509    -6257    -6904    -7485    -7990    -8417    -8793    -9159 
   -9565   -10028   -10515   -10995   -11455   -11895   -12306   -12664 
  -12981   -13283   -13552   -13801   -14044   -14258   -14460   -14648 
  -14771   -14806   -14772   -14656   -14434   -14106   -13640   -13027 
  -12326   -11602   -10910   -10273    -9676    -9126    -8633    -8154 
   -7635    -7109    -6657    -6354    -6241    -6284    -6431    -6645 
   -6877    -7067    -7235    -7452    -7717    -8049    -8521    -9125 
   -9809   -10547   -11278   -11956   -12575   -13106   -13509   -13776 
  -13956   -14122   -14288   -14398   -14435   -14420   -14322   -14119 
  -13879   -13644   -13420   -13234   -13038   -12835   -12735   -12745 
  -12826   -13020   -13287   -13524   -13707   -13831   -13881   -13850 
  -13716   -13476   -13126   -12619   -11983   -11295   -10550    -9740 
   -8938    -8178    -7462    -6793    -6176    -5666    -5281    -4979 
   -4766    -4656    -4628    -4694    -4900    -5253    -5759    -6445 
   -7226    -7947    -8594    -9217    -9755   -10160   -10516   -10853 
  -11116   -11353   -11647   -11919   -12083   -12179   -12176   -12004 
  -11756   -11473   -11078   -10698   -10462   -10263   -10085    -9950 
   -9797    -9710    -9729    -9722    -9706    -9819   -10024   -10185 
  -10265   -10320   -10492   -10797   -10956   -10921   -11112   -11640 
  -12119   -12481   -13015   -13751   -14461   -15005   -15400   -15783 
  -16177   -16309   -16029   -15663   -15502   -15342   -14966   -14556 
  -14326   -14281   -14336   -14387   -14345   -14208   -14070   -13896 
  -13537   -13166   -12988   -12830   -12735   -12976   -13219   -12947 
  -12393   -12018   -11622   -10880   -10087    -9616    -9599   -10025 
  -10471   -10618   -10809   -11251   -11541   -11547   -11482   -11357 
  -11392   -11645   -11816   -12071   -12334   -12036   -11454   -11188 
  -10917   -10280    -9360    -8193    -7407    -7426    -7338    -6661 
   -5712    -4433    -3254    -2823    -2559    -1894    -1174     -603 
    -557    -1411    -1969    -1109        2       78     -476     -871 
    -824     -784    -1547    -2884    -3747    -3670    -3006    -2342 
   -1903    -1768    -2475    -3736    -4268    -4371    -4948    -5556 
   -6256    -7207    -7332    -6785    -6778    -6821    -6386    -6193 
   -6044    -5529    -5314    -5490    -5538    -5615    -6107    -7004 
   -8031    -8846    -9468   -10249   -11039   -11550   -12236   -13273 
  -14024   -14384   -14775   -15018   -14922   -14871   -15067   -15397 
  -15763   -16046   -16107   -16092   -16341   -16830   -17191   -17075 
  -16634   -16538   -17014   -17714   -18442   -19139   -19707   -19975 
  -19732   -19103   -18537   -18129   -17582   -16816   -15990   -15340 
  -15017   -14652   -14046   -13809   -13878   -13411   -12544   -11664 
  -10506    -9768   -10347   -11080   -11085   -11420   -11942   -11495 
  -10924   -11298   -11854   -11998   -11977   -11776   -11720   -12143 
  -12279   -11495   -10207    -9080    -8478    -8268    -8097    -7963 
   -8015    -7902    -7173    -6185    -5503    -4984    -4279    -3467 
   -2840    -2558    -2733    -3321    -3899    -4372    -5047    -5529 
   -5393    -5400    -6188    -7246    -8075    -8729    -9218    -9694 
  -10637   -12004   -13190   -13881   -14129   -14224   -14475   -14871 
  -15408   -16141   -16819   -17222   -17509   -17720   -17387   -16379 
  -15538   -15404   -15368   -15083   -14951   -14921   -14853   -15154 
  -15618   -15471   -14641   -13520   -12318   -11293   -10702   -10303 
   -9760    -9296    -8899    -8254    -7902    -8215    -8318    -7817 
   -7355    -7055    -6595    -6248    -6248    -6333    -6631    -7293 
   -7854    -8188    -8689    -9317    -9637    -9577    -9504    -9664 
   -9977   -10460   -11171   -11689   -11832   -12127   -12568   -12800 
  -13253   -14289   -15436   -16213   -16659   -16969   -17162   -17251 
  -17426   -17716   -17792   -17477   -17018   -16863   -17185   -17512 
  -17415   -17027   -16598   -16189   -15559   -14491   -13402   -12835 
  -12456   -11750   -11030   -10506    -9782    -8754    -7746    -6975 
   -6388    -5818    -5140    -4289    -3282    -2391    -1857    -1503 
   -1282    -1390    -1702    -2078    -2569    -2889    -2797    -2631 
   -2663    -2876    -3267    -3692    -4012    -4381    -4981    -5762 
   -6467    -6754    -6665    -6745    -7243    -7814    -8205    -8527 
   -8941    -9433    -9937   -10564   -11193   -11314   -11047   -11078 
  -11391   -11689   -12169   -12738   -12892   -12753   -12690   -12373 
  -11714   -11362   -11422   -11314   -10833   -10184    -9434    -8710 
   -8329    -8228    -8048    -7682    -7446    -7649    -7990    -8148 
   -8456    -9060    -9569    -9889   -10163   -10287   -10430   -11062 
  -12129   -13228   -14245   -15131   -15696   -15916   -15949   -16015 
  -16311   -16765   -17070   -17068   -16928   -16724   -16200   -15344 
  -14560   -14092   -13960   -14142   -14413   -14495   -14183   -13421 
  -12613   -12034   -11377   -10740   -10614   -10757   -10655   -10614 
  -11017   -11156   -10342    -9270    -8689    -8413    -8360    -8477 
   -8490    -8629    -8938    -8913    -8562    -8190    -7791    -7494 
   -7485    -7572    -7547    -7577    -7725    -7740    -7605    -7521 
   -7598    -7760    -7761    -7877    -8687    -9791   -10483   -11050 
  -11769   -12139   -12027   -11858   -11712   -11361   -10777   -10223 
   -9959   -10085   -10428   -10633   -10758   -11049   -11284   -11389 
  -11723   -12159   -12342   -12457   -12685   -13011   -13543   -14101 
  -14209   -13821   -13523   -13700   -14001   -13973   -13664   -13270 
  -12610   -11657   -10952   -10595   -10119    -9582    -9326    -9229 
   -9198    -9239    -8969    -8368    -7896    -7486    -6931    -6437 
   -6151    -6081    -6186    -6116    -5675    -5307    -5273    -5063 
   -4522    -4349    -4602    -4573    -4407    -4530    -4532    -4359 
   -4382    -4193    -3624    -3496    -3915    -3952    -3663    -3867 
   -4294    -4455    -4765    -5327    -5760    -6153    -6665    -7184 
   -7705    -8338    -9051    -9630   -10161   -10919   -11691   -12325 
  -13078   -13838   -14526   -15451   -16296   -16516   -16551   -16879 
  -17240   -17538   -17789   -17708   -17436   -17381   -17237   -16637 
  -16115   -16028   -15822   -15318   -14869   -14437   -13912   -13398 
  -12913   -12411   -11834   -11267   -11052   -11131   -10875   -10405 
  -10291    -9997    -9186    -8673    -8512    -8173    -7989    -8083 
   -7874    -7445    -7434    -7741    -7846    -7916    -8252    -8592 
   -8676    -8632    -8911    -9717   -10636   -11350   -11964   -12504 
  -12700   -12500   -12410   -12768   -13169   -13259   -13377   -13616 
  -13527   -13080   -12418   -11515   -10668   -10169    -9933    -9901 
   -9962    -9715    -9127    -8623    -8251    -7886    -7665    -7495 
   -7128    -6687    -6385    -6159    -5899    -5792    -5952    -5889 
   -5380    -5081    -5158    -4859    -3936    -2803    -1663     -741 
    -501    -1136    -2437    -3838    -4739    -5234    -5810    -6627 
   -7477    -8005    -8268    -8470    -8247    -7676    -7615    -8175 
   -8693    -9076    -9671   -10306   -10699   -11346   -12799   -14718 
  -16651   -18286   -18867   -18130   -16590   -14764   -13687   -14313 
  -15980   -17553   -18502   -18064   -16230   -14369   -13147   -12582 
  -12907   -13588   -14211   -15213   -16382   -17199   -17965   -18718 
  -18557   -17147   -15029   -12258    -8996    -6169    -4112    -2644 
   -2009    -1867    -1160      236     1786     3654     5665     6593 
    6158     5539     5419     5170     3660      701    -2739    -5804 
   -7948    -8886    -9029    -8819    -8544    -8872   -10058   -11620 
  -13244   -14561   -15229   -15681   -16094   -16057   -15600   -14923 
  -13997   -13022   -12561   -12803   -13426   -14319   -15251   -15948 
  -16965   -18597   -19962   -20408   -20043   -18777   -16507   -13777 
  -11258    -9185    -7732    -7128    -7080    -6939    -6340    -5157 
   -3489    -1838     -928    -1239    -2491    -3836    -4734    -5072 
   -4953    -4787    -4799    -5044    -5766    -6606    -6990    -7090 
   -6773    -5774    -5038    -5291    -6126    -7410    -9059   -10518 
  -11585   -12241   -12485   -12731   -13221   -13762   -14233   -14629 
  -14907   -14951   -14414   -12894   -10890    -9739    -9720    -9899 
   -9949   -10258   -10983   -11892   -12411   -11962   -10578    -9022 
   -8048    -7796    -7942    -7850    -7160    -6459    -6391    -6840 
   -7386    -7573    -7318    -7217    -7648    -8511    -9780   -11286 
  -12540   -12948   -12664   -12779   -13381   -13571   -13410   -13193 
  -12781   -12611   -13189   -14223   -15069   -15307   -15001   -14624 
  -14435   -14380   -14487   -14631   -14617   -14667   -15015   -15438 
  -15635   -15592   -15266   -14434   -13355   -12778   -12900   -13116 
  -13057   -13094   -13500   -13892   -13879   -13676   -13764   -13998 
  -13650   -12598   -11685   -11486   -11655   -11869   -12051   -11889 
  -11373   -10780    -9932    -8705    -7513    -6638    -6048    -5711 
   -5699    -6154    -6935    -7686    -8260    -8427    -7983    -7452 
   -7370    -7492    -7737    -8328    -9037    -9550    -9667    -9364 
   -9102    -9039    -8745    -8271    -8119    -8247    -8251    -8153 
   -8206    -8186    -7718    -7023    -6381    -5721    -5274    -5189 
   -5028    -4849    -5176    -5862    -6480    -6901    -7111    -7386 
   -8113    -9085    -9978   -11091   -12374   -12911   -12486   -11927 
  -11591   -11243   -10896   -10689   -10720   -11065   -11423   -11405 
  -11045   -10548   -10034    -9593    -9369    -9622   -10334   -10895 
  -11024   -11361   -12214   -12958   -13223   -13419   -13967   -14697 
  -15185   -15333   -15189   -14710   -14072   -13478   -12841   -12196 
  -11711   -11357   -11221   -11444   -11919   -12565   -13204   -13597 
  -13823   -13812   -13432   -13068   -13010   -13168   -13384   -13408 
  -13221   -13025   -12705   -12219   -11924   -11893   -11736   -11169 
  -10216    -9315    -8862    -8525    -7952    -7495    -7395    -7311 
   -7100    -7064    -7085    -6697    -6046    -5526    -5099    -4691 
   -4304    -4069    -4395    -5298    -6161    -6532    -6577    -6697 
   -6986    -7411    -8040    -8750    -9353    -9922   -10443   -10648 
  -10691   -10952   -11209   -11336   -11639   -11981   -12124   -12377 
  -12936   -13483   -13708   -13591   -13335   -13253   -13404   -13620 
  -13855   -14006   -13811   -13344   -13013   -12943   -12919   -12802 
  -12566   -12235   -11861   -11517   -11462   -11887   -12459   -12790 
  -12821   -12411   -11593   -10909   -10658   -10631   -10728   -10921 
  -11078   -11246   -11434   -11532   -11693   -12036   -12404   -12805 
  -13266   -13606   -13890   -14183   -14161   -13774   -13403   -13190 
  -13116   -13189   -13194   -13158   -13356   -13492   -13285   -13168 
  -13369   -13497   -13354   -13205   -13180   -13184   -13357   -13744 
  -14025   -14211   -14552   -14845   -14914   -15014   -15143   -14958 
  -14483   -13985   -13461   -12954   -12710   -12818   -13100   -13169 
  -12903   -12690   -12615   -12370   -12048   -11800   -11417   -10978 
  -10658   -10175    -9532    -9098    -8867    -8788    -8967    -9290 
   -9719   -10340   -11001   -11633   -12370   -13192   -13967   -14553 
  -14930   -15342   -15911   -16416   -16711   -16890   -17093   -17344 
  -17488   -17391   -17106   -16715   -16284   -15947   -15775   -15767 
  -15859   -15881   -15819   -15708   -15449   -15073   -14661   -14251 
  -13943   -13632   -13136   -12451   -11608   -10800   -10273    -9960 
   -9782    -9884   -10243   -10632   -10983   -11302   -11513   -11700 
  -11949   -12187   -12476   -12839   -12962   -12747   -12623   -12788 
  -12941   -13009   -13150   -13270   -13286   -13286   -13356   -13551 
  -13722   -13579   -13252   -13140   -13168   -13085   -13040   -13077 
  -13030   -13118   -13489   -13752   -13662   -13352   -12962   -12606 
  -12243   -11795   -11482   -11410   -11439   -11524   -11680   -11924 
  -12140   -12050   -11631   -11174   -10909   -10762   -10519   -10249 
  -10172   -10219   -10165    -9934    -9604    -9342    -9244    -9225 
   -9245    -9306    -9308    -9246    -9106    -8833    -8729    -8923 
   -8938    -8676    -8624    -8913    -9282    -9457    -9327    -9092 
   -8835    -8510    -8504    -9010    -9528    -9713    -9629    -9362 
   -9065    -8893    -8881    -8933    -8910    -8885    -8946    -9039 
   -9198    -9335    -9240    -8934    -8535    -8225    -8197    -8293 
   -8300    -8255    -8175    -8076    -7977    -7823    -7742    -7772 
   -7714    -7626    -7708    -7942    -8123    -8003    -7743    -7715 
   -7761    -7785    -8065    -8386    -8449    -8485    -8614    -8677 
   -8620    -8550    -8529    -8446    -8426    -8701    -8938    -8883 
   -8889    -9044    -9216    -9594   -10041   -10224   -10328   -10389 
  -10242   -10271   -10671   -11034   -11254   -11481   -11591   -11542 
  -11537   -11694   -11995   -12295   -12389   -12308   -12147   -11775 
  -11129   -10391    -9796    -9520    -9505    -9465    -9320    -9261 
   -9213    -8961    -8700    -8675    -8769    -8894    -9012    -8935 
   -8698    -8532    -8439    -8392    -8506    -8742    -8870    -8781 
   -8531    -8208    -8084    -8343    -8675    -8831    -8897    -8913 
