Origin Time       2011/03/11 14:46:00
Lat.              38.103
Long.             142.860
Depth. (km)       24
Mag.              9.0
Station Code      GNM008
Station Lat.      36.3479
Station Long.     139.1368
Station Height(m) 77
Record Time       2011/03/11 14:47:31
Sampling Freq(Hz) 100Hz
Duration Time(s)  300
Dir.              E-W
Scale Factor      3920(gal)/6182761
Max. Acc. (gal)   113.059
Last Correction   2011/03/11 14:47:16
Memo.             
[...]
  -43619   -29162   -14894    -5085    -2233    -5991    -6542    -1602 
    1183     6411    19471    27578    21527     9910     3967     6782 
   12899    17993    24371    28080    23073    17452    18206    18867 
   15609    12773    14126    15803     8219    -6721   -15683   -17859 
  -21305   -24138   -24208   -24210   -20203   -11285    -8265   -14223 
  -17853   -13831    -9982   -14695   -26938   -36713   -40278   -45586 
  -50900   -45731   -35649   -32525   -33771   -33932   -35033   -37548 
  -38119   -35964   -35827   -41362   -45600   -42432   -40632   -47174 
  -54316   -54202   -48384   -43510   -44315   -47616   -47779   -46215 
  -46722   -46665   -42061   -37331   -39126   -43054   -39297   -28389 
  -18588   -12981    -9071    -4910    -2711    -6088   -10915   -10441 
   -8645   -10383   -10703    -9083   -11456   -12818    -3554    11014 
   18078    16869    15888    17276    15926     9912     4670     5586 
    8309     5833     1399      325    -1214    -7429   -13518   -13160 
   -9293   -10315   -17731   -25692   -32625   -40674   -44434   -39373 
  -33461   -31693   -27207   -18641   -15053   -18877   -21472   -18873 
  -15934   -13628    -9748   -10042   -20438   -31542   -30328   -22366 
  -19158   -17378   -14803   -20026   -30683   -32947   -24940   -17649 
  -16477   -15314   -12034   -17035   -30839   -36023   -28844   -24520 
  -27202   -29421   -30657   -34781   -42570   -52006   -55480   -44787 
  -28191   -22076   -23716   -21878   -19778   -21657   -21274   -14259 
   -5627    -3688    -7614    -9458   -10765   -16263   -18385   -11778 
   -4011      683     2352    -4370   -17609   -24415   -22190   -21055 
  -22147   -18292   -14064   -19498   -28729   -28181   -20381   -19508 
  -26152   -26814   -17787    -7957     -308     8759    15344    11160 
    -818    -8319    -9054   -14635   -28183   -35522   -30972   -27873 
  -31642   -28840   -15164    -9531   -20460   -26552   -15974    -7792 
  -12781   -17555   -19040   -27741   -38016   -38538   -36424   -41063 
  -48171   -53315   -57926   -58908   -52373   -43332   -36563   -30980 
  -28875   -31760   -31201   -22780   -15804   -13889    -9096    -1607 
    2817     6315     9971    10494     9244     8551     7408     6596 
    9134    16123    23024    21686    11730      513    -8644   -15447 
  -18673   -18174   -15705   -16566   -22233   -24912   -21295   -15318 
   -7660      -33     3060     1511    -2940    -8287    -9771    -6396 
   -2177     3112     9599    10645     5622     2680     3838     6405 
   12006    19597    22715    19875    12744     -191   -15191   -24426 
  -28653   -33216   -40381   -51179   -63344   -72415   -76817   -74906 
  -67397   -61188   -59302   -58966   -59746   -60403   -58070   -54717 
  -53836   -55155   -54291   -46618   -36396   -28527   -16717    -2458 
    2288     2229     9358    18445    20851    19298    17355    13875 
    8769     3865      865     -370    -1936    -1909     3486     9910 
   11010     7642     2385    -2902    -5963    -8304   -11423   -12980 
  -14371   -18013   -18772   -13757    -9471    -9755   -10757    -9590 
   -7659    -8852   -16432   -27074   -32982   -30603   -23201   -19184 
  -23369   -27631   -24086   -19436   -18914   -15061    -5655       64 
     -79     3322    12261    17789    20009    26074    29671    22586 
   16881    26088    37971    35272    26775    25783    23416    12182 
    1147    -6611   -16929   -27543   -31479   -29439   -30194   -38321 
  -43937   -38116   -30215   -29612   -29182   -23891   -21188   -25981 
  -34448   -38188   -31262   -22055   -22586   -24768   -14801      911 
    8954     8341     5113     2138    -2396    -7596    -8220    -7375 
  -13739   -23445   -26591   -23447   -19069   -15767   -14796   -17700 
  -23899   -26638   -21109   -14335   -14197   -19378   -24980   -25740 
  -19420   -11832    -9204   -10974   -15096   -18759   -15667    -5231 
    2097     -672    -7039    -9343    -8984    -8530    -4756     3595 
    9766     9947    10746    16541    21585    20250    13763     6320 
    1145    -2698    -9238   -18432   -26401   -32370   -38938   -46493 
  -51326   -53431   -58265   -64689   -66463   -64487   -62883   -62862 
  -66235   -72770   -77610   -78280   -76835   -74697   -70688   -63868 
  -56051   -49381   -44229   -40065   -34024   -24289   -15951   -11821 
   -6681      440     5787     9207    12298    19235    32062    42692 
   46770    50309    52208    45673    34251    26683    24137    21227 
   15908    11550     7946      839   -10475   -22163   -27685   -24352 
  -19637   -21314   -28747   -39117   -49491   -55101   -55162   -53761 
  -53863   -56954   -62048   -64565   -62731   -57888   -50057   -41266 
  -36793   -40390   -49361   -55745   -56605   -55042   -50137   -39040 
  -24759   -13567    -8779    -9056   -11032   -10685    -5514     1000 
    5787    11963    16498     9578    -6773   -20051   -23183   -15846 
   -1648    10895    14086     8215      389    -2047     1717     6510 
    9148     9873     8524     6018     6123    12959    25750    37127 
   42611    46357    50307    49595    43473    36625    30387    23506 
   17268    13475     9642     2031    -5946    -8212    -8547   -13993 
  -20753   -22724   -23122   -26100   -30214   -33002   -32296   -28421 
  -27619   -33523   -40146   -42108   -43036   -47639   -52623   -50682 
  -39746   -26405   -20255   -21071   -20738   -19719   -20841   -18685 
  -14756   -17202   -23450   -28141   -32419   -35064   -33740   -31096 
  -30505   -33478   -38954   -43216   -45247   -47184   -49998   -53201 
  -55706   -57534   -57756   -52159   -42634   -38677   -41780   -41508 
  -31672   -22024   -22777   -27992   -30952   -33395   -32881   -26806 
  -20918   -20453   -22903   -23535   -23553   -26259   -29484   -31794 
  -36211   -41864   -44454   -43727   -43041   -43910   -43318   -39744 
  -36637   -33453   -24851   -11717     -844     4102     5163     7247 
   11491    12515     7617     1349    -2206    -2835    -2116    -2013 
   -2246    -2652    -6117   -10259    -8420    -6460   -16080   -32386 
  -42871   -46998   -49078   -47088   -37731   -24448   -15047   -11105 
   -7483    -1994     5071    12831    15243     8644      915     1665 
   10009    16405    14105     7280     3502     3308     3358      981 
   -5415   -13849   -21586   -28495   -32125   -29557   -24930   -24224 
  -27244   -29416   -25215   -13359    -1476     3884     6636    10175 
   11294    10481    11825    15398    19166    20184    15918    11822 
   15816    24339    27620    22685    13936     8184     9135    14412 
   18975    19194    14031     4448    -7643   -19436   -27845   -31619 
  -32461   -32989   -33767   -33784   -33569   -35837   -41510   -47068 
  -48859   -47301   -43907   -37973   -30866   -29481   -36909   -44929 
  -46306   -44999   -44920   -43286   -40460   -41519   -46436   -49068 
  -47518   -45703   -42716   -35924   -31659   -36062   -43456   -44234 
  -37913   -32169   -30748   -30089   -26253   -19106   -12447    -8542 
   -4200     1981     7626    12844    17999    21506    23250    23273 
   21055    17135    11740     5920     1315    -4883   -16295   -28864 
  -34780   -31435   -23723   -21725   -30012   -38706   -37712   -31958 
  -28471   -23567   -13743    -4069      426     1870     5587    13819 
   23819    31752    37763    43034    45358    44209    42580    39778 
   32709    23738    18320    16378    12149     2464    -9897   -21130 
  -29991   -35740   -38697   -44331   -55989   -65977   -67967   -67912 
  -69600   -66194   -54773   -42594   -36307   -34081   -30415   -27286 
  -27010   -20029    -5827     -527    -3429       66     5653     2772 
   -2489     -918     4283     4326     -496    -2654    -3105    -7574 
  -10774    -5974      -70     -374    -2614    -2099     -647    -1154 
   -3032    -3649    -4235    -9231   -19281   -29923   -36968   -40728 
  -43272   -45237   -47364   -49483   -48321   -41762   -34052   -31477 
  -34513   -39253   -42222   -41423   -36907   -30323   -24871   -23574 
  -24759   -25357   -25491   -23802   -17664    -9911    -6463    -7398 
   -5838      797     4366     -171    -5467    -5535    -4105    -5516 
   -9058   -13062   -18715   -25008   -25069   -17206    -9773    -6730 
   -1776     7469    11784     6025     1402     5621     6460    -3923 
  -11492    -6501    -1025    -6527   -15853   -18386   -18147   -22018 
  -22463   -13596    -7566   -12947   -19346   -18273   -16780   -21914 
  -27548   -24708   -17467   -16770   -20767   -17317    -5805      901 
   -1961    -3824     1801     7321     8234     9999    12397    11647 
   12704    17072    16608    10578     6729     6535     4912     -199 
   -4346    -3112     -990    -5679   -15485   -23925   -29119   -32380 
  -38490   -51294   -65274   -75121   -83011   -86802   -81810   -74418 
  -73906   -77362   -76880   -74372   -76365   -78956   -75002   -69619 
  -69903   -72319   -71845   -68498   -63560   -59824   -61431   -66136 
  -63925   -52139   -42207   -41559   -43546   -42662   -41926   -41565 
  -36769   -29138   -27791   -32830   -31280   -20952   -15889   -16476 
   -8655     2645      961    -7425    -5156     4441     7325     6306 
   12926    23027    25509    24539    30367    39546    42056    38477 
   37452    40202    38984    34470    37766    48102    53155    51469 
   48223    42038    34128    31482    35025    36629    28660    15216 
    8024     8900    10079    10110    11983    12150     6456    -1323 
   -5681    -6340    -6759   -10596   -17711   -24831   -30933   -34110 
  -28565   -15944    -8836   -12419   -15296    -8309      788     2038 
    -610      136      818    -3842    -9880   -13678   -20080   -31005 
  -38950   -39303   -37960   -39042   -34324   -18593    -4441    -3141 
   -7085    -4850     4742    16031    22071    21288    18741    16814 
   13322     8461     4273      333    -6650   -18437   -29200   -33295 
  -36986   -47141   -59057   -67568   -73711   -76048   -70801   -60223 
  -51827   -50356   -52820   -52456   -48237   -45118   -43437   -38030 
  -29546   -24845   -25306   -25589   -23868   -23626   -24336   -21901 
  -18973   -19244   -17475   -11008    -5814    -3496       -6     4991 
    7564     4711     -973    -4148    -4348    -4347    -4157    -2564 
   -1080    -2519    -7029   -10642    -8961    -3789     -552       78 
   -1702    -8377   -16772   -20089   -18531   -17476   -19735   -23447 
  -27119   -34060   -45071   -53882   -57536   -60802   -67493   -75870 
  -81270   -81098   -77551   -72635   -65738   -57984   -49776   -38672 
  -26153   -15902    -7229     -619     1913     5973    15782    23053 
   21513    16828    15836    18944    22573    27514    38289    49298 
   49344    40398    33325    31592    31226    29189    25878    22195 
   16527     8596     3391     4062     5728     2255    -3550    -3496 
    1955     5499     5348     2864    -2536   -11529   -23409   -33108 
  -37279   -43629   -58511   -74541   -82955   -85434   -88585   -93210 
  -93866   -91300   -92944   -96305   -91850   -83632   -84235   -92683 
  -98655  -100080   -99761   -97708   -94919   -91195   -82051   -66744 
  -51226   -39236   -27101   -11336     4486    17185    28845    39341 
   45816    48168    47484    44220    38076    28790    19974    14493 
    9689     7646    13805    22904    27549    29668    30438    26690 
   21111    22411    32464    40614    37066    25137    12297     -354 
  -12424   -19711   -21277   -22452   -26699   -31696   -35562   -39218 
  -42109   -41866   -38529   -35729   -37079   -41959   -47302   -54989 
  -68130   -81026   -88080   -92823   -97769  -101142  -102098   -98891 
  -90463   -79397   -65495   -46288   -28457   -21715   -23169   -25120 
  -25732   -24332   -23191   -26642   -29292   -22761   -11699    -4366 
    2343    13428    25006    31845    33915    33353    30675    24931 
   17211     8251    -6278   -28109   -50188   -66190   -77549   -87837 
  -95669   -95611   -86554   -75646   -70983   -71029   -66718   -57799 
  -52022   -46156   -31950   -14371    -3431      673     5791    16460 
   27602    34273    36748    30601    13237    -4232   -13113   -19743 
  -30718   -42573   -50216   -56127   -63964   -67682   -62912   -59711 
  -62738   -59348   -45452   -34551   -33256   -32554   -23467   -10212 
   -2980     1481    12238    22055    22107    19146    18754    19605 
   21355    22050    21893    20887    11184    -6137   -17550   -21519 
  -25202   -27381   -27135   -27506   -27798   -27185   -25301   -19317 
   -8704     2852     8948     4429    -6773   -16432   -25391   -38245 
  -51331   -60093   -66669   -70766   -66465   -54139   -43314   -37971 
  -30295   -16222    -3468     4407    12012    17448    17639    17111 
   16922    15173    13134    10293     8742    12851    18822    22683 
   26895    28591    21358     9169     1518    -2040   -10197   -25462 
  -42579   -59118   -75069   -84395   -80568   -68058   -56587   -47749 
  -38755   -31156   -23942   -13388    -4887    -3759    -2071     4549 
    5379    -3177    -8816    -7749    -8195    -7924      803    10025 
    7241    -1651    -4185    -2628    -3559    -3779      -72     1480 
   -5717   -17319   -22545   -17173    -7001     -361     1314     2003 
     779    -7723   -21477   -30726   -35228   -44619   -56899   -62573 
  -62762   -62919   -65329   -71627   -81756   -93612  -105249  -115163 
 -120573  -119710  -113111   -99678   -79044   -51380   -18196     6739 
   17201    34961    66921    90551   106604   132381   156451   162133 
  156986   152719   149738   143488   134272   128522   126442   119418 
  103792    83420    61589    41789    27637    14860    -3998   -25409 
  -40290   -50303   -64194   -80838   -89418   -87887   -87419   -95122 
 -106506  -116564  -126028  -134358  -136484  -133218  -133904  -142223 
 -152235  -157672  -155285  -145681  -131382  -108769   -75348   -42953 
  -22324   -10996    -8830   -15478   -20634   -20859   -20029   -12261 
    5567    22663    32564    39830    50026    66028    84054    94686 
   95664    94518    94709    90281    78028    65776    63587    72276 
   84923    93318    93273    87812    81085    75084    71346    67459 
   58453    42660    23763     7559    -5419   -19099   -32889   -41527 
  -45169   -52340   -68585   -89231  -107617  -120581  -125747  -124663 
 -122067  -116571  -104167   -88108   -74955   -68815   -70870   -76618 
  -80631   -84172   -90038   -98999  -110871  -120467  -122367  -117882 
 -108912   -95346   -78889   -62277   -47001   -32099   -17515    -4951 
    7980    21984    31905    40064    53552    67047    70950    68546 
   65946    57730    41408    29934    32112    39442    44123    51221 
   63484    71517    69662    62113    50810    38010    29593    25828 
   24591    25647    24501    19278    13644     5441    -4727    -8110 
   -6138    -8342   -14928   -20024   -23976   -32404   -45466   -57181 
  -67050   -81711  -102839  -123645  -137131  -141920  -142419  -142289 
 -139404  -131491  -118451   -99318   -76846   -55027   -29481      374 
   21347    28913    35436    45077    48335    41767    33151    29757 
   28628    22837    14029     3902   -14067   -38423   -57471   -67650 
  -76122   -90651  -111639  -131614  -145241  -152593  -150526  -135422 
 -115938  -105540  -102776   -96272   -83124   -68158   -52912   -35123 
  -17279    -4371     7201    20555    29111    31726    33031    30173 
   22696    19070    23458    32169    39597    42026    41395    42851 
   47112    48449    42601    34370    29144    22604    11557     4758 
    8196    12460     8440     1510     -352      161    -2738    -6326 
   -3724     6860    20479    28278    25474    17776    12440     5094 
  -11092   -27383   -30188   -23461   -21455   -25958   -28630   -29921 
  -34966   -38738   -34819   -26183   -15670    -1868    10638    11682 
   -2329   -26137   -52007   -73187   -87470   -97108  -102898  -105133 
 -105007   -99901   -84377   -56017   -22698      258     9137    13963 
   21116    30516    41162    49499    49564    38768    22359     8328 
   -1028    -6439    -8069   -10249   -16870   -22208   -19396   -11803 
   -8305   -12730   -20807   -28659   -37569   -43438   -38184   -27915 
  -25121   -26109   -23242   -22323   -28665   -38655   -47633   -51515 
  -47514   -36237   -21570   -10277    -8993   -21427   -43542   -61271 
  -64945   -59670   -51930   -40413   -26239   -18187   -19932   -20183 
   -7216    13731    30695    40557    41966    29343     4133   -22547 
  -41605   -51662   -57712   -67486   -81648   -90037   -86106   -77386 
  -71558   -63324   -48473   -33535   -20055    -7883    -6576   -15564 
  -23509   -28389   -29716   -23140    -7713    11474    24674    31780 
   44109    65864    89691   107688   117186   113643    91373    55506 
   17314   -13831   -29593   -30517   -29403   -38816   -58831   -76582 
  -78923   -66051   -48938   -34220   -19519    -3770    10333    22890 
   32615    35546    34481    32406    24414    10171    -3981   -17116 
  -30664   -38692   -34910   -25019   -19634   -21427   -27627   -34625 
  -39089   -40370   -38748   -34812   -32033   -34601   -43666   -56521 
  -67953   -74898   -78617   -80514   -79736   -73021   -59498   -46685 
  -37168   -22589    -6230      677     5302    19314    35001    40731 
   40580    43367    46245    41319    29172    14954    -2972   -28512 
  -53680   -65314   -62907   -53922   -43236   -35595   -36079   -46484 
  -62004   -73028   -76484   -78254   -80516   -79993   -77856   -75990 
  -71736   -67383   -67176   -65823   -60759   -56834   -49381   -35565 
  -28454   -30965   -29764   -23574   -21604   -22493   -19811   -16707 
  -18876   -21029   -14333    -1917     6459    10509    16767    25414 
   32520    37034    38404    37172    35795    33833    30850    29597 
   28476    22794    15845    14092    14392     9544     1140    -4239 
   -6401   -10398   -18632   -28964   -37406   -43297   -51101   -62929 
  -74886   -83842   -89190   -88009   -77483   -59834   -39850   -21333 
   -6299     4752    11796    15925    19696    24516    28693    30828 
   34256    41415    46619    44545    38061    31274    27278    28714 
   32481    32916    26175     8382   -19420   -46204   -60709   -65773 
  -72940   -83734   -90875   -93515   -94148   -87330   -66533   -36477 
   -9170     8987    19294    22463    19639    16930    14836     5911 
   -8967   -22497   -36401   -53804   -67582   -71960   -69749   -61958 
  -47782   -31727   -18145    -6579     3149     9383    12645    15865 
   21792    30046    37025    44041    55707    65893    65879    61577 
   59807    52638    31593     1918   -22735   -32255   -28046   -19392 
  -12701    -9896   -11522   -14402   -14039    -9224    -1788     2326 
   -1117    -8783   -17856   -27853   -35077   -38060   -40114   -41947 
  -40214   -32848   -23434   -17866   -14672    -9654    -7984   -13646 
  -20130   -25989   -36045   -44870   -43953   -37659   -34534   -34404 
  -34995   -39772   -50102   -60212   -67056   -73392   -81573   -93610 
 -107146  -114596  -116161  -116311  -111889  -102997   -96772   -94069 
  -91300   -86952   -79674   -70679   -61969   -52675   -45839   -45163 
  -44860   -37660   -22787    -2107    20501    42524    64434    81344 
   88329    89421    87225    79981    69296    56476    41206    26217 
