Origin Time       2011/03/11 14:46:00
Lat.              38.103
Long.             142.860
Depth. (km)       24
Mag.              9.0
Station Code      GNM003
Station Lat.      36.6581
Station Long.     139.0786
Station Height(m) 463
Record Time       2011/03/11 14:47:26
Sampling Freq(Hz) 100Hz
Duration Time(s)  300
Dir.              E-W
Scale Factor      3920(gal)/6182761
Max. Acc. (gal)   148.499
Last Correction   2011/03/11 14:47:11
Memo.             
[...]
  -60327   -38625   -15019     4378    20012    25278    20804    13587 
    3191   -13694   -35987   -54077   -55841   -42258   -24178    -7087 
    5069     4664    -5938   -18207   -32683   -44881   -46522   -46639 
  -52050   -51695   -40729   -28444   -22803   -21908   -17726    -8749 
    -442     6727    13477    15511     7115    -9490   -18259   -14598 
  -14017   -22072   -34553   -45582   -46202   -39630   -34216   -34443 
  -42359   -47401   -40428   -22468     3535    29591    49583    59095 
   57506    54983    52894    43126    23030    -1014    -8938     7473 
   28621    37663    29765     6367   -15771   -22392   -21045   -19457 
  -15945    -9302     2587    17104    31573    47683    59035    65997 
   76258    81152    74324    58244    30014    -3280   -30640   -46089 
  -39822   -18475    -2142     4595     5812     3428    -6573   -29706 
  -51759   -56668   -49837   -38479   -34164   -44597   -46843   -32989 
  -23170   -13974     1405    15081    24406    20090    -1457   -24615 
  -40528   -52199   -59749   -58799   -46633   -24275     6575    41597 
   66630    64774    40460    18195     6771    -3314   -13522   -23284 
  -33466   -34725   -24417   -15383   -14228   -18654   -20268    -1936 
   34538    66841    85186    84996    66146    50864    52241    56115 
   52179    39833    22709    10675     -108   -22520   -50800   -67049 
  -57323   -22772    19830    57634    85077    97820    94851    80955 
   60156    27942   -11529   -45726   -69875   -78729   -73142   -61696 
  -47914   -36574   -25448    -6218    11503    13730     2663   -12835 
  -24468   -31110   -41137   -52531   -53025   -49102   -53288   -57701 
  -56102   -48269   -31191   -18322   -24309   -37127   -30178     -301 
   23313    29031    26236    18135    15883    18405    10350    -4784 
  -20557   -34574   -39530   -28358     1282    35338    55275    53510 
   33849    19571    25045    36162    39847    27969    -1575   -28807 
  -31539   -13207     8148    24419    36300    45457    54109    59489 
   57140    51701    47861    42305    32227    13125   -15601   -46080 
  -75639  -103637  -127087  -139539  -132833  -110431   -80398   -46541 
   -9447    30550    64433    85239    92655    83040    56958    21599 
  -10030   -26525   -32019   -31322   -29043   -33995   -37396   -30349 
  -19285    -7136     3665    15825    36007    55564    63905    59441 
   42838    21464     3675   -13165   -32056   -42417   -31650    -4214 
   23665    44335    58638    61152    50568    42385    43006    37964 
   20538     3246    -2742    -3914    -9710   -18255   -27652   -36561 
  -40246   -39775   -36762   -28524   -20841   -20442   -20377   -15328 
   -8409    -5469   -15250   -30621   -37016   -40439   -48363   -58524 
  -63017   -47511   -18266      662     2500    -3050    -4386     4390 
   18179    25279    16914    -4172   -28447   -48803   -54274   -39228 
  -20878   -13960   -14122   -15367    -6829    14735    29412    27876 
   17541     2600    -8137    -7639     -499     7895    15355    19572 
   17655    13610    19587    38833    61507    77285    80540    70782 
   47122     9978   -26125   -46108   -51864   -48767   -38665   -23773 
    -831    28179    48397    59951    74854    85752    90693   105020 
  115448    92764    41587   -15112   -61367   -85831   -91062   -90921 
  -94201  -100943   -95213   -68153   -44472   -41955   -54680   -75854 
  -93394   -99201   -94201   -80786   -71386   -69952   -61652   -44559 
  -28412   -15366   -12332   -19118   -16479      704    18260    19350 
   -6236   -44543   -71271   -75520   -59200   -34566   -11766     7085 
   15534    11860     8929    16964    33900    49138    58312    68935 
   78061    73250    55125    37570    28030    18229     4750      671 
   14114    29755    30119    25528    33477    50638    65084    73807 
   86945   107633   122168   126567   119390    97084    78438    74202 
   65762    39328     3021   -27578   -53314   -81728   -99377   -92895 
  -74710   -61469   -59168   -63602   -56974   -31854     -292    23000 
   20381    -9350   -44396   -69778   -80923   -84790   -90646   -87567 
  -73394   -58648   -34470     1698    36050    63759    76913    61964 
   30578    11634     4307    -9061   -25674   -47130   -74573   -85031 
  -72823   -59577   -49964   -28833    -2158     4417    -8886   -17968 
   -4999    26091    50894    55547    42398    18109    -6084   -31166 
  -63650  -100617  -135275  -147013  -116834   -57608     3966    47382 
   65505    81270   110946   125558   115955   111985   107074    86772 
   71412    55032    20775   -17485   -53701   -80549   -83194   -74476 
  -73417   -75656   -66642   -46249   -23086    -2021     6133     5422 
   21227    51439    67755    67733    69018    75389    81924    82375 
   71103    50020    25278     3166   -15033   -26457   -18832     5176 
   27633    42050    42641    26411     8453    -4202   -20839   -48200 
  -87651  -130433  -164672  -188847  -194927  -169313  -117463   -56184 
    1759    49368    81103    89881    81568    69328    57369    55683 
   68821    74443    59545    42724    35452    27600    12129   -12087 
  -35611   -37721   -21273    -2632    21964    50460    68890    73754 
   62265    27715   -30129   -84243   -95903   -77049   -75308  -105896 
 -129010  -103897   -64122   -42339   -16727     6138    30598    75203 
  102055   103134   105343    93666    56816     7768   -35112   -53497 
  -58331   -74343   -94047   -98166   -97897  -105575  -104731   -82095 
  -46029   -19582   -19464   -29359   -21871     7168    45984    75012 
   75958    60552    55713    61015    62419    59060    49319    29263 
   11555     7530      930   -27799   -68466   -97164  -111028  -118763 
 -115802  -103686   -96556   -90555   -65435   -16978    27565    40887 
   32863    37991    74663   116245   126683   105965    72863    48726 
   38837    33601    41746    65713    92268   118259   132488   125642 
  109472    83804    40133   -10772   -55998   -86910   -92490   -70003 
  -29996    -5125   -33077   -91912  -105741   -60557   -20342     -932 
   25878    54880    79028    79186    38783      556   -15090   -40826 
  -81775  -101922   -84978   -66999   -71797   -86694  -112158  -142225 
 -150548  -144712  -149693  -146761  -106029   -34564    38708    85559 
   93652    72085    35228   -14879   -74714  -117721  -123874  -108533 
  -88622   -50363    24525   106614   160054   204247   218432   178777 
  154895   133716    74938    45896    34936    14745    26232    25690 
  -11442   -28394   -23062   -10215     9790    18862    27701    42404 
   32208    -2543   -19349      315    28054    42245    35160     5996 
  -15275   -12614    -6968   -14513   -20115   -13758   -26009   -53130 
  -61772   -58808   -36258     8064    29262    16851    -9209   -40400 
  -66560   -81339   -90348  -114218  -142970  -134208  -101560   -75657 
  -45785   -21394   -10832    12944    52090    90902   121110   127264 
  112278    83679    28005   -49588  -119981  -160642  -165589  -147173 
 -131348  -126435   -93727   -21177    15380    -8704   -16609     9538 
   41112    80284   117327   142585   142371   109992    74755    52572 
   42305    29161   -17036   -77237   -69332    10672    50719    47177 
   76238   104165   111822   110634    80084    50102    30779     5905 
   -5774    -2643     2551   -15236   -72273  -130745  -138504   -99131 
  -65246   -40581    -5280    22611    55647    88004    79892    59343 
   52242    42275    30123    20182    17929    21416    16754     1598 
  -32373   -83296  -117305  -121215  -103663   -62291   -18476   -10204 
  -34494   -59045   -63304   -43365    -8893    21759    31284    11760 
  -22604   -50458   -74206   -96206   -92533   -51874     4011    51267 
   84124   107840   126853   144827   156346   145889   111296    68047 
   31130      409   -30714   -54302   -54297   -28163    10216    45830 
   67949    66473    46354    21636     1412    -1662     4381      566 
   -1369     2781     2604    16957    42589    35421      969   -27475 
  -56532   -87425  -103844   -98368   -71770   -41444   -32082   -54412 
  -84599   -86734   -67028   -47989   -36110   -37156   -47821   -54683 
  -49710   -35983   -24268   -16640      742    29242    45937    48777 
   52703    48196    33089    21963     7655    -8321      168    31812 
   67388    95035    99552    91772    96233   100090    84130    59535 
   37283    11058   -12014   -14673    -1933    15232    26375    10447 
  -25897   -49841   -58344   -66255   -63406   -31683    13669    31439 
    7687   -43796  -110626  -160943  -171752  -164771  -157702  -150118 
 -135684   -98629   -48796   -19388   -13751   -21955   -44271   -58006 
  -44267   -23207   -15856   -20898   -23703   -13246     7371    34895 
   65252    76959    57542    35559    40623    63534    77877    74893 
   69216    68285    65259    56384    45465    47593    64810    77956 
   89046   112026   138627   151128   123845    50495   -29059   -82111 
  -89347   -40799    16743    32942    15443   -12436   -32376   -23361 
   16338    49572    33727   -10791   -20938    11421    46156    77257 
  114525   138067   131148    90572    20933   -54116  -114410  -145501 
 -146999  -159210  -199756  -229720  -219882  -165631   -88659   -29644 
    4073     7765   -27303   -70585   -98064   -96476   -57109    -9382 
   24265    43532    46229    47383    60527    72107    72460    70897 
   72439    73965    74228    67953    45805    12165    -7325    10644 
   55125    94534   113111    93685    22193   -68093  -134391  -156658 
 -126383   -75078   -45420   -36147   -34850   -36398   -19311    19406 
   36929    18960     2512    -6289   -12833    -3030     6349     8586 
   11670     2998    -1034    18779    45799    52297    33596    27479 
   49970    74464    79606    81148   109139   113737    47726   -31267 
  -84922  -108010   -85089   -43447   -21569   -25817   -44974   -63866 
  -63064   -36423    -8640     3955    11812    22978    30080    22773 
    1233   -28551   -57846   -82163  -111920  -143753  -136600   -74169 
   -6192    41982    84262    95436    68707    43050    26979     4868 
  -27774   -61153   -83507   -94182  -106331  -123313  -125356  -118503 
 -108025   -65309    -6400    30499    46088    53851    76715   112094 
  128257   125062   112484    97671    84350    57637    34410    33277 
   19843   -15007   -32836   -21208    -8467   -12544   -12482    13216 
   64223   117924   134901   113337    89670    83703    95643   113597 
  107907    65646    21701       91   -22103   -53598   -72972   -66294 
  -39891   -15960   -11257   -27305   -63189  -101507  -112473   -99490 
  -94292  -112011  -131856  -122586   -93324   -74880   -59952   -41478 
  -40114   -52093   -69818   -91542   -98251   -93483   -86699   -71657 
  -56904   -44138   -20074     5687    13157    13439    24251    38677 
   55355    81120   104128   109320    95347    58464     4148   -32852 
  -41293   -53441   -77621   -83014   -48062      718    19007    18435 
   34171    61937    87904   103662   103491   100850   110589   132181 
  155962   164968   144547    97470    47132    22195    29147    44124 
   41360    26769    22720    28058    23989     4558   -22812   -55093 
  -88038  -109614  -119318  -119954  -102630   -75437   -53471   -14501 
   50642    92303    85765    57772    29107    19790    38478    67011 
   86301    81988    60896    39563    15414    -7837   -17013   -16960 
  -25452   -47292   -68472   -74023   -59280   -26335    13997    38834 
   38581    20654   -17187   -62098   -77439   -62710   -64760   -97511 
  -94791   -28023    17331    13535    19842    28793    38044    71545 
   90594    84387    79573    79158    84131    87410    88808    90960 
   83284    72261    59807    35875    12821     5537     9863    11697 
    1578   -11189    -9468    12211    46929    80241    92608    73778 
   40171    15267    -1244   -16812   -30187   -39733   -35124   -12712 
    5045    -1148   -25631   -53993   -79269   -92031   -80959   -55668 
  -35280   -22643   -16260   -28734   -68104  -110334  -122678  -105727 
  -85594   -85542  -113483  -155592  -188600  -199093  -180433  -135810 
  -88629   -58062   -37898   -19634    -7693      434    16988    34440 
   30774    10586     1279    11544    20705    12086    -3405   -12911 
  -16870   -14067    -4987    15215    52521    84796    99091   117671 
  142351   147383   123975    87329    58608    50572    61134    78934 
   98616   119048   126212   103247    53815     4017   -14922     3091 
   31615    41313    25898     3048    -9822   -17000   -27547   -29957 
  -17435    -8272    -5767    -4072   -10705   -11046     5644    18183 
   17424     5424    -9456    -9578    -1333     4606    12611    13237 
    1967    -7541    -8898     -367    10916     3730   -26441   -60301 
  -82036   -85376   -71816   -56927   -52547   -54203   -54801   -53624 
  -54182   -55863   -56905   -56415   -54772   -62973   -83505   -97111 
  -85625   -49093    -7776    13371     8297      353    22495    69893 
   99553    92236    72036    68594    91696   124898   140533   128056 
   91424    38890    -7302   -28540   -28397   -11790    15018    39930 
   63570    84586    80708    44735    11752     7466    12617     4016 
  -20244   -44086   -47689   -34729   -22544   -19187   -18375    -7909 
   11081    34528    54960    55036    42645    35496    31316    33040 
   35404    20452     4357    14978    50125    91539   104189    56708 
  -35401  -128737  -188757  -211331  -224049  -235751  -220229  -166962 
  -99260   -53660   -47932   -69085  -104429  -134824  -129181   -92616 
  -52752   -19243    -1290    -4976   -12321    -3845    20997    45839 
   47365    28271     6771   -16115   -29704   -22695    -3140    27628 
   59318    74609    76505    71596    63814    56542    44469    23859 
    4085    -9654   -24533   -35496   -31502    -6709    46682   108157 
  136887   127833   104269    86102    83142    87579    83931    67881 
   51205    51487    68407    83910    87562    81125    71067    64186 
   50592    10936   -48753   -95459  -101522   -70763   -25464    14603 
   32075    26105     7751   -25646   -71399  -101097   -93174   -66827 
  -52432   -44160   -25656    -3000    21314    46783    52736    30410 
    1209   -22129   -41964   -50663   -45511   -35730   -23596   -11932 
   -3063    10223    18587     4834   -12557    -7756    10756    21191 
   18467    21104    39135    60128    74982    69240    35459     4545 
   -3311    -4528     3005    19360     8497   -26314   -43573   -48412 
  -59430   -56264   -36096   -28536   -36798   -45029   -41346   -24293 
  -15567   -21413   -30603   -45894   -59183   -61044   -63902   -70344 
  -68772   -58564   -45948   -31999   -12136    12634    26470    15059 
  -15229   -39923   -41584   -33572   -37080   -50112   -62701   -64608 
  -41681    -1736    24431    18666   -12347   -50387   -77764   -85220 
  -69896   -35754    -4018     8098     9891    15983    31890    53512 
   67411    63409    41941    12409   -13615   -24413   -12643    10826 
   30045    40755    43144    35708    20055     7180    -2728   -13923 
   -5788    22346    39775    43019    40462    25122     9570    19611 
   44634    52525    37339    16657     6105     5184    10746    27282 
   50166    67132    66123    48091    32435    27775    29622    34070 
   34506    29456    21032     9240    -1222    -8622   -17251   -22750 
  -19679   -12763    -3788     6696    15374    23967    27944    16859 
   -6316   -27743   -35409   -19804    13632    43507    55474    31342 
  -29795   -84725  -112288  -119606  -104763   -80895   -57680   -35457 
  -29875   -42315   -56744   -60956   -48812   -34473   -40237   -58587 
  -61115   -42195   -13910    18361    43170    53024    50620    29482 
   -3340   -27206   -34805   -20503     8732    32959    50588    62922 
   63845    50926    34847    39332    56776    60687    54658    46600 
   36108    25774    15143     4624    -3624    -4515      536    -5567 
  -29634   -56431   -69767   -61587   -32520     4266    34893    59169 
   78080    81817    67869    46176    14755   -36994   -90225  -105243 
  -82401   -52635   -26415   -11895   -12770    -9926    -7248   -22447 
  -44882   -60340   -56405   -21686    28725    67345    83691    88818 
   88669    68997    30577     1816      987    18477    38744    50931 
   49258    45080    47360    43602    28044     4360   -30985   -69561 
  -90997   -85818   -59110   -25339     3343    24686    38606    40739 
   30001    13218     3107    10089    32385    66238    95176    93424 
   72490    54017    24528   -24354   -69894   -88729   -77009   -54421 
  -46501   -44770   -30191   -14511    -4032    11834    29333    39628 
   40730    32858    19072     2909   -10169    -7892    14464    37862 
   41201    30127    21280    14935     7429     9937    24903    30625 
   12661   -23092   -61492   -82927   -82921   -75270   -71761   -80067 
  -99998  -120182  -130540  -121944   -91345   -55320   -28940   -10414 
    1019     3871     4553    10193    18216    24301    28678    23900 
   11241     9884    14127     7693     5058     9582     5719     1042 
    3706     4320    -1488    -9437   -15503   -18811   -20328   -23012 
  -25478   -20421   -10622    -5267    -3196    -3524   -13806   -33046 
  -49301   -53966   -41724   -14228    13369    29590    35192    35111 
   37157    36570    16665   -12542   -26186   -26377   -20001    -4698 
   11924    29627    51318    59975    49347    37395    39119    55793 
   75494    86984    88650    81762    73335    63668    43254    20412 
   11535    16919    29452    38724    34626    21596    10533     5826 
   13475    34572    50562    49647    45664    44256    35774    19009 
   -4881   -29931   -43955   -46730   -37862   -14521     8955    14679 
   -1209   -28664   -51348   -60595   -58995   -56618   -66012   -89437 
 -107816   -99840   -74912   -57013   -46494   -28751    -2576    20126 
   29649    23548     2988   -28155   -58077   -71854   -66116   -50623 
  -41916   -51248   -64375   -58818   -40351   -17701    17571    55152 
   76381    77792    59031    31860     2603   -33043   -52430   -42173 
  -18504    15056    50352    66591    55549    17206   -26949   -49067 
  -54054   -52671   -47534   -44449   -43499   -43843   -35492    -9014 
   16806    19362      559   -19182   -22211    -7135    12266    23501 
   31319    41600    56773    72607    64695    26780   -12763   -35168 
  -38237   -23532    -4478     6803     5833   -12464   -34983   -36429 
  -13805    14840    25672     5152   -30011   -54985   -63050   -54070 
  -35372   -20093   -11937   -10214   -13846   -14706    -1603    19973 
   26623    12500     3110    14691    28884    24520     3454   -16811 
  -16717     8256    37133    44098    27232     -728   -30202   -52796 
  -61196   -54620   -38923   -17955      766     6590     5836    10399 
   18221    19099     3387   -25731   -49345   -54882   -50625   -49839 
  -47944   -32237    -7035    19671    48929    70920    65294    21710 
  -41910   -83176   -76465   -36827    -3665    -6651   -38579   -69469 
  -74261   -50813   -17265    18956    57422    90088   114597   122177 
  103449    69667    30215    -4647   -14586    -2867     8066    11329 
   13029    12651     2862   -12914   -20692   -13200     6012    23858 
