Origin Time       2011/03/11 14:46:00
Lat.              38.103
Long.             142.860
Depth. (km)       24
Mag.              9.0
Station Code      GNM005
Station Lat.      36.5134
Station Long.     138.5176
Station Height(m) 899
Record Time       2011/03/11 14:47:45
Sampling Freq(Hz) 100Hz
Duration Time(s)  274
Dir.              N-S
Scale Factor      3920(gal)/6182761
Max. Acc. (gal)   43.425
Last Correction   2011/03/11 14:47:30
Memo.             
[...]
    5888      787    -1572     -597     3247     8305    12329    13598 
   11993     8947     6061     3784     1554     -769    -2188    -1505 
    1383     5056     7567     7876     6133     2999     -761    -4213 
   -6437    -7222    -7353    -7818    -8854    -9822    -9786    -8244 
   -5559    -2881    -1493    -1884    -3284    -4330    -4204    -2943 
    -762     2445     6734    11414    15082    16593    15818    13447 
   10537     8265     7257     7013     6722     6276     6076     6657 
    8405    10714    11763    10051     5887     1053    -2682    -4794 
   -6101    -7570    -8924    -9065    -7488    -4436     -374     4520 
   10225    15799    19523    20223    17935    13573     7802      735 
   -7003   -13555   -16589   -14655    -8090      672     8412    13013 
   13918    12310    10274     8829     7943     7525     7702     8715 
   10319    11744    12005    10383     7417     4568     2956     2681 
    2714     1989      589     -664    -1281    -1494    -1695    -1709 
    -880      955     2945     4079     4013     3206     2451     1866 
     942     -468    -1891    -2801    -3162    -3041    -2087     -101 
    2222     3185     1082    -4236   -10857   -15824   -17018   -14112 
   -8180    -1164     4653     7057     4716    -1533    -8718   -13559 
  -14512   -12198    -8450    -5185    -3435    -3198    -3877    -4502 
   -4192    -2567       73     2763     4338     3843     1120    -2747 
   -6265    -8572    -9565    -9850   -10480   -11909   -13193   -12721 
   -9664    -4657      843     5722     9352    11047    10174     6856 
    2446     -998    -1995     -239     3642     8289    12257    14815 
   15764    15285    14044    12670    11301     9490     6461     1984 
   -2833    -5914    -5733    -2415     2354     6158     7320     5652 
    1874    -2731    -6475    -7799    -5963    -1532     3806     7972 
    9624     8996     7464     6492     6563     7057     7686     9217 
   12681    18352    24922    29853    31061    27970    21477    13330 
    5131    -2031    -7174    -9640    -9628    -7752    -4591     -935 
    2338     4603     5425     4787     3482     2632     2890     4282 
    6157     7394     7598     7526     7798     7902     6925     5087 
    4122     5699     9756    14672    18342    18985    15927     9878 
    2478    -4298    -9106   -12005   -13689   -14195   -12854    -9265 
   -3968     1792     6501     8628     7303     3119    -2095    -6677 
  -10159   -12599   -13450   -11640    -6378     1948    11085    17653 
   19054    14676     6119    -3474   -11231   -16009   -17947   -17389 
  -14921   -11542    -7796    -3572      888     4799     7575     8995 
    8901     7129     3915      134    -3131    -4991    -5200    -4618 
   -4454    -4987    -5535    -5399    -4606    -3835    -3732    -4187 
   -4328    -3444    -1808     -572     -904    -3046    -6208    -9207 
  -11146   -11688   -10983    -9802    -9443   -10537   -12205   -13097 
  -12669   -10940    -7914    -3885      361     3944     6116     6434 
    5343     4247     4375     5627     6749     6469     4255      322 
   -4524    -9099   -12436   -14317   -15095   -15325   -15551   -15948 
  -15988   -14850   -12244    -8679    -4983    -1743      461      510 
   -2555    -8234   -14513   -18773   -19011   -15170    -9340    -4475 
   -2691    -4261    -8018   -12351   -15742   -17006   -15548   -11733 
   -6821    -2123     1587     3481     2409    -1561    -6462    -9977 
  -10697    -8669    -5181    -1311     2668     6757    10768    14120 
   16388    17593    17776    16971    15487    14065    13628    14591 
   16513    18157    17903    15195    11537     9334     9798    11993 
   13854    13782    11136     6353     1112    -2466    -3108    -1101 
    1841     3821     4029     2757     1117      492     1367     3411 
    6383    10007    13684    16558    17652    16457    13396     9494 
    5635     2190     -486    -1538      -25     3889     8306    10795 
   10112     6478     1052    -4511    -8740   -11218   -12668   -13814 
  -14464   -13784   -10835    -5350     1566     7989    12297    14009 
   14111    14054    14432    15045    15478    15352    14667    13863 
   13420    13405    13313    12371    10046     6602     3329     1846 
    2844     5519     7777     7129     2627    -4138   -10467   -14568 
  -16310   -16402   -15238   -12897    -9788    -6831    -4834    -4056 
   -4537    -5978    -7544    -8466    -8164    -6160    -2657     1357 
    4529     5819     5256     3558     1120    -2284    -7154   -13286 
  -19013   -21977   -20661   -15420    -8658    -3340     -794     -628 
   -2087    -4216    -5634    -5184    -2709      986     4793     7603 
    8614     8245     7902     8407     9462    10240     9893     8108 
    5509     3056      943    -1633    -5605   -10990   -16446   -20318 
  -22009   -21736   -19949   -17452   -15242   -14064   -14177   -15377 
  -17169   -18920   -20095   -20437   -19673   -17363   -13597    -9324 
   -5610    -2926     -991     1037     3993     8188    13452    19323 
   24879    28979    30939    30526    27935    24300    21189    19449 
   18849    18483    17595    15917    13569    11376    10384    10637 
   11235    11307    10449     8501     5500     2182     -180     -686 
     703     3222     6140     9672    14274    19489    24013    26314 
   25270    20846    14140     6862      578    -4100    -7289    -8964 
   -8893    -6814    -2499     3808    10745    15932    17632    16144 
   12751     8165     2822    -2194    -5406    -5821    -3445      493 
    3904     5006     3185     -693    -4440    -5968    -4724    -1686 
    1630     4574     7429    10061    12088    13646    14791    15391 
   15404    14588    12826    10513     8323     7007     6732     6562 
    5368     2846     -404    -3126    -4161    -3243     -703     2945 
    6847    10066    12223    13583    14582    15544    16899    18912 
   20966    21925    21086    18488    14612     9803     4327     -996 
   -5229    -8095    -9690   -10235   -10426   -11479   -14252   -18151 
  -21429   -22773   -21999   -19277   -14711    -8791    -2261     4457 
   11025    16548    19519    18665    14109     7524     1255    -2820 
   -4409    -4692    -4627    -4072    -2731    -1184     -682    -2101 
   -5364    -9859   -14892   -19361   -21456   -19638   -14214    -7602 
   -2991    -2540    -6169   -11517   -15077   -14094    -8432     -816 
    4882     5848     1884    -4509    -9930   -12122   -10712    -6803 
   -2229      878     1134     -806    -3089    -4460    -4606    -3991 
   -3745    -4917    -7693   -11378   -14636   -15967   -14579   -10795 
   -5980    -2280    -1432    -3314    -5816    -6139    -2822     2906 
    8079    10154     8316     3888     -624    -3517    -4330    -3076 
    -159     3712     7646    10351    10810     9208     6685     4709 
    4410     5663     6904     6224     2914    -1813    -5436    -5920 
   -3347      494     3728     5244     4701     2157    -1780    -5667 
   -8300    -9428    -8818    -6039    -1337     4172     8955    11625 
   11576     9505     7444     7213     8201     7979     4947     -439 
   -6120    -9663    -9600    -6415    -2594     -542     -248      286 
    3187     9202    16748    22616    24054    20213    12443     3817 
   -2442    -4654    -2846     1933     7776    12681    15859    17044 
   15223     9477      612    -8557   -15195   -18511   -19237   -18417 
  -16917   -15058   -12800   -10024    -6623    -3085     -567       12 
   -1461    -4001    -5930    -6260    -5260    -4115    -4138    -5362 
   -6494    -6423    -4951    -2505      730     4863     9005    11677 
   12762    13262    13528    12962    11029     8080     5036     2273 
    -576    -3775    -6851    -8809    -9215    -8585    -7411    -5524 
   -2208     3154    10041    16543    20290    19687    14744     7172 
    -385    -5569    -7100    -4859      -57     5032     8758    11143 
   12991    14828    16755    18504    19177    17780    14849    12550 
   12839    15965    20063    22356    21457    18172    14400    11973 
   11980    14069    16617    18198    18239    16544    13243     9159 
    6100     5976     9099    14098    18948    21836    22050    19918 
   16229    12154     8372     4577      627    -3274    -6774    -8729 
   -8003    -4697     -310     2585     2456      811      137     1134 
    3163     5489     7380     7859     6146     2459    -2415    -7969 
  -13853   -19678   -25053   -29309   -31367   -30282   -26157   -20533 
  -15290   -11312    -8960    -8776   -10797   -13847   -15772   -14546 
   -9762    -3164     2355     4573     3450     1075     -268       95 
    1339     2278     2266     1794     2477     5694    11241    17743 
   23726    27902    29438    28564    26497    24668    23995    24461 
   25330    25374    23027    17649    10452     3622     -702    -1268 
    1646     6737    12460    17255    19842    19374    15730    10305 
    5608     3743     5671    10809    16887    20945    20662    15811 
    8871     3197      558      384      594     -622    -3458    -6800 
   -8943    -8161    -4334      283     3039     2884      534    -2433 
   -4988    -7173    -9093   -10310   -10483    -9522    -7235    -3962 
    -986      730     1376     1640     2124     3139     4423     5308 
    5415     5131     5040     4911     3978     1707    -2376    -8378 
  -15111   -20427   -22661   -21575   -17898   -12204    -4844     3052 
    9230    11580     9950     6240     2827     1260     1631     2700 
    3095     2507     1879     2701     5994    11804    19295    26800 
   31980    32698    28264    19875    10280     2623    -1530    -2625 
   -1682      389     2620     4223     4810     4326     3099     1645 
      21    -2401    -6158   -10395   -12594   -10241    -3312     5238 
   12072    15626    15749    13102     8970     4876     1999      510 
    -163     -197      902     3328     6208     8010     7794     6044 
    4184     3254     2839     1575    -1029    -4067    -6492    -7934 
   -8466    -8000    -6011    -2091     3359     9167    14073    17441 
   19502    21018    22317    22718    21590    19558    18047    18020 
   19335    21207    23002    24018    23086    19516    14047     8557 
    5292     5703     9480    15032    20442    23977    24778    22971 
   18767    12413     5074    -1335    -5256    -6101    -4317    -1080 
    2597     6162     8763     9293     7097     2374    -3225    -7355 
   -8715    -7383    -4666    -2146     -253     1171     2264     3255 
    3898     3610     1720    -2647    -9042   -14844   -17679   -17699 
  -17018   -17415   -18444   -18157   -15245    -9788    -3219     2054 
    4143     2945      -45    -2783    -3632    -1720     2687     7854 
   11537    12642    11691     9866     7971     6045     3573      193 
   -3721    -7260    -9548   -10108    -9181    -7612    -6215    -5320 
   -4824    -4703    -5435    -7325    -9732   -11596   -12159   -11152 
   -8901    -5992    -2665     1041     4540     6561     6047     2865 
   -2025    -6355    -7539    -4939     -609     2333     2010    -1021 
   -4636    -7405    -9783   -12724   -16262   -20068   -23804   -26765 
  -28073   -26902   -23016   -17717   -13551   -12479   -14334   -17129 
  -18950   -19439   -19363   -18967   -17431   -14267   -10524    -8206 
   -8734   -11668   -14784   -15788   -13635    -8413    -1502     4841 
    9172    11461    12818    14938    18819    24324    30182    33984 
   33852    30369    25971    23123    23232    26112    30454    34547 
   35896    31534    20095     3297   -14943   -30632   -41341   -46313 
  -45138   -37467   -24190    -7354    10752    27570    40657    48058 
   47497    37441    20088     1498   -11419   -14116    -6197     8500 
   23636    34234    38881    38007    32401    23319    12484     1972 
   -6012    -9788    -9057    -5029      594     6709    12887    18925 
   24519    28741    29887    26699    19811    11644     4950     1702 
    2751     7201    12655    17046    19599    20316    19212    15852 
    9845     1802    -6971   -15996   -26011   -37225   -47498   -53098 
  -51768   -44381   -33806   -23484   -16331   -13601   -14758   -18039 
  -21115   -21889   -19071   -13330    -7620    -4418    -3262    -1793 
    1799     7761    15826    25812    36509    45611    51283    53085 
   51478    47283    41997    37347    34246    33014    33586    35355 
   37632    39802    40875    39577    35198    28219    20164    12649 
    6425     1518    -2107    -4286    -4938    -4400    -3237    -1997 
    -974     -164      397      691      582      -38     -471      173 
    2399     6760    13417    21695    30016    36198    38774    37694 
   34352    31065    29015    27140    23396    16422     6498    -4741 
  -15295   -23343   -27539   -27348   -23451   -17794   -12437    -8307 
   -5377    -3199    -1033     1712     4914     7661     9104     9464 
    9456     9480     9774    10123     9700     7729     3780    -2143 
   -9363   -16511   -21598   -22684   -19628   -14677   -10457    -8121 
   -7116    -5401     -771     6405    12831    15699    14729    11390 
    7792     5193     3354     1309    -1710    -5108    -6729    -4538 
    1698    10533    20112    28619    34516    37166    36696    33717 
   28947    22811    16353    11939    11827    15947    21862    26864 
   29112    27739    22968    15554     6140    -4629   -16054   -28020 
  -40789   -53376   -63077   -66743   -62069   -48928   -30480   -12135 
    1841    10607    15665    18833    21269    23486    25646    27205 
   27193    25476    22984    21324    21840    24032    25857    25350 
   21360    13615     2854    -8235   -15429   -15919    -9772      828 
   12142    20343    23242    20014    10908    -1916   -14569   -23534 
  -27530   -26697   -21381   -12869    -3573     3432     4829     -534 
  -10534   -22078   -32106   -38058   -39844   -38793   -35546   -30821 
  -24798   -16460    -6693      744     1604    -6841   -22604   -38963 
  -50097   -53892   -50798   -42350   -29259   -11937     7770    27116 
   42532    50864    52734    50626    45346    38456    32415    27473 
   24033    23419    24525    25370    25365    24094    21071    16248 
   10187     3973     -952    -2759     -413     5020    11074    15819 
   18649    19063    16296    10447     2792    -4830   -10934   -14899 
  -16424   -14820    -9654    -2064     5420    10172    10814     7957 
    3335    -1943    -7821   -14172   -20216   -24418   -24543   -19098 
   -8214     6832    23847    40179    53306    61399    63848    60793 
   52811    41270    28724    18302    12235    11554    14881    16949 
   12330       75   -17029   -34801   -49058   -56943   -57224   -50003 
  -36760   -20551    -5386     5613    11294    12166     9658     5211 
      47    -4746    -8946   -12992   -16436   -18164   -18081   -16529 
  -12567    -5381     3005     8997    10744     9140     6733     5459 
    4917     2519    -4840   -17941   -33108   -43670   -44358   -33800 
  -14203     9004    29122    41579    44799    39552    28395    14515 
    1186    -8149   -10877    -7203      -33     7498    12918    14252 
   10839     3820    -5094   -14953   -24757   -32834   -37506   -37470 
  -32784   -25495   -18399   -13451   -11143   -10652   -10800   -11190 
  -11572   -10736    -7715    -3027     2018     6066     8710    11307 
   15214    19808    23635    26206    27570    27478    25843    23347 
   21741    23027    27689    34096    39290    40799    38012    32096 
   25417    20097    17254    17532    20054    22140    21594    17881 
   11628     4021    -3826   -11052   -16505   -19190   -19977   -21515 
  -26156   -34029   -42338   -47316   -47320   -43175   -37163   -32333 
  -30248   -30056   -29667   -26405   -19190   -10068    -1929     3722 
    7272    10467    14547    19133    23017    24871    23705    19542 
   13179     6028      286    -2210    -1337      860      984    -3029 
  -10233   -18113   -24021   -25661   -22209   -14450    -4315     5209 
   11510    13611    12082     9136     7622     8192     8267     4383 
   -5359   -20231   -36926   -51303   -59814   -59800   -51288   -38021 
  -24624   -13831    -6156     -442     4890     9939    12482     9935 
    2095    -8454   -17861   -23473   -25162   -24110   -21518   -18186 
  -14858   -13392   -15078   -17677   -17436   -12024    -1168    12267 
   24183    31822    32895    26717    16243     5892    -1552    -5015 
   -4537    -1383     3152     8231    12795    15727    15429    10360 
     895   -10916   -21689   -27274   -25823   -18070    -5729     7418 
   17063    21807    23002    23611    26683    32869    40274    45765 
   45491    37008    22284     6700    -4060    -5831     1768    14219 
   24996    30030    28825    22090    10982    -1772   -12206   -17051 
  -15648    -9384      233    11925    24679    37575    48917    56847 
   60147    58170    51461    41281    28982    17303     9665     7769 
   10961    16240    19236    16494     7609    -4220   -15138   -23522 
  -29274   -33023   -35490   -35852   -32461   -24907   -14021    -2208 
    6356     9446     8904     7339     5988     4879     2680    -2002 
   -8951   -15938   -19772   -19517   -17277   -14765   -12053    -9475 
   -8484   -10549   -15043   -18729   -18578   -13840    -5363     4751 
   13998    20913    24740    25721    25865    27474    30892    34233 
   35407    33537    29012    23602    19646    18213    18559    19630 
   20571    20030    17334    13549    10414     9431    11353    15184 
   18618    20122    19308    16117    11195     5951     1781     -779 
   -2652    -5415    -9912   -15723   -21445   -25783   -27887   -27162 
  -24057   -19873   -15713   -12690   -11896   -13060   -13753   -11070 
   -4089     5738    15575    22539    24838    21712    12824    -1508 
  -19274   -36674   -49917   -56805   -56508   -49708   -39124   -28202 
  -19354   -13843   -12775   -16991   -25339   -34220   -39691   -39846 
  -35132   -27354   -18782   -11517    -6943    -4742    -3698    -4343 
   -8181   -14840   -22358   -28405   -30607   -27828   -21167   -13224 
   -6235     -290     6206    14574    25018    36651    47574    55293 
   57606    53669    44810    34357    25989    21719    21274    22890 
   24133    22524    16989     9324     3228     1617     5371    13392 
   22784    30340    33987    32662    26954    19619    14033    12513 
   15212    20131    24973    28478    29961    28914    25576    21057 
   16571    12884    10260     9008     9976    13813    20166    27767 
   34571    38608    39150    36425    31482    26213    22065    20237 
   22190    27403    32804    35260    32884    25513    15443     6342 
     757     -922      420     3767     8534    13988    18612    21277 
   22150    22077    22477    24542    27384    28685    27243    23894 
   20366    17655    15702    14216    12987    11893    10830     9301 
    6697     3203     -437    -3939    -7241    -9476    -9375    -6648 
   -2312     2264     6248     8997     9567     7057      724    -9164 
  -20036   -27926   -29378   -22724    -9423     5883    17741    22736 
   20688    14167     7381     3982     4392     6390     7926     7907 
    6309     4561     4557     7516    13702    22119    30768    38079 
