Origin Time       2011/03/11 14:46:00
Lat.              38.103
Long.             142.860
Depth. (km)       24
Mag.              9.0
Station Code      GNM012
Station Lat.      36.3118
Station Long.     139.1955
Station Height(m) 59
Record Time       2011/03/11 14:48:22
Sampling Freq(Hz) 100Hz
Duration Time(s)  144
Dir.              E-W
Scale Factor      3920(gal)/6182761
Max. Acc. (gal)   171.802
Last Correction   2011/03/11 14:48:07
Memo.             
[...]
  -10880   -27271   -37556   -39684   -35676   -26623   -19729   -21510 
  -26627   -30094   -36569   -46674   -48470   -34909   -17539   -11871 
  -20375   -30629   -25265    -1700    23645    35695    34839    32723 
   39378    51741    53334    31979      472   -14875    -4172    18958 
   32170    21446    -9415   -38704   -45614   -32989   -19249   -18353 
  -31213   -45474   -48446   -40314   -31633   -27157   -18085    -1726 
    9210    12291    22603    45785    71919    92242   101671    98329 
   91935    97950   117530   133653   127855    97390    57510    28630 
   22605    33048    36909    17630   -14611   -36133   -37466   -26662 
  -15501   -10359    -8378    -4843     -632     4636    15139    31560 
   48118    55797    51265    41471    32464    23008    11080    -6700 
  -33696   -62897   -80147   -81788   -79091   -80444   -80842   -73555 
  -58076   -35688   -12172    -2688   -16720   -43044   -61939   -62502 
  -47416   -30769   -26073   -30068   -24813    -2799    21424    32501 
   30145    18034    -3667   -28833   -45608   -50638   -52267   -58667 
  -68581   -72756   -61828   -36542   -11218    -6138   -29647   -61082 
  -68272   -44588   -11965     4422    -2200   -14469    -6360    31152 
   78188   103157    94975    72777    62847    72141    87818    97078 
   93032    73013    47075    27819    15342     6800      -31    -9763 
  -20088   -24308   -23475   -23616   -27290   -29336   -20639    -2241 
   14326    23237    25688    23774    24763    35765    50932    57509 
   52271    43020    38242    38409    31265     4661   -31410   -54128 
  -57334   -56076   -68110   -96914  -124450  -125401   -97073   -62072 
  -43178   -46819   -57296   -49155   -16527    22732    49279    57552 
   59463    72821    99261   123082   131757   127970   122351   117042 
   98754    58565    14630    -6895    -4991    -2602   -20516   -54745 
  -84355   -93658   -79674   -55480   -42577   -51076   -71097   -82415 
  -75535   -56125   -30058    -4046     9069     3539    -7491    -1191 
   28621    58891    59816    26902   -11054   -23734   -16307   -14594 
  -31456   -61109   -80139   -67204   -33578   -10757   -20335   -56906 
  -83791   -69122   -24753    13153    27195    30860    46598    78184 
  108563   124335   131407   137384   132482   107109    76984    64973 
   67571    65322    49661    21668   -13127   -40082   -44996   -34629 
  -31369   -40805   -46889   -40070   -21689     3191    18329    13100 
    4544    14690    39858    59787    67020    72190    84568   101636 
  112698   107007    87622    72715    71277    67170    40608    -2730 
  -36320   -42941   -30608   -19875   -23745   -39464   -53536   -53388 
  -38721   -22000   -15181   -21568   -34545   -36029   -13004    22561 
   48180    58218    60113    57907    54450    51324    43756    28315 
    8055   -12630   -29039   -33783   -26876   -23310   -34049   -50484 
  -59243   -58135   -51148   -38442   -20075    -8919   -16058   -24975 
  -18684     -234    25175    38365    27844    19525    23862    27507 
   32857    36664    24390     2244   -11100    -5824    12983    22996 
   11247   -12486   -38560   -59464   -68601   -66335   -52285   -29740 
  -13559   -13415   -13993    11114    60124    96740    92489    56110 
   19999     8032    13753    13005   -10281   -51515   -85606   -88867 
  -58692   -13609    15071    14002     6756    22536    62439    99577 
  106613    83852    55022    41889    43002    37903    15825   -15151 
  -40304   -48688   -45684   -47794   -61058   -76650   -79754   -66268 
  -54083   -61902   -87258  -114298  -127759  -123396  -112162  -105649 
 -101878   -91137   -70513   -51007   -46013   -56541   -71367   -71245 
  -43300      798    34766    45527    47243    63558    95441   119006 
  114022    87764    66666    64270    69283    62050    36235     8859 
    2083    15991    30253    29490    18718    14841    29324    56295 
   74442    67630    45119    33906    47056    68584    77740    75153 
   74148    79778    85116    78972    54621    17168   -16569   -32162 
  -34353   -41353   -60096   -78299   -85047   -85241   -87986   -96719 
 -110050  -119031  -113963   -97309   -79245   -65182   -52341   -36976 
  -19955    -1943    15473    25399    22697     7210   -17867   -42489 
  -56661   -62045   -62755   -56308   -43403   -31822   -30073   -37107 
  -40770   -37486   -38341   -50172   -66539   -77574   -78188   -64739 
  -36142    -2250    18035    16668    12077    27001    57529    79891 
   79634    70384    78202   105833   130968   133124   109272    79176 
   68179    73146    65723    29184   -22972   -61898   -69513   -52117 
  -32500   -25069   -23042   -12560     9297    31288    42538    46749 
   54953    69203    79088    71727    45675    17873     7515     9994 
    2694   -26882   -70374  -104482  -107525   -82254   -56496   -52977 
  -65772   -72320   -57606   -24695     7096    19064    11751      202 
   -6108   -11266   -17821   -16909    -4774    11430    28306    44732 
   54152    53564    49263    43419    25863    -9349   -50342   -76274 
  -74819   -56642   -48464   -63122   -85211   -89756   -67491   -33568 
  -17231   -39424   -88020  -117871   -91493   -15467    62434    88723 
   58052    25049    37554    77536    89613    45960   -30322   -94344 
 -123795  -128520  -129365  -140269  -156473  -160100  -143618  -116321 
  -84998   -44339     3130    39451    52518    46695    40105    50116 
   73222    89888    79878    41577     1021   -20428   -24445   -17871 
  -12302   -19799   -29472   -25414   -17554   -24133   -45263   -59344 
  -45860   -13316    11748    11951    -7313   -21426   -12108    16527 
   47420    59922    43180    16231     9575    24040    36563    32297 
   15601     4644    12730    30431    37345    29022    15878     1908 
  -14810   -29399   -33025   -24200   -11988    -4133      210     3892 
   11913    33593    72214   112739   130837   118987    90415    57964 
   21741   -23872   -73703  -104848   -98834   -69178   -41447   -16433 
   17758    62345   108174   142690   165006   182309   192495   195840 
  200482   205879   207031   202782   189682   166392   138661   108894 
   73720    38332    15720     4516   -12085   -40003   -66836   -84362 
  -98644  -112239  -116631  -108728  -100172  -101966  -108145  -108871 
 -109075  -117858  -131502  -138317  -136521  -136722  -141991  -143294 
 -136294  -126069  -120908  -123328  -125175  -118682  -105505   -92680 
  -86429   -85482   -80846   -64755   -35751      -61    28116    35685 
   23955     9445     7372    21339    49478    82438   107407   125166 
  141821   154618   159999   158325   151949   146604   144555   138215 
  118465    85950    54397    34964    16426   -19413   -70052  -116408 
 -141431  -140706  -127039  -120999  -128018  -131999  -115194   -78222 
  -43281   -33430   -46092   -58686   -52461   -23401    16351    46086 
   54750    52242    57226    75898    98028   108782   105646   104837 
  118529   135427   140077   134132   126831   122674   122783   123040 
  117211   105483    90956    76991    64752    48518    26332     9613 
    8496    14522    12703     2095    -3131    15820    60597   107244 
  130565   121507    90307    61968    44590    15733   -38723   -99047 
 -136451  -141204  -120714   -89049   -61521   -41618   -19085    15150 
   60442    96687    97114    68292    40484    25114    17075    10914 
   -2511   -28849   -56955   -69358   -64139   -52161   -36076    -7887 
   32933    64530    56394     7800   -47771   -83184   -98544  -104972 
 -110122  -118699  -130559  -133295  -109379   -58610     -646    44462 
   66814    71830    79676   104226   134207   143088   114058    58105 
    9965    -2368    21221    60869    89783    89882    67100    41009 
   21961     7720   -10234   -38988   -75520  -110586  -130419  -120059 
  -86472   -59547   -57264   -70442   -80537   -75599   -57584   -41644 
  -35641   -29422   -16870    -3283    15577    49152    92301   133585 
  163573   169387   142866    93636    43356     4158   -26702   -52400 
  -73636   -91506   -98440   -76129   -23387    27399    45345    28474 
   -5845   -33354   -39929   -34443   -37849   -60356   -87757   -94583 
  -72970   -42315   -27877   -33314   -44600   -52968   -55890   -49595 
  -35259   -24375   -28945   -48313   -73693   -96904  -108028  -100095 
  -82104   -65932   -44197   -10935    25821    66836   111263   143905 
  161523   175739   189640   194608   181946   155834   131502   111909 
   81435    33345   -15666   -50707   -74178   -92630  -112328  -134973 
 -154785  -171006  -184437  -189729  -185227  -174597  -161364  -144573 
 -113715   -62987    -8670    30031    54813    78496   112722   161873 
  210178   230388   210795   164448   117398    86806    63124    21530 
  -36090   -72903   -69704   -45288   -16296    13998    38604    54133 
   61436    61460    65236    78648    87363    76743    49670    20298 
   -6492   -35213   -62855   -88779  -121692  -161704  -197836  -221859 
 -231148  -222951  -200281  -175945  -156396  -135468  -109687   -83509 
  -57079   -24793    10255    37923    57049    71719    81235    88424 
   99620   113320   124457   132277   140034   149197   156465   160943 
  162002   152250   128067    96382    63873    34592    15273     9255 
    9435     1630   -21979   -51155   -66058   -57386   -36280   -23309 
  -27073   -41563   -58047   -65790   -55672   -31581    -4884    15504 
   21822    11346    -7348   -19045   -14015     6959    38373    64786 
   65820    49212    41072    44243    47560    46487    38360    28493 
   30470    48100    69441    78049    72130    66348    68355    70812 
   63297    35859   -16209   -82307  -143850  -189818  -220561  -239605 
 -246576  -244875  -240055  -228882  -212245  -203017  -199305  -176277 
 -126851   -77432   -51325   -48600   -52292   -41452   -14078    10901 
   17337     7576    -1014     6542    29465    55039    71348    77688 
   79800    75556    57381    26248    -5932   -27281   -35597   -33397 
  -22202    -4558    18813    49706    84149   110945   126321   140163 
  156377   160828   136889    86009    33328    10587    26979    58361 
   72400    62592    46753    37714    33807    31102    25557    10627 
  -16491   -51560   -88896  -121628  -135869  -123269   -92699   -53883 
   -9160    34867    69661    96612   118534   129343   128729   128535 
  136717   149063   156887   159109   160874   163912   164190   148562 
  101990    29312   -45798  -105002  -145844  -175819  -203212  -225738 
 -230700  -214359  -188132  -159539  -127815   -99367   -87243   -94853 
 -108473  -110391   -97899   -79454   -59583   -36171    -3440    37173 
   69010    78580    70546    55239    38647    24936    15925     9114 
    2086     -804     7752    27374    48830    59377    52403    36497 
   25298    20705    14136     3900     -487     3179    11069    27408 
   53409    78353    87962    77702    60141    49441    47822    51148 
   52269    47713    44072    47624    56416    65401    72768    78289 
   76836    63644    43395    24520    13363    16493    30874    39325 
   35350    30987    35129    45487    53006    47634    24912    -7923 
  -31102   -32561   -21661   -11014    -4971    -2864     3395    18906 
   34367    40117    36504    30133    30097    37527    44039    43269 
   31953    10564   -12061   -24902   -24596   -18686   -16331   -17588 
  -21206   -32211   -51998   -75155   -98165  -120908  -146248  -176909 
 -203928  -210152  -189246  -149104  -100469   -51142    -6563    26963 
   42920    43077    35749    22764     -486   -31834   -58617   -69423 
  -61095   -36816    -6707    18173    34589    43067    41869    32463 
   25250    28481    33995    26192     3580   -18916   -26705   -18645 
   -4451     5748     5638    -2808   -10599   -14581   -17073   -21179 
  -34491   -58100   -76768   -75608   -54153   -23924    -2190     2599 
    -918    -1196     -588   -11491   -37797   -69044   -92323  -103486 
 -105310   -98599   -83973   -65156   -40762    -5876    33967    63415 
   73684    71521    71144    78269    84189    80783    73607    69129 
   65024    61796    64556    75056    90471   103721   106259    93478 
   72583    59713    59874    60632    50005    32774    27366    46140 
   78768   102345   104218    87368    65389    51821    45432    34297 
   15047    -2572    -7676     3400    24650    44721    58269    69106 
   81490    90423    84849    61663    28731    -6056   -40044   -68644 
  -83618   -84121   -78120   -71744   -68163   -67989   -67630   -66752 
  -72229   -92582  -122799  -143187  -147205  -144582  -140967  -136236 
 -127296  -112647   -94756   -74560   -54742   -42735   -43561   -54068 
  -67431   -82149   -99128  -112699  -114464   -99783   -69864   -35895 
  -10468     8448    31232    59667    87534   109195   123001   132918 
  145116   160520   174319   182447   184659   179346   165223   150398 
  140289   123684    88753    40023    -8551   -47016   -71134   -83758 
  -95524  -109658  -116224  -107126   -82166   -43552      397    30729 
   33687    18251     9347    25917    62841    96664   113711   120194 
  126208   137522   153762   162648   149308   111022    53733   -10830 
  -62332   -91632  -116243  -147987  -171716  -172761  -149824  -113561 
  -84612   -68013   -53045   -39245   -29111   -15009     9317    39231 
   64007    79302    92040   104297   108083   103819    96766    84782 
   64213    29818   -20933   -76874  -122274  -154041  -180792  -210900 
 -244544  -269006  -268433  -243250  -208318  -173438  -137211   -98256 
  -57843   -14908    29160    71296   110398   144505   175484   205397 
  228692   239405   233954   213369   186360   159693   130148    90629 
   44056     2565   -24007   -34941   -43465   -62253   -84584   -96382 
  -93161   -77143   -51828   -23046     3961    31049    59979    83778 
   99692   116772   140365   163390   176950   181311   183875   188263 
  189283   180772   160611   128957    92749    66193    56407    53189 
   41094    15138   -19465   -51667   -71307   -78230   -77985   -71347 
  -56134   -32125        1    33840    55150    56228    44348    28819 
    9247   -20111   -58637   -93336  -112450  -119213  -122081  -125932 
 -133504  -140404  -135734  -118390  -100784   -92353   -92513   -95376 
  -94643   -88817   -81582   -75628   -70003   -64740   -59199   -49360 
  -33954   -12310    19426    59313    96680   122238   135850   143591 
  150452   158261   165947   165462   145305   104891    55439     9735 
  -20837   -30298   -26105   -24212   -30205   -34272   -27289   -12138 
    1916    10078    13703    14616    11318     2217    -7017    -7446 
    2441    17339    30241    33716    23760     5309   -13397   -31960 
  -52961   -72745   -85579   -89691   -89820   -92644   -96696   -92508 
  -72614   -38919    -2215    22005    26427    21633    20939    27908 
   41191    57756    73676    84387    88330    91140    98074   106533 
  113870   123561   133652   130693   107684    75096    47436    30750 
   19677     3604   -20457   -45359   -58757   -51987   -30671    -7237 
   11673    21908    21789    18397    19020    21299    20629    14261 
      80   -17508   -31749   -41163   -45993   -46063   -42808   -39710 
  -36912   -29946   -18729    -8365    -1506     3177     7832    14492 
   26527    45432    65962    80022    82522    73301    58040    42954 
   27848     9242   -11421   -27710   -35816   -36545   -32251   -28155 
  -30814   -39810   -49136   -58760   -74029   -93561  -108093  -111938 
 -107236   -97173   -83846   -70061   -55279   -35504   -12432     5015 
   12119    14290    18448    25159    32337    38486    41943    45500 
   55547    71752    86985    97577   106335   115642   123136   124543 
  117375   103346    88640    82263    88654    99633   106444   113818 
  128224   145775   156680   152966   135059   109348    81368    55556 
   33794    17143     7313     -263   -12054   -27218   -42702   -57971 
  -73096   -87596  -101043  -114604  -129879  -145209  -156904  -163428 
 -161267  -149576  -133625  -107297   -71531   -46248   -33829   -30189 
  -34132   -31136   -22893   -22266   -25524   -27537   -24763   -15944 
  -10332   -13239   -20862   -27727   -28310   -24612   -24911   -30551 
  -35385   -35640   -34477   -35199   -35974   -34676   -30155   -21079 
   -7808     8375    26065    44169    61926    76997    86658    91034 
   92260    91866    90326    86536    78298    65087    49671    36952 
   30709    30621    32719    34431    37463    43652    51574    57667 
   59633    59027    58410    57094    53122    48486    45597    40262 
   29030    16123     4097    -9909   -26991   -43730   -55981   -64797 
  -74012   -84104   -92280   -94591   -91735   -88993   -87969   -87340 
  -87204   -87103   -85239   -81933   -78772   -74469   -67368   -57848 
  -43947   -22272     4082    26438    40168    47889    54222    62073 
   71297    76881    74395    67528    63787    66394    72962    78450 
   77505    67570    53849    44088    37443    27863    12882    -4997 
  -18922   -23129   -21159   -23270   -33334   -44725   -51431   -54578 
  -59221   -69510   -83603   -94404   -94875   -82949   -64966   -50323 
  -41243   -31826   -17061      699    14910    21706    22328    19743 
   15134     7561    -3413   -14910   -22966   -24469   -18751   -10944 
   -6286    -4978    -6424    -9552   -11989   -11829    -7495       31 
    7732    15745    25823    36754    45658    52619    61606    72388 
   77394    72421    60146    43910    27290    13507     2797    -6357 
  -16699   -29390   -41306   -49616   -53658   -53924   -52533   -50319 
  -47031   -45142   -46577   -47625   -41978   -27287    -6247    18371 
   45319    71584    93170   107973   116275   119829   119326   113241 
  100237    82250    63826    49052    40749    39532    42432    45612 
   46754    43138    33466    20504     6674    -5710   -11336    -7967 
     156     7062     9333     8176     7441     8986    12420    17320 
   21606    21802    17159     8893    -2462   -16189   -30689   -44553 
  -57072   -67347   -76057   -85271   -92825   -94669   -89945   -78757 
  -63626   -49080   -37013   -30016   -30118   -32500   -30691   -22217 
   -8382     5946    17867    30824    48432    68809    86227    93413 
   85659    66457    44930    27263    13960     3164    -6902   -15977 
  -20419   -16686    -6410     4281     9447     5146    -9488   -30125 
  -48490   -57987   -60048   -62300   -70112   -81881   -89941   -86930 
  -72124   -50184   -27144    -9152     1010     7726    16048    22963 
   23258    19520    18242    22665    32082    41396    46336    49669 
   54875    60052    62499    63348    65738    70342    74258    73723 
   66547    53184    37375    24459    17791    17299    19703    20218 
   15358     3184   -15514   -36031   -53586   -66130   -75015   -84254 
  -95570  -107192  -117150  -122302  -118170  -104124   -85577   -69317 
  -57454   -46461   -32466   -17042    -4869     2731     8283    16347 
   30884    51566    74328    93923   107004   114944   121200   126041 
  126242   119515   107222    92550    78164    66461    59579    57268 
   57355    59272    63485    68100    69193    63629    51751    38399 
   29413    27262    30261    33769    34824    38321    52357    75018 
   94528   102559    99308    89701    80110    74964    74436    74942 
