Origin Time       2011/03/11 14:46:00
Lat.              38.103
Long.             142.860
Depth. (km)       24
Mag.              9.0
Station Code      GNM013
Station Lat.      36.3181
Station Long.     139.0174
Station Height(m) 93
Record Time       2011/03/11 14:47:41
Sampling Freq(Hz) 100Hz
Duration Time(s)  300
Dir.              E-W
Scale Factor      3920(gal)/6182761
Max. Acc. (gal)   148.865
Last Correction   2011/03/11 14:47:26
Memo.             
[...]
   27506    34915    38283    36135    28981    20698    13844     7519 
    3565     7420    17363    25057    27471    26469    22992    18721 
   17523    21543    28105    33838    39026    43276    41651    31789 
   19516    10630     5037     1183    -2857    -9445   -18561   -28851 
  -38797   -45905   -48979   -49237   -47700   -45051   -42980   -42511 
  -40971   -33420   -19887    -6017     4077     8180     4558    -4496 
  -13302   -17656   -16982   -11976    -3825     3155     5183     3362 
    -510    -5774   -10060   -11667   -12570   -13844   -12109    -5442 
    1034     2328     2001     4403     6936     6491     3102    -2497 
   -8303   -12127   -14070   -16376   -22151   -31932   -42049   -48208 
  -49010   -45727   -38512   -26493   -13588    -5490    -1470     1136 
    1573      622     1416     5512    12916    22601    32486    40806 
   47025    51718    55176    55733    52472    47590    42244    35896 
   30214    26769    24751    23532    21877    17160     8828    -1109 
  -10490   -17541   -21546   -23079   -22511   -20985   -19714   -16087 
   -7543     3332    13082    19914    22167    19977    16504    15492 
   16948    17720    17451    18009    18856    17442    11634     2178 
   -7865   -15912   -18703   -12477     1818    16157    21422    15569 
    4302    -3621    -2987     3085     9674    15721    17761    13809 
   12600    19255    23390    18017    11093     8212     3554    -6143 
  -14358   -17007   -18637   -21308   -19958   -12421    -4436    -1063 
   -1240    -5987   -19837   -38740   -50102   -48431   -40721   -33710 
  -27113   -21747   -19227   -15089    -5000     7673    17630    26886 
   41566    60179    74595    81098    81342    77202    71632    69122 
   69764    67988    60776    51710    44776    38766    30211    18518 
    5438    -6334   -13082   -14083   -12928   -11983   -10678    -8479 
   -6899    -9027   -15272   -22627   -29685   -35222   -34952   -26494 
  -12625       28     4220    -1650   -13684   -26571   -33053   -28438 
  -16602    -4485     4312     8095     6491     2534      371      426 
    1234     4717    13711    26251    37193    41537    34332    15574 
   -5586   -20077   -27723   -32299   -35780   -39263   -43186   -45649 
  -44298   -41288   -40707   -41108   -39825   -38459   -36095   -29238 
  -20082   -12825    -6642       98     5499     7004     4458     -161 
   -3566    -1855     4496     9591    11006     9939     4529    -4937 
  -12932   -17684   -23621   -31902   -37394   -38815   -41328   -46663 
  -52660   -58713   -62102   -58993   -51545   -43335   -34044   -23489 
  -11548     2386    15348    23574    28439    34082    41304    46161 
   43895    34050    20926    10620     8316    13001    16348    12210 
    2653    -7814   -17950   -26822   -30741   -28859   -24635   -18558 
  -10579    -5838    -8755   -18481   -29927   -34437   -26466    -9848 
    8529    25452    38662    44603    42535    38384    38355    40951 
   43207    47485    55321    62648    65563    66304    68562    69639 
   64230    52753    39969    28148    16365     5752     -670    -4553 
  -10824   -18509   -22504   -23488   -25390   -26450   -21885   -12035 
   -1694     6778    13801    18149    18545    16714    16334    20654 
   29090    37445    42382    41918    34670    22420     9849      502 
   -5646   -12050   -22805   -38387   -55364   -69865   -79962   -84881 
  -83345   -76789   -69774   -63010   -55766   -52529   -57427   -67475 
  -75368   -77085   -73114   -62698   -46014   -28450   -14483    -4006 
    3465     7181     7380     5576     2047    -2678    -4536    -1617 
     117    -6378   -20344   -34202   -42305   -45612   -45895   -43231 
  -39283   -32884   -19837    -3834     5945     9004    12471    20817 
   35474    56260    78062    92954    97587    95129    88837    78334 
   64289    49290    35078    24370    18691    14471     7775    -3017 
  -20278   -42449   -58846   -60513   -51382   -39078   -24130    -7141 
    5446     9370     7061     1972    -5108   -11371   -11305    -5300 
     430     2783     3072     3727     7038    13493    20458    24105 
   23464    21105    19596    20214    23355    26760    27145    25087 
   23108    20138    13283     2530    -8463   -13925   -10970    -3348 
    3016     4587      314    -6426    -8660    -3868     3187     8620 
   14410    22309    29276    32467    32371    28633    20151    11075 
    8937    14409    19569    19005    15428    12073     8693     5873 
    4897     3611    -2005   -10835   -16191   -15082   -10495    -4726 
     857     3300     1464    -1904    -3759    -4069    -4412    -5792 
   -8980   -13486   -18232   -24928   -34316   -41459   -41995   -37912 
  -32762   -27922   -25585   -28225   -33885   -38459   -42758   -49167 
  -53082   -47902   -34736   -19999    -8433     -989     3770     8041 
   12637    14312    10238     4869     5389    13422    23886    29117 
   25501    15723     4873    -2439    -4731    -5133    -5948    -4433 
    2197    11753    19040    20861    18111    13082     8382     7666 
   11297    13657     9455     -302   -11632   -22493   -30495   -32623 
  -29614   -23746   -15563    -5641     5445    17073    26937    33439 
   39355    48626    60308    71429    81604    89401    92214    90560 
   86694    82182    76114    65631    51679    38054    24356     8008 
  -10179   -28100   -44688   -58392   -67740   -71950   -70600   -65524 
  -60375   -56381   -51947   -47247   -44213   -40512   -30531   -13862 
    4432    20262    30847    33396    28348    21139    18328    20962 
   23546    21117    12966      158   -14335   -26491   -35116   -40826 
  -44455   -47630   -50625   -52658   -53595   -52948   -50871   -47459 
  -40469   -28999   -16611    -8140    -5787    -7787    -9788    -8184 
   -2012     7166    14679    15964    13203    12201    13517    13427 
   10420     5330    -2193   -11562   -18392   -19663   -17580   -14861 
  -11161    -6369    -3991    -7146   -12561   -14486   -12267    -7730 
    -641     8316    16786    23890    28886    28840    21136     7343 
   -6773   -15196   -15707   -11062    -5994    -2681     -249     2773 
    6386     9177    11486    14581    17698    20912    25411    31131 
   36915    40386    41920    44491    46319    44294    39617    33607 
   28491    28463    32633    38005    45392    52843    55678    54247 
   51125    45729    38605    31089    18733      313   -17345   -32333 
  -46458   -56786   -61009   -62434   -65436   -68247   -64167   -53458 
  -45594   -42430   -35385   -25210   -20523   -19216   -15571   -13821 
  -16583   -16054    -7579     2315     6351     5545     6404    12970 
   21401    24532    21729    17201    12682     9685    10381    12208 
    9807     1716    -8987   -18913   -27645   -36534   -45253   -51418 
  -52718   -48183   -38881   -26704   -12777      753    13183    28310 
   44814    54429    59011    67474    76726    81602    84793    83631 
   73350    58607    44211    26321     3290   -19303   -36673   -44646 
  -42451   -36319   -30542   -23914   -14510    -2423     9501    19228 
   29859    42746    51948    55394    56435    50627    32895    11896 
   -2516   -12207   -19383   -21614   -21954   -27394   -39292   -52329 
  -60172   -60918   -55739   -45356   -31782   -19041    -9518    -2580 
    3246     8532    12722    16605    24574    38563    50987    52363 
   43179    30265    17852     9354     8460    12651    15273    15509 
   18953    28243    36466    34482    24548    17758    18456    22235 
   28238    37087    39240    28826    17062    10486     1672   -10524 
  -22102   -36489   -52940   -65719   -77444   -88423   -94400   -99121 
 -104239  -104296   -98257   -88322   -75732   -63603   -54073   -46704 
  -42166   -38464   -31521   -23826   -19604   -16632   -10395      422 
   14271    29509    42476    47155    43945    39822    38113    36234 
   30049    19484     9852     4530     2395     2450     4399     6379 
    5380     1388    -1120      728     4183     7022    12238    21484 
   31858    42510    55098    68363    78094    80612    75462    64637 
   50929    38264    28974    23004    21393    23355    24320    22370 
   18845    14277    10675    11386    16067    21467    25806    29139 
   31058    30556    28263    25916    23995    22085    19760    17025 
   14212    10622     4786    -3666   -12724   -19316   -22168   -21350 
  -16894    -9664    -1667     4524     7417     8609    10410    12077 
   12177    11616    11721    13521    17819    22525    23569    19574 
   12414     4412    -2587    -6098    -3846     1751     4040      477 
   -5322   -11301   -18852   -26402   -30061   -30283   -29617   -26369 
  -17259    -4666     4820    10203    16259    23267    27606    29485 
   30618    29619    24845    18297    13635    11395     9509     6549 
    1155    -8627   -22629   -36837   -47466   -55371   -62138   -64877 
  -60119   -49705   -38268   -28478   -22160   -21442   -25175   -28049 
  -25302   -16190    -4029     6807    14404    17674    15329     9793 
    5985     5424     6796    10271    15925    20534    20980    18738 
   17243    15356     9010     -540    -9775   -19999   -32163   -43763 
  -54109   -64459   -75007   -85685   -96345  -105447  -111279  -112806 
 -109027  -100837   -92591   -88226   -86492   -83100   -75672   -63583 
  -46261   -24290     -155    22912    42293    56920    67329    74434 
   78982    82159    83862    81476    75327    70778    69228    65582 
   58523    52691    49723    46882    42471    35881    26875    18520 
   15042    14140     7329    -9303   -29777   -44675   -48684   -43306 
  -35661   -32381   -33458   -35878   -40372   -48204   -57557   -67093 
  -75872   -80741   -78810   -70855   -62321   -59543   -61741   -62223 
  -57913   -50181   -40540   -30268   -20796   -13440    -8074    -4375 
   -5907   -15397   -26456   -30572   -28084   -23455   -18390   -14710 
  -13948   -12010    -3679     8491    17944    21045    17904    14515 
   18020    27083    35876    41283    40610    31855    17291      517 
  -17973   -38893   -59061   -72384   -77169   -76585   -73916   -72657 
  -73650   -72395   -65187   -51756   -33220   -13571     2327    13513 
   19485    19551    17682    16097    13080    11817    16986    25848 
   33137    37660    38854    38341    40448    44265    47060    49840 
   53119    56738    60580    60787    53321    40322    25507    11217 
    1203    -5074   -14088   -28535   -45202   -60613   -73369   -84480 
  -96265  -109502  -122661  -132783  -136491  -132335  -122913  -113476 
 -107711  -105420  -103495  -100035   -96555   -92661   -84448   -70514 
  -52887   -32854   -11045     8530    20449    24235    23462    20358 
   13397      962   -13151   -23970   -29588   -26983   -16977    -6650 
    3800    18143    32368    47148    71463    97336   106847   105718 
  107240   105256    95850    90490    89718    82379    72089    68613 
   72659    81964    91455    95481    94105    91769    91493    90381 
   82415    67634    53115    38392    18037      694    -5287   -11288 
  -26062   -39931   -47078   -55290   -68262   -82749   -97025  -108521 
 -114630  -114402  -106245   -92723   -79255   -64640   -45089   -21879 
    2123    23714    40199    53177    63986    72595    81200    87913 
   87441    80227    69248    56455    44783    35576    29427    28462 
   34027    46626    63031    74696    78581    77895    70382    55660 
   43344    35687    25287    17331    20435    24062    17941    10969 
    7105    -1312    -9448   -11734   -13560   -12365    -6260    -4625 
  -11891   -24121   -35853   -41293   -38202   -27324    -8358    11779 
   20543    18202    12736     1332   -20526   -44009   -60543   -74763 
  -88672   -94692   -91255   -85816   -84214   -83416   -76571   -65794 
  -56769   -45333   -26589    -4603    17005    38038    55889    66353 
   66080    56285    44418    36513    31640    27858    26311    25725 
   22209    14837     4056    -9456   -22743   -35649   -50371   -62511 
  -67979   -74093   -87608  -100999  -109471  -121485  -131825  -126350 
 -113205  -104049   -91246   -69919   -49801   -35908   -28306   -27649 
  -23906    -9155    12879    43346    84265   125177   153850   169621 
  178411   185015   188500   182572   168999   157145   148453   142125 
  143671   151464   152246   141061   128192   119730   112307   105365 
  100891    99049    98109    95602    93640    93512    87389    71762 
   54853    41914    31806    24085    16780     4585   -15997   -43696 
  -74024  -101243  -122936  -141740  -158875  -172128  -179723  -182225 
 -183885  -188370  -195370  -204434  -209083  -195599  -162309  -119845 
  -68371    -5934    50812    89768   118949   141056   150818   150944 
  144217   128616   108596    89335    72162    64667    66417    63021 
   48777    26662    -2017   -32582   -56476   -69352   -71701   -65889 
  -58660   -55327   -55054   -59093   -68874   -79477   -86462   -89563 
  -88385   -82266   -70975   -56357   -44788   -41465   -46277   -56770 
  -67646   -71653   -67122   -59051   -50070   -39667   -31315   -29638 
  -33104   -32762   -21104     -296    25460    52379    71068    74245 
   65560    56392    54225    55405    54485    49930    39309    21581 
   -2173   -32713   -69842  -108703  -140989  -161880  -174779  -184511 
 -192326  -197887  -198445  -188793  -166130  -131639   -85952   -30782 
   25986    75239   114544   147027   174372   195167   207954   213988 
  218179   224342   230987   234077   229946   211698   170157   107667 
   42747    -7064   -39236   -58661   -67234   -66769   -63202   -63221 
  -66862   -68609   -67827   -66359   -60607   -45627   -19183    16983 
   56295    90143   109606   107146    80775    36840   -11981   -51956 
  -73923   -79884   -80367   -80098   -74524   -60768   -44361   -32349 
  -23652   -14128    -4145     5099    13100    19254    24129    25969 
   23070    18390    10499    -4210   -18331   -23013   -19353   -14972 
  -20048   -34686   -47322   -55525   -61925   -57583   -38340   -16770 
     605    25938    62464    93753   117534   143937   165842   173144 
  170021   158672   132203    90949    42284    -9298   -56651   -95031 
 -127702  -156356  -178063  -188411  -187420  -180801  -171403  -159419 
 -148538  -140690  -128340  -101389   -60117   -12908    33727    71495 
   89673    89890    80296    60117    34060    16623    12489    16333 
   21586    22572    17482     7272    -3529    -7783    -5323      971 
   16329    41831    64435    73977    70601    57084    39305    23179 
   10129     3348     7868    20011    27865    23493     7004   -18320 
  -48647   -78032   -99028  -110417  -115587  -109667   -87338   -59347 
  -41506   -36869   -38801   -41172   -39867   -32087   -16300     8806 
   37739    58422    65546    63320    58364    53649    49993    50589 
   56829    64272    65905    58983    46635    32286    15471    -5391 
  -26879   -43210   -52186   -54238   -49862   -39507   -27177   -20845 
  -24560   -32071   -33526   -26803   -13148     5476    18937    21123 
   17793    10665    -2472   -17354   -28132   -31595   -26644   -17095 
   -9356    -4979      471     9527    17744    20828    19947    18206 
   18819    23025    29684    38679    49561    58817    58984    45302 
   28613    20773    14675     8855     9527     3038   -13771   -26735 
  -44429   -72961   -94535  -100496   -95693   -81809   -63651   -52462 
  -49769   -51078   -57645   -66894   -72141   -71012   -64583   -54081 
  -39222   -20708    -6454    -7125   -18904   -29464   -38623   -48959 
  -53545   -49047   -41633   -34497   -25362   -16795   -13718   -13047 
   -8292     -580     3755     1290    -8757   -25451   -45491   -65359 
  -82361   -96251  -107432  -110671   -99369   -74269   -40847    -5232 
   26054    49083    63527    70883    74048    74950    73944    73813 
   79667    93960   115111   139347   158876   166280   165524   163101 
  155808   144197   138096   136726   126077   103007    77064    50731 
   19289   -18369   -56917   -91506  -121948  -146839  -160429  -155917 
 -137833  -122128  -115617  -114468  -115544  -117449  -122068  -130781 
 -137568  -135423  -123215  -101188   -70736   -41069   -21376    -7399 
    9206    28628    50875    77642   104144   122310   127832   123969 
  118306   113810   107134    92603    69694    42052     8675   -29086 
  -63289   -89873  -108968  -117526  -110651   -92682   -79219   -79207 
  -85941   -88881   -82662   -67885   -49362   -33108   -22369   -12425 
    2506    16094    18265    10668      427   -10249   -19030   -20865 
  -16630   -11360    -4226     4621     9945    15066    26594    39395 
   49520    62313    77284    90739   104214   115592   119839   114692 
   98207    70246    34263    -3461   -34175   -51254   -55514   -51645 
  -43457   -37014   -39250   -51464   -69564   -88065  -103230  -113738 
 -118885  -117884  -111657  -103269   -94557   -85084   -74490   -62883 
  -50092   -35797   -19377     -675    18086    34735    50984    69627 
   90356   110593   126661   133923   131121   122205   112348   106784 
  107517   111510   116549   120996   120797   111936    92209    63703 
   33266     7857    -7309    -9582     -368    16553    35471    50666 
   59093    57679    44684    22674    -4623   -32832   -56921   -74228 
  -84514   -89185   -90232   -88636   -86500   -87336   -91402   -94776 
  -93384   -84892   -66802   -36547     3422    42392    67719    75171 
   68737    53414    34847    19258     8630     -812   -12594   -23081 
  -27546   -27622   -25285   -19021    -8368     5430    24705    54126 
   92006   130285   161182   179924   186550   184238   174145   155872 
  130801   102158    72226    41353    11905   -11422   -26805   -35532 
  -39828   -43875   -50853   -59413   -69173   -82243   -96387  -107237 
 -111889  -104995   -83542   -53369   -22201     5493    23608    27830 
   24955    25712    32204    39528    43612    45247    46684    47533 
   47268    44365    33857    11447   -22596   -59189   -82954   -87229 
  -77030   -58560   -36809   -20047   -21263   -46316   -84368  -120956 
 -146135  -150619  -131273   -93396   -45482     2576    41091    62577 
   66116    61145    59379    65037    77037    92590   105220   108549 
  105374   103849   104794   103679   100848    97931    93853    90433 
   87467    80079    69148    57561    42431    20483    -9723   -46679 
  -83219  -111904  -128980  -132317  -125057  -117624  -117178  -121600 
 -126632  -130650  -132068  -128210  -116954   -97812   -73261   -45351 
  -14687    13154    32856    48786    68275    91651   115307   137276 
  155162   165276   165587   159271   152297   144558   130919   109764 
   83661    54437    23042    -6727   -30897   -49486   -64540   -77997 
  -89550   -96917   -99897   -98750   -93002   -85151   -78680   -75717 
  -77330   -80724   -80747   -75753   -69578   -67651   -71340   -78433 
  -86522   -91872   -89295   -78131   -64218   -51698   -39354   -26525 
  -15486    -9242    -9691   -15821   -24580   -33704   -42510   -50383 
  -56401   -61195   -65363   -67179   -65190   -59947   -52754   -44407 
  -34880   -22269    -3324    20790    45376    68767    89803   106939 
  121148   131935   137119   135991   128798   117427   104398    90640 
   74855    54445    29801     6026   -11592   -22907   -31896   -40170 
