Origin Time       2011/03/11 14:46:00
Lat.              38.103
Long.             142.860
Depth. (km)       24
Mag.              9.0
Station Code      GNM011
Station Lat.      36.2913
Station Long.     139.3607
Station Height(m) 42
Record Time       2011/03/11 14:47:30
Sampling Freq(Hz) 100Hz
Duration Time(s)  300
Dir.              U-D
Scale Factor      3920(gal)/6182761
Max. Acc. (gal)   80.644
Last Correction   2011/03/11 14:47:15
Memo.             
[...]
  -51663   -17775   -12029   -39121   -46770   -26759    -7736     7842 
   15771     1069   -15840   -11119    -6985   -19064   -15709    11252 
   17739    -3039   -10142     -682    -1845   -20064   -43154   -45517 
  -17324     3315   -16880   -49179   -49550   -29652   -28469   -37891 
  -24415     -937    -7188   -35621   -40624   -16531     5603    14142 
   10360     4773    15119    25662    14343     1364     6715    15997 
   15192     7083   -12804   -44636   -60868   -57626   -65752   -74344 
  -55933   -32368   -23434   -22958   -40890   -69032   -61019   -18821 
   -3572   -27246   -37125   -11388    10754    -2382   -32828   -53683 
  -53264   -26579    -1375    -9389   -18685     3033    17184    -2988 
  -20219   -11406     5018    23174    37351    19413   -16250   -21232 
  -11990   -31137   -50454   -32882    -7137      355     9091    16069 
   -8824   -44485   -45148   -17676     8305    23107    22728    12111 
    6060    -1066   -23578   -42520   -32789    -9414     6890    26635 
   47021    32946    -8198   -20823    -8003   -26874   -65148   -51174 
   10543    37096     7683   -14286    -7506   -17109   -48288   -52684 
  -18186    18677    31473    22091     -536   -34850   -70614   -83523 
  -67976   -44115   -32876   -33767   -27506   -20192   -38293   -63734 
  -54102   -20653    -9256   -20010   -17935    -2444      409   -14292 
  -23327    -8202     5577   -11810   -33858   -30154   -21467   -29638 
  -36213   -25604   -19881   -29054   -20243    15368    31083     4658 
  -21305   -16711    -4492    -8542   -30368   -47214   -23419    20222 
   26447     6757     5268    14267    12273    -6237   -37690   -42754 
   -3882    14893   -15327   -34270   -19315   -12584   -23615   -23688 
  -13429    -3526    19130    29824    -2718   -24275    -2095     1676 
  -25941   -29675   -12213    -3875     6883    14626    -3836   -21381 
  -12462    -9361   -30092   -45298   -36387   -15934    -8751   -30583 
  -57883   -48086   -16011   -17882   -45427   -42754   -11776     2008 
  -13387   -36586   -47798   -34990    -4261     9444    -6351   -12197 
    6721    11696   -14380   -40871   -35816    -4244    17412     9416 
   -7333    -5744    15777    29745     9053   -19362   -11062     3015 
  -22890   -51249   -44844   -34980   -41558   -41942   -25144    -6870 
   -5166   -24547   -45661   -41410   -18194    -9031   -29288   -49064 
  -25548     7311   -11395   -39731   -33173   -35945   -42725    -7992 
   24995    15355     1528     5028    11296     8020   -13763   -27207 
   -1451    27203    20518    -7620   -41059   -58585   -46458   -44485 
  -66614   -64877   -43220   -42078   -44658   -45099   -64213   -60586 
  -11676    19007    11750    11367    21415    19433     6177   -13807 
  -34142   -39341   -29362   -16877    -1815     6281   -11350   -27729 
  -15657   -17308   -47786   -49945   -15679    10552    16767     4146 
  -18269   -20471    -8471   -17919   -39102   -33062    -2363    14111 
    6343     1722     5313    -1455   -10107    -3481     6144     1948 
   -9274   -10058     1215     1168   -27340   -54018   -35795     5607 
   12266   -15402   -27314     -800    35912    34668   -10476   -37012 
  -11034     8299   -21145   -57627   -59422   -38363   -33063   -56353 
  -71209   -51891   -21392      488     9300     -548   -13315   -16734 
  -28349   -42840   -42817   -48284   -54944   -26681     8392     -794 
  -26895   -25952   -23086   -50015   -74015   -55055   -11621    16094 
   20719    16470     3451   -25014   -51470   -52459   -33984   -15013 
   -4425     -382     9808    24422    16948    -9166    -8807    26744 
   50391    38968    18857     8861     3331    -5162   -15984   -18124 
  -14629   -18707   -17489   -15080   -41693   -70096   -58267   -38742 
  -42053   -36452   -14090   -15006   -35382   -33742   -26571   -46483 
  -49666    -1856    30202    -6284   -53961   -52469   -30053   -28757 
  -31631    -7799    28291    38776    20877     4101    -3125    -9222 
   -4251     8855     2330   -16405   -11825     8132     5774   -16888 
  -26966   -20549   -15979   -16846   -21503   -19686     2365    16977 
    -437   -19777   -33895   -63264   -78449   -61441   -53620   -60325 
  -44660   -18164   -15556   -23667   -12165    11624    18977     5323 
   -6717    -2272     4596   -10978   -40350   -38724    -4011     6274 
  -10586    -4559     5080   -11051   -12878     -818   -17385   -33368 
  -14815    -3033   -20563   -29295   -14246    -5905   -20184   -34315 
  -28963   -15418    -4322      397    -9333   -16628    -2513    14504 
   16700     6226    -9669   -18550   -24070   -41234   -49660   -24218 
   -2475   -22903   -46173   -33683   -15532   -25405   -50355   -52682 
  -21115     5921     6206    11064    34960    45114    17013   -28486 
  -49091   -33946   -17361   -23353   -30163   -14171    14252    20588 
   -9009   -24434     -948    -2105   -30505   -15230    12895    -5083 
  -14237    13528    12805   -16078   -23183   -26792   -33267    -7249 
   17429    -4878   -25888    -6257     4953   -24412   -56836   -61138 
  -39478    -6667     6551    -6555   -12182    -9840   -25967   -47936 
  -51875   -30043     7979    28878    28551    26799    11143   -11331 
  -10246    -4035   -16423   -29805   -25335    -2402    16669     3566 
  -29654   -51159   -52112   -34953   -20416   -34687   -45659   -10767 
   27769    11918   -31567   -39925    -8372     9784    -9988   -27244 
  -12796     7167     -589   -32556   -50697   -35107   -23254   -44717 
  -64957   -48253   -14886    -3153   -11733   -10006     5785     9483 
  -11610   -42685   -53524   -27440     5808     6635    -6690     1489 
   12540     1326   -11094    -3932    14698    32898    39294    29027 
   16881     8612    -9671   -33894   -41266   -29371   -23104   -32700 
  -34407   -18982    -8790   -17927   -41484   -52761   -27315      614 
   -7321   -16731     1133    12015    -2014   -22263   -47538   -70529 
  -64906   -42931   -37362   -47035   -55212   -55386   -57032   -67389 
  -61235   -26417    -3841   -16703   -31802   -25120   -15362   -17914 
  -21301   -19100   -16742   -11671    -5705   -14697   -37864   -44519 
  -21267     3512    11027     8692      558    -2665     2248    -9997 
  -32958   -26962    -5579    -4295    -2992    14148    13590   -13083 
  -27011   -11266     5497    -4066   -27253   -22518    23145    53117 
   17264   -25913     -291    45870    36731     8327    16060    28107 
   10853    -5670    -4416    -6475   -12341    -8468    -1686    -1435 
   -9901   -29176   -42742   -32151   -20974   -27059   -16364    19056 
   31411     6567   -17453   -24275   -33427   -50634   -56653   -41250 
  -25077   -34718   -57238   -61325   -54189   -58147   -58796   -34009 
   -3398     6805     7352     8659     -846   -23517   -42125   -38152 
  -19435   -15909   -31267   -39032   -34026   -29981   -23440   -16763 
  -20579   -14068    12608    22018     3932   -10183   -13947    -7927 
   15715    26093    10592    20776    54498    46284     6389    -7848 
   -6199   -22588   -42594   -40813   -25721   -17294   -18748   -26939 
  -42850   -56035   -52440   -43892   -43404   -36422   -15714     5024 
   18530    23151    16896     7161     2231    -1829   -12400   -20128 
   -9238     3558    -8751   -30931   -37794   -34416   -28470   -22606 
  -22023   -15950    -1836    -4537   -21268   -22629   -20612   -39473 
  -47355   -20247   -13508   -57352   -88811   -73021   -50651   -52284 
  -65719   -56947   -18696    -1811   -37350   -74870   -66949   -38330 
  -23675   -22561   -31998   -45465   -47274   -49422   -68039   -77058 
  -53179   -19522    -5929    -4222    14059    44456    53096    36913 
   19073     3222    -7175    -3613    -8453   -33985   -44855   -31131 
  -32439   -44775   -23375     6234    -4285   -17177      983    14715 
   12261     6361    -9543   -14783    17112    40790     9562   -23946 
   -7834    14361     5772   -16485   -36378   -29061    10390    28727 
   12933    19126    44809    30210   -13117   -25428    -4688    13174 
   18243    23611    37996    52072    46445    18979   -16452   -50871 
  -60791   -28581    -7482   -40376   -58765   -20766    -6746   -49015 
  -74621   -60608   -39669   -12795    -1613   -45013   -91374   -71042 
  -33834   -46294   -66391   -42303     7907    47344    42108    -4012 
  -26984    -9404   -10699   -40941   -50860   -34988   -22286   -17378 
  -20618   -34129   -40672   -37033   -42857   -61741   -76828   -65146 
  -27943    -7926   -22645   -33795   -21617    -3161     6132    -6632 
  -29661   -23131    14908    40016    25897    -8602   -24334    -6720 
    6466   -20009   -47327   -28003     8137    23012    23942    14350 
    2974    11869    20126     -778   -19323      553    31743    20727 
  -26530   -38914     -243    16756   -13226   -34483   -19519     1609 
   -7809   -47739   -70654   -50931   -37079   -60131   -78532   -71479 
  -60345   -47076   -35265   -41300   -52336   -47210   -34038   -32084 
  -40331   -37585   -21668   -18957   -34138   -42132   -39785   -42764 
  -37621   -11758     6184     9929    22961    19856   -18140   -43576 
  -41872   -44272   -46418   -35979   -23924   -18783   -29025   -48403 
  -44987   -19389    -9955   -14963    -4343    12260    13094     5440 
    3100     9790    16029     5358   -16599   -26698   -22844   -19205 
  -20197   -34552   -67943   -85575   -60113   -29529   -25990   -22932 
   -6628    -7096   -28850   -33991   -18242   -16398   -22578   -11767 
   -5798   -27314   -53278   -52260   -27253    -7661       88    12083 
   16710    -2807   -24838   -32588   -39794   -47362   -46118   -41826 
  -34985   -27013   -33507   -48356   -45308   -26059   -16872   -23846 
  -28068   -17931     4110    25480    22390      406     2516    29575 
   31404    -1046   -26551   -31850   -39023   -52833   -63748   -65309 
  -40455       56     5967   -18815   -20011     -507     2791     -286 
    8510     6632   -19242   -39286   -34925   -26435   -24527   -11101 
   17647    34313    20020    -1110     6011    22483     9598   -12102 
  -13086    -7570    -2943     2378    -1513    -8653   -12191   -20348 
  -24220   -12733    -2691     -302     9747    10970   -22805   -55928 
  -47531   -32100   -36689   -23234    14209    33129    30183    27541 
   21800     7024    -9173   -19603   -23106   -23142   -18141   -10970 
  -23990   -63491   -94490   -91659   -72087   -48605   -13402    18972 
   23258    11166    12363    20681     3449   -33452   -46590   -23496 
    8185    12794   -20817   -42770   -11492    17795   -10306   -54323 
  -60003   -35166   -10743    -3771   -15000   -18318     6876    26401 
   17661    19276    33834    19391    -4859     -949      872   -22283 
  -28059     8209    44068    34685     -519   -14360    -4859     -438 
   -9815   -11781    15521    44302    34682    12575     8507    -2158 
  -20661    -8836    21260    20325    -2444    -6452    -2376   -10232 
  -15399   -13631   -12567   -10430   -10756   -14966   -22329   -42846 
  -69805   -72051   -51064   -51832   -74075   -65043   -29973   -16440 
  -15704    -8676   -17816   -39765   -43774   -40177   -51329   -58319 
  -44621   -27542   -13647     3962    17528    27095    36425    27305 
   -3930   -35430   -54974   -53899   -32059    -8348    12665    23049 
   -4429   -37722   -15793    15097   -16698   -53127   -23002    26329 
   36783    23275    14459    19750    31679    26259     1330   -11391 
    5427    34304    48810    40385    25389    19430    11401    -8959 
  -25664   -26448   -14110    -1274   -14057   -41721   -36021   -10521 
  -16444   -36240   -30070   -15526   -23004   -43644   -56949   -58687 
  -48678   -39035   -52921   -77868   -73037   -41702   -34703   -52200 
  -34315     9820    16785     4244    17738    29758    13571     1774 
   19237    36233    15256   -27136   -44351   -29853   -15566   -15578 
  -17041   -13956    -6791     6078     7676   -15593   -38699   -40516 
  -36114   -37468   -36077   -21358     7249    29222    20979   -13645 
  -52510   -73313   -73389   -77587   -91484   -82873   -36674    16982 
   33114       35   -38797   -36761   -11606   -18657   -59206   -74441 
  -46417   -24142   -33160   -38852   -10283    28194    38212    26834 
   19963    28629    55583    76705    62097    31867    21601    32226 
   45382    40123     7464   -31247   -39679   -14370     1187   -20916 
  -58316   -83069   -81245   -53021   -28735   -28887   -30715   -22455 
  -22965   -33950   -38194   -33876   -30320   -25177   -17961   -19593 
  -16629    12362    34726     9253   -32344   -34816    -5646     8647 
   -8436   -39416   -58929   -46812   -18419   -10565   -10766    13178 
   38039    33204     7366   -24326   -44465   -34777    -4341    11388 
   -2521    -6757    27595    53791    18789   -42894   -51919    -9064 
   12531     -664     1028    25112    35324    20806     3772    -9424 
  -34180   -50334   -27490    -2861   -16802   -38378   -35402   -11382 
   23387    39395    23102    22115    56306    73151    57882    47727 
   38672     9237   -26252   -51839   -58970   -40947   -20188   -21644 
  -29841   -21328    -5785    -6409   -28366   -59981   -80099   -73418 
  -59324   -70545   -95352   -93874   -72245   -69012   -76229   -68076 
  -65869   -83469   -94706   -95283   -97854   -90560   -67433   -47226 
  -39980   -40879   -49155   -56612   -50114   -44115   -50474   -39276 
    1496    37959    56682    70218    77008    74013    61303    33293 
    6979    14962    40801    39378    27653    50048    92676   112215 
   85317    24311   -20296   -16175      -77   -24468   -63187   -42283 
   24972    52575    27333     8506    11972     5937    -8294    -8859 
   -4599    -6068   -10541   -16205   -18686   -29026   -51058   -48164 
  -12845    -1448   -34956   -58508   -40339   -14582   -13737   -31689 
  -35672    -9362     9204    -6865   -26059   -31759   -35715   -36379 
  -44324   -63296   -59027   -29544   -11599    -8937   -12826   -30638 
  -53277   -62734   -64402   -72420   -78072   -66417   -50675   -46708 
  -44709   -38266   -33674   -34560   -39563   -27982     9811    31599 
   18349    18965    51762    67961    39865    -3418   -29021   -28271 
   -7719     7222     -891   -14732   -21103   -17977    -2868    -1719 
  -26084   -38519   -21027     7571    24041    11066   -16354   -21681 
   -5921    -7299   -36942   -59041   -49684   -32825   -36340   -55059 
  -65194   -51293   -27646   -17872   -13372     1806    10830     5199 
   17110    48735    46191     6314    -1972    27985    22535   -22684 
  -34215    -8353      574    -4072     7086    20998    18945    11180 
    5884    -3686   -10944    -6110    -8391   -40957   -81830   -78370 
  -24719    14930    -7170   -49196   -45898   -17505   -16715   -21064 
    1416    20991    19846    17925    21269    21371     8346   -18983 
  -33234   -21673   -20771   -46016   -62208   -50547   -31292   -24255 
  -27795   -39443   -66887   -97271   -99545   -78414   -73495   -89043 
  -87973   -68111   -67597   -91536   -97112   -62070   -32070   -47490 
  -67177   -50325   -24041    -7803    17089    45440    43797    20021 
   21695    43881    36064      994   -14499     1352    22848    30607 
   24241    18038    25476    29150     9365    -4135    21541    57858 
   53796    15279    -5452     5911    18618    19173    21008    24782 
   11867    -9834   -19102   -33140   -52931   -40886    -9040      150 
   -2779     3859     4454    -2384    -1876   -12660   -38605   -49157 
  -54736   -81582  -111676  -119092   -95696   -54568   -34034   -48683 
  -64651   -61583   -60547   -65662   -52381   -25241   -11383    -9705 
   -2848     2538   -15369   -48733   -64801   -59783   -54775   -50720 
  -38779   -27242   -18572     -385    12617    -1825   -13483     6839 
   30523    35829    30815    15721     8746    32014    47218    19161 
   -5370    11235    26363    12857     5508    15082    16039    10071 
    5784   -10865   -33624   -37129   -25417   -15603    -3840    12288 
   14319    -8339   -27346    -8935    25705    30290     5997   -10182 
   -2618     8858     2783   -20303   -41963   -36818    -9698     9347 
   17629    18339     6984     3685    18227    28418    16921   -13391 
  -40211   -38398   -12161    -4526   -45117   -79881   -42522    19902 
   26477    -6090   -19817    -6346     4033   -11897   -47081   -77794 
  -83789   -63959   -47214   -53048   -53525   -32001   -30664   -61232 
  -64820   -32218   -22655   -43388   -47331   -25353   -10455   -11460 
   -2235    24185    39182    29411    23508    32895    24786    -3914 
  -16540    -1967    21750    30261    16792     7909    17179    22368 
   14216     9057     8149     1747     3353    15291     2865   -34062 
  -45015   -21381    -8785   -23566   -38360   -34862   -22110   -13168 
   -7037    -1621     4461    23241    41951    24438   -11256   -13801 
     491   -17436   -42524   -20336    21167    26452    19652    35988 
   41194    13319   -11079   -21733   -50227   -85933   -85841   -60796 
  -54366   -63091   -53889   -25353    -1892     3903    -3525   -15620 
  -23051   -22435   -29813   -55788   -73041   -57016   -29034   -22615 
  -36447   -40761   -28722   -24412   -27484   -15175     4201     7396 
   -4248   -22214   -40836   -49505   -47219   -42940   -43682   -46784 
  -36782    -6604    25588    29269     7998    12685    51686    68084 
   43132    13856    10357    33134    60603    74080    72357    65328 
   59029    45825    29470    25868    24747    11102     4475    20411 
   32989    19448     -211    -6227   -12460   -24956   -31040   -34922 
  -38150   -23925    -3226   -11121   -42322   -50729   -27397   -19330 
  -41617   -49845   -26457   -11952   -30443   -45624   -31727   -23007 
  -32397   -29010   -21270   -30525   -32401   -24454   -39762   -58084 
  -40111   -18196   -33305   -56833   -50098   -30781   -38240   -63751 
  -61808   -29614    -7104    -2879     4603     8749   -14392   -45855 
  -40902    -6432    11326     3691     1470    22433    50322    56720 
   32449      185    -2274    24565    29411    -4050   -26499   -13913 
    3690    12435    17108     1745   -23915   -15735    17230    24843 
    5131    -6762     1442    12659     9350    -3708    -6858     3972 
   11100     9175    13188    20836    15598     4384     1478    -7412 
  -43457   -85545   -91614   -71277   -63749   -64886   -53326   -35237 
  -24109   -25113   -29363   -16847     5893    10610    -1790    -5769 
   11779    35672    40593    27679     6056   -24614   -43186   -37178 
  -39019   -62894   -69730   -45726   -33006   -42670   -49306   -63549 
  -83741   -65502   -20739    -6651   -15613    -5971    11556    10030 
   -1257   -13435   -26719   -23358   -11437   -22618   -38336   -28851 
  -14817   -14173   -12419    -3523     2105     7603    29721    61491 
   70896    54784    45978    45500    23967    -1095     4059    14897 
    4254    -2482    18377    45927    45745    18061   -10362   -30698 
  -52342   -74064   -77011   -56106   -41176   -43808   -37907   -26926 
  -33797   -40470   -26637   -11121   -14430   -34329   -56192   -61600 
  -47247   -38680   -54274   -70131   -60434   -38765   -24798   -16725 
  -10710    -7433    -5064    -2363      902     2532    -2838   -10824 
  -10216    -7709   -16443   -27111   -28023   -28278   -35196   -37560 
