Origin Time       2011/03/11 14:46:00
Lat.              38.103
Long.             142.860
Depth. (km)       24
Mag.              9.0
Station Code      GNM016
Station Lat.      36.1164
Station Long.     138.9250
Station Height(m) 344
Record Time       2011/03/11 14:47:33
Sampling Freq(Hz) 100Hz
Duration Time(s)  284
Dir.              N-S
Scale Factor      3920(gal)/6182761
Max. Acc. (gal)   110.711
Last Correction   2011/03/11 14:47:18
Memo.             
[...]
   -2183     9357    19301    26019    24355    12291    -4240   -18238 
  -27506   -33528   -35989   -32292   -23344   -10778     4839    19644 
   28380    27504    17762     3814   -10896   -23017   -27879   -24142 
  -16500   -12151   -11468    -8392    -2939    -1125    -3730    -4308 
    1965    11730    17934    16603    10882     8164     6528    -3127 
  -18415   -27706   -25766   -16313    -6128     1362     7040    10899 
   12104    12760    14430    14360    11353     8830     7378     4184 
   -1160    -9565   -22001   -33120   -36954   -34797   -30364   -24979 
  -17135    -4104     9590    15440    15825    17610    18879    13650 
    -584   -19567   -35209   -43857   -45219   -39018   -26796    -9467 
    9749    21653    23470    22609    22847    21571    15888     3818 
  -12181   -24798   -31304   -35662   -40684   -44080   -39726   -24733 
   -4993    11677    22681    28160    28690    25438    18090     7125 
   -2893   -10733   -20397   -29928   -32908   -29208   -21213    -8914 
    4202    13338    18876    20828    17284    10001     2519    -1605 
   -2139    -5542   -12947   -15627   -11665   -10362   -16374   -22266 
  -20581   -13712    -6253     1071     7349    11594    12578     9493 
    7780    10716    11561     6966     1482    -1699    -2175    -2042 
   -4987   -11145   -17144   -22084   -29006   -37233   -39968   -33548 
  -20638    -5312     8819    18495    22795    24249    24237    20424 
   11457      899    -4828    -3521     1035     5266     8057     9348 
    9096     7403     6708     7256     4239     -477     1581     7415 
    6845     1009    -3142    -4198    -4750    -8455   -15670   -23697 
  -32279   -39553   -41229   -39154   -37826   -36719   -33792   -28920 
  -22816   -15974    -8621     -598     8431    15501    17006    14517 
    9093      628    -7769   -15696   -23113   -24821   -19497   -12086 
   -4525     2381     4328     3082     5349     8729     7271     1636 
   -4413    -7684    -8603    -8127    -1913     9686    16164    13082 
    8671     9026     8953     1846    -9317   -18526   -24808   -28799 
  -31309   -32185   -29763   -26114   -23941   -20123   -10487     4090 
   18535    27868    30351    27664    22276    13822      989   -14434 
  -29559   -42596   -50812   -49479   -37070   -19176     -615    18699 
   35896    45260    47139    46242    41551    29298    12138    -3921 
  -14847   -22268   -30297   -34930   -31582   -24167   -15450    -4900 
    7810    22799    35881    41382    37937    26357     9432    -6465 
  -16346   -21461   -24956   -27742   -29613   -27172   -16188       48 
   12951    19047    21373    21322    18590    17300    18462    13770 
    -847   -18776   -34902   -48773   -58528   -62019   -56965   -41990 
  -20871     2547    26693    45323    51360    47733    41590    30845 
    9638   -18941   -44418   -57160   -55247   -45778   -35694   -25093 
  -12336     2854    19036    29377    29082    22731    14747     6078 
   -1860   -10132   -19779   -26377   -24471   -14021      869    14471 
   20915    21173    20736    16593     3332   -14424   -30793   -43703 
  -48789   -44004   -32595   -18339    -5204     5036    13581    18223 
   14728     4390    -7145   -16709   -24238   -28699   -29734   -28173 
  -21422    -7850     7342    18515    25394    29389    30448    27772 
   19659     6000    -9264   -22604   -32910   -37529   -33517   -21945 
   -7463     4687    12044    15644    16658    14008     7013     -707 
   -5461   -10055   -17677   -22665   -16726    -1233    13568    18562 
   11952    -1097   -13433   -21455   -27677   -35713   -41340   -36449 
  -19528     2950    19734    25726    28880    34830    38430    36029 
   29522    20875    11355     2015    -5599    -8535    -6000    -1155 
    3784     9306    13653    11244      164   -12731   -20474   -25483 
  -32691   -38699   -36535   -25302    -9338     5388    13878    16993 
   19584    22575    22831    18231    10427     3671    -1230    -7386 
  -15221   -22831   -29219   -32004   -28717   -22342   -18173   -16613 
  -15606   -14379   -11604    -7512    -6259   -10268   -15623   -16339 
  -10768    -3399    -1162    -6155   -13208   -14421    -6450     4182 
    9541    10612    10707    10105     9615     8919     4999    -2910 
  -11020   -14914   -13979   -12484   -14107   -16288   -14435    -6550 
    6472    19812    29123    34788    37869    36956    30770    21190 
   10916     1961    -2666    -2850    -2737    -5797   -11725   -16368 
  -16505   -12902    -8382    -4861    -1091     3008     4629     2773 
    -265     -745     -232    -3848    -8847    -9177    -3933     4765 
   10830     8602     2325     1226     8345    17396    18158     6941 
   -8075   -15675   -15355   -14809   -17950   -23645   -27982   -26306 
  -20003   -15898   -15708   -16024   -18141   -24320   -30753   -33540 
  -30865   -21780    -9588     1175     9567    15702    16846    10547 
     533    -7212   -10946   -11426    -8931    -4911    -2903    -2540 
      49     2294     -773    -7355   -13102   -15001   -12418    -8139 
   -5106    -5161    -7715    -8254    -4391      717     2780      202 
   -4101    -5066     -127     8456    13284     8823    -1417   -10064 
  -14756   -19057   -24099   -25703   -23065   -17602    -6545    10197 
   26713    36518    35255    27108    22638    22447    18567     9339 
   -1469   -12650   -24172   -31904   -31403   -24324   -14671    -4278 
    6823    17302    22890    24573    26384    22930    10043    -6398 
  -22579   -35587   -38587   -30901   -20383   -12810    -5180     6301 
   16000    17583    14592    12281    10267     5783    -1713    -8614 
  -13241   -18021   -22301   -24629   -26213   -25486   -20668   -14994 
  -11060    -6337     1203     9080    14101    13901     8574     3003 
   -2335   -12592   -24067   -28554   -28094   -29537   -32148   -30018 
  -23766   -19092   -16787   -13785    -7733      499     6743     9342 
    9580     8290     8098    10036     8978     2461    -4514    -8755 
  -12814   -17451   -18064   -12123    -3768     1875     4190     7076 
   12950    16510    12533     5948     2577    -1590   -12297   -26607 
  -35727   -34795   -27782   -19651    -8405     7290    23154    35616 
   42664    42723    35788    23795    10089    -3416   -15145   -24702 
  -34776   -42778   -41373   -29738   -13725      120     8960    12909 
   11931     9935    11374    11163     2850    -9569   -19344   -26145 
  -31215   -34000   -35597   -34153   -23871    -8107     2690     5874 
    4968     2858      957    -1909    -7216   -13650   -19028   -22480 
  -21852   -15591   -10314   -11293   -10174     -946     8305    11493 
   12521    14804    18550    23801    25319    14986    -5182   -23860 
  -32556   -32722   -32608   -33279   -27603   -15126    -1458     9467 
   14894    14063     7610    -2833   -13880   -23297   -30156   -33604 
  -32657   -27010   -18847    -9996     -962     5674     6938     3656 
   -1039    -6816   -14826   -21767   -21646   -13780    -3415     6300 
   15449    22349    24928    21513    11392    -2828   -21047   -43548 
  -60777   -63724   -55267   -40691   -23643    -7999     8832    31177 
   53053    64578    61972    46507    23334     -735   -22420   -40186 
  -50708   -53832   -50692   -37979   -18497     -827    14228    25377 
   27333    23340    17632     4783   -16796   -35568   -42910   -41391 
  -33077   -19782    -8795    -1711    10565    25604    24717     7633 
   -7454   -16087   -21789   -24398   -25545   -25183   -17925      931 
   24994    40681    42178    34589    26276    17364     2037   -17205 
  -31720   -38820   -40001   -33622   -22338   -13553    -6584      265 
    4182     6226     5152    -3276   -15990   -26643   -32616   -33760 
  -28836   -17612    -5072     5940    17453    28779    37624    40373 
   31477    10807   -13991   -33998   -47609   -57551   -62440   -60551 
  -50856   -31954    -7502    17306    39240    51950    49535    35508 
   19115     4934    -7070   -17244   -25664   -29154   -22699    -6805 
   11465    23673    26412    23875    23090    26891    29864    24596 
   11900    -3929   -23050   -43946   -58075   -58293   -45564   -22422 
    7262    33892    52126    64957    73385    74751    68390    54673 
   32433     2555   -28710   -53825   -68640   -72619   -69087   -62755 
  -52925   -34638   -10682     8589    20649    30101    38914    48819 
   59185    62511    53047    34169    12722    -7540   -24259   -35876 
  -43736   -49227   -51618   -48831   -37215   -14982    11742    31686 
   39240    38248    35655    33872    30204    24013    18019    12892 
    6743    -3065   -14909   -21719   -22547   -22127   -18449    -6485 
   10959    22810    21939    14085     6419     -372    -4996    -5863 
   -4313     -302     5220     3746    -8740   -20391   -21868   -18764 
  -18807   -23845   -28609   -25308   -16343   -11017   -10245    -7998 
   -3007     -237    -2684    -7728   -14033   -22158   -27477   -24469 
  -11702    11616    41520    65747    75461    72824    60964    40313 
   17380     -588   -15314   -29652   -41726   -48466   -47613   -42261 
  -39373   -40283   -41597   -41251   -37945   -28568    -8828    19006 
   42782    53182    53875    54836    59958    62449    50320    18158 
  -23458   -58126   -81362   -95027   -97310   -90468   -80283   -65192 
  -41151    -9738    26347    64584    96350   109707   100458    72140 
   33476    -1143   -26482   -50632   -75748   -92466   -88103   -57843 
  -13526    27134    56312    75358    83417    76128    55523    26799 
   -9825   -52583   -90054  -107320   -99970   -74235   -38863    -4419 
   23211    46711    64585    68595    55616    29367    -2217   -27715 
  -40788   -43416   -39870   -35709   -34480   -32932   -24317    -7291 
    8859    16047    14893     4875   -13791   -32918   -44303   -48498 
  -48323   -39024   -16257    13554    40151    55267    50970    28662 
    4402   -10479   -20855   -32229   -41828   -42949   -28084     3954 
   44674    83146   110285   120327   114307    97241    72587    41930 
    7179   -25816   -50435   -66167   -71406   -61020   -38733   -13042 
   13012    33579    40378    34244    16682   -12992   -42099   -56406 
  -56774   -44405   -19674     6969    27810    44672    58146    63971 
   59621    50341    41864    30204     6777   -28929   -64616   -87057 
  -94586   -90890   -77629   -57879   -35112    -9526    16103    36052 
   51778    66719    74272    65869    42846    13001   -17216   -43619 
  -61816   -66641   -54575   -31696   -13832    -6129     4666    28052 
   57989    81664    88610    77509    52105    14397   -28687   -68487 
 -105156  -136048  -150672  -147615  -133362  -108019   -68058   -16786 
   34335    75511   104174   120116   123815   115063    91864    55229 
   10809   -30969   -59824   -75247   -81455   -78593   -65707   -45996 
  -26135    -9425     1512     -792   -16966   -37387   -52069   -51258 
  -32512   -12165    -7522    -9104     3223    28621    54596    73181 
   82401    86598    83867    64823    32295     4668    -6762   -13974 
  -29697   -46726   -54496   -50077   -34616   -13495     8090    27725 
   40838    41016    27582     6549   -16268   -37178   -52237   -56655 
  -48067   -31025   -12705     2739    13620    21441    26912    26379 
   18396     6360    -3898    -7298    -7553   -13842   -25372   -33489 
  -34073   -25805   -11262    -1177    -1380    -8184   -18663   -27022 
  -26455   -20509   -14037    -7462    -3746    -2806    -1277     -497 
   -1276      676     7120     9967      683   -13674   -19436   -16606 
  -15181   -19543   -25001   -23957   -13454     2787    19709    32465 
   36554    33060    24383     8387   -11623   -26287   -34411   -38717 
  -36445   -28805   -21365   -13935    -6035      122     8438    24514 
   42140    47292    35587    15298    -4631   -20049   -29860   -33362 
  -30191   -26554   -30714   -37786   -35987   -24136    -7449    12431 
   33584    48487    48902    34476    13139    -3106    -8680   -10942 
  -14571   -18203   -25761   -37045   -43486   -38740   -22729    -3115 
   11307    19328    23720    27451    28107    13389   -18624   -44295 
  -43442   -23876    -2376    11252    10707     1289     -695     5566 
    3342   -10598   -23739   -31982   -38004   -40081   -37313   -29019 
  -10802    16016    42353    62817    75742    77570    67605    50342 
   31499    12520   -10886   -38794   -63200   -75584   -71963   -55652 
  -33818    -8541    26706    72896   109828   120382   113637    96360 
   58942     2208   -57590  -106182  -136452  -144543  -127607   -87877 
  -34951    23103    82495   130348   149170   140709   115135    70118 
    7828   -57136  -110555  -142316  -151549  -143014  -116635   -75198 
  -28929    17002    64419   107934   134365   139444   127553   100018 
   58595     7343   -49761  -103974  -142716  -156787  -145809  -115196 
  -67704    -6631    59316   117175   150861   153381   130072    84187 
   21217   -42194   -90643  -118873  -129389  -128290  -113773   -75822 
  -18443    35664    68398    78540    72311    52690    21998   -12378 
  -45235   -76757  -102128  -112590  -104758   -80175   -43656     -768 
   45448    88255   117110   124810   104503    60262    17326    -8353 
  -26932   -45367   -53950   -46856   -34422   -28782   -28969   -28063 
  -23446   -15310    -6296    -3788   -10640   -12612     6001    37244 
   61391    71758    75630    79494    78511    64994    36726    -7273 
  -63710  -119986  -160234  -177664  -177960  -164648  -132676   -82476 
  -23620    36623    93713   139116   162526   156502   120216    64942 
   10918   -27459   -50968   -67892   -78729   -71167   -36094    14376 
   58090    84206    91359    81536    60500    32508     3203   -19890 
  -39352   -58093   -68637   -65703   -46866   -12660    23845    49115 
   64471    75047    73980    53692    23623    -3264   -26490   -49029 
  -70873   -88002   -90246   -75139   -54226   -33924   -13212     3905 
   14856    18959     9570   -14032   -38971   -51425   -47201   -32206 
  -16923    -8598    -5423       48     6990     5938    -3731   -12755 
  -16409   -15061    -9611    -5294    -7485   -12248   -12339    -6973 
       5     5097     7134     3974    -9135   -30164   -45629   -43694 
  -26522    -3333    20945    43595    60800    69536    67492    56792 
   46622    40167    25750    -4861   -42301   -72567   -86156   -77441 
  -51829   -23484      419    22601    44436    59226    60209    51307 
   36882    11123   -25996   -60963   -82687   -89733   -84412   -68047 
  -41588    -6090    38960    87469   123737   138438   131758   102610 
   53609    -1130   -45607   -74955   -93248  -102245   -98146   -77690 
  -43330    -1637    39505    72490    92408    96011    83658    62151 
   37522    12208   -10886   -31065   -49901   -61800   -55227   -29442 
    4627    37910    63424    75563    74340    61052    36059     2851 
  -32709   -65034   -88164   -98032   -96322   -84809   -61346   -29316 
    2428    32262    64060    94078   109458   104365    86980    60932 
   23299   -16889   -46564   -62343   -64740   -58600   -52750   -48283 
  -37273   -12833    23047    58413    79774    83621    75731    59841 
   34826      583   -38831   -74910  -100550  -116992  -125774  -119312 
  -92540   -55211   -20925     7714    33468    51722    56563    51949 
   44633    34711    17368    -8917   -35565   -50799   -51788   -46928 
  -46462   -49921   -49499   -40167   -19599     9735    39182    61759 
   75215    77480    67553    49833    31021    15550     4326    -5013 
  -12427   -15935   -18384   -21183   -18619    -6754    10010    24926 
   39560    58122    74224    79217    71883    54994    33011     7421 
  -20413   -41014   -47806   -47950   -47774   -39931   -17406    12182 
   35889    47268    46083    34417    14980    -4518   -14246   -15956 
  -19298   -26967   -34951   -39737   -41275   -39811   -31413   -12973 
    9274    22191    19783    11580     8483     6559     -183    -6334 
   -7303    -4040     1520     3987      284    -6072   -10218    -9476 
   -5306     -135     3702     4432     6266    12225    18993    24265 
   27250    29050    32187    34278    28929    14558      723    -3883 
   -6015   -14599   -25972   -32189   -29726   -17577     3206    25145 
   37443    36145    25576    12644     2936    -2922    -9609   -19320 
  -27809   -31784   -31507   -24449    -6803    16582    33604    39075 
   37980    35220    30772    23642    14391     1816   -13701   -23341 
  -22613   -20860   -23826   -26717   -26460   -22249   -11072     7591 
   28829    46629    56266    53357    38279    18303     -321   -16130 
  -28269   -36176   -40181   -36568   -19933     5742    29394    43818 
   47273    43228    38059    31964    18258    -6055   -34516   -55737 
  -64297   -65630   -63617   -53121   -33504   -13716     2026    17125 
   29906    34046    28628    16838     1112   -17261   -36046   -48930 
  -50874   -43707   -30159   -12242     7357    27769    43491    45942 
   37872    28108    15169    -8308   -37510   -57333   -62094   -55415 
  -39475   -17617     5929    29381    49346    59494    57170    46231 
   27806     -687   -33751   -62058   -82437   -91217   -83490   -62689 
  -35620    -3346    31231    56464    63365    55259    38201    13628 
  -15194   -45441   -77290  -102719  -112125  -107880   -92240   -64452 
  -32340    -2615    25527    48430    59389    57239    44049    23331 
    1827   -12452   -17121   -17816   -19451   -20680   -16843    -4868 
    9652    16828    16384    14591    11918     3225   -11283   -22695 
  -28668   -36039   -42645   -41705   -37244   -33922   -26462   -11466 
    2785     7652     5794     2609     -419       49     5185    10631 
   15377    19336    16695     6524    -1241      590     7526    10046 
    4150    -3055    -2391     2515      510    -9813   -20987   -28857 
  -33150   -33303   -27914   -15300     2048    18597    34217    52154 
   71025    87029    99485   106075    98052    70264    29239   -15357 
  -56900   -86993   -98708   -95047   -82048   -59500   -27731     6130 
   36579    64406    87424    99426    97504    81847    59107    41198 
   28543    10202   -14424   -34160   -45300   -53413   -60864   -63448 
  -55935   -40230   -23292    -6707    11089    27918    39025    40822 
   36750    31775    18681    -9600   -41123   -60301   -67850   -71306 
  -72254   -69769   -61318   -42095   -15103     8861    26608    41755 
   51524    51373    43551    30139     9468   -17197   -43773   -64067 
  -76493   -83967   -87558   -82120   -62406   -30139     8656    45888 
   72146    82829    79584    66500    47725    25803     2552   -19772 
  -37189   -45601   -46435   -42386   -33118   -21600   -10999      526 
   12840    22629    28988    30823    23852     7253   -12601   -29039 
  -38409   -36978   -24244    -7187     6995    17862    27293    33907 
   33268    22764     6749    -6904   -16337   -25838   -36356   -44924 
  -50001   -49530   -43271   -35340   -24774    -8860     4413     6799 
    1223    -7133   -16341   -23468   -24172   -16781    -3791    11592 
   26461    35927    36437    28280    12310    -9421   -32207   -51706 
  -64273   -66273   -58273   -45621   -32414   -20268   -10663    -2454 
    7832    18410    23053    21441    17235     9776    -2126   -14942 
