Origin Time       2011/03/11 14:46:00
Lat.              38.103
Long.             142.860
Depth. (km)       24
Mag.              9.0
Station Code      GNM004
Station Lat.      36.6171
Station Long.     138.5921
Station Height(m) 1222
Record Time       2011/03/11 14:47:42
Sampling Freq(Hz) 100Hz
Duration Time(s)  300
Dir.              E-W
Scale Factor      3920(gal)/6182761
Max. Acc. (gal)   51.851
Last Correction   2011/03/11 14:47:27
Memo.             
[...]
   21601    17737    14207    12805    14166    17498    21227    23453 
   22623    18425    12193     6321     2992     3230     6386    10318 
   12714    12142     8097     1129    -7148   -14621   -19700   -21933 
  -21619   -19488   -16477   -13348   -10971    -9932    -9557    -8765 
   -7090    -4298     -442     3824     7647    10580    12892    15177 
   17709    19954    20471    17891    12310     5496     -171    -2823 
   -1761     2340     8329    15276    21954    27057    29950    30532 
   29220    26742    23467    19885    17036    15566    15158    14976 
   14461    13616    12543    11354    10287     9566     9451     9978 
   10714    11151    10735     8963     6211     3563     1575      230 
    -282      202     1363     2867     4509     5598     5419     4455 
    3948     4465     5524     6108     5432     3332       98    -3458 
   -6404    -8719   -11064   -13563   -15696   -17095   -17472   -16090 
  -12465    -7183    -1512     3235     6204     7280     6490     3503 
   -1663    -7813   -13095   -16367   -17623   -17110   -14876   -11321 
   -7318    -3534     -173     2640     4793     6142     6471     6199 
    6515     8359    11904    16554    21068    24231    25558    25293 
   23942    22234    21152    21167    21702    21759    21115    20663 
   21288    22970    25242    27443    28491    27672    25182    21512 
   17478    14347    13156    14299    17467    21686    25519    27111 
   24859    18875    10902     2811    -4148    -9692   -14114   -17231 
  -18605   -18278   -16617   -13933   -10473    -6799    -3748    -1923 
   -1315     -945      499     3308     6840    10203    12553    13711 
   14064    13633    12063     9474     6896     5498     5420     5744 
    5506     4540     3535     3367     4152     4936     4472     2031 
   -2654    -9455   -17365   -24371   -28258   -28042   -24909   -21079 
  -17777   -15165   -13400   -12494   -11633    -9764    -6637    -2765 
     894     3448     4741     4750     3015     -512    -4878    -8853 
  -11919   -14273   -15893   -15954   -13721    -9811    -5769    -2779 
   -1195     -792    -1442    -3085    -4903    -5848    -5684    -4472 
   -2234      301     1651      602    -2715    -6686    -9496   -10438 
   -9854    -8345    -6141    -2933     1522     6633    11058    13727 
   14826    15588    17279    20402    24487    28762    32644    35502 
   37035    37519    37139    36070    34974    34559    34855    35114 
   34286    31610    26895    20459    13053     5781     -194    -4083 
   -5767    -5697    -4604    -3211    -1681      336     2781     4895 
    5468     3010    -3120   -11365   -18824   -23303   -24092   -21923 
  -18646   -15772   -13516   -11622   -10131    -8912    -7118    -3985 
      -4     3525     5645     5802     3584     -871    -6699   -12667 
  -17355   -19393   -18215   -14249    -8323    -1507     4977    10201 
   13755    15826    16683    15873    12902     8056     1850    -5092 
  -11649   -16713   -19951   -21852   -22802   -22245   -19319   -14072 
   -7864    -2487     1208     3046     2605       84    -2975    -5242 
   -6850    -8198    -9114    -9753   -10514   -11291   -12035   -12508 
  -11501    -8108    -2739     3575     9229    12484    13147    12189 
   10149     7571     5426     4160     3664     3888     4448     4604 
    4018     2621      597    -1049    -1047     1123     4990     9284 
   12257    12625    10745     8227     6535     6543     8762    12965 
   17508    19829    18118    12739     6378     2610     4050    11352 
   22826    34961    44186    48532    47996    43872    37985    32351 
   28211    25126    21940    17811    12254     5960      985    -1152 
    -399     2755     7249    10951    11562     8074     1354    -6540 
  -13664   -18820   -21220   -20377   -16774   -12203    -8929    -8417 
  -10862   -15448   -20958   -26706   -32484   -37828   -41932   -43920 
  -43175   -39654   -34042   -27355   -20527   -14929   -12014   -11816 
  -12794   -12996   -11512    -8613    -4521       29     3747     6812 
   10068    13729    17848    20987    21074    18168    13542     8804 
    5916     5682     8214    13843    21077    26608    28286    25934 
   21333    17257    14398    12904    14526    17879    19073    17554 
   13800     8436     4295     2645     3038     5676     9736    13597 
   16390    18096    19239    20141    20203    18431    15142    11890 
    9882     9725    11484    14045    15187    12829     6086    -4106 
  -14856   -22609   -24689   -20501   -11837    -1496     7978    14889 
   18434    18108    13793     6479    -1695    -8217   -10943    -8662 
   -1689     8217    18873    28422    35465    38940    38030    33039 
   26177    20434    17634    17542    18700    19715    19555    17618 
   14201    10760     9279    10928    15202    20485    25044    27236 
   25885    20855    13160     5005    -1261    -4895    -6612    -7396 
   -7925    -7849    -5964    -2030     2531     5851     6789     5257 
    1807    -2958    -8370   -13556   -17711   -20052   -19319   -14570 
   -7403    -1564      335    -1917    -6808   -11628   -13677   -11877 
   -7361    -2286     1709     3411     2212    -1274    -6320   -12348 
  -17919   -21066   -20218   -15184    -8053    -2258       49    -1209 
   -5426   -11309   -16586   -19224   -18135   -13356    -6171     1173 
    6255     7813     6084     2350    -1355    -3503    -3590    -1009 
    4559    11826    18700    23437    24482    20869    13128     3051 
   -7232   -15608   -20698   -22799   -23059   -22431   -21915   -22489 
  -24507   -27088   -28494   -28029   -26775   -26061   -26191   -26506 
  -25852   -23492   -19213   -12034     -920    12615    24630    31581 
   32465    29059    24346    20847    20773    25526    34175    44103 
   52643    57631    57583    52151    42701    32326    24787    22672 
   25972    31937    36547    36719    31402    21806    11428     4630 
    3855     7880    12408    12937     7937    -1124   -11680   -21093 
  -27661   -31189   -32649   -33474   -34221   -34131   -32580   -30305 
  -28667   -27917   -26741   -23588   -18053   -11170    -4804     -166 
    2998     5302     6970     8202     9124     9693     9907     9766 
    9569    10181    12190    15073    17642    18888    18701    18225 
   18881    21130    24116    26485    27633    27242    24610    19768 
   14361    10916    11092    14015    16873    17573    16051    13784 
   12995    15404    21170    29219    37924    45258    49519    50056 
   46511    38463    26516    12520    -1376   -13482   -23156   -31153 
  -38520   -44577   -47396   -45907   -39975   -29883   -16387     -972 
   13437    23678    28232    26808    20522    12102     3487    -5191 
  -13842   -21129   -26098   -29331   -29799   -25621   -17056    -3806 
   13874    32737    50049    62871    66946    61154    47555    29253 
   11088    -2167    -8526    -7769     -661     8247    12067     7356 
   -4917   -20261   -32220   -36196   -31140   -19856    -7370     2677 
    8285     8416     4388    -1107    -5647    -7024    -4864     -901 
    3422     6909     8282     8086     8525    11254    16126    21241 
   24633    25890    25893    25530    24234    20371    13643     5664 
   -1595    -6789    -9003    -7932    -4992    -2654    -1982    -2273 
   -2396    -1392      488     1570      778    -1846    -6149   -11583 
  -16657   -19368   -18556   -14491    -8167    -1436     3197     4127 
    1112    -4786   -10845   -13845   -12181    -6718     -291     3939 
    4360     1086    -4845   -11831   -18299   -23585   -27692   -30372 
  -31176   -29203   -22502    -9952     6772    24527    39975    49623 
   51694    47670    40653    33500    28408    26358    26871    28374 
   28456    25086    18669    12537    10452    13586    20273    27195 
   31083    30549    25540    16736     6584    -1998    -7765   -10670 
  -11056    -9127    -4762     1162     7247    13621    21021    28357 
   32928    32731    27772    19949    11950     5683     1818      615 
    2614     8267    17121    27653    37778    45033    47008    42796 
   33296    20414     6523    -6541   -17611   -25580   -29943   -31310 
  -30946   -29837   -28826   -29489   -32995   -38332   -42354   -41505 
  -34309   -22902   -11666    -3628     1601     6094    10384    12934 
   12528     9829     6588     3476     -639    -6371   -12728   -17956 
  -19975   -18026   -12924    -5242     3801    11421    15487    15521 
   12099     7029     1925    -3117    -7646   -10097    -9931    -8753 
   -8095    -6595    -2072     4391     9511    11034     8846     4792 
     643    -3722    -8125   -10172    -8157    -3062     3142     8053 
    9937     9950    10021    10409    11422    14022    18126    22982 
   28608    34918    41809    49871    56913    59180    57676    55401 
   53058    50473    46187    39202    31114    22980    14760     7456 
    2986     3540     9579    18557    27943    36594    42979    45623 
   43760    36984    26073    12679    -1867   -16152   -28192   -35977 
  -38659   -37489   -34544   -31005   -27583   -25170   -24671   -26371 
  -28883   -29539   -26249   -18894    -9683    -2477     -697    -5106 
  -14051   -25142   -36013   -44347   -47885   -45786   -40263   -34875 
  -31470   -29623   -27706   -24192   -18860   -12648    -6458    -1185 
    1761     1609     -449    -2113    -2199     -867     2258     7548 
   13153    15916    14480    11529    11990    17741    27083    37617 
   45396    46597    41660    33793    26732    23355    23536    25638 
   27759    28008    26227    23287    20335    18790    18923    19812 
   20160    18845    15733    11634     7888     5587     4761     5053 
    5881     6204     6193     7710    12229    19578    28155    35472 
   38989    37585    32608    26733    22250    20346    20338    20149 
   18158    13901     8330     3954     3185     6632    12798    18541 
   21091    20316    17996    15257    12198     9547     8923    11162 
   14551    15493    12162     5726    -2385   -10804   -16713   -17531 
  -13159    -6227     -861      -49    -4153   -11130   -17182   -18585 
  -13402    -2567     9398    16839    17019    11138     3167    -2527 
   -4201    -2541     1513     6349     8482     4466    -5953   -19780 
  -33354   -43917   -49115   -47281   -39434   -29128   -19228   -10082 
   -1235     6902    13553    18267    20673    19984    15668     8554 
     690    -5532    -8216    -6385     -314     8166    16568    23363 
   28560    32595    34981    34862    32548    29635    27795    27693 
   28597    29047    27714    24164    19961    17075    15370    13915 
   12544    11477    11106    11454    12357    14272    17318    20930 
   24824    28533    31638    34295    35773    34587    30525    25157 
   20567    17560    14993    11346     6418     1024    -3281    -4550 
   -2567      820     3967     6000     5912     2808    -3359   -11458 
  -19172   -24046   -24996   -22486   -17951   -13325   -10229    -9695 
  -12169   -16436   -19429   -17970   -10671     1308    15492    29636 
   41652    49598    52239    49066    40715    29531    18672    10594 
    6133     4729     5719     8042     9233     7590     4248     1451 
     473      885      837     -594    -2273    -3279    -3975    -4653 
   -5330    -6626    -9554   -14810   -22032   -29118   -33446   -33700 
  -29798   -22329   -12545    -2536     4669     6734     4479      940 
   -1932    -4020    -5841    -8190   -11647   -15659   -19109   -21310 
  -22233   -22930   -23866   -23074   -18744   -11301    -2015     7746 
   16568    23616    29114    33171    34145    29823    19529     4937 
  -10071   -21252   -26229   -25019   -18468    -7098     7331    21021 
   29988    32383    29576    24346    17958    10270     1464    -7646 
  -15693   -21368   -24435   -25063   -22920   -17842   -10376    -1529 
    7198    13996    16826    13923     6791      549    -1376      112 
    2633     4372     4146     1717    -2491    -7658   -11297    -9761 
   -1896    10024    23008    34886    44869    52517    55508    52531 
   46232    39229    31963    25258    20877    19042    17407    14085 
    9291     3837    -1014    -3440    -1906     4165    13760    23844 
   29862    28594    20613     9229    -1074    -6403    -5960    -1863 
    2340     2704    -1456    -6766   -11648   -16282   -19087   -19729 
  -17403   -10331    -2274     2061     2382     -624    -5072    -9547 
  -14658   -19574   -22969   -24210   -22654   -19652   -17242   -15068 
  -12264    -8770    -3724     3112    10283    16617    20864    21674 
   19736    17020    14601    12548    11481    12967    17207    21976 
   24829    25115    23713    21269    17645    12885     6802     -764 
   -8050   -12856   -14935   -15321   -15167   -14860   -14004   -12597 
  -11730   -12646   -14477   -14523   -10913    -3188     8204    21795 
   35390    46883    54464    56544    53224    47020    40712    35567 
   31628    28561    26171    24694    24303    24863    26950    30991 
   35352    37536    36605    33712    30743    28371    26016    23921 
   23229    23641    23558    22285    20549    19384    19042    19204 
   20230    23144    28308    35211    42632    47998    48840    45580 
   40553    35097    29543    24089    18813    14604    12993    13986 
   15938    17611    19087    20821    22427    22753    20864    16325 
    8819    -1488   -13238   -24333   -33484   -41215   -48854   -56579 
  -63667   -69789   -74525   -77174   -76525   -70594   -59392   -46290 
  -35199   -28540   -27336   -31234   -38749   -48137   -56803   -61178 
  -59495   -52951   -43703   -33460   -23691   -15866   -10279    -5614 
   -1011     3152     6317     7871     7409     5467     2972      723 
     -14     2008     6856    13084    18077    20428    21686    24059 
   28518    35225    43208    50648    56101    58660    58558    57503 
   56189    53556    49337    43994    37704    31603    27570    26378 
   27372    29619    32575    35724    38552    40897    42638    43560 
   42850    38430    29112    16651     3757    -7317   -13765   -13537 
   -7456     1525     9565    13028    10593     4319    -1750    -4629 
   -3641      552     5563     7666     4623    -2635   -10755   -16029 
  -16049   -10272     -539     9679    17517    20673    17420     9760 
    1759    -4649    -7472    -5289     -148     5768    10435    11382 
    9317     6180     2383    -1552    -5946   -11066   -14614   -15110 
  -13250   -10217    -8670    -9902   -11991   -13629   -13860   -11510 
   -7775    -4372    -1788     -977    -3044    -8474   -16984   -26139 
  -32186   -33366   -30648   -25744   -20213   -15765   -13593   -13938 
  -16642   -20939   -25083   -27193   -26404   -22602   -16137    -8685 
   -2370     1864     4281     6429     9670    13021    15110    16474 
   17745    18003    16521    14412    13443    14841    19061    25439 
   32821    39938    45325    48500    50285    51080    50104    47390 
   44952    44268    44693    45047    44307    41830    38002    33234 
   27638    22124    17946    15518    14441    13734    11858     8112 
    3361    -1133    -3973    -3786     -272     5569    12051    17109 
   18651    16046    10284     2294    -6859   -15253   -20873   -21747 
  -16818    -7894     1490     9074    13776    14438    11005     5309 
    -595    -5520    -8343    -7916    -4861    -1706     -875    -3626 
   -9424   -16592   -24149   -31290   -36326   -37939   -36901   -35210 
  -33840   -32944   -32644   -32660   -32632   -31651   -28504   -23697 
  -18579   -13629    -8925    -4480     -468     3090     6773    10829 
   14738    17273    16930    13369     7734     2211     -373     1967 
    8861    17640    25213    29556    29268    24027    15989     8605 
    4396     4595     9065    15543    20618    22092    19605    14348 
    8521     3949     1866     3201     7827    13923    18285    18074 
   12821     4580    -3685    -9593   -11843   -10509    -6655    -1704 
    2514     4723     5679     7400    11251    17682    26086    33783 
   37803    37888    35722    32729    29974    28539    28692    29299 
   28827    26504    22373    16961    11454     7712     7111     9106 
   11413    12052    10348     6280     1017    -3364    -6043    -7842 
  -10353   -14894   -21309   -28597   -35811   -41640   -44670   -44014 
  -39766   -33644   -28316   -25633   -25674   -26889   -27063   -24649 
  -19922   -14893   -12036   -12931   -16853   -21049   -23150   -22153 
  -17743   -10600    -2477     5331    12387    18324    23356    28275 
   33554    39606    46002    50268    49936    45101    38263    32732 
   30232    29863    29847    29216    27711    24890    20560    15925 
   12372    10114     8988     8566     8243     8329     9366    11489 
   14919    19537    25220    31864    37897    40904    39886    35369 
   28145    19498    11693     6681     5110     7026    11969    18272 
   23810    26742    25709    20927    14118     7613     3757     3144 
    3920     4131     3516     2308      115    -3699    -9547   -16490 
  -22295   -25578   -26113   -23796   -19435   -15467   -14351   -16777 
  -21350   -25380   -26846   -25303   -20655   -13333    -5066     2367 
    7548     9076     7147     3956     1465      496     1150     2479 
    3193     3354     4100     5705     6822     6050     3359     -451 
   -4251    -6906    -8404    -9441    -9601    -7715    -3826      446 
    3409     4689     4810     3916     1979     -312    -1897    -2215 
   -1200     1354     6018    13051    21204    27638    30252    29455 
   26719    23082    19304    16115    14257    13791    13706    13073 
   11938    10536     8281     4547       -4    -3324    -3355     -101 
    4515     8140     8634     5209    -1306    -9522   -17714   -24201 
  -27614   -26641   -20844   -11825    -3174     1319       -2    -6023 
  -13536   -18362   -17361   -10065     1318    13085    21494    24298 
   22025    17187    12165     8552     7098     7273     7955     8525 
    8986     9646    10685    11750    12225    11144     7346     1349 
   -4659    -9331   -12720   -15151   -16258   -15205   -12437    -9613 
   -6971    -2930     3320    10942    18524    24523    27637    26786 
   21068    11257      405    -8213   -13098   -14633   -13792   -10893 
   -6830    -3890    -2788    -1762      948     5708    10869    13774 
   12999     8386      529    -8269   -14568   -15828   -11459    -3538 
    4383    10554    15399    19438    22475    24103    24696    25251 
   25663    24549    21429    17796    15518    15010    15760    17465 
   19023    18253    13920     6835     -496    -5189    -6054    -4215 
   -1663      405     1210     -342    -4256    -8980   -12718   -14271 
  -13920   -12656   -10270    -6677    -3243     -743     1247     2712 
    3372     3654     4069     4637     5272     5663     5043     3479 
    2304     2333     3447     5483     8155    11069    13587    14456 
   13073    10552     8605     8534    11011    15627    20458    22506 
   19763    13203     6245     2061     1729     4883    10346    15875 
   19058    18648    15073    10312     6801     5554     5856     6753 
    7335     6448     3577     -773    -5373    -8924   -11185   -12566 
  -13001   -12025    -9224    -4941     -176     4644     9254    12469 
