Origin Time       2011/03/11 14:46:00
Lat.              38.103
Long.             142.860
Depth. (km)       24
Mag.              9.0
Station Code      GNM006
Station Lat.      36.5105
Station Long.     138.7527
Station Height(m) 549
Record Time       2011/03/11 14:47:32
Sampling Freq(Hz) 100Hz
Duration Time(s)  300
Dir.              U-D
Scale Factor      3920(gal)/6182761
Max. Acc. (gal)   41.533
Last Correction   2011/03/11 14:47:17
Memo.             
[...]
  -10796    -2656    -5078   -17816   -32137   -39259   -35129   -20846 
   -3025    11498    19173    17303     6393    -6956   -14352   -11187 
      58    11388    15333     8304    -8135   -27670   -43359   -49606 
  -42375   -22570     1973    20130    23503    10619   -12292   -34272 
  -45653   -42808   -27720    -6403    12018    18617     8785   -13614 
  -36175   -46352   -39527   -20383      753    14729    16392     3072 
  -22068   -47411   -60534   -56151   -36877   -11262    11022    23774 
   23888    11193    -9057   -27039   -34244   -28499   -14303      378 
    8695     8538     2621    -5923   -16124   -25902   -32334   -35134 
  -34476   -30432   -25491   -21519   -17382   -11960    -6459    -4136 
   -6791   -12542   -19038   -24381   -26061   -22926   -15637    -6189 
    1654     4399     1780    -2701    -4458    -1869     4099    12172 
   18851    19013    11151    -1656   -14887   -23921   -24843   -17178 
   -5117     4312     4816    -5058   -20657   -33710   -37042   -29251 
  -14828      350    11666    15278     9558    -2714   -14896   -19865 
  -14703    -2307    10770    17472    14156     2129   -14916   -32022 
  -42778   -42602   -31939   -15006     1963    11628     9196    -3891 
  -19827   -28968   -27191   -17653    -6569      480     1325    -3272 
  -12706   -24392   -31600   -29000   -16156     3365    21016    27487 
   20234     3772   -13762   -24847   -25586   -15272     1556    14832 
   15840     2375   -20210   -40653   -48996   -43040   -27924   -11916 
   -1580     -279    -9105   -25160   -41203   -49118   -44665   -30513 
  -12863     2788    11802    11782     3695    -9168   -21443   -27507 
  -25573   -18762   -12107    -9332   -11039   -14857   -17707   -17897 
  -15500   -11207    -5571     -709     -967    -8971   -22252   -35250 
  -42410   -39820   -27260    -9089     7344    15706    14127     5104 
   -6233   -15214   -19549   -18459   -12489    -3681     4034     5045 
   -4064   -20256   -35127   -41153   -37037   -27446   -18664   -14448 
  -14955   -18938   -25309   -31702   -34623   -31610   -22586   -11751 
   -5885    -7506   -13312   -19922   -27086   -34356   -37198   -30952 
  -17052    -1186    10644    13526     5760    -9538   -24556   -30307 
  -22979    -5834    13406    25088    22491     6742   -14177   -30553 
  -35043   -24527    -1921    23269    38296    34265    13160   -13297 
  -33379   -42317   -40273   -28846   -12624      307     2959    -6727 
  -24626   -40891   -46388   -40084   -27555   -15334    -7234    -3561 
   -4311    -9614   -16524   -20430   -18261    -9801     1549    10587 
   12980     6952    -4556   -14935   -19442   -17185    -8666     3222 
   12224    13135     4953    -8972   -21207   -24389   -16695    -2550 
   10551    16882    14674     4599   -10610   -26376   -37831   -40711 
  -33095   -17732    -1434     9208    12287     9463     1491   -11233 
  -25120   -33614   -31262   -18351    -2068     8443     8984      961 
  -12419   -26444   -35434   -36617   -30443   -19632   -10871   -11235 
  -21116   -34419   -42943   -40845   -29760   -16979    -7819    -3139 
   -2054    -3694    -6565    -8228    -6911    -3421     -561    -1249 
   -7684   -18276   -25891   -24308   -14462    -2930     2797     -491 
   -9238   -17389   -20859   -17621    -8271     3571    12859    14711 
    7160    -6899   -21809   -31175   -29695   -17779    -2613     7098 
    6493    -3488   -18031   -31486   -38030   -32995   -16467     5078 
   21794    26742    19894     5806   -10594   -24650   -31459   -28171 
  -16352    -1759     7926     7409    -3044   -18026   -29379   -31436 
  -25277   -15252    -4756     2655     2795    -6938   -23412   -36441 
  -37143   -25138    -6110    11133    17642     9670    -9939   -33821 
  -52626   -59239   -53084   -39773   -25885   -15845   -12142   -14894 
  -21970   -29292   -31563   -25883   -14097     -702     9443    11118 
     770   -18743   -38048   -47268   -41512   -23135     -987    14495 
   17038     6031   -13790   -32772   -41671   -38092   -25103    -8171 
    4248     5281    -3794   -15831   -24194   -25910   -21841   -14952 
   -8486    -4951    -5332    -9273   -14339   -16075   -12234    -4869 
    1380     2454    -1046    -5225    -7352    -6094    -1232     5319 
   10219    10091     3550    -6742   -15532   -18732   -15898    -9416 
   -1721     4770     6429      684   -10607   -22725   -31520   -33044 
  -25077   -10661     3595    11087     8721      257    -7353   -10328 
   -7774      211    10575    17036    15089     5791    -6606   -17307 
  -21930   -19377   -12290    -4724    -1577    -6037   -15854   -25578 
  -30877   -28668   -17995    -3131     7578     7009    -5905   -25691 
  -44606   -54883   -50209   -31776    -9017     8113    13567     6324 
   -8668   -23652   -32729   -33497   -26279   -13433      725    11468 
   15158     9413    -5186   -23737   -39823   -48662   -47714   -37646 
  -23211   -10967    -5258    -7058   -15319   -26880   -36905   -41338 
  -38071   -26999   -11018     3945    12199    11988     5435    -3955 
  -12488   -16074   -11697     -993     9741    14609    10759    -1273 
  -15446   -22890   -19679    -8578     5735    18744    24826    18819 
     -48   -25243   -44249   -47525   -35610   -16608    -1708      776 
   -8053   -19845   -25449   -18879    -1286    18698    30477    27226 
    9027   -16894   -38551   -45508   -35808   -15802     4200    14327 
   10761    -1927   -15320   -23711   -25625   -21433   -13289    -6023 
   -4753   -11343   -23288   -35945   -45842   -50288   -45919   -32085 
  -13845      838     6120     1481    -8961   -19693   -26273   -26488 
  -20551   -10719    -1628     1045    -4696   -15189   -24651   -28524 
  -24625   -14239     -842    12507    21692    21370     9790    -8862 
  -26657   -35602   -31630   -17893    -3355     4055     1674    -9082 
  -23697   -35740   -40934   -37484   -24406    -5960     9011    15741 
   14844     8247     -779    -7250    -7495    -1389     9203    22203 
   34034    39263    34366    20174     1007   -16682   -27813   -31976 
  -31670   -29619   -28716   -31569   -38797   -47268   -51601   -48783 
  -38390   -21359    -2279    12093    17768    15074     7828     -116 
   -8442   -16951   -23357   -27044   -28555   -27546   -23463   -16069 
   -6210     4875    14669    18140    12697     1750    -9015   -16349 
  -20171   -20766   -17270   -10099    -3535    -3274   -10599   -21948 
  -33384   -41160   -41577   -34076   -21712    -9464    -3026    -6415 
  -19060   -35035   -45858   -44468   -28697    -3158    22693    38818 
   39445    25411     2671   -19388   -32093   -33122   -25783   -14040 
   -1193     8621    10885     2766   -13088   -27710   -33434   -28376 
  -15017    -1298     4231      457    -8267   -16726   -20393   -17296 
   -8395     3029    11996    15030    13283    10765    10476    12597 
   13625     7676    -7302   -25332   -37040   -35968   -21619     -511 
   17920    26913    23415     8538   -11814   -29520   -37607   -31951 
  -13825     7545    19675    15833    -1982   -25055   -42574   -47633 
  -38452   -18029     4755    19362    19518     5021   -17490   -37024 
  -45717   -43037   -31471   -13357     6275    20385    22630     9133 
  -15635   -39271   -51924   -51131   -39170   -20931    -3096     7313 
    5267    -9422   -29592   -44874   -48848   -39755   -21144    -1237 
   14160    21719    16316    -1616   -21740   -33751   -32191   -15392 
   10515    32758    40584    31533    11032   -13358   -34361   -44151 
  -37779   -17842     5345    19617    17665      564   -21153   -34091 
  -31917   -16895     4322    23559    32881    28516    13980    -1796 
   -9590    -5723     5900    17349    21049    13563    -1247   -13992 
  -17037    -9787     2101    10407     9367     -745   -15330   -29298 
  -39327   -43665   -42148   -37510   -32324   -26880   -21531   -16522 
  -12727   -11118    -9906    -7881    -6312    -5130    -2608     1162 
    3275     1681    -2244    -6257    -9242   -10069    -8579    -6870 
   -6731    -8552   -12343   -16639   -18823   -17771   -14232    -9814 
   -6759    -6304    -5642      579    12767    23671    25605    16559 
    -200   -18048   -30457   -34361   -29284   -16746     -840    12585 
   15690     2730   -21780   -43657   -49025   -34332    -8670    14432 
   25675    21401     2631   -25518   -53515   -69731   -67706   -49053 
  -21357     3806    15727    10448    -7412   -28939   -46705   -55102 
  -50653   -35443   -16219       74     7625     2701   -11233   -23700 
  -25248   -12520     9290    29584    40547    37372    18102   -11610 
  -40227   -56786   -56502   -42479   -22552    -5501     2457      185 
   -8046   -15986   -20168   -19671   -14694    -7204     -801      478 
   -5068   -15509   -26119   -31072   -28695   -22429   -15516   -10669 
  -11078   -18048   -30250   -43387   -49689   -41566   -18720     9169 
   28098    29457    15016    -8111   -32599   -49713   -51314   -36483 
  -12771     9125    19856    15000     -907   -16996   -23833   -17544 
   -1541    14435    21598    18396     8407    -4910   -19214   -31002 
  -35463   -30339   -19178    -9076    -5318    -8512   -15635   -22040 
  -23722   -20818   -16677   -12583    -7655    -2041     3117     6707 
    8049     7381     4935     -387    -9186   -19336   -27127   -29901 
  -28822   -27910   -27957   -26091   -21481   -15974   -10727    -5031 
    2534    12966    24943    33375    32614    20920     1569   -19905 
  -37655   -45030   -38682   -22105    -3021     8980     6714    -8849 
  -29861   -46752   -51505   -41665   -22896    -5217     2459    -3996 
  -20617   -36855   -43436   -38783   -28012   -17915   -13718   -16327 
  -21196   -22214   -16588    -6645     2303     5014    -1572   -15963 
  -31970   -40542   -35041   -17728     2295    14740    11550    -8894 
  -39285   -65039   -71372   -53579   -20543    12418    32647    34436 
   20613      776   -15264   -22685   -21335   -13563    -3558     4079 
    7058     5310      450    -4499    -9196   -15181   -20478   -21207 
  -15383    -5008     4084     7631     5446     -552    -6741    -8658 
   -3351     7476    17005    19697    14762     3712    -7592   -12151 
  -11084    -8334    -2341     6904    11776     6646    -4190   -14721 
  -22189   -24042   -21309   -18010   -14537   -10250    -8394   -12028 
  -20026   -30062   -39337   -42173   -34358   -18266     -142    13309 
   16074     5731   -14266   -36598   -53832   -58992   -47326   -21333 
    9792    34779    44654    36733    14847   -11289   -30110   -37251 
  -35157   -23930    -2399    21142    32386    26420     8509   -13722 
  -33251   -46752   -52867   -47917   -31124    -8154    14897    31354 
   33989    23941     8451    -8133   -22258   -28138   -23383   -14098 
   -9845   -15942   -30794   -45855   -51013   -41178   -17635    10795 
   32813    44399    46163    38308    24253     9974    -1404   -11497 
  -23036   -34593   -43127   -47959   -47677   -39968   -25761    -9917 
    1440     4558      437    -6068   -10916   -13381   -13015    -8732 
    -905     8661    17208    20959    16521     3014   -17103   -37991 
  -52204   -55742   -49993   -39820   -31760   -29169   -30867   -35504 
  -39507   -35695   -21954    -3852    12060    19252    12482    -6226 
  -29120   -47808   -54318   -44043   -20468     4452    17651    14326 
   -1299   -20538   -33666   -33320   -17354     8315    31122    39921 
   30354     6982   -17632   -32028   -32572   -21897    -8009     -566 
   -3342   -14383   -28676   -38453   -38359   -28427   -11027     8742 
   21118    18421     3779   -12889   -23546   -24052   -15328    -4070 
    2835     4251     2458     -274     -616     2899     6446     6672 
    4571     1294    -2861    -6853    -8991    -6271     2732    13084 
   17740    14631     5563    -6227   -16977   -23550   -23305   -16728 
   -8900    -4415    -4205    -8392   -16833   -25807   -29812   -26239 
  -15136     -440     8401     4030   -11530   -30173   -44060   -47751 
  -39179   -22268    -5497     3421     1296    -8101   -17765   -24415 
  -26837   -24331   -20248   -19266   -22529   -25783   -21524    -8494 
    6674    18464    23660    18619     2786   -17131   -29659   -27282 
  -12842     2850    11000     9710     -182   -15657   -31119   -41324 
  -41936   -31243   -12677     6804    19776    20938    10031    -6926 
  -20490   -23003   -12465     7078    27806    40456    36960    15434 
  -15415   -39046   -41486   -21202    10354    38625    54567    53799 
   36328     9065   -16392   -28854   -23592    -5873    13085    24352 
   24809    14708    -1930   -17202   -24962   -23442   -14189     -492 
   14686    25134    21814     3018   -23500   -46431   -55428   -45553 
  -19993     9763    28938    27780     5317   -29176   -58336   -68053 
  -56733   -31156     -458    23127    28131    12237   -15533   -39668 
  -48251   -39801   -21932    -7368    -5246   -14045   -27072   -38506 
  -42942   -37702   -25316   -11272    -1635     -298    -6420   -15716 
  -21743   -18581    -7033     5565    12437    11777     5471    -4514 
  -15604   -23151   -23756   -17100    -6185     1864      720    -9083 
  -20813   -26670   -23368   -13165     -742     8602    10362     3465 
   -8868   -20792   -26688   -25017   -19544   -15649   -17002   -24483 
  -34814   -41609   -39220   -25334    -3557    17043    28603    27861 
   14814    -5473   -22907   -28621   -19768    -1215    16143    23378 
   18756     6174    -6467   -10788    -3298    14420    37279    54574 
   53760    31541    -3080   -34855   -50308   -44910   -22795     7230 
   32447    41240    30791     7120   -18766   -35116   -36408   -26040 
  -11206     1027     4863    -1234   -13218   -24143   -28499   -25149 
  -17290   -10679    -9269   -12274   -16948   -20478   -19088    -9812 
    6176    22932    31579    25147     5257   -19280   -40122   -51694 
  -52088   -43508   -28397   -10231     3776     7069    -2237   -19994 
  -36474   -42636   -35253   -17208     4019    21612    33065    37011 
   31826    18939     2974   -11200   -19870   -21035   -14803    -3741 
    7329    13677    13418     7681    -1030    -9867   -16597   -20517 
  -21094   -17571   -11200    -4405      838     1566    -3905   -12559 
  -20136   -23968   -22455   -16150    -7338     -451    -1151    -9106 
  -17969   -23064   -21848   -14217    -6361    -5339   -11689   -21350 
  -29632   -33010   -30452   -23249   -13328    -2224     7684    12103 
    7926    -2040   -10580   -12526    -6496     5642    17867    24482 
   24050    16900     4764    -8250   -17731   -20690   -16950   -10046 
   -4133    -1231    -2013    -5270    -8786   -12555   -17435   -22882 
  -27659   -29809   -28018   -23472   -16817    -7081     3582     9272 
    6294    -3367   -15521   -27346   -36025   -38870   -36104   -30136 
  -23429   -18726   -19026   -25305   -34111   -39460   -38171   -31381 
  -22333   -14988   -11918   -13298   -18723   -26876   -34172   -36629 
  -32924   -24411   -13193    -3051     1001    -2131    -8106   -11676 
  -10013    -2851     6453    11018     6242    -6226   -21843   -33943 
  -33693   -19339     1310    21484    36094    38015    24736     1005 
  -23224   -36457   -35314   -24526   -10392     -898     -703    -6979 
  -15546   -23176   -25157   -17342     -974    15550    22674    17363 
    2187   -15921   -24707   -16708     2497    21335    28688    19188 
    -774   -20787   -34460   -35355   -20119     3289    22314    29512 
   21105    -1429   -27739   -45193   -45878   -28338      461    27186 
   39457    31264     6458   -22112   -41605   -46034   -35245   -13892 
    8172    20332    18419     5781   -10146   -21294   -23825   -18117 
   -6137     5782     9018       85   -18326   -39963   -55822   -57180 
  -42373   -17822     6616    19538    14310    -4720   -28874   -49684 
  -58375   -52130   -35436   -15703    -2754    -3259   -14350   -27973 
  -36838   -36170   -25568   -10256     2487     7587     1711   -14489 
  -33899   -48000   -50826   -40445   -21534    -2914     7785     6994 
   -2503   -13369   -19670   -19032   -12120    -2091     7580    13988 
   14372     8104    -2017   -11114   -15038   -15273   -17709   -24163 
  -30887   -33729   -31317   -25086   -16694    -8011    -2043      113 
   -1235    -7548   -18298   -27355   -29320   -25121   -18203   -11913 
   -9644   -11279   -12976   -11887    -7460     -802     4734     5236 
    -898   -12526   -25429   -32511   -29521   -19606    -8304     1229 
    6208     4015    -4268   -13826   -19514   -17198    -5728     9662 
   20108    20747    13510     2898    -7558   -12820    -6296    11984 
   32558    44843    43324    28633     6613   -15539   -31467   -37038 
  -32705   -22185   -10424    -2627    -2006    -8876   -20780   -32663 
  -38326   -34050   -22834   -11767    -4743    -2253    -5183   -12748 
  -19700   -20656   -15322    -7898    -3735    -6489   -16230   -29757 
  -42570   -50394   -50444   -42562   -29390   -16074    -8800   -11723 
  -24269   -40903   -54006   -57387   -48944   -32746   -16732    -6401 
   -2834    -5733   -13370   -20623   -22644   -19554   -14547    -9806 
   -6136    -4705    -6430    -9727   -12033   -12998   -14291   -17906 
  -24305   -31051   -33902   -29097   -16403     -937    10878    16095 
   14040     5599    -4838   -11826   -12311    -5076     8854    24395 
   34218    32298    16824    -7055   -29138   -40699   -38275   -24679 
   -9257    -2233    -6246   -16690   -27329   -33047   -31948   -25194 
  -14360    -2374     5814     7595     4620     -196    -4622    -7221 
   -7181    -5152    -3625    -4099    -5865    -7989    -9603    -9278 
   -5668      855     7159     9629     7136      847    -6983   -13649 
  -16833   -15676   -10955    -3819     3634     8209     9566     9353 
    6342    -1011   -10816   -20013   -26457   -28904   -26589   -19196 
   -8868    -1097     -980    -9131   -21430   -31588   -34844   -30249 
  -20206    -8717      587     4266    -1152   -15226   -31775   -42557 
  -41924   -30761   -15786    -4245     -601    -5762   -16930   -28602 
  -35203   -34222   -26648   -14906    -2506     5247     3767    -6879 
  -21636   -33995   -39738   -37413   -27625   -14548    -5183    -4437 
  -12064   -23064   -30502   -30060   -21420    -7021     8133    18421 
   20872    16172     7441    -1635    -7558    -7581    -1910     5608 
   10624    10421     3773    -8261   -21632   -30186   -30036   -23455 
  -15793   -11336   -12083   -16773   -21612   -22542   -17199    -6480 
    5170    12222    10997      114   -18375   -37733   -50285   -51801 
  -42032   -24889    -7394     4251     7072     1843    -6182    -9501 
   -3720     9041    21987    29111    28156    19607     6682    -5131 
  -12039   -13150    -8676     -742     6756    10490     9512     5867 
    2198     -338     -810     1514     5431     7890     5532    -2612 
  -13327   -22005   -25662   -22873   -14240    -3211     4931     5274 
   -4104   -20080   -35548   -44107   -43247   -34234   -21343    -9940 
   -4126    -5041   -10490   -17815   -25444   -31378   -34264   -34410 
  -32438   -28972   -24462   -19700   -16434   -15178   -14911   -15554 
  -16909   -17487   -16724   -14995   -12829   -12168   -14791   -19500 
  -23310   -23868   -20436   -14919   -10784    -9123    -8358    -7886 
