Origin Time       2011/03/11 14:46:00
Lat.              38.103
Long.             142.860
Depth. (km)       24
Mag.              9.0
Station Code      GNM002
Station Lat.      36.7821
Station Long.     138.9695
Station Height(m) 494
Record Time       2011/03/11 14:47:37
Sampling Freq(Hz) 100Hz
Duration Time(s)  256
Dir.              U-D
Scale Factor      3920(gal)/6182761
Max. Acc. (gal)   34.473
Last Correction   2011/03/11 14:47:22
Memo.             
[...]
   -9777   -12537   -13814    -9460    -6831   -12187   -15874   -10323 
   -2182     1093     3452     7249     3767    -7188   -15921   -20955 
  -22628   -19416   -14547    -8435    -3024    -6441   -15878   -21746 
  -22713   -19955   -17041   -17387   -17173   -15957   -18603   -25472 
  -29671   -21808    -5222     4343     1574    -6598   -15803   -20201 
  -15146    -9403    -9907   -12213   -11718    -4384     7466    12036 
    6032    -4941   -17160   -22866   -18409   -13293   -16080   -25718 
  -31206   -24708   -14602    -8788    -8702   -15085   -18262   -11799 
   -6290    -9334   -18004   -25436   -25388   -17283    -4821     2199 
   -2222   -10290   -16424   -19489   -17593   -13333    -8417    -6429 
   -9610   -10794    -9998   -12977   -18140   -20090   -13862    -7235 
   -8949    -7599    -1911    -7361   -18743   -24747   -27526   -21845 
   -8051       88     1950    -2798   -16987   -25764   -24962   -24089 
  -17364    -4151     1260    -5151   -12790    -9940     1671     5990 
   -5724   -20101   -23580   -23306   -22388   -10822     2995     -993 
  -19090   -28763   -22564   -14450   -11450    -6914    -1124    -2998 
  -13886   -20794   -12775     -600      427    -4010    -7267   -15143 
  -20456   -12699    -2753    -1266    -4252    -6140    -4751    -3349 
   -5389    -6776    -5424    -4786    -4515     -556     7543    11524 
    2286   -13785   -21323   -16940    -8175    -1015     2545     1175 
   -6639   -16922   -21847   -20776   -19597   -18355   -10854    -1610 
   -2085    -9608   -16940   -23358   -22629   -12272    -5598    -8718 
  -12972   -16561   -20511   -19633   -15313   -11846    -8914    -8621 
  -11771   -15810   -20090   -20316   -12434    -4209    -4141    -9676 
  -14608   -16530   -17652   -18707   -16195   -13008   -13871   -11401 
   -4617    -6340   -16188   -24242   -25710   -15671     -108     5388 
    -753    -8662   -14049   -19959   -23768   -17355    -7071    -5308 
  -12415   -24846   -32438   -22652    -4392     3055    -2804    -9356 
  -10584   -16800   -28792   -30728   -23752   -20861   -18880   -10514 
   -2567    -6123   -17027   -21581   -17784   -13768   -15647   -19152 
  -13310      113     9292     7894    -4526   -21022   -29268   -21758 
   -6182     -652    -9138   -19524   -20554    -8158     5342     3714 
   -6768   -14177   -18424   -18823   -17661   -20418   -23015   -20201 
  -12463    -3662    -2447    -9685   -13229    -6522     1893    -1134 
  -14475   -21777   -16357    -8168    -3309      786    -1768   -19285 
  -35417   -27227    -5664     3957      -47    -6084    -8769    -6385 
   -1177    -1470    -9494   -15909   -16878   -21010   -27406   -24368 
  -14722    -9580   -11466   -17401   -20957   -18891   -15560   -13952 
  -13564   -14477   -13983   -10245   -10031   -15172   -17043   -13050 
   -7007    -2977    -3961    -9063   -19099   -30840   -30684   -17792 
   -8870    -8480    -7528    -6126    -6990    -7100    -9749   -14332 
  -12738    -7897    -6102    -9020   -17120   -23478   -19913   -10914 
   -9205   -16018   -21105   -19118    -9451     2258     5266    -1888 
  -12190   -17427   -14745   -11208   -12322   -17726   -24518   -25453 
  -18747   -11505    -7839    -7943   -12775   -19064   -18744   -11734 
   -7115    -9370   -15984   -20799   -17436    -8478    -1981     -817 
   -3810    -8322   -10872    -8954    -4505    -4329    -9685   -13701 
  -13312   -12718   -13780   -13355   -12654   -13482   -11680    -8611 
   -8660   -10087   -12360   -12385    -5581    -1235    -9232   -20414 
  -21876   -16007   -11928   -12022   -13392   -16151   -21250   -21056 
  -12513    -4292    -2001    -7137   -12050    -6939     -105      464 
    1560     4549    -2109   -21644   -37117   -34032   -17306     -872 
    5534     1360   -10883   -29008   -42477   -37259   -16101     -153 
   -2105   -11081   -15300   -16192   -15973   -12182    -5225    -4789 
  -12719   -16361   -13891   -10362    -6995    -8964   -12569    -9820 
   -7412   -10920   -12221    -5454      290    -5087   -13884   -14737 
  -12266   -12070    -7394     1516       90   -14713   -26522   -24599 
  -14365    -4685    -1265    -6888   -20633   -34579   -35121   -22010 
  -11268    -8407    -5592      317     5315     3743    -1855    -3790 
   -6527   -13021   -13625    -8970    -4210     1579      -17   -12419 
  -23397   -25699   -19485    -8086      293      135    -6384   -12030 
  -13869   -14813   -11180    -2371    -2434   -15931   -29754   -32987 
  -23839   -12891   -13538   -20325   -23860   -28307   -29229   -13135 
   10251    16830     8450     2520    -1188    -6500    -7967    -6748 
   -8312   -10467    -9735    -7861    -5738    -2591    -1197    -1693 
     852     1995    -6172   -15262   -17099   -17888   -18834   -14931 
   -8354    -5576    -8351   -11363   -13901   -17169   -12618    -1927 
    1352    -3048    -9102   -10751       -3    11704     5446    -9556 
  -16671   -18344   -17245    -9511     1000     2861    -8727   -21468 
  -21036   -12813    -8625    -8524   -10896   -15171   -15788   -10878 
   -5141    -3900    -9099   -15009   -16207   -16139   -15658   -10168 
   -3084    -3738   -13021   -20002   -16563    -8994    -4660    -2895 
   -4570    -9825   -15400   -21998   -25234   -16038    -2020     -752 
  -13232   -22585   -19019   -10500    -5917    -9310   -19672   -27105 
  -26172   -19358    -7867     2853     4554    -1314    -8850   -16213 
  -18969   -13545    -6624    -3688    -2083    -3314   -10297   -13227 
   -3392     5809     1602    -7432   -16177   -25815   -28011   -19106 
   -9664   -11931   -18882   -15101    -8658    -6916    -1743    -2029 
  -15495   -24566   -17646    -6453    -6653   -15396   -17197    -9926 
   -5769   -10952   -18036   -18701   -13658    -6688      320     4908 
    2002    -6486   -10315    -9004    -9388    -9712    -6593    -7204 
  -16922   -25727   -23220   -13095    -7484   -10284    -8755     2151 
    6527    -4176   -19620   -26165   -17391    -2787     2918      756 
   -2996    -9235   -18869   -27772   -26614   -16012   -10472   -12736 
  -13975   -13056   -11733    -9735    -9424    -9552    -5026    -1506 
   -6914   -14097   -13177    -5279     -599    -6183   -15710   -18772 
  -12477    -5686    -8004   -14055   -17935   -22398   -22832   -14108 
   -3131     1513    -3120    -9224    -5940      389      155    -1194 
     152    -1824    -8931   -14789   -15712   -14381   -11753    -8156 
   -7911   -10300    -9322    -6308    -6111    -8597   -12243   -13701 
  -11613   -13577   -19365   -15812    -5033    -3277   -10504   -14776 
  -15672   -16606   -12634    -6310    -7379   -11758   -12251   -12946 
  -16535   -19791   -18712   -15473   -18268   -22000   -15950   -10360 
  -18196   -29109   -27900   -17351    -9697   -11465   -16645   -13085 
   -5506    -8620   -18208   -24050   -26886   -26105   -19875   -11617 
   -7911   -12529   -17656   -15766   -13162   -16207   -22567   -26949 
  -26033   -22000   -15220    -2099     8836     2716   -16399   -30371 
  -32429   -31231   -31395   -26799   -15637    -7783   -13634   -25242 
  -25608   -19683   -19398   -19800   -20320   -23562   -20037   -10649 
   -6626    -8632   -15454   -23716   -23556   -16496   -12739   -13782 
  -15574   -18459   -23783   -24815   -16872    -7485    -4323    -7894 
  -13429   -14853   -11725    -8562    -8422    -9910   -10187    -9993 
  -14282   -22937   -26661   -23807   -23228   -24434   -21352   -16772 
  -13875   -13010   -16368   -18554   -11854    -2717     -931    -6304 
  -13994   -20632   -26541   -29197   -22243    -8605      709     -619 
  -10054   -20629   -26340   -25222   -21269   -17517   -14157   -14949 
  -18525   -16166    -9248    -9933   -17746   -18716   -16142   -20567 
  -20887   -15210   -18350   -24982   -23556   -17704   -16335   -22189 
  -27117   -25534   -19484   -13031   -11195   -10967    -8120    -7090 
   -8355    -8543   -10577   -16027   -19864   -19998   -20685   -21794 
  -16115    -6661    -5666    -9793    -7611    -4436    -8901   -12907 
  -10219   -10113   -16806   -23005   -23269   -16695    -6019      689 
   -2933   -10138   -13402   -18454   -25339   -24579   -17388   -14485 
  -19610   -23429   -21224   -19046   -14946    -7308    -5991   -13689 
  -20525   -20544   -19857   -24503   -29552   -25726   -12681    -2588 
   -2124    -4653    -8606   -17051   -25012   -27176   -24049   -19689 
  -18696   -17012    -8769    -2064    -7401   -20427   -26810   -21758 
  -16483   -16217   -14118    -8580    -5060    -8221   -13144   -14317 
  -19132   -23815   -13826     1821     4842    -4406   -13644   -14369 
   -8927    -5178    -7268    -8499    -2198     2399    -3958   -17285 
  -29140   -31334   -20940    -6726    -1940    -6487   -11532   -16961 
  -22560   -22470   -17928   -16364   -20179   -24539   -23941   -18067 
  -14611   -20044   -25775   -19131    -3355     4408    -2978   -11048 
  -11607   -14476   -20238   -18894   -10557    -3305    -1871    -6671 
  -14873   -20791   -21815   -16958    -5883      946    -3715   -12343 
  -20655   -23904   -16686    -8778    -8257   -12724   -17052   -12910 
   -4439    -3824   -10793   -21068   -28075   -24180   -14726    -7883 
   -3551     -430      331    -5056   -15826   -24340   -26865   -22562 
  -13568    -7900    -9163   -15425   -20736   -17048    -6480      577 
   -2586   -12768   -20134   -19428   -12141    -3327     -116    -6844 
  -19164   -26812   -25858   -19059    -9122    -2539    -5919   -15727 
  -23496   -26185   -24307   -18471   -12328    -8628    -7648   -11351 
  -13897    -8588    -6481   -15931   -25937   -24965   -14462    -6496 
   -7666   -10476   -10533   -13154   -19080   -20782   -15695    -9569 
   -4868     -564     1658     -730    -6907   -12250   -14153   -14428 
  -14527   -13345   -11099   -11349   -14412   -13791    -7868    -4943 
   -6269    -5864    -6154    -8372    -9388   -11686   -12365    -7349 
   -2492      314     1118    -3680   -11422   -15813   -13413   -10148 
  -13220   -14398   -11136   -13940   -18576   -15895    -9825    -6234 
   -7060    -7709    -3523    -1149    -3070    -4803   -10225   -17211 
  -16606   -11000    -6199    -3245      315     3982    -2898   -18008 
  -22515   -15847   -11702   -12505   -14906   -16709   -17125   -19895 
  -24600   -26310   -24333   -19804   -16529   -16063   -12622    -4705 
    1030    -4075   -18068   -25227   -22054   -20863   -22385   -18025 
   -9903    -5696    -4644    -5371   -13554   -24686   -24119   -14250 
   -8096    -4377    -2690   -10428   -18887   -16306    -7884       -8 
    5108     4623    -1256    -8050   -10806   -10476    -8990    -5968 
   -4427    -3039      -22    -3394   -12974   -17034   -13768    -9787 
   -8000    -9988   -11936    -4401     7103     8897     5376     4671 
    2199    -3478    -5972    -3111    -1239    -5091    -7655    -2963 
    4521     9977     9526     1773    -6682    -8800    -4584      759 
    1866    -2939    -9460   -10832    -7515    -7632   -14881   -22569 
  -22514   -17155   -13637   -14105   -17601   -17444    -9345    -1321 
    1281    -1916   -13775   -26589   -26489   -16591   -10317   -13035 
  -22786   -30824   -27817   -18641   -13332   -10746    -8233    -9862 
  -13759   -12653    -9145   -12079   -20698   -24586   -21084   -17736 
  -16682   -13473    -6385    -3071   -10395   -19499   -22284   -20854 
  -17062   -14842   -14574   -11436    -4802     3211     3692    -8089 
  -17027   -13982    -7639    -4388    -6018    -9861   -11875   -15711 
  -20681   -18135    -7546      992      373    -4227    -5884    -7531 
  -14585   -24488   -27569   -17135      655    11439    10919     5994 
   -1583   -11875   -19780   -24786   -27377   -21976   -11544    -7030 
   -7891    -8097    -6748    -3649    -2729    -7549   -12382   -13483 
  -14188   -13706    -7886    -1193    -1176    -5391   -11414   -20469 
  -25286   -20407   -12222    -6693    -1774     3460      849   -11210 
  -19397   -18836   -17299   -15565   -11958   -11114   -14594   -19255 
  -17675    -6059     2535     1112    -1789    -5591   -10395   -11049 
   -8192    -4112     -845     -635    -2500    -2973    -3478    -7437 
   -8247    -2671     -155    -5775   -13794   -17018   -17589   -19195 
  -14680    -1470     7931     6341     4101     7623     8629     3674 
   -3248    -8434    -7869    -5983    -8068    -7897    -4047    -2820 
   -4674    -4028     1147     1745    -3521    -3343     -578    -4578 
  -11734   -11887    -4384    -2281    -8663   -16945   -27932   -35433 
  -33476   -27938   -20505   -16356   -20074   -15051     5033    13143 
   -4741   -25402   -32428   -29337   -13157     6777     9339     1264 
   -8329   -22823   -25073    -7652     8230    12149     6183    -3818 
  -11229   -19286   -24693   -26474   -37197   -47808   -44632   -35791 
  -22035    -5322     2220     2436      494    -7256   -21822   -34078 
  -34137   -26796   -19334   -12746   -16107   -31877   -38019   -19847 
    5437    17805    17457     6219   -18328   -38538   -32138   -10947 
     925    -4876   -22740   -31793   -24468   -13470    -1333     9062 
    8363    -3884   -17121   -16772    -6138    -1908    -9169   -24628 
  -38722   -39287   -28238   -13356     1435     8664     2821    -9573 
  -13280    -4628      925    -5812   -17974   -26334   -26732   -18142 
   -1952    10603     9759    -4744   -30467   -47954   -35825    -6359 
   12014     7606   -13314   -36884   -44866   -27534     5105    35339 
   42833    14697   -28843   -51582   -40899   -13202     1694    -8073 
  -25161   -35709   -33955   -12073    18233    33834    26481    -2205 
  -37783   -50062   -26632     4957     9807   -11384   -32095   -36955 
  -23595     4498    28296    28424     5906   -26204   -44348   -29435 
   -4386    -3556   -20940   -33933   -30735   -14981    -4172    -2909 
   -6905   -18820   -27855   -20782   -10493   -11282   -10667     -624 
    2105    -3122      959    10541    11768        9   -21694   -40192 
  -42541   -25597      936    13466     4601    -5875    -9824   -12282 
   -9869    -4525    -5408   -15781   -29170   -31007   -16752     2893 
   16851    18728     8415    -9020   -20894   -15162    -4418    -3942 
   -5304    -4942    -7646    -7310    -3235    -4225   -12260   -23246 
  -31372   -31926   -26200   -17227    -8764    -9848   -21773   -30720 
  -26722   -10999     9427    21744    17709     1023   -17324   -25806 
  -25095   -23938   -23632   -24655   -29818   -32974   -23118    -1276 
   16279    17453     4755   -13483   -26217   -26723   -22534   -22152 
  -20149   -14891   -14257   -13488    -8071    -4004      615     5109 
    3621     -340    -5743   -15190   -20712   -15434    -7110    -4838 
   -5900    -3469    -3422   -13363   -17934    -8558    -5937   -14852 
  -16929   -11572   -10973   -13122   -11165    -9177    -9372    -8616 
   -9566   -11071    -8680    -6555    -6792    -5627    -2014     -578 
   -8472   -18643   -18856   -19504   -29328   -30477   -11554    10492 
   16867     8312    -7465   -21660   -22095   -11371    -2748     2848 
    5394    -1599   -12271   -15109   -13262   -12751    -7511     4489 
   13615    14826     4021   -21500   -40856   -34930   -18972   -10077 
   -8242   -15783   -31203   -39807   -32379   -15818    -5128   -10202 
  -19795   -18832   -12334    -5126     1072    -4568   -20201   -28276 
  -22436   -10174     1475     7207     4379    -2864    -7342    -9277 
  -14277   -15754   -10566   -11145   -11947    -3577    -1091    -6319 
   -4909    -2188    -6701   -11945   -12983    -9759    -2574     3958 
    5083      456    -7298   -13014   -11452    -2285     5319     2212 
   -7366   -15809   -20474   -17077    -5277     4456     2885    -4761 
   -6791    -1896     4986    10567     7486    -5901   -20131   -26672 
  -16861     7013    22226    11207   -18449   -40665   -37717   -12763 
   19069    29652     9111   -12063   -15736   -13449   -12467   -15453 
  -20750   -17481    -4308     9741    18417    11407   -11244   -25552 
  -23414   -20463   -19889   -15047    -7272    -3638    -4190    -5342 
  -12808   -24290   -23311    -7504     8720    15147     9645    -1911 
   -8994   -10558    -9058    -2946     3311     2615    -5388   -11866 
  -12997   -18049   -23441   -18366    -9590    -2863     4054     5985 
   -3000   -16145   -20958   -19219   -21226   -25566   -25235   -15720 
    2011    13997    11559     2594    -8102   -16884   -18770   -19674 
  -24461   -29092   -29068   -23804   -15857    -4686     7889    15221 
   16043     9236    -4803   -18433   -26914   -23764   -11395   -13526 
  -31126   -39748   -38519   -34188   -19801     -661     6387    -3574 
  -19522   -26159   -17408     -617    11092    11682     2747   -14297 
  -30236   -32933   -30730   -33361   -28170   -11921    -1168     -252 
   -6523   -19942   -26358   -15114     2595    11248     3140   -17038 
  -37051   -47809   -40164   -12800    14474    19336     -913   -31835 
  -49271   -36636    -5897    19274    29373    21154    -4398   -32908 
  -46453   -36375   -12393     2223    -4184   -22653   -37011   -35883 
  -18416     2256     8475    -1032   -18044   -39241   -51341   -36403 
   -2902    18093    10723   -11757   -28029   -26406    -7978    14931 
   21213      899   -27166   -38654   -27020    -4936     6091     1441 
   -8617   -18823   -22738   -15929    -5171     3493     3058   -12312 
  -28452   -29432   -21244   -16476   -17878   -15330     -373    16447 
   21018    10021   -10020   -23547   -22349   -13063    -2824     3977 
   -1146   -14480   -16271    -8516    -3948     1790     2690    -6141 
  -12324   -14851   -15059   -12068   -12650   -13040    -8527    -5116 
   -3738    -2291    -3471    -8963   -14768   -19674   -24760   -22455 
  -11602    -7500   -15522   -21145   -21115   -25985   -29087   -21685 
  -13057   -10413   -13910   -21566   -26680   -23734   -12903      986 
   11049    11561     3375    -6197   -15666   -24101   -21057    -6167 
    6081     6752    -5286   -23165   -30706   -24730   -18416   -14192 
   -7067     -612     2647     3342      955    -2443    -3508    -1131 
   -2107   -13082   -27070   -38368   -42463   -25327     5322    20830 
   16785     7198    -3182   -14064   -21101   -20606   -18745   -23461 
  -28876   -26751   -16943    -3537     3472    -1048    -9886   -13894 
  -10321    -5401    -5369   -10210   -18455   -28956   -37620   -34996 
  -16861     5066    12087      903   -10852   -11583    -9625    -9575 
   -2474     7290     3061   -13868   -30137   -34392   -22485    -6047 
    3246     3217    -5789   -13238   -12230    -9921    -5547    -2647 
  -11337   -21019   -21324   -15472    -5474     1502     -478    -6644 
  -10041    -4763     4638     4021    -8084   -21561   -29481   -28382 
  -20754   -13787    -6645      614    -5098   -21930   -28198   -20061 
  -10768    -7469   -10218   -16253   -22265   -24673   -21879   -14904 
   -7429    -5545    -4770     -179    -2806   -11564   -13767   -14085 
  -16486   -14661    -8107    -2032    -3760   -13336   -22206   -23884 
  -15328    -5460    -6718   -13008   -16487   -17527   -13011    -4173 
    1748    -3630   -21679   -35917   -31850   -13677     3064     4576 
   -3791   -10812   -15454   -12847    -3731    -1963   -11807   -23527 
  -26722   -19630    -8210      487     2061    -2214   -10990   -24851 
