Origin Time       2011/03/11 14:46:00
Lat.              38.103
Long.             142.860
Depth. (km)       24
Mag.              9.0
Station Code      GNM004
Station Lat.      36.6171
Station Long.     138.5921
Station Height(m) 1222
Record Time       2011/03/11 14:47:42
Sampling Freq(Hz) 100Hz
Duration Time(s)  300
Dir.              N-S
Scale Factor      3920(gal)/6182761
Max. Acc. (gal)   44.806
Last Correction   2011/03/11 14:47:27
Memo.             
[...]
   27855    26361    20514    11842     3049    -3340    -5257    -1988 
    5018    13135    19792    23105    22507    18486    11995     4696 
   -1526    -5593    -7063    -5848    -2311     2635     7336    10314 
   11448    11459    10831     9567     7573     5002     2220     -152 
   -1331     -765     1726     5665     9793    12757    13749    12682 
   10213     7140     3733      176    -2841    -4432    -3964    -1189 
    3509     8889    13350    15631    15077    11939     7336     2138 
   -3715   -10337   -17046   -22465   -25272   -25119   -22657   -18769 
  -14307   -10204    -7221    -5733    -5843    -7563   -10965   -15677 
  -20262   -23024   -22866   -19439   -13646    -7430    -2559      -34 
     -88    -2143    -4972    -7274    -8374    -8011    -5734    -1537 
    3834     9449    14114    16784    17191    15652    12776     9183 
    5406     1810    -1086    -2262    -1296     1133     4386     7948 
   10701    11493    10056     6954     3250      192    -1068       14 
    2774     6064     9143    11424    12693    13349    13737    14052 
   14722    16048    17915    19911    21472    22107    21359    18761 
   14372     9467     6032     5115     6020     7028     6635     4242 
     -23    -5513   -11369   -16638   -19954   -20166   -17254   -12204 
   -6570    -2029       40    -1152    -5416   -11632   -18461   -24586 
  -28645   -29901   -28765   -26103   -22721   -19759   -18285   -18229 
  -18548   -18350   -17494   -16078   -14017   -11384    -8277    -4615 
    -442     3921     7761    10146    10512     8774     5198      660 
   -3345    -5438    -5007    -2372     1080     3385     3333     1049 
   -2712    -7270   -11940   -16065   -19571   -22767   -25550   -27561 
  -28476   -27908   -25695   -22065   -17481   -12563    -8032    -4690 
   -2856    -2160    -2224    -2351    -1216     1974     6582    10939 
   13821    15280    15727    15472    15294    16237    18815    22481 
   25730    26978    25347    20722    13886     6737     1402     -896 
    -182     1977     3472     3610     2915     1907     1052      662 
     496     -124    -1738    -3990    -5883    -6564    -5486    -3031 
    -336     1926     2817      900    -3935   -10273   -16212   -19991 
  -20656   -18223   -13708    -9045    -6009    -5244    -6286    -8074 
   -9629   -10641   -11360   -12041   -12893   -13955   -14523   -13743 
  -11658    -8639    -4506      638     5746     9519    11162    10818 
    9051     6464     3964     2278     1977     3236     5291     7312 
    9054    10786    12872    15365    17687    18553    17174    14004 
   10460     8480     9562    13891    20460    27624    33304    35685 
   34147    29494    23362    17027    11166     6195     2412      238 
    -228      254      616      591      707     1255     1987     2288 
    1576     -228    -2782    -5438    -7484    -8356    -7420    -4444 
    -353     3455     6046     6873     5615     2006    -3655    -9641 
  -13716   -14271   -10923    -5192      541     4511     6243     6653 
    6797     7125     7613     7840     7420     5693     2031    -3040 
   -8100   -11734   -13016   -11620    -7917    -2710     2793     6886 
    8379     7273     4715     1996     -339    -1808    -2072    -1339 
     256     2640     5431     8145    10473    11682    10975     8797 
    6193     3994     2553     1918     2445     4342     7623    11585 
   14489    15025    12945     9074     4503     -192    -3868    -5217 
   -4039     -835     2897     4993     4542     1961    -1955    -6541 
  -11437   -16246   -20050   -21905   -22089   -21206   -19218   -16462 
  -13539   -10640    -7864    -5475    -3571    -2342    -1998    -1615 
     175     3549     7716    11828    14743    15348    14057    12203 
   11143    11846    13961    16645    19185    20907    21565    21458 
   21310    21453    21983    23390    25904    28891    30966    30373 
   25696    16835     5595    -4728   -11132   -12286    -8419    -1144 
    6979    13481    17150    18255    17629    16184    14674    13163 
   11204     8796     6662     5626     6222     8425    11354    13926 
   15732    16804    17207    16982    16030    14093    10845     6124 
     206    -6139   -11819   -15805   -17466   -16513   -13312    -9259 
   -6025    -4826    -5969    -8546   -11155   -12823   -13286   -12749 
  -11362    -9105    -6063    -2429     1395     4535     5926     4874 
    1768    -1976    -4820    -5583    -3808       24     4793     9312 
   12695    14413    14560    13437    11040     7657     4292     2265 
    2501     4912     8407    11671    13782    14283    13304    11475 
    9823     9071     8868     8836     9198    10021    11116    12313 
   13547    14720    15507    15665    15113    13605    11060     8051 
    5239     3050     2182     3449     6903    11437    15428    17839 
   18648    18371    17543    16418    14762    12254     9004     5571 
    2698      701    -1026    -3350    -6384    -9668   -12541   -14225 
  -14525   -13834   -12680   -11950   -12742   -15521   -19719   -24367 
  -28713   -32135   -34105   -34369   -33083   -30775   -27965   -24782 
  -21258   -18028   -15979   -15260   -15377   -16074   -17201   -18116 
  -18302   -17905   -17224   -16584   -16190   -15973   -16272   -17846 
  -20890   -24671   -27809   -28588   -25587   -18768    -9858    -1462 
    4084     5516     3005    -1915    -6853    -9756   -10053    -8551 
   -6402    -4376    -2640     -941      891     3009     5547     8059 
    9888    10703    10239     8479     5913     3432     1935     1434 
    1291     1171      436    -2024    -6257   -10942   -14654   -16489 
  -16215   -14465   -12171    -9683    -6649    -2515     2831     8499 
   12941    15091    14859    12996    10701     8712     7040     5691 
    4987     5175     5916     6192     4857     1403    -3786    -9632 
  -14573   -17014   -16142   -12530    -8065    -4948    -4358    -5939 
   -8749   -12501   -16940   -20942   -23408   -23926   -22517   -19415 
  -15023   -10257    -6411    -4266    -3830    -4884    -7077    -9741 
  -12258   -14127   -14805   -14071   -12174    -9733    -7538    -6104 
   -5570    -5696    -6058    -6668    -7748    -9190   -10735   -11932 
  -11999   -10465    -7711    -4261     -274     3483     5470     4706 
    1499    -2764    -6409    -8277    -7871    -5230     -773     4818 
   10438    14826    17611    19153    19515    18871    17730    16111 
   13827    10868     6966     2112    -2799    -6320    -6960    -3998 
    1945     9276    16279    22023    26328    29074    30466    31200 
   31443    30562    27973    23494    17464    10687     3953    -1854 
   -5817    -7485    -7058    -5557    -4324    -4200    -5528    -8047 
  -11037   -14310   -18207   -22580   -26342   -27931   -26656   -22982 
  -17590   -11718    -6882    -4000    -3627    -5328    -7733    -9573 
   -9310    -5539     1659    10801    19867    26977    31056    31894 
   29678    25277    20070    15101    11534    10599    12493    16506 
   21709    27002    31484    34950    36834    35876    31713    24824 
   15998     6899    -1096    -7891   -13056   -15547   -15577   -14763 
  -14208   -13437   -11849    -9680    -7309    -5205    -3451    -1499 
     535     1700     1451       -6    -2200    -4671    -7010    -8778 
   -9647    -9546    -8580    -7103    -5292    -2836      123     2837 
    4962     6430     7232     7874     8581     8791     8335     7987 
    8909    11938    16698    21782    26128    29316    31299    32445 
   32933    32638    31120    27327    20797    12351     3429    -4384 
  -10116   -13696   -15481   -16184   -16840   -18112   -19788   -21412 
  -22585   -22661   -21153   -17949   -13239    -7604    -1847     3019 
    6226     8124     9699    11556    14027    17298    21068    24657 
   27606    29577    29762    27749    24427    21410    20502    22827 
   28028    34969    42242    47536    48260    43164    32897    19691 
    6165    -5341   -12432   -13703    -9646    -2299     5743    12363 
   16415    18299    19044    19377    19808    19965    19266    17408 
   14363    11182     9186     9139    11503    15881    20214    21934 
   19547    12451     1314   -11863   -24700   -34250   -37874   -35321 
  -28351   -18712    -8281      276     5115     5841     2344    -4913 
  -14133   -23103   -29905   -32706   -30552   -24510   -17332   -11630 
   -8787    -9073   -11296   -13694   -15792   -18039   -20493   -22949 
  -25096   -25660   -23195   -17697   -10176    -2267     3395     4673 
    1815    -3584    -9819   -15098   -18248   -18636   -16037   -11194 
   -5221     1149     7089    11554    14212    15291    14973    13648 
   11508     8231     3422    -2952   -10028   -15981   -18589   -16380 
   -9979    -1677     6280    12178    14967    14272     9649     1508 
   -8058   -16791   -23012   -25129   -21911   -13258     -719    12271 
   21392    23465    17407     4454   -11766   -26560   -36047   -37809 
  -31582   -19821    -6310     5380    12927    15938    14855    10549 
    4694    -1169    -5313    -6152    -4106     -125     5305    10720 
   15021    18624    21962    24734    25881    24491    20712    14798 
    6927    -1715    -8653   -11331    -9073    -3192     4805    13938 
   22380    27169    26483    20743    11988     3065    -3807    -7928 
   -9504    -8954    -7326    -5381    -2212     2906     9808    17570 
   23220    23853    18940    10053     -268    -9666   -15298   -15112 
   -9286     1042    13140    22978    27262    23637    11405    -6587 
  -25200   -40717   -50705   -53521   -50152   -43311   -35155   -26323 
  -17127    -8484    -1603     1976     2492     1801      245    -3010 
   -8198   -14329   -19678   -22642   -22255   -18386   -11075     -976 
    9646    18472    24470    26707    24340    17654     8420      101 
   -3481       38    10505    25553    41953    55636    62730    62365 
   56614    47392    35960    24654    15679     9917     7656     8507 
   11585    16310    22636    30109    36891    40370    38637    31590 
   20631     7990    -3698   -12108   -15372   -12634    -4910     5526 
   15932    23282    25066    20598    11088    -1135   -12803   -21056 
  -24524   -22632   -15897    -6457     2112     6833     7741     6302 
    3658      582    -2403    -4322    -3958     -703     4506     9532 
   12741    13777    13311    12479    12693    14757    17936    20420 
   19854    14873     6634    -2199    -9340   -13567   -14497   -13027 
  -11123   -10336   -11603   -14873   -18459   -20482   -20354   -19147 
  -18870   -20578   -23881   -28260   -33032   -36636   -37552   -34721 
  -27383   -16456    -4972     3805     7692     5290    -4218   -19598 
  -36346   -48917   -54088   -51023   -39951   -22899    -3190    16376 
   32873    43758    48329    46550    39407    30163    21781    15299 
   12006    12412    14177    14842    13657    10896     7230     3133 
   -1204    -6447   -13526   -21895   -30222   -37007   -40013   -37923 
  -32160   -26035   -22574   -23095   -26788   -31027   -33528   -33853 
  -31838   -27048   -19804   -10701     -745     8256    15371    20673 
   23912    25189    25246    24431    21614    14620     2869   -12362 
  -28416   -41155   -47245   -44660   -33673   -18095    -2673     8142 
   11664     7673    -3337   -19216   -36394   -51339   -61054   -63709 
  -58281   -46152   -32160   -21293   -15867   -15666   -18620   -21521 
  -21969   -19227   -13405    -5540     2458     8843    13159    15862 
   17475    19475    23102    27515    31232    32173    27744    18080 
    5953    -5999   -14947   -18721   -17693   -13094    -5762     3181 
   11524    17017    19251    18922    17707    17296    17375    17205 
   16203    13678    10419     8671    10857    18043    29093    41333 
   51004    54507    50258    39352    25007    10781     -906    -8804 
  -12883   -14782   -15901   -15839   -14658   -13556   -13292   -13510 
  -13537   -13212   -11858    -9264    -6552    -5132    -7047   -13274 
  -21940   -29420   -32174   -29067   -20687    -7612     7525    20524 
   28377    28517    20373     7557    -5385   -14862   -17662   -12647 
   -1563    12102    23880    29570    27597    19464     8086    -2603 
   -9240   -10649    -6420     2831    14320    23833    28014    25752 
   17290     5931    -2383    -4615    -1492     4670    10175    12223 
   10476     5490    -1326    -8038   -13396   -16272   -16667   -15425 
  -12453    -9273    -8531   -10098   -12617   -14859   -14824   -12144 
   -8855    -6183    -3896    -2313    -2246    -2646    -1327     2078 
    7531    14431    19436    20325    17740    12533     5851    -1042 
   -7183   -11380   -12750   -11134    -7394    -2412     3708     9995 
   14905    17534    16568    10841      747   -12149   -25207   -35400 
  -41035   -42005   -38283   -29592   -18391    -9016    -3730    -3161 
   -5891    -9357   -12100   -12319    -9117    -3246     4200    10687 
   12865     9233     1636    -6608   -13268   -17359   -19403   -20477 
  -20438   -18572   -14796    -9724    -4163     1186     5655     8498 
    9146     7997     5806     2597    -1716    -7044   -13368   -20367 
  -27184   -33254   -38752   -42715   -42954   -38267   -28312   -13316 
    4876    23149    38833    49738    53622    51059    45973    41251 
   37746    35801    34873    34396    35001    37061    40284    44979 
   51325    58325    64221    67448    67227    63990    59755    56071 
   52585    49814    49895    53996    60794    67029    70459    70598 
   66966    59850    50293    39074    27318    16082     6633     1211 
    1129     5419    10790    12515     7800    -2729   -16393   -28902 
  -36077   -36927   -33185   -26442   -17675    -7787     2634    12291 
   18350    18091    11382      936   -10174   -20057   -28013   -35127 
  -42732   -49683   -53796   -54658   -53419   -51523   -49580   -46645 
  -41550   -34862   -28452   -24010   -22938   -26229   -33438   -42791 
  -52017   -58911   -62327   -61837   -57219   -49949   -42639   -36933 
  -33255   -30048   -24216   -14632    -3249     7116    14271    16944 
   14795     9090     2956     -740     -922     1734     5658    10773 
   17952    26519    35076    41934    45294    44788    41312    37045 
   34925    36366    40987    47747    54687    58984    59137    55673 
   50192    45067    41740    39127    35177    29062    21052    12462 
    5151     -423    -4056    -5709    -7345   -10863   -15969   -20874 
  -24874   -29141   -34189   -39999   -46479   -52018   -54607   -52727 
  -45669   -35167   -24229   -15137   -10365   -12315   -20915   -33311 
  -45942   -56125   -62097   -63070   -58925   -50274   -38662   -24712 
   -9364     4070    12892    15935    11900     1451   -10800   -19132 
  -20098   -14014    -5185     1697     5105     5489     3868     1935 
     866      667      657      -92    -1069     -784     1618     6771 
   14066    22099    30478    38945    46891    52962    54773    50650 
   40828    27561    14107     3410    -1241     2895    15048    30954 
   45061    53055    53196    45635    32669    18523     7441     2175 
    3078     8819    17719    27552    35660    40816    43274    42808 
   39350    33546    26304    19293    13681     9624     7295     6311 
    5702     4946     4403     4578     4899     4011     1352    -2494 
   -6829   -10703   -12346   -10445    -5615       88     4821     7782 
    8916     8287     5948     2243    -2042    -5290    -5573    -2372 
    2901     7861    10162     8197     1759    -7601   -17188   -24709 
  -29077   -29579   -26168   -20320   -13691    -7632    -3864    -3400 
   -6372   -12796   -21406   -29572   -34883   -35604   -31393   -23568 
  -13468    -2658     5740     9548     9503     6379      548    -6159 
  -12129   -16323   -17524   -15545   -10765    -3557     4734    12040 
   16607    17393    14427     8852     2365    -3079    -5814    -4964 
    -594     6145    13696    20077    22671    20042    12734     3097 
   -4276    -5166     1121    12253    24101    32445    34803    30356 
   20615     9646      765    -5019    -7058    -5229     -462     6842 
   16273    25805    32994    36590    37109    36878    37278    36602 
   31788    20571     4218   -12575   -25778   -33080   -33792   -29275 
  -22200   -16244   -14190   -16286   -21148   -27216   -33333   -37774 
  -38711   -35722   -29611   -21954   -15760   -14383   -17856   -23658 
  -30611   -38310   -44288   -44765   -38820   -28140   -13681     2689 
   16995    25565    26022    17578     2468   -13807   -25796   -31199 
  -30414   -25553   -19244   -13192    -8355    -5351    -4857    -6953 
   -9736   -11176    -9994    -4265     5767    17359    29077    37862 
   38565    31750    22735    14861     9712     8062     9067    12301 
   19131    28506    36049    40029    41401    40937    39690    39288 
   41629    45765    47647    43870    32985    17319     1973    -9235 
  -14348   -13935   -10652    -6665    -3680    -2644    -2607    -1792 
    1114     6373    12410    16355    16078    11014     2260    -7639 
  -15610   -18682   -15689    -8328      545     8310    12805    13381 
   10878     5823     -393    -5307    -8839   -12262   -15494   -18168 
  -20084   -20241   -17669   -13043    -7901    -3549    -1117     -918 
   -2292    -4379    -6582    -8189    -8265    -6829    -5352    -5525 
   -8132   -13226   -20170   -27300   -32691   -35140   -34636   -31902 
  -27177   -20433   -12509    -4941      894     4616     6840     8016 
    8914    11074    14771    18887    22425    24632    25239    24809 
   24589    25647    27938    31208    35790    41679    48203    54462 
   59062    60416    57692    50336    38588    25023    13178     5284 
    1064    -1905    -5194    -8481   -10769   -10706    -8105    -4385 
    -867     1227     1140     -425    -2463    -4667    -6962    -9754 
  -13915   -19399   -25497   -31814   -37978   -43726   -48628   -50951 
  -48321   -40452   -29303   -17055    -6126     1632     6237     7788 
    5902     1330    -4820   -11969   -19305   -26218   -32263   -36260 
  -37022   -34031   -27470   -18543    -9348    -2114     1713     1471 
   -2720    -8746   -13415   -15457   -15449   -14243   -12957   -12806 
  -14592   -17658   -20141   -21280   -20750   -18185   -15032   -12490 
  -10081    -7675    -6273    -7880   -13132   -20120   -26846   -31277 
  -31185   -26249   -18841   -13236   -12438   -15770   -21703   -28940 
  -34036   -34058   -29589   -22048   -12889    -5272    -1840    -2033 
   -3994    -6599    -9008   -10807   -11972   -12503   -12450   -11741 
  -10372    -7702    -2874     3314     9462    14162    15819    15047 
   13410    10452     6534     4190     4601     7337    12094    17643 
   21897    23475    21872    17811    12682     7379     2666    -1162 
   -4114    -5540    -5365    -3838     -636     3169     5994     7451 
    7056     4992     3178     4047     8331    14530    21397    27177 
   28706    25357    19244    12750     8289     6590     6777     8158 
    9456     8996     5944     1273    -2983    -5358    -4204      789 
    8047    16404    23953    28533    29075    24821    16967     8915 
    2943    -1301    -4663    -7451   -10512   -14577   -19261   -23457 
  -25814   -25009   -20860   -15069    -9348    -3986     1164     6029 
