Origin Time       2011/03/11 14:46:00
Lat.              38.103
Long.             142.860
Depth. (km)       24
Mag.              9.0
Station Code      GNM009
Station Lat.      36.4105
Station Long.     139.3253
Station Height(m) 114
Record Time       2011/03/11 14:47:23
Sampling Freq(Hz) 100Hz
Duration Time(s)  300
Dir.              N-S
Scale Factor      3920(gal)/6182761
Max. Acc. (gal)   280.547
Last Correction   2011/03/11 14:47:08
Memo.             
[...]
   75628   104078    95153    77167    61850    35390   -17958   -69565 
  -62177    -8800    19978     4426   -16431    -4490    33273    42606 
    3641   -35457   -38199     2161    76473   126594   107214    54755 
    4497   -55393  -108087  -101376   -31712    41677    72537    63800 
   34888     2537   -13091     3482    41397    66798    63429    48548 
   36019    13947   -21892   -48936   -55677   -45670   -11880    31815 
   38266    -8354   -55274   -55250   -43167   -52295   -35820    23029 
   59637    50009    36579    29777     8386   -16717   -23891   -19470 
  -13551      545    23324    38552    33320    12942     4610    31038 
   72141    94012    88579    58203    22998    14213    19196    10741 
    9140    36433    66987    67438    38749     3902   -16963   -16405 
     377    24962    46561    57055    65612    73519    52549    -2103 
  -35878   -17214     1930   -14117   -20520    10049    40732    43704 
   23284   -18383   -67535   -88963   -80120   -79820   -97595  -105152 
  -97879   -96980  -109342  -120545  -106660   -58560     -217    36401 
   37613     8282   -22055   -15205    22431    38927    14162    -7520 
   15341    63895    91194    86581    76078    73251    71934    68247 
   64467    64538    64744    64168    76202    96051    94549    64539 
   31460    14266     9922    23249    64339   105900    98063    32647 
  -29211   -22339    23960    28282   -19855   -62312   -55109   -14332 
   11807    12139     6871   -11611   -63156  -117569  -125416   -99474 
  -73315   -44496   -27252   -44325   -73338   -90437   -99737   -97182 
  -75568   -49964   -29077     1785    29393    16000   -21734   -30738 
   -1972    37709    67959    79543    63897    13761   -47581   -64518 
  -16405    48725    72932    51864    31855    43265    53150    29125 
     384      695    25148    57861    84034    93995    93294    89748 
   84548    80361    78837    78584    75683    58652    21917    -8466 
    6581    55661    86338    85277    76211    65572    49287    43861 
   65885    92284    89627    59071    25725    12740     5257   -34440 
  -84887   -85845   -45053   -32958   -78157  -134974  -152579  -122544 
  -65978   -17536    -2908   -17130   -44355   -70779   -80108   -77969 
  -80121   -71789   -42101   -16324    -1244    27351    54485    39719 
   -6426   -47616   -68383   -55196    -9745    29013    38517    36815 
   29744    12695     1542     1220      886    14756    65561   128058 
  145842   108333    56438    27286    32008    54225    62644    44839 
   18847    11328    24824    30366     8651   -20999   -31981   -24363 
   -9616    11929    35619    47781    44651    23419   -14196   -40224 
  -30058     7627    48108    65284    55615    50997    62308    61226 
   40265    15668   -12172   -44502   -57229   -34712    -8860    -7564 
   -9678    -3956   -15151   -41106   -49585   -42180   -44366   -50706 
  -40120   -24203   -30943   -51138   -45031     1893    51831    59690 
   28497   -15386   -55019   -77165   -78954   -61571   -23743    17458 
   39025    43471    41035    29161     6582   -21109   -35791   -11378 
   41454    68731    50585    36121    56681    77336    68159    45830 
   40024    59126    83635    90651    80370    64234    44439    30091 
   39969    71970   100962   104044    82768    61209    55551    56196 
   43560    16665    -7361   -25304   -50519   -73147   -61970   -29227 
  -27152   -68021  -116599  -137578  -117487   -75359   -55744   -82434 
 -112765   -92822   -48518   -37328   -58711   -75339   -66852   -39245 
  -13214    -7473   -17407   -23555   -22382   -17651    -4926    11761 
   24492    38324    51207    50090    44896    54160    59517    33302 
    1216    13898    67947   119278   144184   150631   163730   194562 
  214915   186260   111426    45111    45336   103505   146271   129486 
   71788     -985   -61178   -71761   -33936     2808      338   -27659 
  -45352   -47494   -65415  -115412  -156996  -137083   -66209    -3003 
   13768   -19697   -75581  -105673  -100899  -103157  -125683  -128095 
  -85964   -26574     6161   -10314   -61249   -98670   -82855   -28611 
   22624    60523    83464    71116    27055    -9482    -5076    42575 
  110991   168925   192905   185809   167143   152666   142817   111239 
   51112    13562    40633   109957   165784   171730   136568    93656 
   65785    51820    29383   -14060   -49640   -44085   -16784   -17210 
  -55633   -95784  -109193   -98573   -84499   -90451  -113080  -118756 
  -89726   -43207    -6030     2937   -22266   -62151   -78586   -69766 
  -75112   -89796   -72948   -42177   -38307   -43949   -28970    -8833 
   -7828   -19076   -19688     4289    41040    55384    26268   -28358 
  -66011   -49770     8599    50126    49451    43827    62627    92531 
  113657   121258   117643   111690   114003   117753   110479   103942 
  113037   116301    85712    47430    46010    62316    49428    11896 
  -12168    -8068     -597   -12118   -26144   -25465   -20858   -27432 
  -44664   -52924   -49042   -57655   -64816   -33050     8587     7655 
  -22157   -38696   -26181    12472    48693    41689      716   -29127 
  -34846   -22094     4110    16676     3101    -4890    13531    38920 
   46695    35848    25374    33892    61239    80693    69950    58251 
   81030   107295    92048    42433    -5140   -22238   -24184   -45502 
  -61243   -29406    20192    34780    14592    -3775    12518    59689 
   82122    42080   -17126   -41300   -36701   -29839   -27444   -29390 
  -27297   -14219   -16590   -52132   -80200   -61557   -17026    12375 
   19041    15175     7390     6721     9946    -6596   -20517    22273 
   95224   113101    64344     9932    -6903    23500    77769   107435 
  101155    92164    97358    90898    39020   -40466   -87513   -81218 
  -55812   -35150   -14923     7574    28726    27102   -20869   -84718 
 -114411  -109963   -81927   -22340    43416    75955    77109    54000 
   -1682   -65257   -91848   -83676   -71923   -58871   -47837   -67332 
 -113632  -138758  -111152   -51640    -7548     5652     8249    14248 
   35781    77155    99979    72881    34605    37329    73947   105815 
  116556   113915   108396   102009    91465    81548    80242    79360 
   61308    24713    -7600    -8167    27637    71066    79985    42966 
    2644    13300    69913   117523   134685   145869   157808   142491 
   84776    18083   -13974   -16556   -19952   -23331   -16867   -16959 
  -32946   -50577   -62292   -76351  -102578  -140125  -171370  -166780 
 -114269   -45146    -6674   -14295   -41552   -58081   -70041   -87489 
  -82842   -45105    -9760     6787    13233     5139    -8839   -15733 
  -34118   -61188   -51966     2256    56488    70028    37513      -77 
   11946    58916    70118    34036    13000    41730    88520   114795 
  120291   120155   119913   127589   137172   114834    59874    22517 
   28069    58890   102832   144499   150090   109645    48012    -1444 
  -19822   -16357     3488    46435    85090    74978    21818   -27089 
  -55126   -72509   -62925   -22637     9942    13520    -2196   -26817 
  -54985   -83955  -105205  -105870   -88394   -74684   -79744   -89693 
  -83021   -60883   -43788   -51563   -85113  -122576  -141335  -139208 
 -128230  -121582  -127788  -141312  -141228  -114064   -73334   -36999 
   -4085    19216    18388    15485    37944    54001    36312    33093 
   76372   120954   140330   157877   174159   167526   136190    88239 
   26840   -34339   -57312    -9040    84933   154187   161121   126363 
   83888    49707    30696    38415    78280   124281   133428    96644 
   52291    48131    88266   117144    84858    15861   -33422   -56816 
  -76767   -83403   -54675    -5894    10971   -27233   -74012   -86134 
  -77292   -65883   -50302   -36372   -29115   -20764   -18052   -40430 
  -78304  -101311   -99631   -79841   -53096   -36858   -30944   -18969 
   -7752   -17157   -40538   -51546   -34238     4686    40662    50616 
   31212    -4331   -36165   -45768   -26696     7703    29022    24720 
   13475     6654   -13522   -55828   -84371   -54233    21106    85548 
  106852    91286    70087    72230    88330    87683    64082    39690 
   33419    40342    44692    34768    11595     1748    25027    59453 
   78599    80712    80809   102249   140676   149549   101775    41148 
   28375    60274    98748   128879   135099   101659    57507    37366 
   29876    20256    14597      844   -38168   -76455   -77437   -51836 
  -29770   -14964    -3224   -11528   -51417   -88279   -84225   -57108 
  -37111   -30006   -46479   -82786  -105613  -107762   -93085   -31032 
   63089   101483    51799   -28240   -81532   -91907   -76879   -70735 
  -86382   -96468   -68169   -11494    25963     8941   -47990   -93094 
  -86117   -25933    54629   119057   152680   150484   112267    64406 
   56751   102537   148834   151962   124373    90958    66852    62835 
   71413    62981    16708   -48321   -84897   -61263     3318    52027 
   47876    -3882   -78512  -134553  -129328   -73974   -30990   -46047 
 -109834  -173625  -189885  -144424   -67012    -6056    16645     6513 
  -18701   -36775   -47930   -60863   -60833   -35870    -2046    15978 
   13248     6588     6807     9185     9756     8425     8657    17778 
   35564    54153    70489    87350   100982    98860    84427    78971 
   85697    93691   106967   130014   152156   166215   175695   177188 
  161277   139365   136058   144344   131767    95568    63156    39948 
    3933   -46503   -80885   -87524   -93936  -120324  -157866  -185238 
 -175807  -121556   -54134   -13938   -12973   -34482   -50375   -40890 
  -12154    10345    22036    40795    57751    51818    27261    -9487 
  -45689   -55766   -45917   -44893   -63735   -98824  -132551  -145981 
 -151838  -173401  -194981  -176690  -108184   -22956    33144    49727 
   58946    86026   128630   175566   205792   194300   140360    76266 
   39825    32342    26110    17894    30381    69255   114618   141192 
  135885   104198    69121    60852    88193   123025   131426   108229 
   68267    34414    39343    91263   141727   127953    43791   -43409 
  -57935     2437    78312   115322    86897    10698   -42539   -19260 
   48348    85195    52631   -32366  -115866  -153738  -158399  -149790 
 -102083   -18996    38188    50558    54019    63090    65821    57314 
   49291    60997    92269   111540    85553    22089   -31814   -43045 
  -19201    14192    32671    23703    -4254   -34700   -65161   -99475 
 -116453   -85953   -18883    43299    68447    46163    -2047   -25595 
    7807    64573    92089    83054    35055   -50594  -110563   -83087 
   16720   137176   223444   230491   154883    28124   -89381  -117509 
  -41001    66565   143212   180198   170638   107115    28406    -6733 
    3940     6339   -32990   -90695  -136802  -161825  -145714   -75858 
    8599    51250    42423     6114   -39962   -68558   -52701   -18294 
  -16354   -49336   -84459  -113285  -140924  -155759  -154646  -140795 
  -91378    -3887    61474    58179     4335   -52437   -59089   -13449 
   24445    39829    65018    84769    67381    26837   -14606   -46232 
  -35601    41218   147288   229410   278989   307679   315548   305814 
  284556   247536   202780   176092   160328   115564    41106   -27639 
  -72171   -78610   -40500     2370    -4016   -64486  -137101  -177664 
 -166526  -112639   -51427   -30378   -69782  -130691  -151467  -118774 
  -75051   -77003  -149357  -248409  -306617  -302914  -241421  -136944 
  -44691   -11960   -17183   -26529   -55407  -102798  -113923   -69415 
   -2435    72711   155935   227728   265474   270821   261711   238481 
  198184   168899   172367   188156   194900   205473   243617   304169 
  343620   328574   274651   206188   129952    65312    33336    19538 
   -6721   -51845   -88694   -71204    26133   163211   246952   214934 
   84204   -92966  -257127  -348178  -359866  -334351  -300569  -277830 
 -279231  -282192  -252260  -200593  -180600  -218623  -279043  -309415 
 -288375  -227559  -162177  -132374  -140989  -137824   -77270    15323 
   87467   134674   158701   145135   125510   139652   167118   179347 
  181400   175544   159721   156262   175927   188441   177440   154148 
  114659    62084    35788    71792   155691   228319   243535   196585 
  104758    13788   -22725    -3572    31613    49474    41930    34972 
   49006    63721    67240    69914    44832   -55918  -209765  -320855 
 -324098  -236861  -119662   -38309   -35478   -97649  -155479  -153201 
 -127276  -149798  -213626  -257617  -250966  -208242  -160666  -119097 
  -66214    20851   134789   227551   257423   217092   124448    26595 
  -15869    20553   109419   212043   282244   277936   217178   155046 
  118332   113408   135328   159072   168102   167716   156760   106732 
  -14192  -184171  -322302  -357111  -290632  -188717   -95194   -11608 
   32786    18980     4599    35909    91421   153930   222586   274455 
  292716   278247   213559    86409   -51871  -117699   -94359   -36723 
   21943    85327   145530   185752   180452    93611   -57100  -170052 
 -172201  -114507   -68192   -36427   -23515   -35529   -44927   -46858 
  -63734   -95181  -114584   -95135   -27393    81091   190739   226231 
  136577   -37153  -186558  -253840  -271510  -268877  -250471  -245947 
 -260605  -250646  -204968  -157338  -131724  -127635  -129453  -121301 
  -89312   -14396    88282   148326   138521   124582   159040   230299 
  315375   398764   451788   426093   294922   115863    -3184   -32796 
  -24970     8347    86696   179540   235629   248468   251014   248949 
  206055   113299     4865   -82032  -128485  -130827   -80773    18667 
  134261   221278   235584   157929    16941  -116329  -170443  -153828 
 -146023  -197766  -293551  -377874  -405372  -382675  -348479  -328652 
 -321822  -325094  -339659  -335367  -282617  -209192  -150316   -96161 
  -32691    37825   120644   206954   259925   266076   252897   226391 
  145788    18179   -45071    28119   149469   206814   205968   199007 
  204157   221652   236798   218683   154854    66003    -9161   -25035 
   31881   121916   207106   268271   267176   181166    64769     1902 
   11026    56591   113592   160983   157476    74321   -51568  -143471 
 -176337  -173779  -143601   -75088    27849   107688    94224     1034 
 -108760  -199679  -236358  -181574   -63329    24695     7084   -96136 
 -191057  -220174  -201864  -162096  -108472   -64883   -55399   -73666 
 -108157  -148890  -173851  -173924  -155306  -116796   -68725   -36220 
  -21123      498    53922   140778   217265   233004   196004   148787 
  101576    51177    20904    19412    17492     1075    -4033    29967 
  100154   176422   225326   231512   193151   109306     7232   -37051 
   32687   177013   302014   359006   356513   287980   140031   -26335 
 -116333  -112621   -64941    -5606    62878   127028   166172   170575 
  127090    31644   -81841  -162770  -191657  -193559  -203544  -233882 
 -268634  -275105  -237106  -163759   -79051   -26645   -26798   -48089 
  -59149   -41822    18027    94320   136338   129545    92362    39210 
  -27660  -103230  -160453  -170427  -131372   -37795   104670   216699 
  221274   144517    45604   -57905  -133567  -117334    -8084   117223 
  199531   225515   197535   142786   103476    97887   117841   143968 
  159841   168596   179963   189755   180646   124212    16443   -83844 
 -107442   -52536    26560    76663    70058    20609   -22291   -38411 
  -63181  -123854  -195742  -241482  -244660  -199959  -122917   -52735 
  -17796   -16002   -23978   -28664   -51349  -111969  -180707  -205140 
 -165975   -70409    59891   171433   219882   217758   182721    94724 
  -50418  -194616  -245764  -169380   -35512    78555   151454   168933 
  124009    34811   -57628   -90323   -36573    60193   136039   158488 
  133296    73069     6664    -4169    57308   135931   190329   218377 
  223572   196344   122284    29134   -32656   -66362   -96914  -109230 
  -73587    23771   153379   239308   229403   121927   -40367  -153021 
 -153986  -106913   -77251   -60778   -43732   -31458   -36529   -40539 
   -7069    45034    58046    24850   -14439   -55840  -109275  -127668 
  -77999     2512    81528   138371   132064    57059   -44028  -119906 
 -135160   -98095   -25872    81283   180133   192377    90573   -71261 
 -188879  -178470   -56731    81006   159901   167430   138975   104483 
   56648     8608     7995    59598   109121   112560    75432    35799 
   23672    35896    53437    34866   -51782  -138777  -141856   -85987 
  -19702    43110    74947    79926   106873   148904   146940    91557 
   24752   -33420   -84726  -108702   -93124   -69281   -56667   -34167 
   -1836     1823   -30523   -51182   -25051    18887    23474   -15104 
  -34835     -905    40302    30071   -11319    -4330    67923   147638 
  203784   228170   198580   111369    -1840   -88781  -127954  -146173 
 -154765  -141551  -108373   -68524   -41504   -36066   -29545    -3255 
   20896    30524    59005   103613   103829    52988     4942   -24720 
  -52965   -71741   -56103     7289   105790   203105   259313   251667 
  196809   124876    32145   -74953  -152456  -184213  -182693  -143638 
  -70170    17716   104528   145550    75601   -83024  -200361  -185989 
  -83475    26142   108071   143764   127848    83896    56630    80992 
  127344   131366    77887    16301     9159    54347    95168   107463 
   99901    79205    54232    24186   -16158   -73018  -162340  -260009 
 -291677  -212051   -43632   143303   265271   274057   171430     1985 
 -133027  -148837   -85505   -27772    11041    26952   -15134   -92152 
 -117401   -65582     -286    34898    47076    38071    10228     2272 
   53942   135050   170900   139152    75102    18390     4656    44975 
   96111   100580    46529   -22251   -41109     8876    81674   128861 
  132943    98107    36458   -43934   -99676   -73327     1045    33162 
   -8786   -91671  -159098  -165059   -91345    42457   157212   172122 
  104230    26210   -28319   -51273   -35822    -1919     5512   -25535 
  -49160   -44026   -45708   -62034   -73875   -98034  -148074  -186772 
 -165616   -77948    35103   119081   141002   109027    61728    30601 
   34423    70974    94492    69607    29983    32158    82286   134241 
  149905   127748    71663    -4992   -62315   -74126   -54532   -33895 
  -19298     2247    16532    -1590   -37400   -59981   -65573   -58127 
  -19742    51928   111010   111502    42941   -64505  -125408   -89729 
  -25863     -101    -7999   -44573   -83964   -69399     3156    63508 
   45030   -41075  -139224  -209900  -221570  -160262   -55559    37198 
   75759    64388    37660    18604    11551     8997     1569   -11833 
  -19939    -3892    39324    88846   119124   121064   116672   136240 
  173605   199689   202544   185730   150397    84803   -10396   -90820 
 -107004   -57284    18884    74889    75469    13167   -71861  -118870 
  -99141   -20826    77012   131499   118965    80981    53828    27713 
  -16282   -69790  -108505  -123770  -116709   -75489    -5010    37637 
   -2481  -101544  -183242  -207720  -193739  -155806   -84275   -12892 
  -13591   -84279  -142910  -153306  -149425  -139751   -98799   -35695 
   19154    59306    89044   107023   108417    91543    70863    70040 
