Origin Time       2011/03/11 14:46:00
Lat.              38.103
Long.             142.860
Depth. (km)       24
Mag.              9.0
Station Code      GNM016
Station Lat.      36.1164
Station Long.     138.9250
Station Height(m) 344
Record Time       2011/03/11 14:47:33
Sampling Freq(Hz) 100Hz
Duration Time(s)  284
Dir.              U-D
Scale Factor      3920(gal)/6182761
Max. Acc. (gal)   40.780
Last Correction   2011/03/11 14:47:18
Memo.             
[...]
  -16465   -20030   -24844   -28206   -28486   -24142   -16643   -10493 
   -9076   -10952   -10325    -6920    -8284   -15219   -19319   -17669 
  -13298    -6895    -1347    -1415    -6856   -14302   -17719   -12829 
   -4130     3605    10086    13670    11990     5321    -1467    -5413 
  -10497   -16341   -18359   -16681   -12608   -12194   -22292   -35164 
  -41026   -40706   -35350   -28207   -24492   -21289   -18949   -25712 
  -36417   -35202   -22014   -10134    -2363     6352    10608     4679 
   -3751    -9810   -14628   -14217    -9431    -3605     4389     7174 
     515    -6621   -11944   -14520    -8320      122     2221     1977 
    2165     1018     -714    -1372      201     2951     4796     6305 
    4782    -3809   -11985   -11057    -6360    -4120    -1754     1501 
    1074    -4293    -9697   -11874   -12366   -12279   -11496    -9331 
   -4839    -1682    -4990   -12883   -20174   -23732   -21348   -15055 
  -11568   -14408   -20547   -23452   -21167   -20560   -24327   -25830 
  -23802   -21162   -16527   -12570   -11667    -9198    -7348    -9262 
   -7510    -1949    -1805    -5197    -4288    -3895    -9177    -9804 
   -4590    -6996   -13291   -14316   -16374   -18621   -14194   -11096 
  -16150   -20392   -17698   -15799   -19385   -21484   -19570   -20043 
  -24670   -28918   -28199   -22551   -18296   -18926   -21601   -23708 
  -23603   -21849   -21023   -20558   -20321   -22367   -23893   -20489 
  -13723    -8176    -4785      422     7265     8674     5269     3322 
     581    -4478    -7493    -7791    -5773    -2218    -1583    -4934 
   -7217    -5291    -3422    -4354    -4301    -4960    -9973   -15095 
  -18130   -19226   -16311   -13227   -13674   -12952   -10780   -12699 
  -16218   -17490   -19628   -21642   -19215   -14995   -12998   -12042 
  -10325    -8292    -6213    -5681   -10440   -17875   -20548   -18625 
  -15525   -11514    -9122   -10408   -13460   -16603   -17233   -13051 
  -11268   -19251   -25842   -19793   -11810   -11234   -11821   -12952 
  -18824   -22173   -18302   -13639    -9549    -6863    -9926   -10334 
    -481     6568      358    -8056    -7777    -4626    -5714    -7681 
   -7345    -8541   -13583   -18787   -20917   -20646   -19647   -16623 
   -9609    -3166    -1899    -3058    -4634    -5709    -5469    -8331 
  -13889   -16130   -16687   -17589   -17919   -21954   -27969   -26621 
  -19714   -16524   -15963   -13619   -16244   -26173   -29546   -20788 
  -10083    -1993     4772     8004     6843     2890    -1722    -4679 
   -9099   -17077   -19785   -15376   -16606   -24587   -27147   -22999 
  -19848   -18469   -15515   -13153   -13599   -14080   -14941   -17829 
  -17925   -11265    -1684     4875     6720     5123       67    -6020 
   -6542    -3039    -3423    -5395    -4196    -3065    -2740    -3656 
  -10298   -19806   -26557   -29632   -24440   -12924   -11195   -20782 
  -25038   -21735   -18591   -14476   -11253   -12840   -15168   -18266 
  -22941   -21354   -13897    -7114      378     5424     3673      539 
   -5187   -17286   -26644   -30034   -33489   -30911   -17937    -7505 
   -5966    -6288    -7891   -13507   -18470   -18893   -16811   -14563 
  -11259    -5747     -958      855      443    -4358   -12107   -15034 
  -13716   -13582   -12322    -9243    -8293    -8334    -8221   -10562 
  -16075   -23888   -28944   -25286   -18305   -15045   -12522   -11310 
  -14480   -13611    -5804    -3844   -10490   -14206   -11753    -8182 
   -4981    -4453    -9634   -14396   -14088   -13467   -11283    -6998 
   -8868   -12735    -9575    -5696    -5430    -4690    -5121    -8628 
  -11973   -13192   -12008   -10320   -10349    -9517    -6410    -3331 
    -761      978     1445     1096     -135    -1671    -4189    -7650 
   -9881   -12858   -16710   -16193   -13124   -12607   -12494   -11332 
   -9684    -4491     1600     1797    -2421    -7596   -11410   -11758 
  -14351   -20751   -22798   -21851   -20685   -12160     -725     1459 
   -3084    -8396   -13043   -11438    -3002     4549     8723     9502 
    4816    -2466   -10278   -20075   -26794   -24620   -16465    -6701 
    2105     4983      934    -5362   -12324   -18040   -19514   -18252 
  -14186    -9291    -8565    -7557    -2819      610     1010    -1939 
   -6917    -8630    -7434    -8702   -15599   -24247   -26147   -23261 
  -23482   -24557   -24627   -28000   -32499   -30952   -22091   -14995 
  -17008   -20661   -19976   -19354   -18029   -14781   -15515   -20583 
  -22286   -16980   -12273   -13634   -12356    -6631    -5463    -3636 
    6617    17864    21293    14352     2264    -6321   -10404   -12118 
  -12328   -11361    -8587    -6763    -5827    -1082     3028     -438 
   -6383    -8938   -11479   -16473   -20103   -19391   -16321   -14560 
  -14430   -13302   -11628   -10910    -7602    -1556     -449    -4842 
   -7034    -8390   -14437   -18594   -15086   -11565   -12053   -12744 
  -15398   -19549   -19223   -16898   -15327   -13085   -15736   -20621 
  -18758   -19682   -28519   -30785   -24915   -21316   -18586   -13671 
  -11546   -13391   -16229   -20598   -21782   -13365    -5700    -6484 
   -3137     4647      791   -11937   -18602   -17023   -12386    -7508 
   -3233    -1094    -2852    -6580    -9734   -12474   -16125   -20419 
  -17769    -5613     1564    -2683    -7428    -9455   -12739   -14188 
  -10945    -5346       27      457    -7040   -14450   -16372   -20344 
  -26698   -27163   -23848   -20863   -16211   -12941   -13962   -15748 
  -17762   -18881   -17498   -20896   -29977   -35301   -34252   -26766 
  -16734   -14705   -17687   -16720   -16186   -18219   -17680   -17392 
  -20417   -19981   -12999    -4869      825     1341    -4753   -10514 
  -10878   -11292   -14710   -17447   -17330   -12122    -2685     1700 
   -2706    -8246   -12196   -18024   -21620   -17155   -10147    -8525 
  -10074    -9650    -8574   -10035   -13460   -14485    -8323     -289 
   -2234   -10156   -12845   -15902   -23183   -24140   -18393   -14063 
   -8558     1440     6705    -2886   -19020   -24554   -19384   -13548 
   -8675    -2374     3226     2033    -5870   -11566   -13827   -17799 
  -18466   -13075   -10577   -11407    -8821    -5322    -4300    -4690 
   -6177    -7174    -5845    -2812    -1246    -2152       58     5248 
    4082    -3955   -11447   -16249   -17309   -13830   -10752   -11305 
  -13857   -15555    -9986     1996     5777    -2112    -9842   -15747 
  -21262   -20410   -19190   -24317   -25534   -22721   -24409   -22472 
  -13771    -8951    -8112    -5348     -791     1558    -2695    -7009 
   -4325    -6871   -15944   -13339    -8609   -16880   -19143   -11424 
  -11820   -16499   -19233   -23097   -24070   -24432   -29672   -33546 
  -32322   -29565   -24060   -15191    -9340    -9625   -13562   -19417 
  -23521   -21082   -16783   -18659   -20546   -15897   -13723   -16201 
  -13217    -5390      417     3987     3202    -2663    -7782   -14965 
  -26614   -31321   -29700   -33180   -34613   -26557   -20539   -20503 
  -17459   -12007    -8802    -7098    -8429   -11054   -10779   -11516 
  -12898   -10770   -11987   -17289   -18239   -18068   -18595   -14222 
  -10363   -13362   -18601   -20397   -19091   -20006   -23696   -25442 
  -24238   -19094   -11629    -9696   -12866   -15207   -18054   -18508 
  -11096    -4162    -3730    -2095      -44    -5627   -13124   -13634 
  -11061   -10816    -8865    -1165     6179     6374     3489     3143 
    1212    -6057   -10469    -6771    -3530    -3737    -1828     -335 
   -2091    -4253    -7126    -8031    -4769    -5884   -11751   -12498 
  -12258   -17199   -19495   -17520   -19006   -24744   -30383   -31622 
  -27066   -20215   -14281   -10811    -9967   -10309   -11921   -15449 
  -19432   -20857   -18915   -16169   -12973    -6707     1540     4957 
    -199    -9364   -18447   -26817   -32895   -35825   -35605   -31369 
  -21562    -9366    -4505    -7513   -12017   -21689   -34481   -38409 
  -35135   -31665   -24500   -12534    -4983    -7329   -13025   -16404 
  -15940    -9741    -4699    -3590     4387    10728      221    -6846 
    1859     2339    -6176    -4796    -2804    -8742   -10375    -6418 
   -6412    -8173    -2932     5185     3437    -6495   -14468   -21521 
  -26685   -21566   -10470    -3346     -340     -163    -2922    -8552 
  -18877   -30785   -36797   -35543   -32475   -31637   -29423   -23508 
  -22931   -30140   -32135   -27581   -25560   -21746   -15708   -16338 
  -18325   -16471   -15402   -11067    -1041     7379    10442     6602 
    -572    -1959      170    -2253    -8607   -14774   -16822   -15519 
  -18389   -26235   -32809   -36570   -36935   -31163   -21200   -13175 
   -7839      883    11472    15358    11743     1866   -10645   -15747 
  -15764   -18949   -23053   -28299   -33114   -27755   -15856   -10547 
  -11572   -13782   -19564   -28442   -33258   -30327   -24594   -21804 
  -18423   -11695    -7516    -6071    -4069    -7423   -20335   -34234 
  -38008   -29678   -12688     3883     6513     -704      446    11653 
   19359    14929      952   -13365   -20981   -20065   -13221    -8856 
  -11366   -13823   -13359   -11529    -4536     3148     3356    -3296 
  -17187   -30723   -30966   -27477   -33460   -39198   -37941   -38244 
  -37535   -25212    -9726    -4075    -2865    -2185    -8590   -17454 
  -18129   -14586   -13710   -10713    -4171     -471     2080     4260 
   -3656   -17367   -20676   -16527   -12102     -373    13072    13761 
    8787     7903     5317     1798      639    -6453   -14468    -8945 
   -2504   -10140   -15290    -5832     4874     8913    11811    14220 
   10690      554    -8926   -10904    -6942    -1104     3379      244 
  -10150   -19804   -26817   -28065   -15441     5946    22268    29368 
   29139    23223    14757     7229     4333     8038    14098    15911 
   12888     8729     4228     -322    -3104    -4883    -5359    -1640 
    2884      198    -8987   -17412   -23490   -27287   -26234   -20688 
  -13758   -12319   -22063   -36220   -46039   -50528   -46321   -30583 
  -10898     1679     4787     9023    21568    27169    12254    -7743 
  -17236   -21906   -23421   -16511    -7751    -5838   -10176   -16699 
  -19257   -14193    -7718    -5670    -4668    -2232      470     3646 
    6671     9277     8655     1424    -5106    -5943    -6338    -7814 
  -12850   -23303   -27366   -18922   -11404   -10526    -6251      764 
    1911      267     1218     5111    12356    15566     5911    -5781 
   -4806     1762     1256    -4697    -8323    -7819    -6199    -2524 
    2727     1656    -5463   -11094   -14354   -14300   -13231   -18784 
  -23677   -17207    -9507   -10330   -12972   -13901   -15306   -13596 
   -8104    -3596      868     5367     4731    -1461   -12824   -27288 
  -36183   -40054   -42677   -37369   -29138   -29806   -31054   -24698 
  -17490   -12336   -10876   -17084   -24532   -26329   -26604   -28444 
  -29403   -27177   -20817   -12866    -5575     1459     2677    -3876 
   -5608     2024    10501    19351    27942    28085    20794    13229 
    4984    -6580   -16934   -19740   -17100   -12237    -5664    -5712 
  -13169   -13238    -6132    -3910    -5806   -10804   -20134   -27936 
  -33575   -36221   -28564   -16240   -10750    -8815    -4006      608 
    1110    -2283   -10037   -18769   -18418    -8621     -533     4029 
    9395    10588     4811    -1320    -6079   -14689   -28876   -41710 
  -40806   -22726     -584    11667    12453     5648    -3347    -4862 
    2671     6241     1248     -564     2675     1253    -3338    -8489 
  -18509   -22351    -8649     8587    16107    15480     8091    -3684 
  -16111   -26997   -34173   -37778   -37000   -29269   -15965    -2385 
    4179     -915   -13099   -23470   -27347   -23415   -15892   -11989 
   -7751      287      793    -7551   -13591   -21594   -35890   -41398 
  -32697   -22926   -16221    -9940    -9183   -14604   -19160   -19931 
  -16729   -11631    -8473    -3587     6202    14130    16637    16765 
   12184    -2738   -24526   -40892   -45679   -42788   -33728   -19707 
   -9150    -3515     4392     9287       75   -16840   -27993   -32843 
  -36294   -36849   -32651   -30612   -36674   -43819   -47058   -49020 
  -42413   -24030    -9389    -3484     2680     4001    -5346   -12805 
  -12665   -16404   -25420   -28081   -21149   -10624    -3693    -5746 
  -14653   -23480   -27629   -23968   -15755   -12416   -12235    -9599 
  -11160   -17123   -21290   -28468   -35800   -32321   -23485   -17485 
  -10587    -3421    -2241    -5219    -5755    -2029     1131    -2677 
  -12019   -20747   -26217   -24569   -17658   -17601   -19756    -8576 
    3219    -1567    -9478   -13227   -23786   -31379   -22161    -6570 
    5170     8398      337    -7943   -12121   -20353   -30958   -40678 
  -47867   -46324   -40147   -36061   -28443   -17711   -13257   -14426 
  -13581    -5377     9125    19119    17450     9869     1745    -8295 
  -19269   -26678   -30232   -30384   -23688   -13772    -9468    -8778 
   -6068    -2579      501     2600     3078     3458     2414    -2474 
  -10065   -18470   -24753   -25959   -23612   -18859   -10909    -5593 
   -6303    -4558      683     2068     5165    14508    17158     7930 
     100    -1156    -4194   -11259   -18245   -24407   -28802   -27934 
  -20252    -9337    -3362    -6652   -15141   -22354   -23685   -22768 
  -28381   -36133   -36224   -33608   -34425   -36669   -42989   -53650 
  -62580   -70729   -75383   -67161   -52955   -46059   -43745   -39081 
  -33644   -29381   -22800   -12889    -4192      393    -1058   -10134 
  -22220   -27990   -20562    -2953    14423    25287    26722    18792 
   10302     6600     3305     -302    -2082    -3012    -4676    -9934 
  -17289   -21340   -23550   -22760    -9482    13052    29048    34682 
   33993    23212     4029   -10134   -15344   -19037   -20060   -14692 
  -12269   -17323   -17068    -5627     6492    12530    17771    26810 
   31795    24490    13011     6434      533    -8242   -18533   -28766 
  -33201   -31443   -32657   -34357   -27530   -18823   -13409    -5703 
    1371     2260    -2060   -10749   -19976   -23220   -17778    -6952 
      -2    -1903    -7282   -11685   -16397   -20442   -20327   -16528 
  -11594    -6345     -618     5798     7941     -125   -11688   -17711 
  -21252   -25564   -25319   -14474     2818    13863    16452    16849 
   11593     -319    -8250    -8627    -7401    -7083    -6303    -3240 
    4469    13852    14239     2840    -9508   -14945   -15053   -14485 
  -16311   -18806   -18296   -15488   -13756   -13041   -12798   -15615 
  -21099   -23524   -18137    -8410    -3998    -6841    -9764   -11223 
  -13809   -14431   -13116   -13586   -11506    -5849    -5429    -9599 
   -8481    -2647     -946    -4337    -7069    -7257    -5698    -2640 
    1702     7561    11336     8126     2036     -561    -2034    -5101 
   -7118    -7828    -7135    -1563     4526     3191    -3020   -12320 
  -24643   -28499   -19532    -8774    -1889    -1001    -8059   -15308 
  -17775   -19128   -16744    -8729    -3400    -4242    -7521   -12540 
  -19407   -26727   -31048   -28657   -22927   -18730   -15431   -14835 
  -19895   -26760   -31301   -32878   -28388   -17323    -7746    -4353 
   -2310      167     -965    -3817    -2223      884     -983    -3268 
     -39     2956      410    -3489    -8110   -17884   -28074   -31982 
  -30693   -23359   -11855    -4460    -1541    -2519   -11006   -18807 
  -16706   -11114    -8708    -6510    -1688     2182    -2592   -17033 
  -29580   -30797   -23767   -14028    -4266     3771     9106     7994 
    -400    -8057   -10187   -10803   -14554   -21584   -27005   -28334 
  -29767   -30323   -22426    -9145    -2041    -4066   -11226   -19320 
  -24374   -24208   -18457   -11873   -10391   -10556    -9794   -13085 
  -16757   -14389   -13379   -17184   -15778    -7176     1711     7568 
    6968     -583    -8416   -12464   -13752   -12574    -8130    -2910 
   -1579    -2470    -2158    -2388       72     8011    12076    10667 
   13640    17260    15050    13936    13655     7317    -1754    -8967 
  -11690    -8210    -4667    -3629      224     5240     7014     6816 
    5747     4725     4426     2162    -1963    -4223    -5189    -6498 
   -5962    -5044    -7490    -8767    -4067     1548     4509     6035 
    2165    -8063   -17344   -22715   -23617   -18738   -14439   -14950 
  -15078   -14314   -15603   -15466   -11506    -6704    -4769    -8631 
  -16413   -19974   -14898    -8168    -9498   -18082   -24393   -24450 
  -24621   -27979   -27874   -22756   -20311   -20136   -15020   -11561 
  -18595   -25981   -26362   -25895   -20562    -7574    -1105    -2636 
    -989     -829    -5554    -5650    -2940    -5046    -6568    -3168 
   -1067    -2812    -3508     -775     1733     -691    -6902   -10441 
   -8213    -3252     -912    -4363   -10006   -14392   -21347   -28650 
  -26440   -18542   -16453   -16051    -9541    -2688    -1252    -2080 
   -3755   -10160   -21381   -30200   -31015   -25459   -17684   -12857 
  -16513   -24679   -25736   -18154    -9819    -4616    -3452    -6603 
  -10639   -13251   -15785   -17405   -18303   -21800   -24384   -21509 
  -18770   -19712   -21137   -23987   -27337   -24222   -15714    -9593 
   -7148    -5576    -4377    -5475    -8844   -10034    -7384    -2999 
    1852     4195     2183    -2385    -8387   -12107    -8781    -1296 
    7281    16921    20492    15530    11871    10698     5443     -500 
   -2028    -2332    -4222    -5201    -3370    -1286    -3153    -8640 
  -11796   -10012    -6837    -4016    -2667    -5177    -8082    -7824 
   -7487    -8225    -9223   -10870   -10666    -9308   -12031   -17375 
  -21080   -23963   -24530   -19670   -13719   -11699   -11260   -10266 
  -10674   -12926   -15894   -19081   -21931   -23157   -21498   -19801 
  -21780   -24742   -26462   -28265   -28134   -25824   -24043   -21403 
  -18073   -15704   -11327    -5949    -3568    -2088    -1609    -5431 
  -11414   -18212   -25982   -28825   -24210   -19820   -20885   -24147 
  -25640   -24771   -22612   -19492   -14214    -8652    -7762   -10636 
  -14744   -22721   -31969   -36493   -35262   -26633   -13329    -2925 
    5081    11344    11130     6480     1124    -4981    -8072    -7943 
   -9476    -9302    -4530    -1707    -2447    -2112      324     4377 
    8505    10392    11277    11439     9476     8103     8155     6186 
    2161    -2728    -6884    -4868     2872     7406     4989    -1057 
   -7763   -12850   -14997   -14209   -10913    -7826    -7482    -8183 
   -6718    -3687    -4370    -9965   -14107   -13398   -10702    -9794 
  -12303   -16549   -20493   -22495   -19719   -12620    -6481    -4852 
   -6633   -10342   -16253   -23819   -30543   -32541   -28486   -23620 
  -21208   -18478   -17432   -20019   -19677   -15192   -12245   -10524 
   -9788   -12533   -15555   -17798   -22808   -26579   -23310   -15393 
   -8145    -5411    -6570    -8362   -12304   -18510   -21608   -21228 
  -20102   -17819   -17939   -23907   -29467   -29822   -27924   -24118 
  -16694    -7851    -1343     1196     2112     2797      205    -4679 
   -6020    -2825     2009     6476     8249     6191     1503    -3956 
   -7265    -6259     -780     7054    10321     4575    -4878   -11089 
