Origin Time       2011/03/11 14:46:00
Lat.              38.103
Long.             142.860
Depth. (km)       24
Mag.              9.0
Station Code      GNM006
Station Lat.      36.5105
Station Long.     138.7527
Station Height(m) 549
Record Time       2011/03/11 14:47:32
Sampling Freq(Hz) 100Hz
Duration Time(s)  300
Dir.              N-S
Scale Factor      3920(gal)/6182761
Max. Acc. (gal)   108.759
Last Correction   2011/03/11 14:47:17
Memo.             
[...]
  -29191   -18001    -4202     9214    17258    16328     7666    -4815 
  -17718   -27527   -33464   -37839   -40149   -39093   -35795   -28421 
  -13303     7315    25808    35439    33624    21191     1260   -20583 
  -38255   -48130   -48641   -40171   -25656    -7582    12947    32437 
   44760    45614    35247    17207    -2797   -18135   -26443   -31098 
  -34885   -36235   -31291   -17896     1457    21045    35623    42555 
   42338    36942    27372    13779    -3652   -23562   -41733   -53065 
  -54581   -45805   -29253    -9886     8084    22982    33320    35930 
   28916    14564    -2478   -17835   -28037   -30691   -25658   -17425 
  -12719   -12933   -14009   -13915   -14782   -17893   -21007   -22313 
  -23354   -26286   -30659   -34117   -35175   -33257   -27832   -19664 
  -10904    -4186    -1993    -5091   -12172   -20323   -24615   -20651 
   -9723     1760     8887    10608     7005     -416    -7661   -11410 
  -11829   -10534    -6716     1296    10707    16354    16594    13175 
    9517     8659    10206    11540    10412     6207      822    -3881 
   -8327   -13166   -18355   -23136   -24892   -21749   -15498    -8752 
   -2367     3181     7697    12069    15431    14264     7172    -3944 
  -17246   -30855   -41517   -46243   -44202   -37175   -29389   -25160 
  -24559   -23385   -18799   -11944    -4894      955     4360     4760 
    2021    -3822   -11555   -19295   -25598   -28792   -26199   -15985 
    -128    16377    29497    37426    38557    32308    22144    12681 
    4539    -3807   -12258   -19889   -26265   -30815   -33226   -34708 
  -36744   -38541   -37573   -32155   -22529   -11023    -1227     5246 
    9565    11728     9603     1920   -10217   -23218   -32870   -37183 
  -36981   -34717   -31274   -25204   -17268   -10720    -6382    -1836 
    4893    12374    16810    15369     7603    -4740   -18272   -29626 
  -37744   -43422   -46408   -45878   -42363   -36237   -27281   -16451 
   -4926     7048    18285    25831    26652    19754     7058    -8708 
  -26017   -43389   -58037   -66266   -65347   -55751   -40552   -22774 
   -4511    13384    31730    50009    62744    62468    47100    21457 
   -8477   -37965   -60920   -70663   -64330   -44637   -17458     9958 
   30787    42233    44733    39959    31317    20178     4317   -15519 
  -34495   -49261   -57907   -58838   -53204   -43158   -29027   -12140 
    3510    14876    21295    21950    16223     6420    -3662   -11863 
  -17127   -18490   -16594   -13864   -11860   -10227    -8088    -5624 
   -5227    -9429   -17474   -27049   -37060   -45246   -46781   -39651 
  -28253   -16969    -4991     7884    17429    21154    21075    18946 
   15658    12446     8317     1041   -10108   -24613   -38927   -46554 
  -43778   -31850   -13799     7644    28897    43976    48065    42238 
   30025    12704    -7889   -26861   -39327   -43725   -41854   -35908 
  -26142   -11773     6166    22730    31828    30716    20337     3870 
  -15520   -35136   -49398   -51612   -40007   -18445     5702    23789 
   30375    25739    13612    -2170   -18809   -32872   -40296   -40602 
  -37457   -33594   -29160   -24039   -18259   -11817    -5380      774 
    7137    11923    11196     4188    -5694   -15465   -24079   -30317 
  -32984   -32408   -29678   -25890   -22950   -22606   -23855   -24251 
  -23805   -24339   -25839   -26621   -26618   -27040   -27622   -28140 
  -29866   -33402   -38218   -41967   -39915   -30834   -20229   -12947 
   -8110    -3631    -1062    -3709   -11574   -20919   -27948   -30319 
  -26617   -17557    -7052      -13      772    -4064   -11040   -16433 
  -18230   -15524    -9215    -2940     -658    -4078   -11498   -19301 
  -25605   -29805   -29912   -24048   -12850      727    12453    18894 
   19408    15188     8213     1693    -2047    -4244    -7998   -14840 
  -23382   -30883   -35598   -36361   -32234   -24355   -16003   -10461 
   -9120   -11248   -15085   -17721   -16829   -14444   -13308   -11623 
   -8403    -7341   -10728   -16873   -23478   -28408   -29440   -25480 
  -17737    -9365    -3059      238     1017      768      645      874 
     892     -762    -5133   -12179   -21231   -30075   -35419   -35101 
  -28944   -18289    -5086     7600    15317    15573    10028     2275 
   -4620    -9466   -12671   -14090   -13494   -12652   -13025   -13246 
  -12196   -11871   -14908   -21080   -27781   -32945   -35669   -35504 
  -33175   -30328   -27364   -22521   -13782    -1749     9546    15686 
   15233     9166     -358    -9306   -13581   -13718   -14359   -17773 
  -21536   -23105   -23473   -25905   -32292   -39929   -43646   -42202 
  -38207   -33378   -27858   -21158   -13183    -5338      725     4617 
    7231     8582     5551    -4584   -19492   -33866   -43700   -47635 
  -45824   -38939   -28981   -17777    -5288     6527    13002    12591 
    7883     2062    -1980    -1934     1333     2388    -4016   -16537 
  -28145   -33434   -33191   -31013   -27907   -21455    -9750     4645 
   17424    27071    33795    37999    40180    38879    30683    14799 
   -4238   -20735   -32681   -39532   -39270   -30658   -15204     2375 
   15279    18808    12270    -1578   -17127   -29826   -38808   -43609 
  -42232   -33487   -18845    -2451    10895    19202    23754    25931 
   24957    18366     4482   -14132   -31303   -42508   -45866   -39814 
  -25013    -4670    18454    40814    56818    62489    58076    45784 
   27546     6562   -13090   -29435   -41476   -47590   -47453   -41877 
  -30980   -15308     2787    20353    34858    42998    41046    28723 
   10257    -9437   -27024   -39915   -46031   -44957   -37801   -25306 
   -8992     6300    15923    19940    21769    25472    32635    39248 
   39053    29999    15347      139   -12610   -22576   -30332   -35760 
  -36757   -31345   -21711   -12011    -4177      464     -636    -8313 
  -19685   -30741   -38650   -41315   -36922   -24840    -7336    10300 
   22939    29343    31972    32287    28449    19717     9617     2127 
   -2275    -5046    -6886    -7478    -5585       31     8918    19316 
   28903    35307    37233    33768    23987     8405   -10531   -28251 
  -39488   -42228   -38651   -32164   -25422   -20699   -19135   -18513 
  -15392   -10782    -9887   -14737   -21238   -25822   -29552   -33510 
  -36028   -35220   -30806   -23630   -14300    -3479     6685    13395 
   15356    13380     8947     3538     -404     -759     1251     1061 
   -5000   -15903   -27140   -34263   -35061   -30725   -24208   -16448 
   -6815     4166    15545    25272    28703    22806     9393    -6840 
  -20579   -29051   -34438   -40093   -44676   -43215   -34083   -20757 
   -6271     7439    15054    11324    -1865   -18366   -33638   -44329 
  -49056   -49075   -44254   -33954   -20047    -4223    12573    27339 
   35564    34274    23738     6918   -11792   -28499   -41955   -52402 
  -58830   -59605   -54077   -42222   -24670    -3584    17249    33700 
   43497    47210    45774    37652    21680     1906   -14940   -26243 
  -32602   -32015   -22654    -8494     4194    11692    13049     9904 
    4267    -3570   -11662   -16038   -17007   -18690   -21758   -23398 
  -22770   -20659   -15598    -6552     2417     5275     -856   -14405 
  -30018   -42171   -48094   -45631   -33045   -13027     8643    28886 
   46075    55338    52104    37788    17177    -7362   -35270   -62404 
  -81987   -91252   -91428   -82820   -63608   -32914     4422    37965 
   58231    61849    51122    29498     1061   -26092   -45199   -55672 
  -57884   -51835   -38234   -16959     9438    33586    48818    53808 
   51007    41888    25373     1728   -25483   -52462   -75268   -88446 
  -88737   -76154   -51827   -21082     6776    25538    33739    31871 
   20879     1327   -23408   -45208   -57128   -57799   -49373   -35266 
  -20240    -9695    -6017    -6526    -6655    -4250     -330     3233 
    5021     3203    -3911   -15464   -27866   -37481   -43650   -47529 
  -47849   -42915   -34629   -25540   -15844    -5199     4974    11987 
   13353     6920    -6585   -21556   -33052   -40495   -44258   -44798 
  -43269   -40292   -36056   -29997   -21335   -11452    -3488      350 
     510    -1217    -4701   -10425   -17026   -23111   -27045   -24620 
  -12898     5827    26228    42662    50719    48599    36381    14728 
  -13877   -43450   -66510   -78262   -78048   -67755   -50267   -28014 
   -2169    25878    52825    73761    84493    82990    68130    41016 
    7758   -24014   -48915   -62302   -61876   -50007   -30016    -5856 
   15574    29125    33985    30284    19346     4100   -14024   -34127 
  -52610   -65214   -70117   -67411   -58157   -43585   -24329    -1658 
   21171    39931    51912    56284    51420    35316    10465   -15727 
  -36474   -48115   -49166   -41204   -28104   -12275     5752    24651 
   41476    53062    57907    55860    45657    26714     3936   -15846 
  -31624   -46264   -59598   -67459   -65337   -52568   -34278   -17210 
   -4652     1738      164    -7947   -17711   -25993   -33393   -39027 
  -37853   -26642    -8087    12289    30259    43856    51488    51387 
   43315    28618     9440   -10953   -28120   -37641   -38653   -35129 
  -30609   -25821   -21870   -19922   -19437   -18433   -13407    -2879 
    7777    10682     2913   -13510   -32900   -47328   -53012   -51971 
  -46717   -38071   -25983   -11958     -314     6499    10121    12710 
   15685    19694    23148    22594    14607    -2097   -23975   -43928 
  -56729   -60479   -55001   -41931   -24661    -7918     2947     4956 
     -76    -8963   -21511   -36769   -49106   -52874   -46064   -29615 
   -7014    18157    43286    63151    70750    63765    45447    19407 
  -11695   -43131   -68674   -83775   -85844   -74002   -50296   -19228 
   14928    48827    76972    92383    92231    77204    48154     9379 
  -30973   -65985   -89451   -95457   -84248   -60713   -27880     9657 
   41908    58320    54177    34433     8713   -18074   -42323   -55977 
  -54490   -42781   -29051   -17814    -9347    -3304     -946    -3207 
   -7880   -11406   -12641   -13508   -16817   -21519   -22675   -18516 
  -12538    -8220    -5378    -1925     2811     6907     7509     3279 
   -5563   -17317   -28618   -37002   -42027   -43586   -41100   -32824 
  -18140     -838    15741    32894    51372    67471    75338    71653 
   59065    43091    26763    10914    -4593   -20334   -34013   -40889 
  -38176   -26348    -9149     8418    23335    32558    32087    20752 
     -65   -27492   -55547   -78193   -92324   -95775   -87566   -68555 
  -40102    -6107    26371    50678    62006    58514    42956    21175 
   -1423   -23007   -43504   -61191   -73628   -77113   -67313   -44444 
  -12969    22948    59116    88830   106318   112362   110064    98246 
   75836    46148    14360   -13365   -30909   -34380   -23496    -3785 
   16524    30573    31623    17842    -4373   -27480   -46370   -58571 
  -64058   -61897   -50059   -28665    -1496    25479    45759    53524 
   46394    26595    -1056   -31740   -60476   -79579   -79992   -56318 
  -11003    44114    91942   118024   116983    93359    54517     5952 
  -44489   -85732  -107737  -104247   -78414   -42914    -9901    12051 
   16371     3550   -17374   -36279   -48220   -53454   -53629   -48515 
  -39109   -30478   -23755   -12142     8146    32293    52570    63281 
   62745    50054    23789   -12480   -50831   -83801  -105210  -111525 
 -102613   -81592   -55141   -29761    -9964     1495     8001    15291 
   23540    30491    33785    31797    25573    13939    -4953   -26674 
  -44700   -55395   -56884   -50146   -39750   -29901   -21285   -12906 
   -4931      443     -166    -8450   -21564   -32937   -37777   -36937 
  -32503   -23165    -8157     8587    21649    27700    25506    16204 
    3153    -9336   -17492   -19525   -15504    -7142     2332    10200 
   14713    13498     4514   -11103   -27412   -37400   -39252   -34107 
  -20866      718    25836    46628    57146    55512    41842    17041 
  -16324   -53052   -85664  -109094  -122653  -124986  -113373   -87885 
  -52405   -14053    18857    40336    47626    40706    22794     -486 
  -24047   -44394   -58526   -64244   -59218   -41331   -14413    12613 
   33598    46304    50612    48425    42186    33333    20855     3006 
  -18491   -39155   -55067   -63327   -62286   -54245   -43870   -32460 
  -20966   -14882   -17859   -25373   -29342   -27920   -27326   -32684 
  -41956   -49218   -49644   -42110   -29365   -16270    -6267     1350 
    8197    13998    19230    24087    27239    28099    25300    18517 
   12141     9569     9188     8850     8578     8263     5334    -2383 
  -12125   -19174   -22746   -25446   -29913   -36845   -44724   -52590 
  -60573   -66145   -66379   -61922   -52139   -34717   -11779    12008 
   33545    51119    63998    71444    71794    61119    34785    -4298 
  -44955   -78440  -101910  -111556  -100735   -68983   -25793    19033 
   59055    86095    94101    83374    56591    21491    -9444   -30724 
  -43611   -48771   -48777   -48293   -49992   -54679   -60455   -63064 
  -60936   -54130   -40381   -19528     2771    19428    27097    27067 
   21297    11500     3393      889    -1053    -7661   -17271   -25591 
  -29090   -27586   -24042   -19759   -15986   -13699    -8918     1035 
   13096    21846    20890    10122     -812    -3712     4250    25685 
   56984    84043    94037    83488    54893    12836   -37658   -89997 
 -136179  -168940  -181825  -171436  -139929   -94304   -44600       24 
   33855    53404    56742    44063    18142   -14519   -42794   -54300 
  -44678   -22335     1579    22963    40479    51824    55746    50018 
   33011     8600   -17024   -37373   -45277   -39648   -27621   -16901 
  -11051    -9817   -10366   -10399    -9829    -8754    -7402    -6957 
   -8471   -13782   -24529   -36778   -43458   -43255   -39343   -33781 
  -30303   -32978   -37662   -38178   -35645   -29646   -15729     4494 
   22544    31453    31056    21956     3095   -21145   -45014   -67680 
  -88944  -104566  -106596   -89292   -52720    -4176    42458    77914 
   99884   104610    91880    66029    28699   -13749   -49773   -73851 
  -82335   -71177   -45172   -15643     9420    29247    47341    64036 
   73818    70553    51736    18137   -25873   -71701  -109682  -131231 
 -130681  -110813   -80235   -45218   -10734    18440    39626    51978 
   56952    55266    46401    33696    22889    16557    12473     7535 
    1085    -8781   -24044   -40138   -50289   -53013   -50722   -46308 
  -41836   -38452   -36269   -34985   -34664   -34301   -32683   -30235 
  -27778   -24997   -20945   -16287   -12495    -9153    -5716    -2929 
    -137     4891    13436    24374    33448    35817    30416    19872 
    7371    -5701   -18636   -27218   -25205   -11547     8927    31452 
   52448    65692    64752    50494    29902     6936   -18490   -42535 
  -57175   -57402   -44322   -24870    -6401     9803    23536    30760 
   29747    23285    13143    -1278   -19108   -35759   -45388   -44087 
  -30197    -5560    23659    49982    66857    70946    65060    54090 
   38398    15587   -12916   -39022   -51751   -44654   -21027     7834 
   31422    45892    50692    45416    30377     6274   -23750   -52679 
  -73907   -83067   -77178   -59501   -39291   -20710    -2393    13207 
   21386    21288    16039     8978     -146   -12468   -26300   -38869 
  -45832   -41712   -25785    -2379    22101    37439    35441    20487 
    3230   -11037   -19985   -21933   -19255   -15809   -13599   -12813 
  -10924    -5412     2938    11188    15299    13763    10204     8280 
    8299     8768     8073     5580      938    -5617   -12249   -17917 
  -23573   -29400   -32722   -29340   -17136     2205    23534    38256 
   38288    22867    -2303   -32199   -63770   -92481  -112909  -120529 
 -112023   -87542   -51200    -8230    35260    71203    91706    93402 
   79427    54882    21952   -17388   -57550   -91015  -111458  -115318 
 -101989   -73219   -33518    10096    50777    83000   101279   100972 
   81736    48752     9618   -29357   -63754   -89119  -100618   -94823 
  -71544   -36557     -532    28364    47999    59551    65050    65460 
   59602    45850    24639    -1582   -29810   -56042   -73521   -74396 
  -57372   -30810    -4318    16185    26840    28243    23270    11258 
   -7779   -29128   -47265   -58288   -60663   -55530   -45354   -34360 
  -26909   -24146   -26091   -32576   -39697   -41547   -36682   -27928 
  -15724     2421    25909    49102    65183    69978    62565    44972 
   21618    -4050   -31140   -57070   -74878   -77198   -63146   -39767 
  -14852     8066    27528    41566    47103    42123    28324     9157 
  -12426   -33501   -52137   -66834   -74572   -72664   -58867   -32517 
    -915    23583    33432    27232     7728   -18657   -44553   -64577 
  -76243   -77449   -64845   -39592    -8972    21168    47167    62833 
   63445    51390    32162    10931    -5450   -12219   -12429   -13208 
  -17318   -22181   -24871   -23302   -16867    -9098    -5227    -6999 
  -12041   -16158   -16526   -14074   -11251    -9246    -7252    -3449 
     799     2256     1315    -1064    -6568   -15648   -26033   -33664 
  -34031   -26297   -13857        3    13949    27189    38097    44552 
   45144    38981    25516     5951   -15828   -33923   -43397   -44691 
  -42702   -39564   -32384   -18692     -327    17285    27446    25687 
   12801    -6946   -29193   -50405   -69012   -83859   -90550   -83927 
  -63333   -32564     3137    37791    64253    76477    72115    51716 
   18972   -17801   -50109   -73687   -85562   -83870   -72231   -54813 
  -28386    10187    53596    89815   111471   116596   106435    82075 
   44245    -1127   -45077   -81662  -104960  -109870   -97507   -70703 
  -31346    15475    63914   106257   131579   136454   122253    86982 
   36034   -16701   -62949  -100274  -122903  -126154  -114697   -94172 
  -66219   -36313   -12761      -72     4058     4453     -193   -13100 
  -31402   -49549   -64115   -72825   -71901   -59235   -38678   -14931 
    9958    30798    40077    35797    21489     2939   -13845   -26000 
  -33838   -37452   -36039   -31519   -27415   -23673   -18488   -12420 
   -7185    -2530     2975     9694    17488    24503    27554    26585 
   23649    20517    19521    20575    20335    17816    14470     9919 
    3924    -1181    -2798     -459     2963     3356      106    -3389 
   -3441      902     7925    16192    24876    31001    30993    23839 
   10776    -5842   -23666   -40394   -54040   -64170   -70103   -70500 
  -66380   -60225   -52553   -42166   -29129   -16302    -7793    -5745 
   -8929   -14746   -22166   -32069   -43084   -48780   -43463   -29157 
  -12262     3264    15104    20487    17562     6166   -10584   -27365 
  -41611   -52651   -58906   -59805   -55138   -44061   -28778   -14337 
   -4162     1638     5379     8917    11896    13367    12574     8817 
    2500    -4624   -11371   -18177   -24255   -26474   -23381   -16046 
   -5240     7432    18343    24747    26378    24482    20594    14478 
    4563    -8036   -19606   -28538   -36043   -42749   -47503   -48571 
  -44985   -37615   -29056   -22057   -17933   -17571   -23043   -34976 
  -50430   -66294   -80295   -87676   -83908   -70278   -51572   -30194 
