Origin Time       2011/03/11 14:46:00
Lat.              38.103
Long.             142.860
Depth. (km)       24
Mag.              9.0
Station Code      GNM013
Station Lat.      36.3181
Station Long.     139.0174
Station Height(m) 93
Record Time       2011/03/11 14:47:41
Sampling Freq(Hz) 100Hz
Duration Time(s)  300
Dir.              U-D
Scale Factor      3920(gal)/6182761
Max. Acc. (gal)   70.813
Last Correction   2011/03/11 14:47:26
Memo.             
[...]
  -41798   -45216   -45071   -41040   -37408   -34588   -29246   -19933 
   -8272      898     1315    -6654   -13019    -7993     6142    16630 
   15061     3053   -16228   -36519   -42305   -26212    -7628   -10935 
  -30205   -37423   -22171    -2899     -837   -18915   -42418   -50284 
  -33118    -4626    10628     3528    -8800    -6260     7539    17700 
   20880    18382     8488    -3272    -5743     2309     9508     6533 
   -1431    -2482     5221    12311    11015     3768    -2525    -7585 
  -14878   -21420   -21770   -18488   -19427   -26742   -35003   -40647 
  -46523   -52136   -48681   -32610   -14746    -8594   -15678   -27004 
  -34555   -34005   -22604    -4317     9844    12483     7982     6675 
    9159     6816     1438     4668    15641    20951    15880     7701 
    1704    -1982    -2409    -1132    -5612   -17600   -27142   -26893 
  -20465   -11920      580    15455    23210    18859     8988     1063 
   -5137   -12101   -17748   -18702   -16330   -14931   -14997   -12720 
   -8064    -5450    -3802     3663    16479    23009    14817    -3135 
  -19984   -28368   -26565   -17516    -7861    -5577   -14649   -31808 
  -45900   -44871   -31683   -21056   -17687   -16342   -17120   -21878 
  -24623   -21410   -20063   -24490   -24182   -13936    -3576      836 
    5179    13578    20572    19347     9914    -4334   -21386   -38593 
  -51381   -56030   -52540   -44646   -36779   -32175   -33064   -37919 
  -39720   -33168   -21506   -12528   -12293   -21855   -35433   -44249 
  -43564   -37269   -35111   -40491   -44984   -37492   -16045     6133 
   10768    -3910   -20814   -25646   -20137   -13341   -12969   -24056 
  -41574   -48172   -32212    -3906    15594    16376     3451   -13329 
  -23973   -22974   -17224   -19453   -30825   -40576   -41368   -36326 
  -33286   -36283   -42713   -45864   -40655   -32540   -32991   -39722 
  -36425   -17771    -1363    -6691   -27501   -37148   -22315     1107 
    9994      888   -12163   -17566   -16516   -16718   -20184   -24023 
  -28934   -32271   -24567   -10715   -12356   -30219   -34705   -14936 
    -118   -10728   -29606   -37885   -37907   -31677   -15713     -229 
    1319    -1084    11709    33809    41585    30254    17101    10511 
    5207     4602    13850    18746     4695   -17058   -27728   -27479 
  -26913   -28573   -29103   -29607   -32755   -36671   -39975   -43599 
  -44853   -40461   -35090   -36949   -43779   -43306   -30469   -13289 
    -306     6583     7942     6869    10163    20181    31406    37934 
   37350    31430    26708    27323    27716    18313    -1855   -21661 
  -29064   -24113   -18095   -20002   -25666   -24270   -15550   -10084 
  -13032   -21374   -31328   -37024   -31477   -15785    -3269    -9850 
  -36132   -62689   -67626   -46872   -17725    -2016    -4363   -12022 
  -15302   -15779   -14268    -7759     1146     6473     5655    -2847 
  -17549   -30190   -34611   -33540   -29122   -18460    -6837    -7325 
  -18582   -24565   -20115   -16626   -22509   -32425   -36525   -31952 
  -23900   -20918   -27661   -39139   -46353   -44999   -36202   -27620 
  -29561   -39143   -39786   -26269   -15442   -21125   -33296   -35418 
  -26544   -14953    -7192    -7174   -11548   -10730    -2097     5793 
    4066    -7245   -21929   -34367   -40778   -39940   -34372   -26173 
  -14715    -1606     4811    -4664   -24631   -34354   -22725    -2652 
    7762     5422    -2285    -9835   -12992    -5457     9348    11895 
   -7667   -29992   -32958   -20791   -13116   -19276   -30767   -34062 
  -28918   -29730   -42369   -50115   -38294   -20074   -16774   -23875 
  -21266    -7537     3726     9150    11112     5264    -6637    -8514 
    6868    21579    19365    11163    11751    14645    11179     8283 
   11300    11574     2888    -6044    -7261    -8422   -17278   -23862 
  -16068    -2330      553    -7646   -16427   -23009   -29851   -35562 
  -35390   -26573   -14118    -7775   -11559   -20582   -27145   -28111 
  -25113   -20362   -17704   -20170   -21959   -12731     7162    22027 
   16822    -3975   -21071   -23803   -19563   -17962   -18714   -19843 
  -23046   -28129   -34457   -44401   -54568   -52470   -34000   -13672 
   -6318   -10661   -18298   -23910   -23008   -15609   -11334   -16487 
  -22825   -22095   -19662   -22769   -28118   -28831   -25360   -22197 
  -19068   -15830   -17456   -23667   -26930   -24570   -18805    -9457 
    -420    -3788   -21668   -35281   -29249   -11892     2450    10862 
   13020     8041     4035    10902    23880    28373    19682    10178 
   15457    32971    40505    25932     6797     3752    12381    18273 
   17818     9706   -11178   -37638   -48739   -37618   -22652   -22161 
  -34487   -47717   -54506   -53320   -46189   -38655   -35155   -32957 
  -24692    -8786     5654     7160    -5721   -20514   -21918    -8437 
    7200    13507     9925     2879    -1024     1820     8641    10511 
    2361    -9218   -13063    -6504     2329     6184     6479     4701 
   -2629   -13763   -22149   -30596   -45398   -57229   -50729   -31263 
  -18919   -17773   -15258    -8804    -7483   -11010    -9394    -1598 
    2037    -2662    -7816    -8633   -10919   -18589   -24118   -17866 
   -1225    14539    17767     4498   -16025   -27247   -22374   -10886 
   -6192   -12552   -23169   -25757   -14772     -690     1552    -7919 
  -15469   -11200     2809    14698     9533   -13213   -30665   -23905 
   -6484    -4911   -21491   -36866   -39383   -32147   -19799    -5533 
    5878    12067    12861     5197   -10617   -23789   -25092   -18812 
  -13040    -8280    -4127    -7360   -21236   -34103   -33143   -21552 
  -10743    -5953    -7765   -17351   -31452   -40191   -37795   -28593 
  -18793   -11427    -9688   -14793   -21089   -22590   -23458   -31533 
  -41717   -39812   -24910   -13304   -16469   -26647   -28312   -17061 
   -3098     1520    -4354   -12008   -14766   -13241    -7706     3746 
   15403    16630     7888      132    -2252    -4567    -8834   -11373 
  -11679   -12425   -14433   -17734   -23739   -32490   -38882   -37705 
  -31925   -28621   -29694   -32364   -35947   -43278   -51678   -48445 
  -28205    -8107    -8531   -26471   -43307   -48205   -40756   -22195 
    2032    18482    17011     3062    -8479    -9168    -2697     2967 
    5100     6128     6279     1910    -8345   -18800   -19180    -6617 
    7335    11313     7061     -263    -9805   -18957   -23324   -24672 
  -30091   -40440   -47145   -46306   -46665   -55089   -62933   -55858 
  -32027    -4233    13734    18737    17146    17535    24591    33304 
   31566    15557    -3500   -13126   -12437    -7627    -3417    -4218 
  -13042   -22839   -21573   -10356    -3777    -9286   -17725   -18939 
  -15776   -16109   -20601   -23743   -23010   -24324   -34184   -46063 
  -44110   -24591    -4647    -1390    -9602   -12002    -3601     7194 
   13251    12569     3404   -12864   -26082   -26563   -18519   -12668 
   -9029      866    17431    30964    35242    32630    28199    26836 
   32748    43517    45625    30757    11912     3697     1638    -4361 
  -14184   -26458   -42333   -48270   -33871   -21921   -31741   -46292 
  -44721   -30502   -20564   -20376   -20338   -17697   -18218   -21269 
  -25794   -35971   -47127   -45751   -34345   -32893   -45908   -54771 
  -46852   -29705   -19119   -21911   -27516   -22929   -12681    -9077 
  -10771    -8052    -2175    -3375   -12447   -18308   -16039   -15155 
  -23511   -33019   -30031   -16005    -9645   -22918   -42843   -48516 
  -37965   -28022   -32574   -46738   -54068   -47895   -40899   -46658 
  -56710   -54204   -38558   -20597   -11143   -10203    -5619     4299 
    7044    -1807    -7878      167     9259     8999     4318    -5616 
  -18663   -28128   -34295   -31850   -14466     7043    12626    -4492 
  -25036   -24216    -6711      401   -12183   -27100   -31161   -29058 
  -25252   -18974   -14972   -18256   -24136   -23652   -15289    -8567 
  -13418   -28060   -42494   -49378   -46592   -34868   -19492   -10897 
  -14676   -21898   -21197   -18271   -25659   -37695   -37542   -24965 
  -16562   -19429   -21890   -14521    -5902    -7676   -16247   -21624 
  -21796   -18173   -11088    -4802    -4557    -8235    -8590    -4314 
    -763      -50    -4058   -15451   -26025   -26238   -22069   -23263 
  -24686   -18631   -11961    -8976    -7054   -10682   -19358   -28325 
  -39832   -49536   -48663   -41316   -40113   -48589   -54289   -47311 
  -36776   -34576   -36546   -32298   -24980   -25395   -29876   -28441 
  -25692   -27824   -28490   -22240   -14228   -14241   -24023   -30614 
  -22679   -10358   -13201   -30033   -37969   -25439    -8692    -6376 
  -15248   -22542   -24263   -20988   -13369    -7242    -7680   -10681 
  -12266   -14232   -15575   -14751   -17583   -25926   -28122   -16467 
   -2098      831    -4677    -4815     5620    19252    26809    25047 
   17129     8213      391    -7092   -13291   -15676   -15777   -17863 
  -21246   -20877   -14830    -7286    -3532    -3304    -2969    -2670 
   -5843   -12601   -17548   -16186   -11684   -11152   -15916   -20152 
  -19830   -18130   -19669   -23802   -25825   -22350   -15265    -9765 
   -7473    -5121    -1873    -1933    -5289    -3471     6693    13153 
    4710    -8676    -7469     6627    12568     3847    -5194    -5996 
   -4459    -5388    -7400   -13140   -25872   -34635   -25563    -6010 
    4076    -2037   -14559   -21943   -21378   -18154   -20091   -31046 
  -44799   -50164   -45090   -37032   -30002   -22017   -14647   -12064 
   -9250     2923    19395    24550    15523     6889     9221    16408 
   17230     7644    -7500   -17865   -17905   -12157    -7135    -6630 
  -11645   -17778   -18603   -13525    -8850    -9421   -12197   -11300 
   -4363     6652    15059    10882    -8080   -25840   -25346   -13933 
  -11513   -22033   -33755   -38250   -37041   -35704   -38893   -44896 
  -43241   -26171     -854    14755     8088   -13143   -25866   -18919 
   -7930   -13158   -31316   -42497   -37744   -26500   -21688   -25167 
  -26778   -17457     -578    11457     8051    -9394   -25295   -24837 
  -11744    -2517    -4991   -13797   -22492   -25885   -18682    -6966 
   -7591   -22896   -33367   -25671    -9521     -545    -3223   -12618 
  -21553   -26578   -29222   -29858   -26109   -21021   -22497   -28482 
  -26158   -13632    -7013   -16096   -27797   -26594   -17831   -14651 
  -14851   -10115    -5425    -8902   -13938    -8732     4721    14100 
   14520    10738     5150    -1936    -6359    -9303   -18666   -31051 
  -34484   -31558   -34966   -43355   -43149   -31048   -18881   -16669 
  -21717   -24899   -22072   -17754   -16956   -18086   -19704   -26506 
  -39386   -47629   -42093   -29356   -21793   -21784   -24327   -23629 
  -15504    -4366     -101    -4945   -13092   -17397   -12916     -501 
   11914    13358      296   -16652   -21765   -10717     4949    11302 
    4089    -7151    -5180    11633    23379    13188    -8965   -16659 
   -7135     1351      708   -11172   -28812   -36894   -32721   -23821 
  -15166   -13583   -22369   -32505   -30604   -15383      651     6654 
    2740    -1037     5302    19374    30869    30966    17056     -128 
   -6922    -6870   -11370   -19990   -26699   -33307   -41815   -42647 
  -28608   -12692   -13367   -27010   -31556   -19077    -6213    -6982 
  -15790   -21586   -20712   -12667     1323    11803     8067    -5204 
  -12145    -7520    -1758    -3499    -8803   -11398   -12135   -11986 
   -6137    10245    28390    27170     8233    -3723    -5459    -8346 
   -9381    -4187    -3084   -10233    -9876    -4499    -8516    -9068 
   -3443    -7583   -14588   -13078    -6098     2763    10778    16102 
   15225     3248   -14846   -28231   -33360   -32708   -27228   -19135 
  -16551   -22015   -26732   -26327   -23220   -16853   -10060    -8625 
  -11449   -15867   -20373   -21068   -17664   -14678   -15218   -21421 
  -33303   -44761   -49115   -45490   -37419   -29613   -25892   -27362 
  -28563   -19895    -1446    13162    13855     7949     8957    15917 
   17234    10458     2554    -1129      706     7823    16980    17606 
    6446    -6578   -19036   -29039   -27409   -17947   -18201   -31095 
  -32905   -18078    -7188     3045    18388    24444    21646    16791 
    6819    -5637   -13130   -11244    -2166     5944     8829     9361 
    9750     6388      562      818     1354   -11839   -30810   -35644 
  -23713   -10265   -10133   -21383   -31271   -36871   -44133   -53229 
  -57997   -55773   -50580   -47159   -47307   -49827   -51234   -48330 
  -40295   -29735   -21054   -17669   -21105   -26485   -21939    -4615 
    8838     1821   -18545   -29903   -21758    -4627     4377    -1296 
  -11439   -12981   -11201   -13818   -13846   -12411   -15074   -17084 
  -18646   -26429   -37985   -35594   -17959    -9039   -11958   -22553 
  -47874   -69487   -69769   -63194   -59098   -53225   -45453   -36399 
  -25661   -13106    -1147     4913     6350    10197    14463     6879 
  -12968   -24628   -19028   -14882   -21817   -25953   -21501   -18377 
  -23091   -30911   -32339   -25153   -14038    -2777     1839    -7027 
  -22108   -29266   -27496   -24381   -18874    -4285    16687    32374 
   36682    33211    26482    19316    16143    19507    23983    19377 
     646   -26071   -44779   -41613   -23881   -15697   -27304   -47751 
  -60420   -57055   -50422   -53337   -54183   -37922   -10052     9953 
   17715    21987    24355    35903    61768    83491    95357    97574 
   82913    63887    56594    54404    41709    13099   -20428   -45326 
  -57994   -60875   -60863   -64831   -70059   -64444   -41205   -16209 
  -14387   -36738   -63208   -77024   -72193   -56667   -47116   -48777 
  -53110   -50923   -32256     4075    33672    32690    12200     1270 
    9883    20572    17161     7063     1249    -1748    -2380     2186 
    6987     3604    -6904   -15592   -18586   -20366   -26670   -41597 
  -65611   -89093   -96465   -83995   -65949   -56959   -54756   -48320 
  -37101   -31779   -38576   -48319   -46705   -35091   -28009   -31331 
  -34968   -30494   -24214   -23457   -27453   -29600   -21454    -7929 
    1923    14059    28824    33564    28533    28676    41807    57694 
   61359    51822    37599    24045    13251     7388     8258    11603 
    5251   -16723   -45513   -68449   -75964   -66775   -52761   -45764 
  -45679   -45394   -42363   -45201   -59074   -70563   -65385   -49832 
  -37509   -29288   -21797   -20910   -31493   -41363   -32436    -8476 
    7561     4569    -5108    -5794     -413    -2444   -11085   -13512 
   -7643    -4871   -12993   -28429   -44020   -54932   -56420   -45241 
  -27653   -16527   -16382   -20143   -19998   -14711    -4639     9129 
   16266    12875    12519    19947    28622    36812    40589    32165 
   15742    11049    17290     8002   -14710   -27491   -25705    -8171 
   20896    39350    33835    10952   -14472   -27645   -22910    -4296 
   17061    24010     7695   -20577   -43828   -56663   -59735   -55449 
  -53871   -58794   -54374   -32660   -13229   -12348   -20606   -24665 
  -25859   -27559   -24261   -15280   -13395   -24078   -32082   -28365 
  -29008   -48153   -72856   -78651   -62700   -50169   -59384   -75523 
  -74856   -54713   -26204     -515    10698     -520   -27024   -45339 
  -37745   -14696       -8     -853    -7105   -11517   -18044   -30024 
  -42465   -50105   -52004   -49511   -42331   -31088   -25005   -29283 
  -33313   -23625    -3811     6723     4187     -628    -1996     8281 
   21084    15950     3524    -1220    -1114     7266    20442    19297 
   -4272   -35916   -49449   -34535   -12353    -7187   -19298   -36023 
  -49221   -52881   -39326   -12976     6621     9034     2138    -5720 
  -11100    -8825      660     9288    15672    25824    40682    50271 
   42100    21663    10223    15280    24972    28746    24605    11992 
  -10067   -36736   -54629   -53819   -42792   -38247   -40842   -38773 
  -29430   -21664   -23807   -31961   -32821   -24451   -13469     5293 
   35040    56596    55767    50315    51034    43675    30171    19141 
    6798     1579     6032     1620   -16587   -35095   -38896   -24228 
   -9547   -10281   -17292   -20107   -21678   -25656   -32008   -43331 
  -56385   -56045   -40601   -30197   -32476   -35163   -32557   -27949 
  -22115   -13083    -2818     -999   -10104   -15742    -7895     5803 
   13517    12148     8535    10043    17637    27239    29225    17535 
    2836     1151    11656    18242    12115      523    -8695   -16213 
  -24103   -32685   -40674   -42785   -35497   -24701   -20773   -24542 
  -26082   -26602   -33593   -33740   -17208      250     3578    -8027 
  -22622   -24204    -5116    28373    53869    54626    30606   -10617 
  -45313   -51199   -36766   -22588   -19554   -28825   -38899   -34895 
  -16961     1168     7616      968   -11749   -21886   -26891   -29584 
  -30444   -30383   -32809   -34285   -27868   -13401     5158    20553 
   23679    17458    16417    23669    26756    21352    16772    16055 
   14376    13982    18922    24591    26108    24028    18669     9214 
   -2168   -10982   -16743   -22003   -21303    -5221    20075    35358 
   31197    15063     1006    -1158     7828    16309    12893     3452 
    1759     3642    -2509   -12217   -17660   -24880   -38294   -48281 
  -49932   -48348   -45373   -43711   -44468   -39996   -28361   -17160 
  -11648   -13505   -21706   -30003   -28395   -12326     8437    19010 
   14055     -600   -12083   -11310    -3926    -2829   -13704   -31136 
  -45753   -56763   -70773   -85301   -90262   -86929   -84860   -83189 
  -73927   -59129   -50054   -49507   -47038   -36380   -24572   -18894 
  -18084   -19035   -21945   -26960   -31673   -32285   -25618   -13815 
   -6517   -13820   -34615   -52952   -53483   -39270   -25287   -20393 
  -22256   -22907   -16787    -6186     2112     3872     -825    -9401 
  -18351   -24372   -26315   -26022   -24613   -21659   -19157   -18482 
  -14525    -1289    16685    26663    24547    19327    17686    18055 
   20662    26566    28826    20334     5640    -5703   -12362   -21428 
  -36287   -49110   -50085   -39841   -28309   -24871   -30475   -36814 
  -34282   -22876   -13647   -16929   -29391   -35363   -24147    -2452 
   14643    19416    15832    12499    13395    18593    29593    43979 
   52704    51940    48210    48677    52845    52717    41277    23579 
   13484    15753    19976    15067     1724    -9856    -9664     2674 
   14861    13061      188    -7443    -6190    -9213   -22333   -38505 
  -53388   -65267   -66983   -55682   -43842   -44430   -49947   -44570 
  -30172   -20544   -19221   -20765   -25457   -37033   -50357   -53503 
  -42318   -26524   -17970   -17061   -17201   -17237   -18653   -17021 
   -7554     9248    28176    35666    20140    -5955   -16311    -4933 
    9712    11626     5158     3177     4218    -2414   -14924   -22503 
  -22353   -21797   -27481   -35912   -38263   -33033   -27844   -28701 
  -31324   -27552   -18413   -12841   -14589   -18867   -21386   -22408 
  -21704   -17402   -11310    -8721    -9457    -6157     3878    13750 
   17042    14215     7984      -37    -6869   -10492   -13380   -16860 
  -18547   -14410    -4001     4007     6798    10820    13048     9263 
