Origin Time       2011/03/11 14:46:00
Lat.              38.103
Long.             142.860
Depth. (km)       24
Mag.              9.0
Station Code      GNM010
Station Lat.      36.2343
Station Long.     139.5335
Station Height(m) 21
Record Time       2011/03/11 14:47:28
Sampling Freq(Hz) 100Hz
Duration Time(s)  300
Dir.              E-W
Scale Factor      3920(gal)/6182761
Max. Acc. (gal)   170.114
Last Correction   2011/03/11 14:47:13
Memo.             
[...]
  -21247   -53355   -59985   -43351     1455    38880    44096    36238 
   39895    55180    56123    40049    41921    58062    40516    -3888 
  -37405   -59572   -55676   -32480   -44542   -74242   -73192   -55394 
  -35521   -18016   -10748    -4012     6528     7598     3217     6176 
   -2071   -14143    -6518    -5736    -4078    22718    37391    36083 
   48680    55325    44359    31599     7764   -16334   -19850   -38858 
  -79920   -87837   -51882   -10783     5594     5084     7695     -549 
  -22443   -32826   -28801    -9964    23173    32440     6847     3301 
   38248    55959    37941     8552   -23432   -36009    -9609    28732 
   54560    84643   127879   139455    97849    67236    79277    76662 
   44335    31299    25604    -9082   -37310   -39960   -41462   -35135 
  -26219   -34711   -35162    -6362    22613    23664    11823    16249 
   43705    68716    56570    17348   -10639   -12288     8543    26475 
   17403    -3774   -11019    -3483    -6044   -22500   -26855   -21292 
  -23537   -37082   -53663   -42950     3897    45491    58043    63095 
   65575    50356    31249    12717   -28925   -80037  -107813  -109088 
  -83875   -37153    -2598   -18302   -78118  -101197   -31097    36242 
   11924   -11543    26153    38258     9320     1777    16488    37495 
   53967    41474     7409   -13568     2714    47088    80206    83392 
   74426    70352    72671    83997   114437   141439   115113    52946 
    8734   -28787   -71017   -85613   -68096   -48229   -38807   -29837 
  -17985     2798    29736    29876    -5250   -44175   -58571   -56110 
  -68639   -90295   -93003   -84498   -68562   -16721    59363   111626 
  136288   145993   143297   140437   128130   108385   115720   132874 
  110448    56831    11500   -19160   -41765   -47737   -46738   -48224 
  -38202   -26378    -8625    46993   111197   135081   121182   113115 
  160619   189365   109035    38355    41577    22827    -4469   -12215 
  -29719   -50839   -75121   -78367   -51906   -18197    32798    74435 
   69095    31624   -17593   -54388   -53616   -40902   -65629  -108567 
 -128948  -146356  -149469  -102768   -41937     4360    38339    50339 
   60508    77551    66977    37889    27488    17515   -20202   -56699 
  -59495   -43875   -31424   -28147   -21160     7413    23836     5858 
    5328    37320    64161    83314    93837    82494    74044    92729 
  125610   155609   169170   147959    96257    59732    66178    73466 
   48718    18114    -6440   -32084   -47705   -47873   -40293   -36437 
  -50879   -87856  -121539  -106361   -33856    40235    51923    11402 
   11106    83827   133546   114320    82103    60299    47394    65268 
  117545   156457   151466   138723   122186    78459    43009    35511 
   33736    32769    13162   -36332   -76380   -90759   -92376   -76542 
  -52388   -53329   -87110  -111505   -89346   -36092     3817    15631 
   43692   114708   173692   159475   104223    76668    66353    46873 
   30250    15959    10082    13400    13123    19237    31522    39352 
   40379    32225    25933    28364    32534    39721    53821    65812 
   54461     9989   -42470   -76633   -96559   -96590   -73840   -65633 
  -77401   -64406   -18552    28437    60722    69522    38743   -23326 
  -81909  -108109  -102038   -78656   -43900   -18608   -13587     5349 
   44307    74631    98201   118951   110106    61411    17000     6078 
     336    -5260    -1445    -2981     2699    23299    33592    28596 
   11159   -27505   -70669   -82354   -58712   -24399    13746    51381 
   68043    65012    43910     7484   -15237   -49215  -102222   -84269 
    -218    56867    81026   111845   171458   232135   239423   197321 
  156051   151895   138053    65202     7327    10372    19031    11929 
    8614    31719    87468   144595   173154   158316   115369    76506 
   27238   -31856   -53775   -43787   -43650   -53450   -38784     3046 
    9036   -42849   -91189  -119016  -149394  -163865  -146503  -103303 
  -46123   -10580   -29757   -90241  -122507   -91942   -85516  -140040 
 -163542  -143683  -110825   -38079      123   -54058   -45652    73886 
  121064    69721    28083   -15227   -50193   -26224    17357    37151 
   36387    32635    38153    42930    55785    92140   129612   145614 
  137843   139144   177139   201585   178731   127119    47863   -35829 
  -95883  -117208   -63780    16390    31307    22353    45510    57657 
   47702    51638    68561    74153    78897   122979   187172   213797 
  202803   176509   143050    98442    40390     -728   -12818    -6481 
    4222    -9429   -32146   -32892   -22676   -23052   -26341    -5422 
    7248    -7365    11178    50849    64646    52783      704   -47386 
  -35504    -6905     3220    -6005   -36527   -47797   -12616    19877 
   -1006   -59037  -104911  -120838  -125218  -125061  -115239   -98582 
  -70551   -39717   -16234    19535    55900    62454    51934    37963 
   16741      139     4130    14963    21522    46305    81474    92997 
   88631    80084    52834    16618    -3600     2622    58301   134401 
  138852    90311    79056   101629   113128   101472    84108    69158 
   54091    61704    83985    91128    89387    80281    60379    51190 
   74613   118305   141909   138789   138738   138623   120802    90798 
   46688    -4258   -36509   -52162   -78444  -117396  -127685   -93413 
  -49033   -16254     5006    22570    43051    60155    72612    88593 
  105215   107921    87151    52568    38221    54482    62008    35182 
  -18912   -89018  -149828  -173054  -160044  -127786   -86014   -25432 
   67952   149602   132672     -110   -97733     6445   136015    77064 
   33456    92164    63576   -21558   -82240  -130739  -137064  -109429 
  -61803    -1285    49613    86163    77257    26999    -1525   -14469 
  -62883  -113868  -113375   -83125   -28992    36771    46068    47974 
  130144   197854   160940   102619    79830    49967    17533    10505 
    -348   -33405   -49571   -27819   -15484   -25746   -15419   -17185 
  -49964   -18116    60659    57933     6635      646    26529    62288 
   92477    85392    48477    14815    -5532   -16881    -3935    26419 
   20878   -16845   -20701      251    -6439   -25248   -40386   -68320 
 -101301  -117418   -93631   -52927   -58236  -110161  -147566  -115598 
  -73980  -126157  -176257  -128501   -87640   -66863      195    51150 
   66055   102123   142370   147935   102888    22568   -20518     3555 
   33900    33394    39667    76198   107272   110356   105504    93212 
   63479    48826    62628    68678    58133    44004    35192    43720 
   52733    57243    79460    95390    85335    82722    98854   105589 
   81413    34579    -7377   -25981    -9038    39958    74140    56590 
   11933   -16677   -21551   -24665   -35520   -60522   -95794   -94445 
  -50279   -13857     5828    28916    63702    81783    51151    41477 
   83743    78616    49547    62185    30460   -32294   -36227   -29843 
  -46272   -55731   -63066   -68554   -56215   -50542  -108776  -205291 
 -228006  -180046  -171987  -185991  -153292  -110626   -72106   -12284 
   57968   115088   141953   158742   177992   178551   172960   172251 
  154663   119829    81318    31800   -11221    -4317    26161    41175 
   70961   120627   155686   148691    74875   -30481   -75129   -53240 
  -47549   -55141   -25762    11121    42041    84359   103668    84129 
   69464    83520    99118   105868   118826   130209   137201   144342 
  143356   124216    66104   -22025   -87453  -110385  -105028   -87325 
  -81321   -71846   -27127     6276   -33196  -111051  -124457   -54632 
  -22703   -49763   -21427    32649    26090     4574    13144    28190 
    5882   -35526     1194    72705    61821    28600     5255   -41808 
  -42649     3356    24471    12041   -12348   -27497   -52685   -92846 
 -106772   -95098   -62976    19353   119034   110967     4299    26918 
  168205   169870    99601   115213   117608    73478    18431   -33533 
  -37577   -32177   -45799   -32295   -12231   -30587   -72949  -108654 
 -107430   -53574    48320   141673    54386  -198586  -239210   -30661 
    -862  -125016  -107106   -42983   -55373   -69495   -18315    55316 
   96353   126482   115089    71835    53242    43254    42578    35327 
    3452   -28555   -59883   -72844   -54203   -51364   -68878   -40385 
   27265    16482   -87178   -92737    42114    89890    29926    41759 
  102788   140868   174944   192963   190433   162132   108280   105608 
  179137   231054   213245   166273   119070    90528    71345    38937 
    9536   -11255   -35532   -55841   -78380  -127154  -143565   -50932 
   31020    -9239   -23404    52776    96383   114838   119918    54029 
   -8150    -5499    21255    52195    76447    78252    48559    -1543 
  -39822   -54524   -51246   -39818   -40214   -60039   -85799   -97767 
  -74272   -27173     2142    12241    11513   -13150   -21640    32241 
   88105   101783   144031   198594   164357   102468   105359   100182 
   37785   -26178   -56360   -39284     4602    49576   116394   164718 
  145399   106811    71093    25823     8607    14877   -17724   -73468 
  -88918   -61473   -24768   -19219   -42107   -23835    48783   123139 
  172557   192886   199965   203171   204073   222537   231299   202136 
  178128   151709    76883   -12094   -88924  -163756  -201075  -182780 
 -142855   -88592    -8840    76479   131159   118164    40247   -39230 
  -83581  -107946  -120107  -117219  -103828  -110726  -158974  -195404 
 -179546  -155157  -154899  -154802  -124897   -65978    -2925    34235 
   31996    23652    57715   126810   169464   161304   126380    39264 
  -95859  -155446  -104944   -55514   -41170   -21601     5287    43087 
   93606   123984   108843    73864    78781   119163   133842   132033 
  132867    87611    -6983  -105866  -192536  -242060  -241331  -230406 
 -210033  -113521    38310    81158   -28155   -66154    29973    36340 
  -33631   -18569    42589   106575   176635   220889   159912    -2949 
 -101589  -126516  -162316  -151609  -102717   -72218   -23413    54405 
  116095   120845    82034    82110   110548    73196    18075    34616 
   63377    47775    27951    -3573   -71059  -119134  -126895  -121874 
  -74833    47093   176909   178811    66201    69146   214517   242777 
  150722   118260   126276   129597   125989   113027   103323    71880 
   39508    36194    31348    18909    16439    29313    56893    95250 
  129475   147342   162093   196097   228748   193340   107473    59901 
   25906   -36578   -76003   -89227   -93737   -60268     4939    66489 
  103449   115134   113311   122101   138930    96605    17221    -5000 
  -20966   -71188   -91694  -102623  -127512  -128198  -110687   -93135 
  -76477   -70611   -72285   -42990    33847    64525   -26131   -75466 
   35275   107125    99555   182296   246040   181752   106110    61253 
   36183    21856     4021    13409    34128    39953    46297    53574 
   94994   165777   136071   -47401  -193261  -131897   -48716   -90306 
  -60326    16478   -30132   -61683   -10592    29617    33053    14835 
   34001    58384    20739   -24392   -40558   -41901   -36281   -22711 
    8989    36947    48065    45850    22826    23419    49203    34696 
   24653    60509    73481    72922   110479   143069   140985   133129 
  132528   128116   113806   114910   129708   106880    56475    18914 
  -24976   -84910  -138884  -172720  -170780  -128035   -49082    65911 
  172826   162347    17090   -38239   114422   195333   109144    82724 
   78402    30235    39856    74058    96290    90892    44480    10686 
  -17030   -44256   -56338   -48968     9351    91178   159585   210418 
  213153   194784   206263   187712    75231   -58715  -129586  -154690 
 -150713  -130902  -121993  -102053   -89401  -105791  -108596   -91705 
  -70970   -74519   -91794   -48736    12376    12819    -1290    -4828 
  -14360   -12565    -9992    -2975    25276    42628    41626    36267 
   43505    83661   120252   132731   148697   151077   120315    89090 
   81439    84197    71736    31876   -21512   -70251  -103655  -113084 
 -104309   -77594   -24213    25448    38604    40213    44125    11002 
  -37855   -27470     -485   -11007    17486    73241    62051    13677 
  -29026   -52535   -44478   -62859   -93868   -73226   -57410   -53912 
  -16891     4240    -3657   -15844   -31675   -35749   -51522   -85513 
  -85088   -49943   -13598    21160    45021    38171     8869   -20592 
  -53513   -86959   -83281   -37657     5904    22877    22159     8318 
  -24699   -58736   -70953   -74100   -73288   -52575   -13136    26817 
   49222    50505    29438     8568    37562    73654    49824    49578 
  112807   136917   137811   187042   230226   241579   251720   240216 
  204028   186729   194321   189515   164246   139604   104687    43558 
  -17270   -62723  -103653  -119526   -83051   -19956   -11332   -86131 
 -101457    11955    49238   -34025   -40463    13603    28494    26679 
   17903    15807    17245    -9414   -55010   -90366  -114041  -144158 
 -160320  -145540  -112883   -58500      -19    15398   -24503   -37902 
   40326    70770   -26327   -69428   -41497   -82756  -112800   -73858 
  -44743    -1109    74920   127984   157298   170380   157008   135996 
  116093    98721    94110    89917    69692    25203   -44331  -112554 
 -147723  -135080   -62926    50508    97655    -2852   -74229    56422 
  162404    92567    51588    85264   112767   145447   185551   246869 
  286849   252473   174248    92325    50906    57214    77269    91171 
   94256   100894   116443   141940   177657   185771   152666   107865 
   46115   -37042   -98618  -118763  -126157  -128753  -109335   -95068 
 -125877  -160120  -136155   -80643   -38305    -6917    13948    38104 
   86842   135990   157318   140489    86798    19491   -41650   -80150 
 -104052  -136541  -147760  -122974  -105007   -98204   -68363   -19675 
   13460    31334    59476    99598   133707   146975   146668   135413 
  101436    55747     6331   -43228   -76081   -93349   -93995   -66232 
  -17733    27794    40442    23568    33262    89782   148733   193137 
  219603   201564   158732   134068   130251   123527    90223    41257 
    1392   -23175   -19420    10923    31787    31471    46140    92879 
  131285   140918   147945   151117   139637   124730   100490    61067 
   25311      332   -26375   -46983   -44936   -29586   -11778    10160 
   37295    64323    79099    75325    61613    57729    66886    65915 
   46154    21226    -5991   -39870   -68074   -80599   -92933  -103209 
  -82629   -49643   -45872   -48794   -27252    -1123    14044    12861 
  -21064   -65329   -78540   -80542   -99820  -116007  -120471  -120843 
 -111885   -84632   -36765     4200    25825    61355   108301   136588 
  158602   182912   197999   215281   212555   150416    88071    83051 
   75873    29874   -19384   -56684   -72261   -63091   -47580   -22240 
    6497    16411    18744    16540     2354     7802    39515    52428 
   40143    31812    25936    12696     3439     2124     3466    13998 
   18511    -2982   -17085      -20    22147    27770    19894    17245 
   25540    35514    45107    51140    53279    53533    50574    43348 
   22193    -5660   -15337   -22472   -52465   -82624   -89503   -79399 
  -64671   -57288   -61742   -70320   -74547   -77602   -79326   -63007 
  -32245   -16538   -26326   -47757   -60145   -49347   -23846    -4599 
     335     6622    32905    74560   117743   157250   184382   174929 
  125903    87812    83892    69298    33013     6304    -7810   -15112 
  -21923   -25265     3119    52269    83225    84864    66441    61448 
   63868    32132     9530    37369    67004    83151   106931   114832 
   82019    27095    -9551   -10103     5054    12470    21792    56049 
   97185   120130   142100   163475   158475   130710    98904    67272 
   30553    -7646   -30796   -40352   -50944   -62507   -77249   -92957 
  -98362   -95468   -83144   -57016   -22383    17242    53399    64223 
   43124    14478    -6568   -19083   -22103   -33284   -51382   -47039 
  -22242    -9654   -26956   -47901   -48785   -49399   -53853   -49494 
  -48195   -50499   -35281    -6221     8797     2698   -24396   -77343 
 -121459  -121033   -95312   -73311   -71750   -96645  -113565   -79490 
  -23803   -16816   -45828   -55105   -51138   -44533   -27535   -13665 
   -2605    21214    52729    79064    95066    99010    96806    87367 
   64014    46041    43086    38896    45003    62766    59938    44286 
   38734    36244    32131    26841    23045    25338    35205    51220 
   53893    33275    21968    42669    65053    65164    55415    43888 
   43141    53029    42672    18387    13484    29909    47794    49577 
   43307    45909    47618    40508    39151    47327    52404    48196 
   45618    51749    48730    51020    93344   124512    95876    61556 
   44851    14214   -16069   -28169   -29251   -30278   -52225   -69218 
  -40654    -3433    16547    41260    62672    75284    92089   107686 
  105745    83182    59882    41105    17838     1646    -1917    -2048 
   -7406   -25622   -50921   -67593   -54084    -8276    25568    27532 
   27454    36633    51121    70442    87672    94466    90550    88190 
   85273    75550    73146    76729    73003    67456    72925    87728 
   93677    86785    76289    58743    41550    42216    53600    53803 
   32103     1993   -12365     -867    26699    39638    25982    12695 
   12401    23548    49680    70720    62648    37519    16449    -2450 
  -13855    -6649     -152   -11304   -28210   -30450    -8840    23847 
   56233    85893    97019    80599    56976    42314    30863    23432 
   26791    30220    23879    25150    41831    53515    62976    74121 
   64697    54329    77063   114767   137450   132284   108785    84174 
   54215    24161     2063   -30521   -68568   -78859   -60399   -44580 
  -45320   -43921   -21679    13479    33951    26945    12357    18164 
   44280    61223    63181    70272    81945    86043    72694    51756 
   47090    56951    76523    92399    86155    83184    80060    47751 
   28268    42925    53275    56803    62126    63597    65307    66098 
   62315    54323    49092    50121    36297      737   -26610   -29912 
  -17781    -1307     -137   -19010   -28253   -15209    -4065      430 
    7719     2684   -17683   -36518   -47778   -47660   -35299   -19887 
  -11405   -11657   -14014   -16193   -21776   -33013   -43126   -38574 
  -28408   -30159   -32201   -24623   -14296    -5919   -11738   -35296 
  -57567   -62389   -50888   -42145   -51078   -66400   -72959   -72538 
  -70984   -69725   -74627   -87257   -88886   -70964   -56041   -53172 
  -47055   -35895   -33685   -50452   -76618   -89090   -78323   -50868 
  -20175    -2590     1987    13185    28785    23878     6926    -3197 
  -16787   -26790   -18432    -7213    -1194     4304     5680     3083 
    1454     1968    -2406   -11582    -7318    16183    49599    83171 
   95720    83552    74148    74939    68271    53874    45497    42647 
   33096    13755    -1952    -5655    -6690   -10926   -19102   -32020 
  -35927   -21102    -9383   -32070   -75942   -78173   -31670   -12706 
  -34358   -42891   -37783   -35739   -27425    -8774    12460    22780 
   24211    31434    44862    50715    41141    26860    21479    23843 
