Origin Time       2011/03/11 14:46:00
Lat.              38.103
Long.             142.860
Depth. (km)       24
Mag.              9.0
Station Code      GNM003
Station Lat.      36.6581
Station Long.     139.0786
Station Height(m) 463
Record Time       2011/03/11 14:47:26
Sampling Freq(Hz) 100Hz
Duration Time(s)  300
Dir.              U-D
Scale Factor      3920(gal)/6182761
Max. Acc. (gal)   72.332
Last Correction   2011/03/11 14:47:11
Memo.             
[...]
   32533    13738    -8199   -19330   -17775   -11830   -11159   -14028 
  -12397    -4175     5691    11465     9854     1511    -7765   -12472 
  -10820    -3001     7381    16025    23421    31016    36150    33622 
   22921    14271    16798    26835    35612    35166    24017    10936 
    4477     6577    11829    10614      312   -10572   -12698    -9957 
  -14067   -24841   -28874   -18702    -4542    -2201   -15932   -31087 
  -26440    -1178    28303    47498    50134    45829    45869    45291 
   36178    20151     9256    14895    32383    47993    50567    38429 
   23759    15737    10021     3715     1392     5857    13427    16730 
   12322     6672     6365     5599    -2806   -12713   -10893     6938 
   26597    29675    18004     8952    11106    14524     5588   -10108 
  -13801    -3142     2546   -10979   -29823   -26439     3272    33665 
   37510    15178    -3332     3356    24721    42273    49490    50958 
   50797    42804    24993    10362     7636     8138     2272    -5246 
   -3716     7552    17572    22274    32023    51784    70346    71816 
   52138    26874    15511    18516    21543    16270     7283     2030 
    -387    -5266   -14142   -26081   -36593   -40353   -36943   -26249 
   -9735     5290    11700     8491     1956     -745     1846     7579 
   14007    21054    29911    37290    36074    27048    21783    24657 
   27226    23326    17831    24308    48182    72947    77143    55487 
   19162   -10800   -16948    -1856    16938    25322    21130    14990 
   17766    22358    13401   -10087   -33393   -40232   -28557   -12542 
   -6072   -11309   -18820   -15355    -1012    12189    19755    23045 
   22523    20059    14226     8766    16121    33545    42630    31930 
    9977     1424    14563    27571    20112      754    -2252    15546 
   22604      119   -30426   -34937    -7474    22094    26818    11382 
   -2315     2329    22939    39220    37330    22827     5245    -8621 
  -11125      670    20220    34729    39736    44173    52080    57832 
   54620    40103    25233    23560    32201    36192    27022    14018 
   10228    16051    22786    21163    14645    16491    26852    33649 
   31272    26245    28072    36311    39370    26120      -72   -20612 
  -23990   -22346   -31996   -49365   -57645   -46819   -28148   -23575 
  -33176   -36208   -22116      -73    12480     9579     4291     8359 
   19052    27193    28715    30612    39366    49806    52702    45797 
   36959    33321    30192    20796     9948     6614     8434     5651 
   -3060    -6627     4972    24169    31289    18151     -634    -4843 
    3587     5262    -6840   -21748   -26719   -19918   -10768    -6766 
   -6816    -7914    -9342   -10837    -7997     4188    21855    34506 
   33384    21918    18989    36244    60526    69279    53654    26619 
    9614    12339    28442    42246    43453    37517    34278    37948 
   44348    43254    35195    30421    30298    27464    17171     2271 
  -10040   -15767   -20540   -32523   -46490   -49870   -41557   -30412 
  -21856   -16254   -12791    -7784     1673    12120    18040    17936 
   13146     4340    -4038    -4960    -1459    -1658    -5457    -7939 
   -4748     4284    13036    17424    20016    23141    25486    27119 
   29198    29687    26656    21117    18781    25977    36256    36168 
   24143    10691     3826     4109    11526    22308    28794    26981 
   14657    -1554    -5832     5481    19276    21620    10703    -3933 
  -14455   -20671   -25145   -30307   -33888   -27966   -12378     1823 
    6623     2242    -3846      382    16061    29872    31208    21289 
   11115    12701    28681    51240    67202    68793    55987    30660 
    5503    -2006     6498    17048    21675    20558    18242    16563 
   14850    12405     7670     1516    -6968   -18320   -21390    -5886 
   19737    33992    24541     5547      572    14809    33500    36443 
   20984     3690    -4464    -2403     5530     9228     2260   -13722 
  -27663   -27372   -17276    -9465    -5873     -835    10022    20908 
   18739     1192   -17183   -21260   -11647     -542     2053    -3796 
   -7521     1506    22091    43118    53122    48599    40055    42106 
   54259    65501    70808    75540    87046    97905    91646    65512 
   33838    15470    13960    13473     1064   -17563   -25341   -15533 
    -568     2389   -10714   -27209   -35857   -35525   -27926   -20618 
  -19505   -19820   -17431   -14202   -16170   -27827   -42895   -50028 
  -43437   -28305   -17481   -13518    -5086    14640    37601    46116 
   33486    19681    28479    56188    78733    80868    69560    60425 
   57991    53746    41089    27533    24632    31459    38667    39489 
   32195    19211     6180     1723    11399    29013    40441    36895 
   24896    21329    33850    50341    51164    28317    -8502   -38604 
  -47203   -40855   -36097   -39017   -40225   -26960    -5042     6839 
      38   -17576   -25950   -17797    -8381    -3455     8115    30091 
   50132    50444    29672     8279     3135    10346    15855    12873 
    8827    14177    28664    45475    57783    58752    44333    18645 
   -2083     -943    20092    39984    38629    16653    -6339   -10924 
    4978    25035    34490    34904    35907    40178    40556    31076 
   14709     1828      682     8110    14168     9307    -9083   -31105 
  -42700   -36804   -18161    -1908    -1252   -15038   -29137   -31231 
  -22317   -12020    -8199   -13057   -22599   -25226   -11276    12246 
   27187    21750     3004    -6413     4788    21233    20612     -226 
  -18171    -7907    25721    54614    59386    43436    25572    23456 
   38618    56270    65360    68942    68767    62470    54316    49707 
   46853    39477    23610     4138    -8097   -10918   -13348   -19316 
  -22691   -19803   -17440   -24808   -37014   -37548   -21879    -1792 
   12246    17738    19970    27245    39600    51582    54879    39728 
   13783     -265     7289    23595    25632     6080   -15358   -18115 
   -3564    11946    16303    13554    16708    31028    48173    58786 
   61694    56306    40483    16729    -4222    -8433     4621    18142 
   16780     3405    -1964    14561    38997    49163    42586    30467 
   25257    27344    24919    18243    15627    17408    20141    19253 
   15258    10231     1307    -9404   -16419   -15321    -5239     4160 
    5096     2431     3307     6147     1170   -13900   -25713   -20724 
   -1620    12723     7625    -7080    -7709    15274    45393    56260 
   39671    12480    -1718     4269    14159    12085     3722     3913 
   16942    30341    27942    10438    -6581    -8659     6261    21877 
   19318     1982   -12409   -15044   -10768   -12689   -29846   -54446 
  -67658   -58763   -37085   -22555   -21658   -20828    -7880    11408 
   21225    16663    10896    15045    24227    27458    20291     9267 
    3267     3417     7451    15318    25122    28762    19393     2939 
   -5693     2215    19637    31773    31029    18879     6230     8550 
   26891    46453    50681    33074     9093     3376    20442    42025 
   45893    27104     4490    -1564    12600    37931    56753    53328 
   30953     9306     5733    18050    26019    15697    -4445   -14651 
   -7742     2800     1691   -13153   -33691   -48975   -52639   -43032 
  -24330    -8103      872    10102    27729    50361    60205    45681 
   17212    -4335    -5539     6486    15215    17039    16220    16868 
   24152    35711    41905    35077    14300    -8155   -14713    -1452 
   21754    40486    43586    31980    16522     9253    13001    17559 
   18515    22809    29765    32713    28964    20953    18417    24948 
   30596    28925    21386    11486     5830     9504    21245    33246 
   34936    22263     -378   -23330   -35167   -32647   -24388   -21041 
  -25987   -35101   -40639   -35837   -21860    -8135    -3149    -8199 
  -17832   -24983   -25565   -18370    -7242     -781    -3105    -9267 
  -11336    -8161    -8426   -17516   -25287   -15456    13645    39380 
   37561    15355     -161     2783    15456    24886    26743    25147 
   23368    21384    18829    17778    21494    25876    22278    10335 
   -1814    -4008     8360    26720    35120    25975     9539     4860 
   18219    38531    52031    51307    39924    31993    37054    50771 
   59457    50667    29272    16494    25561    44170    46330    20658 
  -17974   -40825   -31418    -1985    19523    14869    -6972   -21887 
  -19373    -6273     2694     -596    -7288    -7665      327    16278 
   34923    48395    51020    44750    37560    31948    25270    13636 
   -3113   -14532   -11675     3082    19040    20751     5023   -11400 
  -10579     8641    26949    24628     6820    -5319     -173    14379 
   20004    11829     4988    10069    20686    26836    27519    28772 
   29937    22091     7144     1230    11666    25834    24458     3720 
  -17170   -21308   -11560      697     1756   -11531   -22771   -20043 
   -7775     5306    12897    14669    14972    19991    31542    37835 
   26981     5417    -9716    -4895    16819    32118    23604    -1181 
  -21652   -20903    -2211    12436     6645   -16345   -35612   -31984 
  -10780     7340     8343    -6265   -21477   -24334   -15204    -3760 
     995    -1927    -7191    -8856    -6704    -3750    -2730    -8851 
  -19471   -24395   -21230   -14414    -9986    -8509    -2368    11204 
   26704    36845    38604    37340    39067    43953    45845    37240 
   22432    12952    13497    21190    29298    33533    31389    19944 
    2667   -10521    -8040    11432    29504    27476     7300   -10820 
   -8999     4401     9685     5759     1086     -145     2237     5017 
    9785    19413    28007    28348    19572     6555     -509     7984 
   26717    39005    39196    34631    32449    33095    30816    23367 
   18548    28194    53390    75221    75496    58776    38052    20433 
    9655     4453     2514     4135     6665     5309      471      824 
    8841    11036    -2957   -27854   -45748   -40139   -18589    -1312 
    3320      -33      -33     5751     9180     6698      203    -3452 
    1627    12045    22848    28437    20768      661   -15789    -9164 
   17538    35736    25321    -2824   -20841   -12937     5859     6525 
  -12879   -23740   -10094    13554    26198    20476     9025    12304 
   32051    50630    53783    41506    25566    18246    22551    36168 
   53423    64908    64634    56059    50607    53689    57980    54691 
   39367    16779     1163      198     7001     5118   -14492   -37381 
  -43672   -31191   -17134   -25689   -56590   -78386   -65514   -25819 
    7594    11234    -5242   -15018    -4490    15273    24942    18067 
    2417   -12972   -23654   -25911   -19545    -8352     2249     5749 
    5183     9166    18919    31723    41578    44062    41384    35222 
   29394    28511    29822    30065    28075    22411    17793    19752 
   23997    24964    25077    29414    35684    34282    25346    21530 
   29280    41527    43110    27716    10758     9873    21993    28470 
   16910    -5072   -18347   -10163    12169    24340    11256   -15664 
  -30780   -18808     8338    26773    31204    34674    49019    68124 
   70007    46891    15777     -961     7189    29227    45496    49720 
   48215    48526    53842    60437    58408    44253    26697    10058 
   -7847   -21581   -23496   -15646    -9782   -17953   -37564   -50511 
  -43691   -26133   -16508   -20159   -33497   -51410   -63587   -63837 
  -52865   -33538   -12291     6780    21680    30932    36724    36200 
   28057    21466    21223    28330    41895    50400    45929    34035 
   26661    32465    42604    40216    21791    -1130    -8454     5824 
   21170    19362     4637    -7029    -8149    -7053    -8776    -8109 
   -7221   -16022   -34417   -48745   -45033   -25346   -12758   -23703 
  -42547   -42016   -14106    17842    21447     -874   -17137    -6577 
   18869    25725     6787    -7746     1283    20940    25329     7650 
   -7002     1838    23367    37716    42974    53543    76712   101658 
  113737   113432   114245   117199   107458    80901    56478    58705 
   81669    90138    67078    27028    -2970    -4160     9312     7639 
  -15061   -36759   -31843    -6503     5193   -11386   -39312   -54372 
  -48745   -37133   -31974   -28445   -19076    -9702   -15528   -35218 
  -47743   -38432   -13831     2798     -375    -5462     9317    40363 
   59587    45983    14608    -3431     2046    15747    21643    25671 
   39162    51654    43453    16816     1264    19352    55734    76999 
   72002    61157    68090    86437    87620    61711    29001    10122 
    4916     1604    -5128   -11015   -12167   -10977   -15807   -31605 
  -51148   -64423   -68579   -66069   -59324   -49780   -44666   -51187 
  -64273   -73773   -75929   -77311   -82194   -77575   -52373   -15039 
   16449    28217    25365    26531    39766    58487    68731    61011 
   45852    41787    51982    64683    68359    61999    50732    38881 
   27959    18092    13643    14468     9497    -5085   -21562   -33665 
  -36234   -30115   -26013   -26742   -28422   -28670   -16895     8542 
   32238    42315    31215     9264     4409    25873    62098    88335 
   84633    68243    64779    72506    73205    54228    33707    41156 
   69902    89287    82946    61235    52254    64737    74344    64624 
   44929    29564    22485    14575     2502    -2006     2053    -3998 
  -34529   -78442  -102491   -87344   -54729   -38242   -44629   -53630 
  -41539   -11067    11677    15047    10992    13075    19624    17865 
    7619     4185    19318    50084    74165    72232    57770    58985 
   81286   100402    86958    38728   -11767   -30672   -19002    -2802 
    1138    -1553     1865    15643    33412    38619    23452     4445 
     914    16941    42445    60672    63486    53378    37750    27782 
   28164    32534    30560    14995    -7593   -20568   -18188    -9593 
   -8098   -21026   -37787   -41751   -31940   -15873    -6043   -14327 
  -32420   -43371   -41114   -32783   -30563   -34373   -37401   -37068 
  -30426   -20906   -17602   -19754   -15902     2299    30084    53409 
   61715    59720    62538    73481    77735    66424    50946    44191 
   43162    36693    25524    23107    36047    57035    71194    71259 
   64314    60712    65789    67780    56049    46644    47928    51325 
   56672    66866    85391   103489    95392    55724    10321   -11375 
   -4009     4902   -13864   -56190   -92336   -98190   -78312   -60849 
  -62336   -69780   -67016   -56264   -46237   -41441   -41513   -41433 
  -39467   -32794   -12937    16341    38159    40579    29178    23593 
   30699    39409    38159    22196     3194     -903    14053    45292 
   82252   102043    95724    79511    69065    66968    68906    71317 
   77023    86603    93192    87310    63239    32202    10798    -2519 
  -13238   -18641   -16696    -7783     -677    -2571    -5781    -7643 
  -10385   -12118   -18293   -29715   -37235   -33354   -13969    11753 
   26441    22395     2421   -22763   -45238   -65866   -77512   -68070 
  -44942   -28070   -23363   -26287   -31049   -25613    -7413    12448 
   24657    23764    19108    27496    47861    68998    82067    83455 
   80367    80201    76671    64445    54028    53525    56285    49135 
   24088    -9590   -33893   -37918   -27680   -21384   -20775   -16616 
  -10315    -1033    11591    19951    22089    19413    12490     5061 
      69    -1458     2528    15181    37492    60020    61346    33769 
    1648   -11163    -7691    -2896    -6055    -6239    16776    55861 
   82064    81280    64462    54016    58316    61846    53210    42529 
   43490    55003    60056    47509    31321    31834    47879    54735 
   30211   -13901   -42152   -38219   -20016   -20005   -49880   -79025 
  -74839   -48787   -31707   -33309   -39891   -37987   -32250   -33215 
  -39400   -39976   -31073   -22267   -17490    -6370    14292    27659 
   16638    -6815   -12997     5324    25290    20657    -6008   -19110 
    6472    51753    78168    68367    40983    31457    51069    77393 
   85562    67976    37334    15833     9904    13001    20554    26687 
   27116    18930     4127     2776    29738    68211    88258    71413 
   30568     6534    12829    20589     7762   -20607   -40719   -34805 
  -13999     3919    11284     9519     9673    11912     7844      155 
   -9288   -23460   -38876   -47767   -44931   -32747   -22620   -24412 
  -32231   -30151   -12615     7630    12075    -2108   -16832   -16769 
   -7987    -3887    -3297     8049    32028    49796    48470    33745 
   18077    10072     7205     3521     -765    -2579     2011    11854 
   22333    33592    41439    36954    19555      282    -4192     6926 
   12916     2925   -10633   -10554     9247    35318    45616    39307 
   35703    47530    71482    89631    91726    90082    90414    86296 
   74250    49382    17390    -4827    -7328    10043    29895    29207 
    5887   -25497   -44821   -41179   -23615    -8816   -10002   -24856 
  -37521   -39681   -28957    -6890    12902    16517     2295   -17233 
  -23792   -12313     5442    15606    17673    23984    42022    65998 
   81583    76362    55054    33326    18184    11525    12249     7041 
  -13296   -39320   -53391   -41546   -11774     9632     9650    -5648 
  -18534   -13788    -1004     3681    -1265   -13291   -21705   -13567 
    7302    24828    15656   -23601   -52018   -36917     5600    43488 
   54299    36322    18047    25993    51689    68615    62318    40235 
   22748    24441    36709    38198    24827    12227    20157    49676 
   74430    74892    56049    36869    35129    44593    46804    34949 
   12048    -9605   -18835   -17990   -14510   -15879   -26193   -39370 
  -41272   -20479    10443    20071     4607    -3793    19526    66174 
  101373    99922    77309    64536    70876    81535    77110    55858 
   34159    26626    31886    35396    26413     9332    -4768   -10135 
  -11077   -17047   -28399   -38668   -46640   -54186   -60732   -57124 
  -35481    -7601     7416     2515   -12445   -15242     3149    24035 
   28795    19781     9410     9330    19708    30544    38462    43339 
   42059    35147    29079    35098    57085    79534    80316    58046 
   35914    32370    45568    55646    43024    24158    26956    45574 
   57211    44818    13644   -10231   -15684    -8258     3727     6871 
   -1559   -11281   -16653   -15534    -6496     5344     9711    -1102 
  -23956   -41741   -38754   -22293   -11754   -11420    -9136     7026 
   36568    63035    62659    27908   -19573   -47219   -45161   -33792 
  -28892   -24625   -12461     5935    19149    23133    26273    31369 
   32860    22449     5285     8433    42148    81302    96379    77160 
   43587    27819    35695    49207    52389    44105    37854    42167 
   47694    41874    24734     6908    -2682    -5349   -11243   -25396 
  -37199   -36275   -28148   -27482   -44006   -68503   -80740   -73462 
  -53079   -31446   -21210   -23166   -24844   -14886     4601    21094 
   29262    33983    39373    47200    56383    65570    74197    75029 
   64841    55697    61018    78551    88083    73815    44703    21398 
   12866    10832     6225     -829    -8785   -16079   -21667   -26516 
