Origin Time       2011/03/11 14:46:00
Lat.              38.103
Long.             142.860
Depth. (km)       24
Mag.              9.0
Station Code      GNM002
Station Lat.      36.7821
Station Long.     138.9695
Station Height(m) 494
Record Time       2011/03/11 14:47:37
Sampling Freq(Hz) 100Hz
Duration Time(s)  256
Dir.              N-S
Scale Factor      3920(gal)/6182761
Max. Acc. (gal)   138.243
Last Correction   2011/03/11 14:47:22
Memo.             
[...]
  -12890     7861    24356    29546    23599    11369     -615    -7700 
  -12832   -21291   -29385   -29792   -22299    -8164     9028    19289 
   17816     8692     1575     2717      334   -15874   -31297   -30476 
  -17833    -3320     8428    14894    16327    17726    21023    18685 
    4391   -14524   -25771   -25497   -19535   -16770   -14745    -4729 
    9601    20998    29912    36347    32669    12950   -12958   -29755 
  -32989   -28560   -22895   -12008     9014    28946    31815    19944 
   10830    11277    10525     1059   -13820   -28395   -35519   -28424 
   -8958     9933    17673    15668    11135    12139    14829     5379 
  -12739   -25773   -31145   -29624   -18339     3443    24331    28365 
   19403    12905    10574     3658   -11542   -25480   -24719   -13373 
   -6964    -6946    -3060     8225    23139    36320    37920    21078 
   -4417   -22868   -29178   -26804   -21568   -16574   -14274   -15781 
   -8231    18253    45730    53354    40967    17881    -5326   -23915 
  -37151   -38776   -31500   -22954    -6040    18379    34522    37865 
   32026    20881    10914     2438    -9193   -23982   -36436   -39101 
  -28938    -7310    20653    38756    34330    18893     9991     7074 
   -1538   -15031   -17362    -7182      311       22    -6222   -15444 
  -16390      159    24879    34554    20181      853    -2444     5960 
    8797     2987    -2910    -6257    -7325    -3390     5098    15538 
   23048    19568     7517    -1607    -4468    -4164    -1839     2830 
    8435    12178    14776    13263      739   -14493   -18433   -10627 
    5132    21803    29181    26456    16157     3163      576     7268 
    3445   -15293   -30127   -25453    -5794    12571    22767    26804 
   19305     -215   -15087   -15378    -7785     2678    12281    12064 
    3074      319    10935    21607    17325     5139      914     3022 
   -1561   -15215   -23886   -15806      296     7098      820    -7555 
   -5519     7447    16837    13228     5044     1248     1125     1832 
    3653     3619    -6817   -24085   -32597   -24768    -4190    16277 
   22361    12491    -3398   -13042   -14031   -16010   -20232   -14341 
    4327    21759    25942    16463     1799    -4890     1282     7621 
    -983   -16260   -15110     1509     9918     1897    -7210    -4184 
    4092     6719     4299    -2449    -8492    -3424     4917     4758 
    4639    11756    15941     7938    -2188    -1211     1420    -7100 
  -16611   -12551     2922    20190    28562    17981    -3862   -14711 
   -6892     3474    -2295   -18182   -20665    -5781     7279     6944 
     172     -256     9159    17799    15884     7369     -870   -10280 
  -21618   -27103   -19354    -2270     8617     5069      896     8529 
   18946    16566    -1449   -18648   -19099   -10176    -6579   -10675 
  -17030   -17355    -7237     4964     9340     8641     8491     9247 
    8894     2977    -8367   -16713   -13410     1781    15388    13478 
      62   -10102    -8064     1090     4240     -953    -7006   -11042 
  -13124   -12016    -5848     2988     5727      507    -6274   -14384 
  -25007   -31902   -30160   -20827    -7247     5777    14473    18253 
   18291    17756    18506    15027     2193   -13465   -21377   -22843 
  -26281   -27196   -18727   -11174    -9837    -4485     6111    12640 
   10227     1542    -6885   -11262   -10442    -6929    -8368   -14217 
  -13627    -2228     8389     3762    -6718    -4791     -503    -8144 
  -15624   -11542    -2886     -566    -9284   -21309   -26083   -27187 
  -28437   -22738    -9688     3535    13970    18226    13736     4209 
   -6371   -16396   -27864   -42965   -52485   -42990   -15756    13877 
   31382    34697    32922    30990    21678     -398   -23632   -32436 
  -32349   -37305   -40806   -30006    -9279    10029    23359    29677 
   26783    16676     6838    -2002   -15445   -30783   -40662   -43310 
  -35809   -14263    15569    38910    42691    29513    14135     4498 
   -2037   -10426   -20294   -26066   -24903   -19437   -13513    -4108 
   15930    39943    49780    38956    15868    -6777   -20118   -29570 
  -42648   -47126   -30917    -5894    12355    21644    23990    23630 
   26319    28078    19741     2144   -17111   -31744   -36996   -30883 
  -15393     2725    17072    26751    30475    26943    18919     7939 
   -5848   -19470   -30440   -38769   -41017   -32796   -18833    -5304 
    7642    16474    19347    24521    33654    31946    12142    -9315 
  -20639   -29843   -38987   -40997   -35951   -28154   -17746    -3255 
    9085    12098     9444     6439     5032     6452     5822    -2752 
  -16425   -27875   -33162   -34373   -33738   -27052   -11147     8845 
   24408    29594    26686    23580    18015     2082   -16325   -25553 
  -29699   -32716   -28028   -11403    10783    27558    35798    36875 
   29164    13245    -8041   -28413   -37688   -32390   -19044    -5257 
    9704    26390    34589    30646    25090    22403    16220     4471 
   -8758   -23087   -35747   -35871   -19478     4450    23203    29901 
   29846    28452    19614      893   -16641   -21296   -13497    -4845 
   -4456    -9209    -9742    -2537     7305    13902    13395     5515 
     549     7003    15160    14046     7935     6392    10285     8783 
   -1729    -9668   -10175    -7826    -4577      153     6011     7356 
    4332    10302    28651    42209    33895     6634   -19438   -29720 
  -27982   -24797   -22139   -14313     1101    18877    29690    29727 
   25093    21246    17402    11934     3175   -10742   -27312   -38346 
  -34647   -15102     7633    18346    12639    -2436   -12477   -11653 
  -10350   -13745   -14621    -8674     2315    14953    23673    22082 
   11007    -1996   -12948   -21330   -27704   -31156   -25307   -11191 
    3462    19118    32255    35952    34660    30016    15887    -8687 
  -37574   -59320   -62982   -45572   -14121    14775    27621    28215 
   27559    26041    15637    -2245   -15589   -23083   -32237   -42396 
  -47962   -40918   -16682    12880    29956    29428    18515     6680 
   -2561   -12268   -22637   -29125   -31552   -31726   -28679   -21974 
  -12123    -1926     5066    10058    14401    15392    11578     3147 
  -10474   -27311   -39583   -37916   -21537    -2400     5890     6501 
   12362    19980    18445    11264     4666    -4849   -19917   -30924 
  -26981   -11946     5823    23510    37111    43040    42164    35446 
   23229     8421    -4046    -9517    -4875     6940    14885    16128 
   23331    37653    41747    29606    14205     6037     1226    -6677 
  -13300   -13907   -11891    -9968   -11172   -14592    -9081     6938 
   21703    29055    30649    30662    29525    24010    13670    -2077 
  -17501   -22811   -22658   -20887   -10324     4614    14658    21503 
   26536    25103    12271    -6289   -15128   -12851    -9145    -3992 
    -144    -4408    -8234     -209    13709    19107    14728    11186 
    7886     -920    -6872    -4813    -1564      685     1760      316 
   -1588     -766     4753     7685     2589       40     2852     -257 
  -13061   -29570   -40600   -41649   -35887   -25483   -10298     7083 
   20370    24679    21807    14444     2352   -11581   -25144   -40734 
  -51585   -44728   -22431     2435    20783    28922    27929    18659 
    5478    -3880   -11415   -17126   -15037   -11409   -13017   -14385 
   -9290      840     9141    14116    19045    22156    20588    15851 
   13932    21780    35992    42240    32861    16012     3400    -2669 
   -9198   -23804   -41016   -45429   -31677    -6280    20831    39077 
   45145    46524    47532    38682    12923   -19014   -42152   -51495 
  -48181   -34192   -11437    17254    44504    59744    58784    47101 
   28231     2637   -17954   -20831   -12576    -7880   -11934   -19748 
  -22583   -17228    -8273    -2058    -1936    -5485    -7471    -3652 
    9169    26352    36264    36093    29958    16530    -3552   -24178 
  -41180   -50067   -48859   -39351   -21525    -2427     7904    12881 
   20386    29557    30810    16949    -3245   -17290   -23400   -23401 
  -21478   -21883   -21545   -15232     -854    15905    27037    36445 
   41047    22672   -15847   -47146   -49976   -26146      553     9346 
    2234    -6465    -7452    -2826     2734     8786    13047    10053 
   -2756   -19533   -28778   -26223   -18674   -11977    -6045     -469 
    6414    14870    19241    17344    13149     7058    -4229   -18689 
  -26726   -20101     -957    15573    12753    -8544   -34126   -49626 
  -42451   -13609    19845    42861    48614    36613    17225     5469 
    4705     8821    11835     5987   -14153   -46026   -77506   -89122 
  -72104   -35317     9348    46626    56964    39023    14244     2583 
    4441     4294    -6109   -21667   -38504   -51526   -53608   -42544 
  -20330     5338    24477    30548    23002     8064    -5541    -7997 
    4204    20872    29244    25707    14358     -578   -12929   -12375 
    -259     8368     5642    -4752   -20646   -40812   -53401   -42091 
   -3673    46680    82884    88623    68889    32868   -12445   -56829 
  -91255  -105473   -94244   -63836   -23014    13847    35589    53095 
   82462   120636   148126   148784   114934    40087   -58421  -136719 
 -173057  -174827  -149059   -98042   -25010    48942    94727   113681 
  119302   110499    83770    36905   -24608   -86776  -134347  -152772 
 -140166   -96808   -22016    60921   122906   149823   137628   103024 
   65261    22934   -25088   -73575  -116920  -143965  -143849  -107118 
  -37211    37904    95735   129997   129725    90666    28072   -40193 
 -102223  -145861  -160240  -143120  -101067   -43292    21705    84637 
  133589   152931   133137    82062    11350   -69928  -144161  -192916 
 -203777  -166963   -89046    -4837    58165   111430   156448   162071 
  121915    56413   -20027   -93682  -155412  -192435  -181224  -119941 
  -34965    45460   109837   157691   180059   168315   127529    68775 
     878   -76845  -158387  -208955  -193659  -120267   -27352    54592 
  112301   148953   172319   168944   121148    38081   -49286  -116158 
 -157344  -162257  -123823   -68376   -17905    33894    91206   141534 
  156892   120036    53549    -8880   -60319  -108629  -139775  -121856 
  -58560     5113    39589    50248    53764    65266    83051    77683 
   28180   -44733  -104444  -127517  -103272   -42955    16307    50986 
   78153   111713   121954    77219    -4692   -78000  -114950  -117357 
  -94423   -48358     4287    37746    46255    39141    37091    54498 
   73166    68334    26832   -48404  -123026  -160326  -145446   -78614 
   15278    95191   131772   119548    75683    20700   -31496   -66292 
  -79810   -82606   -78614   -63010   -39719   -18818     4560    40740 
   76511    89197    72659    31215   -21049   -62792   -89414  -104277 
  -95918   -59242    -5393    54735   106308   131512   122715    87363 
   46024    14928    -9439   -38749   -70827   -88670   -79336   -45813 
   -7011    14305    13429     8427    18746    41327    55963    52657 
   32563      801   -23669   -25867   -15820   -11603   -21618   -37087 
  -32399     5007    48034    61632    46935    26815    11463      283 
   -4753    -8661   -23750   -46614   -56436   -38517    -6467    11284 
   12195    14586    26908    44594    50865    30900     -847   -21233 
  -35168   -56319   -78561   -80604   -51430   -13362     3778     -499 
   -3204    14583    47253    81672   108350   108466    75748    25253 
  -30584   -82240  -118772  -133452  -128219  -108109   -72428   -27641 
   12460    48574    88231   128403   156397   153235   110734    43420 
  -28326   -86257  -114554  -115241  -105780   -93232   -67519   -17809 
   51025   113552   146153   148343   125151    82882    37671   -13885 
  -83893  -150140  -180094  -158145   -90480   -11466    54584   108892 
  143994   146179   115668    65932     9962   -48102  -102290  -137253 
 -131312   -77870    -6412    46595    76277    93841    96112    78940 
   52404    19675   -24399   -70978  -102302  -106927   -78095   -23375 
   27145    54065    66458    68716    50741    17433   -11946   -31561 
  -47739   -61160   -60610   -36433    -2556    21367    39510    59204 
   71582    70539    56306    26475   -15261   -60178  -100845  -124543 
 -118540   -85352   -38835    10192    52253    76227    80456    77144 
   75518    65282    33814   -10366   -47491   -66098   -69721   -68456 
  -67142   -61940   -37856    15124    73475    93520    60775     4980 
  -36717   -49994   -40234   -20856    -3341     9046    19689    29662 
   30101    12898   -12787   -28388   -27018   -18417   -16858   -26448 
  -35455   -26546     5080    43669    64736    61568    45375    20356 
   -8747   -30413   -42685   -46943   -43210   -33164   -16469     2109 
   13248    15730    17054    23503    31344    30330    20380     8797 
   -5096   -15016    -8311     5895    10851     6682    -1155   -12856 
  -25900   -30260   -25591   -22237   -16122       61    16541    21156 
    9565    -8048   -13074    -7758    -5841    -8544   -15258   -19198 
   -4801    26226    58967    81429    83168    62222    23260   -27398 
  -76665  -111822  -125532  -114293   -80400   -28582    32549    88857 
  129921   151078   144026   101320    38630   -17355   -68140  -121584 
 -155069  -151548  -120492   -67875     1684    72812   129410   160411 
  167326   155293   116446    52035   -17975   -84433  -150250  -204106 
 -219933  -183472  -109300   -24032    59675   136144   188235   197588 
  167633   118193    57663   -15649   -94897  -161759  -192529  -179402 
 -138053   -83144   -14809    69472   150226   190849   180239   131720 
   60519    -8912   -61573  -101236  -122685  -120372  -105505   -84670 
  -45617    17247    81886   128499   160456   173863   141588    49511 
  -65426  -150864  -193210  -190563  -139905   -75304   -28667    11635 
   50504    77811   103803   133230   137162    88514     6123   -67596 
 -117970  -142996  -126414   -77821   -36174   -12937     5250    23369 
   41155    56348    64509    67431    70279    65321    30279   -34470 
  -87731   -95842   -60839    -3736    41518    51347    37249    19411 
    2191    -8748    -8596   -14370   -38630   -68784   -88715   -86163 
  -56130    -4178    57802   104381   112797    91909    67878    50742 
   33286    11047   -17202   -50621   -74279   -72221   -49903   -24961 
   -7255     1163     3019     5545     4988    -7263   -22429   -30285 
  -33506   -33045   -25134   -11412     5822    33686    69265    87702 
   72292    27302   -29702   -73572   -92993   -85700   -45095    11540 
   49940    60801    50000    27972    18225    20559     9511    -9731 
  -20470   -32466   -48960   -55919   -45362   -20051     7964    24781 
   27626    26627    30241    33773    28908    15785     -137   -14893 
  -26873   -39528   -56002   -64434   -53302   -32709   -12191    12354 
   39372    58333    59147    36153    -4368   -39830   -51058   -43547 
  -33304   -29800   -36634   -38278   -10888    33814    66624    81631 
   81601    73284    65370    45884     4070   -42573   -70712   -72139 
  -54249   -33488   -16994       71    19649    39805    55644    62405 
   62180    51316    26679     6409    -5241   -27156   -50595   -58366 
  -53304   -28825    14669    46966    46636    28029    16064    15275 
   17276    13364    -6057   -31802   -39652   -26782    -8026     5811 
   12579    18401    22148    14363     -591   -10966   -17551   -24649 
  -28004   -22004    -8533     5953    23464    48399    65833    57718 
   28093   -10261   -45909   -70261   -82602   -75397   -38968    11386 
   48970    65581    68892    65864    58761    45195    20216    -9516 
  -31306   -46170   -59424   -72566   -84473   -76634   -30220    35876 
   83908   101861   102150    89075    57649    15260   -28353   -67887 
  -88147   -76256   -39368    -1730    13055     8601     8882    25536 
   49896    64419    56305    26151    -9718   -29960   -31543   -26411 
  -20234   -11126     4741    23919    32748    27236    18190    16164 
   24563    32547    22339    -3130   -19976   -15143     2316    21307 
   36340    41167    35700    26006    13088    -4571   -22767   -32238 
  -24958     -511    28839    42107    30510     8485    -8314   -18874 
  -24048   -20293    -6740    10471    20677    18343     7720     -686 
   -1081     1384     5277    15553    27336    28673    15081    -6264 
  -20557   -14885     7047    27137    35510    32111    15615    -8484 
  -28044   -39590   -47032   -51152   -49378   -40639   -27277    -8919 
   17345    45094    62476    63586    50168    31124    11141   -13472 
  -39035   -55946   -64711   -72047   -75503   -63487   -31833     7038 
   40212    68129    90552    99638    92268    67542    22463   -31466 
  -68386   -83074   -94895  -103709   -88875   -47274     6340    55292 
   90615   110552   105824    72015    26786   -13955   -51639   -87255 
 -111785  -113556   -86124   -33744    23051    57124    62865    57108 
   48822    31011     2154   -26498   -49929   -71614   -83535   -71525 
  -39031      798    41150    70303    77730    66977    38343    -8901 
  -58592   -92588  -104406   -86851   -39112    12454    40122    49478 
   56951    63249    61689    43037     6340   -29507   -53973   -75094 
  -88233   -80678   -52236   -11814    20815    29139    27644    43337 
   72195    81800    55005     8434   -32982   -62163   -82756   -92829 
  -90777   -72973   -32762    15829    49862    65315    65420    53541 
   34976     6386   -33601   -68628   -82193   -75400   -58592   -39224 
  -20901    -4487    14281    36169    50589    47301    23335   -16978 
  -56644   -77222   -75525   -58506   -36011   -17085     -639    18233 
   35707    43962    36954    17537     1863    -3032    -8390   -15681 
  -15135   -10044   -10726   -22056   -43588   -63613   -66885   -50053 
  -20286     7666    24016    36194    48635    53756    47495    27909 
   -5464   -41708   -65393   -73667   -70427   -49281    -9389    31737 
   63050    82636    79647    48980     5396   -30463   -49744   -63958 
  -83365   -95704   -88933   -62557   -19228    27425    62556    81232 
   76121    46057     6687   -29072   -55735   -63649   -50737   -33793 
  -29449   -32929   -27881    -7214    27452    66949    90690    84882 
   51825     -703   -55292   -90991  -102249   -91127   -57333   -10183 
   30450    53858    64954    68935    64403    49356    21325   -16144 
  -52228   -85997  -114347  -115958   -80761   -24727    31149    72770 
   94548    97418    81942    50159    10624   -28721   -67868  -106815 
 -129494  -112779   -57089    14380    77752   119873   138342   128140 
   88824    35359   -23817   -86902  -138101  -149846  -108837   -42574 
    8872    38267    60311    83244   100420    95883    63601    19879 
  -20122   -60985   -95900   -99079   -66352   -20193    18195    42986 
   61571    73858    66369    41683    17420    -3422   -24778   -42027 
  -45446   -30961   -12247    -3052      500     6676    20281    37554 
   45412    37179    17292    -6981   -30469   -47219   -49853   -41591 
  -33487   -24540    -7856    11353    26761    40905    51393    48318 
   28730     5170    -6081    -7686   -14981   -31246   -46930   -49827 
  -35222   -15652    -4239     4612    18869    38137    59326    67352 
