Origin Time       2011/03/11 14:46:00
Lat.              38.103
Long.             142.860
Depth. (km)       24
Mag.              9.0
Station Code      GNM001
Station Lat.      36.7719
Station Long.     139.2246
Station Height(m) 804
Record Time       2011/03/11 14:47:32
Sampling Freq(Hz) 100Hz
Duration Time(s)  276
Dir.              N-S
Scale Factor      3920(gal)/6182761
Max. Acc. (gal)   126.574
Last Correction   2011/03/11 14:47:17
Memo.             
[...]
  -34517   -20140     2326    18052    26697    29942    25861    17637 
    3257   -17841   -27926   -15005     5497    14667    10909      368 
  -12966   -23008   -17955     2887    17752    11813    -4132   -15239 
  -15650    -8519      621    16782    39159    40061     7256   -22032 
  -31691   -41880   -33178     5041    34557    43818    34273     5055 
  -16701   -24892   -27664   -12197    15535    36735    38044    16692 
   -1089     -874     3508     3581    -2449    -7310    -7992   -13798 
  -16574    -9876    -7616    -7669     3120    15026    15333    12082 
    5794    -8555   -12662     2109    14759    10152    -4245    -8309 
    6535    24574    28036    14421    -5828   -18871   -19810   -11700 
    1114    13953    27176    42366    45909    21797   -18879   -46414 
  -41435   -12253    10604     9958    -4469   -19070   -24239   -21367 
  -20862   -18661   -10192     -762    16540    41075    45002    13503 
  -30566   -55384   -46457   -16802     1500      273    -3563    -9985 
  -13954     1599    16544     5751   -15049   -25228   -18328     2171 
   18024    19681    16465    13905    12123    11509     8390    -1560 
  -16899   -26312   -18991    -1549     6070    -9086   -36466   -50654 
  -38804    -8468    27606    56437    58594    29828      216   -11797 
  -21428   -26875   -19142   -15204   -12936     7556    33877    44711 
   39089    19762    -8660   -31502   -35173   -18851     4460    17313 
   16381     9330    -2674   -12250    -7098    -1646    -9267   -12218 
   -6372    -5431    -7988   -10705   -12394    -9158    -6911    -9379 
   -6796      199    -2823   -15456   -26153   -29155   -18900     2902 
   23232    33788    33094    21478     2261   -16431   -22468   -14533 
   -4506     6031    20204    25213    12756    -5799   -20547   -30434 
  -33403   -29528   -23138   -14634    -3824     6118    17783    29235 
   23990     1343   -15892   -13682     8111    33829    34076     6066 
  -25625   -37882   -21543     -738     -913    -8607    -4438     8939 
   23084    30186    13847   -21821   -40833   -26129     4484    24754 
   22947     8727     -824     7334    28183    35407    16029    -9858 
  -25384   -32883   -27480   -11393    -3002    -1514     7148    21356 
   27429    18160     1680   -10733   -15713   -11901       31     5380 
  -11116   -32258   -31536   -15946     -203    12813    11511    -7771 
  -25418   -24592    -8685     3850     1864    -4776    -5829    -2607 
    4250    11939     8085   -10562   -28695   -33314   -20645     4809 
   24276    25856    17041     1841   -16839   -22556    -8513     4136 
   -4188   -22799   -31734   -25255    -9693     1934     2450    -8303 
  -23973   -23608     1755    31356    47491    47692    27850    -4102 
  -26147   -36274   -39621   -25778     1847    24718    31899    19251 
   -3248   -16093   -15596   -13171   -13251    -8752      842     5283 
    2552      390     -450    -4544   -12549   -24047   -38562   -49849 
  -42875   -10196    28392    43969    26227   -12740   -41388   -34992 
   -8684     7598     6961    -4267   -13914    -2129    27246    39983 
   24171     1590   -12284   -14773   -10644    -8939   -10191   -11862 
  -12068   -10525   -10391    -6482     5094    16186    22111    25292 
   24385    13323    -3942   -11720    -7351    -5095   -10349   -14785 
  -14242   -12494   -11287    -5688     5431    11939    10156     8914 
   10700     9207      565   -10622   -15622   -12813    -3062    13552 
   27722    30536    25049    16488     5279    -8464   -18601   -16598 
   -1452    18156    27099    14698    -8333   -17331    -5328    13149 
   23806    16090   -10665   -35309   -40211   -31060   -14471     3253 
    7998     -335    -7783    -6045       58      555     2600    17218 
   29414    22677     2838   -23634   -51805   -63637   -47567   -13864 
   22057    50125    62473    54528    27719   -10210   -41138   -44631 
  -24682    -6862     -951     6467    21207    32962    32545    12006 
  -22950   -41398   -27936     3408    33274    38577    15900    -8868 
  -16935    -8481    -4070   -20113   -31870   -20745    -1237    22227 
   43328    42083    20291     1250    -1287     5170    11284    12474 
   -1486   -24073   -28293    -6023    23976    36818    24018     6154 
    -589    -3792    -3990     1084     5392    12810    24834    36287 
   44089    35016     7239   -17783   -27770   -23887   -14432    -8644 
   -1819     7207    12323    18451    26446    28725    22740     7965 
  -11546   -27896   -36341   -32110   -16928    -1976     6721    10689 
   12095    12109    11268    10881     8141    -3238   -17983   -23648 
  -22610   -23319   -19474     -148    31339    54239    49064    21379 
   -7981   -24460   -21592    -7206     1581     2156    -2076    -6132 
    5926    29898    41555    32306     6488   -22697   -39551   -43065 
  -34039   -12127    11706    33242    46702    34302    10041     -617 
   -1731     4521    13296    16661    21205    16894     3872     7611 
   20237    21072    14489     6429    -7953   -32484   -51894   -45175 
  -13945    17137    26956    21794     9067    -9829   -18751   -13831 
   -3681    10810    23868    34518    48005    56893    49607    23940 
   -8499   -30977   -37538   -29339   -13426    -6423   -14913   -23768 
  -13531    19053    51847    55009    21718   -28753   -67462   -72790 
  -46979   -16625    -3302     4324    23405    43599    50069    38250 
    8047   -28191   -55946   -66297   -51592   -22067      286    15275 
   36996    61255    69924    56463    25383   -19410   -64235   -83031 
  -68060   -41455   -16972    13369    40599    46866    37841    16629 
  -18238   -50522   -65607   -56515   -25076     8765    27150    26728 
   17247    15767    22015    28166    38498    42271    23360    -7436 
  -32718   -43178   -38673   -28796   -10801    22295    47906    40335 
   17260     3371    -8539   -15812    -3441    16696    32506    47749 
   50816    28101    -5166   -25057   -27298   -21644   -15612   -10662 
   -7283    -4775      231     8997    16546    15220     8189     6984 
    7188    -2227   -13802   -17051    -5166    25912    49709    34155 
   -2947   -31742   -53698   -55920   -19552    27204    56716    67075 
   46125     5592   -27373   -59083   -81801   -73964   -42671     3986 
   48799    65580    57735    36573     8217   -14104   -27511   -38258 
  -48808   -59640   -61851   -50415   -35277   -16451     3584     8062 
     692     1136    18868    43087    50869    43407    34853    20191 
     -36   -11542   -16471   -29382   -45984   -41981    -7948    31699 
   51193    48745    25617   -10146   -37925   -59800   -79820   -72469 
  -33039    10216    45990    78686   100782   100369    76405    33588 
  -23096   -80432  -117440  -117188   -79356   -24492    32457    86479 
  101183    49339   -23224   -76616  -116502  -111908   -45393    22895 
   67776   102529   103660    83453    69806    36406   -10560   -34946 
  -43911   -44586   -24270    21127    76352   109267    99535    50263 
  -20750   -88448  -130992  -130542   -86597   -28863    22247    77463 
  125406   130762    94157    37610   -37942  -122368  -164370  -127993 
  -47154    23570    72533    97588    73124    10699   -44481   -77166 
  -85200   -66397   -35404    -9960    14600    52494    80566    61658 
   10138   -34023   -54251   -41543     -249    33601    39752    38388 
   41558    32617     6343   -17159   -33465   -49489   -50649   -35153 
  -26779   -33091   -37321   -20342    16337    52118    69906    66432 
   53145    38416    16623    -9573   -28970   -41408   -52938   -56958 
  -31605    25473    80742   107228    97075    42875   -35501   -99370 
 -130078  -107100   -36611    29094    80578   123265   120216    79075 
   34668   -18701   -67805   -82042   -65134   -39703   -22505    -7441 
    9937    14137     9671    12594    20880    27583    25295     8702 
  -11629   -17879    -8697    11465    40223    55412    41006     9825 
  -24411   -47844   -37239    16197    73659    85516    62109    28186 
  -23538   -84992  -131001  -139650   -96394   -12109    87430   166079 
  173004    95594    -8159   -90444  -150431  -155405   -86839   -12206 
   37265    91816   122672    94439    42579   -10442   -65350   -93525 
  -74983   -28053    11966    35994    59557    69670    36465   -32920 
  -90206   -91640   -36113    37764    83489    82158    41800   -14497 
  -49156   -41716    -6032    32866    46714    19959   -28135   -62706 
  -70997   -63482   -45351   -19814    16368    70416   109806   105270 
   71233    14178   -58475  -110740  -112863   -68869    -3196    60591 
  104377   117449    93120    35416   -35021   -94705  -113436   -77746 
  -17900    43493   104376   144945   144908    96675    11748   -73420 
 -132546  -141203   -85938   -11096    47932    93176   102527    67350 
   13586   -43539   -89625  -108154   -94759   -54534    -3056    50897 
  100290   125094   119402    90969    52501    22606   -12013   -74393 
 -141102  -168519  -122375   -12445    86075   123730   104978    45584 
    8866    30308    55041    69490    76129    19771   -80326  -141924 
 -160641  -144872   -76077    -6957    30465    71048    81213    49247 
   34500    26156     4513    -6465   -18656   -46761   -73824   -79444 
  -55485   -14926    16245    24347    29837    35214    14754   -11830 
  -31443   -64873   -89113   -73255   -31365    17237    67188   108296 
  122642    94899    33073   -37445  -103179  -143602  -131803   -79002 
  -14720    57205   130878   168569   157196   129604    90465    21161 
  -61668  -121545  -127847   -92657   -66780   -43578     5365    37562 
   27738    10243     3200     3043     1670    -2166     8091    30829 
   41731    43099    54998    60039    22708   -53944  -128560  -148999 
  -92489     7099    97588   156511   175165   130468    31844   -66325 
 -145545  -198899  -179127   -92592     -183    87719   164570   196762 
  188865   141437    47223   -50872  -126830  -181367  -177234  -103124 
  -13502    57795   107028   112079    74076    28963    -2358   -26185 
  -63652  -110232  -138433  -142584  -108288   -19547    79605   137437 
  147792   111774    53917    10387   -48596  -133070  -169181  -124758 
  -34596    62293   138898   176300   149850    70242   -17725   -97626 
 -147266  -125963   -58280    -1222    52636   110182   127451    97248 
   42918   -30355   -97748  -129744  -119339   -80820   -55504   -37445 
   13055    63870    83460    94074   101618   103121    85854    31984 
  -32098   -83573  -121401  -119413   -63286    20123    84317    96510 
   68467    24102   -22131   -50612   -66915   -97266  -117899   -75378 
   16457    95800   134821   132040    88715    29185   -11467   -26442 
  -33199   -46458   -58259   -49693   -35509   -51259   -92403  -114929 
  -92568   -31083    53076   110938    97659    51517    18158   -17528 
  -58419   -88555  -105230   -93821   -47186    10904    55533    82218 
  102751   106768    67653     9548   -27453   -40214   -26694     -111 
    7519     4752    16400    30328    26961    10353   -13072   -36747 
  -41592   -22719     3455    31438    63821    80447    53277    -9319 
  -71706  -107485   -98845   -51963    -7139    23936    50407    40587 
  -11142   -55605   -62175   -20110    52081    98541    93544    51043 
    1189   -34988   -76489  -112508  -103023   -57421    14189    86752 
  102814    75417    44842     5155   -38658   -63461   -69632   -61255 
  -29134    16458    59417    91420    92147    64378    37202    18807 
    1231   -19951   -48287   -76696   -77781   -37156    12690    44022 
   76928    99725    65050    -1081   -46415   -74549   -81934   -53055 
  -11817    21098    48325    56320    33594    -3755   -33376   -46101 
  -50487   -49694   -26952    13354    36890    35897    35029    40639 
   36058    15821   -11628   -45944   -89058  -116304   -95433   -31699 
   48205   118260   144853   101637     5695   -82413  -132913  -139368 
  -74980     4013    29545    59805   110651   135723   140226    95879 
   -8834  -104666  -159140  -157932   -70726    34558    72984    97461 
  129016    94628    10679   -70056  -133845  -155966  -125726   -57443 
   12093    54901    88016   119332   127805   101207    40269   -46484 
 -125272  -154767  -136328   -98800   -52302    14785    92188   128611 
  104250    50072    -9818   -65392  -109526  -117564   -62782    26798 
   99700   140940   153423   118072    21343   -93974  -166101  -157937 
  -67220    29331    61634    74964    88096    47888   -27361   -90544 
 -125949  -104196   -29757    39340    64245    46503    12722    -8531 
  -19076   -23554    -1479    46709    86381   102004   108420    92189 
   20315   -77344  -139009  -144617  -103137   -40603    20213    83177 
  128006   109851    44839   -16637   -66441   -97850   -87760   -51575 
  -17095    23627    61640    68166    67727    73931    42167   -23089 
  -69902   -73476   -34042    12692    26490    20614    18315    15213 
   19109    41736    62137    61540    49127    37852    32466    24054 
   -6928   -63330  -115522  -132234  -119348   -96581   -54736    20570 
  108563   165878   153736    66977   -44455  -129517  -169308  -130453 
  -31118    41876    88523   119878    79574    13720    -8396   -20841 
  -32429   -13237    29696    59535    45124     1627   -31235   -40528 
  -32370   -14805     7779    40493    72743    83932    77794    60137 
   24219   -34630  -109038  -163379  -164607  -113141   -21302    84547 
  168657   198977   147691    43638   -50919  -115944  -124343   -70612 
  -19401    18173    50640    43205    31528    42972    43970    46323 
   37986   -12310   -68577  -104112  -120054  -103020   -45743    36906 
  111650   150656   134540    55746   -42246  -107729  -129812  -107309 
  -59419     3937    90372   140015   104332    38153    -3967   -30367 
  -35108    -1085    18409     2318    15779    60578    85015    73418 
   19139   -67265  -141976  -174201  -159914  -111183   -39210    55783 
  139117   166944   150381   106815    39690   -23309   -55081   -59603 
  -67713   -92227   -86591   -21405    60972   119166   140837   114221 
   42616   -32964   -73850   -76243   -42015    -2918     6902    24021 
   51924    47944    34424    26160      950   -32373   -60275   -68812 
  -46987   -13570    27782    74297    80248    37718    -1744   -16104 
  -17352   -14820   -21508   -41217   -51051   -35361   -15356   -16729 
  -34125   -44393   -30104    13419    65546    90547    81637    54560 
   15475   -25406   -52336   -56508   -31829    11738    44619    50763 
   40972    24502     1814   -16101   -20309   -17410   -13225   -13357 
  -24110   -31483   -17785    10947    39534    49050    31045     9679 
     645    -9973   -24654   -35294   -45759   -51230   -35536    -5974 
   12676     9187   -16218   -51590   -72527   -62265   -20501    33366 
   76189   106226   120028   101830    54306    -3805   -54671   -80657 
  -73521   -46961   -24510    -4090    40149   100008   130996   111687 
   47780   -43611  -121781  -141933   -95170   -18493    42128    67087 
   46949    -5344   -40810   -41400   -20852    21801    62668    66387 
   35598   -11501   -41034   -31289   -18170   -29177   -36334   -13785 
   17237    24428    19310    29030    41608    31528     3437   -25464 
  -52203   -76043   -84814   -67509   -30937     4137    26975    45583 
   53451    28818   -18858   -63150   -88041   -74006   -20632    40266 
   80430    95576    94402    74222    30558   -18155   -56444   -91532 
 -119443  -102866   -21008    69257   101500    89023    46698   -33384 
  -95673   -97505   -65658   -16882    20052    14141     4148    31203 
   72229    85017    63199    20516   -32507   -75221  -101663  -105174 
  -68359   -10204    57318   128129   149786    99579    21181   -40228 
  -66811   -66424   -64603   -78376   -83513   -48886     -263    26942 
   33161    19979    -1079    -8436    -3265     4594     2900   -13213 
  -18219      -88    11783    -3717   -30121   -42949   -32479     7262 
   65413   106432   104006    58709     2890   -26463   -37325   -57406 
  -86835  -102642   -82850   -34729    14572    55036    84807    90034 
   61940    11866   -41718   -89762  -128894  -138724   -95537   -26512 
   24857    65137    93561    81240    42257     3661   -33290   -49097 
  -33559   -19376   -11695    19430    65691    95581    93920    60204 
   16088   -21099   -50524   -71508   -87225   -77411   -27068    21298 
   46544    76395    96358    68144     6882   -50295   -81209   -57466 
   10577    45165    26398     9709    -7716   -41682   -54761   -36737 
   -1297    42427    64417    47527     9007   -19282    -6691    38346 
   70684    65572    34421    -8197   -57035   -92844   -97151   -81523 
  -59259   -31936     -191    35681    65057    75754    65022    35850 
   -2298   -41202   -72186   -81883   -65768   -32815     5322    41682 
   64435    58582    30722     2419   -18779   -39533   -58702   -57185 
  -25281    15796    41604    46479    34644    20412    18996    23366 
   19999     7398   -15260   -41600   -55502   -51513   -35238   -10012 
   23271    58276    80622    75182    38749   -13369   -59277   -86802 
  -88922   -62847   -27173    -6325     3522    17883    36605    52454 
   54227    38839    22539     4693   -25755   -47156   -36400    -3568 
   28296    42314    30548    -6200   -51800   -81006   -78493   -46078 
   -4056    26826    38966    31429    24294    37476    47511    27676 
   -9791   -36418   -32254    -4216    18732    18166    -4033   -30972 
  -42256   -33162   -14288    -7785   -24201   -31144    -1277    40434 
   60091    53301    38216    29153    17814    -3440   -24102   -28030 
   -7871    21207    37375    35017    14637   -16122   -40360   -53884 
  -57561   -40279    -2222    40292    73827    76831    33098   -32548 
  -82334   -95515   -54996    23564    87909   123710   129363    74883 
  -11223   -73146  -111172  -115257   -75434   -29156     -527    -4933 
  -54761   -95990   -66482     7145    66397    99541   103039    63878 
    5170   -48175   -91646  -101216   -78795   -59809   -37937    -5982 
   11715    25589    48811    55580    37188     9130   -21206   -51950 
  -74458   -71761   -32088    30835    76317    77600    45855     8650 
   -3524    11227    19370     4048   -31569   -73521   -87178   -53369 
    3761    43466    51765    46196    40482    28928     3534   -28328 
  -42955   -23604     6859    15595    17906    25711     5036   -42013 
  -70072   -60057   -19897    26662    53608    53291    26666   -14445 
  -43153   -45645   -40375   -45900   -44395   -20577     3039    10951 
   15499    27292    44465    59409    59311    28011   -31099   -87666 
 -113563   -92510   -28038    41916    92709   123231   104730    37361 
  -21916   -52863   -62198   -42410    -9568    17885    35590    32165 
   16482     -168   -27148   -54255   -62117   -50954   -33943   -29301 
  -35165   -24763    12289    53852    73577    60602    24523    -2846 
    1500    22940    35545    24549   -12526   -53298   -65089   -42824 
  -10017    16573    38315    55305    57202    36034     8055    -3287 
    1117    10497    19403    21501    12112    -1115    -4266     3667 
   16632    29273    32454    19405   -12501   -53114   -79838   -83034 
  -68467   -40898     2935    58846   105217   123712   104411    48322 
