Origin Time       2011/03/11 14:46:00
Lat.              38.103
Long.             142.860
Depth. (km)       24
Mag.              9.0
Station Code      GNM004
Station Lat.      36.6171
Station Long.     138.5921
Station Height(m) 1222
Record Time       2011/03/11 14:47:42
Sampling Freq(Hz) 100Hz
Duration Time(s)  300
Dir.              U-D
Scale Factor      3920(gal)/6182761
Max. Acc. (gal)   25.194
Last Correction   2011/03/11 14:47:27
Memo.             
[...]
  -15312   -12138    -7648    -3784    -3345    -6219   -10842   -14853 
  -14951   -10772    -5301    -1753    -2199    -6026   -10574   -13505 
  -12927    -8580    -2589     2839     5777     4395    -1026    -7899 
  -13389   -16331   -17366   -17301   -16827   -17141   -18823   -20986 
  -22590   -23412   -23600   -23862   -24843   -25945   -26617   -26787 
  -25996   -23969   -20601   -16145   -11654    -8243    -6174    -4538 
   -2722     -898     1103     2954     4157     5384     6964     8230 
    8751     8444     7388     5654     3368     1214     -106     -544 
    -539     -707    -1510    -3099    -5412    -8180   -10838   -12836 
  -14220   -15387   -16295   -16857   -17389   -18139   -19560   -22347 
  -25842   -27493   -25239   -19192   -11468    -5616    -3618    -4030 
   -4825    -4463    -1182     3820     6468     4987       70    -6326 
  -10643   -10796    -7027     -461     5851     8785     8119     4575 
    -991    -5949    -8114    -7555    -5231    -2867    -2327    -3737 
   -5680    -7271    -8752   -10168   -11205   -11351   -10091    -8479 
   -7998    -8315    -8816    -9577   -10126    -9803    -9196    -9629 
  -10988   -12320   -13503   -14300   -14507   -14222   -12800   -10453 
   -9444   -11433   -15454   -19653   -22717   -22923   -19848   -16240 
  -14774   -15015   -14552   -12253    -9358    -7283    -6664    -7723 
   -9850   -11798   -12858   -13766   -15517   -18095   -21744   -26490 
  -30159   -30707   -28623   -25009   -21157   -19547   -21186   -23839 
  -24676   -22813   -19616   -17033   -16170   -17598   -20031   -20676 
  -18543   -14171    -8793    -4866    -4169    -6731   -11311   -14940 
  -14376    -9161    -1476     5756     9592     8505     3809    -1584 
   -5504    -7195    -6868    -6073    -6889    -8957   -10275   -10647 
  -10419    -8812    -5953    -3815    -4466    -7419   -10330   -11931 
  -11637    -9455    -6963    -6392    -9485   -15242   -20489   -23748 
  -24247   -20977   -14891    -8223    -3752    -3523    -6393    -9911 
  -12560   -13541   -12736   -10163    -6407    -2830     -193      905 
     372     -579    -1197    -1056       69      876      709      742 
    1762     3368     5014     6287     5547     1438    -3999    -8036 
  -10922   -13531   -14839   -14248   -13030   -11987   -10759    -9099 
   -7037    -4649    -2379    -1454    -2727    -5479    -8321    -9775 
   -9416    -8529    -7403    -5473    -3627    -2879    -3793    -6437 
   -9315   -11220   -12213   -12083   -10989    -9852    -8967    -8269 
   -8184    -8977   -10121   -11122   -11808   -10986    -7597    -3171 
     330     2506     2745     1500     1447     3205     4503     3768 
     598    -3986    -7416    -8776    -9449   -10354   -11593   -13250 
  -14812   -15412   -15063   -14330   -13120   -11282    -9376    -7960 
   -7754    -9901   -14058   -18144   -21247   -23581   -24412   -23367 
  -21012   -17752   -14621   -12979   -13306   -15541   -19014   -21990 
  -23065   -22791   -22228   -21486   -20750   -20103   -19084   -18269 
  -18928   -20732   -22091   -21913   -20124   -17644   -15732   -15116 
  -15915   -17423   -18372   -17795   -15081   -10764    -6834    -4404 
   -3239    -3209    -3525    -3108    -2444    -2427    -2717    -2237 
    -338     2198     3820     3377      298    -4818   -10164   -13668 
  -14045   -12112   -10181    -9727   -11201   -14388   -17789   -20001 
  -20646   -19762   -18622   -18681   -19592   -20331   -20003   -18237 
  -16012   -14221   -13015   -12889   -13732   -14586   -15137   -15225 
  -14959   -14940   -14519   -13204   -12202   -12190   -13174   -15592 
  -19169   -22451   -23839   -22830   -20711   -19105   -18658   -19849 
  -21945   -22097   -18969   -14095    -8993    -5208    -4134    -4890 
   -6167    -7404    -7746    -7521    -7452    -7008    -6153    -5422 
   -5035    -5617    -7728   -10595   -12547   -12783   -11745    -9679 
   -6964    -5230    -5250    -5818    -6005    -5477    -3794    -1053 
    2006     4197     4835     4322     2986     1468     1088     2267 
    4468     6489     6381     3101    -2468    -8025   -11291   -12134 
  -11877   -11273   -11118   -12432   -15251   -18832   -22120   -23872 
  -23619   -21780   -19378   -18467   -20132   -22660   -23881   -22700 
  -19298   -16131   -15886   -18657   -22516   -25169   -25308   -23285 
  -20715   -19589   -20463   -21967   -23268   -24085   -23236   -20703 
  -17728   -14876   -12998   -12825   -13618   -14653   -15967   -17285 
  -18356   -19361   -19944   -19794   -19247   -18169   -16526   -15035 
  -14179   -13621   -12632   -11424   -10546    -9602    -9233   -11327 
  -15869   -20699   -23442   -22618   -18497   -12392    -6083    -2345 
   -2635    -5601    -9142   -10688    -8493    -4047      612     4502 
    5847     3763      243    -1775     -900     2859     8839    14172 
   15112    11072     4051    -3519    -8902   -10494    -9226    -6990 
   -5560    -6821   -11057   -16511   -21260   -23708   -23038   -19703 
  -15210   -11542    -9846   -10664   -13861   -17134   -17749   -15162 
  -10980    -7849    -7493    -9865   -14083   -18120   -19491   -17931 
  -14767   -11068    -8096    -6915    -8197   -11907   -15966   -18072 
  -17887   -15939   -13246   -11736   -11681   -10892    -8829    -6941 
   -5452    -3898    -2449    -1644    -2201    -4318    -7419   -10763 
  -13277   -14210   -14385   -14491   -14160   -13997   -15018   -17127 
  -19483   -20776   -20142   -17659   -14055   -11087   -10046   -10027 
  -10069   -10892   -12996   -15973   -19278   -21356   -20205   -15864 
  -10788    -7911    -8763   -12918   -17911   -20215   -18472   -14289 
   -9598    -6397    -6569    -9851   -14573   -18529   -19768   -18831 
  -16779   -14199   -13411   -15257   -17331   -17589   -15268   -11197 
   -7793    -6243    -6073    -6441    -6757    -7064    -6828    -5586 
   -3626     -612     2586     4182     4608     4427     3192     2293 
    3142     4669     6459     8769     9813     8435     5533     1611 
   -2844    -6234    -7708    -8316    -9169   -10611   -12641   -14327 
  -14968   -15540   -17541   -21498   -26067   -28427   -27315   -24868 
  -23437   -23217   -24111   -25512   -25603   -23517   -19331   -13194 
   -6289     -864      705    -2107    -7020   -11497   -13785   -12598 
   -9317    -7037    -6433    -6610    -7558    -8452    -7564    -5290 
   -3715    -3859    -5785    -9173   -12311   -13478   -12770   -11264 
  -10405   -11378   -14093   -17382   -20067   -21771   -22788   -23951 
  -26183   -29066   -30227   -28093   -24526   -21601   -19084   -16997 
  -16054   -15622   -14154   -11507    -8761    -6207    -4353    -4582 
   -6295    -6577    -3533     1814     6987    10204    10187     6879 
    3696     3959     6134     7218     6846     5266     2409     -489 
   -2583    -4130    -5281    -6814    -8678    -9782   -10187    -9682 
   -8230    -7332    -7449    -7936    -8697    -9825   -11099   -11907 
  -12347   -13241   -14667   -16331   -17886   -18989   -19903   -20590 
  -20560   -20087   -19976   -20722   -22492   -25544   -29638   -32982 
  -33907   -32935   -30894   -27576   -24236   -22982   -23485   -24824 
  -26929   -28335   -27698   -25330   -21620   -17305   -13523   -10810 
   -9373    -9018    -9075    -9150    -9038    -8328    -6668    -4162 
   -1870     -394      856     1032     -449    -1755    -2792    -4520 
   -6051    -7527    -9717   -12158   -14668   -17007   -18600   -19229 
  -18638   -17117   -15203   -12703    -9878    -7263    -4778    -3022 
   -2872    -4160    -6259    -8286    -9542   -10339   -11240   -12393 
  -13838   -15332   -16087   -16033   -16794   -19129   -21380   -22459 
  -22614   -21943   -21152   -21191   -21893   -22143   -20807   -17967 
  -14591   -11682   -10319   -10364   -10549   -10825   -11879   -13239 
  -13985   -14406   -15278   -16105   -16440   -17244   -18835   -20277 
  -20938   -20449   -18487   -15620   -12987   -11153   -10540   -11389 
  -12422   -12347   -11393    -9853    -8126    -7216    -7845   -10429 
  -14049   -16196   -15741   -13756   -11810   -11660   -14423   -18852 
  -22562   -24875   -26097   -25177   -21743   -18423   -17394   -18454 
  -21799   -26692   -29851   -29646   -27038   -23229   -20185   -19611 
  -21213   -23777   -25876   -26140   -23826   -18996   -13449   -10227 
  -10370   -12048   -13076   -11991    -8301    -3943    -1524     -911 
   -1280    -3216    -6046    -8480   -10649   -11689   -10154    -7546 
   -7026    -9428   -12713   -15152   -16640   -16947   -16073   -15419 
  -15874   -16531   -17051   -18364   -19616   -18827   -16313   -13724 
  -12177   -12675   -15691   -19928   -22907   -23131   -20768   -17017 
  -13196    -9957    -7892    -7482    -8370   -10055   -12277   -13990 
  -13202    -9563    -5153    -1616      448      991      898     1008 
    1553     2022     1439       -3    -1681    -4347    -8205   -11739 
  -14059   -15026   -14133   -12556   -12955   -15461   -17673   -17748 
  -15559   -12625   -10464    -9053    -7744    -5896    -2932      623 
    3254     4688     6357     9055    12135    14366    14357    11242 
    5705     -146    -4442    -6492    -6532    -5802    -6091    -8479 
  -12948   -18675   -23657   -25746   -25185   -23592   -21741   -20733 
  -21675   -23835   -25952   -26945   -25740   -22743   -19312   -16442 
  -15274   -16686   -20004   -22831   -22737   -19209   -13741    -9250 
   -8214   -10475   -14530   -18862   -21418   -21202   -18556   -13545 
   -7355    -2165      544     -379    -3815    -6523    -6920    -5011 
   -2335    -1668    -3603    -6662    -9419   -11025   -11412   -10315 
   -7278    -3065     1291     5249     7052     5058      723    -3239 
   -5580    -6343    -6183    -5772    -5429    -5018    -4111    -3123 
   -3128    -3729    -3667    -3274    -3197    -3143    -3980    -6149 
   -7472    -7067    -6233    -4936    -2281     1285     4047     5078 
    4818     3391     1521      882     1459     2342     3203     2930 
    1076    -1022    -3269    -6274    -8719    -9502    -9023    -7877 
   -7079    -7368    -9227   -13444   -18444   -21175   -21125   -19464 
  -17174   -14993   -13426   -13232   -14651   -16999   -20099   -23222 
  -24370   -23146   -20576   -17194   -14063   -12169   -11476   -12171 
  -13816   -15017   -15213   -13875   -10763    -7287    -4004     -570 
    1858     2491     2052      712    -1706    -4125    -5265    -5336 
   -5379    -6311    -8645   -11617   -13858   -14892   -14242   -11735 
   -9090    -8202    -9333   -11665   -13698   -14167   -12917   -10430 
   -8111    -7649    -8767   -10199   -11533   -12512   -13151   -13837 
  -14826   -16151   -16556   -14772   -11709    -8331    -5130    -4006 
   -5339    -6296    -5350    -3384     -964      391    -2081    -8055 
  -13137   -13666   -10027    -4729     -355      446    -3546   -10247 
  -15806   -18042   -16991   -13822   -11595   -13435   -18557   -23509 
  -25438   -22995   -16942   -10119    -6096    -5632    -6271    -7504 
   -9303    -8850    -5865    -3487    -2703    -2770    -4126    -6245 
   -7032    -7269    -9323   -12461   -15721   -19507   -22486   -23206 
  -21891   -19076   -15922   -14208   -15177   -19179   -25089   -29945 
  -30556   -26422   -19700   -12749    -8490    -8976   -11677   -13159 
  -12911   -10935    -7744    -4648    -2708    -2818    -4365    -6227 
   -8001    -8409    -6416    -2608      997     1761     -604    -3641 
   -5098    -3936     -185     4271     6401     5481     3158     -394 
   -5356    -9919   -12665   -13186   -11337    -8719    -7911    -9765 
  -13616   -17894   -20389   -20735   -20001   -18346   -16220   -14793 
  -14560   -15424   -16732   -17112   -16207   -15211   -14434   -13087 
  -11333    -9772    -8217    -7315    -8364    -9925    -9450    -7165 
   -4445    -1973     -996    -2742    -5541    -5955    -3473      572 
    5714     9297     7682     1891    -4299    -8896   -11270   -11564 
  -11281   -12677   -16387   -19575   -19556   -16815   -13305   -12025 
  -14159   -17387   -20570   -22929   -21820   -18346   -16826   -18052 
  -20322   -22213   -21831   -17671   -10667    -3663     1224     2590 
     103    -3531    -5347    -4712    -1906     1698     3370     1740 
   -1860    -5417    -7724    -8646    -8833    -9099   -10416   -12224 
  -12450   -10862    -8242    -5875    -6663   -10779   -14769   -15595 
  -12552    -8398    -6139    -6002    -7720   -10166   -11211   -10894 
  -10635   -10654   -10527    -9945    -8943    -7913    -6886    -5799 
   -4835    -5245    -8810   -14547   -20692   -27235   -32435   -34135 
  -33071   -29905   -25060   -21786   -23270   -28181   -32701   -34759 
  -33925   -30471   -26313   -24709   -26872   -29615   -30140   -28811 
  -25601   -21117   -17554   -16382   -17975   -20747   -22485   -22247 
  -19157   -13736    -8641    -5294    -3394    -2856    -2597     -336 
    3783     7905    12213    16599    19148    19542    18261    14532 
    8566     2249    -2321    -3644    -2439    -1548    -2948    -6816 
  -12621   -18457   -21414   -20792   -18111   -14924   -13318   -14594 
  -17283   -19252   -19744   -18942   -16867   -14244   -13646   -15772 
  -17686   -17043   -12842    -4596     5483    13852    18340    18122 
   14695    11025     8420     7606    10065    14795    18231    18412 
   15320    10313     6739     6338     6992     6641     6114     6300 
    5423     2578       59    -1314    -3630    -6882    -8937   -10846 
  -15125   -21088   -27464   -34434   -41436   -47191   -50297   -49978 
  -48004   -45977   -42157   -36126   -30470   -25847   -22723   -23579 
  -27485   -30168   -29691   -25679   -18213   -10434    -5800    -5199 
   -8538   -13377   -15172   -13169   -10386    -7196    -3527    -3083 
   -7405   -14136   -21078   -25307   -24803   -21173   -16826   -13833 
  -13422   -14601   -16520   -18210   -18118   -18015   -19555   -19852 
  -17565   -14686   -11822   -10350   -13092   -19051   -24594   -27387 
  -26177   -21669   -16973   -14659   -14540   -14656   -13644   -11633 
  -10020    -9754   -10150   -11803   -15857   -20757   -24664   -26379 
  -25534   -24030   -23253   -23629   -25251   -25913   -23750   -19468 
  -14335   -10288    -8784    -8498    -7835    -5725      -91     8957 
   17756    22777    23043    20121    16412    14146    14491    16077 
   17474    18356    18165    17126    15199    12058     8138     3159 
   -2074    -5880    -9008   -11658   -12163   -11492   -11750   -12706 
  -14501   -17734   -21250   -23380   -22835   -19941   -16092   -11868 
   -8807    -7620    -6771    -6721    -8091    -8755    -7500    -5543 
   -4511    -4919    -6995   -12537   -22179   -31724   -36563   -36784 
  -34662   -32447   -31613   -31400   -30821   -29437   -26998   -25159 
  -24544   -22921   -20366   -18946   -18112   -16884   -15847   -14480 
  -11157    -5441     1548     7781    11324    12257    11967    10756 
    9856    11040    12529    11323     6238    -1749    -8792   -11772 
  -11601   -10176    -8527    -9298   -14330   -21059   -27383   -33765 
  -38598   -38908   -33841   -24943   -15578    -9345    -7755    -9311 
  -10927   -10206    -6159     -191     3866     4633     4266     2377 
   -2575    -7670    -9824    -9173    -5805     -974     2379     3068 
     183    -6847   -14777   -20427   -24042   -25267   -23154   -18911 
  -14262   -10447    -8485    -8824   -10760   -11522    -8918    -3647 
    2791     8654    12063    13248    14478    16526    18326    19925 
   20676    19259    17416    16823    17219    18511    18957    16884 
   14281    13653    13993    12799    10278     6654      -52    -8047 
  -12978   -14518   -13996   -12418   -11195   -10354    -9764   -10288 
  -12234   -14690   -16093   -16488   -17877   -21859   -28674   -37019 
  -43735   -45093   -40195   -32371   -26151   -23918   -24737   -26447 
  -28328   -29339   -26989   -20521   -12637    -6395    -1842     1178 
     477    -4101    -8911   -10655    -8545    -3926      660     2736 
     212    -6220   -11797   -13126   -10397    -4495     2854     8933 
   10139     5226    -1157    -5599    -8211    -7908    -5341    -1814 
    2243     4055     2458     -847    -3856    -4689    -4485    -5373 
   -7081    -8754    -9031    -6629    -1020     7073    12796    12672 
    9912     6201     1419      336     5135    10838    12824    10692 
    6489     1613    -2904    -5530    -7273    -9274    -9322    -6628 
   -3281     -273     1937     1502    -2481    -6963    -7994    -6451 
   -5579    -6109    -8176   -12122   -15880   -16712   -15186   -13868 
  -13785   -15098   -17320   -18135   -16619   -14597   -13545   -13756 
  -14656   -15468   -16359   -17854   -20760   -25525   -30274   -32196 
  -30650   -28067   -27439   -28523   -29766   -31970   -36296   -41853 
  -46147   -47279   -45766   -42970   -40330   -40275   -43197   -45452 
  -43978   -39483   -33785   -27751   -22623   -19665   -18331   -17249 
  -15193   -11512    -7053    -2695      823     1457    -1119    -4090 
   -4896    -2067     3581     8908    12895    15319    14264    10156 
    6768     7092    10897    16641    22867    26483    23963    15379 
    5245    -1974    -6079    -8677   -10506   -12570   -15227   -16926 
  -15558   -11036    -6321    -3508    -2686    -4668    -8661   -12085 
  -13612   -12873   -11104    -9944    -9970   -12388   -16314   -18153 
  -16548   -12866    -8677    -4408     -436     2095     4026     6579 
    8225     8748     9677    10103     9097     7478     4990     1747 
    -157      548     3776     8111    10116     8026     3265    -2596 
   -7800   -10393   -11276   -13135   -16342   -19650   -22037   -22637 
  -21709   -19320   -15200   -12014   -12455   -15387   -19275   -23366 
  -26093   -27108   -27319   -26644   -24932   -23375   -22965   -23110 
  -22966   -22098   -20688   -19740   -19578   -19874   -19750   -18007 
  -15094   -12488   -11815   -13959   -17387   -20194   -21919   -22949 
  -23736   -23853   -23154   -22430   -21581   -19824   -16888   -12882 
   -8764    -5301    -2326    -1008    -1971    -2438     -194     3932 
    8301    11314    12349    13185    15730    19016    20647    20207 
   19752    20242    19797    17507    13707     7454      290    -4138 
   -6309    -8703   -11415   -12977   -11404    -6309     -521     2201 
     510    -3717    -8075   -10567    -8703    -2571     4215     8610 
    9721     7509     1924    -5855   -12068   -13172    -9111    -3015 
    1191     1959      512    -2051    -4547    -5312    -5665    -7873 
  -10909   -13257   -14612   -14411   -12397    -9868    -9031   -10143 
  -11765   -14199   -18586   -23134   -25084   -25189   -24460   -21428 
  -17574   -16902   -19294   -22158   -24407   -24770   -22271   -18423 
  -16088   -17523   -22931   -30879   -38937   -43523   -43424   -40935 
  -37483   -33322   -28105   -20727   -13327    -8550    -4427     -354 
    1448     2123     3904     5512     5178     4885     6404     7157 
    5977     4805     3991     3612     5156     8480    10636     9955 
    7110     1486    -6019   -11013   -12120   -12209   -13274   -15121 
  -16472   -16299   -15345   -14618   -13501   -11670    -9150    -5468 
   -3323    -6248   -11963   -16627   -19682   -20547   -18840   -16848 
  -16083   -14422   -11317    -9874   -10438   -11443   -13435   -15461 
