Origin Time       2011/03/11 14:46:00
Lat.              38.103
Long.             142.860
Depth. (km)       24
Mag.              9.0
Station Code      GNM016
Station Lat.      36.1164
Station Long.     138.9250
Station Height(m) 344
Record Time       2011/03/11 14:47:33
Sampling Freq(Hz) 100Hz
Duration Time(s)  284
Dir.              E-W
Scale Factor      3920(gal)/6182761
Max. Acc. (gal)   103.489
Last Correction   2011/03/11 14:47:18
Memo.             
[...]
   20037    20504    13443     7724     5918     3863    -1924    -5863 
   -1801     3596     5625    11164    21623    29207    29341    25686 
   22418    15893     2923   -11790   -21506   -22390   -15840    -4429 
    9651    19241    20715    19529    20933    26178    29365    22559 
   10909     5256     5530     4462     -295    -2667     2168     8873 
    7926    -1370    -8844   -10600   -14832   -23479   -29545   -28704 
  -20104    -6117     8693    22990    37419    47424    46477    37948 
   27572    10812   -12615   -32020   -40590   -37558   -27179   -17301 
   -8419     5042    25452    47807    60835    58809    47071    32150 
   16443      955   -12449   -21608   -26090   -24931   -17334    -7473 
    1682    13391    28657    42841    51773    54208    51025    44023 
   33069    17649      229   -14868   -23648   -23785   -16531   -10236 
  -11257   -11180    -1745    10370    14037     7076     -428    -1695 
   -4400   -12534   -18809   -19436   -16308   -10517    -2115     7401 
   13139    11414     6486     5786    10287    15192    16283    12671 
    5730    -3000   -11438   -17358   -19726   -17402    -9223     3464 
   16439    28285    38226    38616    29147    21896    21811    24280 
   21017     9639     1233    -2026   -10782   -22576   -24575   -13430 
     762     7784    11747    19656    21483     6472   -10311   -10627 
   -2804     -691    -3434    -4624     -700     4809     8283    12525 
   17766    21314    20869    15531     8740      -82   -12725   -21671 
  -21928   -17457   -11079    -2253     7584    13420    14189    16646 
   24245    29066    22251     9201     4020     9352    14080     9063 
   -2570    -9611    -5917     5901    19903    26363    22890    22707 
   30486    34765    29016    16193     3603    -2290    -4655   -12353 
  -23871   -28867   -24989   -14391     2997    22267    35945    39804 
   36929    37126    39658    31260    11030    -6594   -14149   -14692 
  -12211   -11284   -14471   -18321   -17247    -9730    -1016     4445 
    7861     8761     6147     3010     1936     1076    -3872    -8672 
   -3411     8511    15617    14145     6923     -137    -4063    -5679 
   -2913     -125    -6842   -17724   -20910   -17264   -14486   -14980 
  -14117    -6915     4664    14156    18226    17608    15711    16813 
   20224    20863    15383     6849     6771    21278    37335    39672 
   29069    14671     3525    -4233   -13412   -22902   -25831   -19925 
   -9332     1683    12905    24300    32763    35323    31973    24969 
   14188      143    -9766   -11206    -7736    -3115     1442     9315 
   21603    28839    21906     4371    -9856   -11535    -6175     -655 
    6558    15006    20811    22060    18175    14088    16592    23771 
   28597    26314    18015    10535     7490     4560    -2173    -9294 
  -12185   -10527    -5849    -1857      459     5383    10835    11421 
    7058    -3570   -17566   -24612   -20111    -6725     9398    24822 
   39467    45777    40240    31204    22637    13581     3141    -8295 
  -14566   -12695    -9015    -7209    -2887     5619    12545    16498 
   23174    31866    34668    28321    18487    11846     5424    -6296 
  -18231   -23214   -24070   -26613   -29255   -27404   -17927     2247 
   23859    29689    22374    14964     9226     3377    -3860   -12845 
  -19457   -19895   -14643    -8400    -4399      898    10555    20365 
   24049    20898    16709    17021    20163    19974    15261     9954 
    3816    -4904   -11546   -10642    -3343     3537     6166     8106 
   12314    17225    18781    13327     3095    -5264    -8525    -9607 
  -12021   -16267   -20508   -18702    -6788     9676    22852    29889 
   32482    31730    25087    13723     2035    -8352   -16671   -23852 
  -26880   -17230     1923    18103    27940    35015    42257    48148 
   44694    30469    17698    14153    11212    -1763   -19345   -26210 
  -19998   -11007    -1897    10552    23914    32911    32783    24965 
   16137     6312    -3592    -7412    -7685    -7053    -1209     7287 
   14315    21793    28625    31305    28137    18379     5054    -5212 
   -9526   -12594   -17305   -17547    -7839     7187    15989    13162 
    7774     9433    13902    14274    12228    10581     9051     7563 
    5278     2026     -718    -4831   -10011    -7576     5417    17956 
   19359    10697     1796     -143      886    -1847    -7074   -11120 
  -11363    -4021     7365    12424    10299     9170    12168    15267 
   13038     5939     1585     3988    10171    17146    23516    26817 
   24824    20584    16273     8422    -1484   -10454   -19048   -23452 
  -22722   -20672   -15166    -3236    11125    20102    21634    22118 
   24331    23139    15127     5426     1681      270    -7313   -16741 
  -18563   -11798    -2615     1229     1320     7309    18601    26678 
   31696    37820    42691    41736    35256    28630    23989    16093 
    4330    -3794    -5326    -2377     2481     5291     6268     7241 
    5032       72     -380     6857    14469    15451    15044    17814 
   17546    10535     1808    -3030    -6652   -14537   -20303   -13840 
     180     8601     9193    10676    16333    21100    21156    17977 
   15856    16289    17092    16819    13897     5593    -4507    -5370 
    5792    17941    24431    29879    37994    47296    52408    48220 
   36523    21560     3974   -13767   -22681   -20117   -17590   -19654 
  -15695    -1716    11741    15063     8786    -1505    -8569    -9237 
   -6932    -1943     2721    -2174   -12432   -12358      550    11793 
   12828    13614    23530    35806    38533    30839    22163    17602 
   12040     1032    -9817   -13385    -9029     2343    16678    26147 
   25552    15677     6133     3948     2294    -3055    -5648    -3071 
    2487    11101    19662    23153    23876    26491    28665    28181 
   27750    25418    16696     4323    -5257    -8717    -8511    -9616 
  -12386   -13121    -9259     -592    11319    21557    24094    20591 
   18147    17125    10974    -2012   -11710    -8308     2949     9776 
    8457     6053     8882    11498     3880   -12738   -25402   -25119 
  -15862    -5495     3415     9872    12021    12311    14358    16216 
   14690    10302     7560    10293    15030    16823    15188     9463 
     205    -4781     1429    10668     9890     -771   -12976   -19179 
  -18947   -20504   -24830   -21768    -8862     4222    10776    13384 
   17598    24623    28984    28175    27675    28202    24755    19123 
   15352    11404     5998     1831     -253    -2150    -5628   -10599 
  -14769   -15815   -12106    -2622     9604    19539    25737    28590 
   29791    30360    25405    13355     2844     -298     -214    -2759 
   -8252   -13528   -17148   -17716   -12942    -5176     1935     9622 
   17554    23155    27239    28308    22370    12514     7753    12247 
   20770    25416    24363    23593    28786    36914    39431    32444 
   22089    16441    17098    22638    27827    25239    15998     6832 
    1321    -1409    -5657   -12223   -15855   -13719    -8391    -3202 
    -901    -2738    -6985   -12826   -19370   -22303   -19753   -13422 
   -3844    10158    28111    43638    50824    49994    41457    26573 
   11569      622    -9390   -23589   -40907   -54518   -58812   -52791 
  -37305   -14602     8989    29274    46309    55810    53884    43034 
   24338     1321   -15369   -20871   -18361   -12410    -8453    -6421 
   -1181     5308     6897     5193     4664     4230     2585      811 
   -2641    -9173   -14076   -12417    -6087      503     5111     9575 
   17270    26561    33682    36858    36904    35886    29129    13315 
   -2690   -13108   -19198   -19588   -14919    -8333    -1687     5401 
   15063    22961    22846    18194    15256    16550    20075    19832 
   15131     8245     -291    -3153     3831    11761    14801    16530 
   22625    35446    48769    52570    42440    22554     2750   -11908 
  -23589   -31987   -34234   -29701   -20887   -12786    -3551    11528 
   24951    28349    24292    18964    14698     6783    -5482   -15453 
  -22415   -27965   -30007   -26912   -18764    -9203     -132    11979 
   25136    31509    29497    22943    13495      585   -15165   -31054 
  -42903   -46202   -38906   -22224     1068    25559    43848    53345 
   56577    52942    41511    28436    17716     3926   -13897   -26382 
  -28767   -23815   -15285    -7406     3068    20927    36249    39477 
   35389    30177    24376    15651     3837    -5758    -8135    -5010 
   -2496       92    10130    23617    28624    26872    27976    31646 
   28748    13955    -3974   -12092   -11706   -11412   -12146    -9871 
   -3169     4780    10329     9791    -1340   -17304   -24021   -19229 
  -14172   -16624   -20961   -17519    -9033    -6059    -7275    -1054 
   11627    16810    11398     3663    -3058    -9727   -15065   -15465 
   -8830     1100     7376     8786     9648     9691     8744    12115 
   18386    19928    13177     3311     2331    10550    15314    12788 
    7583     2889     1823     6067    11790    12892    10524    11538 
   18048    25645    26545    17259     4580    -3608    -6804    -9093 
  -15968   -27477   -32773   -23356    -5136    10997    20424    25757 
   29952    29888    23440    16343    14115    15339    16513    16950 
   16120    10718      867    -4674     -972     2573    -1814    -7929 
   -7660     1271    15948    28884    35587    37494    39100    42303 
   39294    23919     3648    -9534   -10521    -5602    -1810     4908 
   17213    29475    38693    45144    48203    47863    44175    36857 
   26910    14720     1152   -10137   -18346   -24396   -25678   -20476 
   -9924     1144     6637    10011    19484    33287    41889    39450 
   29003    18517    12481     8926     4498    -2957   -14860   -25260 
  -23466   -11710    -3075    -2592    -5492    -5261     -362     1191 
   -4260    -6423     -680     5897     9856    12656    16507    20648 
   20037    14912     9372     2522    -6564   -14373   -17880   -16837 
  -10066     2959    18645    31070    35106    32864    27935    17759 
    3785    -9235   -20551   -30080   -33911   -28329   -21765   -17812 
   -2052    23245    39254    44005    42567    34978    24940    14144 
    -876   -16830   -26231   -29184   -28775   -24363   -15250    -3259 
    7902    11794     5765       22     2253     2845    -5439   -15513 
  -21001   -22180   -20395   -15860    -8064      971     6485     7670 
    7120     3402    -5153   -15067   -22902   -23750   -11031    11193 
   31763    43987    46100    43017    39634    36333    33896    28839 
   20650    16410    14684     9412      480    -7491    -4672     9341 
   19866    21946    23741    25785    24235    22444    21489    15626 
    3618   -10364   -23426   -33286   -37564   -35014   -26867   -15317 
    -119    17340    32390    41207    41544    33679    20867     9312 
    4597     5778     9270    12582    13649    12759     8307    -2315 
  -12748   -15593   -14228   -12998   -10183    -5394     -125     4799 
    6932     6139     4605     3425     5662    10886    15404    20532 
   26561    30583    30824    26462    18475     9408     3984     4384 
    5724     3676     -905    -4157    -5099    -8206   -16500   -28479 
  -37131   -34781   -24329   -14471    -8624    -1484    13405    28826 
   33873    30584    24968    18705     8258    -7675   -19452   -21064 
  -16013    -8460    -4024    -3399        4    11029    27130    36813 
   35129    32433    32538    26757    14474     3524    -4259   -10791 
  -14293   -10391     1032    12753    19457    21454    17914     8251 
   -4752   -18933   -32350   -41971   -47738   -48467   -39409   -21566 
   -1669    14027    22525    27342    32448    33613    22506     -518 
  -20976   -28415   -31946   -40455   -46226   -42296   -33404   -25603 
  -19768    -9615    11521    36329    53177    61324    62938    59023 
   50666    38383    27715    22322    15884     4090    -8156   -11553 
    -238    18008    30934    40443    51670    57064    47891    24917 
   -4410   -31217   -52655   -67449   -70923   -64250   -51929   -35802 
  -17125     1828    11915     9096     4706     5665     9885    12880 
    6292   -10110   -26308   -36107   -38943   -35937   -30272   -24816 
  -17859    -5450    13763    35935    54592    68124    75437    73428 
   64988    53932    41492    26456     3293   -23862   -38726   -31750 
  -11547     2832     4375     5402    21860    53671    80851    87811 
   78582    61956    40263    13175   -20675   -60069   -92653  -107305 
 -107842  -100183   -85129   -60485   -24892    10617    33034    45888 
   55405    55453    39833    14200   -11364   -31065   -43122   -48019 
  -42370   -21667     7114    32977    52420    64333    66979    61279 
   51804    40318    23815     4333   -14342   -35039   -55977   -66827 
  -62219   -43538   -14864    12844    28453    34444    40386    49752 
   62307    73456    68624    41235     8486   -13847   -31790   -53631 
  -71892   -71449   -47192   -11912    15756    30357    37748    40234 
   36525    28416    21234    17304    10655    -2386   -16390   -26064 
  -28792   -23580   -13858    -1931    14324    35904    61189    82874 
   90732    85797    79739    79916    78361    59274    19602   -29945 
  -76714  -111412  -131246  -138625  -133327  -107665   -61990   -13922 
   26054    61764    92122   110802   114163   101068    71106    24781 
  -32799   -91354  -136798  -157738  -152309  -121622   -72397   -21746 
   23352    70165   113991   137848   137544   120374    90301    54119 
   18640   -20094   -58829   -82177   -89853   -91437   -77993   -38119 
   14863    59229    85764    98473   104799    99560    73575    32605 
   -7457   -33991   -48402   -57573   -59309   -51648   -38855   -23778 
   -4034    21528    43401    49730    39042    18817     -639   -14034 
  -22784   -27273   -28207   -30826   -36482   -40319   -39385   -36424 
  -37535   -43876   -50812   -54090   -48597   -34823   -21626   -10803 
     843    12025    23691    34556    38310    37590    39788    42871 
   38053    18354   -11704   -35153   -39136   -23912     4443    37423 
   61988    70822    69069    57990    35657    11567    -7240   -22915 
  -34685   -42910   -49524   -49467   -37668   -13612    22374    61395 
   89533   105004   111510   106152    85391    48654      788   -43968 
  -71920   -79968   -74105   -65203   -55233   -32142     9145    58070 
   98811   119317   120346   106071    73074    27792   -13611   -46597 
  -71795   -85795   -84541   -62467   -25667     5548    23882    40026 
   60763    78359    79715    63334    37200     4229   -33223   -66211 
  -83415   -76728   -51660   -22624     6218    35155    53139    48498 
   30558    21548    24959    26001    20288    15918    16562    17949 
   12917    -1520   -19483   -32462   -35442   -25259    -5421    11767 
   20866    26387    26961    19855    14815    22608    37685    44906 
   40207    31840    25890    26614    34364    38676    35001    30701 
   27398    20266     4451   -22654   -56967   -90862  -114578  -118508 
 -100013   -63346   -20214    18399    52120    77754    83981    68498 
   41669    14436    -7943   -25042   -36021   -35302   -21001    -1832 
   15755    33709    47832    49818    43170    35561    28018    20315 
   13970    11036    10986     8652     1537    -5588   -11655   -23385 
  -36981   -35538   -14645    10581    23794    19274     3575   -11680 
  -21842   -30218   -38972   -42124   -33953   -19480    -2656    19665 
   42859    52744    40824    14711    -6904   -12553    -8907    -9026 
  -17749   -31540   -43232   -50943   -59231   -61032   -39603     3451 
   47919    82431   109192   124820   118473    88726    48081    10344 
  -23769   -59752   -86737   -88771   -72435   -53518   -35946   -16002 
   13288    50971    78880    88610    94510   102747   102860    86880 
   56927    23908    -2219   -20241   -33343   -42630   -42391   -27595 
   -5013    16208    34696    48703    51625    40599    21510     5666 
    3966    14513    20204    14552    10107     9576     2110   -11613 
  -23598   -34657   -43065   -39862   -20613    11566    40084    48696 
   44266    34461    15986    -7719   -32360   -53837   -63734   -63204 
  -60860   -56952   -42836   -15162    14478    32076    37453    43153 
   59399    77659    81311    70944    56583    39589    20229     1208 
  -19558   -39087   -44974   -35702   -23077   -11451     6021    32845 
   58337    68634    62684    45288    19956    -9337   -39940   -67367 
  -82864   -80734   -64570   -41859   -17118     7365    30005    48429 
   60959    68814    70218    57332    27376    -7921   -35023   -52605 
  -63585   -68324   -67005   -59071   -46117   -28224     2196    43264 
   73829    78906    67455    55515    45065    27839     2633   -22595 
  -40660   -47436   -42477   -32852   -26778   -24566   -21701   -13972 
    -402    13945    21917    22227    22509    30821    47037    65334 
   75670    71345    58751    43909    21589   -13002   -53286   -81900 
  -85140   -63365   -24574    17769    51620    77390    95374   100180 
   92112    72821    46552    22565     -790   -30322   -62382   -91283 
 -113833  -122939  -110053   -72958   -18143    40484    87404   117759 
  136370   140275   116714    65958     9135   -39500   -84249  -123143 
 -139758  -122296   -78366   -27979    20962    70223   107905   122810 
  122763   115951    98280    61372     4302   -56385   -99370  -123224 
 -135272  -130102  -102652   -57870    -4745    44851    83196   104895 
  101504    73345    32980    -3217   -27903   -50469   -75111   -88956 
  -86128   -76007   -64387   -44767   -12945    21696    46657    58392 
   62872    63945    54790    32021     5558   -14611   -27503   -33479 
  -27850    -7275    22273    48522    62825    65401    60855    50845 
   35479    17506    -1193   -20168   -36858   -44068   -33389   -11373 
    3319     6010     7382    12348    14818    11944     8513     7132 
    6956     6967     6689     5628     1038   -10236   -28648   -45584 
  -44427   -22560      297     7163     4589     9435    22807    30313 
   24925    16034    16274    26409    32163    20489    -1759   -19839 
  -31297   -39367   -40626   -28178    -5362    12481    18719    21782 
   26508    28032    22463    13111     5974      430   -10309   -25821 
  -35079   -35086   -35529   -39694   -45287   -52861   -57828   -52830 
  -36025   -12996     5820    17953    30359    43713    50402    48115 
   43018    38709    30922    15523    -1996   -11116    -9055    -2179 
    2381     6009    15989    31011    42231    46316    45175    38944 
   26757    10799    -5247   -19879   -32130   -38361   -33787   -18427 
     446    16628    31376    45636    54984    56614    51415    40864 
   27655    12164    -8019   -28113   -39229   -41307   -39555   -38495 
  -40592   -39732   -28268    -7877    16519    39882    56834    66615 
   70269    65532    48587    18243   -19448   -53411   -76186   -83986 
  -75625   -58199   -40139   -22494    -7352      449      484    -2396 
     331    11113    22213    29505    34377    33345    23099     8386 
   -5161   -14901   -18194   -16110   -12610    -9561    -5333     3643 
   13572    18069    21231    25352    23828    16295    10154     8649 
