Origin Time       2011/03/11 14:46:00
Lat.              38.103
Long.             142.860
Depth. (km)       24
Mag.              9.0
Station Code      GNM015
Station Lat.      36.2286
Station Long.     138.7578
Station Height(m) 293
Record Time       2011/03/11 14:47:45
Sampling Freq(Hz) 100Hz
Duration Time(s)  237
Dir.              E-W
Scale Factor      3920(gal)/6182761
Max. Acc. (gal)   46.692
Last Correction   2011/03/11 14:47:30
Memo.             
[...]
   24244    24606    20054    14229    10056     6451     4123     4163 
    1269    -5149    -4342     3277     5750     5597    10325    13188 
    9365     6227     7569     9125     8797     7838     7621     9710 
   11879     9561     5241     3913     5045     8367    13669    17042 
   17205    16064    13127     6826    -1850    -8484    -8294    -2683 
    3165     9495    16863    21193    23100    23400    16926     5085 
   -5140   -10948   -12394   -11864    -8484     1724    13621    19964 
   22585    22851    18154     8861    -1082    -6725    -6732    -3635 
     512     3084     3959     7191    10867    10250     9428    11203 
   10803     9003     8981     7523     4429     2503      -21    -2565 
   -1097     2822     5906    11027    19568    24216    20168    12484 
    6149     2747     3093     3986     2378     1066     4265    10987 
   14485    13186    11688     8015     1400    -1570      131     4901 
   13491    21800    23627    18304    11233     6488     2762      405 
    2675     8891    14333    17360    19387    17730    11369     5813 
    2444      862     5633    14204    18013    17504    16574    15151 
   13677    10753     3629    -4261    -6774    -3779       91     2273 
    3993     7251    12396    17072    17672    13529     6529    -1676 
   -6826    -6834    -6579    -5232     2271    11245    15979    17610 
   17724    16437    12357     7019     4709     2206    -2026      320 
    8929    15026    17781    17803    12303     4260     -955    -3330 
   -2908     2478    10922    18740    25277    29564    29573    24154 
   13824     3208    -2429    -2814     -227     3371     6779    10382 
   14230    15799    12149     5972     3039     1256    -3960    -8741 
   -7790    -1465     6470    12645    15405    12628     5246     -909 
   -1989     1650     7224    11365    13587    15475    16079    12350 
    4519    -3726    -8084    -5565     1758     9856    17315    22815 
   26108    26517    20130     8082    -1725    -4715    -2541     1670 
    6806    12065    15245    15878    13451     6155    -2924    -8020 
   -6620      -96     6500    10740    13924    14435    12343    12015 
   12557     9831     7333     8197     6993     3372     2142     1039 
   -1963    -4392    -4033      125     3927     5243     8742    12030 
   10020     6234     2959       77     -156      515     -108     -149 
    -552    -2045    -1067     1873     3046     4558    10282    17311 
   20053    17722    13626    10296     6011     -638    -5464    -5122 
   -1709     2071     5967    10071    12322    10712     6175     1536 
    -238     1318     4024     6734     8297     7316     5738     4750 
    3459     3225     2829      -50    -1324     1707     5527     7907 
    9679    12656    16675    16693    10361     3492      305     -856 
    -622      808      358    -2603    -3654    -1116      723      434 
     162     -853    -1398      267      105    -2506    -3624    -2194 
    2308     7471     8311     6446     4722     1513      -32     3316 
    6173     6410     7032     7377     7327     7984     9062    11266 
   14219    16520    17565    16230    13716    12383    10850     9616 
   11368    12483    10462     9563     9299     5826     2578     6146 
   15125    20555    19873    17039    11780     5503     2864     3254 
    5093     9902    16294    18706    15797    12951    11110     5901 
     113    -1839    -1828     2663    12286    16764    13751    10252 
    6613     3500     5743     9840     9007     7392     9934    10207 
    5268     5622    15882    23904    21081    12063     1836    -5111 
   -3961     1016     3724     6371     8920     8465     8962    10380 
    7142     3871     5329     6181     6168    10305    15868    16086 
   11893     8251     2477    -3922     -798     7403    11753    18651 
   27971    28973    22713    16036     8317     -648    -6061    -5700 
   -1480     4419     8627     8462     5417      937    -3804    -3380 
    3050     5261     -526    -3969    -1554     -788    -1586     2328 
   10522    18623    23916    24578    20310    13213     6679     3971 
    5106     6319     6408     6517     4378      295     -249     3774 
    8018     9854    10444    11193    10470     6484      994    -2107 
    -494     4072     6862     6012     5519     8114    11185    11709 
    9009     6440     7037     7910     7743     7154     4866     4653 
    8564    10754    10073     9109     6198     2268     2318     6003 
    6726     4236     6790    12516    11560     6996     5552     4432 
    2663     2671     2483      789     -169      340     2337     4891 
    6596    10907    18703    24210    25689    23293    15167     5489 
     644    -1508    -4707    -2602     8851    19047    21044    18773 
   11760     1187    -2636     1823     4562     4812     8206     9083 
    3091    -1764    -2843    -3227      178     8269    16029    20161 
   21168    21115    19834    15559     9136     4566     5403     7159 
    2466    -2252      790     3456     3701     9865    16051    13755 
    7917      988    -7806   -12670   -12212   -11036    -9050    -5923 
   -2150     5066    12760    13379     8672     6408     7292     5436 
    -434    -4555    -5119    -5531    -4304      467     4190     5503 
    9290    15407    18105    17258    16397    12321     2941    -4383 
   -4538     -670     3754    10160    18828    22966    20486    16527 
   11142     5706     4692     4754     3251     4715     9073    11961 
   15747    22348    24942    21925    20383    18929    10842     1510 
    -626     1929     7220    17089    26202    27913    22181    11875 
     181    -9475   -13484   -10782    -4603     2304    10587    18855 
   19897     8619    -9132   -20486   -18215    -7645     2563     9529 
   13003    14354    13501     5139    -9533   -19337   -17870    -6033 
   13317    32333    41655    38487    24121     4207    -9442   -12811 
  -12489    -8517     3875    19831    29732    31939    28126    16645 
    4161      723     1551     2404     9996    22636    30479    29248 
   19463     5712    -2426     -910     4082     9865    17935    22976 
   22387    20338    14537     3007    -6670    -9248    -5906      510 
    5893     7483     5719     3321     1226    -2868    -6695    -2610 
   12004    28299    31931    20058     5308    -2506    -5633    -7549 
   -6450    -2954      -98     4114     8614    10658    17487    26627 
   21692     5899    -4942   -10606   -15335   -16794   -12065      963 
   17993    27206    22979    11424      547    -7240   -11827   -12540 
  -11832   -10139    -1292    12975    20287    18161    15514    12918 
    6143     2030     4873     6457     5107     8392    16685    22353 
   22231    20379    17243     9515      427    -4131    -4301    -2969 
   -1213       63     2643    11170    21807    24244    17428     8806 
    2395    -3497    -9332   -13508   -15935   -15256   -11470    -8781 
   -7834    -5263    -1281     -471    -3786    -4788    -1571     -620 
   -3381    -5022    -2627     3244     7462     5944     3261     4685 
    8456    10658    10788    11604    13885    14882    12428     7196 
    -287   -12655   -25289   -25584   -15233    -5714     2712    10103 
   10582     8525    11868    14670     9846     5272     8634    13123 
   12867    10311     4632     -791     1361     4254     2118      974 
    1161     1939     3625      765    -4987    -7089    -4698     2865 
   12743    17279    15556    11145     5956     3823     4723     2102 
   -1833      360     1965    -4283    -9508    -7743    -2866     5325 
   16850    23281    16624     3556    -2335    -3761    -8683    -7918 
    5037    18386    24784    29509    33271    30542    20915    10202 
    3753     3608     7623     6666    -4850   -15348   -13354    -6361 
   -2674     2882    11856    14821     9131     4015     1512    -6484 
  -16806   -17755   -11149    -4797     1338     6357     8665    11713 
   12549     3774    -6909    -8361    -9536   -15487   -11162     2945 
   10290    10388     8006     1174    -5594    -4408     4348    16565 
   32947    49131    49637    30896     7093   -13556   -27833   -26918 
  -12536     2265    15351    27729    28969    15597     -177    -6452 
    -495     9131     9867     3422      -42     -914     -265     4459 
    5069    -2083    -4352     1330     5313     6711     6824     2953 
    2107     8859     9781     -473    -6149     -757     5970    11770 
   16637    10221    -6503   -15085   -11193    -8386   -10595    -8713 
    1459    12544    20712    28623    28358    17833    13842    18698 
   17745    11837    13204    21089    25073    22537    16744     9751 
    6220     9896    16722    18436    11126      450    -5770    -6277 
   -3605    -3122    -7028    -7374    -3294    -3111     -894     8762 
   11066     1948    -3060    -3713    -9365   -11011     -412    11827 
   17442    17600    13130     8011     5061     -213    -6805    -7307 
   -2547     2261     7198     9973     6117     3258    11295    24514 
   33032    32666    22080     9024     2638    -3551   -15881   -23634 
  -18504    -5469     7967    15246    15410    13382    11592     9308 
    3420    -5909   -12617   -17648   -24734   -23150    -1877    27122 
   45753    52450    49634    36975    19567     1111   -20379   -41840 
  -49290   -33839    -7205    14678    28425    37017    41624    37295 
   20795     1268   -12102   -19794   -18885    -5482     9672    16220 
   20297    25121    22122    11144     2596     2190     9144    16614 
   17044    14611    15483    15388    11886    10383    11435    10539 
   10063    11415     8168     2071     -751    -1552     4221    17650 
   24948    26681    33788    35766    21217     3410    -3347    -4581 
  -10100   -19519   -25959   -20063      846    26482    45863    52916 
   42631    20672      442   -18256   -35776   -34082   -10504    11575 
   24875    38749    46917    38697    22066     7942    -6506   -22027 
  -26483   -13405     3462     8975     9062    11644     5969    -8164 
   -9250     4274    11455     8669     8950    16931    25779    29405 
   28847    22623     7462    -6848    -8830    -3214     2596     8693 
   12051     8209      721    -5063   -10083   -14372   -11657    -2231 
    7444    23462    47220    56146    42121    26848    19610    10511 
    -926    -7107    -8003    -6680      247    12468    20706    22826 
   19599     5212   -14297   -24976   -27735   -26475   -14544     8181 
   26528    29202    21071     9674    -4053   -15096   -14697    -6402 
    3665    20318    37617    38796    25563    13036     6823     1102 
   -8307   -18589   -28825   -35660   -27389    -5508    11574    18839 
   25544    33350    37939    30534     4826   -20695   -23389    -9909 
    5727    20617    27839    23331    15377     7895     2488     3443 
     724   -11179   -12515     4460    21781    27340    20587     7330 
    -697    -1126    -1128     -662     6047    19596    32286    33587 
   22155     7159    -5207   -16679   -24711   -16804     7284    27137 
   37529    51712    60011    41207     5085   -22727   -36399   -40127 
  -29217    -6301     9996    13637    17507    20516    10528    -1852 
     639    10245    15529    20148    23916    21306    15062    11300 
   10039     7657     7632    13179    12001     -600    -7927    -3475 
    4949    12514    14208    10252     5633    -1903   -12386   -17766 
  -16241   -14635   -14438   -10123    -1689     5975    13799    22830 
   28488    31055    30572    20083     4987    -1454    -4663   -12970 
  -16791   -13912   -14886   -13722     -445    15738    26151    33044 
   35222    27690    13289     2367    -1305    -4658    -9188    -4362 
   12648    30505    40871    38759    21751     1036   -12640   -20341 
  -19576    -8198     3015     5265     2371    -1575    -6550    -8975 
   -8261   -11924   -15397    -6598     1701    -5466   -12526    -6212 
    4940    15648    25606    25737    11840    -5558   -20276   -27721 
  -13909    15149    35176    44076    48004    38753    18321    -1556 
  -21500   -36574   -30570   -10029     3941    13934    29810    40960 
   37636    25271     9775    -7097   -24302   -35643   -34635   -27227 
  -18829    -5913    17150    50684    71296    57833    27446     -676 
  -24332   -35917   -30361   -12452    10386    30162    41341    39742 
   24939     3548   -13710   -13064     7538    27480    32248    30405 
   26088    14671     1832   -10859   -32616   -54773   -51525   -19338 
   15821    36780    48417    50257    32205    -1252   -31905   -51822 
  -63836   -59617   -25870    22601    52983    54203    31869    -3868 
  -31583   -41287   -41017   -29621    -7844    12361    33342    55957 
   59826    40668    18966      869   -21446   -40432   -42131   -28336 
   -4264    27560    52333    56736    44756    22693    -4293   -28160 
  -43637   -42298   -21818      588    15906    30329    39474    38873 
   32809    21693    10557     4609    -2308    -5914     5560    19055 
   14152     1786     3187     6166   -10599   -28004   -19201     1529 
   13007    17608    16979     7756    -1972     -269    10913    22088 
   29983    28233    10844   -11127   -25342   -31279   -27012   -10150 
   12444    32005    45104    46391    30151     3458   -19656   -28645 
  -18042     1419    12374    17177    24192    25653    12100    -9922 
  -20358    -6958    15546    27320    31628    35898    30634     8724 
  -17361   -36235   -53561   -66977   -58224   -26009     8443    29223 
   36200    31010    11076   -11375   -14323    -4398    -2839    -2872 
    6800    13930     7956    -5857   -16063   -14818    -5732     5218 
   15146    17814    13065     6608    -3419   -15685   -17558     -653 
   27317    48504    52478    35516    -1923   -33463   -33611   -22580 
  -19933    -8476    14634    27363    26344    20709    11176     3887 
    4762     9395    17417    22653    10196   -10538   -12668     2659 
    9906     7453    16522    35691    43609    32066    10886    -5075 
  -12390   -16891   -15425    -1967    17000    29125    25947     8517 
   -8056   -10363     -604    14622    28484    33827    28345    10466 
  -14197   -30986   -35883   -32557   -20577    -5205     6015    12321 
   10782      749    -7185    -7634    -4376     6493    24843    32681 
   22255     8462     -543    -8490   -12818   -10121    -2552     7460 
   16568    23292    26730    24139    19152    12778     -257    -9295 
   -1475    11028    12094     2098    -8496   -11271    -8745    -2261 
   11371    23762    21642     5317   -10460   -14491   -11520    -6849 
    2707    14396    19231    17612    17522    17146     7259    -6440 
   -7224     8299    28070    35532    24747     7409    -5213    -8309 
   -1440     6752    15640    30031    38938    35687    28464    22275 
   20113    20232    14112     3037    -7336   -17598   -21050    -8299 
   11531    21496    19006     8739    -7736   -24560   -33990   -35646 
  -28297    -7393    17913    29400    26907    24085    22676    14593 
   -1359   -15044   -14041    -1290     9345    16492    23482    25299 
   25330    29593    26898    12039     3497     8809     7706    -7595 
  -17960   -17655   -18486   -14184     6806    28624    32848    28352 
   26574    21401     7986    -6697   -15572   -15012    -1850    13027 
   11360     3467     5641     2926    -5849      570    11935    13796 
   19768    28011    24753    18203    16079    11136    -1103   -17322 
  -27891   -22307    -4846     6845     5982     5994    16325    24069 
   19076    12947    12120    10740    12861    19603    21535    22113 
   25657    23694    14746     2819    -7220    -8770    -6306    -3342 
    3800     7160     -398   -12943   -26149   -33010   -23271    -5149 
    5931    12691    18649    13636    -3798   -20336   -28596   -29572 
  -20878    -1536    20280    34228    34653    22911     7976    -4142 
  -11378    -3817    20734    45239    55677    49057    30387    10160 
   -9069   -24907   -25582   -10456     7998    25325    39825    39883 
   22625     6017     3372     6688     4817     1712     4787     7062 
    3376     3690     8921     8460     5044     6636     7168    -1581 
  -13081   -15954   -11936    -6225     4444    14913    12625     4475 
    3802     2645    -3156     -753     7375    11569    14292    11679 
    -376   -11899   -11650     3412    21881    25097    10876    -5802 
  -13620   -17586   -27703   -35310   -21936    10675    42668    55809 
   44700    21069      535   -11754   -15021    -8236     4431    16846 
   28664    40686    45982    37479    22642    14191    11514     9250 
    8137     7200     6172     9488    17391    25495    28094    21531 
   11434     5292      434    -6904    -7955     3095    12065    11319 
   12357    14247     7238     -749     -807      709     2227     7404 
    5118    -7379   -11763    -7595    -4857     2852    11287     8648 
    3334     3165     3053     2632     6173    11811    12153     5878 
    -252    -4022    -6652    -4197     4384    11795    13196     9908 
    4146      537     3231    10176    16882    19298    19290    22759 
   25634    22637    15946     5220    -4816    -5590    -1443      404 
    1899     7991    17933    22214    17540    12083     6479    -2965 
   -8439    -4289     1506     5456    11658    13005     3541    -4235 
   -4211    -5879    -7064     2344    13415     9930    -2489    -7963 
   -7819    -9375    -7625    -1010     1485    -1609    -5128    -7624 
   -7865    -5815    -3029     1146     3537     -301    -3766     1096 
    8227     8292     1209    -7532   -12951   -14990   -14627    -9845 
   -1340     9522    19428    17908     6130       48     2757     6829 
   11441    16304    20215    23173    21831    14445     4916    -1519 
   -2952     -866     7634    22880    31228    27320    21164    12803 
    2560     1704     6695     6734     9537    22107    31626    28663 
   20540    12780     4089    -5757   -14114   -12495     1934    15411 
   17713    15956    16177    13250     5499    -1761    -4865    -2806 
    1264     4313     8496    13746    17357    16608     8341     -692 
    -322     3926     5835    10846    17974    20869    19543    14426 
    7368     5107     6120     2361     -195     6235    12819    14305 
   14838    15313    17414    20202    18501    12464     3786    -8703 
  -21714   -24305   -13229    -2134     2074     4949     2951    -5129 
   -8289    -5365    -4942    -8969   -12548   -11766   -10089   -11733 
  -12833    -9639    -3075     7592    20041    26918    27373    24861 
   18657    10152     4976     4421     4880     5981     8025     4916 
   -3333    -6371    -2872      678     4337     9502    12081     8554 
    4727     8120    13711    16743    23793    33886    37542    35385 
   32154    27880    23709    19331    12659     6213     2114     -434 
    -756      439     2351     6875    11380    12583    13773    14984 
   14863    16402    15615     9133     4015     3164     5504    13540 
   25868    34867    32750    20546     9297     5805     4990     1162 
    -787     6376    18345    23873    19347    10464     1336    -7087 
  -11330   -10226    -6733    -1379     6584    14690    17977    15700 
   12859     8316    -2037   -10520    -8855     -642     9420    20738 
