Origin Time       2011/03/11 14:46:00
Lat.              38.103
Long.             142.860
Depth. (km)       24
Mag.              9.0
Station Code      GNM010
Station Lat.      36.2343
Station Long.     139.5335
Station Height(m) 21
Record Time       2011/03/11 14:47:28
Sampling Freq(Hz) 100Hz
Duration Time(s)  300
Dir.              U-D
Scale Factor      3920(gal)/6182761
Max. Acc. (gal)   113.196
Last Correction   2011/03/11 14:47:13
Memo.             
[...]
  -17104   -21210     1818    17928     4798   -10985     2974    27017 
   26637     1823   -20600    -7943    27190    20988   -37497   -73081 
  -35311    30166    47247     2612   -52963   -66103   -23149    40364 
   66623    32815   -26807   -57769   -40704   -10909    -2157   -10552 
  -25456   -29413   -11900      785    -7120   -20915   -36566   -54541 
  -63012   -51510   -17258    21799    29505     6000    -5730     6592 
   11567    -2189    -8689    11713    43748    55060    37143    14565 
    -346   -16303   -14974    16447    26111   -17769   -47616    -6219 
   50820    49428     2771   -40501   -58678   -41603    -2328    17489 
    7709    -9817   -35112   -66232   -67390   -22887    25863    36056 
    9145   -24010   -25850     2282     5643   -31533   -47125   -10263 
   24520    11873   -15428   -11930     5125     -377   -16788   -18985 
  -22252   -44989   -50873    -5858    37139    19989   -11937      414 
   29656    35857    23639    -1778   -34296   -49980   -46554   -37810 
  -20174   -13444   -48467   -82851   -55601     8507    49646    53107 
   32617     3900   -13487   -11709      373    13259     3397   -46585 
  -92540   -84755   -46025   -19780   -20062   -46379   -64439   -32469 
    1511   -33886   -84737   -64366    -5620     8843   -26784   -46633 
  -17601    21729    28647      274   -23232    -5772    22641    15376 
   -9755    -5145    18909    16605    -5550   -13294   -10212   -14377 
  -19083    -4886    21692    31165    22785    22539    33731    36937 
   22053    -4684   -31037   -41100   -23755     3716     9191   -11663 
  -38583   -50302   -34108      978    32915    43764    20125   -26717 
  -49708   -23437     7656    -5143   -39752   -56436   -55774   -41608 
  -18746   -10107    -7376    11013    23222    26689    45429    40569 
  -10912   -36533   -11486     2219    -4272      405    -1316   -16233 
   -7660     9685   -15179   -48023   -18841    38404    37182   -26823 
  -86242   -91935   -48184      835     3038   -39797   -63515   -42929 
  -19097    -8205     3227     9630     9226     8902    -1781   -27645 
  -47611   -45167   -26486    -2074    13918    11038    10346    24245 
   25547    15388    17564     9610   -21288   -33458   -14629    -4618 
  -20569   -38369   -30558     5844    40809    38442    -5077   -55934 
  -62352   -12949    29406    17115   -12147   -13977    -5411    -8606 
   -8453    -6255   -16922    -9764    31958    56925    33498    -7815 
  -21803    12504    56966    52579     4977   -29293   -23666   -11023 
  -22213   -31937   -10205    19539    18587    -7618   -26967   -26162 
   -8187    15300    18552    -7497   -31048   -26386    -9739     2404 
   11012     6404   -12531   -27349   -34928   -33296   -11142     5879 
  -21735   -75484   -99485   -64404     5464    37308   -10232   -74613 
  -78628   -31074    16948    28129     -169   -28641   -32403   -26326 
  -14308     4359     5852   -17035   -33690   -20064     8032    21729 
   16423     1636    -9474    -6960    -8993   -30772   -47973   -44865 
  -37017   -33030   -32786   -31140   -12930     8407       75   -21319 
  -10712    28585    43958     3161   -52648   -59437   -22087     8108 
   11857    -4673   -36642   -62283   -54428   -20467     8560    16844 
    8346    -7069   -24080   -37883   -27212    17219    57527    51691 
    3016   -39214   -18445    45809    58039   -15382   -93659   -97005 
  -37904     7293   -10067   -45295   -29207    12290    16533     2335 
    5127     3310    -9181    -6460    -2039   -20997   -34509    -5820 
   38590    40784    -4364   -45402   -45017   -10260    23155    17278 
  -16337   -23950    -4579    -7464   -32323   -40462   -28609   -11215 
   14026    35438    33436    26785    30376    22670     8308     3854 
  -13459   -40355   -28010    18015    31973    -4576   -43412   -46924 
  -21117     1087    -5343   -18959    -9129     6380     5181     2016 
    9453    24946    34792     4935   -57119   -82787   -46569     5440 
   21695   -12208   -49488   -30365    16546     8638   -46066   -62099 
  -26085     1631    -5276   -28304   -41158   -23486    12422    21481 
   -7839   -23916     1499    25640    22500     9218   -12771   -30176 
  -16583    -3366   -21838   -36751   -31025   -21271     7632    42094 
   21020   -32911   -33451     6344    15341     3558     -616   -20720 
  -39710   -10238    30607    25105     5518    17413    36738    27967 
    5176     3131    21151    34040    32069    16093     -890      531 
    3438   -18462   -39339   -22217    12723    16718   -14309   -43065 
  -40943    -4749    29664    25317     4531    -9744   -32913   -42376 
     -45    45652    30575    -6917   -12002    -9508   -25342   -32749 
  -15196     6619    11763    -5822   -32103   -34383   -10562     3727 
    -889    -9471   -18161   -11346    26371    59238    35969   -23644 
  -47957   -27509   -16851   -21514   -11709    -7592   -29682   -50472 
  -49248   -24437    14983    29185    -3267   -45442   -61118   -49793 
  -22360     1980    -2217   -29043   -43500   -34194   -21167   -24703 
  -37960   -30216    -1294    12325    -6354   -38681   -45019    -6751 
   36519    34109   -13235   -54430   -41884      784    10416    -8865 
  -13787   -12642   -20871   -22504   -14740      -37    18419    12936 
  -16873   -28299   -10650    10213    17743      566   -35491   -45814 
  -10082    16884   -12585   -60457   -66524   -33348     5305    40906 
   63952    49470     6901   -15810    -3514     -448   -32523   -61763 
  -52209   -15938    17484    25740     4253   -20440   -21730    -6600 
    1682   -15063   -42386   -35756     4106    21618    -2739   -33480 
  -45740   -47962   -50301   -40720   -10612     9556   -12368   -49339 
  -43125    10091    42845    10876   -39198   -48308   -22523     1807 
   -1729   -25075   -19161    29440    59900    38558     9685     1198 
   -4284    -3056     8370      -40   -32917   -55669   -45921   -12018 
   16880    10368   -36081   -82199   -75967   -23510    17673     9666 
  -34440   -62205   -31799    27988    47345     4148   -51152   -52797 
     273    37191     4167   -64458   -89521   -55094   -17512    -9147 
  -16570   -23448   -13676    12680    18561   -11365   -32374   -19752 
   -3310     3603     6217   -11950   -39611   -26889    13091    16475 
  -12479   -27734   -26693   -23717   -14995    -6206   -17883   -43166 
  -48472   -30238   -19787   -26526   -27544    -8374    20996    31502 
    4235   -28023   -28150   -26420   -54401   -62221    -2430    63641 
   51089   -11050   -34602    -5279    19562    -2661   -48530   -54058 
   -4400    33925     9390   -43559   -68755   -56335   -25758    -6226 
  -19876   -43797   -44670   -32607   -19702    -3305    -1254   -17106 
  -16975     6496    12567   -16319   -41988   -36263   -16538    -1095 
    9097    13956    17886    20864     5838   -28746   -55204   -53692 
  -24613    16351    28936   -11794   -55692   -39897     4093     4469 
  -35301   -57662   -34001    10790    28102     2972   -20146     5361 
   51738    44543   -24732   -78056   -63632   -19622    -3657   -19119 
  -27310    -7603     7937   -16206   -56148   -67185   -47352   -19051 
    -947    -6971   -30967   -48933   -35503     7626    28200     1478 
  -29881   -38432   -21003    14423    34321    26755     7981    -1390 
   21525    54533    39576   -11280   -25213     5436    20983    -2325 
  -29403   -28684   -13460    -7682   -11621   -19926   -22157   -18363 
  -35813   -58998   -36903    12577    28694     8963    -4136     4280 
   24050    39150    26064    -9019   -32065   -37349   -40922   -37955 
  -23327   -18342   -28842   -27370    -2073    26954    36646    18397 
  -10954   -20177    -7487     -827    -6490    -4347     3614   -10088 
  -49082   -81599   -73661   -17923    40198    32061   -28095   -44094 
    6276    41635    30207    13888     1179   -21007   -39453   -50383 
  -60455   -50647   -14617      134   -31149   -47693   -14234     8271 
  -11075   -31336   -38657   -46326   -48557   -44419   -41702   -40247 
  -51128   -72171   -61883   -10258    25709     8810   -16270     4440 
   48913    68497    59701    32725    -2269   -13314     2471     1358 
  -24309   -27449     6411    30645    13707   -17791   -24942    -9453 
   -8792   -41333   -69345   -48780    -3070    14429      969   -18035 
  -31588   -27739     3647    42210    50406    29380    17299    19717 
   10806   -11560   -34785   -48755   -45014   -46087   -78418  -103579 
  -70233   -10451     8939   -12577   -34067   -46873   -55241   -36348 
   13733    47965    35792     2866   -19998   -18267    16777    49672 
   26059   -28776   -45112   -18334    12220    30525    27940    -2758 
  -36460   -44427   -31315   -14994    -7702   -18869   -40717   -41359 
   -9518    32821    66046    62402    14264   -13956    16471    49241 
   49594    48132    53493    48736    33249    10893    -4988     5208 
   25416    24688    10201      601   -11875   -20755     -690    29125 
   30190    15074    18355    27155    -2843   -65003   -88423   -34753 
   31639    27530   -32243   -69373   -51410    -9779    24327    42960 
   40563    32319    42318    47915     8165   -66189  -103229   -54847 
    7185      390   -38168   -61318   -67036   -41597    -2447    10129 
   -1993   -25258   -47198   -30751    23121    45948    13791   -18267 
  -14521    10866    24282     6143   -12966    -4486     2189   -10684 
  -12359     8951    30839    37236    30589    33661    58690    68831 
   30670   -27197   -60688   -64314   -49167   -30936   -33230   -43015 
  -31995   -20480   -25008   -19633    -4351   -13865   -51009   -84754 
  -88446   -56235   -13980     1192   -25402   -68139   -72809   -18997 
   52267    82815    47202   -29909  -101675  -128399   -86571      747 
   58672    36602   -21541   -20214    63581   135651    96258   -29464 
 -109690   -66253    33389    81330    45400   -35259   -79170   -37549 
   21097    17690    -7914     3104    25704    22028     1259    -6180 
   18710    56811    62151    14282   -53482   -80895   -47682    -3105 
  -14320   -77786  -101800   -37665    41166    61906    39460    14720 
   10979    36145    64105    60255    41111    37776    30208    -7370 
  -36761   -13136    29195    41088    33305    26293    12890    -9850 
  -16265      -44   -11819   -68842  -108256   -85227   -20678    33069 
   27185   -29870   -75329   -75979   -47763      -55    61550    91396 
   58673     7837   -21072   -33188   -13668    31704    24449   -55748 
 -116892  -102071   -39986    14725    13021   -27442   -31398    12187 
   44583    54012    73212    71249      920   -80089   -94862   -50576 
   19051    70583    56320     1621   -20030    15170    62055    57805 
   -2402   -65935  -102344  -104971   -63813   -18733   -32744   -78996 
  -75658   -13750    36160    25206   -25414   -70206   -58145    36104 
  133106   123066    28773   -24088    11404    58586    59655    36340 
   16698     -849   -22452   -36784   -30615    -7262     3756   -32215 
  -83400   -77239   -15142    29817    10291   -45705   -80289   -86360 
  -87845   -71931   -28937     6906    12851    -1040   -14615    -9662 
    8293    28165    54639    63116    17850   -42568   -54403   -20797 
   24752    42988      672   -59125   -63975   -16981    35317    56543 
   28561   -23922   -45909   -16183    18051    -1250   -53695   -75041 
  -55431   -34476   -48232   -82103   -78724   -34941    -4179    10894 
   56864   107298    76739   -14426   -70513   -76979   -62984   -27986 
    2367   -12971   -44398   -31456    24946    67979    50339   -12683 
  -52453   -21198    52629    92766    47753   -44989   -83834   -36876 
   24207    42574    11152   -59987  -114471  -104314   -73401   -70968 
  -81737   -77439   -38615    26321    55615    16331   -19384     8586 
   46075    35488    -4755   -30386   -16468    26758    64423    56882 
     785   -60624   -87256   -50913    21207    27196   -49084  -101922 
  -71245    14211    89770    92429    23721   -41509   -40558     1436 
   14377   -12562   -43448   -71230   -90144   -73213   -26696    20335 
   51481    56796    49912    48355    28178   -23733   -55075   -28569 
   15220    39496    42997    19473    -2438    20453    57470    54766 
   19393   -18683   -51810   -68236   -48964    -9507     9536      408 
  -15988   -33450   -42297   -26893    13022    72923   103574    42639 
  -61382  -111225  -105615   -95715   -84490   -61935   -41610     -172 
   83277   142026   117007    52347    22051    39819    56473    35273 
   10438    14910    15958   -13827   -52881   -68325   -56283   -48938 
  -57286   -45840     -285    34996    17604   -37823   -83973   -87376 
  -53790   -21901   -20321   -43807   -70081   -61433     -418    50574 
   23820   -34282   -23034    49989    78427    27784   -25639   -26507 
   -4418     2794      944     8313    35335    64896    52261     5039 
  -14169     3208    14850     9678    -1125   -16653   -24934    -6193 
   23041    29602     9069   -32179   -70886   -54664    22521    85631 
   69914    -1170   -62825   -85379   -66233   -22848     4801     1253 
  -20823   -35087   -15349    25254    60254    76277    69267    42156 
  -11445   -54856   -29098    16180   -12804   -89290  -119704   -90213 
  -46205   -13044    -2466   -14418   -44630   -86192   -91925   -36198 
   21309    11221   -68602  -146965  -140116   -41025    74428   114193 
   33719   -98211  -133524   -36936    65470    65154   -32932  -141670 
 -154880   -49380    93632   169797   116483   -15143   -81766   -39125 
   27262    64910    58032   -10252   -81317   -77382   -12698    55242 
   81101    42159   -25484   -55404   -36900   -12505     3525    27192 
   38441    10134   -26074   -36158   -40344   -46718   -36543   -32003 
  -51356   -46165     7367    54095    63490    59541    39718     4240 
     645    25363    14732   -25984   -41219   -26234     5692    46295 
   44199   -20384   -66138   -44363     1077    46849    78371    36409 
  -70123  -122778   -59052    35734    68447    50395    10115   -31687 
  -13098    59842    92896    57425     -567   -33700   -13982    43477 
   83699    60557     1147   -18538    20069    53704    27707   -21926 
  -32531    -2158    29917    17055   -34215   -55732   -17776    46410 
   72555    17400   -61322   -84834   -66341   -45936   -32509   -17966 
      47     6309    10263    34167    64080    74011    46420   -19934 
  -85450   -95035   -55898   -32159   -40277   -44479   -36082   -26297 
  -18837   -21015   -32122   -36965   -20069    16812    33590    -2230 
  -47677   -46875   -10391    18056     7321   -27850   -43253   -37088 
  -28074    -6474    18361     5813   -40019   -62492   -36289    -1059 
   -3743   -39480   -68580   -64174   -30480    -3322   -14770   -53939 
  -84262   -80542   -46537     3369    52815    65258    27425   -15428 
  -18732     3785     4490   -20955   -26655    15980    71756    52748 
  -49699  -111111   -73397    -7816    31472    28688    -4869   -26590 
  -20116    -5801   -10685   -34208   -45556   -32026    -3104    33672 
   56513    38695    -2282   -21261   -12111    -3871    -3170    -2141 
    1738    23418    42308    25665    16240    38021    47179    29423 
   -8774   -58870   -78873   -40147    27319    65107    35006   -43134 
 -100963   -92532   -39775     6479    24541     7423   -44279   -66643 
  -16322    38775    62528    61722    13919   -23223     4870    36838 
   27420    -1887   -17604   -15124   -13390    -1772    43943    96062 
   91635    30034    -7722    30780    86993    66731   -18067   -79757 
  -98338   -91978   -50819    -2120    16140    23495    37722    48581 
   32205   -27583   -66799   -29543     3246   -43426  -101390   -83668 
  -19867    10730   -14897   -62467   -73876   -28357    25246    42112 
   28967    -5858   -53154   -67606   -41718   -16819    14387    52162 
   45795     2488   -24398   -16656    14249    49744    68416    39821 
  -17559   -29426     2904    18232    18518    17278   -10845   -44575 
  -41526   -34678   -51078   -48339   -20215    -9609   -13116    -3756 
   -2204   -19563    -9759    34760    46575    -3754   -58904   -62082 
  -17927    30456    46979    27494    -3551    -2806    40385    74963 
   60760     6537   -55139   -81942   -56222   -14261    -9748   -49178 
  -77113   -43618    22731    60027    51389     7431   -47593   -65433 
  -17379    61681    98048    68648    23514    -4749   -21540   -29046 
  -31820   -31610   -33182   -42960   -34195     4908    41083    67977 
   84697    52486   -12767   -35213     1609    46766    49286      237 
  -53927   -68101   -47516   -21712    -9672    -1021    13596    -1958 
  -64935  -100976   -46266    32793    37483   -20690   -50704   -12054 
   26193     9936   -17698   -26565   -22343     -196    21702    32807 
   48906    51705    39808    59894    88659    52726   -18308   -33437 
    2776    19939     5003   -25729   -75125  -107639   -79855   -23666 
   11554    10819   -33056   -89239   -99176   -63535   -27125   -10751 
  -22586   -64518   -96263   -70899    -9676    27448    18680   -18776 
  -52252   -50547   -21002    -3072   -13101   -30251   -24545     7215 
   20548   -10055   -52012   -68193   -26973    44324    56120     9656 
  -13339     6033    31754    50290    58656    50988    45750    41859 
   14256   -14395      220    48637    70323    34056   -14671   -21046 
    1610      728   -32180   -51752   -26189    18329    35071    11309 
  -37608   -77880   -71751   -24487    13754    13013    11615    39161 
   48668    29011    29512    40146    31456    13743   -11048   -37724 
  -39369   -12349      805   -25679   -56134   -51466   -16057    15018 
    9661   -27002   -48668   -16570    39176    54291    20307   -20999 
  -37053   -22985     4087    15887    -1837   -27165   -35737   -37073 
  -39401   -26111    10419    43112    29957   -20139   -31436    15637 
   36423   -15837   -96356  -145819  -132844   -78892   -26768    19729 
   56734    47412   -14475   -63923   -43502     1663       79   -33559 
  -59263   -74839   -75929   -50129    -6583    26184    20815   -16381 
  -29967     8449    45494    41810    19670    -7068   -35064   -41246 
  -21596    -6184    -7146   -10611   -19186   -34777   -28315    -3928 
  -11582   -42082   -48927   -31246     7011    49533    44789    -1845 
  -20938     7334    43183    64051    58633    12411   -39734   -41644 
    -144    36096    33457    -4560   -29012    -7420    25318    39676 
   51602    55852    26396   -21015   -45818   -31453     5228    26757 
   11641   -18931   -19880    27703    74242    58450     5741   -20537 
  -16179    -5513     5065    12393     2184   -33965   -57323   -28701 
    5111   -10000   -48560   -66354   -41144    13985    43176    24349 
   -8016   -32138   -28371    24453    73521    50785   -17486   -70696 
  -89956   -77884   -38314     4870    13558    -8703   -19726     1644 
   36887    45070     9562   -33236   -51548   -52164   -31850     2840 
    7510   -29406   -74299   -85363   -49523   -14717       59    19973 
   14232   -29189   -47666   -20250    17952    44158    42120    13034 
  -11911   -21906   -24743    -9369    30845    66465    57474    12134 
  -19157    -7672    36761    84218    89032    22455   -66812   -90078 
  -34420    21951    12512   -41232   -78067   -75602   -50786   -34939 
