Origin Time       2011/03/11 14:46:00
Lat.              38.103
Long.             142.860
Depth. (km)       24
Mag.              9.0
Station Code      GNM015
Station Lat.      36.2286
Station Long.     138.7578
Station Height(m) 293
Record Time       2011/03/11 14:47:45
Sampling Freq(Hz) 100Hz
Duration Time(s)  237
Dir.              U-D
Scale Factor      3920(gal)/6182761
Max. Acc. (gal)   14.897
Last Correction   2011/03/11 14:47:30
Memo.             
[...]
  -23071   -21233   -20889   -19696   -19006   -20346   -22770   -24474 
  -23931   -22353   -21064   -20308   -19253   -15842   -11567    -9513 
  -10623   -13247   -11302    -5633    -5454    -9478   -11662   -12417 
  -11309   -10178   -12331   -13271    -9987    -8298   -11309   -14372 
  -13474   -10765   -10031    -9569    -7877    -9792   -14983   -16494 
  -14954   -13860   -11577    -9557    -9692    -9810   -11131   -14541 
  -16624   -16538   -15790   -15303   -14787   -13554   -14152   -17449 
  -19815   -21377   -22999   -22091   -19981   -18515   -15621   -12843 
  -13985   -17130   -17141   -14356   -13901   -15115   -14309   -14310 
  -16986   -18853   -18017   -15815   -14617   -14258   -13386   -11242 
   -7377    -6740   -11304   -14478   -14643   -13971   -13130   -12608 
   -9832    -6275    -6475    -7303    -7013   -10041   -15054   -15800 
  -11617    -7937    -7702    -8999   -12189   -17152   -19046   -17702 
  -16304   -13679   -10434    -8477    -7621   -10071   -13820   -13123 
  -10328    -9085   -10342   -16027   -20710   -19000   -16419   -13923 
   -7484    -3904    -7838   -11046    -9651    -8289    -9827   -13887 
  -17309   -17376   -15470   -12843   -10242   -10491   -12905   -14013 
  -14620   -15718   -16706   -19709   -24076   -25024   -22263   -19645 
  -17868   -14833   -12190   -13195   -15015   -13956   -12829   -13391 
  -11913    -9964   -13462   -17795   -15962   -13802   -16504   -18513 
  -17284   -17029   -17916   -16999   -15692   -15303   -14273   -14959 
  -19059   -20663   -18713   -19790   -21210   -18399   -18122   -21448 
  -21179   -19153   -20429   -21861   -19289   -15436   -13523   -11076 
   -7886    -8618   -11761   -11494    -9634   -10791   -14221   -17279 
  -17723   -16400   -15111   -11828    -9146   -10517   -10522    -7673 
   -5807    -5289    -6836    -7390    -3644    -2770    -7096    -8698 
   -7194    -6327    -5395    -5349    -7858   -11126   -11836   -10174 
   -9719   -10806   -12749   -16569   -20039   -20047   -18014   -17786 
  -19155   -19089   -19473   -21875   -22275   -19505   -15980   -13832 
  -14947   -17765   -20473   -23078   -22819   -20382   -20682   -22664 
  -23011   -21603   -18978   -17542   -18571   -18636   -15946   -13194 
  -11841    -9369    -5574    -6186   -11641   -13436    -9624    -7866 
  -11021   -14022   -15134   -16773   -17875   -18765   -20559   -18927 
  -13904    -9926    -6677    -5752   -10232   -16157   -18706   -17686 
  -16239   -19302   -24652   -24657   -20458   -16975   -13689   -11733 
  -13585   -15645   -14098   -11110    -9734    -9845    -8838    -5935 
   -5247    -8310    -9990    -8198    -7692    -9266    -7806    -4065 
   -3364    -6522   -11282   -14681   -15031   -14373   -14454   -13778 
  -12039   -11381   -11277    -9942    -8482    -7895    -8005    -8610 
  -10365   -14390   -16619   -14521   -14211   -16453   -16211   -14665 
  -14280   -14678   -15439   -16985   -19295   -19603   -16730   -12945 
  -11310   -15142   -20738   -20023   -16189   -16666   -17938   -15683 
  -14357   -16073   -15767   -12080   -10094   -12489   -16276   -17836 
  -17495   -16871   -15110   -12108   -10460   -10446    -9712    -9799 
  -12406   -13457   -12659   -15926   -21391   -21708   -18356   -15958 
  -15052   -16616   -18065   -15420   -12189   -10870    -9366    -9078 
  -10512   -10320    -9989   -13050   -15076   -13227   -13485   -16277 
  -16490   -14908   -15074   -17774   -18499   -13778    -9046    -9298 
  -11852   -12660   -12646   -14085   -13868   -11242   -11716   -14966 
  -14756   -10827    -9106   -13157   -20977   -25360   -20891   -14705 
  -14361   -14203   -12794   -16111   -19981   -20511   -22427   -24512 
  -23175   -20957   -19136   -16746   -15792   -17474   -17138   -12825 
  -10737   -13065   -15382   -16259   -16616   -15964   -11929    -4305 
    -512    -3176    -4461    -6177   -13908   -18288   -14376   -10333 
   -8820    -8581    -9935   -10485   -10210   -12262   -14809   -14876 
  -15172   -15944   -13304    -9476    -9285   -13148   -18600   -20480 
  -17210   -15090   -16599   -16205   -13054   -13995   -19268   -20299 
  -16615   -15160   -14041    -9571    -8706   -12178   -11032    -9603 
  -13193   -14159   -13244   -14397   -12927    -9936    -9466   -10379 
  -11584   -11304   -10325   -12549   -14520   -13688   -16146   -19682 
  -17986   -16444   -16831   -14296   -12658   -14031   -13473   -11881 
  -12215   -12671   -13466   -15589   -15245   -12969   -13699   -15801 
  -18037   -22221   -25011   -24945   -23936   -19564   -13110   -11234 
  -13113   -13229   -11773   -11685   -13268   -15934   -18750   -18394 
  -14502   -12446   -13023   -12746   -14601   -19063   -17727   -11391 
   -9630   -11667   -12616   -14504   -17421   -17377   -13620    -7375 
   -1202     -349    -5016    -9383   -12209   -15925   -18977   -17815 
  -12520    -8795    -9915   -10467    -9109   -11088   -13432   -11663 
  -11395   -14800   -14671   -10599   -10404   -13959   -15338   -17001 
  -21658   -21207   -13730   -10175   -12887   -15364   -16366   -15468 
  -12052    -9465    -9356    -9046    -7499    -7271    -7327    -4008 
    -807    -2544    -5840    -7429    -9207   -11100   -11233    -9807 
   -8217    -9273   -12780   -12775    -8972    -8866   -14209   -19171 
  -18660   -13272    -9145    -9913   -12393   -14073   -15425   -15293 
  -13307   -11828   -12012   -12918   -12855   -12417   -14524   -18269 
  -20987   -21164   -16971   -13113   -14932   -16111   -12243    -9788 
  -11859   -13954   -13522   -12796   -12729   -12257   -14112   -19278 
  -22171   -21981   -22602   -23191   -21765   -18063   -14099   -12646 
  -12678   -14804   -18668   -18952   -17819   -18029   -13836    -8507 
   -9539   -11263    -9368   -10453   -17609   -24745   -25323   -21294 
  -18362   -16115   -15371   -20492   -26899   -26970   -22196   -16984 
  -12420    -7487    -2351    -2695   -11398   -20689   -24338   -24062 
  -22332   -19117   -13675    -8181    -5300    -4468    -5761    -8838 
  -10321    -9598    -9039    -8850    -7839    -6726    -8536   -12642 
  -14385   -13488   -13004   -14350   -15569   -13789   -13783   -20226 
  -24605   -19839   -15233   -19661   -24051   -20736   -19395   -21373 
  -16962   -11787   -11581    -9423    -6553    -7259    -9243   -11954 
  -12046    -6202     -326     -296    -4122    -5997    -5338    -7106 
  -11384   -15428   -18600   -18497   -16357   -17110   -18331   -17829 
  -20092   -23536   -23959   -24719   -26582   -26287   -27014   -29540 
  -27646   -23971   -23437   -19856   -13491   -12588   -15166   -16829 
  -16893   -13572   -10040   -10236   -11372   -11210   -11504   -12783 
  -11486    -6991    -5561    -8282    -8730    -5684    -3592    -4203 
   -5922    -7390    -7705    -7356   -10101   -16375   -21779   -25895 
  -28060   -25685   -23746   -26428   -28946   -28939   -28846   -27654 
  -25236   -24592   -23369   -20547   -21851   -24839   -21208   -13557 
  -11427   -17242   -22244   -19526   -15561   -15563   -14287   -11459 
  -12039   -14593   -17363   -20368   -20512   -17730   -16046   -17806 
  -21850   -24735   -26253   -28443   -28554   -25221   -23334   -22605 
  -19017   -14496   -10106    -6975   -10540   -17212   -17081   -12422 
  -11440   -14198   -16796   -18160   -20269   -23291   -23440   -20228 
  -18273   -19557   -19695   -15560   -12958   -15320   -17779   -20987 
  -25631   -23941   -16816   -15124   -20768   -24358   -21151   -18128 
  -17603   -13448    -8857   -11337   -16871   -18703   -18758   -19175 
  -17469   -15608   -16409   -15632   -11991   -10653   -12982   -15546 
  -16632   -17642   -17408   -13806   -10896   -10527   -10191   -11728 
  -13728   -13330   -16144   -21532   -20280   -15761   -15192   -14303 
  -13963   -17976   -18329   -12396    -8665    -9096    -9686   -11811 
  -17382   -20089   -17324   -16018   -16666   -14217    -8993    -4423 
   -5270   -12259   -19306   -21607   -17271   -10155    -8822   -12873 
  -16304   -17699   -17051   -16329   -17490   -17963   -16393   -13914 
  -11452   -11123   -12572   -13429   -14079   -13877   -13348   -15071 
  -14916   -11526   -11490   -12844   -10476    -8314    -8688   -10221 
  -13401   -16440   -18398   -20901   -19351   -11101    -6300   -10112 
  -14479   -17002   -20392   -21072   -19202   -18985   -16717   -11426 
  -11011   -14520   -13573   -11251   -13804   -14639    -9890    -6416 
   -3063     1435    -2140   -10622   -13448   -14680   -16331   -12518 
   -7768    -7591    -8470    -9503    -9764    -6090    -2165     -809 
     784     1801       50    -3329    -5860    -5192    -3792    -5304 
   -6722    -6910    -7760    -6813    -5666    -7759    -9485   -10627 
  -13985   -17205   -19536   -19962   -16433   -15108   -19444   -21625 
  -18199   -14193   -10576    -6234    -7838   -16706   -20994   -18657 
  -17677   -17712   -16791   -16218   -17886   -20793   -17767   -13120 
  -17754   -21642   -15157    -7170    -1969     -837    -5990   -10429 
  -10966    -9004    -2670     2502     1423     -868    -1492    -1515 
   -1734    -4214    -9167   -13407   -11961    -5678    -5599   -12858 
  -14195    -8339    -4267    -3402    -4211    -6987   -10460    -9926 
   -4121    -1244    -5167    -9283   -11801   -15000   -15310   -13150 
  -13087   -11246    -5539    -2435    -4974   -10472   -14539   -16207 
  -16713   -13099    -9325   -13264   -17356   -15709   -15684   -15599 
  -11830   -13105   -18324   -15835    -9290    -9059   -12228   -13156 
  -14141   -17148   -19925   -19493   -16077   -14260   -13472    -8951 
   -4622    -6167   -10823   -14119   -16061   -18251   -19878   -19752 
  -19770   -24087   -30466   -28560   -19902   -16284   -14583    -9572 
   -9751   -16251   -21284   -22335   -17826    -9959    -4592    -1047 
     764    -1748    -5398    -7555    -9020    -8423    -7067    -9345 
  -12374   -11527   -11154   -13180   -12859   -11499   -12203   -12732 
  -11471   -10012   -11426   -13289   -10809   -10410   -16306   -20065 
  -19748   -19429   -17235   -13235   -11096    -9227    -4864    -2886 
   -7443   -12822   -14844   -17705   -21763   -20161   -14433   -15994 
  -23262   -22842   -16753   -15642   -15248    -9500    -4065    -1599 
     232     1388     2667     2032    -2092    -3928    -2816    -4170 
   -7004    -8585   -11667   -16116   -13929    -7004    -7839   -12018 
   -9497    -5521    -2304      191    -2991    -5821    -2430     -530 
   -2017     -419      722    -4629    -9202    -8151   -10380   -18645 
  -23316   -19249   -11512    -7079    -8423   -14682   -21742   -22349 
  -16925   -13855   -13980   -13530   -15765   -21723   -22323   -13542 
   -5315    -3676    -3784    -7711   -17928   -21935   -15292    -9995 
  -10542   -11832    -9916    -7762   -11934   -18551   -20218   -19441 
  -18197   -15497   -15332   -16795   -14954   -15535   -20931   -20276 
  -12889   -10770   -15505   -18679   -16361   -10643    -5990    -5316 
   -6587    -6836    -8806   -13790   -14166   -10758   -14047   -19949 
  -21081   -22581   -24558   -22522   -19442   -18539   -19018   -18971 
  -17342   -13819    -8868    -7534   -11950   -15175   -14579   -14141 
  -15214   -17078   -18992   -21511   -22986   -20601   -18615   -18949 
  -17998   -17879   -19287   -18960   -17402   -15780   -15420   -15997 
  -15927   -17788   -20648   -20761   -20897   -22967   -23688   -20033 
  -13428    -8947    -5311     1148     4039      -43    -2670    -1771 
   -3961    -8684   -11906   -13004   -11084   -10400   -16233   -22922 
  -25200   -26225   -26675   -24138   -19918   -16526   -14003   -12298 
  -13205   -18339   -25451   -28446   -24176   -15879    -8979    -7031 
   -9030   -10564   -10159   -11494   -15705   -16636   -13026   -11371 
  -10471    -9293   -14628   -21128   -18071   -10608    -6933    -7019 
  -12901   -24181   -28004   -20177   -15652   -18069   -17655   -17035 
  -20890   -24403   -24913   -23318   -23020   -26273   -27418   -23338 
  -20303   -22197   -23935   -21477   -16435   -10340    -7345    -7610 
   -4706    -4331   -13015   -21344   -23305   -22130   -20853   -22238 
  -26250   -30734   -33319   -31697   -27443   -23059   -20487   -21130 
  -20665   -16929   -15418   -18412   -21594   -20777   -17732   -15987 
  -14873   -16138   -20945   -22874   -21367   -22894   -25662   -24791 
  -21993   -19921   -18743   -19337   -21447   -21190   -18047   -17984 
  -22593   -24376   -20757   -18566   -16595    -9145    -4352    -8146 
  -11428   -10461    -9131    -7743    -6878    -5338    -2899    -4167 
   -4949    -1312    -1003    -2991    -2293    -4646    -9492   -12318 
  -16295   -19394   -18614   -18669   -18051   -13511   -12265   -17602 
  -21327   -20580   -22952   -26981   -23693   -19233   -21232   -22407 
  -19587   -17037   -15116   -13968   -13697   -12674   -10662    -8317 
   -6362    -3713    -2518    -9002   -17374   -18356   -17106   -18250 
  -19475   -21308   -22695   -20161   -15519   -12900   -11483    -8243 
   -3613    -1376    -3909    -6151    -3111    -2337    -8213    -8926 
   -1567     1398    -1487    -4143    -9976   -18854   -22118   -19183 
  -16121   -15227   -17197   -21366   -23548   -21446   -16423   -11893 
  -13868   -19560   -16492    -5767      668      606    -2824    -6364 
   -6638    -7433   -12936   -18771   -21051   -20938   -18285   -12380 
   -7832   -10866   -17299   -15197    -7125    -7187   -13955   -19402 
  -24377   -25467   -21268   -19837   -20923   -19546   -17851   -15907 
  -13354   -17008   -28584   -36878   -33231   -24005   -17709   -13607 
  -11718   -14197   -15854   -11773    -8378   -12866   -20491   -24198 
  -23213   -19352   -16617   -15804   -13881   -12883   -15389   -18969 
  -19381   -13681    -6437    -4925    -5530    -4829    -8658   -12108 
   -6575     -668     -182      442     1217      947     1113      -37 
   -4405   -11646   -17244   -16874   -15551   -17590   -18668   -18032 
  -20490   -24236   -22162   -16682   -14731   -13066    -8234    -3760 
   -3945   -11178   -18112   -15788    -9962    -7854    -7981    -8602 
   -8560    -8409    -9793   -10849   -11719   -14246   -13598    -6406 
   -1084    -4440    -9514   -10163   -10571   -11489    -9283    -6482 
   -5264    -2677     3305     8462     5139    -2464    -4719    -5478 
   -6866    -3525    -1820    -6429    -8231    -5597    -4319    -5527 
   -7910    -8088    -7806   -11133   -13684   -15262   -19803   -21662 
  -17764   -14420   -15429   -19202   -22126   -20509   -13124    -5470 
   -5192    -9277   -11069   -12241   -13683   -13897   -15697   -18002 
  -17403   -17971   -20135   -18825   -16785   -16634   -15404   -14465 
  -16522   -19643   -20789   -19167   -16441   -14505   -13325   -12500 
  -13316   -15554   -16624   -14494    -8717    -4720    -7678   -12568 
  -15965   -19588   -19512   -13746   -10617   -16638   -23578   -21092 
  -13059    -6836    -5550    -9426   -11901   -10087    -8778    -6607 
   -1528     -374    -4112    -5879    -8022   -11848   -10380    -8604 
  -11353   -10202    -7565    -8407    -6350    -4317    -5742    -4585 
   -4213    -6215    -4026    -3786   -11675   -19783   -22599   -19898 
  -12658    -6162    -3683    -5152   -10468   -14332   -11738    -7387 
   -6169    -5534    -5398    -8789   -11088    -8738    -7615    -8941 
   -9146    -9579   -10954   -12851   -15358   -15648   -13996   -15414 
  -19447   -20328   -19107   -21870   -25277   -21905   -14986   -10508 
   -8784    -8663    -5597     1097      658    -8590   -13926   -13503 
  -14759   -15752   -13832   -14559   -20082   -24157   -22175   -18112 
  -17974   -21063   -21483   -17078   -12309    -9826    -9180   -10531 
  -11698   -12659   -15607   -14715    -5354     4253     6834     3616 
   -2211    -4926    -4586    -8426   -11897    -7223    -1573    -1069 
   -1554    -2562    -7734   -15547   -20796   -21716   -22227   -24131 
  -23735   -20924   -17925   -14558   -14655   -20162   -23697   -22611 
  -22782   -23648   -19772   -13055    -9318    -8227    -6019    -6513 
  -13882   -18782   -14183    -8838    -8712    -9960   -10814   -10668 
  -10278   -12620   -12335    -4833     2123     3704     1850    -1859 
   -4110    -4194    -4172    -5263   -10617   -19200   -24925   -26476 
  -23919   -17401   -14604   -19228   -21516   -15991    -9581    -7188 
   -7539   -10697   -14624   -13662   -10532   -10513   -10259   -10715 
  -14638   -14750    -9429    -6588    -8507   -12125   -13962   -12583 
   -9821    -5850    -1236      414     -318    -1198    -3518    -4970 
   -2728    -1247    -3252    -5302    -6863    -9251    -8890    -6642 
   -9498   -14299   -16610   -21045   -23037   -17359   -13582   -15329 
  -17746   -20490   -21218   -19266   -18820   -19090   -21252   -27458 
  -29192   -24491   -22360   -21235   -17205   -15037   -14812   -13741 
  -13353   -13898   -14577   -13563    -9508    -8008   -11380   -12373 
   -9741    -9543   -12755   -15779   -16252   -14537   -10196    -4029 
   -3019    -7802   -10000   -10342   -13440   -13916    -9012    -5744 
   -5954    -4955    -3845    -5039    -5401    -3637    -1421     1587 
    3747     2247      -59     -617    -2504    -7935   -14036   -15424 
  -12483   -10571    -9479    -9665   -14584   -17668   -14245   -12614 
  -13821   -11434    -9500   -11405   -10735    -8013   -10595   -17552 
  -23408   -24452   -18876   -12636   -12429   -13757   -13453   -15530 
  -17258   -15011   -13949   -16569   -19156   -18900   -15662   -13354 
  -13828   -12812   -11766   -15101   -18307   -18403   -19564   -21363 
  -19067   -14402   -12697   -14004   -15775   -16437   -15991   -15409 
  -14046   -13406   -14680   -13287    -9424    -8719    -8690    -6161 
   -7903   -13475   -10335     -775     1943     1354     3750     1826 
   -6184   -11649   -12284   -12735   -13590   -14130   -15994   -16636 
  -14508   -14243   -16155   -16339   -15351   -15441   -15939   -14739 
  -12152   -11171   -11901   -11251    -9566    -8956    -8307    -7995 
  -10326   -13013   -13762   -15749   -19448   -20057   -17132   -15069 
  -14506   -11772    -7440    -7978   -13670   -16912   -15782   -14101 
  -13057   -12304   -12082   -13169   -15889   -18663   -19826   -20197 
  -21581   -21978   -19244   -16915   -16177   -15160   -15995   -17567 
  -17047   -17301   -18717   -20287   -22957   -22634   -18437   -16847 
  -16889   -13204    -9383    -9850   -11262    -9625    -6677    -7286 
  -11111   -13844   -15322   -15432   -11907    -7439    -6910    -9245 
  -10184    -8960    -7135    -5809    -5478    -4845    -3409    -4346 
   -7995    -9153    -6783    -5908    -7404    -7352    -5906    -5969 
   -6344    -5470    -5201    -6303    -8572   -13061   -17617   -17161 
  -12394   -10598   -13897   -15409   -12726   -11661   -12962   -12605 
  -11981   -13715   -15216   -14689   -13890   -11885    -8192    -6099 
   -5378    -4703    -5851    -7391    -6361    -4712    -4962    -5753 
   -6747    -7815    -6349    -4455    -5221    -5694    -4263    -2721 
   -2465    -3486    -3951    -3537    -3921    -5064    -5706    -5638 
   -5825    -7221   -10196   -14358   -16413   -14125   -11171    -9389 
   -8197    -9762   -11838   -10906    -9573    -8143    -5217    -4490 
   -7051    -8753    -8768    -9343   -10905   -12399   -11481    -8099 
   -7242    -9571   -10359   -10752   -11966    -9634    -5941    -6513 
