Origin Time       2011/03/11 14:46:00
Lat.              38.103
Long.             142.860
Depth. (km)       24
Mag.              9.0
Station Code      GNM008
Station Lat.      36.3479
Station Long.     139.1368
Station Height(m) 77
Record Time       2011/03/11 14:47:31
Sampling Freq(Hz) 100Hz
Duration Time(s)  300
Dir.              U-D
Scale Factor      3920(gal)/6182761
Max. Acc. (gal)   38.578
Last Correction   2011/03/11 14:47:16
Memo.             
[...]
  -40674   -54436   -56075   -53599   -46724   -32750   -22356   -16877 
  -10772   -11254   -16738   -10715     3171     6757     3286     2715 
   -1416   -10781   -15921   -18671   -27424   -37212   -38545   -34953 
  -34623   -36777   -38686   -40695   -40670   -38692   -35695   -26497 
  -14819   -13536   -18093   -15845   -11552    -9955    -6961    -7948 
  -14682   -17551   -17253   -20477   -26989   -35438   -44526   -51313 
  -54646   -56687   -57676   -51667   -36761   -24072   -22962   -25948 
  -26050   -30625   -38352   -38819   -38816   -44647   -43270   -30616 
  -19306   -14082   -10689    -9495   -11398    -8969     -210     1492 
   -6101   -11217   -19077   -33838   -40137   -37674   -37157   -33631 
  -27637   -26245   -20244    -6283     -909    -7058    -9883   -12591 
  -25947   -33793   -21631    -7137    -9071   -21218   -28242   -30918 
  -36844   -36526   -24498   -15999   -20249   -31387   -39821   -39108 
  -31032   -19713    -9983    -8153    -9430    -5091     1949     8464 
   12153     4680   -10189   -18694   -20531   -20928   -20866   -19532 
  -14888   -17210   -30975   -31869   -13139    -2810   -11211   -19387 
  -15369    -9532   -11191   -12774   -12419   -17598   -23771   -28103 
  -40770   -59637   -69205   -66551   -62347   -59042   -45951   -26032 
  -17963   -21942   -24347   -22469   -19571   -16802   -11073    -3092 
    -957    -2977    -3833    -6597    -9790   -11478   -14125   -15957 
  -17504   -16223    -7000    -7148   -30133   -52142   -57514   -61600 
  -67187   -62132   -51610   -47056   -45343   -41569   -37083   -31374 
  -26190   -23817   -20006   -18848   -26054   -28927   -24207   -25247 
  -27328   -20055   -10702    -4092     4904    13109    15709    21179 
   29413    26007    13978     5402    -2306    -9279   -10963   -12369 
  -13070    -6581      166      241      -77     3013     5984     3822 
   -3275    -5591    -1727    -1693    -5112    -4712     2320    11261 
   10793     2594    -2575    -3969     -592     5998     7930     7759 
    8882     7143     3490     2367     4420     5017     2342     2999 
    7700    11348    15189    16597     7719    -5400    -5947     6298 
   12102     4111    -6680   -15099   -20167   -16029    -6361    -2784 
   -8044   -16850   -22541   -25004   -29632   -31410   -23818   -15020 
  -13923   -18434   -17994    -7646    -1621    -5363    -1389     5948 
   -2720   -11570    -1683    10763     9030    -4145   -18040   -23935 
  -25110   -29163   -34229   -35997   -35642   -33846   -31069   -27720 
  -19689   -11986   -13817   -17074   -18907   -27550   -32926   -27448 
  -21077   -13609    -6106   -10107   -16309    -9328     -691    -2458 
   -6604    -7380    -8378   -10215   -10286    -9637    -9698    -4466 
   10784    27630    35685    35519    33898    33534    28057    16079 
    8156     3590    -5799   -12542   -10158    -8319   -14099   -20977 
  -23194   -21650   -15094    -9792   -13934   -16027   -12234   -17290 
  -26648   -25234   -16092    -5870     8110    21808    20857     8116 
    -262    -9096   -27725   -43812   -47617   -46191   -43726   -37378 
  -30970   -30244   -26946   -16243   -18500   -39926   -48052   -31032 
  -19003   -20664   -11864     5461     5100   -11288   -22322   -24213 
  -28032   -35462   -35434   -29100   -26292   -24365   -24819   -28861 
  -23532   -13778   -14242   -14005    -5754    -5018   -13784   -15705 
  -10347   -10388   -15507   -19179   -22993   -28033   -26332   -16871 
  -13662   -16998   -17450   -24601   -39390   -41076   -29644   -26991 
  -33584   -32497   -29689   -37264   -42734   -37767   -30258   -28705 
  -39631   -49544   -42784   -35903   -33920   -20084   -11821   -27878 
  -39036   -23918    -4032     2563     2942     3718      814    -5699 
   -9717   -11166   -13023   -12262    -8799   -11817   -20639   -20534 
  -10714    -5320    -9600   -19891   -27162   -23634   -22592   -37967 
  -51520   -44336   -29761   -22037   -15057    -8356   -10998   -19934 
  -26296   -28838   -28002   -24810   -23549   -24131   -24257   -30080 
  -42806   -49301   -48947   -54039   -57796   -48835   -34842   -21951 
  -10045    -5189    -9020   -15939   -21980   -23249   -16397    -4645 
    3947     5535     2547     -874    -1656     -666    -2307   -10167 
  -19369   -19355   -13592   -13342   -16505   -18250   -20506   -25820 
  -37662   -55813   -71625   -77086   -73695   -70145   -70959   -66873 
  -50943   -35616   -26542   -14633    -5691    -4652     -872      546 
  -11046   -23449   -24871   -21883   -20458   -18524   -16265   -15437 
  -18585   -28479   -36837   -38528   -43695   -48443   -41987   -36442 
  -39116   -40633   -41693   -42531   -33833   -18143   -10399   -16911 
  -23259   -18607   -16294   -18231   -12572   -12182   -27823   -41812 
  -42602   -39720   -38682   -27222    -3009     7682    -9267   -30832 
  -37991   -41352   -47153   -44653   -39648   -43255   -44474   -39220 
  -35432   -28246   -16030    -5086     4160     5869    -1979    -5067 
   -1308     -775      681     5632     7215     6506     2653    -6269 
   -9556    -6215    -7917   -12744   -15044   -17503   -18463   -14449 
   -9567    -8036    -5039     -427    -8463   -25175   -22768    -3293 
    2910    -5722    -8907    -6864   -10798   -16196   -13752    -6400 
    -893    -2254   -12550   -22977   -23085   -16080   -13663   -20394 
  -30276   -40106   -49984   -50822   -38912   -29076   -27602   -25778 
  -27335   -36386   -37272   -24896   -17469   -20895   -21225   -13054 
   -4876    -2364    -2233    -3979   -14395   -28538   -32202   -26455 
  -18103    -9197    -8485   -16822   -20791   -19706   -20128   -16623 
   -8324    -5781   -14920   -26876   -27061   -22782   -29680   -36901 
  -34752   -34745   -37325   -32642   -25228   -24863   -29002   -26755 
  -15394    -2377     8714    13657     7264     4860    22081    40282 
   39065    31807    30739    19700    -8963   -33688   -38840   -35679 
  -34816   -27229   -13087    -8879    -8066     6972    21033    13571 
    -598    -2076      758    -1474    -3562    -7540   -16002   -14262 
    1601     6934    -2874    -2199      817   -15471   -29664   -29406 
  -32112   -33850   -27828   -29482   -40507   -43337   -34823   -29609 
  -35639   -43854   -41730   -31810   -29449   -36457   -38814   -40086 
  -54125   -68202   -66566   -61026   -58153   -47472   -33347   -24146 
  -11975     -412    -4547   -15025   -15395   -14498   -20986   -26207 
  -30899   -42970   -57436   -68119   -71814   -65073   -52639   -36761 
  -16971    -4376    -3015    -2890    -1705     -450     4043     8573 
    9278     3948   -12310   -29352   -31141   -22354   -10567     -932 
   -4871   -15260   -15653   -11469   -12652   -13915    -9331    -2369 
    6587    16971    16519     6696     6516    12180     8804     6615 
   13788    17008    10894      862    -8745   -11096   -10221   -16008 
  -18048    -9461    -7346   -15658   -19988   -21087   -24982   -24196 
  -19290   -22605   -30934   -31066   -24618   -20854   -19907   -19625 
  -21213   -18211    -8801    -8213   -15956   -14607    -7404    -7173 
  -13876   -21324   -22223   -16076   -12630   -16276   -19815   -18849 
  -18449   -20597   -18873   -13630   -14338   -17765   -11122     -145 
     811    -3428    -4936    -9776   -15648   -12336    -5544    -2046 
    5581    19851    31445    32272    22824    13041    13466    17417 
   12821     9902    15567    12401    -1075    -8497   -13765   -25434 
  -31034   -21475   -13446   -22390   -34089   -32571   -28852   -31721 
  -30649   -26860   -32670   -40133   -37593   -32215   -26558   -17746 
  -13365   -14103   -14703   -16943   -16073    -7458    -1659    -3232 
   -4586    -7976   -16747   -23506   -29498   -41467   -49174   -43704 
  -41426   -50274   -50329   -39257   -35804   -38493   -36734   -31992 
  -26574   -22307   -25049   -34467   -40472   -38023   -30722   -21714 
  -15992   -15501   -15644   -15654   -13997   -11859   -14790   -12842 
   -1281     4252     3463     8170    16853    19661     9313    -6448 
  -16611   -20390   -12919     -335      325    -4327    -5954   -10874 
  -14390   -15851   -24374   -30488   -23888   -17843   -22617   -29863 
  -33572   -34754   -30834   -22568   -16301   -11472    -4398     1068 
    1137     1441     6345     7868     2496    -2014    -5717   -10346 
  -11419   -10024    -4286     8891    18255    16759    12986    10640 
    4871    -1411    -2466    -6316   -14322    -8085    10380    16887 
    8039    -5158   -16933   -23577   -27371   -30370   -30842   -32530 
  -36471   -38359   -38548   -38674   -35695   -27802   -21492   -17394 
   -5863     6118     4447    -3730   -10368   -19567   -30166   -37039 
  -37837   -33925   -34475   -42630   -46580   -44707   -47352   -48070 
  -37617   -28075   -27120   -25204   -23167   -28859   -33836   -30917 
  -27542   -25126   -21296   -22940   -30854   -33983   -27220   -17714 
  -11925    -8503    -7733    -9546    -6330     1965     4210    -3482 
  -12573   -14796   -14693   -16119    -7326    14101    30413    35460 
   39147    40686    35069    29595    24610    10578    -5698   -10791 
   -9828   -15308   -26596   -32265   -27417   -17670    -6184     2953 
    2038    -2237    -1192    -3320    -8187    -6858    -8264   -15300 
  -17242   -18004   -21566   -23785   -29704   -36884   -36228   -34531 
  -36655   -37374   -38163   -39528   -36136   -27667   -18507   -17925 
  -31043   -42626   -42039   -38911   -33385   -24450   -22876   -24916 
  -25308   -32670   -44268   -49253   -46822   -40613   -32851   -25667 
  -20205   -13827    -5868    -2799    -7844   -15680   -20625   -20609 
  -15704   -11148   -14484   -19037   -11103     2202     4856    -1708 
  -10610   -21630   -30013   -28482   -20704   -14560   -11083   -10440 
  -12102   -11214   -10270   -16105   -21320   -19048   -19508   -21736 
  -13759    -7616   -14220   -21148   -27334   -35197   -33670   -23373 
  -10492     1514     3136    -4582   -14215   -27457   -41224   -45888 
  -36912   -20009   -11343   -16860   -22850   -23138   -22346   -15081 
   -2085     1811     -752     2594     5930     3366    -2907   -13817 
  -21599   -17177    -7558     -464     5623    12314    17759    17384 
    8670    -4812   -16746   -19182   -10925    -5161    -7755    -8202 
   -5786    -8611   -11347    -7299    -3050    -2211    -2180    -7915 
  -18803   -21339   -16779   -18661   -22782   -21687   -22639   -24378 
  -18583   -13497   -15859   -14989    -6696     1076     4606     4047 
   -1218   -12297   -26974   -37003   -37748   -31755   -24210   -21827 
  -24225   -27448   -36149   -48670   -53604   -51856   -50054   -46595 
  -41172   -36080   -31558   -28277   -26760   -28186   -32706   -36337 
  -37519   -35810   -27052   -14024    -7260    -9276   -12263   -11567 
  -10611   -12061   -13986   -13248   -10239    -9001    -6646      667 
    4176      650       86     3093     1230    -7499   -17346   -20264 
  -18062   -20831   -29258   -39093   -48284   -49066   -39818   -30635 
  -22904   -16194   -18954   -26352   -26160   -21653   -18186   -15114 
  -14086   -16752   -23980   -31448   -31415   -28539   -29040   -27438 
  -22499   -17578   -13451   -13308   -15548   -13905    -9782    -8867 
  -11228   -11641    -8922    -6664    -5266    -7199   -14719   -16967 
   -8180    -2494    -7386   -13815   -15724   -13099    -7712    -2642 
    2874     9477    13280    13163    10266     3748    -4094    -6961 
   -4339    -6659   -20348   -33754   -34114   -28746   -30613   -33949 
  -29328   -27023   -33445   -34100   -25735   -22304   -23491   -20966 
  -20363   -26222   -31134   -33455   -39485   -45392   -40774   -29041 
  -22747   -24445   -26623   -22413   -14961   -13291   -13564    -7476 
   -3087    -5752    -6191    -5647   -13777   -24699   -28176   -28260 
  -30630   -32160   -28869   -19806   -10967   -10283   -12595   -10597 
   -7378    -6378    -9000   -11728    -9713   -11338   -21531   -30662 
  -33487   -28572   -18297   -14953   -19315   -20183   -21364   -26962 
  -23233    -9375    -1861    -2213    -3330    -5717    -9502   -11759 
   -9243    -4986    -7009   -12090   -13540   -15971   -21119   -23891 
  -26503   -31575   -30891   -20498   -12126   -12728   -13431   -12619 
  -16217   -17404   -15541   -21488   -27244   -21779   -16295   -20683 
  -28798   -30829   -25376   -20839   -21388   -20670   -13412    -4243 
   -1899    -5990   -10386   -13043   -11720    -7921    -7290    -7858 
   -7342    -6898    -5655    -7197   -13756   -17759   -13227    -7685 
  -11127   -16449   -15639   -16917   -20552   -18459   -17644   -22346 
  -21993   -18007   -19841   -20385   -15168   -15707   -19744   -15475 
  -12638   -21024   -29186   -30250   -29569   -30314   -30525   -26370 
  -21154   -21704   -26004   -27962   -22686   -12001    -7078    -9620 
  -11062   -13312   -22382   -32528   -33411   -26407   -24114   -31206 
  -39033   -40045   -35087   -29492   -26955   -28053   -31798   -33868 
  -30971   -27092   -25656   -24315   -24669   -30004   -32461   -27410 
  -25280   -26519   -21931   -18562   -23708   -28730   -28845   -29221 
  -32972   -35912   -33033   -27705   -23670   -20477   -22467   -29788 
  -34377   -35060   -33097   -27361   -23092   -23857   -27733   -33557 
  -38104   -40819   -43402   -40978   -30961   -21605   -21221   -23858 
  -19764   -14269   -14379   -17318   -20189   -20446   -18258   -17365 
  -16842   -15815   -16128   -15065   -10639    -5744    -1023     5138 
   13517    22373    26486    26164    29396    37792    42688    37649 
   27450    20214    14971     8944     7121    11411    17701    23985 
   24598    13580     -924    -8358    -9442    -6108       78     1929 
   -4598   -12729   -16783   -23739   -35239   -39866   -38731   -40509 
  -40927   -37641   -36356   -37801   -38966   -37554   -33640   -31239 
  -32290   -34903   -37877   -38643   -35593   -33585   -35755   -36907 
  -34181   -33881   -40069   -47885   -51565   -49393   -43878   -40660 
  -41399   -41133   -36180   -28243   -22677   -24205   -30622   -36645 
  -39498   -37668   -34926   -36328   -37185   -33015   -31452   -37398 
  -42086   -39653   -36263   -37445   -38264   -31893   -24703   -22849 
  -18077   -10618   -10529   -12465    -7676    -2947    -4701    -7815 
   -6871    -4801    -7516   -11232    -9037    -6971    -9594    -8517 
   -3454    -2613    -2593      861     2109     1037      234    -4245 
  -10709   -15237   -21729   -30190   -34646   -33207   -30641   -34902 
  -42555   -39314   -27840   -23814   -24026   -17975   -13619   -18261 
  -22694   -21012   -19962   -24731   -29501   -27720   -24033   -22214 
  -17120   -11207   -12248   -14880   -11067    -5762    -4425    -3350 
    -517      557     -449     1377     6226     6049     1180     1550 
    4550     2963     2301     4814     3468    -3913   -14659   -24687 
  -28647   -26917   -26107   -28793   -31598   -32473   -30875   -26966 
  -26234   -32862   -40286   -40773   -35863   -32386   -35048   -40182 
  -41222   -40210   -38652   -30534   -20400   -20154   -23581   -19725 
  -15072   -14860   -15524   -18429   -21842   -20842   -19644   -19638 
  -16237   -12982   -14864   -19572   -21462   -17338   -12485   -11926 
  -11836   -11403   -15557   -23735   -29582   -29471   -27787   -28344 
  -25976   -21083   -22171   -25466   -22259   -17990   -20986   -28279 
  -32561   -32835   -32729   -31731   -26593   -20141   -16919   -15495 
  -15819   -21656   -30495   -35480   -36376   -36972   -37399   -36035 
  -33299   -32484   -34556   -35516   -35915   -37999   -36769   -30738 
  -26143   -25851   -26441   -25046   -24175   -24736   -21563   -13856 
   -8450    -9337   -12660   -13546   -14503   -18034   -17074   -11464 
  -12558   -18263   -18693   -17020   -16032   -12451   -11175   -16845 
  -22287   -21780   -18368   -13479    -7635    -6334   -10153   -11669 
   -7546    -1076     2339      476    -1604    -1869    -4144    -5707 
   -3168     -480      838     1965      423    -4386    -7353    -5876 
   -4233    -5087    -7966   -13277   -17616   -20436   -26819   -31047 
  -26797   -22185   -21187   -19663   -17939   -17544   -18857   -21615 
  -23948   -26364   -30165   -32443   -29926   -26257   -27888   -33129 
  -34702   -29998   -21835   -12286    -2335     3412     2778     1388 
    1554    -1458    -6602    -6137    -1048    -1377    -9170   -15701 
  -15064   -10121    -5039    -1130     -982    -5581   -10399   -13361 
  -17968   -24640   -28831   -28361   -25566   -22937   -21571   -21427 
  -19615   -15324   -14988   -21263   -27056   -28251   -27737   -28515 
  -30352   -30656   -31093   -34661   -36785   -35549   -35049   -31806 
  -23025   -17014   -18223   -21691   -22254   -18585   -15031   -13730 
  -10421    -6920    -7291    -7495    -5305    -2940    -1490    -4337 
  -11447   -14583   -12525   -11842   -12196   -13245   -18043   -21983 
  -21893   -23573   -27443   -27376   -24120   -22698   -22610   -21264 
  -19025   -16923   -15677   -15819   -16492   -16753   -17747   -21020 
  -25125   -27207   -26976   -25107   -20848   -15774   -14197   -15574 
  -14913   -11630    -9417    -9465    -9651   -10310   -14232   -19687 
  -23771   -28027   -31626   -31496   -30865   -32527   -32198   -28932 
  -27794   -31308   -36637   -37970   -33418   -27464   -23798   -21419 
  -16959    -9477    -2472     1035     2460     6210    14961    23392 
   23426    18603    17175    16684    13498    10812    10077    10476 
   10542     7750     3391     -686    -5914   -10821   -13607   -17260 
  -22823   -27418   -28916   -27386   -25235   -23444   -20358   -16868 
  -13923    -9939    -8046   -11785   -15504   -14975   -14880   -17711 
  -20792   -22854   -23645   -22956   -23495   -26146   -26858   -27225 
  -31485   -34689   -34345   -34952   -35149   -33259   -32493   -31208 
  -26470   -22054   -21348   -22891   -25820   -30151   -34574   -38158 
  -39337   -37386   -35432   -33957   -30567   -28986   -32272   -34905 
  -34294   -34347   -34460   -31341   -27944   -28521   -31281   -33812 
  -36385   -38135   -40383   -45976   -52165   -55456   -56562   -56494 
  -55043   -50110   -41530   -35913   -36005   -34457   -28930   -24873 
  -22168   -19350   -19910   -21807   -19432   -17250   -21123   -25303 
  -24940   -22995   -19654   -15194   -13033   -11902   -11343   -15170 
  -21207   -24013   -22994   -20237   -19035   -20688   -22735   -23857 
  -23286   -21248   -20518   -19323   -15041   -12312   -13038   -13157 
  -12751   -15281   -21634   -28401   -32987   -38079   -41866   -38620 
  -31692   -26700   -23871   -23252   -23507   -22441   -19847   -15167 
  -10640    -9791    -9413    -6129    -2606      -57     1918     1075 
   -2954    -6121    -6217    -6447    -7724    -7207    -6531    -6675 
   -4810    -5546   -13966   -21933   -21915   -19939   -23641   -30443 
  -33317   -32035   -29745   -26378   -23953   -23593   -21978   -21292 
  -25127   -29308   -31523   -32945   -30600   -26515   -28346   -34023 
  -38016   -42010   -45651   -46289   -46284   -46704   -43882   -37471 
  -32311   -30600   -29456   -26042   -19922   -13348    -9846    -8417 
   -5534    -3245    -3920    -3528     -467      229    -3268    -6683 
   -7573    -6665    -2607     4152     7233     5358     4541     4225 
    -466    -7897   -13288   -15608   -17750   -20098   -20216   -19413 
