Origin Time       2011/03/11 14:46:00
Lat.              38.103
Long.             142.860
Depth. (km)       24
Mag.              9.0
Station Code      GNM014
Station Lat.      36.3500
Station Long.     138.7179
Station Height(m) 465
Record Time       2011/03/11 14:47:43
Sampling Freq(Hz) 100Hz
Duration Time(s)  300
Dir.              U-D
Scale Factor      3920(gal)/6182761
Max. Acc. (gal)   31.916
Last Correction   2011/03/11 14:47:28
Memo.             
[...]
  -38373   -40366   -40725   -39731   -39259   -39052   -37860   -35766 
  -32388   -27786   -24550   -24561   -26801   -29836   -33101   -36319 
  -39624   -44051   -50678   -58261   -63585   -64945   -62824   -58353 
  -53629   -51120   -51504   -53798   -55728   -53981   -48217   -42449 
  -39758   -39883   -41252   -42041   -41341   -39666   -37265   -33522 
  -28050   -22055   -18394   -18843   -22538   -27404   -31410   -33804 
  -35240   -36319   -37123   -37036   -35678   -34271   -32990   -29375 
  -22732   -16113   -12638   -13019   -16177   -20723   -25089   -27026 
  -26080   -24677   -24690   -26399   -29775   -34081   -37910   -39605 
  -37594   -32080   -25644   -21735   -22937   -28611   -35034   -39955 
  -43903   -47317   -50379   -53189   -54128   -51342   -45849   -40539 
  -37061   -35820   -36974   -39875   -43507   -47013   -49526   -51093 
  -52697   -54623   -55792   -54586   -49692   -41473   -32983   -27857 
  -27730   -32302   -39944   -47533   -51458   -50488   -46395   -41965 
  -40689   -44979   -52495   -57990   -58402   -54146   -47778   -43047 
  -43666   -50065   -57881   -61920   -60386   -55163   -49632   -45729 
  -43700   -43837   -45244   -45969   -46200   -46545   -45832   -43910 
  -42370   -42580   -44702   -47495   -48831   -46835   -42340   -39235 
  -40044   -43688   -47618   -49224   -46872   -41125   -33939   -27476 
  -23888   -24393   -27968   -32187   -34994   -34605   -30321   -24202 
  -19006   -16062   -15911   -18029   -21113   -24569   -28209   -32010 
  -36270   -40779   -44348   -45098   -42461   -38807   -36757   -36713 
  -37731   -38597   -38861   -39035   -39420   -40273   -42500   -46803 
  -52598   -57855   -60510   -60754   -60967   -63405   -67979   -71363 
  -70013   -64107   -56576   -50536   -47490   -45104   -40002   -33071 
  -27779   -26473   -29900   -36373   -42116   -43636   -39929   -33946 
  -30033   -29262   -29715   -29401   -26839   -21914   -17252   -16206 
  -19753   -26197   -32591   -36708   -38007   -36580   -33179   -29639 
  -27767   -28839   -32562   -36494   -38121   -35971   -30320   -23921 
  -19981   -20142   -23850   -28342   -30457   -29154   -26225   -24555 
  -26209   -30880   -35336   -37057   -37345   -38755   -41972   -45240 
  -45316   -40244   -32075   -26336   -27439   -34140   -40917   -42967 
  -39533   -35092   -35252   -39765   -44167   -46265   -46816   -47518 
  -48759   -48538   -45840   -42059   -39013   -39060   -43818   -51521 
  -58473   -61564   -59194   -52656   -45610   -40507   -37873   -38709 
  -43269   -49411   -54645   -56497   -53361   -47609   -43592   -43528 
  -46369   -48064   -45525   -39952   -34004   -29911   -29628   -32577 
  -35960   -37720   -37110   -35131   -34680   -37706   -43031   -48104 
  -51440   -52329   -49941   -44901   -40321   -38879   -40193   -42397 
  -43784   -42572   -38196   -32318   -26585   -21585   -18402   -17903 
  -19455   -22231   -25239   -26583   -25858   -25403   -27361   -31762 
  -37702   -44247   -50059   -53321   -53104   -50278   -46082   -41606 
  -38684   -38522   -40311   -42203   -42616   -41395   -40072   -40146 
  -41308   -42031   -41201   -38915   -36753   -36390   -37777   -39900 
  -41463   -41215   -39468   -37730   -37011   -37160   -36718   -34575 
  -32110   -31961   -35115   -40016   -44018   -45699   -45668   -45217 
  -44936   -44605   -43615   -41352   -38072   -35285   -34191   -35009 
  -37527   -40523   -42671   -44136   -45196   -45121   -42904   -38266 
  -32505   -27419   -24674   -26054   -30505   -33727   -33366   -30952 
  -29293   -29658   -30469   -30059   -29419   -30393   -33963   -39597 
  -44880   -47774   -47989   -45743   -42101   -39154   -37950   -38015 
  -38391   -38201   -37112   -35473   -34531   -35517   -38470   -43251 
  -48666   -51545   -50932   -49574   -50030   -52618   -55363   -55148 
  -50793   -44597   -40301   -39694   -41749   -44784   -47859   -50151 
  -51222   -51588   -51591   -51356   -51048   -49253   -44628   -39517 
  -37527   -39041   -42099   -44488   -44123   -41012   -37778   -36317 
  -36462   -37560   -38504   -37697   -34347   -28872   -23326   -20510 
  -20869   -22335   -22962   -22196   -20950   -20962   -23455   -27990 
  -32763   -36333   -38174   -37990   -35946   -32952   -30041   -28353 
  -29062   -31896   -35229   -37977   -39762   -40861   -42433   -45143 
  -47905   -48451   -46185   -43834   -43946   -45896   -47251   -45629 
  -40394   -33754   -29424   -30010   -34973   -42007   -49619   -56211 
  -59861   -60031   -57265   -53354   -51790   -54793   -60712   -66066 
  -68643   -68062   -65045   -61003   -58092   -57983   -59872   -61567 
  -61714   -59678   -55496   -50144   -44943   -41675   -41453   -42656 
  -42434   -39342   -33892   -28130   -24016   -22201   -22371   -23444 
  -24141   -23891   -22537   -20438   -19130   -19662   -21417   -23513 
  -24809   -24289   -22805   -21508   -20496   -20434   -21673   -22806 
  -22733   -21535   -19657   -18427   -19215   -22032   -26055   -30376 
  -34882   -39688   -43505   -44740   -43126   -40224   -38920   -40706 
  -45014   -50639   -55498   -57647   -56735   -53736   -50876   -50207 
  -52137   -55967   -59854   -61739   -61051   -58391   -55096   -53024 
  -54213   -59776   -67576   -73601   -75815   -74531   -71384   -68586 
  -67342   -66938   -65669   -63134   -60260   -57107   -53850   -51549 
  -49993   -48326   -46553   -44562   -41681   -37470   -32420   -27782 
  -24822   -24221   -25143   -25366   -23462   -19444   -13894    -9421 
   -9998   -16907   -27942   -38102   -41163   -35054   -24425   -16813 
  -16626   -22272   -28823   -31585   -28890   -23786   -20018   -18170 
  -18323   -20700   -24027   -28250   -34047   -38579   -38551   -35577 
  -34078   -36609   -42096   -45914   -43211   -33765   -22227   -14829 
  -15383   -21997   -29212   -33715   -36007   -37716   -39585   -41928 
  -45627   -51848   -60544   -69344   -74320   -72867   -66656   -60536 
  -58029   -59650   -64458   -69407   -69249   -62241   -53423   -49170 
  -51702   -59009   -66612   -69809   -67059   -61062   -54883   -49215 
  -44668   -42644   -42880   -43695   -44379   -43991   -39889   -31915 
  -24317   -20007   -18267   -18186   -19201   -20745   -23102   -25727 
  -26634   -25407   -24342   -25358   -26962   -26221   -22545   -17504 
  -13894   -14554   -18127   -20217   -20184   -20386   -21375   -22787 
  -24756   -27231   -30832   -37218   -46758   -56417   -61825   -62007 
  -59588   -57276   -56964   -58800   -59765   -57116   -51955   -46753 
  -42533   -39544   -37240   -34104   -30064   -27201   -26816   -27772 
  -27908   -26096   -23836   -25202   -33266   -46046   -57563   -62449 
  -59204   -50801   -42450   -38262   -39168   -42882   -46465   -48473 
  -48778   -48473   -48768   -48947   -47067   -42701   -38486   -38004 
  -42519   -50911   -59660   -63548   -60454   -53665   -48053   -45456 
  -44834   -45506   -46782   -47222   -46954   -46326   -44379   -41725 
  -39815   -38279   -36953   -36432   -35610   -33061   -28899   -23373 
  -17365   -13407   -13241   -16361   -21677   -27634   -30659   -27410 
  -19663   -13241   -11830   -15789   -23857   -31886   -35009   -32911 
  -29402   -28329   -31031   -35791   -40186   -43664   -47104   -51206 
  -54798   -55493   -53122   -49435   -45726   -43745   -45335   -50250 
  -56044   -59011   -56746   -50222   -42135   -36022   -35204   -38921 
  -42533   -42231   -38671   -36092   -36652   -38317   -38780   -37946 
  -37722   -39957   -43858   -46765   -46255   -41896   -36607   -33575 
  -32705   -32286   -31921   -32788   -35119   -37332   -38190   -36913 
  -33832   -31793   -32454   -34152   -35623   -36696   -36228   -33413 
  -28920   -24013   -20766   -21796   -28208   -37665   -45219   -47552 
  -44950   -39092   -32155   -26438   -22511   -19969   -19027   -19524 
  -20692   -22440   -25559   -30027   -33633   -33869   -30575   -26457 
  -25476   -29834   -38281   -47221   -53479   -55891   -54732   -51149 
  -46825   -43061   -40071   -37227   -33891   -30722   -30203   -33673 
  -38502   -40547   -38047   -32902   -29692   -32463   -41175   -51429 
  -57921   -58253   -54250   -50670   -51378   -55481   -58903   -58961 
  -55172   -48714   -42549   -39169   -39408   -43807   -51583   -59256 
  -62517   -59027   -50609   -42736   -39890   -42039   -45315   -45374 
  -41658   -37001   -33226   -31043   -31082   -31869   -31652   -31558 
  -32476   -33101   -33204   -32837   -30183   -25807   -23252   -23105 
  -23968   -26211   -28843   -29392   -28614   -29413   -32256   -34427 
  -33324   -29546   -25547   -22188   -18893   -15634   -12509   -10298 
  -11163   -15103   -18916   -20587   -21040   -22045   -24937   -29674 
  -34522   -38397   -41405   -43040   -42957   -41777   -41098   -43635 
  -49606   -54318   -53184   -46738   -39505   -36129   -38229   -43284 
  -47289   -49017   -49861   -50525   -50629   -49458   -45795   -40447 
  -37029   -36571   -35966   -32104   -23623   -12881    -5915    -6300 
  -13192   -23822   -34074   -40804   -43088   -40815   -36021   -32726 
  -33896   -40131   -48564   -54006   -53245   -46700   -36922   -26971 
  -20369   -20427   -27081   -36557   -43478   -43367   -37868   -33639 
  -34194   -38637   -44772   -49777   -52424   -54491   -57651   -60590 
  -60829   -58405   -55859   -55184   -55670   -53754   -46058   -33778 
  -22520   -17657   -20873   -29620   -38499   -43065   -42451   -37903 
  -32399   -30442   -33868   -39679   -43222   -42680   -40170   -38469 
  -38935   -41329   -43871   -45656   -47187   -47936   -46751   -43249 
  -37911   -33185   -32238   -34987   -38456   -39763   -36758   -29824 
  -23283   -21151   -23051   -26050   -27943   -28473   -28086   -26067 
  -22543   -20279   -22258   -30235   -43173   -55997   -63367   -62706 
  -55628   -48489   -46300   -48261   -50302   -47513   -38775   -29523 
  -25445   -28490   -37720   -48067   -53467   -52885   -49963   -49076 
  -51668   -55211   -56742   -55539   -52255   -47708   -42470   -38216 
  -37661   -40719   -45236   -50529   -54806   -55144   -51546   -45283 
  -37925   -33591   -35326   -41081   -47495   -53291   -56822   -55490 
  -49029   -40715   -35316   -34247   -33602   -30081   -24499   -19071 
  -16259   -17437   -21044   -24008   -24347   -23152   -23732   -27273 
  -31919   -37032   -42548   -44687   -40120   -30386   -18565    -9126 
   -6807   -10078   -14262   -18366   -22984   -29335   -38906   -49446 
  -56478   -57414   -52956   -47262   -44656   -46671   -51979   -56227 
  -56026   -53306   -50562   -47604   -45800   -47171   -50487   -53340 
  -54685   -54255   -52194   -49980   -49824   -51206   -51105   -49656 
  -50512   -54831   -59894   -63093   -62881   -58005   -51124   -47953 
  -49543   -53206   -57666   -61529   -63061   -62487   -62054   -63283 
  -63566   -59686   -53400   -48445   -45987   -44260   -40394   -34170 
  -27560   -21846   -18648   -17974   -16807   -14606   -14071   -16545 
  -20988   -24787   -26676   -29198   -35010   -43686   -52799   -58684 
  -57806   -50304   -41487   -37293   -39183   -45197   -51731   -54173 
  -50668   -43064   -34538   -29491   -30194   -32965   -33733   -33334 
  -33212   -32455   -31157   -31340   -34813   -42471   -52500   -59176 
  -57774   -49473   -39518   -33299   -32514   -33539   -31983   -27267 
  -23246   -24489   -29788   -33681   -33290   -30098   -28924   -33490 
  -40925   -45094   -44117   -40971   -40072   -44887   -54526   -62359 
  -61506   -51972   -40752   -34218   -33237   -36146   -41416   -48653 
  -58597   -68920   -73871   -70126   -59121   -45727   -36081   -34257 
  -39838   -47338   -49813   -45411   -38535   -35147   -37557   -42591 
  -46443   -48284   -47230   -43222   -39363   -37419   -36171   -35175 
  -34752   -33698   -30799   -27143   -25007   -25474   -26229   -22585 
  -13543    -3401     2505     -228   -11322   -23438   -30162   -30729 
  -26823   -22999   -24029   -29635   -37072   -43935   -48577   -51072 
  -51836   -51977   -53332   -55356   -56290   -56387   -57364   -59890 
  -61895   -60868   -57136   -52357   -47188   -41689   -35739   -29147 
  -22757   -19034   -19294   -20899   -20693   -19314   -18615   -18238 
  -17377   -16621   -16798   -18299   -21845   -28227   -36175   -41958 
  -43724   -43320   -42222   -41025   -41313   -43265   -44674   -44247 
  -42949   -41762   -41194   -42802   -47597   -53460   -56759   -55871 
  -51770   -46754   -43030   -40533   -37190   -32151   -27013   -24036 
  -24582   -29116   -35061   -35853   -28891   -19470   -13426   -14260 
  -22896   -34072   -41760   -46050   -48126   -48227   -49429   -53382 
  -57828   -62111   -67327   -72627   -76366   -78252   -77605   -72623 
  -64762   -58815   -56891   -57814   -59499   -59218   -55012   -46963 
  -38116   -33390   -34985   -40830   -47286   -51013   -49694   -44404 
  -40218   -40182   -41513   -40363   -36014   -30321   -25787   -22951 
  -19587   -14128    -8138    -3726    -1807    -3190    -7898   -15106 
  -23942   -32173   -36799   -36173   -31075   -25650   -24063   -25810 
  -27656   -26839   -21927   -14926   -10111    -9546   -12597   -16894 
  -19577   -21324   -25784   -33890   -42183   -46005   -43217   -35828 
  -29362   -29671   -37579   -47270   -51343   -47127   -38843   -33873 
  -36365   -44108   -51755   -56123   -56288   -52269   -47312   -46407 
  -49937   -54148   -57655   -60809   -62594   -63332   -63344   -58912 
  -46595   -29529   -16410   -14302   -21867   -30352   -30452   -18610 
    -954    10961    11494     3547    -7104   -13876   -12404    -5050 
    1831     3275    -2205   -12105   -22222   -29830   -34122   -35844 
  -36714   -38264   -41025   -44610   -48797   -53395   -57204   -59373 
  -60643   -61455   -61482   -61887   -63692   -64377   -61814   -58173 
  -55310   -52877   -51304   -51164   -52883   -56722   -60416   -61221 
  -59631   -57498   -55929   -56000   -57283   -56837   -52591   -44940 
  -34879   -24617   -18073   -17491   -22397   -31454   -41870   -49547 
  -51948   -49299   -43188   -36025   -31453   -31862   -35428   -38197 
  -38134   -35281   -30040   -23781   -19035   -17698   -20357   -26041 
  -31574   -33085   -29160   -23233   -21744   -26094   -29015   -24544 
  -16145    -9942    -8261   -11794   -19136   -24840   -24392   -19351 
  -14422   -12301   -12798   -14542   -17220   -21813   -28248   -34737 
  -38985   -40116   -40705   -43831   -49294   -55261   -58612   -55740 
  -47146   -37318   -31729   -32600   -35381   -36516   -38795   -43227 
  -47104   -49348   -50105   -49170   -47026   -45641   -46949   -50637 
  -55484   -60856   -64306   -61906   -54212   -47147   -45256   -48536 
  -54001   -57300   -56169   -53185   -53605   -60332   -70052   -76171 
  -76163   -72147   -67319   -65326   -67083   -68273   -64708   -57046 
  -48882   -42977   -39628   -37433   -35044   -32310   -30081   -29693 
  -31374   -33181   -33214   -30065   -22741   -13896    -7437    -4184 
   -6027   -14753   -24913   -29425   -27458   -22304   -19376   -24341 
  -37028   -49203   -52325   -46750   -39803   -36956   -39540   -45769 
  -49235   -45007   -37502   -34349   -38397   -47261   -54281   -53843 
  -46904   -37624   -28141   -19335   -13160   -11109   -12170   -13932 
  -13691    -9824    -4473    -2218    -5764   -14443   -24146   -28751 
  -26164   -21445   -20441   -23338   -25740   -24196   -20067   -17311 
  -18335   -23208   -29948   -34979   -35830   -33191   -30071   -29916 
  -33807   -39270   -42735   -42498   -39689   -36921   -36713   -40580 
  -47520   -53701   -56044   -55837   -55493   -55058   -55339   -56575 
  -55329   -50482   -45567   -44675   -50070   -58200   -62354   -61192 
  -57359   -53090   -50387   -49432   -47398   -41819   -34352   -28807 
  -26906   -28361   -30947   -30209   -24574   -18104   -15205   -17004 
  -22260   -27890   -30542   -29394   -26340   -24203   -25592   -30727 
  -35873   -37898   -38676   -41825   -48324   -56097   -62471   -66019 
  -65354   -60105   -52915   -47060   -44918   -48068   -55227   -61851 
  -62851   -56331   -46095   -38691   -37459   -40958   -45199   -46508 
  -44704   -42867   -42785   -42942   -41748   -39939   -39375   -41307 
  -44508   -45148   -40756   -32971   -25286   -20711   -21757   -28543 
  -36523   -39749   -35923   -26623   -15726    -7368    -2373      645 
    1952     1943     1618     1287     1464     2127     1248    -2737 
   -8900   -15090   -19251   -20368   -18794   -15518   -11636    -9150 
  -11913   -22158   -36081   -46238   -47255   -40629   -34355   -34610 
  -42414   -56029   -69053   -74824   -73951   -69660   -64106   -61093 
  -62671   -66552   -69728   -69603   -64514   -55791   -47039   -42533 
  -44415   -50591   -58041   -64495   -67793   -68195   -67509   -66408 
  -65637   -66267   -67912   -68775   -67247   -62867   -56073   -47817 
  -39127   -30637   -22656   -14895    -7503    -3014    -3704    -8122 
  -13192   -16578   -16614   -14147   -13657   -18351   -25334   -28999 
  -27643   -25053   -25595   -28907   -31721   -32520   -32407   -33902 
  -38479   -43855   -45593   -42116   -36161   -32116   -32806   -36746 
  -39763   -39957   -38450   -37499   -39612   -45271   -52355   -58530 
  -62230   -63768   -64618   -63609   -59162   -53314   -48126   -43524 
  -39351   -34272   -26242   -16015    -6839    -1552     -382    -1457 
   -3594    -6655   -10275   -13247   -13775   -11440    -8244    -7869 
  -12562   -19678   -25147   -28109   -29433   -30627   -33236   -36208 
  -37344   -36880   -36870   -38799   -42285   -45473   -47158   -48212 
  -50783   -56633   -65464   -72619   -71665   -62137   -49851   -41743 
  -42310   -49076   -55196   -57788   -58401   -59888   -63125   -64521 
  -61288   -55707   -51532   -51657   -56752   -62549   -62772   -55707 
  -45006   -35588   -31320   -33711   -40204   -46675   -51413   -53205 
  -49142   -38473   -25430   -16608   -16419   -23742   -33587   -41145 
  -42698   -37450   -30193   -27368   -30288   -35626   -40507   -42481 
  -38564   -29103   -17759    -7918    -2607    -3060    -7274   -13127 
  -18965   -23044   -26446   -30896   -34316   -34645   -33425   -32901 
  -34480   -39317   -46849   -53816   -56692   -54738   -49588   -42629 
  -35206   -30561   -31068   -34060   -35063   -32632   -27198   -20903 
  -18028   -19845   -22936   -23928   -21386   -16032   -10790    -7952 
   -8068   -11027   -15579   -20142   -24248   -27421   -29243   -30254 
  -30914   -31629   -33303   -36244   -39380   -40855   -39770   -37331 
  -36299   -39419   -46297   -52507   -54272   -51597   -46446   -41866 
  -41498   -46086   -52016   -54859   -52155   -44759   -38047   -36759 
  -38983   -40649   -41123   -41156   -41205   -42029   -43817   -46652 
  -51359   -57155   -61410   -63140   -63263   -62885   -63252   -64859 
  -67152   -70077   -73581   -75940   -75338   -72170   -68319   -65564 
  -64481   -63109   -58379   -50732   -44271   -41540   -41661   -42211 
  -40466   -35225   -28576   -24171   -23729   -26148   -29024   -30385 
  -30304   -30316   -30892   -32117   -34346   -35790   -34458   -31217 
  -27224   -23111   -20693   -20652   -20500   -17639   -12651    -8409 
   -7581   -10956   -16529   -20847   -22044   -20808   -18725   -16740 
  -14939   -12714    -9701    -6985    -6104    -7636   -11488   -16696 
  -21515   -25520   -29622   -33422   -35934   -38019   -41107   -45765 
