Origin Time       2011/03/11 14:46:00
Lat.              38.103
Long.             142.860
Depth. (km)       24
Mag.              9.0
Station Code      GNM008
Station Lat.      36.3479
Station Long.     139.1368
Station Height(m) 77
Record Time       2011/03/11 14:47:31
Sampling Freq(Hz) 100Hz
Duration Time(s)  300
Dir.              N-S
Scale Factor      3920(gal)/6182761
Max. Acc. (gal)   120.303
Last Correction   2011/03/11 14:47:16
Memo.             
[...]
   29435    23564    12318     4164     6817    16273    20974    13909 
    3035     -115      842       53     3850    12858    16184    11329 
    6993     7661     9939    12651    17224    19315    18355    23637 
   34067    38141    37932    43540    51822    52195    44566    38134 
   37127    35725    27410    15931     9216     6327     5082    11060 
   22769    27188    20831    15294    17492    21194    23605    31223 
   39917    35479    20319    11046    10941    10447     8825    11563 
   14056     8833    -1388   -10172   -12992    -8623    -5021    -7665 
   -9432    -9792   -16420   -24357   -25039   -22275   -21115   -19905 
  -17887   -17358   -18015   -17632   -18818   -25328   -32566   -32728 
  -26820   -23864   -26286   -23056   -10222    -1733    -3199    -3627 
    1544     7244    10787    12265    12324    11518     8015     2183 
    1299     8136    15228    20643    28906    34418    30107    25204 
   30291    38616    41566    43309    46016    43341    36677    36244 
   41827    41639    33455    27849    29608    34356    40610    50862 
   63056    69816    68020    63244    61897    64827    67946    65383 
   55622    42837    31396    24906    24955    25183    18009     8215 
    3085    -1570    -6541    -3172     5882     9588    10128    13658 
   15315    13453    13468    15230    19156    25946    28576    25116 
   21186    17856    14294    13416    18647    26624    30029    31164 
   35582    38331    35529    31473    27394    22355    19929    21916 
   24102    23957    21874    14104      946    -4818     3443    15554 
   21369    18002     9237     4312     1780    -6615   -14560   -14121 
  -11071    -8945    -5832    -5585    -9512   -11695   -11594   -11962 
   -9937    -6352    -9247   -18333   -22215   -17535   -14256   -15497 
  -13891   -10593   -12073   -15285   -14018    -6710     3567    10040 
   11386    13188    15919    18393    25612    36453    42013    42223 
   42198    39659    33752    29950    27208    20993    16280    17069 
   17705    15259    11384     6208     1660      167      697      560 
   -3052    -9713   -13420    -8247     3785    12885    13868    12953 
   15923    20506    23413    26838    35339    44968    46674    42923 
   42536    44069    41629    39430    43330    44796    36444    28102 
   23872    14255     2994     2780     8239     8832    10241    14554 
    9352    -4724   -11563    -9082    -7988    -9760    -8198    -2043 
    3612     6147     9742    15434    19274    22431    28300    35282 
   38495    34551    26760    22161    22043    22418    22714    24965 
   26041    22496    16989    10922     3630    -2196    -6423   -12807 
  -21251   -28304   -30464   -26606   -22270   -21971   -20163   -11937 
   -2074     3402     5076     6883     8734     8399     8283     9278 
    6720      417    -4788    -5654      106    11359    22017    28078 
   30661    32510    34854    37085    38491    37124    31406    25857 
   25690    27167    23052    14291     8581     9534    13964    17644 
   18634    17110    13531     8629     6451    10851    18284    20922 
   16374    11227    11729    14421    14951    15023    14321    12173 
   11370    11180    11896    15551    13920     3765    -1043     3922 
    8521     8003     2382    -4419    -5266    -1521     1331     3115 
    5078     6422     4474     -235    -1663     2181     8347    15235 
   19573    21179    26437    32091    27565    18869    20092    28290 
   32885    34132    36429    37954    35112    31173    33182    41261 
   49045    50076    41225    28479    21440    19496    16399     9913 
    1605    -4594    -9556   -17112   -22105   -21426   -22331   -25164 
  -24294   -21913   -21396   -22462   -25664   -29337   -29310   -25864 
  -22600   -17830    -6285    11120    28420    41124    46895    47524 
   47069    44073    36337    28371    24273    21760    16337     8463 
    2802     -669    -3948    -3422     1679     5267     6371     7923 
    7842     6646     8193     8138     1056    -6753    -5654     4504 
   15407    17742     9314     -700    -1189     6757    13443    16173 
   17946    15638     6903     -432      313     6366    13141    18673 
   21344    20400    18523    19191    20707    19821    19428    23193 
   26535    22493    13912     9204     9863    14549    24989    37243 
   43321    43923    44082    44438    45776    49215    51248    48507 
   43855    40431    34816    25675    18943    15753    12534    10915 
   10724     7005     -329    -7215   -11839   -14436   -14418   -12868 
  -15524   -23234   -27649   -25347   -20703   -15608   -10939    -8731 
   -7273    -3265     2024     5042     8459    18005    30039    36345 
   37327    38830    43247    46817    44407    39938    41423    45983 
   47265    47347    47360    42932    35773    35135    43022    50680 
   54118    55960    55128    53336    55841    58645    55846    51078 
   49118    47191    38060    22574    13268    16128    22272    22016 
   14625     6765     3761     3332     2418      157    -5979   -14460 
  -19402   -20661   -21089   -20223   -20025   -22923   -23432   -17925 
  -12793   -10768    -7445    -4077    -3832    -2890      380     1766 
    2344     7043    13443    16696    18789    22253    25804    28631 
   29256    27417    28696    35267    39715    39185    40528    45001 
   47336    47662    45378    34274    17882     9601    11272    11549 
    3320   -11358   -26246   -33289   -29625   -22648   -18321   -13394 
   -6666    -3465    -5785    -8203    -3077    10811    23931    27258 
   23909    20792    19255    18740    18652    18153    18643    21597 
   25490    28777    32023    35326    36705    34272    30819    32682 
   40474    46978    45924    38104    29553    25470    25220    23843 
   21031    22379    26014    23511    17107    15596    17410    15396 
   10685    10394    17243    25345    26018    20440    19005    25199 
   33049    38893    43016    45014    46027    47911    49264    49944 
   52364    55851    58312    59019    57243    54579    55353    60924 
   66832    67221    61219    52528    45279    42984    44068    42077 
   38684    40469    42205    37104    31188    29782    30457    32170 
   33098    27916    17119     6686    -2270    -9902   -11494    -7057 
   -3374    -1464     2320     5740     4255    -1463    -6095    -3644 
    3307     3621    -4287   -12543   -21040   -30800   -34498   -28009 
  -15459    -4252    -1029    -5585   -10980   -12548   -13022   -16747 
  -22831   -27516   -28281   -23951   -16441   -11471   -11672   -11276 
   -5461      442     2444     7033    15972    19477    13965     7950 
    7306     9449    11708    14920    16923    14360    14115    23706 
   34742    38910    42389    48927    52516    49403    42781    38748 
   38199    36198    34156    38378    44332    41772    34718    35449 
   41258    41116    37486    36498    33410    26379    21757    18695 
   10163    -1904    -9089   -10889   -14837   -24100   -32475   -32473 
  -25756   -21456   -22695   -23564   -21135   -17699   -13830   -10457 
  -11178   -16511   -20280   -17282   -11695    -8463    -5886    -4163 
   -5333    -6552    -5611    -4258    -2583     1470     6805     7997 
    3538      124     1480     3219     2185      471     1585     3519 
    -572    -7520    -6043     2599     7158     7029    11666    19842 
   18191     5312    -4737    -5726    -4164    -3829    -2433      782 
    2823     -132    -5863    -5377     2720     9797    14717    23661 
   32538    32357    29232    33455    38014    36150    37842    46567 
   50178    43185    33393    28514    29552    34800    42314    47005 
   43640    34684    28588    30996    39254    46805    52007    54404 
   50773    44095    40652    39327    38204    38928    39240    36491 
   33777    33983    35207    34046    30843    27843    23778    19945 
   21679    24757    19502    10350     9575    15295    16581    13957 
   13789    12694     7687     4639     3798      161    -2750    -1250 
   -1231    -6613   -11519   -11205   -10789   -15139   -20231   -21101 
  -18457   -15877   -14635   -12754   -12057   -17329   -22508   -16777 
   -6764    -5491    -7048    -1313     4924     6180    12407    26209 
   33801    30916    28290    29078    27920    24946    23865    24792 
   23062    15733     9257     9710    10739     6074     1596      236 
   -5066   -12464   -13981   -14037   -16627   -15695   -12766   -15763 
  -22009   -22078   -12907     -698     7150    12827    22186    31714 
   35161    35954    42762    56145    66746    68742    65947    61675 
   55804    51930    52748    52956    48098    41801    37120    31685 
   24405    17098    11900     9989     9804    11020    16279    22335 
   20796    13690    12730    18244    17826     8881     2062     1688 
    1057    -4018   -10182   -11936    -5606     4640     6887      402 
    -971     5755    11344    14851    18580    19038    15445     9397 
    1804    -1601     2496     6602     5962     7744    14957    17528 
   11367     6565     7740    10309    14706    20725    22223    21242 
   24263    26166    21834    19428    24672    31291    34385    35210 
   35250    34457    29088    17540     9115    10608    13935    13494 
   15813    21890    24490    22825    21047    20629    21646    24258 
   28500    34147    40250    45549    50464    56902    62955    63787 
   61263    60822    58478    47953    36215    32686    31089    20857 
    6924     -267    -2107    -3414    -4269    -6752   -12835   -20692 
  -29611   -38082   -41147   -39039   -39679   -44891   -47646   -47443 
  -48765   -49083   -47462   -49859   -56293   -61373   -64722   -65802 
  -61493   -57040   -59673   -63249   -60474   -57477   -59014   -55977 
  -40390   -19878    -4552     8024    21841    34033    43866    53137 
   61633    68934    73938    76685    80503    85467    85642    76896 
   62712    49289    38185    29396    25143    22125    12362    -2777 
  -15537   -24798   -34594   -47430   -59670   -66663   -74375   -88905 
 -102531  -106177  -101160   -94603   -89813   -81913   -68552   -55468 
  -44841   -34325   -23804   -11037     5681    20247    27796    32096 
   37419    42621    47361    56549    71976    88611   101405   106780 
  104187    99666    99209   100817   100322    99803   101230    99983 
   93099    84673    79300    77942    80146    81975    76893    66941 
   59925    53926    43445    33803    31570    33123    34315    36835 
   41310    46074    49982    52249    53504    54273    53485    51805 
   49491    45153    43052    47841    53905    55581    56815    60852 
   64015    63654    62439    62929    62848    57846    48691    41127 
   34378    21090     2661   -12999   -25551   -37645   -46541   -49842 
  -51004   -54182   -55687   -48156   -33843   -20264    -6850     8353 
   19587    22506    21681    23993    30758    38831    45272    49495 
   53479    57979    62053    67566    75502    82678    87000    88796 
   88016    83448    74589    63496    52778    43828    37097    32106 
   27692    21196    11397     3673     2004      759    -3320    -4218 
     415     4897     6440     9636    17645    25334    28846    34399 
   46223    57657    62024    61278    62809    68814    72502    73694 
   79615    84226    77691    66936    59536    49363    31643    12582 
    -905   -11349   -24123   -37291   -45826   -48896   -49137   -47558 
  -43560   -38940   -35604   -34185   -33551   -31646   -32252   -35873 
  -32449   -20869    -8886     4743    19994    29225    33094    41287 
   57825    75125    84320    85085    78898    64565    44356    23692 
    7581    -1457    -8262   -19851   -33304   -40186   -39545   -38263 
  -41088   -43899   -40426   -31824   -20494    -4093    14350    25051 
   26647    29652    41959    59305    71909    76353    78871    85221 
   92098    95879   100343   110177   125126   138904   143467   136798 
  121264    99707    76406    52351    25000    -1575   -20302   -35426 
  -55076   -73755   -82635   -84763   -82677   -73158   -60156   -49386 
  -39185   -30964   -28426   -25598   -19196   -18844   -25209   -23230 
   -7745     9167    19031    28010    43753    63485    81855    98941 
  116584   134702   149629   155509   151192   141289   128657   114787 
  105948   104809   101608    89379    77018    73690    73057    66063 
   58743    57530    49438    25710     1341   -16164   -40397   -73955 
 -102105  -119980  -134721  -147292  -153606  -152708  -144225  -129967 
 -118552  -114418  -102968   -69578   -28994    -1925    16989    33928 
   39153    36491    40287    45756    44433    44354    52583    62692 
   66403    67804    78022    98018   118152   130033   130398   118764 
   98136    75818    58494    49551    49392    52326    51808    49602 
   49471    51772    58723    68792    71706    64184    55442    49349 
   41130    30258    20041     8934    -8356   -32222   -55895   -72672 
  -83575   -95104  -107461  -115181  -119862  -123863  -118270   -99061 
  -79668   -66626   -48031   -18736    12576    37367    50795    56266 
   62947    72773    83812    96799   109842   117206   113857   100163 
   82343    67374    57246    46372    29397     8330   -12524   -30069 
  -44117   -59534   -79388   -98999  -111249  -113796  -111721  -114144 
 -122939  -129641  -130755  -130639  -123840  -100442   -67631   -39250 
  -17556     -989    13122    31948    55936    79970   104545   129675 
  151489   168495   181377   191161   198337   202943   205071   202631 
  194156   183061   171593   155524   129690    93635    53069    18813 
   -2254   -15313   -27509   -37171   -43539   -49635   -53234   -55172 
  -59642   -56695   -35230    -6384    15287    34008    55046    69970 
   73631    72808    69846    58771    44089    40216    46386    48344 
   44404    42736    42637    40243    37385    35629    34225    31484 
   24274    12909     2017    -7551   -16711   -23516   -30226   -39894 
  -49764   -58018   -64529   -71132   -82490   -95053  -101683  -106682 
 -114069  -116318  -108038   -90506   -64569   -36441   -16357    -1372 
   18504    37470    44859    50593    70416    97947   117724   129170 
  137240   137859   127412   113852   105911    98795    83773    63087 
   42131    20513      503   -11297   -12715    -5111     9255    23990 
   33496    38732    39594    34975    34076    46421    65298    78988 
   84868    83434    72076    51644    31361    17033     5195    -4836 
  -13526   -27461   -45329   -58748   -69049   -81898   -95078  -104311 
 -110363  -112843  -107440   -98917   -98071   -98411   -87518   -73221 
  -63463   -49789   -34257   -32827   -47130   -64460   -77507   -86741 
  -91937   -92988   -95438  -104227  -115481  -123417  -125949  -118716 
 -100133   -79193   -61097   -39030   -12527     6735    15783    25609 
   42342    61012    76874    89643    96996    96649    94047    94055 
   92560    86537    80404    76257    68606    54517    37510    19710 
    3611    -6094   -11263   -16909   -20026   -16508   -11597    -9924 
   -7147    -2613    -3796   -10269   -11314    -5141     -620     2096 
    8050    12302    11337    11951    16396    17541    12099     4377 
   -3152   -11866   -21260   -29805   -39737   -54602   -72654   -88271 
  -97363   -98167   -92907   -87149   -80231   -63943   -40381   -25275 
  -20341    -8705    14103    37893    59953    81433    97745   106074 
  109408   110571   109710   108325   110299   116346   121732   123748 
  126892   135443   146676   154256   153554   144645   130232   110644 
   86389    61644    40973    26676    15831     1198   -17511   -31401 
  -36751   -41014   -50202   -60875   -69179   -73289   -71059   -69460 
  -75132   -77434   -70163   -63742   -60648   -57912   -58126   -55216 
  -44406   -31058   -13252     7579    17673    16990    20622    31300 
   39943    43236    42613    40089    33971    18425    -2497   -18646 
  -27439   -29893   -29749   -31579   -33814   -34848   -32356   -18076 
    6329    27741    43404    57448    67618    72766    76020    79322 
   82917    85605    85605    82640    78826    76069    72280    65412 
   59109    55309    46918    30098    12798     1136    -6212   -10508 
  -13215   -14691   -12867   -11728   -19378   -33909   -43554   -41420 
  -33044   -29742   -35637   -43768   -49659   -57320   -63886   -61370 
  -55165   -51812   -43162   -25551    -7652     7899    23457    35037 
   40919    46976    56816    69784    85129    99297   105824   103585 
   98639    95753    96524   102317   109304   107944    95125    79549 
   70502    67975    65248    55342    34931     6286   -22416   -41756 
  -47818   -43280   -34586   -25360   -13406    -2090      751     2146 
   15197    34912    49532    60566    71302    76331    73730    66744 
   57566    52987    58270    65594    66711    65057    64495    60627 
   51905    45379    42220    38204    39808    51684    62104    62553 
   58993    56173    50768    43672    42908    47696    48800    44484 
   35938    21567     5445    -6963   -15836   -21590   -25679   -35119 
  -53612   -72942   -81941   -77884   -63085   -39321   -13495     2418 
    3787    -4342   -14186   -17440    -9085    10250    39191    74311 
  105641   123853   129735   132483   138916   148941   161896   176157 
  184337   178414   155156   116544    73741    45348    42285    59796 
   81561    88021    75365    58793    46603    34407    23987    22091 
   25792    25844    19027     7922    -4606   -16978   -29004   -39926 
  -48090   -53065   -57066   -64141   -71365   -68036   -54577   -42253 
  -30107   -10133    12635    29855    44777    63460    85293   105037 
  117939   125324   131864   137303   136992   128398   112483    88198 
   54300    18547    -7922   -23051   -31542   -36883   -39710   -41648 
  -49126   -64816   -77824   -77448   -66944   -50974   -27250      688 
   21199    30194    34803    41539    49562    54937    58229    61634 
   60307    49571    35791    28313    28213    32595    42573    57196 
   68406    72614    73039    70647    67392    67119    68676    68814 
   67713    67237    67439    66685    63746    58587    53749    53720 
   59259    65889    70532    73318    70897    57847    35752    11853 
   -7229   -17247   -20019   -22499   -26600   -26941   -21188   -13311 
   -5640     2262    10105    18886    27500    30210    27542    26222 
   26187    23564    17061     5538    -9187   -23373   -37148   -50335 
  -58523   -58777   -54456   -51025   -48669   -43255   -32874   -17594 
    3902    30454    55386    72603    82250    88496    93528    96177 
   96097    94604    92915    91708    90125    86513    79684    69283 
   57998    50262    46697    44733    42377    38488    34803    33773 
   33110    33612    42778    58835    70800    77629    85005    91351 
   93827    95611    99285   103054   104542   103305   100622    96577 
   90312    83613    77897    72875    68966    64003    54147    38059 
   15431   -10281   -31580   -47371   -60973   -69738   -73135   -78622 
  -88821   -98629  -104953  -108311  -111093  -114821  -115219  -108310 
  -97243   -85332   -72754   -60332   -48325   -36323   -25081   -15586 
   -7832      183     9457    19080    31734    49800    68921    84739 
   97096   105533   110028   114383   121919   129273   132168   133870 
