Origin Time       2011/03/11 14:46:00
Lat.              38.103
Long.             142.860
Depth. (km)       24
Mag.              9.0
Station Code      GNM012
Station Lat.      36.3118
Station Long.     139.1955
Station Height(m) 59
Record Time       2011/03/11 14:48:22
Sampling Freq(Hz) 100Hz
Duration Time(s)  144
Dir.              U-D
Scale Factor      3920(gal)/6182761
Max. Acc. (gal)   82.198
Last Correction   2011/03/11 14:48:07
Memo.             
[...]
  -30731   -12925    -6687    -7378   -10908   -18253   -29162   -36201 
  -34862   -32741   -33070   -27407   -11758    10096    31525    40450 
   22583   -20159   -58455   -61788   -30938     7102    23064     5962 
  -25959   -42523   -33642   -16549   -14585   -30579   -42141   -28192 
    4746    28379    22902    -4975   -31823   -36241   -16207     6788 
    7884   -18547   -54748   -73018   -59767   -33970   -28491   -44509 
  -53605   -46611   -41873   -49689   -61417   -65639   -51793   -16598 
   21976    38322    20078   -25936   -72992   -92340   -73519   -25257 
   26392    54130    56188    47075    29502      428   -29592   -44911 
  -45353   -45929   -53289   -54333   -38854   -17689    -7844   -10880 
  -14855   -11715    -3223     3486     3197    -3173   -16708   -34915 
  -37023    -8978    28300    47283    44342    26209      785   -19881 
  -30893   -38378   -49078   -59722   -54191   -24959     1841    -7499 
  -39420   -50576   -31382      161    24606    17909   -19281   -53958 
  -66179   -57594   -39007   -31184   -37988   -34526    -6856    29883 
   52488    44553     8453   -31023   -51832   -55413   -53613   -49267 
  -39541   -27320   -17899   -10587      -61    14189    23909    21602 
    7882   -10427   -24696   -30892   -31356   -30082   -29166   -29451 
  -31951   -37217   -48462   -69981   -92939   -96557   -72519   -37377 
  -16569   -20351   -36763   -45496   -39513   -28111   -14068     7820 
   25991    23727     7868    -7714   -25900   -49082   -61330   -46161 
  -10746    16612    11502   -21858   -50769   -45814   -13604     8290 
   -5441   -36745   -50994   -42406   -29621   -25802   -37130   -64579 
  -88567   -80633   -43138   -10832   -10809   -42359   -79833   -85078 
  -43981    15455    54527    53009    14140   -37518   -70804   -70861 
  -50700   -34653   -30258   -30925   -29788   -19515    -2523     5969 
   -3442   -23979   -36346   -28634   -13104    -5919    -9084   -20808 
  -35148   -41188   -39434   -37519   -31841   -14950     5882    10257 
  -13116   -48760   -66133   -49636   -15095     4998    -5851   -36567 
  -63245   -63896   -33550     7029    28908    22711     4869    -5157 
   -4609    -1983    -8425   -29003   -51855   -58867   -47314   -28044 
   -9739      707       65      263    13439    32250    41186    33836 
   12209   -18854   -44968   -51902   -51842   -63363   -73740   -59038 
  -25060      -32     1282   -14611   -33940   -45540   -47330   -40427 
  -25432   -15264   -26043   -46445   -48680   -30807   -12913    -4935 
   -7500   -18300   -26159   -23926   -17773   -10050     3777    18577 
   19842     -999   -34852   -62468   -74279   -70346   -51361   -23193 
    -893     2209    -9338   -19495   -20852   -18068   -21088   -36012 
  -54815   -59121   -40094    -7297    24454    40220    26097   -12302 
  -47649   -56630   -39241   -15490    -6883   -17997   -32457   -33853 
  -23331    -8818     -797   -10549   -34988   -59998   -70323   -56278 
  -27240    -2637     9157     7731    -8251   -33889   -52827   -49527 
  -27785   -10284    -9997   -15617   -14804    -9920    -8274    -7461 
    6309    33326    51701    49820    39341    30283    14243   -15345 
  -39258   -38028   -23283   -17961   -23280   -19811    -3983    -2455 
  -30485   -66654   -78794   -55765   -20695    -6897   -17669   -32943 
  -40575   -37873   -25449    -9329     4764    14393    18888    20146 
   17712    10613     5711    11928    28081    34118     6528   -44127 
  -80780   -82266   -56555   -31509   -28365   -40699   -51753   -48705 
  -25304       97    -6771   -50895   -93801   -92815   -46023    10567 
   40416    27766   -10205   -29206    -7233    26003    29714     6287 
   -9387    -4902     1966     -541    -8396   -15714   -14955     3714 
   31356    36000     5115   -28595   -30395    -5214    23976    39557 
   28751    -1734   -25944   -28124   -17070    -8975    -6403    -9967 
  -24584   -37031   -30844   -16814   -13476   -18970   -21741   -22368 
  -29192   -45275   -64282   -65184   -33156     4875     6764   -23571 
  -43401   -31173    -3198    16754    13419   -20316   -67795   -85062 
  -50410    -1022    14646    -7698   -43121   -74542   -96118  -102087 
  -89274   -57314   -11014    27120    33441     9055   -21822   -26677 
    -851    22423    25587    21091     9016   -15030   -28817   -15370 
    1786    -8182   -36081   -43554   -17285    15454    27532    14328 
  -19067   -59950   -82069   -66804   -30151    -5971   -10324   -30084 
  -36199   -18388    -3878   -21047   -56159   -69319   -44980    -6921 
   10695    -2864   -26877   -37185   -32009   -20898   -12674   -17658 
  -34740   -48949   -54915   -56642   -53296   -44948   -33249   -23979 
  -32503   -54895   -59124   -34716    -6352    11143    25090    36392 
   34704    17565    -9171   -41643   -71267   -83551   -72923   -44160 
  -10215     6244    -6109   -30262   -41173   -32323   -21133   -29301 
  -48741   -48211   -20027    15221    37503    34453     4295   -37795 
  -64297   -54114   -18255     6642    -2283   -34743   -62842   -68960 
  -55399   -29410    -1298    11794     6526    -1751    -4425   -10760 
  -30234   -47811   -35617     3306    33448    31483     8505    -9436 
  -12820   -14255   -21800   -28551   -31436   -29519   -13441    14508 
   31084    20163    -6552   -26114   -28370   -13597    10289    25486 
   21331     1776   -21028   -31339   -24457    -5809    20555    39209 
   26422   -15671   -53989   -59418   -32746     -149    10010    -7354 
  -32859   -47172   -43992   -27784   -13391   -13935   -23155   -21868 
   -8171    -8819   -35680   -55736   -42959   -16335    -1734    -8931 
  -40602   -76087   -74287   -27876    17572    15833   -32923   -86358 
  -97474   -57212    -4837     7383   -34989   -89569  -103869   -70907 
  -22115     4433    -8928   -39028   -45046   -13973    23341    22334 
  -21362   -67525   -81117   -58950   -19918    10206    17291     8207 
   -6412   -24060   -41079   -53709   -63857   -73171   -78758   -72477 
  -46219    -7360    23237    35205    28153      -87   -34245   -45327 
  -32645   -20485   -18068   -18297   -20899   -29315   -34336   -24215 
   -6959    -1076    -6064    -5268      505    -7747   -28362   -37641 
  -34512   -37336   -38108   -16510    17711    35618    21414   -11055 
  -28865   -14929    18949    51186    66658    55964    18135   -27659 
  -57564   -66223   -54703   -24144     7835    15151    -8136   -44261 
  -70394   -70249   -46599   -26382   -32300   -54532   -62748   -42833 
  -14787   -10579   -40467   -81575   -95527   -64308   -12429    11674 
  -16573   -66710   -85730   -63680   -34094   -20079   -19954   -23255 
  -23284   -24267   -28536   -33173   -37430   -34748   -21177    -6226 
    1448    -2510   -22140   -50010   -66542   -61482   -44705   -28348 
  -14814    -8286   -15018   -31925   -48242   -51432   -41788   -40260 
  -57176   -74063   -69544   -42010   -12703    -4834   -16442   -29656 
  -31504   -16883     5627    14697    -1460   -36048   -72985   -85605 
  -53605     2481    41373    43708     8345   -48788   -86813   -78387 
  -39581     1379    29489    35349    21721     5448    -9244   -30252 
  -51801   -61223   -55131   -36818   -18903   -18509   -31374   -31470 
  -10501     5661    -3876   -24645   -33915   -25832    -3160    21521 
   29703    20820    11556    10315    10722    10901    15473    13869 
   -9092   -41215   -52162   -28555    13849    46609    48194    13857 
  -33487   -55027   -38317    -6480     9983    -7930   -50435   -82673 
  -83873   -60655   -32117   -18560   -22741   -28166   -21280    -3741 
    7244    -1549   -17725   -22877   -14397     2684    15451     7230 
  -17957   -36628   -34452   -20386   -11551   -14211   -28622   -50110 
  -56899   -30425     7274     9194   -33614   -74038   -68225   -22868 
   25346    45141    28047    -7069   -35937   -49393   -47415   -37308 
  -30390   -25852   -13484     5031    12441     -578   -16915   -12827 
    2704    -3008   -30450   -48954   -49125   -38711   -16561    10451 
   24300    15932   -12697   -47566   -67236   -64033   -44342   -16266 
    8367    17744    10725     -937      191    19580    37823    27268 
  -10971   -40611   -29918    13295    46438    30301   -30943   -93143 
 -116574   -97616   -61582   -36203   -28713   -24658   -10071    15292 
   37515    26676   -30880   -95937  -114124   -72746    -5943    30742 
    8245   -42531   -67134   -44246     2097    28264    13966   -22194 
  -51711   -57851   -39440   -11791     4849     -894   -22575   -35864 
  -22107     5010    14932      850   -19553   -30770   -27337   -12542 
    7831    29344    38436    22136    -8739   -32759   -42816   -41689 
  -32793   -21477   -12253    -8576   -13585   -19190    -8217    15291 
   20924    -2007   -23046   -16342      873    -3195   -30146   -57702 
  -72033   -72274   -59968   -42296   -31335   -29525   -28372   -21854 
  -11270      645    11651    13423    -2216   -25307   -35165   -21106 
   16918    67183    97911    75481     4799   -60710   -66318   -10987 
   53734    72954    34352   -24274   -53398   -40510   -16112   -14115 
  -34647   -51573   -48537   -31531   -12888     -441      970    -8264 
  -18190   -15464     6395    37694    53644    40114     9179   -19905 
  -35739   -31337    -8690    10494     3417   -22004   -43367   -57235 
  -69810   -80047   -81720   -68022   -39382    -5820    18470    20286 
      85   -26461   -49216   -65571   -65178   -40883    -3343    26608 
   25167   -16044   -68579   -89785   -63221   -10286    26899    22272 
   -9693   -33018   -27625    -6110     1981   -17030   -48487   -66561 
  -55768   -21859    11869    21365     1820   -27887   -43118   -34064 
  -13879    -6346   -21463   -50295   -77085   -85919   -69468   -39668 
  -18288   -18077   -35086   -50468   -47481   -27340    -4439     2845 
  -10946   -27043   -29225   -23028   -17835   -22653   -44924   -67358 
  -61670   -32563   -10569   -10880   -29412   -59222   -85308   -87827 
  -65149   -34738   -15000   -16509   -34974   -47036   -34232   -11339 
   -8449   -32980   -64401   -75354   -55597   -24914   -15416   -33012 
  -53435   -56402   -37614    -4253    20186    13072   -19130   -44450 
  -38738   -17178   -15325   -35007   -45144   -31459   -10408    -3385 
  -16514   -39948   -56561   -53346   -31569    -4609    11988     9992 
    -584     3233    29151    55145    52830    17577   -27866   -50772 
  -37532    -7351    12831     9720   -16745   -49650   -64913   -56465 
  -38650   -26710   -24946   -27626   -22981    -4048    19743    26954 
    3261   -36732   -56485   -40519   -10404     5328    -6056   -34755 
  -53617   -48261   -31456   -20876   -23280   -33532   -39397   -33462 
  -15899     2238     -312   -28876   -65958   -89522   -78349   -32308 
   12299    21969     -193   -29418   -40493   -22667     8566    24623 
   11450   -22532   -59507   -85524   -93201   -80401   -53091   -25986 
  -11255    -7572   -10383   -21060   -32027   -29805   -21889   -28198 
  -48771   -64700   -62451   -46563   -33789   -37488   -56039   -71737 
  -64978   -38161   -17009   -20250   -39824   -56908   -63857   -62659 
  -50948   -23253     8479    14580   -11568   -37692   -38744   -23576 
  -11143   -13673   -28573   -37376   -29592   -10949     9317    18644 
   11631     2983     6389    16490    23098    21091     3032   -32415 
  -65134   -73313   -56860   -26642     3715    18316     9667   -20401 
  -57744   -70903   -41217     6652    28813    11320   -20571   -36184 
  -22496    13376    44131    45053    23185     4524     4001    16811 
   27299    29690    27664    11507   -27464   -69482   -84044   -62921 
  -24882     4870     7722   -20514   -55762   -66159   -45833   -11242 
   12674     8504   -13451   -27989   -24976   -14343   -12034   -22371 
  -32948   -32729   -24688   -20146   -31878   -58611   -76706   -69382 
  -50835   -43633   -49292   -53690   -50350   -44106   -36978   -26762 
  -14164    -2118     7847    18748    32488    43787    48411    45162 
   31578     8612   -16207   -31330   -28967   -13020      121    -9934 
  -48437   -93455  -106640   -68608    -9143    21936    10968   -16126 
  -32656   -31035   -13468     9939    19193     4193   -23305   -44255 
  -48477   -37823   -19157    -2836     -463    -8814   -10854      890 
   15726    15703    -4557   -25358   -25084    -8961     5060     9050 
    3393    -5489    -6837     4635    21057    23588     1050   -34547 
  -59610   -57456   -28354     4182    10539    -9937   -30026   -33034 
  -24675    -9526     9371    11098   -19585   -56630   -62275   -35544 
   -2578    12775    -6299   -56055   -96539   -87674   -39192     2481 
    5845   -21623   -46950   -39909      780    42006    45243     7281 
  -34115   -43382   -21796     7044    17853    -5182   -51283   -87107 
  -85639   -49400    -8866     4928   -12002   -37379   -50038   -45991 
  -31498   -18493   -11647    -1060    13040    15669     1684   -20380 
  -38972   -43681   -28189    -1585     8263   -14316   -45706   -48420 
  -15387    23487    33515     9044   -18671   -16343     4019     4589 
  -19156   -39340   -34273    -3555    29222    28719    -9542   -40136 
  -20799    32054    63377    38383   -27554   -87183  -105697   -83906 
  -45796   -23556   -39527   -80763  -112894  -119082  -101073   -62628 
  -15073    15269     3279   -44827   -88093   -90051   -50877     1703 
   37711    43171    20767   -16172   -39783   -28302       91     8186 
  -20612   -79242  -137799  -149966   -91261     7126    72700    55089 
  -20536   -81187   -82984   -41485    -1844    -1195   -40207   -79672 
  -82576   -48283    -6196     4076   -24576   -49674   -42007   -20949 
  -15237   -37597   -71208   -69586   -19201    28147    29944     7003 
   -5938    -8130   -13932   -22579   -17244    12486    49776    62192 
   40689     8869   -13001   -24677   -31142   -32949   -28662   -28062 
  -41251   -54096   -52378   -43078   -31151   -16282    -7805   -15339 
  -32668   -44872   -45310   -32123    -7946     6367    -9932   -42270 
  -51055   -20839    17865    26517     2071   -31898   -53327   -51823 
  -38900   -37768   -47677   -50421   -44231   -36380   -27007   -21017 
  -28257   -42582   -43140   -21251     6731    14590    -6238   -33623 
  -35960    -8663    21282    30470    18471    -4442   -26084   -40340 
  -51189   -63245   -77426   -86573   -75328   -39182     3537    25781 
   15468   -18364   -57477   -82855   -80566   -53118   -27111   -32680 
  -64232   -82292   -58087    -3662    40206    44908    14380   -24491 
  -39903   -28316   -11085    -1694   -15798   -55901   -85656   -78113 
  -44852   -11426      225   -17953   -52868   -82596   -99838   -98083 
  -62515   -11933     4742   -31257   -84250   -96946   -51581     8797 
   33871    16596   -15841   -33652   -22936     9033    34940    25543 
  -14898   -48613   -49300   -24417    -3667   -13684   -42935   -53611 
  -33293     2019    29150    23389   -14241   -47943   -50706   -30151 
  -12308   -16986   -38068   -47457   -30676    -8576    -9413   -34801 
  -59112   -51412   -11830    22541    25519     5570   -17019   -26888 
  -23299   -19524   -22598   -30634   -40207   -36046    -8220    11222 
  -15449   -64860   -84812   -65095   -28397     2262    11140     1833 
  -12078   -28422   -45578   -54869   -51270   -35755   -18886   -15955 
  -25125   -27660   -15002     -353      592   -13140   -36239   -61174 
  -67794   -39342     5818    26512     9584   -15059   -20854   -14399 
   -8475    -9259   -28611   -66995   -99296   -99670   -68212   -30144 
   -9280    -7323   -13759   -20745   -23379   -18843    -9828     -579 
    6946     7334    -1043    -6731    -1633     7571    12221    14729 
   22998    30759    22148     2470    -2451    16468    37492    36778 
   15797    -3168    -4824      820     3263    13772    36004    48251 
   33965     7641      375    22382    52658    65269    51882    20215 
  -17384   -40017   -24272    19613    46669    27096   -22285   -58548 
  -58062   -39774   -45037   -84341  -113892   -94049   -34861    31592 
   71152    63824    30382     6946     6439    19869    29609    23928 
    8915     2122     8813    13856     7403    -4045   -15104   -25248 
  -32702   -32830   -17597    10922    32178    28556     1307   -31905 
  -42048   -14553    28804    51922    34363   -16853   -65351   -70811 
  -30467    20999    51403    54645    44312    32263    18757     5932 
    -151     -522    -4058   -19614   -41843   -53346   -48860   -41933 
  -42658   -44634   -45360   -52084   -55388   -41036   -21982   -19676 
  -35501   -50712   -40458    -4983    19625     7633   -23844   -44016 
  -33180    11935    59995    60594     -866   -81963  -115930   -71049 
   12173    56633    25694   -45510   -91810   -76750   -17358    33282 
   38938    12621   -12942   -16625     6420    36532    44323    28348 
    9550    -1162    -2991      795      862    -8566   -27975   -52255 
  -68776   -69762   -54378   -27945    -9059   -13955   -36969   -57999 
  -60886   -48277   -42215   -54591   -61519   -39792    -9977    -3702 
  -23272   -48781   -52250   -21677    17857    24137   -22091   -92788 
 -134001  -114690   -46544    21063    32818   -12878   -64508   -82292 
  -66078   -39032   -21836   -17248   -24062   -43257   -64887   -72665 
  -62308   -49436   -52178   -69006   -84607   -87969   -79908   -65699 
  -44701   -23160   -24657   -54412   -74609   -54593   -11836    26936 
   56603    69686    49544    -1493   -51612   -66345   -40601    -1095 
   19099    10839   -11479   -37678   -59787   -58375   -28144     6653 
   22173    20743    18837    21840    25144    25073    16047    -1451 
  -17585   -31137   -47082   -57878   -51896   -34663   -21619   -16702 
  -15535   -21690   -41377   -64337   -72143   -63691   -49030   -29345 
   -4670    11603     6121   -12505   -20269    -6613    10596    10141 
   -2823    -9651     1501    31674    62270    67940    49989    30592 
   23032    26276    27620    12985   -10722   -20979    -7522    20139 
   44576    47280    14584   -46435  -106042  -135876  -128830   -99714 
  -72041   -56010   -45244   -38602   -43834   -59429   -73565   -76936 
  -69555   -61945   -66468   -82738   -95578   -90146   -65346   -31264 
   -6748   -10824   -32581   -37607   -20607    -8462   -14627   -28558 
  -33051   -15888    14737    29910     9649   -36413   -78417   -90463 
  -74383   -58284   -62024   -76906   -82548   -66753   -38542   -21181 
  -20467   -26268   -35387   -39835   -25339     1401    17870    18085 
   12407     3522   -11079   -25417   -31082   -26186   -17915   -19975 
  -38994   -59545   -55497   -25746     -927    -9421   -48223   -82955 
  -79825   -40597      -54     3448   -36683   -77695   -69581   -14630 
   39960    54838    31209     2739      299    25265    50916    49350 
   22861    -4936   -21914   -26303   -17524    -5935    -4097    -7265 
     363    20599    32090    18356    -6342   -21387   -34460   -59144 
  -74918   -55037   -15051     9915    10585     4270     8933    21102 
   29606    37067    38419    16957   -23271   -59420   -68339   -41480 
   -5834     1491   -22253   -54909   -76095   -74925   -51478   -17808 
    6408    10272    -2455   -20509   -27689   -20310   -19148   -40744 
  -75128  -106938  -129186  -128622   -99687   -67086   -55834   -59994 
