Origin Time       2011/03/11 14:46:00
Lat.              38.103
Long.             142.860
Depth. (km)       24
Mag.              9.0
Station Code      GNM001
Station Lat.      36.7719
Station Long.     139.2246
Station Height(m) 804
Record Time       2011/03/11 14:47:32
Sampling Freq(Hz) 100Hz
Duration Time(s)  276
Dir.              E-W
Scale Factor      3920(gal)/6182761
Max. Acc. (gal)   131.973
Last Correction   2011/03/11 14:47:17
Memo.             
[...]
  -11056   -18938   -26145   -37311   -38110   -18364    10087    27947 
   23785     1481   -23901   -39864   -42222   -28691    -8321    -2143 
   -9351   -13718   -15763   -15935    -8999    -5414   -18678   -40937 
  -48795   -35411   -17458    -2805    13604    26017    22932     7677 
   -5142    -8941    -7303    -3353      111    -2147   -12112   -24969 
  -29855   -16113     6119     8266   -10824   -21330   -17880   -18102 
  -18836    -9987     7184    30121    45035    37228    15892    -7852 
  -36077   -53099   -35737    -7236    -2743    -5285     1496       59 
   -6088    -6278    -7855   -10860   -17109   -21371    -9492     3772 
     673   -10810   -19613   -18232    -7673     2972    12551    17972 
    9160    -9840   -22360   -21794   -16661   -11760     1148    20256 
   25683    13820     3506    -2007    -8847    -6314     4753     6786 
     402    -6919   -13022    -4069    21230    31442     8608   -28940 
  -63031   -79066   -55996    -6171    33847    57472    58833    25084 
  -11745   -22285   -20151   -11496    -1417    -5062   -14160   -17295 
  -16617   -10422    -7685   -18610   -27264   -25943   -28045   -31602 
  -29267   -24462   -14918    -3220     -804    -3811    -6172   -14556 
  -27349   -29466   -12389     9506    17319     9879    -8819   -29518 
  -36206   -26693    -8487    12175    21901    10441    -8930   -18533 
  -20153   -13153     9756    29260    18222   -13290   -36952   -40488 
  -25260    -4815     3189    -2657   -16005   -31874   -37995   -25295 
     -55    19165    17039       21   -17441   -27816   -19082    11736 
   34632    21532   -12220   -42082   -57163   -42989   -11474     2545 
   -1710    -5728    -3504     6730    13929     5255    -9008   -17319 
  -22605   -29187   -37183   -40489   -33538   -21899   -11892      938 
   16841    21997     9327    -7904   -14291   -11074    -7565    -8848 
  -17604   -29790   -34476   -29017   -20820   -15742   -15721   -19388 
  -20825   -16104    -9499    -6652    -6907    -9251   -14335   -18316 
  -22224   -30378   -30710   -15266     -473     5590     8416     1144 
  -18985   -32647   -24868    -5590     9647    12523    -1052   -21361 
  -37948   -51639   -50628   -28453    -9830    -4377     6933    24288 
   29982    19910     3227   -13297   -28978   -38874   -32430   -12219 
    2828     4515    -4907   -28013   -51156   -51615   -31419    -9695 
    -483      498     4213     7670     9463    13230    13138     3408 
  -17043   -41530   -55032   -53557   -44502   -31268   -15013    -2533 
   -1974    -9081    -9440    -2080    -1461    -7910    -9437    -8741 
  -10841   -10311    -6839    -5201    -7729   -15524   -26630   -33540 
  -29664   -16279     3165    19805    15533   -14585   -50138   -64906 
  -48122   -11636    14092    10758    -6094   -22799   -35250   -28258 
   -5385    12833    19880    14067    -2978   -22463   -33867   -28557 
  -11771      639     2474     1275     2042     4646    12693    20371 
   14447    -4083   -25595   -39950   -39753   -31185   -22800   -15141 
  -13097   -18769   -20975   -13444    -2015     4386    -1277   -13407 
  -17758    -9506     8188    28063    34983    16086   -21127   -51727 
  -59752   -45851   -16967    12378    28600    28037    10201   -17288 
  -38149   -40199   -25922   -18385   -32817   -50695   -51920   -38105 
  -13329    15013    25993    14631     -195   -13609   -26914   -25985 
  -13951   -11905   -18028   -19750   -18648   -14970    -7756    -2727 
    1401     6467     1585   -18824   -38112   -39172   -30615   -23528 
  -10330     7516    16988    18326    13821    -2998   -29704   -46133 
  -37523   -23067   -26442   -33427   -25441    -9430     6014    13305 
    9545     6486     1455   -10632   -12875    -9515   -18749   -26420 
  -13073    12490    30785    36642    31120     9806   -22549   -50105 
  -54451   -30643    -7158    -8475   -18089   -17918   -13854    -5848 
   10069    16421     -925   -26094   -34197   -22181    -6716     1963 
    4424     2159    -8911   -28695   -37587   -25929   -10051     2075 
   15370    23612    16039      519    -9922   -16898   -21688   -22659 
  -20397   -14416   -11787   -17478   -22886   -22037   -15869    -2506 
   15746    23814     9950   -17362   -40376   -47660   -37356   -20513 
  -12204   -13574   -20425   -32517   -38350   -23466     5942    31006 
   35349    11236   -27895   -54399   -53260   -26925     6245    19064 
    3636   -24988   -42498   -33008    -7588    13601    17606     6191 
   -7337   -22363   -30899   -17329     5336    15377     3800   -22877 
  -45550   -54686   -48436   -26941     1246    24153    29253    13755 
   -3001    -2352     3681     -960    -6454    -8689   -16350   -22407 
  -19169   -12660    -3050    11720    18970    12390     4716      696 
   -2795    -2766    -5108   -18169   -30960   -25877    -1007    26710 
   38909    32905    15623    -5166   -22649   -31935   -32249   -29395 
  -25541   -19153   -13065    -4826     7135    16540    18687     5604 
  -19866   -35719   -35773   -30006   -23340   -24544   -30277   -19233 
    3718    18628    27351    24569      405   -26143   -37103   -33464 
  -19115    -4563     3458     9684    10955     -468   -20505   -37303 
  -40982   -34690   -30649   -25584    -9692     4872     4508    -2108 
   -6759    -9263    -6679    -5708   -12788   -11630     8797    33224 
   48321    45946    10913   -46792   -92203  -108780   -92742   -52315 
  -13563    20746    55606    67990    47021    16395    -3171   -21358 
  -39362   -35486   -19827   -11405     1309    16007    11690   -10228 
  -31013   -42267   -43766   -31580    -4980    25876    49756    61372 
   52714    23164   -13764   -52138   -82535   -78816   -45392   -22779 
  -11452    16392    39322    30418     6681   -12813   -22982   -23381 
  -12374     -373    -8020   -27597   -45910   -59901   -55135   -34158 
   -6570    34045    73587    84731    66006    31788    -8142   -47045 
  -80575  -100238   -87169   -50102   -25817   -10985    10485    17437 
    6237    -2150     1574    13052    15431     6910    -8549   -38704 
  -60835   -46949   -13184    19992    49865    59107    33500    -3365 
  -32041   -54620   -55164   -31111   -15483   -20814   -32559   -39371 
  -36281   -24017    -4368    12680    10699    -6903   -24859   -34835 
  -26120     6990    43680    52925    30438    -5398   -45977   -86295 
  -97213   -65268   -30546   -10146    19753    37536    22769    14743 
   24061    30981    46080    59410    33388   -26915   -83626  -105175 
  -72352   -10529    29572    38832    18971   -32511   -75995   -79386 
  -54149   -14389    25750    52294    50795    14414   -34407   -78697 
 -103279   -85239   -53788   -42645   -20389    24657    55334    62800 
   52990    25943    -6863   -44217   -70937   -64298   -40843   -17570 
    5620    24961    27329     1032   -28183   -32728   -30485   -32182 
  -23500   -10332    -4261     3538    15773    22394    17427    -4581 
  -43131   -79209   -89038   -73725   -55693   -35847     2994    46415 
   57393    28693    -8630   -26297   -27457   -24109   -24545   -32453 
  -30717   -16092    -6354     3487    20168    38148    48969    37094 
   10309    -8958   -23170   -36363   -31656    -4045    17399    12152 
   -6732   -31746   -61137   -79804   -70852   -20390    46642    74298 
   58722    27707   -13090   -46885   -58657   -60457   -50837   -24598 
   -4751   -10234   -27478   -34905   -31151   -13143    25777    60580 
   67204    55994    32331   -17144   -82379  -117656   -98226   -51954 
   -8446    35215    72776    75102    45015     6776   -27633   -23170 
   30923    74987    74167    39684   -16306   -71722  -115487  -141045 
 -127340   -86228   -48045    -5349    42961    63155    52514    32293 
   10961     3756    15549    31636    28900    -8206   -61612  -103415 
 -116288   -91845   -45349    -6224    17579    39036    64028    86388 
   83663    44926      632   -34377   -71181   -92480   -73031   -22980 
    7776   -11259   -42711   -62987   -84079   -73457    -8124    64001 
   97118    84983    39969   -12724   -56165   -84574   -80533   -47246 
  -16935     4587    28964    45538    43473    33655    19068    -3825 
  -19692   -28963   -47993   -64496   -63215   -51586   -33135   -10239 
    8867    25831    34941    26986    17039    18455    26483    32991 
   29623    15040    -9459   -44974   -78764   -86319   -61434   -28669 
  -10321     -539     5943     1214    -1504    12752    23098    17532 
   11367     8099    -1691   -28956   -67814   -88082   -78219   -49595 
   -7405    35349    58190    56553    49110    54243    57306    53118 
   48119    11148   -51873   -95833  -112329   -82940   -10856    39380 
   51968    40041   -15173   -76516   -94641   -75512   -13403    55457 
   61454     5280   -88662  -165888  -154508   -68261    39754   133917 
  181040   152268    68313   -10972  -100762  -183026  -152386   -55093 
  -10117     -538    17575    17616    -8680   -10444    13348    21754 
   13651   -10210   -40750   -59414   -71394   -65515   -26835    25102 
   69892   101349   108259    81963    40754     9209   -18004   -51715 
  -79701   -82355   -58474   -31073   -15187      847    23591    42741 
   52712    43051      545   -56500  -102333  -130649  -124739   -78365 
  -30095    -5176    17174    42453    50549    43259    37811    43274 
   53654    48315    13046   -45173   -97757  -113657   -93415   -64427 
  -33384    17404    69363    81085    55985    16756   -23490   -45339 
  -51142   -61758   -68559   -55384   -30146     3526    48921    81365 
   69016    24107   -19603   -39037   -22566     1156     -642    -7858 
   -7426   -14889   -20258   -13492   -14477   -42255   -93149  -129671 
 -118013   -75451   -29092    18483    66761    94466    78210    45539 
   31665    14912   -14690   -20838     1307    15077    11438     8577 
   10019    11846     9090    -7357   -26141   -26205   -12783     -658 
   -5638   -40428   -84281  -113319  -119441   -89115   -29321    34927 
   77875    71083    25415   -17794   -41408   -33647    15079    68723 
   82987    57953      354   -74901  -122562  -126784   -95923   -35198 
   20249    48390    55379    26673   -30541   -73433   -83078   -63566 
  -31228    -9472     9250    46800    95981   134185   140259    99754 
   21134   -73943  -164217  -208477  -162340   -59176     4097    22379 
   58062    69612    19087   -29999   -55682   -69864   -66187   -46762 
   -9860     9698    -5502      577    24943    31663    45904    58319 
   44431    32418    26925     6232   -25244   -49257   -64771   -80482 
  -74880   -33054     9412    28119    37491    45955    43089    18471 
  -14954   -32001   -39424   -61144   -87387   -86480   -50536    -3378 
   34830    61405    58832    10581   -56558  -102225  -103147   -54579 
   10645    42897    30368    -7881   -60482  -109323  -110760   -39257 
   59173   112232   109749    62518   -16900   -70914   -88560   -82324 
  -16710    69455   110621   112564    64847   -20151   -68140   -63331 
  -31535    22997    50926    13843   -46252  -102218  -144104  -136499 
  -77354   -12608    37863    93198   121184    77326     9382   -44056 
 -110277  -156534  -117005   -39377    -7822     5868    34928    33265 
    6796     3414    15365    30751    53572    74048    72045    29636 
  -33561   -83969  -104044   -68121     9288    67301    90530    83959 
   34629   -25840   -59769   -67754   -27829    48906    82363    45551 
  -25789   -96142  -134785  -120023   -47433    35253    87660   120700 
   98522    25078   -33012  -100693  -158894  -136505   -88898   -63957 
  -42108    -9078    54051   118730   139435   120118    74359     2149 
  -79893  -120390   -97276   -45372    -5673     5222     7329     6276 
  -16823   -41075   -37970   -25158   -26744   -24570    -3688    11018 
   14570    21169    27205    30507    27985     8511   -32689   -76200 
  -93718   -90425   -76274   -38299    16270    60995    82950    67522 
    3904   -76287  -118986   -85382    10704    83028    92843    87784 
   65874     9722   -42522   -55794    -4705    71428    76345        8 
  -95091  -153530  -156363  -108817    -6074   107557   152936   104732 
    1926   -74327   -99625   -96999   -31076    66332    94792    65482 
     650   -94524  -134995   -90437   -12776    53092    82909    91133 
   69128     9930   -32069   -49502   -59511   -42247   -20352   -27290 
  -42478   -45281   -45272   -34134    -5122    10858    15669    25747 
   22564    16337    18487    10045     4625     9635    -4034   -26465 
  -24196    -3789    14235    23483    25349    22011     5291   -24365 
  -43216   -38654   -18021     8075    22645    19164     9857    -5102 
  -38344   -78544   -87101   -49597      223    35855    59310    56021 
   26021     3764   -24644   -68298   -67721   -22144    15820    27756 
    3513   -31073   -33835    -7729    39069    84084    81566    35217 
  -10767   -33273   -25105    17484    63548    56079    -6098   -73420 
 -123342  -137225   -92716   -21111    27202    47280    52803    38435 
    9827     -817    25688    64645    72734    39797   -19289   -85227 
 -130622  -142006  -100077    -3349    76184   106600   111897    69285 
   -7961   -62629   -76650   -52089   -26409   -30179   -46147   -67319 
  -70975   -34522    16535    72822   129919   147803   106872    32702 
  -42075  -107674  -142148  -103859   -26406     7457    -3574   -20267 
  -38080   -34302    10098    65286   117138   138954    90446     9193 
  -77181  -176697  -217386  -138235   -25252    20848    39639    60490 
   32039    -4845    -7308   -28848   -58389   -54178   -24732    27015 
   72721    78122    60337    28147   -31646  -101265  -135780   -94931 
    1552    73956   107751   119949    59989   -34858   -73927   -78216 
  -35458    64276   124671   112108    46364   -53676  -125158  -123311 
  -48435    50354    98543    80939    22772   -50307  -105476  -119165 
  -76582    -8837    21149    22808    15949   -20231   -55550   -58641 
  -51278   -38335   -14429     -482    -4773    -5060     6887    20714 
   33493    33522    13020   -12643   -34043   -44034   -31372      114 
   34993    49381    30816    -7741   -52564   -85893   -88612   -64913 
  -24699    26450    72591    87887    54866    -3373   -50330   -87703 
 -109397   -88981   -49823   -28023   -14845    -1351    13083    35849 
   56995    56644    23584   -34221   -79450   -81628   -48355    -2383 
   39502    71232    88505    80339    47238     4939   -32505   -57637 
  -60301   -28818    18123    44569    49488    44617    23854   -11621 
  -47281   -66726   -62101   -43142   -29034   -38240   -62336   -64142 
  -29332    25021    71200    75473    36021    -3599   -17287   -24008 
  -26665    -7911     8023    -4180   -38394   -93530  -136671  -118376 
  -45725    40449   101361   113181    79232    25109   -21180   -52652 
  -58622   -25720    10195     8817   -16926   -43619   -60207   -60922 
  -49803   -22150    25391    68355    81974    61695    15815   -33206 
  -61822   -61003   -44499   -45544   -68347   -72357   -36782    16837 
   67245    99353    88468    33981   -35029  -104458  -143514  -107000 
  -26159    38443    79446    98674    85169    37733   -14340   -36630 
  -49525   -61267   -40728   -18029   -16660     3038    28205    24035 
    4711   -24653   -61727   -82971   -71942   -30262     3433    -3566 
  -20948   -22676   -18235    -5803    17708    38880    37196    12111 
  -18300   -55424   -86211   -78565   -49520   -31283   -15857     1410 
    7635    12392    25835    31770    18772   -10062   -44760   -70132 
  -77907   -67641   -39782     3055    49189    78044    69333    23584 
  -24617   -45069   -38659   -16303     2307    -3355   -28765   -52085 
  -59632   -51305   -30458    -8287       48    -7493   -24258   -31963 
   -9578    33730    72200    83441    42398   -41607  -110397  -118250 
  -61864    24135    86602   107010    88256    28596   -47134  -110147 
 -131304   -78396    10906    72953   104291    99854    40607   -36271 
  -96497  -147201  -148427   -67259    27422    78654   108225   105529 
   43004   -30045   -80341  -108443   -78236   -15701    10484      -49 
  -26975   -55885   -67241   -41035    30851   103585   123327    88536 
   24600   -35365   -78264   -99898   -68385    -8339    13332     -754 
  -28522   -59631   -74223   -65517   -28860    16235    35898    39790 
   35987     9748   -24413   -42628   -47645   -46538   -38289   -28968 
  -21093    -1945    28662    51889    58353    50236    30918     9339 
   -5567   -16549   -29494   -36927   -29419   -15603    -8754    -7659 
   -1123    14953    29009    30700    19934    -1162   -19397   -22267 
  -21370   -21033    -5335    23874    42971    27752   -23980   -82287 
 -111754   -94924   -42870    13125    54244    70540    51193    12180 
  -17807   -33951   -36394   -21286    -7991   -16427   -28151   -26220 
  -23090   -15717     9752    37760    41369    16494   -15325   -28710 
  -18370    -5330    -5835    -5906    -3795   -24002   -64175   -94333 
  -89893   -40221    35304    96463   117631    88448    19420   -49702 
  -89709   -93972   -62145   -14905    20413    41263    53041    46314 
   20305    -1313   -10939   -23182   -37919   -47621   -50051   -42378 
  -24560    -2942    13641    22424    17818    -4027   -21632   -17307 
   -2723     9447     6287   -27522   -71083   -80937   -51359    -7658 
   30090    42973    23610    -5720   -27601   -49123   -54914   -21833 
   13189     4951   -42502  -101397  -119718   -77040   -18744    37973 
   90704    96663    54519    14095   -12802   -41597   -44108     6328 
   54316    52519    25576   -13671   -55349   -75336   -78517   -52470 
   13064    62151    56401    11663   -49823   -90309   -83736   -46258 
   -2419    28866    31607     7593   -16235   -21452   -15192     2068 
   17776     4816   -23117   -43945   -49487   -16423    38808    57930 
   30521   -13322   -60290   -95143   -83389   -22437    38536    67233 
   68123    32089   -27154   -56434   -48098   -24058    11521    30565 
    6646   -33321   -55445   -58596   -41005     9615    71627   104005 
   92744    36369   -41866   -90907   -95837   -63041     2556    52083 
   46288    10610   -28600   -64916   -81201   -57886      469    61148 
   95439    88289    41727    -7491   -41926   -72159   -70021   -31402 
   -8183    -2479     5284    -6638   -33187   -47555   -47096   -28034 
   -1943     5137    -9712   -41238   -63892   -43627     2555    38374 
   49513    28717   -13138   -45141   -50898   -33355     3471    41814 
   51341    22639   -27827   -67898   -71960   -41461     4784    32793 
   24718     4486    -3947     3788    24373    43458    33192   -13254 
  -61953   -87380   -85147   -51420    -1225    33565    31297    -8591 
  -64213   -98543   -87019   -34540    34708    84033    83954    37978 
  -20880   -60841   -72092   -43161    16408    51033    41452    17301 
   -8179   -30684   -37303   -22818    -6213    -6880   -18687   -28764 
  -24872    -4378    18958    32260    25151       68   -24571   -37966 
  -40116   -35803   -23954     5444    40115    51168    38206    17722 
   -7864   -29894   -22610    10463    30216    26430    10230   -18843 
  -43392   -53635   -58285   -42486    -8939    10137     9233    -1276 
  -16311   -30477   -41827   -44516   -33045   -11793     8313    10518 
