Origin Time       2011/03/11 14:46:00
Lat.              38.103
Long.             142.860
Depth. (km)       24
Mag.              9.0
Station Code      GNM005
Station Lat.      36.5134
Station Long.     138.5176
Station Height(m) 899
Record Time       2011/03/11 14:47:45
Sampling Freq(Hz) 100Hz
Duration Time(s)  274
Dir.              U-D
Scale Factor      3920(gal)/6182761
Max. Acc. (gal)   24.668
Last Correction   2011/03/11 14:47:30
Memo.             
[...]
  -13323   -16838   -19918   -21260   -20674   -18820   -16504   -14609 
  -13254   -11836   -10079    -7741    -4849    -2600    -2063    -2799 
   -3318    -2379     -472     1204     2659     3521     2350     -510 
   -2992    -4535    -6354    -8734   -10400   -11221   -12818   -15363 
  -17276   -18233   -18938   -19222   -18815   -18372   -18867   -20657 
  -22930   -24369   -24173   -21849   -17221   -11402    -6408    -3257 
   -1896    -2882    -6714   -11906   -16263   -18927   -19802   -19136 
  -17697   -16194   -15119   -14533   -14021   -13698   -14239   -15570 
  -16902   -18288   -20513   -23100   -24546   -24227   -22606   -20194 
  -16774   -12422    -8011    -3884     -600     1018     1224      -15 
   -2611    -4958    -6237    -7248    -8712   -10483   -11489   -11094 
   -9693    -7437    -5006    -4336    -6171    -9030   -11347   -13040 
  -14628   -15355   -13872   -11018    -9155    -8892    -8917    -8576 
   -8903   -10738   -13231   -15234   -16395   -16137   -14069   -11852 
  -11814   -13850   -16132   -17857   -19106   -19064   -16887   -13419 
   -9838    -6572    -4124    -2523    -1421    -1238    -2105    -3448 
   -5240    -7487    -9773   -12037   -13983   -14722   -14151   -13327 
  -13205   -13803   -14499   -14350   -12279    -8592    -5505    -4232 
   -3797    -3926    -5884    -9927   -14218   -16346   -15761   -14370 
  -13565   -12547   -10828    -9422    -9285   -10598   -12872   -15204 
  -17008   -18259   -18873   -18048   -15144   -11167    -7796    -5991 
   -5999    -6817    -7064    -7025    -7774    -9191   -10200   -10334 
  -10304   -10721   -11203   -11378   -11697   -12487   -12998   -12190 
  -10119    -7736    -5885    -5740    -8164   -11333   -12050   -10076 
   -7835    -6459    -5618    -5098    -4124    -2231     -318     1351 
    3036     3953     3770     3118     2052      314    -1762    -3645 
   -5296    -6318    -5544    -3185     -858      740     1632     2392 
    4163     6460     7576     7607     8268     9905    10695     9334 
    6593     3850     1761      169    -1386    -3172    -5586    -9467 
  -15126   -21150   -25133   -25595   -22696   -18109   -14435   -12849 
  -12084   -11215   -10705   -10565   -10490   -10464   -10708   -12145 
  -14932   -17463   -18712   -19449   -20648   -22013   -22463   -21934 
  -21443   -21696   -22877   -24145   -23806   -21719   -18929   -15121 
  -10178    -6096    -4315    -4131    -4971    -6881    -8878    -9675 
   -9135    -7647    -5604    -3937    -3595    -4217    -4288    -3047 
   -1505     -791     -652     -369      369     1646     3442     5467 
    7056     8133     9568    11427    12374    11206     8040     4116 
     392    -3294    -7164   -10626   -12866   -13512   -12876   -11913 
  -11508   -11691   -11738   -11107   -10192    -9564    -8914    -7718 
   -6384    -5783    -6227    -7617    -9614   -11374   -12444   -13383 
  -14568   -15159   -13995   -11600    -9752    -8522    -6564    -3803 
   -1005     1366     2623     2265      628    -1686    -4105    -6120 
   -7253    -6697    -4081     -646     1464     1187     -491    -2064 
   -3266    -4473    -5746    -6967    -8129    -9550   -11703   -14742 
  -18390   -21950   -24264   -24436   -22699   -19892   -16402   -12307 
   -8165    -4767    -2606    -2231    -3850    -7002   -11641   -17742 
  -23821   -27968   -29714   -29820   -29202   -28236   -26675   -24315 
  -21288   -18108   -15921   -15338   -15155   -13802   -11264    -8339 
   -5203    -2055       64      615      210     -791    -2269    -3492 
   -4120    -4525    -4559    -3793    -2433     -993      179     1249 
    3218     6755    10372    11212     8036     2335    -3025    -5846 
   -6574    -7138    -7910    -8501    -9180    -9951   -10807   -12370 
  -15405   -19747   -23561   -25285   -25375   -24419   -22223   -19124 
  -15908   -13494   -12375   -11642   -10621   -10036    -9964    -9636 
   -9210    -9136    -8908    -7788    -5943    -4290    -3239    -2583 
   -2330    -2039    -1090      -30      689     1393     1799     1597 
    1501     2137     3001     3554     4243     5124     5110     3278 
    -537    -5352    -8866    -9662    -8793    -7965    -7922    -8746 
  -10154   -12063   -14940   -18472   -21059   -21656   -20755   -19491 
  -19038   -20075   -21842   -22775   -22303   -21167   -20590   -21242 
  -21925   -20517   -17042   -13426   -10323    -7046    -3897    -2107 
   -2095    -3209    -4713    -6145    -7254    -7857    -7356    -5294 
   -2776    -1940    -3784    -7398   -11076   -13816   -15762   -17255 
  -18007   -17265   -14610   -10705    -6811    -3393       93     3842 
    6895     8176     7568     5378     1513    -3774    -8895   -12331 
  -14136   -14647   -13728   -11967   -10619   -10851   -13289   -16890 
  -19753   -21804   -24252   -27306   -30473   -33057   -33797   -32358 
  -30173   -28369   -26733   -24943   -23392   -22637   -22330   -20932 
  -17433   -12803    -7899    -2500     2084     3599     2396      785 
    -311    -1214    -1945    -2336    -2469    -2853    -3664    -4726 
   -6022    -6641    -6266    -6748    -8887   -11851   -15430   -18777 
  -20809   -21901   -21959   -19713   -14489    -7056      852     7905 
   13506    16992    18103    17243    14945    12346    10148     7499 
    4131      881    -1490    -1691      899     4550     7249     8456 
    8041     5548      882    -4843    -9959   -13843   -17260   -21584 
  -27135   -32199   -34966   -35009   -32640   -29551   -28231   -28814 
  -29574   -30035   -30518   -30307   -28753   -26817   -25627   -24734 
  -22968   -19809   -15506   -11251    -8622    -7701    -7273    -6708 
   -6511    -7972   -11467   -15132   -17229   -18066   -18118   -17035 
  -15097   -13693   -14092   -15570   -15896   -14195   -11426    -9497 
   -9997   -12235   -14317   -15316   -15973   -17287   -17885   -16372 
  -13763   -10979    -8273    -6099    -4933    -4769    -5180    -6778 
   -9613   -12026   -13381   -13666   -12791   -11682   -10774    -9860 
   -9015    -7951    -6969    -6925    -7785    -9321   -11475   -13978 
  -16401   -18293   -19996   -21613   -21705   -19932   -17878   -15810 
  -12772    -9142    -6042    -3825    -2048      328     4163     9152 
   13953    17105    18115    17102    13755     8356     2178    -3748 
   -9002   -13816   -17568   -18448   -16686   -14492   -13483   -14138 
  -15169   -14630   -12361    -9475    -7084    -5600    -4364    -3021 
   -2051    -1986    -2799    -3207    -2018      302     2546     4350 
    6328     7862     6930     3259    -1064    -3796    -4239    -3683 
   -3750    -4170    -4121    -4388    -5481    -6037    -4753    -2419 
   -1383    -2616    -4983    -7226    -8185    -7277    -5240    -3520 
   -3427    -4291    -4538    -4794    -6395    -9134   -11882   -13857 
  -15587   -17765   -19125   -17881   -14125    -8602    -1783     4838 
    8996     9179     5090    -1981    -9133   -14176   -17274   -19456 
  -20757   -20398   -18296   -14806    -9916    -4726    -1339       22 
     946     1843     1665     -398    -4638   -10976   -18794   -26229 
  -29789   -26889   -18521    -8000     1162     6166     6182     2401 
   -3906   -11980   -19838   -24781   -26229   -24724   -20547   -15607 
  -12367   -11270   -11405   -12698   -15959   -20358   -24392   -28211 
  -31175   -31538   -29832   -28135   -26525   -22257   -14447    -7158 
   -2805      539     3209     4838     6681     7727     7204     8233 
   10337    10007     8770     7574     5885     5922     6944     6997 
    6600     5490     3338      142    -4147    -8424   -11958   -14961 
  -17254   -19181   -21689   -24165   -25400   -26286   -28103   -30163 
  -31067   -29960   -27369   -25115   -24105   -23831   -23302   -22223 
  -21851   -22535   -22328   -19611   -14771   -10299    -9242   -11853 
  -15369   -16756   -14343    -8838    -3074     1016     3715     5024 
    4010      929    -2396    -4045    -3831    -3621    -4778    -6359 
   -6675    -5779    -4808    -3937    -3714    -5002    -7009    -9037 
  -10837   -11454   -10765    -9169    -6616    -3163      915     3791 
    3112     -839    -6648   -13763   -21306   -27743   -32091   -34845 
  -37241   -39319   -39881   -38762   -36682   -33169   -28388   -24700 
  -22977   -21770   -21239   -22573   -24884   -26468   -26765   -25783 
  -23214   -18986   -13846    -8449    -3388      120     1643     1978 
    2100     3470     6678    10287    13025    13792    11648     8244 
    5988     4451     1725    -1833    -4318    -6129    -8387    -9719 
   -9038    -7406    -5495    -3322    -1495     -544     -522    -1718 
   -4669    -8149    -9360    -8107    -6339    -3835      159     3596 
    3712      152    -4977    -9692   -13960   -17663   -19501   -19197 
  -17734   -15779   -13025    -8338    -1389     6517    13381    16304 
   12675     3453    -7481   -16940   -22903   -23658   -19885   -14782 
   -9990    -5619    -2939    -2535    -2742    -1661     1116     4421 
    6693     6682     3135    -3966   -12221   -18767   -22463   -23070 
  -19777   -12418    -3368     4103     8650    10305     9164     5768 
    1383    -2430    -5078    -7071    -8052    -6702    -2852     1960 
    5935     8179     8368     6427     3121     -193    -2652    -4364 
   -6035    -7652    -8315    -8027    -7413    -5977    -3049      673 
    3594     4922     5743     7173     8134     6900     3215    -2283 
   -8729   -14451   -17637   -18350   -17908   -16533   -14194   -11850 
  -10213    -9551    -9883   -10668   -11825   -13594   -15431   -16664 
  -17037   -16528   -15255   -12887    -9279    -6039    -5353    -7720 
  -12390   -18030   -22210   -22648   -19213   -13106    -5210     2819 
    8210     9574     8228     6274     3824      -42    -4252    -6625 
   -6393    -3893     -537     1096      683      202       50     -461 
   -1652    -3338    -4990    -6470    -7326    -7658    -8512    -9760 
  -10523   -10147    -9078    -8539    -7582    -4839    -1466      703 
    -139    -4596   -10247   -14378   -16553   -17916   -18587   -17009 
  -13434    -9770    -7235    -7029    -9029   -11890   -15741   -20667 
  -25468   -28737   -29270   -27597   -25096   -22147   -19310   -17393 
  -16585   -15954   -15242   -17222   -23111   -29136   -31947   -32024 
  -31119   -29589   -25988   -19814   -13376    -8875    -5849    -2531 
    1030     3251     4567     5883     6531     6984     7849     8167 
    7471     6087     4893     4834     5128     4368     2538      457 
   -1208    -2921    -5668    -8074    -7498    -3777     1473     6532 
   10487    13198    13298     9645     2926    -5118   -12306   -18268 
  -22701   -23465   -20836   -17331   -13701    -9493    -5551    -3843 
   -4600    -5804    -6268    -6398    -6231    -5246    -3287    -1244 
    -637    -1411    -2186    -2640    -3614    -5977    -9311   -11528 
  -11445    -9719    -6836    -3110      791     4071     6197     8103 
   10516    11702    10274     7734     6001     5066     4125     3265 
    3313     4102     4026     2421       37    -3005    -6751    -9852 
  -10628    -9245    -7647    -6732    -5187    -2098     1487     4133 
    5116     4151     1765     -782    -3013    -5026    -5972    -5790 
   -6735    -9733   -13255   -16234   -17206   -15047   -11350    -7132 
   -2408      646      478    -1270    -2837    -4320    -5849    -6610 
   -7008    -8753   -11190   -12100   -11695   -11015    -9841    -8395 
   -7102    -5983    -5281    -5040    -6080    -9867   -15341   -19558 
  -21042   -19899   -16284   -10353    -4006     -851    -2183    -5706 
   -9401   -13121   -16859   -19757   -20799   -20092   -18248   -15486 
  -12545   -10622   -10283   -10726   -10263    -8864    -8459    -9879 
  -12060   -13705   -13925   -12686   -11439   -11690   -13220   -15158 
  -17345   -19384   -20152   -19166   -16776   -13046    -8508    -4500 
   -1265     1116     1493      597      890     2856     5250     6892 
    7263     7090     7065     6651     5754     5058     4336     3338 
    3132     4259     6033     8300    10972    12447    10726     5843 
     279    -3229    -3818    -2532     -766      644      895     -400 
   -2627    -5107    -7523    -9612   -11519   -13347   -14380   -14275 
  -13886   -14090   -15119   -16194   -15944   -14672   -14279   -15104 
  -15298   -13688   -10969    -7807    -4267    -1313     -313    -1421 
   -4286    -8626   -13312   -16801   -18440   -18617   -17516   -14391 
   -9386    -4952    -3689    -5546    -8100    -9287    -9442    -9622 
   -9326    -8156    -6927    -6426    -7048    -8191    -8819    -8797 
   -7827    -5758    -3879    -3966    -7301   -13123   -18885   -23365 
  -26225   -26480   -23704   -19041   -15347   -14672   -15892   -16713 
  -15668   -12909    -9960    -7295    -4618    -2416     -932      300 
    2394     5537     7699     8086     7639     5796     1974    -2435 
   -5319    -5468    -3118      689     4084     5912     7051     7111 
    4581      620    -2040    -2350    -2115    -3234    -4763    -5691 
   -6471    -6604    -5493    -4108    -3382    -2536      186     4780 
    8981    11425    12570    13416    15043    17379    19530    21151 
   21673    20349    16828    11409     5563      447    -4163    -8643 
  -12456   -14325   -14034   -12551    -9723    -5444    -2151    -2473 
   -6136   -10907   -15146   -18672   -21627   -23376   -22824   -19579 
  -14859   -10837    -8756    -8604   -10352   -14178   -19746   -25558 
  -30098   -34013   -38614   -43237   -46468   -47610   -46701   -44872 
  -43524   -42910   -42189   -40682   -39039   -38325   -38226   -37882 
  -37252   -35870   -32801   -28790   -25336   -22146   -18160   -14120 
  -11675   -10461    -8863    -6990    -6072    -5702    -4219    -1624 
     853     3621     7622    11468    12985    12082     9594     5945 
    2650     1863     3725     6137     7091     6594     6056     6325 
    7344     9328    12523    15906    17893    17762    15525    12111 
    9442     8480     7862     5921     3386     2081     1912     1688 
    1086      332     -536    -1932    -4073    -6316    -7815    -8348 
   -8181    -7156    -5159    -3397    -3105    -4184    -6599   -10536 
  -14871   -18172   -20214   -21340   -21757   -21361   -20069   -18356 
  -16869   -15706   -14345   -12443    -9974    -7122    -5270    -5819 
   -7975    -9992   -10918   -10802   -10718   -11848   -14549   -18522 
  -22599   -25055   -25380   -24241   -21880   -18729   -16259   -15888 
  -18013   -21448   -23958   -24554   -23733   -21598   -18087   -14227 
  -11451    -9769    -8233    -7492    -8808   -11046   -12109   -11650 
  -10468    -9135    -7931    -7164    -7087    -7650    -8228    -8315 
   -8611    -9322    -9296    -8982   -10185   -12940   -16493   -20281 
  -22382   -21245   -17892   -13932   -10047    -6721    -4513    -3515 
   -2605     -226     3290     5649     5175     2269    -1455    -4994 
   -8381   -11135   -12469   -12532   -11418    -9038    -6181    -4040 
   -3527    -4982    -8195   -12641   -17316   -21037   -23058   -23172 
  -21460   -18152   -13750    -8935    -4363     -477     2785     5785 
    8113     8344     6131     2763    -1125    -5104    -7706    -8364 
   -7676    -6190    -4657    -3626    -3304    -3375    -2637    -1153 
    -495     -977    -1951    -3178    -4485    -5592    -5866    -4963 
   -3857    -3272    -2458     -568     2505     6239     9553    11473 
   11597    10186     8353     7403     7662     8234     7946     6537 
    4685     3142     2089      607    -2099    -4799    -6448    -8163 
  -10607   -12574   -12940   -12168   -10948    -8974    -6578    -4781 
   -3772    -3740    -5191    -7711   -10612   -13974   -17838   -21550 
  -24039   -24814   -24638   -24384   -24634   -25936   -27759   -29247 
  -30371   -30491   -28457   -24386   -19479   -15037   -11658    -9072 
   -7183    -6241    -6170    -6878    -8127    -8855    -7907    -5216 
   -1740     1575     4410     6935     9753    13142    16317    18234 
   18278    16574    14429    13377    13447    13733    13681    12532 
   10299     8237     6037     2421    -1807    -4596    -5052    -4301 
   -4059    -4376    -4397    -4077    -3694    -3444    -3780    -5405 
   -8802   -13297   -17189   -19267   -19467   -18290   -16471   -14834 
  -13798   -13302   -13332   -14194   -16328   -19648   -23253   -26348 
  -28648   -29883   -30254   -30421   -30401   -29548   -27443   -24428 
  -21390   -19213   -18339   -18586   -19649   -21099   -21876   -20981 
  -18437   -15251   -12652   -10967    -9438    -7510    -5675    -4924 
   -5762    -7576    -8873    -8473    -6661    -4724    -3075    -1070 
    1217     3130     4771     6280     7351     8250     9269     9939 
   10063     9891     9491     9238     9461     9538     8960     7970 
    6304     3396     -335    -4323    -8758   -13317   -16461   -17108 
  -16027   -14572   -13325   -12622   -12569   -12647   -12713   -13261 
  -14168   -14700   -14748   -14861   -15450   -16509   -17501   -17572 
  -16530   -15143   -14185   -13978   -14799   -16717   -19274   -21967 
  -24306   -25270   -23926   -20787   -17800   -16403   -16252   -16512 
  -16779   -16279   -14345   -11454    -8534    -5982    -3571     -824 
    2560     6211     9166    10851    11163    10291     9069     8071 
    6848     4758     1844    -1177    -3966    -6762    -9569   -12265 
  -14391   -15076   -14468   -13759   -13629   -13960   -14630   -15851 
  -17619   -19027   -18863   -16809   -13451    -9751    -6892    -5907 
   -7007    -9417   -12501   -16163   -19551   -21523   -22316   -22889 
  -23588   -24237   -24644   -24876   -25110   -25264   -25432   -26223 
  -27989   -30346   -32355   -33157   -32915   -32449   -31943   -30822 
  -28800   -26433   -24283   -22222   -19948   -17238   -13759    -9685 
   -5862    -2917    -1076     -179      422      997     1199      894 
     349     -191     -870    -1871    -2805    -3053    -2219     -344 
    1838     3887     6416     9756    13410    17035    20323    22454 
   22712    21497    20055    18712    16623    13639    10729     8478 
    6283     3501      671    -1547    -3632    -6323    -9524   -12589 
  -14786   -15670   -15660   -15518   -15307   -14703   -13731   -12681 
  -11768   -11103   -10482    -9307    -7466    -5472    -3616    -2283 
   -2089    -2766    -3397    -3836    -4255    -4069    -3232    -3066 
   -4384    -6775    -9723   -12953   -16232   -19319   -22018   -23944 
  -24533   -24177   -24240   -25092   -25431   -24152   -21900   -19893 
  -18180   -16432   -15161   -14631   -13939   -12506   -11292   -11344 
  -12186   -12809   -13111   -13186   -12420   -10482    -7973    -5405 
   -2889     -840      189       98     -576    -1198    -1785    -2463 
   -3000    -3346    -3722    -4242    -4533    -4045    -2752    -1101 
     113        3    -1595    -3911    -6003    -7475    -8372    -9019 
   -9929   -11032   -11473   -10886   -10104    -9910   -10143   -10707 
  -11967   -13784   -15264   -15693   -15358   -14701   -13330   -10967 
   -8341    -6632    -6290    -6469    -6412    -6525    -7207    -8161 
   -9082    -9893   -10494   -10734   -10599   -10218    -9892   -10228 
  -11745   -14365   -17174   -19010   -19570   -19167   -18049   -16452 
  -14690   -13221   -12462   -12531   -13325   -14524   -15726   -16573 
