Origin Time       2011/03/11 14:46:00
Lat.              38.103
Long.             142.860
Depth. (km)       24
Mag.              9.0
Station Code      GNM001
Station Lat.      36.7719
Station Long.     139.2246
Station Height(m) 804
Record Time       2011/03/11 14:47:32
Sampling Freq(Hz) 100Hz
Duration Time(s)  276
Dir.              U-D
Scale Factor      3920(gal)/6182761
Max. Acc. (gal)   66.768
Last Correction   2011/03/11 14:47:17
Memo.             
[...]
  -11563    -3839     3017     3668    -6974   -23411   -28457   -12096 
   11573    21250    14671     2626    -7870   -15561   -19967   -16003 
   -2038     9496     7720    -1387    -9383   -16986   -22677   -18831 
   -2966    18835    32937    22657   -10461   -38713   -38681   -14798 
   12709    26274    19180    -3826   -29782   -42191   -32247    -6329 
   20500    33944    29787    15799     -825   -18006   -29669   -25473 
   -3214    22163    27450     5201   -24440   -37418   -31457   -14137 
   10592    31220    29692     2345   -31392   -45425   -30585      494 
   27656    39017    34451    15064   -17430   -46793   -50430   -26780 
    3554    20848    18284      931   -18590   -28998   -28233   -18611 
    1374    24312    28693     9076   -15365   -27699   -22986    -6484 
    9396    17791    17273     5670   -12817   -25671   -22934    -8785 
   -1445   -12437   -26857   -21010     1228    12972     5771      155 
   10654    22253    12368   -14162   -29705   -22865   -10742   -10938 
  -18980   -17752    -5508     1237    -1570     -245     7790     7673 
   -9238   -28946   -29989   -10581    12145    22566    18902     8444 
   -7428   -29710   -45583   -37894    -8630    20744    31358    22672 
    5269   -11500   -19614   -14192    -1436     7843    12492    14605 
    7504   -11446   -27556   -25857   -10433     4345     8692     1062 
   -9405   -11972    -9243    -7198    -2697     4797     9115     9738 
   11330    13222     8600    -5445   -19637   -22415   -16650   -12712 
   -9754     -635    12189    18717    11536    -5672   -16784   -12533 
   -4219    -6497   -16619   -19228   -12243   -10620   -15942   -14712 
   -5396     2080    -1825   -18161   -31071   -26761   -11063     6291 
   19057    25897    29686    18122   -18096   -53739   -59027   -33355 
    2375    25984    29676    15698   -11929   -40511   -51276   -36014 
   -6244    18415    30165    28159    11076    -8568   -14241    -8437 
    -374     8212    16616    19527     6858   -19071   -31840   -14142 
   15433    27908    17494     1535    -7883   -17804   -31371   -32242 
   -6616    29158    38280     6648   -36144   -49420   -28067    -2679 
    5728     7385    15636    19858     1184   -29459   -39006   -21516 
   -2853    -1195    -9214   -11130    -7346    -9728   -14923    -7970 
    9419    15658    -2016   -24018   -23766    -8779    -2229    -2419 
    5072    12640     -356   -26285   -31563    -4266    30445    40928 
   22161    -3181   -15046   -13548    -7664     -916     8230    14708 
   11221      258   -14157   -25852   -22316    -4043    14892    26582 
   29819    20879    -2384   -25638   -28375   -10513    12913    27094 
   23774     9586    -5342   -18782   -23629   -12563     3981     5577 
  -13465   -30661   -20401     8528    21925     3951   -19772   -15697 
    5080     3771   -24310   -42932   -25169     6305     9107   -10665 
  -12635     5155    10906    -4448   -19422   -16414    -4882    -3999 
  -11314    -9681     2078     8744     6684     5654     2392   -11209 
  -22077   -12375    15371    40944    41975    13578   -25950   -49847 
  -44138   -18010    11175    30907    33240    19046    -3855   -20689 
  -16858    -3440    -1492    -5584      953    17630    21841    -8593 
  -50095   -49678    -4507    30339    19909    -7805    -9367     5617 
   -2611   -24746   -19877     8539    21339     2460   -23965   -25963 
   -3313    14167     4726   -19152   -29650   -21768    -9251     3857 
   15703    16145     3072   -16425   -35074   -46238   -44657   -21857 
   16941    38123    25912     4421    -9451   -19651   -27559   -26812 
  -11736     6963    14108    14852    11697    -3281   -18341   -18218 
   -7156     5107     7894    -2766   -14303   -13683    -1173    12279 
   16076     9271    -1482    -3575     8525    17831    10783     2323 
    9288    21661    17252    -4202   -18715   -12739      879     6465 
    6292    11311    19770    15394    -8074   -31239   -29661    -3302 
   20378    16139    -5161   -13500    -5958    -1593    -6280    -8647 
    1854    15739    11951    -7339   -18856   -15137   -12466   -21160 
  -23770     1159    42368    60314    28935   -24912   -46866   -30227 
  -15960   -18349    -8223    30229    63106    46376   -10618   -54451 
  -53198   -23164     4766    21335    33699    40293    21323   -30972 
  -74921   -60367     -729    44604    46047    24315     1908   -23577 
  -49296   -49586    -8797    43819    60955    34698    -3311   -25332 
  -29643   -27628   -20724    -4202    14976    21374     8565   -10606 
  -17749   -12527    -8393    -7190      -70    10412    13167     4251 
   -9018   -14157    -8690     -663     2829    -4426   -19559   -24219 
   -7542    18909    32893    21688    -3830   -23804   -27706   -15577 
      54     7662    10719    15104    15114    -3416   -37632   -55254 
  -34304     4872    27347    24427    12310    -1112   -22054   -42291 
  -40614   -15618    12383    26214    23238    10758    -3710   -16183 
  -25122   -27165   -15470     1953     3646    -7805    -6158    14217 
   27262    14951    -6088   -14215   -14065   -14167    -5848    12009 
   24540    26850    23431    11619    -6090   -12105     1354    15050 
   12519     4837     2049    -7291   -28555   -41397   -21472    24194 
   55330    43963     7876   -19360   -30431   -35923   -34270   -13078 
   21551    38152    17561   -15662   -23137    -6960     1030    -6825 
  -14263   -11912     -502     7746    -1006   -17202   -19895    -9276 
   -5337   -14401   -19208   -11164    -2301    -2411    -5064     3701 
   21119    24596     4903   -20883   -32442   -25884   -14749    -9304 
   -3185    10664    22331    11639   -15704   -28142   -23025   -23431 
  -25721   -10178    17052    31177    21437     -311   -17242   -23048 
  -18757    -6497     9785    22537    24105    12376    -9977   -31725 
  -33860   -12407    13396    23524    12409   -11444   -27895   -21237 
   -4109    -1188    -7518    -2759     4537    -8825   -35698   -41450 
  -12455    20740    23057    -3864   -34211   -46472   -35849   -15133 
    3511    23205    42759    40396     6010   -31513   -42601   -32323 
  -17096    -2501    11473    22309    20044    -1007   -23557   -23723 
   -7080    -2297   -14897   -16052     8444    30372    19222   -15797 
  -35606   -19566     7360    15060     7102    -3140   -14247   -25851 
  -32543   -26943    -6425    20938    40984    41240    17338   -20062 
  -49004   -48930   -12983    35084    50353    20972   -13786   -24869 
  -29242   -37342   -25193    13670    47564    47363    13981   -26147 
  -46526   -42571   -23635     3263    34763    57863    49137     6713 
  -38252   -55825   -43429   -18310     4026    21739    40278    50281 
   24683   -34316   -75314   -57675    -3393    27756    13763     -586 
   16234    29757    10393   -19750   -28954   -14524    -2121    -6772 
   -7246    12248    32988    33574    13090   -11133   -22793   -31539 
  -46024   -46139   -22258     3642    11838     9167    11810    13412 
   -2426   -27080   -34038   -13550    10404    12355     2255      656 
    5275     -703   -22007   -34826   -15523    19423    33230    15796 
   -9238   -19157   -19868   -27986   -40809   -38367   -12371    16031 
   22899    10526    -3215    -6951    -7117   -11566    -6168    19797 
   43320    33618    -8558   -47033   -46983   -14888    16989    34011 
   36750    18695   -18891   -50824   -52623   -27985      427    20297 
   37124    45073    21625   -25335   -50812   -32517     2853    21859 
   22813    17928     6579   -11270   -24415   -25085   -15062    -3242 
     306    -4810   -13589   -19964   -12977     5302    12674     -661 
  -17972   -21075   -11206    -3785    -3471     2752    18789    28817 
   18087    -7202   -23372   -19446   -10814   -10197    -5852    17690 
   49974    59338    28312   -21388   -47809   -37500   -18531   -10411 
    4852    35325    51216    29445   -14831   -47429   -54176   -52856 
  -49757   -25613    19130    55164    52825    13860   -18441   -19134 
  -15781   -23588   -16912    16538    48284    39229   -12919   -59763 
  -60168   -32344   -14682   -12606   -11679    -5135     6540    17973 
   20300    11654     2088     3121    11371    12092     -889   -18694 
  -27184   -20342    -1884    14355     9330   -10245   -19409   -19275 
  -22077   -18207     3591    29664    35839    22430     9820    -1336 
  -21445   -37994   -32808    -7772    18199    25101    13701       10 
  -10367   -18258   -20016   -15786    -5654    13273    28739    20296 
   -8621   -26745    -8190    26705    29389    -5026   -36650   -45983 
  -45168   -39482   -13303    32903    56038    23936   -31981   -57302 
  -43675   -25910   -17767     4215    43058    58031    18035   -49790 
  -81538   -46664    13125    40479    36112    25971     6139   -28377 
  -57271   -54321   -10877    42370    61212    40619     2526   -28939 
  -34200   -18878     3174    26973    37815    22430   -14861   -50890 
  -51445   -17318    13996    28259    32821    26604     9388   -19134 
  -53465   -61471   -18524    42372    55992     5184   -45788   -35678 
    3574     6435   -22373   -30026    -4554    12667    -1812   -18967 
   -9556    13608    20081     1597   -20502   -27855   -30597   -37525 
  -30875     -684    25537    14403   -21312   -38138   -29533   -19507 
   -9631     3205     3991    -9620   -19090   -11208     1374    -4038 
  -17266   -10416     9918    15875     2744    -9842    -9347    -4139 
   -4223   -10770   -16314    -5183    18661    27566    12836    -6543 
  -10813       62     6262    -2381   -13273   -11792     4829    21953 
   22547    13453     3187   -18252   -46104   -55709   -38828   -13751 
     292     7239    17473    22683    14597       95   -18032   -39517 
  -47545   -26536     9609    34916    38004    19151    -8681   -27068 
  -34297   -34084   -20477     6042    27088    18238   -18801   -42169 
  -21872    10542    10036   -15504   -30737   -24982   -11874    -4381 
    -793     4628     5244    -4362   -13713   -13950    -8756    -5088 
   -9972   -21707   -24677   -13243    -1469     -512   -10377   -23810 
  -27430   -15561     5320    26607    40259    41456    25485    -7449 
  -35289   -37733   -27248   -21947   -19016    -9025     8567    17970 
    1003   -32316   -51478   -41666   -11362    25925    54549    52317 
   13099   -37006   -62168   -44093     5308    50000    58226    24621 
  -28710   -65890   -66299   -39051    -4789    21537    34889    36490 
   22996   -11279   -54343   -70756   -37693    20070    54775    45611 
   10296   -20982   -29923   -18691    -3051     9824    21582    20454 
   -5118   -39297   -54278   -37837     -957    32004    44436    32744 
    3694   -21900   -29358   -26894   -20458    -3523    15961    20297 
   13118     5589    -7223   -24103   -30283   -23926   -12050     4731 
   20860    23649     9171    -9891   -14592    -5749    -7376   -25931 
  -34564   -16211    10215    16195     -680   -14329    -9690    -3696 
   -8338   -10711    -2844     5139     4209      601     4965    11522 
    5996   -10362   -23072   -21540   -10382    -3861    -6003   -10203 
  -10330    -5065      497     3283     3950     1347    -4311   -10703 
  -14769   -10218     5445    17910    13512    -2058   -21002   -30650 
  -13398    16959    29968    22936     8962    -5416   -16345   -20171 
  -15632    -6465     1707     7110     9795     9876     5448    -5977 
  -18925   -24619   -21637   -15653   -12781    -6646    12203    28471 
   21918      457   -19038   -32286   -39284   -34908   -14901     9550 
   19619    10754    -4571   -13105   -18068   -24929   -18879     8673 
   32304    25155    -3671   -25564   -25798   -10860     3781    14895 
   29793    35802    13184   -22488   -36862   -22344      797    14393 
   14260     3399    -9155   -13752   -10981    -5333     3157     8556 
    2214   -11370   -22777   -28646   -28957   -19945     1800    18696 
   10356    -7736   -10595    -5360   -11286   -22827   -15241    15402 
   39219    33254     8393   -12854   -20537   -21101   -22270   -18663 
   -8588    -3698    -8352   -12717    -7431     2373     3535    -3637 
   -7981    -4983     3861    10949     4333    -7496    -1479    16631 
   17501    -7441   -35861   -39633   -13948    17742    29640    15985 
  -11740   -35657   -39833   -24700    -7980     4499    22454    38414 
   31758     -337   -37175   -50120   -28432     7326    25153    15397 
   -4238   -19023   -28087   -27652   -14318     5113    19475    17901 
    1570   -15226   -27110   -33057   -29639   -21985    -5497    25432 
   43347    25115   -10585   -33743   -32415   -18277    -9863    -7594 
   -3248     3037     8212     9511      472   -19765   -32866   -24056 
   -7946    -3696   -11549   -15354      -93    15438     3900   -18360 
  -23861   -18423   -20171   -30026   -30525   -10750    15458    25859 
   14944      960    -2201    -9918   -30774   -42303   -29237    -3159 
   13435    12500    14220    28404    30483     2109   -42082   -68078 
  -52915    -8715    32750    49653    37395     4853   -33742   -62660 
  -60646   -19999    30346    51417    37507    13092    -6721   -29044 
  -47642   -35211     4259    26237     9263   -23425   -44500   -40165 
  -12614    15772    26863    19776     -517   -24853   -43913   -51187 
  -40107   -10581    25858    48197    33373   -17177   -63595   -68333 
  -33067    14604    47451    49207    10858   -52314   -86687   -56841 
    4238    43418    54248    58878    46398   -11464   -87445  -109002 
  -50522    30304    62928    37222    -5230   -28845   -43297   -61884 
  -53292      458    59908    75606    32687   -32073   -66986   -69696 
  -61858   -38579     4031    43165    51217    21738   -17946   -34635 
  -31013   -25861   -18083       15    23030    33280    14852   -20070 
  -37522   -29506   -20003   -17180    -6716     8600     7929   -12750 
  -29285   -20760    -1230     6595     4096      269     2261    11973 
   13502     3105     -317      -86   -11397   -24344   -25215   -17738 
  -14584   -15684     2087    40569    57710    31074    -9836   -33503 
  -42145   -51347   -53346   -24362    28761    67136    61908    15608 
  -38997   -65270   -55471   -24747     8274    32120    44496    37458 
    6230   -31163   -53202   -48063   -15860    17966    27635    19001 
    5695   -14736   -35795   -35195   -15332     3434    20222    25445 
   -1367   -38338   -49523   -34316    -6556    15556    17216     8397 
   -4617   -29773   -46371   -22397    27341    54715    36383    -4116 
  -31232   -39618   -41238   -32949    -4340    33616    51163    34306 
   -6773   -49835   -62445   -32284     8976    32833    41370    26647 
  -16514   -50447   -46033   -17609    16072    35948    25926     -833 
  -20481   -18733     2597    18151    12897     4737     7110     3112 
  -20691   -43338   -44948   -30891    -4855    23795    30212    10843 
  -14881   -31705   -26458    -3813     9685     9114     5459     -799 
   -7082   -13461   -21503   -20460    -7648     2831     5614     8201 
   12364    13514     8965     -276    -9952   -15483   -13655    -4307 
   11278    25223    18144    -9629   -23735    -6477    17702    24995 
   17882     5744   -11375   -35527   -49818   -23796    40722    89278 
   71254     3226   -61134   -89843   -71873   -19158    29633    52804 
   56504    40668     9407   -19377   -46324   -67344   -46719    14134 
   62585    69556    41731    -4155   -47871   -65821   -41837     1668 
   23360    15077    -6500   -26573   -36763   -31787   -10234    11133 
   15765    14437    12210    -2564   -18050   -11155    12956    31497 
   35281    36397    38215    20932   -10043   -25918   -29072   -23704 
    2185    30197    30410     9528    -1749     3350     -716   -20158 
  -30894   -23519    -5418    19310    42383    50844    36583     1119 
  -37368   -54580   -44325   -18603     8142    29766    39983    19053 
  -29862   -59960   -40158     3891    19635    -9072   -40771   -35873 
   -2935    22487    24940    23296    23016    -1482   -47160   -68025 
  -40268     8009    38522    41814    27970     3229   -30180   -61993 
  -70762   -43824    -2156    25658    40100    45591    34844     6284 
  -34174   -59412   -38656     7063    30378    21227    -2431   -22680 
  -25222   -10310    11521    35664    51050    39678     5512   -28663 
  -48433   -48776   -25886    14443    46830    44204     7370   -40298 
  -69239   -53612    -3441    31430    25687    12274    18559    24835 
   18163     6102   -20776   -56358   -63326   -30945    14035    40077 
   30518     -708   -24536   -29123   -15205     7791    13887     -827 
   -3550     9684    13507    16458    21574    -2729   -43820   -51229 
  -16003    28684    46225    25096    -9678   -17048     8221    22210 
    6228    -7114    -4377    -4871   -13780   -20277   -14676     3472 
   11674    -2479    -9229     7275    22010    11294   -22001   -41143 
  -21342     8400    16651    10842    12617    18647     6625   -23157 
  -51849   -58617   -30333     9879    25898    14660    -1939    -5550 
   -1468    -2353     3457    26566    45302    35444    -1037   -42707 
  -59603   -37657     5366    45091    62729    42393    -4419   -40360 
  -41519   -17470     2082     9948    20739    17848   -15245   -42273 
  -34614   -13093      730     7387     9647     3719    -6881   -12002 
  -16055   -15641     8181    44976    63425    47814     1923   -49119 
  -68066   -34727    30657    75720    69147    34556    -1331   -37770 
  -60927   -57817   -27543    29776    73204    66242    32395   -10373 
  -47711   -49975   -30669   -14907     6115    22396    11243    -6703 
   -9358    -5372     4131    18925    29504    29218    12970   -11599 
  -34582   -51882   -43014     2824    47698    45323     5963   -26663 
  -34472   -14362    17734    17650    -8081    -6609    15969    15287 
   -8443   -18759     3476    32494    32806     6899   -19401   -33712 
  -33560   -15905     3197     8797    18767    38545    42541    18894 
  -18806   -41774   -30149    -5903     2571     7929    21676    22381 
    -132   -30665   -54417   -59197   -39063    -6045    20816    30204 
   26039    24520    25062     8569   -22225   -43934   -43535   -21206 
   10192    28818    23702     6589     -683     2357    -2582   -17466 
  -24981   -13057    -1511   -22504   -50401   -27885    25355    43977 
   22741   -10153   -38374   -43632   -24189     5749    35621    47424 
   35792    17960    -3124   -23585   -19619     3018    15566    17251 
   14981     5465    -6757   -13961   -14002   -15507   -22830   -12853 
   20241    40356    31336     8918   -10741   -15595   -11925    -5917 
   16777    47258    53405    30199     -695   -20164   -21331    -6516 
   12283    15063    -8521   -31942   -20726     2978     2947    -8676 
  -17839   -27247   -24867    -5367    10638     8855      331    -5194 
  -15986   -27922   -17688    13769    41288    43061    11088   -27167 
  -42731   -45003   -31610     2867    20170     7587     1217     7605 
    7192    -2213   -13575   -17819   -12260    -3624     9460    20964 
   14560    -2708   -10350     1369    22475    24802    -3198   -40996 
  -56762   -29650    25279    58440    37178   -11921   -39290   -34740 
  -23030   -13805     2064    12323     3958   -13696   -33844   -30805 
