Origin Time       2011/03/11 14:46:00
Lat.              38.103
Long.             142.860
Depth. (km)       24
Mag.              9.0
Station Code      HKD089
Station Lat.      43.2436
Station Long.     143.5544
Station Height(m) 90
Record Time       2011/03/11 14:48:29
Sampling Freq(Hz) 100Hz
Duration Time(s)  275
Dir.              U-D
Scale Factor      3920(gal)/6182761
Max. Acc. (gal)   8.443
Last Correction   2011/03/11 14:48:14
Memo.             
[...]
   -4589    -2051    -3297    -7002   -10157   -10859    -8745    -4984 
   -1958    -1349    -2851    -4696    -5231    -4359    -3290    -3064 
   -4047    -6187    -8505    -9510    -8746    -6946    -5617    -6189 
   -8342    -9909    -9084    -6747    -5186    -4783    -4535    -4288 
   -4424    -4611    -4023    -3014    -2958    -3972    -4740    -4423 
   -3684    -3861    -5436    -7204    -6915    -4021    -1299    -1609 
   -4222    -6156    -5825    -4149    -2621    -1845    -2058    -3071 
   -4117    -4387    -3259    -1437    -1158    -3706    -7355    -8655 
   -6427    -3266    -2417    -4143    -5838    -5895    -5160    -4431 
   -3662    -3007    -3198    -4692    -6381    -6579    -5251    -4077 
   -4325    -5276    -5441    -4664    -4192    -5016    -6343    -6402 
   -4986    -3670    -3657    -4559    -4995    -4335    -3443    -3332 
   -3928    -4304    -3680    -2070     -441     -242    -1753    -3471 
   -3950    -3435    -2809    -1908     -548      281      -57    -1023 
   -1809    -1891    -1585    -1683    -1835    -1060      172      462 
    -338    -1026    -1000     -843     -780     -354      230      -53 
   -1303    -2277    -2448    -2237    -1489       76     1870     2759 
    2027      192    -1345    -1790    -1797    -2399    -3540    -4235 
   -4188    -4456    -5536    -6349    -6342    -6154    -6373    -7311 
   -8525    -9138    -9576   -10607   -11486   -11240   -10285    -9900 
  -10940   -12709   -13552   -13218   -12861   -12956   -13265   -13352 
  -12299   -10049    -8455    -8921   -10378   -10869    -9763    -7953 
   -6419    -5377    -4629    -4159    -4522    -5994    -7734    -8382 
   -7733    -7034    -6654    -6041    -5289    -4861    -5314    -6753 
   -8649   -10189   -10407    -9249    -7781    -6910    -6882    -7633 
   -8493    -7886    -5336    -2919    -2686    -4167    -5511    -5939 
   -6232    -6963    -7490    -6976    -5727    -5157    -6013    -7047 
   -6486    -4619    -3355    -3553    -4608    -5421    -5504    -5962 
   -7405    -8615    -8806    -8327    -7849    -7866    -7918    -7453 
   -7040    -7097    -7357    -7969    -8560    -7708    -5485    -3749 
   -3175    -3107    -3422    -3897    -3835    -3284    -2654    -1880 
   -1039     -555     -335      212     1093     1494      703     -926 
   -2064    -1846     -775      171      430     -155    -1330    -2201 
   -1882     -962     -887    -1927    -3234    -3781    -3096    -2353 
   -3031    -4435    -5215    -5609    -6128    -6682    -7245    -7498 
   -6895    -5889    -5910    -7104    -7953    -8115    -8117    -7280 
   -5346    -3517    -2830    -2943    -2329     -389     1284      842 
   -1634    -4003    -3994    -1711      436      383    -1833    -4488 
   -5498    -4324    -2604    -1939    -2276    -2703    -2315     -709 
    1384     2802     3527     3965     3622     2418     1260      614 
     546     1135     1596      961     -151     -314      766     2255 
    2872     1685     -592    -2221    -2553    -2665    -3774    -5278 
   -5760    -5257    -4833    -5047    -5248    -4644    -4142    -5347 
   -7997    -9723    -9003    -7411    -6880    -7292    -8076    -8973 
   -9520    -9193    -7951    -6325    -4761    -3679    -3435    -3860 
   -4684    -5178    -4146    -1859     -138     -242    -1894    -3615 
   -3766    -2446    -2036    -4144    -7203    -8836    -8657    -7393 
   -5564    -4584    -6012    -8571    -9433    -8009    -5856    -4641 
   -5462    -7826    -9679   -10134    -9990    -9437    -8171    -7033 
   -7121    -8035    -8492    -7733    -6175    -5386    -6299    -7778 
   -8178    -7236    -6130    -6236    -7457    -8513    -8995    -9269 
   -8875    -7383    -5697    -5097    -6402    -9253   -11571   -11533 
   -9733    -8453    -8829    -9719   -10160   -10888   -12388   -13183 
  -11484    -7655    -3988    -2850    -4810    -7893    -9100    -6949 
   -3056     -572    -1025    -3835    -7011    -7914    -5567    -2066 
    -750    -2445    -4660    -5197    -3984    -1938     -789    -1806 
   -3595    -4224    -4301    -5283    -6970    -7883    -7276    -6503 
   -7165    -8512    -8578    -6961    -5029    -4113    -4651    -5793 
   -5584    -3842    -2979    -4020    -5097    -4495    -2705    -1477 
   -1605    -2447    -3390    -3919    -2971     -725      454     -805 
   -3309    -5451    -6177    -5279    -3828    -3484    -5277    -8449 
  -10863   -10723    -8034    -5235    -4917    -7137   -10202   -12370 
  -12853   -12159   -11520   -12204   -13973   -14945   -14422   -13466 
  -12530   -11276    -9834    -8631    -8062    -8456    -9657   -10432 
   -9302    -6844    -5348    -5785    -6818    -6861    -5765    -4358 
   -3409    -3321    -4220    -5354    -5651    -5562    -5791    -5481 
   -3745    -1353     -160    -1064    -2665    -2484        4     2283 
    2070      153    -1377    -1896    -2202    -2383    -1494       59 
     447     -642    -1465     -766      733     1710     1796     1282 
     984     1542     2003     1213     -362    -1540    -1818    -1487 
   -1079    -1404    -2904    -4627    -5469    -5590    -5954    -7065 
   -8117    -8043    -7195    -7233    -9015   -11035   -11721   -11920 
  -12733   -13075   -11457    -8879    -7991    -9629   -11889   -12632 
  -11821   -10920   -10749   -10911   -10681   -10094   -10223   -11564 
  -12764   -12315   -10390    -8064    -6227    -5396    -5496    -6038 
   -6293    -5621    -4379    -3821    -4748    -6252    -6528    -5342 
   -4145    -3869    -4233    -4655    -4632    -4172    -4128    -5134 
   -6821    -8321    -8906    -8612    -8133    -7615    -6605    -5312 
   -4771    -6034    -8796   -10495    -8917    -5234    -2781    -4040 
   -8457   -12180   -11658    -7808    -4989    -5838    -8825   -10837 
  -10162    -7537    -5187    -4467    -5068    -5797    -5638    -4641 
   -3664    -3512    -3977    -4262    -4750    -6256    -8300    -9668 
   -9291    -6885    -3724    -1936    -2529    -4659    -6823    -7377 
   -5229    -1881     -429    -2058    -5141    -7457    -8193    -7345 
   -5415    -4073    -4527    -6143    -7468    -7474    -6106    -4303 
   -3560    -4279    -5064    -4997    -4596    -4319    -4194    -3683 
   -1837      713     1943     1108     -853    -2315    -2159     -842 
     298      307     -591    -1329    -1392    -1474    -2643    -4518 
   -5530    -5078    -3857    -3113    -3618    -4593    -4396    -2391 
    -236     -242    -2240    -4052    -3993    -1916      734     2222 
    2135     1246      690     1164     1922     1666      640     -169 
    -857    -1926    -3003    -3147    -2531    -2555    -3222    -3261 
   -2751    -2497    -2692    -3274    -3753    -3623    -3450    -4306 
   -6256    -8261    -9264    -9207    -8996    -8862    -8108    -7133 
   -7140    -7808    -7847    -7479    -7764    -8218    -7963    -7557 
   -7402    -7017    -6718    -7153    -7463    -6434    -4761    -4108 
   -4750    -5689    -5930    -4842    -2807    -1571    -2492    -4820 
   -6621    -6753    -5540    -4082    -2889    -1283      918     2115 
    1001    -1303    -2530    -1811     -110      993      375    -1497 
   -2719    -2206     -757      212     -125    -1585    -3007    -3662 
   -3979    -3890    -3064    -2269    -2119    -2515    -3462    -4582 
   -5405    -6529    -8309    -9392    -8818    -7880    -8179    -9694 
  -11586   -13152   -13862   -13738   -13449   -12986   -11602   -10050 
  -10076   -11601   -12966   -12771   -10716    -7862    -6094    -6925 
   -9958   -12533   -12445   -10592    -9478   -10341   -12480   -13997 
  -13635   -12249   -11372   -11058   -10401    -9360    -8850    -9207 
   -9669    -9294    -7526    -5016    -3897    -5355    -7986    -9774 
   -9917    -8766    -7637    -7821    -9052    -9993   -10080    -9820 
   -9543    -8960    -7832    -6567    -6198    -7329    -9086    -9648 
   -7947    -4857    -2540    -2579    -4489    -6229    -6898    -7210 
   -7218    -6837    -6962    -7881    -9141   -10313   -10485    -8993 
   -6978    -6442    -7306    -7660    -7189    -7191    -8047    -8915 
   -8831    -7691    -6423    -6226    -7601    -9381    -9504    -7331 
   -4161    -2157    -2896    -5655    -7576    -6546    -3518    -1157 
    -739    -1278    -1570    -1699    -1737    -1191     -416     -213 
    -699    -1814    -3043    -3418    -3039    -2654    -2434    -2770 
   -4261    -6258    -7604    -8290    -8469    -7910    -7132    -6744 
   -6941    -8131   -10105   -11357   -10408    -7692    -5479    -5193 
   -6020    -6690    -6571    -5347    -3495    -2345    -3258    -6115 
   -8147    -6975    -4162    -2553    -2561    -2907    -2810    -2428 
   -2046    -1976    -1973    -1050      455     1284     1481     1754 
    2379     3082     3472     3881     4571     4609     3229     1494 
     917     1478     2207     2135     1035       64      -23        3 
    -335     -497     -350     -776    -1987    -2527    -1099     1625 
    3118     1603    -1315    -2861    -2347    -1148    -1470    -3988 
   -6649    -7404    -6641    -5705    -4836    -4170    -4663    -6508 
   -8602    -9573    -8655    -6765    -6005    -7147    -8868    -9772 
   -9510    -8329    -7206    -6895    -6861    -6839    -7533    -9227 
  -10786   -10431    -7974    -5052    -3323    -3533    -4990    -5699 
   -4330    -2046    -1201    -2493    -4718    -6539    -7215    -6196 
   -3879    -2247    -2481    -3696    -4756    -5138    -5230    -6073 
   -7568    -8266    -7316    -5592    -4509    -4396    -4752    -5085 
   -4989    -4420    -4105    -4753    -6027    -7086    -7243    -6143 
   -4336    -3027    -2861    -3257    -3244    -2746    -2193    -2076 
   -3428    -6237    -8213    -7625    -5574    -4095    -4016    -5140 
   -6473    -6705    -5656    -4313    -3966    -5141    -6959    -8195 
   -8043    -6713    -5723    -6065    -6597    -5406    -3063    -2276 
   -3571    -4887    -5081    -4826    -4801    -4649    -4140    -3887 
   -4365    -5322    -5421    -3556    -1130     -230     -836    -1644 
   -1618     -763     -131     -664    -1920    -2449    -2101    -2083 
   -2799    -4196    -6113    -7538    -7996    -8095    -8051    -7588 
   -7070    -7566    -9314   -11222   -12230   -12243   -12210   -13020 
  -14084   -14427   -14244   -13839   -12596   -10236    -7709    -6183 
   -6148    -7372    -8753    -9197    -8999    -8734    -7843    -5981 
   -4209    -4002    -5419    -6866    -6872    -5435    -4035    -3922 
   -4714    -5844    -7185    -7966    -7390    -6129    -5915    -7227 
   -8879    -9879    -9871    -9120    -8660    -9008    -9624    -9832 
   -9279    -8038    -6674    -6070    -6770    -8326    -9816   -10585 
  -10466    -9885    -9364    -8957    -8361    -7531    -6971    -6886 
   -6765    -6298    -5737    -5406    -5593    -6347    -7298    -8146 
   -8394    -7101    -4620    -3214    -3997    -5089    -4568    -3126 
   -2385    -2771    -3495    -3280    -1910     -924    -1686    -3651 
   -4630    -3250    -1218     -864    -1988    -3145    -3640    -3646 
   -3619    -3964    -4849    -5860    -6304    -5825    -4799    -4330 
   -5065    -6428    -7161    -6451    -5082    -4556    -5041    -5346 
   -4964    -4951    -5695    -6148    -6197    -6432    -6393    -5703 
   -5297    -5994    -6915    -6670    -5204    -3557    -2993    -4180 
   -6350    -7542    -6438    -4093    -2640    -2974    -4623    -6701 
   -8578    -9357    -8045    -5832    -5297    -6610    -7639    -7203 
   -5936    -4835    -4544    -5510    -7392    -8744    -8616    -7706 
   -6981    -6504    -6446    -7404    -9003    -9892    -8912    -6168 
   -3696    -3371    -4715    -6069    -6034    -4287    -2171    -1238 
   -1603    -2448    -3310    -4386    -5611    -6189    -5882    -5660 
   -6222    -6942    -6682    -5370    -4384    -4626    -5280    -5320 
   -4529    -3129    -1926    -1733    -2082    -1948    -1185     -236 
     665     1280     1096       63    -1143    -1845    -1705     -838 
     182      669      392     -331    -1361    -2549    -3186    -2895 
   -2126    -1222     -121      868     1248      955     -119    -1827 
   -3066    -3163    -3003    -3736    -5091    -5416    -3882    -2262 
   -2764    -5070    -7216    -7899    -7574    -7653    -8399    -8981 
   -8950    -8248    -7228    -6769    -7355    -8509    -9466    -9739 
   -8958    -7304    -5878    -5594    -6476    -7919    -8650    -7612 
   -5437    -3766    -3468    -4080    -4096    -2404      -17     1308 
    1724     2554     3947     4578     3575     2061     1687     2282 
    2359     1486      755      971     1762     1883      191    -2478 
   -4175    -4719    -5060    -5557    -6271    -6974    -7136    -6645 
   -5914    -5686    -6719    -8781   -10353    -9858    -7287    -4792 
   -4860    -7551   -10757   -12770   -12849   -10749    -7852    -6904 
   -9022   -12487   -14852   -14554   -11239    -6604    -3717    -4501 
   -8340   -12307   -13242   -10557    -6400    -3866    -5017    -8444 
  -10140    -8603    -6387    -5960    -6568    -5937    -3873    -2430 
   -2695    -3375    -2896    -1474     -404     -227     -286      282 
    1350     1654      502     -771     -630       73     -825    -3349 
   -5031    -4408    -2507     -829     -323    -1639    -4325    -6502 
   -6650    -5346    -4523    -5339    -7194    -8827    -9889   -10596 
  -11046   -11665   -12356   -12061   -10707    -9795   -10633   -12729 
  -14176   -13953   -12956   -12608   -13610   -15690   -17739   -18622 
  -18110   -16816   -15447   -14663   -15161   -16602   -17455   -16765 
  -14827   -12526   -11066   -11401   -13121   -14554   -14506   -13386 
  -12303   -11863   -12232   -13165   -13487   -12194   -10409    -9960 
  -10656   -10950    -9690    -6788    -3743    -2455    -2966    -4047 
   -5112    -5906    -6209    -6335    -6435    -6174    -5470    -4931 
   -5093    -5844    -7230    -8824    -9233    -8437    -8147    -9261 
  -10805   -11398   -10845    -9961    -9742   -10528   -11350   -11150 
  -10107    -9110    -9142   -10475   -11913   -11819    -9864    -7522 
   -6480    -6686    -6880    -6373    -5515    -4947    -4774    -4293 
   -2373      980     3539     3290     1256       93     1141     3495 
    4943     4166     2204     1258     2158     3376     2953      964 
    -513      -41     1076      613    -1536    -3621    -4309    -3771 
   -3164    -3341    -3651    -2674     -753      138     -842    -2814 
   -4306    -3996    -1920       -2       73    -1195    -2475    -3095 
   -2774    -1813     -996     -803    -1345    -2110    -1822     -288 
     526     -745    -2496    -2761    -2318    -2741    -3903    -5099 
   -6028    -6443    -6227    -5571    -4766    -3763    -2757    -2586 
   -3245    -3856    -4648    -6253    -7415    -6591    -4906    -4328 
   -4726    -5058    -5221    -5568    -5900    -5592    -4502    -3092 
   -2108    -2485    -4154    -5544    -5692    -4949    -3400    -1490 
   -1004    -2825    -5535    -6760    -5201    -2554    -1748    -3065 
   -4702    -5505    -5633    -5832    -6255    -6434    -6124    -5322 
   -4356    -3824    -3626    -3293    -3247    -3833    -4182    -3618 
   -2633    -2123    -2467    -2984    -2915    -2591    -2421    -2268 
   -2506    -3584    -4786    -5137    -4479    -3071    -1530     -763 
    -867     -823      -87      441     -187    -1559    -2507    -2592 
   -2659    -3492    -4416    -4373    -3813    -4245    -5682    -5979 
   -4082    -1735    -1061    -2754    -5524    -6773    -5868    -4770 
   -4694    -5096    -5452    -5726    -5536    -4679    -4419    -6084 
   -8752   -10157    -9268    -7471    -7132    -8809   -10490    -9716 
   -6615    -4496    -6066    -9672   -11223    -9269    -6306    -5270 
   -6402    -8037    -9094    -9801   -10420   -10290    -9043    -7594 
   -7035    -7294    -7191    -6291    -5615    -5759    -6231    -6265 
   -5495    -4725    -4971    -5791    -6157    -5982    -5991    -6849 
   -8317    -9408    -9344    -7822    -5335    -3567    -4121    -6499 
   -8313    -8171    -7068    -6405    -6804    -8254    -9356    -8796 
   -7563    -7040    -7202    -7737    -8359    -8425    -8018    -8381 
  -10251   -12836   -14355   -13680   -12108   -11619   -12219   -12675 
  -11874   -10164    -9770   -11670   -13840   -13912   -11946   -10147 
  -10134   -11332   -12009   -11004    -8883    -7353    -7588    -9380 
  -11286   -11516    -9468    -6812    -6051    -7868   -10779   -12786 
  -12978   -11950   -10804    -9879    -8445    -6352    -5388    -6691 
   -8416    -8581    -7748    -7355    -8019    -9775   -12032   -13489 
  -13257   -11540    -9192    -7538    -7652    -9353   -10965   -10398 
   -7810    -5614    -5270    -6046    -6156    -4773    -3146    -2877 
   -3774    -4297    -3849    -3103    -2189    -1042     -679    -1765 
   -3311    -3852    -2853    -1165     -419    -1201    -2435    -3065 
   -3284    -3924    -4655    -3869    -1704     -762    -2623    -5969 
   -8263    -8331    -7212    -5959    -4394    -3252    -3935    -5531 
   -5814    -4598    -3444    -3177    -3433    -3863    -4526    -5375 
   -5846    -5291    -4128    -3871    -5474    -7762    -8323    -6536 
   -4038    -2292    -1652    -1731    -2263    -4069    -7214    -8910 
   -6872    -3303    -2287    -5367   -10651   -14235   -13332    -8736 
   -4119    -3034    -5434    -8022    -8461    -7020    -5246    -4520 
   -4853    -5226    -4709    -3213    -1818    -1159     -454      783 
    1843     1725      553     -173      641     2721     5029     6166 
    5404     3934     3717     4902     5947     5959     5243     4305 
    3499     2989     2657     2346     2079     2133     2683     3054 
    2266      337    -1610    -1803     1024     5192     6414     3108 
   -1274    -3023    -1758      546     1112    -1286    -4768    -6580 
   -5540    -2573     -489    -1547    -4604    -6465    -5907    -4666 
   -4846    -6682    -8451    -8364    -6716    -5666    -6486    -7879 
   -8269    -7941    -7930    -8759   -10035   -11105   -11620   -10672 
   -8529    -7853    -9689   -11613   -11496   -10044    -9029    -8924 
   -9153    -9303    -9555   -10331   -11202   -11508   -11919   -13099 
  -14278   -14657   -14572   -14538   -14304   -13532   -12165   -10602 
  -10431   -12493   -14623   -14194   -11763    -9870    -9480   -10093 
  -11534   -13444   -14837   -14576   -12045    -8575    -7192    -9372 
  -12951   -14343   -12026    -7591    -4080    -3216    -4683    -7433 
  -10064   -10749    -8543    -4844    -2339    -2680    -5542    -8853 
  -10427    -9620    -7333    -5387    -5160    -6612    -8725    -9947 
   -9144    -6746    -4402    -3593    -4095    -4232    -3275    -2120 
   -1614    -1991    -3422    -5300    -6115    -5790    -5841    -6233 
   -5508    -3806    -2676    -2938    -4202    -5293    -4994    -3237 
   -1352     -614     -971    -1817    -2906    -3763    -3655    -2510 
   -1045     -202     -395     -927     -728       37      362      556 
    1838     3950     5123     4060     1403     -432      536     3219 
    4269     2388     -461    -2156    -2028     -668      630     1115 
     785       91     -324     -283      212     1101     1464      523 
    -802    -1127     -508     -166    -1167    -2968    -3634    -2619 
