Origin Time       2011/03/11 14:46:00
Lat.              38.103
Long.             142.860
Depth. (km)       24
Mag.              9.0
Station Code      HKD057
Station Lat.      43.7054
Station Long.     144.0273
Station Height(m) 99
Record Time       2011/03/11 14:48:48
Sampling Freq(Hz) 100Hz
Duration Time(s)  262
Dir.              E-W
Scale Factor      3920(gal)/6182761
Max. Acc. (gal)   7.098
Last Correction   2011/03/11 14:48:33
Memo.             
[...]
   -9032    -8483    -8042    -7876    -8011    -8224    -8281    -8308 
   -8518    -8886    -9413   -10135   -10863   -11411   -11827   -12233 
  -12711   -13242   -13676   -13945   -14188   -14505   -14791   -14930 
  -14895   -14617   -14159   -13840   -13809   -13888   -13842   -13529 
  -12989   -12416   -11935   -11672   -11775   -12091   -12262   -12074 
  -11481   -10680   -10063    -9817    -9760    -9626    -9422    -9309 
   -9238    -9154    -9217    -9495    -9935   -10504   -11070   -11486 
  -11738   -11773   -11537   -11222   -11035   -10899   -10708   -10533 
  -10419   -10270   -10021    -9650    -9131    -8486    -7712    -6831 
   -6084    -5665    -5465    -5326    -5244    -5249    -5363    -5707 
   -6370    -7178    -7901    -8502    -9003    -9464    -9951   -10339 
  -10557   -10859   -11348   -11841   -12277   -12588   -12578   -12301 
  -12054   -11951   -11834   -11489   -10827    -9947    -9071    -8413 
   -8079    -8024    -8076    -7987    -7649    -7312    -7281    -7539 
   -7878    -8053    -7861    -7353    -6807    -6397    -6086    -5805 
   -5484    -5096    -4699    -4313    -4053    -4073    -4266    -4540 
   -4944    -5335    -5482    -5390    -5205    -5077    -5256    -5817 
   -6439    -6836    -7043    -7202    -7440    -7842    -8356    -8743 
   -8809    -8630    -8397    -8192    -8044    -8009    -8064    -8125 
   -8114    -7851    -7347    -6924    -6637    -6286    -5852    -5364 
   -4878    -4519    -4246    -3972    -3788    -3693    -3595    -3599 
   -3826    -4285    -4902    -5476    -5933    -6405    -6976    -7654 
   -8403    -9121    -9726   -10153   -10361   -10534   -10958   -11583 
  -12126   -12392   -12326   -12178   -12275   -12580   -12936   -13378 
  -13923   -14400   -14653   -14636   -14378   -14030   -13636   -13107 
  -12565   -12147   -11824   -11545   -11188   -10704   -10219    -9832 
   -9627    -9638    -9702    -9640    -9505    -9528    -9845   -10303 
  -10653   -10868   -11080   -11423   -11883   -12241   -12370   -12310 
  -12128   -11908   -11742   -11676   -11603   -11321   -10774   -10085 
   -9522    -9306    -9350    -9448    -9491    -9368    -9035    -8708 
   -8575    -8476    -8295    -8139    -7991    -7852    -7855    -7934 
   -7977    -8172    -8744    -9523   -10140   -10489   -10705   -10936 
  -11324   -11911   -12536   -12992   -13267   -13502   -13823   -14235 
  -14669   -15128   -15528   -15590   -15235   -14714   -14267   -13932 
  -13661   -13374   -13041   -12739   -12362   -11696   -10915   -10304 
   -9816    -9323    -8834    -8353    -7800    -7144    -6467    -5930 
   -5655    -5546    -5430    -5290    -5169    -5096    -5079    -5093 
   -5141    -5233    -5302    -5230    -4975    -4633    -4371    -4343 
   -4618    -5086    -5458    -5551    -5540    -5691    -6090    -6702 
   -7374    -7914    -8318    -8619    -8748    -8879    -9333   -10030 
  -10627   -10925   -10975   -11027   -11244   -11561   -11837   -11902 
  -11694   -11360   -10996   -10532    -9940    -9324    -8840    -8601 
   -8554    -8471    -8215    -7894    -7701    -7706    -7820    -7862 
   -7706    -7487    -7469    -7719    -8096    -8421    -8653    -8943 
   -9401    -9920   -10276   -10396   -10455   -10561   -10624   -10590 
  -10440   -10161    -9858    -9615    -9493    -9678   -10201   -10797 
  -11276   -11589   -11740   -11870   -12138   -12505   -12755   -12768 
  -12659   -12574   -12509   -12360   -12023   -11548   -11111   -10791 
  -10538   -10352   -10340   -10538   -10791   -10928   -10935   -10861 
  -10781   -10856   -11224   -11768   -12181   -12326   -12322   -12309 
  -12381   -12582   -12749   -12691   -12433   -11995   -11389   -10816 
  -10343    -9800    -9089    -8314    -7630    -7056    -6597    -6305 
   -6035    -5614    -5097    -4663    -4546    -4779    -5017    -4996 
   -4875    -4927    -5209    -5662    -6250    -6941    -7630    -8275 
   -8981    -9806   -10665   -11332   -11623   -11732   -11934   -12193 
  -12433   -12696   -12911   -12864   -12504   -12012   -11536   -11177 
  -10973   -10788   -10552   -10357   -10260   -10291   -10447   -10625 
  -10761   -10900   -11059   -11104   -10844   -10371   -10009    -9865 
   -9816    -9701    -9438    -9191    -9124    -9156    -9238    -9357 
   -9357    -9143    -8820    -8638    -8822    -9304    -9751    -9938 
   -9939   -10035   -10377   -10747   -10867   -10725   -10445   -10146 
   -9925    -9877   -10045   -10375   -10804   -11276   -11684   -11924 
  -11978   -11932   -11973   -12192   -12456   -12546   -12347   -11902 
  -11300   -10587    -9850    -9202    -8635    -8099    -7606    -7192 
   -6918    -6822    -6920    -7218    -7647    -8196    -8890    -9575 
   -9999   -10018    -9716    -9298    -8894    -8590    -8487    -8538 
   -8514    -8393    -8461    -8872    -9475   -10035   -10443   -10735 
  -11001   -11280   -11425   -11286   -10936   -10437    -9804    -9122 
   -8456    -8007    -7965    -8113    -8127    -7940    -7628    -7332 
   -7226    -7322    -7394    -7236    -6885    -6500    -6172    -5939 
   -5804    -5645    -5275    -4669    -4048    -3746    -3927    -4381 
   -4698    -4731    -4597    -4322    -3941    -3701    -3769    -4031 
   -4273    -4351    -4369    -4536    -4832    -5159    -5576    -6058 
   -6454    -6701    -6825    -6872    -6834    -6714    -6650    -6692 
   -6709    -6611    -6446    -6340    -6410    -6693    -7094    -7458 
   -7665    -7668    -7601    -7708    -7982    -8102    -7899    -7539 
   -7168    -6857    -6747    -6891    -7176    -7458    -7692    -7951 
   -8331    -8821    -9202    -9295    -9250    -9246    -9232    -9163 
   -9115    -9110    -9151    -9239    -9302    -9406    -9661    -9875 
   -9908    -9942   -10109   -10245   -10126    -9736    -9290    -9123 
   -9470   -10195   -10964   -11555   -11952   -12278   -12736   -13459 
  -14224   -14606   -14486   -14135   -13874   -13721   -13461   -13005 
  -12482   -12075   -11835   -11730   -11636   -11330   -10897   -10711 
  -10965   -11574   -12221   -12568   -12603   -12595   -12780   -13141 
  -13478   -13646   -13642   -13557   -13434   -13093   -12311   -11199 
  -10101    -9289    -8843    -8588    -8351    -8125    -7905    -7811 
   -8106    -8876    -9971   -11103   -11999   -12620   -13181   -13927 
  -14829   -15608   -16024   -16063   -15876   -15656   -15557   -15583 
  -15626   -15558   -15258   -14739   -14153   -13594   -13037   -12493 
  -12033   -11617   -11145   -10587    -9959    -9428    -9151    -9018 
   -8919    -8915    -9025    -9146    -9145    -8952    -8632    -8387 
   -8330    -8363    -8359    -8216    -7785    -7034    -6179    -5398 
   -4690    -4100    -3640    -3219    -2892    -2858    -3225    -3940 
   -4870    -5819    -6627    -7323    -7910    -8271    -8532    -9006 
   -9647   -10070   -10048    -9620    -9026    -8590    -8369    -8289 
   -8374    -8471    -8348    -8024    -7661    -7428    -7410    -7543 
   -7809    -8287    -8901    -9468    -9932   -10277   -10473   -10601 
  -10712   -10692   -10467   -10137    -9894    -9882    -9989    -9931 
   -9618    -9187    -8856    -8794    -8936    -9143    -9402    -9657 
   -9818    -9896    -9943    -9969    -9962    -9890    -9710    -9421 
   -9018    -8539    -8130    -7837    -7620    -7516    -7562    -7764 
   -8084    -8381    -8589    -8812    -9121    -9469    -9839   -10259 
  -10693   -10971   -10886   -10532   -10232   -10081   -10045   -10052 
   -9839    -9309    -8711    -8200    -7784    -7507    -7325    -7173 
   -7168    -7330    -7453    -7490    -7635    -8049    -8754    -9691 
  -10806   -11969   -12900   -13454   -13844   -14391   -15159   -15872 
  -16179   -16073   -15850   -15688   -15552   -15327   -14974   -14565 
  -14094   -13507   -12892   -12364   -11874   -11317   -10731   -10286 
  -10186   -10461   -10756   -10784   -10699   -10728   -10916   -11238 
  -11550   -11647   -11494   -11244   -11039   -10949   -10940   -10902 
  -10818   -10737   -10590   -10234    -9557    -8547    -7314    -6092 
   -5179    -4651    -4318    -4033    -3773    -3544    -3401    -3396 
   -3545    -3931    -4560    -5254    -6003    -7033    -8321    -9578 
  -10630   -11417   -11919   -12134   -12021   -11698   -11444   -11230 
  -10808   -10223    -9688    -9240    -8786    -8244    -7656    -7137 
   -6712    -6366    -6146    -6168    -6496    -6922    -7178    -7241 
   -7167    -7017    -6998    -7285    -7828    -8410    -8747    -8736 
   -8629    -8714    -8968    -9220    -9425    -9602    -9763   -10031 
  -10549   -11269   -11987   -12482   -12694   -12735   -12636   -12353 
  -11880   -11153   -10222    -9419    -9072    -9222    -9656   -10048 
  -10123    -9881    -9664    -9766   -10099   -10367   -10379   -10118 
   -9774    -9692   -10029   -10615   -11165   -11476   -11603   -11760 
  -11981   -12053   -11813   -11416   -11203   -11381   -11780   -11946 
  -11734   -11449   -11321   -11406   -11693   -11999   -12167   -12250 
  -12347   -12436   -12439   -12324   -12078   -11765   -11550   -11475 
  -11443   -11424   -11434   -11446   -11484   -11582   -11649   -11538 
  -11133   -10420    -9573    -8853    -8405    -8133    -7894    -7697 
   -7595    -7626    -7728    -7727    -7640    -7676    -7849    -7934 
   -7800    -7490    -7139    -6888    -6654    -6261    -5743    -5239 
   -4873    -4696    -4669    -4797    -5061    -5335    -5521    -5610 
   -5648    -5681    -5765    -5951    -6181    -6379    -6616    -6964 
   -7367    -7717    -7925    -8033    -8245    -8646    -9054    -9269 
   -9446   -10036   -11182   -12527   -13615   -14259   -14755   -15493 
  -16394   -17171   -17632   -17596   -17003   -16011   -14913   -13925 
  -13031   -12135   -11208   -10296    -9463    -8696    -7973    -7400 
   -7123    -7067    -7058    -7090    -7179    -7283    -7433    -7593 
   -7640    -7560    -7331    -6877    -6393    -6168    -6102    -5970 
   -5758    -5446    -5037    -4709    -4544    -4526    -4745    -5197 
   -5630    -5792    -5653    -5361    -5081    -4862    -4633    -4237 
   -3583    -2901    -2479    -2372    -2647    -3310    -4262    -5540 
   -7088    -8745   -10513   -12352   -14167   -15946   -17537   -18665 
  -19269   -19520   -19562   -19442   -19116   -18499   -17671   -16807 
  -15885   -14764   -13492   -12302   -11429   -10925   -10602   -10291 
   -9938    -9571    -9431    -9676   -10074   -10330   -10345   -10242 
  -10255   -10430   -10680   -10976   -11272   -11597   -12002   -12335 
  -12514   -12705   -12985   -13298   -13568   -13645   -13463   -13176 
  -12930   -12674   -12295   -11757   -11066   -10294    -9642    -9256 
   -9110    -9082    -9019    -8853    -8689    -8611    -8550    -8471 
   -8539    -8953    -9691   -10518   -11237   -11729   -11999   -12277 
  -12697   -13215   -13819   -14354   -14604   -14531   -14122   -13399 
  -12454   -11385   -10375    -9620    -9059    -8382    -7466    -6559 
   -5920    -5615    -5566    -5579    -5577    -5726    -6093    -6552 
   -7058    -7638    -8280    -8949    -9578   -10212   -10971   -11708 
  -12127   -12188   -12138   -12199   -12312   -12327   -12229   -12028 
  -11712   -11310   -10819   -10201    -9384    -8322    -7228    -6432 
   -5948    -5517    -4891    -4097    -3471    -3236    -3350    -3710 
   -4216    -4919    -5874    -6919    -7894    -8709    -9371   -10096 
  -10991   -11855   -12463   -12747   -12743   -12464   -11861   -11028 
  -10175    -9378    -8672    -8116    -7728    -7525    -7378    -7110 
   -6857    -6957    -7568    -8403    -8931    -8977    -8875    -8983 
   -9216    -9240    -9017    -8739    -8568    -8697    -9136    -9561 
   -9725    -9724    -9809   -10116   -10548   -10868   -10973   -10939 
  -10840   -10708   -10669   -10929   -11453   -11917   -12181   -12378 
  -12632   -12942   -13132   -13049   -12795   -12536   -12259   -11876 
  -11397   -10849   -10246    -9748    -9535    -9576    -9742    -9943 
  -10174   -10566   -11108   -11497   -11655   -11805   -11968   -11977 
  -11745   -11383   -11102   -10866   -10535   -10101    -9550    -8916 
   -8209    -7324    -6338    -5507    -4880    -4367    -4022    -3954 
   -4147    -4535    -5090    -5788    -6570    -7347    -7970    -8388 
   -8719    -8997    -9251    -9577    -9970   -10373   -10659   -10703 
  -10578   -10358   -10092    -9987   -10181   -10465   -10490   -10164 
   -9768    -9656    -9833   -10043   -10208   -10417   -10736   -11097 
  -11268   -11145   -10810   -10340    -9856    -9430    -9033    -8594 
   -8031    -7447    -7064    -6908    -6784    -6564    -6353    -6264 
   -6320    -6526    -6705    -6711    -6677    -6684    -6623    -6441 
   -6061    -5441    -4895    -4674    -4649    -4684    -4593    -4199 
   -3712    -3371    -3146    -3014    -3004    -3093    -3243    -3441 
   -3704    -4113    -4744    -5585    -6529    -7380    -7986    -8329 
   -8453    -8546    -8795    -9016    -8917    -8596    -8352    -8293 
   -8428    -8698    -8895    -8910    -8819    -8696    -8668    -8828 
   -9017    -9035    -8972    -9056    -9294    -9402    -9176    -8809 
   -8587    -8531    -8582    -8740    -9050    -9579   -10259   -10923 
  -11450   -11749   -11827   -11771   -11636   -11474   -11379   -11371 
  -11340   -11222   -11076   -10937   -10867   -10942   -11134   -11400 
  -11737   -12251   -13030   -13876   -14578   -15153   -15674   -16268 
  -17035   -17789   -18357   -18912   -19543   -20038   -20320   -20460 
  -20513   -20601   -20668   -20413   -19732   -18749   -17577   -16310 
  -15035   -13800   -12660   -11657   -10731    -9802    -8944    -8332 
   -8015    -7845    -7625    -7262    -6769    -6131    -5280    -4300 
   -3491    -3066    -2949    -2930    -2958    -3213    -3882    -4895 
   -5992    -7061    -8158    -9162    -9884   -10425   -10932   -11353 
  -11599   -11611   -11450   -11360   -11515   -11861   -12213   -12402 
  -12385   -12276   -12275   -12471   -12730   -12851   -12751   -12522 
  -12268   -11966   -11558   -11072   -10578   -10109    -9650    -9211 
   -8781    -8268    -7621    -6955    -6360    -5763    -5139    -4552 
   -4126    -4001    -4037    -4052    -4225    -4757    -5642    -6813 
   -8054    -9092    -9938   -10720   -11376   -11825   -12047   -11998 
  -11774   -11633   -11709   -11840   -11822   -11739   -11818   -12112 
  -12392   -12331   -11869   -11279   -10844   -10554   -10235    -9835 
   -9385    -8966    -8656    -8410    -8193    -8070    -8085    -8255 
   -8570    -9014    -9660   -10563   -11563   -12443   -13129   -13590 
  -13897   -14254   -14750   -15335   -15998   -16689   -17180   -17232 
  -16803   -16023   -15127   -14339   -13629   -12786   -11727   -10617 
   -9782    -9410    -9397    -9520    -9595    -9619    -9835   -10418 
  -11277   -12205   -12940   -13283   -13304   -13231   -13198   -13178 
  -13088   -12858   -12440   -11865   -11272   -10831   -10475    -9853 
   -8822    -7636    -6633    -6062    -5859    -5724    -5641    -5828 
   -6359    -7147    -8056    -8896    -9488    -9843   -10152   -10594 
  -11106   -11387   -11344   -11208   -11118   -11068   -11063   -11101 
  -11148   -11093   -10797   -10329    -9932    -9743    -9728    -9715 
   -9522    -9149    -8636    -8049    -7595    -7220    -6682    -6059 
   -5484    -4955    -4603    -4535    -4651    -4889    -5262    -5661 
   -5948    -6103    -6206    -6362    -6655    -7120    -7601    -7803 
   -7637    -7309    -7125    -7198    -7331    -7229    -6769    -6122 
   -5555    -5157    -5005    -5172    -5532    -5910    -6210    -6433 
   -6708    -7181    -7836    -8548    -9270   -10059   -10984   -11936 
  -12729   -13415   -14198   -15122   -15993   -16565   -16785   -16792 
  -16695   -16435   -15928   -15175   -14151   -12915   -11676   -10593 
   -9735    -9051    -8427    -7885    -7535    -7423    -7500    -7695 
   -7938    -8138    -8264    -8474    -8981    -9607    -9879    -9722 
   -9495    -9537    -9925   -10449   -10916   -11293   -11515   -11513 
  -11413   -11432   -11507   -11426   -11216   -11062   -11044   -11036 
  -10877   -10626   -10455   -10402   -10275    -9881    -9305    -8764 
   -8425    -8395    -8595    -8684    -8405    -7931    -7592    -7555 
   -7719    -7734    -7442    -7080    -6781    -6425    -6018    -5695 
   -5407    -5112    -4856    -4571    -4262    -3980    -3674    -3464 
   -3565    -3943    -4352    -4685    -5084    -5617    -6232    -6902 
   -7624    -8492    -9574   -10762   -11855   -12728   -13421   -13973 
  -14447   -14988   -15464   -15579   -15381   -15144   -15001   -14970 
  -14928   -14693   -14363   -14111   -13853   -13560   -13377   -13310 
  -13181   -12889   -12478   -12000   -11518   -11170   -11060   -11129 
  -11222   -11232   -11118   -11042   -11334   -12030   -12841   -13566 
  -14206   -14801   -15310   -15677   -15956   -16226   -16408   -16320 
  -15963   -15499   -15142   -15111   -15331   -15512   -15573   -15511 
  -15245   -14815   -14265   -13581   -12919   -12400   -11915   -11445 
  -11126   -10974   -10870   -10813   -10963   -11359   -11808   -12085 
  -12056   -11751   -11385   -11153   -11040   -10947   -10796   -10484 
  -10030    -9654    -9467    -9407    -9455    -9550    -9617    -9865 
  -10502   -11390   -12365   -13212   -13627   -13772   -14005   -14262 
  -14365   -14238   -13857   -13345   -12756   -11968   -10962    -9981 
   -9362    -9145    -8939    -8437    -7777    -7217    -6884    -6821 
   -6927    -7026    -7058    -7040    -7045    -7239    -7628    -7961 
   -8129    -8300    -8621    -9146    -9862   -10718   -11702   -12605 
  -13123   -13266   -13217   -13067   -12877   -12635   -12324   -12035 
  -11814   -11563   -11208   -10834   -10614   -10594   -10619   -10522 
  -10289    -9997    -9771    -9733    -9850    -9943    -9808    -9311 
   -8557    -7924    -7622    -7536    -7602    -7755    -7822    -7835 
   -7902    -7954    -8033    -8264    -8545    -8642    -8379    -7806 
   -7250    -6923    -6705    -6393    -5950    -5571    -5463    -5608 
   -5844    -6037    -6196    -6433    -6777    -7170    -7562    -7884 
   -8069    -8168    -8344    -8592    -8655    -8466    -8263    -8202 
   -8243    -8260    -8148    -7974    -7835    -7705    -7613    -7664 
   -7820    -7902    -7802    -7646    -7719    -8103    -8581    -8973 
   -9269    -9475    -9612    -9770   -10040   -10426   -10722   -10644 
  -10247    -9911    -9843    -9902    -9908    -9855    -9840    -9915 
   -9980    -9928    -9823    -9711    -9535    -9249    -8872    -8523 
   -8319    -8226    -8198    -8272    -8469    -8711    -8849    -8832 
   -8761    -8698    -8601    -8464    -8318    -8116    -7732    -7077 
   -6323    -5794    -5576    -5470    -5298    -5111    -5078    -5240 
   -5510    -5829    -6209    -6727    -7415    -8142    -8718    -9060 
   -9225    -9351    -9517    -9724    -9982   -10293   -10596   -10814 
  -10940   -10972   -10784   -10255    -9484    -8677    -7983    -7492 
   -7183    -6919    -6619    -6342    -6188    -6175    -6229    -6311 
   -6549    -7030    -7591    -8008    -8187    -8162    -8106    -8226 
   -8620    -9341   -10415   -11697   -12980   -14186   -15266   -16166 
  -16844   -17204   -17214   -16944   -16425   -15648   -14663   -13657 
  -12840   -12218   -11749   -11548   -11641   -11812   -11846   -11673 
