Origin Time       2011/03/11 14:46:00
Lat.              38.103
Long.             142.860
Depth. (km)       24
Mag.              9.0
Station Code      HKD085
Station Lat.      42.9581
Station Long.     144.0698
Station Height(m) 5
Record Time       2011/03/11 14:48:03
Sampling Freq(Hz) 100Hz
Duration Time(s)  300
Dir.              E-W
Scale Factor      3920(gal)/6182761
Max. Acc. (gal)   21.127
Last Correction   2011/03/11 14:47:48
Memo.             
[...]
    1143      782      612      612      737      782      502     -244 
   -1376    -2690    -4003    -5068    -5545    -5206    -4167    -2922 
   -1936    -1296     -840     -413       27      394      579      528 
     197     -433    -1297    -2207    -2864    -3031    -2758    -2268 
   -1659     -821      348     1676     2771     3264     2848     1388 
    -825    -3163    -5105    -6564    -7775    -9012   -10500   -12257 
  -13926   -15026   -15337   -15053   -14716   -14914   -15808   -16912 
  -17528   -17276   -16115   -14249   -12128   -10179    -8595    -7527 
   -7086    -7116    -7239    -7102    -6570    -5839    -5225    -4911 
   -5049    -5723    -6743    -7890    -9124   -10380   -11581   -12629 
  -13271   -13430   -13466   -13759   -14376   -15199   -16022   -16655 
  -17064   -17419   -18108   -19413   -20948   -21898   -21757   -20423 
  -18093   -15230   -12134    -8767    -5257    -2051      453     2020 
    2607     2507     2200     2109     2543     3561     4925     6300 
    7329     7701     7409     6775     6219     6168     6823     7910 
    8947     9689    10204    10757    11585    12607    13451    13787 
   13580    13070    12561    12301    12502    13244    14317    15367 
   16129    16374    15846    14457    12497    10475     8756     7440 
    6404     5427     4481     3835     3713     4031     4532     5051 
    5519     5882     6162     6490     7029     7837     8691     9158 
    9000     8362     7500     6609     5916     5529     5243     4704 
    3691     2258      763     -249     -308      634     2117     3501 
    4366     4691     4773     4892     5051     5085     4899     4597 
    4447     4647     5099     5438     5317     4648     3526     2006 
     154    -1873    -3918    -6089    -8960   -13002   -17903   -22893 
  -27126   -29787   -30456   -29343   -27162   -24626   -22022   -19456 
  -17226   -15645   -14666   -14011   -13493   -13042   -12719   -12761 
  -13336   -14313   -15379   -16274   -16894   -17258   -17416   -17374 
  -17093   -16592   -15971   -15348   -14924   -14876   -15151   -15529 
  -15771   -15685   -15238   -14513   -13509   -12174   -10691    -9464 
   -8676    -8214    -8047    -8210    -8443    -8281    -7474    -6173 
   -4679    -3115    -1499       53     1381     2363     2940     3197 
    3480     4326     6023     8245    10275    11399    11102     9337 
    6822     4706     3728     3915     4887     6094     7003     7323 
    7065     6437     5616     4518     2997     1299      -58     -867 
   -1384    -2012    -3089    -4833    -7279   -10259   -13385   -16061 
  -17888   -18978   -19524   -19425   -18644   -17443   -16185   -15155 
  -14459   -13969   -13343   -12267   -10642    -8523    -6139    -3843 
   -1937     -747     -550    -1297    -2716    -4580    -6673    -8562 
   -9693    -9776    -9007    -8017    -7661    -8556   -10674   -13391 
  -15830   -17164   -16988   -15541   -13433   -11254    -9322    -7585 
   -5808    -3932    -2177     -763      375     1423     2354     3001 
    3284     3174     2720     2236     2128     2548     3570     5404 
    8077    11208    14198    16509    17910    18494    18490    18195 
   17826    17353    16693    15968    15474    15463    15946    16654 
   17150    17025    16065    14259    11705     8601     5287     2262 
      38    -1130    -1288     -604      663     2136     3465     4494 
    5260     5852     6210     6111     5476     4521     3450     2192 
     635    -1001    -2285    -2980    -3206    -3242    -3196    -2913 
   -2290    -1522     -937     -748    -1073    -1868    -2671    -2795 
   -1965     -511      987     1960     1966      895     -866    -2593 
   -3654    -3762    -2994    -1782     -736     -195       68      416 
     709      613      323       28     -637    -1872    -3745    -6283 
   -8797   -10775   -12287   -13131   -13316   -13144   -12589   -11671 
  -10722   -10019    -9630    -9722   -10573   -12115   -13880   -15301 
  -15991   -15943   -15375   -14508   -13559   -12572   -11384    -9963 
   -8615    -7725    -7279    -6822    -5951    -4678    -3387    -2608 
   -2685    -3584    -4968    -6308    -7175    -7578    -7737    -7687 
   -7298    -6378    -4870    -3116    -1666     -760     -219      134 
     241       27     -342     -574     -558     -431     -481    -1111 
   -2537    -4498    -6549    -8396    -9824   -10656   -10806   -10254 
   -9221    -8273    -7863    -7947    -8138    -8023    -7445    -6549 
   -5504    -4374    -3281    -2403    -1933    -2277    -3788    -6307 
   -9447   -12736   -15541   -17454   -18449   -18625   -18207   -17567 
  -16974   -16370   -15474   -14049   -12054    -9600    -6909    -4367 
   -2332     -890      -19      302      143     -498    -1617    -2997 
   -4422    -5855    -7289    -8633    -9692   -10205   -10040    -9269 
   -8077    -6761    -5670    -4967    -4634    -4710    -5222    -5987 
   -6745    -7370    -7948    -8662    -9581   -10621   -11596   -12198 
  -12057   -10858    -8513    -5362    -2059      860     3116     4720 
    5941     6866     7424     7653     7429     6876     6544     6575 
    6949     7827     8858     9421     9420     9021     8181     6847 
    5137     3404     2240     1916     2173     2770     3510     4033 
    4117     3913     3885     4494     5704     7021     8027     8485 
    8293     7709     7343     7712     8926    10711    12568    14034 
   14963    15487    15751    15795    15621    15244    14606    13627 
   12369    10964     9392     7512     5354     3293     1812     1015 
     560       21     -829    -1901    -2810    -3141    -2782    -2045 
   -1524    -1780    -2954    -4609    -5984    -6312    -5003    -2090 
    1591     5154     8199    10445    11579    11648    11227    10955 
   10904    10556     9372     7305     4772     2294      363     -725 
   -1137    -1349    -1815    -2838    -4525    -6698    -8825   -10304 
  -10993   -11284   -11638   -12282   -13243   -14470   -15824   -17010 
  -17741   -18002   -18023   -18022   -18025   -17958   -17865   -17849 
  -17898   -17978   -18106   -18229   -18165   -17694   -16781   -15573 
  -14129   -12340   -10147    -7723    -5423    -3610    -2474    -1901 
   -1547    -1153     -745     -414      -51      469     1101     1905 
    3150     4928     7046     9417    12182    15338    18432    20815 
   22110    22348    21770    20711    19614    18843    18392    17890 
   16933    15482    13890    12516    11358    10002     7856     4687 
     906    -2746    -5645    -7471    -8266    -8421    -8444    -8541 
   -8491    -8060    -7288    -6394    -5626    -5060    -4569    -4050 
   -3562    -3338    -3618    -4367    -5301    -6226    -7123    -7930 
   -8427    -8495    -8404    -8546    -9030    -9801   -10838   -12113 
  -13545   -14952   -16066   -16638   -16419   -15307   -13693   -12321 
  -11649   -11616   -12019   -12791   -13866   -15017   -15949   -16417 
  -16093   -14586   -11864    -8515    -5411    -3172    -1962    -1680 
   -2123    -2877    -3386    -3381    -2944    -2138     -936      649 
    2579     4757     7022     9243    11231    12907    14490    15994 
   17243    18317    19121    19346    18861    17576    15556    13012 
   10035     6860     4010     1866      462     -318     -648     -828 
   -1254    -2242    -3870    -6067    -8700   -11400   -13514   -14427 
  -13963   -12440   -10459    -8710    -7693    -7379    -7318    -7086 
   -6531    -5789    -5201    -5043    -5342    -6012    -6969    -7986 
   -8663    -8689    -8080    -7229    -6704    -6928    -8075   -10130 
  -12814   -15533   -17691   -19056   -19713   -19753   -19171   -17958 
  -16226   -14366   -12793   -11611   -10890   -10899   -11808   -13432 
  -15420   -17543   -19648   -21562   -23166   -24484   -25697   -26901 
  -27769   -27836   -27138   -26020   -24747   -23492   -22080   -20262 
  -18192   -16002   -13690   -11512    -9709    -8225    -7121    -6657 
   -6791    -7144    -7356    -7068    -6049    -4533    -2982    -1677 
    -703      -16      528     1012     1456     1952     2620     3486 
    4354     4785     4343     2840      403    -2456    -4938    -6440 
   -6928    -6738    -6215    -5820    -6086    -7103    -8390    -9347 
   -9855   -10465   -11848   -14228   -17256   -20035   -21580   -21424 
  -19649   -16804   -13628   -10404    -6940    -3090     1117     5555 
    9987    14120    17659    20350    22182    23492    24609    25552 
   26258    26705    26905    26966    26946    26760    26357    25757 
   24993    24197    23567    23279    23502    24335    25684    27253 
   28678    29646    29960    29711    29279    28993    28929    28907 
   28564    27589    25952    23896    21812    19992    18351    16530 
   14310    11794     9171     6491     3811     1288     -991    -3056 
   -5021    -7056    -9281   -11673   -14055   -16169   -17808   -18872 
  -19393   -19570   -19704   -19976   -20419   -21116   -22122   -23216 
  -24016   -24266   -23878   -22953   -21879   -21222   -21279   -21689 
  -21890   -21787   -21340   -20364   -19019   -17560   -16226   -15204 
  -14169   -12818   -11295    -9649    -7829    -5949    -4060    -2044 
      44     1863     3084     3490     3069     2081      826     -537 
   -2016    -3707    -5557    -7353    -8865    -9745    -9634    -8525 
   -6778    -4910    -3392    -2427    -1996    -2005    -2176    -2081 
   -1477     -362     1197     3068     5070     7015     8749    10300 
   11797    13213    14382    15073    14950    13765    11526     8376 
    4597      787    -2358    -4510    -5715    -6196    -6174    -5761 
   -5118    -4442    -3859    -3541    -3627    -4001    -4370    -4540 
   -4489    -4219    -3740    -3132    -2500    -1894    -1324     -779 
    -225      263      389      -81    -1035    -2175    -3316    -4424 
   -5501    -6575    -7641    -8513    -8892    -8659    -8084    -7661 
   -7800    -8715   -10347   -12216   -13671   -14518   -15052   -15562 
  -16247   -17211   -18252   -18961   -18965   -18064   -16471   -14780 
  -13490   -12776   -12626   -12882   -13328   -13856   -14428   -14997 
  -15553   -16125   -16798   -17727   -18953   -20185   -20982   -21130 
  -20634   -19575   -18189   -16847   -15863   -15458   -15667   -16068 
  -16299   -16667   -17326   -18156   -19514   -21436   -23501   -25625 
  -27411   -28213   -27995   -26907   -25148   -23500   -22879   -23499 
  -24936   -26597   -27946   -28683   -28803   -28383   -27405   -25709 
  -23121   -19799   -16260   -13010   -10338    -8303    -6735    -5406 
   -4253    -3362    -2726    -2085    -1077      463     2339     4109 
    5406     6165     6518     6504     6002     5038     3897     2733 
    1472      223     -652     -876     -372      805     2430     4083 
    5414     6462     7585     9133    11143    13291    15166    16565 
   17584    18569    19823    21260    22448    22960    22645    21607 
   20100    18468    16966    15569    14090    12430    10777     9553 
    9000     8925     8958     8822     8492     8209     8098     8033 
    7891     7703     7798     8579     9999    11579    12687    12760 
   11661     9717     7399     5126     3218     1818      867      119 
    -816    -2184    -3729    -4840    -5041    -4249    -2854    -1652 
   -1418    -2459    -4557    -7254   -10181   -13117   -15827   -18052 
  -19645   -20647   -21181   -21192   -20590   -19529   -18206   -16671 
  -14980   -13244   -11485    -9534    -7229    -4647    -1913     1007 
    4046     6857     9006    10192    10428    10082     9600     9273 
    9300     9826    10870    12335    13957    15318    16147    16410 
   16143    15485    14726    14164    13970    14074    14192    14102 
   13797    13361    13002    13040    13440    13670    13238    11817 
    8984     4537    -1047    -6743   -11513   -14775   -16417   -16514 
  -15404   -13903   -12877   -12533   -12403   -11996   -11086    -9574 
   -7553    -5291    -2927     -410     2286     4982     7197     8286 
    7774     5624     2354     -940    -3191    -4090    -3662    -2059 
     -17     1747     2811     2787     1913      755     -513    -1672 
   -2372    -2632    -2808    -3207    -3992    -5167    -6527    -7920 
   -9358   -10875   -12586   -14435   -15949   -16722   -16657   -15735 
  -14141   -12393   -11042   -10418   -10585   -11322   -12170   -12714 
  -12787   -12288   -11206    -9996    -9410    -9824   -11067   -12645 
  -13949   -14558   -14353   -13328   -11533    -9167    -6562    -4130 
   -2379    -1701    -2033    -2820    -3273    -2863    -1716     -365 
     635      746     -278    -2090    -4005    -5503    -6383    -6605 
   -6201    -5326    -4261    -3339    -2917    -3249    -4313    -5816 
   -7253    -8163    -8509    -8523    -8260    -7627    -6637    -5421 
   -4176    -3144    -2531    -2441    -2911    -3882    -5207    -6712 
   -8186    -9476   -10596   -11581   -12387   -12977   -13253   -13045 
  -12453   -11863   -11563   -11737   -12457   -13497   -14699   -16139 
  -17487   -18050   -17738   -17218   -17031   -17138   -17308   -17527 
  -17888   -18293   -18482   -18232   -17386   -15934   -14049   -11939 
   -9860    -8097    -6691    -5433    -4125    -2564     -620     1530 
    3485     4796     5114     4611     3969     3779     4289     5539 
    7364     9421    11390    13146    14703    16023    16919    17235 
   17073    16906    17358    18672    20482    22219    23547    24510 
   25445    26668    28179    29608    30401    30194    29048    27346 
   25612    24249    23136    21633    19111    15433    10967     6309 
    2144     -817    -2128    -1861     -571      909     1908     2293 
    2343     2293     2136     1801     1423     1405     2152     3701 
    5589     7168     7981     7882     7058     5932     4803     3642 
    2254      517    -1364    -2824    -3276    -2498     -850      848 
    1804     1623      221    -2296    -5456    -8539   -11117   -13214 
  -15058   -16927   -18965   -21064   -22998   -24403   -24833   -24253 
  -23123   -21929   -20987   -20462   -20278   -20193   -19971   -19532 
  -18994   -18407   -17604   -16524   -15236   -13623   -11597    -9504 
   -7854    -6897    -6609    -6857    -7461    -8048    -7824    -5964 
   -2356     2355     7199    11184    13691    14766    14852    14360 
   13524    12500    11459    10506     9635     8839     8119     7466 
    6902     6335     5458     4035     2216      476     -771    -1406 
   -1502    -1235     -912     -872    -1296    -2146    -3235    -4306 
   -5098    -5458    -5397    -4984    -4287    -3478    -2867    -2674 
   -2758    -2724    -2310    -1524     -493      658     1793     2656 
    2972     2690     2004     1227      748      871     1679     2996 
    4362     5195     5164     4340     3135     2146     1643     1244 
     467     -761    -2266    -3834    -5255    -6425    -7429    -8616 
  -10386   -12722   -15195   -17443   -19231   -20235   -20221   -19341 
  -18082   -17054   -16731   -17131   -17925   -18880   -19751   -20095 
  -19920   -19710   -19730   -20121   -20856   -21614   -22300   -22861 
  -22855   -21894   -19934   -17019   -13353    -9553    -6241    -3466 
    -986     1279     3361     5271     6777     7462     7068     5733 
    4037     2643     1721      970      185     -675    -1809    -3342 
   -4978    -6215    -6581    -5722    -3634     -743     2329     5028 
    6986     8140     8853     9629    10530    11125    10797     9067 
    6166     3104      756     -707    -1584    -2422    -3683    -5257 
   -6648    -7464    -7500    -6748    -5485    -4164    -3123    -2475 
   -2326    -2824    -3872    -5088    -6079    -6636    -6693    -6332 
   -5815    -5368    -5077    -5072    -5426    -5899    -6106    -5844 
   -5227    -4603    -4288    -4437    -5027    -5691    -5719    -4512 
   -2135      509     2233     2413     1198     -848    -2892    -3985 
   -3637    -2110     -112     1590     2547     2797     2489     1712 
     781      157      -12       54      115      107       78      114 
     224      149     -480    -1815    -3725    -5804    -7393    -7921 
   -7335    -6055    -4548    -3017    -1439      186     1816     3457 
    4970     6047     6536     6619     6611     6635     6523     5985 
    4814     3021      891    -1236    -3235    -5189    -7161    -9081 
  -10799   -12214   -13361   -14232   -14650   -14520   -13904   -12811 
  -11273    -9468    -7477    -5262    -2905     -635     1308     2752 
    3642     4004     3774     2768     1097     -543    -1398    -1278 
    -540      237      468     -242    -1953    -4432    -7321   -10227 
  -12731   -14542   -15726   -16609   -17333   -17719   -17604   -16969 
  -15703   -13629   -10820    -7619    -4341    -1202     1483     3259 
    3818     3277     2074      684     -411     -888     -914     -860 
    -856     -875     -826     -600     -233      211      826     1677 
    2735     3989     5305     6397     7072     7249     6877     6025 
    4993     4201     3966     4285     4676     4404     3080      888 
   -1579    -3509    -4317    -3814    -1935     1067     4500     7673 
    9920    10688     9989     8328     6341     4682     3879     3934 
    4238     4042     2990     1591      990     1735     3440     5684 
    7971     9641    10635    11145    11236    11173    11110    11176 
   11518    11884    11827    11013     9395     7251     4937     2832 
    1362      742      667      543       44     -864    -2063    -3225 
   -3924    -3967    -3586    -3092    -2426    -1454     -572     -647 
   -2297    -5225    -8417   -10932   -12336   -12630   -12081   -11078 
  -10025    -9173    -8464    -7693    -6776    -5728    -4497    -2983 
   -1273      217      960      690     -433    -1943    -3287    -4032 
   -4018    -3385    -2486    -1858    -2146    -3710    -6271    -9104 
  -11511   -13062   -13752   -14049   -14472   -15132   -15776   -16038 
  -15643   -14638   -13446   -12572   -12233   -12292   -12437   -12364 
  -12003   -11587   -11383   -11435   -11654   -11915   -12140   -12513 
  -13343   -14607   -15970   -17080   -17645   -17576   -17147   -16837 
  -17099   -18219   -20171   -22536   -24672   -25950   -25869   -24302 
  -21615   -18346   -14884   -11543    -8816    -7264    -7104    -8111 
   -9689   -10958   -11273   -10746   -10002    -9548    -9533    -9830 
  -10052    -9868    -9457    -9213    -9322    -9788   -10264   -10163 
   -9156    -7461    -5810    -4943    -5103    -5907    -6465    -6063 
   -4641    -2564     -316     1717     3297     4192     4256     3561 
    2205      331    -1491    -2435    -2080     -666     1252     3249 
    5088     6596     7841     9051    10189    11014    11491    11781 
   12059    12491    13133    13841    14431    14829    15120    15485 
   16109    17083    18372    19902    21602    23331    24854    25906 
   26335    25954    24574    22575    20712    19524    19190    19477 
   20214    21546    23165    24315    24617    24116    22928    21208 
   19057    16321    12911     9178     5682     2792      570    -1214 
   -2995    -5280    -8329   -11882   -15357   -18120   -19591   -19651 
  -18852   -17989   -17549   -17553   -17798   -18175   -18734   -19472 
  -20176   -20540   -20241   -18999   -16785   -13917   -10943    -8340 
