Origin Time       2011/03/11 14:46:00
Lat.              38.103
Long.             142.860
Depth. (km)       24
Mag.              9.0
Station Code      HKD067
Station Lat.      43.5550
Station Long.     144.9726
Station Height(m) 30
Record Time       2011/03/11 14:48:14
Sampling Freq(Hz) 100Hz
Duration Time(s)  300
Dir.              U-D
Scale Factor      3920(gal)/6182761
Max. Acc. (gal)   8.159
Last Correction   2011/03/11 14:47:59
Memo.             
[...]
  -12924   -13357   -11984   -11708   -13000   -13944   -14601   -16181 
  -17073   -15339   -13246   -13381   -13619   -12042   -11379   -13201 
  -14869   -14736   -13764   -12848   -11634    -9360    -7908   -10219 
  -13830   -14338   -13445   -14394   -15460   -14302   -12161   -11300 
  -12374   -14042   -14261   -12906   -11632   -10947    -9919    -8677 
   -8757   -10384   -11503   -10942   -10359   -11411   -13234   -13742 
  -12139   -10585   -12167   -15477   -15999   -13897   -12684   -12113 
  -10603    -9890   -11010   -11970   -12496   -14255   -16056   -15512 
  -13847   -13825   -15132   -14950   -12676   -11714   -13962   -15965 
  -14226   -10346    -8617   -10377   -11719    -9574    -8011   -10921 
  -13681   -11773    -8872    -8918   -10382   -11226   -11487   -11732 
  -12481   -13142   -12260   -10652   -10860   -12742   -13862   -13528 
  -13010   -12822   -12172   -11139   -10905   -11252   -11004   -10651 
  -11323   -12431   -12884   -12707   -11893   -10683   -10580   -11617 
  -11801   -11383   -12072   -12508   -10695    -8658    -9804   -12964 
  -12872    -9209    -9077   -13933   -15213   -10573    -8992   -13243 
  -14273    -8773    -5795   -10171   -14063   -11119    -7476   -10536 
  -15337   -14021   -10711   -12467   -15717   -14999   -13128   -14129 
  -16476   -16754   -14603   -12743   -12272   -11172   -10170   -12068 
  -13641   -10749    -8074   -10751   -14652   -14089   -10665    -9580 
  -11683   -13213   -12948   -13602   -15082   -14348   -11883   -10817 
  -11432   -11473   -10200    -9374   -10278   -11588   -11453   -10791 
  -11837   -13541   -13073   -11094   -10380   -11629   -13797   -15395 
  -14952   -12950   -12649   -15857   -18383   -15886   -12498   -13386 
  -14684   -12451   -10899   -12476   -12484    -9516    -9481   -14869 
  -19135   -16449   -11081   -10714   -14149   -14172   -10380    -9098 
  -11235   -11203    -8436    -8315   -11182   -12001   -10309   -10773 
  -14655   -17520   -16192   -13439   -13217   -14660   -14364   -12234 
  -10896   -11378   -12637   -13023   -12150   -11997   -13260   -13715 
  -12535   -11693   -13309   -16782   -18016   -15318   -13078   -13822 
  -14439   -13840   -14843   -17633   -17921   -13384    -8681    -8681 
  -10619   -10659   -10713   -12416   -13541   -13073   -12410   -12082 
  -11633   -11153   -11212   -12058   -13067   -13494   -13432   -13368 
  -13598   -13613   -12448   -11111   -11493   -12221   -10820    -8622 
   -8786   -11466   -13299   -11859   -10013   -11700   -14168   -12775 
  -10549   -11877   -13224   -10982    -8724    -9386   -10690   -10715 
  -10472   -11346   -12204   -10053    -6462    -7575   -12495   -12949 
   -9107   -10212   -17081   -20228   -15891   -11152   -11909   -14303 
  -12599    -9281    -9957   -13146   -13210   -10480   -10781   -15229 
  -17674   -14876   -11818   -12436   -13559   -12678   -12901   -15441 
  -15531   -11663    -9804   -12243   -13670   -12596   -13238   -14806 
  -12913    -9781    -9957   -11424   -11195   -11192   -12644   -13382 
  -12889   -13415   -15341   -15643   -13361   -12442   -14051   -13405 
   -9175    -6172    -7025    -9394   -10698   -11418   -13240   -15090 
  -14807   -13993   -14967   -15405   -13024   -10772   -11180   -12040 
  -11627   -11778   -13676   -15005   -13501   -11072   -11068   -12549 
  -11580    -8703    -8899   -12542   -15176   -15872   -16444   -16262 
  -14447   -12056   -10220    -9968   -11848   -14091   -14255   -12585 
  -11739   -12903   -13967   -13448   -12867   -13270   -14107   -15163 
  -15249   -12379    -8323    -7272    -8884    -9345    -8288    -8416 
   -9924   -10706   -10773   -11127   -10619    -9342    -9951   -11844 
  -11940   -11216   -12059   -12790   -11773   -11611   -13822   -14979 
  -13011   -11561   -13841   -16671   -15162   -11078   -10048   -12254 
  -13621   -13384   -13565   -14086   -13555   -12292   -11489   -11084 
  -10750   -11848   -14436   -14962   -12525   -11796   -14232   -14268 
  -10171    -8850   -12582   -13803    -9910    -8273   -11744   -13882 
  -11431    -8778    -8884    -9755    -9923   -10343   -10655    -9761 
   -9602   -11300   -11735   -10548   -11656   -14405   -14714   -13488 
  -13289   -12880   -11460   -10738   -11130   -11002   -10318   -11615 
  -14624   -15203   -12652   -10964   -12322   -14465   -13912   -11117 
  -10638   -13369   -14173   -11379    -9580   -10500   -11674   -12384 
  -12247   -10250    -8892   -11033   -13868   -12812    -9122    -8435 
  -11289   -11852    -8865    -8094   -11048   -12369   -10828   -10960 
  -12784   -12349   -10871   -12185   -14418   -13547   -11301   -11103 
  -11953   -12577   -13680   -14506   -14192   -13253   -11440    -9592 
  -10635   -14298   -16086   -13812   -10762   -10642   -12140   -11546 
   -9454    -9815   -12766   -14620   -14416   -14345   -14973   -15493 
  -16359   -17360   -16669   -14035   -11492   -11225   -13579   -16482 
  -17954   -17758   -15926   -13465   -13089   -14829   -15136   -13188 
  -11753   -12015   -12729   -12667   -11822   -11053   -10835   -10812 
  -10402    -9910   -11122   -15055   -18615   -17088   -12539   -12808 
  -17276   -16167    -8678    -4952    -8208   -11201    -9993    -8640 
  -10575   -13279   -12259    -8377    -7777   -11752   -14569   -13579 
  -11437   -10487   -11568   -13522   -14159   -13901   -13631   -12477 
  -11681   -12387   -11218    -7883    -8072   -11752   -12923   -11738 
  -12706   -15224   -15066   -10987    -6663    -6318    -8807   -10165 
  -10633   -13007   -16331   -16395   -12763   -11411   -14626   -15060 
   -9893    -8257   -13978   -17054   -11729    -6959   -10030   -14852 
  -14010   -10103    -9888   -13381   -14276   -11530   -11568   -15464 
  -16430   -12828   -10580   -12205   -14123   -14055   -13550   -13463 
  -12627   -10769    -9248   -10024   -13077   -14808   -13469   -12427 
  -13553   -13504   -10309    -8107   -10505   -13614   -12044    -7932 
   -7418   -11166   -14115   -13681   -13202   -15179   -16450   -14164 
  -10597    -8847    -9763   -12791   -15414   -15399   -14325   -14187 
  -13752   -12223   -11601   -12731   -13399   -12300   -11096   -10743 
  -10096    -9773   -11870   -14987   -15496   -13285   -11664   -12115 
  -12146    -9988    -8250    -9460   -12118   -13177   -11218    -8851 
  -10779   -14659   -12828    -7668    -8431   -12867   -12157    -8656 
  -10142   -14401   -14725   -12194   -11823   -13996   -15308   -14407 
  -13923   -14911   -14116   -10834    -9080   -10606   -12827   -13321 
  -12952   -14376   -16393   -14616   -10641   -10177   -11700    -9858 
   -6265    -5719    -8288   -11168   -11797    -9710    -8480   -10803 
  -13896   -14872   -14883   -15029   -14416   -13213   -12723   -13210 
  -13940   -13595   -11630   -10136   -10771   -10915    -8070    -5713 
   -8374   -13692   -16130   -15425   -15237   -16911   -18533   -17393 
  -13691   -11506   -12018   -11939   -12152   -15400   -17554   -15213 
  -13031   -13621   -12900   -10035    -9639   -12733   -14897   -13851 
  -12294   -12133   -11770   -10228    -9544   -11912   -14997   -14594 
  -12926   -14731   -16992   -14868   -12442   -15248   -18932   -17108 
  -13442   -14609   -17781   -16296   -12074   -11481   -13721   -13523 
  -11531   -12005   -13887   -13793   -12407   -11678   -11430   -10724 
   -9825    -9816   -10663   -11727   -12731   -12190    -8932    -6627 
  -10116   -15849   -15568   -10634   -10519   -15708   -15964    -8808 
   -4228    -6652    -9050    -8102    -8964   -13241   -15847   -14958 
  -14418   -15525   -15221   -13000   -11479   -10897   -10769   -12296 
  -13518   -11264    -8885   -10568   -12833   -11931   -10619   -11260 
  -11744   -10500    -8905    -8792   -10133   -10945   -10633   -11573 
  -14359   -15600   -13277   -11092   -12525   -13426   -10659   -10014 
  -14218   -16933   -15085   -13007   -13064   -13004   -11649   -10084 
   -8639    -7219    -7491   -10670   -13793   -13299   -10899   -10630 
  -13054   -16001   -17675   -17451   -16360   -16172   -16122   -14308 
  -12289   -12372   -13476   -14003   -14040   -14215   -15220   -16463 
  -16149   -14755   -14197   -13654   -12234   -12144   -13573   -12826 
   -9309    -7456    -9425   -12149   -12689   -11475   -10393   -10754 
  -12532   -13688   -12068    -9802   -11326   -15726   -17071   -13406 
  -10028   -10898   -11864    -9081    -7760   -12172   -16031   -14219 
  -11586   -12262   -14122   -14961   -14443   -13439   -13295   -13103 
  -11755   -11489   -13048   -12757   -10534   -11573   -15794   -17329 
  -15671   -15164   -15250   -12860   -10449   -11025   -11203    -8599 
   -7808   -11546   -14973   -13745   -10791   -10626   -11429    -9927 
   -8887   -11135   -13571   -13127   -11407   -11365   -13296   -14284 
  -12681   -11742   -13785   -15228   -13564   -11985   -12780   -14159 
  -14631   -14330   -13903   -13898   -12922   -10264    -8919    -9880 
  -10539   -10414   -10505   -10920   -10836    -8526    -6107    -8634 
  -13467   -13057    -9599   -10883   -14307   -12102    -7681   -10365 
  -16914   -15375    -7379    -6193   -12471   -14265    -9796    -9722 
  -16611   -20015   -15652   -12954   -17046   -19536   -14914    -9792 
   -9408    -9825    -7914    -7180    -9896   -12705   -13302   -13073 
  -12293   -11109   -12435   -16306   -18459   -18315   -18098   -16434 
  -12941   -11783   -14003   -15189   -13171   -10608   -10431   -12110 
  -12137    -9463    -8224   -11200   -14260   -12754    -9805   -10606 
  -13009   -12703   -11563   -12602   -13313   -10744    -8096   -10026 
  -13439   -11463    -6901    -9024   -15991   -16123    -8222    -4202 
   -9582   -16168   -16100   -12274   -11425   -13210   -12607   -10404 
  -11714   -15035   -14041    -9538    -8868   -13113   -15405   -13259 
  -11151   -11648   -13461   -14106   -11977    -9924   -11111   -11804 
   -9335    -9717   -14927   -16235   -10942    -8739   -13832   -18119 
  -16541   -13589   -12065    -9691    -8742   -13341   -17657   -14569 
  -10176   -12052   -14555   -11420    -8305   -10546   -13500   -12920 
  -11728   -12962   -14922   -14234   -11627   -12291   -16213   -16265 
  -12469   -13239   -18076   -17997   -12800    -9980   -11180   -11920 
  -10145    -9205   -11548   -13093   -11066   -10465   -13259   -14147 
  -12966   -14409   -16184   -13116    -8273    -8567   -13068   -14913 
  -13080   -12370   -12427    -8646    -4495    -7559   -13537   -12682 
   -8053    -9429   -15529   -16767   -11719    -8430    -9385    -8338 
   -4500    -5461   -12377   -16200   -12185    -6929    -7822   -12284 
  -12560    -8666    -7947   -12258   -15866   -15228   -12920   -12844 
  -14494   -14145   -12292   -12772   -14546   -13778   -11271   -10243 
  -10626   -10059    -8903   -10553   -14438   -14669   -10275    -8289 
  -11708   -13559    -9089    -4930    -7837   -13075   -13638   -12010 
  -13341   -15752   -14641   -10429    -8331   -11530   -15876   -15048 
   -9933    -7737   -12314   -18301   -17085    -9541    -6311   -10824 
  -13876   -10518    -6686    -6790    -8493    -9014    -9635   -12320 
  -13929   -12099   -12946   -18890   -20486   -15421   -15243   -21367 
  -21041   -13492   -10843   -13382   -12061    -9264   -12887   -18887 
  -18080   -12493   -12161   -17940   -19255   -13697   -12277   -17294 
  -17879   -12184    -9230   -10520   -10359    -8178    -7877    -9784 
   -9893    -7703    -8373   -12784   -15281   -14130   -12806   -12244 
  -11418   -11425   -12659   -12677   -11031   -11562   -15489   -17150 
  -13346   -10279   -12437   -14807   -13529   -11340    -9761    -7755 
   -6348    -7227    -9694   -11644   -12626   -14509   -16881   -16656 
  -14784   -14225   -13670   -11968   -10857   -10170    -8693    -7957 
   -9492   -10735    -8623    -5717    -6667   -10367   -11669    -9585 
   -9071   -13762   -19662   -20254   -16893   -16456   -20210   -23102 
  -21612   -17726   -15806   -16805   -17743   -15846   -10872    -5763 
   -4990    -8863   -11895   -10179    -7393    -9498   -14674   -15603 
  -11909    -9698   -10462   -11677   -13009   -14215   -13799   -12460 
  -12946   -15949   -17444   -13398    -8390   -10078   -14231   -11478 
   -6232    -8255   -13255   -11976    -7082    -6697   -11590   -15941 
  -16225   -15512   -17541   -20697   -21284   -18466   -14564   -13171 
  -14950   -15680   -12541    -9033    -8814    -8829    -5331    -2544 
   -5847   -11439   -12916   -11589   -11671   -11852    -9085    -6258 
   -7680   -10213    -9500    -9000   -11965   -13960   -11785    -9919 
  -12121   -15100   -14932   -12837   -11841   -12032   -11136    -9231 
   -9949   -14242   -16773   -13308    -7775    -6922   -10864   -13458 
  -12004   -11180   -14151   -17058   -16577   -14436   -12343   -10720 
  -11173   -13547   -14137   -11188    -8077    -8413   -11088   -11907 
   -9650    -8802   -12426   -16067   -16120   -16505   -18901   -17763 
  -12092    -8704    -9351    -8944    -7019    -7521   -10160   -12145 
  -12935   -12291   -10900   -11185   -12405   -12071   -12057   -14570 
  -15982   -12943    -9407   -10016   -11975   -10655    -8401   -10405 
  -15062   -15668   -11329    -9077   -12188   -14745   -13094   -12005 
  -14103   -15144   -13257   -11906   -12761   -13509   -11895    -8788 
   -7745   -10275   -13350   -14060   -13583   -14791   -17191   -17030 
  -13839   -11138    -9501    -7724    -8277   -12250   -15452   -15531 
  -15204   -16339   -17130   -15577   -11966    -9150   -10415   -13422 
  -11784    -6349    -4867    -8000    -7266     -963      581    -7100 
  -14458   -15087   -14403   -16372   -17036   -13935   -11598   -14104 
  -17152   -14933   -11087   -12458   -17121   -17836   -13519   -11049 
  -15195   -20382   -18099   -11317   -10898   -16296   -15722    -8488 
   -6314   -11018   -13608   -11942   -10444    -9650    -8648   -10295 
  -14163   -13846   -10932   -15173   -24027   -24901   -17804   -12985 
  -12610   -11989   -10579   -11143   -13118   -13201   -11295   -10543 
  -11604   -12831   -13883   -14182   -12821   -11159   -10957   -12416 
  -14841   -16190   -14606   -12093   -12247   -13931   -13751   -13833 
  -17660   -20886   -17912   -13129   -12714   -12672    -8741    -6644 
  -10163   -12231    -7782    -4023    -8064   -13850   -12805    -8640 
   -9794   -14644   -15210   -10899    -8918   -11820   -13646   -11220 
   -8744    -8034    -6486    -5151    -7344   -11286   -13143   -13920 
  -16072   -17716   -16375   -14185   -14292   -15736   -15837   -14296 
  -12753   -12774   -14349   -15784   -15675   -13709   -10575    -8629 
   -9453   -10918   -10117    -7079    -4415    -4781    -7644   -10204 
  -11974   -14231   -16057   -15324   -12842   -12158   -14138   -14437 
  -10264    -6225    -6825    -9012    -8708    -7385    -8621   -13087 
  -17086   -16857   -15188   -16547   -17568   -14085   -10677   -11575 
  -13331   -13114   -12495   -12779   -13899   -14498   -13017   -11299 
  -12121   -14054   -14652   -14421   -13853   -12771   -11860    -9890 
   -5694    -3173    -5016    -7188    -7653    -9752   -13345   -14779 
  -14421   -14331   -12865    -9215    -7544   -10321   -13464   -13293 
  -12535   -14059   -15297   -13974   -11786   -10743   -11762   -13913 
  -13892   -11189    -9886   -11943   -14883   -16000   -14932   -14128 
  -15505   -16557   -14949   -13158   -13541   -14712   -14468   -12411 
  -10888   -12102   -13698   -12655   -11212   -12750   -15481   -15200 
  -12064   -10202   -10882   -11291   -10727   -11955   -15073   -15956 
  -13504   -12322   -13806   -12990    -9789   -10428   -13547   -12497 
  -10022   -12032   -15140   -14371   -12045   -11684   -12104   -11269 
  -10269   -10218    -9671    -8397    -8975   -11929   -14480   -15346 
  -15586   -15438   -14370   -12487    -9893    -7135    -6002    -6814 
   -7936    -9393   -11575   -12789   -12738   -12941   -13017   -12044 
  -11419   -13031   -15161   -13117    -7871    -7272   -12330   -14370 
  -10811    -9280   -13093   -15967   -13481    -9691    -9509   -10751 
   -9123    -7512   -11233   -16753   -16864   -13973   -15485   -20104 
  -21267   -18844   -16926   -15490   -12120    -8168    -7206    -9428 
  -11896   -12362   -10451    -7531    -6313    -8392   -11655   -12305 
  -10620   -10947   -14495   -17285   -16285   -13074   -10603    -9474 
   -9112    -9945   -12152   -13976   -14015   -14216   -15855   -15734 
  -12742   -10869   -11455   -11446    -9783    -8470    -8665    -9422 
   -9630    -9645   -10278   -11526   -13308   -14656   -13700   -11919 
  -12456   -13594   -12688   -12000   -13054   -13105   -10639    -7761 
   -7234    -9123    -9504    -6223    -4834    -9898   -15290   -14808 
  -13444   -16849   -20426   -18605   -14871   -14739   -16514   -15251 
  -11623   -10599   -12644   -13286   -11618   -11405   -12141    -9313 
   -4861    -4401    -7175    -9700   -11560   -12954   -13758   -14086 
  -13594   -13083   -14346   -16644   -17846   -17931   -16925   -13912 
  -11007   -11779   -14666   -15322   -14286   -14885   -16603   -16268 
  -13447   -11768   -13498   -14967   -12900   -11221   -13606   -15538 
  -12478    -8847    -9870   -11847    -9071    -3688    -1999    -5255 
   -9014   -10268   -10999   -14057   -18014   -18458   -15218   -13463 
  -15230   -16686   -15825   -15053   -14325   -11662   -10626   -14654 
  -18298   -16588   -13295   -10750    -6560    -4103    -7739   -11441 
   -9676    -8183   -11133   -12459    -8525    -5948    -9341   -13024 
  -12858   -12855   -14522   -14659   -13747   -14081   -14154   -13105 
  -13658   -15773   -15480   -12066    -9169    -8414    -7672    -6132 
   -6568   -10015   -11987   -10171   -10440   -15899   -20098   -19684 
  -19512   -21433   -22003   -20297   -17840   -14813   -11828   -10124 
   -9085    -7925    -7372    -8126   -10236   -12308   -11658    -8954 
   -8147    -9542   -10317    -9979    -9279    -8282    -7662    -8796 
  -11853   -13903   -12060    -9578   -11713   -15335   -13393    -8741 
  -10229   -16262   -17452   -13532   -12179   -14992   -17211   -16605 
  -14996   -14145   -13787   -13230   -12997   -13498   -13801   -13942 
  -15015   -15132   -12306    -9925   -10146    -9273    -7365    -9311 
  -12769   -11201    -7999   -10670   -15634   -14756   -10450   -10404 
  -13914   -15095   -13231   -10815    -8123    -5457    -3919    -2919 
   -2708    -5195    -8708    -9369    -7970    -8143   -10361   -12420 
  -12553   -11355   -11427   -12956   -12821   -10817   -11060   -14965 
  -18137   -16844   -14249   -15750   -19170   -17076   -10440    -8450 
  -12078   -13455   -11636   -12349   -15930   -17450   -14713   -11369 
  -11794   -13854   -13001   -11653   -14328   -18071   -18142   -16338 
  -15949   -15993   -14659   -12779   -12200   -13418   -15531   -16867 
  -15903   -13727   -12345   -10463    -7710    -7933   -10960   -10939 
   -7266    -5753    -7983    -9477    -8541    -8972   -12260   -14321 
  -13425   -13497   -15481   -15147   -12510   -12044   -13501   -13147 
  -11382   -11046   -12047   -12854   -13604   -15104   -16414   -15211 
  -12200   -11659   -14538   -16352   -14151   -10383    -8581    -8689 
   -8717    -9149   -11184   -13040   -13581   -13824   -12711   -10325 
  -11225   -15928   -18283   -16256   -14838   -17247   -20598   -20609 
  -18272   -18004   -18962   -16639   -12701   -12036   -12572   -10575 
