Origin Time       2011/03/11 14:46:00
Lat.              38.103
Long.             142.860
Depth. (km)       24
Mag.              9.0
Station Code      HKD061
Station Lat.      44.0699
Station Long.     144.9973
Station Height(m) 64
Record Time       2011/03/11 14:49:08
Sampling Freq(Hz) 100Hz
Duration Time(s)  130
Dir.              E-W
Scale Factor      3920(gal)/6182761
Max. Acc. (gal)   3.845
Last Correction   2011/03/11 14:48:53
Memo.             
[...]
   -3441    -4098    -4490    -4453    -3979    -3259    -2580    -2105 
   -1870    -1915    -2175    -2443    -2628    -2795    -2956    -3035 
   -2983    -2798    -2541    -2340    -2267    -2276    -2319    -2362 
   -2292    -1995    -1511    -1024     -750     -869    -1427    -2227 
   -2990    -3586    -3950    -3993    -3722    -3210    -2518    -1794 
   -1261    -1036    -1124    -1488    -2021    -2562    -3011    -3321 
   -3394    -3171    -2781    -2403    -2080    -1812    -1627    -1543 
   -1603    -1850    -2171    -2359    -2319    -2067    -1687    -1342 
   -1167    -1108    -1061    -1073    -1200    -1384    -1602    -1860 
   -2069    -2153    -2136    -2036    -1859    -1719    -1750    -1953 
   -2276    -2661    -2995    -3228    -3441    -3638    -3664    -3422 
   -2956    -2343    -1719    -1311    -1257    -1497    -1891    -2301 
   -2623    -2841    -2972    -2949    -2710    -2336    -1936    -1524 
   -1155     -989    -1096    -1397    -1797    -2232    -2653    -3024 
   -3288    -3367    -3242    -2932    -2404    -1709    -1118     -860 
    -928    -1260    -1844    -2606    -3415    -4162    -4759    -5135 
   -5264    -5131    -4721    -4060    -3151    -1973     -684      372 
     952     1075      826      222     -666    -1699    -2744    -3620 
   -4131    -4216    -3939    -3369    -2627    -1912    -1400    -1140 
   -1092    -1161    -1226    -1241    -1249    -1303    -1457    -1796 
   -2337    -3008    -3762    -4540    -5144    -5355    -5129    -4567 
   -3804    -3010    -2327    -1788    -1381    -1126    -1031    -1120 
   -1436    -1932    -2470    -2935    -3223    -3155    -2636    -1807 
    -859       80      795     1059      812      137     -747    -1500 
   -1860    -1792    -1420     -898     -403     -115      -97     -327 
    -774    -1345    -1900    -2342    -2583    -2532    -2238    -1899 
   -1666    -1582    -1677    -1937    -2285    -2668    -3052    -3327 
   -3407    -3321    -3132    -2905    -2733    -2634    -2516    -2316 
   -2058    -1783    -1536    -1361    -1227    -1081    -1013    -1145 
   -1452    -1829    -2167    -2379    -2502    -2674    -2927    -3098 
   -2998    -2636    -2153    -1693    -1362    -1159     -957     -680 
    -420     -326     -496     -964    -1640    -2331    -2939    -3486 
   -3974    -4369    -4615    -4623    -4347    -3849    -3247    -2612 
   -2025    -1606    -1387    -1320    -1410    -1673    -2088    -2601 
   -3090    -3375    -3323    -2957    -2407    -1812    -1365    -1273 
   -1582    -2202    -2995    -3702    -4020    -3807    -3093    -2047 
    -997     -290      -72     -323     -996    -1955    -2970    -3815 
   -4307    -4368    -4104    -3723    -3332    -2892    -2394    -1890 
   -1411    -1018     -769     -670     -790    -1245    -2015    -2934 
   -3810    -4440    -4598    -4230    -3542    -2723    -1839     -992 
    -306      122      198      -96     -645    -1321    -2043    -2675 
   -3057    -3169    -3073    -2785    -2357    -1930    -1595    -1353 
   -1213    -1189    -1251    -1395    -1682    -2117    -2607    -3050 
   -3366    -3485    -3426    -3253    -2956    -2539    -2044    -1481 
    -888     -389      -94      -47     -294     -912    -1856    -2931 
   -3925    -4634    -4888    -4676    -4102    -3265    -2281    -1293 
    -423      193      370        1     -808    -1830    -2865    -3747 
   -4375    -4730    -4770    -4431    -3793    -3076    -2457    -2024 
   -1823    -1843    -2021    -2290    -2566    -2762    -2880    -2971 
   -3011    -2915    -2617    -2056    -1247     -416      146      342 
     185     -335    -1151    -2116    -3083    -3859    -4209    -3985 
   -3195    -1957     -528      749     1627     1990     1718      773 
    -690    -2408    -4076    -5334    -5880    -5580    -4490    -2884 
   -1173      244     1067     1141      472     -695    -1958    -3010 
   -3661    -3762    -3322    -2525    -1599     -780     -259     -100 
    -256     -657    -1220    -1789    -2197    -2336    -2120    -1577 
    -914     -358       -7      122       27     -280     -789    -1508 
   -2393    -3313    -4104    -4610    -4708    -4312    -3424    -2171 
    -785      412     1102     1158      596     -537    -2041    -3552 
   -4703    -5224    -5009    -4194    -3064    -1848     -688      208 
     617      501       11     -651    -1306    -1844    -2190    -2291 
   -2244    -2197    -2208    -2303    -2436    -2583    -2821    -3103 
   -3251    -3159    -2867    -2526    -2283    -2163    -2093    -1999 
   -1896    -1882    -1953    -1996    -1935    -1760    -1510    -1247 
   -1010     -797     -626     -556     -615     -747     -934    -1243 
   -1700    -2255    -2844    -3407    -3823    -3956    -3779    -3356 
   -2824    -2394    -2185    -2135    -2233    -2525    -2867    -3064 
   -3115    -3098    -3012    -2840    -2582    -2191    -1630     -980 
    -345      225      590      616      326     -244    -1109    -2140 
   -3062    -3668    -3857    -3524    -2670    -1505     -257      867 
    1548     1582     1031        1    -1371    -2794    -3941    -4632 
   -4801    -4449    -3764    -3043    -2430    -1959    -1683    -1573 
   -1509    -1424    -1319    -1190    -1093    -1162    -1415    -1771 
   -2185    -2542    -2685    -2639    -2512    -2304    -2027    -1791 
   -1706    -1794    -2030    -2371    -2726    -3020    -3194    -3082 
   -2519    -1573     -469      529     1089      922        0    -1474 
   -3227    -4926    -6176    -6722    -6529    -5678    -4381    -2950 
   -1608     -513      133      220     -185     -974    -2024    -3040 
   -3673    -3797    -3434    -2618    -1546     -535      190      419 
     -74    -1293    -2953    -4656    -5980    -6491    -5989    -4606 
   -2580     -227     1930     3406     3930     3328     1648     -668 
   -3027    -4951    -6046    -6060    -5053    -3308    -1146      977 
    2485     3038     2622     1349     -510    -2510    -4287    -5657 
   -6466    -6585    -6006    -4740    -2853     -682     1336     2930 
    3854     3849     2895     1214     -963    -3334    -5401    -6697 
   -6971    -6083    -4150    -1728      507     2015     2401     1599 
     -43    -2007    -3783    -4893    -5019    -4190    -2622     -548 
    1572     3124     3732     3282     1840     -287    -2599    -4592 
   -5852    -6086    -5319    -3890    -2099     -189     1505     2754 
    3460     3492     2815     1618      165    -1329    -2650    -3600 
   -4137    -4298    -4069    -3581    -3088    -2661    -2297    -2089 
   -2102    -2346    -2833    -3513    -4226    -4833    -5291    -5477 
   -5147    -4243    -2917    -1335      211     1334     1878     1873 
    1247      -67    -1887    -3895    -5743    -6958    -7151    -6341 
   -4800    -2858     -957      504     1386     1663     1299      421 
    -680    -1853    -3006    -3879    -4281    -4234    -3771    -2921 
   -1804     -548      787     2096     3134     3674     3539     2629 
    1101     -759    -2815    -4826    -6310    -6890    -6451    -5051 
   -2981     -775     1053     2181     2359     1506      -45    -1779 
   -3297    -4302    -4662    -4493    -3967    -3165    -2244    -1524 
   -1245    -1435    -1977    -2620    -3061    -3134    -2810    -2101 
   -1092       38     1106     1948     2341     2072     1164     -173 
   -1647    -2903    -3717    -4108    -4151    -3851    -3256    -2538 
   -1856    -1284     -872     -611     -443     -329     -227     -148 
    -256     -757    -1676    -2848    -4114    -5347    -6321    -6802 
   -6698    -6070    -5107    -4039    -3049    -2280    -1832    -1718 
   -1885    -2233    -2629    -2926    -3035    -3015    -2990    -3006 
   -3105    -3404    -3944    -4605    -5237    -5682    -5777    -5460 
   -4762    -3680    -2267     -729      659     1626     1944     1568 
     695     -386    -1424    -2237    -2721    -2898    -2852    -2599 
   -2185    -1764    -1459    -1304    -1314    -1411    -1435    -1338 
   -1201    -1102    -1117    -1298    -1565    -1760    -1798    -1663 
   -1352     -924     -526     -312     -441    -1042    -2043    -3158 
   -4117    -4742    -4870    -4457    -3665    -2724    -1825    -1140 
    -755     -595     -555     -616     -802    -1185    -1804    -2505 
   -3062    -3369    -3447    -3330    -3029    -2561    -1953    -1240 
    -517       59      332      166     -476    -1473    -2608    -3672 
   -4441    -4707    -4432    -3691    -2566    -1295     -316       10 
    -439    -1572    -3091    -4587    -5750    -6405    -6458    -5953 
   -5100    -4100    -3084    -2257    -1824    -1750    -1809    -1820 
   -1756    -1703    -1748    -1933    -2288    -2862    -3613    -4284 
   -4625    -4637    -4398    -3899    -3222    -2588    -2185    -2068 
   -2190    -2439    -2668    -2780    -2765    -2669    -2616    -2724 
   -2934    -3142    -3382    -3622    -3659    -3409    -2933    -2266 
   -1464     -676      -42      355      429      116     -518    -1342 
   -2212    -2943    -3420    -3703    -3846    -3756    -3385    -2783 
   -1920     -851      149      849     1179     1073      504     -411 
   -1497    -2567    -3399    -3852    -3949    -3783    -3448    -3092 
   -2792    -2458    -2084    -1880    -2023    -2509    -3241    -4083 
   -4865    -5488    -5921    -6084    -5876    -5330    -4527    -3520 
   -2507    -1795    -1538    -1708    -2156    -2630    -2922    -2954 
   -2683    -2082    -1279     -512       94      497      529       44 
    -848    -1914    -2970    -3843    -4337    -4325    -3812    -2941 
   -1968    -1118     -464      -57       36     -112     -317     -490 
    -661     -905    -1277    -1681    -1889    -1802    -1517    -1139 
    -753     -537     -695    -1293    -2258    -3426    -4580    -5551 
   -6253    -6556    -6304    -5520    -4413    -3228    -2250    -1782 
   -1895    -2360    -2870    -3151    -2981    -2344    -1456     -577 
      57      250      -31     -629    -1359    -2101    -2741    -3195 
   -3430    -3372    -2931    -2141    -1213     -427        4      -42 
    -539    -1323    -2283    -3365    -4465    -5475    -6267    -6638 
   -6462    -5869    -5099    -4298    -3587    -3089    -2838    -2846 
   -3142    -3619    -4053    -4280    -4207    -3758    -3025    -2268 
   -1675    -1325    -1320    -1728    -2522    -3571    -4583    -5224 
   -5351    -5047    -4389    -3370    -2118     -905       86      740 
     966      802      294     -597    -1803    -3064    -4120    -4775 
   -4817    -4207    -3227    -2197    -1258     -539     -198     -282 
    -750    -1527    -2417    -3147    -3548    -3558    -3167    -2528 
   -1902    -1420    -1106     -987    -1002    -1033    -1077    -1159 
   -1219    -1264    -1450    -1845    -2340    -2876    -3431    -3837 
   -3917    -3615    -2917    -1871     -607      674     1683     2079 
    1725      811     -452    -1946    -3400    -4438    -4833    -4548 
   -3722    -2635    -1572     -768     -462     -800    -1641    -2670 
   -3650    -4328    -4397    -3795    -2768    -1614     -564      198 
     541      446      -46     -878    -1923    -2996    -3927    -4582 
   -4913    -4959    -4759    -4329    -3792    -3346    -3023    -2724 
   -2463    -2319    -2268    -2257    -2285    -2391    -2615    -2965 
   -3375    -3727    -3914    -3835    -3461    -2941    -2501    -2221 
   -2041    -1955    -1993    -2090    -2152    -2130    -1997    -1825 
   -1768    -1914    -2241    -2668    -3072    -3275    -3098    -2514 
   -1611     -536      490     1260     1648     1555      929     -169 
   -1560    -3012    -4221    -4845    -4718    -3935    -2728    -1434 
    -440       21     -117     -842    -1973    -3146    -4067    -4629 
   -4765    -4405    -3569    -2397    -1155     -201      199       31 
    -540    -1336    -2191    -2955    -3581    -4045    -4263    -4220 
   -4001    -3618    -3006    -2209    -1334     -425      470     1260 
    1848     2071     1746      834     -538    -2176    -3823    -5109 
   -5737    -5656    -4924    -3627    -2012     -434      797     1472 
    1550     1174      499     -420    -1504    -2558    -3409    -3987 
   -4270    -4296    -4131    -3781    -3252    -2642    -2074    -1613 
   -1362    -1462    -1904    -2536    -3250    -3955    -4508    -4781 
   -4601    -3816    -2594    -1389     -546     -182     -343    -1053 
   -2222    -3621    -4963    -5961    -6426    -6309    -5622    -4454 
   -3085    -1874    -1050     -739    -1027    -1808    -2759    -3561 
   -4026    -4116    -3970    -3776    -3620    -3557    -3626    -3753 
   -3802    -3702    -3409    -2881    -2141    -1266     -389      215 
     255     -249     -967    -1587    -1961    -2014    -1778    -1464 
   -1312    -1431    -1819    -2401    -3055    -3634    -3936    -3726 
   -2942    -1849     -776      120      703      792      403     -240 
    -880    -1283    -1303     -985     -474       52      343      165 
    -501    -1447    -2389    -3045    -3216    -2890    -2165    -1155 
     -79      701      951      717      167     -522    -1179    -1692 
   -2004    -2029    -1746    -1344    -1111    -1218    -1666    -2269 
   -2734    -2908    -2808    -2420    -1727     -883     -146      341 
     544      436       10     -695    -1602    -2551    -3349    -3965 
   -4494    -4885    -4939    -4511    -3553    -2140     -550      818 
    1584     1458      361    -1474    -3637    -5718    -7326    -8124 
   -7986    -7044    -5544    -3758    -1965     -423      612      886 
     317     -870    -2299    -3628    -4580    -4958    -4689    -3801 
   -2445     -950      321     1166     1495     1228      450     -541 
   -1517    -2446    -3298    -3970    -4324    -4221    -3657    -2874 
   -2158    -1617    -1244    -1044    -1064    -1407    -2121    -3052 
   -3933    -4580    -4887    -4744    -4142    -3244    -2254    -1353 
    -729     -475     -550     -915    -1524    -2216    -2837    -3348 
   -3694    -3756    -3495    -2931    -2077    -1039      -44      722 
    1232     1536     1666     1591     1219      511     -373    -1212 
   -1912    -2434    -2727    -2801    -2726    -2535    -2230    -1800 
   -1156     -224      872     1880     2581     2778     2378     1483 
     246    -1224    -2746    -4086    -5091    -5648    -5612    -4935 
   -3810    -2589    -1590     -995     -785     -789     -888    -1046 
   -1215    -1425    -1826    -2452    -3140    -3771    -4337    -4785 
   -4981    -4844    -4404    -3771    -3120    -2620    -2363    -2410 
   -2759    -3234    -3574    -3648    -3435    -2965    -2383    -1914 
   -1702    -1766    -2030    -2332    -2494    -2417    -2037    -1324 
    -388      523     1180     1428     1166      451     -483    -1415 
   -2170    -2522    -2297    -1571     -577      460     1304     1743 
    1691     1118       47    -1314    -2648    -3719    -4373    -4524 
   -4260    -3794    -3270    -2734    -2245    -1857    -1595    -1513 
   -1627    -1784    -1831    -1798    -1770    -1803    -1971    -2270 
   -2529    -2597    -2497    -2304    -2074    -1924    -1954    -2166 
   -2545    -2999    -3298    -3302    -3068    -2684    -2185    -1642 
   -1148     -765     -576     -683    -1059    -1553    -2039    -2439 
   -2683    -2735    -2613    -2342    -1962    -1556    -1193     -876 
    -643     -595     -767    -1155    -1731    -2346    -2785    -2958 
   -2911    -2736    -2491    -2176    -1788    -1386    -1120    -1130 
   -1436    -2013    -2797    -3599    -4217    -4543    -4505    -4093 
   -3405    -2618    -1933    -1472    -1246    -1201    -1256    -1380 
   -1573    -1793    -1935    -1891    -1671    -1465    -1446    -1618 
   -1903    -2217    -2463    -2553    -2451    -2193    -1822    -1378 
    -906     -429      -58       26     -220     -740    -1526    -2538 
   -3599    -4473    -4988    -5059    -4723    -4174    -3589    -3011 
   -2462    -1994    -1676    -1585    -1756    -2112    -2452    -2605 
   -2583    -2504    -2500    -2679    -2967    -3125    -3003    -2610 
   -2035    -1407     -893     -618     -560     -579     -541     -417 
    -333     -430     -672     -926    -1166    -1447    -1820    -2320 
   -2898    -3409    -3765    -3979    -4006    -3740    -3168    -2366 
   -1409     -422      452     1129     1499     1402      787     -207 
   -1398    -2620    -3644    -4274    -4492    -4344    -3860    -3153 
   -2381    -1644    -1058     -758     -755     -913    -1091    -1183 
   -1098     -843     -552     -375     -445     -873    -1621    -2499 
   -3325    -3944    -4179    -3929    -3224    -2145     -853      334 
    1123     1419     1197      475     -567    -1691    -2735    -3536 
   -3950    -3966    -3642    -2999    -2163    -1402     -874     -556 
    -437     -529     -780    -1148    -1588    -1978    -2234    -2410 
   -2533    -2539    -2407    -2171    -1820    -1373     -936     -581 
    -335     -267     -423     -727    -1076    -1365    -1429    -1175 
    -712     -179      398      970     1410     1605     1490     1078 
     509      -66     -603    -1102    -1526    -1887    -2248    -2573 
   -2779    -2880    -2904    -2835    -2673    -2428    -2140    -1960 
   -2075    -2491    -3033    -3588    -4140    -4597    -4844    -4807 
   -4402    -3607    -2562    -1514     -697     -272     -255     -506 
    -884    -1347    -1840    -2290    -2723    -3216    -3750    -4246 
   -4629    -4812    -4749    -4456    -3921    -3151    -2326    -1693 
   -1370    -1412    -1858    -2657    -3684    -4804    -5852    -6616 
   -6963    -6869    -6322    -5386    -4277    -3179    -2168    -1360 
    -906     -855    -1169    -1722    -2257    -2553    -2600    -2458 
   -2146    -1765    -1474    -1343    -1399    -1649    -2047    -2568 
   -3229    -3955    -4558    -4867    -4782    -4248    -3323    -2230 
   -1259     -629     -447     -671    -1171    -1855    -2674    -3469 
   -3966    -3992    -3530    -2661    -1607     -574      416     1312 
    1922     2116     1916     1394      645     -161     -889    -1518 
   -1989    -2205    -2207    -2077    -1830    -1531    -1278    -1151 
   -1247    -1609    -2122    -2598    -2932    -3111    -3119    -2967 
   -2758    -2538    -2291    -2137    -2246    -2649    -3273    -3973 
   -4518    -4752    -4680    -4313    -3683    -2961    -2292    -1684 
   -1193    -1002    -1209    -1711    -2323    -2902    -3334    -3545 
   -3536    -3309    -2921    -2547    -2280    -2084    -1964    -1921 
   -1879    -1788    -1705    -1683    -1717    -1844    -2110    -2434 
   -2711    -2883    -2872    -2609    -2127    -1531     -920     -378 
     -19      127      100     -161     -741    -1599    -2628    -3683 
   -4570    -5132    -5308    -5068    -4397    -3431    -2431    -1624 
   -1188    -1248    -1773    -2598    -3504    -4266    -4719    -4796 
   -4503    -3888    -3047    -2145    -1311     -598      -79      173 
     139     -190     -810    -1608    -2347    -2859    -3072    -2887 
   -2280    -1379     -332      698     1461     1755     1549      936 
      68     -829    -1558    -2027    -2172    -2000    -1691    -1444 
   -1318    -1295    -1358    -1474    -1602    -1711    -1735    -1613 
