Origin Time       2011/03/11 14:46:00
Lat.              38.103
Long.             142.860
Depth. (km)       24
Mag.              9.0
Station Code      HKD006
Station Lat.      45.1267
Station Long.     142.3516
Station Height(m) 14
Record Time       2011/03/11 14:50:11
Sampling Freq(Hz) 100Hz
Duration Time(s)  289
Dir.              U-D
Scale Factor      3920(gal)/6182761
Max. Acc. (gal)   1.875
Last Correction   2011/03/11 14:49:56
Memo.             
[...]
   -2391    -2404    -2413    -2411    -2403    -2397    -2387    -2373 
   -2360    -2342    -2324    -2313    -2304    -2287    -2269    -2254 
   -2242    -2236    -2229    -2214    -2190    -2162    -2130    -2094 
   -2057    -2016    -1968    -1917    -1868    -1820    -1768    -1716 
   -1663    -1611    -1567    -1531    -1496    -1466    -1446    -1433 
   -1421    -1416    -1414    -1406    -1399    -1400    -1397    -1388 
   -1380    -1377    -1375    -1377    -1378    -1378    -1378    -1373 
   -1368    -1369    -1369    -1365    -1364    -1363    -1362    -1368 
   -1378    -1385    -1393    -1402    -1407    -1409    -1415    -1420 
   -1418    -1414    -1410    -1403    -1390    -1372    -1352    -1333 
   -1319    -1309    -1304    -1305    -1306    -1303    -1299    -1299 
   -1300    -1297    -1297    -1302    -1303    -1298    -1294    -1291 
   -1296    -1306    -1315    -1325    -1338    -1353    -1368    -1389 
   -1421    -1455    -1489    -1525    -1559    -1588    -1621    -1658 
   -1699    -1744    -1783    -1815    -1852    -1889    -1916    -1942 
   -1969    -1988    -1997    -2000    -2001    -1995    -1980    -1967 
   -1955    -1936    -1913    -1886    -1860    -1836    -1810    -1786 
   -1762    -1729    -1693    -1660    -1627    -1593    -1560    -1523 
   -1485    -1448    -1411    -1373    -1338    -1301    -1261    -1223 
   -1193    -1164    -1133    -1109    -1089    -1064    -1043    -1030 
   -1018    -1007    -1001     -990     -972     -961     -954     -946 
    -941     -934     -921     -910     -903     -893     -885     -882 
    -878     -871     -866     -865     -869     -877     -886     -897 
    -916     -940     -962     -986    -1017    -1052    -1098    -1155 
   -1213    -1268    -1332    -1399    -1464    -1530    -1595    -1657 
   -1719    -1784    -1848    -1910    -1973    -2033    -2093    -2156 
   -2218    -2278    -2341    -2406    -2475    -2546    -2613    -2679 
   -2750    -2826    -2900    -2975    -3052    -3116    -3172    -3232 
   -3287    -3335    -3388    -3439    -3486    -3530    -3576    -3617 
   -3650    -3685    -3724    -3757    -3788    -3822    -3848    -3865 
   -3881    -3891    -3896    -3901    -3905    -3909    -3914    -3917 
   -3920    -3922    -3920    -3917    -3912    -3894    -3869    -3843 
   -3816    -3777    -3733    -3692    -3645    -3592    -3538    -3480 
   -3419    -3361    -3296    -3227    -3153    -3072    -2988    -2905 
   -2825    -2748    -2673    -2592    -2506    -2420    -2334    -2248 
   -2166    -2082    -1996    -1916    -1840    -1768    -1706    -1651 
   -1596    -1539    -1482    -1424    -1364    -1300    -1233    -1166 
   -1096    -1022     -948     -879     -809     -732     -655     -581 
    -514     -454     -397     -348     -307     -267     -231     -200 
    -169     -144     -128     -112      -94      -79      -67      -51 
     -35      -20       -5        8       15       20       26       26 
      23       19       13        7       -3      -23      -48      -80 
    -116     -155     -197     -243     -292     -341     -390     -437 
    -484     -532     -585     -645     -705     -760     -811     -859 
    -904     -947     -990    -1032    -1082    -1136    -1187    -1236 
   -1289    -1343    -1396    -1452    -1511    -1570    -1628    -1689 
   -1749    -1807    -1863    -1918    -1973    -2024    -2069    -2110 
   -2151    -2189    -2223    -2253    -2280    -2301    -2321    -2338 
   -2349    -2352    -2353    -2357    -2361    -2367    -2373    -2378 
   -2384    -2393    -2400    -2414    -2431    -2447    -2462    -2474 
   -2483    -2491    -2497    -2500    -2494    -2477    -2457    -2438 
   -2413    -2384    -2353    -2319    -2289    -2260    -2232    -2206 
   -2184    -2165    -2149    -2132    -2110    -2086    -2058    -2033 
   -2013    -1996    -1979    -1967    -1957    -1946    -1938    -1932 
   -1931    -1936    -1939    -1942    -1955    -1971    -1986    -2006 
   -2026    -2044    -2064    -2079    -2088    -2099    -2109    -2111 
   -2107    -2104    -2102    -2097    -2088    -2076    -2061    -2044 
   -2019    -1997    -1983    -1972    -1965    -1962    -1957    -1954 
   -1952    -1943    -1935    -1929    -1914    -1893    -1872    -1846 
   -1811    -1771    -1731    -1689    -1643    -1598    -1560    -1521 
   -1480    -1445    -1408    -1373    -1344    -1312    -1280    -1253 
   -1224    -1192    -1166    -1141    -1117    -1097    -1080    -1064 
   -1047    -1031    -1019    -1003     -984     -970     -957     -944 
    -936     -936     -942     -946     -951     -963     -975     -981 
    -987     -995    -1001    -1010    -1022    -1029    -1037    -1049 
   -1064    -1080    -1098    -1121    -1144    -1166    -1197    -1233 
   -1263    -1294    -1331    -1371    -1416    -1466    -1517    -1571 
   -1625    -1674    -1721    -1769    -1816    -1860    -1903    -1946 
   -1985    -2022    -2063    -2102    -2137    -2169    -2198    -2224 
   -2244    -2254    -2264    -2281    -2291    -2293    -2296    -2291 
   -2281    -2271    -2254    -2235    -2212    -2185    -2155    -2118 
   -2075    -2029    -1978    -1924    -1873    -1821    -1766    -1712 
   -1654    -1594    -1535    -1478    -1424    -1376    -1330    -1284 
   -1239    -1197    -1158    -1115    -1069    -1027     -985     -940 
    -897     -859     -826     -793     -761     -733     -703     -677 
    -656     -630     -606     -593     -587     -582     -578     -574 
    -572     -576     -587     -600     -618     -640     -665     -689 
    -710     -732     -753     -774     -801     -832     -859     -882 
    -903     -925     -950     -974     -994    -1011    -1023    -1030 
   -1035    -1039    -1046    -1058    -1069    -1076    -1081    -1084 
   -1087    -1090    -1095    -1097    -1089    -1074    -1067    -1065 
   -1059    -1050    -1040    -1029    -1019    -1011    -1007    -1002 
    -994     -984     -980     -984     -991    -1000    -1015    -1032 
   -1045    -1057    -1068    -1077    -1089    -1106    -1127    -1151 
   -1171    -1191    -1213    -1233    -1252    -1279    -1306    -1331 
   -1358    -1383    -1408    -1437    -1472    -1504    -1527    -1549 
   -1580    -1607    -1632    -1665    -1695    -1724    -1756    -1786 
   -1815    -1850    -1882    -1908    -1932    -1952    -1976    -2005 
   -2029    -2050    -2073    -2094    -2112    -2133    -2154    -2170 
   -2185    -2199    -2211    -2224    -2236    -2246    -2255    -2258 
   -2255    -2257    -2261    -2265    -2267    -2264    -2265    -2271 
   -2270    -2262    -2258    -2257    -2254    -2255    -2263    -2270 
   -2273    -2269    -2255    -2237    -2217    -2195    -2175    -2155 
   -2130    -2104    -2076    -2049    -2027    -2006    -1986    -1972 
   -1960    -1945    -1928    -1907    -1894    -1885    -1872    -1855 
   -1835    -1812    -1791    -1779    -1774    -1767    -1758    -1752 
   -1745    -1735    -1731    -1736    -1745    -1756    -1768    -1784 
   -1797    -1812    -1836    -1859    -1879    -1899    -1918    -1939 
   -1962    -1982    -2003    -2026    -2043    -2058    -2075    -2091 
   -2106    -2119    -2131    -2147    -2163    -2172    -2174    -2171 
   -2163    -2148    -2131    -2115    -2103    -2094    -2082    -2069 
   -2054    -2034    -2008    -1984    -1965    -1949    -1943    -1945 
   -1947    -1950    -1951    -1936    -1908    -1879    -1851    -1822 
   -1798    -1784    -1774    -1760    -1736    -1700    -1657    -1616 
   -1590    -1570    -1542    -1510    -1485    -1459    -1423    -1381 
   -1344    -1319    -1303    -1287    -1266    -1236    -1195    -1148 
   -1113    -1101    -1096    -1079    -1048    -1011     -984     -976 
    -974     -971     -971     -971     -968     -964     -959     -959 
    -966     -976     -988     -999    -1006    -1011    -1021    -1044 
   -1071    -1088    -1100    -1113    -1123    -1132    -1142    -1151 
   -1159    -1163    -1170    -1184    -1200    -1218    -1239    -1258 
   -1274    -1291    -1307    -1325    -1347    -1370    -1395    -1420 
   -1440    -1454    -1478    -1512    -1549    -1589    -1630    -1668 
   -1705    -1734    -1756    -1780    -1804    -1824    -1845    -1876 
   -1918    -1956    -1984    -2003    -2013    -2024    -2044    -2072 
   -2101    -2128    -2148    -2158    -2169    -2186    -2207    -2224 
   -2236    -2256    -2284    -2305    -2317    -2326    -2336    -2353 
   -2377    -2396    -2409    -2421    -2437    -2459    -2480    -2499 
   -2521    -2543    -2557    -2564    -2570    -2572    -2570    -2570 
   -2574    -2579    -2582    -2576    -2564    -2552    -2541    -2531 
   -2521    -2507    -2494    -2482    -2471    -2465    -2462    -2453 
   -2443    -2436    -2434    -2439    -2443    -2448    -2455    -2458 
   -2455    -2451    -2452    -2456    -2459    -2462    -2464    -2469 
   -2477    -2486    -2494    -2498    -2499    -2499    -2500    -2498 
   -2498    -2503    -2510    -2520    -2535    -2550    -2565    -2579 
   -2597    -2620    -2650    -2682    -2717    -2753    -2782    -2805 
   -2825    -2838    -2848    -2855    -2861    -2867    -2869    -2867 
   -2862    -2854    -2849    -2846    -2842    -2836    -2828    -2818 
   -2811    -2803    -2790    -2774    -2759    -2737    -2711    -2693 
   -2677    -2647    -2612    -2590    -2575    -2553    -2532    -2513 
   -2486    -2454    -2427    -2398    -2369    -2341    -2309    -2279 
   -2250    -2217    -2184    -2157    -2125    -2087    -2050    -2012 
   -1973    -1935    -1890    -1839    -1790    -1744    -1702    -1659 
   -1605    -1546    -1489    -1430    -1368    -1306    -1240    -1170 
   -1103    -1047     -989     -917     -844     -777     -713     -652 
    -592     -527     -454     -382     -318     -257     -196     -136 
     -84      -39       10       57       92      125      161      194 
     219      237      253      267      278      287      289      280 
     270      261      251      238      224      206      184      158 
     128       95       56       18      -17      -53      -95     -142 
    -193     -250     -315     -389     -467     -545     -630     -717 
    -802     -892     -981    -1062    -1149    -1242    -1332    -1417 
   -1499    -1584    -1678    -1773    -1863    -1961    -2073    -2185 
   -2296    -2403    -2500    -2599    -2698    -2788    -2876    -2963 
   -3040    -3112    -3183    -3249    -3312    -3377    -3444    -3504 
   -3561    -3617    -3670    -3718    -3756    -3790    -3821    -3846 
   -3868    -3887    -3902    -3920    -3938    -3955    -3967    -3972 
   -3969    -3961    -3952    -3946    -3941    -3933    -3920    -3901 
   -3881    -3865    -3845    -3823    -3800    -3777    -3754    -3733 
   -3716    -3702    -3686    -3667    -3648    -3627    -3602    -3573 
   -3543    -3512    -3482    -3452    -3422    -3389    -3353    -3310 
   -3258    -3199    -3142    -3090    -3035    -2972    -2908    -2848 
   -2787    -2726    -2670    -2615    -2552    -2488    -2425    -2368 
   -2317    -2264    -2211    -2160    -2107    -2058    -2016    -1971 
   -1930    -1892    -1847    -1800    -1755    -1703    -1648    -1598 
   -1549    -1498    -1450    -1399    -1346    -1293    -1240    -1187 
   -1133    -1083    -1040     -994     -947     -906     -866     -828 
    -801     -776     -752     -733     -717     -702     -689     -674 
    -658     -647     -639     -626     -614     -604     -591     -581 
    -577     -572     -569     -572     -575     -581     -591     -607 
    -630     -658     -686     -714     -749     -788     -830     -873 
    -912     -945     -977    -1004    -1028    -1051    -1074    -1091 
   -1104    -1114    -1112    -1107    -1102    -1095    -1092    -1089 
   -1079    -1072    -1070    -1064    -1055    -1045    -1039    -1033 
   -1028    -1029    -1033    -1037    -1041    -1043    -1052    -1071 
   -1092    -1112    -1132    -1149    -1165    -1186    -1209    -1234 
   -1257    -1278    -1300    -1322    -1341    -1363    -1386    -1408 
   -1429    -1454    -1485    -1514    -1542    -1572    -1604    -1635 
   -1667    -1700    -1733    -1769    -1806    -1840    -1871    -1899 
   -1924    -1946    -1967    -1988    -2009    -2030    -2053    -2078 
   -2103    -2122    -2140    -2160    -2175    -2189    -2208    -2227 
   -2244    -2260    -2273    -2286    -2303    -2325    -2346    -2364 
   -2381    -2398    -2412    -2428    -2446    -2462    -2475    -2486 
   -2492    -2495    -2497    -2499    -2500    -2505    -2514    -2525 
   -2535    -2542    -2550    -2556    -2555    -2554    -2555    -2558 
   -2560    -2562    -2565    -2569    -2570    -2573    -2579    -2582 
   -2587    -2593    -2600    -2596    -2581    -2566    -2554    -2536 
   -2516    -2503    -2492    -2475    -2451    -2428    -2409    -2393 
   -2380    -2367    -2350    -2333    -2317    -2301    -2287    -2277 
   -2273    -2270    -2265    -2258    -2248    -2239    -2241    -2249 
   -2264    -2283    -2298    -2312    -2329    -2350    -2375    -2408 
   -2445    -2482    -2521    -2564    -2614    -2670    -2729    -2787 
   -2841    -2893    -2943    -2987    -3030    -3073    -3114    -3161 
   -3211    -3253    -3298    -3354    -3414    -3479    -3545    -3609 
   -3673    -3734    -3793    -3858    -3926    -3999    -4068    -4132 
   -4197    -4259    -4317    -4380    -4442    -4496    -4546    -4592 
   -4631    -4659    -4680    -4699    -4720    -4740    -4752    -4753 
   -4747    -4744    -4743    -4745    -4749    -4745    -4734    -4721 
   -4708    -4694    -4678    -4660    -4641    -4624    -4609    -4585 
   -4551    -4509    -4464    -4418    -4375    -4332    -4280    -4217 
   -4148    -4079    -4011    -3943    -3870    -3787    -3707    -3628 
   -3538    -3439    -3346    -3258    -3170    -3081    -2992    -2904 
   -2814    -2719    -2625    -2536    -2444    -2345    -2242    -2144 
   -2055    -1969    -1885    -1798    -1711    -1624    -1535    -1443 
   -1352    -1264    -1174    -1092    -1015     -934     -851     -773 
    -701     -639     -592     -553     -515     -481     -450     -422 
    -407     -402     -395     -391     -396     -404     -414     -427 
    -443     -462     -483     -508     -541     -578     -614     -655 
    -700     -745     -791     -832     -872     -923     -983    -1042 
   -1101    -1160    -1217    -1275    -1332    -1387    -1443    -1503 
   -1561    -1614    -1668    -1726    -1785    -1840    -1890    -1940 
   -1989    -2034    -2076    -2112    -2148    -2187    -2223    -2255 
   -2286    -2311    -2335    -2367    -2401    -2426    -2447    -2465 
   -2475    -2479    -2483    -2488    -2495    -2503    -2508    -2513 
   -2513    -2502    -2488    -2477    -2470    -2467    -2463    -2458 
   -2454    -2446    -2434    -2420    -2404    -2388    -2369    -2341 
   -2307    -2272    -2231    -2191    -2156    -2119    -2080    -2039 
   -1999    -1964    -1933    -1906    -1884    -1858    -1829    -1802 
   -1773    -1748    -1723    -1697    -1677    -1660    -1639    -1617 
   -1598    -1586    -1576    -1564    -1563    -1570    -1579    -1591 
   -1604    -1616    -1629    -1644    -1665    -1688    -1706    -1720 
   -1734    -1749    -1759    -1768    -1778    -1782    -1782    -1782 
   -1777    -1768    -1761    -1756    -1756    -1754    -1751    -1753 
   -1752    -1744    -1738    -1733    -1722    -1709    -1696    -1684 
   -1678    -1675    -1675    -1677    -1677    -1672    -1665    -1661 
   -1658    -1655    -1662    -1674    -1679    -1686    -1697    -1710 
   -1725    -1738    -1744    -1751    -1760    -1768    -1772    -1774 
   -1774    -1777    -1785    -1795    -1800    -1802    -1801    -1797 
   -1797    -1798    -1799    -1804    -1815    -1824    -1830    -1835 
   -1836    -1835    -1837    -1836    -1830    -1822    -1814    -1805 
   -1801    -1801    -1798    -1795    -1799    -1802    -1801    -1805 
   -1811    -1816    -1821    -1823    -1823    -1825    -1821    -1815 
   -1808    -1798    -1788    -1777    -1763    -1747    -1731    -1715 
   -1699    -1680    -1660    -1640    -1622    -1603    -1582    -1563 
   -1548    -1532    -1516    -1502    -1490    -1479    -1474    -1472 
   -1465    -1460    -1458    -1453    -1446    -1441    -1437    -1435 
   -1432    -1423    -1413    -1406    -1395    -1386    -1379    -1368 
   -1356    -1346    -1337    -1338    -1342    -1347    -1355    -1364 
   -1374    -1390    -1412    -1440    -1475    -1513    -1553    -1593 
   -1634    -1668    -1689    -1700    -1710    -1716    -1714    -1711 
   -1708    -1702    -1693    -1685    -1681    -1677    -1673    -1671 
   -1676    -1684    -1693    -1699    -1707    -1722    -1748    -1779 
   -1809    -1841    -1876    -1911    -1946    -1980    -2009    -2029 
   -2038    -2041    -2049    -2058    -2064    -2068    -2068    -2057 
   -2040    -2024    -2012    -2001    -1985    -1968    -1954    -1943 
   -1931    -1916    -1900    -1883    -1862    -1840    -1820    -1797 
   -1769    -1742    -1720    -1704    -1696    -1693    -1689    -1689 
   -1694    -1697    -1699    -1699    -1689    -1668    -1648    -1632 
   -1624    -1623    -1621    -1612    -1594    -1570    -1545    -1519 
   -1496    -1477    -1453    -1423    -1399    -1385    -1379    -1383 
   -1394    -1411    -1435    -1464    -1490    -1516    -1548    -1594 
   -1656    -1722    -1783    -1836    -1880    -1917    -1954    -1999 
   -2051    -2098    -2134    -2161    -2176    -2191    -2213    -2244 
   -2278    -2306    -2328    -2354    -2389    -2428    -2476    -2535 
   -2596    -2648    -2691    -2722    -2747    -2775    -2809    -2851 
   -2895    -2934    -2965    -2986    -3000    -3013    -3026    -3033 
   -3032    -3020    -3003    -2985    -2970    -2954    -2935    -2912 
   -2886    -2860    -2839    -2824    -2817    -2815    -2809    -2802 
   -2792    -2772    -2744    -2709    -2668    -2626    -2577    -2525 
   -2477    -2427    -2375    -2323    -2260    -2189    -2121    -2055 
   -1991    -1931    -1869    -1807    -1751    -1698    -1644    -1584 
   -1518    -1451    -1385    -1321    -1260    -1198    -1137    -1082 
   -1029     -979     -930     -878     -831     -788     -746     -704 
    -661     -616     -574     -540     -511     -482     -454     -423 
    -391     -367     -349     -335     -326     -319     -309     -297 
    -286     -279     -272     -263     -248     -230     -218     -214 
    -212     -214     -221     -231     -247     -268     -292     -317 
    -342     -366     -393     -419     -445     -474     -507     -544 
    -579     -615     -655     -693     -736     -786     -831     -868 
    -897     -924     -954     -981    -1007    -1043    -1092    -1145 
   -1202    -1264    -1317    -1365    -1421    -1478    -1531    -1581 
   -1630    -1678    -1712    -1741    -1784    -1838    -1884    -1916 
   -1929    -1931    -1936    -1948    -1974    -2009    -2036    -2045 
   -2043    -2046    -2058    -2084    -2120    -2148    -2161    -2162 
   -2153    -2147    -2155    -2166    -2171    -2166    -2157    -2151 
   -2145    -2140    -2139    -2140    -2132    -2115    -2098    -2087 
   -2079    -2077    -2077    -2075    -2076    -2076    -2074    -2078 
