Origin Time       2011/03/11 14:46:00
Lat.              38.103
Long.             142.860
Depth. (km)       24
Mag.              9.0
Station Code      HKD089
Station Lat.      43.2436
Station Long.     143.5544
Station Height(m) 90
Record Time       2011/03/11 14:48:29
Sampling Freq(Hz) 100Hz
Duration Time(s)  275
Dir.              N-S
Scale Factor      3920(gal)/6182761
Max. Acc. (gal)   14.463
Last Correction   2011/03/11 14:48:14
Memo.             
[...]
   14144    12769    11587    10731    10497    11168    12770    14943 
   17146    19069    20408    20839    20498    19701    18489    16835 
   14952    13474    13117    14073    16126    18763    21056    22355 
   22761    22462    21612    20924    21085    21671    21639    20443 
   17940    14152     9722     5682     2768     1590     2783     6223 
   10965    16087    20506    23086    23930    24138    24335    24357 
   23775    22446    20838    19512    18326    16878    15382    14409 
   14313    15072    16241    17179    17481    16937    15413    13494 
   12581    13707    16693    20294    22969    24061    23815    22226 
   19138    15106    11073     7638     5061     3759     4299     6794 
   10955    16319    21766    25815    27851    28221    27208    24713 
   20877    16590    12957    10179     7625     5241     3826     3744 
    4616     5969     7149     7618     7645     7736     7906     8092 
    8358     8405     7854     6836     5647     4575     4023     3948 
    3782     3183     2392     1957     2243     3032     3648     3745 
    3672     3882     4600     5809     6987     7478     7452     7829 
    9097    10898    12598    13533    13159    11480     9116     6972 
    5930     6492     8254    10243    12061    13870    15360    15769 
   14735    12466     9552     6837     4894     3904     4402     6769 
    9926    12405    14119    15992    18430    20606    21873    22742 
   23327    23247    22849    22352    21412    19975    18426    17596 
   18240    19826    20801    20410    19464    19069    19419    20163 
   20998    21664    21969    21808    21206    20512    20310    20840 
   21675    22267    22394    22048    21381    20639    20076    19873 
   20031    20472    21156    21982    22699    23065    23117    23242 
   23882    25005    26247    27463    28463    28799    28307    27137 
   25500    23927    23058    22885    22737    21942    20445    18862 
   18011    18463    20004    21663    22789    23391    23489    23136 
   22808    22970    23506    24045    24340    24177    23540    22478 
   20772    18471    16422    15723    16903    19589    22680    24899 
   25292    23740    21296    19325    18267    17717    17297    17046 
   17290    18428    20427    22541    23873    24050    23250    21522 
   18726    15365    12537    11085    11423    13584    16832    20003 
   22318    23391    22952    20770    17207    13689    11483    10795 
   11564    13575    15854    17339    17874    17787    17157    16045 
   14623    12981    11597    11146    11442    12041    12914    13395 
   12458    10073     7124     4682     3318     2874     2905     3134 
    3654     4575     5602     6332     6482     5995     5449     5649 
    6623     7656     7763     6180     3413      784    -1217    -2639 
   -3276    -3266    -2986    -2291     -940      894     2930     4717 
    5494     4997     4102     3908     4629     5933     7510     8857 
    9311     8549     6724     4390     2424     1482     1533     2058 
    2576     3072     3394     2871     1731     1415     2698     5132 
    8219    11594    14226    14935    13940    12579    11680    10888 
    9362     7334     6270     6840     8287     9881    11487    13054 
   14288    14889    15217    15856    16594    16809    16501    16243 
   16254    16203    15819    15104    14200    13157    12023    11378 
   11903    13578    16021    18865    21407    22990    23826    24268 
   23843    21970    18723    14468     9631     5041     1690      216 
    1002     4056     8733    14074    19091    22616    23503    21587 
   18037    14275    11252     9650     9418     9541     9269     8915 
    9050     9712    10823    12481    14321    15555    15944    16107 
   16490    16615    16073    15434    15413    15829    15994    15900 
   16166    16739    16592    14941    12373    10358     9696     9991 
   10527    11051    11814    13058    14480    15552    16289    17068 
   17692    17563    16900    16612    16996    17439    17068    15604 
   13807    12671    12396    12706    13562    14789    15683    15778 
   15303    14513    13435    12288    11488    11212    11219    11377 
   12114    13740    15631    16777    16753    15717    14211    12936 
   12117    11436    10433     8929     7713     8164    10639    13884 
   16278    17221    17192    16870    16532    16087    15335    14201 
   12792    11348    10407    10827    12979    15930    18044    18684 
   18594    18464    18308    18229    18399    18543    18386    17974 
   17385    16997    17370    18345    19368    20499    21933    23099 
   23198    22017    19672    16620    13962    12525    12214    12814 
   14226    15969    17434    18461    19402    20656    21963    22494 
   21850    20481    19117    18245    17970    18177    18729    19305 
   19651    19942    20276    20465    20532    20811    21505    22323 
   22597    21841    20671    20517    21599    22546    22431    21686 
   21128    20869    20266    18967    17397    15869    14117    12129 
   10568    10055    10904    13434    17340    21091    23235    23598 
   22453    20046    17242    14889    13037    11755    11561    12564 
   14160    15603    16224    15752    14770    14186    14450    15391 
   16436    17138    17490    17647    17447    16657    15523    14445 
   13445    12110    10123     8216     7571     8128     8856     9448 
   10552    12517    14919    17164    18683    18969    18026    16206 
   13731    11113     9217     8293     8062     8455     9178     9676 
    9934    10012     9353     7822     6387     5828     5955     6395 
    6921     6987     5944     4044     2534     2258     2888     3870 
    4957     5750     6079     6288     6463     6421     6417     6992 
    8366    10454    12888    14701    14963    13749    11748     9601 
    8038     7739     8660    10273    12452    14929    16788    17866 
   18886    20025    21350    23239    25315    26629    26922    26878 
   27029    26828    25588    23793    22452    21792    21329    20686 
   20187    20709    22542    24888    26791    27808    27966    27521 
   26523    24852    22895    21567    21273    21573    22050    22426 
   22136    20900    19372    18498    18496    19084    20152    21510 
   22712    23597    24180    23955    22381    19751    16608    13151 
    9785     7183     5679     5429     6532     8493    10489    12187 
   13592    14422    14112    12395     9645     6859     5080     4587 
    5033     5754     5784     4995     4546     5082     5970     6516 
    6552     6025     4992     4104     4066     4596     5122     5742 
    6755     8264    10181    12168    13897    15077    15323    14565 
   13352    12154    10854     9444     8269     7616     8091    10361 
   14009    17834    21031    23367    24789    25412    25463    24807 
   23148    20930    19205    18275    17538    16865    16622    16792 
   17376    18633    20290    21639    22539    23423    24450    25321 
   25615    25256    24681    24236    23857    23303    22157    20217 
   17965    16058    14664    13705    13338    13756    14765    16195 
   18166    20190    21161    20740    19548    18126    16504    14593 
   12688    11451    11386    12245    13096    13407    13444    13454 
   13581    14136    14986    15369    14775    13638    12823    12608 
   12848    13600    14990    16981    19024    19849    18651    16201 
   13838    11999    10435     9224     8864     9620    11347    13794 
   16567    19066    20789    21623    21750    21312    20530    19900 
   19609    19186    18179    16690    15193    14186    14003    14775 
   16388    18362    19996    20748    20422    19208    17488    15642 
   14272    13911    14236    14556    14809    15252    15748    15961 
   15890    15927    16493    17639    18875    19540    19434    18916 
   18624    19136    20364    21545    21997    21501    20363    19220 
   18618    18817    19579    20210    20248    19917    19577    19010 
   17828    16298    15169    14956    15437    15767    15297    14122 
   12672    11094     9443     8269     8117     8689     9305     9647 
    9673     9594    10056    11326    12526    12730    12240    11946 
   12041    11912    11016     9461     7871     6964     7004     7433 
    7586     7563     7623     7627     7596     7706     7916     8247 
    8874     9804    10878    11884    12589    12863    12735    12351 
   11767    10867     9885     9455     9559     9578     9756    11007 
   13153    14913    15462    15000    14218    13752    13754    13721 
   13019    11672    10458    10185    10983    12257    13295    13817 
   14008    14177    14391    14579    14789    15056    15270    15471 
   15949    16688    17134    16778    15550    13732    11850    10404 
    9552     9219     9635    11373    14394    17582    19829    20995 
   21498    21664    21663    21299    20083    18025    15662    13606 
   12520    12720    13795    15063    16204    17197    17772    17427 
   16098    14503    13597    13724    14533    15566    16484    17035 
   17399    18116    19264    20388    21031    20991    20654    20767 
   21501    22375    22941    23080    22899    22658    22750    23463 
   24625    25473    25127    23517    21617    20428    19996    19728 
   19160    18112    16769    15688    15316    15610    16142    16454 
   16464    16612    17282    18158    18680    18798    18794    18834 
   18928    18978    18900    18789    18644    18089    16994    15969 
   15531    15416    15200    14730    13894    12780    11725    10826 
    9942     9027     7956     6487     4937     4161     4446     5366 
    6598     8064     9609    10943    11879    12371    12319    11728 
   10906    10122     9312     8478     7821     7335     7200     8181 
   10520    13074    14567    14870    14361    13098    10953     8276 
    6175     5510     6166     7676     9637    11709    13747    15566 
   16726    16781    15637    13697    11516     9536     8187     7716 
    8120     9294    10827    12058    12658    12887    13083    13111 
   12734    12068    11189    10056     8859     7847     7240     7455 
    8633    10164    11384    12248    12801    12619    11513    10033 
    8849     8312     8430     8922     9557    10188    10535    10430 
   10100     9833     9660     9570     9551     9502     9325     9129 
    9351    10258    11431    12260    12493    12119    11424    10917 
   10743    10709    10622    10173     9310     8532     8109     7920 
    8065     8543     8984     9334     9920    10790    11709    12529 
   13158    13435    13407    13469    13938    14816    16045    17499 
   18658    19008    18725    18234    17769    17634    17885    18190 
   18493    19115    20120    21069    21589    21812    22069    22515 
   22966    22868    21853    20450    19616    19771    20812    22485 
   24410    26161    27523    28443    28709    28198    27120    25629 
   23916    22549    22101    22634    23749    25074    26409    27523 
   28407    29404    30597    31485    31344    29767    27144    24429 
   22458    21533    21372    21592    22064    22730    23517    24307 
   24940    25386    25726    26106    26581    26850    26567    25840 
   24931    23935    23085    22597    22155    21467    20843    20474 
   19972    19046    18012    17387    17415    18064    19022    19775 
   20050    19991    19866    19804    19634    18908    17209    14553 
   11704     9830     9603    10795    12726    15024    17745    20432 
   21917    21722    20494    18778    16593    14106    11865    10368 
    9656     9613    10472    12254    14100    15036    15005    14584 
   14139    13813    13797    13983    13821    12731    10567     8029 
    6302     5915     6456     7250     7814     7955     7842     7958 
    8722     9936    10917    11326    11480    11884    12691    13643 
   14463    14997    15045    14361    12861    10799     8701     7057 
    6160     6033     6394     6870     7216     7404     7667     8307 
    9339    10429    11325    12134    12977    13591    13710    13506 
   13201    12845    12607    12489    12198    11863    12001    12651 
   13537    14594    15540    15793    15252    14156    12486    10681 
    9749     9750     9905    10033    10386    10938    11364    11319 
   10884    10435    10095     9755     9439     9362     9676    10267 
   10990    11982    13254    14440    15289    15779    15793    15184 
   14045    12751    11667    10770     9775     8835     8759    10088 
   12281    14238    15417    16101    16615    16638    15569    13455 
   11060     9015     7535     6839     7129     8239     9672    11066 
   12295    13116    13252    12881    12587    12716    13045    13231 
   13421    14101    15252    16143    16243    15614    14424    12882 
   11437    10673    10966    12083    13400    14502    15251    15597 
   15679    15774    15895    15708    15020    14251    14063    14513 
   15236    16128    17263    18736    20562    22329    23514    24096 
   24312    24270    24169    24350    24834    25222    25374    25670 
   26249    26797    27094    26942    26062    24626    23441    23190 
   23873    25188    26804    28356    29809    31317    32693    33682 
   34357    34846    35089    34872    34092    32970    31912    31375 
   31576    32175    32676    33056    33602    34406    35411    36509 
   37392    37770    37593    36991    36243    35536    34818    33956 
   32840    31698    31016    30870    30997    31210    31182    30590 
   29726    29265    29472    30205    31145    31602    30951    29449 
   27930    26878    26232    25744    25154    24325    23494    23040 
   22879    22610    22160    21703    21319    21108    21205    21534 
   21827    21969    21864    21176    19887    18585    17716    17186 
   16615    15576    14058    12723    12085    11807    11232    10124 
    8730     7580     7176     7510     8067     8521     8899     8977 
    8356     7178     5963     4805     3461     1946      575     -284 
    -442       76     1176     2590     3947     5143     6125     6667 
    6653     6136     5250     4309     3720     3851     4900     6667 
    8590    10075    10922    11404    11714    11782    11567    11147 
   10703    10459    10537    10927    11605    12532    13497    14233 
   14615    14626    14352    13957    13467    12551    10946     9245 
    8484     9059    10666    12821    14980    16683    17789    18289 
   18203    17637    16600    14997    12831    10474     8746     8182 
    8511     9253    10161    11062    11902    12721    13382    13688 
   13695    13571    13410    13371    13690    14407    15312    16244 
   17100    17529    17238    16430    15443    14486    13828    13665 
   13915    14455    15243    16144    17063    17921    18378    18252 
   17888    17470    16758    15747    14763    14100    13969    14430 
   15386    16726    18125    18935    18839    18166    17351    16616 
   15920    15026    13806    12185    10200     8322     7170     6955 
    7405     8053     8570     8753     8349     7310     6080     5222 
    4760     4241     3498     2933     2873     3103     3320     3537 
    3815     4027     4115     4256     4519     4608     4369     4371 
    5283     6873     8539    10088    11350    12060    12278    12287 
   12232    12120    11913    11547    11140    11043    11217    11116 
   10657    10281     9988     9489     8807     8091     7558     7447 
    7541     7188     6262     5695     6280     7544     8635     9225 
    9210     8660     7888     7133     6563     6403     6673     7111 
    7739     9057    11178    13375    14978    16022    16768    17152 
   16907    16148    15523    15425    15509    15371    15116    15011 
   15155    15601    16386    17459    18843    20505    22018    22917 
   23223    23139    22587    21439    19915    18349    16901    15696 
   14732    13840    13091    12667    12473    12486    12898    13517 
   13785    13557    13120    12633    12221    12158    12510    13003 
   13357    13487    13394    13081    12478    11538    10455     9466 
    8631     8106     8275     9252    10522    11500    12237    13251 
   14698    15953    16337    15961    15423    15030    14730    14500 
   14395    14344    14251    14318    14970    16389    18253    19957 
   21033    21389    21120    20266    19035    18041    17781    18053 
   18463    19016    19776    20424    20562    20283    20039    19991 
   20000    20117    20426    20648    20511    20115    19666    19392 
   19528    19975    20456    21007    21757    22445    22654    22218 
   21147    19525    17618    15908    14807    14447    14974    16699 
   19565    22819    25646    27772    29080    29308    28372    26523 
   24372    22689    21730    21166    20548    19712    19009    18775 
   18923    19473    20582    22146    23847    25326    26280    26522 
   26117    25546    25348    25334    24756    23495    22235    21501 
   21241    21119    20852    20430    20086    20040    20452    21398 
   22610    23720    24501    24632    24085    23321    22445    21140 
   19477    17842    16392    15295    14999    15755    17271    18938 
   20167    20444    19406    17377    15196    13165    11089     9144 
    8025     8079     8692     9205     9660    10243    11021    11882 
   12177    11237     9233     6819     4381     2341     1326     1414 
    2161     3333     4823     6398     7696     8146     7644     7003 
    6702     6286     5575     5122     5334     6100     7322     9000 
   10594    11314    10983     9821     8119     6498     5529     5218 
    5341     5648     5665     5146     4620     4775     5520     6394 
    7482     8975    10395    11103    10977    10295     9402     8470 
    7466     6338     5151     4218     4037     4744     5922     7154 
    8268     9111     9648    10031    10263    10222    10046     9925 
    9881    10031    10491    11138    11694    11899    11743    11425 
   11191    11389    12246    13660    15280    16695    17757    18620 
   19302    19361    18324    16333    14085    12440    11886    12187 
   13091    14776    17070    19299    21032    22171    22649    22496 
   22004    21655    21675    21636    21042    20189    19649    19391 
   19261    19406    19738    20053    20624    21734    23043    23971 
   24206    23747    22970    22289    21560    20455    19354    19075 
   19762    20546    20365    18988    16967    14787    12785    11611 
   11566    11838    11489    10528     9379     8251     7258     6558 
    6240     6093     5745     5180     4780     4781     5105     5705 
    6661     8094     9988    12053    13939    15278    15649    14825 
   13019    10854     8921     7619     7430     8546    10423    12118 
   12886    12638    12012    11714    11784    11873    12016    12391 
   12861    13264    13588    13914    14470    15320    16114    16600 
   16933    17231    17396    17349    17093    16717    16504    16792 
   17534    18234    18347    17575    16014    14141    12432    11216 
   10806    11388    12797    14444    15849    17101    18072    18214 
   17601    16833    16180    15636    15370    15745    16983    18894 
