Origin Time       2011/03/11 14:46:00
Lat.              38.103
Long.             142.860
Depth. (km)       24
Mag.              9.0
Station Code      HKD036
Station Lat.      43.7726
Station Long.     142.3648
Station Height(m) 108
Record Time       2011/03/11 14:49:01
Sampling Freq(Hz) 100Hz
Duration Time(s)  250
Dir.              U-D
Scale Factor      3920(gal)/6182761
Max. Acc. (gal)   3.956
Last Correction   2011/03/11 14:48:46
Memo.             
[...]
   -6615    -6422    -6245    -6152    -6058    -5879    -5681    -5512 
   -5336    -5078    -4816    -4663    -4481    -4197    -3939    -3744 
   -3566    -3353    -3108    -2936    -2860    -2824    -2843    -2935 
   -3050    -3161    -3287    -3431    -3584    -3761    -3947    -4117 
   -4285    -4430    -4541    -4725    -4960    -5110    -5238    -5358 
   -5360    -5355    -5396    -5342    -5243    -5215    -5185    -5140 
   -5145    -5154    -5119    -5142    -5242    -5290    -5343    -5472 
   -5563    -5623    -5688    -5723    -5827    -6040    -6216    -6237 
   -6202    -6298    -6444    -6472    -6506    -6584    -6558    -6504 
   -6528    -6550    -6572    -6661    -6767    -6856    -7011    -7218 
   -7397    -7612    -7865    -8092    -8344    -8576    -8771    -9053 
   -9350    -9567    -9757    -9895    -9964   -10005   -10018   -10035 
  -10072   -10053    -9997    -9982    -9952    -9852    -9718    -9553 
   -9387    -9319    -9266    -9121    -9047    -9052    -8940    -8749 
   -8553    -8333    -8104    -7848    -7587    -7361    -7126    -6918 
   -6800    -6696    -6537    -6377    -6263    -6171    -6167    -6246 
   -6225    -6135    -6117    -6100    -6118    -6225    -6280    -6322 
   -6460    -6562    -6562    -6504    -6428    -6429    -6458    -6446 
   -6497    -6599    -6698    -6889    -7124    -7265    -7382    -7546 
   -7676    -7811    -8069    -8350    -8549    -8749    -8970    -9163 
   -9335    -9512    -9732    -9981   -10201   -10355   -10484   -10656 
  -10778   -10779   -10768   -10739   -10645   -10538   -10417   -10270 
  -10077    -9771    -9421    -9117    -8808    -8507    -8253    -7964 
   -7661    -7461    -7277    -7038    -6841    -6691    -6578    -6563 
   -6583    -6608    -6709    -6859    -6984    -7088    -7210    -7296 
   -7310    -7341    -7394    -7436    -7494    -7490    -7433    -7503 
   -7662    -7723    -7709    -7720    -7756    -7759    -7582    -7300 
   -7337    -7627    -7650    -7459    -7396    -7409    -7506    -7841 
   -8112    -8023    -7927    -8110    -8306    -8334    -8378    -8506 
   -8625    -8766    -8943    -9058    -9066    -9080    -9214    -9249 
   -8992    -8819    -8992    -9150    -9014    -8763    -8593    -8512 
   -8548    -8640    -8541    -8269    -8178    -8277    -8218    -8061 
   -8072    -8113    -8071    -8091    -8186    -8288    -8357    -8359 
   -8439    -8701    -8950    -9096    -9259    -9388    -9401    -9388 
   -9339    -9196    -9055    -8966    -8867    -8789    -8766    -8732 
   -8648    -8550    -8491    -8462    -8457    -8495    -8520    -8541 
   -8590    -8572    -8507    -8507    -8508    -8464    -8472    -8468 
   -8391    -8470    -8593    -8389    -8238    -8450    -8468    -8249 
   -8217    -8262    -8299    -8339    -8302    -8271    -8234    -8143 
   -8018    -7859    -7829    -7911    -7911    -7986    -8129    -8089 
   -8059    -8187    -8221    -8168    -8236    -8320    -8326    -8402 
   -8547    -8657    -8784    -8922    -8962    -8911    -8799    -8609 
   -8428    -8322    -8181    -7977    -7815    -7661    -7460    -7305 
   -7222    -7136    -7027    -6948    -6911    -6863    -6846    -6906 
   -6946    -6968    -7035    -7074    -7103    -7203    -7292    -7332 
   -7419    -7517    -7522    -7523    -7547    -7475    -7378    -7388 
   -7405    -7326    -7242    -7173    -7076    -7042    -7053    -6954 
   -6780    -6673    -6636    -6620    -6595    -6485    -6270    -6096 
   -6017    -5866    -5574    -5303    -5103    -4871    -4634    -4449 
   -4236    -4010    -3917    -3906    -3829    -3756    -3747    -3699 
   -3645    -3727    -3879    -3991    -4148    -4366    -4545    -4721 
   -4974    -5234    -5414    -5555    -5686    -5794    -5971    -6186 
   -6298    -6358    -6476    -6611    -6681    -6747    -6895    -7025 
   -7113    -7195    -7220    -7270    -7398    -7504    -7579    -7689 
   -7844    -7959    -7995    -8065    -8168    -8213    -8267    -8394 
   -8495    -8483    -8443    -8445    -8457    -8503    -8557    -8494 
   -8390    -8370    -8325    -8227    -8201    -8235    -8264    -8311 
   -8418    -8539    -8606    -8709    -8881    -9024    -9189    -9404 
   -9526    -9588    -9794   -10086   -10266   -10467   -10808   -11077 
  -11237   -11441   -11621   -11679   -11715   -11756   -11701   -11631 
  -11667   -11684   -11575   -11463   -11439   -11402   -11290   -11169 
  -11073   -10967   -10832   -10698   -10575   -10442   -10380   -10401 
  -10356   -10268   -10193   -10040    -9855    -9723    -9541    -9266 
   -9021    -8850    -8640    -8350    -8076    -7861    -7663    -7470 
   -7279    -7084    -6910    -6761    -6565    -6295    -6092    -6087 
   -6173    -6188    -6159    -6152    -6105    -6038    -6059    -6077 
   -5991    -5955    -6041    -6117    -6182    -6345    -6553    -6694 
   -6842    -7065    -7267    -7453    -7751    -8109    -8420    -8739 
   -9131    -9535    -9891   -10282   -10709   -11054   -11372   -11736 
  -12027   -12177   -12273   -12422   -12624   -12809   -12948   -13035 
  -13108   -13241   -13411   -13535   -13506   -13357   -13303   -13298 
  -13167   -13053   -12997   -12831   -12579   -12351   -12131   -11887 
  -11659   -11468   -11340   -11283   -11187   -11025   -10840   -10599 
  -10326   -10006    -9626    -9283    -9020    -8862    -8750    -8568 
   -8362    -8178    -7971    -7775    -7671    -7615    -7539    -7548 
   -7635    -7686    -7761    -7842    -7888    -7947    -7990    -8032 
   -8123    -8246    -8322    -8305    -8258    -8219    -8194    -8189 
   -8174    -8136    -8076    -8028    -7997    -7969    -8019    -8136 
   -8216    -8274    -8356    -8392    -8314    -8208    -8160    -8162 
   -8156    -8048    -7918    -7897    -7925    -7923    -7876    -7801 
   -7680    -7519    -7412    -7375    -7360    -7319    -7260    -7215 
   -7145    -7104    -7123    -7111    -7063    -7006    -6936    -6860 
   -6821    -6875    -6953    -6993    -7058    -7199    -7337    -7416 
   -7502    -7616    -7754    -7888    -7976    -8047    -8063    -8023 
   -8028    -8062    -8044    -7976    -7953    -8012    -8051    -8023 
   -7986    -8009    -8087    -8173    -8228    -8240    -8268    -8419 
   -8678    -8868    -8948    -9121    -9431    -9705    -9916   -10135 
  -10334   -10500   -10674   -10881   -11096   -11232   -11246   -11233 
  -11255   -11223   -11136   -11131   -11205   -11228   -11227   -11317 
  -11425   -11460   -11467   -11464   -11462   -11494   -11569   -11658 
  -11716   -11711   -11656   -11589   -11482   -11341   -11279   -11288 
  -11244   -11151   -11078   -10988   -10827   -10605   -10355   -10138 
   -9933    -9700    -9519    -9391    -9185    -8873    -8554    -8256 
   -7930    -7586    -7242    -6906    -6590    -6296    -6043    -5862 
   -5785    -5787    -5784    -5716    -5587    -5454    -5339    -5266 
   -5256    -5263    -5245    -5186    -5117    -5111    -5140    -5104 
   -5039    -5037    -5049    -5039    -5067    -5082    -4970    -4825 
   -4826    -4914    -4867    -4672    -4575    -4646    -4652    -4543 
   -4509    -4569    -4639    -4749    -4906    -5100    -5375    -5657 
   -5847    -6020    -6219    -6370    -6534    -6806    -7077    -7261 
   -7405    -7527    -7625    -7730    -7866    -7998    -8089    -8192 
   -8346    -8507    -8638    -8761    -8906    -9048    -9144    -9203 
   -9240    -9238    -9211    -9202    -9216    -9190    -9080    -9018 
   -9085    -9133    -9060    -8970    -8919    -8790    -8553    -8368 
   -8280    -8173    -8070    -8053    -8075    -8084    -8054    -7986 
   -7911    -7835    -7770    -7788    -7933    -8103    -8179    -8143 
   -8027    -7922    -7856    -7782    -7704    -7605    -7543    -7585 
   -7558    -7346    -7135    -7066    -7015    -6900    -6805    -6730 
   -6627    -6540    -6492    -6430    -6344    -6304    -6314    -6329 
   -6367    -6390    -6358    -6381    -6491    -6556    -6530    -6581 
   -6836    -7114    -7214    -7195    -7222    -7360    -7478    -7515 
   -7617    -7826    -8044    -8217    -8356    -8539    -8825    -9142 
   -9384    -9551    -9683    -9791    -9906   -10090   -10344   -10573 
  -10700   -10771   -10842   -10928   -11042   -11127   -11203   -11325 
  -11350   -11274   -11289   -11404   -11533   -11611   -11634   -11671 
  -11658   -11541   -11445   -11430   -11422   -11338   -11149   -10930 
  -10799   -10744   -10613   -10411   -10215    -9959    -9692    -9509 
   -9311    -9075    -8845    -8626    -8476    -8355    -8191    -8002 
   -7828    -7724    -7699    -7714    -7744    -7762    -7768    -7784 
   -7827    -7888    -7900    -7834    -7758    -7747    -7780    -7803 
   -7796    -7807    -7903    -8029    -8109    -8193    -8256    -8246 
   -8272    -8400    -8576    -8747    -8830    -8875    -8998    -9111 
   -9165    -9214    -9202    -9153    -9114    -9045    -9032    -9157 
   -9293    -9315    -9311    -9383    -9421    -9402    -9459    -9511 
   -9498    -9537    -9570    -9575    -9668    -9744    -9704    -9679 
   -9659    -9575    -9518    -9519    -9519    -9486    -9416    -9340 
   -9262    -9170    -9137    -9295    -9549    -9669    -9673    -9705 
   -9761    -9801    -9848    -9898    -9905    -9900    -9928    -9926 
   -9906    -9937    -9955    -9926    -9879    -9765    -9582    -9384 
   -9165    -8942    -8710    -8441    -8225    -8062    -7857    -7684 
   -7616    -7599    -7582    -7506    -7364    -7246    -7243    -7293 
   -7246    -7142    -7054    -6923    -6755    -6594    -6465    -6348 
   -6099    -5722    -5424    -5263    -5171    -5095    -4966    -4869 
   -4915    -4900    -4712    -4598    -4563    -4435    -4346    -4323 
   -4209    -4058    -3935    -3840    -3857    -3922    -3876    -3780 
   -3746    -3702    -3577    -3441    -3366    -3326    -3275    -3241 
   -3282    -3355    -3390    -3434    -3510    -3554    -3561    -3563 
   -3548    -3479    -3404    -3430    -3557    -3687    -3733    -3708 
   -3762    -3949    -4127    -4201    -4267    -4425    -4621    -4759 
   -4871    -5036    -5158    -5199    -5339    -5561    -5745    -5960 
   -6153    -6272    -6471    -6720    -6908    -7116    -7324    -7428 
   -7506    -7594    -7621    -7641    -7688    -7729    -7793    -7853 
   -7863    -7848    -7844    -7937    -8124    -8280    -8414    -8597 
   -8757    -8849    -8939    -9020    -9088    -9192    -9295    -9386 
   -9506    -9609    -9622    -9536    -9372    -9177    -9027    -8936 
   -8868    -8778    -8634    -8496    -8418    -8348    -8303    -8285 
   -8213    -8152    -8160    -8120    -8047    -8044    -8059    -8057 
   -8014    -7900    -7878    -8007    -8142    -8230    -8246    -8225 
   -8285    -8371    -8432    -8547    -8678    -8757    -8836    -8915 
   -8971    -9005    -8952    -8843    -8813    -8799    -8700    -8611 
   -8606    -8638    -8666    -8642    -8577    -8526    -8461    -8385 
   -8355    -8374    -8376    -8284    -8153    -8099    -8103    -8146 
   -8246    -8321    -8336    -8341    -8322    -8276    -8238    -8169 
   -8062    -7951    -7852    -7814    -7810    -7739    -7599    -7446 
   -7311    -7197    -7058    -6927    -6869    -6804    -6685    -6594 
   -6527    -6419    -6280    -6166    -6116    -6074    -6000    -5940 
   -5924    -6002    -6115    -6090    -6026    -6081    -6138    -6156 
   -6203    -6253    -6323    -6395    -6384    -6364    -6388    -6366 
   -6278    -6153    -6064    -6035    -5928    -5737    -5567    -5419 
   -5321    -5211    -4981    -4756    -4615    -4480    -4354    -4232 
   -4117    -3990    -3822    -3721    -3712    -3698    -3713    -3768 
   -3800    -3818    -3849    -3957    -4148    -4285    -4366    -4472 
   -4609    -4740    -4783    -4780    -4841    -4922    -4987    -5040 
   -5075    -5137    -5174    -5147    -5133    -5091    -4977    -4853 
   -4758    -4751    -4801    -4784    -4699    -4595    -4508    -4463 
   -4427    -4404    -4394    -4373    -4401    -4457    -4450    -4429 
   -4428    -4425    -4457    -4541    -4641    -4698    -4694    -4726 
   -4850    -4992    -5091    -5175    -5300    -5451    -5570    -5676 
   -5827    -6013    -6173    -6296    -6451    -6654    -6860    -7061 
   -7268    -7516    -7779    -7951    -8071    -8234    -8380    -8499 
   -8675    -8869    -8964    -8959    -8919    -8870    -8874    -8922 
   -8878    -8772    -8732    -8719    -8678    -8629    -8575    -8501 
   -8424    -8355    -8246    -8148    -8157    -8222    -8286    -8357 
   -8412    -8445    -8477    -8547    -8676    -8822    -8963    -9111 
   -9293    -9526    -9775   -10001   -10224   -10490   -10767   -10983 
  -11163   -11371   -11592   -11832   -12074   -12244   -12379   -12527 
  -12629   -12683   -12728   -12761   -12774   -12803   -12855   -12880 
  -12887   -12931   -12987   -13002   -12983   -12940   -12887   -12847 
  -12795   -12696   -12562   -12405   -12250   -12145   -12049   -11926 
  -11820   -11738   -11664   -11583   -11444   -11225   -10968   -10744 
  -10582   -10453   -10310   -10161   -10049    -9946    -9830    -9713 
   -9577    -9444    -9312    -9174    -9085    -9015    -8910    -8832 
   -8825    -8829    -8802    -8737    -8583    -8367    -8183    -7994 
   -7740    -7473    -7293    -7150    -6909    -6682    -6517    -6209 
   -5837    -5553    -5211    -4798    -4438    -4070    -3685    -3372 
   -3072    -2776    -2564    -2367    -2163    -1985    -1814    -1695 
   -1646    -1638    -1618    -1546    -1566    -1714    -1858    -2036 
   -2261    -2426    -2582    -2833    -3097    -3328    -3580    -3784 
   -3941    -4122    -4276    -4433    -4624    -4782    -4886    -4982 
   -5110    -5256    -5386    -5494    -5592    -5680    -5749    -5858 
   -5995    -6083    -6180    -6327    -6487    -6656    -6836    -6963 
   -7046    -7206    -7406    -7525    -7584    -7665    -7759    -7810 
   -7844    -7894    -7928    -7931    -7930    -7951    -7962    -7927 
   -7860    -7792    -7713    -7617    -7580    -7593    -7609    -7703 
   -7863    -8017    -8199    -8417    -8634    -8863    -9101    -9286 
   -9463    -9672    -9770    -9753    -9824    -9952    -9961    -9944 
  -10004   -10015    -9958    -9932    -9906    -9808    -9705    -9650 
   -9592    -9572    -9619    -9641    -9602    -9559    -9574    -9611 
   -9645    -9716    -9728    -9665    -9670    -9718    -9744    -9800 
   -9867    -9923   -10039   -10165   -10228   -10301   -10403   -10478 
  -10524   -10568   -10618   -10672   -10705   -10681   -10637   -10625 
  -10624   -10602   -10572   -10588   -10664   -10735   -10736   -10651 
  -10528   -10435   -10342   -10190   -10035    -9925    -9792    -9638 
   -9557    -9543    -9496    -9425    -9401    -9402    -9368    -9338 
   -9372    -9442    -9498    -9525    -9542    -9630    -9767    -9843 
   -9910   -10050   -10201   -10345   -10507   -10618   -10681   -10759 
  -10822   -10835   -10803   -10736   -10665   -10593   -10485   -10345 
  -10183   -10003    -9812    -9613    -9457    -9345    -9202    -9035 
   -8923    -8871    -8836    -8816    -8773    -8703    -8674    -8652 
   -8603    -8575    -8538    -8417    -8242    -8143    -8124    -8044 
   -7949    -7963    -7986    -7928    -7882    -7906    -7947    -7986 
   -8062    -8214    -8418    -8559    -8641    -8779    -8951    -9105 
   -9210    -9198    -9125    -9108    -9088    -8968    -8810    -8677 
   -8557    -8441    -8286    -8106    -7969    -7816    -7561    -7239 
   -6941    -6684    -6448    -6283    -6184    -6094    -6073    -6118 
   -6122    -6093    -6072    -6047    -6103    -6268    -6346    -6258 
   -6192    -6227    -6280    -6286    -6213    -6111    -6030    -5936 
   -5866    -5879    -5876    -5799    -5756    -5792    -5836    -5839 
   -5841    -5891    -5962    -6039    -6135    -6202    -6269    -6405 
   -6510    -6543    -6625    -6733    -6740    -6715    -6736    -6729 
   -6711    -6729    -6721    -6693    -6702    -6703    -6662    -6644 
   -6669    -6656    -6624    -6629    -6622    -6667    -6831    -6920 
   -6856    -6837    -6870    -6840    -6822    -6851    -6827    -6740 
   -6673    -6643    -6578    -6429    -6273    -6173    -6070    -5930 
   -5786    -5656    -5580    -5591    -5620    -5609    -5579    -5609 
   -5760    -5967    -6116    -6224    -6379    -6571    -6757    -6940 
   -7112    -7249    -7405    -7647    -7889    -8066    -8236    -8396 
   -8549    -8729    -8869    -8937    -8988    -9037    -9135    -9330 
   -9508    -9584    -9617    -9669    -9742    -9799    -9823    -9808 
   -9768    -9803    -9879    -9841    -9784    -9781    -9657    -9435 
   -9264    -9078    -8847    -8617    -8380    -8170    -7969    -7688 
   -7411    -7253    -7107    -6856    -6628    -6510    -6317    -6012 
   -5849    -5844    -5785    -5676    -5567    -5446    -5400    -5431 
   -5452    -5421    -5377    -5446    -5573    -5632    -5734    -5852 
   -5878    -5959    -6072    -6095    -6149    -6209    -6192    -6240 
   -6338    -6374    -6343    -6261    -6199    -6138    -6031    -5949 
   -5886    -5818    -5791    -5799    -5800    -5756    -5680    -5633 
   -5658    -5755    -5848    -5888    -5928    -6013    -6160    -6344 
   -6490    -6552    -6575    -6613    -6649    -6722    -6849    -6929 
   -6942    -6938    -6942    -7053    -7269    -7374    -7316    -7294 
   -7337    -7356    -7433    -7602    -7761    -7830    -7801    -7825 
   -7971    -8051    -8056    -8150    -8247    -8234    -8273    -8468 
   -8650    -8673    -8614    -8614    -8696    -8806    -8891    -8884 
   -8778    -8690    -8693    -8767    -8853    -8821    -8638    -8468 
   -8428    -8478    -8554    -8546    -8355    -8162    -8200    -8334 
   -8360    -8285    -8103    -7865    -7777    -7854    -7850    -7715 
   -7627    -7623    -7681    -7812    -7894    -7844    -7733    -7680 
   -7746    -7828    -7831    -7803    -7774    -7731    -7672    -7580 
   -7479    -7407    -7317    -7182    -7062    -6972    -6896    -6856 
   -6823    -6758    -6701    -6675    -6668    -6681    -6702    -6683 
   -6649    -6669    -6674    -6616    -6558    -6516    -6533    -6627 
   -6689    -6696    -6774    -6924    -7006    -7076    -7245    -7385 
   -7413    -7449    -7571    -7707    -7796    -7895    -7972    -7959 
   -7916    -7836    -7742    -7743    -7715    -7565    -7478    -7442 
   -7270    -7061    -6894    -6644    -6406    -6299    -6157    -5943 
   -5818    -5730    -5583    -5493    -5440    -5303    -5175    -5087 
   -4956    -4888    -4935    -4924    -4858    -4874    -4840    -4681 
   -4583    -4610    -4664    -4657    -4591    -4574    -4695    -4869 
   -4952    -4999    -5103    -5221    -5268    -5275    -5386    -5569 
   -5674    -5751    -5901    -6096    -6245    -6313    -6407    -6579 
   -6712    -6773    -6883    -7065    -7205    -7259    -7336    -7467 
   -7544    -7615    -7763    -7835    -7761    -7751    -7886    -7979 
   -7952    -7860    -7773    -7777    -7793    -7710    -7603    -7476 
   -7316    -7315    -7499    -7620    -7657    -7739    -7880    -8074 
   -8235    -8333    -8502    -8676    -8728    -8772    -8883    -8985 
   -8983    -8936    -9045    -9220    -9213    -9143    -9213    -9358 
   -9458    -9491    -9526    -9644    -9821    -9990   -10128   -10305 
