Origin Time       2011/03/11 14:46:00
Lat.              38.103
Long.             142.860
Depth. (km)       24
Mag.              9.0
Station Code      HKD067
Station Lat.      43.5550
Station Long.     144.9726
Station Height(m) 30
Record Time       2011/03/11 14:48:14
Sampling Freq(Hz) 100Hz
Duration Time(s)  300
Dir.              E-W
Scale Factor      3920(gal)/6182761
Max. Acc. (gal)   19.866
Last Correction   2011/03/11 14:47:59
Memo.             
[...]
    6890     7325     7584     7149     6436     6106     6338     6974 
    7805     8470     8873     9262     9382     8859     8321     8473 
    8670     8139     7488     7292     6713     5161     3763     3560 
    3723     3410     3657     5467     7620     8264     7780     7931 
    8732     8843     8142     7474     6994     6239     5266     4882 
    5471     6393     7029     7544     7948     7518     6163     4867 
    4487     5170     6129     6373     6117     6180     6678     7270 
    7685     7769     7717     7655     7187     6462     6320     6713 
    6647     5721     4763     4656     4943     4784     4485     4522 
    4374     3637     2975     3051     3452     3526     3434     3548 
    3670     3505     3373     3798     4783     6123     7657     8916 
    9429     9195     8483     7698     7230     7053     6747     6133 
    5608     5499     5478     5171     5020     5592     6313     6302 
    5931     6044     6556     6956     7337     8010     8477     7849 
    6404     5374     4920     4195     3474     3653     4189     4151 
    4164     5326     6943     7104     5790     5321     6816     8336 
    7799     6101     5483     6175     6834     7062     7649     8807 
    9710     9983    10265    10967    11416    10943    10104     9456 
    8334     6433     4915     4577     4548     4064     3842     4510 
    5362     5772     6138     6574     6749     7130     8069     8688 
    8297     7398     6566     5673     4891     5111     6386     7415 
    7456     7079     6565     5590     4493     4129     4860     6194 
    7302     8146     9277    10519    11208    11287    11075    10461 
    9254     8009     7362     7175     6998     6614     6148     5562 
    4539     3563     3444     3778     3810     3907     4680     5663 
    5961     5427     4618     4253     4715     5679     6488     6926 
    7254     7530     7229     6118     4963     4345     4093     4267 
    4935     5792     6843     8188     9344     9477     8448     7229 
    6440     5706     4907     4353     4051     3786     3441     3044 
    2682     2698     3599     5115     6180     6357     6197     6112 
    6002     6035     6516     6851     6239     5400     5734     6960 
    7678     7744     8044     8789     9291     9106     8603     8174 
    7887     7673     7237     6366     5340     4942     5446     5917 
    5811     5868     6285     6003     5051     5198     6823     7928 
    7168     5590     4832     4931     5231     5949     7098     7871 
    8036     7933     7406     6536     6373     7378     8476     8561 
    7851     7000     6101     5515     5694     5966     5688     5492 
    6070     7246     8634    10062    10988    10434     8296     6027 
    5152     5415     5370     4585     3919     3963     4351     4463 
    4256     4014     3976     4509     5352     5666     5696     6321 
    7274     7363     6292     5483     5629     5576     5277     6086 
    7954     9570    10660    11738    12287    11767    10992    10689 
   10768    10776     9971     8328     6845     6001     5377     4705 
    4137     3676     3038     2267     1915     2343     3060     3030 
    2250     2162     3171     3966     4264     4968     6063     6984 
    7573     7807     7614     6992     6284     5933     5793     5316 
    4389     3595     3443     3931     4933     6156     7096     7719 
    8525     9420     9637     9131     8704     8795     8999     8616 
    7476     5874     4227     3349     3758     4901     6177     7469 
    8125     6988     4616     3594     4470     5031     4806     5397 
    7238     8949     8946     7573     6732     7184     8215     9259 
   10098    10645    11163    11589    11545    11371    11307    10848 
   10214    10069    10084    10046    10522    11193    11067    10231 
    9363     8332     6397     3762     2071     2122     2646     2518 
    1953     1486     1212      893      843     1748     3077     3308 
    2301     2102     3987     6328     7609     8535     9442     9123 
    7005     4741     4498     5612     5586     4380     4017     4783 
    5227     4836     4587     5326     6718     7970     8723     8954 
    8621     7814     7327     7851     8544     8151     6915     5970 
    5773     5776     5298     4629     4383     4057     3149     2901 
    4732     7597     8997     8556     8258     9103    10115    10331 
    9875     9372     9147     9124     9140     9098     9168     9625 
   10317    10862    11263    11961    12954    13429    12857    11251 
    8654     5860     4473     5145     6642     7424     7384     7013 
    6252     5218     4449     4113     4107     4290     4250     4015 
    4217     4565     4137     3615     4362     5524     5200     3824 
    3446     4458     5476     5723     5754     5874     5243     3754 
    2850     3130     3721     4147     4498     4488     3841     2942 
    2540     3030     3905     4341     4557     5261     5894     5453 
    4485     4414     5401     6139     5838     5329     5831     7287 
    8372     8179     7036     5589     4408     3890     3879     4030 
    3965     3267     2430     2434     3161     3887     4491     5226 
    6218     7106     7375     7628     9015    11383    13503    14261 
   13556    12385    11339    10417    10039    10202    10083     9352 
    8516     7918     7197     6101     5327     5452     5945     6534 
    7716     9336    10486    10676    10682    11516    12417    12104 
   11296    11339    11780    11284     9915     8988     8881     8868 
    9118    10221    11113    10125     7725     6110     5855     5267 
    3740     2635     2654     3341     4386     5537     6300     6376 
    5892     5408     5295     5239     4888     4283     3622     3166 
    3000     2494      938     -653     -249     1916     3312     2966 
    2529     2733     1920     -386    -2037    -1731     -565      336 
    1386     2904     3999     4556     5600     7074     8093     8524 
    8567     8350     8428     9169     9869     9748     9265     9206 
    9290     8808     7842     6988     6111     4664     3368     3384 
    4163     4429     4265     4597     5395     5594     4974     4875 
    6120     7608     8288     8692     9241     9159     8100     7099 
    7124     7878     8555     8722     8091     6614     5175     4810 
    5278     5838     6466     7360     8706    10568    12300    13231 
   13462    13320    12930    12426    11922    11339    10293     8329 
    5746     3706     3039     3491     4188     4399     3702     2062 
     308     -415      -75      208     -424    -1469    -1785    -1061 
     193     1441     2436     3313     4334     5310     5809     6085 
    7078     8826     9536     8105     6289     5802     5979     6086 
    6639     7885     8987     9070     8423     7923     7830     8038 
    8834    10282    11120    10018     7726     5955     5264     5284 
    5699     6535     7576     8117     8102     8197     8517     8518 
    8014     7519     7068     6225     5857     6914     8085     7888 
    7167     7397     8437     9241     9454     9363     9212     9121 
    9218     9702    10296    10029     8784     7831     7936     8642 
    9118     8856     8301     7914     7245     6391     6130     6302 
    6262     5966     5604     5196     4531     3292     2016     1968 
    2975     3619     3847     4374     4624     3932     3707     6088 
   10209    12779    13222    13958    15252    14826    12425    10594 
   10722    10909     9462     7692     6661     5363     3554     2600 
    3154     3842     3260     2223     2100     2365     1973     1450 
    1658     2351     3214     4261     5011     5278     5831     6839 
    7645     8167     8329     7389     5344     3693     3723     4575 
    4511     3782     4143     5770     6753     5710     3268     1017 
      94      704     2674     5709     8506     9250     8040     6926 
    6945     7408     8176     9880    11632    11584    10140     9321 
    9143     7926     5784     5203     7379     9770     9364     6633 
    4165     3126     2494     1414      590      463      665     1711 
    4478     8218    10662    10519     9020     7998     7634     6874 
    5285     3826     3411     3746     4456     5965     8241     9638 
    8872     7426     7379     8458     9674    11149    12435    12225 
   11216    11292    11463     9647     7022     5834     5813     5847 
    6090     7085     8665    10033    10668    10822    10319     8620 
    7152     8189    10966    12434    11393     9369     8056     7543 
    7124     6651     6155     5012     3179     2221     2929     3748 
    3590     3548     4475     5927     7671     9631    10868    10445 
    9305     9631    11555    13013    13479    14347    15629    15651 
   13998    11785     9053     5130     1386      410     2093     3039 
    1198    -1531    -2863    -2900    -2064      374     4188     6969 
    6924     5296     4087     3208     1498    -1024    -2780    -2330 
    -468      885     1518     2485     3904     4932     5092     4813 
    4657     4819     5794     7991    10482    11926    12484    13459 
   15041    15646    14386    12665    11786    11082     9811     8825 
    9421    11360    12952    13277    12920    12611    12187    11121 
   10002     9880    10401    10240     8624     6474     5570     5728 
    5440     4916     5560     7468     8795     7823     5368     3532 
    2664     2043     2137     3222     4084     4833     7617    12129 
   14664    13841    12232    11373    10509     9595     9443     9628 
    8442     5939     4695     5203     4837     3177     2639     3622 
    4524     5336     7197    10010    12249    12560    11352     9627 
    7157     4119     2240     2484     4150     6597     9347    10931 
   10086     7628     5482     4633     4690     4490     3159      946 
   -1169    -2102    -1273      542     2189     3840     6013     7825 
    7957     6882     6203     6318     6985     8071     8264     6128 
    2406     -489     -620     2123     6449    10701    13586    15123 
   16050    16112    14815    12992    11959    11998    12304    12234 
   12125    11911    10125     6179     1917     -446     -510      581 
    1890     3533     5529     6909     7007     6578     6477     6418 
    5746     4331     2584     1119      717     1913     3933     5230 
    5336     5003     4752     4236     3433     3285     4344     6165 
    8102     9460     9535     8604     8457    10313    12519    13030 
   12826    13582    14452    13600    10716     7093     4017     1405 
    -996    -1881     -206     2700     4950     6276     7487     8911 
    9721     8925     6778     4649     3653     3717     4290     5310 
    6389     6349     4820     3130     3070     4912     7404    10032 
   12724    13805    11921     8635     6493     6287     7501     9599 
   11732    12312    10393     7305     5554     6058     7580     8896 
    9936    10454     9798     8337     7431     7944     8994     8561 
    6078     3380     2373     2948     3878     4671     5530     6248 
    6362     5868     5029     4050     3198     2448     1125    -1215 
   -3642    -4533    -3770    -3056    -3389    -3744    -2937    -1131 
    1238     4386     7896    10395    11415    11524    11003     9821 
    8062     6266     5322     5476     6394     8171    11192    15178 
   18910    21108    21509    20813    19623    18035    16471    15765 
   15471    13815    10919     9387    10080    10876    10675    10670 
   11019    10162     7607     4705     3072     2694     1885     -110 
   -2272    -3302    -2500     -377     1973     3952     4904     4696 
    4781     6507     9414    11734    11803     9260     4999      496 
   -2769    -4312    -4692    -4504    -3840    -2167      500     2407 
    1937      -52    -1204     -648      381     1634     4828     9925 
   13943    15112    15127    15966    16972    16752    15839    15215 
   14237    12286    10455     9833     9667     8664     6846     4899 
    2935      643    -1771    -2451      477     5337     8693    10379 
   12603    15287    15941    13712    10379     7146     3873      959 
   -1069    -2201    -1998     -183     1920     2499     1882     2371 
    4983     8344    11384    14635    18199    20872    21641    20172 
   16514    11956     8729     7746     8115     8767     8899     7519 
    4279      420    -2141    -2492    -1239       51      -12    -1129 
   -1652     -912      475     2410     5195     7916     9307     9995 
   11279    12472    12289    11458    11084     9897     6575     3333 
    3348     6041     8180     8551     8383     7986     6644     4891 
    4017     4225     4532     4132     3290     2450     1572     1033 
    1643     3337     4877     5212     4801     4714     4782     4322 
    3565     2790     1879     1452     2662     5573     8987    11581 
   12265    10976     9302     8774     9462    10388    10240     8297 
    4978     1312    -1837    -3996    -4857    -4341    -3144    -2484 
   -2607    -2114      176     3052     4290     3909     3904     5276 
    7156     8640    10125    11816    12551    11920    11644    13411 
   16911    20709    23689    25032    24012    20460    15348    10617 
    7215     4373     2067     1496     3173     6917    11762    15244 
   15407    12558     7549      781    -6368   -12148   -16412   -19855 
  -22591   -24389   -24737   -22988   -19156   -13948    -8518    -4034 
    -360     3732     8294    12050    14543    16274    17074    16001 
   13044    10186     9745    12381    17056    21378    23279    23125 
   21986    19933    17697    16418    15930    15357    13953    11569 
    9055     7271     6307     6036     6546     7702     8371     7186 
    4363     1295    -1281    -3260    -4251    -3725    -1459     2047 
    5864     9838    13822    16412    16800    15602    13139     9423 
    5082     1172    -1680    -3642    -4310    -2711       -1     1014 
    -499    -3173    -5609    -6910    -6556    -4681    -2132      492 
    3601     7141     9596     9822     8513     7594     8724    12202 
   17234    22451    26226    27696    26867    23671    18549    13215 
    9396     7578     7009     5963     3212     -377    -3349    -5582 
   -7118    -7293    -6094    -4409    -2203     1510     5856     7817 
    5846     1843     -835     -588     1769     5183     9158    12488 
   13685    12909    11748    10960    10020     8811     8046     8237 
    9399    11355    13422    14284    13274    11072     8545     6034 
    3972     3045     3140     3062     2047      257    -2057    -4622 
   -7027    -8456    -7824    -5139    -1309     3440     9251    15345 
   20320    23441    24608    23453    19916    15416    12055    10497 
    9744     8958     8035     7032     6308     6332     7099     8497 
   10363    11944    12817    13625    14478    14331    12923    11530 
   11355    12086    12203    10703     8037     5052     2324      754 
    1361     4106     7337     9273    10178    11075    11158     9264 
    6104     3576     2805     3107     3900     5603     7114     6702 
    5038     3658     2576     1250      138      294     1805     3407 
    3464      906    -3935    -9170   -12552   -12359    -8088    -1519 
    4488     8661    11768    15069    18833    22197    23882    22558 
   18101    12894     9444     7340     5054     2760      853    -1817 
   -5664    -8568    -8488    -6172    -3903    -3100    -4211    -7341 
  -11838   -15848   -16893   -13876    -8147    -1730     4352     9676 
   13402    14587    13650    12172    11238    10917    11157    11830 
   11796    10495     9186     8501     8104     8362     9584    11439 
   13270    14161    13599    11538     8570     6679     7380     9512 
   11030    11761    12544    13043    12363    10307     6764     1920 
   -2442    -4205    -3391    -1250     1677     4735     6648     7141 
    7556     8813     9792     9464     9093    10142    12067    14107 
   16967    21023    24975    27414    27998    26819    24200    20661 
   16452    12050     8226     5182     2718      337    -2339    -4428 
   -4850    -3749    -1540     1751     5920    10233    13784    15905 
   15998    14333    12915    13881    17575    21996    24223    23767 
   22097    18601    11711     3332    -2224    -3276    -1875      -77 
    1643     2772     2745     1831      845      197     -741    -2564 
   -4865    -7178    -9197   -10305   -10610   -10903   -10535    -7857 
   -3087     1843     5897     9214    11302    11213     9476     7671 
    6110     4046     1939     1369     2659     4932     7973    11691 
   15476    19003    21815    22800    21222    17707    13797    10684 
    8948     8794     9521     9752     8851     7617     7300     8055 
    8959     9243     8973     8737     7950     4729     -963    -6960 
  -11953   -15778   -17798   -17120   -14093   -10716    -8423    -6352 
   -3485     -908      162      848     2957     6426    10094    13582 
   16770    18563    18304    17398    17583    18839    19745    18897 
   16442    14064    12907    12516    11963    10916     9415     7410 
    4935     2522      994      580     1252     3942     8997    14121 
   17012    18301    19035    18294    15587    12025     8456     5630 
    4889     6726     9731    11306     9852     6143     2200      112 
    1489     6362    12527    16662    16991    14472    10648     5833 
     581    -2992    -2849     1399     8442    15048    17588    15272 
   10162     4735     1048      183     1609     4020     6152     7308 
    8009     9013     9445     7833     5143     3746     3871     4438 
    5173     5701     5301     3843      969    -4191   -10896   -15993 
  -16439   -11868    -4483     3062     9190    13004    13749    11775 
    9192     8079     8066     7079     4537     1910      382     -100 
      38      743     2163     3701     4164     3457     3038     3899 
    5315     6450     7352     7722     6990     5463     3699     1864 
     423       30      691     1837     2848     3384     3780     5014 
    8011    12954    18957    24540    29028    32812    35576    35661 
   32429    27894    24473    22427    20798    19303    18026    16356 
   13792    11289    10189    10072     8623     3947    -2931    -8781 
  -11437   -11488   -11024   -10968   -10231    -7856    -4438     -804 
    2808     5857     7487     7548     6949     7222     9010    10919 
   11541    11835    13333    15355    16022    14812    12697    10443 
    7583     3217    -2144    -6455    -8669    -9680    -9755    -8252 
   -6028    -4092    -1498     2489     6714     9453    10196    10241 
   10788    11052     9897     8169     7480     7638     7775     8586 
   10170    10501     8874     7197     6831     7185     7141     6452 
    6046     6924     9010    11673    14584    17647    20951    24150 
   26040    26276    25306    22285    16769    10997     7592     6573 
    6111     5593     5641     5492     3582      -39    -3511    -4859 
   -4147    -3036    -2517    -2886    -4090    -5230    -5541    -5601 
   -6280    -6909    -6334    -4770    -2557      657     4462     7573 
    9421    10767    12257    13548    14661    16655    19993    23064 
