Origin Time       2011/03/11 14:46:00
Lat.              38.103
Long.             142.860
Depth. (km)       24
Mag.              9.0
Station Code      HKD086
Station Lat.      42.8542
Station Long.     143.8579
Station Height(m) 9
Record Time       2011/03/11 14:48:02
Sampling Freq(Hz) 100Hz
Duration Time(s)  300
Dir.              U-D
Scale Factor      3920(gal)/6182761
Max. Acc. (gal)   18.952
Last Correction   2011/03/11 14:47:47
Memo.             
[...]
  -16847   -17055   -16565   -14991   -11915    -9470   -10175   -12793 
  -14324   -13942   -12342   -10618   -10101   -10755   -11587   -12136 
  -12469   -13241   -14113   -13535   -11861   -10564   -10132   -11248 
  -13899   -16196   -16630   -15499   -14121   -13454   -13229   -12610 
  -10959    -8513    -7118    -8232   -10856   -13402   -15580   -17507 
  -18364   -17484   -16196   -15953   -16202   -16182   -16375   -16456 
  -14588   -11142    -8893    -8374    -8170    -7807    -7364    -6886 
   -6518    -6793    -7889    -8928    -9927   -11449   -12962   -14227 
  -15265   -15938   -16708   -17604   -17334   -14704   -11083    -9173 
   -9567   -11929   -15749   -18692   -19071   -17924   -16719   -15621 
  -14119   -12757   -12764   -13452   -13367   -12934   -12769   -12739 
  -13622   -15786   -17566   -17793   -17185   -16572   -16128   -15163 
  -13086   -10832    -9023    -7745    -8126    -9960   -11594   -13279 
  -15632   -16928   -15536   -12362    -9281    -7772    -9161   -13124 
  -17040   -18904   -19160   -19203   -19448   -19619   -19620   -18607 
  -15924   -13072   -11565   -11074   -11303   -12284   -13270   -13972 
  -14941   -16077   -16918   -16909   -15708   -14878   -15333   -15166 
  -13996   -13031   -11681    -9765    -8333    -7285    -5883    -4570 
   -4964    -7544   -10582   -12837   -14448   -14893   -13919   -13025 
  -12940   -12493   -11455   -11156   -11978   -12970   -13740   -14319 
  -13780   -12079   -11076   -11420   -12027   -12205   -11988   -12013 
  -12794   -13822   -14580   -14922   -14069   -11905   -10192   -10216 
  -11895   -15000   -18254   -19473   -18559   -17208   -15408   -12996 
  -11922   -12139   -11692   -11189   -11532   -12030   -12542   -12661 
  -11895   -11104   -10328    -9243    -9816   -13146   -17148   -20039 
  -21500   -21254   -19732   -18192   -17496   -17050   -14994   -11480 
   -8989    -8248    -9085   -11710   -14556   -16248   -17118   -17302 
  -16510   -14139   -10778    -9194   -10308   -12372   -15114   -18433 
  -19826   -18606   -17193   -15840   -13470   -12329   -14243   -16874 
  -18137   -17828   -15666   -12918   -11503   -11233   -11316   -11328 
  -11084   -10937   -10929   -11313   -12404   -13247   -13660   -14442 
  -14316   -12457   -11095   -10927   -10575   -10809   -12120   -13247 
  -14582   -16145   -16132   -14458   -12699   -12287   -13597   -15181 
  -16138   -17038   -17439   -17137   -17261   -17083   -15320   -12809 
  -10010    -6872    -4434    -3765    -5613    -9055   -11310   -11709 
  -11585   -10904    -9967   -10421   -11973   -13546   -15530   -16508 
  -14678   -12041   -10355    -9869   -12253   -16304   -18145   -17952 
  -17496   -16496   -15671   -15403   -13670   -10517    -7995    -5823 
   -3985    -4460    -6683    -8100    -8593    -9008    -9265    -9718 
  -10468   -11295   -12516   -13917   -15065   -15503   -14301   -11980 
  -10968   -12567   -15411   -17849   -19539   -19376   -16273   -12648 
  -11665   -13021   -14741   -15337   -14154   -11754    -8840    -5899 
   -4183    -4183    -4903    -6475    -8563    -8810    -7933    -8423 
   -9038    -9406   -12340   -17434   -21606   -24060   -24325   -21561 
  -17966   -16150   -15362   -14651   -14931   -16711   -19272   -20390 
  -18136   -14562   -11914    -8830    -6018    -6488    -9203   -11837 
  -14885   -18170   -19841   -19068   -17242   -16526   -15528   -11825 
   -8041    -6793    -7156    -9580   -13800   -15836   -13911   -11070 
  -10334   -11825   -14489   -17674   -19913   -19397   -17475   -16874 
  -16948   -15922   -14843   -14891   -13936   -10591    -7957    -8052 
   -9354   -12091   -16474   -18997   -18363   -17150   -15584   -13307 
  -12808   -13854   -12955   -10032    -7457    -5911    -5819    -7955 
  -11789   -15468   -16971   -16864   -17530   -18421   -18333   -18460 
  -18782   -18434   -17814   -16574   -14618   -13106   -11782   -10525 
  -11182   -12835   -12268   -10692   -11011   -12186   -12651   -12612 
  -12110   -11252    -9939    -7463    -4640    -3828    -5887    -9712 
  -14074   -17285   -17090   -13733   -10758   -10731   -12556   -13817 
  -13483   -11860    -9808    -8550    -8801    -9623    -9663    -9283 
   -8872    -7909    -7670    -9043   -10720   -13015   -16076   -17782 
  -18239   -19147   -19783   -19090   -17529   -15425   -13800   -14047 
  -15069   -15617   -16778   -18437   -18454   -16872   -15403   -13801 
  -11989   -11480   -11981   -12070   -11818   -11892   -12855   -14506 
  -15817   -16448   -15659   -12770   -10360   -10873   -12921   -15081 
  -17544   -19816   -20762   -19588   -16530   -13346   -12020   -13076 
  -15507   -17401   -17412   -16305   -15720   -15981   -16618   -17517 
  -18123   -17330   -15615   -14854   -15220   -15971   -17498   -18789 
  -17659   -14095    -9431    -5702    -5514    -9028   -13653   -17563 
  -20299   -20717   -19055   -18030   -17546   -15151   -11703    -8788 
   -5616    -3166    -4013    -8061   -13754   -18906   -20169   -17237 
  -13312   -10310    -9210   -10967   -13340   -13508   -13167   -14297 
  -15624   -16809   -17923   -17413   -15561   -14054   -13221   -12452 
  -11253   -10472   -10742   -11232   -12554   -15660   -18393   -18201 
  -15390   -11233    -6926    -4885    -6584   -10700   -15051   -17534 
  -17274   -15567   -13744   -12425   -12291   -13503   -15322   -17014 
  -18700   -20215   -20527   -19398   -17368   -14154    -9471    -4858 
   -2261    -2020    -4090    -7871   -10551   -10456    -9365    -8707 
   -8278    -8399   -10187   -13678   -16326   -16339   -14845   -12505 
  -10723   -12191   -16107   -20280   -23174   -22730   -20147   -17898 
  -15467   -13249   -12746   -13502   -15156   -17624   -19171   -18543 
  -15990   -11724    -7145    -4228    -3052    -3275    -4557    -6258 
   -8533   -11033   -13525   -16104   -17052   -15535   -12987   -11199 
  -12454   -17190   -22400   -24692   -22627   -17609   -13124   -11667 
  -12690   -13729   -13178   -11578   -10378    -9584    -8598    -8573 
  -10073   -12235   -14606   -15279   -13391   -11650   -10712    -9957 
  -10964   -13141   -14126   -13681   -12743   -12184   -11840   -10966 
  -10169   -10851   -13416   -16580   -18748   -18976   -16718   -13357 
  -11155    -9950    -9101    -9191    -9876   -10468   -10461    -8798 
   -6454    -6094    -8273   -12307   -16972   -19593   -19540   -18349 
  -16309   -14424   -14130   -14685   -15487   -16316   -15826   -13694 
  -11729   -11261   -11429   -11654   -12373   -12603   -11325    -9329 
   -7766    -6965    -6476    -6480    -7387    -8796   -11258   -14636 
  -16896   -18078   -19175   -18979   -16608   -13319   -10951   -10446 
  -12123   -15246   -17110   -16101   -14064   -13454   -14202   -15120 
  -16897   -19513   -20032   -17943   -16359   -16143   -15752   -14979 
  -14056   -12267    -9653    -7742    -7219    -6705    -6157    -6891 
   -7295    -6416    -6426    -7314    -9179   -13937   -18999   -20765 
  -20030   -16787   -11422    -9486   -14064   -21177   -26758   -29194 
  -27607   -22946   -17690   -13463    -9771    -6163    -4464    -5747 
   -8148    -9936   -10951   -11326   -11948   -13624   -14953   -14843 
  -14384   -13809   -12456   -11085   -10257    -9299    -9502   -13074 
  -18223   -21785   -22931   -21077   -16945   -13364   -11717   -11468 
  -11569   -11649   -12530   -13965   -14744   -14711   -13661   -11841 
  -11459   -13473   -15743   -16861   -17377   -17204   -17123   -19178 
  -22034   -21871   -17306   -10415    -5165    -4126    -6942   -11702 
  -15695   -17426   -17799   -17395   -16272   -15261   -14145   -12550 
  -11285   -10330    -9369    -8636    -8470    -9601   -11698   -13576 
  -15069   -15991   -15688   -14563   -13229   -11318    -9933   -11540 
  -15334   -18332   -19681   -18721   -14441    -9954    -9141    -9604 
   -8824    -9681   -12456   -14637   -17016   -19169   -18519   -15645 
  -13238   -13360   -15340   -15384   -11481    -6124    -2977    -3645 
   -7701   -12858   -15803   -15976   -15364   -14896   -15080   -15969 
  -16150   -15082   -13285   -10917    -8769    -7764    -7729    -9065 
  -12311   -15916   -18203   -19005   -18971   -19397   -20488   -21206 
  -21220   -20375   -18582   -16745   -15619   -14549   -12880   -11247 
   -9567    -7483    -7256   -10055   -12848   -13462   -12530   -10740 
   -9586   -11303   -15066   -17199   -16263   -14343   -13350   -14333 
  -18610   -24012   -25553   -23280   -19976   -15489   -11363    -9805 
   -8467    -6145    -5185    -6002    -7858   -10670   -13141   -14169 
  -13517   -10766    -8063    -8209    -9771   -11664   -14750   -17082 
  -17602   -17907   -17823   -17416   -17840   -18834   -19779   -19373 
  -17115   -15143   -14465   -15035   -16850   -18155   -18516   -18425 
  -16546   -13653   -11829   -10714    -9520    -8212    -7489    -7646 
   -8026    -9523   -12246   -13420   -12294   -11865   -13909   -16595 
  -18675   -19949   -18515   -14747   -11022    -7834    -7855   -13294 
  -20138   -25099   -27669   -25795   -20204   -14997   -11879    -9829 
   -7939    -6758    -5800    -3009     -342    -1686    -5978   -11114 
  -16804   -20699   -20823   -18407   -15833   -14844   -14524   -13692 
  -13137   -11901    -9707    -9539   -11321   -12580   -13588   -14048 
  -12591   -10365    -8195    -5707    -4277    -4904    -6841    -9612 
  -13052   -16670   -19188   -19517   -18316   -16213   -13499   -11557 
  -11003   -11578   -13481   -16042   -18023   -19176   -19918   -21167 
  -23965   -26510   -25365   -21691   -17873   -12793    -7673    -4784 
   -2595     -899    -1965    -6287   -11816   -15335   -15569   -13430 
  -10574    -9462    -9744    -9499   -10855   -14403   -16722   -17372 
  -16228   -12264    -9460   -11375   -16056   -20533   -22379   -21284 
  -19480   -17937   -18028   -21352   -24650   -24401   -21433   -16276 
  -10197    -7304    -8317   -10007   -10527    -9526    -7060    -4366 
   -3767    -5995    -8856   -11044   -12118   -10715    -8415    -8327 
  -10503   -13390   -15595   -16880   -17657   -17139   -15702   -15061 
  -14322   -12179   -11183   -13781   -17007   -17255   -16115   -14919 
  -12122    -9492    -9267    -8872    -7150    -6277    -6286    -6801 
   -8867   -11052   -11287   -10750    -9948    -7505    -4483    -3326 
   -4740    -7102    -8424    -9243   -10578   -12395   -14701   -16103 
  -15320   -13385   -11604   -10859   -10593    -9315    -8817   -10996 
  -14157   -17475   -19455   -17235   -13009    -9625    -7426    -9932 
  -17708   -24539   -27254   -26716   -23242   -18501   -14669   -12148 
  -11196   -11373   -10990    -9749    -8340    -7014    -6328    -6464 
   -7283    -9705   -13955   -17508   -18783   -19252   -18405   -15498 
  -13776   -13745   -13202   -13710   -15246   -14921   -13262   -11494 
  -10435   -12478   -16408   -18751   -19748   -19888   -19247   -20225 
  -22095   -20429   -14539    -7908    -3304    -1011    -1342    -5224 
  -10201   -12773   -13667   -14238   -13612   -12513   -12883   -13682 
  -12827   -10967   -10410   -12512   -15738   -17768   -18460   -17075 
  -12452    -7568    -6582    -8572   -10316   -11617   -13039   -14227 
  -16024   -18950   -21033   -19835   -15853   -11715    -8824    -7772 
   -8019    -7213    -5374    -4424    -4366    -5867    -9046   -10145 
   -8716    -9067   -11073   -11358    -9967    -9644   -12433   -17780 
  -24295   -30153   -31622   -28433   -24641   -20911   -16037   -11161 
   -6708    -3054    -2201    -4379    -7537   -10459   -13514   -16801 
  -20306   -24566   -27958   -28687   -28067   -25986   -21501   -16895 
  -13221    -9698    -7791    -8309    -9772   -11936   -14846   -16119 
  -14431   -11719    -8312    -3237      876      956    -3146    -9822 
  -16164   -20619   -23364   -24011   -23701   -24055   -23615   -21694 
  -20379   -19747   -18444   -17492   -17521   -17142   -16487   -16123 
  -14766   -12146    -9454    -7943    -9443   -13191   -14880   -13193 
  -10287    -7324    -5766    -6364    -7321    -8106    -9248   -10971 
  -14531   -19086   -21547   -21412   -20261   -19191   -18426   -16316 
  -10434    -1856     4766     6320     2622    -5534   -15631   -23153 
  -24918   -22229   -18715   -15426   -12377   -12042   -14842   -16593 
  -15496   -14195   -13565   -13253   -14575   -16456   -16488   -15271 
  -13228   -10767   -10741   -13084   -15059   -16890   -18875   -20235 
  -21285   -21032   -19246   -17424   -14240    -9467    -6429    -5129 
   -3837    -4209    -6032    -5863    -4423    -5209    -9053   -15746 
  -23347   -28387   -29626   -26154   -18189    -9812    -3936    -1239 
   -3354    -9596   -16389   -21476   -23426   -22261   -21595   -23087 
  -23729   -21824   -17907   -12413    -7026    -3637    -2495    -2870 
   -3044    -2080    -1395    -1285     -715    -1325    -4315    -7031 
   -7981    -8848   -10651   -12858   -15131   -17907   -21101   -23291 
  -23874   -24083   -24019   -22324   -18346   -11750    -4374     -324 
   -1364    -7687   -17113   -22818   -21924   -18042   -13487    -9930 
   -9860   -12712   -14667   -12576    -7532    -2024     2740     4627 
    2079    -4792   -13896   -20685   -23821   -25178   -24722   -23954 
  -25468   -26877   -25655   -23485   -20076   -13657    -6970    -3713 
   -3743    -5597    -8464   -10808   -10787    -9009    -8205    -9066 
   -9797    -9465    -7716    -4088     -948    -1823    -5361    -7475 
   -8191   -10233   -14324   -19309   -23852   -27521   -30913   -34813 
  -39315   -42905   -43217   -39333   -32193   -22827   -12559    -4635 
    -797     1566     4111     5365     5515     6237     6443     3657 
   -1115    -5839   -11414   -16769   -18866   -19128   -20328   -21705 
  -22084   -22101   -21589   -19493   -16904   -14917   -12247    -9840 
  -10892   -15221   -19977   -22631   -21701   -17721   -12436    -7532 
   -4044    -1705     -745    -2543    -6315    -9377   -10690   -10146 
   -8307    -7351    -8156   -10574   -14673   -18198   -18081   -14278 
  -10092    -7982    -7192    -8657   -13002   -15363   -13484   -10587 
   -8525    -8833   -11710   -14282   -16559   -19192   -20157   -19799 
  -18849   -16651   -13958   -10413    -7456    -8853   -11940   -13049 
  -14096   -14231   -11034    -7204    -5132    -3898    -3229    -3629 
   -5452    -8518   -11236   -13053   -14007   -13358   -13428   -15866 
  -18070   -19119   -18332   -14210    -9931    -9322   -12161   -17119 
  -22284   -24532   -21453   -13546    -3944     4902    10868    11240 
    6470    -1230   -11027   -20609   -27098   -30202   -29666   -25102 
  -19293   -15127   -12201    -9988    -9010    -9541   -11855   -15893 
  -21456   -27058   -29647   -29388   -28968   -28058   -25668   -23151 
  -20313   -15524   -10392    -6868    -3748     -787     1217     2185 
    1254     -589    -1929    -3664    -3885    -1603    -1249    -3884 
   -8441   -17004   -26192   -28924   -26286   -22726   -18208   -13184 
   -9694    -7465    -6180    -6695    -9727   -14501   -17693   -19144 
  -21780   -24276   -25444   -26264   -24787   -20183   -14315    -8357 
   -3328       16      618    -1237    -2822    -5363   -11202   -16682 
  -20233   -24501   -28250   -29603   -28607   -25050   -20606   -16286 
  -13050   -13504   -13857    -9644    -5502    -4660    -6068   -10771 
  -16127   -17570   -17158   -17044   -15390   -13159   -12154   -10465 
   -7347    -5526    -5781    -5583    -4788    -6235   -10228   -15538 
  -21557   -24693   -21288   -13602    -6581    -3644    -6807   -14634 
  -22249   -26481   -25888   -20312   -14536   -13325   -16041   -20167 
  -23379   -24110   -22517   -20042   -17613   -13989    -8753    -3607 
     681     2586     -389    -6193   -10517   -12672   -13263   -12779 
  -12728   -13680   -14957   -15319   -14569   -15686   -21068   -28231 
  -33139   -34734   -32637   -26096   -18711   -14659   -12338   -10527 
  -10499   -10267    -7745    -4040     -892       26     -861    -2124 
   -4475    -7308    -9400   -11525   -13374   -15478   -18731   -20442 
  -20390   -21393   -22584   -22687   -22219   -20199   -16818   -15970 
  -19615   -23643   -24563   -23026   -18652   -12794    -9984    -9313 
   -7323    -5566    -4774    -2866     -555      933     2776     3880 
    1112    -3675    -6802    -9348   -12099   -14153   -16776   -20434 
  -23564   -24660   -24141   -24204   -23849   -20989   -18240   -17227 
  -16258   -16611   -19138   -20689   -20203   -18846   -16543   -13605 
  -11193   -10265   -11000   -12537   -13818   -14706   -15605   -15288 
  -12049    -7166    -2932      284     2033     1458       87      151 
     295    -2435    -7625   -13241   -18256   -19974   -16628   -11398 
   -6068        0     2525    -1508    -6732    -9754   -12903   -16452 
  -20938   -27601   -32296   -31760   -28356   -23772   -18593   -14027 
  -10026    -5603     -629     2472     2093      802     -655    -3606 
   -5653    -6175    -8206   -10931   -11783   -10813    -8940    -7695 
   -8343   -11537   -16887   -20041   -17802   -12995    -8556    -6191 
   -6944    -8207    -8061    -7302    -6625    -8828   -15471   -22185 
  -25542   -26140   -24170   -20980   -19137   -18397   -18407   -19319 
  -18652   -16512   -15992   -16509   -17270   -19258   -20993   -21173 
  -20292   -18583   -16684   -14981   -12629    -8792    -4515    -2863 
   -3802    -3511    -2633    -4922    -9480   -14385   -19831   -23743 
  -22922   -19330   -17800   -17317   -14549   -10834    -7713    -6240 
   -8370   -12388   -15275   -16980   -18052   -18871   -19814   -20123 
  -19746   -19787   -20217   -20868   -21073   -19223   -16612   -15270 
  -14980   -16195   -18285   -18601   -15787    -9970    -3396      563 
     678    -2482    -7772   -13190   -16085   -16130   -15221   -13007 
   -9076    -4738     -847      114    -2634    -5474    -7571    -9436 
   -9085    -8166    -9490   -11056   -12058   -14563   -18011   -20892 
  -23488   -25682   -27001   -28764   -31874   -34210   -33919   -31431 
  -26499   -18493    -9967    -4599    -2504    -2496    -4557    -6911 
   -7085    -5781    -5626    -7945   -11887   -15155   -15696   -14031 
  -12615   -12608   -13516   -14151   -13679   -12158    -8976    -5209 
   -4808    -8085   -11695   -15457   -20305   -24137   -25533   -25386 
  -23318   -18211   -12234    -8935    -8575   -10304   -13274   -14207 
  -12361   -11211   -11112   -10282   -10188   -11760   -13233   -15158 
  -18618   -20291   -17710   -13940   -11650    -9941    -9300   -11118 
  -13567   -14659   -14872   -15467   -17526   -20448   -21683   -19825 
  -17152   -16825   -18002   -17858   -15920   -12443    -6884    -1084 
    1104      436      735      922    -1121    -3152    -3205    -1419 
    1313     2376     -875    -8440   -18175   -27196   -33819   -38436 
  -40200   -38054   -35289   -33811   -30963   -26738   -22615   -18455 
  -15760   -15125   -14906   -14333   -12729    -9943    -6702    -4063 
   -3647    -4276    -3463    -2495    -2899    -3134    -2308    -2040 
   -3632    -6748   -11644   -19110   -26698   -29279   -26611   -23590 
  -20856   -18074   -20108   -25669   -27611   -26913   -26345   -23335 
  -17997   -12351    -6530    -2399    -2208    -4645    -6285    -5409 
   -3605    -3279    -4690    -6719    -9228   -12108   -13391   -12007 
   -9298    -6482    -4743    -4766    -5992    -9468   -15760   -22007 
