Origin Time       2011/03/11 14:46:00
Lat.              38.103
Long.             142.860
Depth. (km)       24
Mag.              9.0
Station Code      HKD038
Station Lat.      43.1666
Station Long.     142.5662
Station Height(m) 353
Record Time       2011/03/11 14:48:17
Sampling Freq(Hz) 100Hz
Duration Time(s)  275
Dir.              N-S
Scale Factor      3920(gal)/6182761
Max. Acc. (gal)   8.577
Last Correction   2011/03/11 14:48:02
Memo.             
[...]
  -16616   -15545   -15478   -16482   -18091   -19475   -19976   -19616 
  -18879   -18268   -18068   -18141   -18105   -17796   -17308   -16828 
  -16583   -16676   -17008   -17573   -18444   -19259   -19367   -18713 
  -17929   -17597   -17846   -18450   -19061   -19391   -19189   -18437 
  -17523   -16814   -16210   -15368   -14115   -12497   -10736    -9223 
   -8256    -7903    -8273    -9386   -10779   -11852   -12576   -13352 
  -14380   -15550   -16717   -17808   -18602   -18623   -17582   -15860 
  -14297   -13582   -13784   -14491   -15352   -16159   -16567   -16189 
  -14996   -13579   -12835   -13022   -13443   -13412   -13014   -12627 
  -12296   -11991   -12010   -12715   -14041   -15444   -16414   -16856 
  -16867   -16452   -15686   -14996   -14891   -15396   -16088   -16601 
  -16842   -16894   -17002   -17335   -17789   -18323   -18992   -19594 
  -19891   -20006   -20307   -20982   -21714   -21796   -20748   -18937 
  -17277   -16275   -15839   -15835   -16181   -16597   -16773   -16715 
  -16680   -16789   -16771   -16245   -15322   -14638   -14654   -15226 
  -15914   -16381   -16447   -16119   -15583   -15059   -14814   -15068 
  -15599   -15761   -15120   -13808   -12293   -11023   -10162    -9632 
   -9383    -9373    -9455    -9549    -9712    -9870    -9754    -9319 
   -9022    -9506   -11032   -13168   -15083   -16223   -16683   -17019 
  -17725   -18717   -19380   -19215   -18347   -17395   -16971   -17223 
  -17823   -18409   -18877   -19295   -19695   -20082   -20557   -21012 
  -21071   -20681   -20170   -19755   -19453   -19169   -18688   -17845 
  -16809   -16070   -15942   -16196   -16246   -15662   -14520   -13192 
  -12044   -11454   -11613   -12225   -12884   -13490   -13923   -13829 
  -13101   -12132   -11398   -11159   -11482   -12248   -13220   -14114 
  -14637   -14695   -14556   -14579   -14920   -15676   -16883   -18230 
  -19293   -20017   -20592   -21112   -21464   -21363   -20572   -19223 
  -17855   -16931   -16481   -16395   -16588   -16755   -16520   -15811 
  -14837   -13870   -13130   -12772   -12846   -13311   -14015   -14615 
  -14810   -14716   -14731   -15100   -15791   -16573   -17126   -17216 
  -16876   -16354   -15959   -16003   -16535   -17143   -17290   -16698 
  -15420   -13893   -12806   -12547   -12944   -13733   -14856   -16122 
  -17040   -17308   -17131   -16716   -15988   -15015   -14140   -13651 
  -13669   -14160   -14846   -15280   -15186   -14743   -14663   -15658 
  -17547   -19327   -20118   -19680   -18300   -16550   -15089   -14383 
  -14440   -14792   -14779   -14116   -13094   -12112   -11404   -11159 
  -11416   -11922   -12345   -12543   -12544   -12522   -12876   -13962 
  -15646   -17317   -18325   -18366   -17676   -16890   -16527   -16625 
  -16856   -16832   -16400   -15827   -15543   -15730   -16319   -17056 
  -17431   -17040   -15963   -14545   -13109   -11972   -11526   -12055 
  -13280   -14388   -14840   -14842   -14937   -15458   -16419   -17660 
  -18921   -19858   -20107   -19622   -18845   -18182   -17599   -16970 
  -16422   -16174   -16213   -16326   -16460   -16781   -17451   -18501 
  -19701   -20653   -21184   -21409   -21456   -21280   -20808   -20239 
  -19754   -18987   -17507   -15595   -13899   -12590   -11385   -10219 
   -9410    -9185    -9362    -9563    -9538    -9269    -9044    -9393 
  -10668   -12728   -14970   -16625   -17206   -16807   -16003   -15422 
  -15343   -15652   -16084   -16527   -17055   -17599   -17876   -17703 
  -17012   -15770   -14310   -13320   -13122   -13409   -13725   -13808 
  -13696   -13665   -13821   -13992   -14104   -14283   -14643   -15262 
  -16260   -17620   -18967   -19832   -20041   -19781   -19448   -19305 
  -19329   -19448   -19556   -19416   -18904   -18167   -17377   -16583 
  -15893   -15464   -15188   -14747   -14140   -13819   -14208   -15223 
  -16205   -16441   -15896   -15250   -15195   -15859   -16835   -17606 
  -17817   -17354   -16486   -15725   -15519   -16101   -17238   -18201 
  -18475   -18248   -17849   -17194   -16145   -14914   -13868   -13158 
  -12660   -12271   -12093   -12206   -12420   -12518   -12563   -12713 
  -12901   -12918   -12731   -12659   -13048   -13712   -14153   -14383 
  -14895   -15741   -16313   -16157   -15424   -14580   -14099   -14232 
  -14777   -15385   -15992   -16488   -16419   -15589   -14490   -13720 
  -13436   -13612   -14276   -15332   -16443   -17182   -17446   -17540 
  -17666   -17762   -17877   -18236   -18901   -19623   -20103   -20260 
  -20139   -19746   -19128   -18368   -17513   -16653   -15940   -15531 
  -15437   -15426   -15265   -14974   -14711   -14536   -14430   -14453 
  -14653   -14954   -15273   -15677   -16354   -17209   -17806   -17959 
  -17839   -17539   -17127   -16819   -16589   -16121   -15438   -14922 
  -14780   -15063   -15769   -16680   -17407   -17652   -17411   -16857 
  -16091   -15235   -14454   -13821   -13449   -13543   -14119   -14865 
  -15357   -15439   -15323   -15333   -15613   -16015   -16214   -15973 
  -15277   -14289   -13296   -12657   -12610   -13051   -13709   -14416 
  -14987   -15152   -14777   -14044   -13402   -13164   -13171   -13065 
  -12680   -12097   -11511   -11052   -10851   -11163   -12012   -13020 
  -13885   -14597   -15184   -15617   -15869   -15957   -15939   -15845 
  -15692   -15482   -15149   -14730   -14451   -14408   -14443   -14534 
  -14863   -15445   -16196   -17149   -18193   -19024   -19565   -19957 
  -20291   -20742   -21421   -21961   -21849   -21001   -19658   -18178 
  -16979   -16354   -16250   -16286   -16084   -15522   -14680   -13682 
  -12683   -11992   -11969   -12645   -13666   -14601   -15100   -14873 
  -13901   -12720   -12067   -12161   -12659   -13184   -13527   -13588 
  -13463   -13503   -13987   -14735   -15365   -15924   -16755   -17881 
  -18892   -19389   -19360   -18976   -18278   -17401   -16801   -16821 
  -17270   -17604   -17433   -16747   -15739   -14654   -13794   -13451 
  -13757   -14656   -15781   -16439   -16191   -15305   -14321   -13590 
  -13392   -13975   -15295   -16846   -17795   -17602   -16670   -15970 
  -15920   -16076   -15902   -15386   -14909   -14741   -14787   -14800 
  -14595   -14021   -13176   -12541   -12407   -12518   -12532   -12338 
  -12001   -11781   -11890   -12193   -12357   -12094   -11368   -10616 
  -10495   -11326   -12860   -14429   -15401   -15714   -15846   -16278 
  -17162   -18257   -19196   -19940   -20626   -21166   -21280   -20640 
  -19203   -17569   -16574   -16479   -16883   -17293   -17428   -17029 
  -15935   -14404   -12959   -12035   -11919   -12715   -14240   -16083 
  -17771   -18982   -19772   -20469   -21261   -22079   -22786   -23258 
  -23494   -23644   -23668   -23242   -22324   -21293   -20356   -19344 
  -18056   -16386   -14497   -12994   -12398   -12649   -13379   -14235 
  -14823   -14836   -14403   -13949   -13650   -13304   -12797   -12434 
  -12481   -12662   -12632   -12529   -12500   -12284   -11767   -11379 
  -11541   -12187   -13048   -14011   -15039   -15875   -16196   -16113 
  -16081   -16317   -16772   -17384   -17982   -18296   -18255   -18054 
  -17906   -17836   -17807   -17884   -18122   -18455   -18718   -18681 
  -18158   -17239   -16445   -16336   -16981   -17995   -18872   -19380 
  -19738   -20121   -20334   -20258   -20072   -19919   -19840   -19851 
  -19797   -19489   -18993   -18530   -18264   -18120   -17747   -16797 
  -15254   -13497   -11982   -10945   -10438   -10446   -10905   -11602 
  -12188   -12454   -12391   -12028   -11608   -11690   -12586   -13966 
  -15184   -15772   -15696   -15378   -15300   -15628   -16259   -16921 
  -17288   -17206   -16736   -15961   -15025   -14217   -13700   -13374 
  -13077   -12719   -12392   -12422   -13144   -14559   -16254   -17649 
  -18361   -18411   -18257   -18534   -19552   -21004   -22194   -22518 
  -21850   -20618   -19572   -19272   -19633   -20016   -19834   -19084 
  -18203   -17488   -16971   -16757   -16914   -17200   -17300   -17144 
  -16945   -17021   -17511   -18193   -18605   -18379   -17514   -16298 
  -15115   -14371   -14282   -14730   -15481   -16345   -17086   -17466 
  -17491   -17384   -17259   -17098   -16867   -16350   -15363   -14207 
  -13237   -12327   -11330   -10436    -9678    -8801    -7809    -7012 
   -6662    -6940    -7944    -9481   -11050   -12109   -12441   -12308 
  -12163   -12264   -12611   -13005   -13181   -13075   -12847   -12585 
  -12276   -12064   -12118   -12334   -12505   -12593   -12622   -12558 
  -12410   -12252   -12170   -12252   -12519   -12867   -13200   -13613 
  -14367   -15699   -17555   -19395   -20478   -20582   -20161   -19782 
  -19787   -20235   -20864   -21350   -21615   -21813   -22133   -22679 
  -23545   -24740   -25924   -26568   -26424   -25686   -24756   -23905 
  -23129   -22254   -21187   -20106   -19248   -18654   -18394   -18641 
  -19268   -19804   -19888   -19582   -19210   -18972   -18845   -18702 
  -18346   -17654   -16907   -16625   -16865   -17067   -16757   -15957 
  -14974   -14123   -13528   -13143   -12960   -12919   -12799   -12521 
  -12240   -12082   -12093   -12322   -12658   -12802   -12675   -12639 
  -13024   -13695   -14275   -14589   -14774   -15046   -15452   -15953 
  -16556   -17105   -17278   -16980   -16365   -15627   -15112   -15223 
  -15957   -16923   -17738   -18057   -17627   -16683   -15901   -15821 
  -16610   -18060   -19556   -20427   -20428   -19794   -19060   -18813 
  -19398   -20638   -21835   -22318   -22029   -21437   -20975   -20798 
  -20934   -21331   -21757   -21782   -21108   -20035   -19173   -18735 
  -18484   -18106   -17523   -16984   -16719   -16572   -16240   -15752 
  -15335   -14979   -14558   -14142   -13846   -13618   -13429   -13335 
  -13235   -12899   -12253   -11441   -10694   -10216   -10048   -10020 
   -9897    -9547    -8962    -8281    -7768    -7613    -7745    -7892 
   -7852    -7696    -7616    -7766    -8274    -9129   -10138   -11138 
  -12026   -12705   -13172   -13476   -13658   -13808   -13926   -13995 
  -14221   -14731   -15409   -16339   -17650   -19083   -20463   -21835 
  -23029   -24070   -25265   -26414   -27155   -27603   -27839   -27694 
  -27131   -26276   -25256   -24191   -23197   -22353   -21736   -21400 
  -21188   -20770   -19970   -18967   -18182   -17982   -18382   -18967 
  -19202   -18796   -17795   -16397   -14768   -13068   -11593   -10636 
  -10105    -9668    -9197    -8703    -8210    -7821    -7577    -7455 
   -7546    -7945    -8530    -9000    -9163    -9121    -9068    -9109 
   -9280    -9393    -8983    -7753    -6082    -4830    -4519    -4961 
   -5697    -6475    -7274    -8045    -8676    -9277   -10186   -11524 
  -12992   -14227   -15194   -16072   -16902   -17607   -18167   -18639 
  -19105   -19540   -19817   -19892   -19808   -19642   -19551   -19745 
  -20325   -21129   -21859   -22308   -22376   -22099   -21604   -20939 
  -20259   -20012   -20505   -21419   -22120   -22344   -22292   -22181 
  -22073   -22020   -22012   -21932   -21696   -21239   -20491   -19597 
  -18893   -18529   -18279   -17770   -16816   -15540   -14200   -12931 
  -11643   -10267    -9121    -8681    -9015    -9790   -10672   -11433 
  -11853   -11874   -11781   -11964   -12442   -12830   -12860   -12740 
  -12784   -12953   -13129   -13589   -14688   -16105   -17018   -17065 
  -16533   -15723   -14793   -14107   -13935   -13937   -13566   -12761 
  -11858   -11091   -10483   -10105   -10221   -11112   -12740   -14650 
  -16281   -17325   -17693   -17434   -16787   -16075   -15442   -14814 
  -14100   -13335   -12540   -11741   -11124   -10850   -10936   -11491 
  -12650   -14199   -15596   -16480   -16948   -17307   -17787   -18481 
  -19334   -20113   -20519   -20495   -20297   -20252   -20566   -21257 
  -22112   -22703   -22587   -21625   -20101   -18580   -17574   -17231 
  -17302   -17330   -16947   -16141   -15207   -14551   -14517   -15102 
  -15866   -16279   -16090   -15417   -14592   -13959   -13773   -14094 
  -14658   -15049   -15139   -15096   -14968   -14620   -14057   -13496 
  -13112   -12821   -12359   -11700   -11206   -11094   -11118   -11000 
  -10716   -10369   -10166   -10417   -11242   -12378   -13383   -13970 
  -14179   -14363   -14916   -15922   -17151   -18304   -19154   -19545 
  -19472   -19121   -18757   -18645   -18920   -19409   -19850   -20135 
  -20011   -19196   -18055   -17315   -17093   -16979   -16723   -16309 
  -15813   -15381   -15076   -14914   -14973   -15206   -15462   -15790 
  -16253   -16654   -16812   -16745   -16519   -16169   -15738   -15189 
  -14492   -13886   -13656   -13712   -13785   -13861   -14085   -14385 
  -14506   -14324   -13977   -13781   -13985   -14525   -15167   -15759 
  -16168   -16225   -15930   -15507   -15228   -15281   -15652   -15983 
  -15844   -15293   -14874   -15097   -16086   -17614   -19331   -20866 
  -21818   -21923   -21224   -20123   -19164   -18709   -18877   -19520 
  -20114   -19971   -18835   -17277   -16170   -15846   -16049   -16400 
  -16676   -16818   -16845   -16738   -16524   -16440   -16632   -16821 
  -16588   -15954   -15465   -15595   -16223   -16888   -17400   -17867 
  -18225   -18231   -17784   -16948   -15893   -14878   -14124   -13698 
  -13549   -13542   -13458   -13111   -12432   -11387   -10122    -9113 
   -8722    -8825    -9134    -9574   -10180   -10883   -11537   -12109 
  -12673   -13206   -13559   -13617   -13327   -12680   -11745   -10687 
   -9722    -8917    -8132    -7280    -6449    -5649    -4753    -3743 
   -2797    -2164    -1969    -2132    -2449    -2750    -3006    -3274 
   -3584    -3957    -4405    -4894    -5446    -6174    -7064    -7840 
   -8254    -8404    -8577    -8924    -9525   -10468   -11605   -12596 
  -13264   -13698   -14111   -14701   -15452   -16097   -16438   -16608 
  -16864   -17341   -18181   -19547   -21323   -23153   -24730   -25819 
  -26363   -26588   -26650   -26423   -25889   -25416   -25326   -25425 
  -25350   -25059   -24737   -24462   -24042   -23252   -22205   -21234 
  -20429   -19575   -18559   -17577   -16769   -16041   -15406   -15061 
  -15116   -15392   -15481   -15165   -14618   -14168   -13997   -14060 
  -14305   -14739   -15123   -15017   -14248   -13078   -11887   -10867 
  -10052    -9464    -9232    -9430    -9787    -9892    -9634    -9220 
   -8879    -8596    -8183    -7666    -7466    -8025    -9273   -10595 
  -11313   -11145   -10302    -9241    -8469    -8412    -9077    -9926 
  -10382   -10441   -10506   -10684   -10755   -10824   -11330   -12437 
  -13796   -14952   -15811   -16529   -17154   -17673   -18119   -18463 
  -18624   -18606   -18512   -18458   -18471   -18487   -18456   -18365 
  -18189   -17955   -17776   -17677   -17465   -16942   -16276   -15906 
  -16136   -16930   -18020   -19178   -20270   -21062   -21408   -21445 
  -21353   -21244   -21252   -21441   -21684   -21723   -21395   -20788 
  -20180   -19726   -19347   -19125   -19249   -19494   -19438   -18978 
  -18235   -17374   -16556   -15867   -15373   -15109   -14917   -14578 
  -14033   -13391   -12812   -12438   -12359   -12579   -12982   -13277 
  -13198   -12873   -12740   -13113   -14087   -15550   -16978   -17668 
  -17373   -16409   -15229   -14168   -13415   -12963   -12494   -11559 
  -10073    -8458    -7269    -6783    -6992    -7857    -9246   -10723 
  -11776   -12195   -12147   -12023   -12150   -12579   -13209   -13942 
  -14577   -14909   -15099   -15562   -16393   -17246   -17713   -17588 
  -16955   -16192   -15681   -15443   -15260   -15003   -14675   -14419 
  -14439   -14774   -15312   -16021   -16937   -17971   -18895   -19570 
  -19956   -20024   -19873   -19742   -19754   -19898   -20198   -20696 
  -21306   -21791   -21951   -21846   -21729   -21791   -22107   -22618 
  -23050   -23103   -22701   -21919   -20824   -19496   -18144   -17109 
  -16550   -16221   -15836   -15459   -15262   -15140   -14908   -14630 
  -14433   -14290   -14116   -13829   -13360   -12700   -11891   -10983 
  -10006    -8993    -8022    -7287    -7111    -7612    -8470    -9297 
   -9938   -10262   -10171    -9903    -9844   -10032   -10250   -10420 
  -10527   -10423    -9988    -9263    -8422    -7781    -7585    -7830 
   -8501    -9573   -10776   -11763   -12374   -12578   -12464   -12374 
  -12674   -13454   -14661   -16059   -17122   -17451   -17193   -16857 
  -16865   -17306   -17901   -18160   -17847   -17191   -16465   -15701 
  -14898   -14203   -13681   -13026   -11942   -10649    -9517    -8647 
   -8075    -7906    -8213    -8928    -9804   -10582   -11168   -11627 
  -12098   -12716   -13550   -14546   -15613   -16639   -17410   -17794 
  -17984   -18236   -18427   -18179   -17452   -16682   -16281   -16284 
  -16444   -16529   -16509   -16448   -16363   -16348   -16594   -17103 
  -17614   -17864   -17804   -17618   -17586   -17734   -17681   -17052 
  -15886   -14435   -12962   -11872   -11588   -12205   -13424   -14700 
  -15446   -15417   -14878   -14251   -13766   -13544   -13690   -14163 
  -14665   -14825   -14478   -13715   -12825   -12177   -11991   -12336 
  -13199   -14326   -15223   -15517   -15240   -14731   -14311   -14076 
  -13817   -13225   -12342   -11614   -11339   -11378   -11489   -11520 
  -11361   -11079   -10836   -10655   -10586   -10796   -11388   -12325 
  -13338   -14061   -14431   -14605   -14685   -14823   -15260   -16042 
  -16964   -17770   -18321   -18715   -19173   -19753   -20413   -21218 
  -22217   -23258   -24116   -24730   -25185   -25522   -25577   -25071 
  -24015   -22836   -21962   -21621   -21827   -22251   -22346   -21691 
  -20226   -18291   -16499   -15452   -15386   -16138   -17340   -18490 
  -19104   -18951   -18115   -16985   -16062   -15522   -15178   -14876 
  -14538   -14020   -13376   -12915   -12746   -12623   -12348   -11989 
  -11655   -11365   -11088   -10818   -10642   -10598   -10576   -10506 
  -10427   -10363   -10326   -10406   -10696   -11147   -11631   -12124 
  -12618   -12962   -13061   -13089   -13339   -13958   -14925   -16101 
  -17287   -18294   -18950   -19211   -19278   -19454   -19901   -20497 
  -20879   -20699   -19906   -18817   -17875   -17263   -16900   -16705 
  -16725   -17104   -17977   -19220   -20460   -21460   -22227   -22717 
  -22823   -22635   -22338   -22056   -21929   -22065   -22367   -22611 
  -22637   -22318   -21582   -20654   -19983   -19791   -19836   -19640 
  -18954   -17810   -16331   -14878   -13898   -13413   -13086   -12715 
  -12316   -11941   -11684   -11677   -11925   -12304   -12685   -12915 
  -12914   -12835   -12851   -12985   -13259   -13635   -13875   -13766 
  -13354   -12844   -12412   -12165   -12136   -12267   -12447   -12565 
  -12600   -12702   -13165   -14183   -15571   -16848   -17614   -17821 
  -17706   -17532   -17424   -17467   -17729   -18068   -18211   -18045 
  -17626   -17129   -16980   -17634   -18992   -20270   -20713   -20227 
  -19193   -18014   -17015   -16467   -16534   -17192   -18193   -19167 
  -19721   -19569   -18789   -17892   -17447   -17642   -18232   -18868 
  -19293   -19263   -18681   -17839   -17184   -16916   -16962   -17091 
  -17004   -16603   -16035   -15321   -14282   -12996   -11950   -11579 
  -11889   -12541   -13142   -13450   -13410   -13215   -13238   -13723 
  -14724   -16153   -17665   -18865   -19613   -19939   -19909   -19685 
  -19440   -19147   -18566   -17519   -16120   -14687   -13477   -12604 
