Origin Time       2011/03/11 14:46:00
Lat.              38.103
Long.             142.860
Depth. (km)       24
Mag.              9.0
Station Code      HKD019
Station Lat.      44.3611
Station Long.     141.6978
Station Height(m) 15
Record Time       2011/03/11 14:49:34
Sampling Freq(Hz) 100Hz
Duration Time(s)  242
Dir.              E-W
Scale Factor      3920(gal)/6182761
Max. Acc. (gal)   5.744
Last Correction   2011/03/11 14:49:19
Memo.             
[...]
   -8006    -8030    -8074    -8151    -8214    -8274    -8347    -8425 
   -8511    -8601    -8683    -8765    -8871    -8974    -9056    -9139 
   -9209    -9281    -9360    -9412    -9450    -9480    -9507    -9545 
   -9579    -9596    -9601    -9592    -9576    -9570    -9553    -9500 
   -9442    -9396    -9344    -9285    -9233    -9184    -9112    -9010 
   -8912    -8846    -8783    -8676    -8544    -8445    -8360    -8264 
   -8171    -8073    -7956    -7833    -7706    -7584    -7472    -7349 
   -7222    -7091    -6959    -6842    -6716    -6572    -6431    -6304 
   -6193    -6086    -5981    -5882    -5784    -5708    -5626    -5523 
   -5443    -5364    -5267    -5169    -5054    -4938    -4836    -4720 
   -4586    -4460    -4336    -4205    -4088    -3969    -3835    -3700 
   -3571    -3466    -3372    -3266    -3155    -3062    -2991    -2927 
   -2860    -2786    -2725    -2666    -2601    -2559    -2523    -2474 
   -2440    -2424    -2415    -2417    -2414    -2401    -2395    -2383 
   -2363    -2347    -2317    -2283    -2257    -2220    -2164    -2100 
   -2047    -1999    -1945    -1900    -1865    -1832    -1803    -1793 
   -1803    -1806    -1790    -1769    -1763    -1751    -1719    -1700 
   -1692    -1647    -1580    -1542    -1526    -1498    -1467    -1436 
   -1406    -1382    -1339    -1284    -1264    -1261    -1249    -1252 
   -1272    -1280    -1293    -1321    -1345    -1378    -1410    -1439 
   -1488    -1546    -1600    -1635    -1665    -1716    -1740    -1747 
   -1782    -1798    -1787    -1798    -1800    -1785    -1801    -1832 
   -1842    -1850    -1876    -1915    -1978    -2036    -2061    -2119 
   -2208    -2248    -2281    -2346    -2369    -2368    -2416    -2440 
   -2409    -2419    -2433    -2399    -2396    -2395    -2362    -2369 
   -2389    -2393    -2427    -2450    -2452    -2496    -2570    -2622 
   -2668    -2725    -2757    -2791    -2853    -2900    -2925    -2949 
   -2961    -2969    -2982    -2993    -2995    -2988    -2977    -2957 
   -2919    -2892    -2881    -2842    -2801    -2770    -2726    -2712 
   -2702    -2656    -2622    -2596    -2557    -2537    -2505    -2426 
   -2368    -2347    -2280    -2197    -2157    -2087    -1995    -1926 
   -1829    -1737    -1683    -1598    -1514    -1471    -1413    -1352 
   -1326    -1307    -1284    -1287    -1295    -1300    -1327    -1344 
   -1384    -1471    -1533    -1584    -1670    -1770    -1873    -1967 
   -2054    -2167    -2292    -2398    -2511    -2640    -2766    -2901 
   -3037    -3175    -3345    -3494    -3602    -3735    -3905    -4065 
   -4139    -4181    -4330    -4452    -4459    -4542    -4661    -4685 
   -4719    -4799    -4878    -4957    -5041    -5132    -5232    -5331 
   -5442    -5554    -5633    -5729    -5837    -5911    -5995    -6093 
   -6179    -6262    -6323    -6373    -6440    -6499    -6561    -6650 
   -6728    -6795    -6870    -6941    -7044    -7178    -7292    -7416 
   -7556    -7690    -7857    -8025    -8161    -8308    -8467    -8628 
   -8769    -8882    -9013    -9131    -9221    -9315    -9384    -9455 
   -9536    -9581    -9629    -9675    -9706    -9745    -9761    -9775 
   -9803    -9801    -9800    -9798    -9767    -9759    -9763    -9739 
   -9724    -9697    -9657    -9638    -9597    -9553    -9526    -9476 
   -9436    -9413    -9363    -9325    -9315    -9296    -9275    -9245 
   -9200    -9172    -9153    -9109    -9071    -9046    -9008    -8952 
   -8883    -8832    -8800    -8763    -8705    -8633    -8584    -8538 
   -8483    -8455    -8407    -8319    -8262    -8225    -8169    -8124 
   -8085    -8048    -8013    -7951    -7896    -7882    -7855    -7801 
   -7761    -7728    -7682    -7644    -7614    -7565    -7503    -7452 
   -7405    -7338    -7281    -7242    -7199    -7157    -7129    -7118 
   -7114    -7103    -7110    -7143    -7167    -7175    -7182    -7200 
   -7253    -7324    -7368    -7420    -7487    -7548    -7643    -7764 
   -7875    -8001    -8126    -8241    -8390    -8577    -8761    -8921 
   -9091    -9283    -9458    -9631    -9819    -9987   -10162   -10352 
  -10534   -10735   -10928   -11096   -11275   -11442   -11597   -11761 
  -11902   -12023   -12126   -12190   -12242   -12302   -12329   -12336 
  -12342   -12312   -12272   -12231   -12146   -12048   -11960   -11852 
  -11729   -11607   -11469   -11326   -11196   -11062   -10930   -10798 
  -10656   -10506   -10350   -10193   -10028    -9856    -9677    -9479 
   -9283    -9083    -8865    -8660    -8443    -8220    -8023    -7808 
   -7580    -7375    -7167    -6944    -6722    -6532    -6370    -6216 
   -6076    -5952    -5861    -5769    -5636    -5504    -5392    -5276 
   -5158    -5048    -4909    -4702    -4505    -4379    -4249    -4079 
   -3901    -3713    -3543    -3417    -3310    -3172    -2975    -2795 
   -2670    -2547    -2442    -2339    -2198    -2055    -1915    -1805 
   -1744    -1666    -1567    -1487    -1414    -1337    -1270    -1193 
   -1087     -995     -921     -810     -690     -600     -515     -435 
    -377     -318     -262     -230     -216     -213     -210     -188 
    -171     -167     -133      -94      -89      -61      -20       10 
      65      103      118      155      166      132      116      128 
     134      136      136      121      114      114       87       50 
      25       -3      -39      -75     -131     -182     -214     -275 
    -335     -354     -377     -413     -452     -498     -545     -608 
    -670     -712     -769     -850     -921     -978    -1043    -1111 
   -1169    -1233    -1321    -1418    -1480    -1515    -1600    -1694 
   -1742    -1801    -1866    -1926    -2002    -2089    -2168    -2222 
   -2313    -2438    -2512    -2566    -2643    -2712    -2779    -2846 
   -2894    -2954    -3031    -3087    -3140    -3188    -3220    -3289 
   -3366    -3395    -3431    -3488    -3516    -3536    -3598    -3661 
   -3684    -3719    -3781    -3820    -3842    -3888    -3943    -3978 
   -4024    -4079    -4123    -4163    -4204    -4258    -4315    -4349 
   -4383    -4426    -4435    -4446    -4486    -4495    -4475    -4471 
   -4459    -4425    -4399    -4363    -4313    -4292    -4285    -4273 
   -4278    -4286    -4300    -4354    -4427    -4482    -4537    -4603 
   -4672    -4765    -4871    -4960    -5058    -5181    -5288    -5374 
   -5482    -5585    -5663    -5754    -5845    -5920    -5994    -6060 
   -6118    -6172    -6224    -6281    -6354    -6442    -6518    -6594 
   -6682    -6782    -6908    -7023    -7106    -7207    -7325    -7427 
   -7528    -7620    -7709    -7805    -7873    -7946    -8069    -8176 
   -8264    -8358    -8438    -8529    -8615    -8680    -8754    -8821 
   -8878    -8958    -9038    -9090    -9148    -9231    -9310    -9373 
   -9428    -9481    -9523    -9554    -9581    -9600    -9612    -9616 
   -9610    -9616    -9637    -9645    -9643    -9654    -9682    -9706 
   -9711    -9720    -9746    -9784    -9820    -9842    -9859    -9883 
   -9915    -9949    -9992   -10029   -10043   -10036   -10004    -9965 
   -9937    -9889    -9821    -9757    -9694    -9633    -9563    -9491 
   -9457    -9426    -9349    -9306    -9307    -9261    -9216    -9210 
   -9186    -9165    -9167    -9153    -9142    -9150    -9115    -9072 
   -9078    -9060    -9012    -8986    -8949    -8894    -8843    -8778 
   -8709    -8656    -8588    -8514    -8470    -8412    -8360    -8348 
   -8319    -8309    -8342    -8346    -8357    -8401    -8416    -8417 
   -8435    -8450    -8457    -8459    -8454    -8465    -8481    -8469 
   -8466    -8479    -8461    -8444    -8461    -8459    -8429    -8422 
   -8427    -8417    -8423    -8439    -8412    -8385    -8382    -8332 
   -8296    -8294    -8219    -8149    -8128    -8065    -7999    -7949 
   -7850    -7756    -7702    -7599    -7488    -7426    -7331    -7230 
   -7180    -7127    -7066    -7011    -6950    -6885    -6826    -6784 
   -6735    -6687    -6651    -6611    -6585    -6575    -6583    -6579 
   -6531    -6510    -6527    -6532    -6524    -6491    -6449    -6422 
   -6389    -6349    -6319    -6285    -6235    -6202    -6186    -6179 
   -6194    -6182    -6166    -6204    -6217    -6196    -6220    -6235 
   -6200    -6212    -6233    -6164    -6113    -6092    -6030    -6008 
   -5984    -5900    -5840    -5763    -5650    -5584    -5502    -5353 
   -5255    -5181    -5032    -4932    -4879    -4752    -4640    -4544 
   -4395    -4273    -4154    -3987    -3856    -3737    -3580    -3458 
   -3348    -3203    -3102    -3029    -2909    -2810    -2740    -2640 
   -2554    -2500    -2429    -2354    -2310    -2275    -2239    -2222 
   -2207    -2185    -2184    -2201    -2193    -2189    -2230    -2240 
   -2222    -2242    -2237    -2226    -2256    -2254    -2231    -2232 
   -2211    -2199    -2219    -2213    -2221    -2267    -2293    -2314 
   -2368    -2434    -2476    -2513    -2573    -2625    -2661    -2688 
   -2722    -2757    -2785    -2833    -2893    -2937    -2976    -3020 
   -3063    -3097    -3132    -3156    -3172    -3194    -3204    -3214 
   -3226    -3232    -3236    -3221    -3180    -3156    -3163    -3144 
   -3091    -3071    -3077    -3035    -2993    -2996    -2973    -2955 
   -2966    -2932    -2908    -2912    -2888    -2893    -2894    -2853 
   -2863    -2877    -2847    -2850    -2848    -2814    -2820    -2823 
   -2816    -2848    -2850    -2837    -2889    -2938    -2958    -3010 
   -3040    -3046    -3082    -3107    -3138    -3209    -3249    -3278 
   -3344    -3381    -3397    -3423    -3425    -3450    -3470    -3425 
   -3407    -3422    -3418    -3412    -3392    -3387    -3406    -3400 
   -3392    -3404    -3418    -3423    -3414    -3428    -3448    -3447 
   -3473    -3504    -3504    -3547    -3609    -3638    -3694    -3753 
   -3789    -3838    -3871    -3901    -3944    -3957    -3957    -3974 
   -3981    -3978    -3984    -3981    -3964    -3973    -3986    -3947 
   -3915    -3932    -3931    -3914    -3919    -3916    -3933    -3987 
   -4006    -4032    -4099    -4115    -4135    -4211    -4241    -4254 
   -4305    -4316    -4316    -4349    -4348    -4338    -4328    -4266 
   -4205    -4152    -4056    -3951    -3856    -3735    -3601    -3494 
   -3369    -3223    -3107    -2974    -2821    -2708    -2590    -2456 
   -2360    -2270    -2162    -2081    -2000    -1904    -1831    -1768 
   -1712    -1661    -1597    -1536    -1489    -1461    -1442    -1404 
   -1369    -1350    -1320    -1283    -1265    -1238    -1197    -1178 
   -1164    -1142    -1112    -1078    -1070    -1067    -1046    -1024 
   -1000     -966     -924     -910     -893     -841     -820     -797 
    -751     -749     -744     -706     -693     -689     -660     -653 
    -664     -655     -663     -682     -680     -709     -745     -763 
    -805     -855     -890     -930     -971    -1001    -1029    -1056 
   -1066    -1068    -1074    -1077    -1104    -1138    -1139    -1163 
   -1212    -1238    -1281    -1329    -1367    -1426    -1454    -1479 
   -1564    -1630    -1659    -1710    -1774    -1829    -1883    -1937 
   -1994    -2066    -2136    -2204    -2307    -2417    -2497    -2605 
   -2746    -2868    -3000    -3140    -3257    -3370    -3483    -3599 
   -3722    -3820    -3906    -3999    -4082    -4173    -4255    -4326 
   -4429    -4513    -4593    -4725    -4830    -4916    -5047    -5159 
   -5248    -5371    -5485    -5554    -5620    -5698    -5777    -5858 
   -5930    -5993    -6057    -6114    -6163    -6204    -6235    -6254 
   -6287    -6340    -6375    -6408    -6466    -6511    -6554    -6592 
   -6602    -6631    -6660    -6672    -6711    -6742    -6758    -6792 
   -6821    -6859    -6902    -6899    -6907    -6930    -6909    -6905 
   -6921    -6904    -6897    -6883    -6850    -6856    -6854    -6819 
   -6815    -6818    -6820    -6841    -6845    -6869    -6907    -6911 
   -6933    -6952    -6958    -7001    -7009    -7005    -7045    -7047 
   -7046    -7081    -7093    -7097    -7105    -7117    -7116    -7097 
   -7091    -7080    -7060    -7049    -7024    -6984    -6952    -6936 
   -6911    -6872    -6827    -6777    -6731    -6676    -6616    -6571 
   -6519    -6464    -6415    -6365    -6325    -6286    -6231    -6170 
   -6124    -6097    -6084    -6073    -6066    -6077    -6072    -6059 
   -6064    -6050    -6054    -6076    -6063    -6054    -6055    -6038 
   -6012    -5987    -5953    -5894    -5846    -5817    -5785    -5769 
   -5748    -5703    -5684    -5704    -5708    -5708    -5736    -5751 
   -5773    -5812    -5837    -5885    -5942    -5982    -6035    -6095 
   -6141    -6183    -6258    -6321    -6347    -6411    -6475    -6524 
   -6622    -6699    -6741    -6820    -6907    -6978    -7053    -7122 
   -7182    -7269    -7364    -7428    -7509    -7601    -7679    -7754 
   -7819    -7890    -7954    -7999    -8058    -8105    -8134    -8178 
   -8232    -8285    -8333    -8394    -8457    -8503    -8580    -8666 
   -8729    -8824    -8933    -9035    -9157    -9269    -9403    -9589 
   -9752    -9903   -10099   -10279   -10429   -10602   -10769   -10919 
  -11068   -11182   -11290   -11424   -11528   -11621   -11728   -11814 
  -11916   -12031   -12124   -12234   -12362   -12475   -12578   -12701 
  -12833   -12937   -13028   -13136   -13244   -13340   -13427   -13513 
  -13593   -13677   -13753   -13805   -13856   -13909   -13964   -14023 
  -14076   -14117   -14153   -14172   -14182   -14211   -14220   -14201 
  -14186   -14141   -14078   -14028   -13961   -13887   -13819   -13740 
  -13655   -13575   -13490   -13400   -13323   -13230   -13131   -13060 
  -12981   -12884   -12792   -12730   -12689   -12624   -12573   -12526 
  -12440   -12389   -12365   -12322   -12299   -12298   -12277   -12245 
  -12251   -12262   -12237   -12226   -12211   -12169   -12151   -12143 
  -12143   -12163   -12160   -12151   -12175   -12200   -12206   -12222 
  -12245   -12257   -12278   -12287   -12280   -12287   -12277   -12245 
  -12225   -12193   -12156   -12122   -12046   -11964   -11898   -11802 
  -11722   -11660   -11551   -11437   -11355   -11279   -11205   -11133 
  -11041   -10934   -10846   -10783   -10717   -10631   -10517   -10403 
  -10321   -10248   -10156   -10059    -9964    -9867    -9782    -9695 
   -9587    -9486    -9387    -9271    -9167    -9079    -8968    -8830 
   -8730    -8657    -8552    -8457    -8381    -8313    -8269    -8203 
   -8135    -8087    -8015    -7943    -7889    -7833    -7756    -7665 
   -7589    -7494    -7400    -7329    -7249    -7156    -7067    -7011 
   -6972    -6925    -6893    -6846    -6784    -6751    -6703    -6628 
   -6580    -6524    -6438    -6350    -6247    -6145    -6044    -5935 
   -5835    -5712    -5581    -5473    -5355    -5240    -5120    -4986 
   -4864    -4735    -4610    -4517    -4417    -4297    -4190    -4107 
   -4022    -3950    -3916    -3878    -3828    -3783    -3727    -3683 
   -3656    -3601    -3537    -3486    -3411    -3329    -3242    -3137 
   -3056    -2974    -2849    -2739    -2653    -2540    -2421    -2309 
   -2171    -2048    -1953    -1841    -1734    -1635    -1538    -1457 
   -1358    -1255    -1193    -1123    -1029     -942     -848     -759 
    -693     -611     -528     -469     -377     -293     -248     -160 
     -71      -36       30      122      167      213      286      332 
     371      410      421      459      495      498      539      575 
     574      593      617      633      642      646      659      662 
     644      610      573      550      515      472      444      399 
     339      314      317      308      278      223      193      201 
     172      103       53       42       18      -37      -69     -110 
    -191     -227     -213     -232     -281     -312     -330     -368 
    -421     -462     -488     -534     -601     -645     -681     -732 
    -760     -785     -840     -889     -922     -965     -988    -1003 
   -1075    -1154    -1174    -1182    -1222    -1273    -1341    -1405 
   -1431    -1488    -1577    -1639    -1733    -1825    -1858    -1930 
   -2033    -2087    -2129    -2187    -2238    -2287    -2335    -2381 
   -2440    -2490    -2528    -2587    -2634    -2656    -2690    -2711 
   -2718    -2735    -2738    -2736    -2748    -2740    -2729    -2748 
   -2751    -2761    -2799    -2811    -2850    -2915    -2944    -2994 
   -3069    -3129    -3206    -3277    -3328    -3402    -3474    -3529 
   -3615    -3692    -3740    -3815    -3887    -3942    -4007    -4062 
   -4127    -4216    -4286    -4338    -4418    -4501    -4557    -4652 
   -4773    -4852    -4938    -5027    -5092    -5170    -5244    -5299 
   -5361    -5412    -5420    -5418    -5433    -5431    -5401    -5373 
   -5339    -5275    -5192    -5126    -5075    -5013    -4927    -4843 
   -4785    -4723    -4655    -4589    -4533    -4491    -4425    -4356 
   -4324    -4277    -4199    -4151    -4125    -4057    -4002    -3988 
   -3948    -3907    -3899    -3888    -3875    -3864    -3862    -3892 
   -3937    -3959    -3974    -4012    -4043    -4066    -4107    -4144 
   -4173    -4205    -4235    -4264    -4298    -4348    -4394    -4414 
   -4434    -4444    -4441    -4455    -4445    -4417    -4404    -4384 
   -4398    -4414    -4396    -4408    -4418    -4405    -4408    -4403 
   -4405    -4412    -4398    -4366    -4317    -4294    -4274    -4229 
   -4194    -4144    -4096    -4080    -4066    -4067    -4058    -4035 
   -4044    -4038    -4025    -4051    -4057    -4052    -4045    -4017 
   -4011    -4000    -3953    -3922    -3908    -3858    -3805    -3794 
   -3777    -3746    -3749    -3745    -3715    -3728    -3765    -3779 
   -3808    -3853    -3876    -3894    -3935    -3972    -3990    -4027 
   -4061    -4069    -4094    -4099    -4075    -4081    -4079    -4063 
   -4058    -4038    -4019    -4007    -3987    -3981    -3969    -3944 
   -3945    -3943    -3912    -3903    -3895    -3858    -3836    -3818 
   -3788    -3767    -3747    -3706    -3660    -3631    -3610    -3572 
   -3510    -3465    -3456    -3432    -3377    -3349    -3344    -3310 
   -3278    -3251    -3201    -3189    -3194    -3159    -3121    -3102 
   -3088    -3082    -3068    -3042    -3027    -3012    -2977    -2961 
   -2964    -2926    -2876    -2850    -2827    -2806    -2776    -2736 
   -2703    -2653    -2601    -2573    -2538    -2486    -2433    -2374 
   -2307    -2244    -2183    -2114    -2036    -1964    -1908    -1858 
   -1801    -1749    -1706    -1654    -1612    -1583    -1538    -1492 
   -1476    -1458    -1434    -1422    -1426    -1440    -1432    -1421 
   -1461    -1508    -1529    -1567    -1623    -1652    -1643    -1650 
   -1688    -1689    -1645    -1634    -1649    -1637    -1622    -1605 
   -1575    -1578    -1593    -1578    -1582    -1623    -1682    -1762 
   -1820    -1812    -1817    -1910    -1993    -1999    -1993    -2009 
   -2040    -2083    -2131    -2172    -2204    -2244    -2290    -2355 
   -2451    -2552    -2660    -2758    -2844    -2982    -3130    -3225 
   -3329    -3454    -3582    -3731    -3854    -3972    -4132    -4267 
   -4379    -4492    -4596    -4718    -4825    -4912    -4998    -5062 
   -5145    -5240    -5298    -5355    -5414    -5454    -5496    -5545 
