Origin Time       2011/03/11 14:46:00
Lat.              38.103
Long.             142.860
Depth. (km)       24
Mag.              9.0
Station Code      HKD097
Station Lat.      42.6181
Station Long.     143.4210
Station Height(m) 33
Record Time       2011/03/11 14:47:57
Sampling Freq(Hz) 100Hz
Duration Time(s)  300
Dir.              N-S
Scale Factor      3920(gal)/6182761
Max. Acc. (gal)   17.674
Last Correction   2011/03/11 14:47:42
Memo.             
[...]
  -10580   -11427   -11895   -12131   -12124   -11852   -11414   -10873 
  -10290    -9809    -9499    -9263    -8956    -8474    -7779    -6888 
   -5908    -5059    -4500    -4279    -4439    -4882    -5325    -5613 
   -5792    -6008    -6505    -7351    -8212    -8772    -9096    -9398 
   -9771   -10232   -10716   -11043   -11045   -10613    -9688    -8384 
   -7081    -6175    -5704    -5543    -5772    -6503    -7634    -8957 
  -10279   -11414   -12233   -12758   -13065   -13127   -12766   -11732 
  -10000    -7929    -5942    -4147    -2522    -1230     -486     -399 
   -1077    -2548    -4754    -7672   -10906   -13511   -14745   -14593 
  -13367   -11371    -9047    -6855    -5010    -3629    -2833    -2656 
   -3040    -3838    -4868    -6094    -7653    -9577   -11675   -13740 
  -15539   -16708   -16817   -15558   -13001    -9641    -6178    -3163 
    -868      475      707       53    -1108    -2671    -4730    -7342 
  -10333   -13205   -15408   -16727   -17262   -17016   -15840   -13970 
  -12002   -10223    -8620    -7353    -6591    -6210    -6062    -6206 
   -6620    -7139    -7789    -8658    -9627   -10539   -11293   -11866 
  -12428   -13159   -13890   -14124   -13527   -12291   -10862    -9565 
   -8730    -8646    -9162    -9942   -10918   -11980   -12842   -13388 
  -13624   -13556   -13240   -12640   -11728   -10698    -9761    -8937 
   -8060    -7023    -6167    -5884    -6049    -6483    -7218    -8061 
   -8740    -9339    -9977   -10449   -10569   -10298    -9515    -8255 
   -6882    -5752    -5002    -4578    -4372    -4327    -4373    -4482 
   -4631    -4731    -4846    -5168    -5755    -6568    -7605    -8814 
   -9947   -10739   -11277   -11867   -12431   -12564   -12025   -10665 
   -8497    -6045    -4009    -2830    -2704    -3608    -5175    -6659 
   -7614    -8235    -8712    -9047    -9275    -9393    -9418    -9416 
   -9366    -9081    -8377    -7333    -6116    -4818    -3647    -2928 
   -2814    -3109    -3587    -4232    -4904    -5374    -5696    -6000 
   -6157    -5886    -5071    -3940    -3058    -3006    -3852    -5173 
   -6557    -7680    -8278    -8366    -8157    -7798    -7349    -6861 
   -6499    -6463    -6722    -7072    -7327    -7356    -7165    -6863 
   -6492    -6038    -5491    -4882    -4415    -4390    -4975    -6232 
   -8134   -10402   -12577   -14262   -15245   -15448   -14784   -13207 
  -10864    -8004    -4871    -1720     1099     3016     3473     2338 
    -104    -3356    -6842   -10006   -12359   -13666   -14011   -13523 
  -12363   -10924    -9507    -7940    -5918    -3347     -418     2256 
    3950     4354     3521     1547    -1386    -4819    -8192   -11196 
  -13734   -15601   -16496   -16276   -14914   -12605    -9931    -7365 
   -5105    -3549    -3104    -3616    -4581    -5693    -6874    -7935 
   -8647    -9101    -9543   -10025   -10481   -10780   -10647    -9933 
   -8840    -7598    -6353    -5438    -5132    -5377    -6108    -7338 
   -8862   -10323   -11461   -12054   -11878   -11036   -10005    -9179 
   -8694    -8520    -8369    -7858    -6966    -6055    -5491    -5392 
   -5578    -5762    -5851    -6028    -6446    -6811    -6720    -6234 
   -5492    -4411    -3208    -2492    -2632    -3395    -4327    -5174 
   -5890    -6527    -7077    -7454    -7662    -7737    -7539    -6846 
   -5781    -4782    -3988    -3282    -2853    -3115    -4244    -6079 
   -8298   -10540   -12396   -13432   -13515   -12940   -11899   -10293 
   -8286    -6360    -4828    -3840    -3531    -3822    -4415    -5124 
   -5918    -6823    -7980    -9549   -11464   -13383   -14839   -15432 
  -14905   -13238   -10787    -8271    -6491    -5829    -6113    -6883 
   -7571    -7915    -8137    -8549    -9330   -10410   -11388   -11827 
  -11513   -10391    -8549    -6289    -3926    -1821     -577     -649 
   -1988    -4183    -6725    -9252   -11542   -13523   -15240   -16540 
  -17197   -17204   -16533   -15098   -13124   -11085    -9206    -7385 
   -5677    -4455    -4049    -4521    -5712    -7409    -9440   -11708 
  -14149   -16526   -18523   -19975   -20644   -20203   -18499   -15500 
  -11281    -6203     -957     3590     6611     7477     5881     2046 
   -3160    -8536   -13119   -16278   -17676   -17575   -16777   -15981 
  -15292   -14397   -13158   -11698   -10108    -8557    -7251    -6249 
   -5616    -5328    -5181    -5099    -5194    -5459    -5793    -6274 
   -7096    -8322    -9798   -11277   -12585   -13465   -13531   -12729 
  -11564   -10545    -9825    -9416    -9181    -8889    -8449    -7774 
   -6775    -5539    -4267    -3101    -2280    -2312    -3447    -5439 
   -8040   -11037   -14133   -17068   -19465   -20786   -20620   -18846 
  -15657   -11623    -7628    -4354    -1937     -481     -406    -1977 
   -4964    -8655   -12031   -14332   -15442   -15654   -15468   -15342 
  -15223   -14712   -13416   -11153    -8479    -6318    -4993    -4339 
   -4147    -4171    -4170    -4005    -3763    -3647    -3639    -3495 
   -2958    -1860     -366      933     1472      963     -648    -3016 
   -5724    -8716   -11956   -15224   -18195   -20234   -20658   -19224 
  -16152   -12109    -8087    -4885    -2785    -1613    -1109    -1343 
   -2714    -5688   -10332   -15806   -20847   -24711   -27075   -27560 
  -26032   -22735   -17869   -11680    -4840     1753     7445    11849 
   14501    14948    13173     9495     4416    -1251    -6683   -11266 
  -14341   -15385   -14546   -12447    -9642    -6691    -4284    -2829 
   -2337    -2664    -3496    -4469    -5517    -6845    -8596   -10585 
  -12461   -14054   -15332   -16245   -16585   -15955   -14150   -11391 
   -8080    -4910    -2913    -2597    -3482    -4632    -5302    -5574 
   -6291    -8071   -10825   -13948   -16651   -18494   -19514   -19846 
  -19511   -18392   -16451   -14027   -11624    -9607    -8222    -7620 
   -7825    -8610    -9448    -9856    -9829    -9777   -10056   -10792 
  -11940   -13123   -13636   -12961   -11327    -9501    -8072    -7272 
   -7149    -7622    -8537    -9531    -9997    -9616    -8722    -7739 
   -6616    -5249    -3939    -3029    -2555    -2435    -2664    -3126 
   -3430    -3357    -3232    -3576    -4696    -6437    -8177    -9455 
  -10425   -11462   -12801   -14608   -16875   -19120   -20526   -20397 
  -18351   -14433    -9140    -3250     2192     6104     7872     7342 
    4657      206    -5520   -11879   -18073   -23292   -26781   -28148 
  -27431   -24649   -19842   -13479    -6336      807     7280    12492 
   15831    16778    15249    11684     6771     1094    -4904   -10675 
  -15594   -19291   -21693   -22716   -22172   -20126   -17022   -13307 
   -9212    -4966    -1039     1934     3442     3346     1716    -1334 
   -5292    -9252   -12489   -14847   -16557   -17702   -18048   -17212 
  -14881   -11150    -6508    -1856     1576     3074     2738     1116 
   -1006    -3125    -5099    -6825    -8367    -9802   -11147   -12568 
  -14201   -16046   -17958   -19587   -20407   -19878   -17874   -14618 
  -10414    -5848    -1507     2266     5076     6547     6547     5098 
    2214    -1911    -6696   -11514   -15822   -19021   -20839   -21404 
  -20875   -19579   -17965   -16057   -13480    -9970    -5482     -138 
    5463    10204    13076    13572    11727     8163     3699    -1083 
   -5650    -9393   -11902   -13121   -13256   -12618   -11468   -10014 
   -8635    -7922    -8140    -8900    -9641    -9958    -9533    -8492 
   -7454    -6852    -6862    -7790    -9827   -12743   -15990   -18779 
  -20164   -19519   -17040   -13512    -9772    -6610    -4720    -4371 
   -5303    -7045    -8994   -10423   -10910   -10526    -9603    -8564 
   -7786    -7655    -8519   -10290   -12420   -14392   -16000   -17144 
  -17511   -16474   -13604    -9278    -4473      -35     3713     6721 
    8707     9028     7187     3312    -2025    -7980   -13376   -17044 
  -18344   -17392   -14869   -11620    -8432    -5718    -3345    -1158 
     659     1805     1957      859    -1353    -4210    -7384   -10694 
  -13799   -16395   -18291   -19151   -18704   -17050   -14480   -11323 
   -7984    -4909    -2580    -1693    -3031    -6791   -12133   -17592 
  -21895   -24345   -24756   -23218   -19859   -14791    -8328    -1169 
    5574    10686    13457    14034    13155    11482     9196     6342 
    2986    -1222    -6667   -13011   -19455   -25246   -29766   -32570 
  -33346   -32009   -28785   -23963   -17988   -11627    -5647     -727 
    2582     4030     3303      221    -4389    -9119   -13005   -15411 
  -15822   -14300   -11512    -8051    -4219     -586     1861     2217 
     109    -4176   -10032   -16594   -22672   -27429   -30652   -32344 
  -32552   -31451   -29317   -26166   -21854   -16602   -10879    -5320 
    -597     3358     7025    10030    11395    10783     8535     5098 
    1126    -2784    -6680   -10698   -14589   -18253   -21565   -23833 
  -24444   -23505   -21345   -18051   -13749    -9063    -4763    -1086 
    1699     3020     2814     1402     -864    -3538    -6377    -9065 
  -11135   -12575   -13554   -14036   -13932   -12922   -10679    -7502 
   -4209    -1479      465     1425     1051     -640    -3291    -6661 
  -10580   -14564   -17957   -20493   -21992   -21931   -20253   -17525 
  -14080   -10158    -6367    -3369    -1540     -864    -1089    -2121 
   -3882    -6134    -8820   -11822   -14721   -17313   -19529   -21058 
  -21562   -20736   -18345   -14482    -9726    -4986     -916     2139 
    3814     4026     2856      135    -3846    -8008   -11560   -14336 
  -16167   -16943   -16797   -15727   -13568   -10477    -7093    -4053 
   -1655      -33      787     1044     1011      707      121     -931 
   -2991    -6188   -10081   -14357   -18594   -21967   -23736   -23552 
  -21475   -17895   -13348    -8420    -3670      522     3866     5833 
    5985     4444     1565    -2204    -6152    -9642   -12297   -13877 
  -14318   -13786   -12585   -10922    -8965    -7305    -6652    -7096 
   -8317    -9825   -10757   -10312    -8371    -5325    -1706     1788 
    4302     5246     4557     2471     -681    -4419    -8114   -11342 
  -14037   -16142   -17680   -18940   -19764   -19399   -17538   -14615 
  -11198    -7785    -4798    -2420     -553      883     1710     1713 
     822    -1008    -3671    -6710    -9654   -12341   -14632   -16191 
  -16797   -16665   -16273   -15869   -15167   -13670   -11172    -7941 
   -4768    -2623    -2083    -3159    -5313    -7751    -9946   -11755 
  -13240   -14421   -14919   -14157   -11924    -8460    -4412     -801 
    1542     2507     2469     1648      -51    -2467    -5035    -7325 
   -9112   -10089   -10162    -9747    -9428    -9656   -10603   -11900 
  -12893   -13276   -13263   -13080   -12539   -11504   -10238    -8902 
   -7510    -6385    -5755    -5198    -4093    -2181      409     3293 
    5973     7852     8399     7383     4828      953    -3803    -8842 
  -13411   -16786   -18763   -19610   -19468   -18278   -16108   -13332 
  -10548    -8028    -5496    -2813     -207     2089     3808     4476 
    3533      756    -3335    -7718   -11531   -14395   -16276   -17441 
  -18389   -19578   -21218   -22989   -24160   -24331   -23396   -21145 
  -17611   -13208    -8576    -4423    -1248      436     -130    -3285 
   -8279   -13710   -18647   -22843   -25951   -27498   -27450   -25980 
  -23188   -19356   -14838    -9999    -5493    -1804     1235     3931 
    6347     8261     9042     7923     4421    -1378    -8691   -16217 
  -22505   -26342   -27132   -25075   -20965   -15554    -9126    -2071 
    4468     9234    11812    12408    11327     8995     5561      687 
   -5486   -12025   -18098   -23160   -26488   -27549   -26658   -24538 
  -21590   -17980   -13886    -9576    -5498    -2063      550     2395 
    3758     4913     5773     5964     5140     3227      348    -3350 
   -7689   -12244   -15957   -17497   -16503   -13801   -10432    -7204 
   -4700    -3112    -2328    -2178    -2561    -3479    -4880    -6589 
   -8451   -10269   -11847   -13201   -14243   -14597   -14156   -13327 
  -12462   -11533   -10594   -10004   -10029   -10771   -12391   -14874 
  -17832   -20784   -23192   -24356   -23887   -22063   -19402   -16175 
  -12466    -8376    -4087       24     3343     5423     6532     7494 
    8810    10276    11326    11105     8631     3572    -3262   -10417 
  -16640   -21238   -23985   -25061   -24755   -23088   -19963   -15487 
  -10083    -4572      -18     2646     3112     1845     -531    -3657 
   -7166   -10619   -13634   -15612   -15841   -14435   -12352   -10272 
   -8394    -6865    -5497    -3757    -1541      708     2560     3635 
    3407     1509    -1811    -5812    -9533   -11973   -12665   -11729 
   -9179    -5097     -266     4230     7755    10071    11003    10585 
    9087     6685     3442     -476    -4882    -9480   -13657   -16881 
  -18962   -19811   -19589   -18861   -17924   -16253   -13293    -9516 
   -6082    -3910    -3375    -4556    -7440   -11807   -17173   -22859 
  -28038   -31947   -33944   -33480   -30492   -25663   -19991   -14379 
   -9593    -5989    -3232     -762     1498     3090     3449     2422 
     524    -1579    -3701    -5997    -8496   -11048   -13618   -16128 
  -17942   -18280   -16943   -14047    -9959    -5525    -1544     1586 
    3845     5640     7304     8512     8782     8188     6960     4859 
    1497    -3309    -9488   -16327   -22702   -27925   -31834   -34468 
  -35888   -36110   -35084   -32505   -27984   -21510   -13620    -5503 
    1279     5617     7153     6116     3173     -918    -5579   -10427 
  -15093   -18890   -21172   -21842   -20994   -18648   -14934   -10015 
   -4072     2480     8867    14108    17338    18044    16249    12573 
    7950     3203    -1118    -4664    -7358    -9501   -11310   -12566 
  -13054   -12836   -12198   -11517   -11037   -10903   -10959   -10530 
   -9200    -7390    -5731    -4558    -4126    -4660    -6029    -7751 
   -9267   -10028    -9688    -8434    -6719    -4790    -2850    -1067 
     759     2689     4197     4910     4870     3934     1882    -1127 
   -4641    -8055   -10680   -12003   -11916   -10693    -8848    -7099 
   -6176    -6251    -6859    -7664    -8573    -9222    -9256    -8731 
   -7896    -7024    -6547    -6969    -8491   -10867   -13600   -16040 
  -17469   -17448   -16018   -13453   -10416    -8046    -6957    -6824 
   -7183    -7711    -7962    -7585    -6745    -6009    -5819    -6233 
   -7086    -8214    -9459   -10501   -10942   -10830   -10726   -10867 
  -10896   -10491    -9514    -7701    -4899    -1448     2104     5366 
    8004     9639     9800     7966     4050    -1274    -6875   -11796 
  -15665   -18437   -20071   -20767   -20956   -20872   -20541   -19834 
  -18349   -15792   -12514    -9119    -5946    -3454    -2428    -3316 
   -5825    -9313   -13186   -16916   -20046   -22292   -23491   -23331 
  -21413   -17892   -13644    -9445    -5314     -949     3404     6824 
    8280     7165     3571    -1703    -7576   -13146   -17702   -20722 
  -22050   -21640   -19472   -16148   -12767    -9912    -7538    -5608 
   -4099    -2827    -1721    -1032    -1205    -2618    -5272    -8631 
  -11898   -14459   -15923   -16080   -15058   -13201   -10871    -8619 
   -7027    -6356    -6802    -8419   -10679   -12899   -14600   -15294 
  -14769   -13232   -10970    -8359    -5953    -4179    -2999    -2112 
   -1343     -753     -726    -1769    -3948    -6843    -9948   -12841 
  -15117   -16397   -16544   -15729   -14287   -12493   -10368    -7812 
   -4941    -2173      -27     1031      776     -464    -2088    -3752 
   -5230    -6206    -6312    -5178    -2827       62     2532     3805 
    3472     1603    -1217    -4193    -6718    -8365    -8860    -8384 
   -7457    -6440    -5505    -4747    -4046    -3156    -1972     -477 
    1243     2804     3727     3886     3477     2694     1691      664 
    -290    -1288    -2413    -3540    -4513    -5276    -5750    -5637 
   -4641    -2856     -542     2167     5061     7532     8567     7316 
    3587    -2065    -8436   -14293   -18964   -22124   -23663   -23880 
  -23152   -21558   -19170   -16278   -13185   -10185    -7600    -5575 
   -3968    -2547    -1364     -763     -932    -1708    -2812    -4170 
   -5927    -8054   -10282   -12264   -13579   -13918   -13326   -12264 
  -11382   -11129   -11630   -12599   -13618   -14500   -14945   -14370 
  -12457    -9544    -6293    -3173     -527     1338     2292     2407 
    1747      170    -2285    -5301    -8780   -12480   -15683   -17824 
  -18668   -18157   -16465   -13893   -10819    -7611    -4513    -1807 
     252     1552     1864      943    -1128    -4219    -8185   -12386 
  -15856   -17984   -18847   -19079   -19280   -19489   -19315   -18249 
  -15974   -12720    -9233    -6297    -4269    -2998    -2177    -1775 
   -2018    -2995    -4585    -6535    -8507   -10289   -11828   -12923 
  -13184   -12433   -10904    -9049    -7308    -5840    -4621    -3768 
   -3259    -2779    -2233    -1761    -1308     -646      351     1263 
    1049    -1013    -4542    -8464   -11784   -13853   -14278   -12911 
  -10090    -6637    -3445    -1296     -671    -1360    -2817    -4797 
   -7075    -9062   -10165   -10292    -9867    -9483    -9546   -10267 
  -11642   -13281   -14707   -15689   -16161   -16334   -16641   -17205 
  -17712   -17907   -18046   -18560   -19415   -20193   -20416   -19692 
  -17987   -15644   -13044   -10360    -7641    -5176    -3703    -3969 
   -6042    -9247   -12737   -15816   -18073   -19471   -20084   -19967 
  -19184   -17618   -15086   -11758    -8291    -5512    -3900    -3439 
   -3906    -4921    -5966    -6877    -8051    -9805   -11721   -12926 
  -12957   -12084   -10865    -9642    -8478    -7394    -6370    -5273 
   -4105    -3176    -2940    -3770    -5775    -8655   -11843   -14817 
  -17068   -18088   -17706   -16227   -14261   -12428   -11199   -10809 
  -10950   -10924   -10399    -9743    -9539    -9980   -10877   -11851 
  -12493   -12811   -13074   -13158   -12697   -11535    -9657    -7192 
   -4706    -2973    -2426    -3112    -4691    -6422    -7599    -7957 
   -7609    -6749    -5714    -4959    -4544    -3989    -2815    -1102 
     655     2128     3171     3632     3558     3130     2438     1530 
     264    -1766    -4660    -7880   -10695   -12671   -13701   -13883 
  -13662   -13548   -13616   -13893   -14560   -15560   -16595   -17272 
  -17412   -17241   -16790   -15683   -13856   -11754    -9762    -8179 
   -7521    -8041    -9323   -10920   -12621   -13987   -14660   -14842 
  -14679   -13960   -12639   -10913    -9033    -7340    -6266    -6219 
   -7300    -9188   -11376   -13470   -15126   -15881   -15573   -14524 
  -13042   -11460   -10259    -9690    -9813   -10589   -11647   -12398 
  -12405   -11645   -10287    -8204    -5363    -2422     -163     1106 
    1461     1283     1000      806      858     1307     2014     2600 
    2858     3036     3377     3572     3104     1612    -1026    -4522 
   -8338   -11876   -14469   -15654   -15579   -14820   -13809   -12691 
  -11579   -10565    -9631    -8720    -7833    -7163    -7041    -7593 
   -8709   -10334   -12459   -14873   -17099   -18558   -18801   -17721 
  -15645   -13274   -11348   -10053    -8926    -7431    -5454    -3262 
