Origin Time       2011/03/11 14:46:00
Lat.              38.103
Long.             142.860
Depth. (km)       24
Mag.              9.0
Station Code      HKD038
Station Lat.      43.1666
Station Long.     142.5662
Station Height(m) 353
Record Time       2011/03/11 14:48:17
Sampling Freq(Hz) 100Hz
Duration Time(s)  275
Dir.              U-D
Scale Factor      3920(gal)/6182761
Max. Acc. (gal)   4.159
Last Correction   2011/03/11 14:48:02
Memo.             
[...]
   18100    18262    18368    18365    18325    18325    18438    18485 
   18167    17549    16822    16006    15372    15260    15421    15397 
   15163    14837    14433    14102    14066    14308    14576    14649 
   14512    14303    14111    13886    13629    13451    13295    13027 
   12796    12818    12920    12856    12861    13183    13523    13674 
   13864    14030    13858    13502    13264    13067    12906    12993 
   13244    13450    13654    13742    13420    12932    12822    12971 
   12964    12935    13034    12924    12618    12568    12564    12143 
   11745    11799    11867    11773    11853    11986    11926    11925 
   12142    12333    12403    12456    12586    12898    13209    13239 
   13217    13402    13568    13608    13690    13785    13932    14308 
   14737    15093    15599    16066    16043    15776    15760    15894 
   15981    16091    16117    15941    15698    15363    14872    14587 
   14694    14715    14390    14256    14693    15252    15424    15276 
   14998    14491    13795    13331    13327    13538    13758    13926 
   13816    13404    13054    12905    12864    13073    13557    13957 
   14090    14059    13872    13633    13485    13151    12562    12273 
   12392    12420    12287    12157    11902    11616    11555    11502 
   11231    11097    11364    11810    12292    12851    13319    13522 
   13575    13647    13697    13494    13016    12770    13073    13369 
   13128    12641    12276    12024    11975    12050    11730    11055 
   10695    10709    10690    10708    10857    10815    10567    10572 
   10924    11231    11345    11489    11686    11691    11553    11716 
   12322    12888    12961    12681    12476    12531    12568    12316 
   12145    12487    12900    12840    12719    12980    13247    13343 
   13673    14201    14532    14704    14768    14489    14143    14286 
   14697    14838    14847    15004    14960    14375    13700    13629 
   14031    14136    13630    12791    11985    11686    12102    12626 
   12672    12575    12842    13281    13433    13184    12741    12493 
   12660    13012    13256    13313    13240    13202    13158    12929 
   12782    13127    13792    14373    14685    14621    14298    14136 
   14235    14131    13659    13380    13556    13760    13874    14162 
   14406    14245    14058    14432    15036    15093    14726    14636 
   14842    14962    15085    15379    15679    15828    15853    15895 
   16055    16165    16063    15994    16107    16118    16048    16246 
   16487    16303    15849    15514    15320    15068    14632    14126 
   13693    13226    12792    12769    13081    13245    13115    12748 
   12238    11968    12067    12064    11748    11478    11481    11698 
   12044    12361    12489    12465    12371    12228    12166    12381 
   12850    13281    13444    13364    13114    12726    12396    12353 
   12518    12603    12518    12447    12441    12382    12264    12013 
   11607    11424    11595    11662    11582    11760    11980    11903 
   11962    12306    12419    12419    12686    12764    12429    12349 
   12686    12810    12640    12737    13205    13573    13668    13853 
   14279    14551    14470    14403    14505    14474    14236    13867 
   13374    13132    13341    13376    13014    12988    13414    13531 
   13125    12682    12606    12908    13276    13471    13485    13295 
   13108    13305    13603    13448    13184    13278    13392    13490 
   13994    14455    14228    13838    13923    14118    14000    13849 
   14016    14434    14940    15522    16213    16896    17302    17378 
   17288    17100    17064    17541    18164    18310    18258    18491 
   18622    18242    17740    17465    17167    16605    15956    15556 
   15477    15450    15308    15148    15037    14880    14557    14101 
   13724    13601    13672    13739    13855    14212    14642    14917 
   15042    14887    14448    14268    14656    15140    15310    15353 
   15448    15493    15531    15711    15845    15600    15003    14360 
   13917    13677    13402    13029    12857    12878    12721    12519 
   12713    13045    12895    12355    12078    12292    12717    13111 
   13343    13357    13328    13399    13464    13542    13730    13785 
   13584    13534    13830    14195    14483    14640    14547    14398 
   14403    14327    14164    14333    14757    14862    14550    14284 
   14325    14376    14129    13819    13875    14295    14661    14672 
   14474    14334    14231    14082    13832    13354    12891    12857 
   12866    12350    11790    11758    11834    11716    11890    12520 
   12959    12744    12259    11998    11830    11578    11576    11957 
   12290    12450    12691    12866    12779    12711    12761    12597 
   12340    12624    13454    14234    14877    15468    15622    15322 
   15018    14686    14297    14397    15041    15529    15652    15777 
   15977    16062    15937    15719    15733    16044    16212    15966 
   15529    15129    14850    14787    14891    14977    14900    14629 
   14346    14215    14075    13793    13538    13477    13624    13967 
   14469    14853    14756    14377    14248    14411    14639    14905 
   15102    14984    14712    14761    15088    15241    15217    15127 
   14721    14199    14182    14527    14601    14458    14462    14556 
   14605    14514    14164    13840    13844    13880    13758    13799 
   13974    13878    13536    13212    12845    12388    12012    11734 
   11432    11064    10625    10224    10030     9885     9580     9365 
    9480     9845    10406    10910    11056    11204    11679    12087 
   12342    12782    13045    12830    12933    13745    14344    14264 
   14149    14212    14124    14227    14871    15321    15037    14757 
   14916    14854    14450    14404    14659    14631    14557    14896 
   15224    15004    14406    13769    13347    13335    13375    13029 
   12675    12634    12496    12241    12211    12034    11454    11103 
   11256    11344    11051    10742    10786    11105    11445    11643 
   11571    11319    11300    11671    12010    11981    11778    11733 
   11928    12172    12289    12425    12811    13361    13805    13986 
   13934    13882    14161    14788    15368    15551    15429    15368 
   15496    15506    15135    14605    14273    14175    14218    14387 
   14570    14606    14472    14210    13848    13386    12862    12467 
   12254    12029    11839    11831    11831    11904    12341    12761 
   12713    12633    12809    12726    12345    12418    13114    13796 
   14123    14256    14298    14175    13862    13558    13541    13826 
   14262    14832    15468    15843    15832    15753    15902    16163 
   16273    16290    16499    16857    17118    17322    17492    17341 
   16790    16125    15512    14930    14385    13824    13275    12947 
   12877    12913    12987    13037    12987    12912    12809    12425 
   11808    11439    11340    11059    10778    10950    11159    10913 
   10650    10690    10643    10494    10592    10826    11099    11635 
   12325    12796    12995    13039    12902    12588    12356    12528 
   13047    13603    14128    14598    14729    14516    14389    14548 
   14839    15210    15826    16634    17137    17022    16614    16225 
   15717    15022    14443    14167    13949    13572    13269    13332 
   13563    13599    13472    13404    13393    13302    13150    13099 
   13235    13497    13807    14057    14086    14067    14512    15309 
   15535    14810    13854    13400    13431    13642    13885    13943 
   13597    13135    12998    13073    13060    13064    13195    13193 
   12950    12802    12916    12957    12615    12101    11831    11758 
   11436    10855    10577    10832    11249    11610    11957    12275 
   12732    13420    13895    14035    14320    14665    14692    14676 
   14761    14714    14936    15746    16295    16025    15735    15969 
   16195    16029    15723    15448    15018    14383    13962    13972 
   13912    13548    13407    13624    13607    13188    12782    12486 
   12133    11860    11832    11887    11813    11701    11852    12173 
   12096    11514    11042    10962    10969    11000    11294    11852 
   12348    12509    12548    12816    13100    13013    12710    12505 
   12298    11836    11183    10720    10631    10591    10392    10387 
   10687    10805    10577    10312    10135    10115    10361    10557 
   10364    10068    10054    10103     9826     9395     9287     9515 
    9697     9687     9660     9807    10132    10463    10711    10934 
   11126    11199    11220    11305    11296    11110    11121    11476 
   11718    11648    11603    11627    11427    11063    10781    10551 
   10265     9928     9686     9839    10304    10522    10407    10434 
   10645    10751    10769    10769    10732    10851    11175    11482 
   11853    12384    12701    12683    12679    12728    12651    12577 
   12561    12392    12139    12077    12150    12214    12375    12648 
   12859    12928    12852    12807    13113    13639    13909    13889 
   13860    13847    13742    13595    13511    13497    13540    13626 
   13624    13484    13392    13298    12852    12154    11712    11592 
   11531    11612    11912    11989    11621    11319    11237    10895 
   10501    10689    11074    11019    10994    11479    11878    11867 
   12069    12562    12716    12711    13172    13818    14091    14118 
   14128    14095    14058    14005    13929    14045    14327    14486 
   14533    14493    14136    13675    13698    14201    14689    14933 
   14998    14951    14793    14491    14145    13889    13617    13268 
   13182    13592    14040    14062    13997    14276    14570    14493 
   14437    14739    14912    14727    14693    14737    14314    13868 
   14055    14316    14131    14091    14402    14441    14288    14507 
   14750    14327    13487    13008    13024    13046    12841    12618 
   12576    12733    12925    12961    12951    13064    13192    13301 
   13527    13749    13875    14197    14743    15066    15029    14901 
   14861    15014    15364    15652    15755    15836    15855    15664 
   15409    15291    15272    15235    15127    14974    14841    14687 
   14450    14216    13986    13614    13194    13048    13251    13498 
   13556    13687    14254    15048    15577    15742    15700    15574 
   15621    16055    16570    16647    16357    16238    16444    16752 
   17108    17371    17239    17009    17271    17794    18073    18220 
   18280    18006    17652    17651    17876    18003    18030    17994 
   17762    17372    17069    16841    16495    16181    16153    16308 
   16558    16963    17228    17037    16624    16292    16027    15859 
   15868    15889    15759    15587    15521    15576    15743    15920 
   15921    15818    15862    15886    15563    15155    15012    14878 
   14642    14752    15218    15554    15776    16088    16141    15751 
   15402    15353    15265    15001    14918    15095    15084    14867 
   14944    15155    14923    14664    15074    15570    15455    15344 
   15586    15421    14849    14743    15025    14964    14491    13980 
   13665    13607    13741    13938    14049    14067    14165    14331 
   14454    14674    15066    15465    15821    16109    16169    16092 
   16072    15928    15649    15594    15660    15474    15252    15252 
   15096    14629    14298    14141    13858    13706    13857    13742 
   13194    12897    13089    13296    13407    13654    13805    13430 
   12722    12366    12602    12939    12939    12714    12437    12079 
   11912    12308    12809    12649    12053    11710    11611    11553 
   11822    12374    12483    12012    11738    11958    12179    12205 
   12259    12402    12636    12999    13245    13099    12839    12894 
   13082    12970    12587    12241    12088    12058    12007    11923 
   11791    11485    11108    10918    10850    10712    10551    10517 
   10737    11164    11373    11142    10852    10775    10807    10980 
   11365    11813    12082    12030    11872    12072    12616    12852 
   12493    12063    11895    11745    11663    11871    11924    11395 
   10736    10464    10344     9985     9517     9227     9124     9252 
    9744    10399    10799    10835    10791    10937    11161    11222 
   11248    11501    11848    12084    12419    13067    13780    14149 
   14078    13878    13880    13931    13838    14050    14705    14931 
   14484    14334    14780    15063    14937    14835    14875    14857 
   14856    15113    15544    15769    15665    15591    15746    15879 
   15994    16385    16620    15907    14786    14580    15156    15405 
   15324    15443    15437    15110    15064    15311    15084    14356 
   13858    13821    13856    13650    13303    13185    13342    13361 
   13266    13659    14579    15400    15962    16510    16865    16793 
   16570    16504    16569    16658    16716    16730    16757    16762 
   16607    16357    16180    15986    15751    15711    15807    15789 
   15811    15940    15759    15320    15286    15663    15815    15648 
   15480    15197    14762    14727    15074    14970    14451    14355 
   14532    14378    14238    14365    14164    13558    13287    13625 
   14170    14523    14549    14502    14838    15522    16069    16343 
   16676    17236    17896    18458    18705    18687    18740    18961 
   19252    19676    20222    20524    20214    19485    18823    18186 
   17254    16381    16116    16106    15793    15396    15191    14896 
   14387    14058    14026    13855    13398    12989    12711    12389 
   12186    12381    12717    12732    12569    12766    13371    13917 
   14145    14224    14338    14486    14727    15163    15598    15661 
   15296    14911    14870    15017    15124    15332    15628    15748 
   15749    15742    15412    14560    13714    13545    13801    13657 
   13238    13462    14343    15056    15288    15196    14801    14230 
   13784    13441    12971    12559    12510    12592    12434    12094 
   11837    11743    11690    11663    11835    12157    12325    12245 
   12180    12369    12642    12738    12911    13407    13772    13717 
   13684    13821    13821    13933    14477    14906    14779    14589 
   14716    14863    14861    14850    14770    14596    14613    14796 
   14752    14538    14405    14150    13716    13427    13312    13349 
   13673    13949    13834    13736    13957    14190    14381    14768 
   15100    14949    14533    14353    14494    14866    15376    15649 
   15512    15421    15637    15751    15524    15259    15093    14817 
   14486    14490    14991    15618    15880    15718    15389    15084 
   14963    15128    15508    15959    16287    16375    16380    16295 
   15779    14940    14400    14297    14229    14049    13940    13990 
   14043    13895    13652    13553    13519    13366    13178    13105 
   13106    13122    13221    13468    13777    13859    13540    13221 
   13432    13950    14158    13958    13536    12964    12654    12981 
   13365    13093    12524    12405    12740    13065    13331    13746 
   13925    13410    12777    12784    13143    13345    13508    13621 
   13434    13306    13720    14315    14579    14680    14824    14885 
   15088    15626    15835    15319    14918    15148    15305    15052 
   14863    14696    14207    13789    13962    14483    14828    14817 
   14601    14460    14354    13876    13178    12990    13209    12985 
   12249    11620    11231    10966    11058    11426    11509    11347 
   11484    11808    11886    11932    12233    12436    12214    11870 
   11759    11839    12082    12618    13292    13754    13919    13931 
   13990    14190    14353    14348    14345    14352    14173    13959 
   13998    14143    14109    13992    13959    13998    14320    15096 
   15701    15474    14912    14689    14543    14387    14681    15130 
   15036    14633    14470    14445    14329    14187    14187    14385 
   14544    14489    14515    14796    14890    14486    13934    13679 
   13782    14038    14233    14298    14203    13915    13619    13588 
   13725    13645    13185    12619    12451    12836    13364    13709 
   13946    14176    14386    14420    14088    13730    13866    14069 
   13725    13366    13440    13343    12937    12830    12952    12971 
   13217    13750    13953    13680    13415    13391    13449    13414 
   13305    13292    13269    12979    12636    12626    12898    13198 
   13355    13305    13140    13107    13382    13763    13871    13759 
   13845    14253    14736    15103    15247    15163    15091    15164 
   15270    15371    15347    15040    14698    14683    14998    15477 
   15931    16114    15887    15404    15125    15394    15935    16353 
   16766    17128    17017    16701    16886    17458    17882    18120 
   18271    18241    18059    17917    17849    17642    17249    16950 
   16781    16408    15853    15535    15488    15338    15091    15082 
   15219    15113    14829    14653    14449    14217    14450    14996 
   15112    14948    15069    15182    15032    14996    14987    14632 
   14328    14596    15137    15425    15461    15538    15623    15393 
   14892    14532    14358    14067    13662    13461    13588    13860 
   14144    14448    14570    14244    13673    13301    13128    12833 
   12375    11975    11689    11414    11192    11150    11127    10841 
   10471    10256     9926     9539     9696    10260    10553    10728 
   11189    11592    11638    11675    11996    12415    12705    13069 
   13879    14916    15479    15410    15211    15100    14975    15082 
   15661    16379    16945    17541    18063    18002    17490    17263 
   17396    17295    16840    16345    15902    15741    16173    16771 
   16887    16623    16307    15868    15278    14839    14705    14654 
   14557    14520    14617    14908    15256    15200    14627    13894 
   13099    12388    12316    12758    12842    12549    12572    12817 
   12718    12278    11736    11200    10977    11236    11561    11666 
   11859    12235    12354    12001    11638    11828    12455    12974 
   13256    13498    13692    13825    14053    14376    14545    14448 
   14338    14453    14632    14729    14922    15187    15201    14983 
   14860    14836    14572    13929    13321    13286    13649    13873 
   14049    14421    14656    14516    14248    14080    13982    13708 
   13103    12556    12575    12973    13100    12775    12503    12746 
   13257    13484    13436    13444    13361    13021    12800    12853 
   12832    12747    12881    13162    13576    14184    14553    14441 
   14309    14370    14494    14799    15197    15446    15790    16243 
   16369    16450    16916    17134    16669    16191    15942    15447 
   14933    14938    15221    15439    15664    15842    15871    15928 
   16098    16213    16202    16182    16215    16173    15889    15516 
   15406    15519    15449    15078    14736    14655    14651    14558 
   14527    14626    14651    14514    14325    14183    14198    14324 
   14210    13815    13704    14180    14783    15122    15324    15373 
   15169    15084    15263    15286    15314    15877    16454    16358 
