Origin Time       2011/03/11 14:46:00
Lat.              38.103
Long.             142.860
Depth. (km)       24
Mag.              9.0
Station Code      HKD066
Station Lat.      43.6619
Station Long.     145.1307
Station Height(m) 3
Record Time       2011/03/11 14:48:13
Sampling Freq(Hz) 100Hz
Duration Time(s)  300
Dir.              N-S
Scale Factor      3920(gal)/6182761
Max. Acc. (gal)   29.666
Last Correction   2011/03/11 14:47:58
Memo.             
[...]
    7012     9013    11141    13143    14765    15722    15729    14859 
   13503    11991    10610     9606     9042     8893     9083     9329 
    9194     8327     6693     4598     2332       60    -1800    -2650 
   -2013      351     4193     8794    13365    17385    20632    22941 
   24240    24645    24235    23015    21195    19326    17932    17093 
   16603    16206    15650    14748    13341    11340     8840     6156 
    3731     1895      772      366      577     1250     2423     4261 
    6747     9665    12648    15232    17102    18213    18685    18707 
   18530    18310    18040    17781    17665    17699    17729    17554 
   17101    16268    14736    12353     9488     6664     4131     2039 
     728      555     1547     3466     6285    10169    14977    20281 
   25575    30129    33421    35682    37211    38095    38701    39048 
   38445    36483    33187    28401    22026    14466     6332    -1800 
   -9273   -15401   -19471   -20930   -20057   -17791   -14833   -11512 
   -8019    -4406     -622     3507     8164    13363    18944    24562 
   29676    33671    36113    36810    35650    32705    28448    23638 
   18970    14786    11013     7403     3943      800    -1912    -3979 
   -5243    -5901    -6149    -5924    -5118    -3705    -1709      822 
    3712     6559     9007    10932    12278    12977    13049    12624 
   11971    11451    11302    11608    12487    13958    15767    17577 
   19103    20253    21190    22027    22735    23264    23516    23327 
   22483    20875    18628    16077    13720    11963    10901    10410 
   10349    10558    10709    10439     9621     8494     7580     7308 
    7842     9195    11183    13448    15515    16836    17059    16236 
   14677    12814    11192    10224     9831     9592     9176     8433 
    7265     5662     3754     1787      184     -534     -109     1380 
    3732     6541     9269    11704    13904    15974    18147    20550 
   23036    25468    27656    29163    29652    29033    27256    24360 
   20570    16326    12136     8410     5575     3988     3698     4455 
    5914     7718     9283     9922     9355     7675     5074     1813 
   -1737    -4987    -7389    -8976   -10228   -11507   -12813   -13824 
  -14135   -13458   -11674    -9008    -5901    -2686      339     3040 
    5536     7768     9628    11273    12849    14368    15803    17114 
   18252    19060    19336    19046    18433    17902    17747    17977 
   18427    18901    19254    19461    19577    19690    19916    20374 
   21180    22317    23573    24677    25306    25235    24572    23471 
   21920    20010    17938    15768    13423    10806     7942     4962 
    2030     -637    -2816    -4290    -4866    -4507    -3369    -1610 
     735     3739     7471    11791    16343    20778    24870    28471 
   31516    34073    36370    38584    40592    42124    42934    42681 
   41032    38044    34224    30193    26423    23124    20314    17946 
   15780    13505    11324     9813     9138     9100     9703    11122 
   13395    16451    19984    23347    25879    27145    26860    25010 
   22067    18728    15654    13477    12551    12823    13990    15598 
   17176    18310    18756    18545    17789    16574    15139    13925 
   13380    13633    14272    14741    14852    14586    13775    12223 
   10053     7680     5467     3801     3236     4075     6069     8709 
   11453    13779    15350    16028    15910    15339    14455    13127 
   11501    10027     8994     8328     7706     6837     5746     4776 
    4241     4184     4589     5384     6149     6208     5143     3052 
     287    -2842    -6039    -9025   -11517   -13224   -14090   -14272 
  -13899   -13114   -12117   -11009    -9700    -8034    -5895    -3132 
     389     4629     9367    14306    19225    23976    28386    32230 
   35185    36927    37341    36472    34457    31594    28324    25161 
   22474    20334    18704    17508    16610    15936    15462    15158 
   15136    15651    16937    19077    21975    25481    29424    33418 
   36854    39240    40325    40006    38357    35664    32388    28984 
   25672    22489    19329    15952    12269     8357     4192     -141 
   -4330    -8100   -11291   -13945   -16345   -18513   -20047   -20655 
  -20339   -19179   -17232   -14549   -11223    -7462    -3576      174 
    3550     6319     8420     9754    10055     9313     7906     6389 
    5253     4606     4263     4082     3923     3586     2874     1691 
     318     -634     -718      311     2643     6133    10328    14802 
   19187    23213    26784    29863    32338    33970    34524    33965 
   32374    29827    26534    22948    19640    17054    15317    14421 
   14426    15351    17023    19007    20756    21858    22159    21850 
   21298    20646    19861    19180    18951    19093    19287    19337 
   19047    18233    16847    14986    12892    10638     8017     5099 
    2374      139    -1449    -1973    -1197      715     3541     6971 
   10566    13859    16443    18192    19308    20089    20728    21248 
   21583    21622    21163    20024    18167    15699    12844     9893 
    7054     4454     2250      508     -780    -1487    -1513     -923 
     240     2006     4304     6829     9219    11151    12358    12845 
   12731    12067    11060     9959     8856     7882     7370     7664 
    8840    10779    13360    16514    20169    24070    27837    31267 
   34302    36845    38865    40444    41511    41812    41296    40182 
   38592    36469    33603    29665    24605    18744    12498     6470 
    1388    -2266    -4338    -5035    -4805    -3924    -2512     -919 
     485     1725     2996     4335     5638     6786     7812     8818 
    9779    10627    11289    11657    11611    10827     9106     6790 
    4152     1304    -1353    -3433    -4777    -5306    -5043    -4116 
   -2700     -914     1205     3548     5917     8188    10301    12196 
   13989    15783    17418    18847    20190    21468    22747    24130 
   25553    26835    27645    27553    26436    24454    21688    18219 
   14253    10056     5979     2346     -668    -3004    -4642    -5561 
   -5753    -5209    -3942    -2071       93     2131     3971     5755 
    7265     8380     9379    10360    11348    12610    14258    15978 
   17403    18504    19342    19750    19579    18954    18211    17780 
   17969    18749    19955    21434    22941    24223    25088    25399 
   25136    24336    23104    21765    20677    19975    19710    19897 
   20310    20641    20662    20080    18705    16646    14087    11248 
    8436     5789     3265      911    -1177    -3011    -4458    -5179 
   -5017    -4106    -2616     -695     1422     3374     4869     6041 
    7185     8316     9535    11003    12649    14391    15922    16765 
   16727    15716    13750    11104     8124     5129     2436      474 
    -330      162     1837     4451     7651    11191    15001    19019 
   23054    26775    29871    32194    33759    34665    34955    34530 
   33348    31611    29558    27279    24810    22193    19455    16635 
   13846    11203     8738     6430     4234     2215      668     -165 
    -285      297     1657     3693     6100     8632    11052    12919 
   13812    13604    12377    10480     8500     6958     6237     6531 
    7716     9545    11774    13967    15686    16975    18126    19200 
   20122    20876    21394    21474    20955    19988    18830    17533 
   16083    14582    13114    11534     9643     7521     5409     3466 
    1927     1222     1569     2673     4145     5741     7107     7983 
    8390     8393     8253     8354     8657     8990     9453    10068 
   10658    11088    11386    11660    11848    11728    11228    10436 
    9441     8359     7229     5974     4624     3398     2655     2780 
    3961     6114     8962    12119    15171    17805    19903    21484 
   22664    23578    24276    24810    25242    25552    25762    25896 
   25798    25205    23878    21640    18444    14397     9662     4553 
    -328    -4379    -7264    -8757    -8755    -7490    -5305    -2485 
     543     3472     6242     8696    10748    12497    13959    15205 
   16459    17960    19868    22064    24087    25418    25766    25048 
   23100    19809    15483    10779     6349     2589     -262    -1966 
   -2533    -2369    -1880    -1140     -135     1104     2749     5137 
    8459    12605    17261    22122    26967    31657    36137    40321 
   44009    46917    48700    48988    47435    43933    38778    32422 
   25404    18524    12697     8560     6146     5029     4845     5367 
    6298     7285     7951     8104     7959     7885     8055     8396 
    8679     8706     8400     7754     6725     5229     3310     1155 
   -1085    -3314    -5366    -7072    -8363    -9245    -9769    -9817 
   -9069    -7356    -4767    -1522     2100     5806     9142    11608 
   13023    13462    13106    12259    11238    10391    10050    10259 
   10883    11820    13045    14614    16548    18817    21406    24315 
   27535    30866    33854    36113    37541    38216    38203    37545 
   36401    34929    33138    30989    28444    25517    22339    19069 
   15921    13084    10560     8343     6499     4901     3307     1699 
     375     -300     -295      111      812     1840     2970     3853 
    4365     4682     5250     6518     8574    11126    13820    16368 
   18388    19555    19909    19621    18855    17874    16834    15794 
   14795    13668    12298    10862     9520     8439     7878     7961 
    8730    10133    11807    13253    14180    14562    14590    14504 
   14361    14087    13684    13250    12877    12476    11782    10637 
    9076     7294     5672     4507     3894     3981     4899     6485 
    8302     9933    11222    12201    12893    13263    13338    13335 
   13441    13587    13694    13911    14356    14868    15375    16109 
   17129    18178    19079    19733    19961    19676    18984    18099 
   17313    16765    16268    15619    14711    13382    11671     9948 
    8531     7512     6906     6621     6424     6212     6110     6162 
    6281     6458     6706     6984     7374     8076     9163    10627 
   12349    13960    15269    16309    16837    16639    15759    14191 
   12137    10083     8389     7315     7079     7661     8952    10851 
   12899    14358    14908    14757    14132    13158    11980    10723 
    9522     8404     7188     5713     3878     1672     -619    -2603 
   -4020    -4615    -4199    -2893    -1100      775     2583     4434 
    6571     9218    12328    15685    19191    22725    26073    29085 
   31589    33348    34248    34322    33620    32230    30332    28132 
   25820    23562    21460    19525    17657    15805    14044    12310 
   10432     8481     6814     5801     5608     6132     7228     8968 
   11401    14211    16970    19500    21812    23964    25975    27732 
   29018    29601    29327    28192    26129    22900    18491    13256 
    7617     1991    -3146    -7383   -10366   -11714   -11262    -9264 
   -6232    -2797      402     2977     4782     5819     6480     7384 
    8899    11103    13882    16990    20221    23225    25437    26569 
   26786    26375    25590    24634    23714    23159    23280    24229 
   26019    28421    30988    33338    35139    36022    35707    33995 
   30850    26676    22185    18001    14539    11986    10300     9317 
    8749     8176     7335     6333     5418     4713     4230     3961 
    3875     3857     3735     3489     3294     3364     3781     4344 
    4730     4829     4590     3820     2628     1588     1148     1480 
    2779     5206     8601    12367    15795    18478    20276    21178 
   21238    20560    19408    18078    16697    15419    14539    14173 
   14178    14513    15234    16116    16753    16896    16474    15479 
   13779    11174     7758     3857     -347    -4584    -8202   -10672 
  -11994   -12293   -11442    -9365    -6376    -2928      599     3853 
    6679     9152    11388    13588    15963    18405    20636    22594 
   24234    25348    25868    25848    25131    23425    20614    16863 
   12574     8286     4460     1443     -448    -1058     -535      901 
    3158     6176     9828    13776    17401    20202    22044    22827 
   22268    20226    16986    13066     8967     5133     1957     -283 
   -1536    -1971    -1762    -1016      -34      757     1287     1823 
    2525     3348     4273     5398     6797     8410    10140    11865 
   13252    13934    13871    13045    11185     8113     3905    -1145 
   -6447   -11174   -14625   -16518   -16802   -15476   -12698    -8810 
   -4326      178     4264     7588     9797    10700    10550    10004 
    9590     9396     9398     9696    10429    11682    13362    15286 
   17426    19787    22186    24350    26076    27286    27945    27935 
   27318    26451    25519    24618    24103    24270    25141    26376 
   27337    27803    28209    29002    30207    31537    32685    33496 
   33966    34170    34185    34031    33696    33078    31982    30262 
   27856    24981    22124    19360    16310    12778     8880     4843 
     838    -2974    -6306    -8929   -10913   -12287   -12892   -12819 
  -12250   -11294   -10324    -9628    -9211    -9058    -8907    -8293 
   -7110    -5663    -4137    -2449     -556     1515     3699     5923 
    8294    10955    13800    16654    19535    22665    26323    30673 
   35671    41030    46359    51333    55588    58492    59191    56961 
   51709    44159    35444    26557    18259    11262     6011     2307 
    -331    -2078    -2871    -2671    -1521      393     2723     5156 
    7430     9173    10134    10430    10437    10540    10898    11431 
   11891    11786    10669     8454     5188      956    -3842    -8461 
  -12154   -14483   -15241   -14348   -11877    -7909    -2489     4126 
   11336    18405    24767    30140    34392    37406    39188    39839 
   39247    37227    33798    29186    23815    18067    12070     5914 
    -152    -5653   -10005   -12684   -13189   -11292    -7285    -1711 
    4875    11984    19251    26288    32670    38099    42226    44466 
   44314    41748    37267    31481    24753    17447    10173     3484 
   -2415    -7569   -12013   -15634   -18221   -19570   -19589   -18322 
  -15894   -12409    -7864    -2229     4293    11140    17767    24122 
   30409    36412    41560    45361    47352    47249    45201    41432 
   36102    29613    22672    16006    10133     5486     2277      206 
   -1092    -1778    -2006    -1886    -1576    -1200     -654      278 
    1892     4420     7734    11579    15786    19802    22748    24116 
   23687    21456    17992    14118    10446     7317     4848     2916 
    1213     -417    -1934    -3449    -5057    -6629    -7981    -8754 
   -8517    -7139    -4700    -1409     2387     6455    10821    15539 
   20437    25222    29693    33838    37682    41048    43597    44980 
   44975    43559    40822    36823    31474    24740    16991     8868 
     959    -6295   -12540   -17360   -20297   -21086   -19805   -16738 
  -12107    -6101      910     8360    15572    21915    26938    30562 
   33131    34892    35792    35847    35140    33581    30910    26948 
   21937    16412    10933     6070     1997    -1531    -4415    -6433 
   -7774    -8620    -8886    -8332    -6553    -3088     2221     9010 
   16738    24728    31929    37487    41224    43274    43901    43434 
   42061    39774    36315    31422    25383    18850    12176     5517 
    -910    -6806   -11657   -15053   -17120   -18077   -17854   -16399 
  -13834   -10233    -5554      168     6624    13224    19342    24525 
   28453    30981    32226    32358    31486    29796    27481    24667 
   21539    18373    15495    13211    11679    10798    10213     9588 
    8689     7298     5525     3711     2067     1023     1239     3128 
    6806    12054    18272    24657    30262    34078    35456    34403 
   31359    26924    21918    17268    13627    11313    10408    10682 
   11855    13794    16121    18143    19436    20207    20962    22014 
   23457    25155    26754    28020    28866    29120    28696    27628 
   25801    23134    19854    16280    12668     9077     5320     1308 
   -2838    -6902   -10464   -12983   -14214   -14283   -13449   -12051 
  -10502    -9049    -7695    -6397    -5087    -3657    -2096     -275 
    2020     4623     7220     9717    12061    14225    16194    17765 
   18738    19375    20278    21688    23325    24842    26031    26746 
   26906    26328    24723    22128    18886    15317    11655     8073 
    4868     2438     1109     1140     2649     5593     9770    14813 
   20230    25396    29895    33739    36920    39172    40175    39685 
   37696    34445    30086    24820    19408    14915    11982    10592 
   10360    10790    11134    10501     8476     5373     2025     -628 
   -1834    -1063     1729     5993    10913    15577    19107    20810 
   20411    18262    14906    10660     5887     1112    -3340    -7382 
  -10893   -13717   -15672   -16581   -16432   -15244   -12961    -9742 
   -5883    -1600     2557     5750     7536     7963     7353     6155 
    4529     2388      -76    -2416    -4420    -6094    -7099    -6752 
   -4682    -1063     3604     8726    13792    18423    22361    25558 
   28254    30868    33805    37412    41779    46444    50577    53466 
   54744    54308    51967    47288    40189    31410    22198    13929 
    7839     4595     4077     5710     9044    13560    18124    21613 
   23589    23980    23013    21182    18900    16470    14112    11967 
   10013     8023     5781     3184      367    -2167    -3915    -4685 
   -4427    -3251    -1629       63     1808     3466     5089     7283 
   10441    14464    19162    24219    29109    33287    36197    37330 
   36529    34010    30057    24950    19109    13017     7137     2023 
   -1799    -4035    -4518    -3198     -340     3583     8052    12421 
   15947    18257    19648    20449    20645    20357    19839    19198 
   18455    17454    15897    13551    10269     6104     1441    -3250 
   -7782   -12125   -16075   -19258   -21373   -22306   -22077   -20716 
  -18125   -14283    -9658    -5052     -983     2555     5851     9144 
   12496    15819    18948    21616    23471    24288    24042    22778 
   20707    18299    16117    14661    14249    14851    16147    17779 
   19461    21012    22350    23389    24156    24936    26037    27593 
   29605    31919    34216    36121    37272    37377    36453    34700 
   32080    28600    24643    20584    16633    12977     9795     7366 
    5823     4691     3308     1518     -531    -2733    -4866    -6539 
   -7423    -7368    -6458    -5088    -3527    -1598      931     4152 
    8124    12749    17834    23199    28496    33266    37136    39737 
   40735    40098    38179    35590    32874    30305    28113    26430 
   25058    23659    21907    19529    16503    13116     9766     6771 
    4363     2797     2426     3592     6360    10475    15558    21182 
   26692    31320    34429    35571    34814    32720    29749    26221 
   22644    19596    17425    16167    15570    15167    14547    13448 
   11713     9458     7023     4676     2648     1288      832     1102 
