Origin Time       2011/03/11 14:46:00
Lat.              38.103
Long.             142.860
Depth. (km)       24
Mag.              9.0
Station Code      HKD031
Station Lat.      44.1185
Station Long.     142.5952
Station Height(m) 214
Record Time       2011/03/11 14:49:41
Sampling Freq(Hz) 100Hz
Duration Time(s)  129
Dir.              E-W
Scale Factor      3920(gal)/6182761
Max. Acc. (gal)   2.594
Last Correction   2011/03/11 14:49:26
Memo.             
[...]
    6537     6521     6503     6493     6513     6566     6652     6775 
    6908     7003     7041     7031     6983     6920     6879     6877 
    6907     6963     7031     7084     7110     7112     7086     7048 
    7020     7004     7002     7019     7043     7056     7064     7078 
    7103     7149     7221     7299     7364     7416     7442     7434 
    7407     7372     7337     7321     7335     7374     7430     7497 
    7552     7572     7566     7541     7505     7483     7479     7471 
    7443     7388     7305     7194     7078     6988     6936     6926 
    6951     6984     7000     6989     6942     6862     6764     6668 
    6591     6537     6502     6467     6420     6357     6289     6217 
    6136     6047     5954     5865     5785     5713     5649     5585 
    5504     5404     5299     5199     5117     5063     5034     5021 
    5017     5012     5002     4983     4961     4956     4983     5043 
    5121     5201     5270     5331     5389     5443     5498     5550 
    5583     5605     5630     5657     5688     5725     5765     5817 
    5889     5981     6088     6212     6341     6453     6537     6590 
    6607     6596     6589     6603     6640     6708     6807     6918 
    7020     7098     7134     7136     7128     7127     7135     7160 
    7199     7236     7264     7278     7270     7244     7205     7155 
    7097     7035     6975     6919     6877     6856     6846     6834 
    6812     6777     6735     6701     6679     6668     6669     6685 
    6707     6726     6740     6746     6739     6722     6703     6677 
    6650     6629     6599     6553     6499     6433     6358     6295 
    6260     6251     6256     6255     6232     6184     6119     6049 
    5995     5966     5951     5952     5978     6027     6086     6148 
    6214     6278     6333     6385     6438     6487     6531     6570 
    6594     6608     6623     6641     6667     6713     6767     6811 
    6848     6878     6887     6874     6846     6797     6733     6677 
    6649     6655     6694     6756     6829     6906     6978     7033 
    7069     7088     7085     7069     7059     7061     7070     7082 
    7087     7078     7055     7034     7027     7040     7074     7118 
    7150     7156     7129     7069     6990     6925     6896     6903 
    6945     7006     7052     7068     7062     7036     7002     6993 
    7019     7075     7158     7253     7339     7411     7469     7504 
    7518     7522     7523     7527     7551     7591     7631     7668 
    7704     7728     7735     7734     7721     7700     7685     7676 
    7662     7641     7602     7531     7434     7330     7226     7131 
    7054     6988     6924     6864     6805     6745     6690     6651 
    6626     6608     6594     6582     6561     6522     6465     6396 
    6322     6261     6218     6187     6160     6131     6093     6048 
    5999     5951     5905     5864     5828     5789     5740     5683 
    5622     5564     5528     5521     5536     5566     5599     5616 
    5614     5600     5571     5531     5485     5436     5397     5380 
    5376     5375     5374     5366     5346     5323     5302     5287 
    5280     5280     5280     5291     5331     5395     5470     5551 
    5623     5671     5703     5720     5712     5691     5681     5681 
    5687     5696     5690     5660     5612     5554     5499     5460 
    5444     5451     5480     5523     5559     5581     5597     5606 
    5606     5608     5625     5646     5664     5683     5704     5731 
    5774     5830     5894     5966     6042     6113     6168     6191 
    6174     6133     6098     6093     6123     6176     6233     6257 
    6233     6178     6110     6049     6011     5997     6007     6034 
    6056     6053     6025     5978     5923     5896     5924     5996 
    6087     6177     6237     6247     6221     6183     6146     6125 
    6133     6167     6218     6280     6342     6380     6396     6405 
    6414     6441     6506     6604     6715     6840     6974     7087 
    7167     7212     7215     7194     7184     7200     7249     7330 
    7409     7458     7485     7490     7470     7441     7414     7392 
    7387     7410     7449     7494     7535     7567     7596     7626 
    7653     7678     7695     7686     7647     7584     7515     7462 
    7437     7434     7440     7443     7429     7394     7337     7259 
    7170     7085     7011     6958     6936     6926     6905     6878 
    6851     6818     6795     6792     6795     6808     6835     6852 
    6857     6859     6848     6824     6809     6807     6808     6820 
    6850     6881     6909     6943     6983     7019     7045     7057 
    7048     7016     6970     6915     6866     6845     6858     6911 
    7004     7119     7222     7288     7316     7308     7268     7221 
    7186     7153     7121     7096     7075     7059     7055     7055 
    7052     7049     7042     7035     7037     7048     7054     7041 
    7012     6960     6890     6836     6821     6836     6882     6943 
    6982     6974     6919     6813     6665     6499     6342     6219 
    6161     6162     6179     6186     6184     6168     6156     6168 
    6185     6182     6163     6141     6128     6130     6135     6132 
    6120     6098     6071     6046     6036     6038     6039     6032 
    6023     6015     6012     6033     6087     6159     6236     6313 
    6374     6407     6411     6390     6346     6292     6248     6228 
    6236     6258     6271     6264     6247     6209     6151     6103 
    6069     6034     6013     6009     5990     5945     5883     5799 
    5703     5621     5564     5527     5505     5483     5450     5419 
    5406     5409     5440     5507     5582     5645     5690     5713 
    5716     5714     5715     5720     5726     5730     5734     5736 
    5734     5725     5709     5690     5663     5626     5589     5557 
    5538     5536     5545     5562     5570     5542     5465     5344 
    5201     5076     5003     4990     5032     5114     5196     5242 
    5235     5159     5030     4892     4777     4712     4727     4809 
    4902     4972     5005     4997     4975     4982     5028     5108 
    5223     5356     5486     5608     5711     5776     5819     5865 
    5909     5954     6012     6070     6120     6163     6189     6191 
    6173     6149     6131     6126     6139     6177     6240     6318 
    6390     6451     6503     6540     6556     6543     6505     6448 
    6372     6285     6209     6155     6129     6135     6173     6225 
    6272     6302     6311     6299     6274     6238     6191     6139 
    6094     6064     6051     6046     6030     5999     5959     5914 
    5871     5842     5811     5758     5691     5624     5557     5501 
    5456     5408     5360     5334     5340     5372     5415     5446 
    5455     5452     5433     5390     5333     5283     5249     5248 
    5303     5408     5544     5707     5881     6036     6163     6260 
    6326     6370     6406     6448     6504     6581     6681     6788 
    6886     6973     7047     7112     7189     7282     7375     7464 
    7557     7645     7726     7810     7900     7983     8060     8133 
    8200     8274     8359     8436     8490     8521     8519     8479 
    8414     8335     8245     8168     8131     8136     8185     8271 
    8352     8407     8435     8424     8377     8321     8267     8206 
    8145     8094     8048     8008     7989     7984     7969     7930 
    7874     7817     7766     7729     7703     7681     7658     7628 
    7595     7563     7522     7461     7390     7334     7307     7316 
    7355     7395     7398     7357     7284     7189     7086     7001 
    6943     6911     6912     6932     6942     6936     6919     6888 
    6856     6841     6841     6852     6876     6900     6913     6924 
    6948     6981     7017     7052     7073     7077     7069     7049 
    7018     6981     6945     6921     6921     6947     6996     7062 
    7131     7185     7220     7241     7247     7238     7213     7170 
    7122     7087     7083     7112     7149     7170     7174     7158 
    7130     7110     7100     7088     7080     7085     7095     7102 
    7100     7067     6993     6905     6828     6771     6749     6754 
    6755     6748     6743     6740     6745     6760     6767     6782 
    6837     6929     7033     7124     7186     7202     7168     7103 
    7020     6923     6811     6681     6540     6398     6278     6190 
    6131     6107     6107     6116     6131     6144     6134     6094 
    6025     5931     5830     5741     5663     5593     5528     5472 
    5420     5369     5317     5263     5218     5175     5130     5086 
    5041     4988     4930     4882     4840     4801     4772     4756 
    4739     4723     4717     4713     4701     4677     4642     4592 
    4524     4439     4348     4267     4212     4184     4174     4183 
    4206     4232     4253     4265     4265     4253     4234     4208 
    4173     4144     4123     4107     4098     4093     4080     4061 
    4044     4036     4051     4100     4168     4233     4289     4324 
    4317     4269     4204     4147     4114     4124     4177     4257 
    4352     4448     4538     4629     4733     4852     4988     5141 
    5294     5430     5539     5610     5641     5646     5650     5671 
    5717     5781     5842     5883     5910     5939     5980     6041 
    6112     6193     6302     6447     6614     6793     6975     7138 
    7266     7345     7366     7323     7232     7123     7012     6915 
    6843     6798     6780     6787     6815     6846     6867     6879 
    6882     6876     6855     6809     6731     6642     6563     6502 
    6461     6441     6426     6408     6400     6404     6406     6395 
    6373     6352     6344     6359     6388     6423     6476     6547 
    6620     6691     6758     6807     6847     6897     6961     7035 
    7119     7212     7295     7340     7342     7322     7310     7325 
    7382     7489     7643     7828     8028     8226     8394     8512 
    8582     8627     8666     8720     8806     8915     9019     9091 
    9123     9111     9062     9003     8962     8951     8984     9064 
    9177     9299     9410     9484     9503     9480     9439     9389 
    9342     9303     9259     9206     9166     9145     9134     9140 
    9153     9140     9099     9049     8991     8934     8883     8827 
    8772     8728     8689     8641     8575     8482     8362     8242 
    8145     8070     8021     7992     7958     7910     7854     7780 
    7687     7586     7475     7355     7247     7163     7101     7059 
    7027     6989     6935     6862     6755     6617     6461     6300 
    6153     6038     5960     5924     5927     5944     5952     5942 
    5916     5882     5849     5819     5798     5783     5768     5749 
    5724     5692     5661     5648     5661     5695     5738     5773 
    5782     5763     5727     5680     5632     5593     5557     5517 
    5481     5442     5393     5345     5299     5243     5181     5124 
    5064     4996     4937     4902     4889     4892     4894     4875 
    4835     4784     4732     4696     4687     4694     4708     4731 
    4755     4780     4803     4818     4813     4776     4719     4658 
    4593     4529     4475     4419     4354     4293     4242     4200 
    4171     4151     4126     4104     4094     4084     4068     4048 
    4020     3992     3986     4008     4049     4110     4179     4243 
    4296     4336     4355     4358     4359     4375     4425     4526 
    4673     4837     4996     5142     5270     5370     5445     5506 
    5556     5604     5663     5731     5799     5862     5915     5958 
    6000     6057     6139     6248     6378     6518     6658     6798 
    6925     7023     7087     7121     7131     7129     7118     7095 
    7064     7043     7050     7097     7187     7294     7387     7461 
    7508     7511     7474     7419     7359     7315     7319     7367 
    7443     7546     7660     7758     7830     7880     7910     7930 
    7965     8034     8131     8248     8375     8493     8588     8656 
    8697     8716     8724     8725     8727     8752     8805     8861 
    8905     8935     8950     8950     8945     8940     8934     8928 
    8931     8933     8923     8905     8886     8878     8892     8921 
    8945     8951     8940     8901     8833     8753     8666     8577 
    8507     8470     8467     8494     8535     8561     8553     8509 
    8436     8349     8270     8203     8149     8128     8156     8224 
    8320     8435     8534     8603     8656     8705     8751     8805 
    8859     8892     8904     8907     8901     8883     8860     8829 
    8797     8784     8797     8821     8845     8849     8812     8732 
    8628     8518     8403     8286     8176     8074     7979     7893 
    7813     7729     7630     7510     7383     7273     7191     7129 
    7078     7026     6968     6909     6868     6853     6844     6815 
    6743     6611     6422     6191     5948     5716     5510     5336 
    5199     5094     4999     4889     4747     4582     4409     4238 
    4087     3960     3842     3731     3641     3577     3543     3536 
    3534     3516     3476     3412     3326     3231     3130     3022 
    2923     2848     2792     2747     2706     2644     2549     2440 
    2338     2262     2239     2267     2324     2386     2436     2464 
    2471     2460     2430     2392     2372     2384     2426     2483 
    2527     2528     2482     2409     2344     2312     2316     2349 
    2394     2429     2447     2446     2419     2384     2358     2342 
    2347     2384     2441     2505     2561     2582     2554     2500 
    2436     2369     2320     2301     2295     2303     2332     2368 
    2402     2438     2477     2522     2592     2685     2789     2897 
    2996     3075     3144     3216     3292     3371     3439     3487 
    3524     3564     3624     3711     3802     3880     3947     4009 
    4071     4133     4189     4226     4250     4287     4343     4410 
    4483     4535     4561     4591     4629     4664     4708     4756 
    4792     4840     4923     5034     5153     5255     5316     5343 
    5365     5397     5447     5515     5597     5693     5807     5935 
    6051     6125     6154     6146     6118     6106     6136     6196 
    6263     6321     6357     6381     6404     6429     6450     6469 
    6503     6567     6663     6784     6897     6956     6950     6895 
    6807     6714     6650     6630     6657     6732     6847     6979 
    7095     7162     7161     7114     7051     6990     6949     6934 
    6927     6924     6945     6983     7021     7061     7090     7089 
    7066     7042     7017     6991     6968     6938     6894     6856 
    6834     6819     6807     6801     6813     6858     6947     7066 
    7175     7237     7249     7227     7188     7157     7166     7209 
    7270     7344     7426     7504     7567     7614     7662     7727 
    7813     7914     8032     8155     8244     8296     8325     8328 
    8316     8307     8295     8274     8262     8264     8268     8274 
    8280     8263     8205     8115     8000     7872     7762     7679 
    7618     7575     7538     7488     7417     7330     7219     7094 
    6982     6905     6865     6858     6873     6893     6909     6929 
    6967     7003     7018     7013     6990     6966     6967     6983 
    6996     7016     7034     7034     7031     7036     7037     7036 
    7056     7093     7130     7154     7159     7129     7067     6998 
    6936     6876     6822     6774     6732     6706     6688     6654 
    6610     6579     6569     6589     6642     6686     6683     6640 
    6570     6483     6395     6324     6275     6244     6230     6230 
    6223     6200     6174     6151     6136     6136     6143     6149 
    6156     6171     6184     6192     6213     6255     6308     6365 
    6419     6460     6495     6538     6575     6589     6584     6568 
    6556     6575     6630     6707     6799     6899     6988     7049 
    7069     7040     6972     6887     6799     6727     6673     6618 
    6556     6494     6428     6365     6324     6294     6244     6171 
    6088     5994     5904     5838     5791     5748     5725     5722 
    5717     5697     5660     5593     5493     5372     5248     5131 
    5013     4891     4765     4637     4525     4454     4416     4392 
    4367     4326     4268     4214     4172     4142     4125     4111 
    4085     4038     3967     3870     3748     3621     3511     3445 
    3442     3489     3552     3611     3656     3681     3701     3739 
    3793     3865     3958     4066     4176     4280     4370     4435 
    4469     4483     4487     4479     4467     4477     4519     4588 
    4684     4790     4889     4969     5016     5033     5038     5049 
    5085     5162     5273     5390     5485     5544     5571     5583 
    5609     5661     5735     5831     5943     6047     6124     6171 
    6191     6195     6214     6273     6356     6448     6555     6659 
    6744     6820     6885     6915     6921     6923     6919     6919 
    6941     6972     6996     7013     7010     6974     6916     6846 
    6781     6760     6799     6876     6977     7093     7197     7270 
    7320     7349     7356     7355     7356     7358     7369     7401 
    7456     7531     7626     7729     7825     7908     7975     8028 
    8070     8104     8142     8185     8220     8246     8264     8257 
    8224     8186     8142     8080     8002     7901     7767     7614 
    7460     7318     7201     7116     7056     7023     7023     7046 
    7083     7129     7164     7161     7125     7069     6988     6889 
    6786     6683     6595     6538     6503     6486     6487     6487 
    6468     6459     6477     6509     6558     6622     6669     6696 
    6722     6746     6764     6787     6812     6834     6867     6917 
    6970     7021     7055     7046     7019     7016     7034     7066 
    7112     7146     7145     7128     7112     7093     7085     7093 
    7103     7106     7094     7049     6971     6867     6745     6627 
    6536     6485     6477     6506     6548     6583     6598     6581 
    6536     6465     6359     6229     6102     6002     5946     5938 
    5960     5986     5998     5991     5959     5913     5876     5847 
    5828     5829     5833     5830     5828     5824     5803     5771 
    5744     5724     5721     5745     5785     5826     5866     5903 
    5926     5939     5930     5875     5777     5667     5568     5488 
    5441     5427     5427     5441     5482     5539     5594     5641 
    5670     5683     5695     5698     5678     5635     5562     5466 
    5379     5326     5309     5321     5348     5381     5424     5475 
    5530     5594     5664     5734     5811     5895     5978     6059 
    6135     6192     6237     6279     6315     6352     6388     6414 
    6434     6456     6469     6478     6499     6536     6596     6694 
    6817     6940     7058     7160     7220     7231     7197     7118 
    7013     6928     6888     6898     6955     7032     7100     7150 
