Origin Time       2011/03/11 14:46:00
Lat.              38.103
Long.             142.860
Depth. (km)       24
Mag.              9.0
Station Code      HKD093
Station Lat.      43.3191
Station Long.     143.3049
Station Height(m) 364
Record Time       2011/03/11 14:48:22
Sampling Freq(Hz) 100Hz
Duration Time(s)  300
Dir.              N-S
Scale Factor      3920(gal)/6182761
Max. Acc. (gal)   14.450
Last Correction   2011/03/11 14:48:07
Memo.             
[...]
   -2186    -1543     -634      373     1233     1560     1033      -38 
    -448      843     3258     5141     5659     5230     4526     3854 
    3230     2671     2303     2006     1574     1407     1911     2432 
    1998      574    -1088    -2396    -3397    -4314    -5079    -5544 
   -5646    -5658    -6483    -8534   -10506   -10645    -8860    -6689 
   -5410    -4728    -3691    -2309    -1451    -1510    -1760    -1394 
    -905    -1437    -2989    -4437    -5127    -5464    -6163    -7631 
   -9490   -10776   -11324   -11848   -12427   -12523   -12261   -12336 
  -12857   -13141   -12441   -10511    -8037    -6441    -6373    -6904 
   -6961    -6662    -6750    -7579    -8904    -9984    -9974    -8822 
   -7564    -7072    -6841    -5910    -4351    -2880    -1942    -1619 
   -1818    -2487    -3440    -4205    -4381    -3917    -3230    -2927 
   -3101    -3444    -3749    -3842    -3695    -3697    -4254    -5055 
   -5311    -4795    -3980    -3405    -3135    -2397     -378     2187 
    3474     2973     2322     3425     6202     8538     8543     6528 
    4740     5274     7921    10382    10759     9294     7788     7500 
    7892     7919     7596     7488     7451     6562     4355     1796 
     521     1043     2206     2730     2622     2464     2263     1896 
    1895     2757     3787     3757     2743     2202     3184     5157 
    6607     6618     5846     5811     7049     8236     7870     6217 
    4562     3605     3304     3298     3259     2897     1698     -436 
   -2619    -3949    -4150    -3039     -925      505     -273    -2314 
   -3333    -2453     -509     1080     1135     -476    -2677    -4222 
   -4733    -4586    -4220    -3875    -3647    -3641    -4000    -4493 
   -4560    -3978    -3195    -3039    -3969    -5436    -6253    -5922 
   -5511    -6547    -9092   -11725   -13030   -12643   -11394   -10547 
  -10820   -12016   -13297   -14011   -14116   -13719   -13004   -12640 
  -13255   -14550   -15646   -16010   -15864   -15938   -16498   -16893 
  -16536   -15533   -14117   -12365   -10409    -8497    -7131    -6806 
   -7223    -7572    -7476    -6722    -5119    -3553    -3335    -4011 
   -3899    -2615    -1320    -1032    -1611    -2074    -1711     -816 
    -132       81      169      602     1346     1877     2131     2732 
    4058     5796     7180     7563     7026     6249     5826     5901 
    6214     6209     5396     3979     2767     2238     2134     1776 
     598    -1088    -2147    -1762     -129     1690     2317     1101 
   -1155    -2891    -3429    -3616    -4425    -5559    -6025    -5300 
   -3696    -2299    -2398    -4282    -6714    -8337    -9075    -9338 
   -8943    -7772    -6463    -5826    -5860    -5577    -4257    -2769 
   -2617    -3628    -3875    -2389     -342      830      690     -413 
   -1486    -1706    -1364    -1463    -2557    -3909    -4101    -2652 
    -482     1056     1307     1014     1551     2847     3094     1365 
    -673     -856      582     1325     -295    -3421    -5639    -5730 
   -4756    -4474    -5612    -7495    -8816    -8996    -8781    -9146 
   -9916   -10116    -9350    -7943    -6394    -5375    -5174    -5103 
   -4415    -3096    -1514      -91      963     1739     2184     2024 
    1205      231       93     1215     2689     3558     4013     4484 
    4707     4233     3288     2854     3779     5821     7792     8696 
    8559     8038     7847     8411     9393     9954     9578     8481 
    7587     7634     8484     9614    10268     9801     8562     7229 
    5834     4337     2956     1684      455     -397     -385      413 
     956      134    -1728    -3036    -2650    -1127     -393    -1579 
   -3562    -4650    -4648    -4584    -5153    -5557    -4467    -2308 
   -1122    -2076    -4290    -5729    -5155    -3665    -3475    -5124 
   -7059    -7696    -7146    -6826    -7481    -8205    -7589    -5371 
   -2826    -1470    -1594    -2454    -3121    -2942    -2322    -2499 
   -3795    -5260    -6021    -5919    -5421    -5228    -5421    -5426 
   -5015    -4551    -4285    -3972    -3206    -2258    -2336    -4002 
   -5833    -5992    -4474    -2878    -2644    -3755    -4772    -4598 
   -3785    -3408    -3712    -4365    -5084    -5759    -6102    -5674 
   -4606    -3563    -3051    -3277    -4119    -5097    -5747    -6037 
   -6237    -6431    -6566    -6806    -7295    -7978    -8545    -8353 
   -7321    -6372    -6063    -5911    -5470    -4893    -4466    -4317 
   -4472    -4828    -5142    -5107    -4459    -3295    -2175    -1425 
    -702      565     2614     4792     5920     5902     5810     6169 
    6668     7127     7532     7699     7476     6845     5738     3968 
    1657     -215     -616       99      803     1129     1276     1317 
    1171      523     -888    -2583    -3600    -3619    -3431    -4043 
   -5457    -6532    -6292    -5172    -4407    -4466    -4829    -4809 
   -3933    -2123      -51     1341     1933     2404     3223     4241 
    5184     5823     5711     4772     3855     3758     4240     4588 
    4720     5274     6475     7393     7043     5680     4184     3282 
    3657     5193     6537     6484     5272     4419     5091     6691 
    7743     7526     6444     5653     5828     6141     5756     5181 
    5055     5392     5854     5635     4161     1921      -70     -993 
    -774     -245     -207     -924    -2506    -4457    -5538    -5220 
   -4453    -4637    -6112    -7428    -6830    -4783    -3495    -3945 
   -5087    -5624    -5400    -5290    -5859    -6440    -6081    -4731 
   -3360    -3393    -5105    -6700    -6329    -4612    -3909    -5267 
   -7338    -8236    -7391    -5742    -4784    -5074    -5652    -5461 
   -4603    -3810    -3746    -4519    -5299    -5312    -4911    -4804 
   -4853    -4601    -4365    -4578    -4754    -4306    -3723    -4069 
   -5501    -6922    -7508    -7797    -8615    -9839   -10579   -10229 
   -9171    -8198    -7762    -8056    -9023   -10119   -10706   -10766 
  -10677   -10405    -9570    -8254    -7230    -7077    -7518    -7903 
   -7823    -7443    -7329    -7502    -7470    -7368    -7823    -8961 
  -10260   -10977   -10785   -10253   -10213   -10683   -10940   -10431 
   -9252    -8067    -7487    -7311    -6792    -5720    -4708    -4212 
   -3698    -2524    -1179     -580     -866    -1670    -2461    -2510 
   -1665     -625     -114     -427    -1429    -2725    -3887    -4576 
   -4986    -5807    -7039    -7617    -6759    -4938    -3315    -2775 
   -3396    -4518    -5350    -5286    -4266    -3142    -2736    -2748 
   -2327    -1220       15      685      705      631      947     1510 
    1987     2482     3267     4369     5809     7574     9112     9577 
    8830     7656     6892     6665     6689     6954     7640     8557 
    9045     8702     8070     8199     9584    11631    13055    13126 
   12590    12799    13920    14760    14362    12967    11448    10499 
   10307    10489    10463    10087     9700     9703    10073    10225 
    9615     8165     6230     4526     3337     1995      164    -1497 
   -2515    -2966    -2938    -2801    -3101    -3471    -2897    -1589 
    -967    -1404    -1872    -1823    -1734    -1876    -1639     -680 
     -36     -784    -2381    -3563    -3819    -3382    -2634    -1752 
    -839     -361     -768    -1490    -1335      -64     1227     1040 
   -1122    -3893    -5427    -5666    -6153    -7707    -9407   -10074 
   -9766    -9432    -9657   -10017    -9656    -8512    -7609    -7849 
   -8963    -9922    -9796    -8162    -5515    -3324    -2834    -3781 
   -4868    -5065    -4208    -2984    -2280    -2405    -3047    -3519 
   -3203    -2370    -2110    -2818    -3660    -4026    -4349    -5249 
   -6540    -7204    -6678    -5798    -5744    -6736    -8126    -8956 
   -8698    -7823    -7001    -6120    -4735    -2898    -1440    -1481 
   -2854    -3894    -3797    -3398    -3324    -3562    -4120    -4616 
   -4506    -3939    -3343    -3003    -3097    -3092    -2125     -536 
     598     1173     1877     3060     4378     5103     4840     3630 
    1489    -1087    -2836    -3345    -3851    -5451    -7767    -9559 
  -10056    -9837    -9928   -10299   -10266    -9557    -8278    -6878 
   -6153    -6033    -5287    -3584    -1869     -440     1027     2203 
    2413     1500      216       -1     1530     3609     4609     4638 
    4886     5531     5798     5343     4531     4066     4605     6101 
    7653     8322     7980     7232     6423     5124     3073     1076 
     364     1439     3535     5012     4934     4044     3424     2967 
    1869        5    -1671    -2181    -1880    -2087    -3314    -4803 
   -5894    -6710    -7164    -6637    -5313    -4595    -5482    -7322 
   -8520    -8339    -7826    -8549   -10481   -11729   -10657    -8035 
   -6388    -7014    -8605    -9187    -8270    -6822    -6130    -6392 
   -6471    -5822    -5169    -4786    -4218    -3537    -3396    -3991 
   -4496    -3950    -2628    -1654    -1429    -1323     -733      311 
    1559     2644     2968     2599     2541     3391     4610     5263 
    5162     4964     4863     4219     2786     1257      533      679 
     771      103    -1135    -2670    -4604    -6617    -7642    -7080 
   -5810    -5243    -5843    -7121    -8436    -9215    -9121    -8387 
   -7577    -7142    -7344    -8194    -9343   -10034    -9561    -8198 
   -7042    -6703    -6746    -6179    -4604    -2985    -2423    -2847 
   -3676    -4380    -4279    -3107    -1328      466     1893     2791 
    3256     3489     3684     3844     3582     2630     1477      926 
    1346     2511     3763     4529     4740     4564     4041     3197 
    2383     2376     3690     5637     6827     6683     5898     5480 
    5605     5614     5192     4747     4371     3785     3400     3763 
    4309     4097     2982     1515      389     -159     -569    -1396 
   -2874    -4795    -6453    -6886    -5708    -3985    -3394    -4278 
   -5688    -6790    -7174    -6884    -6675    -7349    -8716    -9679 
   -9503    -8476    -7167    -5941    -5026    -4570    -4821    -5690 
   -6267    -5933    -5499    -5958    -6772    -6709    -5564    -4067 
   -3020    -2722    -2813    -2985    -3216    -3312    -3162    -2816 
   -2259    -1799    -1975    -2923    -4362    -5652    -5860    -4724 
   -3282    -2742    -3343    -4513    -5187    -4510    -2969    -1881 
   -1797    -2195    -2091     -930      406      200    -1910    -4308 
   -5220    -4365    -2889    -1997    -1966    -2591    -3586    -4525 
   -4939    -4245    -2636    -1851    -2989    -4586    -4431    -1884 
    1785     4533     5538     5701     6067     6915     7900     8441 
    8281     7349     5880     5112     6133     8038     8872     7985 
    6495     5856     6494     7738     8894     9826    10442    10554 
   10211     9658     9113     8332     6940     5546     5114     5463 
    5678     5244     4305     3440     3126     3396     3991     4580 
    4773     4026     2231      470       77      991     1816     1296 
    -345    -1600    -1834    -2178    -3306    -4131    -3364    -1231 
     355     -268    -2444    -4138    -4496    -4390    -4645    -4808 
   -4112    -2886    -2316    -2814    -3502    -3693    -3645    -4009 
   -5375    -7326    -8553    -8545    -7749    -6715    -5952    -5634 
   -5713    -6269    -7088    -7744    -8009    -7603    -6469    -5418 
   -5684    -7597    -9809   -10451    -9360    -8459    -9326   -11002 
  -11183    -9113    -6396    -5204    -6127    -8168   -10328   -11869 
  -12036   -10848    -9102    -7431    -6143    -5466    -5332    -5045 
   -4078    -3317    -3908    -5309    -6073    -5667    -4889    -5092 
   -6564    -8103    -8844    -9367   -10460   -11725   -11964   -10688 
   -8878    -8243    -9601   -11805   -12675   -11437    -9679    -9504 
  -11019   -11976   -10707    -8620    -7951    -8725    -9532    -9541 
   -9266    -9686   -10539   -10549    -9385    -7986    -7063    -6497 
   -5754    -4280    -2320    -1079    -1264    -2302    -3216    -3352 
   -2423     -630     1118     1851     1750     1949     2861     3536 
    3210     2523     2262     2243     2403     3185     4620     6389 
    7937     8392     7728     7174     7685     8895     9627     9196 
    8383     8673    10239    11648    11699    10480     9053     8676 
    9692    11445    13027    13678    13642    14015    14809    15060 
   14637    14032    13447    12882    12252    11646    11606    12307 
   12717    11583     9184     7303     7248     8550     9923    10651 
   10662    10343    10641    12133    13865    14307    13433    12703 
   13074    13988    14164    12824    10470     8653     8533     9753 
   10938    11186    10919    10939    11275    11709    12255    12584 
   12039    10392     8453     7678     8483     9549     9505     8504 
    7656     7388     7217     7229     8003     8672     7502     4508 
    1436     -415    -1372    -2679    -4772    -6859    -8084    -8164 
   -7393    -6541    -6243    -6668    -7792    -9410   -10966   -11731 
  -11236    -9920    -9020    -9019    -9055    -8515    -7816    -7537 
   -8057    -9444   -11119   -12351   -12898   -12950   -13012   -13550 
  -14389   -15010   -15136   -14545   -13247   -12207   -12585   -14016 
  -15010   -14861   -14131   -13913   -14822   -16072   -16251   -15084 
  -13696   -13527   -15146   -17613   -19576   -20838   -21932   -23078 
  -24140   -24714   -24614   -24158   -23439   -22497   -22019   -22449 
  -23221   -23485   -22870   -21755   -20915   -20540   -20151   -19620 
  -19246   -18740   -17584   -16193   -15163   -14287   -13291   -12150 
  -10841    -9806    -9580    -9907    -9998    -9104    -7254    -5759 
   -5612    -6005    -5671    -4407    -2805    -1506     -794     -625 
    -650     -129     1205     2599     3271     3075     2350     1875 
    2471     4241     6197     7007     6458     5587     5308     5453 
    5315     4832     4731     5593     7123     8301     8354     7509 
    6665     6516     6917     6956     5815     3906     2982     4148 
    6055     6417     4690     2344     1147     1416     1840      956 
   -1385    -3603    -3787    -1991     -305     -404    -1703    -2271 
   -1195      787     2541     3542     4014     4384     4882     5818 
    7357     9127    10423    10586     9775     9134     9427    10257 
   10677     9743     7346     5028     4552     5393     5466     4277 
    3313     3725     5127     5978     5049     3132     2128     2451 
    2910     2628     1800      934      133     -800    -1733    -2099 
   -1620     -824     -637    -1172    -1223      -45     1178     1000 
    -233    -1068     -934     -486     -223       25      279      366 
     377       71    -1090    -2518    -2659    -1169      592     1364 
    1169      792      665      565      234     -505    -1795    -3019 
   -2850     -922     1237     1677       47    -2296    -3776    -3693 
   -2274     -445      640      349    -1089    -2833    -3932    -4041 
   -3956    -4690    -5835    -6026    -5016    -3892    -3607    -4290 
   -5342    -5918    -5862    -5787    -6037    -6227    -5934    -5314 
   -4896    -5061    -5527    -5405    -4357    -3181    -2723    -3061 
   -3700    -3827    -2962    -1663    -1099    -2153    -4526    -6313 
   -5832    -3891    -2553    -2453    -2715    -2423    -1450     -560 
    -698    -1631    -1912     -872      222      -97    -1364    -1898 
   -1199     -370     -468    -1585    -3134    -4174    -4039    -3068 
   -2124    -1465     -811     -121      558     1503     2755     3631 
    3380     2259     1479     1512     1325      355     -339      -58 
     214     -649    -2389    -3768    -3778    -2621    -1679    -2065 
   -3362    -4324    -4651    -5251    -6601    -7881    -8078    -7192 
   -6091    -5467    -5218    -4851    -4123    -3159    -2327    -1978 
   -2089    -2498    -3166    -3852    -4323    -4674    -5006    -5441 
   -6113    -6871    -7627    -8584    -9619   -10136    -9745    -8553 
   -6773    -4699    -3084    -2589    -2792    -2664    -2002    -1509 
   -1412     -959      419     2266     3651     4044     3641     3208 
    3543     4491     4801     3818     2433     1727     1922     2627 
    2786     1338     -941    -1945    -1161     -136     -349    -1819 
   -2886    -1798      686     2012     1240       76      656     2913 
    4673     4441     3071     2547     3946     6462     8225     8360 
    7585     6862     6541     6400     6083     5782     5854     6056 
    6131     6374     6836     6931     6326     5479     5224     5853 
    6455     6013     4936     4217     3702     2399      283    -1034 
    -331     1222     1598      513     -682     -878     -443     -754 
   -2362    -4198    -5343    -6397    -7934    -9149    -9226    -8709 
   -8485    -8390    -7845    -7149    -7207    -8390   -10089   -11194 
  -11283   -11259   -12122   -13578   -14547   -14483   -13884   -13512 
  -13360   -13240   -13365   -13479   -12898   -11538    -9940    -9144 
  -10414   -13355   -15452   -15216   -13912   -13320   -13640   -13804 
  -12688   -10198    -7547    -6127    -6376    -7613    -8406    -7778 
   -6286    -5112    -4636    -4800    -5762    -7293    -8664    -9568 
  -10179   -10692   -11348   -12084   -12428   -12287   -11755   -10476 
   -8533    -6987    -6463    -6095    -4729    -2664    -1313    -1345 
   -2182    -3198    -4295    -5384    -6009    -5635    -4357    -3058 
   -2494    -2568    -2800    -3088    -3575    -4014    -3941    -3510 
   -3383    -3485    -2835    -1094      657     1022     -277    -1938 
   -2181     -689     1136     1865     1342      654      791     1334 
    1202       73    -1380    -2113    -1903    -1428    -1009     -549 
    -126      206      499      883     1582     2463     2966     2713 
    1965     1624     2581     4738     6919     7968     7765     7228 
    7497     8924    10679    11520    10970     9897     9839    11210 
   12638    12785    11777    10475     9729    10021    10908    11437 
   11384    11464    12039    12338    11881    11720    12873    14420 
   14837    14537    15239    17285    19201    19387    17610    15145 
   13201    11833    10980    10807    10808    10240     9133     8059 
    7247     6210     4424     2076     -209    -1841    -2511    -2651 
   -3296    -4864    -6635    -7850    -8418    -8402    -7998    -7704 
   -7726    -7761    -7491    -7001    -6855    -7688    -9387   -10826 
  -11127   -10776   -10433    -9882    -9077    -8525    -8634    -9531 
  -10676   -11086   -10556    -9516    -8206    -7057    -6737    -7313 
   -7927    -7385    -5528    -3916    -4005    -5278    -6309    -6578 
   -6647    -7362    -8711    -9584    -9477    -9178    -9163    -9145 
   -8950    -8487    -7812    -7315    -6812    -5767    -4992    -5730 
   -6976    -6376    -3737    -1446    -1357    -2876    -4281    -4401 
   -2909     -361     2098     3402     2849      865     -486      635 
    3377     4837     3400      331    -2107    -3134    -3599    -3927 
   -3540    -2696    -2467    -3002    -3832    -4729    -5222    -4878 
   -4104    -3701    -4021    -4773    -5302    -5023    -3759    -2018 
    -860     -787     -947     -261     1019     1613      712    -1101 
