Origin Time       2011/03/11 14:46:00
Lat.              38.103
Long.             142.860
Depth. (km)       24
Mag.              9.0
Station Code      HKD017
Station Lat.      44.5323
Station Long.     141.7664
Station Height(m) 5
Record Time       2011/03/11 14:49:53
Sampling Freq(Hz) 100Hz
Duration Time(s)  180
Dir.              E-W
Scale Factor      3920(gal)/6182761
Max. Acc. (gal)   3.682
Last Correction   2011/03/11 14:49:38
Memo.             
[...]
   -2123    -2095    -2046    -2008    -2000    -1979    -1946    -1929 
   -1913    -1874    -1815    -1762    -1740    -1723    -1676    -1647 
   -1658    -1632    -1568    -1553    -1558    -1530    -1525    -1564 
   -1597    -1608    -1618    -1631    -1640    -1650    -1662    -1687 
   -1725    -1748    -1773    -1828    -1867    -1877    -1915    -1981 
   -2036    -2091    -2150    -2195    -2222    -2240    -2282    -2344 
   -2367    -2366    -2383    -2396    -2395    -2404    -2405    -2378 
   -2348    -2325    -2293    -2260    -2226    -2177    -2133    -2090 
   -2023    -1967    -1922    -1841    -1756    -1693    -1606    -1515 
   -1445    -1359    -1249    -1156    -1095    -1032     -944     -852 
    -773     -696     -616     -544     -481     -404     -314     -233 
    -179     -119      -29       50      110      192      281      355 
     433      524      628      734      818      889      968     1039 
    1102     1178     1254     1308     1349     1405     1480     1548 
    1612     1682     1734     1778     1843     1906     1943     1982 
    2037     2086     2118     2140     2160     2207     2264     2275 
    2274     2320     2360     2356     2363     2392     2409     2421 
    2417     2399     2425     2465     2442     2400     2393     2387 
    2368     2351     2322     2296     2293     2270     2216     2164 
    2117     2086     2058     1995     1943     1929     1892     1825 
    1777     1737     1687     1642     1595     1547     1511     1483 
    1453     1419     1378     1353     1348     1322     1289     1265 
    1235     1220     1223     1197     1162     1159     1154     1132 
    1124     1128     1113     1085     1066     1043     1014     1000 
     999      981      951      949      958      944      929      918 
     888      868      863      835      793      760      733      711 
     688      673      665      644      625      609      568      542 
     553      547      534      550      544      521      535      548 
     529      522      537      549      546      542      556      576 
     584      594      608      623      668      732      769      791 
     852      933      980     1016     1086     1178     1284     1376 
    1427     1490     1582     1647     1682     1740     1826     1910 
    1969     2027     2103     2173     2237     2304     2341     2359 
    2395     2448     2496     2527     2558     2601     2625     2626 
    2631     2637     2649     2667     2659     2629     2603     2570 
    2534     2507     2471     2419     2366     2320     2275     2223 
    2181     2157     2119     2057     1991     1933     1878     1816 
    1754     1689     1610     1537     1483     1415     1314     1215 
    1153     1115     1071     1019      976      930      865      797 
     748      710      671      651      639      590      527      485 
     442      399      360      309      267      222      134       74 
      84       64        6       -9        2        6        0      -12 
       2       43       69       81      100      111      113      138 
     166      172      194      251      299      317      332      354 
     377      398      410      417      438      475      506      514 
     509      508      515      538      563      565      568      590 
     606      609      607      603      608      615      618      627 
     644      656      663      690      731      740      745      797 
     839      853      909      976      992     1012     1083     1169 
    1228     1261     1312     1389     1442     1474     1528     1584 
    1625     1690     1771     1822     1865     1923     1992     2061 
    2097     2122     2191     2264     2301     2329     2359     2389 
    2428     2462     2475     2484     2511     2546     2560     2551 
    2547     2541     2517     2507     2511     2493     2483     2504 
    2507     2486     2474     2465     2457     2455     2447     2439 
    2439     2431     2416     2411     2419     2426     2428     2428 
    2433     2444     2457     2464     2460     2456     2458     2461 
    2456     2446     2456     2489     2511     2517     2520     2510 
    2508     2532     2546     2527     2504     2498     2500     2513 
    2523     2501     2474     2466     2438     2390     2360     2354 
    2341     2296     2240     2198     2152     2092     2041     1998 
    1949     1901     1841     1761     1695     1642     1589     1526 
    1428     1330     1294     1258     1128      968      874      808 
     695      556      439      334      224      101      -26     -145 
    -278     -446     -595     -694     -812     -967    -1100    -1221 
   -1362    -1482    -1589    -1717    -1832    -1935    -2052    -2169 
   -2266    -2344    -2415    -2490    -2567    -2665    -2766    -2833 
   -2909    -3003    -3051    -3093    -3182    -3268    -3335    -3398 
   -3454    -3532    -3624    -3684    -3738    -3815    -3891    -3955 
   -4004    -4036    -4076    -4123    -4154    -4185    -4215    -4232 
   -4269    -4312    -4333    -4358    -4379    -4391    -4413    -4436 
   -4466    -4515    -4556    -4580    -4596    -4627    -4676    -4701 
   -4697    -4733    -4812    -4856    -4857    -4873    -4921    -4960 
   -4968    -4963    -4960    -4961    -4967    -4977    -4981    -4966 
   -4948    -4954    -4949    -4928    -4938    -4952    -4928    -4898 
   -4872    -4845    -4826    -4794    -4747    -4734    -4755    -4749 
   -4709    -4674    -4641    -4609    -4617    -4639    -4606    -4533 
   -4486    -4472    -4456    -4415    -4358    -4319    -4297    -4250 
   -4203    -4172    -4108    -4044    -4018    -3969    -3901    -3859 
   -3809    -3750    -3704    -3650    -3594    -3560    -3532    -3493 
   -3450    -3394    -3342    -3296    -3220    -3153    -3129    -3076 
   -3002    -2967    -2921    -2832    -2761    -2722    -2687    -2651 
   -2610    -2566    -2537    -2503    -2447    -2403    -2397    -2396 
   -2378    -2352    -2341    -2342    -2326    -2301    -2281    -2261 
   -2272    -2285    -2256    -2239    -2251    -2257    -2238    -2200 
   -2187    -2171    -2127    -2113    -2089    -2052    -2055    -2026 
   -1979    -1974    -1950    -1938    -1952    -1914    -1888    -1911 
   -1899    -1886    -1899    -1879    -1851    -1852    -1830    -1809 
   -1826    -1833    -1847    -1867    -1842    -1826    -1835    -1821 
   -1812    -1803    -1779    -1786    -1795    -1773    -1751    -1744 
   -1745    -1725    -1696    -1682    -1666    -1656    -1658    -1644 
   -1599    -1564    -1579    -1564    -1526    -1551    -1551    -1502 
   -1499    -1495    -1472    -1473    -1449    -1405    -1370    -1341 
   -1331    -1321    -1306    -1311    -1319    -1307    -1278    -1258 
   -1248    -1216    -1186    -1196    -1221    -1230    -1231    -1226 
   -1209    -1194    -1186    -1178    -1189    -1209    -1202    -1192 
   -1197    -1177    -1147    -1134    -1123    -1136    -1167    -1178 
   -1198    -1221    -1201    -1186    -1184    -1167    -1191    -1219 
   -1206    -1213    -1215    -1177    -1145    -1108    -1084    -1109 
   -1121    -1108    -1119    -1125    -1125    -1128    -1110    -1088 
   -1084    -1100    -1105    -1065    -1042    -1071    -1037     -957 
    -931     -884     -828     -835     -808     -764     -755     -693 
    -632     -607     -538     -483     -461     -406     -357     -326 
    -272     -219     -190     -152     -107      -98     -104      -98 
     -92      -85      -75      -72      -76      -91     -120     -153 
    -187     -236     -271     -274     -286     -299     -283     -288 
    -320     -325     -330     -379     -408     -385     -374     -379 
    -376     -399     -438     -449     -459     -481     -484     -495 
    -536     -549     -536     -563     -621     -660     -675     -717 
    -812     -869     -845     -868     -963    -1000    -1022    -1139 
   -1237    -1248    -1304    -1391    -1423    -1490    -1624    -1728 
   -1813    -1915    -2004    -2073    -2133    -2177    -2229    -2328 
   -2454    -2560    -2654    -2747    -2832    -2907    -2958    -3011 
   -3112    -3225    -3320    -3418    -3502    -3557    -3609    -3667 
   -3733    -3818    -3919    -4026    -4126    -4180    -4196    -4229 
   -4272    -4292    -4327    -4422    -4516    -4552    -4590    -4642 
   -4630    -4596    -4631    -4694    -4736    -4788    -4833    -4849 
   -4871    -4883    -4846    -4808    -4810    -4815    -4808    -4820 
   -4822    -4780    -4751    -4753    -4730    -4705    -4717    -4711 
   -4676    -4664    -4648    -4614    -4602    -4588    -4553    -4535 
   -4514    -4474    -4457    -4435    -4357    -4290    -4277    -4234 
   -4154    -4126    -4130    -4088    -4026    -3996    -3962    -3876 
   -3801    -3781    -3736    -3673    -3662    -3634    -3556    -3500 
   -3453    -3387    -3335    -3289    -3240    -3218    -3178    -3090 
   -3017    -2959    -2872    -2794    -2746    -2701    -2662    -2624 
   -2551    -2456    -2365    -2278    -2207    -2160    -2115    -2071 
   -2023    -1929    -1808    -1720    -1661    -1601    -1530    -1465 
   -1421    -1367    -1277    -1184    -1112    -1033     -948     -894 
    -860     -807     -735     -661     -602     -559     -516     -463 
    -418     -373     -320     -281     -249     -205     -168     -154 
    -149     -136     -116      -91      -70      -72      -75      -49 
     -31      -41      -45      -27        0        8      -10      -30 
     -36      -37      -57     -107     -138     -136     -166     -220 
    -245     -276     -330     -362     -386     -440     -506     -560 
    -606     -660     -712     -733     -739     -774     -829     -867 
    -905     -969    -1027    -1054    -1065    -1075    -1096    -1139 
   -1199    -1267    -1317    -1334    -1337    -1352    -1375    -1403 
   -1434    -1463    -1483    -1478    -1460    -1466    -1485    -1496 
   -1498    -1490    -1478    -1471    -1447    -1393    -1348    -1329 
   -1308    -1279    -1243    -1193    -1141    -1090    -1031     -978 
    -938     -907     -871     -827     -778     -706     -634     -598 
    -567     -508     -458     -449     -452     -426     -370     -321 
    -312     -301     -254     -229     -238     -242     -246     -261 
    -262     -247     -229     -217     -215     -226     -251     -281 
    -282     -259     -248     -235     -226     -242     -246     -239 
    -256     -274     -262     -232     -214     -223     -240     -248 
    -254     -284     -332     -355     -344     -331     -349     -409 
    -455     -464     -498     -567     -593     -567     -545     -547 
    -570     -604     -618     -619     -631     -630     -608     -595 
    -578     -553     -572     -610     -600     -544     -479     -448 
    -467     -468     -436     -437     -463     -436     -366     -329 
    -329     -331     -348     -384     -408     -413     -404     -395 
    -392     -412     -479     -559     -607     -636     -656     -663 
    -674     -678     -671     -722     -823     -871     -864     -848 
    -823     -798     -777     -773     -816     -871     -890     -892 
    -890     -871     -854     -862     -880     -902     -922     -943 
    -963     -948     -934     -953     -952     -939     -963    -1005 
   -1032    -1033    -1010     -990     -984     -967     -950     -961 
    -979     -979     -956     -913     -865     -827     -800     -803 
    -838     -842     -809     -797     -777     -747     -777     -820 
    -818     -827     -857     -885     -919     -943     -959     -997 
   -1041    -1066    -1087    -1115    -1163    -1224    -1266    -1308 
   -1357    -1356    -1337    -1374    -1438    -1493    -1556    -1608 
   -1643    -1662    -1628    -1591    -1636    -1713    -1763    -1810 
   -1824    -1789    -1769    -1779    -1809    -1842    -1831    -1825 
   -1876    -1890    -1860    -1844    -1803    -1769    -1781    -1766 
   -1745    -1757    -1728    -1675    -1663    -1644    -1597    -1564 
   -1558    -1562    -1531    -1471    -1455    -1477    -1471    -1443 
   -1402    -1368    -1362    -1347    -1326    -1339    -1340    -1316 
   -1326    -1335    -1293    -1264    -1293    -1360    -1417    -1430 
   -1431    -1472    -1531    -1567    -1580    -1588    -1609    -1650 
   -1687    -1709    -1715    -1732    -1781    -1820    -1825    -1845 
   -1894    -1926    -1918    -1902    -1914    -1945    -1983    -2041 
   -2105    -2124    -2101    -2099    -2152    -2221    -2241    -2233 
   -2278    -2351    -2406    -2472    -2545    -2595    -2632    -2683 
   -2749    -2824    -2920    -3018    -3075    -3124    -3185    -3230 
   -3287    -3369    -3437    -3524    -3642    -3721    -3771    -3829 
   -3858    -3873    -3930    -4001    -4043    -4086    -4142    -4176 
   -4190    -4206    -4238    -4293    -4341    -4357    -4371    -4404 
   -4446    -4482    -4514    -4542    -4563    -4600    -4640    -4626 
   -4612    -4696    -4788    -4779    -4749    -4783    -4835    -4849 
   -4875    -4938    -4957    -4941    -4962    -4978    -4993    -5052 
   -5088    -5112    -5197    -5259    -5256    -5309    -5415    -5490 
   -5580    -5700    -5787    -5840    -5896    -5984    -6108    -6223 
   -6310    -6389    -6456    -6532    -6639    -6743    -6824    -6898 
   -6968    -7050    -7147    -7221    -7260    -7297    -7330    -7334 
   -7327    -7353    -7405    -7442    -7440    -7415    -7405    -7414 
   -7422    -7427    -7419    -7389    -7372    -7368    -7326    -7291 
   -7306    -7292    -7245    -7238    -7242    -7224    -7203    -7170 
   -7128    -7102    -7084    -7076    -7077    -7050    -7018    -7036 
   -7017    -6884    -6821    -6914    -6909    -6780    -6739    -6704 
   -6604    -6585    -6562    -6434    -6342    -6320    -6277    -6200 
   -6099    -5978    -5877    -5803    -5714    -5625    -5569    -5499 
   -5384    -5256    -5134    -5036    -4968    -4899    -4823    -4742 
   -4632    -4525    -4465    -4413    -4330    -4235    -4132    -4031 
   -3966    -3918    -3846    -3770    -3699    -3607    -3527    -3485 
   -3421    -3339    -3301    -3271    -3202    -3141    -3098    -3050 
   -3011    -2969    -2916    -2891    -2876    -2836    -2786    -2725 
   -2663    -2652    -2663    -2635    -2578    -2523    -2493    -2503 
   -2505    -2453    -2406    -2391    -2358    -2319    -2301    -2267 
   -2198    -2130    -2096    -2083    -2064    -2028    -1986    -1952 
   -1899    -1829    -1800    -1800    -1774    -1733    -1703    -1679 
   -1650    -1626    -1621    -1602    -1534    -1479    -1491    -1499 
   -1458    -1414    -1389    -1379    -1360    -1331    -1316    -1287 
   -1227    -1182    -1168    -1155    -1126    -1092    -1058    -1027 
   -1008     -984     -960     -952     -935     -888     -846     -834 
    -838     -830     -813     -809     -821     -850     -863     -809 
    -747     -763     -809     -817     -802     -783     -764     -758 
    -765     -770     -757     -740     -750     -743     -675     -622 
    -650     -676     -623     -566     -564     -560     -508     -473 
    -489     -484     -431     -385     -364     -334     -269     -221 
    -205     -156     -101      -68      -17       -8      -16       67 
     111       45       74      171      171      166      196      179 
     160      159      172      215      222      183      156      165 
     199      202      162      131      110       86       70       54 
      14      -27      -32      -42     -105     -168     -199     -228 
    -229     -223     -280     -357     -394     -419     -446     -484 
    -542     -561     -542     -578     -650     -679     -687     -702 
    -715     -734     -758     -782     -809     -834     -856     -883 
    -927     -985    -1015    -1011    -1021    -1054    -1102    -1166 
   -1218    -1248    -1285    -1351    -1429    -1474    -1457    -1439 
   -1468    -1503    -1531    -1577    -1626    -1655    -1662    -1658 
   -1671    -1696    -1714    -1738    -1766    -1790    -1815    -1832 
   -1838    -1844    -1846    -1852    -1869    -1905    -1971    -2028 
   -2037    -2037    -2054    -2065    -2086    -2137    -2182    -2213 
   -2253    -2280    -2302    -2347    -2392    -2423    -2452    -2491 
   -2555    -2624    -2656    -2679    -2725    -2745    -2752    -2812 
   -2887    -2930    -2975    -3044    -3111    -3162    -3207    -3263 
   -3328    -3376    -3398    -3425    -3478    -3536    -3563    -3584 
   -3654    -3732    -3744    -3734    -3755    -3774    -3798    -3858 
   -3889    -3879    -3919    -3989    -3995    -3962    -3961    -3989 
   -4018    -4050    -4090    -4106    -4089    -4065    -4042    -4017 
   -4000    -3984    -3970    -3951    -3897    -3840    -3821    -3786 
   -3705    -3641    -3623    -3599    -3547    -3497    -3455    -3404 
   -3328    -3218    -3124    -3087    -3060    -3033    -3012    -2935 
   -2834    -2778    -2719    -2654    -2630    -2615    -2582    -2533 
   -2466    -2407    -2357    -2289    -2220    -2191    -2205    -2201 
   -2138    -2049    -1974    -1919    -1860    -1758    -1655    -1630 
   -1612    -1519    -1456    -1456    -1403    -1315    -1272    -1251 
   -1233    -1207    -1162    -1126    -1123    -1125    -1111    -1087 
   -1057    -1040    -1051    -1070    -1080    -1101    -1129    -1118 
   -1093    -1114    -1151    -1168    -1187    -1207    -1218    -1240 
   -1255    -1243    -1233    -1260    -1300    -1318    -1314    -1300 
   -1297    -1325    -1358    -1363    -1361    -1374    -1396    -1411 
   -1412    -1426    -1455    -1446    -1393    -1354    -1359    -1399 
   -1439    -1435    -1410    -1381    -1340    -1340    -1380    -1372 
   -1351    -1367    -1353    -1313    -1299    -1277    -1243    -1261 
   -1325    -1364    -1340    -1286    -1284    -1361    -1422    -1417 
   -1432    -1503    -1527    -1465    -1428    -1461    -1506    -1530 
   -1525    -1517    -1562    -1606    -1574    -1537    -1542    -1545 
   -1571    -1624    -1642    -1631    -1643    -1686    -1711    -1710 
   -1735    -1782    -1808    -1828    -1872    -1922    -1952    -1997 
   -2076    -2124    -2122    -2139    -2158    -2169    -2257    -2377 
   -2404    -2386    -2386    -2380    -2394    -2429    -2447    -2491 
   -2565    -2582    -2543    -2515    -2502    -2485    -2485    -2520 
   -2579    -2640    -2648    -2603    -2590    -2615    -2615    -2637 
   -2718    -2759    -2729    -2748    -2834    -2868    -2834    -2823 
   -2820    -2780    -2762    -2832    -2934    -2963    -2941    -2919 
   -2863    -2828    -2881    -2965    -3014    -3019    -3006    -2998 
   -2969    -2924    -2931    -2970    -2988    -3020    -3062    -3041 
   -2975    -2943    -2938    -2927    -2923    -2937    -2943    -2946 
   -2948    -2930    -2910    -2876    -2811    -2803    -2882    -2947 
   -2938    -2907    -2908    -2925    -2927    -2934    -2949    -2947 
   -2937    -2932    -2924    -2929    -2945    -2942    -2929    -2914 
   -2876    -2858    -2873    -2861    -2847    -2879    -2890    -2830 
   -2760    -2732    -2736    -2741    -2716    -2677    -2656    -2650 
   -2642    -2613    -2556    -2500    -2475    -2459    -2425    -2389 
