Origin Time       2011/03/11 14:46:00
Lat.              38.103
Long.             142.860
Depth. (km)       24
Mag.              9.0
Station Code      HKD077
Station Lat.      42.9845
Station Long.     144.3824
Station Height(m) 3
Record Time       2011/03/11 14:48:13
Sampling Freq(Hz) 100Hz
Duration Time(s)  259
Dir.              E-W
Scale Factor      3920(gal)/6182761
Max. Acc. (gal)   24.528
Last Correction   2011/03/11 14:47:58
Memo.             
[...]
   -6634    -6533    -6928    -7384    -7747    -8044    -8455    -9308 
  -10684   -12355   -14165   -15828   -16768   -16832   -16542   -16360 
  -16258   -16032   -15570   -14866   -14303   -14463   -15223   -15905 
  -16352   -16941   -17814   -18863   -19930   -20478   -19807   -17829 
  -15121   -12563   -11023   -10643   -10691   -10648   -10686   -10894 
  -11056   -11173   -11275   -11113   -10682   -10429   -10689   -11568 
  -12968   -14159   -14159   -12785   -10785    -9259    -9126   -10621 
  -12955   -14604   -14520   -13107   -11479   -10159    -9061    -8206 
   -7911    -8605   -10560   -13427   -16207   -18161   -19217   -19400 
  -18881   -18112   -17118   -15650   -14073   -13012   -12525   -12285 
  -12059   -11903   -12237   -13461   -15221   -16555   -16937   -16665 
  -16221   -15776   -15375   -15057   -14648   -13904   -12642   -10588 
   -7809    -5129    -3466    -3209    -4260    -6103    -7962    -9254 
   -9941   -10268   -10325   -10291   -10546   -11166   -12035   -13340 
  -15235   -17306   -19019   -20346   -21490   -22319   -22448   -21642 
  -20075   -18427   -17335   -16700   -16160   -15886   -16230   -17164 
  -18424   -19572   -20019   -19652   -18993   -18150   -16398   -13485 
  -10368    -8167    -7081    -6576    -6230    -6071    -6322    -7136 
   -8429    -9900   -11227   -12200   -12872   -13604   -14701   -16033 
  -17133   -17589   -17314   -16545   -15739   -15190   -14675   -13905 
  -13051   -12403   -11871   -11459   -11786   -13228   -15124   -16475 
  -16730   -15819   -14120   -12405   -11552   -12010   -13302   -14563 
  -15515   -16240   -16545   -16219   -15240   -13614   -11629   -10014 
   -9511   -10386   -12184   -13939   -14801   -14526   -13538   -12626 
  -12352   -12392   -11882   -10608    -9092    -7856    -7350    -7749 
   -8555    -9079    -9016    -8357    -7309    -6368    -6106    -6798 
   -8521   -11276   -14684   -18175   -21378   -23737   -24398   -23037 
  -20202   -16705   -13382   -11126   -10225   -10223   -10844   -12190 
  -14143   -16253   -18074   -19265   -19621   -19317   -18730   -18001 
  -17077   -15856   -14295   -12577   -11045   -10004    -9488    -9277 
   -9212    -9233    -9423    -9988   -10651   -10648    -9801    -8863 
   -8651    -9520   -11237   -12890   -13833   -14458   -15111   -15433 
  -15305   -15143   -15202   -15393   -15440   -14917   -13513   -11356 
   -9057    -7663    -8115   -10248   -12865   -14949   -16309   -17249 
  -18063   -18754   -19158   -19237   -18963   -18199   -16943   -15487 
  -14158   -13042   -12088   -11393   -11210   -11695   -12713   -13835 
  -14518   -14440   -13551   -11992   -10173    -8633    -7640    -7153 
   -7218    -7998    -9344   -10805   -12033   -12892   -13389   -13593 
  -13413   -12683   -11588   -10631   -10080    -9807    -9807   -10472 
  -12036   -13994   -15497   -16245   -16547   -16721   -17003   -17613 
  -18480   -19234   -19549   -19305   -18465   -16964   -14889   -12654 
  -10713    -9402    -9163   -10140   -11705   -13021   -13539   -12948 
  -11534   -10208    -9503    -9196    -9111    -9355    -9923   -10714 
  -11481   -11728   -11228   -10436   -10066   -10452   -11432   -12640 
  -13735   -14559   -15116   -15324   -15162   -14833   -14331   -13422 
  -12300   -11701   -12118   -13331   -15061   -17270   -19600   -21426 
  -22380   -22221   -20561   -17312   -13194    -9368    -6826    -6083 
   -6862    -8237    -9286    -9447    -8794    -8032    -7566    -7107 
   -6534    -6333    -7163    -9290   -12147   -14426   -15136   -14724 
  -14399   -14420   -14166   -13348   -12212   -11488   -12206   -14324 
  -16314   -17023   -16714   -16004   -15414   -15673   -16741   -17568 
  -17588   -16869   -15555   -14397   -14447   -15734   -17330   -18443 
  -18483   -16966   -14270   -11427    -9167    -7891    -7641    -7994 
   -8624    -9384    -9951   -10110   -10188   -10747   -11755   -12653 
  -13032   -12762   -12135   -11694   -11477   -11333   -11621   -12612 
  -13899   -14857   -15343   -15751   -16500   -17685   -19106   -20392 
  -21196   -21484   -21689   -22144   -22437   -21869   -20202   -17737 
  -15004   -12504   -10763   -10201   -10592   -11105   -10922    -9608 
   -7358    -4992    -3214    -2082    -1405    -1210    -1898    -3801 
   -6543    -9461   -12176   -14267   -15446   -15932   -16084   -16243 
  -16581   -16723   -16167   -14997   -13741   -12675   -11736   -11209 
  -11646   -12977   -14753   -16865   -19068   -20595   -21067   -21071 
  -21258   -21418   -21125   -20769   -20925   -21231   -20956   -19930 
  -18246   -15984   -13445   -10995    -8974    -7746    -7175    -6568 
   -5631    -4795    -4404    -4246    -3946    -3304    -2324    -1250 
    -510     -590    -1792    -3733    -5478    -6664    -7821    -9281 
  -10839   -12249   -13141   -13317   -13626   -15411   -19095   -24049 
  -29247   -33323   -34934   -33831   -30666   -26035   -20802   -16199 
  -12704   -10095    -8522    -8283    -8944    -9656    -9980    -9959 
  -10026   -10825   -12392   -14073   -15509   -16690   -17236   -16579 
  -14384   -10700    -6283    -2370      206     1411     1697     1766 
    2374     3488     4268     4188     2909      -42    -4288    -8757 
  -12873   -16561   -19912   -23154   -26245   -28634   -29753   -29559 
  -28507   -27100   -25564   -23794   -21498   -18671   -15693   -12716 
   -9795    -7442    -6132    -5996    -7218    -9853   -13359   -16897 
  -19943   -22455   -24699   -26687   -27746   -27157   -24684   -20378 
  -14905    -9632    -5795    -4067    -4380    -5525    -5779    -4275 
   -1239     2577     6018     7896     7724     5633     2056    -1984 
   -5088    -6637    -7341    -8403   -10378   -12993   -15766   -18363 
  -20539   -22009   -22601   -22807   -23543   -25003   -26561   -27659 
  -28044   -27551   -26264   -24408   -22184   -20354   -20021   -21079 
  -22210   -22636   -22483   -21790   -20391   -18392   -16278   -14825 
  -14497   -14640   -14142   -12751   -10888    -8746    -6251    -3263 
     429     4592     8162    10185    10863    10979    10811    10100 
    8583     6191     2908    -1151    -5723   -10825   -16569   -22477 
  -27812   -32289   -35671   -37341   -36970   -34981   -31919   -28107 
  -24174   -20941   -18562   -16396   -13601    -9780    -5699    -3078 
   -2858    -4177    -5591    -6549    -7314    -8046    -8512    -8790 
   -9538   -11069   -12883   -14418   -15461   -15644   -14604   -12650 
  -10259    -7472    -4514    -2091     -696     -337     -946    -2561 
   -5346    -9696   -15703   -22486   -29016   -34980   -39976   -43169 
  -44172   -42934   -39142   -32905   -25372   -17912   -11405    -6370 
   -2807     -225     1464     1628     -241    -4101    -9455   -14904 
  -18448   -19177   -17662   -14709   -11076    -7936    -6298    -6031 
   -6063    -5455    -4074    -2415     -968      278     1342     1443 
    -225    -3227    -6537    -9819   -13169   -16339   -18991   -21106 
  -22710   -23625   -23682   -22975   -21591   -19322   -16366   -13856 
  -12676   -12425   -12244   -11671   -10590    -9488    -9499   -11547 
  -15584   -20454   -24465   -26584   -27163   -26972   -25528   -21410 
  -14205    -5305     2925     8423    10505    10131     8967     7877 
    6369     3516    -1145    -7209   -13127   -17122   -18690   -18448 
  -17023   -14788   -12077    -9269    -6860    -5459    -5369    -6117 
   -7022    -8036    -9238   -10354   -11394   -12744   -14721   -17739 
  -21985   -26606   -30158   -31628   -30728   -28149   -25481   -24005 
  -23747   -24080   -24539   -24579   -23619   -21736   -19326   -16452 
  -13188    -9862    -7021    -5445    -5619    -7066    -8673    -9911 
  -11234   -12773   -13636   -12979   -10583    -6815    -3201    -1902 
   -3713    -7489   -11610   -15159   -17966   -20241   -21985   -22482 
  -20919   -17699   -14458   -12659   -12695   -14207   -16432   -18040 
  -17557   -14446    -9530    -4537    -1274     -742    -3008    -7528 
  -12948   -17163   -18515   -17049   -14198   -11392    -9281    -7606 
   -5503    -2646       -4     1015     -309    -3732    -8195   -12220 
  -14580   -15141   -15093   -15922   -18287   -21928   -26141   -30138 
  -33388   -35729   -36903   -36195   -33172   -28420   -22799   -16749 
  -10995    -6649    -4185    -3217    -2994    -2631    -1823    -1435 
   -2327    -4140    -6112    -7864    -8677    -7630    -5147    -2794 
   -1418     -854     -916    -1640    -3117    -5222    -7439    -9447 
  -11424   -13304   -14688   -15516   -15914   -15893   -15710   -15912 
  -17053   -19302   -22013   -24003   -24333   -22736   -19734   -16556 
  -14654   -14902   -17011   -19796   -21972   -22801   -22291   -20804 
  -18783   -16658   -14506   -12277   -10658   -10917   -13477   -17084 
  -19846   -20859   -20370   -18859   -16977   -15775   -15903   -17264 
  -19739   -23346   -27715   -31683   -33613   -32236   -26974   -18515 
   -9209    -1251     5031    10143    13816    14900    12648     7811 
    2075    -2887    -5921    -6851    -6376    -5545    -5340    -6171 
   -7514    -8423    -8636    -8984   -10557   -13406   -16534   -19031 
  -20270   -19676   -17433   -14754   -13143   -13917   -17645   -23243 
  -28613   -32467   -34636   -35286   -35133   -35117   -34944   -33638 
  -31166   -27980   -24187   -20118   -16428   -13295   -10259    -6657 
   -1746     4687    11220    15281    15102    10761     3720    -3989 
  -10418   -14523   -16283   -15779   -12922    -7908    -1362     5084 
    8847     8750     6053     2050    -3065    -8749   -13896   -17496 
  -18586   -16854   -13370   -10150    -9167   -11292   -15790   -21137 
  -26214   -30386   -32781   -32516   -29905   -26230   -22405   -19110 
  -17597   -18851   -22144   -25281   -26265   -24668   -21650   -18613 
  -16215   -14751   -14346   -14686   -15139   -15040   -14188   -13199 
  -12821   -13019   -12985   -11838    -9371    -6308    -3682    -1977 
   -1234    -1460    -2367    -3370    -3925    -3624    -2480    -1057 
     114      890     1166      819       71     -679    -1405    -2572 
   -4790    -8332   -13003   -18403   -24070   -29434   -33668   -35833 
  -35527   -33273   -30183   -27322   -25405   -24671   -24670   -24730 
  -24769   -24712   -23699   -21447   -19352   -18629   -18781   -18918 
  -18810   -18337   -17505   -16656   -15917   -15082   -14077   -13050 
  -12137   -11474   -11158   -10899   -10139    -8718    -7041    -5627 
   -4852    -4561    -3529     -266     5141    10552    13043    10855 
    4810    -2303    -7944   -11084   -11772   -10751    -9453    -9153 
   -9919   -11225   -13188   -16074   -19057   -20578   -19853   -17612 
  -15634   -15710   -18424   -22849   -27587   -31589   -34099   -34964 
  -35021   -35149   -35146   -34048   -30941   -25720   -19605   -14513 
  -11743   -11173   -11467   -11412   -11206   -11843   -13556   -15486 
  -16335   -15215   -12742   -10866   -10657   -11014   -10092    -7137 
   -2686     2392     7669    12910    17591    20945    21915    19598 
   14502     8389     2526    -2929    -8134   -13197   -17915   -21438 
  -23176   -23606   -23451   -23217   -23605   -24733   -25463   -24780 
  -22875   -20288   -17506   -15765   -16303   -18429   -20198   -20882 
  -21185   -21839   -23119   -24600   -25276   -24817   -24034   -23698 
  -23578   -23078   -22388   -22165   -22449   -22611   -21638   -18486 
  -13210    -7255    -2194     1025     1858      577    -1188    -1829 
   -1568    -1915    -4042    -8039   -12813   -16747   -18960   -19782 
  -20051   -20251   -20444   -20761   -21259   -21354   -20314   -18338 
  -16407   -15202   -14608   -14197   -13923   -13958   -13981   -13216 
  -11214    -8294    -5399    -3587    -3411    -4622    -6202    -6848 
   -6133    -4998    -4548    -4883    -5622    -6657    -8004    -9826 
  -12585   -16351   -20169   -22680   -23307   -22499   -21150   -20011 
  -19356   -19359   -20516   -22932   -25527   -26746   -25981   -23616 
  -20099   -16038   -12512   -10246    -9185    -9176    -9967   -10798 
  -11128   -10978   -10191    -8689    -7029    -5450    -3326     -298 
    2921     5002     4644     1441    -2988    -5859    -6016    -4750 
   -3936    -4575    -6683    -9486   -12156   -15022   -19389   -25857 
  -33278   -39246   -41576   -39663   -34599   -28320   -22603   -18458 
  -16392   -16625   -18681   -21411   -23343   -23143   -20798   -17931 
  -16249   -16206   -17032   -17344   -15997   -13109   -10328    -9341 
  -10098   -11120   -11181   -10042    -8020    -5607    -3399    -1728 
    -662     -660    -2118    -4416    -6670    -8853   -11092   -12530 
  -12094    -9955    -7419    -5828    -5962    -8103   -11904   -15785 
  -17387   -15539   -11227    -6383    -2376      355     1704     1253 
   -1722    -7377   -14320   -20431   -24946   -28738   -32665   -36226 
  -37644   -35399   -29857   -23152   -17364   -13170   -10309    -8581 
   -7888    -7792    -7677    -7380    -7289    -7755    -9008   -11366 
  -14640   -17859   -20152   -21147   -21021   -20966   -22261   -24612 
  -26514   -26458   -23519   -17915   -10584    -2253     6171    13062 
   16933    17584    15914    12884     9142     5078      702    -4120 
   -9503   -15704   -22597   -29112   -33921   -36506   -37004   -35411 
  -31908   -27562   -23716   -21187   -20173   -20088   -19760   -18440 
  -16503   -15205   -15771   -18469   -22282   -25411   -26533   -26029 
  -25719   -27228   -30828   -35302   -38353   -37946   -33829   -27439 
  -20507   -13797    -6854      992     9487    17404    23158    25564 
   24611    21475    17557    13566     9696     6284     3452      738 
   -1923    -4047    -5804    -7725    -9508   -10680   -11737   -13572 
  -16645   -20930   -25762   -30181   -33973   -37412   -39850   -39689 
  -36090   -29848   -22777   -17001   -13758   -12367   -11326    -9850 
   -7922    -5918    -4341    -3391    -2827    -2206    -1242     -228 
    -145    -2144    -6588   -12244   -17173   -20749   -23706   -26484 
  -28524   -28801   -26805   -23296   -19721   -16739   -13592    -8973 
   -2786     2981     5901     5265     2199    -1660    -5737   -10722 
  -16818   -22863   -27209   -28636   -27135   -23654   -18848   -13113 
   -7163    -1526     3653     8010    11012    12291    11393     7943 
    2167    -5286   -13776   -22540   -30272   -35462   -37569   -37695 
  -37831   -39210   -41171   -41887   -40074   -35720   -30207   -25602 
  -22717   -20639   -18442   -15975   -13215   -10024    -6601    -3741 
   -2512    -3492    -6140    -8971   -10511   -10018    -7303    -2596 
    3132     8333    11730    13015    12835    12172    11558    10662 
    8739     5612     2185     -405    -2318    -4936    -9200   -14694 
  -20472   -26229   -32013   -37485   -42426   -46646   -48759   -46794 
  -40331   -31020   -21426   -13864    -9636    -8552    -9155    -9826 
   -9800    -9327    -9066    -9261    -9655   -10103   -10599   -10847 
  -10436    -9228    -7157    -4031      -25     3894     6560     7574 
    7184     5658     3425      994    -1791    -5305    -8972   -11770 
  -13549   -15033   -16989   -19605   -22235   -23920   -24518   -25217 
  -27705   -32392   -37428   -39998   -38587   -34022   -28637   -24387 
  -21624   -19761   -18604   -18050   -17205   -15369   -12959   -10602 
   -8707    -7771    -7743    -8025    -8626    -9921   -11621   -12981 
  -13292   -12002    -9305    -6437    -4537    -3366    -1930      124 
    2585     5287     7685     8499     6739     2524    -3437    -9888 
  -14575   -15633   -13374    -9881    -7751    -9037   -13686   -19271 
  -23416   -25778   -27248   -28504   -29852   -31608   -33954   -36516 
  -38385   -38636   -37005   -34056   -30537   -26783   -22577   -17667 
  -12600    -8243    -4633    -1252     2224     5754     8779    10488 
   10400     8356     4598      287    -2855    -4083    -4386    -5531 
   -8744   -14080   -20207   -24896   -26495   -24854   -21007   -16580 
  -12992   -10475    -8390    -6748    -6324    -7206    -8649   -10302 
  -12301   -14353   -15900   -16448   -15259   -12211    -8556    -5589 
   -3691    -2884    -2952    -3200    -2885    -1737     -182      861 
     651    -1012    -3817    -7056   -10138   -13085   -16356   -20038 
  -23396   -25653   -26790   -27314   -27806   -28704   -30127   -31642 
  -32177   -30963   -28820   -27417   -27362   -27886   -27753   -26148 
  -23108   -19120   -14934   -11653    -9926    -9368    -9139    -8514 
   -6993    -4349     -756     2873     4750     3442     -254    -3660 
   -4813    -3994    -2926    -3023    -4245    -5661    -6761    -7426 
   -7102    -5344    -2982    -1610    -1935    -3301    -4543    -4956 
   -4999    -6028    -8752   -12407   -15666   -17646   -18233   -17928 
  -17257   -16416   -15537   -14963   -15130   -16172   -17789   -19586 
  -21402   -23187   -24686   -25540   -25646   -25323   -25088   -25052 
  -24812   -24008   -22495   -20196   -17452   -15204   -13912   -12710 
  -10465    -7108    -3503     -529     1774     4084     6711     9056 
   10070     9158     6664     3269     -571    -4289    -7127    -8677 
   -9318   -10090   -11699   -13518   -14300   -13881   -13319   -13378 
  -13922   -14811   -16056   -17072   -16944   -15460   -13382   -11915 
  -11830   -12826   -14082   -15333   -16706   -17931   -18302   -17345 
  -15451   -13538   -12405   -12841   -15072   -17702   -19047   -19162 
  -19069   -19432   -20675   -22579   -23850   -23442   -21978   -21177 
  -22318   -25319   -28427   -29183   -26498   -21069   -14081    -6731 
    -256     4634     7825     9250     9005     7706     6178     5041 
    4396     3659     2195      304     -981    -1218    -1046    -1617 
   -4091    -8876   -15120   -21542   -27418   -32404   -36185   -38845 
  -40706   -41577   -40918   -38563   -35109   -31899   -29989   -28785 
  -26490   -22263   -17031   -12036    -7976    -5434    -4541    -4328 
   -3425    -1445      692     2036     2706     3322     4019     4422 
    4146     3241     2010      608     -769    -1993    -3363    -4918 
   -5900    -5803    -5237    -5317    -6627    -8829   -11006   -12460 
  -13345   -14345   -16066   -19042   -23273   -27581   -30599   -32289 
  -33693   -35374   -36755   -36784   -34718   -30732   -25876   -20889 
  -15817   -11055    -7462    -5728    -6414    -9501   -13588   -16666 
  -17753   -17173   -15481   -12973   -10416    -8896    -8618    -8991 
   -9739   -10864   -11905   -12181   -11346    -9171    -5721    -1883 
    1365     3686     4708     3764      960    -2408    -4816    -5509 
   -4717    -3333    -2378    -2466    -3849    -6756   -10977   -15565 
  -19769   -23614   -27176   -30088   -31767   -31661   -29728   -27045 
  -25411   -25776   -27319   -28650   -29262   -29003   -27313   -23901 
  -19156   -13842    -9071    -5814    -3911    -2510    -1657    -2245 
   -4330    -6616    -7551    -6392    -3799    -1558     -925    -1715 
   -3279    -4991    -6088    -6400    -6432    -6304    -5619    -4304 
   -3023    -2747    -3765    -5274    -6317    -6912    -7869    -9849 
  -13019   -17047   -21050   -24095   -25697   -25888   -25655   -26678 
  -29494   -32566   -34045   -33623   -32209   -30979   -30832   -31362 
  -30788   -28096   -24229   -20757   -18678   -18039   -17733   -16312 
  -13331    -9573    -6100    -3306    -1081      648     1975     2949 
