Origin Time       2011/03/11 14:46:00
Lat.              38.103
Long.             142.860
Depth. (km)       24
Mag.              9.0
Station Code      HKD094
Station Lat.      43.1692
Station Long.     143.2410
Station Height(m) 204
Record Time       2011/03/11 14:48:12
Sampling Freq(Hz) 100Hz
Duration Time(s)  300
Dir.              U-D
Scale Factor      3920(gal)/6182761
Max. Acc. (gal)   11.829
Last Correction   2011/03/11 14:47:57
Memo.             
[...]
   44530    44797    44882    44517    44778    44704    43086    42249 
   43093    42768    41450    42150    44015    43956    42297    41670 
   42657    43436    42941    42331    42343    41915    40822    40001 
   39352    38476    37870    37691    37424    37047    36586    35804 
   35485    36147    36386    35180    33613    33204    34026    34766 
   34640    34363    34360    33916    33192    33378    34476    35416 
   35256    33721    32245    32262    32417    31220    30167    30604 
   31041    30077    28673    28327    28720    28491    28198    29021 
   29594    28973    28566    28857    29102    28931    28455    28192 
   28126    27894    28069    28868    28989    28188    28436    30196 
   30943    29465    28194    28793    29053    27689    27033    27889 
   28078    27042    26518    27167    27923    28158    28487    29443 
   30234    29586    28143    27990    29211    30126    30369    30899 
   32334    34064    34913    35181    35862    36255    35678    35521 
   36470    37146    37625    39149    40477    40241    39606    39304 
   39174    39737    40266    39644    39352    40247    40397    39365 
   38764    38917    38991    38260    37023    36647    37116    37182 
   37216    38053    38700    37922    36445    36160    37147    37295 
   36454    37004    38811    39283    38247    37844    38500    38424 
   37387    37336    38641    39717    39552    38801    39127    40406 
   40774    40618    41419    42198    42018    41804    41864    41785 
   41851    42462    43489    44021    43253    42452    42981    43417 
   42828    42553    42608    42007    41135    40586    40823    42124 
   43249    43067    42323    41741    41230    40781    40042    39079 
   38917    39356    39094    38073    37239    37109    37245    36991 
   36742    37160    37751    37524    36725    37004    38403    38557 
   37534    37962    39155    39048    39044    39934    39895    39055 
   38818    38964    38940    38449    37605    37422    37906    37741 
   36697    36034    36687    38020    38964    39540    39890    39396 
   38141    37277    37312    37496    36904    35830    35182    34416 
   33147    33231    34993    35528    33803    31983    31231    31059 
   31245    31701    32333    32948    33180    33197    33026    32678 
   33195    34446    34606    33527    32959    33624    34110    33292 
   32754    33804    34644    34247    34326    35573    37117    38281 
   38420    37986    38023    38234    38344    38385    37902    37486 
   37721    37424    36410    36066    36222    35771    34864    34352 
   34412    34181    33587    33829    34622    34925    35127    35147 
   34749    35084    35742    34736    32933    32896    34134    34640 
   34516    34249    33447    32937    33804    34722    34148    33420 
   34151    35647    36782    37153    36854    36524    36688    37613 
   38992    39205    37636    36511    37090    37791    37945    38419 
   39137    39561    39516    39166    39469    40351    40143    39379 
   40245    41993    42248    41066    40330    40751    41294    40989 
   40449    40841    41881    42608    42899    43012    43237    43635 
   43663    43153    42880    43000    42432    41349    40950    40589 
   39968    40658    41806    41027    39965    41478    44126    45058 
   44028    42744    42613    42702    41557    40124    39461    38634 
   37159    36350    36912    36981    35060    33548    34603    35360 
   33390    31475    31624    31842    30977    29793    28773    28280 
   28208    27717    26689    26220    27026    27808    26888    25480 
   26045    27672    27466    25727    25292    26860    28608    29428 
   29555    29046    28334    28431    29239    29876    29897    29359 
   29100    29695    30095    29547    28955    28683    28074    27254 
   26920    27595    28523    27374    24790    24612    26562    26921 
   25843    26006    27023    27200    27217    28051    29272    30287 
   30650    30851    31953    33029    32624    32015    32887    33930 
   33521    32801    33059    33622    33553    32836    32398    32836 
   32964    32209    32328    33810    34571    33969    33709    34307 
   34764    34925    35165    35492    35901    36543    37318    37062 
   35263    34093    34811    35297    34310    33372    33637    34398 
   34513    34263    34785    35965    37287    39010    40556    41002 
   40749    40801    42295    44553    44581    42680    42186    42797 
   42863    43342    43979    43222    41890    41451    42128    43461 
   43991    43187    42954    44042    44512    43666    43504    44663 
   44758    43403    43445    44921    45337    45317    46267    46693 
   46072    45878    45914    45429    45140    45434    45839    45784 
   44802    43732    43707    43839    43335    42662    41543    40309 
   40119    40334    40413    41239    42103    41874    41664    41892 
   41550    40961    40450    39848    40031    40625    39936    38759 
   38844    39091    38597    39461    41794    42437    41347    41507 
   43014    43710    43280    42921    43424    44742    45677    45377 
   45316    46543    47373    46749    45970    46033    46647    47213 
   47159    46838    47300    47969    47433    46515    46893    47947 
   48574    49357    50268    50023    49021    48965    49355    48788 
   48118    47890    47244    46836    47263    47267    46547    46156 
   46140    46089    46559    47570    47432    45092    42626    42742 
   44483    45019    43827    42303    41730    42064    42236    42194 
   42576    42903    42853    43339    44273    44042    42344    40942 
   40868    40847    39973    39898    41445    42241    40872    39116 
   38554    38549    37863    36929    36920    37012    36416    36619 
   37428    36525    34636    34002    33850    33217    33360    34319 
   34127    32610    31907    32656    33116    32281    31220    30996 
   30839    29675    28474    28716    29480    29122    28268    28019 
   28269    28817    29147    29161    29802    30609    30556    30621 
   31312    31229    30327    30201    30816    30833    30481    30822 
   31403    31814    33007    34290    33891    33107    33705    34370 
   34336    34779    35582    35868    35850    35923    35974    35407 
   34006    32732    32181    32485    33567    33440    31362    30273 
   31162    31530    30582    29628    28999    28378    28156    28689 
   29232    28769    28223    28969    29735    29721    30158    30868 
   31363    31659    30668    29091    29209    30618    31856    32751 
   32955    32418    31879    31569    31581    32118    33129    34313 
   34334    32681    31586    32095    32262    31081    29616    29313 
   30627    32027    32238    32173    32881    34381    36074    36951 
   36902    36708    36383    36112    36957    38326    38325    37064 
   36164    35940    35299    34012    33237    33178    33098    33380 
   34165    34328    33960    34400    35556    36382    36771    37009 
   37517    38659    39232    38000    36199    35530    35471    34943 
   34486    34398    34075    33791    33561    33049    33140    33911 
   34036    33262    32322    31880    32262    32404    31268    30590 
   31817    32517    31086    30049    30695    30885    29960    29892 
   31264    32459    32892    33807    35402    36081    35369    34792 
   35496    36852    37113    35527    34075    34422    35140    35439 
   36292    36846    36413    37110    39181    39249    36698    35322 
   36644    37868    37264    36265    36219    36726    36838    36540 
   36848    37649    37581    37210    38102    39131    38730    38313 
   39029    39511    39436    40054    40661    39447    37479    37526 
   39426    40515    39767    38721    38782    39379    39522    39310 
   38942    38545    38941    40294    41067    40248    38968    38599 
   38757    38476    38293    38951    39670    39736    39579    39961 
   40719    40653    39958    39955    40047    39364    38974    39120 
   38577    37799    37895    37823    37062    37209    38630    39861 
   39903    38883    37894    38165    39437    40479    40590    39566 
   38380    38415    39060    39352    39200    38091    37087    38118 
   39316    38437    37945    39265    39721    38976    39206    40150 
   40214    39291    38513    38406    38211    37826    38020    38646 
   39251    39632    39549    39986    41667    42724    42272    42068 
   42268    41578    40330    40107    42131    44820    44955    43329 
   43094    43753    43231    41541    39692    39054    40063    40673 
   39695    38912    39460    40458    40970    40767    40973    42275 
   42775    41846    41526    41819    41394    40920    40955    40891 
   40307    38887    37938    39392    41412    41281    40335    40468 
   40802    40721    41141    41940    42113    41766    41795    42458 
   43010    43229    43828    44414    43835    42456    41733    41959 
   42332    42554    42612    42771    43459    44144    44261    43846 
   43216    43284    43984    43749    42379    41705    42399    42627 
   41022    38660    37438    37898    38098    36019    33346    32590 
   32677    32381    33070    34453    34633    34603    35352    35025 
   33673    33390    33794    33672    33538    33490    32960    32596 
   32568    31652    30459    30937    32190    31990    30945    30684 
   30961    31491    32446    32837    32552    32988    34029    34592 
   34459    33637    32630    32230    31918    31013    30233    29960 
   29433    28203    26870    27064    29454    32061    33285    33849 
   34568    35876    37673    38298    37398    37391    38764    39346 
   38852    38339    37580    36574    36361    37135    37779    37462 
   36505    36171    37476    39018    38666    37352    36840    36920 
   37309    37619    36992    36433    37166    38219    39287    40898 
   41534    40492    40019    41159    42549    43365    43484    42650 
   41981    43077    44524    44572    44809    45399    44260    43262 
   44692    45574    44332    43802    44704    45754    46792    47363 
   47435    47499    47125    47110    48132    47890    45962    45261 
   45726    44882    42856    41257    40905    41474    41836    41897 
   42219    42196    41378    40548    40252    40168    39685    38831 
   38987    40645    41575    40478    39263    39561    40605    40755 
   39485    38160    37999    38155    37988    38216    38426    37590 
   36275    35772    36710    37886    37255    35717    35725    37054 
   38182    38275    36975    35326    34819    35050    35240    35899 
   36848    37173    36832    35674    34094    33614    33907    33422 
   32156    30638    29601    30053    30974    30579    30123    31529 
   33489    33774    31886    29294    28860    30791    31497    29638 
   28224    29239    30614    30110    28920    28634    28562    28346 
   28946    30181    30807    30692    30299    29517    28503    27992 
   28014    27464    26259    26091    27288    28236    28346    28263 
   28097    27611    27017    26762    26858    26466    25684    26390 
   28511    29709    29640    29128    27991    27057    27522    28347 
   28532    28798    29292    29774    30501    31001    30762    30321 
   30488    31676    33615    35005    34608    33404    33655    35618 
   36950    35826    33875    33795    34668    33970    33322    35779 
   38433    36770    34090    35470    38109    37872    36157    34706 
   33433    33382    34743    35623    35682    35943    35937    35498 
   35692    36142    35983    36145    37151    37660    37031    36118 
   35481    35617    36906    37913    37561    37444    38378    38861 
   38471    38421    38921    39115    39279    40524    42586    43927 
   43980    44091    45283    46353    46397    46957    48388    47869 
   45177    44602    47390    49352    48066    46007    45790    46773 
   46986    46464    46630    47111    46789    46273    46414    46830 
   46709    46124    45978    46257    46319    46339    46362    46053 
   46013    46684    46945    46211    45540    45577    45901    46160 
   46316    46195    45820    45949    46901    47838    48253    48591 
   49427    50662    51275    50832    50657    51509    52238    52383 
   52622    52483    51232    49707    49230    49911    50356    49611 
   48576    47940    47348    47132    47844    48313    46793    44504 
   44500    46478    47126    45552    44405    45068    46094    47047 
   47851    46890    44818    44155    44726    45203    45199    44068 
   42509    42422    42830    41684    39916    39108    39099    39017 
   38508    38381    38902    38855    37988    36987    35976    35620 
   36418    37076    36684    36276    36521    36783    36377    34978 
   33878    35053    37058    37051    35908    36036    37072    37457 
   37432    37854    38547    38691    37875    36967    36546    35964 
   35554    36300    37724    38322    37159    35441    35258    35887 
   35290    34549    35364    35819    34721    34662    35545    34616 
   33378    33826    34052    33506    33158    31889    30141    30193 
   30761    30096    30304    32025    32606    31471    30724    31801 
   33621    33580    31593    30196    29768    28792    27246    25804 
   24911    25064    25346    24773    24910    26518    27407    26899 
   26345    25386    23393    21581    20760    20496    20485    20592 
   20702    20533    19482    18384    18999    20307    20055    19239 
   19817    20857    21010    21168    22295    23422    22958    21200 
   20634    22686    25288    25555    24081    23768    24658    24461 
   23463    23445    23938    23783    23282    23141    23772    24944 
   25706    25996    26776    28248    29647    30204    29848    29466 
   29733    30065    29911    29585    29380    29351    29433    29846 
   31136    32191    31237    30035    31603    34405    34741    33001 
   32708    34531    35610    35102    35184    36260    36606    36136 
   36331    37387    38353    38956    39145    38709    38495    39526 
   40942    40938    39583    39283    41231    43034    42576    41711 
   42801    44345    43717    42205    42684    44161    44060    43389 
   44352    45733    45352    44265    44251    44597    44340    43725 
   43191    43359    44059    44208    44173    44880    45644    45982 
   46170    46217    46779    47446    46281    44208    43303    42486 
   41327    41138    40808    39893    40774    43056    44052    43721 
   43045    42083    41621    42240    42644    42254    42461    43329 
   43470    43035    42912    42718    41903    40931    40335    39890 
   38933    37344    36322    37083    38725    39169    38546    38654 
   39060    38705    39190    41337    43109    43468    43346    43190 
   42984    42971    42915    42503    42297    42398    41833    40817 
   40581    40658    39867    39050    39526    40135    39246    37767 
   36923    36856    38153    40071    40557    39943    39434    38996 
   39213    39985    39711    38656    38525    39437    40463    40648 
   39536    38518    38633    38194    36830    36900    38401    38938 
   37977    36937    36724    36613    35955    35805    36669    37007 
   36117    35665    36522    37032    36215    35634    36386    37112 
   36786    36461    36957    37632    37542    36446    35290    35639 
   37354    38220    37752    37752    38342    38747    39568    40595 
   41007    41335    41544    40936    40430    40533    39921    38302 
   36539    35041    34270    33945    33226    32734    33078    33518 
   33787    34574    36040    36847    36112    35552    36744    38017 
   37215    35332    34241    33989    34340    35127    35727    35996 
   36434    37757    39215    39069    38578    39729    40424    39107 
   38512    39729    40220    39518    39560    40269    40282    39983 
   40733    42734    44398    44080    42530    41607    41345    40372 
   38488    37429    38120    38949    38747    38873    40205    41080 
   40504    39982    40322    40282    39256    38595    39229    39771 
   39131    38774    39739    40565    40199    39361    38367    37372 
   37642    39218    40376    40774    41267    41978    42471    42195 
   41251    40520    40690    41609    42416    42713    42575    41750 
   40667    40529    41314    41585    40996    40885    41438    41558 
   41563    42087    42073    40901    40363    41974    43757    43383 
   42383    42677    43119    42595    41903    41695    41352    40204 
   38730    37883    37598    37106    36699    36926    36929    35992 
   34594    33965    35150    36679    36705    36353    36092    34504 
   32432    32169    33435    33737    32563    32318    33353    33023 
   31640    31816    32540    32274    32471    32894    32159    31538 
   31704    31574    31091    30563    29984    29401    28654    28648 
   30219    31070    29114    26659    26421    27554    27920    26712 
   25332    25974    27451    27052    26554    27962    28090    25730 
   24914    26505    26881    25386    24947    26424    27268    26202 
   25609    26634    27300    27710    29282    30161    28794    27230 
   27447    29203    31190    32559    33712    34629    34679    34568 
   35063    35737    36199    35963    34961    34404    34660    34872 
   35125    35619    35703    35385    35202    35635    36769    37253 
   36536    36739    38700    40005    39263    38342    38904    39809 
   39526    38461    37600    37406    37827    37724    36318    35079 
   35375    36090    36005    35891    36443    36798    36312    35561 
   35184    35808    37666    38849    37650    35781    35340    35841 
   35788    35160    35912    38102    38591    36742    34915    33826 
   33314    33286    33016    32976    33679    33940    33743    34117 
   34387    34118    34288    35105    36109    36681    36307    35754 
   35662    35777    36105    36032    35418    36080    37896    38226 
   36988    36024    36200    37733    38780    37639    36607    37245 
   37822    37907    37892    37151    36965    38868    40444    39565 
   38151    37885    38350    38979    39699    40634    40890    39969 
   40064    42013    42517    40717    40474    41999    41451    39238 
   38564    39759    41386    42137    41786    41592    42035    42155 
   41795    41681    41685    41515    41680    42328    42850    42422 
   41000    40480    42183    43524    41887    39838    40531    41940 
   41636    41516    43126    44191    42962    41189    40804    41297 
   41247    40556    40193    40401    41014    42102    42906    42810 
   42366    41773    41728    43575    45472    44624    42650    42120 
   42684    43047    42179    40749    40961    42256    42038    40688 
   40423    41014    40517    38816    37962    38937    39882    39011 
   37589    37944    40090    41745    41308    39698    38624    38303 
   37579    36323    36161    36998    36821    36193    36883    37437 
   36224    35303    36413    37809    37827    37436    38034    38673 
   37718    36448    36778    37532    37005    35949    36073    37512 
   38518    37940    36990    37164    37613    36886    35947    35916 
   35515    34147    33622    34749    35608    35133    34919    34967 
