Origin Time       2011/03/11 14:46:00
Lat.              38.103
Long.             142.860
Depth. (km)       24
Mag.              9.0
Station Code      HKD061
Station Lat.      44.0699
Station Long.     144.9973
Station Height(m) 64
Record Time       2011/03/11 14:49:08
Sampling Freq(Hz) 100Hz
Duration Time(s)  130
Dir.              N-S
Scale Factor      3920(gal)/6182761
Max. Acc. (gal)   4.379
Last Correction   2011/03/11 14:48:53
Memo.             
[...]
   16795    16795    16404    15781    15164    14761    14673    14950 
   15562    16337    17045    17485    17480    16991    16247    15591 
   15229    15199    15495    16076    16800    17489    18015    18290 
   18295    18091    17716    17171    16538    15978    15649    15677 
   16071    16670    17279    17818    18229    18406    18300    17912 
   17267    16485    15714    15025    14484    14197    14262    14722 
   15566    16677    17788    18625    19058    18999    18356    17202 
   15822    14574    13766    13583    14032    14974    16183    17320 
   17996    18015    17431    16399    15165    14066    13383    13267 
   13806    14961    16516    18149    19508    20281    20278    19480 
   18022    16181    14343    12822    11765    11282    11480    12284 
   13401    14513    15424    16044    16357    16393    16159    15680 
   15069    14462    13978    13742    13797    14074    14483    14942 
   15349    15603    15697    15734    15789    15887    16008    16037 
   15861    15506    15111    14858    14915    15312    15888    16391 
   16654    16636    16408    16131    15935    15851    15919    16180 
   16593    17047    17435    17677    17692    17447    17009    16471 
   15938    15499    15123    14776    14585    14643    14863    15145 
   15487    15881    16238    16449    16436    16193    15807    15357 
   14842    14304    13918    13854    14178    14871    15815    16792 
   17583    18045    18097    17739    17086    16267    15344    14423 
   13699    13303    13240    13475    13934    14488    15043    15531 
   15835    15883    15756    15541    15269    15012    14819    14664 
   14594    14733    15087    15528    15928    16230    16411    16457 
   16366    16153    15903    15732    15650    15636    15776    16136 
   16646    17183    17600    17703    17390    16783    16064    15312 
   14594    13993    13543    13252    13175    13401    14010    14963 
   16042    16968    17616    18020    18200    18124    17795    17259 
   16557    15757    14945    14204    13679    13566    13945    14715 
   15746    16947    18186    19268    19979    20141    19663    18575 
   16987    15109    13310    12005    11458    11758    12831    14409 
   16124    17702    18963    19741    19926    19520    18598    17331 
   16017    14920    14132    13693    13626    13849    14282    14913 
   15674    16414    16980    17222    17028    16433    15630    14845 
   14261    14035    14251    14852    15709    16658    17476    17971 
   18025    17559    16620    15474    14490    13942    13948    14520 
   15572    16917    18307    19414    19898    19602    18568    16909 
   14854    12780    11058     9971     9772    10610    12377    14727 
   17201    19311    20673    21120    20615    19193    17100    14774 
   12625    10962    10010     9907    10742    12510    14959    17559 
   19755    21195    21703    21199    19746    17587    15120    12862 
   11302    10741    11226    12571    14415    16340    17981    19038 
   19314    18834    17828    16565    15316    14355    13800    13594 
   13703    14143    14881    15856    16948    17891    18425    18493 
   18126    17310    16113    14721    13366    12392    12155    12722 
   13888    15402    16963    18211    18844    18704    17753    16135 
   14257    12594    11417    10867    11048    11907    13238    14833 
   16439    17741    18541    18764    18325    17276    15937    14663 
   13682    13169    13180    13606    14321    15240    16191    16935 
   17310    17235    16688    15827    14956    14319    14061    14260 
   14866    15718    16648    17464    17933    17918    17491    16775 
   15868    14963    14256    13805    13669    13971    14713    15715 
   16680    17283    17308    16788    15913    14825    13632    12544 
   11783    11453    11619    12287    13289    14395    15395    16073 
   16301    16125    15598    14721    13604    12500    11642    11196 
   11275    11879    12909    14234    15632    16802    17518    17724 
   17453    16821    16056    15374    14882    14678    14870    15440 
   16248    17121    17819    18085    17854    17293    16609    15927 
   15351    14958    14821    15047    15665    16575    17646    18715 
   19521    19789    19391    18358    16856    15226    13879    13061 
   12843    13222    14099    15300    16637    17864    18725    19105 
   19003    18449    17553    16530    15575    14800    14331    14278 
   14616    15227    15971    16665    17139    17318    17154    16584 
   15673    14648    13712    13011    12720    12928    13568    14486 
   15442    16147    16462    16465    16305    16103    15998    16156 
   16701    17696    19044    20358    21178    21250    20521    19118 
   17381    15729    14464    13755    13737    14431    15608    16912 
   18015    18711    18996    18939    18497    17640    16524    15399 
   14430    13699    13246    13080    13257    13878    14932    16295 
   17791    19131    19929    19880    18934    17283    15240    13173 
   11400    10181     9828    10542    12149    14230    16356    18117 
   19230    19634    19397    18687    17766    16843    15976    15164 
   14491    14054    13866    13939    14268    14723    15200    15713 
   16264    16800    17299    17779    18245    18706    19224    19771 
   20154    20206    19863    19121    18112    17049    16067    15263 
   14774    14673    14925    15478    16244    17058    17751    18168 
   18142    17625    16774    15838    15037    14539    14392    14462 
   14584    14700    14781    14786    14767    14766    14715    14609 
   14544    14570    14718    15033    15480    15931    16303    16594 
   16786    16852    16825    16777    16778    16902    17118    17307 
   17453    17617    17775    17858    17861    17774    17538    17123 
   16536    15838    15223    14929    15060    15534    16185    16846 
   17361    17631    17576    17085    16153    14985    13861    12973 
   12422    12210    12228    12381    12719    13302    14053    14836 
   15525    16008    16287    16455    16518    16454    16323    16150 
   15896    15570    15173    14626    13941    13324    12983    12967 
   13277    13938    14915    16110    17379    18472    19109    19133 
   18476    17178    15478    13766    12452    11877    12158    13054 
   14147    15221    16304    17378    18231    18571    18208    17220 
   15944    14746    13895    13587    13903    14763    15963    17202 
   18177    18723    18862    18674    18183    17438    16595    15822 
   15281    15132    15387    15863    16367    16778    17004    17023 
   16852    16433    15731    14914    14252    13928    13977    14290 
   14712    15188    15757    16378    16867    17073    16940    16460 
   15733    15003    14522    14444    14870    15837    17186    18582 
   19642    20038    19702    18854    17687    16254    14714    13437 
   12836    13129    14171    15522    16745    17642    18196    18410 
   18290    17902    17338    16698    16099    15617    15284    15174 
   15359    15818    16510    17407    18364    19154    19635    19764 
   19528    18925    17986    16806    15581    14585    14031    13970 
   14358    15065    15863    16519    16900    16989    16874    16704 
   16603    16615    16779    17153    17665    18083    18221    17997 
   17364    16395    15354    14517    14039    13983    14304    14875 
   15567    16229    16682    16830    16751    16619    16599    16815 
   17265    17783    18199    18379    18164    17475    16424    15217 
   14068    13255    13067    13617    14767    16217    17631    18766 
   19569    20073    20228    19957    19268    18257    17091    15969 
   15011    14248    13749    13602    13749    14014    14264    14403 
   14376    14279    14248    14283    14363    14552    14878    15299 
   15771    16175    16331    16187    15869    15548    15306    15074 
   14725    14253    13830    13656    13779    14170    14867    15847 
   16951    18032    18933    19437    19361    18670    17512    16189 
   14997    14066    13386    12998    13059    13701    14956    16688 
   18512    19955    20679    20481    19309    17402    15259    13370 
   12062    11516    11715    12487    13667    15042    16261    17041 
   17271    16919    16069    14982    13952    13212    12979    13340 
   14110    14987    15765    16313    16564    16583    16468    16219 
   15838    15461    15263    15351    15811    16654    17740    18843 
   19696    20026    19729    18918    17734    16306    14872    13719 
   13037    12967    13550    14566    15629    16439    16794    16566 
   15864    15003    14252    13788    13809    14427    15558    16985 
   18399    19459    19946    19849    19262    18267    16998    15669 
   14434    13403    12691    12354    12427    12942    13781    14684 
   15487    16122    16450    16382    16063    15710    15453    15377 
   15486    15706    16052    16605    17324    18055    18680    19124 
   19286    19089    18539    17664    16525    15264    14081    13212 
   12878    13141    13829    14730    15740    16770    17663    18253 
   18408    18109    17506    16820    16254    15981    16063    16366 
   16649    16783    16746    16517    16156    15834    15701    15857 
   16388    17245    18181    18904    19187    18896    18070    16926 
   15701    14578    13712    13168    12884    12750    12673    12593 
   12548    12663    13001    13532    14230    15030    15748    16189 
   16268    16013    15584    15241    15144    15228    15341    15368 
   15203    14765    14088    13288    12503    11909    11665    11838 
   12467    13571    15024    16591    18062    19183    19656    19391 
   18539    17289    15827    14430    13395    12931    13136    13960 
   15194    16590    17899    18816    19095    18703    17788    16553 
   15221    14035    13186    12782    12873    13414    14244    15209 
   16159    16885    17223    17184    16895    16508    16191    16071 
   16122    16237    16336    16323    16127    15774    15310    14799 
   14418    14394    14840    15733    16966    18312    19458    20161 
   20261    19650    18380    16726    15043    13677    12943    13020 
   13846    15155    16603    17845    18632    18874    18557    17713 
   16528    15305    14329    13808    13810    14242    14971    15872 
   16753    17415    17779    17888    17780    17461    16955    16275 
   15443    14618    14036    13821    13964    14406    15005    15546 
   15907    16125    16268    16394    16513    16529    16384    16142 
   15828    15411    14961    14608    14438    14524    14905    15487 
   16106    16632    16911    16770    16218    15485    14770    14152 
   13707    13524    13611    13932    14454    15094    15696    16085 
   16059    15479    14445    13230    12092    11285    11074    11622 
   12867    14504    16085    17204    17662    17453    16631    15357 
   13959    12762    12030    12009    12767    14116    15756    17412 
   18842    19862    20391    20398    19882    19017    18120    17433 
   17067    16996    17027    16955    16746    16497    16330    16321 
   16464    16612    16574    16349    16047    15701    15330    14961 
   14623    14452    14537    14753    14921    15035    15216    15527 
   15941    16369    16596    16405    15788    14910    14037    13454 
   13297    13532    14098    14939    15916    16812    17479    17853 
   17872    17508    16806    15856    14817    13942    13419    13245 
   13368    13795    14480    15305    16157    16872    17265    17281 
   16987    16497    15992    15651    15511    15508    15574    15637 
   15666    15748    15992    16365    16748    17098    17385    17524 
   17463    17229    16893    16573    16430    16570    16943    17367 
   17572    17316    16629    15797    15062    14512    14136    13900 
   13854    14126    14734    15480    16148    16715    17274    17848 
   18333    18501    18136    17282    16225    15248    14512    14093 
   13989    14132    14473    14991    15600    16165    16591    16841 
   16943    16963    16892    16651    16236    15749    15284    14887 
   14579    14382    14340    14533    14993    15631    16363    17176 
   17971    18570    18890    18944    18745    18328    17729    16895 
   15778    14501    13323    12504    12287    12741    13598    14494 
   15247    15812    16205    16462    16561    16477    16331    16292 
   16364    16418    16391    16298    16154    15970    15734    15413 
   15037    14703    14512    14548    14859    15371    15904    16376 
   16864    17409    17993    18591    19109    19379    19267    18713 
   17707    16351    14901    13640    12769    12428    12680    13492 
   14779    16366    17915    19027    19437    19063    17959    16356 
   14606    13003    11787    11164    11159    11656    12571    13785 
   15066    16161    16854    16993    16597    15867    15025    14237 
   13682    13509    13694    14143    14793    15516    16147    16615 
   16913    17026    17009    16992    17019    17015    16922    16714 
   16392    16046    15817    15769    15885    16126    16399    16508 
   16263    15612    14630    13530    12604    12053    11977    12463 
   13524    15005    16658    18221    19414    19980    19812    18962 
   17592    15962    14345    12937    11939    11580    11965    13051 
   14717    16771    18930    20868    22258    22797    22344    21045 
   19203    17074    14929    13136    12048    11906    12734    14199 
   15736    16860    17322    17114    16416    15470    14438    13469 
   12789    12613    13036    13993    15225    16382    17181    17466 
   17177    16359    15181    13854    12635    11910    12026    13017 
   14629    16499    18248    19517    20051    19737    18588    16840 
   14953    13314    12112    11521    11695    12624    14126    15889 
   17561    18883    19732    20046    19753    18821    17355    15578 
   13835    12526    11883    11901    12489    13522    14807    16188 
   17564    18727    19372    19289    18458    17074    15519    14177 
   13302    13024    13336    14106    15164    16365    17499    18290 
   18556    18289    17592    16661    15709    14847    14133    13702 
   13680    14024    14587    15218    15727    15957    15904    15659 
   15326    15074    15093    15447    16103    17020    18048    18896 
   19334    19288    18763    17836    16670    15426    14257    13369 
   12877    12718    12824    13182    13730    14392    15134    15850 
   16333    16449    16218    15684    14871    13851    12747    11727 
   11003    10699    10770    11173    11971    13189    14741    16469 
   18088    19262    19830    19807    19242    18293    17290    16530 
   16156    16160    16335    16367    16129    15723    15232    14654 
   14057    13598    13405    13587    14212    15196    16308    17301 
   17985    18253    18119    17642    16832    15771    14709    13919 
   13586    13807    14526    15543    16672    17795    18775    19481 
   19856    19852    19407    18575    17511    16336    15182    14250 
   13693    13582    13963    14744    15668    16531    17263    17792 
   18036    17994    17675    17074    16313    15618    15158    15020 
   15222    15647    16077    16368    16482    16412    16187    15868 
   15477    15040    14651    14431    14473    14849    15545    16354 
   17023    17451    17668    17770    17871    17961    17900    17599 
   17071    16334    15415    14440    13599    13059    12945    13291 
   14002    14939    16020    17128    18016    18413    18176    17340 
   16116    14728    13276    11917    10972    10718    11242    12472 
   14173    15986    17543    18533    18724    18086    16845    15320 
   13800    12611    12082    12345    13261    14523    15765    16682 
   17162    17219    16839    16009    14840    13577    12539    12083 
   12430    13473    14890    16388    17731    18719    19203    19051 
   18219    16885    15395    14062    13093    12621    12686    13278 
   14369    15785    17176    18250    18910    19140    18900    18206 
   17195    16073    15062    14364    14111    14434    15414    16890 
   18485    19825    20640    20785    20236    19064    17417    15558 
   13867    12676    12132    12282    13090    14367    15826    17179 
   18128    18416    17940    16807    15302    13880    13044    13035 
   13717    14776    15893    16828    17493    17851    17817    17383 
   16704    15950    15216    14611    14248    14162    14417    15098 
   16094    17139    18022    18550    18557    18089    17327    16400 
   15402    14472    13743    13347    13492    14323    15728    17382 
   18865    19774    19909    19371    18405    17263    16187    15338 
   14752    14453    14489    14770    15112    15471    15847    16147 
   16331    16466    16528    16390    16043    15595    15136    14739 
   14441    14185    13942    13797    13805    13940    14185    14532 
   14942    15422    16024    16691    17270    17692    17928    17904 
   17630    17231    16835    16553    16448    16469    16488    16433 
   16366    16408    16655    17119    17673    18108    18294    18206 
   17876    17405    16936    16541    16263    16199    16364    16616 
   16802    16828    16654    16330    15995    15792    15836    16205 
   16873    17662    18366    18868    19091    18958    18462    17667 
   16728    15914    15442    15333    15492    15816    16193    16512 
   16718    16801    16718    16435    15977    15416    14881    14531 
   14453    14638    15042    15574    16075    16425    16629    16696 
   16562    16231    15822    15487    15409    15710    16246    16719 
   16956    16908    16536    15889    15127    14418    13930    13845 
   14245    15054    16102    17141    17906    18270    18240    17871 
   17270    16601    15979    15413    14901    14482    14183    14066 
   14233    14682    15308    16013    16703    17249    17557    17602 
   17355    16802    16000    15054    14096    13306    12817    12616 
   12667    13002    13570    14163    14568    14699    14595    14391 
   14226    14143    14159    14333    14653    15028    15404    15751 
   15991    16033    15832    15370    14726    14156    13915    14076 
   14602    15422    16395    17352    18155    18627    18546    17848 
   16678    15270    13903    12832    12133    11787    11822    12252 
   12999    13949    14982    15943    16674    17102    17220    17031 
   16577    15929    15113    14181    13302    12626    12201    12094 
   12377    13015    13895    14884    15784    16411    16726    16790 
   16688    16540    16398    16185    15834    15366    14794    14136 
   13529    13160    13130    13446    14058    14862    15762    16677 
   17434    17802    17716    17367    16958    16557    16171    15806 
   15501    15376    15493    15758    16103    16584    17194    17782 
   18163    18212    17903    17364    16794    16281    15817    15455 
   15269    15240    15280    15320    15355    15491    15868    16486 
   17191    17834    18298    18470    18360    18058    17569    16861 
   16010    15135    14317    13628    13126    12841    12852    13241 
