Origin Time       2011/03/11 14:46:00
Lat.              38.103
Long.             142.860
Depth. (km)       24
Mag.              9.0
Station Code      HKD040
Station Lat.      42.9806
Station Long.     142.3994
Station Height(m) 334
Record Time       2011/03/11 14:48:20
Sampling Freq(Hz) 100Hz
Duration Time(s)  278
Dir.              U-D
Scale Factor      3920(gal)/6182761
Max. Acc. (gal)   5.453
Last Correction   2011/03/11 14:48:05
Memo.             
[...]
  -17798   -17706   -17549   -17416   -17395   -17434   -17429   -17377 
  -17384   -17510   -17673   -17769   -17812   -17845   -17819   -17727 
  -17702   -17807   -17963   -18143   -18370   -18607   -18840   -19120 
  -19469   -19834   -20174   -20533   -20957   -21359   -21626   -21795 
  -22015   -22426   -23007   -23573   -23992   -24298   -24607   -25029 
  -25536   -25927   -26072   -26038   -25918   -25730   -25481   -25162 
  -24763   -24326   -23896   -23448   -22957   -22440   -21864   -21174 
  -20438   -19753   -19105   -18479   -17908   -17382   -16876   -16379 
  -15910   -15500   -15157   -14914   -14793   -14738   -14711   -14757 
  -14921   -15201   -15514   -15744   -15879   -15983   -16117   -16341 
  -16640   -16951   -17266   -17572   -17841   -18123   -18449   -18762 
  -19022   -19205   -19289   -19357   -19506   -19733   -20033   -20393 
  -20730   -21029   -21362   -21737   -22089   -22366   -22560   -22680 
  -22737   -22762   -22820   -22949   -23109   -23280   -23514   -23787 
  -23986   -24088   -24161   -24234   -24294   -24350   -24421   -24464 
  -24400   -24206   -23935   -23622   -23269   -22940   -22693   -22460 
  -22196   -21968   -21783   -21536   -21188   -20840   -20585   -20353 
  -20023   -19588   -19142   -18867   -18932   -19254   -19597   -19928 
  -20371   -20865   -21174   -21195   -21074   -21024   -21106   -21242 
  -21374   -21483   -21553   -21601   -21653   -21690   -21717   -21792 
  -21921   -22022   -21980   -21738   -21388   -21033   -20674   -20370 
  -20240   -20264   -20303   -20243   -20066   -19859   -19689   -19554 
  -19474   -19439   -19345   -19130   -18835   -18531   -18239   -17931 
  -17635   -17413   -17216   -16960   -16679   -16431   -16228   -16064 
  -15890   -15670   -15482   -15371   -15281   -15199   -15135   -15076 
  -15022   -14977   -14941   -14916   -14850   -14744   -14731   -14866 
  -15049   -15222   -15364   -15424   -15393   -15278   -15089   -14947 
  -14981   -15160   -15368   -15505   -15564   -15617   -15707   -15831 
  -15991   -16179   -16404   -16703   -17084   -17521   -18012   -18532 
  -18993   -19346   -19644   -19953   -20282   -20602   -20928   -21295 
  -21606   -21709   -21645   -21588   -21648   -21829   -22045   -22174 
  -22198   -22162   -22045   -21825   -21539   -21245   -21009   -20872 
  -20815   -20827   -20922   -21049   -21160   -21268   -21386   -21511 
  -21641   -21750   -21814   -21802   -21678   -21513   -21422   -21365 
  -21259   -21136   -21016   -20893   -20819   -20818   -20876   -20980 
  -21088   -21224   -21458   -21761   -22054   -22274   -22427   -22609 
  -22871   -23123   -23261   -23333   -23485   -23764   -24093   -24386 
  -24608   -24800   -24988   -25111   -25182   -25285   -25386   -25453 
  -25533   -25610   -25677   -25749   -25734   -25579   -25380   -25194 
  -24969   -24646   -24206   -23719   -23328   -23097   -22944   -22749 
  -22516   -22379   -22359   -22282   -22016   -21635   -21302   -21047 
  -20777   -20473   -20189   -19938   -19744   -19615   -19512   -19422 
  -19308   -19077   -18761   -18501   -18333   -18210   -18109   -18019 
  -17948   -17943   -18052   -18249   -18408   -18424   -18355   -18349 
  -18442   -18537   -18563   -18534   -18459   -18314   -18149   -18061 
  -18093   -18201   -18254   -18158   -18005   -17946   -17961   -17930 
  -17823   -17695   -17584   -17498   -17427   -17347   -17276   -17217 
  -17124   -17029   -17019   -17103   -17244   -17409   -17561   -17711 
  -17896   -18046   -18003   -17774   -17577   -17550   -17594   -17550 
  -17434   -17385   -17503   -17798   -18173   -18489   -18725   -18956 
  -19190   -19375   -19477   -19435   -19221   -18909   -18560   -18180 
  -17795   -17428   -17095   -16849   -16740   -16741   -16758   -16693 
  -16507   -16272   -16085   -15978   -15969   -16066   -16186   -16247 
  -16308   -16469   -16711   -16961   -17211   -17478   -17748   -18074 
  -18536   -18997   -19231   -19270   -19300   -19355   -19360   -19305 
  -19278   -19359   -19486   -19534   -19505   -19509   -19611   -19760 
  -19859   -19897   -19906   -19870   -19807   -19832   -20036   -20368 
  -20695   -20955   -21189   -21461   -21833   -22322   -22850   -23316 
  -23708   -24079   -24478   -24944   -25456   -25948   -26390   -26736 
  -26964   -27157   -27344   -27451   -27474   -27497   -27591   -27728 
  -27805   -27760   -27635   -27539   -27554   -27628   -27591   -27390 
  -27169   -27033   -26921   -26745   -26530   -26388   -26364   -26407 
  -26495   -26616   -26697   -26756   -26860   -26965   -27054   -27194 
  -27328   -27329   -27213   -27058   -26891   -26736   -26578   -26401 
  -26242   -26068   -25792   -25426   -25025   -24645   -24348   -24067 
  -23676   -23223   -22838   -22572   -22488   -22597   -22777   -22914 
  -22984   -23018   -23058   -23057   -22939   -22804   -22777   -22790 
  -22786   -22816   -22824   -22726   -22578   -22437   -22324   -22292 
  -22327   -22338   -22268   -22103   -21888   -21699   -21550   -21418 
  -21337   -21317   -21257   -21057   -20745   -20416   -20143   -19943 
  -19740   -19460   -19205   -19102   -19071   -18982   -18841   -18724 
  -18692   -18755   -18913   -19192   -19531   -19825   -20086   -20324 
  -20474   -20504   -20423   -20317   -20286   -20291   -20239   -20146 
  -20074   -20006   -19847   -19537   -19170   -18897   -18709   -18505 
  -18301   -18133   -17947   -17698   -17427   -17186   -16962   -16748 
  -16610   -16576   -16567   -16516   -16427   -16328   -16218   -16062 
  -15877   -15755   -15751   -15859   -16051   -16289   -16560   -16906 
  -17369   -17898   -18362   -18699   -18933   -19139   -19444   -19870 
  -20208   -20340   -20410   -20556   -20804   -21135   -21424   -21568 
  -21631   -21671   -21691   -21665   -21493   -21155   -20818   -20602 
  -20468   -20358   -20277   -20255   -20284   -20258   -20043   -19639 
  -19165   -18733   -18372   -18039   -17744   -17568   -17522   -17556 
  -17620   -17663   -17688   -17729   -17799   -17935   -18153   -18407 
  -18625   -18789   -18950   -19131   -19302   -19457   -19581   -19578 
  -19427   -19311   -19425   -19736   -20073   -20332   -20538   -20721 
  -20832   -20849   -20842   -20883   -20960   -21014   -21017   -20980 
  -20873   -20686   -20489   -20323   -20152   -19963   -19771   -19581 
  -19425   -19321   -19249   -19207   -19181   -19109   -18988   -18909 
  -18958   -19113   -19285   -19417   -19523   -19649   -19829   -20053 
  -20280   -20493   -20699   -20865   -20948   -20957   -20963   -21094 
  -21401   -21745   -21971   -22104   -22229   -22358   -22494   -22660 
  -22823   -22932   -23028   -23208   -23463   -23680   -23786   -23793 
  -23758   -23713   -23655   -23598   -23543   -23490   -23509   -23632 
  -23750   -23752   -23669   -23640   -23735   -23812   -23718   -23505 
  -23306   -23157   -23011   -22791   -22481   -22138   -21803   -21503 
  -21287   -21171   -21110   -21082   -21092   -21129   -21153   -21112 
  -20990   -20859   -20849   -20992   -21198   -21395   -21576   -21701 
  -21699   -21572   -21396   -21208   -20997   -20750   -20472   -20197 
  -19931   -19616   -19256   -18948   -18751   -18631   -18519   -18406 
  -18333   -18274   -18140   -17903   -17659   -17549   -17621   -17791 
  -17941   -18029   -18133   -18337   -18583   -18771   -18937   -19172 
  -19463   -19740   -19965   -20120   -20244   -20430   -20662   -20804 
  -20784   -20679   -20623   -20638   -20643   -20595   -20510   -20400 
  -20284   -20171   -20067   -19961   -19841   -19732   -19668   -19644 
  -19653   -19699   -19768   -19831   -19858   -19850   -19854   -19892 
  -19922   -19918   -19937   -20039   -20184   -20268   -20244   -20197 
  -20280   -20517   -20804   -21093   -21354   -21485   -21462   -21404 
  -21426   -21556   -21775   -22059   -22344   -22545   -22661   -22772 
  -22916   -23061   -23169   -23202   -23173   -23142   -23156   -23196 
  -23185   -23082   -22968   -22938   -22968   -22985   -22965   -22920 
  -22911   -23034   -23285   -23510   -23592   -23595   -23624   -23629 
  -23519   -23376   -23383   -23589   -23894   -24156   -24288   -24347 
  -24467   -24708   -25005   -25205   -25202   -25102   -25088   -25175 
  -25250   -25204   -25004   -24745   -24553   -24451   -24350   -24162 
  -23913   -23700   -23577   -23525   -23480   -23419   -23404   -23492 
  -23656   -23832   -23948   -23942   -23797   -23574   -23372   -23250 
  -23233   -23340   -23489   -23538   -23462   -23335   -23204   -23046 
  -22818   -22550   -22316   -22082   -21753   -21350   -20964   -20644 
  -20406   -20230   -20057   -19845   -19582   -19276   -18974   -18756 
  -18652   -18585   -18464   -18312   -18225   -18255   -18360   -18449 
  -18496   -18538   -18578   -18600   -18627   -18658   -18628   -18511 
  -18384   -18358   -18448   -18550   -18587   -18635   -18795   -19014 
  -19129   -19067   -18903   -18779   -18780   -18878   -19008   -19121 
  -19142   -19008   -18775   -18604   -18578   -18642   -18702   -18742 
  -18816   -18955   -19154   -19418   -19724   -20025   -20336   -20697 
  -21055   -21304   -21428   -21506   -21622   -21785   -21905   -21952 
  -21998   -22065   -22102   -22118   -22233   -22536   -22923   -23199 
  -23292   -23271   -23216   -23141   -23039   -22919   -22802   -22699 
  -22573   -22405   -22266   -22217   -22222   -22198   -22094   -21932 
  -21772   -21655   -21590   -21555   -21498   -21395   -21265   -21143 
  -21032   -20894   -20754   -20722   -20851   -21068   -21260   -21370 
  -21379   -21324   -21297   -21364   -21558   -21863   -22186   -22462 
  -22694   -22911   -23129   -23334   -23509   -23681   -23895   -24155 
  -24391   -24599   -24890   -25300   -25757   -26205   -26606   -26955 
  -27272   -27523   -27706   -27898   -28130   -28347   -28471   -28478 
  -28445   -28456   -28510   -28583   -28641   -28617   -28493   -28286 
  -28010   -27723   -27449   -27122   -26733   -26386   -26141   -25921 
  -25630   -25296   -25029   -24870   -24730   -24494   -24135   -23705 
  -23266   -22810   -22256   -21584   -20886   -20247   -19716   -19296 
  -18919   -18575   -18298   -18029   -17718   -17418   -17166   -16935 
  -16696   -16450   -16212   -15950   -15615   -15253   -14965   -14788 
  -14705   -14696   -14764   -14917   -15089   -15188   -15204   -15160 
  -15059   -14939   -14882   -14929   -15044   -15153   -15192   -15197 
  -15300   -15537   -15817   -16100   -16447   -16907   -17441   -17930 
  -18306   -18607   -18869   -19099   -19326   -19589   -19918   -20309 
  -20694   -20977   -21098   -21095   -21070   -21109   -21234   -21381 
  -21431   -21346   -21203   -21049   -20867   -20651   -20411   -20172 
  -20006   -19946   -19944   -19917   -19786   -19542   -19273   -19046 
  -18871   -18733   -18618   -18530   -18474   -18420   -18354   -18297 
  -18255   -18217   -18190   -18167   -18136   -18117   -18157   -18271 
  -18423   -18525   -18493   -18373   -18293   -18257   -18174   -18048 
  -17938   -17859   -17835   -17888   -17991   -18112   -18251   -18404 
  -18579   -18804   -19037   -19198   -19259   -19244   -19212   -19174 
  -19065   -18905   -18841   -18922   -19060   -19203   -19358   -19535 
  -19737   -19999   -20408   -20974   -21515   -21843   -21977   -22042 
  -22131   -22275   -22430   -22560   -22702   -22855   -22952   -22967 
  -22892   -22759   -22643   -22525   -22349   -22175   -22067   -21997 
  -21910   -21787   -21680   -21669   -21735   -21822   -21955   -22161 
  -22346   -22386   -22273   -22078   -21883   -21781   -21850   -22066 
  -22304   -22479   -22645   -22892   -23146   -23235   -23165   -23092 
  -23055   -22954   -22748   -22516   -22367   -22337   -22372   -22390 
  -22355   -22255   -22076   -21856   -21626   -21359   -21080   -20838 
  -20612   -20400   -20250   -20186   -20195   -20238   -20273   -20278 
  -20258   -20203   -20089   -19905   -19663   -19402   -19120   -18771 
  -18415   -18166   -18012   -17924   -17938   -18057   -18243   -18434 
  -18561   -18657   -18787   -18924   -19061   -19254   -19526   -19813 
  -19980   -19951   -19839   -19798   -19868   -20032   -20252   -20459 
  -20598   -20700   -20862   -21131   -21416   -21607   -21705   -21801 
  -21933   -22055   -22155   -22239   -22263   -22211   -22119   -22030 
  -21982   -21941   -21852   -21791   -21917   -22224   -22540   -22768 
  -22900   -22945   -22971   -23066   -23294   -23632   -23914   -24013 
  -23982   -23889   -23785   -23789   -23972   -24304   -24708   -25035 
  -25172   -25190   -25178   -25118   -24994   -24830   -24706   -24729 
  -24886   -25041   -25108   -25120   -25131   -25147   -25127   -25021 
  -24815   -24535   -24224   -23932   -23675   -23405   -23097   -22822 
  -22633   -22503   -22407   -22340   -22310   -22327   -22358   -22356 
  -22292   -22148   -21989   -21939   -22033   -22203   -22331   -22310 
  -22168   -22058   -22044   -22075   -22109   -22109   -22040   -21960 
  -21984   -22169   -22441   -22661   -22803   -22935   -23118   -23359 
  -23579   -23686   -23695   -23700   -23784   -23970   -24219   -24452 
  -24577   -24628   -24741   -24928   -25116   -25294   -25417   -25429 
  -25390   -25374   -25369   -25342   -25270   -25141   -24942   -24642 
  -24259   -23906   -23729   -23736   -23767   -23684   -23488   -23262 
  -23113   -23043   -22917   -22643   -22264   -21863   -21504   -21145 
  -20670   -20069   -19457   -18953   -18615   -18385   -18186   -18033 
  -17868   -17555   -17114   -16665   -16195   -15616   -14883   -14068 
  -13382   -12959   -12739   -12612   -12467   -12263   -12146   -12232 
  -12414   -12525   -12560   -12647   -12855   -13104   -13286   -13408 
  -13556   -13771   -14051   -14417   -14937   -15642   -16431   -17161 
  -17809   -18417   -19017   -19629   -20196   -20647   -21005   -21336 
  -21721   -22244   -22872   -23505   -24107   -24670   -25183   -25651 
  -26044   -26300   -26388   -26348   -26280   -26249   -26229   -26200 
  -26189   -26195   -26254   -26422   -26638   -26725   -26587   -26310 
  -26059   -25901   -25792   -25697   -25632   -25587   -25547   -25550 
  -25624   -25711   -25758   -25806   -25868   -25862   -25753   -25594 
  -25409   -25137   -24752   -24313   -23867   -23414   -22951   -22448 
  -21882   -21328   -20924   -20711   -20570   -20368   -20117   -19905 
  -19770   -19679   -19565   -19371   -19094   -18776   -18453   -18150 
  -17931   -17875   -17958   -18086   -18240   -18447   -18715   -19033 
  -19358   -19650   -19926   -20203   -20473   -20722   -20933   -21073 
  -21124   -21134   -21163   -21218   -21254   -21155   -20843   -20416 
  -20021   -19684   -19387   -19127   -18884   -18638   -18394   -18156 
  -17919   -17680   -17440   -17188   -16939   -16720   -16506   -16278 
  -16105   -16076   -16169   -16272   -16322   -16336   -16337   -16339 
  -16385   -16490   -16587   -16614   -16578   -16536   -16537   -16555 
  -16576   -16640   -16713   -16738   -16771   -16883   -17064   -17268 
  -17438   -17558   -17682   -17828   -17937   -17972   -17949   -17884 
  -17764   -17601   -17439   -17311   -17229   -17207   -17262   -17407 
  -17658   -18001   -18356   -18615   -18741   -18779   -18778   -18738 
  -18641   -18515   -18404   -18322   -18293   -18334   -18369   -18337 
  -18293   -18298   -18344   -18382   -18376   -18376   -18428   -18492 
  -18537   -18580   -18653   -18788   -19031   -19424   -19935   -20461 
  -20948   -21433   -21925   -22353   -22651   -22842   -23004   -23187 
  -23424   -23698   -23948   -24189   -24482   -24814   -25148   -25520 
  -25927   -26258   -26454   -26561   -26646   -26745   -26814   -26810 
  -26829   -26911   -26945   -26893   -26791   -26610   -26381   -26217 
  -26147   -26082   -25975   -25903   -25934   -26015   -26060   -26090 
  -26182   -26295   -26312   -26229   -26112   -25953   -25746   -25545 
  -25414   -25370   -25372   -25381   -25390   -25365   -25245   -25040 
  -24798   -24535   -24244   -23938   -23643   -23387   -23194   -23069 
  -22974   -22861   -22678   -22405   -22107   -21842   -21611   -21441 
  -21349   -21301   -21280   -21284   -21300   -21330   -21378   -21440 
  -21542   -21701   -21902   -22156   -22498   -22911   -23296   -23566 
  -23785   -24099   -24481   -24754   -24859   -24942   -25154   -25483 
  -25815   -26074   -26244   -26341   -26398   -26451   -26521   -26593 
  -26632   -26642   -26639   -26620   -26589   -26537   -26414   -26184 
  -25892   -25629   -25437   -25248   -24980   -24659   -24327   -23945 
  -23478   -22974   -22536   -22198   -21910   -21646   -21411   -21209 
  -21062   -20942   -20733   -20363   -19890   -19432   -19122   -19021 
  -18993   -18876   -18702   -18555   -18419   -18298   -18225   -18211 
  -18259   -18345   -18409   -18406   -18323   -18167   -17965   -17730 
  -17508   -17380   -17337   -17275   -17167   -17039   -16890   -16739 
  -16595   -16417   -16218   -16069   -16014   -16045   -16104   -16140 
  -16160   -16190   -16222   -16236   -16220   -16202   -16226   -16332 
  -16527   -16748   -16939   -17105   -17248   -17331   -17339   -17323 
  -17359   -17469   -17628   -17809   -17994   -18189   -18388   -18579 
  -18791   -19026   -19199   -19275   -19351   -19479   -19584   -19602 
  -19605   -19714   -19941   -20196   -20395   -20520   -20622   -20728 
  -20767   -20714   -20659   -20654   -20670   -20713   -20800   -20899 
  -20989   -21074   -21135   -21195   -21298   -21422   -21570   -21799 
  -22078   -22331   -22565   -22805   -23011   -23128   -23165   -23186 
  -23202   -23166   -23100   -23107   -23222   -23360   -23433   -23440 
  -23392   -23258   -23017   -22673   -22247   -21803   -21412   -21092 
  -20803   -20524   -20294   -20155   -20056   -19898   -19674   -19440 
  -19237   -19092   -18992   -18903   -18813   -18693   -18518   -18338 
  -18213   -18171   -18194   -18208   -18200   -18253   -18369   -18463 
  -18487   -18455   -18438   -18492   -18557   -18547   -18486   -18433 
  -18392   -18359   -18394   -18540   -18746   -18960   -19181   -19368 
  -19479   -19523   -19533   -19572   -19618   -19514   -19241   -18965 
  -18749   -18570   -18438   -18314   -18188   -18122   -18088   -18038 
  -18054   -18166   -18307   -18443   -18562   -18666   -18760   -18799 
  -18774   -18751   -18751   -18710   -18594   -18465   -18395   -18423 
  -18533   -18644   -18711   -18821   -19043   -19297   -19513   -19733 
  -19965   -20115   -20115   -20043   -20028   -20085   -20206   -20439 
  -20761   -21084   -21337   -21477   -21567   -21696   -21839   -21933 
  -21977   -21994   -21982   -21916   -21814   -21766   -21785   -21782 
  -21737   -21703   -21694   -21699   -21702   -21704   -21725   -21704 
  -21555   -21347   -21207   -21127   -21044   -20966   -20954   -21044 
  -21168   -21221   -21198   -21156   -21124   -21110   -21122   -21153 
  -21154   -21099   -21064   -21130   -21211   -21162   -21001   -20887 
  -20946   -21159   -21401   -21611   -21829   -22050   -22188   -22198 
  -22136   -22089   -22094   -22169   -22376   -22748   -23201   -23599 
  -23879   -24088   -24282   -24457   -24616   -24803   -25023   -25237 
  -25433   -25625   -25837   -26101   -26404   -26671   -26852   -26941 
  -26954   -26880   -26673   -26321   -25884   -25426   -24955   -24493 
  -24095   -23766   -23443   -23082   -22696   -22365   -22133   -21938 
  -21748   -21594   -21476   -21419   -21456   -21505   -21486   -21437 
