Origin Time       2011/03/11 14:46:00
Lat.              38.103
Long.             142.860
Depth. (km)       24
Mag.              9.0
Station Code      HKD040
Station Lat.      42.9806
Station Long.     142.3994
Station Height(m) 334
Record Time       2011/03/11 14:48:20
Sampling Freq(Hz) 100Hz
Duration Time(s)  278
Dir.              E-W
Scale Factor      3920(gal)/6182761
Max. Acc. (gal)   8.490
Last Correction   2011/03/11 14:48:05
Memo.             
[...]
  -24410   -24012   -23506   -22942   -22387   -21868   -21375   -20902 
  -20462   -20083   -19804   -19638   -19517   -19335   -19043   -18664 
  -18226   -17742   -17237   -16758   -16347   -16025   -15764   -15505 
  -15240   -15012   -14831   -14680   -14569   -14515   -14517   -14556 
  -14597   -14606   -14574   -14502   -14386   -14237   -14085   -13959 
  -13850   -13718   -13540   -13335   -13139   -12972   -12862   -12839 
  -12903   -13023   -13161   -13297   -13428   -13553   -13649   -13654 
  -13494   -13119   -12521   -11761   -10941   -10154    -9515    -9133 
   -9057    -9263    -9656   -10110   -10497   -10718   -10725   -10515 
  -10120    -9607    -9081    -8633    -8314    -8150    -8144    -8235 
   -8354    -8487    -8667    -8917    -9205    -9468    -9669    -9796 
   -9853    -9829    -9692    -9473    -9247    -9060    -8912    -8786 
   -8680    -8625    -8681    -8927    -9407   -10047   -10705   -11282 
  -11746   -12107   -12402   -12649   -12866   -13102   -13377   -13685 
  -14038   -14443   -14892   -15365   -15817   -16167   -16321   -16237 
  -15954   -15529   -14997   -14415   -13888   -13494   -13246   -13110 
  -13023   -12920   -12771   -12587   -12416   -12347   -12424   -12597 
  -12838   -13164   -13529   -13836   -13988   -13916   -13619   -13163 
  -12654   -12212   -11944   -11923   -12175   -12672   -13357   -14132 
  -14872   -15481   -15937   -16280   -16550   -16758   -16928   -17104 
  -17322   -17589   -17887   -18220   -18629   -19140   -19747   -20444 
  -21213   -22018   -22813   -23548   -24163   -24605   -24884   -25045 
  -25135   -25191   -25234   -25249   -25194   -25064   -24925   -24866 
  -24943   -25158   -25499   -25924   -26347   -26694   -26926   -26963 
  -26736   -26324   -25878   -25514   -25340   -25394   -25618   -25908 
  -26153   -26273   -26226   -25978   -25516   -24867   -24102   -23351 
  -22776   -22520   -22632   -23044   -23647   -24341   -25016   -25563 
  -25908   -26014   -25879   -25548   -25108   -24615   -24092   -23560 
  -23056   -22623   -22287   -22059   -21940   -21914   -21961   -22066 
  -22196   -22333   -22479   -22599   -22652   -22666   -22690   -22721 
  -22721   -22642   -22444   -22111   -21662   -21133   -20558   -19961 
  -19358   -18807   -18402   -18204   -18190   -18264   -18318   -18276 
  -18116   -17844   -17471   -17009   -16537   -16183   -16043   -16159 
  -16516   -17022   -17564   -18056   -18445   -18696   -18793   -18747 
  -18600   -18433   -18342   -18367   -18472   -18562   -18545   -18385 
  -18085   -17667   -17169   -16598   -15965   -15376   -15010   -14983 
  -15279   -15817   -16505   -17227   -17854   -18305   -18574   -18692 
  -18687   -18609   -18543   -18582   -18783   -19126   -19525   -19851 
  -19994   -19934   -19719   -19420   -19104   -18824   -18644   -18637 
  -18843   -19259   -19831   -20447   -20955   -21213   -21131   -20694 
  -19959   -19035   -18061   -17198   -16624   -16442   -16609   -16962 
  -17305   -17489   -17443   -17171   -16730   -16189   -15632   -15192 
  -14982   -15041   -15316   -15657   -15891   -15931   -15780   -15483 
  -15099   -14684   -14294   -13975   -13759   -13654   -13638   -13669 
  -13700   -13729   -13798   -13920   -14068   -14204   -14270   -14201 
  -13976   -13648   -13315   -13076   -12963   -12938   -12953   -12977 
  -13001   -13029   -13071   -13148   -13302   -13571   -13964   -14485 
  -15156   -15949   -16794   -17668   -18573   -19476   -20300   -20964 
  -21438   -21760   -21977   -22119   -22219   -22301   -22362   -22394 
  -22376   -22302   -22219   -22172   -22161   -22194   -22289   -22444 
  -22640   -22837   -22983   -23042   -23003   -22872   -22680   -22493 
  -22367   -22332   -22427   -22677   -23039   -23449   -23856   -24206 
  -24439   -24531   -24519   -24442   -24286   -24017   -23643   -23208 
  -22762   -22360   -22065   -21921   -21952   -22147   -22442   -22746 
  -23001   -23188   -23307   -23396   -23520   -23709   -23957   -24267 
  -24617   -24957   -25236   -25363   -25220   -24746   -23986   -23050 
  -22061   -21153   -20457   -20035   -19836   -19761   -19713   -19617 
  -19447   -19224   -18974   -18697   -18395   -18101   -17846   -17627 
  -17440   -17309   -17241   -17214   -17219   -17263   -17334   -17399 
  -17427   -17400   -17327   -17230   -17082   -16814   -16382   -15801 
  -15136   -14492   -13958   -13586   -13400   -13399   -13555   -13800 
  -14021   -14143   -14160   -14102   -14015   -13942   -13896   -13890 
  -13931   -13998   -14102   -14266   -14458   -14616   -14704   -14722 
  -14696   -14678   -14710   -14786   -14870   -14957   -15118   -15442 
  -15942   -16548   -17177   -17766   -18250   -18570   -18680   -18579 
  -18329   -18005   -17681   -17438   -17338   -17396   -17603   -17931 
  -18321   -18709   -19067   -19438   -19884   -20396   -20922   -21430 
  -21895   -22299   -22646   -22931   -23159   -23369   -23619   -23966 
  -24436   -25003   -25609   -26205   -26760   -27253   -27654   -27944 
  -28121   -28178   -28136   -28046   -27934   -27789   -27589   -27320 
  -26965   -26530   -26067   -25638   -25248   -24858   -24437   -23965 
  -23431   -22837   -22204   -21593   -21077   -20708   -20497   -20423 
  -20437   -20468   -20427   -20209   -19743   -19047   -18236   -17447 
  -16761   -16239   -15914   -15767   -15747   -15783   -15776   -15680 
  -15536   -15407   -15333   -15339   -15445   -15620   -15776   -15821 
  -15720   -15529   -15330   -15199   -15207   -15396   -15788   -16380 
  -17102   -17803   -18315   -18512   -18348   -17843   -17072   -16150 
  -15201   -14335   -13655   -13239   -13125   -13310   -13752   -14396 
  -15166   -15942   -16605   -17076   -17304   -17302   -17169   -17011 
  -16873   -16751   -16660   -16647   -16755   -16983   -17262   -17503 
  -17669   -17771   -17825   -17845   -17860   -17879   -17901   -17948 
  -18066   -18287   -18574   -18842   -19017   -19042   -18908   -18688 
  -18477   -18340   -18278   -18236   -18153   -18009   -17800   -17521 
  -17162   -16721   -16221   -15745   -15391   -15211   -15209   -15364 
  -15603   -15823   -15946   -15928   -15761   -15469   -15059   -14523 
  -13886   -13210   -12568   -12036   -11676   -11504   -11514   -11728 
  -12159   -12745   -13377   -13955   -14411   -14705   -14792   -14639 
  -14273   -13748   -13128   -12521   -12041   -11765   -11721   -11878 
  -12152   -12437   -12640   -12717   -12687   -12598   -12488   -12374 
  -12285   -12277   -12389   -12608   -12871   -13095   -13221   -13244 
  -13201   -13124   -13047   -13010   -13043   -13152   -13333   -13589 
  -13902   -14214   -14470   -14646   -14715   -14664   -14522   -14308 
  -14007   -13634   -13268   -13024   -12986   -13177   -13599   -14237 
  -15017   -15814   -16513   -17056   -17438   -17692   -17896   -18131 
  -18417   -18708   -18945   -19082   -19097   -18989   -18780   -18513 
  -18229   -17956   -17734   -17598   -17567   -17620   -17725   -17867 
  -18030   -18190   -18342   -18495   -18653   -18815   -18994   -19196 
  -19397   -19550   -19595   -19487   -19226   -18854   -18443   -18086 
  -17857   -17779   -17846   -18022   -18247   -18465   -18641   -18775 
  -18907   -19072   -19261   -19465   -19707   -19993   -20244   -20337 
  -20208   -19898   -19470   -18958   -18410   -17912   -17548   -17389 
  -17462   -17718   -18050   -18349   -18537   -18589   -18531   -18400 
  -18228   -18038   -17859   -17717   -17634   -17640   -17744   -17923 
  -18153   -18415   -18694   -18984   -19300   -19660   -20042   -20372 
  -20605   -20748   -20822   -20849   -20868   -20909   -20974   -21057 
  -21154   -21274   -21422   -21563   -21626   -21528   -21203   -20619 
  -19777   -18728   -17612   -16578   -15697   -14977   -14400   -13926 
  -13524   -13196   -12911   -12584   -12174   -11715   -11259   -10879 
  -10676   -10715   -10980   -11420   -11982   -12594   -13153   -13578 
  -13838   -13926   -13862   -13715   -13567   -13485   -13516   -13672 
  -13917   -14183   -14421   -14593   -14658   -14611   -14508   -14449 
  -14507   -14694   -14983   -15349   -15800   -16350   -16978   -17659 
  -18384   -19121   -19810   -20388   -20800   -21030   -21128   -21205 
  -21361   -21606   -21853   -22030   -22157   -22289   -22450   -22647 
  -22900   -23206   -23511   -23744   -23843   -23775   -23553   -23202 
  -22725   -22124   -21445   -20755   -20108   -19546   -19105   -18812 
  -18699   -18803   -19112   -19542   -19958   -20226   -20260   -20045 
  -19627   -19084   -18530   -18063   -17705   -17439   -17274   -17228 
  -17253   -17238   -17081   -16735   -16229   -15663   -15162   -14795 
  -14565   -14450   -14438   -14508   -14632   -14791   -14950   -15040 
  -14987   -14764   -14412   -13998   -13564   -13125   -12693   -12310 
  -12055   -12006   -12192   -12576   -13073   -13587   -14034   -14390 
  -14698   -14970   -15172   -15281   -15333   -15425   -15652   -16035 
  -16525   -17047   -17544   -18008   -18471   -18993   -19649   -20481 
  -21455   -22481   -23448   -24244   -24802   -25131   -25285   -25320 
  -25292   -25267   -25301   -25412   -25545   -25612   -25567   -25431 
  -25260   -25082   -24893   -24672   -24393   -24054   -23661   -23212 
  -22730   -22265   -21873   -21636   -21633   -21861   -22223   -22577 
  -22802   -22832   -22654   -22272   -21698   -21001   -20337   -19909 
  -19860   -20192   -20800   -21535   -22239   -22806   -23209   -23446 
  -23512   -23438   -23291   -23130   -22960   -22748   -22468   -22116 
  -21685   -21193   -20688   -20202   -19772   -19446   -19226   -19100 
  -19105   -19254   -19473   -19673   -19813   -19858   -19767   -19516 
  -19109   -18569   -17943   -17299   -16719   -16254   -15898   -15600 
  -15295   -14923   -14480   -13999   -13525   -13142   -12930   -12888 
  -12942   -13001   -12997   -12900   -12713   -12474   -12228   -12014 
  -11859   -11812   -11961   -12372   -12985   -13618   -14092   -14321 
  -14303   -14053   -13581   -12949   -12297   -11758   -11404   -11262 
  -11318   -11500   -11687   -11757   -11648   -11373   -10971   -10505 
  -10061    -9731    -9603    -9721   -10080   -10621   -11221   -11728 
  -12053   -12214   -12249   -12191   -12097   -12027   -12029   -12151 
  -12432   -12894   -13537   -14323   -15198   -16107   -16975   -17725 
  -18301   -18698   -18948   -19082   -19132   -19131   -19108   -19063 
  -18966   -18797   -18580   -18385   -18301   -18362   -18539   -18831 
  -19258   -19792   -20340   -20780   -21033   -21093   -20990   -20770 
  -20487   -20194   -19921   -19680   -19491   -19397   -19454   -19709 
  -20173   -20798   -21487   -22157   -22739   -23144   -23307   -23226 
  -22944   -22559   -22199   -21971   -21924   -22051   -22308   -22618 
  -22853   -22916   -22795   -22510   -22134   -21813   -21649   -21628 
  -21701   -21833   -21963   -22016   -21945   -21745   -21437   -21085 
  -20779   -20561   -20424   -20378   -20457   -20667   -20953   -21208 
  -21332   -21294   -21112   -20815   -20447   -20080   -19827   -19813 
  -20117   -20708   -21449   -22184   -22800   -23207   -23292   -22977 
  -22301   -21425   -20518   -19697   -19053   -18654   -18532   -18681 
  -19040   -19488   -19899   -20177   -20250   -20094   -19787   -19438 
  -19116   -18862   -18716   -18692   -18735   -18748   -18664   -18466 
  -18123   -17614   -16993   -16380   -15897   -15660   -15748   -16176 
  -16899   -17802   -18721   -19497   -20022   -20256   -20228   -20000 
  -19642   -19241   -18867   -18560   -18358   -18311   -18455   -18796 
  -19291   -19848   -20350   -20685   -20777   -20629   -20315   -19937 
  -19600   -19390   -19342   -19428   -19574   -19687   -19716   -19679 
  -19589   -19415   -19135   -18773   -18367   -17939   -17530   -17217 
  -17080   -17190   -17601   -18309   -19216   -20135   -20884   -21404 
  -21712   -21847   -21900   -21989   -22196   -22540   -23012   -23593 
  -24262   -24974   -25645   -26173   -26472   -26496   -26287   -25947 
  -25569   -25215   -24954   -24855   -24946   -25186   -25484   -25733 
  -25814   -25626   -25147   -24420   -23503   -22478   -21455   -20535 
  -19795   -19275   -18982   -18896   -18970   -19123   -19261   -19341 
  -19350   -19271   -19130   -19022   -19033   -19169   -19383   -19640 
  -19937   -20285   -20703   -21184   -21664   -22100   -22530   -23022 
  -23580   -24153   -24687   -25123   -25388   -25424   -25218   -24797 
  -24238   -23692   -23337   -23267   -23477   -23902   -24466   -25085 
  -25676   -26183   -26553   -26732   -26710   -26548   -26341   -26168 
  -26084   -26124   -26263   -26440   -26638   -26878   -27144   -27373 
  -27488   -27433   -27214   -26902   -26556   -26179   -25759   -25297 
  -24825   -24401   -24057   -23810   -23686   -23708   -23894   -24225 
  -24615   -24926   -25053   -24964   -24681   -24250   -23700   -23069 
  -22449   -21928   -21510   -21122   -20690   -20200   -19718   -19326 
  -19057   -18884   -18787   -18785   -18900   -19134   -19468   -19814 
  -20030   -20010   -19766   -19392   -18982   -18599   -18282   -18036 
  -17846   -17705   -17632   -17652   -17769   -17951   -18167   -18428 
  -18726   -18945   -18910   -18528   -17849   -17013   -16168   -15425 
  -14832   -14393   -14095   -13895   -13715   -13499   -13228   -12857 
  -12308   -11555   -10672    -9786    -9023    -8480    -8200    -8144 
   -8239    -8414    -8579    -8615    -8447    -8091    -7638    -7190 
   -6816    -6560    -6441    -6430    -6451    -6424    -6306    -6088 
   -5778    -5416    -5071    -4796    -4619    -4564    -4652    -4908 
   -5368    -6059    -6959    -7993    -9054   -10045   -10892   -11552 
  -12038   -12413   -12761   -13151   -13634   -14248   -15015   -15901 
  -16801   -17588   -18181   -18578   -18832   -19005   -19164   -19392 
  -19762   -20281   -20859   -21377   -21777   -22078   -22334   -22586 
  -22834   -23050   -23201   -23253   -23176   -22970   -22689   -22423 
  -22249   -22226   -22417   -22860   -23513   -24281   -25040   -25644 
  -25954   -25917   -25610   -25196   -24806   -24498   -24316   -24304 
  -24453   -24664   -24835   -24910   -24868   -24715   -24454   -24091 
  -23673   -23278   -22963   -22751   -22616   -22508   -22431   -22455 
  -22583   -22706   -22715   -22554   -22214   -21722   -21110   -20416 
  -19666   -18884   -18130   -17476   -16970   -16639   -16497   -16543 
  -16772   -17191   -17817   -18662   -19680   -20754   -21728   -22467 
  -22889   -22961   -22707   -22188   -21506   -20812   -20266   -19993 
  -20053   -20452   -21164   -22086   -23024   -23751   -24111   -24083 
  -23767   -23348   -23023   -22885   -22919   -23075   -23267   -23361 
  -23235   -22858   -22274   -21545   -20738   -19919   -19136   -18417 
  -17790   -17277   -16866   -16532   -16276   -16078   -15893   -15700 
  -15518   -15400   -15420   -15603   -15896   -16207   -16441   -16534 
  -16487   -16364   -16248   -16213   -16309   -16568   -17005   -17617 
  -18377   -19198   -19941   -20525   -20974   -21342   -21666   -21990 
  -22334   -22715   -23139   -23551   -23869   -24024   -23988   -23795 
  -23489   -23086   -22621   -22136   -21658   -21223   -20845   -20498 
  -20166   -19853   -19544   -19210   -18817   -18333   -17738   -17067 
  -16417   -15903   -15571   -15392   -15333   -15385   -15535   -15739 
  -15941   -16116   -16269   -16404   -16510   -16592   -16705   -16917 
  -17224   -17527   -17691   -17642   -17397   -17009   -16527   -16017 
  -15545   -15153   -14857   -14652   -14521   -14452   -14424   -14439 
  -14513   -14633   -14773   -14960   -15247   -15660   -16184   -16750 
  -17265   -17663   -17925   -18033   -17945   -17626   -17078   -16339 
  -15475   -14576   -13758   -13139   -12803   -12766   -12945   -13177 
  -13314   -13284   -13077   -12731   -12313   -11900   -11542   -11272 
  -11100   -11013   -10991   -11018   -11068   -11091   -11032   -10869 
  -10640   -10421   -10264   -10185   -10187   -10295   -10550   -10931 
  -11353   -11714   -11936   -11977   -11844   -11584   -11263   -10947 
  -10679   -10490   -10401   -10408   -10486   -10642   -10908   -11284 
  -11733   -12232   -12780   -13359   -13932   -14439   -14822   -15055 
  -15151   -15152   -15126   -15128   -15181   -15295   -15450   -15565 
  -15540   -15346   -15062   -14831   -14756   -14844   -15053   -15345 
  -15716   -16178   -16705   -17215   -17617   -17868   -17969   -17954 
  -17866   -17758   -17682   -17670   -17717   -17817   -17956   -18094 
  -18203   -18275   -18279   -18188   -18027   -17821   -17552   -17230 
  -16908   -16601   -16305   -16097   -16097   -16345   -16760   -17240 
  -17726   -18177   -18576   -18921   -19191   -19380   -19544   -19738 
  -19980   -20311   -20793   -21412   -22063   -22639   -23074   -23342 
  -23473   -23555   -23646   -23717   -23714   -23616   -23436   -23197 
  -22944   -22778   -22812   -23097   -23612   -24287   -25005   -25612 
  -25955   -25928   -25497   -24722   -23714   -22571   -21391   -20333 
  -19571   -19199   -19190   -19436   -19808   -20191   -20487   -20613 
  -20510   -20178   -19685   -19146   -18636   -18158   -17696   -17265 
  -16901   -16660   -16600   -16718   -16949   -17215   -17453   -17631 
  -17724   -17693   -17508   -17174   -16734   -16248   -15800   -15469 
  -15296   -15269   -15349   -15491   -15669   -15879   -16125   -16403 
  -16677   -16900   -17044   -17086   -16997   -16748   -16353   -15891 
  -15471   -15218   -15227   -15520   -16035   -16686   -17407   -18143 
  -18781   -19190   -19338   -19308   -19203   -19102   -19038   -19000 
  -18961   -18910   -18854   -18824   -18837   -18856   -18826   -18762 
  -18727   -18751   -18801   -18828   -18795   -18671   -18418   -18005 
  -17455   -16873   -16413   -16194   -16240   -16500   -16910   -17414 
  -17971   -18530   -18999   -19285   -19342   -19192   -18921   -18643 
  -18465   -18490   -18825   -19503   -20423   -21405   -22311   -23067 
  -23636   -24004   -24180   -24199   -24126   -24016   -23860   -23623 
  -23320   -23027   -22814   -22712   -22728   -22894   -23261   -23830 
  -24505   -25123   -25542   -25671   -25481   -25054   -24556   -24114 
  -23775   -23570   -23537   -23661   -23885   -24151   -24388   -24512 
  -24457   -24220   -23866   -23465   -23048   -22630   -22265   -22010 
  -21898   -21940   -22116   -22356   -22571   -22673   -22590   -22309 
  -21896   -21453   -21070   -20826   -20791   -20985   -21368   -21885 
  -22489   -23120   -23719   -24221   -24550   -24690   -24706   -24693 
  -24742   -24904   -25169   -25479   -25783   -26075   -26365   -26638 
  -26852   -26967   -26958   -26815   -26549   -26151   -25600   -24908 
  -24118   -23269   -22391   -21532   -20798   -20342   -20260   -20514 
  -20967   -21452   -21824   -22019   -22031   -21851   -21451   -20859 
  -20191   -19566   -19044   -18661   -18443   -18397   -18501   -18697 
  -18911   -19051   -19049   -18909   -18718   -18603   -18670   -18925 
  -19275   -19599   -19824   -19957   -20063   -20209   -20415   -20645 
  -20843   -20973   -21020   -20961   -20773   -20487   -20190   -19954 
  -19798   -19733   -19780   -19943   -20182   -20404   -20545   -20623 
  -20698   -20802   -20942   -21117   -21335   -21617   -21977   -22401 
  -22850   -23241   -23474   -23473   -23222   -22765   -22174   -21490 
  -20725   -19938   -19225   -18646   -18224   -17965   -17815   -17655 
