Origin Time       2011/03/11 14:46:00
Lat.              38.103
Long.             142.860
Depth. (km)       24
Mag.              9.0
Station Code      HKD020
Station Lat.      44.1487
Station Long.     141.6647
Station Height(m) 48
Record Time       2011/03/11 14:49:40
Sampling Freq(Hz) 100Hz
Duration Time(s)  172
Dir.              N-S
Scale Factor      3920(gal)/6182761
Max. Acc. (gal)   3.905
Last Correction   2011/03/11 14:49:25
Memo.             
[...]
    1017     1052     1081     1105     1146     1191     1231     1271 
    1318     1374     1426     1467     1516     1568     1604     1632 
    1659     1682     1696     1703     1714     1731     1736     1741 
    1758     1753     1721     1689     1652     1613     1576     1542 
    1523     1513     1491     1467     1454     1447     1437     1431 
    1435     1440     1435     1425     1418     1401     1377     1358 
    1333     1284     1225     1166     1093     1013      925      829 
     742      648      539      432      326      219      115        4 
    -110     -218     -327     -443     -551     -651     -762     -873 
    -976    -1085    -1195    -1302    -1421    -1535    -1628    -1731 
   -1849    -1944    -2012    -2089    -2175    -2246    -2314    -2388 
   -2459    -2533    -2603    -2655    -2709    -2771    -2821    -2864 
   -2911    -2955    -2989    -3009    -3010    -3002    -2990    -2975 
   -2950    -2910    -2883    -2871    -2847    -2818    -2789    -2765 
   -2759    -2755    -2742    -2728    -2719    -2716    -2703    -2679 
   -2650    -2605    -2560    -2528    -2482    -2425    -2383    -2343 
   -2301    -2267    -2238    -2207    -2182    -2169    -2165    -2164 
   -2172    -2190    -2207    -2225    -2258    -2287    -2311    -2345 
   -2372    -2395    -2426    -2444    -2455    -2477    -2498    -2505 
   -2511    -2520    -2526    -2533    -2540    -2547    -2560    -2569 
   -2576    -2606    -2646    -2673    -2706    -2744    -2773    -2801 
   -2828    -2852    -2872    -2876    -2878    -2898    -2910    -2907 
   -2916    -2934    -2940    -2931    -2919    -2918    -2923    -2915 
   -2904    -2909    -2923    -2924    -2909    -2897    -2898    -2904 
   -2900    -2900    -2914    -2919    -2923    -2927    -2926    -2936 
   -2940    -2925    -2925    -2925    -2898    -2868    -2840    -2809 
   -2769    -2714    -2669    -2649    -2637    -2616    -2601    -2607 
   -2600    -2571    -2550    -2541    -2531    -2513    -2495    -2492 
   -2494    -2469    -2437    -2425    -2407    -2363    -2326    -2308 
   -2285    -2243    -2180    -2129    -2095    -2029    -1944    -1883 
   -1831    -1759    -1669    -1592    -1527    -1443    -1352    -1269 
   -1184    -1097    -1001     -904     -820     -727     -624     -540 
    -467     -392     -326     -274     -237     -206     -170     -125 
     -79      -40      -12       19       50       60       60       70 
      79       86      100      111      130      156      182      228 
     279      324      378      447      520      588      672      766 
     857      962     1067     1157     1260     1370     1477     1588 
    1697     1807     1922     2034     2143     2240     2324     2408 
    2484     2540     2596     2651     2695     2728     2745     2748 
    2752     2748     2729     2708     2683     2651     2618     2576 
    2520     2462     2407     2346     2283     2225     2164     2103 
    2055     2010     1954     1900     1852     1801     1744     1686 
    1624     1561     1497     1419     1340     1274     1206     1147 
    1095     1015      935      887      832      757      694      647 
     607      564      506      451      417      371      310      267 
     229      180      132       95       66       34       -7      -32 
     -29      -34      -53      -58      -56      -52      -40      -32 
     -24       -6       11       28       47       72      108      134 
     148      175      210      230      249      276      288      284 
     277      269      268      265      253      250      253      243 
     236      231      207      177      151      123      100       79 
      54       30       14       16       19        8        6       15 
      13        8       11       10        5        7        5       -6 
     -17      -32      -51      -69      -96     -124     -145     -175 
    -217     -256     -299     -351     -399     -438     -487     -549 
    -603     -647     -710     -789     -863     -949    -1058    -1169 
   -1270    -1367    -1467    -1561    -1638    -1712    -1794    -1875 
   -1955    -2029    -2087    -2150    -2214    -2261    -2316    -2377 
   -2435    -2499    -2561    -2617    -2669    -2710    -2761    -2817 
   -2860    -2900    -2949    -2996    -3021    -3034    -3059    -3061 
   -3033    -3025    -3032    -3013    -2990    -2990    -2978    -2953 
   -2945    -2956    -2956    -2944    -2948    -2958    -2951    -2938 
   -2914    -2893    -2887    -2848    -2798    -2766    -2719    -2653 
   -2576    -2502    -2441    -2366    -2281    -2205    -2125    -2045 
   -1969    -1884    -1801    -1725    -1645    -1554    -1454    -1358 
   -1265    -1159    -1057     -960     -856     -755     -651     -545 
    -438     -320     -220     -139      -38       67      150      231 
     321      419      511      584      652      718      773      832 
     895      945      990     1040     1087     1126     1164     1201 
    1240     1288     1324     1384     1466     1469     1492     1597 
    1627     1637     1700     1731     1746     1760     1779     1804 
    1789     1775     1786     1769     1732     1706     1686     1657 
    1615     1573     1544     1532     1519     1498     1490     1479 
    1448     1424     1410     1382     1342     1305     1258     1202 
    1151     1096     1034      980      929      871      830      799 
     753      714      696      668      636      622      610      590 
     574      562      551      550      562      576      595      631 
     655      659      663      668      664      663      669      669 
     672      676      669      664      668      673      676      674 
     680      688      683      688      694      685      687      691 
     674      661      653      633      613      596      577      554 
     527      501      489      494      498      501      517      538 
     563      590      597      605      624      641      664      688 
     708      738      760      774      797      816      831      845 
     841      840      839      813      791      772      737      718 
     702      675      663      652      624      598      566      525 
     485      427      354      285      209      117       18      -87 
    -189     -286     -391     -494     -589     -696     -821     -945 
   -1063    -1184    -1323    -1462    -1591    -1729    -1877    -2019 
   -2158    -2295    -2421    -2541    -2666    -2787    -2898    -3015 
   -3134    -3233    -3329    -3434    -3528    -3612    -3690    -3765 
   -3849    -3929    -3992    -4058    -4122    -4170    -4217    -4265 
   -4309    -4358    -4408    -4469    -4548    -4612    -4664    -4729 
   -4786    -4827    -4867    -4907    -4947    -4982    -5019    -5044 
   -5050    -5061    -5072    -5068    -5065    -5071    -5077    -5075 
   -5070    -5071    -5078    -5079    -5071    -5059    -5053    -5049 
   -5032    -5012    -4995    -4964    -4935    -4915    -4885    -4850 
   -4833    -4827    -4818    -4813    -4816    -4818    -4823    -4829 
   -4831    -4841    -4873    -4909    -4932    -4951    -4971    -4984 
   -4978    -4950    -4919    -4903    -4875    -4829    -4788    -4750 
   -4713    -4675    -4625    -4580    -4553    -4514    -4463    -4433 
   -4418    -4396    -4365    -4332    -4303    -4262    -4202    -4148 
   -4100    -4049    -4006    -3953    -3876    -3798    -3729    -3656 
   -3571    -3485    -3415    -3344    -3258    -3180    -3108    -3033 
   -2969    -2925    -2883    -2833    -2790    -2757    -2700    -2621 
   -2549    -2488    -2425    -2359    -2296    -2234    -2171    -2108 
   -2030    -1951    -1885    -1808    -1722    -1658    -1604    -1547 
   -1497    -1454    -1412    -1379    -1352    -1317    -1282    -1249 
   -1216    -1188    -1158    -1120    -1080    -1041    -1007     -977 
    -948     -910     -867     -834     -799     -748     -705     -668 
    -619     -574     -537     -489     -438     -396     -355     -318 
    -283     -235     -189     -162     -134      -84      -29       14 
      51      104      173      236      284      332      384      429 
     465      499      536      567      586      609      637      658 
     682      715      742      774      809      831      854      877 
     886      892      895      900      913      901      882      897 
     899      875      877      900      907      918      940      961 
     976      980      969      963      959      945      933      931 
     937      954      978     1001     1029     1054     1063     1064 
    1069     1077     1082     1073     1052     1029      996      956 
     924      889      847      811      774      734      692      643 
     589      547      508      458      406      358      318      295 
     274      251      245      254      262      266      276      285 
     280      263      240      205      163      121       83       44 
      -4      -38      -51      -63      -71      -68      -53      -20 
      23       67      104      133      161      181      199      231 
     246      246      257      260      260      270      281      309 
     349      387      439      491      529      578      638      690 
     745      812      886      961     1025     1098     1193     1287 
    1377     1475     1568     1666     1773     1870     1962     2054 
    2127     2194     2260     2306     2358     2425     2479     2537 
    2619     2688     2748     2814     2865     2914     2965     2997 
    3035     3069     3077     3097     3117     3116     3115     3118 
    3128     3142     3150     3165     3191     3203     3205     3222 
    3244     3255     3268     3283     3293     3313     3320     3299 
    3279     3270     3244     3202     3173     3150     3114     3078 
    3039     2991     2939     2872     2799     2734     2664     2585 
    2506     2432     2351     2249     2149     2061     1968     1878 
    1788     1695     1615     1548     1474     1399     1353     1320 
    1264     1208     1184     1163     1117     1074     1047     1007 
     946      888      837      781      709      642      594      548 
     509      487      469      463      461      441      420      413 
     400      381      357      333      321      306      282      271 
     262      255      263      267      270      289      311      328 
     342      364      388      400      415      448      470      482 
     508      533      550      581      606      612      622      633 
     622      598      566      525      482      438      391      339 
     281      237      199      154      117       88       59       34 
       9      -29      -77     -134     -200     -272     -357     -448 
    -524     -599     -681     -759     -840     -918     -987    -1062 
   -1129    -1185    -1256    -1332    -1393    -1446    -1505    -1566 
   -1613    -1656    -1696    -1723    -1755    -1798    -1834    -1865 
   -1899    -1927    -1953    -1988    -2025    -2059    -2104    -2158 
   -2207    -2259    -2314    -2365    -2412    -2460    -2497    -2520 
   -2541    -2563    -2575    -2589    -2617    -2645    -2665    -2687 
   -2717    -2751    -2784    -2816    -2858    -2907    -2943    -2969 
   -2999    -3028    -3046    -3068    -3099    -3128    -3150    -3168 
   -3175    -3178    -3193    -3212    -3219    -3222    -3232    -3239 
   -3229    -3214    -3218    -3232    -3245    -3270    -3295    -3314 
   -3344    -3384    -3427    -3483    -3543    -3601    -3667    -3733 
   -3795    -3852    -3901    -3944    -3991    -4032    -4050    -4050 
   -4053    -4050    -4042    -4037    -4035    -4044    -4058    -4060 
   -4069    -4094    -4112    -4125    -4153    -4174    -4180    -4195 
   -4208    -4209    -4215    -4217    -4207    -4203    -4201    -4190 
   -4173    -4148    -4121    -4094    -4064    -4027    -3981    -3929 
   -3873    -3820    -3764    -3704    -3649    -3600    -3554    -3504 
   -3444    -3385    -3331    -3270    -3201    -3140    -3086    -3028 
   -2962    -2889    -2812    -2730    -2645    -2558    -2470    -2386 
   -2299    -2208    -2128    -2061    -1993    -1923    -1860    -1805 
   -1749    -1696    -1640    -1572    -1510    -1459    -1396    -1314 
   -1229    -1150    -1068     -976     -870     -764     -668     -575 
    -472     -374     -296     -223     -141      -61       27      134 
     240      335      430      529      635      745      853      965 
    1084     1211     1338     1448     1549     1645     1735     1818 
    1892     1961     2029     2092     2149     2190     2206     2216 
    2240     2261     2272     2294     2321     2346     2389     2438 
    2483     2545     2623     2708     2801     2889     2964     3047 
    3131     3190     3248     3317     3366     3402     3446     3476 
    3497     3525     3554     3598     3656     3700     3753     3818 
    3881     3953     4026     4084     4141     4197     4242     4279 
    4316     4350     4378     4403     4423     4438     4464     4493 
    4521     4549     4571     4583     4580     4572     4575     4569 
    4552     4554     4569     4573     4567     4560     4560     4576 
    4597     4619     4657     4702     4740     4783     4818     4840 
    4876     4919     4952     4991     5037     5085     5137     5185 
    5235     5295     5360     5418     5476     5543     5609     5672 
    5725     5767     5809     5847     5864     5867     5877     5886 
    5878     5867     5863     5847     5821     5797     5766     5725 
    5687     5646     5589     5523     5455     5380     5303     5231 
    5161     5078     4975     4861     4742     4610     4468     4315 
    4155     3995     3836     3674     3508     3334     3160     2997 
    2835     2669     2511     2364     2232     2110     1986     1871 
    1763     1663     1568     1464     1363     1276     1193     1107 
    1017      925      835      749      675      602      523      453 
     405      355      290      228      168       97       23      -60 
    -154     -241     -320     -406     -485     -547     -604     -659 
    -704     -737     -766     -798     -804     -792     -808     -827 
    -825     -843     -875     -902     -930     -950     -962     -979 
    -988     -988     -993    -1003    -1025    -1055    -1086    -1131 
   -1176    -1213    -1256    -1297    -1328    -1360    -1393    -1420 
   -1438    -1455    -1465    -1451    -1428    -1420    -1407    -1379 
   -1362    -1354    -1346    -1344    -1335    -1325    -1343    -1371 
   -1393    -1420    -1446    -1469    -1487    -1490    -1483    -1467 
   -1440    -1395    -1338    -1276    -1200    -1119    -1036     -951 
    -870     -796     -726     -658     -600     -556     -514     -478 
    -460     -452     -441     -425     -405     -392     -378     -354 
    -335     -321     -305     -298     -297     -293     -299     -321 
    -354     -393     -424     -442     -460     -483     -503     -520 
    -545     -582     -619     -641     -667     -702     -723     -740 
    -765     -784     -799     -819     -821     -805     -818     -845 
    -839     -847     -890     -913     -927     -964     -997    -1016 
   -1026    -1039    -1052    -1043    -1029    -1027    -1021    -1010 
   -1000     -986     -976     -981     -989     -996    -1006    -1032 
   -1075    -1112    -1140    -1182    -1238    -1280    -1310    -1344 
   -1375    -1390    -1402    -1424    -1453    -1475    -1492    -1510 
   -1523    -1525    -1524    -1528    -1531    -1525    -1514    -1502 
   -1491    -1482    -1471    -1459    -1438    -1436    -1465    -1460 
   -1429    -1437    -1445    -1413    -1382    -1368    -1351    -1319 
   -1277    -1236    -1201    -1165    -1120    -1078    -1038     -991 
    -952     -904     -838     -776     -715     -649     -585     -526 
    -463     -390     -324     -274     -214     -149      -93      -42 
       7       51       90      118      133      143      151      146 
     130      117      110       98       64       25       11       -6 
     -43      -75     -103     -151     -219     -295     -359     -409 
    -476     -558     -627     -702     -787     -860     -933    -1009 
   -1076    -1147    -1221    -1300    -1364    -1401    -1455    -1519 
   -1552    -1586    -1641    -1684    -1716    -1759    -1796    -1823 
   -1847    -1867    -1893    -1912    -1919    -1943    -1972    -1990 
   -2016    -2047    -2064    -2067    -2065    -2069    -2073    -2069 
   -2061    -2048    -2030    -2004    -1973    -1948    -1925    -1906 
   -1893    -1870    -1839    -1803    -1754    -1706    -1655    -1600 
   -1551    -1491    -1426    -1376    -1313    -1243    -1194    -1146 
   -1100    -1066    -1028     -985     -943     -898     -860     -831 
    -799     -771     -753     -740     -732     -722     -712     -702 
    -696     -687     -657     -631     -628     -617     -596     -587 
    -589     -590     -585     -582     -582     -579     -582     -589 
    -588     -583     -569     -542     -522     -504     -475     -455 
    -448     -440     -428     -410     -394     -385     -371     -350 
    -335     -316     -289     -276     -266     -241     -215     -197 
    -181     -180     -188     -190     -205     -236     -256     -273 
    -298     -318     -339     -362     -380     -400     -421     -449 
    -482     -515     -554     -588     -617     -658     -689     -704 
    -722     -737     -745     -764     -786     -806     -826     -842 
    -852     -856     -861     -863     -855     -846     -841     -837 
    -838     -838     -831     -827     -829     -823     -810     -801 
    -805     -811     -806     -817     -843     -866     -897     -923 
    -936     -960     -984     -995    -1006    -1009    -1002     -999 
    -989     -969     -957     -940     -922     -920     -909     -881 
    -856     -829     -798     -760     -707     -657     -618     -572 
    -524     -487     -459     -430     -401     -377     -351     -331 
    -316     -299     -297     -295     -271     -251     -231     -200 
    -172     -140     -101      -84      -71      -39      -24      -22 
      -6        8       19       34       43       52       66       88 
     108      110      107      117      116       88       60       39 
       9      -26      -60     -101     -141     -185     -234     -267 
    -299     -339     -373     -411     -454     -497     -543     -587 
    -625     -668     -705     -734     -769     -810     -848     -886 
    -923     -960    -1004    -1040    -1064    -1097    -1141    -1187 
   -1227    -1263    -1308    -1356    -1389    -1410    -1434    -1463 
   -1490    -1503    -1513    -1522    -1530    -1546    -1573    -1604 
   -1637    -1679    -1726    -1765    -1794    -1813    -1817    -1820 
   -1826    -1820    -1801    -1780    -1755    -1716    -1668    -1619 
   -1571    -1528    -1490    -1455    -1423    -1395    -1367    -1337 
   -1313    -1298    -1275    -1245    -1232    -1219    -1193    -1177 
   -1169    -1160    -1159    -1163    -1160    -1158    -1165    -1176 
   -1191    -1212    -1233    -1248    -1262    -1280    -1285    -1281 
   -1277    -1267    -1249    -1228    -1204    -1178    -1166    -1164 
