Origin Time       2011/03/11 14:46:00
Lat.              38.103
Long.             142.860
Depth. (km)       24
Mag.              9.0
Station Code      HKD031
Station Lat.      44.1185
Station Long.     142.5952
Station Height(m) 214
Record Time       2011/03/11 14:49:41
Sampling Freq(Hz) 100Hz
Duration Time(s)  129
Dir.              U-D
Scale Factor      3920(gal)/6182761
Max. Acc. (gal)   1.975
Last Correction   2011/03/11 14:49:26
Memo.             
[...]
    6482     6467     6460     6464     6473     6471     6461     6454 
    6451     6434     6400     6359     6329     6312     6299     6284 
    6269     6253     6230     6207     6185     6164     6144     6115 
    6075     6040     6022     6015     6010     6011     6027     6060 
    6105     6154     6199     6243     6302     6382     6471     6552 
    6619     6683     6751     6814     6875     6945     7024     7107 
    7182     7242     7291     7337     7379     7411     7426     7436 
    7455     7480     7504     7529     7556     7579     7592     7603 
    7622     7656     7704     7762     7826     7896     7964     8026 
    8082     8128     8167     8205     8243     8275     8306     8345 
    8388     8418     8435     8452     8478     8514     8560     8602 
    8635     8664     8690     8704     8712     8719     8719     8723 
    8740     8763     8777     8787     8798     8806     8816     8833 
    8860     8895     8930     8958     8985     9020     9058     9092 
    9122     9141     9154     9177     9209     9244     9275     9291 
    9293     9288     9279     9262     9227     9174     9118     9071 
    9025     8975     8932     8909     8889     8852     8792     8723 
    8665     8621     8580     8539     8510     8492     8472     8448 
    8442     8463     8494     8518     8529     8533     8535     8531 
    8520     8513     8514     8518     8518     8512     8504     8495 
    8491     8497     8508     8516     8524     8534     8530     8508 
    8479     8448     8419     8395     8380     8383     8406     8437 
    8477     8533     8601     8669     8730     8782     8828     8873 
    8912     8934     8942     8952     8966     8983     9010     9045 
    9067     9070     9051     9014     8983     8977     8991     9014 
    9036     9050     9066     9092     9117     9126     9115     9094 
    9064     9024     8982     8953     8934     8915     8890     8858 
    8832     8812     8777     8711     8624     8541     8476     8433 
    8413     8396     8365     8337     8328     8329     8339     8356 
    8381     8416     8454     8477     8486     8491     8495     8495 
    8487     8469     8445     8426     8420     8425     8443     8466 
    8483     8489     8489     8486     8481     8479     8482     8475 
    8458     8448     8456     8470     8480     8475     8463     8457 
    8459     8467     8477     8478     8465     8448     8430     8407 
    8379     8349     8321     8291     8256     8222     8191     8159 
    8128     8091     8039     7977     7910     7838     7770     7713 
    7652     7583     7508     7426     7340     7253     7167     7088 
    7027     6986     6958     6930     6897     6867     6847     6823 
    6792     6767     6749     6731     6698     6642     6578     6526 
    6483     6442     6389     6314     6236     6169     6101     6031 
    5977     5950     5948     5968     5997     6026     6063     6111 
    6169     6233     6307     6386     6452     6491     6506     6520 
    6548     6584     6614     6635     6658     6686     6708     6727 
    6750     6771     6783     6784     6777     6770     6766     6763 
    6760     6750     6726     6697     6669     6645     6627     6613 
    6597     6574     6545     6516     6494     6480     6470     6464 
    6456     6440     6414     6391     6381     6386     6387     6373 
    6355     6354     6365     6374     6380     6386     6402     6437 
    6486     6539     6590     6635     6667     6676     6665     6646 
    6628     6632     6664     6705     6740     6775     6824     6892 
    6967     7029     7072     7117     7180     7256     7326     7395 
    7471     7547     7602     7632     7647     7660     7682     7722 
    7779     7843     7905     7961     8003     8029     8042     8041 
    8025     8003     7982     7969     7970     7975     7968     7950 
    7935     7935     7947     7962     7975     7982     7984     7973 
    7943     7900     7851     7804     7760     7721     7692     7670 
    7655     7646     7642     7645     7653     7656     7655     7650 
    7644     7651     7675     7711     7754     7799     7840     7881 
    7923     7958     7984     8013     8048     8094     8146     8201 
    8254     8301     8349     8395     8441     8493     8549     8599 
    8644     8689     8727     8746     8751     8751     8747     8737 
    8717     8691     8666     8652     8646     8632     8612     8597 
    8593     8594     8587     8564     8537     8514     8491     8458 
    8410     8350     8283     8232     8203     8182     8159     8135 
    8107     8076     8055     8044     8040     8040     8039     8032 
    8022     8013     8012     8009     8005     8008     8009     8003 
    7984     7955     7932     7923     7920     7919     7923     7939 
    7965     7995     8021     8044     8065     8085     8101     8105 
    8093     8071     8053     8046     8046     8048     8052     8071 
    8094     8108     8114     8111     8093     8069     8035     7987 
    7926     7857     7788     7728     7677     7630     7579     7522 
    7473     7447     7434     7421     7408     7380     7327     7266 
    7208     7157     7123     7097     7065     7034     7018     7012 
    7014     7015     6995     6954     6911     6871     6822     6759 
    6688     6622     6576     6545     6516     6490     6468     6440 
    6402     6367     6343     6332     6324     6317     6326     6352 
    6387     6430     6483     6531     6560     6564     6550     6535 
    6528     6526     6530     6539     6555     6592     6647     6702 
    6748     6777     6789     6797     6814     6836     6858     6879 
    6902     6922     6937     6962     7004     7055     7114     7179 
    7241     7302     7373     7440     7492     7534     7574     7618 
    7662     7700     7729     7764     7826     7910     7988     8060 
    8125     8174     8212     8248     8282     8313     8342     8362 
    8375     8388     8400     8417     8433     8428     8408     8383 
    8355     8326     8306     8285     8253     8220     8194     8165 
    8125     8081     8044     8017     8004     7997     7981     7967 
    7966     7973     7971     7944     7908     7885     7876     7874 
    7868     7852     7835     7818     7794     7772     7756     7741 
    7736     7739     7732     7715     7705     7715     7741     7764 
    7773     7780     7794     7810     7818     7821     7824     7827 
    7844     7873     7908     7960     8026     8077     8107     8112 
    8089     8063     8049     8035     8025     8027     8030     8039 
    8068     8102     8131     8161     8180     8179     8170     8160 
    8141     8119     8098     8067     8026     7982     7935     7898 
    7873     7836     7780     7720     7664     7620     7590     7551 
    7497     7449     7423     7409     7394     7378     7368     7363 
    7359     7358     7360     7369     7386     7398     7397     7390 
    7391     7399     7409     7421     7437     7455     7473     7497 
    7525     7557     7595     7626     7649     7673     7699     7720 
    7743     7767     7790     7818     7849     7878     7907     7944 
    7982     8010     8040     8079     8123     8166     8201     8233 
    8282     8341     8382     8406     8424     8438     8448     8459 
    8469     8480     8495     8511     8523     8529     8536     8546 
    8550     8539     8511     8476     8454     8446     8436     8419 
    8398     8376     8360     8339     8304     8266     8228     8181 
    8124     8067     8025     7998     7976     7955     7937     7928 
    7931     7940     7944     7944     7943     7945     7949     7950 
    7952     7964     7985     8004     8003     7989     7980     7979 
    7975     7970     7968     7970     7972     7980     7993     7998 
    7994     7982     7954     7919     7891     7871     7856     7846 
    7843     7845     7847     7833     7801     7755     7700     7642 
    7584     7528     7479     7441     7418     7401     7374     7336 
    7295     7258     7230     7204     7173     7145     7128     7133 
    7152     7160     7153     7132     7090     7028     6961     6891 
    6824     6772     6727     6679     6633     6584     6531     6492 
    6462     6423     6373     6317     6264     6225     6197     6166 
    6135     6119     6118     6116     6109     6094     6079     6066 
    6045     6019     5998     5978     5953     5924     5888     5854 
    5831     5818     5814     5817     5817     5818     5830     5842 
    5840     5833     5820     5798     5779     5760     5736     5720 
    5724     5741     5759     5778     5798     5820     5852     5887 
    5914     5938     5961     5980     5998     6012     6024     6043 
    6065     6071     6064     6059     6061     6073     6098     6135 
    6176     6217     6249     6271     6291     6303     6308     6327 
    6352     6381     6416     6434     6430     6424     6420     6414 
    6407     6400     6391     6388     6395     6399     6389     6377 
    6369     6360     6342     6319     6304     6308     6329     6360 
    6397     6439     6493     6552     6605     6652     6690     6717 
    6731     6730     6726     6737     6752     6756     6755     6746 
    6729     6724     6736     6749     6757     6775     6798     6817 
    6839     6875     6920     6975     7031     7075     7108     7141 
    7167     7174     7172     7176     7186     7204     7224     7233 
    7238     7250     7256     7253     7244     7226     7208     7198 
    7188     7176     7155     7111     7051     6998     6954     6919 
    6886     6845     6802     6755     6687     6612     6546     6477 
    6405     6341     6278     6206     6132     6053     5958     5855 
    5761     5669     5583     5515     5460     5416     5391     5378 
    5353     5315     5277     5238     5202     5172     5145     5123 
    5101     5073     5050     5030     5002     4983     4989     5008 
    5032     5064     5101     5132     5161     5194     5229     5278 
    5338     5379     5392     5390     5377     5373     5389     5411 
    5442     5490     5538     5580     5626     5677     5727     5774 
    5805     5816     5824     5835     5848     5873     5912     5953 
    5995     6027     6035     6037     6049     6060     6066     6060 
    6034     6013     6006     5993     5978     5986     6011     6039 
    6078     6125     6161     6197     6229     6232     6217     6206 
    6187     6162     6154     6161     6173     6193     6210     6211 
    6208     6208     6208     6215     6235     6261     6295     6330 
    6351     6371     6415     6478     6539     6586     6625     6675 
    6729     6769     6791     6805     6817     6836     6864     6888 
    6911     6941     6963     6969     6978     6992     7015     7057 
    7099     7126     7159     7216     7279     7335     7390     7436 
    7466     7493     7510     7497     7473     7464     7465     7471 
    7488     7516     7557     7603     7643     7678     7716     7751 
    7772     7779     7780     7784     7796     7813     7819     7813 
    7807     7793     7770     7754     7749     7752     7757     7748 
    7724     7691     7660     7634     7603     7559     7510     7469 
    7429     7373     7306     7238     7171     7119     7079     7036 
    6983     6917     6842     6774     6720     6677     6645     6622 
    6600     6571     6541     6516     6505     6503     6490     6461 
    6438     6421     6394     6369     6364     6373     6384     6397 
    6407     6414     6434     6473     6516     6555     6584     6594 
    6595     6592     6585     6582     6582     6579     6598     6637 
    6671     6698     6729     6756     6767     6771     6776     6783 
    6799     6818     6831     6845     6858     6861     6858     6860 
    6877     6910     6945     6968     6981     6993     7006     7018 
    7028     7037     7053     7084     7122     7151     7169     7178 
    7188     7215     7256     7303     7353     7404     7456     7501 
    7551     7611     7664     7718     7773     7804     7823     7847 
    7882     7930     7972     8011     8069     8140     8197     8246 
    8310     8382     8445     8494     8532     8574     8614     8643 
    8673     8719     8766     8804     8840     8882     8930     8974 
    9008     9038     9065     9087     9102     9115     9126     9134 
    9139     9135     9125     9117     9118     9126     9142     9165 
    9180     9172     9164     9171     9184     9199     9218     9245 
    9267     9273     9291     9304     9289     9299     9331     9324 
    9304     9301     9284     9237     9180     9115     9032     8936 
    8844     8762     8682     8600     8515     8425     8342     8271 
    8200     8124     8044     7955     7860     7761     7651     7532 
    7412     7298     7187     7081     6978     6874     6771     6672 
    6575     6475     6365     6245     6133     6028     5915     5801 
    5695     5596     5508     5429     5360     5301     5235     5169 
    5117     5066     5026     5004     4973     4937     4911     4882 
    4835     4779     4732     4701     4683     4658     4618     4571 
    4510     4448     4402     4354     4299     4258     4237     4220 
    4214     4225     4226     4213     4211     4205     4177     4155 
    4152     4162     4173     4179     4183     4178     4168     4172 
    4182     4185     4190     4213     4250     4287     4312     4328 
    4344     4369     4396     4426     4458     4478     4489     4508 
    4527     4527     4519     4532     4544     4533     4534     4555 
    4578     4613     4666     4728     4805     4898     4993     5085 
    5170     5243     5311     5384     5464     5546     5623     5689 
    5734     5773     5822     5876     5935     6006     6077     6145 
    6219     6290     6358     6431     6489     6532     6595     6678 
    6766     6855     6942     7027     7117     7208     7294     7373 
    7444     7508     7574     7630     7671     7723     7778     7816 
    7854     7898     7944     7997     8051     8095     8134     8173 
    8222     8277     8331     8383     8427     8468     8521     8577 
    8627     8673     8707     8735     8760     8769     8763     8763 
    8766     8762     8756     8754     8750     8750     8753     8744 
    8724     8700     8673     8645     8616     8593     8575     8554 
    8532     8514     8503     8502     8496     8483     8484     8491 
    8476     8453     8432     8398     8359     8330     8310     8284 
    8255     8228     8197     8166     8131     8078     8016     7961 
    7917     7881     7836     7769     7700     7649     7614     7578 
    7532     7484     7439     7386     7325     7272     7236     7201 
    7167     7140     7093     7034     7005     6993     6978     6989 
    7022     7042     7044     7033     7011     6995     6977     6943 
    6911     6881     6836     6771     6693     6625     6561     6502 
    6466     6428     6367     6308     6256     6212     6181     6148 
    6116     6101     6097     6085     6061     6036     6008     5983 
    5961     5926     5884     5856     5841     5830     5820     5809 
    5796     5779     5761     5744     5728     5706     5691     5693 
    5693     5689     5706     5738     5765     5795     5835     5872 
    5895     5917     5944     5967     5985     6005     6037     6100 
    6187     6263     6306     6334     6365     6404     6438     6460 
    6478     6499     6528     6566     6624     6698     6769     6832 
    6888     6940     7000     7072     7144     7200     7235     7251 
    7259     7275     7312     7362     7417     7486     7574     7664 
    7744     7817     7891     7966     8034     8091     8140     8180 
    8208     8217     8212     8223     8257     8291     8317     8336 
    8340     8327     8314     8314     8324     8329     8325     8327 
    8345     8366     8377     8389     8402     8410     8419     8431 
    8437     8437     8429     8411     8396     8393     8393     8381 
    8359     8329     8288     8243     8208     8179     8147     8108 
    8068     8034     8006     7982     7959     7932     7899     7862 
    7819     7779     7742     7700     7654     7614     7595     7602 
    7620     7627     7613     7579     7540     7503     7468     7449 
    7445     7425     7395     7383     7386     7392     7391     7380 
    7370     7373     7379     7381     7387     7398     7411     7431 
    7466     7514     7560     7591     7626     7679     7722     7761 
    7806     7815     7799     7813     7835     7832     7837     7865 
    7877     7865     7853     7851     7851     7836     7798     7754 
    7721     7691     7653     7617     7583     7541     7485     7417 
    7345     7282     7223     7153     7075     6999     6929     6867 
    6813     6762     6703     6642     6592     6550     6510     6479 
    6438     6379     6322     6269     6203     6135     6079     6034 
    6002     5984     5962     5929     5899     5881     5866     5848 
    5838     5834     5848     5882     5918     5960     6019     6068 
    6111     6172     6235     6286     6343     6401     6454     6520 
    6599     6677     6761     6849     6917     6985     7091     7202 
    7292     7381     7475     7570     7676     7782     7880     7979 
    8070     8149     8229     8321     8415     8499     8578     8651 
    8724     8797     8860     8920     8974     9001     9005     9011 
    9027     9035     9026     9011     9002     9000     8995     8979 
    8964     8967     8972     8966     8970     8989     9005     8999 
    8962     8911     8873     8850     8818     8781     8741     8678 
    8610     8560     8506     8441     8380     8318     8247     8184 
    8145     8112     8077     8048     8005     7947     7909     7877 
    7833     7791     7755     7722     7687     7652     7626     7607 
    7581     7549     7525     7513     7508     7498     7475     7440 
    7394     7352     7323     7297     7271     7249     7226     7209 
    7199     7191     7189     7185     7163     7141     7133     7128 
    7124     7125     7120     7119     7134     7137     7119     7112 
    7113     7098     7092     7098     7095     7089     7079     7046 
    7003     6960     6909     6863     6837     6817     6791     6763 
    6719     6659     6613     6593     6582     6570     6550     6527 
    6511     6504     6510     6522     6526     6530     6557     6604 
    6647     6678     6707     6745     6790     6846     6906     6954 
    7010     7071     7110     7159     7235     7296     7343     7391 
    7430     7465     7497     7522     7544     7565     7568     7557 
    7562     7578     7576     7554     7523     7496     7487     7482 
    7468     7455     7438     7400     7350     7325     7324     7319 
    7323     7341     7350     7353     7364     7372     7369     7357 
    7343     7321     7300     7292     7277     7232     7177     7144 
    7121     7086     7067     7077     7077     7070     7085     7112 
    7135     7155     7168     7173     7186     7214     7251     7293 
