Origin Time       2011/03/11 14:46:00
Lat.              38.103
Long.             142.860
Depth. (km)       24
Mag.              9.0
Station Code      HKD015
Station Lat.      44.8846
Station Long.     141.7503
Station Height(m) 5
Record Time       2011/03/11 14:50:39
Sampling Freq(Hz) 100Hz
Duration Time(s)  168
Dir.              N-S
Scale Factor      3920(gal)/6182761
Max. Acc. (gal)   6.842
Last Correction   2011/03/11 14:50:24
Memo.             
[...]
   -1913    -1957    -1999    -2045    -2100    -2158    -2214    -2270 
   -2325    -2383    -2447    -2516    -2587    -2660    -2734    -2813 
   -2896    -2979    -3062    -3146    -3231    -3312    -3389    -3464 
   -3536    -3606    -3672    -3739    -3808    -3869    -3921    -3972 
   -4020    -4065    -4116    -4163    -4194    -4217    -4242    -4273 
   -4310    -4340    -4359    -4378    -4402    -4429    -4454    -4474 
   -4489    -4498    -4511    -4533    -4552    -4562    -4572    -4584 
   -4597    -4611    -4624    -4623    -4612    -4603    -4599    -4595 
   -4591    -4582    -4567    -4555    -4550    -4544    -4535    -4529 
   -4525    -4521    -4517    -4517    -4522    -4527    -4526    -4528 
   -4539    -4553    -4569    -4588    -4607    -4628    -4651    -4676 
   -4701    -4722    -4737    -4752    -4770    -4785    -4799    -4814 
   -4824    -4824    -4819    -4806    -4784    -4756    -4726    -4685 
   -4634    -4581    -4535    -4487    -4425    -4356    -4292    -4230 
   -4163    -4094    -4023    -3949    -3881    -3817    -3727    -3621 
   -3548    -3497    -3433    -3362    -3294    -3227    -3152    -3072 
   -3002    -2923    -2835    -2768    -2708    -2633    -2563    -2502 
   -2427    -2351    -2296    -2240    -2173    -2108    -2031    -1949 
   -1882    -1826    -1762    -1692    -1645    -1607    -1518    -1391 
   -1312    -1309    -1300    -1240    -1174    -1125    -1115    -1106 
   -1052    -1009    -1004     -995     -981     -964     -939     -921 
    -929     -907     -843     -832     -861     -849     -807     -753 
    -705     -657     -567     -499     -474     -399     -302     -219 
    -108       -7       56      141      245      360      487      591 
     732      925     1081     1207     1335     1455     1592     1752 
    1908     2065     2240     2415     2574     2745     2933     3100 
    3268     3452     3634     3832     4003     4143     4322     4509 
    4679     4877     5098     5292     5468     5659     5847     6006 
    6161     6334     6521     6711     6881     7031     7183     7335 
    7476     7609     7734     7861     8001     8143     8271     8381 
    8476     8568     8669     8788     8927     9071     9195     9294 
    9375     9450     9527     9594     9646     9688     9732     9775 
    9810     9831     9837     9832     9819     9802     9782     9754 
    9725     9701     9677     9645     9605     9563     9524     9485 
    9443     9400     9354     9298     9235     9168     9094     9011 
    8914     8810     8705     8600     8490     8374     8257     8138 
    8018     7897     7767     7632     7497     7354     7209     7069 
    6930     6789     6655     6528     6399     6270     6148     6029 
    5906     5787     5672     5557     5444     5337     5232     5126 
    5022     4921     4823     4730     4646     4571     4497     4425 
    4359     4293     4227     4169     4114     4058     4009     3962 
    3910     3857     3806     3751     3692     3633     3572     3511 
    3453     3405     3359     3314     3274     3235     3193     3149 
    3107     3073     3040     3009     2984     2960     2937     2919 
    2898     2877     2862     2850     2834     2816     2802     2788 
    2773     2753     2727     2697     2670     2649     2638     2633 
    2634     2641     2657     2677     2702     2733     2769     2811 
    2860     2915     2973     3036     3104     3177     3251     3324 
    3392     3451     3495     3537     3590     3648     3694     3728 
    3762     3801     3837     3868     3897     3928     3965     4007 
    4053     4096     4136     4179     4226     4272     4316     4360 
    4400     4441     4491     4546     4593     4631     4667     4701 
    4727     4747     4761     4775     4791     4802     4806     4811 
    4813     4806     4792     4773     4751     4730     4711     4687 
    4660     4636     4608     4575     4545     4516     4477     4435 
    4400     4367     4336     4303     4261     4219     4176     4133 
    4083     4027     3972     3917     3860     3804     3744     3679 
    3616     3548     3478     3414     3350     3286     3228     3177 
    3128     3077     3024     2973     2926     2881     2841     2801 
    2755     2709     2667     2624     2579     2541     2509     2476 
    2443     2402     2368     2352     2336     2301     2260     2220 
    2182     2153     2129     2097     2053     2005     1953     1901 
    1855     1816     1778     1737     1692     1646     1598     1547 
    1501     1457     1406     1354     1307     1270     1246     1223 
    1192     1158     1128     1100     1077     1059     1042     1020 
     989      946      897      856      818      776      723      652 
     569      489      411      332      254      167       65      -35 
    -126     -221     -319     -417     -521     -625     -719     -804 
    -883     -964    -1046    -1124    -1196    -1262    -1332    -1407 
   -1480    -1551    -1624    -1699    -1779    -1861    -1941    -2020 
   -2104    -2192    -2277    -2360    -2441    -2522    -2611    -2706 
   -2793    -2873    -2952    -3029    -3102    -3179    -3257    -3323 
   -3380    -3432    -3479    -3530    -3582    -3628    -3676    -3725 
   -3766    -3804    -3848    -3893    -3930    -3961    -3999    -4038 
   -4073    -4104    -4129    -4156    -4187    -4204    -4213    -4229 
   -4243    -4257    -4271    -4278    -4284    -4290    -4287    -4283 
   -4292    -4308    -4323    -4335    -4347    -4366    -4395    -4431 
   -4467    -4498    -4525    -4553    -4581    -4610    -4635    -4648 
   -4651    -4650    -4649    -4648    -4647    -4636    -4616    -4591 
   -4559    -4522    -4484    -4445    -4399    -4343    -4286    -4223 
   -4152    -4080    -4005    -3928    -3859    -3791    -3717    -3647 
   -3584    -3516    -3446    -3385    -3329    -3272    -3216    -3159 
   -3101    -3046    -2994    -2947    -2892    -2827    -2761    -2705 
   -2655    -2598    -2533    -2472    -2413    -2353    -2293    -2236 
   -2187    -2139    -2088    -2037    -1991    -1953    -1917    -1872 
   -1819    -1763    -1714    -1678    -1637    -1591    -1546    -1494 
   -1430    -1349    -1259    -1190    -1135    -1067     -985     -900 
    -818     -727     -621     -521     -437     -356     -273     -194 
    -115      -23       78      166      246      335      431      519 
     602      694      795      896      999     1100     1191     1271 
    1352     1447     1551     1647     1737     1827     1913     2003 
    2103     2197     2284     2374     2463     2546     2627     2707 
    2781     2851     2927     3005     3072     3130     3182     3238 
    3305     3374     3439     3508     3575     3639     3700     3772 
    3854     3906     3918     3950     4030     4117     4187     4247 
    4310     4376     4436     4485     4529     4574     4629     4697 
    4758     4786     4796     4807     4813     4831     4870     4887 
    4862     4834     4829     4836     4829     4790     4721     4647 
    4596     4558     4488     4391     4303     4224     4141     4060 
    3985     3903     3788     3646     3513     3414     3336     3244 
    3129     3009     2886     2763     2643     2531     2449     2380 
    2277     2145     2018     1920     1845     1745     1619     1509 
    1417     1335     1249     1132     1009      921      854      779 
     683      571      468      374      279      189      101       12 
     -76     -159     -233     -319     -423     -515     -594     -673 
    -737     -795     -859     -910     -940     -969    -1003    -1048 
   -1098    -1131    -1149    -1173    -1217    -1269    -1297    -1312 
   -1332    -1350    -1368    -1376    -1366    -1351    -1339    -1336 
   -1329    -1294    -1245    -1217    -1207    -1197    -1165    -1104 
   -1048    -1012     -973     -915     -849     -799     -765     -716 
    -637     -557     -512     -495     -470     -403     -313     -249 
    -215     -195     -171     -104      -12       48       92      159 
     234      293      313      299      311      386      491      603 
     690      715      718      724      704      684      696      768 
     920     1043     1002      832      670      642      793      994 
    1037      900      753      715      835     1090     1287     1255 
    1047      812      686      749      931     1084     1148     1115 
    1000      879      811      796      832      891      931      934 
     901      854      816      799      848      955     1015      987 
     926      882      888      962     1070     1138     1141     1119 
    1099     1092     1119     1172     1197     1183     1226     1381 
    1503     1431     1235     1119     1196     1386     1496     1452 
    1403     1474     1572     1570     1473     1395     1478     1679 
    1775     1722     1653     1623     1636     1685     1740     1820 
    1932     1974     1876     1747     1707     1751     1828     1893 
    1883     1854     1888     1858     1728     1666     1667     1673 
    1738     1778     1683     1530     1412     1360     1394     1440 
    1423     1405     1386     1303     1223     1189     1173     1201 
    1234     1200     1149     1121     1050      972      999     1059 
    1046     1008      974      927      893      834      726      638 
     592      586      605      581      497      427      409      367 
     198      -53     -212     -207     -103      -11      -59     -231 
    -439     -650     -779     -822     -868     -876     -859     -933 
   -1073    -1206    -1339    -1474    -1571    -1600    -1620    -1683 
   -1748    -1836    -1986    -2102    -2174    -2299    -2424    -2499 
   -2560    -2596    -2625    -2701    -2811    -2944    -3096    -3205 
   -3275    -3320    -3288    -3246    -3337    -3525    -3661    -3739 
   -3849    -3959    -3954    -3858    -3851    -4026    -4246    -4372 
   -4459    -4576    -4629    -4564    -4570    -4740    -4884    -4937 
   -5042    -5178    -5240    -5290    -5353    -5381    -5430    -5525 
   -5624    -5700    -5729    -5765    -5857    -5947    -6000    -6020 
   -6007    -6007    -6061    -6133    -6169    -6205    -6292    -6369 
   -6375    -6348    -6350    -6389    -6437    -6471    -6504    -6561 
   -6620    -6655    -6670    -6644    -6592    -6590    -6635    -6660 
   -6665    -6669    -6648    -6626    -6606    -6517    -6402    -6363 
   -6361    -6321    -6247    -6167    -6092    -6054    -6073    -6045 
   -5903    -5786    -5779    -5811    -5812    -5747    -5664    -5633 
   -5613    -5562    -5518    -5511    -5521    -5521    -5518    -5507 
   -5464    -5390    -5293    -5242    -5283    -5308    -5271    -5250 
   -5235    -5169    -5057    -4992    -5030    -5069    -5051    -5014 
   -4956    -4923    -4965    -5008    -4985    -4934    -4910    -4914 
   -4922    -4908    -4916    -4962    -4958    -4889    -4832    -4800 
   -4786    -4800    -4817    -4833    -4854    -4834    -4758    -4669 
   -4636    -4700    -4772    -4734    -4653    -4636    -4625    -4575 
   -4537    -4520    -4512    -4498    -4458    -4396    -4303    -4238 
   -4223    -4159    -4066    -4012    -3964    -3884    -3786    -3721 
   -3683    -3662    -3626    -3517    -3435    -3408    -3335    -3258 
   -3226    -3184    -3078    -2939    -2843    -2791    -2734    -2673 
   -2614    -2541    -2457    -2371    -2296    -2203    -2079    -1988 
   -1969    -1954    -1878    -1794    -1766    -1739    -1645    -1539 
   -1481    -1453    -1399    -1313    -1287    -1310    -1265    -1182 
   -1135    -1075     -980     -917     -906     -891     -837     -750 
    -676     -630     -565     -464     -358     -268     -200     -154 
     -92       15      129      223      317      402      492      621 
     732      803      906     1028     1123     1233     1364     1467 
    1551     1645     1740     1835     1959     2094     2206     2308 
    2414     2535     2674     2792     2867     2934     3023     3129 
    3233     3333     3429     3501     3546     3598     3671     3728 
    3754     3778     3830     3897     3951     3981     3997     3999 
    3992     4003     4042     4074     4081     4093     4129     4160 
    4170     4188     4221     4241     4246     4257     4287     4332 
    4376     4402     4404     4402     4422     4450     4457     4473 
    4531     4599     4641     4660     4666     4680     4718     4762 
    4796     4835     4883     4928     4972     5026     5082     5127 
    5170     5227     5306     5394     5463     5524     5601     5681 
    5757     5850     5957     6048     6122     6197     6285     6388 
    6490     6581     6665     6747     6827     6912     7008     7107 
    7200     7300     7411     7514     7612     7723     7835     7940 
    8053     8172     8279     8383     8495     8604     8704     8792 
    8878     8970     9063     9146     9217     9290     9366     9434 
    9501     9571     9639     9699     9760     9827     9889     9943 
   10009    10087    10162    10237    10320    10407    10497    10581 
   10655    10734    10826    10917    10990    11046    11099    11160 
   11224    11283    11337    11389    11434    11469    11502    11536 
   11567    11586    11597    11613    11631    11638    11641    11644 
   11646    11645    11643    11645    11653    11660    11654    11644 
   11643    11647    11651    11657    11670    11689    11704    11708 
   11710    11713    11713    11712    11714    11714    11707    11694 
   11678    11663    11661    11664    11652    11628    11599    11562 
   11516    11474    11435    11393    11346    11298    11253    11209 
   11155    11085    11003    10924    10848    10764    10674    10588 
   10502    10400    10278    10154    10042     9939     9828     9697 
    9560     9428     9292     9155     9025     8884     8733     8587 
    8447     8313     8177     8029     7878     7726     7568     7410 
    7264     7133     7006     6861     6696     6524     6346     6165 
    5993     5835     5677     5509     5333     5151     4961     4769 
    4590     4427     4268     4103     3928     3743     3567     3414 
    3269     3124     2986     2846     2695     2540     2394     2263 
    2145     2029     1911     1797     1684     1560     1433     1320 
    1225     1131     1023      911      797      678      563      456 
     352      245      131        5     -125     -250     -372     -498 
    -623     -746     -870     -988    -1097    -1204    -1307    -1409 
   -1512    -1611    -1704    -1791    -1877    -1969    -2066    -2164 
   -2257    -2339    -2415    -2489    -2570    -2675    -2791    -2895 
   -2986    -3073    -3160    -3258    -3374    -3494    -3608    -3714 
   -3821    -3935    -4048    -4155    -4262    -4372    -4483    -4594 
   -4702    -4808    -4907    -4998    -5092    -5192    -5286    -5374 
   -5456    -5527    -5587    -5644    -5702    -5760    -5805    -5831 
   -5856    -5884    -5901    -5912    -5929    -5932    -5923    -5924 
   -5930    -5926    -5916    -5907    -5894    -5871    -5843    -5822 
   -5799    -5765    -5720    -5680    -5649    -5609    -5559    -5512 
   -5466    -5418    -5365    -5303    -5236    -5173    -5105    -5029 
   -4952    -4871    -4781    -4684    -4582    -4477    -4363    -4246 
   -4128    -4006    -3882    -3757    -3628    -3495    -3359    -3227 
   -3102    -2978    -2855    -2739    -2629    -2515    -2393    -2274 
   -2163    -2055    -1950    -1848    -1747    -1651    -1555    -1455 
   -1360    -1282    -1210    -1133    -1050     -968     -893     -830 
    -774     -720     -666     -611     -552     -492     -441     -403 
    -368     -330     -291     -260     -239     -217     -189     -165 
    -147     -138     -138     -140     -139     -140     -146     -160 
    -180     -199     -219     -246     -279     -318     -360     -403 
    -446     -489     -536     -592     -650     -704     -757     -809 
    -853     -898     -951    -1012    -1078    -1138    -1191    -1241 
   -1291    -1348    -1415    -1486    -1555    -1616    -1668    -1720 
   -1773    -1831    -1894    -1956    -2015    -2070    -2119    -2170 
   -2226    -2279    -2326    -2375    -2431    -2486    -2540    -2593 
   -2645    -2698    -2748    -2795    -2849    -2904    -2951    -2994 
   -3042    -3095    -3148    -3191    -3228    -3271    -3316    -3363 
   -3409    -3448    -3480    -3520    -3565    -3607    -3646    -3682 
   -3717    -3756    -3799    -3840    -3878    -3916    -3953    -3981 
   -4003    -4026    -4047    -4063    -4075    -4084    -4087    -4090 
   -4089    -4084    -4072    -4052    -4024    -3997    -3973    -3947 
   -3919    -3891    -3863    -3826    -3783    -3743    -3706    -3667 
   -3620    -3568    -3515    -3461    -3412    -3368    -3322    -3275 
   -3228    -3180    -3133    -3090    -3051    -3016    -2981    -2942 
   -2900    -2862    -2822    -2780    -2739    -2695    -2646    -2597 
   -2547    -2493    -2434    -2366    -2291    -2219    -2156    -2075 
   -1961    -1855    -1777    -1680    -1556    -1429    -1317    -1213 
   -1089     -957     -838     -716     -585     -454     -324     -206 
     -86       43      169      293      411      516      627      747 
     867      988     1103     1208     1310     1418     1533     1649 
    1764     1880     1996     2114     2238     2366     2492     2616 
    2739     2864     2991     3117     3237     3357     3480     3603 
    3727     3852     3972     4090     4214     4338     4453     4567 
    4682     4791     4899     5006     5112     5215     5311     5403 
    5495     5583     5667     5752     5832     5908     5984     6055 
    6120     6185     6248     6310     6371     6427     6478     6527 
    6575     6619     6652     6678     6704     6734     6758     6772 
    6779     6781     6781     6773     6760     6752     6743     6725 
    6704     6684     6665     6650     6637     6624     6614     6602 
    6588     6576     6567     6557     6547     6537     6527     6516 
    6503     6492     6483     6471     6456     6442     6429     6414 
    6397     6381     6370     6360     6344     6324     6310     6303 
    6296     6285     6272     6260     6246     6232     6214     6196 
    6178     6157     6133     6103     6067     6027     5981     5928 
    5869     5799     5720     5638     5547     5445     5340     5233 
    5122     5007     4891     4776     4659     4536     4410     4285 
    4161     4038     3913     3792     3674     3559     3449     3345 
    3243     3144     3053     2966     2881     2800     2720     2645 
    2580     2519     2459     2401     2346     2297     2249     2200 
    2153     2105     2054     2003     1954     1903     1854     1804 
    1754     1708     1661     1617     1578     1544     1513     1486 
    1460     1440     1429     1424     1426     1433     1443     1463 
    1492     1524     1558     1600     1645     1690     1738     1788 
    1838     1890     1940     1990     2042     2095     2146     2198 
    2252     2307     2362     2419     2477     2536     2603     2668 
    2729     2794     2863     2933     3000     3066     3132     3195 
