Origin Time       2011/03/11 14:46:00
Lat.              38.103
Long.             142.860
Depth. (km)       24
Mag.              9.0
Station Code      HKD062
Station Lat.      43.6746
Station Long.     143.3088
Station Height(m) 500
Record Time       2011/03/11 14:49:07
Sampling Freq(Hz) 100Hz
Duration Time(s)  195
Dir.              U-D
Scale Factor      3920(gal)/6182761
Max. Acc. (gal)   2.245
Last Correction   2011/03/11 14:48:52
Memo.             
[...]
   -1533     -937     -968    -1179     -993     -686     -860    -1477 
   -2050    -2322    -2294    -2043    -1788    -1568    -1237    -1066 
   -1311    -1738    -2187    -2455    -2082    -1199     -603     -632 
    -848     -697      -97      599     1084     1328     1391     1037 
      21    -1067    -1295     -808     -477     -368     -190     -313 
    -716     -725     -460     -525     -644     -358      -31      -66 
    -358     -634     -636     -527     -822    -1588    -2359    -2660 
   -2378    -1788    -1205     -779     -637     -756     -886    -1007 
   -1313    -1626    -1717    -1814    -1948    -1830    -1493    -1018 
    -411       16       89      135      418      950     1556     1526 
     396     -967    -1438    -1092     -792     -973    -1315    -1427 
   -1400    -1474    -1508    -1101     -336       44     -332     -987 
   -1393    -1314     -814     -457     -668    -1247    -1892    -2253 
   -2133    -1972    -1857    -1250     -566     -515     -405      162 
     165     -503     -755     -532     -584    -1046    -1506    -1598 
   -1263     -630      -49      -59     -630    -1033     -967     -913 
   -1165    -1366    -1203    -1061    -1436    -1906    -1657     -814 
    -224     -146     -102      -21     -175     -178      214      122 
    -907    -1743    -1623    -1401    -1702    -2037    -2203    -2455 
   -2545    -2183    -1787    -1832    -2071    -1914    -1484    -1381 
   -1295     -545      404      642      205     -151      -76       26 
     -79     -182     -488    -1067    -1061     -194      477      427 
     216       80     -109     -216     -225     -138      249      459 
    -272    -1341    -1633    -1248     -800     -525     -676    -1109 
   -1056     -638     -782    -1056     -474      229       -1     -833 
   -1728    -2445    -2534    -2031    -1588    -1325     -899     -401 
    -251     -592     -944     -785     -444     -490     -698     -653 
    -653    -1062    -1573    -1892    -2187    -2408    -2206    -1797 
   -1764    -2025    -2010    -1609    -1226    -1092     -901     -365 
      99        7      -76      581     1235      789     -117     -429 
    -754    -1632    -1965    -1297     -842    -1122    -1546    -2072 
   -2565    -2264    -1476    -1235    -1473    -1644    -1779    -1905 
   -1851    -1693    -1531    -1269     -983    -1009    -1489    -1979 
   -1876    -1359    -1134    -1344    -1575    -1439     -949     -634 
    -678     -536     -151      -59     -301     -610     -869     -879 
    -654     -625    -1017    -1463    -1397     -825     -511    -1003 
   -1772    -1885    -1384    -1006     -811     -573     -618     -974 
   -1207    -1324    -1391    -1223    -1065     -979     -329      714 
    1039      577      302      481      588      307     -210     -470 
    -128      229     -234    -1159    -1646    -1550    -1288    -1354 
   -1702    -1518     -628      101      316      274      -36     -475 
    -868    -1404    -1821    -1720    -1593    -1720    -1525    -1097 
   -1089    -1180     -809     -351     -292     -629    -1153    -1387 
   -1066     -842    -1294    -1856    -1891    -1733    -1834    -1972 
   -1695     -912      -30      363      130     -331     -637     -654 
    -446     -133      298      685      529     -141     -601     -749 
   -1162    -1655    -1612    -1420    -1773    -2280    -2075    -1208 
    -555     -555     -922    -1500    -2358    -3195    -3613    -3684 
   -3543    -3134    -2712    -2665    -2839    -2730    -2091    -1151 
    -520     -424     -343      -26      223      397      590      552 
     311       87     -448    -1377    -1739     -996     -197     -370 
    -994    -1179     -992     -952    -1223    -1505    -1524    -1472 
   -1490    -1216     -631     -281     -191       23      190      -47 
    -476     -748     -920    -1194    -1598    -1887    -1844    -1696 
   -1671    -1633    -1615    -1781    -1834    -1500    -1168    -1128 
    -872      -27      670      269     -815    -1378    -1345    -1253 
    -868     -217      -95     -645    -1088     -989     -708     -373 
     185      381     -178     -676     -822    -1135    -1139     -310 
     393      157     -509     -909    -1004    -1115    -1209    -1073 
   -1071    -1455    -1773    -1905    -2241    -2793    -3179    -3026 
   -2395    -2063    -2634    -3545    -3811    -3311    -2742    -2565 
   -2534    -2256    -1763    -1535    -1810    -1927    -1298     -507 
    -345     -699    -1063    -1066     -540       69       99     -167 
     -82       46     -218     -300      205      477      -96     -733 
    -641     -233     -144     -150      319     1112     1437      955 
     168     -360     -513     -420     -273     -176      -70       50 
     115      188      394      668      746      566      450      526 
     367     -309    -1126    -1631    -1817    -1838    -1773    -1770 
   -1979    -2420    -2862    -2872    -2493    -2238    -1846     -670 
     513      530      -40     -231     -271     -270        3      157 
     199      769     1517     1565      994      362       10       46 
     173       87     -218     -715    -1074     -912     -533     -349 
    -230      -58     -122     -652    -1302    -1368     -795     -453 
    -806    -1297    -1438    -1254     -935     -747     -559       -8 
     347     -207     -820     -499      121      318      250     -107 
    -661     -928    -1183    -1907    -2489    -2221    -1483    -1041 
   -1036    -1202    -1383    -1418    -1333    -1420    -1522    -1146 
    -400      156      353      368      225      -43      -82      228 
     482      599     1032     1659     1646      994      644      642 
     171     -784    -1583    -2015    -2044    -1556     -936     -731 
    -800     -658     -382     -507     -985    -1054     -465       97 
      75     -341     -780    -1144    -1449    -1710    -1952    -2118 
   -2023    -1575    -1047     -795     -709     -467     -123      114 
     154     -136     -594     -724     -488     -164      263      622 
     540      179     -126     -213       43      266      126      184 
     642      785      519      357       88     -642    -1271    -1225 
    -719     -125      184     -247    -1074    -1175     -415       22 
    -241     -321       29      257      281      343      322      -93 
    -903    -1538    -1318     -468      -66     -583    -1309    -1473 
    -960     -131      321       -9     -620     -848     -832     -989 
   -1205    -1131     -582      226      409     -491    -1316     -961 
    -160      120       39     -260     -817    -1165    -1109    -1073 
   -1279    -1456    -1224     -659     -299     -302     -341     -321 
    -237      -13      160      303      752     1093      577     -355 
    -665     -381     -179     -132      -92     -409    -1237    -1947 
   -2005    -1613    -1179     -974    -1138    -1486    -1659    -1621 
   -1656    -1950    -2420    -2622    -2006     -952     -750    -1639 
   -2277    -1877    -1272    -1410    -2112    -2647    -2702    -2448 
   -2201    -2306    -2756    -2792    -1916     -895     -593     -796 
    -944     -951     -950     -986    -1084    -1200    -1216    -1083 
    -948    -1077    -1481    -1839    -1971    -1941    -1813    -1709 
   -1617    -1180     -514     -372     -698     -600      -14      266 
     -96     -631     -718     -411     -347     -649     -877     -907 
    -905     -871     -665     -270       -9      -82     -122      -25 
    -157     -323     -237     -358     -763     -902     -790     -714 
    -673     -827    -1201    -1396    -1261     -995     -819     -889 
   -1011     -913     -937    -1476    -2062    -2069    -1589    -1110 
    -943    -1130    -1553    -2026    -2414    -2675    -2787    -2770 
   -2649    -2357    -1980    -1930    -2252    -2411    -2403    -2555 
   -2390    -1678    -1160     -870      -32      976     1021      265 
    -112      347      929      777      -38     -624     -367      331 
     572      179     -293     -646    -1156    -1875    -2416    -2240 
   -1263     -171      311      215      -83     -415     -587     -528 
    -405       30      983     1546      881     -195     -573     -553 
    -901    -1522    -1929    -2086    -2108    -1921    -1642    -1699 
   -2207    -2585    -2291    -1621    -1256    -1458    -2003    -2294 
   -1754     -773     -263     -219     -294     -810    -1704    -2121 
   -1703    -1031     -798    -1068    -1211     -647      334     1043 
    1556     2242     2539     1775      566      -94     -185       16 
     318       96     -705    -1144    -1029    -1069    -1432    -1979 
   -2574    -2636    -1937    -1139     -827     -990    -1420    -1838 
   -1849    -1380     -960    -1137    -1649    -1757    -1375    -1009 
    -840     -750     -854    -1257    -1703    -1919    -1790    -1198 
    -245      523      587      168     -178     -445     -706     -639 
    -420     -646    -1128    -1200     -832     -566     -748    -1113 
   -1079     -790    -1134    -2010    -2168    -1303     -590     -990 
   -2243    -3248    -3123    -2447    -2573    -3367    -3549    -2822 
   -1891    -1356    -1429    -1882    -2193    -2084    -1691    -1248 
    -928     -760     -635     -588     -675     -665     -599     -922 
   -1415    -1324     -709     -304     -380     -722    -1151    -1508 
   -1659    -1585    -1292     -855     -429     -133      -76     -223 
    -348     -392     -543     -803     -978     -987     -796     -527 
    -688    -1562    -2629    -3202    -3273    -3311    -3455    -3282 
   -2741    -2604    -3091    -3198    -2323    -1167     -583     -739 
   -1231    -1372     -895     -303     -168     -540     -967    -1008 
    -969    -1311    -1466     -797      -56     -185     -744     -863 
    -695     -957    -1614    -1903    -1681    -1543    -1565    -1307 
    -856     -629     -545     -316     -107     -351     -977    -1274 
   -1038     -898    -1143    -1595    -2241    -2835    -2908    -2506 
   -2033    -1806    -1951    -2222    -2202    -1859    -1465    -1112 
    -807     -729     -966    -1258    -1296    -1201    -1157    -1069 
   -1086    -1447    -1992    -2498    -2749    -2570    -2289    -2237 
   -2064    -1523     -936     -537     -486     -942    -1583    -1910 
   -1818    -1423     -898     -525     -445     -509     -602     -746 
   -1002    -1497    -2046    -2096    -1646    -1404    -1550    -1464 
    -958     -569     -658    -1196    -1993    -2548    -2318    -1593 
   -1237    -1367    -1401    -1243    -1283    -1416    -1134     -418 
     245      543      557      413      285      525     1097     1444 
    1287      882      602      614      663      350     -254     -869 
   -1500    -1904    -1513     -571      -80     -253     -527     -763 
    -976     -936     -795     -821     -905    -1142    -1618    -1822 
   -1411     -756     -261      -85     -439    -1128    -1267     -594 
     -68     -229     -425     -201       82       90     -162     -484 
    -642     -706     -908    -1058     -802     -344     -233     -483 
    -651     -707     -891     -962     -663     -328     -174      -40 
     -31     -228     -505    -1063    -1803    -2084    -1945    -1823 
   -1547    -1116    -1098    -1419    -1318     -817     -789    -1365 
   -1533     -739      239      589      450      178     -192     -561 
    -612     -210      330      576      503      420      486      486 
     270       75      108      210      147     -110     -406     -449 
     -68      429      570      250     -322     -894    -1372    -1869 
   -2308    -2326    -1893    -1499    -1577    -2091    -2568    -2632 
   -2484    -2488    -2628    -2655    -2389    -1941    -1713    -1760 
   -1679    -1526    -1685    -1984    -2221    -2476    -2361    -1771 
   -1524    -1724    -1477     -714     -182     -145     -461     -911 
   -1084     -865     -610     -510     -503     -643     -866     -967 
   -1061    -1144     -842     -384     -515    -1258    -2024    -2549 
   -2897    -3082    -3027    -2683    -2293    -2095    -1805    -1436 
   -1622    -2223    -2320    -1975    -2063    -2518    -2577    -2348 
   -2440    -2669    -2594    -2478    -2564    -2472    -2131    -2092 
   -2295    -1976    -1151     -669     -811    -1038    -1032    -1175 
   -1647    -1882    -1695    -1787    -2246    -2371    -2284    -2544 
   -2725    -2322    -1882    -1903    -2049    -2047    -1915    -1512 
    -935     -635     -648     -587     -380     -447     -981    -1354 
   -1069     -685     -601     -406     -294     -893    -1778    -2220 
   -2397    -2616    -2776    -2819    -2752    -2634    -2617    -2527 
   -2054    -1451    -1203    -1309    -1514    -1639    -1503    -1223 
   -1213    -1453    -1542    -1453    -1422    -1466    -1522    -1582 
   -1470    -1158    -1019    -1131    -1253    -1473    -1859    -2151 
   -2211    -2093    -1820    -1552    -1560    -1700    -1566    -1267 
   -1254    -1494    -1563    -1488    -1600    -1727    -1599    -1463 
   -1461    -1372    -1226    -1135     -888     -508     -531    -1143 
   -1756    -1928    -1912    -1864    -1602    -1241    -1031    -1070 
   -1414    -1707    -1441     -935     -821     -932     -820     -580 
    -408     -119      540     1305     1497     1065      631      471 
     481      637      887     1096     1234     1342     1479     1675 
    1738     1486     1126     1000     1357     2167     2712     2384 
    1696     1385     1473     1620     1419      807      393      455 
     430      165      144      260       94       28      372      404 
     -81     -161      280      480      460      550      540      446 
     571      786      829      762      708      615      450      350 
     413      521      511      323       66      103      542      866 
     729      335     -156     -502     -442     -174      277      992 
    1233      647      187      347      610      746      732      438 
      61     -210     -406     -330      115      515      563      416 
     249      168      290      402      218      -94     -374     -709 
    -964     -888     -576     -473     -799     -996     -497      146 
      75     -424     -550     -393     -442     -540     -482     -439 
    -326      -61     -126     -692     -867       11     1031      822 
    -411    -1104     -728     -419     -731     -888     -590     -526 
   -1011    -1438    -1315     -945     -759     -830    -1081    -1436 
   -1688    -1591    -1247     -962     -890    -1185    -1729    -1866 
   -1386     -907     -764     -799    -1254    -2366    -3321    -3220 
   -2462    -1915    -1714    -1591    -1478    -1606    -2070    -2371 
   -2215    -2067    -2089    -2013    -2065    -2369    -2419    -2124 
   -2082    -2543    -2989    -2937    -2734    -2753    -2467    -1799 
   -1729    -2312    -2512    -2107    -1652    -1435    -1518    -1787 
   -2000    -2299    -2818    -3004    -2536    -2039    -1953    -1863 
   -1372     -843     -905    -1480    -1938    -2000    -1882    -1924 
   -2056    -1795    -1307    -1473    -2305    -2805    -2566    -2079 
   -1797    -1819    -1959    -1831    -1337     -997    -1244    -1753 
   -2023    -1951    -1606    -1213    -1059    -1013     -877     -950 
   -1343    -1479    -1207    -1138    -1297    -1140     -914    -1209 
   -1660    -1602    -1295    -1349    -1606    -1643    -1648    -1857 
   -1988    -1855    -1755    -1810    -1714    -1468    -1405    -1550 
   -1600    -1376    -1147    -1227    -1479    -1656    -1584    -1138 
    -664     -638     -861     -925     -861     -722     -444     -167 
     149      683      983      625      284      567      802      336 
    -297     -464     -350     -280     -189       -7      129       53 
    -264     -524     -335       86       41     -482     -821     -900 
    -978     -853     -726    -1283    -2205    -2556    -2286    -1821 
   -1365    -1180    -1297    -1331    -1128     -824     -422      -38 
     -54     -446     -585     -268      -13       83      325      410 
      20     -420     -545     -495     -426     -281       19      313 
     467      635      845      905      764      535      385      349 
     235       67       85      187      145      -83     -441     -556 
    -244       -2       21      176      239      -13      -98       24 
     -73      -41      406      540      161       82      389      397 
     123       62      232      357      340      291      317      328 
     303      313      118     -373     -733     -751     -721     -852 
    -881     -508      -57       76       99      149       55       26 
     281      484      384       94      -80      169      457      194 
    -148      136      614      478     -172     -559     -142      789 
    1329     1164      842      686      641      580      290       42 
     336      715      417     -248     -612     -721     -736     -632 
    -652     -783     -596     -298     -417     -672     -635     -535 
    -652     -864     -950     -858     -559       18      554      482 
      42       -7      218      154        5       87      209      364 
     666      892      863      543       23     -280     -233     -162 
    -166     -279     -611     -824     -539      -73      -45     -593 
   -1243    -1441    -1225     -976     -745     -574     -683     -882 
    -890     -932     -975     -581     -233     -703    -1236     -936 
    -574     -795     -989    -1075    -1532    -1815    -1303     -747 
   -1019    -1602    -1484     -916    -1031    -1812    -2105    -1666 
   -1456    -1776    -1853    -1540    -1501    -1715    -1600    -1248 
   -1202    -1422    -1435    -1231    -1183    -1234    -1021     -693 
    -616     -507      -73       99     -495    -1338    -1615    -1225 
    -889    -1115    -1289     -844     -426     -563     -736     -627 
    -507     -454     -486     -642     -616     -276       30      131 
       7     -505    -1147    -1346    -1147    -1062    -1206    -1348 
   -1372    -1410    -1588    -1631    -1240     -742     -645     -911 
   -1147    -1014     -400      293      516      443      390      103 
    -253     -125      111     -163     -623     -894    -1098    -1165 
    -995     -854     -863     -781     -464      -69      111      -34 
    -166       54      299      104     -307     -505     -641    -1022 
   -1492    -1697    -1591    -1484    -1697    -2060    -2005    -1561 
   -1429    -1680    -1716    -1397     -965     -440       43      215 
     244      353      262     -123     -332     -152       45       67 
      96      194      374      629      696      483      292      249 
     200       89       52      281      637      670      379      143 
     -75     -389     -560     -541     -549     -531     -348     -348 
    -856    -1337    -1210     -841     -767     -982    -1310    -1507 
   -1407    -1390    -1839    -2288    -2002    -1079     -464     -666 
   -1052    -1024     -841     -805     -753     -592     -504     -475 
    -423     -553     -896    -1194    -1375    -1373    -1073     -835 
    -922     -881     -540     -352     -325      -52      308      285 
      79      150      399      563      665      733      642      417 
