Origin Time       2011/03/11 14:46:00
Lat.              38.103
Long.             142.860
Depth. (km)       24
Mag.              9.0
Station Code      HKD085
Station Lat.      42.9581
Station Long.     144.0698
Station Height(m) 5
Record Time       2011/03/11 14:48:03
Sampling Freq(Hz) 100Hz
Duration Time(s)  300
Dir.              N-S
Scale Factor      3920(gal)/6182761
Max. Acc. (gal)   23.481
Last Correction   2011/03/11 14:47:48
Memo.             
[...]
  -23692   -20787   -18425   -16990   -16601   -17135   -18284   -19709 
  -21204   -22612   -23657   -24077   -23870   -23232   -22371   -21432 
  -20410   -19190   -17774   -16353   -15034   -13754   -12544   -11510 
  -10637    -9953    -9654    -9976   -11069   -12794   -14648   -16037 
  -16665   -16673   -16342   -15820   -15242   -14765   -14392   -14009 
  -13535   -12983   -12527   -12441   -12886   -13785   -14885   -16009 
  -17189   -18514   -20024   -21617   -22941   -23646   -23722   -23489 
  -23345   -23450   -23689   -24046   -24654   -25453   -26215   -26726 
  -26839   -26616   -26277   -26012   -25761   -25173   -24123   -22882 
  -21870   -21649   -22587   -24372   -26300   -27799   -28577   -28809 
  -29161   -30217   -31982   -34036   -35889   -37097   -37383   -36742 
  -35257   -33006   -30276   -27467   -24779   -22280   -20097   -18392 
  -17262   -16675   -16451   -16342   -16143   -15773   -15320   -14980 
  -14880   -14956   -14995   -14821   -14471   -14117   -13850   -13746 
  -13950   -14492   -15210   -16012   -17036   -18398   -19936   -21366 
  -22552   -23520   -24307   -24879   -25124   -25039   -24807   -24550 
  -24217   -23786   -23309   -22777   -22127   -21417   -20859   -20544 
  -20353   -20331   -20676   -21382   -22421   -23754   -25066   -26142 
  -26977   -27487   -27735   -28008   -28394   -28681   -28685   -28253 
  -27235   -25834   -24510   -23503   -22738   -22029   -21316   -20543 
  -19443   -17871   -16044   -14248   -12634   -11181    -9594    -7495 
   -4825    -1951      496     1990     2450     2140     1409      624 
      48     -349     -828    -1670    -3006    -4832    -7090    -9684 
  -12452   -15175   -17666   -19916   -22103   -24342   -26510   -28368 
  -29720   -30517   -30915   -31149   -31391   -31844   -32748   -34188 
  -35934   -37450   -38138   -37674   -36141   -33890   -31383   -29101 
  -27361   -26176   -25387   -24832   -24261   -23289   -21720   -19749 
  -17695   -15772   -14095   -12666   -11403   -10200    -8980    -7694 
   -6330    -4966    -3740    -2850    -2605    -3246    -4800    -7160 
   -9998   -12664   -14557   -15581   -15988   -15952   -15635   -15300 
  -15039   -14772   -14585   -14707   -15199   -15925   -16677   -17298 
  -17812   -18284   -18656   -18917   -19157   -19507   -20201   -21197 
  -21963   -22315   -22535   -22637   -22549   -22307   -22093   -22243 
  -22479   -22258   -21674   -20803   -19383   -17406   -14987   -12154 
   -9345    -7269    -6162    -5791    -5749    -5669    -5550    -5675 
   -6295    -7497    -9123   -10863   -12496   -14036   -15664   -17433 
  -19136   -20502   -21388   -21832   -22081   -22476   -23138   -23870 
  -24475   -25006   -25584   -26109   -26307   -26005   -25292   -24472 
  -23956   -24054   -24754   -25725   -26658   -27579   -28731   -30129 
  -31382   -31937   -31435   -29930   -27889   -25938   -24528   -23666 
  -22965   -22066   -20914   -19593   -18108   -16476   -14847   -13393 
  -12258   -11699   -11987   -13171   -15149   -17767   -20648   -23195 
  -25003   -25969   -26036   -25293   -24160   -23046   -22082   -21328 
  -20892   -20720   -20628   -20535   -20385   -19951   -19068   -17924 
  -16888   -16300   -16429   -17267   -18408   -19352   -19827   -19892 
  -19795   -19702   -19696   -19886   -20241   -20456   -20190   -19433 
  -18523   -17746   -17054   -16222   -15200   -14319   -14142   -15065 
  -16890   -18965   -20989   -23031   -25033   -26978   -28737   -30005 
  -30887   -31648   -32266   -32761   -33264   -33711   -33988   -34167 
  -34260   -34149   -34032   -34285   -34886   -35454   -35603   -35122 
  -33934   -31935   -29100   -25752   -22442   -19681   -17796   -16789 
  -16331   -15928   -15219   -14148   -12785   -11348   -10219    -9535 
   -9142    -8926    -8776    -8605    -8531    -8759    -9340   -10116 
  -10878   -11505   -11782   -11423   -10378    -8933    -7623    -7085 
   -7817    -9885   -12719   -15347   -16932   -17092   -15881   -13825 
  -11900   -10968   -11223   -12362   -13854   -15039   -15517   -15373 
  -14880   -14316   -13967   -13972   -14253   -14613   -14795   -14636 
  -14272   -14103   -14556   -15909   -18144   -20842   -23344   -25124 
  -25949   -25879   -25278   -24711   -24541   -24569   -24293   -23477 
  -22367   -21424   -20973   -21149   -21939   -23127   -24380   -25521 
  -26575   -27602   -28615   -29567   -30335   -30822   -31103   -31385 
  -31721   -31874   -31824   -32001   -32562   -33251   -33854   -34187 
  -34221   -33988   -33365   -32349   -31042   -29524   -27974   -26465 
  -24836   -23019   -21097   -19067   -16882   -14493   -11770    -8681 
   -5444    -2432      -23     1591     2524     3143     3863     4943 
    6393     7949     9117     9440     8851     7786     6877     6418 
    6115     5420     4051     2134       11    -2035    -4005    -6218 
   -8981   -12262   -15864   -19611   -23130   -25880   -27589   -28361 
  -28440   -28182   -28048   -28310   -28878   -29518   -30036   -30261 
  -30119   -29629   -28825   -27830   -26945   -26453   -26348   -26318 
  -26011   -25237   -23966   -22285   -20409   -18663   -17362   -16574 
  -16046   -15473   -14811   -14273   -14037   -14063   -14221   -14487 
  -14889   -15380   -15835   -16143   -16287   -16405   -16798   -17746 
  -19168   -20558   -21400   -21586   -21354   -21023   -20802   -20713 
  -20768   -21079   -21591   -22034   -22289   -22490   -22792   -23203 
  -23533   -23471   -22881   -22023   -21320   -20918   -20630   -20248 
  -19730   -19071   -18245   -17365   -16696   -16506   -17008   -18377 
  -20658   -23668   -26986   -29967   -31969   -32682   -32187   -30791 
  -28898   -26916   -25229   -24228   -24295   -25633   -28033   -30846 
  -33307   -34950   -35720   -35781   -35315   -34435   -33207   -31754 
  -30258   -28808   -27355   -25897   -24476   -23103   -21873   -20878 
  -19988   -19061   -18142   -17292   -16564   -16138   -16127   -16384 
  -16712   -17077   -17505   -18004   -18593   -19204   -19681   -19962 
  -20165   -20521   -21240   -22348   -23680   -25018   -26144   -26848 
  -26980   -26566   -25791   -24867   -23942   -23064   -22156   -21164 
  -20180   -19300   -18447   -17447   -16286   -15170   -14297   -13675 
  -13170   -12524   -11540   -10254    -8800    -7359    -6184    -5459 
   -5253    -5442    -5729    -5907    -5959    -6037    -6461    -7507 
   -9091   -10833   -12356   -13328   -13446   -12712   -11585   -10667 
  -10355   -10777   -11767   -12809   -13279   -12871   -11759   -10468 
   -9633    -9736   -10886   -12876   -15450   -18409   -21509   -24382 
  -26641   -28075   -28808   -29231   -29780   -30733   -32120   -33778 
  -35476   -36941   -37784   -37609   -36278   -34021   -31260   -28366 
  -25533   -22782   -20096   -17592   -15465   -13786   -12611   -12154 
  -12593   -13887   -15851   -18061   -19813   -20590   -20405   -19515 
  -18193   -16826   -15798   -15252   -15147   -15269   -15193   -14593 
  -13518   -12212   -10865    -9677    -8900    -8684    -8983    -9622 
  -10292   -10550   -10137    -9256    -8286    -7375    -6528    -5833 
   -5433    -5406    -5705    -6132    -6429    -6451    -6225    -5893 
   -5609    -5449    -5434    -5611    -6064    -6861    -8071    -9647 
  -11266   -12569   -13429   -13930   -14377   -15178   -16457   -17990 
  -19547   -21079   -22576   -23954   -25133   -26065   -26682   -26982 
  -27131   -27384   -27928   -28810   -29925   -31021   -31912   -32705 
  -33571   -34443   -35157   -35679   -36079   -36450   -36924   -37646 
  -38573   -39454   -40064   -40256   -39795   -38451   -36294   -33679 
  -30966   -28434   -26379   -25091   -24628   -24656   -24705   -24558 
  -24310   -24241   -24774   -26199   -28222   -30141   -31462   -32065 
  -31987   -31368   -30563   -30056   -30160   -30889   -31988   -32918 
  -33170   -32715   -31886   -30918   -29855   -28723   -27579   -26424 
  -25146   -23640   -22017   -20635   -19888   -19978   -20769   -21779 
  -22382   -22079   -20771   -18833   -16864   -15368   -14546   -14324 
  -14534   -15005   -15622   -16342   -17027   -17520   -17929   -18491 
  -19224   -19921   -20297   -20055   -19059   -17468   -15576   -13629 
  -11761    -9960    -8134    -6266    -4433    -2730    -1332     -510 
    -414     -958    -1922    -3006    -3963    -4852    -5953    -7422 
   -9222   -11278   -13582   -16193   -19059   -21815   -23901   -24920 
  -24888   -24155   -23189   -22368   -21736   -20987   -19827   -18298 
  -16839   -16071   -16451   -18027   -20339   -22617   -24288   -25194 
  -25399   -25071   -24451   -23704   -22837   -21780   -20533   -19314 
  -18471   -18122   -18030   -17918   -17716   -17453   -17115   -16743 
  -16461   -16316   -16250   -16250   -16379   -16671   -17070   -17498 
  -17916   -18275   -18559   -18916   -19506   -20174   -20513   -20277 
  -19627   -19056   -19088   -19912   -21243   -22514   -23300   -23654 
  -23939   -24368   -24866   -25275   -25391   -24951   -23857   -22313 
  -20648   -19147   -18100   -17769   -18191   -19086   -19999   -20524 
  -20353   -19239   -17363   -15430   -13901   -12718   -11678   -10615 
   -9656    -9080    -8989    -9505   -10728   -12536   -14757   -17173 
  -19480   -21437   -22821   -23411   -23306   -22963   -22909   -23503 
  -24731   -26248   -27636   -28458   -28307   -27022   -24720   -21612 
  -17943   -14077   -10553    -7891    -6275    -5600    -5679    -6291 
   -7243    -8346    -9359    -9980    -9897    -9070    -7921    -7058 
   -6935    -7726    -9253   -10981   -12290   -12971   -13357   -13980 
  -15234   -17193   -19632   -22286   -25015   -27725   -30292   -32660 
  -34861   -36882   -38586   -39662   -39664   -38312   -35811   -32816 
  -30043   -27880   -26357   -25258   -24254   -23177   -22157   -21303 
  -20432   -19377   -18364   -17916   -18464   -19997   -22059   -24008 
  -25193   -25175   -23967   -21972   -19789   -17959   -16756   -16415 
  -17169   -18817   -20653   -21899   -22203   -21740   -20949   -20434 
  -20727   -21876   -23431   -24698   -25070   -24432   -23170   -21744 
  -20486   -19704   -19598   -20169   -21310   -22856   -24630   -26547 
  -28575   -30604   -32511   -34238   -35642   -36404   -36235   -35033 
  -32873   -30040   -27115   -24856   -23815   -24048   -25195   -26737 
  -28177   -29092   -29229   -28566   -27137   -24999   -22344   -19310 
  -15893   -12227    -8674    -5651    -3562    -2759    -3322    -4947 
   -7049    -8910    -9937    -9965    -9259    -8327    -7815    -8400 
  -10436   -13698   -17558   -21320   -24449   -26669   -27855   -28090 
  -27732   -27161   -26699   -26731   -27573   -29277   -31593   -34109 
  -36416   -38192   -39267   -39612   -39225   -38129   -36381   -34016 
  -31155   -28083   -25137   -22674   -20965   -19931   -19256   -18807 
  -18562   -18320   -17851   -17125   -16331   -15842   -15990   -16778 
  -17832   -18531   -18269   -16820   -14467   -11875    -9842    -8869 
   -8855    -9319    -9855   -10337   -10795   -11177   -11215   -10630 
   -9459    -7999    -6534    -5300    -4486    -4095    -4026    -4257 
   -4685    -4996    -4832    -4050    -2832    -1535     -551     -277 
    -991    -2737    -5364    -8621   -12151   -15436   -17944   -19398 
  -19938   -20042   -20185   -20592   -21304   -22275   -23390   -24526 
  -25609   -26608   -27547   -28476   -29379   -30160   -30769   -31168 
  -31180   -30614   -29467   -27888   -26128   -24470   -23091   -22161 
  -22050   -23106   -25234   -27989   -30922   -33624   -35624   -36450 
  -35718   -33233   -29208   -24375   -19738   -16148   -14004   -13255 
  -13651   -14820   -16243   -17451   -18175   -18331   -18045   -17554 
  -16927   -15976   -14503   -12500   -10090    -7446    -4766    -2370 
    -760     -368    -1332    -3510    -6502    -9845   -13295   -16746 
  -19946   -22514   -24215   -24962   -24696   -23590   -22189   -21161 
  -20906   -21330   -21927   -22043   -21211   -19425   -17123   -14951 
  -13425   -12769   -13043   -14172   -15868   -17646   -18911   -19177 
  -18244   -16279   -13818   -11433    -9476    -8185    -7616    -7573 
   -7811    -8101    -8260    -8279    -8185    -7846    -7116    -6062 
   -4978    -4194    -3924    -4367    -5749    -8189   -11675   -16018 
  -20739   -25166   -28723   -31179   -32648   -33350   -33351   -32507 
  -30737   -28295   -25691   -23433   -21889   -21206   -21188   -21380 
  -21454   -21448   -21574   -22007   -22799   -23866   -25065   -26201 
  -27047   -27424   -27235   -26550   -25628   -24749   -24081   -23592 
  -23086   -22427   -21674   -21036   -20720   -20758   -21032   -21487 
  -22153   -22966   -23706   -24116   -24165   -24223   -24773   -26019 
  -27822   -29739   -31232   -32037   -32221   -31932   -31305   -30579 
  -30089   -30035   -30517   -31686   -33469   -35433   -37127   -38251 
  -38770   -39053   -39474   -40044   -40645   -41288   -42062   -42999 
  -43951   -44554   -44422   -43475   -42001   -40355   -38756   -37243 
  -35588   -33615   -31606   -29927   -28657   -27669   -26757   -25917 
  -25135   -23947   -22055   -19825   -17653   -15721   -14340   -13661 
  -13433   -13480   -13816   -14455   -15587   -17371   -19624   -21971 
  -23962   -25189   -25505   -24915   -23488   -21515   -19452   -17731 
  -16627   -16263   -16682   -17742   -19004   -19939   -20220   -19787 
  -18739   -17240   -15479   -13480   -11024    -8003    -4693    -1491 
    1433     4149     6795     9321    11462    12973    13816    14222 
   14549    14977    15497    16082    16707    17268    17587    17477 
   16759    15271    13018    10148     6862     3589      878    -1072 
   -2597    -4348    -6954   -10717   -15481   -20690   -25649   -29847 
  -33019   -35082   -36149   -36490   -36405   -36097   -35542   -34502 
  -32766   -30313   -27281   -23873   -20414   -17469   -15675   -15298 
  -16117   -17676   -19430   -20771   -21337   -21206   -20530   -19445 
  -18348   -17661   -17449   -17558   -17816   -18022   -18004   -17758 
  -17415   -17072   -16789   -16669   -16693   -16659   -16482   -16407 
  -16759   -17550   -18471   -19150   -19305   -18825   -17858   -16736 
  -15784   -15186   -14944   -14945   -15035   -15044   -14926   -14820 
  -14754   -14586   -14334   -14159   -14114   -14121   -14047   -13757 
  -13196   -12508   -12094   -12336   -13293   -14781   -16540   -18248 
  -19571   -20210   -19903   -18594   -16637   -14693   -13360   -12938 
  -13402   -14419   -15492   -16265   -16606   -16449   -15836   -15061 
  -14480   -14238   -14252   -14358   -14462   -14627   -14986   -15510 
  -15983   -16232   -16361   -16752   -17739   -19341   -21293   -23137 
  -24350   -24672   -24237   -23320   -22104   -20663   -19052   -17453 
  -16218   -15711   -16130   -17367   -18961   -20360   -21270   -21618 
  -21412   -20780   -19953   -19120   -18468   -18272   -18703   -19664 
  -20983   -22622   -24631   -27039   -29765   -32557   -35076   -37049 
  -38285   -38613   -38011   -36729   -35170   -33777   -32938   -32722 
  -32793   -32757   -32453   -32002   -31745   -31933   -32526   -33373 
  -34262   -34804   -34558   -33339   -31309   -28735   -25878   -23061 
  -20576   -18633   -17439   -17004   -16954   -16761   -16077   -14891 
  -13480   -12224   -11415   -11166   -11481   -12261   -13167   -13800 
  -14111   -14467   -15312   -16727   -18228   -19100   -18911   -17686 
  -15752   -13610   -11784   -10643   -10397   -11072   -12452   -14221 
  -16173   -18145   -19935   -21450   -22776   -23993   -25073   -26046 
  -27077   -28314   -29730   -31128   -32196   -32578   -32067   -30686 
  -28584   -26005   -23294   -20829   -19003   -18067   -17888   -17996 
  -17952   -17689   -17506   -17800   -18811   -20356   -21781   -22440 
  -22058   -20679   -18568   -16147   -13923   -12423   -11983   -12509 
  -13480   -14300   -14695   -14784   -14784   -14760   -14696   -14643 
  -14562   -14185   -13325   -12177   -11185   -10760   -11089   -12024 
  -13166   -14103   -14595   -14704   -14755   -15059   -15672   -16394 
  -16868   -16696   -15729   -14264   -12814   -11744   -11198   -11181 
  -11626   -12405   -13258   -13914   -14278   -14367   -14289   -14158 
  -13717   -12436   -10081    -6901    -3382     -185     1913     2410 
    1337     -952    -3983    -7192   -10104   -12616   -14959   -17387 
  -20046   -22971   -25988   -28770   -31059   -32806   -34206   -35600 
  -37251   -39215   -41284   -43083   -44307   -44742   -44311   -43287 
  -42180   -41382   -40972   -40784   -40599   -40175   -39209   -37474 
  -35078   -32466   -30002   -27702   -25420   -23069   -20592   -17946 
  -15277   -12926   -11194   -10228    -9970   -10150   -10541   -11222 
  -12477   -14496   -17187   -20305   -23558   -26536   -28822   -30219 
  -30762   -30648   -30085   -29224   -28264   -27334   -26283   -24912 
  -23281   -21592   -20028   -18780   -17948   -17431   -17062   -16656 
  -16018   -15174   -14419   -13956   -13641   -13070   -11847    -9850 
   -7297    -4701    -2738    -1865    -2053    -2970    -4222    -5435 
   -6379    -7096    -7779    -8538    -9384   -10247   -10827   -10672 
   -9635    -8134    -6950    -6962    -8861   -12766   -18016   -23418 
  -27844   -30688   -31780   -31155   -29114   -26211   -22975   -19743 
  -16753   -14295   -12620   -11812   -11871   -12702   -14033   -15540 
  -17002   -18310   -19380   -20084   -20281   -19874   -18813   -17102 
  -14870   -12332    -9735    -7556    -6466    -6925    -9020   -12564 
  -17104   -21963   -26484   -30284   -33075   -34445   -34289   -33048 
  -31306   -29741   -28855   -28512   -28350   -28023   -27165   -25720 
  -23920   -22152   -20971   -20721   -21269   -22247   -23284   -24109 
  -24713   -25230   -25686   -26060   -26381   -26742   -27344   -28307 
  -29459   -30401   -30820   -30735   -30333   -29688   -28790   -27720 
  -26727   -26191   -26447   -27487   -28937   -30367   -31520   -32250 
  -32407   -31930   -30934   -29523   -27773   -25867   -24007   -22308 
  -20842   -19671   -18965   -18934   -19551   -20494   -21344   -21809 
  -21883   -21814   -21859   -22150   -22762   -23720   -24920   -26083 
  -26829   -26881   -26251   -25289   -24539   -24445   -25104   -26295 
  -27670   -28961   -30094   -31149   -32191   -33124   -33728   -33824 
  -33370   -32536   -31652   -30928   -30302   -29591   -28679   -27503 
  -25934   -23807   -21141   -18232   -15519   -13369   -11912   -10953 
  -10104    -9056    -7771    -6558    -5979    -6498    -8148   -10562 
  -13362   -16309   -19065   -21375   -23285   -24919   -26449   -27907 
  -29052   -29637   -29572   -29059   -28448   -27912   -27548   -27291 
  -26782   -25631   -23625   -20861   -17842   -15194   -13354   -12454 
  -12216   -12145   -11981   -11776   -11730   -12025   -12589   -13031 
  -12872   -11898   -10375    -8810    -7555    -6807    -6666    -7098 
   -8059    -9515   -11280   -13071   -14735   -16369   -18202   -20372 
  -22830   -25322   -27434   -28847   -29573   -29831   -29910   -30112 
  -30600   -31337   -32125   -32634   -32588   -31811   -30181   -27819 
  -24981   -21853   -18754   -16003   -13668   -11766   -10281    -9077 
   -8054    -7174    -6346    -5478    -4556    -3617    -2712    -1963 
   -1511    -1454    -1849    -2652    -3676    -4680    -5521    -6189 
   -6699    -7045    -7314    -7673    -8287    -9290   -10756   -12655 
