Origin Time       2011/03/11 14:46:00
Lat.              38.103
Long.             142.860
Depth. (km)       24
Mag.              9.0
Station Code      HKD028
Station Lat.      44.3598
Station Long.     142.4547
Station Height(m) 96
Record Time       2011/03/11 14:49:36
Sampling Freq(Hz) 100Hz
Duration Time(s)  151
Dir.              U-D
Scale Factor      3920(gal)/6182761
Max. Acc. (gal)   2.420
Last Correction   2011/03/11 14:49:21
Memo.             
[...]
  -20322   -20405   -20483   -20548   -20605   -20680   -20750   -20788 
  -20854   -20929   -20955   -21005   -21084   -21149   -21236   -21316 
  -21365   -21401   -21415   -21430   -21452   -21462   -21480   -21495 
  -21478   -21459   -21453   -21445   -21429   -21422   -21435   -21436 
  -21418   -21430   -21448   -21451   -21484   -21528   -21562   -21617 
  -21672   -21724   -21792   -21850   -21904   -21973   -22050   -22115 
  -22173   -22237   -22292   -22349   -22434   -22507   -22556   -22608 
  -22670   -22729   -22774   -22794   -22789   -22776   -22772   -22766 
  -22749   -22740   -22735   -22721   -22719   -22723   -22705   -22687 
  -22697   -22732   -22764   -22779   -22802   -22833   -22852   -22871 
  -22887   -22894   -22906   -22922   -22950   -22997   -23030   -23049 
  -23079   -23098   -23081   -23059   -23056   -23040   -23017   -23010 
  -23003   -22986   -22975   -22977   -22972   -22958   -22956   -22937 
  -22891   -22874   -22871   -22838   -22785   -22741   -22707   -22664 
  -22626   -22602   -22555   -22498   -22464   -22436   -22408   -22369 
  -22314   -22278   -22256   -22209   -22182   -22187   -22163   -22142 
  -22160   -22167   -22164   -22157   -22137   -22140   -22145   -22114 
  -22078   -22052   -22034   -22033   -22039   -22033   -22021   -22023 
  -22012   -21975   -21950   -21936   -21914   -21900   -21898   -21894 
  -21887   -21886   -21864   -21836   -21844   -21855   -21823   -21775 
  -21767   -21805   -21842   -21860   -21860   -21885   -21960   -22005 
  -22009   -22041   -22074   -22064   -22034   -22027   -22019   -21983 
  -21967   -21959   -21940   -21955   -21962   -21955   -22010   -22074 
  -22075   -22071   -22077   -22067   -22078   -22100   -22084   -22072 
  -22065   -22024   -22019   -22036   -21969   -21882   -21878   -21873 
  -21823   -21817   -21817   -21763   -21733   -21738   -21724   -21690 
  -21651   -21645   -21675   -21691   -21701   -21747   -21787   -21774 
  -21777   -21851   -21901   -21882   -21898   -21964   -22015   -22058 
  -22129   -22215   -22269   -22309   -22384   -22460   -22512   -22574 
  -22642   -22702   -22767   -22816   -22848   -22899   -22955   -22972 
  -22980   -23039   -23119   -23163   -23210   -23292   -23361   -23423 
  -23515   -23587   -23604   -23619   -23661   -23689   -23681   -23671 
  -23658   -23616   -23588   -23577   -23533   -23470   -23409   -23337 
  -23267   -23199   -23106   -22996   -22896   -22805   -22702   -22579 
  -22479   -22414   -22330   -22215   -22123   -22036   -21928   -21864 
  -21868   -21868   -21837   -21830   -21863   -21895   -21926   -21978 
  -22028   -22066   -22129   -22213   -22283   -22351   -22419   -22499 
  -22604   -22680   -22716   -22766   -22842   -22927   -23000   -23043 
  -23060   -23073   -23100   -23126   -23124   -23136   -23187   -23203 
  -23159   -23145   -23180   -23195   -23198   -23235   -23281   -23311 
  -23335   -23354   -23377   -23393   -23392   -23399   -23405   -23384 
  -23382   -23402   -23380   -23350   -23374   -23409   -23430   -23460 
  -23506   -23552   -23564   -23556   -23581   -23623   -23640   -23644 
  -23648   -23646   -23637   -23645   -23670   -23654   -23597   -23582 
  -23602   -23586   -23546   -23508   -23466   -23440   -23428   -23404 
  -23389   -23384   -23385   -23411   -23404   -23352   -23336   -23332 
  -23312   -23337   -23375   -23385   -23418   -23470   -23494   -23531 
  -23604   -23650   -23679   -23738   -23795   -23839   -23901   -23968 
  -24018   -24064   -24131   -24221   -24306   -24381   -24449   -24503 
  -24535   -24570   -24628   -24678   -24699   -24714   -24725   -24720 
  -24715   -24704   -24666   -24621   -24591   -24544   -24496   -24471 
  -24418   -24349   -24303   -24233   -24141   -24084   -24028   -23921 
  -23809   -23745   -23692   -23610   -23514   -23428   -23358   -23294 
  -23241   -23205   -23139   -23034   -22956   -22902   -22830   -22762 
  -22709   -22652   -22604   -22561   -22504   -22445   -22399   -22348 
  -22287   -22238   -22200   -22153   -22105   -22054   -21974   -21884 
  -21815   -21730   -21626   -21544   -21466   -21362   -21273   -21214 
  -21146   -21071   -20998   -20910   -20828   -20752   -20650   -20545 
  -20455   -20349   -20247   -20176   -20106   -20043   -19994   -19938 
  -19902   -19872   -19809   -19767   -19766   -19765   -19780   -19824 
  -19865   -19917   -19994   -20081   -20193   -20322   -20453   -20583 
  -20679   -20747   -20839   -20944   -21029   -21095   -21136   -21158 
  -21199   -21270   -21337   -21376   -21385   -21389   -21424   -21461 
  -21453   -21420   -21372   -21293   -21230   -21208   -21164   -21086 
  -21035   -21008   -20964   -20922   -20892   -20846   -20790   -20742 
  -20702   -20676   -20668   -20667   -20657   -20663   -20695   -20721 
  -20752   -20797   -20835   -20868   -20906   -20944   -20981   -21018 
  -21052   -21081   -21104   -21139   -21201   -21278   -21359   -21464 
  -21578   -21671   -21781   -21922   -22044   -22141   -22251   -22370 
  -22480   -22576   -22656   -22721   -22770   -22822   -22905   -23000 
  -23061   -23101   -23140   -23193   -23262   -23312   -23337   -23358 
  -23366   -23372   -23387   -23387   -23380   -23390   -23391   -23378 
  -23370   -23359   -23343   -23343   -23346   -23329   -23324   -23342 
  -23346   -23340   -23368   -23410   -23422   -23427   -23433   -23416 
  -23416   -23448   -23454   -23438   -23436   -23423   -23401   -23399 
  -23388   -23348   -23301   -23260   -23234   -23243   -23265   -23230 
  -23165   -23155   -23165   -23164   -23199   -23241   -23250   -23266 
  -23276   -23240   -23206   -23213   -23229   -23225   -23209   -23191 
  -23173   -23157   -23136   -23095   -23044   -23009   -22978   -22932 
  -22867   -22784   -22692   -22608   -22536   -22475   -22417   -22356 
  -22314   -22286   -22237   -22185   -22163   -22141   -22110   -22081 
  -22028   -21972   -21945   -21894   -21826   -21799   -21783   -21757 
  -21736   -21709   -21684   -21665   -21631   -21593   -21552   -21488 
  -21435   -21413   -21382   -21333   -21276   -21201   -21113   -21033 
  -20958   -20886   -20823   -20775   -20754   -20733   -20698   -20675 
  -20670   -20665   -20657   -20634   -20592   -20543   -20493   -20449 
  -20410   -20381   -20364   -20347   -20333   -20340   -20370   -20388 
  -20386   -20386   -20390   -20400   -20417   -20430   -20456   -20490 
  -20505   -20520   -20562   -20603   -20637   -20683   -20737   -20790 
  -20848   -20908   -20962   -21011   -21061   -21136   -21236   -21328 
  -21414   -21507   -21590   -21666   -21750   -21832   -21899   -21960 
  -22024   -22074   -22100   -22120   -22150   -22185   -22224   -22266 
  -22306   -22346   -22391   -22432   -22477   -22527   -22556   -22562 
  -22573   -22583   -22581   -22579   -22563   -22536   -22538   -22559 
  -22575   -22610   -22667   -22716   -22759   -22819   -22894   -22965 
  -23028   -23092   -23139   -23163   -23193   -23235   -23269   -23287 
  -23299   -23329   -23377   -23416   -23448   -23488   -23505   -23502 
  -23521   -23576   -23644   -23703   -23740   -23769   -23819   -23885 
  -23943   -23994   -24036   -24059   -24085   -24115   -24126   -24121 
  -24106   -24084   -24066   -24056   -24050   -24039   -24015   -23978 
  -23933   -23875   -23796   -23709   -23622   -23528   -23427   -23315 
  -23196   -23075   -22950   -22840   -22748   -22648   -22552   -22475 
  -22395   -22308   -22231   -22161   -22089   -22008   -21920   -21843 
  -21780   -21718   -21653   -21582   -21510   -21453   -21405   -21360 
  -21322   -21289   -21253   -21218   -21184   -21138   -21097   -21084 
  -21068   -21038   -21024   -21035   -21050   -21048   -21031   -21020 
  -21020   -21023   -21023   -21018   -21012   -21019   -21043   -21066 
  -21072   -21070   -21078   -21114   -21167   -21198   -21206   -21228 
  -21267   -21310   -21350   -21386   -21426   -21480   -21549   -21628 
  -21699   -21754   -21812   -21881   -21949   -22006   -22060   -22132 
  -22223   -22309   -22386   -22465   -22546   -22634   -22727   -22797 
  -22843   -22900   -22958   -22986   -22999   -23014   -23022   -23030 
  -23040   -23043   -23037   -23020   -23004   -23000   -22999   -22988 
  -22961   -22941   -22944   -22940   -22909   -22884   -22885   -22895 
  -22908   -22930   -22952   -22971   -22992   -22996   -22974   -22954 
  -22949   -22964   -22998   -23025   -23037   -23047   -23073   -23107 
  -23118   -23114   -23123   -23134   -23141   -23157   -23166   -23157 
  -23145   -23127   -23095   -23061   -23023   -22979   -22941   -22897 
  -22845   -22794   -22735   -22654   -22558   -22454   -22343   -22238 
  -22151   -22075   -21989   -21881   -21783   -21723   -21669   -21595 
  -21526   -21466   -21414   -21366   -21304   -21240   -21194   -21148 
  -21109   -21087   -21075   -21082   -21109   -21128   -21141   -21155 
  -21166   -21179   -21187   -21189   -21205   -21233   -21265   -21305 
  -21339   -21374   -21424   -21480   -21546   -21617   -21669   -21704 
  -21752   -21818   -21880   -21930   -21977   -22027   -22066   -22094 
  -22128   -22164   -22196   -22232   -22264   -22287   -22311   -22325 
  -22316   -22304   -22307   -22314   -22326   -22346   -22358   -22367 
  -22393   -22421   -22433   -22442   -22457   -22486   -22535   -22585 
  -22627   -22665   -22676   -22662   -22670   -22702   -22731   -22746 
  -22770   -22821   -22867   -22897   -22948   -23011   -23073   -23146 
  -23208   -23242   -23283   -23338   -23372   -23382   -23391   -23396 
  -23397   -23406   -23419   -23422   -23407   -23391   -23390   -23381 
  -23354   -23327   -23292   -23250   -23221   -23189   -23140   -23096 
  -23065   -23040   -23010   -22975   -22944   -22918   -22903   -22900 
  -22908   -22932   -22956   -22965   -22986   -23035   -23099   -23156 
  -23197   -23233   -23273   -23315   -23359   -23393   -23412   -23423 
  -23434   -23447   -23453   -23439   -23411   -23378   -23339   -23286 
  -23224   -23158   -23089   -23029   -22990   -22970   -22966   -22967 
  -22968   -22960   -22950   -22947   -22938   -22914   -22872   -22815 
  -22764   -22723   -22688   -22655   -22607   -22551   -22500   -22461 
  -22412   -22344   -22279   -22214   -22138   -22062   -21976   -21870 
  -21766   -21680   -21614   -21565   -21517   -21466   -21434   -21425 
  -21412   -21386   -21361   -21347   -21333   -21305   -21274   -21252 
  -21225   -21191   -21168   -21145   -21103   -21071   -21070   -21052 
  -20997   -20953   -20916   -20867   -20828   -20801   -20767   -20725 
  -20672   -20617   -20581   -20569   -20554   -20527   -20524   -20548 
  -20581   -20632   -20691   -20747   -20808   -20878   -20953   -21020 
  -21068   -21114   -21172   -21222   -21266   -21344   -21446   -21536 
  -21619   -21700   -21769   -21839   -21928   -22025   -22114   -22211 
  -22327   -22446   -22553   -22655   -22757   -22856   -22953   -23038 
  -23108   -23188   -23278   -23354   -23419   -23481   -23531   -23564 
  -23591   -23607   -23608   -23596   -23577   -23564   -23561   -23553 
  -23535   -23514   -23504   -23503   -23482   -23446   -23420   -23394 
  -23356   -23312   -23273   -23246   -23214   -23173   -23150   -23146 
  -23140   -23141   -23154   -23155   -23132   -23108   -23092   -23074 
  -23049   -23013   -22970   -22932   -22899   -22870   -22845   -22799 
  -22732   -22677   -22640   -22602   -22555   -22502   -22450   -22402 
  -22351   -22305   -22271   -22236   -22212   -22198   -22169   -22134 
  -22105   -22069   -22031   -22007   -21987   -21963   -21937   -21905 
  -21866   -21837   -21822   -21805   -21777   -21741   -21705   -21664 
  -21608   -21553   -21501   -21438   -21367   -21307   -21256   -21198 
  -21122   -21031   -20947   -20866   -20768   -20672   -20586   -20505 
  -20441   -20385   -20314   -20232   -20160   -20102   -20058   -20016 
  -19975   -19947   -19936   -19931   -19930   -19932   -19936   -19950 
  -19971   -19992   -20017   -20044   -20067   -20090   -20114   -20135 
  -20150   -20154   -20150   -20143   -20132   -20116   -20093   -20050 
  -19995   -19946   -19892   -19833   -19781   -19739   -19715   -19704 
  -19693   -19701   -19736   -19778   -19821   -19871   -19927   -19981 
  -20028   -20078   -20131   -20182   -20232   -20288   -20339   -20389 
  -20456   -20535   -20621   -20716   -20818   -20933   -21066   -21199 
  -21339   -21493   -21642   -21785   -21935   -22091   -22253   -22416 
  -22566   -22712   -22865   -23009   -23139   -23269   -23404   -23532 
  -23657   -23780   -23882   -23961   -24036   -24110   -24173   -24222 
  -24268   -24315   -24357   -24389   -24405   -24394   -24370   -24349 
  -24326   -24305   -24291   -24264   -24221   -24172   -24117   -24065 
  -24021   -23972   -23925   -23884   -23840   -23796   -23755   -23706 
  -23649   -23591   -23524   -23469   -23428   -23370   -23287   -23201 
  -23120   -23057   -23011   -22963   -22910   -22858   -22800   -22748 
  -22698   -22636   -22579   -22539   -22503   -22471   -22440   -22407 
  -22378   -22349   -22318   -22299   -22290   -22282   -22278   -22268 
  -22244   -22222   -22204   -22182   -22155   -22125   -22104   -22093 
  -22076   -22060   -22048   -22029   -21998   -21959   -21918   -21869 
  -21811   -21754   -21700   -21650   -21601   -21538   -21460   -21373 
  -21274   -21159   -21022   -20864   -20702   -20543   -20379   -20213 
  -20043   -19876   -19720   -19557   -19390   -19244   -19109   -18974 
  -18852   -18738   -18634   -18543   -18467   -18410   -18371   -18341 
  -18317   -18292   -18266   -18250   -18236   -18225   -18230   -18239 
  -18252   -18286   -18342   -18410   -18490   -18578   -18677   -18785 
  -18895   -19011   -19136   -19261   -19383   -19509   -19649   -19803 
  -19953   -20081   -20193   -20308   -20433   -20570   -20717   -20849 
  -20966   -21083   -21211   -21350   -21484   -21594   -21690   -21786 
  -21883   -21972   -22047   -22123   -22206   -22272   -22328   -22400 
  -22463   -22506   -22563   -22617   -22644   -22677   -22717   -22743 
  -22773   -22817   -22848   -22877   -22922   -22958   -22984   -23020 
  -23050   -23067   -23073   -23075   -23091   -23114   -23128   -23144 
  -23163   -23178   -23197   -23221   -23235   -23237   -23235   -23243 
  -23265   -23291   -23323   -23356   -23373   -23382   -23397   -23409 
  -23427   -23451   -23458   -23466   -23479   -23461   -23424   -23397 
  -23368   -23327   -23284   -23233   -23169   -23107   -23050   -22982 
  -22914   -22850   -22773   -22705   -22656   -22601   -22545   -22509 
  -22482   -22450   -22412   -22388   -22377   -22362   -22354   -22355 
  -22351   -22350   -22353   -22353   -22364   -22387   -22413   -22443 
  -22461   -22465   -22472   -22485   -22506   -22535   -22558   -22576 
  -22603   -22634   -22655   -22672   -22692   -22712   -22734   -22757 
  -22774   -22776   -22757   -22740   -22746   -22764   -22785   -22800 
  -22793   -22780   -22783   -22786   -22772   -22755   -22734   -22716 
  -22710   -22696   -22661   -22618   -22573   -22526   -22479   -22432 
  -22387   -22348   -22309   -22275   -22249   -22219   -22181   -22136 
  -22077   -22017   -21960   -21888   -21814   -21750   -21681   -21611 
  -21547   -21490   -21443   -21400   -21359   -21334   -21319   -21295 
  -21264   -21236   -21208   -21180   -21157   -21142   -21135   -21133 
  -21130   -21129   -21132   -21136   -21146   -21164   -21192   -21227 
  -21257   -21290   -21337   -21381   -21410   -21442   -21474   -21507 
  -21549   -21600   -21660   -21702   -21716   -21743   -21775   -21784 
  -21793   -21797   -21793   -21808   -21815   -21807   -21811   -21813 
  -21817   -21822   -21813   -21813   -21817   -21804   -21784   -21780 
  -21782   -21772   -21776   -21792   -21783   -21780   -21822   -21874 
  -21907   -21941   -21976   -22005   -22049   -22103   -22138   -22135 
  -22116   -22138   -22188   -22216   -22236   -22270   -22303   -22338 
  -22381   -22427   -22484   -22548   -22603   -22643   -22673   -22706 
  -22753   -22802   -22847   -22887   -22927   -22983   -23036   -23069 
  -23106   -23147   -23172   -23188   -23214   -23241   -23259   -23272 
  -23274   -23261   -23245   -23229   -23205   -23182   -23156   -23118 
  -23085   -23061   -23036   -23016   -22978   -22924   -22886   -22854 
  -22819   -22783   -22747   -22722   -22706   -22689   -22674   -22664 
  -22655   -22649   -22641   -22622   -22608   -22607   -22612   -22622 
  -22631   -22631   -22625   -22624   -22625   -22624   -22623   -22632 
  -22650   -22661   -22673   -22696   -22703   -22683   -22656   -22626 
  -22591   -22549   -22502   -22454   -22403   -22351   -22302   -22256 
  -22214   -22178   -22142   -22096   -22042   -22001   -21969   -21922 
  -21864   -21809   -21750   -21683   -21631   -21586   -21535   -21491 
  -21453   -21409   -21376   -21364   -21352   -21334   -21334   -21341 
  -21339   -21329   -21318   -21310   -21295   -21282   -21288   -21293 
  -21288   -21293   -21302   -21309   -21327   -21352   -21371   -21388 
  -21417   -21451   -21473   -21487   -21508   -21535   -21559   -21585 
  -21622   -21655   -21667   -21669   -21668   -21654   -21641   -21649 
  -21660   -21666   -21678   -21692   -21709   -21726   -21734   -21741 
  -21742   -21726   -21712   -21716   -21717   -21696   -21666   -21633 
  -21594   -21558   -21513   -21447   -21380   -21308   -21229   -21158 
  -21093   -21024   -20956   -20890   -20823   -20763   -20719   -20678 
  -20639   -20617   -20605   -20599   -20607   -20637   -20679   -20720 
  -20768   -20822   -20877   -20940   -21000   -21060   -21136   -21219 
  -21299   -21371   -21445   -21535   -21628   -21715   -21811   -21906 
  -21987   -22069   -22154   -22233   -22301   -22349   -22386   -22426 
  -22449   -22452   -22450   -22440   -22439   -22450   -22454   -22471 
  -22504   -22515   -22518   -22524   -22509   -22487   -22472   -22443 
  -22413   -22389   -22351   -22321   -22314   -22292   -22258   -22246 
  -22242   -22234   -22232   -22224   -22200   -22171   -22149   -22139 
  -22131   -22124   -22139   -22162   -22171   -22187   -22213   -22228 
  -22259   -22303   -22329   -22356   -22396   -22426   -22446   -22465 
  -22476   -22468   -22447   -22433   -22428   -22406   -22374   -22348 
  -22310   -22265   -22235   -22209   -22172   -22138   -22105   -22057 
  -22007   -21965   -21928   -21896   -21855   -21819   -21812   -21794 
  -21750   -21722   -21688   -21618   -21550   -21490   -21417   -21336 
  -21254   -21173   -21088   -20996   -20904   -20825   -20747   -20670 
  -20605   -20549   -20496   -20442   -20380   -20320   -20265   -20210 
  -20169   -20135   -20094   -20061   -20043   -20020   -19992   -19989 
  -20007   -20019   -20038   -20059   -20056   -20043   -20034   -20007 
  -19974   -19955   -19934   -19904   -19888   -19898   -19925   -19956 
  -19984   -20009   -20033   -20049   -20058   -20067   -20072   -20071 
  -20081   -20105   -20127   -20147   -20173   -20200   -20219   -20251 
  -20284   -20306   -20338   -20361   -20373   -20395   -20386   -20367 
  -20367   -20347   -20324   -20317   -20300   -20282   -20271   -20233 
  -20183   -20162   -20147   -20129   -20130   -20137   -20143   -20153 
  -20174   -20219   -20266   -20286   -20311   -20360   -20400   -20430 
  -20464   -20490   -20516   -20555   -20595   -20639   -20699   -20755 
  -20805   -20859   -20920   -20985   -21046   -21112   -21191   -21264 
