Origin Time       2011/03/11 14:46:00
Lat.              38.103
Long.             142.860
Depth. (km)       24
Mag.              9.0
Station Code      HKD051
Station Lat.      44.0187
Station Long.     143.7747
Station Height(m) 33
Record Time       2011/03/11 14:49:18
Sampling Freq(Hz) 100Hz
Duration Time(s)  157
Dir.              N-S
Scale Factor      3920(gal)/6182761
Max. Acc. (gal)   2.651
Last Correction   2011/03/11 14:49:03
Memo.             
[...]
   -4503    -4106    -3699    -3295    -2960    -2745    -2629    -2571 
   -2568    -2616    -2699    -2828    -3022    -3262    -3484    -3621 
   -3662    -3621    -3472    -3220    -2937    -2666    -2404    -2189 
   -2097    -2161    -2361    -2651    -2950    -3195    -3373    -3504 
   -3634    -3788    -3889    -3864    -3722    -3453    -3053    -2625 
   -2255    -1939    -1664    -1460    -1391    -1509    -1796    -2196 
   -2674    -3204    -3718    -4125    -4403    -4547    -4527    -4355 
   -4121    -3882    -3620    -3346    -3159    -3147    -3288    -3510 
   -3770    -4032    -4261    -4460    -4647    -4815    -4959    -5092 
   -5229    -5384    -5538    -5640    -5695    -5744    -5756    -5719 
   -5699    -5704    -5713    -5756    -5826    -5906    -6074    -6379 
   -6748    -7115    -7453    -7721    -7854    -7819    -7665    -7496 
   -7380    -7295    -7155    -6915    -6603    -6285    -6069    -6029 
   -6108    -6217    -6347    -6552    -6910    -7438    -8038    -8563 
   -8902    -9011    -8909    -8645    -8264    -7796    -7273    -6746 
   -6291    -5977    -5819    -5777    -5769    -5745    -5744    -5825 
   -6006    -6272    -6572    -6836    -7032    -7135    -7096    -6885 
   -6516    -6042    -5545    -5097    -4710    -4358    -4035    -3770 
   -3589    -3502    -3472    -3427    -3339    -3252    -3217    -3250 
   -3320    -3380    -3410    -3447    -3600    -3973    -4522    -5058 
   -5412    -5548    -5520    -5409    -5316    -5296    -5285    -5170 
   -4933    -4678    -4540    -4553    -4613    -4614    -4544    -4467 
   -4498    -4731    -5118    -5489    -5736    -5854    -5902    -5998 
   -6218    -6511    -6786    -6999    -7150    -7247    -7280    -7231 
   -7089    -6864    -6570    -6227    -5908    -5694    -5601    -5631 
   -5798    -6054    -6284    -6409    -6446    -6435    -6367    -6221 
   -5987    -5658    -5228    -4755    -4367    -4160    -4098    -4116 
   -4230    -4457    -4739    -4984    -5145    -5241    -5285    -5262 
   -5193    -5118    -5017    -4869    -4709    -4567    -4454    -4421 
   -4525    -4763    -5092    -5454    -5764    -5909    -5834    -5593 
   -5272    -4949    -4726    -4687    -4838    -5092    -5357    -5598 
   -5774    -5844    -5851    -5890    -5994    -6099    -6103    -5988 
   -5840    -5777    -5888    -6178    -6507    -6712    -6753    -6667 
   -6470    -6211    -5989    -5833    -5686    -5519    -5389    -5363 
   -5442    -5607    -5879    -6244    -6627    -7007    -7383    -7693 
   -7906    -8024    -8012    -7842    -7534    -7144    -6732    -6300 
   -5839    -5453    -5277    -5329    -5523    -5719    -5800    -5743 
   -5610    -5501    -5507    -5632    -5801    -5926    -5939    -5831 
   -5677    -5579    -5606    -5742    -5864    -5829    -5598    -5243 
   -4870    -4555    -4324    -4176    -4108    -4102    -4144    -4253 
   -4445    -4657    -4826    -4971    -5082    -5079    -4918    -4606 
   -4195    -3766    -3324    -2798    -2188    -1595    -1165     -985 
   -1044    -1274    -1588    -1901    -2188    -2463    -2716    -2895 
   -2942    -2855    -2697    -2537    -2379    -2168    -1878    -1568 
   -1333    -1251    -1353    -1619    -2000    -2454    -2962    -3505 
   -4006    -4356    -4510    -4535    -4538    -4596    -4725    -4870 
   -4934    -4860    -4684    -4510    -4439    -4487    -4586    -4661 
   -4675    -4634    -4614    -4696    -4864    -5017    -5074    -5024 
   -4899    -4729    -4571    -4490    -4478    -4479    -4459    -4404 
   -4324    -4264    -4255    -4281    -4297    -4261    -4161    -4029 
   -3924    -3905    -3956    -3986    -3929    -3805    -3654    -3501 
   -3412    -3455    -3611    -3812    -4022    -4215    -4347    -4394 
   -4423    -4545    -4776    -5041    -5261    -5372    -5348    -5203 
   -4983    -4803    -4748    -4740    -4705    -4695    -4747    -4842 
   -4974    -5110    -5157    -5038    -4767    -4451    -4182    -3992 
   -3899    -3910    -3951    -3910    -3781    -3664    -3633    -3730 
   -4013    -4460    -4924    -5259    -5448    -5553    -5592    -5524 
   -5337    -5073    -4784    -4487    -4163    -3831    -3618    -3658 
   -3953    -4382    -4777    -5017    -5141    -5289    -5498    -5659 
   -5681    -5545    -5295    -5041    -4906    -4963    -5203    -5526 
   -5799    -5953    -6006    -5998    -5960    -5914    -5820    -5569 
   -5118    -4570    -4064    -3680    -3493    -3557    -3797    -4058 
   -4260    -4421    -4561    -4688    -4845    -5098    -5428    -5680 
   -5703    -5492    -5127    -4697    -4304    -4021    -3839    -3681 
   -3503    -3335    -3204    -3103    -3036    -3000    -2953    -2842 
   -2661    -2501    -2463    -2536    -2661    -2814    -2958    -3041 
   -3057    -3032    -3002    -2986    -2955    -2857    -2690    -2533 
   -2503    -2667    -2981    -3335    -3674    -3999    -4281    -4464 
   -4546    -4575    -4603    -4674    -4766    -4797    -4717    -4540 
   -4326    -4169    -4125    -4157    -4214    -4291    -4391    -4497 
   -4620    -4774    -4938    -5091    -5250    -5417    -5530    -5534 
   -5457    -5358    -5307    -5363    -5472    -5495    -5394    -5250 
   -5171    -5251    -5475    -5701    -5823    -5852    -5860    -5917 
   -6069    -6296    -6499    -6567    -6448    -6170    -5810    -5447 
   -5154    -4975    -4873    -4782    -4732    -4801    -4957    -5078 
   -5116    -5134    -5193    -5265    -5282    -5210    -5076    -4935 
   -4831    -4804    -4868    -4978    -5088    -5220    -5399    -5612 
   -5807    -5904    -5857    -5707    -5521    -5328    -5138    -4950 
   -4751    -4556    -4421    -4358    -4338    -4371    -4485    -4689 
   -4962    -5231    -5390    -5367    -5166    -4860    -4540    -4257 
   -4042    -3921    -3904    -3982    -4157    -4454    -4872    -5343 
   -5765    -6039    -6064    -5805    -5355    -4854    -4389    -3950 
   -3473    -3004    -2696    -2643    -2834    -3192    -3581    -3893 
   -4122    -4340    -4595    -4870    -5131    -5314    -5314    -5119 
   -4838    -4562    -4338    -4199    -4093    -3935    -3731    -3526 
   -3355    -3263    -3274    -3356    -3457    -3556    -3660    -3810 
   -4031    -4271    -4436    -4494    -4478    -4432    -4415    -4491 
   -4679    -4924    -5087    -5039    -4797    -4485    -4206    -3992 
   -3835    -3694    -3529    -3365    -3295    -3387    -3622    -3920 
   -4188    -4340    -4350    -4277    -4199    -4153    -4146    -4145 
   -4078    -3909    -3664    -3384    -3165    -3151    -3401    -3860 
   -4396    -4854    -5162    -5371    -5554    -5693    -5721    -5603 
   -5349    -5026    -4742    -4590    -4593    -4663    -4672    -4589 
   -4476    -4391    -4404    -4601    -4980    -5415    -5771    -5989 
   -6070    -6034    -5891    -5643    -5318    -4963    -4637    -4399 
   -4308    -4415    -4705    -5065    -5337    -5395    -5243    -4995 
   -4758    -4616    -4617    -4703    -4783    -4831    -4884    -4946 
   -4947    -4847    -4704    -4553    -4348    -4080    -3853    -3780 
   -3887    -4140    -4487    -4812    -4969    -4930    -4830    -4803 
   -4856    -4924    -4943    -4848    -4624    -4365    -4196    -4127 
   -4073    -4003    -3986    -4071    -4262    -4568    -4962    -5357 
   -5687    -5922    -6039    -6041    -5962    -5835    -5656    -5421 
   -5172    -4963    -4786    -4603    -4416    -4263    -4198    -4271 
   -4477    -4690    -4747    -4631    -4470    -4367    -4363    -4467 
   -4608    -4650    -4537    -4364    -4253    -4245    -4310    -4384 
   -4402    -4333    -4211    -4125    -4128    -4204    -4348    -4594 
   -4902    -5165    -5341    -5467    -5605    -5840    -6234    -6731 
   -7162    -7414    -7507    -7543    -7623    -7807    -8070    -8302 
   -8379    -8280    -8115    -8005    -8010    -8149    -8347    -8439 
   -8335    -8073    -7725    -7357    -7056    -6859    -6688    -6463 
   -6195    -5936    -5740    -5649    -5673    -5807    -6014    -6257 
   -6546    -6859    -7089    -7158    -7081    -6920    -6768    -6702 
   -6726    -6795    -6828    -6743    -6534    -6288    -6080    -5908 
   -5728    -5496    -5192    -4846    -4496    -4173    -3919    -3753 
   -3670    -3657    -3673    -3695    -3754    -3845    -3941    -4047 
   -4138    -4157    -4108    -4016    -3863    -3649    -3449    -3375 
   -3499    -3798    -4176    -4528    -4770    -4870    -4877    -4860 
   -4810    -4683    -4503    -4339    -4250    -4285    -4485    -4813 
   -5118    -5245    -5178    -5024    -4889    -4811    -4776    -4744 
   -4659    -4488    -4268    -4059    -3875    -3723    -3654    -3692 
   -3800    -3935    -4047    -4105    -4148    -4191    -4216    -4227 
   -4204    -4120    -4010    -3895    -3780    -3704    -3696    -3719 
   -3681    -3502    -3169    -2760    -2421    -2309    -2496    -2905 
   -3409    -3942    -4495    -5050    -5570    -5987    -6220    -6220 
   -6019    -5699    -5355    -5079    -4924    -4886    -4927    -4981 
   -5003    -5005    -5031    -5128    -5309    -5513    -5676    -5784 
   -5825    -5776    -5662    -5540    -5416    -5254    -5062    -4900 
   -4810    -4817    -4923    -5108    -5338    -5523    -5579    -5570 
   -5635    -5809    -6010    -6174    -6342    -6579    -6868    -7144 
   -7356    -7439    -7342    -7110    -6863    -6694    -6631    -6673 
   -6777    -6851    -6839    -6764    -6708    -6744    -6857    -6944 
   -6909    -6735    -6472    -6188    -5949    -5797    -5721    -5662 
   -5569    -5500    -5553    -5725    -5920    -6027    -5945    -5660 
   -5299    -5006    -4845    -4819    -4849    -4836    -4786    -4761 
   -4781    -4858    -5008    -5179    -5261    -5176    -4939    -4658 
   -4445    -4331    -4296    -4324    -4414    -4575    -4810    -5092 
   -5372    -5622    -5811    -5901    -5875    -5770    -5670    -5634 
   -5657    -5709    -5725    -5648    -5529    -5473    -5532    -5731 
   -6071    -6510    -6976    -7359    -7570    -7640    -7657    -7655 
   -7615    -7501    -7249    -6810    -6269    -5813    -5545    -5453 
   -5492    -5615    -5789    -6012    -6300    -6639    -6948    -7125 
   -7132    -7002    -6771    -6447    -6077    -5749    -5516    -5401 
   -5444    -5630    -5851    -6037    -6197    -6335    -6433    -6463 
   -6371    -6136    -5826    -5557    -5383    -5277    -5193    -5107 
   -5037    -5030    -5111    -5260    -5456    -5684    -5926    -6182 
   -6465    -6752    -6979    -7081    -7022    -6787    -6412    -6006 
   -5683    -5510    -5495    -5593    -5764    -6009    -6307    -6595 
   -6820    -6967    -7052    -7106    -7130    -7048    -6764    -6270 
   -5673    -5127    -4733    -4532    -4514    -4600    -4684    -4727 
   -4730    -4688    -4633    -4616    -4653    -4745    -4898    -5089 
   -5278    -5451    -5586    -5635    -5582    -5439    -5220    -4977 
   -4762    -4571    -4404    -4268    -4138    -4043    -4035    -4087 
   -4148    -4228    -4325    -4392    -4422    -4465    -4539    -4595 
   -4589    -4536    -4479    -4461    -4489    -4520    -4509    -4462 
   -4429    -4462    -4574    -4722    -4831    -4852    -4818    -4808 
   -4890    -5074    -5285    -5417    -5432    -5370    -5334    -5413 
   -5575    -5744    -5937    -6177    -6408    -6580    -6684    -6707 
   -6633    -6474    -6267    -6048    -5807    -5533    -5304    -5201 
   -5191    -5186    -5166    -5129    -5070    -5046    -5108    -5186 
   -5206    -5172    -5084    -4944    -4790    -4640    -4482    -4309 
   -4141    -4041    -4056    -4150    -4279    -4449    -4673    -4934 
   -5212    -5492    -5721    -5820    -5758    -5568    -5296    -4969 
   -4618    -4317    -4132    -4026    -3915    -3801    -3752    -3804 
   -3933    -4100    -4266    -4371    -4396    -4430    -4545    -4672 
   -4705    -4643    -4549    -4430    -4234    -3944    -3601    -3231 
   -2888    -2701    -2749    -2961    -3247    -3603    -4033    -4492 
   -4909    -5215    -5357    -5294    -5035    -4629    -4124    -3582 
   -3094    -2737    -2546    -2503    -2552    -2664    -2833    -3038 
   -3254    -3477    -3719    -3983    -4245    -4508    -4784    -5013 
   -5103    -5027    -4811    -4495    -4108    -3684    -3276    -2944 
   -2720    -2615    -2634    -2765    -2968    -3220    -3528    -3859 
   -4133    -4325    -4468    -4578    -4672    -4792    -4957    -5131 
   -5226    -5180    -5037    -4894    -4795    -4764    -4784    -4789 
   -4749    -4707    -4705    -4723    -4718    -4683    -4672    -4753 
   -4931    -5103    -5166    -5117    -5014    -4915    -4848    -4793 
   -4701    -4559    -4420    -4348    -4355    -4415    -4520    -4689 
   -4936    -5247    -5567    -5836    -6025    -6122    -6157    -6202 
   -6268    -6325    -6374    -6413    -6385    -6270    -6145    -6099 
   -6128    -6215    -6370    -6571    -6762    -6936    -7155    -7466 
   -7825    -8143    -8382    -8544    -8635    -8661    -8617    -8493 
   -8277    -7988    -7695    -7454    -7265    -7106    -6975    -6858 
   -6735    -6596    -6448    -6299    -6132    -5927    -5706    -5492 
   -5268    -5046    -4878    -4774    -4687    -4607    -4566    -4530 
   -4443    -4308    -4136    -3916    -3659    -3402    -3173    -2972 
   -2780    -2587    -2400    -2223    -2066    -1960    -1892    -1828 
   -1790    -1782    -1757    -1688    -1560    -1384    -1202    -1052 
    -940     -868     -830     -821     -842     -901    -1004    -1140 
   -1287    -1433    -1558    -1623    -1584    -1443    -1271    -1144 
   -1077    -1052    -1059    -1124    -1282    -1518    -1813    -2156 
   -2484    -2752    -2998    -3242    -3465    -3675    -3870    -4013 
   -4062    -4015    -3918    -3817    -3758    -3773    -3850    -3959 
   -4071    -4160    -4216    -4247    -4288    -4381    -4532    -4690 
   -4809    -4867    -4847    -4751    -4618    -4493    -4393    -4309 
   -4237    -4181    -4159    -4208    -4349    -4527    -4682    -4811 
   -4920    -4998    -5034    -5015    -4932    -4815    -4735    -4743 
   -4803    -4870    -4958    -5067    -5200    -5354    -5490    -5590 
   -5643    -5605    -5471    -5305    -5175    -5106    -5132    -5297 
   -5567    -5840    -6027    -6094    -6076    -6063    -6125    -6265 
   -6428    -6533    -6558    -6574    -6658    -6807    -6985    -7153 
   -7262    -7261    -7148    -6998    -6888    -6814    -6749    -6689 
   -6638    -6598    -6556    -6500    -6413    -6256    -6030    -5832 
   -5725    -5657    -5584    -5530    -5498    -5499    -5578    -5736 
   -5907    -6015    -6034    -5985    -5859    -5665    -5494    -5406 
   -5393    -5471    -5663    -5936    -6220    -6465    -6654    -6788 
   -6881    -6969    -7063    -7135    -7138    -7073    -6976    -6865 
   -6741    -6607    -6466    -6330    -6219    -6157    -6183    -6310 
   -6485    -6651    -6803    -6943    -7051    -7131    -7194    -7222 
   -7203    -7159    -7123    -7121    -7147    -7190    -7283    -7422 
   -7525    -7567    -7586    -7560    -7454    -7287    -7099    -6916 
   -6757    -6645    -6600    -6615    -6656    -6676    -6666    -6657 
   -6664    -6682    -6707    -6728    -6735    -6745    -6787    -6853 
   -6902    -6901    -6850    -6790    -6764    -6767    -6776    -6774 
   -6741    -6678    -6616    -6570    -6526    -6468    -6405    -6366 
   -6372    -6399    -6390    -6314    -6182    -6019    -5865    -5775 
   -5777    -5828    -5869    -5896    -5927    -5965    -6018    -6106 
   -6212    -6272    -6196    -5961    -5637    -5268    -4887    -4590 
   -4407    -4269    -4147    -4092    -4134    -4233    -4326    -4400 
   -4496    -4629    -4775    -4931    -5110    -5293    -5454    -5581 
   -5664    -5673    -5573    -5391    -5194    -5011    -4825    -4640 
   -4497    -4430    -4450    -4551    -4692    -4806    -4873    -4957 
   -5106    -5294    -5457    -5535    -5492    -5359    -5243    -5227 
   -5290    -5358    -5408    -5490    -5608    -5701    -5728    -5669 
   -5504    -5274    -5078    -4961    -4873    -4772    -4690    -4682 
   -4743    -4829    -4925    -5029    -5117    -5166    -5171    -5121 
   -5004    -4840    -4702    -4638    -4608    -4538    -4397    -4244 
   -4159    -4185    -4345    -4634    -4988    -5306    -5516    -5639 
   -5733    -5821    -5891    -5915    -5853    -5691    -5474    -5303 
   -5256    -5311    -5393    -5454    -5475    -5456    -5436    -5444 
   -5473    -5478    -5412    -5273    -5109    -4972    -4894    -4880 
   -4900    -4918    -4915    -4878    -4821    -4780    -4736    -4642 
   -4489    -4296    -4085    -3890    -3752    -3712    -3792    -3978 
   -4223    -4471    -4669    -4755    -4705    -4592    -4491    -4402 
   -4303    -4184    -4035    -3868    -3744    -3727    -3839    -4044 
   -4288    -4530    -4736    -4886    -4987    -5058    -5109    -5155 
   -5206    -5219    -5137    -4991    -4855    -4758    -4728    -4782 
   -4896    -5061    -5277    -5533    -5820    -6136    -6437    -6656 
   -6774    -6809    -6781    -6724    -6676    -6667    -6715    -6798 
   -6875    -6933    -6992    -7052    -7114    -7211    -7341    -7452 
   -7529    -7591    -7645    -7685    -7707    -7713    -7683    -7583 
   -7432    -7291    -7189    -7130    -7136    -7196    -7268    -7325 
   -7360    -7373    -7366    -7335    -7293    -7257    -7214    -7141 
   -7055    -6997    -6968    -6932    -6875    -6796    -6679    -6522 
   -6333    -6118    -5908    -5721    -5527    -5293    -5019    -4740 
   -4522    -4412    -4373    -4330    -4251    -4156    -4067    -4019 
   -4049    -4150    -4273    -4385    -4496    -4621    -4748    -4842 
   -4868    -4826    -4732    -4606    -4470    -4364    -4320    -4327 
   -4360    -4416    -4486    -4548    -4596    -4623    -4612    -4564 
   -4507    -4467    -4449    -4443    -4448    -4452    -4435    -4404 
   -4387    -4408    -4458    -4492    -4482    -4452    -4424    -4421 
   -4479    -4591    -4709    -4812    -4912    -5019    -5120    -5180 
   -5180    -5138    -5080    -5024    -5002    -5021    -5055    -5072 
   -5056    -5000    -4887    -4728    -4563    -4430    -4340    -4278 
   -4246    -4262    -4309    -4362    -4454    -4636    -4892    -5147 
   -5347    -5496    -5617    -5694    -5704    -5662    -5613    -5616 
   -5697    -5823    -5929    -5950    -5877    -5776    -5715    -5711 
   -5738    -5755    -5742    -5714    -5720    -5801    -5940    -6084 
   -6196    -6267    -6338    -6451    -6607    -6788    -7006    -7243 
   -7421    -7483    -7442    -7330    -7149    -6914    -6693    -6554 
   -6494    -6476    -6484    -6518    -6588    -6709    -6869    -7018 
   -7090    -7038    -6889    -6746    -6678    -6653    -6593    -6458 
   -6284    -6142    -6092    -6153    -6270    -6355    -6371    -6340 
   -6300    -6279    -6303    -6382    -6469    -6508    -6495    -6459 
   -6427    -6412    -6416    -6428    -6417    -6380    -6341    -6299 
   -6254    -6222    -6214    -6240    -6320    -6446    -6570    -6631 
   -6604    -6508    -6410    -6357    -6333    -6296    -6257    -6243 
   -6236    -6199    -6113    -5986    -5860    -5777    -5741    -5713 
   -5644    -5515    -5358    -5235    -5182    -5180    -5194    -5216 
