Origin Time       2011/03/11 14:46:00
Lat.              38.103
Long.             142.860
Depth. (km)       24
Mag.              9.0
Station Code      HKD004
Station Lat.      45.2149
Station Long.     142.2260
Station Height(m) 4
Record Time       2011/03/11 14:49:49
Sampling Freq(Hz) 100Hz
Duration Time(s)  250
Dir.              N-S
Scale Factor      3920(gal)/6182761
Max. Acc. (gal)   7.349
Last Correction   2011/03/11 14:49:34
Memo.             
[...]
  -14991   -14761   -14528   -14291   -14049   -13803   -13556   -13313 
  -13074   -12837   -12597   -12357   -12117   -11873   -11627   -11383 
  -11137   -10886   -10631   -10372   -10111    -9852    -9595    -9342 
   -9095    -8851    -8608    -8370    -8140    -7916    -7695    -7477 
   -7267    -7068    -6877    -6694    -6519    -6354    -6202    -6064 
   -5932    -5814    -5712    -5623    -5547    -5490    -5451    -5429 
   -5425    -5439    -5470    -5519    -5587    -5670    -5771    -5889 
   -6020    -6168    -6336    -6519    -6718    -6933    -7165    -7411 
   -7672    -7947    -8233    -8532    -8839    -9148    -9462    -9780 
  -10097   -10410   -10719   -11021   -11313   -11592   -11855   -12101 
  -12331   -12542   -12732   -12903   -13056   -13190   -13300   -13389 
  -13458   -13503   -13523   -13521   -13495   -13446   -13379   -13295 
  -13194   -13082   -12963   -12837   -12705   -12571   -12439   -12306 
  -12175   -12047   -11924   -11811   -11705   -11605   -11519   -11451 
  -11398   -11360   -11339   -11337   -11352   -11380   -11423   -11481 
  -11544   -11614   -11692   -11774   -11858   -11946   -12036   -12127 
  -12219   -12315   -12415   -12516   -12615   -12716   -12815   -12912 
  -13003   -13086   -13165   -13240   -13308   -13365   -13417   -13462 
  -13496   -13524   -13544   -13557   -13565   -13571   -13570   -13565 
  -13556   -13545   -13534   -13520   -13503   -13488   -13475   -13460 
  -13447   -13437   -13425   -13417   -13412   -13406   -13402   -13404 
  -13411   -13425   -13444   -13467   -13498   -13536   -13578   -13625 
  -13676   -13731   -13787   -13843   -13900   -13954   -14001   -14044 
  -14084   -14120   -14150   -14175   -14193   -14205   -14212   -14212 
  -14203   -14185   -14159   -14122   -14071   -14007   -13928   -13830 
  -13717   -13600   -13471   -13318   -13151   -12983   -12805   -12606 
  -12400   -12188   -11961   -11723   -11481   -11230   -10972   -10710 
  -10441   -10165    -9887    -9604    -9317    -9031    -8746    -8463 
   -8186    -7914    -7648    -7391    -7136    -6885    -6642    -6404 
   -6173    -5952    -5742    -5538    -5339    -5147    -4965    -4790 
   -4624    -4466    -4316    -4172    -4036    -3907    -3781    -3661 
   -3543    -3423    -3304    -3187    -3066    -2946    -2826    -2705 
   -2585    -2468    -2352    -2238    -2127    -2020    -1917    -1820 
   -1726    -1637    -1556    -1482    -1413    -1352    -1300    -1255 
   -1220    -1198    -1186    -1183    -1190    -1211    -1241    -1282 
   -1338    -1409    -1495    -1598    -1719    -1859    -2015    -2188 
   -2380    -2587    -2807    -3043    -3293    -3555    -3836    -4131 
   -4437    -4756    -5092    -5441    -5801    -6170    -6547    -6931 
   -7322    -7718    -8117    -8516    -8911    -9302    -9688   -10062 
  -10421   -10768   -11102   -11421   -11724   -12014   -12291   -12556 
  -12808   -13050   -13281   -13498   -13708   -13913   -14113   -14308 
  -14502   -14696   -14888   -15081   -15276   -15468   -15656   -15842 
  -16025   -16204   -16372   -16530   -16679   -16815   -16939   -17050 
  -17149   -17236   -17313   -17374   -17423   -17469   -17504   -17517 
  -17519   -17522   -17517   -17498   -17473   -17440   -17395   -17343 
  -17287   -17225   -17158   -17088   -17016   -16944   -16875   -16805 
  -16734   -16665   -16596   -16527   -16460   -16397   -16336   -16274 
  -16211   -16148   -16083   -16015   -15946   -15877   -15807   -15734 
  -15660   -15584   -15506   -15430   -15355   -15277   -15193   -15108 
  -15020   -14930   -14841   -14755   -14671   -14588   -14509   -14433 
  -14361   -14291   -14223   -14160   -14100   -14041   -13985   -13934 
  -13893   -13855   -13820   -13788   -13761   -13738   -13720   -13704 
  -13684   -13665   -13645   -13621   -13595   -13567   -13535   -13497 
  -13451   -13397   -13333   -13255   -13167   -13068   -12957   -12835 
  -12702   -12556   -12399   -12237   -12066   -11882   -11693   -11502 
  -11304   -11104   -10902   -10693   -10479   -10264   -10042    -9816 
   -9590    -9362    -9133    -8904    -8675    -8450    -8229    -8010 
   -7797    -7589    -7388    -7189    -6994    -6808    -6630    -6458 
   -6295    -6144    -6007    -5883    -5771    -5666    -5569    -5481 
   -5402    -5329    -5265    -5207    -5153    -5105    -5065    -5031 
   -5004    -4984    -4971    -4967    -4975    -4992    -5021    -5064 
   -5118    -5185    -5271    -5375    -5492    -5628    -5781    -5950 
   -6133    -6332    -6543    -6769    -7006    -7251    -7506    -7772 
   -8049    -8335    -8625    -8917    -9212    -9506    -9802   -10097 
  -10388   -10678   -10967   -11251   -11532   -11813   -12092   -12366 
  -12639   -12908   -13170   -13429   -13683   -13926   -14159   -14382 
  -14593   -14790   -14971   -15138   -15287   -15420   -15537   -15633 
  -15709   -15768   -15804   -15816   -15805   -15769   -15710   -15630 
  -15527   -15400   -15251   -15080   -14887   -14680   -14457   -14220 
  -13971   -13713   -13443   -13165   -12883   -12594   -12300   -12002 
  -11700   -11396   -11088   -10777   -10465   -10151    -9834    -9514 
   -9195    -8877    -8562    -8249    -7940    -7640    -7349    -7071 
   -6807    -6557    -6322    -6102    -5897    -5704    -5521    -5350 
   -5188    -5034    -4890    -4757    -4631    -4509    -4395    -4287 
   -4182    -4081    -3984    -3891    -3804    -3722    -3646    -3578 
   -3516    -3464    -3420    -3387    -3367    -3361    -3369    -3393 
   -3432    -3486    -3559    -3649    -3753    -3872    -4009    -4158 
   -4319    -4494    -4683    -4882    -5094    -5317    -5550    -5791 
   -6042    -6301    -6567    -6838    -7113    -7392    -7675    -7960 
   -8244    -8530    -8819    -9107    -9394    -9683    -9970   -10256 
  -10542   -10825   -11102   -11372   -11635   -11890   -12134   -12363 
  -12576   -12775   -12958   -13124   -13278   -13418   -13537   -13634 
  -13712   -13767   -13800   -13817   -13821   -13814   -13794   -13762 
  -13716   -13658   -13587   -13504   -13407   -13299   -13182   -13054 
  -12919   -12782   -12640   -12491   -12336   -12172   -12001   -11820 
  -11631   -11436   -11235   -11026   -10812   -10592   -10365   -10133 
   -9899    -9662    -9419    -9174    -8928    -8684    -8441    -8200 
   -7961    -7725    -7493    -7267    -7049    -6838    -6639    -6453 
   -6275    -6110    -5959    -5818    -5688    -5569    -5459    -5358 
   -5266    -5185    -5115    -5050    -4993    -4948    -4914    -4890 
   -4879    -4883    -4901    -4933    -4981    -5043    -5121    -5212 
   -5315    -5428    -5551    -5683    -5821    -5969    -6127    -6289 
   -6458    -6637    -6827    -7024    -7229    -7443    -7670    -7906 
   -8150    -8405    -8670    -8945    -9230    -9526    -9834   -10153 
  -10480   -10815   -11160   -11506   -11854   -12207   -12560   -12909 
  -13258   -13603   -13944   -14280   -14613   -14941   -15263   -15577 
  -15878   -16162   -16434   -16691   -16932   -17161   -17376   -17574 
  -17760   -17936   -18097   -18244   -18379   -18501   -18608   -18704 
  -18791   -18868   -18938   -18996   -19045   -19085   -19115   -19136 
  -19148   -19153   -19155   -19154   -19145   -19136   -19127   -19114 
  -19102   -19088   -19067   -19042   -19009   -18967   -18918   -18860 
  -18791   -18714   -18624   -18522   -18410   -18289   -18157   -18014 
  -17861   -17701   -17535   -17362   -17179   -16986   -16783   -16568 
  -16350   -16131   -15904   -15666   -15420   -15163   -14895   -14620 
  -14345   -14068   -13789   -13512   -13237   -12970   -12713   -12462 
  -12219   -11988   -11767   -11557   -11366   -11192   -11032   -10885 
  -10751   -10628   -10514   -10411   -10320   -10234   -10154   -10080 
  -10009    -9941    -9876    -9812    -9751    -9696    -9643    -9592 
   -9544    -9495    -9446    -9398    -9350    -9299    -9245    -9189 
   -9134    -9079    -9019    -8957    -8893    -8823    -8748    -8669 
   -8583    -8491    -8395    -8293    -8189    -8080    -7968    -7859 
   -7747    -7637    -7531    -7423    -7313    -7208    -7103    -6994 
   -6888    -6783    -6680    -6582    -6490    -6403    -6326    -6261 
   -6210    -6169    -6138    -6122    -6115    -6118    -6134    -6157 
   -6188    -6234    -6288    -6350    -6423    -6507    -6597    -6695 
   -6799    -6905    -7013    -7123    -7232    -7334    -7435    -7535 
   -7627    -7712    -7792    -7867    -7937    -8002    -8060    -8112 
   -8156    -8190    -8217    -8239    -8249    -8246    -8240    -8227 
   -8209    -8190    -8164    -8125    -8093    -8070    -8044    -8019 
   -7997    -7968    -7938    -7913    -7886    -7856    -7826    -7791 
   -7753    -7710    -7658    -7602    -7538    -7460    -7373    -7279 
   -7175    -7065    -6950    -6826    -6699    -6579    -6463    -6354 
   -6257    -6169    -6091    -6022    -5959    -5903    -5850    -5800 
   -5754    -5712    -5670    -5631    -5595    -5560    -5530    -5506 
   -5488    -5479    -5480    -5490    -5514    -5552    -5603    -5661 
   -5731    -5816    -5913    -6021    -6143    -6277    -6420    -6573 
   -6738    -6905    -7077    -7258    -7447    -7641    -7845    -8061 
   -8286    -8519    -8762    -9018    -9282    -9555    -9839   -10133 
  -10436   -10745   -11055   -11368   -11679   -11986   -12289   -12586 
  -12873   -13149   -13415   -13668   -13913   -14147   -14367   -14579 
  -14779   -14966   -15142   -15311   -15471   -15622   -15763   -15899 
  -16030   -16150   -16262   -16369   -16468   -16559   -16645   -16723 
  -16800   -16877   -16947   -17013   -17076   -17136   -17195   -17248 
  -17294   -17336   -17371   -17401   -17422   -17430   -17424   -17406 
  -17374   -17331   -17273   -17201   -17116   -17010   -16882   -16733 
  -16562   -16371   -16164   -15940   -15697   -15440   -15171   -14891 
  -14603   -14308   -14005   -13699   -13395   -13090   -12787   -12488 
  -12189   -11890   -11592   -11297   -11007   -10720   -10437   -10165 
   -9901    -9645    -9400    -9165    -8935    -8712    -8496    -8280 
   -8069    -7863    -7656    -7454    -7252    -7052    -6860    -6672 
   -6489    -6318    -6158    -6010    -5878    -5756    -5644    -5550 
   -5471    -5403    -5348    -5303    -5266    -5238    -5220    -5209 
   -5204    -5208    -5224    -5248    -5276    -5312    -5355    -5406 
   -5466    -5537    -5617    -5706    -5805    -5911    -6029    -6157 
   -6295    -6448    -6614    -6792    -6984    -7189    -7405    -7632 
   -7867    -8108    -8354    -8608    -8866    -9129    -9395    -9663 
   -9936   -10210   -10484   -10761   -11043   -11323   -11606   -11891 
  -12172   -12452   -12736   -13018   -13292   -13561   -13825   -14078 
  -14319   -14550   -14768   -14973   -15162   -15335   -15494   -15636 
  -15761   -15870   -15968   -16053   -16121   -16173   -16211   -16235 
  -16244   -16237   -16217   -16183   -16136   -16078   -16009   -15928 
  -15835   -15731   -15628   -15533   -15437   -15338   -15243   -15144 
  -15042   -14946   -14853   -14759   -14663   -14566   -14469   -14374 
  -14278   -14184   -14090   -13991   -13890   -13791   -13691   -13592 
  -13494   -13389   -13277   -13163   -13046   -12922   -12793   -12660 
  -12521   -12377   -12227   -12074   -11919   -11762   -11599   -11428 
  -11250   -11064   -10869   -10664   -10452   -10236   -10017    -9795 
   -9571    -9351    -9131    -8913    -8704    -8504    -8311    -8127 
   -7956    -7796    -7647    -7509    -7384    -7270    -7170    -7085 
   -7011    -6952    -6909    -6877    -6855    -6847    -6849    -6858 
   -6874    -6900    -6934    -6976    -7027    -7084    -7151    -7234 
   -7328    -7431    -7552    -7685    -7827    -7981    -8147    -8313 
   -8482    -8660    -8834    -9000    -9165    -9325    -9477    -9625 
   -9766    -9898   -10024   -10145   -10258   -10362   -10455   -10538 
  -10610   -10668   -10715   -10751   -10774   -10787   -10789   -10778 
  -10758   -10730   -10692   -10646   -10593   -10537   -10479   -10414 
  -10348   -10279   -10210   -10141   -10073   -10007    -9944    -9885 
   -9831    -9782    -9734    -9691    -9652    -9612    -9576    -9543 
   -9508    -9476    -9446    -9419    -9399    -9380    -9364    -9354 
   -9343    -9334    -9331    -9326    -9319    -9316    -9309    -9296 
   -9279    -9258    -9230    -9191    -9142    -9086    -9020    -8946 
   -8863    -8772    -8673    -8566    -8449    -8327    -8202    -8071 
   -7938    -7806    -7672    -7539    -7413    -7288    -7162    -7042 
   -6930    -6821    -6721    -6632    -6551    -6486    -6432    -6387 
   -6357    -6338    -6325    -6322    -6328    -6338    -6356    -6381 
   -6409    -6443    -6480    -6519    -6561    -6602    -6640    -6677 
   -6711    -6739    -6761    -6777    -6786    -6783    -6765    -6736 
   -6699    -6651    -6594    -6531    -6467    -6404    -6345    -6290 
   -6244    -6211    -6191    -6185    -6195    -6219    -6258    -6313 
   -6381    -6464    -6562    -6674    -6803    -6950    -7113    -7297 
   -7498    -7712    -7943    -8190    -8451    -8723    -9008    -9307 
   -9614    -9932   -10265   -10610   -10966   -11336   -11717   -12105 
  -12503   -12905   -13308   -13715   -14121   -14526   -14928   -15323 
  -15710   -16091   -16463   -16825   -17185   -17547   -17903   -18247 
  -18572   -18877   -19160   -19428   -19688   -19939   -20177   -20404 
  -20616   -20816   -21007   -21183   -21343   -21482   -21601   -21706 
  -21803   -21891   -21968   -22032   -22077   -22106   -22120   -22118 
  -22105   -22079   -22037   -21982   -21913   -21829   -21733   -21623 
  -21499   -21364   -21214   -21047   -20865   -20665   -20449   -20219 
  -19974   -19712   -19435   -19143   -18836   -18516   -18186   -17844 
  -17494   -17135   -16768   -16395   -16020   -15639   -15254   -14867 
  -14478   -14089   -13698   -13304   -12916   -12533   -12151   -11776 
  -11411   -11055   -10708   -10372   -10050    -9747    -9459    -9186 
   -8931    -8694    -8476    -8279    -8096    -7929    -7777    -7636 
   -7506    -7387    -7275    -7172    -7077    -6989    -6909    -6836 
   -6769    -6712    -6660    -6611    -6568    -6526    -6483    -6447 
   -6411    -6375    -6339    -6303    -6266    -6231    -6201    -6166 
   -6127    -6091    -6055    -6015    -5970    -5924    -5874    -5818 
   -5760    -5701    -5647    -5594    -5544    -5500    -5462    -5432 
   -5408    -5387    -5370    -5361    -5356    -5355    -5361    -5373 
   -5391    -5418    -5460    -5513    -5572    -5644    -5728    -5817 
   -5917    -6024    -6130    -6238    -6351    -6463    -6573    -6683 
   -6788    -6891    -6993    -7092    -7190    -7287    -7383    -7475 
   -7565    -7649    -7726    -7801    -7873    -7938    -7998    -8054 
   -8109    -8161    -8210    -8259    -8307    -8355    -8406    -8461 
   -8518    -8577    -8638    -8701    -8767    -8834    -8903    -8973 
   -9046    -9121    -9194    -9268    -9343    -9416    -9490    -9560 
   -9625    -9694    -9762    -9825    -9887    -9952   -10015   -10073 
  -10131   -10188   -10241   -10297   -10354   -10406   -10456   -10507 
  -10549   -10586   -10620   -10646   -10662   -10673   -10676   -10669 
  -10657   -10640   -10617   -10590   -10561   -10528   -10496   -10466 
  -10435   -10405   -10379   -10357   -10340   -10330   -10329   -10337 
  -10351   -10376   -10412   -10455   -10508   -10571   -10641   -10721 
  -10810   -10907   -11010   -11120   -11237   -11362   -11491   -11625 
  -11763   -11904   -12049   -12197   -12343   -12487   -12626   -12759 
  -12885   -13001   -13110   -13209   -13298   -13376   -13443   -13497 
  -13538   -13570   -13589   -13597   -13593   -13576   -13548   -13510 
  -13464   -13408   -13340   -13265   -13186   -13092   -12983   -12872 
  -12756   -12628   -12495   -12359   -12219   -12075   -11932   -11793 
  -11654   -11514   -11372   -11231   -11091   -10959   -10835   -10711 
  -10592   -10485   -10380   -10273   -10172   -10079    -9991    -9901 
   -9812    -9731    -9650    -9566    -9489    -9416    -9339    -9262 
   -9186    -9108    -9028    -8947    -8864    -8779    -8691    -8597 
   -8500    -8401    -8298    -8191    -8085    -7979    -7873    -7769 
   -7668    -7568    -7472    -7382    -7294    -7211    -7138    -7074 
   -7019    -6975    -6943    -6924    -6919    -6926    -6949    -6984 
   -7028    -7085    -7156    -7236    -7322    -7415    -7514    -7618 
   -7725    -7837    -7953    -8073    -8197    -8326    -8463    -8607 
   -8756    -8915    -9081    -9255    -9437    -9627    -9824   -10030 
  -10244   -10466   -10695   -10930   -11169   -11416   -11667   -11918 
  -12171   -12426   -12681   -12936   -13185   -13427   -13670   -13905 
  -14130   -14348   -14558   -14757   -14945   -15122   -15285   -15438 
  -15582   -15711   -15830   -15950   -16056   -16141   -16224   -16315 
  -16397   -16471   -16549   -16623   -16690   -16757   -16823   -16884 
  -16939   -16993   -17042   -17083   -17117   -17145   -17169   -17187 
  -17191   -17189   -17185   -17172   -17147   -17108   -17050   -16977 
  -16889   -16782   -16658   -16516   -16353   -16170   -15968   -15748 
  -15510   -15254   -14982   -14696   -14394   -14074   -13737   -13392 
  -13033   -12657   -12272   -11879   -11478   -11072   -10666   -10258 
   -9849    -9447    -9050    -8654    -8270    -7900    -7541    -7198 
   -6876    -6567    -6277    -6010    -5763    -5536    -5330    -5145 
   -4985    -4850    -4730    -4628    -4547    -4482    -4431    -4396 
   -4375    -4367    -4374    -4393    -4424    -4465    -4515    -4577 
   -4648    -4727    -4812    -4906    -5004    -5107    -5216    -5329 
   -5444    -5565    -5691    -5823    -5960    -6104    -6252    -6407 
   -6569    -6741    -6921    -7104    -7296    -7498    -7710    -7930 
   -8159    -8396    -8638    -8890    -9152    -9418    -9688    -9963 
  -10245   -10532   -10822   -11114   -11407   -11701   -11996   -12290 
  -12579   -12863   -13143   -13417   -13684   -13944   -14194   -14437 
  -14675   -14902   -15110   -15305   -15496   -15677   -15844   -15998 
  -16137   -16259   -16364   -16452   -16523   -16572   -16601   -16613 
  -16609   -16588   -16549   -16491   -16417   -16327   -16219   -16099 
  -15967   -15826   -15673   -15503   -15316   -15113   -14895   -14663 
  -14418   -14159   -13885   -13594   -13292   -12982   -12666   -12349 
  -12031   -11711   -11393   -11083   -10778   -10480   -10193    -9915 
   -9647    -9389    -9142    -8907    -8685    -8473    -8271    -8082 
   -7906    -7739    -7583    -7442    -7312    -7191    -7081    -6981 
   -6892    -6812    -6741    -6680    -6626    -6577    -6537    -6500 
   -6466    -6437    -6410    -6384    -6358    -6334    -6308    -6282 
   -6258    -6236    -6213    -6191    -6168    -6145    -6124    -6104 
   -6084    -6065    -6050    -6039    -6030    -6027    -6031    -6041 
   -6060    -6088    -6121    -6155    -6194    -6239    -6287    -6336 
   -6385    -6434    -6485    -6540    -6598    -6658    -6722    -6794 
   -6874    -6959    -7050    -7148    -7253    -7362    -7475    -7597 
   -7721    -7848    -7980    -8117    -8257    -8403    -8552    -8704 
   -8861    -9025    -9191    -9359    -9531    -9703    -9871   -10034 
  -10195   -10349   -10495   -10637   -10772   -10897   -11014   -11124 
