Origin Time       2011/03/11 14:46:00
Lat.              38.103
Long.             142.860
Depth. (km)       24
Mag.              9.0
Station Code      HKD074
Station Lat.      43.3680
Station Long.     145.8026
Station Height(m) 16
Record Time       2011/03/11 14:48:05
Sampling Freq(Hz) 100Hz
Duration Time(s)  300
Dir.              U-D
Scale Factor      3920(gal)/6182761
Max. Acc. (gal)   8.117
Last Correction   2011/03/11 14:47:50
Memo.             
[...]
  -30423   -30289   -29562   -28601   -27947   -28254   -29823   -32018 
  -33728   -34197   -33386   -31829   -30013   -28510   -28268   -29710 
  -32093   -33910   -33883   -31935   -29147   -27058   -26734   -27771 
  -28812   -29337   -29839   -30548   -31271   -31972   -32530   -32355 
  -30962   -28883   -27410   -27372   -28801   -31163   -33249   -33822 
  -32605   -30437   -28551   -27532   -27359   -28132   -29721   -31208 
  -31849   -32007   -32184   -32258   -32132   -31784   -30866   -29314 
  -27735   -26527   -25733   -25981   -28165   -31879   -35239   -36650 
  -35820   -33290   -30130   -27621   -26366   -26128   -26713   -28010 
  -29546   -30912   -31909   -32284   -31851   -30843   -30181   -30416 
  -30702   -30296   -29565   -29138   -29291   -29829   -30591   -31161 
  -30749   -30036   -30667   -32484   -33791   -33378   -31297   -28889 
  -27856   -28574   -29946   -30826   -30771   -29933   -29123   -29342 
  -30399   -30985   -30605   -29945   -29449   -29201   -29390   -29946 
  -30780   -31942   -32886   -32804   -31761   -30724   -30313   -30243 
  -30116   -29698   -29087   -29072   -30083   -31289   -31786   -31542 
  -30714   -29603   -29121   -29847   -31175   -32159   -32384   -31785 
  -30791   -30327   -30765   -31614   -32357   -32766   -32623   -31775 
  -30300   -28517   -27176   -27085   -28326   -30191   -31591   -31835 
  -31289   -30820   -30854   -31218   -31364   -30842   -29982   -29400 
  -29352   -30193   -31949   -33549   -33701   -32069   -29146   -26057 
  -24639   -25866   -28551   -30822   -31665   -31185   -30301   -30034 
  -30795   -31995   -32774   -32949   -32383   -30763   -28836   -28020 
  -28571   -29642   -30518   -31079   -31672   -32365   -32460   -31379 
  -29810   -29125   -29777   -31204   -32311   -31861   -29914   -28002 
  -27436   -28319   -29749   -30877   -31595   -31871   -31462   -30615 
  -29952   -29712   -29812   -30093   -30148   -29770   -29407   -29543 
  -30377   -31835   -33062   -33093   -32132   -31010   -29979   -28872 
  -27818   -27258   -27652   -29040   -30696   -31766   -31974   -31323 
  -30033   -28943   -28879   -29766   -30812   -31228   -30670   -29358 
  -28241   -28451   -30113   -32015   -32469   -31095   -29350   -28578 
  -29139   -30929   -32980   -33879   -33032   -30998   -29187   -28719 
  -29517   -30884   -32149   -32769   -32252   -30617   -28762   -27534 
  -27448   -28763   -30697   -31988   -32118   -31441   -30567   -30054 
  -30373   -31007   -30933   -30070   -28739   -27559   -27583   -28827 
  -30213   -30914   -30738   -29940   -28751   -27357   -26622   -27882 
  -31497   -35647   -37440   -35575   -31255   -27079   -25443   -26954 
  -29968   -32332   -33050   -32053   -30148   -28716   -28471   -29274 
  -30849   -32906   -34491   -34487   -32837   -30225   -27652   -26512 
  -27489   -29663   -31689   -33097   -33643   -32938   -31239   -29319 
  -28126   -28383   -29843   -31677   -32962   -32774   -31073   -28939 
  -27697   -28104   -29891   -31908   -32695   -31596   -29404   -27313 
  -26146   -26483   -28339   -30939   -32959   -33378   -32287   -30780 
  -30077   -30612   -32037   -33297   -33079   -31255   -29169   -28334 
  -29113   -31031   -33607   -35671   -35925   -34635   -32730   -30648 
  -28979   -28339   -28545   -28961   -29290   -29591   -29768   -29401 
  -28422   -27782   -28595   -30539   -32171   -32408   -31044   -29326 
  -29061   -30132   -30969   -30766   -30052   -29746   -29876   -29930 
  -29793   -29608   -29655   -29935   -29912   -29308   -28510   -28221 
  -28862   -29998   -30853   -31205   -31171   -30958   -30879   -30837 
  -30485   -29963   -29648   -29657   -29880   -30263   -30908   -31728 
  -32297   -32206   -31195   -29258   -27102   -25971   -26582   -28774 
  -31856   -34350   -34644   -32673   -29940   -27948   -27186   -27621 
  -29236   -31307   -32506   -32224   -30725   -28645   -27239   -28028 
  -31142   -34654   -36263   -35091   -32014   -28899   -27178   -26926 
  -27600   -28921   -30263   -30654   -30059   -29178   -28325   -27865 
  -28600   -30446   -32210   -33241   -33602   -32978   -31191   -29068 
  -27811   -28343   -30576   -32979   -34088   -33531   -31660   -29464 
  -28183   -28467   -29661   -30358   -30150   -29744   -29491   -29334 
  -29505   -30080   -30673   -31156   -31752   -32204   -32008   -31451 
  -31014   -30608   -30457   -31137   -32470   -33561   -33576   -32136 
  -29641   -27480   -27009   -28006   -29219   -30071   -30508   -30141 
  -28906   -28074   -29156   -31498   -32903   -32695   -31857   -31283 
  -31423   -32135   -32764   -33151   -33414   -33110   -31904   -30150 
  -28601   -27912   -27904   -27894   -27771   -27903   -28670   -30178 
  -31946   -33178   -33164   -31859   -30262   -29366   -29269   -29325 
  -28879   -28257   -28188   -28712   -29821   -31691   -33561   -34222 
  -33716   -32984   -32288   -31377   -30464   -29737   -29121   -28838 
  -28915   -28978   -29160   -30127   -31803   -32769   -31803   -29613 
  -28232   -29010   -31578   -34325   -35498   -34163   -30664   -26505 
  -23591   -23367   -26052   -30089   -33377   -34737   -33876   -31736 
  -30053   -29737   -30746   -32360   -33343   -32895   -31192   -29254 
  -28133   -28199   -29297   -30794   -31701   -31294   -29955   -29160 
  -29958   -31923   -33525   -33324   -31415   -29207   -27795   -27526 
  -28091   -28681   -28756   -28289   -27772   -28086   -29508   -31120 
  -31789   -31560   -31380   -31722   -32040   -31589   -30635   -30025 
  -29820   -29487   -28932   -28290   -27647   -27714   -29057   -30955 
  -32140   -32016   -31061   -30091   -29484   -29428   -30044   -30791 
  -30699   -29938   -29619   -29749   -30011   -31286   -33283   -33560 
  -31173   -28108   -26382   -26220   -26850   -27489   -27972   -28703 
  -29973   -31773   -33440   -33811   -32643   -30700   -28860   -28315 
  -30046   -33230   -35489   -35231   -32799   -29442   -26444   -25053 
  -25860   -28092   -30294   -31595   -31947   -31751   -31655   -31851 
  -31915   -31808   -31974   -32518   -32774   -31895   -29876   -27522 
  -26002   -26415   -29066   -32873   -35198   -34036   -30645   -27891 
  -27126   -28397   -31225   -33840   -34178   -32089   -29099   -26821 
  -26413   -28247   -31150   -33113   -33111   -31320   -28549   -26257 
  -25839   -27890   -31862   -35655   -36890   -34856   -30828   -27232 
  -25968   -27075   -29522   -32229   -33642   -32714   -30552   -28912 
  -28371   -29038   -30673   -31986   -31876   -30716   -29565   -29124 
  -29462   -30461   -32406   -34889   -35847   -33835   -30101   -26926 
  -25837   -27631   -31567   -34984   -35637   -33495   -29818   -26026 
  -23711   -23973   -26265   -29164   -31376   -31922   -30987   -29811 
  -29423   -30096   -31428   -32765   -33547   -33352   -32348   -31301 
  -30612   -30091   -29664   -29599   -30012   -30277   -29388   -27351 
  -25487   -25217   -27450   -32152   -37222   -39415   -37333   -32369 
  -27167   -24292   -24999   -28267   -31824   -33776   -33590   -32394 
  -31480   -31145   -31266   -31442   -31068   -30047   -29139   -29315 
  -30387   -31192   -31236   -30743   -30188   -30312   -31330   -32289 
  -31943   -30454   -29566   -30593   -32689   -34044   -34063   -32766 
  -30299   -27952   -26935   -27104   -27924   -29231   -31069   -32895 
  -33568   -32777   -31106   -28781   -26096   -24411   -25327   -28557 
  -31424   -31836   -30398   -28791   -28486   -30247   -33067   -35073 
  -35484   -34842   -33875   -32608   -30869   -28754   -26682   -25686 
  -26317   -27874   -29509   -30850   -31573   -31109   -29705   -29050 
  -30230   -32255   -33341   -32538   -30053   -27032   -25369   -26500 
  -30132   -34439   -36958   -36061   -32132   -27179   -24008   -24712 
  -28409   -32106   -34138   -34696   -34113   -32799   -31953   -32208 
  -32321   -31208   -29470   -27947   -26826   -26276   -26854   -28599 
  -30658   -32426   -33653   -33947   -33165   -31843   -30973   -31103 
  -31774   -31981   -31199   -29990   -29129   -28613   -28044   -27119 
  -25845   -24872   -25087   -26826   -29660   -32538   -34362   -34819 
  -34444   -33829   -33217   -32740   -32497   -32616   -32784   -31677 
  -28608   -25212   -23641   -24444   -26887   -29698   -31654   -32298 
  -32288   -32479   -32736   -32962   -33642   -34427   -34199   -32581 
  -30668   -29639   -29030   -27938   -26751   -26373   -27156   -29222 
  -32016   -33660   -33012   -30967   -28877   -27793   -28334   -30290 
  -32766   -34553   -34502   -31932   -27761   -24625   -24535   -27338 
  -31190   -33831   -34080   -32470   -30548   -29531   -30056   -31808 
  -33106   -32749   -30902   -28266   -25959   -24919   -25193   -26247 
  -27436   -28176   -28378   -28531   -29050   -30057   -31274   -32397 
  -33580   -34502   -34082   -31835   -28781   -26676   -26429   -27596 
  -29096   -29923   -29615   -28842   -28635   -28948   -29154   -29031 
  -29139   -30413   -32865   -35159   -35766   -34760   -33304   -31600 
  -29551   -27807   -27151   -27736   -28786   -29579   -29912   -29812 
  -30041   -31321   -33042   -33650   -32448   -30647   -29667   -29840 
  -30874   -31580   -30558   -28518   -27821   -29011   -30695   -31892 
  -31701   -29818   -28138   -28626   -30951   -33433   -34399   -32906 
  -29546   -26217   -24802   -26391   -30480   -34731   -36963   -36648 
  -34603   -32112   -29992   -28703   -28400   -28606   -28689   -28150 
  -27363   -27757   -29677   -31991   -33804   -34664   -34601   -34193 
  -33800   -33281   -32111   -30070   -27852   -26577   -27020   -28879 
  -30761   -31296   -30277   -28773   -28165   -28876   -30497   -32669 
  -34550   -34738   -32919   -30386   -28306   -26711   -25740   -26061 
  -28080   -31701   -35803   -38100   -36958   -33432   -30130   -28703 
  -29260   -30570   -31013   -29906   -27883   -26705   -27822   -31037 
  -35004   -37634   -36971   -33014   -27610   -23419   -23006   -26780 
  -32486   -36765   -36862   -32819   -27347   -23229   -22346   -24863 
  -28620   -31248   -32145   -31956   -31451   -31244   -31509   -31986 
  -32574   -32902   -32431   -31542   -30929   -30465   -29538   -28066 
  -26926   -26867   -27545   -28595   -29867   -30546   -30647   -31403 
  -32832   -33838   -33925   -33496   -33210   -32719   -31087   -28340 
  -25784   -24898   -25662   -27132   -28899   -30894   -32944   -34543 
  -34975   -33846   -31548   -29146   -27717   -27798   -28811   -29452 
  -29214   -28470   -27938   -29057   -32376   -35687   -36352   -34355 
  -31624   -29368   -27770   -27104   -27151   -27512   -28749   -31078 
  -33034   -32972   -30963   -28326   -26495   -26787   -29502   -33133 
  -35531   -35536   -33856   -32005   -30184   -28105   -26269   -25082 
  -24756   -25569   -27280   -29054   -30539   -31869   -32304   -31592 
  -31233   -31877   -32336   -31833   -30569   -28462   -26096   -25598 
  -27633   -30007   -30548   -29314   -27777   -26991   -27379   -28900 
  -30787   -31973   -31708   -30631   -30788   -33089   -35738   -36231 
  -33804   -29477   -25279   -23624   -25705   -30123   -34005   -35510 
  -34635   -32232   -29678   -28520   -29238   -31108   -32934   -33717 
  -33164   -31458   -29212   -27397   -26515   -26609   -27520   -28545 
  -29005   -29214   -30022   -31330   -32369   -33166   -33763   -33537 
  -32546   -31620   -31399   -31954   -32693   -32560   -30944   -28492 
  -26391   -25777   -27404   -30600   -33321   -33714   -32037   -29938 
  -28178   -27235   -27627   -28877   -30158   -31179   -31886   -31779 
  -30496   -29489   -31018   -34844   -38512   -40151   -38764   -34378 
  -28896   -24682   -22722   -22913   -24972   -27948   -30108   -30528 
  -29496   -27986   -27657   -29639   -33306   -36734   -38001   -36752 
  -34366   -32294   -30829   -29405   -27900   -27091   -27385   -28198 
  -28917   -29345   -29226   -28645   -28517   -29538   -31582   -34200 
  -36591   -37540   -36056   -31941   -26409   -22429   -22429   -25711 
  -29389   -30979   -29773   -27012   -25485   -27001   -30469   -33924 
  -35892   -35228   -31678   -26464   -22316   -21294   -23530   -28330 
  -33584   -36546   -36871   -36237   -35893   -35927   -35799   -34903 
  -33135   -31255   -29922   -28829   -27660   -26434   -24989   -23793 
  -23891   -25194   -27042   -29682   -32967   -35527   -36417   -35982 
  -35219   -34850   -34872   -34598   -33065   -30109   -26524   -23440 
  -22484   -24597   -28480   -31986   -33549   -32662   -30714   -29344 
  -28708   -28790   -30002   -32354   -34957   -36177   -34721   -30700 
  -25938   -23133   -23858   -27383   -31600   -34749   -35879   -34494 
  -30905   -26737   -24176   -24296   -26291   -28254   -28866   -28292 
  -27811   -28854   -31354   -33792   -34657   -33343   -30837   -28781 
  -28062   -28462   -28990   -29318   -29889   -30790   -31818   -32277 
  -31434   -29926   -29045   -29236   -30122   -31190   -32201   -33032 
  -33528   -33493   -32582   -30716   -28733   -27947   -28542   -29309 
  -29276   -28639   -28473   -29294   -30426   -31415   -31982   -31510 
  -30601   -31144   -33724   -36587   -37690   -36243   -32641   -28377 
  -25172   -23751   -23795   -24705   -26261   -28239   -29978   -30804 
  -30711   -30463   -30512   -30569   -30260   -29376   -28451   -28672 
  -30155   -31620   -32142   -31704   -30451   -28780   -27736   -27983 
  -28854   -29716   -31020   -32864   -33982   -33202   -30932   -28363 
  -26575   -26452   -27669   -28572   -28590   -29015   -30260   -31268 
  -31974   -33183   -35307   -38461   -41766   -43192   -41084   -35733 
  -29275   -23973   -21484   -22499   -25609   -28260   -29412   -29614 
  -29022   -27787   -27295   -28666   -31249   -33688   -35060   -34619 
  -32686   -31157   -30700   -30063   -28684   -27078   -26012   -26428 
  -28654   -32073   -35592   -37702   -37441   -35268   -32231   -29689 
  -28524   -27773   -26395   -24828   -23559   -22800   -23304   -25628 
  -29033   -32142   -34392   -35614   -35274   -33686   -32278   -31623 
  -31241   -31398   -32244   -32500   -31592   -30468   -29768   -29537 
  -29614   -29325   -28162   -26853   -26338   -26051   -25146   -24589 
  -25543   -27460   -29453   -31119   -32104   -32462   -32560   -32638 
  -32381   -31132   -29453   -28955   -30020   -31496   -32653   -33385 
  -32949   -31352   -30154   -30116   -31106   -33098   -35107   -35288 
  -32649   -27950   -23256   -20540   -20956   -24818   -30648   -35434 
  -36923   -34868   -30898   -27409   -26291   -28281   -32005   -35031 
  -36185   -35442   -33174   -30174   -27926   -27854   -29597   -31750 
  -33393   -33855   -32718   -30287   -28064   -28149   -31072   -34872 
  -36532   -34566   -30147   -25730   -23390   -23565   -25319   -28237 
  -32368   -36416   -38127   -36668   -33456   -30581   -29156   -28987 
  -28924   -28130   -27509   -28601   -31797   -36014   -39191   -39845 
  -37768   -33528   -28416   -24239   -22222   -22112   -23049   -24221 
  -25184   -26668   -29350   -32879   -36393   -38634   -38914   -37372 
  -34375   -30945   -28279   -26925   -26690   -27110   -28270   -29891 
  -30977   -31086   -30308   -29270   -28603   -28003   -27838   -29186 
  -31632   -33815   -34544   -33034   -30033   -27581   -26880   -27078 
  -26623   -25495   -25311   -27366   -31011   -34607   -37032   -37683 
  -36843   -35408   -33547   -30879   -27528   -24510   -22919   -22692 
  -23145   -23831   -24445   -25378   -27611   -31602   -36325   -39355 
  -38943   -35385   -30690   -27618   -27347   -28552   -29507   -29725 
  -29722   -29588   -28859   -28442   -29564   -31336   -32693   -34319 
  -36705   -38837   -39351   -37553   -33696   -29235   -26059   -24464 
  -23299   -22504   -23175   -25812   -29602   -32557   -33181   -31882 
  -30408   -30259   -30885   -30108   -26902   -22966   -21627   -24969 
  -31505   -37252   -38886   -36329   -32604   -30419   -30666   -32649 
  -33661   -32049   -29549   -28271   -28513   -29566   -30275   -29422 
  -27051   -24717   -24462   -27481   -32614   -37286   -39612   -38718 
  -35105   -30657   -27094   -25067   -24630   -25642   -27661   -29642 
  -30141   -28999   -28061   -28876   -31433   -34879   -37599   -37994 
  -35962   -33289   -31717   -31095   -30961   -30758   -28884   -25577 
  -23393   -23400   -24734   -26796   -29200   -31051   -31788   -31599 
  -30707   -29849   -30166   -31372   -32249   -32202   -31165   -29773 
  -29035   -29294   -30671   -32956   -34421   -33381   -30444   -27438 
  -25836   -26061   -26888   -27053   -27122   -28149   -29683   -30405 
  -30240   -30029   -29720   -29208   -29137   -29727   -30912   -32880 
  -35397   -37243   -36498   -32953   -29441   -28742   -30748   -33214 
  -33870   -31418   -26589   -23001   -23695   -27853   -32629   -35780 
  -36817   -36273   -34423   -31960   -30083   -29421   -30514   -33706 
  -37091   -37652   -34882   -30862   -28082   -27404   -27569   -26974 
  -24959   -22665   -22448   -24836   -28165   -30770   -31280   -29458 
  -27194   -26010   -26049   -28078   -32259   -36458   -38606   -38083 
  -35047   -31151   -28567   -27613   -27624   -28505   -29805   -30223 
  -29639   -29480   -30073   -30636   -31018   -30944   -30118   -29494 
  -29909   -30817   -31512   -31729   -31559   -31305   -30508   -28671 
  -26640   -25795   -27441   -32057   -37223   -38672   -34707   -27594 
  -21066   -18404   -20972   -26763   -32371   -35805   -36618   -35655 
  -34068   -32000   -29131   -25948   -24076   -24358   -25759   -27340 
  -28943   -30359   -31814   -33950   -36098   -36754   -35709   -33688 
  -31939   -31874   -33155   -34022   -33534   -32187   -30925   -30193 
  -30006   -29930   -29105   -27661   -27251   -28628   -30847   -33507 
  -36129   -36730   -33935   -28572   -23249   -20575   -21310   -24815 
  -29016   -30928   -30108   -28696   -28009   -28461   -30740   -34673 
  -38642   -40696   -39895   -36723   -32149   -27377   -24089   -23662 
  -26058   -29141   -30722   -30512   -28924   -27096   -26874   -28976 
  -32133   -34004   -34023   -33262   -31504   -28473   -25394   -23492 
  -23452   -25596   -29049   -31428   -30973   -28830   -27768   -29325 
  -32631   -35453   -36638   -36530   -35445   -33874   -32709   -31712 
  -29736   -27158   -25557   -25267   -25617   -26410   -27462   -27792 
  -27166   -27345   -29594   -32686   -34709   -35330   -35684   -36500 
  -36910   -35643   -32955   -30220   -28487   -27971   -28147   -28297 
  -27786   -26922   -27089   -28206   -28686   -28181   -27529   -27372 
  -27978   -29412   -31291   -32712   -33312   -33787   -34873   -36027 
  -35476   -32568   -28927   -26789   -27189   -28999   -30023   -29032 
  -26793   -25685   -26873   -29033   -30750   -32217   -34017   -35511 
  -35909   -35257   -33505   -30898   -28864   -28925   -31119   -33887 
  -35306   -34206   -30950   -27495   -25912   -27005   -29845   -32323 
  -33189   -32433   -30065   -27071   -25824   -27532   -30729   -32678 
  -31637   -28415   -25621   -25119   -27401   -31787   -35833   -37082 
  -35239   -32312   -31064   -31899   -33076   -33269   -31707   -29058 
  -27422   -27149   -27181   -27881   -29689   -31751   -33486   -33877 
  -31419   -27589   -25936   -27529   -30596   -32779   -32705   -31096 
  -30263   -31544   -33735   -34568   -32920   -29712   -27245   -27672 
  -31185   -34826   -35047   -31517   -26506   -23167   -24066   -28328 
