Origin Time       2011/03/11 14:46:00
Lat.              38.103
Long.             142.860
Depth. (km)       24
Mag.              9.0
Station Code      HKD018
Station Lat.      44.5453
Station Long.     141.9653
Station Height(m) 126
Record Time       2011/03/11 14:49:47
Sampling Freq(Hz) 100Hz
Duration Time(s)  183
Dir.              U-D
Scale Factor      3920(gal)/6182761
Max. Acc. (gal)   2.701
Last Correction   2011/03/11 14:49:32
Memo.             
[...]
    3638     3675     3711     3745     3776     3806     3832     3851 
    3868     3879     3883     3883     3878     3865     3841     3806 
    3762     3710     3657     3606     3556     3507     3458     3403 
    3347     3289     3227     3161     3095     3036     2982     2935 
    2891     2849     2809     2767     2725     2685     2644     2599 
    2555     2510     2467     2426     2386     2349     2313     2278 
    2246     2216     2191     2172     2157     2145     2132     2126 
    2123     2124     2129     2141     2154     2165     2173     2174 
    2174     2175     2174     2174     2184     2197     2213     2230 
    2244     2259     2278     2299     2325     2358     2393     2433 
    2482     2528     2573     2618     2660     2696     2729     2757 
    2781     2802     2818     2830     2840     2851     2861     2868 
    2868     2861     2850     2835     2818     2799     2779     2759 
    2743     2731     2721     2716     2719     2727     2737     2748 
    2757     2757     2751     2740     2720     2690     2660     2625 
    2586     2543     2496     2438     2366     2281     2188     2085 
    1976     1864     1751     1636     1520     1404     1291     1179 
    1071      970      874      785      703      628      561      505 
     456      413      381      363      354      355      364      380 
     404      435      473      516      565      620      685      758 
     838      926     1019     1116     1212     1308     1406     1506 
    1601     1693     1780     1857     1924     1983     2034     2074 
    2105     2126     2136     2139     2135     2126     2115     2105 
    2096     2089     2081     2071     2060     2048     2033     2011 
    1988     1964     1939     1916     1897     1880     1864     1851 
    1838     1824     1810     1798     1790     1785     1784     1789 
    1800     1810     1820     1832     1845     1862     1884     1910 
    1940     1970     1996     2024     2056     2088     2121     2155 
    2190     2225     2259     2292     2324     2357     2387     2413 
    2439     2461     2479     2495     2510     2522     2531     2538 
    2542     2542     2545     2553     2563     2574     2586     2598 
    2610     2622     2633     2644     2654     2661     2670     2683 
    2695     2701     2705     2705     2700     2700     2703     2705 
    2709     2718     2730     2748     2768     2790     2816     2842 
    2866     2891     2918     2946     2976     3005     3035     3063 
    3089     3121     3154     3184     3215     3243     3265     3284 
    3299     3312     3326     3339     3351     3363     3381     3400 
    3414     3423     3431     3436     3441     3447     3454     3460 
    3464     3465     3462     3457     3455     3456     3459     3464 
    3469     3475     3479     3481     3482     3488     3499     3509 
    3519     3534     3553     3577     3611     3651     3696     3743 
    3790     3839     3890     3942     3994     4042     4085     4125 
    4158     4182     4202     4217     4228     4239     4249     4255 
    4256     4249     4237     4217     4191     4165     4146     4131 
    4120     4111     4099     4084     4068     4045     4013     3978 
    3937     3888     3828     3761     3690     3617     3544     3473 
    3400     3327     3255     3181     3102     3019     2932     2841 
    2747     2654     2564     2476     2392     2312     2235     2164 
    2099     2036     1972     1904     1832     1760     1684     1608 
    1536     1469     1409     1354     1304     1260     1224     1193 
    1169     1155     1144     1136     1138     1143     1149     1163 
    1182     1205     1231     1260     1295     1330     1360     1390 
    1420     1449     1477     1505     1534     1562     1585     1602 
    1617     1630     1640     1646     1644     1637     1628     1610 
    1585     1555     1515     1468     1414     1348     1275     1197 
    1115     1028      940      853      762      670      580      493 
     407      324      239      156       79       -2      -88     -171 
    -249     -321     -383     -441     -495     -547     -596     -638 
    -672     -701     -723     -738     -751     -760     -763     -762 
    -753     -735     -711     -679     -638     -587     -529     -465 
    -395     -323     -252     -178     -104      -35       35      108 
     181      255      330      403      475      545      616      685 
     755      830      907      988     1072     1155     1239     1325 
    1409     1490     1569     1645     1717     1781     1836     1882 
    1920     1948     1965     1978     1993     2009     2026     2046 
    2060     2066     2067     2063     2052     2037     2022     2005 
    1989     1977     1968     1961     1955     1946     1933     1915 
    1890     1862     1833     1797     1756     1709     1657     1605 
    1558     1515     1481     1456     1437     1428     1429     1439 
    1461     1492     1526     1567     1612     1657     1710     1771 
    1836     1906     1977     2045     2109     2170     2230     2288 
    2348     2410     2470     2526     2576     2620     2656     2688 
    2719     2751     2783     2817     2850     2882     2915     2946 
    2973     2994     3005     3009     3008     2995     2969     2937 
    2892     2835     2767     2690     2605     2518     2434     2353 
    2273     2195     2119     2045     1980     1925     1878     1843 
    1818     1801     1796     1801     1817     1843     1876     1911 
    1950     1995     2041     2085     2129     2176     2222     2269 
    2313     2351     2386     2415     2441     2466     2490     2512 
    2530     2548     2568     2584     2600     2616     2628     2637 
    2644     2647     2646     2638     2623     2601     2571     2537 
    2499     2458     2417     2374     2325     2277     2230     2182 
    2136     2091     2048     2012     1979     1948     1923     1906 
    1892     1886     1886     1891     1899     1912     1933     1961 
    1997     2038     2083     2136     2193     2251     2310     2365 
    2419     2468     2515     2562     2604     2642     2680     2714 
    2742     2770     2793     2809     2823     2832     2834     2834 
    2830     2823     2814     2804     2794     2786     2777     2764 
    2748     2732     2715     2698     2685     2675     2659     2645 
    2635     2621     2600     2574     2546     2516     2482     2442 
    2404     2370     2337     2305     2276     2247     2215     2183 
    2151     2117     2084     2054     2021     1985     1948     1905 
    1861     1816     1768     1721     1678     1635     1593     1554 
    1516     1481     1448     1420     1397     1376     1359     1347 
    1341     1342     1351     1367     1387     1417     1460     1509 
    1566     1638     1717     1795     1882     1979     2072     2158 
    2247     2331     2404     2472     2537     2594     2647     2694 
    2733     2771     2809     2843     2878     2917     2953     2984 
    3010     3030     3049     3061     3064     3067     3071     3074 
    3078     3086     3091     3091     3089     3082     3075     3066 
    3055     3041     3028     3015     3001     2990     2982     2979 
    2982     2991     3008     3028     3047     3070     3095     3118 
    3142     3168     3190     3210     3230     3248     3261     3273 
    3284     3293     3300     3305     3309     3316     3324     3329 
    3331     3328     3321     3312     3301     3288     3274     3260 
    3244     3226     3207     3184     3158     3135     3113     3094 
    3076     3060     3044     3024     2998     2973     2949     2927 
    2907     2892     2880     2865     2848     2830     2810     2783 
    2751     2717     2682     2644     2603     2560     2514     2466 
    2419     2370     2318     2266     2212     2156     2098     2037 
    1978     1916     1852     1794     1740     1686     1635     1586 
    1538     1496     1463     1437     1417     1406     1404     1409 
    1424     1446     1471     1504     1542     1579     1620     1667 
    1714     1765     1819     1873     1928     1979     2027     2076 
    2122     2165     2211     2254     2297     2338     2377     2412 
    2445     2473     2495     2509     2517     2522     2523     2522 
    2518     2511     2503     2493     2477     2461     2446     2428 
    2407     2383     2358     2335     2315     2295     2273     2254 
    2238     2225     2215     2211     2214     2219     2228     2247 
    2273     2303     2340     2382     2428     2482     2544     2612 
    2687     2769     2856     2943     3026     3105     3179     3247 
    3315     3378     3433     3479     3516     3540     3553     3556 
    3547     3533     3514     3491     3460     3419     3371     3316 
    3254     3187     3121     3054     2987     2924     2866     2822 
    2789     2760     2735     2715     2694     2671     2650     2623 
    2586     2545     2503     2455     2408     2363     2317     2271 
    2230     2188     2143     2098     2056     2014     1976     1942 
    1914     1892     1876     1865     1855     1851     1854     1858 
    1864     1874     1883     1895     1907     1920     1928     1931 
    1936     1946     1954     1963     1974     1979     1979     1978 
    1976     1976     1976     1974     1972     1973     1976     1980 
    1983     1987     1998     2017     2041     2066     2090     2112 
    2131     2148     2162     2177     2192     2210     2233     2264 
    2297     2331     2366     2402     2434     2464     2496     2529 
    2559     2585     2609     2631     2653     2673     2691     2708 
    2720     2726     2731     2731     2726     2721     2717     2713 
    2707     2701     2692     2677     2658     2637     2611     2585 
    2560     2533     2505     2476     2445     2411     2376     2341 
    2305     2273     2241     2208     2178     2156     2137     2114 
    2090     2065     2035     2003     1968     1931     1892     1856 
    1823     1791     1765     1746     1728     1715     1709     1707 
    1708     1710     1713     1716     1718     1720     1723     1729 
    1736     1742     1747     1753     1761     1772     1781     1787 
    1793     1798     1801     1802     1805     1812     1816     1819 
    1822     1822     1820     1818     1815     1813     1811     1803 
    1792     1786     1780     1772     1768     1764     1761     1761 
    1764     1767     1777     1791     1804     1816     1833     1850 
    1868     1888     1910     1932     1949     1960     1965     1968 
    1969     1966     1957     1946     1931     1910     1882     1850 
    1814     1771     1724     1673     1617     1554     1488     1420 
    1350     1279     1208     1136     1064      992      923      857 
     793      729      667      603      537      475      415      351 
     288      227      171      118       62        8      -42      -93 
    -143     -188     -235     -285     -334     -382     -432     -480 
    -522     -564     -607     -647     -684     -722     -757     -784 
    -808     -827     -844     -861     -875     -884     -890     -896 
    -900     -899     -896     -896     -895     -894     -899     -908 
    -917     -926     -941     -962     -988    -1017    -1044    -1070 
   -1097    -1121    -1144    -1164    -1181    -1198    -1216    -1232 
   -1246    -1257    -1263    -1262    -1257    -1247    -1234    -1221 
   -1206    -1191    -1176    -1158    -1136    -1116    -1104    -1095 
   -1087    -1082    -1079    -1078    -1080    -1082    -1084    -1086 
   -1088    -1089    -1089    -1088    -1083    -1079    -1076    -1071 
   -1068    -1071    -1073    -1073    -1072    -1065    -1053    -1036 
   -1018     -999     -979     -960     -942     -925     -908     -890 
    -869     -848     -825     -802     -780     -757     -731     -702 
    -669     -635     -600     -560     -515     -468     -421     -379 
    -342     -308     -275     -243     -212     -181     -151     -121 
     -93      -67      -41      -20       -1       20       43       70 
      99      126      152      181      213      247      284      321 
     356      388      415      435      450      460      467      478 
     489      505      527      549      578      609      641      678 
     713      743      773      803      828      854      877      892 
     903      910      917      926      935      945      956      967 
     978      990     1004     1024     1050     1081     1119     1159 
    1200     1246     1298     1351     1406     1466     1530     1593 
    1652     1709     1765     1819     1875     1934     1995     2054 
    2110     2163     2215     2263     2310     2356     2403     2449 
    2497     2545     2592     2640     2691     2742     2798     2858 
    2916     2972     3026     3078     3127     3175     3227     3281 
    3338     3399     3458     3514     3571     3628     3683     3737 
    3788     3839     3892     3945     4000     4057     4120     4187 
    4252     4319     4390     4461     4530     4602     4675     4745 
    4816     4891     4965     5039     5117     5193     5267     5340 
    5414     5488     5563     5640     5721     5804     5884     5961 
    6039     6114     6181     6240     6294     6347     6399     6445 
    6485     6517     6540     6555     6561     6559     6556     6548 
    6533     6517     6499     6476     6449     6421     6392     6360 
    6325     6288     6249     6204     6154     6100     6043     5986 
    5928     5870     5805     5738     5674     5611     5547     5478 
    5410     5343     5277     5211     5150     5096     5051     5007 
    4963     4922     4880     4837     4798     4760     4722     4682 
    4641     4599     4555     4509     4464     4422     4382     4349 
    4320     4291     4264     4235     4200     4162     4125     4085 
    4045     4007     3975     3945     3915     3887     3863     3840 
    3814     3786     3755     3722     3687     3650     3617     3589 
    3565     3542     3522     3506     3490     3474     3462     3449 
    3437     3426     3419     3411     3404     3401     3401     3402 
    3405     3407     3407     3407     3406     3403     3395     3380 
    3364     3347     3328     3309     3293     3278     3257     3231 
    3205     3179     3154     3126     3098     3073     3050     3029 
    3013     2999     2985     2974     2965     2954     2942     2928 
    2912     2896     2881     2867     2854     2841     2829     2819 
    2817     2819     2823     2836     2858     2884     2914     2949 
    2989     3032     3073     3115     3157     3193     3227     3258 
    3282     3303     3320     3335     3348     3354     3352     3343 
    3323     3294     3260     3218     3171     3121     3068     3015 
    2964     2916     2870     2827     2787     2750     2711     2669 
    2624     2578     2530     2480     2434     2394     2356     2320 
    2288     2259     2235     2218     2207     2200     2198     2200 
    2202     2207     2213     2218     2228     2245     2264     2290 
    2320     2345     2369     2392     2412     2431     2449     2464 
    2474     2484     2495     2504     2517     2534     2546     2556 
    2562     2564     2561     2554     2545     2533     2514     2496 
    2484     2477     2471     2470     2476     2483     2491     2501 
    2514     2525     2534     2541     2550     2560     2570     2578 
    2585     2592     2596     2601     2612     2623     2633     2649 
    2668     2689     2715     2747     2782     2821     2864     2910 
    2960     3013     3068     3124     3178     3232     3285     3336 
    3386     3440     3492     3539     3581     3617     3647     3672 
    3691     3703     3711     3711     3702     3686     3662     3627 
    3588     3546     3499     3452     3404     3353     3300     3246 
    3189     3131     3074     3014     2953     2894     2834     2778 
    2728     2683     2642     2610     2585     2564     2547     2535 
    2528     2525     2522     2519     2515     2507     2496     2483 
    2464     2441     2417     2388     2358     2329     2294     2255 
    2215     2171     2123     2076     2027     1978     1931     1885 
    1839     1798     1761     1724     1688     1657     1629     1604 
    1585     1573     1561     1551     1548     1547     1549     1553 
    1559     1567     1573     1573     1569     1560     1543     1520 
    1495     1470     1445     1418     1392     1370     1348     1329 
    1313     1295     1278     1261     1242     1219     1194     1171 
    1148     1121     1092     1066     1038     1008      983      959 
     940      926      913      902      893      881      868      857 
     848      840      834      829      828      828      828      832 
     845      863      888      923      966     1013     1067     1127 
    1191     1261     1336     1413     1492     1568     1639     1708 
    1778     1846     1914     1982     2050     2118     2182     2240 
    2292     2336     2375     2409     2437     2461     2482     2502 
    2522     2542     2560     2576     2588     2597     2605     2611 
    2613     2615     2616     2618     2622     2627     2631     2636 
    2643     2654     2668     2681     2691     2702     2712     2716 
    2718     2722     2724     2723     2722     2722     2722     2724 
    2725     2723     2721     2721     2721     2722     2728     2738 
    2747     2758     2770     2780     2786     2792     2798     2802 
    2804     2808     2815     2819     2825     2829     2831     2834 
    2836     2840     2846     2849     2852     2859     2867     2876 
    2889     2902     2914     2928     2944     2959     2980     3006 
    3028     3045     3068     3090     3110     3132     3152     3171 
    3190     3209     3228     3249     3269     3293     3319     3346 
    3377     3406     3430     3456     3478     3493     3505     3516 
    3526     3534     3541     3545     3544     3538     3524     3504 
    3476     3439     3398     3355     3310     3270     3232     3194 
    3160     3126     3093     3066     3038     3009     2983     2958 
    2928     2898     2866     2831     2794     2754     2714     2678 
    2640     2600     2562     2523     2480     2440     2401     2360 
    2319     2275     2228     2182     2138     2092     2047     2000 
    1953     1908     1862     1816     1774     1732     1690     1650 
    1611     1570     1528     1486     1445     1405     1371     1343 
    1322     1306     1297     1300     1312     1327     1346     1369 
    1402     1443     1487     1531     1578     1630     1680     1726 
    1769     1812     1853     1891     1926     1957     1985     2010 
    2033     2054     2071     2089     2104     2116     2125     2124 
    2117     2106     2088     2064     2041     2019     2001     1988 
    1975     1964     1958     1952     1943     1938     1933     1932 
    1931     1930     1933     1942     1953     1970     1998     2033 
    2076     2128     2184     2248     2317     2390     2471     2558 
