Origin Time       2011/03/11 14:46:00
Lat.              38.103
Long.             142.860
Depth. (km)       24
Mag.              9.0
Station Code      HKD009
Station Lat.      44.8417
Station Long.     142.4811
Station Height(m) 23
Record Time       2011/03/11 14:49:55
Sampling Freq(Hz) 100Hz
Duration Time(s)  110
Dir.              N-S
Scale Factor      3920(gal)/6182761
Max. Acc. (gal)   2.026
Last Correction   2011/03/11 14:49:40
Memo.             
[...]
  -18660   -18605   -18567   -18542   -18527   -18515   -18498   -18469 
  -18433   -18396   -18352   -18300   -18249   -18188   -18105   -18024 
  -17943   -17862   -17808   -17779   -17767   -17794   -17847   -17905 
  -17985   -18095   -18211   -18325   -18428   -18508   -18562   -18593 
  -18615   -18627   -18612   -18592   -18580   -18545   -18486   -18417 
  -18328   -18229   -18145   -18081   -18032   -17999   -17972   -17943 
  -17923   -17919   -17928   -17939   -17946   -17953   -17959   -17962 
  -17970   -17982   -17983   -17985   -17991   -17986   -17967   -17963 
  -17984   -18019   -18071   -18134   -18189   -18239   -18295   -18353 
  -18410   -18464   -18510   -18552   -18587   -18605   -18607   -18597 
  -18568   -18533   -18504   -18469   -18421   -18364   -18302   -18248 
  -18202   -18149   -18083   -18016   -17941   -17861   -17791   -17739 
  -17703   -17679   -17659   -17639   -17611   -17577   -17542   -17500 
  -17448   -17386   -17312   -17229   -17145   -17072   -17020   -16984 
  -16951   -16910   -16859   -16812   -16785   -16787   -16817   -16864 
  -16917   -16964   -17001   -17034   -17057   -17072   -17087   -17095 
  -17090   -17081   -17072   -17058   -17047   -17049   -17065   -17080 
  -17083   -17060   -17015   -16963   -16909   -16857   -16813   -16772 
  -16724   -16675   -16622   -16557   -16475   -16383   -16292   -16203 
  -16110   -16023   -15951   -15892   -15846   -15815   -15801   -15809 
  -15837   -15875   -15926   -16001   -16097   -16200   -16293   -16370 
  -16435   -16491   -16542   -16588   -16617   -16625   -16626   -16630 
  -16635   -16644   -16660   -16676   -16683   -16688   -16691   -16690 
  -16692   -16701   -16716   -16737   -16764   -16798   -16835   -16871 
  -16899   -16911   -16909   -16915   -16942   -16983   -17030   -17068 
  -17083   -17083   -17070   -17034   -16991   -16964   -16960   -16978 
  -17014   -17069   -17139   -17220   -17305   -17395   -17490   -17587 
  -17686   -17781   -17867   -17953   -18051   -18159   -18268   -18356 
  -18400   -18407   -18397   -18383   -18371   -18353   -18324   -18292 
  -18257   -18212   -18155   -18091   -18024   -17958   -17897   -17840 
  -17788   -17742   -17695   -17660   -17651   -17658   -17675   -17699 
  -17719   -17736   -17759   -17782   -17798   -17813   -17829   -17848 
  -17873   -17903   -17947   -18010   -18088   -18175   -18260   -18340 
  -18416   -18479   -18508   -18499   -18457   -18385   -18287   -18177 
  -18060   -17949   -17857   -17779   -17705   -17629   -17550   -17480 
  -17436   -17415   -17415   -17439   -17470   -17514   -17591   -17691 
  -17807   -17930   -18042   -18141   -18234   -18317   -18386   -18442 
  -18482   -18507   -18516   -18507   -18479   -18433   -18381   -18335 
  -18297   -18270   -18254   -18243   -18225   -18209   -18201   -18191 
  -18178   -18165   -18138   -18097   -18051   -17999   -17943   -17894 
  -17861   -17838   -17817   -17795   -17777   -17770   -17770   -17764 
  -17746   -17715   -17673   -17626   -17568   -17496   -17416   -17331 
  -17252   -17196   -17163   -17139   -17127   -17134   -17142   -17148 
  -17159   -17179   -17207   -17240   -17276   -17319   -17365   -17415 
  -17483   -17562   -17635   -17701   -17748   -17771   -17775   -17766 
  -17756   -17756   -17759   -17755   -17749   -17753   -17775   -17823 
  -17886   -17952   -18009   -18048   -18067   -18068   -18057   -18045 
  -18033   -18012   -17992   -17983   -17976   -17968   -17971   -17981 
  -17982   -17978   -17971   -17958   -17942   -17929   -17912   -17882 
  -17833   -17775   -17719   -17673   -17641   -17618   -17591   -17558 
  -17520   -17467   -17401   -17335   -17264   -17200   -17155   -17114 
  -17066   -17027   -17009   -17007   -17015   -17019   -17013   -17007 
  -17006   -17005   -17000   -16987   -16974   -16963   -16946   -16916 
  -16864   -16789   -16705   -16626   -16545   -16463   -16404   -16369 
  -16350   -16343   -16334   -16306   -16264   -16227   -16198   -16179 
  -16173   -16174   -16172   -16164   -16146   -16120   -16082   -16034 
  -15986   -15937   -15889   -15847   -15810   -15789   -15797   -15829 
  -15875   -15933   -16000   -16073   -16151   -16231   -16316   -16408 
  -16501   -16592   -16691   -16795   -16898   -17000   -17092   -17167 
  -17224   -17254   -17265   -17278   -17283   -17266   -17237   -17197 
  -17142   -17090   -17059   -17044   -17036   -17033   -17029   -17012 
  -16983   -16957   -16934   -16902   -16861   -16814   -16754   -16691 
  -16640   -16596   -16556   -16516   -16483   -16482   -16526   -16599 
  -16680   -16767   -16862   -16957   -17053   -17161   -17283   -17414 
  -17541   -17644   -17718   -17766   -17803   -17845   -17879   -17894 
  -17903   -17910   -17910   -17911   -17907   -17886   -17862   -17845 
  -17826   -17821   -17842   -17882   -17934   -17988   -18037   -18079 
  -18107   -18127   -18158   -18185   -18191   -18176   -18148   -18123 
  -18111   -18111   -18128   -18162   -18203   -18235   -18253   -18273 
  -18309   -18346   -18376   -18405   -18445   -18490   -18525   -18549 
  -18564   -18576   -18580   -18568   -18549   -18527   -18486   -18429 
  -18370   -18316   -18283   -18270   -18263   -18257   -18255   -18261 
  -18272   -18288   -18314   -18359   -18424   -18501   -18598   -18706 
  -18804   -18880   -18928   -18948   -18946   -18932   -18920   -18907 
  -18886   -18870   -18863   -18858   -18847   -18832   -18821   -18816 
  -18811   -18812   -18815   -18815   -18812   -18801   -18777   -18752 
  -18731   -18709   -18686   -18661   -18631   -18610   -18598   -18586 
  -18572   -18555   -18545   -18542   -18542   -18540   -18528   -18515 
  -18518   -18535   -18551   -18561   -18567   -18561   -18541   -18507 
  -18455   -18402   -18370   -18351   -18335   -18317   -18295   -18270 
  -18239   -18193   -18141   -18095   -18056   -18015   -17956   -17874 
  -17794   -17730   -17668   -17596   -17517   -17443   -17373   -17293 
  -17198   -17084   -16964   -16875   -16817   -16753   -16673   -16593 
  -16525   -16461   -16372   -16267   -16166   -16057   -15945   -15857 
  -15785   -15707   -15612   -15504   -15397   -15299   -15214   -15151 
  -15107   -15084   -15088   -15097   -15094   -15100   -15129   -15173 
  -15215   -15257   -15307   -15363   -15420   -15480   -15547   -15619 
  -15691   -15760   -15817   -15856   -15887   -15915   -15926   -15914 
  -15907   -15936   -15991   -16051   -16109   -16158   -16203   -16258 
  -16327   -16403   -16481   -16561   -16658   -16791   -16940   -17080 
  -17226   -17386   -17544   -17697   -17852   -18013   -18163   -18281 
  -18377   -18460   -18530   -18593   -18655   -18712   -18754   -18790 
  -18837   -18897   -18957   -19004   -19034   -19071   -19130   -19207 
  -19288   -19353   -19400   -19440   -19474   -19501   -19521   -19540 
  -19558   -19561   -19557   -19556   -19538   -19493   -19444   -19399 
  -19356   -19319   -19281   -19243   -19208   -19173   -19141   -19112 
  -19072   -19023   -18978   -18941   -18907   -18872   -18830   -18774 
  -18704   -18630   -18551   -18457   -18347   -18222   -18096   -17985 
  -17885   -17788   -17694   -17616   -17555   -17498   -17445   -17389 
  -17330   -17291   -17273   -17252   -17224   -17193   -17168   -17147 
  -17118   -17065   -16990   -16913   -16848   -16794   -16747   -16715 
  -16708   -16718   -16732   -16748   -16746   -16728   -16721   -16729 
  -16734   -16743   -16766   -16789   -16800   -16810   -16822   -16824 
  -16814   -16803   -16796   -16785   -16750   -16688   -16622   -16557 
  -16488   -16423   -16365   -16306   -16243   -16180   -16117   -16075 
  -16054   -16033   -15995   -15936   -15882   -15852   -15822   -15775 
  -15719   -15675   -15669   -15682   -15678   -15658   -15636   -15643 
  -15692   -15746   -15792   -15857   -15937   -16013   -16091   -16176 
  -16259   -16347   -16440   -16522   -16593   -16666   -16745   -16823 
  -16900   -16981   -17053   -17122   -17212   -17306   -17375   -17436 
  -17528   -17646   -17761   -17866   -17957   -18034   -18114   -18203 
  -18283   -18350   -18410   -18465   -18520   -18572   -18619   -18658 
  -18679   -18684   -18687   -18679   -18654   -18625   -18591   -18550 
  -18511   -18476   -18440   -18411   -18388   -18355   -18326   -18325 
  -18342   -18365   -18391   -18410   -18415   -18418   -18442   -18484 
  -18520   -18531   -18518   -18493   -18469   -18456   -18456   -18450 
  -18432   -18415   -18398   -18378   -18356   -18329   -18315   -18317 
  -18318   -18316   -18311   -18289   -18250   -18215   -18186   -18163 
  -18144   -18120   -18095   -18083   -18087   -18105   -18130   -18145 
  -18162   -18207   -18278   -18351   -18397   -18410   -18424   -18453 
  -18471   -18475   -18474   -18470   -18456   -18435   -18416   -18395 
  -18346   -18258   -18151   -18041   -17928   -17822   -17721   -17602 
  -17486   -17411   -17371   -17342   -17322   -17320   -17327   -17324 
  -17298   -17257   -17223   -17208   -17210   -17225   -17245   -17278 
  -17331   -17369   -17356   -17313   -17272   -17240   -17200   -17144 
  -17094   -17066   -17037   -16995   -16940   -16880   -16831   -16794 
  -16765   -16748   -16740   -16737   -16753   -16797   -16845   -16893 
  -16945   -16983   -17026   -17093   -17157   -17198   -17225   -17258 
  -17307   -17355   -17378   -17382   -17382   -17365   -17329   -17302 
  -17285   -17263   -17249   -17240   -17223   -17185   -17126   -17067 
  -17012   -16944   -16883   -16845   -16821   -16809   -16807   -16802 
  -16779   -16748   -16728   -16733   -16759   -16783   -16785   -16782 
  -16784   -16785   -16780   -16772   -16760   -16740   -16720   -16703 
  -16675   -16635   -16597   -16567   -16546   -16537   -16548   -16559 
  -16554   -16551   -16557   -16563   -16560   -16521   -16451   -16388 
  -16353   -16332   -16305   -16259   -16199   -16134   -16072   -16021 
  -15985   -15960   -15962   -16003   -16052   -16094   -16147   -16215 
  -16297   -16392   -16484   -16571   -16666   -16757   -16827   -16876 
  -16910   -16951   -17002   -17031   -17039   -17047   -17053   -17057 
  -17056   -17043   -17041   -17063   -17087   -17087   -17079   -17079 
  -17081   -17088   -17119   -17172   -17238   -17303   -17365   -17426 
  -17477   -17520   -17563   -17598   -17620   -17636   -17658   -17691 
  -17716   -17728   -17738   -17741   -17715   -17672   -17639   -17616 
  -17587   -17553   -17536   -17537   -17536   -17536   -17554   -17570 
  -17565   -17574   -17610   -17639   -17661   -17698   -17758   -17834 
  -17902   -17952   -18004   -18059   -18108   -18166   -18226   -18268 
  -18306   -18359   -18416   -18466   -18506   -18525   -18537   -18561 
  -18570   -18556   -18549   -18557   -18572   -18604   -18648   -18682 
  -18705   -18731   -18768   -18801   -18819   -18825   -18830   -18838 
  -18854   -18885   -18915   -18924   -18917   -18903   -18881   -18840 
  -18756   -18638   -18523   -18416   -18316   -18236   -18166   -18099 
  -18049   -18013   -17964   -17896   -17833   -17792   -17777   -17779 
  -17778   -17753   -17706   -17660   -17633   -17607   -17554   -17475 
  -17392   -17326   -17280   -17238   -17201   -17176   -17157   -17134 
  -17092   -17033   -16967   -16897   -16834   -16771   -16695   -16614 
  -16538   -16477   -16435   -16406   -16388   -16382   -16383   -16395 
  -16411   -16413   -16415   -16440   -16457   -16421   -16349   -16271 
  -16197   -16139   -16085   -16021   -15959   -15903   -15862   -15841 
  -15823   -15807   -15798   -15784   -15762   -15722   -15660   -15602 
  -15565   -15545   -15542   -15544   -15534   -15528   -15549   -15598 
  -15657   -15704   -15743   -15789   -15833   -15871   -15915   -15969 
  -16035   -16095   -16129   -16144   -16156   -16161   -16161   -16161 
  -16159   -16171   -16211   -16257   -16289   -16309   -16330   -16363 
  -16388   -16392   -16383   -16356   -16298   -16209   -16102   -15994 
  -15899   -15799   -15682   -15567   -15473   -15393   -15311   -15241 
  -15203   -15190   -15180   -15172   -15176   -15173   -15166   -15192 
  -15249   -15309   -15368   -15435   -15510   -15591   -15676   -15756 
  -15821   -15873   -15911   -15944   -15982   -16016   -16038   -16069 
  -16117   -16174   -16239   -16311   -16373   -16419   -16473   -16548 
  -16624   -16687   -16753   -16836   -16910   -16959   -16999   -17029 
  -17033   -17032   -17036   -17020   -16991   -16971   -16952   -16924 
  -16886   -16832   -16782   -16755   -16740   -16719   -16691   -16648 
  -16591   -16547   -16534   -16534   -16533   -16537   -16570   -16642 
  -16725   -16802   -16883   -16963   -17030   -17096   -17167   -17249 
  -17334   -17400   -17446   -17492   -17537   -17578   -17629   -17689 
  -17749   -17813   -17885   -17965   -18041   -18099   -18154   -18222 
  -18297   -18371   -18444   -18524   -18610   -18695   -18777   -18856 
  -18933   -19007   -19061   -19096   -19109   -19083   -19034   -18985 
  -18928   -18862   -18806   -18753   -18699   -18653   -18597   -18512 
  -18423   -18356   -18310   -18270   -18216   -18152   -18076   -17974 
  -17855   -17728   -17599   -17478   -17375   -17296   -17231   -17171 
  -17135   -17119   -17105   -17101   -17114   -17125   -17109   -17059 
  -16999   -16957   -16923   -16874   -16793   -16680   -16563   -16465 
  -16374   -16274   -16163   -16051   -15959   -15875   -15778   -15671 
  -15566   -15474   -15409   -15354   -15285   -15223   -15195   -15175 
  -15125   -15047   -14976   -14921   -14859   -14787   -14719   -14649 
  -14575   -14518   -14470   -14410   -14351   -14313   -14299   -14303 
  -14317   -14341   -14378   -14424   -14482   -14557   -14640   -14727 
  -14820   -14938   -15089   -15244   -15383   -15518   -15655   -15795 
  -15931   -16044   -16119   -16175   -16232   -16284   -16304   -16285 
  -16258   -16249   -16255   -16271   -16288   -16299   -16323   -16366 
  -16416   -16481   -16572   -16678   -16770   -16828   -16871   -16918 
  -16972   -17030   -17098   -17159   -17202   -17243   -17310   -17407 
  -17512   -17602   -17667   -17714   -17754   -17785   -17804   -17804 
  -17791   -17795   -17826   -17842   -17825   -17796   -17767   -17748 
  -17747   -17751   -17749   -17757   -17793   -17838   -17867   -17893 
  -17922   -17947   -17970   -17993   -18034   -18100   -18162   -18213 
  -18276   -18346   -18414   -18480   -18530   -18551   -18541   -18514 
  -18484   -18443   -18387   -18319   -18251   -18194   -18144   -18090 
  -18034   -17990   -17958   -17937   -17921   -17899   -17877   -17864 
  -17849   -17840   -17857   -17892   -17926   -17948   -17965   -17997 
  -18031   -18053   -18073   -18095   -18121   -18158   -18197   -18216 
  -18214   -18210   -18222   -18252   -18277   -18274   -18250   -18223 
  -18192   -18144   -18084   -18038   -18010   -17971   -17908   -17841 
  -17781   -17741   -17729   -17735   -17741   -17749   -17766   -17777 
  -17784   -17820   -17887   -17962   -18044   -18144   -18260   -18380 
  -18483   -18553   -18596   -18632   -18671   -18691   -18679   -18657 
  -18633   -18611   -18606   -18605   -18586   -18561   -18553   -18575 
  -18616   -18650   -18663   -18669   -18684   -18697   -18688   -18651 
  -18604   -18564   -18522   -18472   -18424   -18378   -18319   -18240 
  -18145   -18060   -18003   -17939   -17846   -17747   -17651   -17552 
  -17449   -17341   -17232   -17131   -17039   -16964   -16913   -16855 
  -16772   -16681   -16596   -16521   -16464   -16425   -16398   -16399 
  -16434   -16469   -16486   -16502   -16531   -16578   -16638   -16698 
  -16756   -16817   -16875   -16922   -16955   -16980   -17012   -17047 
  -17066   -17054   -17008   -16942   -16862   -16757   -16633   -16515 
  -16428   -16369   -16321   -16272   -16220   -16176   -16156   -16157 
  -16181   -16225   -16269   -16294   -16300   -16311   -16347   -16398 
  -16449   -16508   -16578   -16647   -16707   -16752   -16774   -16798 
  -16835   -16867   -16888   -16905   -16911   -16894   -16860   -16820 
  -16782   -16741   -16693   -16645   -16601   -16564   -16552   -16564 
  -16573   -16573   -16577   -16587   -16603   -16633   -16686   -16757 
  -16810   -16841   -16872   -16909   -16950   -17002   -17060   -17124 
  -17198   -17272   -17338   -17399   -17463   -17544   -17642   -17728 
  -17796   -17858   -17909   -17947   -17974   -17994   -18000   -18001 
  -18015   -18035   -18043   -18046   -18044   -18050   -18083   -18120 
  -18130   -18131   -18145   -18165   -18180   -18177   -18159   -18135 
  -18103   -18070   -18028   -17960   -17875   -17790   -17707   -17617 
  -17503   -17358   -17193   -17032   -16894   -16773   -16653   -16544 
  -16466   -16412   -16367   -16327   -16286   -16245   -16226   -16223 
  -16205   -16171   -16134   -16099   -16074   -16055   -16027   -15984 
  -15937   -15895   -15859   -15827   -15804   -15790   -15779   -15778 
  -15794   -15803   -15790   -15773   -15747   -15705   -15665   -15634 
  -15613   -15603   -15586   -15544   -15497   -15454   -15412   -15370 
  -15323   -15274   -15242   -15230   -15235   -15267   -15311   -15357 
  -15421   -15504   -15596   -15701   -15820   -15938   -16048   -16158 
  -16275   -16403   -16538   -16679   -16825   -16964   -17092   -17220 
  -17346   -17464   -17578   -17689   -17784   -17854   -17893   -17909 
  -17921   -17943   -17968   -17991   -18003   -18006   -18017   -18048 
  -18086   -18121   -18155   -18187   -18221   -18252   -18272   -18288 
  -18315   -18338   -18336   -18322   -18322   -18345   -18369   -18383 
  -18414   -18473   -18538   -18606   -18693   -18790   -18885   -18976 
  -19049   -19103   -19157   -19207   -19258   -19322   -19378   -19417 
  -19451   -19475   -19488   -19491   -19488   -19487   -19482   -19459 
  -19418   -19360   -19283   -19210   -19153   -19083   -18992   -18901 
  -18811   -18717   -18609   -18488   -18368   -18254   -18146   -18031 
  -17899   -17756   -17622   -17498   -17384   -17280   -17190   -17122 
  -17076   -17036   -16998   -16971   -16952   -16914   -16866   -16832 
  -16809   -16782   -16754   -16727   -16703   -16692   -16693   -16700 
  -16706   -16711   -16720   -16724   -16720   -16721   -16729   -16726 
  -16709   -16682   -16649   -16624   -16614   -16594   -16556   -16519 
  -16481   -16437   -16407   -16400   -16398   -16386   -16365   -16333 
  -16293   -16251   -16215   -16190   -16178   -16185   -16207   -16229 
  -16241   -16249   -16257   -16261   -16259   -16245   -16208   -16159 
  -16114   -16072   -16032   -15996   -15969   -15940   -15907   -15884 
  -15874   -15869   -15861   -15835   -15786   -15735   -15700   -15675 
  -15661   -15663   -15676   -15700   -15732   -15758   -15771   -15777 
  -15790   -15821   -15860   -15890   -15902   -15893   -15866   -15842 
  -15831   -15835   -15848   -15857   -15854   -15846   -15840   -15842 
  -15855   -15871   -15878   -15877   -15886   -15917   -15957   -16005 
  -16074   -16167   -16274   -16394   -16522   -16642   -16748   -16848 
  -16945   -17050   -17168   -17292   -17417   -17540   -17658   -17771 
  -17874   -17970   -18064   -18158   -18254   -18352   -18447   -18539 
  -18627   -18711   -18796   -18884   -18973   -19048   -19109   -19178 
  -19261   -19344   -19420   -19484   -19531   -19566   -19598   -19629 
  -19662   -19698   -19726   -19738   -19742   -19740   -19734   -19732 
  -19736   -19747   -19763   -19770   -19756   -19732   -19707   -19692 
