Origin Time       2011/03/11 14:46:00
Lat.              38.103
Long.             142.860
Depth. (km)       24
Mag.              9.0
Station Code      HKD034
Station Lat.      43.8543
Station Long.     142.7686
Station Height(m) 350
Record Time       2011/03/11 14:49:22
Sampling Freq(Hz) 100Hz
Duration Time(s)  131
Dir.              E-W
Scale Factor      3920(gal)/6182761
Max. Acc. (gal)   3.325
Last Correction   2011/03/11 14:49:07
Memo.             
[...]
  -12329   -12227   -12089   -11928   -11760   -11597   -11444   -11300 
  -11167   -11048   -10939   -10836   -10732   -10618   -10491   -10360 
  -10251   -10190   -10186   -10240   -10346   -10488   -10646   -10786 
  -10878   -10917   -10908   -10854   -10757   -10621   -10471   -10341 
  -10237   -10141   -10035    -9916    -9787    -9655    -9516    -9361 
   -9196    -9034    -8874    -8734    -8639    -8596    -8592    -8607 
   -8638    -8686    -8742    -8789    -8813    -8795    -8740    -8688 
   -8669    -8697    -8774    -8880    -8981    -9050    -9077    -9075 
   -9050    -8998    -8940    -8910    -8918    -8967    -9053    -9158 
   -9279    -9415    -9548    -9663    -9751    -9803    -9817    -9804 
   -9777    -9749    -9720    -9685    -9660    -9668    -9714    -9786 
   -9869    -9954   -10022   -10063   -10081   -10102   -10151   -10234 
  -10336   -10442   -10537   -10604   -10637   -10640   -10602   -10520 
  -10418   -10329   -10285   -10305   -10379   -10489   -10627   -10787 
  -10952   -11104   -11230   -11317   -11354   -11348   -11317   -11288 
  -11275   -11279   -11293   -11311   -11333   -11368   -11417   -11479 
  -11547   -11619   -11691   -11760   -11831   -11902   -11962   -12009 
  -12040   -12057   -12075   -12107   -12150   -12188   -12215   -12241 
  -12265   -12298   -12347   -12404   -12466   -12535   -12609   -12689 
  -12775   -12851   -12909   -12942   -12940   -12901   -12842   -12776 
  -12706   -12631   -12555   -12492   -12466   -12489   -12548   -12623 
  -12689   -12714   -12687   -12630   -12555   -12467   -12374   -12297 
  -12252   -12230   -12212   -12173   -12097   -11998   -11897   -11812 
  -11759   -11741   -11741   -11744   -11747   -11754   -11774   -11806 
  -11855   -11912   -11958   -11993   -12024   -12051   -12083   -12112 
  -12095   -12002   -11851   -11684   -11535   -11407   -11288   -11183 
  -11103   -11045   -11008   -10985   -10959   -10930   -10934   -10987 
  -11078   -11195   -11325   -11448   -11533   -11565   -11571   -11573 
  -11565   -11551   -11524   -11467   -11389   -11310   -11237   -11156 
  -11045   -10897   -10717   -10523   -10358   -10259   -10224   -10239 
  -10299   -10397   -10526   -10665   -10783   -10856   -10873   -10827 
  -10742   -10644   -10552   -10485   -10460   -10471   -10504   -10560 
  -10635   -10714   -10782   -10843   -10896   -10926   -10934   -10931 
  -10921   -10921   -10963   -11058   -11183   -11297   -11379   -11429 
  -11455   -11467   -11469   -11454   -11415   -11355   -11290   -11227 
  -11166   -11105   -11061   -11051   -11076   -11119   -11163   -11187 
  -11181   -11137   -11046   -10913   -10757   -10597   -10471   -10421 
  -10453   -10534   -10628   -10719   -10787   -10814   -10799   -10744 
  -10663   -10578   -10499   -10429   -10380   -10367   -10397   -10445 
  -10481   -10499   -10484   -10439   -10389   -10354   -10337   -10323 
  -10303   -10277   -10236   -10192   -10161   -10144   -10139   -10141 
  -10144   -10145   -10140   -10114   -10045    -9943    -9841    -9764 
   -9726    -9726    -9738    -9743    -9758    -9808    -9903   -10038 
  -10200   -10366   -10525   -10685   -10852   -11010   -11143   -11259 
  -11355   -11415   -11443   -11446   -11433   -11420   -11401   -11378 
  -11372   -11399   -11469   -11578   -11719   -11887   -12081   -12289 
  -12478   -12601   -12647   -12636   -12601   -12567   -12538   -12506 
  -12466   -12430   -12411   -12398   -12373   -12332   -12285   -12258 
  -12278   -12354   -12478   -12625   -12772   -12915   -13039   -13121 
  -13156   -13154   -13131   -13110   -13118   -13164   -13235   -13318 
  -13392   -13427   -13410   -13341   -13236   -13129   -13034   -12942 
  -12833   -12687   -12506   -12299   -12077   -11871   -11704   -11581 
  -11502   -11461   -11433   -11398   -11359   -11311   -11247   -11190 
  -11160   -11156   -11185   -11235   -11283   -11323   -11356   -11372 
  -11382   -11399   -11432   -11484   -11543   -11591   -11616   -11613 
  -11583   -11530   -11455   -11375   -11316   -11293   -11304   -11352 
  -11435   -11523   -11584   -11604   -11581   -11520   -11442   -11376 
  -11329   -11288   -11260   -11247   -11224   -11180   -11112   -11016 
  -10917   -10848   -10804   -10763   -10724   -10688   -10649   -10605 
  -10547   -10463   -10370   -10310   -10321   -10394   -10507   -10638 
  -10754   -10831   -10864   -10842   -10750   -10588   -10394   -10209 
  -10056    -9951    -9882    -9812    -9717    -9596    -9459    -9325 
   -9206    -9109    -9044    -9028    -9068    -9157    -9280    -9428 
   -9576    -9699    -9778    -9804    -9774    -9679    -9526    -9340 
   -9141    -8954    -8806    -8713    -8679    -8708    -8778    -8866 
   -8976    -9103    -9229    -9356    -9497    -9672    -9897   -10171 
  -10476   -10783   -11069   -11326   -11558   -11772   -11963   -12129 
  -12285   -12441   -12589   -12724   -12841   -12944   -13043   -13126 
  -13175   -13192   -13194   -13184   -13165   -13140   -13111   -13091 
  -13082   -13075   -13073   -13088   -13117   -13159   -13222   -13307 
  -13397   -13497   -13611   -13715   -13790   -13819   -13784   -13697 
  -13572   -13422   -13258   -13084   -12900   -12715   -12550   -12429 
  -12360   -12340   -12358   -12395   -12449   -12523   -12613   -12704 
  -12763   -12759   -12684   -12553   -12383   -12194   -11999   -11805 
  -11617   -11441   -11288   -11156   -11041   -10927   -10809   -10692 
  -10575   -10448   -10299   -10126    -9946    -9775    -9611    -9449 
   -9286    -9121    -8955    -8786    -8608    -8429    -8279    -8182 
   -8148    -8173    -8227    -8280    -8318    -8326    -8282    -8187 
   -8062    -7931    -7823    -7751    -7697    -7648    -7613    -7600 
   -7607    -7627    -7654    -7706    -7793    -7906    -8031    -8130 
   -8169    -8157    -8118    -8071    -8034    -8019    -8038    -8090 
   -8172    -8278    -8374    -8426    -8435    -8405    -8339    -8257 
   -8194    -8184    -8246    -8378    -8557    -8763    -8971    -9152 
   -9293    -9382    -9414    -9410    -9401    -9416    -9465    -9546 
   -9652    -9771    -9893   -10014   -10124   -10229   -10348   -10491 
  -10657   -10837   -11011   -11166   -11296   -11406   -11502   -11587 
  -11659   -11712   -11746   -11763   -11756   -11720   -11663   -11604 
  -11580   -11614   -11697   -11819   -11967   -12125   -12286   -12436 
  -12558   -12639   -12677   -12695   -12710   -12724   -12727   -12716 
  -12688   -12650   -12610   -12572   -12535   -12503   -12480   -12472 
  -12481   -12512   -12554   -12586   -12583   -12526   -12426   -12304 
  -12175   -12055   -11955   -11888   -11883   -11944   -12042   -12146 
  -12235   -12291   -12308   -12288   -12242   -12188   -12147   -12138 
  -12164   -12207   -12246   -12263   -12250   -12215   -12166   -12110 
  -12057   -12016   -11986   -11957   -11925   -11887   -11839   -11792 
  -11762   -11748   -11751   -11776   -11841   -11964   -12147   -12381 
  -12654   -12936   -13204   -13454   -13680   -13878   -14055   -14212 
  -14353   -14502   -14672   -14853   -15014   -15122   -15165   -15147 
  -15076   -14962   -14811   -14621   -14405   -14186   -13983   -13812 
  -13677   -13566   -13481   -13422   -13375   -13333   -13289   -13228 
  -13143   -13037   -12912   -12786   -12690   -12643   -12637   -12649 
  -12671   -12701   -12740   -12781   -12817   -12845   -12870   -12899 
  -12921   -12936   -12961   -13001   -13041   -13074   -13095   -13090 
  -13051   -12990   -12916   -12838   -12775   -12741   -12717   -12681 
  -12615   -12506   -12373   -12229   -12078   -11929   -11783   -11640 
  -11509   -11392   -11282   -11183   -11094   -11015   -10948   -10900 
  -10869   -10849   -10843   -10855   -10895   -10973   -11077   -11179 
  -11260   -11309   -11319   -11299   -11254   -11193   -11124   -11054 
  -11000   -10985   -11014   -11089   -11203   -11328   -11443   -11533 
  -11570   -11540   -11449   -11302   -11115   -10921   -10753   -10627 
  -10541   -10484   -10437   -10387   -10333   -10276   -10215   -10147 
  -10084   -10038   -10011    -9989    -9954    -9907    -9857    -9805 
   -9751    -9686    -9592    -9450    -9268    -9092    -8941    -8811 
   -8724    -8691    -8704    -8750    -8804    -8840    -8848    -8814 
   -8746    -8652    -8527    -8376    -8222    -8099    -8016    -7973 
   -7975    -8001    -8024    -8018    -7972    -7901    -7824    -7760 
   -7710    -7659    -7625    -7625    -7648    -7693    -7754    -7827 
   -7916    -8017    -8126    -8229    -8312    -8364    -8384    -8384 
   -8383    -8393    -8426    -8488    -8580    -8710    -8878    -9077 
   -9307    -9565    -9837   -10093   -10313   -10505   -10670   -10788 
  -10864   -10920   -10974   -11026   -11085   -11159   -11245   -11348 
  -11474   -11612   -11741   -11837   -11888   -11883   -11824   -11737 
  -11649   -11586   -11566   -11574   -11606   -11666   -11740   -11831 
  -11952   -12117   -12339   -12588   -12835   -13056   -13218   -13290 
  -13268   -13170   -13014   -12803   -12575   -12356   -12136   -11931 
  -11752   -11597   -11482   -11403   -11352   -11333   -11348   -11405 
  -11491   -11580   -11669   -11746   -11816   -11892   -11954   -11993 
  -12023   -12063   -12110   -12150   -12168   -12139   -12048   -11920 
  -11780   -11643   -11522   -11414   -11323   -11258   -11228   -11232 
  -11252   -11270   -11276   -11260   -11230   -11190   -11150   -11133 
  -11153   -11224   -11353   -11515   -11681   -11828   -11945   -12031 
  -12089   -12125   -12142   -12158   -12194   -12248   -12322   -12426 
  -12556   -12712   -12886   -13037   -13128   -13140   -13070   -12950 
  -12815   -12679   -12553   -12446   -12365   -12311   -12279   -12273 
  -12282   -12289   -12276   -12236   -12166   -12073   -11964   -11852 
  -11752   -11685   -11652   -11627   -11592   -11541   -11480   -11411 
  -11324   -11229   -11149   -11098   -11091   -11127   -11186   -11262 
  -11344   -11411   -11448   -11444   -11403   -11331   -11227   -11097 
  -10953   -10820   -10732   -10706   -10723   -10758   -10807   -10854 
  -10876   -10865   -10827   -10759   -10660   -10544   -10419   -10287 
  -10164   -10088   -10090   -10184   -10354   -10569   -10796   -11012 
  -11201   -11344   -11417   -11400   -11298   -11153   -11009   -10882 
  -10777   -10702   -10667   -10666   -10694   -10750   -10821   -10893 
  -10973   -11081   -11210   -11343   -11481   -11614   -11732   -11848 
  -11962   -12055   -12125   -12183   -12221   -12218   -12173   -12103 
  -12027   -11972   -11955   -11967   -11990   -12021   -12064   -12107 
  -12137   -12163   -12195   -12246   -12324   -12421   -12515   -12594 
  -12650   -12679   -12679   -12662   -12633   -12597   -12570   -12557 
  -12548   -12554   -12605   -12721   -12911   -13159   -13417   -13633 
  -13782   -13857   -13847   -13755   -13610   -13460   -13344   -13282 
  -13276   -13316   -13370   -13411   -13410   -13354   -13255   -13142 
  -13040   -12946   -12854   -12769   -12685   -12589   -12471   -12319 
  -12146   -11974   -11824   -11724   -11686   -11708   -11776   -11867 
  -11948   -11982   -11949   -11854   -11705   -11518   -11316   -11119 
  -10954   -10848   -10820   -10878   -11000   -11141   -11268   -11369 
  -11434   -11464   -11465   -11431   -11364   -11275   -11178   -11082 
  -10985   -10886   -10780   -10660   -10538   -10435   -10354   -10299 
  -10280   -10314   -10405   -10526   -10649   -10762   -10849   -10896 
  -10904   -10884   -10845   -10794   -10738   -10663   -10565   -10476 
  -10407   -10361   -10339   -10322   -10312   -10329   -10376   -10456 
  -10554   -10636   -10673   -10644   -10565   -10443   -10274   -10078 
   -9874    -9698    -9597    -9576    -9624    -9745    -9922   -10128 
  -10328   -10482   -10569   -10596   -10590   -10583   -10594   -10646 
  -10745   -10882   -11037   -11192   -11331   -11437   -11496   -11520 
  -11526   -11518   -11491   -11453   -11421   -11392   -11360   -11334 
  -11309   -11272   -11234   -11205   -11186   -11174   -11174   -11188 
  -11205   -11219   -11238   -11250   -11245   -11209   -11124   -10999 
  -10858   -10717   -10592   -10480   -10381   -10315   -10285   -10277 
  -10271   -10243   -10187   -10112   -10031    -9960    -9890    -9806 
   -9720    -9640    -9550    -9431    -9286    -9127    -8979    -8871 
   -8808    -8766    -8726    -8688    -8664    -8651    -8633    -8581 
   -8479    -8342    -8181    -8006    -7851    -7748    -7704    -7710 
   -7748    -7804    -7883    -7997    -8143    -8305    -8463    -8608 
   -8738    -8853    -8953    -9030    -9090    -9154    -9224    -9286 
   -9326    -9336    -9320    -9296    -9278    -9284    -9332    -9440 
   -9620    -9864   -10139   -10412   -10663   -10886   -11075   -11228 
  -11343   -11426   -11496   -11573   -11678   -11828   -12004   -12185 
  -12359   -12525   -12686   -12835   -12976   -13116   -13241   -13339 
  -13423   -13486   -13521   -13538   -13534   -13519   -13512   -13527 
  -13586   -13696   -13840   -14000   -14137   -14197   -14157   -14022 
  -13817   -13568   -13304   -13061   -12861   -12716   -12640   -12639 
  -12687   -12747   -12793   -12817   -12812   -12758   -12653   -12511 
  -12366   -12255   -12193   -12175   -12194   -12257   -12365   -12500 
  -12654   -12825   -13007   -13205   -13416   -13628   -13830   -14012 
  -14169   -14310   -14447   -14577   -14699   -14818   -14929   -15024 
  -15103   -15175   -15262   -15364   -15471   -15586   -15712   -15834 
  -15953   -16075   -16202   -16319   -16400   -16434   -16425   -16379 
  -16300   -16194   -16070   -15929   -15771   -15614   -15462   -15308 
  -15155   -15005   -14856   -14718   -14610   -14535   -14485   -14447 
  -14413   -14395   -14391   -14386   -14372   -14344   -14299   -14241 
  -14180   -14107   -14003   -13878   -13745   -13601   -13448   -13278 
  -13081   -12859   -12634   -12441   -12299   -12209   -12169   -12166 
  -12189   -12220   -12232   -12228   -12214   -12173   -12099   -12006 
  -11910   -11830   -11779   -11768   -11812   -11904   -12036   -12215 
  -12428   -12642   -12827   -12955   -12994   -12946   -12841   -12698 
  -12523   -12339   -12172   -12046   -11987   -11990   -12031   -12105 
  -12198   -12293   -12398   -12513   -12619   -12705   -12759   -12784 
  -12782   -12734   -12626   -12469   -12278   -12065   -11838   -11617 
  -11431   -11307   -11259   -11275   -11326   -11385   -11426   -11436 
  -11414   -11356   -11267   -11166   -11071   -11008   -10986   -11007 
  -11071   -11165   -11262   -11342   -11392   -11394   -11363   -11334 
  -11331   -11363   -11426   -11500   -11577   -11658   -11739   -11821 
  -11898   -11951   -11987   -12021   -12063   -12101   -12120   -12120 
  -12110   -12086   -12068   -12078   -12116   -12183   -12270   -12354 
  -12422   -12456   -12451   -12412   -12344   -12265   -12193   -12120 
  -12048   -11995   -11960   -11918   -11857   -11776   -11680   -11588 
  -11514   -11446   -11356   -11246   -11152   -11098   -11087   -11109 
  -11135   -11146   -11145   -11142   -11129   -11094   -11034   -10955 
  -10858   -10744   -10614   -10492   -10404   -10350   -10323   -10324 
  -10336   -10342   -10334   -10309   -10271   -10216   -10142   -10070 
  -10011    -9964    -9929    -9914    -9914    -9920    -9930    -9938 
   -9933    -9930    -9945    -9992   -10084   -10217   -10364   -10496 
  -10598   -10659   -10667   -10638   -10597   -10566   -10562   -10584 
  -10623   -10676   -10718   -10710   -10642   -10535   -10419   -10328 
  -10290   -10308   -10366   -10456   -10578   -10736   -10928   -11137 
  -11329   -11483   -11600   -11690   -11771   -11839   -11893   -11952 
  -12033   -12145   -12292   -12459   -12635   -12804   -12942   -13045 
  -13119   -13153   -13134   -13071   -13005   -12963   -12950   -12965 
  -13000   -13042   -13075   -13086   -13084   -13082   -13070   -13051 
  -13026   -13002   -13000   -13022   -13048   -13058   -13043   -13006 
  -12950   -12878   -12803   -12736   -12681   -12647   -12642   -12672 
  -12730   -12797   -12871   -12952   -13011   -13027   -12999   -12922 
  -12803   -12663   -12511   -12343   -12159   -11978   -11806   -11652 
  -11526   -11431   -11381   -11369   -11371   -11368   -11340   -11294 
  -11244   -11164   -11059   -10951   -10838   -10727   -10636   -10555 
  -10499   -10488   -10490   -10483   -10479   -10487   -10498   -10495 
  -10471   -10433   -10394   -10375   -10400   -10460   -10521   -10574 
  -10627   -10688   -10766   -10849   -10907   -10916   -10883   -10835 
  -10794   -10767   -10754   -10753   -10768   -10810   -10883   -10984 
  -11114   -11265   -11408   -11526   -11600   -11607   -11553   -11449 
  -11304   -11147   -10990   -10835   -10701   -10610   -10563   -10546 
  -10557   -10589   -10626   -10649   -10630   -10542   -10393   -10222 
  -10064    -9937    -9845    -9780    -9708    -9620    -9530    -9434 
   -9342    -9273    -9242    -9259    -9315    -9407    -9526    -9653 
   -9777    -9884    -9973   -10058   -10134   -10185   -10214   -10244 
  -10298   -10378   -10484   -10616   -10765   -10916   -11049   -11150 
  -11227   -11294   -11364   -11452   -11545   -11617   -11660   -11673 
  -11675   -11686   -11713   -11786   -11905   -12037   -12161   -12252 
  -12298   -12309   -12280   -12204   -12102   -12014   -11962   -11949 
  -11972   -12008   -12041   -12072   -12109   -12165   -12245   -12333 
  -12415   -12486   -12521   -12507   -12479   -12462   -12451   -12456 
  -12471   -12490   -12502   -12488   -12460   -12426   -12386   -12360 
  -12370   -12418   -12492   -12578   -12670   -12750   -12792   -12798 
  -12781   -12747   -12694   -12609   -12502   -12408   -12347   -12335 
  -12373   -12443   -12543   -12677   -12836   -13010   -13186   -13338 
  -13439   -13460   -13403   -13313   -13220   -13114   -13004   -12908 
  -12828   -12762   -12699   -12626   -12527   -12405   -12278   -12152 
  -12031   -11917   -11801   -11666   -11511   -11355   -11199   -11027 
  -10834   -10638   -10461   -10331   -10266   -10275   -10342   -10442 
  -10551   -10656   -10753   -10832   -10889   -10925   -10936   -10926 
  -10911   -10896   -10869   -10838   -10827   -10846   -10891   -10942 
  -10985   -11020   -11034   -11014   -10977   -10933   -10893   -10867 
  -10844   -10810   -10779   -10768   -10760   -10748   -10754   -10779 
  -10800   -10805   -10792   -10755   -10682   -10579   -10464   -10334 
  -10183   -10054    -9993    -9989   -10016   -10083   -10212   -10387 
  -10552   -10677   -10770   -10833   -10853   -10820   -10734   -10620 
  -10510   -10437   -10435   -10514   -10661   -10848   -11021   -11148 
  -11239   -11300   -11332   -11352   -11382   -11434   -11499   -11545 
  -11555   -11543   -11529   -11524   -11526   -11535   -11552   -11577 
  -11597   -11591   -11562   -11539   -11533   -11535   -11555   -11597 
  -11636   -11670   -11719   -11739   -11682   -11572   -11439   -11304 
  -11188   -11067   -10949   -10875   -10850   -10859   -10879   -10890 
  -10886   -10870   -10876   -10935   -11029   -11124   -11202   -11279 
  -11369   -11455   -11537   -11619   -11682   -11708   -11703   -11685 
  -11670   -11657   -11654   -11657   -11657   -11668   -11687   -11680 
  -11619   -11506   -11357   -11173   -10961   -10733   -10489   -10243 
  -10016    -9829    -9682    -9557    -9443    -9345    -9268    -9210 
