Origin Time       2011/03/11 14:46:00
Lat.              38.103
Long.             142.860
Depth. (km)       24
Mag.              9.0
Station Code      HKD030
Station Lat.      44.1821
Station Long.     142.3942
Station Height(m) 131
Record Time       2011/03/11 14:49:28
Sampling Freq(Hz) 100Hz
Duration Time(s)  178
Dir.              E-W
Scale Factor      3920(gal)/6182761
Max. Acc. (gal)   3.965
Last Correction   2011/03/11 14:49:13
Memo.             
[...]
  -13525   -13515   -13479   -13422   -13363   -13302   -13241   -13195 
  -13162   -13127   -13090   -13061   -13037   -13016   -13003   -13002 
  -13005   -13001   -12989   -12973   -12959   -12962   -12976   -12972 
  -12959   -12957   -12955   -12947   -12936   -12905   -12848   -12782 
  -12718   -12636   -12534   -12418   -12292   -12190   -12122   -12056 
  -11981   -11921   -11887   -11876   -11883   -11910   -11947   -11980 
  -12024   -12104   -12207   -12315   -12442   -12589   -12734   -12884 
  -13067   -13265   -13444   -13601   -13761   -13927   -14087   -14234 
  -14366   -14500   -14662   -14831   -14965   -15084   -15245   -15433 
  -15596   -15756   -15937   -16120   -16307   -16505   -16699   -16891 
  -17089   -17278   -17457   -17637   -17802   -17940   -18082   -18226 
  -18332   -18395   -18443   -18473   -18482   -18496   -18513   -18483 
  -18420   -18381   -18363   -18325   -18266   -18210   -18155   -18094 
  -18036   -17966   -17869   -17760   -17644   -17518   -17388   -17255 
  -17117   -16981   -16859   -16744   -16619   -16490   -16366   -16244 
  -16139   -16048   -15945   -15832   -15730   -15636   -15534   -15429 
  -15340   -15271   -15210   -15144   -15091   -15079   -15086   -15073 
  -15065   -15100   -15155   -15198   -15242   -15302   -15376   -15482 
  -15596   -15679   -15762   -15876   -16001   -16129   -16256   -16372 
  -16478   -16568   -16641   -16713   -16788   -16835   -16833   -16814 
  -16800   -16780   -16748   -16710   -16664   -16613   -16570   -16536 
  -16498   -16457   -16416   -16372   -16341   -16328   -16308   -16269 
  -16220   -16172   -16130   -16086   -16023   -15938   -15859   -15791 
  -15712   -15621   -15535   -15457   -15371   -15264   -15148   -15038 
  -14930   -14814   -14679   -14526   -14371   -14210   -14042   -13884 
  -13740   -13602   -13480   -13386   -13301   -13222   -13149   -13059 
  -12973   -12930   -12904   -12840   -12753   -12696   -12658   -12602 
  -12544   -12484   -12398   -12318   -12256   -12172   -12072   -11999 
  -11944   -11880   -11816   -11757   -11716   -11709   -11705   -11676 
  -11643   -11608   -11563   -11511   -11454   -11398   -11354   -11317 
  -11290   -11274   -11258   -11241   -11246   -11280   -11317   -11339 
  -11361   -11408   -11469   -11511   -11550   -11608   -11663   -11717 
  -11781   -11838   -11868   -11886   -11918   -11955   -11987   -12030 
  -12084   -12143   -12212   -12279   -12338   -12397   -12448   -12498 
  -12559   -12632   -12705   -12760   -12805   -12861   -12925   -12980 
  -13024   -13078   -13137   -13161   -13159   -13172   -13198   -13222 
  -13226   -13203   -13179   -13171   -13171   -13156   -13117   -13081 
  -13061   -13041   -13018   -12987   -12951   -12922   -12899   -12884 
  -12882   -12889   -12888   -12889   -12918   -12970   -13025   -13079 
  -13138   -13222   -13333   -13449   -13561   -13665   -13761   -13862 
  -13959   -14050   -14142   -14220   -14284   -14342   -14386   -14413 
  -14423   -14417   -14415   -14426   -14437   -14442   -14454   -14484 
  -14526   -14577   -14616   -14622   -14637   -14678   -14695   -14690 
  -14705   -14728   -14735   -14739   -14756   -14777   -14802   -14842 
  -14889   -14935   -14988   -15030   -15050   -15072   -15101   -15125 
  -15133   -15123   -15107   -15083   -15042   -14998   -14966   -14930 
  -14875   -14810   -14754   -14698   -14630   -14576   -14546   -14506 
  -14443   -14383   -14338   -14291   -14235   -14185   -14149   -14122 
  -14095   -14055   -14007   -13967   -13928   -13883   -13838   -13804 
  -13777   -13739   -13688   -13652   -13621   -13564   -13490   -13415 
  -13333   -13240   -13135   -13019   -12891   -12763   -12639   -12505 
  -12375   -12259   -12154   -12061   -11971   -11877   -11793   -11721 
  -11653   -11596   -11561   -11547   -11526   -11504   -11514   -11539 
  -11551   -11563   -11596   -11655   -11739   -11850   -11978   -12108 
  -12252   -12413   -12565   -12710   -12871   -13035   -13176   -13287 
  -13382   -13475   -13555   -13620   -13680   -13750   -13839   -13922 
  -13983   -14060   -14157   -14242   -14315   -14373   -14419   -14469 
  -14499   -14501   -14512   -14535   -14556   -14578   -14601   -14621 
  -14648   -14700   -14769   -14834   -14896   -14954   -15011   -15082 
  -15152   -15213   -15286   -15368   -15439   -15492   -15538   -15592 
  -15643   -15675   -15711   -15759   -15795   -15815   -15823   -15828 
  -15828   -15802   -15761   -15730   -15705   -15676   -15632   -15588 
  -15575   -15569   -15534   -15502   -15503   -15505   -15487   -15462 
  -15453   -15463   -15477   -15473   -15442   -15414   -15409   -15401 
  -15376   -15346   -15314   -15296   -15293   -15283   -15270   -15262 
  -15254   -15251   -15251   -15254   -15273   -15306   -15335   -15349 
  -15355   -15366   -15382   -15413   -15466   -15503   -15510   -15521 
  -15544   -15579   -15636   -15684   -15720   -15772   -15841   -15925 
  -16018   -16102   -16188   -16290   -16394   -16476   -16540   -16611 
  -16689   -16757   -16816   -16867   -16923   -16975   -16991   -16982 
  -16985   -16994   -16973   -16919   -16857   -16793   -16713   -16624 
  -16538   -16454   -16379   -16297   -16199   -16110   -16049   -16003 
  -15951   -15878   -15808   -15759   -15722   -15703   -15692   -15669 
  -15633   -15587   -15548   -15535   -15527   -15498   -15445   -15392 
  -15359   -15334   -15294   -15246   -15201   -15163   -15126   -15072 
  -15012   -14980   -14973   -14969   -14944   -14891   -14854   -14863 
  -14885   -14890   -14893   -14915   -14947   -14981   -15022   -15060 
  -15089   -15127   -15179   -15233   -15281   -15306   -15314   -15320 
  -15312   -15290   -15263   -15231   -15195   -15149   -15081   -14994 
  -14898   -14799   -14700   -14580   -14431   -14268   -14109   -13961 
  -13810   -13648   -13482   -13310   -13140   -12980   -12813   -12645 
  -12491   -12339   -12196   -12080   -11968   -11849   -11745   -11666 
  -11599   -11541   -11497   -11451   -11395   -11351   -11326   -11306 
  -11289   -11286   -11301   -11308   -11302   -11326   -11374   -11411 
  -11456   -11518   -11578   -11642   -11725   -11823   -11922   -12024 
  -12125   -12221   -12335   -12481   -12634   -12777   -12910   -13044 
  -13204   -13393   -13583   -13753   -13898   -14036   -14187   -14332 
  -14455   -14557   -14643   -14727   -14809   -14873   -14928   -14985 
  -15034   -15055   -15044   -15026   -15018   -14998   -14973   -14959 
  -14950   -14951   -14980   -15039   -15111   -15162   -15212   -15307 
  -15423   -15530   -15637   -15754   -15881   -16024   -16179   -16339 
  -16489   -16618   -16739   -16864   -16978   -17070   -17155   -17237 
  -17302   -17353   -17404   -17452   -17492   -17525   -17545   -17569 
  -17608   -17641   -17657   -17673   -17716   -17772   -17804   -17833 
  -17874   -17905   -17942   -17994   -18050   -18117   -18196   -18272 
  -18340   -18401   -18468   -18529   -18566   -18582   -18576   -18550 
  -18520   -18468   -18379   -18279   -18188   -18096   -17979   -17847 
  -17732   -17617   -17473   -17322   -17178   -17032   -16890   -16750 
  -16610   -16478   -16340   -16188   -16033   -15885   -15745   -15596 
  -15436   -15290   -15160   -15035   -14906   -14779   -14663   -14551 
  -14433   -14310   -14181   -14058   -13943   -13823   -13694   -13575 
  -13479   -13389   -13274   -13144   -13029   -12917   -12794   -12668 
  -12532   -12388   -12246   -12100   -11947   -11808   -11692   -11580 
  -11467   -11367   -11276   -11185   -11100   -11022   -10967   -10946 
  -10933   -10900   -10853   -10816   -10807   -10803   -10792   -10785 
  -10783   -10791   -10808   -10821   -10839   -10864   -10879   -10896 
  -10923   -10942   -10956   -10966   -10960   -10954   -10952   -10944 
  -10929   -10909   -10900   -10901   -10892   -10877   -10861   -10849 
  -10835   -10804   -10773   -10754   -10740   -10737   -10738   -10739 
  -10755   -10795   -10845   -10885   -10917   -10965   -11025   -11081 
  -11131   -11177   -11216   -11249   -11279   -11320   -11370   -11404 
  -11430   -11463   -11494   -11542   -11612   -11676   -11733   -11800 
  -11869   -11924   -11959   -11994   -12050   -12102   -12139   -12182 
  -12223   -12251   -12283   -12311   -12326   -12353   -12410   -12458 
  -12472   -12486   -12520   -12541   -12528   -12508   -12501   -12485 
  -12450   -12410   -12370   -12344   -12335   -12311   -12271   -12242 
  -12221   -12205   -12189   -12163   -12143   -12132   -12115   -12091 
  -12068   -12058   -12055   -12040   -12026   -12035   -12043   -12021 
  -11995   -12005   -12017   -12007   -12004   -12011   -12003   -11986 
  -11967   -11953   -11924   -11871   -11829   -11801   -11755   -11699 
  -11658   -11621   -11571   -11514   -11469   -11436   -11402   -11364 
  -11340   -11338   -11344   -11336   -11322   -11334   -11358   -11372 
  -11387   -11409   -11441   -11474   -11499   -11530   -11587   -11664 
  -11754   -11847   -11954   -12091   -12249   -12413   -12578   -12737 
  -12897   -13057   -13201   -13323   -13433   -13543   -13644   -13729 
  -13813   -13906   -13992   -14073   -14169   -14272   -14376   -14480 
  -14579   -14691   -14815   -14924   -15035   -15171   -15317   -15456 
  -15591   -15738   -15888   -16029   -16171   -16305   -16422   -16532 
  -16639   -16749   -16850   -16926   -17000   -17084   -17156   -17209 
  -17255   -17308   -17370   -17427   -17471   -17514   -17569   -17635 
  -17687   -17714   -17730   -17748   -17762   -17754   -17732   -17716 
  -17689   -17637   -17586   -17550   -17505   -17444   -17377   -17311 
  -17248   -17179   -17113   -17047   -16961   -16886   -16832   -16752 
  -16656   -16571   -16485   -16402   -16300   -16194   -16112   -16025 
  -15930   -15831   -15733   -15657   -15570   -15470   -15403   -15351 
  -15288   -15221   -15152   -15099   -15064   -15028   -15001   -15003 
  -15033   -15075   -15112   -15154   -15212   -15279   -15341   -15386 
  -15439   -15521   -15596   -15637   -15672   -15726   -15774   -15797 
  -15827   -15890   -15961   -16024   -16091   -16159   -16221   -16278 
  -16315   -16324   -16325   -16329   -16327   -16294   -16218   -16154 
  -16111   -16035   -15939   -15844   -15756   -15682   -15578   -15451 
  -15350   -15250   -15143   -15034   -14911   -14796   -14680   -14545 
  -14430   -14336   -14229   -14119   -14024   -13915   -13777   -13668 
  -13614   -13526   -13387   -13268   -13165   -13035   -12889   -12747 
  -12609   -12467   -12325   -12199   -12098   -12021   -11948   -11882 
  -11849   -11833   -11804   -11774   -11759   -11757   -11768   -11775 
  -11780   -11799   -11845   -11922   -11998   -12044   -12113   -12233 
  -12339   -12410   -12475   -12550   -12641   -12721   -12786   -12870 
  -12971   -13063   -13141   -13223   -13330   -13433   -13508   -13583 
  -13674   -13760   -13807   -13823   -13857   -13909   -13932   -13927 
  -13931   -13952   -13972   -13991   -14016   -14030   -14033   -14049 
  -14063   -14063   -14063   -14068   -14079   -14093   -14108   -14130 
  -14153   -14170   -14185   -14200   -14217   -14236   -14261   -14297 
  -14335   -14368   -14412   -14459   -14497   -14538   -14591   -14650 
  -14712   -14794   -14910   -15031   -15126   -15225   -15358   -15506 
  -15641   -15757   -15874   -15998   -16114   -16225   -16335   -16436 
  -16535   -16627   -16695   -16753   -16801   -16833   -16859   -16872 
  -16876   -16869   -16824   -16747   -16661   -16568   -16463   -16333 
  -16182   -16038   -15897   -15746   -15589   -15425   -15265   -15127 
  -15009   -14898   -14788   -14680   -14581   -14481   -14383   -14294 
  -14200   -14099   -14007   -13932   -13892   -13888   -13880   -13850 
  -13840   -13894   -13971   -14022   -14071   -14128   -14192   -14263 
  -14314   -14355   -14406   -14445   -14471   -14495   -14500   -14479 
  -14451   -14429   -14406   -14374   -14341   -14306   -14251   -14179 
  -14112   -14054   -13991   -13915   -13836   -13765   -13691   -13603 
  -13516   -13436   -13365   -13300   -13229   -13151   -13077   -13008 
  -12937   -12861   -12796   -12757   -12722   -12676   -12631   -12593 
  -12572   -12567   -12565   -12574   -12593   -12598   -12605   -12643 
  -12690   -12701   -12686   -12697   -12726   -12740   -12740   -12726 
  -12730   -12762   -12780   -12807   -12851   -12889   -12939   -12992 
  -13041   -13095   -13141   -13197   -13269   -13316   -13332   -13349 
  -13377   -13416   -13450   -13457   -13469   -13512   -13553   -13574 
  -13590   -13609   -13615   -13602   -13587   -13589   -13593   -13583 
  -13560   -13531   -13510   -13501   -13482   -13442   -13400   -13367 
  -13336   -13315   -13313   -13311   -13273   -13220   -13202   -13226 
  -13246   -13225   -13191   -13185   -13188   -13204   -13218   -13205 
  -13218   -13260   -13269   -13283   -13346   -13438   -13556   -13660 
  -13731   -13834   -13960   -14062   -14156   -14273   -14415   -14559 
  -14682   -14775   -14842   -14913   -15015   -15142   -15283   -15403 
  -15472   -15538   -15642   -15763   -15888   -16014   -16126   -16240 
  -16368   -16501   -16624   -16720   -16800   -16912   -17066   -17218 
  -17337   -17428   -17517   -17639   -17809   -17986   -18123   -18235 
  -18372   -18518   -18600   -18630   -18700   -18826   -18910   -18924 
  -18960   -19022   -19038   -19067   -19183   -19338   -19486   -19592 
  -19647   -19711   -19834   -19994   -20126   -20208   -20285   -20367 
  -20433   -20506   -20604   -20692   -20722   -20705   -20703   -20746 
  -20817   -20859   -20822   -20734   -20673   -20670   -20685   -20659 
  -20580   -20476   -20387   -20327   -20278   -20208   -20095   -19952 
  -19830   -19741   -19647   -19537   -19412   -19251   -19074   -18931 
  -18823   -18676   -18468   -18296   -18190   -18054   -17874   -17720 
  -17615   -17526   -17399   -17252   -17145   -17064   -16991   -16925 
  -16856   -16790   -16718   -16634   -16563   -16530   -16525   -16496 
  -16427   -16363   -16311   -16251   -16196   -16142   -16068   -15988 
  -15915   -15838   -15765   -15694   -15601   -15483   -15361   -15265 
  -15195   -15123   -15042   -14962   -14901   -14867   -14838   -14806 
  -14785   -14777   -14776   -14769   -14755   -14754   -14757   -14750 
  -14752   -14757   -14772   -14812   -14822   -14786   -14791   -14860 
  -14921   -14930   -14917   -14945   -15021   -15087   -15126   -15163 
  -15200   -15240   -15282   -15308   -15324   -15325   -15311   -15303 
  -15307   -15294   -15230   -15145   -15095   -15065   -15011   -14923 
  -14817   -14725   -14668   -14629   -14572   -14477   -14373   -14291 
  -14216   -14130   -14030   -13920   -13813   -13717   -13645   -13593 
  -13524   -13423   -13318   -13243   -13205   -13165   -13086   -12988 
  -12920   -12887   -12840   -12756   -12679   -12624   -12553   -12442 
  -12331   -12279   -12253   -12173   -12054   -11955   -11890   -11838 
  -11765   -11687   -11643   -11617   -11554   -11465   -11395   -11338 
  -11264   -11187   -11132   -11090   -11031   -10959   -10909   -10893 
  -10898   -10881   -10829   -10800   -10829   -10876   -10882   -10843 
  -10824   -10855   -10875   -10853   -10840   -10852   -10854   -10834 
  -10837   -10889   -10929   -10908   -10880   -10920   -10992   -11014 
  -10994   -10991   -11007   -11022   -11038   -11044   -11044   -11042 
  -11023   -10995   -10958   -10903   -10875   -10884   -10886   -10896 
  -10907   -10873   -10822   -10788   -10777   -10797   -10838   -10890 
  -10937   -10947   -10912   -10894   -10974   -11110   -11192   -11214 
  -11221   -11248   -11320   -11410   -11494   -11577   -11632   -11644 
  -11667   -11739   -11850   -11956   -12015   -12037   -12045   -12056 
  -12089   -12152   -12237   -12316   -12333   -12285   -12238   -12247 
  -12294   -12333   -12359   -12350   -12274   -12197   -12210   -12258 
  -12268   -12270   -12258   -12194   -12109   -12052   -12044   -12087 
  -12137   -12136   -12059   -11944   -11876   -11911   -12002   -12042 
  -11981   -11889   -11871   -11921   -11974   -12041   -12149   -12250 
  -12304   -12342   -12404   -12530   -12742   -12991   -13209   -13354 
  -13438   -13537   -13736   -14035   -14346   -14574   -14724   -14896 
  -15148   -15437   -15702   -15916   -16096   -16273   -16466   -16683 
  -16914   -17144   -17372   -17590   -17771   -17895   -18022   -18256 
  -18564   -18830   -19015   -19106   -19133   -19227   -19434   -19663 
  -19852   -19960   -19977   -19973   -20015   -20108   -20215   -20293 
  -20329   -20328   -20315   -20315   -20312   -20305   -20300   -20279 
  -20242   -20205   -20167   -20129   -20105   -20092   -20069   -20017 
  -19949   -19893   -19858   -19828   -19784   -19740   -19703   -19663 
  -19634   -19633   -19640   -19633   -19621   -19624   -19632   -19624 
  -19600   -19567   -19537   -19487   -19365   -19212   -19131   -19066 
  -18915   -18735   -18576   -18420   -18253   -18057   -17848   -17673 
  -17506   -17290   -17040   -16795   -16568   -16384   -16245   -16105 
  -15919   -15705   -15501   -15330   -15204   -15087   -14949   -14801 
  -14658   -14536   -14439   -14360   -14306   -14273   -14231   -14171 
  -14111   -14079   -14107   -14177   -14244   -14284   -14310   -14354 
  -14447   -14594   -14776   -14946   -15073   -15188   -15336   -15538 
  -15782   -16008   -16189   -16378   -16588   -16751   -16877   -17077 
  -17332   -17511   -17624   -17762   -17928   -18086   -18227   -18357 
  -18485   -18602   -18683   -18744   -18813   -18885   -18933   -18951 
  -18955   -18942   -18903   -18866   -18860   -18861   -18832   -18762 
  -18651   -18536   -18456   -18407   -18339   -18224   -18072   -17890 
  -17709   -17566   -17436   -17279   -17097   -16911   -16730   -16566 
  -16416   -16276   -16139   -16005   -15879   -15741   -15582   -15463 
  -15418   -15375   -15280   -15162   -15081   -15047   -15020   -15001 
  -15013   -15003   -14955   -14956   -15021   -15099   -15166   -15195 
  -15208   -15264   -15344   -15403   -15440   -15463   -15477   -15505 
  -15548   -15588   -15635   -15690   -15728   -15759   -15804   -15859 
  -15925   -15979   -16006   -16038   -16084   -16134   -16193   -16248 
  -16291   -16335   -16381   -16441   -16512   -16566   -16605   -16646 
  -16686   -16718   -16753   -16792   -16825   -16859   -16904   -16934 
  -16949   -16973   -17001   -17035   -17068   -17079   -17071   -17074 
  -17107   -17115   -17043   -16981   -16994   -16984   -16905   -16825 
  -16782   -16756   -16713   -16654   -16604   -16563   -16504   -16421 
  -16331   -16250   -16179   -16107   -16022   -15914   -15795   -15692 
  -15602   -15506   -15401   -15295   -15192   -15092   -14980   -14855 
  -14720   -14572   -14429   -14290   -14145   -13995   -13840   -13692 
  -13565   -13442   -13299   -13150   -13013   -12895   -12779   -12660 
  -12561   -12475   -12389   -12319   -12253   -12158   -12065   -12026 
  -12001   -11911   -11814   -11807   -11809   -11754   -11716   -11714 
  -11716   -11746   -11799   -11848   -11915   -11998   -12079   -12172 
  -12272   -12368   -12471   -12568   -12648   -12724   -12816   -12917 
  -13010   -13100   -13195   -13276   -13347   -13416   -13473   -13530 
  -13598   -13659   -13708   -13759   -13808   -13851   -13890   -13919 
  -13938   -13955   -13967   -13971   -13968   -13963   -13954   -13938 
  -13923   -13910   -13893   -13886   -13877   -13854   -13834   -13826 
