Origin Time       2011/03/11 14:46:00
Lat.              38.103
Long.             142.860
Depth. (km)       24
Mag.              9.0
Station Code      HKD027
Station Lat.      44.4806
Station Long.     142.3428
Station Height(m) 75
Record Time       2011/03/11 14:49:55
Sampling Freq(Hz) 100Hz
Duration Time(s)  240
Dir.              U-D
Scale Factor      3920(gal)/6182761
Max. Acc. (gal)   2.587
Last Correction   2011/03/11 14:49:40
Memo.             
[...]
   -9591    -9646    -9678    -9721    -9775    -9824    -9869    -9905 
   -9907    -9910    -9962    -9996    -9976    -9958    -9963    -9964 
   -9946    -9927    -9907    -9891    -9892    -9856    -9774    -9745 
   -9783    -9783    -9708    -9626    -9605    -9628    -9594    -9482 
   -9400    -9372    -9342    -9319    -9262    -9149    -9088    -9103 
   -9100    -9054    -9011    -9015    -9025    -8984    -8947    -8962 
   -9009    -9045    -9003    -8934    -8954    -8998    -8991    -9009 
   -9041    -9027    -9020    -9046    -9056    -9051    -9050    -9052 
   -9044    -9029    -9035    -9031    -8991    -8963    -8953    -8911 
   -8863    -8837    -8782    -8731    -8751    -8740    -8641    -8597 
   -8640    -8640    -8593    -8542    -8490    -8491    -8495    -8397 
   -8336    -8406    -8359    -8154    -8103    -8157    -8033    -7848 
   -7793    -7760    -7663    -7556    -7494    -7482    -7430    -7314 
   -7265    -7289    -7292    -7293    -7287    -7263    -7290    -7341 
   -7320    -7282    -7349    -7423    -7344    -7284    -7411    -7472 
   -7358    -7374    -7527    -7488    -7385    -7555    -7725    -7574 
   -7482    -7720    -7858    -7708    -7653    -7857    -8004    -7894 
   -7820    -7988    -8099    -8008    -8022    -8191    -8199    -8118 
   -8249    -8395    -8340    -8376    -8562    -8596    -8616    -8790 
   -8839    -8818    -9005    -9103    -8954    -9043    -9340    -9297 
   -9140    -9346    -9572    -9499    -9497    -9705    -9739    -9620 
   -9787   -10071    -9949    -9765   -10116   -10402   -10042    -9923 
  -10413   -10453   -10032   -10123   -10438   -10296   -10086   -10196 
  -10282   -10155   -10148   -10271   -10203   -10111   -10219   -10251 
  -10114   -10094   -10163   -10051    -9916    -9928    -9846    -9707 
   -9692    -9599    -9434    -9417    -9418    -9271    -9106    -9091 
   -9114    -8982    -8872    -8939    -8903    -8721    -8724    -8837 
   -8743    -8595    -8622    -8625    -8535    -8564    -8588    -8443 
   -8409    -8577    -8588    -8425    -8448    -8652    -8716    -8607 
   -8594    -8758    -8863    -8837    -8849    -8936    -9056    -9189 
   -9249    -9258    -9366    -9541    -9619    -9634    -9758    -9945 
  -10024   -10066   -10254   -10433   -10447   -10580   -10831   -10859 
  -10938   -11240   -11298   -11254   -11502   -11655   -11606   -11730 
  -11865   -11840   -11902   -12017   -12020   -11979   -12010   -12112 
  -12083   -11981   -12097   -12154   -12003   -12024   -12103   -12040 
  -12052   -12029   -11868   -11886   -11952   -11751   -11633   -11735 
  -11646   -11449   -11481   -11570   -11441   -11220   -11191   -11302 
  -11280   -11106   -10963   -10958   -11000   -10937   -10810   -10725 
  -10703   -10702   -10673   -10624   -10574   -10544   -10561   -10558 
  -10521   -10519   -10519   -10499   -10489   -10454   -10424   -10450 
  -10464   -10440   -10407   -10392   -10410   -10371   -10280   -10302 
  -10360   -10288   -10209   -10222   -10246   -10234   -10172   -10119 
  -10177   -10257   -10200   -10096   -10140   -10243   -10199   -10097 
  -10118   -10183   -10164   -10118   -10095   -10093   -10135   -10170 
  -10160   -10179   -10222   -10221   -10210   -10237   -10282   -10330 
  -10372   -10375   -10388   -10491   -10569   -10518   -10535   -10688 
  -10733   -10694   -10748   -10793   -10799   -10852   -10848   -10801 
  -10856   -10907   -10849   -10825   -10880   -10863   -10806   -10874 
  -10963   -10907   -10863   -10927   -10940   -10935   -10993   -10979 
  -10904   -10911   -10933   -10874   -10833   -10830   -10749   -10639 
  -10639   -10657   -10549   -10425   -10419   -10455   -10418   -10299 
  -10233   -10293   -10280   -10111   -10024   -10091   -10095    -9965 
   -9868    -9894    -9917    -9836    -9762    -9801    -9848    -9791 
   -9716    -9730    -9773    -9727    -9620    -9608    -9667    -9631 
   -9534    -9501    -9512    -9477    -9375    -9290    -9279    -9243 
   -9134    -9042    -9004    -8974    -8900    -8798    -8777    -8800 
   -8732    -8635    -8609    -8585    -8493    -8382    -8333    -8319 
   -8250    -8148    -8080    -8032    -7968    -7894    -7836    -7812 
   -7760    -7648    -7585    -7595    -7550    -7433    -7382    -7419 
   -7400    -7297    -7236    -7262    -7292    -7248    -7186    -7217 
   -7275    -7218    -7132    -7178    -7257    -7226    -7168    -7187 
   -7263    -7293    -7230    -7222    -7335    -7384    -7313    -7315 
   -7420    -7453    -7403    -7392    -7426    -7446    -7429    -7403 
   -7430    -7492    -7495    -7467    -7508    -7586    -7610    -7597 
   -7628    -7699    -7743    -7754    -7771    -7805    -7829    -7834 
   -7862    -7914    -7927    -7922    -7968    -8022    -8029    -8017 
   -8023    -8045    -8057    -8054    -8060    -8073    -8079    -8082 
   -8086    -8094    -8100    -8097    -8097    -8104    -8103    -8084 
   -8051    -8042    -8072    -8093    -8083    -8093    -8138    -8168 
   -8156    -8152    -8200    -8253    -8269    -8281    -8309    -8337 
   -8377    -8434    -8488    -8532    -8585    -8651    -8707    -8734 
   -8735    -8744    -8783    -8822    -8826    -8801    -8772    -8778 
   -8820    -8843    -8817    -8787    -8811    -8883    -8929    -8925 
   -8934    -8992    -9064    -9119    -9176    -9240    -9291    -9342 
   -9422    -9516    -9596    -9658    -9721    -9817    -9935   -10027 
  -10104   -10206   -10308   -10371   -10425   -10497   -10559   -10603 
  -10650   -10690   -10701   -10705   -10709   -10694   -10665   -10617 
  -10544   -10490   -10474   -10439   -10368   -10310   -10287   -10281 
  -10276   -10272   -10262   -10246   -10243   -10276   -10328   -10343 
  -10318   -10341   -10432   -10492   -10488   -10507   -10581   -10656 
  -10709   -10768   -10839   -10908   -10988   -11090   -11184   -11252 
  -11340   -11479   -11615   -11703   -11775   -11861   -11939   -11991 
  -12019   -12033   -12038   -12031   -12006   -11976   -11942   -11892 
  -11848   -11821   -11766   -11686   -11637   -11604   -11534   -11441 
  -11365   -11305   -11241   -11151   -11037   -10927   -10824   -10709 
  -10584   -10462   -10337   -10210   -10097    -9989    -9860    -9728 
   -9627    -9547    -9459    -9368    -9287    -9208    -9120    -9032 
   -8955    -8890    -8822    -8751    -8683    -8621    -8572    -8535 
   -8498    -8459    -8424    -8394    -8360    -8319    -8271    -8219 
   -8181    -8159    -8131    -8094    -8069    -8061    -8055    -8048 
   -8054    -8071    -8090    -8109    -8131    -8154    -8178    -8202 
   -8239    -8287    -8328    -8367    -8419    -8478    -8529    -8568 
   -8596    -8628    -8666    -8697    -8725    -8760    -8796    -8830 
   -8877    -8932    -8971    -8993    -9027    -9086    -9149    -9196 
   -9246    -9315    -9391    -9471    -9557    -9639    -9713    -9785 
   -9850    -9910    -9970   -10030   -10088   -10134   -10168   -10199 
  -10230   -10257   -10277   -10285   -10282   -10285   -10288   -10272 
  -10245   -10223   -10199   -10167   -10130   -10085   -10038    -9999 
   -9962    -9919    -9865    -9812    -9782    -9763    -9731    -9690 
   -9651    -9615    -9586    -9562    -9541    -9525    -9500    -9470 
   -9463    -9467    -9445    -9414    -9404    -9401    -9391    -9379 
   -9364    -9342    -9318    -9297    -9273    -9229    -9173    -9128 
   -9096    -9063    -9032    -9004    -8990    -8989    -8973    -8935 
   -8906    -8906    -8922    -8929    -8917    -8904    -8908    -8933 
   -8975    -9016    -9046    -9079    -9129    -9197    -9265    -9322 
   -9385    -9464    -9536    -9594    -9656    -9727    -9791    -9839 
   -9885    -9944   -10006   -10055   -10097   -10146   -10203   -10269 
  -10341   -10406   -10469   -10532   -10587   -10644   -10708   -10754 
  -10775   -10797   -10828   -10845   -10850   -10856   -10856   -10843 
  -10832   -10834   -10838   -10826   -10802   -10784   -10773   -10759 
  -10731   -10693   -10662   -10636   -10595   -10539   -10479   -10412 
  -10333   -10248   -10162   -10065    -9949    -9833    -9731    -9616 
   -9479    -9348    -9227    -9103    -8980    -8859    -8735    -8610 
   -8491    -8373    -8257    -8154    -8068    -7985    -7895    -7803 
   -7715    -7630    -7551    -7478    -7405    -7333    -7277    -7236 
   -7196    -7168    -7165    -7172    -7183    -7203    -7227    -7256 
   -7303    -7366    -7432    -7508    -7598    -7685    -7758    -7820 
   -7874    -7921    -7962    -7999    -8029    -8045    -8054    -8065 
   -8075    -8079    -8083    -8092    -8101    -8107    -8113    -8120 
   -8131    -8155    -8182    -8204    -8231    -8266    -8300    -8330 
   -8363    -8398    -8434    -8473    -8510    -8546    -8580    -8605 
   -8635    -8666    -8682    -8707    -8750    -8790    -8824    -8861 
   -8897    -8935    -8986    -9041    -9092    -9149    -9217    -9283 
   -9344    -9417    -9509    -9598    -9680    -9765    -9852    -9942 
  -10039   -10142   -10260   -10387   -10507   -10623   -10747   -10874 
  -10991   -11105   -11227   -11348   -11462   -11579   -11703   -11826 
  -11947   -12068   -12189   -12303   -12406   -12500   -12582   -12647 
  -12694   -12738   -12788   -12839   -12884   -12931   -12987   -13046 
  -13101   -13145   -13175   -13204   -13234   -13254   -13264   -13274 
  -13283   -13292   -13296   -13300   -13312   -13322   -13323   -13324 
  -13328   -13329   -13329   -13331   -13336   -13342   -13341   -13342 
  -13352   -13363   -13367   -13373   -13375   -13362   -13349   -13341 
  -13328   -13312   -13306   -13304   -13305   -13306   -13295   -13273 
  -13252   -13241   -13227   -13200   -13170   -13149   -13137   -13128 
  -13112   -13094   -13082   -13069   -13050   -13030   -13017   -13009 
  -13001   -12987   -12954   -12913   -12881   -12857   -12829   -12793 
  -12756   -12726   -12705   -12682   -12646   -12609   -12574   -12534 
  -12490   -12443   -12396   -12354   -12313   -12267   -12226   -12185 
  -12135   -12081   -12032   -11979   -11916   -11844   -11773   -11707 
  -11636   -11555   -11477   -11414   -11352   -11285   -11225   -11168 
  -11100   -11033   -10973   -10912   -10852   -10801   -10759   -10713 
  -10663   -10614   -10557   -10490   -10423   -10347   -10259   -10169 
  -10081    -9992    -9896    -9794    -9697    -9604    -9501    -9397 
   -9296    -9186    -9073    -8973    -8880    -8781    -8678    -8577 
   -8478    -8378    -8279    -8198    -8141    -8070    -7975    -7890 
   -7818    -7743    -7674    -7619    -7576    -7537    -7496    -7466 
   -7458    -7449    -7431    -7417    -7415    -7417    -7410    -7405 
   -7405    -7385    -7352    -7335    -7331    -7318    -7293    -7276 
   -7261    -7227    -7184    -7153    -7134    -7125    -7122    -7115 
   -7097    -7086    -7089    -7094    -7099    -7107    -7114    -7119 
   -7122    -7129    -7145    -7161    -7175    -7201    -7230    -7248 
   -7271    -7310    -7356    -7406    -7468    -7538    -7604    -7671 
   -7746    -7824    -7901    -7981    -8063    -8151    -8251    -8347 
   -8428    -8510    -8597    -8677    -8747    -8809    -8872    -8939 
   -8999    -9052    -9101    -9142    -9181    -9225    -9269    -9308 
   -9347    -9387    -9427    -9466    -9498    -9528    -9565    -9608 
   -9652    -9684    -9703    -9731    -9773    -9814    -9858    -9907 
   -9951    -9991   -10035   -10078   -10119   -10160   -10203   -10251 
  -10299   -10344   -10384   -10433   -10495   -10554   -10602   -10655 
  -10723   -10796   -10868   -10940   -11020   -11104   -11187   -11274 
  -11365   -11444   -11508   -11576   -11648   -11716   -11780   -11839 
  -11897   -11946   -11979   -12002   -12025   -12047   -12058   -12051 
  -12040   -12028   -12003   -11968   -11941   -11918   -11889   -11856 
  -11826   -11795   -11758   -11718   -11687   -11667   -11643   -11616 
  -11609   -11615   -11612   -11605   -11617   -11640   -11650   -11653 
  -11662   -11669   -11661   -11648   -11638   -11620   -11592   -11567 
  -11552   -11543   -11537   -11538   -11545   -11554   -11566   -11576 
  -11579   -11580   -11584   -11588   -11596   -11612   -11637   -11670 
  -11707   -11740   -11770   -11802   -11835   -11860   -11879   -11900 
  -11923   -11938   -11943   -11952   -11964   -11970   -11973   -11972 
  -11957   -11933   -11913   -11888   -11851   -11808   -11766   -11722 
  -11678   -11637   -11593   -11545   -11494   -11430   -11351   -11271 
  -11198   -11126   -11051   -10977   -10914   -10861   -10815   -10781 
  -10751   -10718   -10689   -10665   -10639   -10608   -10583   -10565 
  -10554   -10548   -10539   -10524   -10514   -10510   -10513   -10517 
  -10514   -10506   -10495   -10488   -10478   -10461   -10444   -10428 
  -10414   -10403   -10385   -10351   -10312   -10278   -10233   -10167 
  -10095   -10036    -9974    -9897    -9834    -9786    -9716    -9627 
   -9551    -9493    -9425    -9337    -9245    -9173    -9105    -9027 
   -8953    -8895    -8832    -8762    -8694    -8628    -8561    -8492 
   -8419    -8350    -8276    -8193    -8119    -8049    -7975    -7906 
   -7851    -7796    -7738    -7690    -7648    -7603    -7557    -7513 
   -7471    -7432    -7385    -7331    -7275    -7211    -7134    -7060 
   -6995    -6931    -6871    -6811    -6751    -6699    -6653    -6604 
   -6555    -6510    -6459    -6400    -6337    -6279    -6231    -6180 
   -6118    -6057    -6012    -5979    -5946    -5914    -5891    -5867 
   -5835    -5807    -5787    -5774    -5766    -5767    -5780    -5801 
   -5828    -5865    -5917    -5981    -6050    -6119    -6193    -6274 
   -6362    -6454    -6542    -6631    -6728    -6822    -6907    -6993 
   -7090    -7198    -7311    -7421    -7536    -7662    -7794    -7926 
   -8058    -8192    -8325    -8447    -8562    -8681    -8800    -8901 
   -8989    -9080    -9176    -9266    -9350    -9432    -9517    -9594 
   -9662    -9731    -9806    -9880    -9950   -10015   -10078   -10136 
  -10190   -10248   -10296   -10331   -10367   -10408   -10448   -10487 
  -10528   -10572   -10609   -10639   -10675   -10725   -10775   -10815 
  -10852   -10897   -10946   -10996   -11049   -11116   -11190   -11257 
  -11315   -11380   -11456   -11532   -11606   -11689   -11774   -11852 
  -11925   -12001   -12081   -12162   -12236   -12295   -12340   -12377 
  -12405   -12421   -12435   -12440   -12428   -12410   -12394   -12374 
  -12346   -12311   -12270   -12229   -12191   -12148   -12101   -12057 
  -12012   -11960   -11914   -11881   -11852   -11820   -11789   -11764 
  -11736   -11707   -11683   -11665   -11650   -11645   -11649   -11662 
  -11681   -11703   -11728   -11759   -11786   -11806   -11830   -11856 
  -11874   -11878   -11879   -11893   -11910   -11917   -11932   -11955 
  -11966   -11969   -11977   -11986   -11989   -11985   -11977   -11963 
  -11944   -11931   -11922   -11912   -11908   -11913   -11911   -11898 
  -11889   -11883   -11862   -11831   -11800   -11767   -11731   -11695 
  -11656   -11616   -11579   -11539   -11494   -11455   -11418   -11376 
  -11333   -11295   -11258   -11220   -11185   -11157   -11133   -11096 
  -11050   -11010   -10974   -10930   -10884   -10846   -10810   -10761 
  -10705   -10659   -10616   -10562   -10496   -10437   -10384   -10329 
  -10269   -10213   -10180   -10150   -10103   -10056   -10021    -9978 
   -9922    -9876    -9841    -9799    -9757    -9728    -9698    -9664 
   -9638    -9616    -9591    -9564    -9531    -9491    -9459    -9433 
   -9400    -9369    -9347    -9325    -9294    -9265    -9251    -9239 
   -9218    -9201    -9199    -9200    -9188    -9171    -9163    -9167 
   -9165    -9151    -9145    -9149    -9142    -9114    -9089    -9078 
   -9063    -9034    -9004    -8974    -8939    -8900    -8861    -8818 
   -8768    -8716    -8667    -8618    -8567    -8517    -8462    -8411 
   -8373    -8338    -8312    -8299    -8287    -8279    -8282    -8291 
   -8297    -8300    -8302    -8309    -8319    -8333    -8362    -8398 
   -8439    -8492    -8547    -8600    -8664    -8744    -8820    -8891 
   -8967    -9043    -9113    -9179    -9242    -9302    -9362    -9416 
   -9456    -9491    -9526    -9559    -9597    -9646    -9686    -9714 
   -9750    -9796    -9834    -9868    -9911    -9957    -9994   -10025 
  -10052   -10080   -10110   -10132   -10151   -10186   -10232   -10270 
  -10298   -10331   -10371   -10405   -10436   -10473   -10516   -10559 
  -10599   -10638   -10683   -10731   -10775   -10809   -10843   -10884 
  -10923   -10959   -11005   -11061   -11108   -11148   -11200   -11255 
  -11298   -11338   -11379   -11409   -11430   -11450   -11466   -11479 
  -11492   -11495   -11490   -11495   -11504   -11505   -11507   -11518 
  -11516   -11499   -11488   -11485   -11470   -11447   -11427   -11406 
  -11381   -11363   -11349   -11333   -11308   -11281   -11259   -11241 
  -11220   -11192   -11167   -11153   -11143   -11122   -11099   -11088 
  -11079   -11060   -11040   -11030   -11021   -11005   -10993   -10996 
  -11001   -11003   -11010   -11012   -11004   -11000   -10997   -10989 
  -10985   -10981   -10957   -10920   -10889   -10855   -10806   -10754 
  -10709   -10661   -10605   -10544   -10484   -10428   -10370   -10317 
  -10272   -10233   -10201   -10177   -10156   -10137   -10124   -10119 
  -10118   -10120   -10124   -10125   -10124   -10126   -10130   -10144 
  -10161   -10167   -10166   -10167   -10166   -10154   -10142   -10138 
  -10132   -10118   -10108   -10098   -10076   -10047   -10020    -9991 
   -9954    -9913    -9870    -9823    -9778    -9741    -9703    -9662 
   -9625    -9590    -9552    -9519    -9489    -9442    -9385    -9340 
   -9297    -9242    -9192    -9152    -9107    -9056    -9011    -8979 
   -8958    -8935    -8906    -8881    -8861    -8838    -8817    -8808 
   -8800    -8784    -8766    -8762    -8776    -8784    -8781    -8791 
   -8816    -8838    -8853    -8874    -8904    -8925    -8936    -8954 
   -8975    -8985    -8985    -8988    -8996    -8994    -8979    -8964 
   -8954    -8936    -8904    -8864    -8829    -8795    -8760    -8728 
   -8702    -8679    -8652    -8620    -8595    -8577    -8553    -8531 
   -8524    -8516    -8497    -8485    -8488    -8496    -8508    -8531 
   -8555    -8574    -8603    -8641    -8685    -8740    -8802    -8860 
   -8922    -8993    -9066    -9142    -9228    -9325    -9426    -9521 
   -9617    -9718    -9816    -9917   -10027   -10139   -10245   -10343 
  -10436   -10527   -10615   -10698   -10778   -10857   -10938   -11022 
  -11106   -11190   -11279   -11362   -11431   -11499   -11561   -11611 
  -11665   -11725   -11780   -11829   -11879   -11928   -11981   -12041 
  -12095   -12134   -12178   -12235   -12286   -12325   -12371   -12425 
  -12463   -12483   -12510   -12548   -12581   -12603   -12621   -12649 
  -12682   -12700   -12708   -12730   -12756   -12757   -12748   -12750 
  -12751   -12731   -12698   -12665   -12624   -12563   -12496   -12432 
  -12358   -12267   -12170   -12077   -11981   -11870   -11748   -11635 
  -11523   -11396   -11271   -11161   -11059   -10955   -10847   -10746 
  -10653   -10556   -10459   -10377   -10308   -10238   -10173   -10120 
  -10073   -10026    -9984    -9943    -9911    -9892    -9871    -9842 
   -9822    -9807    -9778    -9734    -9690    -9643    -9587    -9526 
