Origin Time       2011/03/11 14:46:00
Lat.              38.103
Long.             142.860
Depth. (km)       24
Mag.              9.0
Station Code      HKD060
Station Lat.      43.9136
Station Long.     144.6657
Station Height(m) 6
Record Time       2011/03/11 14:48:28
Sampling Freq(Hz) 100Hz
Duration Time(s)  300
Dir.              E-W
Scale Factor      3920(gal)/6182761
Max. Acc. (gal)   7.019
Last Correction   2011/03/11 14:48:13
Memo.             
[...]
   -7744    -7311    -6915    -6570    -6266    -5975    -5649    -5270 
   -4865    -4529    -4353    -4295    -4189    -3910    -3481    -3019 
   -2585    -2167    -1780    -1477    -1246     -992     -690     -458 
    -387     -423     -510     -669     -875    -1003     -983     -859 
    -692     -516     -367     -241      -23      381      852     1154 
    1190     1054      820      474       43     -377     -734    -1065 
   -1346    -1418    -1231     -994     -916     -981    -1013     -876 
    -607     -339     -147     -100     -340     -919    -1714    -2615 
   -3517    -4266    -4806    -5152    -5319    -5448    -5729    -6236 
   -6938    -7719    -8397    -8861    -9083    -9039    -8776    -8445 
   -8239    -8286    -8512    -8763    -8913    -8892    -8889    -9035 
   -9164    -9400    -9917   -10234   -10112   -10050   -10117    -9970 
   -9720    -9594    -9449    -9124    -8777    -8414    -7986    -7776 
   -7788    -7963    -8491    -9237    -9816   -10000    -9814    -9313 
   -8573    -7912    -7515    -7293    -7226    -7283    -7405    -7546 
   -7665    -7882    -8310    -8845    -9286    -9494    -9556    -9585 
   -9498    -9278    -9013    -8722    -8353    -7846    -7278    -6740 
   -6130    -5396    -4691    -4170    -3958    -4186    -4819    -5575 
   -6128    -6343    -6230    -5830    -5206    -4488    -3931    -3728 
   -3775    -3930    -4222    -4642    -5061    -5306    -5291    -5195 
   -5259    -5484    -5754    -6013    -6180    -6109    -5817    -5590 
   -5654    -6018    -6642    -7446    -8288    -8985    -9382    -9558 
   -9747   -10009   -10262   -10552   -10975   -11403   -11606   -11572 
  -11402   -11119   -10796   -10585   -10533   -10544   -10475   -10316 
  -10194   -10163   -10155   -10112   -10050   -10009    -9879    -9518 
   -9050    -8733    -8631    -8628    -8655    -8684    -8624    -8453 
   -8274    -8131    -8045    -8081    -8244    -8427    -8413    -8079 
   -7603    -7256    -7099    -7053    -7119    -7358    -7706    -8004 
   -8221    -8507    -8900    -9250    -9530    -9913   -10488   -11106 
  -11550   -11782   -11892   -11876   -11722   -11580   -11581   -11657 
  -11661   -11574   -11478   -11372   -11212   -11057   -10965   -10868 
  -10633   -10236    -9860    -9656    -9562    -9484    -9453    -9502 
   -9469    -9184    -8743    -8345    -8071    -7943    -8020    -8356 
   -8886    -9461    -9970   -10348   -10499   -10298    -9755    -9082 
   -8483    -7987    -7587    -7367    -7437    -7793    -8305    -8815 
   -9205    -9335    -9139    -8748    -8359    -8025    -7677    -7363 
   -7261    -7338    -7448    -7696    -8181    -8622    -8779    -8808 
   -8723    -8367    -7968    -7731    -7553    -7499    -7669    -7944 
   -8190    -8384    -8401    -8030    -7458    -6965    -6486    -6012 
   -5705    -5630    -5657    -5687    -5831    -6134    -6499    -6835 
   -7160    -7623    -8211    -8727    -9064    -9206    -9200    -9063 
   -8711    -8206    -7653    -7057    -6584    -6359    -6332    -6514 
   -6879    -7279    -7627    -7883    -8051    -8229    -8468    -8693 
   -8816    -8883    -8984    -9065    -9077    -9122    -9255    -9395 
   -9472    -9584    -9954   -10572   -11183   -11684   -12122   -12448 
  -12546   -12436   -12258   -12035   -11671   -11236   -10966   -10956 
  -11131   -11454   -11908   -12387   -12691   -12717   -12565   -12328 
  -11991   -11597   -11251   -11033   -10946   -10887   -10772   -10606 
  -10324    -9879    -9456    -9246    -9150    -8995    -8760    -8481 
   -8184    -7848    -7463    -7146    -6957    -6752    -6452    -6191 
   -6044    -5861    -5526    -5170    -4946    -4760    -4441    -4044 
   -3762    -3660    -3681    -3835    -4197    -4689    -5133    -5468 
   -5731    -5923    -5949    -5731    -5378    -5038    -4751    -4517 
   -4314    -4102    -3884    -3725    -3775    -4147    -4742    -5380 
   -6001    -6559    -6932    -7071    -7050    -6997    -6985    -7018 
   -7073    -7069    -6894    -6474    -5850    -5252    -4912    -4854 
   -5037    -5439    -5964    -6450    -6816    -7098    -7332    -7505 
   -7569    -7508    -7370    -7141    -6766    -6351    -6089    -6051 
   -6207    -6479    -6762    -6919    -6805    -6452    -6094    -5817 
   -5542    -5311    -5235    -5294    -5408    -5559    -5716    -5810 
   -5841    -5894    -6029    -6272    -6665    -7217    -7906    -8630 
   -9121    -9226    -9067    -8731    -8210    -7657    -7339    -7334 
   -7502    -7697    -7871    -8045    -8205    -8310    -8414    -8593 
   -8788    -8897    -8955    -9054    -9166    -9178    -9063    -8916 
   -8807    -8688    -8515    -8325    -8092    -7703    -7170    -6657 
   -6262    -5926    -5601    -5359    -5299    -5413    -5643    -6014 
   -6562    -7173    -7670    -8039    -8387    -8694    -8811    -8735 
   -8626    -8538    -8380    -8142    -7970    -7958    -7993    -7938 
   -7807    -7582    -7139    -6528    -6027    -5787    -5716    -5721 
   -5782    -5824    -5727    -5468    -5111    -4714    -4305    -3904 
   -3587    -3502    -3692    -3997    -4250    -4410    -4480    -4453 
   -4393    -4383    -4372    -4235    -3942    -3593    -3294    -3059 
   -2900    -2862    -2919    -2988    -3011    -3008    -3068    -3206 
   -3281    -3287    -3461    -3793    -4030    -4253    -4593    -4873 
   -5024    -5112    -5120    -5072    -5090    -5212    -5357    -5591 
   -5940    -6212    -6338    -6322    -6077    -5612    -5101    -4662 
   -4174    -3563    -3018    -2645    -2293    -1886    -1633    -1711 
   -1969    -2133    -2090    -1882    -1657    -1533    -1554    -1872 
   -2484    -3039    -3315    -3346    -3150    -2805    -2487    -2341 
   -2391    -2503    -2510    -2353    -2072    -1669    -1129     -623 
    -407     -512     -863    -1443    -2140    -2753    -3223    -3611 
   -3983    -4355    -4644    -4751    -4667    -4443    -4138    -3862 
   -3801    -4041    -4412    -4699    -4924    -5196    -5475    -5676 
   -5802    -5871    -5824    -5620    -5349    -5101    -4876    -4678 
   -4557    -4557    -4674    -4849    -5050    -5345    -5771    -6282 
   -6894    -7608    -8256    -8653    -8793    -8766    -8560    -8110 
   -7541    -7130    -7018    -7147    -7429    -7833    -8243    -8435 
   -8404    -8445    -8730    -9120    -9437    -9630    -9713    -9708 
   -9660    -9680    -9870   -10174   -10439   -10609   -10730   -10823 
  -10843   -10764   -10690   -10705   -10731   -10704   -10671   -10687 
  -10745   -10802   -10890   -11020   -11065   -10911   -10571   -10210 
  -10068   -10103   -10142   -10195   -10194   -10068    -9847    -9500 
   -9127    -8866    -8757    -8892    -9237    -9633    -9994   -10314 
  -10605   -10671   -10346    -9835    -9228    -8418    -7502    -6668 
   -5973    -5316    -4642    -4078    -3669    -3314    -2916    -2578 
   -2508    -2611    -2779    -3185    -3669    -3901    -3988    -3960 
   -3746    -3582    -3611    -3733    -3882    -4134    -4430    -4581 
   -4806    -5191    -5365    -5281    -5172    -5094    -4916    -4573 
   -4178    -3749    -3249    -2783    -2483    -2398    -2407    -2360 
   -2298    -2296    -2286    -2199    -2070    -2004    -2019    -2041 
   -2098    -2252    -2453    -2641    -2841    -3100    -3392    -3613 
   -3696    -3665    -3522    -3203    -2725    -2274    -2027    -1930 
   -1898    -2022    -2342    -2792    -3298    -3771    -4287    -4916 
   -5413    -5655    -5840    -6031    -6105    -6121    -6209    -6319 
   -6343    -6239    -6140    -6241    -6521    -6936    -7508    -8071 
   -8433    -8616    -8757    -8906    -8993    -9009    -9080    -9291 
   -9578    -9837   -10125   -10532   -10997   -11456   -11899   -12306 
  -12657   -12904   -13024   -13052   -12978   -12739   -12307   -11771 
  -11254   -10767   -10281    -9812    -9358    -8926    -8571    -8330 
   -8178    -8070    -8037    -8212    -8595    -8971    -9192    -9362 
   -9633    -9994   -10345   -10684   -11043   -11306   -11325   -11106 
  -10707   -10171    -9592    -9126    -8889    -8832    -8758    -8539 
   -8216    -7893    -7612    -7398    -7317    -7352    -7370    -7321 
   -7305    -7397    -7506    -7518    -7442    -7315    -7101    -6802 
   -6510    -6316    -6177    -5974    -5750    -5668    -5743    -5849 
   -5925    -5973    -5894    -5608    -5247    -4958    -4714    -4443 
   -4148    -3907    -3786    -3807    -4014    -4446    -5055    -5680 
   -6176    -6557    -6905    -7231    -7549    -7917    -8320    -8607 
   -8664    -8599    -8580    -8604    -8593    -8572    -8629    -8727 
   -8733    -8682    -8783    -9093    -9487    -9911   -10429   -11007 
  -11434   -11546   -11412   -11203   -10979   -10732   -10612   -10764 
  -11057   -11287   -11442   -11580   -11709   -11832   -12032   -12390 
  -12844   -13254   -13550   -13727   -13743   -13570   -13325   -13156 
  -13062   -12983   -12916   -12879   -12879   -12936   -13079   -13355 
  -13763   -14193   -14535   -14792   -15032   -15186   -15124   -14986 
  -14987   -15160   -15457   -15731   -15856   -15904   -15810   -15409 
  -15042   -15044   -14959   -14590   -14421   -14334   -13887   -13303 
  -12905   -12563   -12118   -11677   -11264   -10903   -10836   -10981 
  -11130   -11379   -11689   -11827   -11755   -11664   -11614   -11497 
  -11383   -11385   -11419   -11327   -11051   -10726   -10473   -10198 
   -9829    -9454    -9177    -8988    -8729    -8354    -7951    -7457 
   -6830    -6236    -5755    -5318    -4907    -4527    -4189    -3915 
   -3681    -3498    -3373    -3182    -2814    -2381    -2089    -1929 
   -1703    -1379    -1095     -865     -564     -182       97      181 
     181      191      205      233      342      564      829     1031 
    1141     1156     1054      857      651      502      364       94 
    -372     -967    -1654    -2407    -3061    -3433    -3496    -3364 
   -3142    -2859    -2591    -2483    -2554    -2622    -2540    -2367 
   -2187    -2005    -1861    -1865    -2079    -2391    -2602    -2630 
   -2502    -2237    -1875    -1515    -1279    -1229    -1353    -1646 
   -2127    -2712    -3224    -3519    -3527    -3266    -2877    -2521 
   -2231    -1884    -1385     -803     -258      243      744     1201 
    1500     1590     1506     1267      819      170     -515    -1137 
   -1760    -2421    -3012    -3405    -3636    -3839    -4058    -4277 
   -4500    -4720    -4913    -5100    -5375    -5789    -6250    -6637 
   -6936    -7190    -7335    -7234    -6895    -6481    -6097    -5742 
   -5471    -5440    -5711    -6078    -6332    -6530    -6797    -7075 
   -7266    -7455    -7793    -8253    -8689    -9037    -9333    -9608 
   -9841   -10000   -10072    -9971    -9566    -8906    -8194    -7533 
   -6935    -6463    -6246    -6338    -6619    -6962    -7336    -7671 
   -7871    -7972    -8136    -8432    -8697    -8714    -8450    -8031 
   -7596    -7239    -7041    -7054    -7186    -7229    -7084    -6810 
   -6460    -6075    -5770    -5584    -5398    -5167    -4880    -4397 
   -3824    -3453    -3150    -2830    -2819    -2985    -2942    -2848 
   -2949    -3119    -3199    -3361    -3723    -4128    -4608    -5130 
   -5532    -5875    -6166    -6368    -6513    -6615    -6620    -6446 
   -6205    -6077    -6045    -6030    -6008    -6006    -5966    -5834 
   -5769    -5843    -5896    -5894    -5869    -5808    -5749    -5634 
   -5438    -5266    -5090    -4834    -4566    -4362    -4231    -4144 
   -4064    -3986    -3867    -3635    -3310    -2963    -2676    -2486 
   -2354    -2302    -2376    -2485    -2551    -2604    -2671    -2686 
   -2616    -2625    -2883    -3347    -3911    -4514    -5073    -5489 
   -5727    -5872    -6038    -6191    -6210    -6130    -6108    -6166 
   -6177    -6090    -5988    -5954    -5996    -6137    -6443    -6938 
   -7501    -7927    -8146    -8208    -8118    -7925    -7778    -7758 
   -7804    -7822    -7816    -7888    -8083    -8373    -8772    -9267 
   -9732   -10028   -10144   -10196   -10249   -10185    -9857    -9332 
   -8799    -8303    -7812    -7414    -7171    -6967    -6684    -6346 
   -6078    -5999    -6109    -6342    -6620    -6818    -6891    -6908 
   -6898    -6786    -6521    -6235    -6093    -6061    -6019    -5982 
   -6027    -6136    -6180    -6108    -5991    -5838    -5561    -5137 
   -4664    -4249    -3849    -3365    -2848    -2426    -2141    -2016 
   -2090    -2285    -2431    -2408    -2231    -1977    -1665    -1294 
    -953     -749     -669     -628     -603     -599     -538     -354 
    -132      -21      -47     -154     -355     -694    -1114    -1471 
   -1682    -1775    -1770    -1651    -1486    -1439    -1598    -1864 
   -2114    -2394    -2819    -3337    -3791    -4117    -4333    -4419 
   -4374    -4287    -4228    -4145    -3965    -3752    -3655    -3722 
   -3959    -4403    -5021    -5679    -6240    -6665    -7018    -7342 
   -7606    -7791    -7955    -8140    -8279    -8320    -8296    -8220 
   -8078    -7895    -7752    -7726    -7779    -7816    -7855    -7955 
   -8082    -8187    -8323    -8555    -8842    -9131    -9477    -9910 
  -10349   -10705   -10961   -11240   -11661   -12177   -12735   -13371 
  -14058   -14710   -15312   -15883   -16357   -16592   -16547   -16389 
  -16321   -16366   -16430   -16482   -16605   -16817   -17010   -17179 
  -17436   -17746   -17908   -17812   -17566   -17357   -17247   -17187 
  -17213   -17392   -17641   -17829   -17958   -18052   -18025   -17817 
  -17525   -17258   -17032   -16839   -16724   -16694   -16615   -16385 
  -16076   -15808   -15587   -15359   -15141   -15026   -15028   -15011 
  -14837   -14497   -14031   -13455   -12851   -12362   -12055   -11852 
  -11648   -11452   -11303   -11136   -10896   -10662   -10504   -10389 
  -10263   -10130    -9988    -9718    -9208    -8604    -8217    -8157 
   -8304    -8563    -8890    -9111    -9030    -8688    -8303    -8035 
   -7927    -8007    -8294    -8683    -8998    -9147    -9110    -8912 
   -8622    -8314    -8053    -7844    -7657    -7518    -7467    -7496 
   -7547    -7567    -7604    -7783    -8095    -8418    -8828    -9482 
  -10252   -10945   -11571   -12173   -12690   -13073   -13395   -13712 
  -13965   -14108   -14160   -14165   -14192   -14292   -14491   -14845 
  -15368   -15932   -16361   -16587   -16646   -16562   -16339   -16078 
  -15913   -15814   -15688   -15564   -15491   -15378   -15128   -14807 
  -14588   -14535   -14550   -14544   -14512   -14406   -14095   -13551 
  -12930   -12390   -11945   -11582   -11341   -11202   -11026   -10654 
  -10056    -9329    -8562    -7851    -7353    -7139    -7112    -7130 
   -7126    -7080    -6930    -6571    -6026    -5470    -5004    -4585 
   -4226    -4034    -4023    -4058    -4044    -4009    -3970    -3872 
   -3719    -3609    -3550    -3403    -3100    -2775    -2580    -2518 
   -2570    -2798    -3203    -3608    -3829    -3891    -3963    -4092 
   -4162    -4163    -4222    -4333    -4347    -4205    -3994    -3842 
   -3774    -3731    -3716    -3754    -3763    -3694    -3623    -3646 
   -3760    -3877    -3914    -3851    -3678    -3395    -3064    -2773 
   -2524    -2277    -2055    -1941    -1954    -2022    -2135    -2335 
   -2561    -2718    -2795    -2824    -2785    -2671    -2604    -2718 
   -2974    -3208    -3278    -3172    -2969    -2696    -2398    -2248 
   -2348    -2559    -2746    -2972    -3302    -3629    -3802    -3814 
   -3770    -3697    -3534    -3270    -3015    -2883    -2818    -2744 
   -2721    -2780    -2844    -2851    -2864    -2985    -3221    -3489 
   -3701    -3829    -3889    -3913    -3952    -4006    -4043    -4129 
   -4395    -4802    -5156    -5377    -5574    -5834    -6108    -6317 
   -6467    -6591    -6641    -6576    -6519    -6586    -6695    -6711 
   -6626    -6522    -6413    -6245    -6053    -5883    -5661    -5341 
   -5008    -4825    -5023    -5537    -5878    -5931    -6117    -6327 
   -6187    -6227    -6727    -6920    -6815    -6987    -7102    -6961 
   -6965    -7198    -7329    -7349    -7538    -7512    -7289    -7549 
   -8012    -8379    -8921    -9662   -10410   -10900   -11185   -11412 
  -11398   -11102   -10693   -10355   -10155   -10022   -10074   -10377 
  -10714   -10937   -11007   -11049   -11158   -11070   -10766   -10548 
  -10425   -10364   -10440   -10665   -11035   -11385   -11518   -11487 
  -11396   -11246   -11035   -10801   -10597   -10449   -10372   -10445 
  -10691   -10992   -11190   -11164   -10879   -10351    -9621    -8866 
   -8285    -7881    -7529    -7156    -6813    -6523    -6180    -5718 
   -5182    -4669    -4281    -4074    -4085    -4308    -4546    -4667 
   -4781    -4867    -4705    -4263    -3692    -3080    -2392    -1661 
   -1075     -740     -558     -436     -403     -537     -784     -959 
   -1005     -968     -799     -413      110      528      715      709 
     520      139     -329     -694     -866     -938    -1026    -1138 
   -1268    -1473    -1778    -2069    -2181    -2121    -2047    -2031 
   -2047    -2107    -2238    -2392    -2479    -2464    -2396    -2307 
   -2145    -1918    -1766    -1758    -1841    -1988    -2241    -2616 
   -3011    -3338    -3628    -3879    -4042    -4149    -4284    -4501 
   -4771    -5017    -5222    -5409    -5583    -5758    -5990    -6328 
   -6689    -6851    -6780    -6680    -6512    -6193    -6018    -5996 
   -5826    -5653    -5574    -5326    -4968    -4648    -4277    -3927 
   -3856    -3985    -3967    -3906    -3977    -3920    -3664    -3433 
   -3372    -3424    -3489    -3634    -3876    -4085    -4190    -4275 
   -4471    -4727    -4931    -5150    -5479    -5893    -6253    -6481 
   -6735    -7075    -7292    -7342    -7325    -7218    -6949    -6494 
   -5952    -5471    -5080    -4776    -4665    -4810    -5099    -5402 
   -5697    -5981    -6172    -6210    -6174    -6198    -6322    -6501 
   -6715    -6944    -7080    -7022    -6778    -6454    -6170    -5943 
   -5776    -5789    -6036    -6368    -6704    -7123    -7579    -7930 
   -8171    -8401    -8645    -8801    -8796    -8714    -8677    -8669 
   -8622    -8584    -8663    -8830    -8963    -9027    -9075    -9121 
   -9092    -8952    -8838    -8875    -8957    -8948    -8883    -8799 
   -8670    -8540    -8490    -8535    -8600    -8609    -8587    -8601 
   -8667    -8761    -8911    -9126    -9255    -9144    -8886    -8664 
   -8495    -8341    -8261    -8286    -8333    -8296    -8163    -8026 
   -7970    -7988    -8050    -8215    -8462    -8590    -8526    -8408 
   -8280    -8128    -8049    -8109    -8279    -8477    -8601    -8717 
   -8953    -9247    -9545    -9937   -10473   -11041   -11500   -11857 
  -12190   -12431   -12447   -12284   -12141   -12097   -12113   -12252 
  -12588   -13002   -13317   -13517   -13689   -13869   -14060   -14323 
  -14735   -15277   -15838   -16345   -16822   -17266   -17587   -17732 
  -17783   -17830   -17838   -17734   -17556   -17378   -17186   -16968 
  -16808   -16748   -16718   -16659   -16615   -16620   -16642   -16663 
  -16701   -16756   -16768   -16685   -16573   -16566   -16654   -16679 
  -16575   -16426   -16273   -16082   -15870   -15710   -15629   -15548 
  -15400   -15213   -14984   -14630   -14146   -13662   -13308   -13065 
