Origin Time       2011/03/11 14:46:00
Lat.              38.103
Long.             142.860
Depth. (km)       24
Mag.              9.0
Station Code      HKD062
Station Lat.      43.6746
Station Long.     143.3088
Station Height(m) 500
Record Time       2011/03/11 14:49:07
Sampling Freq(Hz) 100Hz
Duration Time(s)  195
Dir.              N-S
Scale Factor      3920(gal)/6182761
Max. Acc. (gal)   3.563
Last Correction   2011/03/11 14:48:52
Memo.             
[...]
     935     1219     1556     1932     2291     2447     2118     1286 
     462      216      572     1231     1997     2633     2883     2784 
    2520     2203     1920     1742     1558     1114      505      252 
     619     1196     1346      990      710      909     1324     1613 
    1831     2106     2227     1994     1674     1586     1658     1708 
    1666     1496     1181      802      616      832     1257     1591 
    1756     1659     1259      856      857     1415     2301     2927 
    2783     2131     1797     2054     2333     2066     1336      705 
     557      796     1183     1556     1670     1415     1212     1458 
    1847     1972     2017     2284     2619     2708     2486     2010 
    1427     1194     1733     2654     3071     2831     2661     2989 
    3353     3326     3165     3128     3106     2995     2689     2092 
    1435     1068     1030     1123     1160     1216     1596     2198 
    2468     2291     2160     2372     2655     2635     2244     1638 
    1131     1163     1862     2689     2944     2533     2026     2012 
    2429     2734     2664     2369     2098     2072     2208     2012 
    1327      658      364      342      540      932     1253     1244 
     907      576      728     1321     1794     1968     2166     2481 
    2640     2610     2683     2780     2325     1155       69      -95 
     437      976     1446     1979     2373     2524     2511     2310 
    1857     1165      472      239      624     1260     1752     1968 
    1907     1624     1281     1202     1630     2284     2607     2430 
    2108     2010     2026     1791     1318      948      799      739 
     739      882     1129     1408     1683     1733     1420     1055 
     980     1263     1770     2145     2087     1673     1282     1260 
    1572     1756     1446      915      722      989     1344     1384 
    1206     1238     1560     2067     2635     2762     2152     1452 
    1325     1402     1098      654      638     1073     1498     1638 
    1637     1635     1668     1875     2142     1987     1396      992 
    1016     1206     1547     1985     2163     2126     2153     2136 
    1996     1964     2087     2069     1735     1413     1547     2020 
    2297     2125     1718     1442     1585     1997     1983     1287 
     743     1161     2189     2878     2759     2040     1319     1104 
    1282     1320      981      548      446      812     1386     1770 
    1757     1468     1266     1428     1888     2366     2689     2807 
    2679     2379     2158     2203     2319     2188     1917     1742 
    1400      602     -137      -67      728     1554     2019     2165 
    2087     1953     2007     2135     2010     1666     1435     1476 
    1487     1146      838     1093     1630     1874     1866     1972 
    2288     2716     3089     3139     2788     2323     1914     1421 
     838      433      480     1026     1668     1843     1502     1241 
    1601     2338     2763     2609     2099     1425      769      479 
     493      380      263      591     1247     1626     1468     1196 
    1205     1387     1562     1777     2063     2248     2104     1685 
    1403     1575     1978     2181     2091     1825     1557     1556 
    1799     1892     1754     1726     1891     1880     1486     1062 
    1031     1368     1804     2135     2242     2174     2037     1856 
    1839     2214     2652     2686     2409     2063     1731     1752 
    2353     2886     2580     1769     1362     1610     2120     2414 
    2231     1818     1653     1758     1779     1543     1147      709 
     314      145      347      768     1226     1744     2194     2162 
    1606     1181     1382     1898     2191     2137     1873     1559 
    1476     1883     2680     3406     3446     2636     1704     1434 
    1737     2042     2031     1750     1369      988      655      524 
     729     1127     1560     2041     2379     2381     2356     2550 
    2620     2269     1668     1066      652      717     1360     2115 
    2446     2345     2044     1605     1018      472      286      550 
     983     1264     1496     1894     2182     2064     1813     1846 
    2195     2613     2854     2735     2247     1826     1900     2193 
    2225     1970     1681     1713     2241     2813     2794     2258 
    1823     1692     1639     1729     2135     2567     2584     2225 
    1980     2174     2594     2836     2738     2431     2129     1939 
    1871     1869     1743     1373     1010      882      852      953 
    1373     1842     1925     1669     1384     1129      911     1001 
    1495     1944     1798     1104      546      562      938     1407 
    1735     1560      966      487      327      326      459      737 
     967     1017     1074     1363     1690     1673     1391     1270 
    1493     1929     2267     2237     2021     2118     2521     2758 
    2862     3117     3182     2679     1888     1240      928     1117 
    1804     2536     2756     2302     1558     1149     1238     1376 
    1277     1186     1377     1680     1676     1263      807      644 
     935     1772     2770     3147     2618     1650      897      680 
     827      974      965      983     1259     1746     2191     2368 
    2292     2141     1950     1617     1141      686      299     -163 
    -606     -652     -103      902     2035     2716     2311     1014 
     -69     -168      522     1451     2251     2689     2675     2335 
    1805     1216      869      927     1145     1266     1347     1441 
    1349      883      275      190      880     1607     1691     1417 
    1339     1593     2167     2872     3176     2764     1948     1205 
     651      159     -147        7      484      874     1111     1398 
    1605     1487     1295     1284     1300     1340     1509     1549 
    1201      713      619     1014     1445     1639     1744     1807 
    1771     1861     2179     2280     1880     1360     1026      713 
     441      520      999     1656     2161     2179     1721     1220 
    1183     1677     2212     2381     2361     2459     2515     2273 
    1919     1649     1342      990      763      640      533      544 
     693      846     1043     1443     1930     2222     2277     2330 
    2538     2709     2588     2275     1979     1726     1475     1273 
    1241     1454     1845     2100     1803      996      235        3 
     438     1285     1997     2214     2003     1638     1408     1368 
    1265      990      907     1397     2196     2654     2569     2296 
    2180     2293     2551     2816     2930     2777     2345     1744 
    1151      773      756     1016     1301     1319      847       93 
    -392     -271      371     1206     1841     1898     1311      647 
     571     1049     1551     1799     1979     2385     2883     2795 
    1838      775      411      693     1168     1509     1438      789 
     -74     -359      281     1371     2215     2452     2003      951 
    -310    -1084     -977     -358      148      360      445      478 
     442      465      717     1098     1406     1698     1973     2051 
    2157     2604     2878     2244     1040      265      237      532 
     780      893      837      722      879     1434     2056     2389 
    2430     2361     2212     1840     1295      907      882     1124 
    1393     1394      988      545      613     1216     1803     1764 
    1002       54     -411     -202      244      456      548      923 
    1570     1972     1800     1380     1188     1381     1807     1891 
    1149      109     -307      -33      447      859     1117     1229 
    1340     1642     2077     2193     1711     1081      927     1257 
    1558     1465     1144      994     1049      939      631      697 
    1481     2521     3079     2849     2115     1424     1036      774 
     432       46     -196        2      843     2024     2855     2969 
    2627     2251     1970     1779     1712     1663     1397     1064 
    1395     2712     4189     4821     4509     3728     2831     2045 
    1615     1524     1324      776      347      432      727      943 
    1243     1643     1786     1595     1516     1697     1764     1720 
    2002     2625     3049     2995     2853     2878     2733     2225 
    1666     1316      930      142     -830    -1292     -909      -70 
     673     1104     1160      910      728      871     1004      715 
     304      386      892     1219     1147      846      530      558 
     998     1285     1104      838     1002     1733     2637     3309 
    3740     3829     3462     3026     2958     3203     3397     3318 
    3029     2577     1949     1338      991      779      413      131 
     495     1367     2044     2371     2554     2264     1154     -143 
    -551      177     1410     2554     3389     3759     3536     2937 
    2410     2131     1915     1542      977      412      117      170 
     410      504      140     -466     -680     -217      595     1153 
    1000      106    -1032    -1649    -1445     -857     -326      264 
    1141     2067     2611     2701     2572     2350     2012     1626 
    1340     1275     1508     1983     2394     2361     1835     1065 
     275     -225      -26      849     1761     2262     2605     2957 
    2988     2668     2524     2798     3185     3382     3143     2271 
    1209      819     1156     1390     1111      673      354      154 
     176      558     1117     1392     1135      622      272      196 
     389      927     1704     2499     3172     3420     2838     1455 
    -130    -1096     -792      701     2200     2415     1465      590 
     535      942     1113      823      379      273      868     2102 
    3390     4103     4137     3702     2955     2186     1802     1960 
    2507     3110     3346     3112     2946     3402     4185     4513 
    4101     3309     2526     1899     1587     1550     1156      100 
    -788     -760      -29     1061     2331     3426     4020     3962 
    3215     1982      609     -629    -1332    -1102        9     1662 
    3373     4280     3803     2412     1024      172       24      427 
     972     1470     1931     2333     2852     3654     4354     4430 
    3939     3207     2311     1305      459      163      613     1460 
    2118     2331     2167     1886     1791     1968     2263     2328 
    1815      865      267      642     1601     2230     2102     1442 
     647       76       96      783     1746     2598     3208     3500 
    3431     3191     3084     3080     2896     2466     1884     1278 
     946     1009     1051      749      335      -21     -426     -816 
   -1011     -797       45     1247     2143     2535     2728     2719 
    2207     1402     1062     1509     2076     1969     1273      604 
     372      825     2010     3297     3685     2953     1930     1610 
    2248     3227     3877     4072     3700     2735     1890     1849 
    2409     2992     3181     2995     2896     3222     3766     3934 
    3298     1935      358     -655     -541      456     1530     2104 
    2101     1707     1275     1268     1769     2131     1779     1051 
     523      214      162      646     1374     1735     1831     2227 
    3066     3907     4104     3414     2316     1527     1498     2246 
    3130     3285     2695     2093     1937     2103     2068     1348 
     190     -629     -728     -280      385     1006     1533     2193 
    3111     3775     3521     2503     1401      634      343      549 
    1016     1348     1485     1752     2192     2495     2615     2862 
    3288     3598     3708     3568     2892     1773      667     -143 
    -326      430     1680     2394     2209     1789     1857     2365 
    2629     2233     1558     1110      804      227     -645    -1241 
   -1052     -159     1028     1930     2012     1380      723      634 
    1162     1965     2907     3990     4775     4728     3920     2928 
    2145     1485      867      357     -346    -1470    -2215    -1612 
     -39     1274     1761     1829     2023     2305     2093     1024 
    -292     -705      131     1435     2327     2495     2061     1500 
    1345     1598     1766     1530     1049      659      669     1351 
    2540     3555     4000     4212     4579     4748     4099     2968 
    2402     2664     3018     2768     1753      291    -1015    -1580 
   -1038      426     1991     2956     3414     3824     4174     4142 
    3771     3407     3252     3102     2578     1863     1533     1510 
    1245      751      390       72     -418     -809     -940    -1017 
    -801      269     2078     3658     4034     3166     1817      690 
      95       61      461     1222     2249     3027     2956     2144 
    1227      550       13     -450     -722     -710     -458     -148 
     197      799     1727     2813     3796     4420     4531     4141 
    3606     3344     3053     1962      188    -1016     -686     1034 
    3385     5232     5374     3648     1201     -616    -1197     -726 
     260     1279     1961     1928     1210      680     1179     2350 
    3299     3846     4095     3740     2687     1526      854      503 
       7     -336      246     1567     2334     1776      614      100 
     882     2681     4488     5364     5092     4078     3073     2674 
    2993     3819     4658     4960     4644     4152     3885     3707 
    3155     2071      726     -707    -2219    -3452    -4030    -3987 
   -3250    -1663      279     1576     1850     1911     2682     4048 
    5340     6065     5948     5152     4346     4025     4006     3725 
    2865     1679      819      673      859      824      521       85 
    -263      -63      710     1366     1241      357     -572     -882 
    -486      383     1295     1786     1832     1753     1653     1341 
     758      152     -308     -722     -973     -584      621     2322 
    4047     5256     5504     4873     4023     3604     3624     3412 
    2388      898      -39      254     1463     2512     2488     1458 
     292     -168      333     1253     1830     1967     1866     1609 
    1429     1477     1798     2355     2694     2430     1845     1382 
    1154     1160     1284     1106      453     -161     -198      326 
    1137     1942     2450     2676     3016     3713     4462     4717 
    4284     3475     2517     1349      258     -255     -264     -369 
   -1032    -1994    -2556    -2551    -2266    -1726     -882      135 
    1237     2248     2713     2453     2337     3467     5346     6220 
    5133     2654      170    -1270    -1724    -1682    -1255     -496 
     590     2148     3874     5202     5823     5506     4444     3413 
    2837     2376     1709     1134     1098     1654     2733     4316 
    5936     6770     6569     5702     4318     2421      370    -1291 
   -2179    -2031     -689     1441     3245     3718     2858     1521 
     569      453     1165     2099     2562     2532     2318     1817 
     910      126       82      626      999      727      216      165 
     717     1543     2192     2333     1896      894     -518    -1938 
   -2949    -3236    -2609    -1279       62      796     1020     1336 
    1972     2672     3273     3622     3424     2618     1407      155 
    -471       90     1613     3232     4056     3693     2513     1300 
     796     1288     2291     2904     2382      597    -1638    -3127 
   -3122    -1696      338     2072     2932     2746     1798      482 
    -853    -1629    -1463     -631      540     1947     3073     3128 
    2112     1042      714      826      835      687      375     -223 
    -969    -1382    -1066     -187      740     1450     2045     2638 
    3164     3440     3416     3435     3882     4596     5196     5606 
    5867     5945     5750     4998     3436     1607      566      553 
     908     1069      827      340      310     1191     2318     2689 
    2059      749     -797    -2060    -2494    -1713       65     1909 
    3006     3281     2990     2473     2277     2529     2523     1653 
     267     -903    -1609    -1867    -1452     -207     1448     2831 
    3418     2852     1443      145     -521     -672     -514     -271 
    -191     -223      -30      542     1395     2397     3285     3587 
    2976     1707      443     -193      154     1324     2608     3324 
    3256     2653     2142     2221     2633     2823     2646     2178 
    1511      901      510      180     -253     -818    -1410    -1749 
   -1601    -1014     -402     -218     -446     -712     -793     -703 
    -470      -84      490     1246     1882     2005     1743     1493 
    1194      606       -7     -159      199      731     1151     1445 
    1782     2180     2593     3091     3468     3361     2968     2912 
    3385     3852     3587     2363      668     -594     -674      557 
    2552     4325     4974     4346     3090     2037     1671     1765 
    1585      866      129       81     1149     2922     4150     4262 
    3986     3852     3516     2808     2002     1163      349      -64 
      64      411      694      947     1343     1909     2399     2462 
    1857      747      -65      177     1182     1961     1988     1402 
     484     -360     -557      204     1704     3210     3929     3789 
    3296     2923     3069     3838     4606     4646     4089     3461 
    2775     1847      818     -105     -859    -1305    -1278     -872 
    -383       24      558     1387     2268     3006     3519     3418 
    2366      713     -690    -1179     -550     1002     2800     3887 
    3876     3361     3091     3108     3140     3207     3323     3272 
    3013     2776     2678     2617     2343     1664      881      537 
     682      943      968      487     -447    -1210    -1282     -821 
     -72      886     1801     2616     3669     4934     5657     5191 
    3814     2339     1288      770      738      974     1069      862 
     609      561      860     1583     2452     3017     3227     3332 
    3436     3486     3563     3749     3644     2757     1400      445 
     284      403      171     -277     -392      -57      285      216 
    -161     -532     -758     -625       48      958     1736     2553 
    3591     4381     4375     3676     2726     2014     2114     2953 
    3621     3610     3289     3040     2790     2361     1759     1119 
     694      754     1163     1454     1577     2011     2889     3690 
    3948     3597     2709     1695     1318     1945     3104     3845 
    3598     2880     2751     3469     4246     4196     3078     1339 
    -162     -618        8      932     1394     1326     1396     2120 
    2967     3212     2842     2078     1198      686      575      328 
    -289     -960    -1214     -653      542     1467     1612     1445 
    1554     2020     2558     2737     2330     1569      893      572 
     593      686      620      475      239     -328    -1064    -1395 
   -1050     -309      338      755     1313     2183     2930     3252 
    3371     3404     3330     3409     3632     3534     2969     2202 
    1468      921      594      435      402      267     -230     -909 
   -1301    -1165     -674     -196       97      364      711      858 
