Origin Time       2011/03/11 14:46:00
Lat.              38.103
Long.             142.860
Depth. (km)       24
Mag.              9.0
Station Code      HKD075
Station Lat.      43.0767
Station Long.     145.1296
Station Height(m) 11
Record Time       2011/03/11 14:48:09
Sampling Freq(Hz) 100Hz
Duration Time(s)  300
Dir.              U-D
Scale Factor      3920(gal)/6182761
Max. Acc. (gal)   5.860
Last Correction   2011/03/11 14:47:54
Memo.             
[...]
   -6762    -5534    -4588    -5393    -7684    -9480    -9237    -7450 
   -5530    -4356    -4741    -6745    -8489    -8339    -7212    -6675 
   -6374    -5242    -3514    -2449    -3491    -6541    -8925    -8770 
   -7384    -6436    -5865    -5290    -5106    -5549    -6093    -6158 
   -5436    -4052    -2904    -2865    -3674    -4508    -5290    -6180 
   -6499    -5850    -5030    -4611    -4638    -5548    -7111    -7994 
   -7566    -6513    -6011    -6493    -6662    -5025    -2398    -1284 
   -2655    -4616    -4996    -3995    -3312    -3741    -4604    -4897 
   -4373    -3989    -4646    -5506    -5562    -5473    -6001    -6654 
   -6260    -4153    -1588     -827    -1951    -2895    -2690    -2199 
   -2133    -2163    -1818    -1585    -2554    -4635    -6336    -7109 
   -7931    -9001    -9107    -7417    -4673    -2711    -2873    -5014 
   -7748    -9028    -7629    -4954    -3721    -4425    -4995    -3873 
   -1944    -1622    -4159    -7831    -9673    -8794    -7039    -6215 
   -5792    -4547    -3033    -2950    -4739    -6586    -6532    -5160 
   -4702    -5694    -6239    -4978    -3079    -2539    -3632    -4830 
   -4855    -3994    -3499    -4209    -5569    -6351    -6182    -5422 
   -4206    -3025    -3311    -5454    -7355    -6811    -4090    -1265 
    -154     -956    -2041    -1586      -48      253    -1680    -4341 
   -5490    -4132    -1635     -952    -2990    -5155    -5624    -5772 
   -6694    -6892    -4874    -2094    -1402    -3341    -5850    -7199 
   -7883    -8949    -9876    -9352    -6930    -3817    -2332    -4021 
   -8210   -11795   -11887    -9446    -7227    -5629    -3773    -1996 
   -1599    -3015    -4760    -5169    -4375    -3506    -2850    -1779 
    -253      642      -77    -2468    -5890    -8304    -7151    -3497 
   -1411    -2178    -4093    -5776    -6227    -5450    -5039    -5412 
   -5268    -4323    -3537    -3505    -4018    -4467    -4570    -4343 
   -3667    -3042    -3381    -4490    -5412    -5659    -5514    -6039 
   -7421    -7844    -6340    -4553    -4297    -5426    -6529    -7013 
   -7200    -6938    -6130    -5270    -4556    -3929    -3578    -3693 
   -4326    -5405    -6513    -7052    -6807    -6178    -5669    -5404 
   -5239    -4707    -3652    -3214    -4208    -5575    -6204    -6311 
   -6553    -7122    -7368    -6383    -4569    -3844    -4949    -6239 
   -6774    -7048    -6914    -6470    -6044    -4825    -2939    -2366 
   -4022    -6327    -7028    -5499    -3081    -1573    -1540    -1758 
   -1034     -491    -1865    -4497    -6682    -7984    -8469    -8394 
   -8503    -8334    -6710    -4837    -4794    -5684    -5641    -5269 
   -5657    -5978    -5148    -3465    -1930    -1535    -2600    -4058 
   -4643    -4459    -4150    -3925    -4249    -5236    -5683    -5261 
   -5498    -6847    -7835    -7350    -5524    -3365    -2225    -2498 
   -3369    -4482    -6305    -8630   -10185    -9869    -7910    -5648 
   -4264    -4201    -5471    -7631    -9460    -9502    -7411    -4519 
   -2675    -2149    -1476     -457     -836    -2736    -3977    -3218 
   -1153      478      288    -1323    -2630    -2771    -2285    -2108 
   -2750    -3767    -4315    -4075    -3432    -3194    -3739    -4940 
   -6795    -8690    -9220    -8205    -7331    -7734    -8401    -7657 
   -5281    -3045    -2797    -3838    -4066    -3490    -3568    -3918 
   -3003     -769     1145      747    -2458    -6777   -10224   -12103 
  -12315   -10648    -7514    -4255    -2098    -1479    -2538    -5447 
   -8918    -9828    -7004    -2888      -13      957      335    -1122 
   -2860    -4714    -6073    -6230    -5231    -3382     -983     1054 
    1452      -52    -2127    -3366    -3869    -4407    -4803    -4624 
   -4704    -5829    -7059    -7267    -6785    -6781    -7822    -8776 
   -8124    -6536    -6103    -7499    -9226    -9206    -7045    -4304 
   -2509    -1779    -1021      329      982       61     -913     -466 
     761     1284      664      199      931     1372     -281    -3069 
   -4606    -4106    -3132    -3816    -6030    -7107    -5689    -3947 
   -4449    -7135   -10005   -11265   -10738    -9567    -8755    -8459 
   -8528    -8991    -9771   -10273    -9915    -8924    -7780    -6644 
   -5986    -6317    -7372    -8576    -9456    -9346    -7649    -4641 
   -1856    -1171    -2827    -4841    -5206    -4186    -3651    -4044 
   -3471    -1170      587      -37    -2035    -3512    -3652    -3129 
   -3574    -5233    -5684    -3452    -1262    -2287    -5424    -7614 
   -8209    -8346    -8667    -8916    -8251    -6905    -7055    -9481 
  -11545   -10745    -7539    -3987    -1756    -1130    -1330    -1890 
   -3181    -5394    -7148    -6606    -4612    -3805    -4788    -6177 
   -7154    -7864    -8207    -7382    -4900    -1990     -900    -2084 
   -3576    -3703    -2946    -2722    -3046    -2668    -1461     -799 
   -1682    -3549    -4959    -5515    -5752    -5407    -4261    -3201 
   -2815    -3230    -4635    -6258    -7130    -7664    -8429    -8855 
   -8075    -6333    -5068    -5110    -5574    -5072    -3237    -1210 
    -630    -1458    -1786     -769      238      222     -257     -503 
    -377     -107     -687    -3104    -6292    -7922    -7543    -6711 
   -6457    -6414    -5816    -4599    -3676    -3865    -5129    -7106 
   -9069    -9711    -8194    -5359    -3409    -3851    -6163    -8791 
  -10506   -10983   -10623    -9639    -7836    -5390    -3166    -2354 
   -3635    -6213    -8445    -9523    -9243    -7368    -4847    -3313 
   -2969    -3521    -5423    -8084    -9466    -8595    -6656    -5610 
   -6216    -6860    -5363    -2484    -1172    -2171    -3460    -3816 
   -3927    -4178    -3862    -2668    -1457    -1294    -2267    -3718 
   -5177    -6423    -7383    -8057    -7661    -5376    -2498    -1376 
   -3020    -7030   -11249   -12390    -9458    -4565     -493      815 
    -826    -3867    -6702    -8447    -8938    -8511    -6994    -4170 
   -1190      155    -1148    -4767    -8580    -9976    -8250    -4861 
   -2213    -2137    -4166    -5807    -5774    -5847    -7459    -8894 
   -8805    -8274    -7689    -6462    -5350    -5400    -6305    -7257 
   -7557    -6878    -6085    -6025    -5948    -5326    -4992    -4926 
   -4136    -3023    -2711    -3036    -3443    -3765    -3384    -2275 
   -1896    -2921    -4122    -4541    -4459    -4118    -3487    -2742 
   -2061    -2042    -3316    -4864    -5121    -4603    -4769    -5257 
   -4598    -3012    -2499    -4137    -6668    -8150    -8409    -8725 
   -9309    -9112    -7960    -6770    -6321    -6808    -7356    -6637 
   -4903    -3563    -2901    -2108    -1056     -892    -2475    -4550 
   -4891    -3431    -2168    -1834    -1400     -625     -390     -647 
     -57     1751     3288     3228     1448    -1371    -3761    -4273 
   -2677     -362      389    -1290    -3545    -4374    -4409    -5224 
   -6252    -5746    -3977    -3046    -3936    -5902    -8038    -9692 
  -10120    -9122    -7707    -7285    -8234    -9612   -10213    -9922 
   -9686    -9800    -9309    -7841    -6399    -6062    -7167    -8727 
   -8863    -7273    -5502    -4456    -3888    -3705    -4057    -4653 
   -5264    -5998    -6054    -4273    -1391      479      319    -1377 
   -3657    -5333    -5484    -4694    -4355    -4644    -4628    -4039 
   -4078    -6001    -8790    -9722    -7858    -5457    -4998    -5905 
   -6211    -6178    -7307    -9383   -10763   -10016    -7191    -4595 
   -4348    -5387    -5529    -4938    -4923    -5222    -4780    -3449 
   -1634     -148      -37     -912    -1451    -1875    -3306    -5477 
   -6931    -6450    -4055    -1584    -1317    -3330    -5533    -6406 
   -6244    -5869    -5321    -4099    -2353    -1197    -1402    -2631 
   -4218    -5774    -7235    -8639    -9761   -10296   -10130    -9230 
   -8011    -7556    -8335    -9273    -9248    -8727    -8517    -7787 
   -5574    -2935    -1424    -1315    -1908    -2188    -1849    -1792 
   -2706    -3656    -3113    -1346     -628    -2427    -5416    -7228 
   -7447    -7691    -8887    -9448    -7734    -5246    -4304    -4458 
   -4199    -3764    -4565    -6893    -8838    -8351    -5848    -3576 
   -2911    -3287    -3742    -4313    -5585    -7501    -8657    -7338 
   -3851     -993    -1142    -3654    -6047    -6729    -5889    -4485 
   -3095    -1671      -41     1411     1762      121    -3359    -6311 
   -6073    -3450    -1645    -1989    -2926    -2682    -1834    -2452 
   -5171    -8388   -10057    -9537    -7537    -5166    -3337    -2190 
   -1693    -2642    -5353    -8238    -9275    -8165    -6409    -5591 
   -5928    -6661    -7511    -9026   -11264   -13015   -13111   -11597 
   -9083    -6368    -4856    -5379    -6772    -7509    -7801    -8335 
   -8465    -7025    -3978     -933      133     -761    -1782    -2382 
   -3751    -5882    -7000    -6017    -3743    -1875    -1601    -2818 
   -4696    -6662    -7778    -6850    -4392    -2268    -1292    -1100 
   -1505    -2607    -4314    -5832    -5769    -3943    -1705      -79 
     263    -1277    -4049    -6390    -7044    -6049    -4519    -3555 
   -3268    -2807    -1827    -1375    -2343    -4049    -5142    -5074 
   -4447    -4453    -5536    -6454    -5679    -3651    -2765    -4411 
   -6960    -8101    -7723    -7213    -7244    -7277    -6694    -5663 
   -4939    -4999    -5504    -5856    -5885    -5802    -5672    -5331 
   -4816    -4124    -3022    -1711     -683      -71      -12     -806 
   -2373    -4060    -5046    -5039    -4433    -3855    -3802    -4288 
   -5180    -6681    -8452    -9370    -8584    -5975    -2517       62 
     561    -1185    -4052    -6566    -8732   -10873   -11827   -10459 
   -7515    -5323    -5733    -7730    -8545    -7663    -7036    -7173 
   -6346    -3893    -1481     -879    -2366    -5132    -7758    -8829 
   -8102    -6750    -5907    -5262    -4116    -3426    -4713    -7261 
   -8910    -9023    -8506    -7880    -6863    -5225    -3557    -2986 
   -3761    -4828    -5221    -5026    -4817    -4889    -4875    -3836 
   -1855     -647    -1071    -2067    -2611    -2732    -2711    -2236 
    -993       12     -401    -1428    -1546    -1118    -1773    -3804 
   -5318    -4466    -2138     -991    -2012    -3794    -4830    -5094 
   -5505    -6448    -7282    -7175    -5887    -4170    -3286    -3624 
   -4632    -5568    -5561    -4264    -2345     -610      464      726 
     555      155     -902    -2327    -2556     -947      900     1193 
    -233    -2392    -3981    -4504    -4893    -5796    -6463    -6383 
   -6042    -5922    -6559    -8356   -10582   -12109   -12486   -11628 
   -9727    -7862    -7544    -8657    -9391    -8975    -8172    -7008 
   -4544    -1191      937      311    -2325    -4375    -4490    -4240 
   -4735    -4737    -3676    -2963    -3597    -4853    -5749    -6390 
   -7302    -8458    -9264    -9017    -7670    -6252    -5961    -6590 
   -6836    -6577    -6877    -7604    -7305    -5139    -2021       29 
     157     -881    -2690    -4775    -5443    -4131    -2390    -1223 
    -274      417       68    -1797    -4657    -6865    -6815    -4802 
   -2781    -1986    -1867    -1822    -2613    -4816    -7264    -8486 
   -8377    -7874    -7967    -8718    -9247    -9166    -9027    -9077 
   -8870    -8368    -8034    -7767    -7190    -6633    -6709    -7335 
   -7686    -7066    -5799    -5046    -5638    -6997    -7651    -7213 
   -6862    -7229    -7443    -6860    -5924    -5093    -4398    -3829 
   -3567    -3971    -5067    -6265    -6928    -6737    -5943    -5435 
   -5467    -5412    -5396    -6028    -7003    -7567    -7421    -6614 
   -5411    -4344    -3705    -3752    -5266    -7912    -9444    -8156 
   -4604     -932      580     -656    -2865    -4122    -4520    -4988 
   -5423    -5262    -4604    -3993    -4138    -5406    -6752    -6686 
   -5296    -3752    -3051    -3873    -5697    -6548    -5335    -3396 
   -2821    -3956    -5079    -4703    -3501    -3131    -3698    -3584 
   -2069     -666     -992    -2532    -3698    -3960    -3554    -2716 
   -1998    -1709    -1617    -1902    -2690    -3049    -2474    -1834 
   -1704    -1767    -1611     -900      294     1160     1051      386 
    -176     -598     -976    -1283    -1197     -209     1082      846 
   -1804    -5148    -6533    -5787    -4960    -4989    -5219    -5316 
   -5679    -6646    -7960    -9231   -10507   -11354   -10634    -8416 
   -6430    -6063    -7187    -9045   -11046   -12439   -12610   -11728 
  -10531    -9752    -9379    -8923    -8426    -8441    -9131    -9600 
   -9159    -8355    -7551    -7059    -7513    -8248    -7909    -6302 
   -4320    -2977    -2659    -3098    -3692    -4173    -4732    -4684 
   -2944     -338      856     -271    -2291    -3341    -3134    -2732 
   -2754    -2435    -1004      745     1327      361    -1388    -3091 
   -4046    -3588    -1948     -230      635       95    -1851    -4665 
   -7782   -10226   -10879    -9768    -7502    -4569    -2215    -1915 
   -3877    -6906    -8995    -8810    -6857    -4205    -1611     -259 
   -1085    -3539    -6313    -8771   -10724   -11133    -8904    -5113 
   -2493    -3030    -6491   -10161   -11360   -10453    -9246    -8056 
   -6229    -3879    -2362    -3403    -6897    -9852    -9834    -8452 
   -8034    -7660    -5605    -2234      421      318    -2154    -4409 
   -5376    -6235    -7232    -6831    -4273     -583     2717     4361 
    3754     1327    -1714    -3793    -3941    -2752    -1794    -1826 
   -1962    -1370     -988    -2015    -4139    -6353    -7789    -7993 
   -7718    -7919    -7965    -7040    -5975    -5786    -6198    -6730 
   -7530    -8431    -8381    -6390    -2860      218      901     -936 
   -3620    -5571    -6840    -7836    -7897    -6573    -4451    -2341 
   -1169    -1884    -4094    -6091    -7262    -8070    -7841    -5679 
   -2331      320      666    -1064    -2871    -3570    -4067    -5150 
   -5556    -3928    -1511     -818    -2529    -5157    -6818    -6686 
   -5613    -5172    -5616    -5851    -5487    -5429    -6481    -8180 
   -8973    -7872    -6130    -6054    -7736    -9043    -9050    -8798 
   -9333   -10662   -11393    -9863    -6650    -4468    -5022    -7085 
   -8187    -7451    -6004    -4914    -4030    -3168    -2687    -2872 
   -3868    -5339    -6203    -5857    -4861    -3901    -3243    -3269 
   -4098    -4817    -4589    -3746    -2975    -2862    -3952    -5814 
   -6891    -6084    -4141    -3023    -3423    -4140    -4335    -4408 
   -5005    -6222    -6993    -6154    -4490    -3869    -4908    -6589 
   -6900    -4548    -1292     -254    -1616    -3042    -3588    -4064 
   -4435    -3870    -2841    -2535    -3026    -3910    -5236    -6998 
   -8791    -9603    -8468    -6187    -4712    -4752    -5664    -6948 
   -8591   -10252   -10919    -9914    -7756    -5642    -4565    -4484 
   -4439    -4308    -4958    -5995    -5842    -4319    -2850    -2350 
   -2647    -3243    -3757    -4190    -4483    -4038    -2768    -1689 
   -1203     -359      921     1199      -41    -1990    -3877    -4670 
   -3660    -2050    -1489    -1618    -1092     -102       15     -995 
   -2286    -3478    -4568    -5162    -5070    -4857    -5051    -5475 
   -5825    -6295    -7313    -8598    -8822    -7484    -6031    -5534 
   -5362    -5050    -5171    -6067    -7312    -8364    -8859    -8568 
   -7525    -6184    -5437    -5692    -6001    -5744    -5889    -6777 
   -7137    -6236    -4688    -3349    -2597    -2258    -1982    -1548 
    -853     -212     -402    -1324    -1440      -35     1437     1345 
     -81    -1372    -2057    -3063    -4725    -5760    -4716    -2383 
   -1667    -3942    -6955    -7738    -6503    -5832    -6761    -7860 
   -7683    -6604    -6044    -6348    -6669    -6575    -6160    -5552 
   -5288    -5783    -6319    -5941    -4881    -3985    -3726    -4179 
   -4839    -5190    -5645    -6253    -6042    -4955    -3827    -2902 
   -2396    -2778    -3923    -5440    -7055    -7887    -6807    -4349 
   -2585    -2487    -3196    -4095    -5440    -6962    -7655    -6826 
   -4674    -2271     -979    -1616    -3793    -6147    -7635    -7712 
   -6196    -4424    -4104    -4699    -5008    -5546    -6858    -8186 
   -8738    -8200    -6694    -4981    -3810    -3508    -4361    -6134 
   -7481    -7488    -7197    -7589    -7787    -6960    -5675    -5001 
   -5620    -6970    -7804    -7722    -6768    -5020    -3189    -2151 
   -2256    -3208    -4324    -5362    -6467    -7219    -6950    -5582 
   -3509    -1603     -982    -1815    -3237    -4427    -4979    -5086 
   -5179    -4652    -2759     -946    -1349    -3323    -4469    -4406 
   -4707    -5763    -6245    -5150    -3113    -1968    -2508    -3521 
   -4281    -5396    -6819    -7949    -8521    -8207    -7262    -6799 
   -7072    -7028    -6157    -5489    -6030    -7012    -7134    -6744 
   -6901    -7591    -8137    -7928    -6975    -6238    -6025    -5505 
   -4873    -5171    -6231    -6736    -5547    -3166    -1806    -2504 
   -3516    -3269    -2641    -2940    -3674    -3281    -1625     -786 
   -2237    -4514    -5298    -4564    -4072    -4491    -4705    -3771 
   -2355    -2198    -4075    -6374    -6845    -5510    -4359    -4731 
   -5977    -6233    -4738    -3394    -4382    -6717    -7613    -6398 
   -4745    -4182    -4840    -5691    -5741    -5321    -5423    -6139 
   -6933    -7491    -7571    -6967    -5894    -4970    -4565    -4279 
   -3652    -3076    -3053    -3322    -3475    -3363    -2972    -2688 
   -2941    -3624    -4605    -5818    -6648    -6544    -5964    -5729 
   -5967    -6502    -7444    -8683    -9707   -10142    -9896    -9167 
   -8414    -7850    -7180    -6493    -6492    -6893    -6739    -6334 
   -6343    -6335    -5418    -3299    -1297    -1206    -2565    -3763 
   -4670    -5656    -6323    -6046    -4262    -1327      803      868 
     -37     -689    -1127    -1580    -1782    -1046      585     1712 
    1402      251    -1003    -2487    -4136    -4931    -4530    -3743 
   -2782    -1699    -1526    -2760    -4284    -4711    -3922    -3008 
   -2802    -2932    -2720    -2418    -2741    -3510    -3879    -3783 
   -3781    -3785    -3667    -4169    -5260    -5571    -4974    -4802 
   -5103    -4775    -3732    -3075    -3915    -5998    -7589    -7623 
   -6870    -6170    -5208    -3589    -1822    -1109    -2043    -3700 
   -5111    -6233    -6977    -7123    -6673    -5613    -4291    -3495 
   -3459    -3723    -4173    -4901    -5270    -4731    -3893    -3533 
   -3581    -3778    -4328    -5274    -6118    -6619    -6903    -6899 
   -6665    -6579    -7033    -8122    -9318   -10035   -10214    -9972 
   -9677    -9689    -9590    -8826    -7641    -6704    -6264    -6005 
   -5863    -6198    -7208    -8638    -9380    -8210    -5727    -4054 
   -4473    -6382    -8393    -9682   -10094    -9822    -9193    -8429 
   -7880    -7768    -7636    -7099    -6481    -6153    -5948    -5571 
   -5116    -4814    -4778    -5042    -5326    -5067    -4059    -2956 
   -2699    -3219    -3337    -2503    -1838    -2328    -3152    -3277 
   -3149    -3364    -3261    -1951     -167     -118    -2491    -4823 
