Origin Time       2011/03/11 14:46:00
Lat.              38.103
Long.             142.860
Depth. (km)       24
Mag.              9.0
Station Code      HKD049
Station Lat.      44.0921
Station Long.     143.5336
Station Height(m) 59
Record Time       2011/03/11 14:49:22
Sampling Freq(Hz) 100Hz
Duration Time(s)  162
Dir.              E-W
Scale Factor      3920(gal)/6182761
Max. Acc. (gal)   2.364
Last Correction   2011/03/11 14:49:07
Memo.             
[...]
   -7494    -7411    -7457    -7505    -7451    -7318    -7151    -6951 
   -6774    -6788    -7092    -7559    -7969    -8193    -8213    -8130 
   -8083    -8112    -8149    -8132    -8105    -8072    -7890    -7521 
   -7102    -6700    -6272    -5842    -5521    -5345    -5225    -5141 
   -5149    -5183    -5097    -4892    -4702    -4686    -4918    -5274 
   -5520    -5535    -5379    -5148    -4941    -4851    -4846    -4819 
   -4777    -4743    -4640    -4425    -4184    -4066    -4196    -4593 
   -5147    -5688    -6085    -6315    -6400    -6318    -6067    -5735 
   -5482    -5443    -5591    -5765    -5829    -5695    -5340    -4847 
   -4367    -4075    -4057    -4272    -4612    -4945    -5183    -5311 
   -5340    -5279    -5108    -4843    -4616    -4562    -4687    -4896 
   -5120    -5374    -5621    -5708    -5571    -5290    -4954    -4618 
   -4304    -4096    -4128    -4356    -4601    -4786    -4904    -4886 
   -4667    -4310    -3960    -3717    -3627    -3726    -4037    -4475 
   -4827    -4950    -4850    -4571    -4242    -4083    -4242    -4669 
   -5103    -5308    -5289    -5136    -4905    -4708    -4667    -4773 
   -4912    -5006    -5063    -5126    -5234    -5419    -5720    -6094 
   -6349    -6351    -6173    -5923    -5631    -5386    -5329    -5500 
   -5778    -5990    -6008    -5833    -5598    -5437    -5363    -5360 
   -5466    -5662    -5860    -6024    -6200    -6446    -6787    -7192 
   -7547    -7736    -7751    -7715    -7746    -7851    -7967    -8052 
   -8111    -8099    -7973    -7858    -7871    -7864    -7662    -7325 
   -6995    -6745    -6548    -6338    -6126    -5921    -5649    -5302 
   -4967    -4702    -4539    -4488    -4507    -4578    -4744    -4982 
   -5157    -5135    -4905    -4566    -4268    -4110    -4155    -4458 
   -4942    -5425    -5800    -6061    -6224    -6348    -6543    -6835 
   -7142    -7357    -7434    -7418    -7376    -7310    -7206    -7096 
   -7046    -7099    -7202    -7237    -7144    -6964    -6771    -6616 
   -6511    -6468    -6497    -6525    -6450    -6280    -6133    -6163 
   -6421    -6796    -7163    -7463    -7631    -7639    -7569    -7479 
   -7286    -6939    -6523    -6115    -5795    -5698    -5872    -6229 
   -6648    -7004    -7203    -7189    -6916    -6432    -5925    -5585 
   -5495    -5636    -5851    -5921    -5785    -5563    -5370    -5236 
   -5158    -5187    -5359    -5593    -5806    -5999    -6157    -6220 
   -6157    -6079    -6151    -6357    -6563    -6707    -6819    -6920 
   -6944    -6841    -6700    -6650    -6710    -6844    -7073    -7438 
   -7898    -8345    -8706    -8914    -8915    -8760    -8564    -8405 
   -8299    -8249    -8240    -8189    -8047    -7875    -7730    -7582 
   -7352    -7016    -6680    -6542    -6741    -7212    -7757    -8211 
   -8470    -8541    -8520    -8432    -8256    -8082    -8015    -7994 
   -7875    -7620    -7362    -7244    -7239    -7210    -7081    -6919 
   -6820    -6770    -6700    -6592    -6478    -6423    -6503    -6741 
   -7041    -7180    -6998    -6618    -6329    -6289    -6479    -6841 
   -7322    -7811    -8136    -8204    -8061    -7744    -7297    -6913 
   -6804    -6994    -7364    -7732    -7953    -7975    -7762    -7353 
   -6969    -6844    -7052    -7498    -7960    -8239    -8242    -7945 
   -7485    -7092    -6874    -6831    -6908    -6976    -6882    -6504 
   -5838    -5100    -4588    -4433    -4551    -4821    -5145    -5383 
   -5459    -5446    -5425    -5430    -5467    -5496    -5511    -5589 
   -5774    -5996    -6100    -6000    -5783    -5573    -5402    -5249 
   -5107    -5007    -4961    -4904    -4794    -4713    -4782    -4998 
   -5270    -5461    -5433    -5179    -4827    -4541    -4520    -4854 
   -5355    -5781    -6059    -6160    -6052    -5770    -5368    -4953 
   -4640    -4410    -4202    -4017    -3884    -3837    -3889    -4001 
   -4118    -4251    -4465    -4791    -5159    -5497    -5830    -6178 
   -6475    -6659    -6740    -6780    -6751    -6517    -6047    -5537 
   -5236    -5229    -5385    -5541    -5687    -5851    -5970    -5982 
   -5952    -6001    -6135    -6245    -6286    -6293    -6314    -6416 
   -6591    -6677    -6492    -6019    -5469    -5080    -4897    -4868 
   -4980    -5182    -5358    -5476    -5670    -6015    -6357    -6571 
   -6749    -6984    -7231    -7472    -7765    -8128    -8473    -8664 
   -8629    -8423    -8159    -7904    -7679    -7487    -7281    -6964 
   -6514    -6042    -5708    -5619    -5745    -5990    -6269    -6486 
   -6615    -6727    -6836    -6884    -6908    -7066    -7419    -7775 
   -7898    -7834    -7828    -7992    -8234    -8374    -8265    -7878 
   -7341    -6857    -6534    -6339    -6194    -6034    -5821    -5608 
   -5507    -5573    -5840    -6292    -6779    -7070    -6995    -6610 
   -6174    -5870    -5728    -5750    -5940    -6285    -6646    -6795 
   -6692    -6456    -6145    -5834    -5645    -5629    -5726    -5801 
   -5750    -5601    -5455    -5389    -5428    -5570    -5823    -6190 
   -6590    -6867    -6922    -6767    -6471    -6116    -5800    -5637 
   -5714    -5972    -6190    -6218    -6117    -5996    -5893    -5836 
   -5853    -5932    -6000    -5981    -5874    -5693    -5468    -5367 
   -5574    -6043    -6544    -6881    -7002    -6964    -6833    -6672 
   -6553    -6496    -6518    -6670    -6907    -7054    -6980    -6751 
   -6471    -6159    -5856    -5677    -5682    -5809    -5958    -6113 
   -6355    -6696    -6961    -6945    -6644    -6270    -6071    -6221 
   -6743    -7442    -8019    -8324    -8366    -8176    -7785    -7271 
   -6751    -6355    -6155    -6079    -5974    -5773    -5565    -5449 
   -5323    -5009    -4548    -4148    -3908    -3823    -3935    -4306 
   -4881    -5467    -5849    -5991    -6019    -5983    -5845    -5670 
   -5641    -5868    -6234    -6507    -6607    -6612    -6597    -6544 
   -6397    -6187    -6045    -6047    -6096    -6036    -5837    -5594 
   -5429    -5400    -5440    -5436    -5380    -5348    -5351    -5321 
   -5249    -5228    -5334    -5523    -5659    -5624    -5394    -5066 
   -4841    -4896    -5245    -5734    -6164    -6424    -6554    -6624 
   -6598    -6461    -6362    -6469    -6794    -7163    -7360    -7343 
   -7197    -6956    -6616    -6272    -6120    -6279    -6606    -6774 
   -6584    -6120    -5617    -5255    -5068    -5008    -5012    -5004 
   -4936    -4819    -4690    -4595    -4575    -4623    -4792    -5229 
   -5889    -6472    -6729    -6675    -6511    -6425    -6436    -6424 
   -6284    -5999    -5627    -5318    -5209    -5306    -5545    -5861 
   -6163    -6394    -6587    -6789    -7027    -7300    -7558    -7716 
   -7689    -7453    -7075    -6638    -6218    -5923    -5812    -5870 
   -6065    -6308    -6477    -6464    -6205    -5772    -5353    -5136 
   -5193    -5440    -5710    -5850    -5799    -5643    -5500    -5359 
   -5192    -5057    -5003    -5001    -5003    -5037    -5213    -5536 
   -5881    -6206    -6604    -7079    -7451    -7587    -7569    -7503 
   -7315    -6904    -6388    -6019    -5896    -5886    -5853    -5787 
   -5708    -5616    -5506    -5372    -5273    -5341    -5598    -5886 
   -6025    -5988    -5939    -6016    -6163    -6280    -6364    -6406 
   -6344    -6152    -5843    -5426    -4996    -4752    -4837    -5188 
   -5584    -5827    -5913    -5968    -5997    -5885    -5640    -5430 
   -5387    -5501    -5675    -5821    -5922    -5969    -5905    -5753 
   -5639    -5634    -5692    -5760    -5916    -6301    -6872    -7414 
   -7791    -7972    -7981    -7908    -7879    -7962    -8104    -8183 
   -8185    -8247    -8449    -8621    -8555    -8317    -8137    -8074 
   -7990    -7837    -7762    -7903    -8181    -8388    -8437    -8373 
   -8169    -7791    -7372    -6986    -6541    -6007    -5437    -4907 
   -4460    -4070    -3797    -3777    -4010    -4404    -4930    -5568 
   -6265    -6965    -7574    -7977    -8121    -8077    -7995    -7975 
   -8033    -8153    -8272    -8263    -8055    -7702    -7332    -7007 
   -6656    -6249    -5959    -5965    -6197    -6449    -6640    -6808 
   -6902    -6759    -6351    -5908    -5663    -5548    -5327    -4958 
   -4618    -4404    -4288    -4258    -4298    -4385    -4559    -4849 
   -5184    -5462    -5633    -5721    -5773    -5799    -5817    -5921 
   -6135    -6378    -6631    -6923    -7168    -7188    -6878    -6319 
   -5712    -5195    -4799    -4584    -4604    -4824    -5143    -5392 
   -5470    -5473    -5553    -5765    -6105    -6562    -7101    -7670 
   -8230    -8761    -9212    -9455    -9419    -9224    -9059    -8969 
   -8877    -8734    -8587    -8501    -8513    -8577    -8545    -8292 
   -7869    -7463    -7226    -7197    -7378    -7713    -8053    -8218 
   -8115    -7817    -7480    -7150    -6790    -6459    -6316    -6462 
   -6796    -7073    -7157    -7086    -6879    -6496    -6029    -5726 
   -5717    -5898    -6081    -6165    -6121    -5930    -5649    -5451 
   -5428    -5440    -5298    -5012    -4743    -4621    -4672    -4866 
   -5103    -5229    -5166    -4982    -4815    -4755    -4788    -4871 
   -5025    -5214    -5327    -5354    -5393    -5511    -5688    -5876 
   -6076    -6357    -6761    -7260    -7736    -7950    -7714    -7176 
   -6719    -6602    -6813    -7169    -7488    -7661    -7652    -7513 
   -7377    -7389    -7612    -7978    -8288    -8347    -8140    -7796 
   -7412    -7028    -6720    -6600    -6717    -6986    -7210    -7252 
   -7136    -6968    -6792    -6563    -6288    -6119    -6181    -6397 
   -6589    -6671    -6660    -6613    -6603    -6700    -6922    -7200 
   -7450    -7652    -7809    -7879    -7834    -7733    -7677    -7712 
   -7834    -8012    -8156    -8133    -7871    -7434    -6987    -6688 
   -6616    -6728    -6912    -7027    -6970    -6780    -6614    -6560 
   -6584    -6621    -6635    -6603    -6466    -6175    -5777    -5388 
   -5085    -4884    -4753    -4695    -4737    -4829    -4910    -4936 
   -4861    -4734    -4702    -4844    -5133    -5483    -5794    -6028 
   -6177    -6187    -6054    -5921    -5942    -6101    -6255    -6313 
   -6277    -6153    -5925    -5619    -5329    -5141    -5054    -5039 
   -5118    -5321    -5598    -5822    -5883    -5796    -5705    -5746 
   -5938    -6210    -6455    -6550    -6384    -5918    -5273    -4719 
   -4467    -4537    -4869    -5365    -5789    -5888    -5644    -5240 
   -4834    -4457    -4134    -4000    -4132    -4367    -4536    -4707 
   -5001    -5329    -5501    -5517    -5531    -5580    -5614    -5648 
   -5734    -5877    -6021    -6149    -6326    -6547    -6704    -6730 
   -6684    -6665    -6694    -6735    -6779    -6863    -7015    -7206 
   -7383    -7514    -7569    -7511    -7346    -7099    -6761    -6318 
   -5857    -5532    -5340    -5148    -4913    -4698    -4509    -4282 
   -4061    -4036    -4349    -4941    -5611    -6220    -6717    -7046 
   -7204    -7319    -7549    -7898    -8143    -8035    -7580    -7034 
   -6619    -6333    -6126    -6034    -6052    -6083    -6050    -6019 
   -6132    -6402    -6730    -7092    -7511    -7928    -8240    -8373 
   -8342    -8228    -8057    -7812    -7561    -7452    -7553    -7760 
   -7890    -7840    -7591    -7169    -6666    -6281    -6249    -6576 
   -7007    -7322    -7443    -7334    -7016    -6595    -6257    -6182 
   -6396    -6762    -7093    -7241    -7218    -7199    -7296    -7474 
   -7696    -7978    -8289    -8479    -8427    -8219    -8044    -7959 
   -7898    -7845    -7835    -7884    -7978    -8075    -8133    -8158 
   -8192    -8318    -8543    -8709    -8677    -8502    -8310    -8144 
   -7990    -7835    -7671    -7490    -7272    -7026    -6799    -6616 
   -6444    -6245    -6040    -5891    -5841    -5918    -6102    -6303 
   -6499    -6732    -6983    -7182    -7303    -7367    -7386    -7350 
   -7286    -7293    -7427    -7597    -7659    -7569    -7429    -7395 
   -7508    -7669    -7775    -7786    -7682    -7456    -7171    -6979 
   -6970    -7030    -6993    -6809    -6532    -6232    -5924    -5597 
   -5282    -5019    -4844    -4817    -4969    -5220    -5423    -5509 
   -5531    -5594    -5780    -6076    -6370    -6559    -6638    -6661 
   -6634    -6509    -6267    -5928    -5522    -5106    -4730    -4399 
   -4149    -4085    -4209    -4351    -4355    -4241    -4155    -4208 
   -4356    -4509    -4625    -4668    -4628    -4577    -4596    -4691 
   -4820    -4953    -5059    -5107    -5110    -5105    -5105    -5102 
   -5124    -5200    -5269    -5249    -5179    -5192    -5360    -5607 
   -5774    -5739    -5498    -5120    -4696    -4324    -4098    -4057 
   -4140    -4211    -4157    -3943    -3629    -3364    -3301    -3490 
   -3864    -4302    -4707    -5026    -5269    -5480    -5689    -5901 
   -6120    -6369    -6707    -7140    -7546    -7803    -7891    -7842 
   -7705    -7547    -7432    -7345    -7164    -6808    -6330    -5895 
   -5680    -5715    -5854    -5908    -5803    -5629    -5498    -5430 
   -5454    -5633    -5945    -6283    -6547    -6710    -6832    -6960 
   -7082    -7170    -7206    -7208    -7251    -7420    -7744    -8190 
   -8618    -8857    -8881    -8812    -8738    -8638    -8433    -8131 
   -7876    -7789    -7837    -7890    -7866    -7756    -7568    -7327 
   -7101    -6964    -6994    -7236    -7586    -7845    -7986    -8174 
   -8507    -8858    -9061    -9151    -9300    -9565    -9809    -9890 
   -9842    -9754    -9654    -9532    -9389    -9226    -9034    -8809 
   -8597    -8477    -8482    -8556    -8654    -8781    -8886    -8861 
   -8675    -8395    -8113    -7932    -7950    -8170    -8479    -8700 
   -8703    -8520    -8299    -8131    -7970    -7760    -7571    -7511 
   -7566    -7613    -7518    -7274    -7022    -6862    -6797    -6835 
   -6959    -7092    -7142    -7055    -6873    -6672    -6449    -6243 
   -6218    -6478    -6886    -7158    -7150    -6995    -6869    -6774 
   -6656    -6554    -6519    -6467    -6225    -5760    -5262    -4905 
   -4666    -4443    -4233    -4076    -3935    -3749    -3512    -3280 
   -3148    -3170    -3297    -3455    -3648    -3933    -4343    -4806 
   -5199    -5519    -5808    -6069    -6297    -6473    -6591    -6703 
   -6796    -6775    -6594    -6288    -5915    -5529    -5162    -4837 
   -4573    -4381    -4263    -4178    -4074    -3938    -3828    -3885 
   -4188    -4605    -4916    -5061    -5139    -5214    -5249    -5239 
   -5277    -5418    -5559    -5531    -5324    -5157    -5194    -5382 
   -5590    -5777    -5970    -6091    -5965    -5554    -5003    -4505 
   -4172    -4035    -4100    -4335    -4621    -4792    -4722    -4411 
   -4039    -3867    -4025    -4411    -4808    -5059    -5124    -5027 
   -4857    -4752    -4807    -5001    -5258    -5476    -5563    -5544 
   -5572    -5760    -6066    -6333    -6466    -6500    -6504    -6456 
   -6269    -5949    -5649    -5523    -5530    -5487    -5318    -5137 
   -5039    -4954    -4784    -4556    -4335    -4146    -4037    -4090 
   -4375    -4887    -5469    -5921    -6177    -6285    -6276    -6177 
   -6077    -6087    -6206    -6317    -6335    -6300    -6300    -6328 
   -6340    -6372    -6464    -6607    -6755    -6856    -6944    -7081 
   -7202    -7134    -6822    -6453    -6288    -6396    -6614    -6786 
   -6916    -7076    -7301    -7551    -7743    -7803    -7690    -7444 
   -7151    -6863    -6601    -6410    -6314    -6266    -6249    -6313 
   -6443    -6576    -6723    -6893    -7029    -7088    -7142    -7357 
   -7784    -8264    -8638    -8877    -8986    -8958    -8851    -8727 
   -8516    -8139    -7702    -7414    -7323    -7267    -7086    -6770 
   -6395    -6016    -5678    -5473    -5508    -5776    -6151    -6520 
   -6828    -7045    -7185    -7237    -7163    -7004    -6858    -6776 
   -6793    -6915    -7090    -7254    -7330    -7272    -7116    -6912 
   -6689    -6432    -6133    -5871    -5742    -5755    -5843    -5943 
   -6017    -6009    -5880    -5704    -5631    -5770    -6141    -6623 
   -6961    -6947    -6592    -6118    -5782    -5691    -5795    -5992 
   -6162    -6193    -6081    -5897    -5669    -5428    -5282    -5292 
   -5407    -5563    -5708    -5780    -5764    -5739    -5855    -6152 
   -6486    -6721    -6806    -6702    -6410    -5983    -5508    -5097 
   -4843    -4726    -4593    -4317    -3983    -3818    -3932    -4185 
   -4324    -4242    -4091    -4120    -4418    -4848    -5230    -5533 
   -5796    -6014    -6169    -6298    -6454    -6594    -6593    -6429 
   -6202    -6026    -5934    -5816    -5520    -5028    -4469    -4022 
   -3793    -3674    -3458    -3093    -2737    -2609    -2799    -3211 
   -3643    -3957    -4153    -4279    -4345    -4370    -4391    -4419 
   -4445    -4485    -4613    -4910    -5336    -5712    -5832    -5569 
   -4990    -4321    -3775    -3440    -3299    -3295    -3402    -3625 
   -3900    -4076    -4074    -4011    -4100    -4431    -4929    -5440 
   -5865    -6159    -6264    -6191    -6104    -6118    -6190    -6249 
   -6248    -6099    -5780    -5404    -5147    -5093    -5129    -5103 
   -5016    -4967    -5005    -5099    -5182    -5196    -5100    -4919 
   -4795    -4867    -5125    -5441    -5690    -5805    -5806    -5749 
   -5694    -5722    -5856    -5987    -5992    -5858    -5679    -5588 
   -5621    -5675    -5672    -5643    -5638    -5628    -5543    -5428 
   -5450    -5646    -5821    -5797    -5655    -5632    -5801    -5989 
   -6065    -6082    -6069    -5961    -5753    -5484    -5188    -4898 
   -4610    -4322    -4055    -3770    -3417    -3074    -2932    -3084 
   -3445    -3850    -4178    -4441    -4689    -4878    -4953    -4933 
   -4868    -4771    -4655    -4626    -4802    -5157    -5528    -5776 
   -5895    -5989    -6104    -6144    -6082    -6067    -6235    -6519 
   -6715    -6710    -6588    -6480    -6458    -6522    -6602    -6612 
   -6571    -6608    -6781    -6988    -7096    -7027    -6763    -6405 
   -6123    -6023    -6084    -6196    -6284    -6335    -6346    -6306 
   -6183    -6009    -5917    -5967    -6050    -6038    -5878    -5616 
   -5367    -5221    -5179    -5200    -5244    -5314    -5437    -5579 
   -5619    -5527    -5486    -5677    -6018    -6298    -6451    -6553 
   -6656    -6749    -6828    -6911    -6973    -6948    -6875    -6836 
   -6808    -6740    -6691    -6731    -6832    -6897    -6858    -6722 
   -6497    -6200    -5959    -5937    -6173    -6571    -7003    -7355 
   -7509    -7394    -7062    -6670    -6385    -6286    -6368    -6595 
   -6896    -7183    -7376    -7425    -7385    -7381    -7450    -7527 
   -7591    -7645    -7646    -7588    -7555    -7622    -7782    -7915 
   -7827    -7429    -6882    -6470    -6332    -6409    -6579    -6722 
   -6732    -6541    -6202    -5890    -5759    -5819    -5980    -6128 
   -6199    -6208    -6171    -6051    -5831    -5604    -5462    -5330 
   -5074    -4732    -4484    -4390    -4285    -4054    -3847    -3853 
   -4037    -4245    -4463    -4785    -5242    -5794    -6422    -7075 
   -7593    -7806    -7675    -7357    -7141    -7200    -7484    -7841 
   -8053    -7863    -7204    -6366    -5745    -5455    -5365    -5332 
