Origin Time       2011/03/11 14:46:00
Lat.              38.103
Long.             142.860
Depth. (km)       24
Mag.              9.0
Station Code      HKD060
Station Lat.      43.9136
Station Long.     144.6657
Station Height(m) 6
Record Time       2011/03/11 14:48:28
Sampling Freq(Hz) 100Hz
Duration Time(s)  300
Dir.              N-S
Scale Factor      3920(gal)/6182761
Max. Acc. (gal)   9.172
Last Correction   2011/03/11 14:48:13
Memo.             
[...]
   -2872    -2857    -2799    -2678    -2533    -2464    -2482    -2491 
   -2452    -2404    -2343    -2234    -2123    -2071    -2081    -2135 
   -2205    -2246    -2194    -1989    -1655    -1298     -977     -677 
    -391     -148       60      297      601      929     1215     1495 
    1811     2032     2020     1843     1641     1432     1187      959 
     845      891     1034     1148     1192     1184     1108      970 
     827      715      618      525      476      492      544      604 
     649      678      710      754      846     1014     1220     1426 
    1633     1797     1808     1564     1098      538      -54     -647 
   -1133    -1419    -1491    -1430    -1318    -1151     -960     -873 
    -935    -1061    -1220    -1463    -1776    -2047    -2205    -2296 
   -2375    -2440    -2469    -2442    -2347    -2186    -1983    -1764 
   -1528    -1287    -1084    -1029    -1218    -1583    -1959    -2295 
   -2675    -3099    -3448    -3655    -3783    -3875    -3846    -3703 
   -3623    -3695    -3888    -4165    -4496    -4862    -5224    -5509 
   -5686    -5748    -5688    -5552    -5369    -5102    -4806    -4594 
   -4521    -4589    -4780    -5079    -5444    -5823    -6204    -6543 
   -6812    -7073    -7351    -7579    -7686    -7634    -7429    -7136 
   -6843    -6615    -6460    -6331    -6200    -6060    -5864    -5571 
   -5209    -4847    -4540    -4276    -4048    -3922    -3932    -4008 
   -4052    -4029    -3963    -3829    -3568    -3222    -2908    -2707 
   -2645    -2686    -2771    -2867    -2874    -2697    -2459    -2331 
   -2318    -2289    -2122    -1842    -1535    -1208     -902     -726 
    -673     -636     -600     -568     -456     -259      -84      -21 
     -97     -248     -438     -685     -881     -843     -532      -69 
     405      838     1202     1417     1453     1381     1254     1077 
     884      737      670      628      539      444      384      275 
      84      -98     -226     -313     -364     -387     -387     -384 
    -374     -340     -300     -226      -67      157      407      617 
     715      713      649      541      416      259       28     -246 
    -462     -571     -614     -652     -671     -587     -380     -155 
       3      106      189      286      403      503      572      660 
     779      853      837      729      520      259       27     -158 
    -317     -467     -627     -816    -1077    -1440    -1878    -2306 
   -2664    -2981    -3291    -3559    -3768    -3943    -4095    -4212 
   -4257    -4220    -4160    -4098    -3973    -3756    -3507    -3312 
   -3162    -2994    -2852    -2834    -2933    -3101    -3362    -3756 
   -4226    -4628    -4871    -4991    -5037    -4977    -4793    -4575 
   -4436    -4389    -4375    -4349    -4273    -4122    -3941    -3809 
   -3715    -3627    -3602    -3682    -3794    -3870    -3919    -3948 
   -3904    -3706    -3311    -2761    -2176    -1673    -1311    -1111 
   -1048    -1027     -932     -731     -478     -182      143      406 
     542      578      567      502      353      146      -75     -256 
    -356     -422     -484     -543     -683     -998    -1509    -2157 
   -2848    -3483    -3946    -4154    -4143    -4078    -4140    -4349 
   -4590    -4753    -4836    -4962    -5203    -5505    -5864    -6300 
   -6726    -7032    -7162    -7200    -7380    -7812    -8394    -9003 
   -9534    -9883   -10011   -10009   -10057   -10236   -10554   -11060 
  -11653   -12072   -12147   -12073   -12150   -12287   -12386   -12427 
  -12332   -12300   -12331   -12164   -11762   -11402   -11325   -11393 
  -11461   -11249   -10780   -10467   -10075    -9628    -9495    -9462 
   -9334    -8991    -8490    -8083    -7735    -7490    -7480    -7562 
   -7570    -7452    -7149    -6690    -6216    -5764    -5316    -4912 
   -4567    -4351    -4327    -4418    -4577    -4826    -5096    -5283 
   -5404    -5467    -5350    -5029    -4642    -4271    -3859    -3383 
   -2923    -2517    -2150    -1832    -1573    -1390    -1286    -1208 
   -1143    -1176    -1373    -1692    -2065    -2454    -2763    -2856 
   -2706    -2399    -2037    -1718    -1539    -1555    -1724    -1933 
   -2093    -2165    -2104    -1899    -1591    -1224     -862     -553 
    -316     -136      107      477      870     1253     1663     2020 
    2248     2362     2387     2369     2423     2634     2967     3347 
    3744     4089     4295     4370     4377     4362     4351     4391 
    4531     4710     4856     5010     5178     5339     5538     5761 
    5929     6019     6027     5938     5766     5498     5127     4733 
    4361     3942     3468     3042     2768     2696     2773     2866 
    2881     2786     2584     2331     2116     1980     1875     1725 
    1499     1229      964      746      596      455      220     -147 
    -642    -1228    -1786    -2229    -2570    -2818    -2981    -3152 
   -3485    -3986    -4479    -4873    -5115    -5186    -5198    -5159 
   -5026    -4861    -4752    -4728    -4836    -5088    -5285    -5418 
   -5594    -5681    -5758    -5981    -6273    -6509    -6619    -6715 
   -6846    -6913    -6984    -7137    -7251    -7256    -7245    -7254 
   -7266    -7304    -7351    -7368    -7363    -7387    -7473    -7564 
   -7646    -7788    -7947    -8018    -8038    -8108    -8195    -8247 
   -8367    -8650    -9023    -9342    -9482    -9431    -9297    -9177 
   -9110    -9163    -9352    -9575    -9777    -9947   -10019    -9958 
   -9799    -9637    -9579    -9609    -9684    -9801    -9860    -9791 
   -9667    -9524    -9363    -9239    -9152    -9135    -9294    -9582 
   -9847   -10000    -9964    -9683    -9196    -8583    -7932    -7332 
   -6840    -6470    -6203    -5979    -5705    -5310    -4800    -4231 
   -3652    -3135    -2765    -2543    -2384    -2242    -2148    -2114 
   -2060    -1874    -1534    -1106     -634     -105      467     1008 
    1415     1632     1677     1568     1366     1227     1236     1383 
    1673     2091     2558     3002     3398     3754     4072     4334 
    4527     4686     4858     5034     5177     5292     5462     5767 
    6125     6428     6693     6869     6864     6713     6530     6464 
    6580     6776     6983     7183     7302     7338     7353     7355 
    7303     7204     7136     7096     7016     6958     6993     7065 
    7111     7116     7093     7066     6991     6807     6518     6160 
    5775     5371     4983     4723     4635     4664     4783     4959 
    5095     5148     5185     5266     5359     5391     5352     5324 
    5344     5343     5263     5118     4964     4835     4711     4612 
    4605     4674     4753     4795     4735     4531     4207     3793 
    3329     2876     2481     2190     1970     1691     1289      859 
     521      337      325      486      752      967     1015      924 
     798      707      681      736      845      937      920      742 
     438       81     -238     -430     -522     -657     -963    -1479 
   -2118    -2725    -3207    -3535    -3678    -3625    -3429    -3191 
   -2980    -2800    -2653    -2558    -2507    -2462    -2407    -2376 
   -2378    -2383    -2379    -2387    -2442    -2508    -2534    -2590 
   -2732    -2932    -3144    -3296    -3323    -3275    -3297    -3426 
   -3655    -3932    -4149    -4347    -4537    -4674    -4811    -4961 
   -5092    -5151    -5169    -5238    -5301    -5302    -5262    -5210 
   -5175    -5119    -5043    -5044    -5191    -5471    -5813    -6151 
   -6482    -6822    -7101    -7188    -7114    -7080    -7175    -7330 
   -7529    -7796    -8058    -8209    -8246    -8209    -8120    -8000 
   -7880    -7808    -7789    -7755    -7672    -7584    -7525    -7494 
   -7493    -7559    -7733    -7946    -8065    -8066    -8042    -8048 
   -8059    -8063    -8073    -8034    -7892    -7704    -7565    -7530 
   -7616    -7769    -7886    -7902    -7799    -7548    -7153    -6671 
   -6176    -5729    -5363    -5090    -4888    -4715    -4551    -4374 
   -4147    -3880    -3607    -3301    -2892    -2364    -1756    -1122 
    -478      225      973     1633     2139     2565     3001     3469 
    3985     4565     5190     5823     6438     7024     7569     8036 
    8423     8772     9087     9380     9687     9974    10202    10330 
   10295    10115     9874     9581     9268     9084     9092     9214 
    9384     9543     9642     9680     9626     9434     9137     8791 
    8411     7987     7544     7146     6828     6553     6278     5996 
    5693     5332     4926     4525     4153     3828     3587     3440 
    3328     3195     3030     2805     2501     2154     1847     1690 
    1713     1884     2137     2352     2423     2319     2088     1790 
    1431     1006      545      100     -311     -743    -1237    -1741 
   -2164    -2487    -2755    -2995    -3203    -3384    -3576    -3840 
   -4176    -4525    -4866    -5199    -5436    -5531    -5547    -5493 
   -5386    -5308    -5279    -5290    -5305    -5307    -5386    -5591 
   -5875    -6172    -6461    -6768    -7059    -7282    -7451    -7608 
   -7783    -7976    -8161    -8303    -8371    -8354    -8256    -8125 
   -8041    -8003    -7991    -8026    -8081    -8124    -8182    -8263 
   -8305    -8224    -7982    -7658    -7380    -7207    -7147    -7240 
   -7520    -7900    -8251    -8545    -8761    -8776    -8511    -8071 
   -7634    -7303    -7082    -6964    -6984    -7117    -7222    -7236 
   -7210    -7108    -6868    -6531    -6190    -5925    -5747    -5617 
   -5547    -5585    -5667    -5679    -5664    -5706    -5739    -5755 
   -5881    -6158    -6482    -6731    -6892    -7027    -7096    -7005 
   -6768    -6463    -6151    -5864    -5638    -5525    -5530    -5591 
   -5648    -5685    -5738    -5835    -5948    -6048    -6100    -6080 
   -6029    -6015    -6093    -6336    -6744    -7217    -7653    -7976 
   -8113    -8042    -7841    -7637    -7533    -7561    -7630    -7622 
   -7493    -7213    -6836    -6464    -6160    -5994    -5938    -5891 
   -5822    -5722    -5545    -5300    -5054    -4823    -4638    -4499 
   -4348    -4263    -4293    -4361    -4415    -4442    -4500    -4538 
   -4409    -4196    -4089    -4097    -4150    -4232    -4300    -4303 
   -4242    -4153    -4099    -4154    -4311    -4474    -4537    -4474 
   -4323    -4182    -4169    -4274    -4432    -4632    -4818    -4949 
   -5059    -5158    -5262    -5425    -5666    -5992    -6393    -6805 
   -7165    -7449    -7662    -7858    -8076    -8279    -8423    -8491 
   -8474    -8403    -8348    -8364    -8432    -8458    -8382    -8222 
   -7970    -7619    -7196    -6745    -6369    -6153    -6029    -5885 
   -5690    -5448    -5141    -4744    -4272    -3815    -3448    -3164 
   -2918    -2714    -2564    -2435    -2319    -2216    -2034    -1662 
   -1114     -516       14      398      553      458      224      -16 
    -187     -250     -217     -109      103      399      700      984 
    1291     1590     1817     2019     2222     2345     2376     2411 
    2520     2687     2851     3004     3159     3295     3407     3523 
    3670     3855     4025     4086     3977     3719     3426     3200 
    3039     2899     2744     2558     2343     2087     1781     1456 
    1165      941      801      787      928     1169     1436     1679 
    1879     2029     2104     2056     1864     1565     1277     1102 
     986      843      684      501      246      -23     -213     -332 
    -378     -313     -164        0      126      234      345      396 
     370      355      387      409      392      363      350      367 
     398      418      475      611      752      824      822      717 
     493      242       64      -81     -293     -598     -939    -1258 
   -1568    -1884    -2112    -2167    -2090    -1940    -1745    -1556 
   -1478    -1614    -1926    -2324    -2752    -3132    -3475    -3864 
   -4258    -4592    -4859    -5018    -5107    -5210    -5306    -5366 
   -5418    -5457    -5446    -5373    -5316    -5367    -5492    -5597 
   -5652    -5688    -5741    -5816    -5888    -5940    -5965    -5930 
   -5825    -5695    -5567    -5454    -5417    -5531    -5818    -6196 
   -6596    -7034    -7476    -7824    -8044    -8178    -8303    -8452 
   -8588    -8701    -8827    -8942    -8978    -8918    -8809    -8670 
   -8504    -8374    -8341    -8372    -8394    -8355    -8236    -8046 
   -7784    -7466    -7151    -6864    -6573    -6288    -6065    -5922 
   -5797    -5633    -5494    -5491    -5628    -5812    -5945    -5970 
   -5857    -5578    -5189    -4812    -4529    -4358    -4224    -4040 
   -3857    -3692    -3419    -3047    -2745    -2571    -2476    -2442 
   -2467    -2507    -2500    -2433    -2336    -2251    -2237    -2349 
   -2550    -2716    -2787    -2783    -2726    -2633    -2510    -2350 
   -2176    -2009    -1824    -1609    -1403    -1222    -1085    -1040 
   -1094    -1216    -1320    -1353    -1392    -1497    -1626    -1723 
   -1734    -1671    -1593    -1443    -1149     -810     -534     -286 
     -19      219      433      725     1104     1482     1857     2267 
    2654     2964     3240     3542     3914     4351     4767     5142 
    5528     5889     6187     6470     6762     7055     7369     7700 
    8033     8339     8564     8733     8946     9251     9658    10166 
   10719    11221    11582    11794    11930    12018    12056    12090 
   12145    12178    12095    11855    11531    11204    10902    10613 
   10304     9983     9693     9415     9078     8660     8198     7718 
    7221     6731     6267     5840     5482     5183     4892     4558 
    4187     3875     3680     3554     3461     3431     3469     3508 
    3477     3376     3247     3090     2869     2557     2185     1810 
    1463     1154      909      762      716      759      854      893 
     838      782      795      843      860      837      713      412 
      27     -335     -657     -973    -1361    -1767    -2054    -2204 
   -2352    -2624    -3026    -3494    -3833    -4030    -4228    -4292 
   -4219    -4200    -4254    -4345    -4491    -4789    -5203    -5531 
   -5750    -5961    -6122    -6146    -6099    -6098    -6172    -6259 
   -6323    -6436    -6594    -6681    -6706    -6745    -6794    -6841 
   -6892    -6964    -7075    -7219    -7344    -7383    -7375    -7408 
   -7447    -7414    -7344    -7314    -7312    -7283    -7273    -7330 
   -7351    -7258    -7109    -6932    -6717    -6482    -6216    -5879 
   -5498    -5092    -4623    -4166    -3835    -3620    -3458    -3333 
   -3220    -3075    -2907    -2717    -2465    -2135    -1737    -1349 
   -1020     -675     -304       18      266      423      523      683 
     947     1222     1456     1653     1790     1835     1766     1644 
    1566     1512     1438     1374     1380     1543     1835     2053 
    2132     2157     2109     1933     1630     1268     1001      901 
     941     1106     1316     1496     1669     1788     1804     1778 
    1713     1640     1671     1791     1927     2108     2368     2646 
    2828     2850     2737     2537     2290     2032     1828     1724 
    1692     1676     1625     1533     1427     1271     1031      746 
     437      148      -50     -178     -302     -451     -641     -905 
   -1289    -1812    -2426    -3041    -3599    -4082    -4458    -4688 
   -4796    -4853    -4871    -4825    -4744    -4699    -4715    -4752 
   -4770    -4760    -4737    -4715    -4723    -4803    -4977    -5223 
   -5490    -5736    -5939    -6074    -6126    -6130    -6126    -6145 
   -6218    -6361    -6549    -6688    -6692    -6584    -6434    -6269 
   -6064    -5795    -5509    -5287    -5132    -4999    -4870    -4750 
   -4644    -4535    -4393    -4199    -3962    -3726    -3548    -3502 
   -3607    -3778    -3939    -4095    -4287    -4508    -4710    -4927 
   -5231    -5558    -5830    -6101    -6410    -6717    -6976    -7162 
   -7302    -7411    -7507    -7642    -7834    -8096    -8447    -8870 
   -9340    -9838   -10319   -10664   -10802   -10846   -10888   -10914 
  -11015   -11264   -11583   -11943   -12342   -12696   -12939   -13063 
  -13063   -12941   -12733   -12460   -12117   -11730   -11384   -11156 
  -11035   -11041   -11196   -11346   -11326   -11160   -10890   -10478 
   -9956    -9465    -9105    -8844    -8615    -8365    -8080    -7714 
   -7210    -6666    -6229    -5905    -5641    -5407    -5207    -5037 
   -4850    -4642    -4501    -4433    -4361    -4269    -4168    -4012 
   -3754    -3436    -3191    -3096    -3078    -3078    -3157    -3296 
   -3340    -3208    -2959    -2667    -2360    -2053    -1795    -1655 
   -1633    -1655    -1671    -1679    -1741    -1896    -1996    -1837 
   -1569    -1689    -2133    -2209    -2035    -2247    -2643    -2869 
   -3120    -3573    -4050    -4334    -4533    -4778    -4949    -4967 
   -4910    -4888    -4925    -4941    -4916    -4946    -5050    -5132 
   -5142    -5113    -5124    -5187    -5219    -5240    -5218    -5142 
   -5259    -5569    -5810    -5968    -6208    -6474    -6698    -6950 
   -7057    -7084    -7195    -7170    -7120    -7288    -7566    -7778 
   -7798    -7772    -7814    -7767    -7684    -7714    -7781    -7816 
   -7864    -7936    -8007    -8060    -8100    -8138    -8147    -8112 
   -8089    -8112    -8187    -8314    -8444    -8543    -8678    -8881 
   -9079    -9216    -9264    -9194    -9038    -8801    -8495    -8232 
   -8063    -7896    -7673    -7421    -7136    -6816    -6526    -6312 
   -6161    -6037    -5872    -5637    -5396    -5164    -4845    -4470 
   -4127    -3789    -3514    -3297    -3061    -2952    -2953    -2883 
   -2803    -2704    -2505    -2280    -2003    -1607    -1158     -693 
    -224      115      184       47     -137     -316     -514     -697 
    -781     -788     -819     -855     -851     -845     -860     -883 
    -874     -785     -602     -329       39      447      801     1094 
    1401     1753     2097     2344     2514     2715     3016     3375 
    3663     3784     3700     3450     3203     3036     2864     2693 
    2607     2548     2401     2196     2032     1966     2048     2222 
    2344     2415     2510     2567     2524     2447     2445     2549 
    2680     2797     2954     3140     3303     3455     3611     3752 
    3850     3810     3566     3228     2940     2715     2573     2605 
    2780     2930     2971     2925     2783     2524     2173     1789 
    1387      936      490      161      -14      -70      -61      -31 
      -8      -87     -396     -939    -1613    -2328    -3000    -3543 
   -3947    -4233    -4417    -4552    -4629    -4569    -4404    -4232 
   -4077    -3931    -3821    -3756    -3705    -3660    -3635    -3615 
   -3584    -3562    -3565    -3597    -3663    -3753    -3813    -3771 
   -3591    -3303    -3027    -2896    -2916    -3063    -3373    -3815 
   -4255    -4609    -4878    -5088    -5289    -5506    -5706    -5876 
   -6020    -6110    -6146    -6161    -6176    -6211    -6279    -6378 
   -6490    -6568    -6600    -6631    -6691    -6770    -6865    -6970 
   -7014    -6951    -6818    -6641    -6443    -6281    -6157    -6032 
   -5885    -5691    -5416    -5084    -4761    -4502    -4336    -4264 
