Origin Time       2011/03/11 14:46:00
Lat.              38.103
Long.             142.860
Depth. (km)       24
Mag.              9.0
Station Code      HKD015
Station Lat.      44.8846
Station Long.     141.7503
Station Height(m) 5
Record Time       2011/03/11 14:50:39
Sampling Freq(Hz) 100Hz
Duration Time(s)  168
Dir.              E-W
Scale Factor      3920(gal)/6182761
Max. Acc. (gal)   6.758
Last Correction   2011/03/11 14:50:24
Memo.             
[...]
    4199     4113     4027     3949     3874     3801     3729     3662 
    3599     3537     3477     3422     3367     3309     3252     3196 
    3141     3088     3032     2976     2925     2877     2829     2782 
    2734     2687     2643     2603     2568     2540     2518     2498 
    2483     2471     2459     2448     2439     2433     2432     2433 
    2431     2427     2423     2418     2412     2405     2397     2388 
    2377     2368     2357     2345     2332     2320     2307     2288 
    2265     2239     2213     2187     2157     2123     2084     2044 
    2009     1972     1930     1888     1843     1795     1748     1699 
    1649     1600     1552     1505     1463     1426     1391     1357 
    1323     1292     1268     1245     1221     1203     1190     1179 
    1170     1163     1155     1150     1151     1155     1157     1157 
    1162     1170     1173     1172     1175     1184     1194     1206 
    1221     1240     1264     1291     1321     1355     1388     1420 
    1452     1486     1519     1548     1575     1599     1622     1646 
    1667     1686     1709     1730     1748     1771     1798     1824 
    1851     1876     1902     1932     1964     2000     2040     2082 
    2123     2166     2210     2254     2298     2341     2386     2429 
    2469     2501     2527     2552     2573     2589     2604     2615 
    2616     2616     2618     2616     2606     2592     2575     2552 
    2527     2500     2468     2428     2387     2343     2294     2241 
    2187     2130     2071     2013     1956     1897     1833     1770 
    1714     1659     1604     1549     1497     1447     1400     1356 
    1313     1273     1237     1205     1177     1152     1132     1117 
    1109     1103     1102     1110     1122     1136     1156     1182 
    1215     1254     1296     1341     1388     1441     1499     1559 
    1621     1685     1747     1804     1859     1912     1961     2006 
    2044     2076     2102     2122     2138     2153     2165     2172 
    2177     2181     2184     2186     2186     2184     2180     2171 
    2159     2143     2124     2099     2064     2024     1979     1924 
    1862     1792     1710     1618     1522     1418     1309     1194 
    1071      945      820      695      565      437      311      182 
      51      -77     -203     -330     -456     -578     -702     -829 
    -953    -1079    -1204    -1322    -1438    -1554    -1664    -1768 
   -1867    -1958    -2043    -2124    -2192    -2250    -2300    -2341 
   -2374    -2401    -2421    -2434    -2441    -2447    -2452    -2456 
   -2460    -2466    -2472    -2480    -2490    -2503    -2521    -2541 
   -2564    -2588    -2612    -2635    -2657    -2677    -2694    -2710 
   -2724    -2730    -2732    -2728    -2717    -2702    -2684    -2658 
   -2628    -2595    -2558    -2516    -2472    -2427    -2383    -2340 
   -2300    -2262    -2221    -2182    -2152    -2121    -2086    -2051 
   -2018    -1986    -1955    -1923    -1890    -1854    -1821    -1791 
   -1760    -1732    -1708    -1683    -1662    -1644    -1629    -1616 
   -1608    -1605    -1606    -1609    -1613    -1618    -1622    -1626 
   -1627    -1627    -1625    -1621    -1609    -1591    -1569    -1542 
   -1513    -1484    -1452    -1418    -1383    -1347    -1312    -1281 
   -1253    -1228    -1208    -1188    -1169    -1149    -1130    -1111 
   -1089    -1062    -1030     -995     -959     -914     -862     -808 
    -752     -696     -637     -573     -502     -433     -364     -292 
    -223     -158      -95      -38       12       56       99      137 
     167      192      214      231      245      255      264      272 
     278      284      289      292      295      299      305      316 
     327      336      349      367      389      417      452      490 
     531      581      642      711      787      870      959     1053 
    1156     1264     1375     1491     1608     1721     1832     1945 
    2060     2173     2286     2396     2505     2614     2719     2819 
    2921     3024     3125     3221     3316     3413     3507     3593 
    3675     3753     3826     3899     3964     4019     4067     4110 
    4146     4180     4214     4239     4255     4271     4285     4300 
    4319     4332     4337     4343     4352     4361     4368     4374 
    4379     4377     4366     4356     4347     4332     4312     4281 
    4245     4208     4167     4119     4068     4015     3962     3905 
    3845     3782     3718     3657     3593     3527     3463     3401 
    3341     3281     3220     3162     3107     3054     3001     2952 
    2903     2858     2828     2804     2773     2738     2703     2672 
    2652     2637     2617     2599     2589     2575     2553     2533 
    2516     2499     2479     2458     2436     2415     2399     2385 
    2368     2347     2325     2284     2218     2177     2160     2120 
    2065     2030     2011     1961     1899     1871     1824     1774 
    1752     1693     1630     1599     1544     1483     1457     1435 
    1385     1334     1300     1256     1209     1178     1155     1139 
    1110     1063     1026      999      972      955      935      903 
     893      902      901      900      908      913      913      918 
     934      957      978      997     1017     1045     1075     1093 
    1111     1144     1185     1232     1291     1359     1434     1513 
    1587     1658     1733     1813     1895     1978     2063     2149 
    2233     2320     2406     2489     2571     2656     2739     2819 
    2897     2974     3051     3128     3201     3274     3348     3414 
    3478     3543     3605     3664     3718     3768     3812     3847 
    3878     3907     3938     3963     3984     4003     4019     4030 
    4038     4044     4051     4059     4064     4065     4066     4062 
    4051     4039     4028     4014     3996     3977     3959     3939 
    3913     3885     3859     3835     3810     3783     3753     3722 
    3691     3656     3621     3592     3565     3534     3499     3464 
    3428     3392     3359     3326     3290     3252     3212     3171 
    3127     3087     3048     3004     2958     2912     2867     2823 
    2782     2740     2697     2655     2617     2581     2543     2508 
    2472     2438     2407     2374     2338     2305     2272     2237 
    2201     2168     2135     2098     2061     2028     1993     1960 
    1930     1892     1851     1812     1776     1741     1707     1671 
    1634     1597     1560     1523     1489     1454     1420     1391 
    1363     1338     1319     1301     1287     1279     1273     1266 
    1263     1266     1273     1283     1293     1306     1319     1327 
    1331     1336     1341     1343     1345     1349     1354     1359 
    1365     1370     1373     1380     1392     1401     1411     1425 
    1438     1455     1480     1509     1541     1576     1616     1665 
    1718     1773     1837     1909     1985     2066     2153     2240 
    2329     2424     2520     2616     2714     2811     2906     3000 
    3095     3188     3281     3378     3476     3571     3667     3765 
    3865     3965     4066     4169     4273     4373     4470     4564 
    4656     4740     4818     4894     4965     5027     5081     5127 
    5167     5199     5227     5252     5269     5277     5281     5279 
    5270     5258     5241     5220     5195     5165     5133     5100 
    5067     5031     4990     4949     4908     4866     4827     4787 
    4741     4697     4652     4603     4552     4502     4451     4402 
    4355     4305     4254     4206     4158     4108     4062     4016 
    3967     3916     3868     3819     3767     3713     3661     3608 
    3555     3504     3449     3393     3337     3279     3221     3172 
    3123     3067     3011     2957     2905     2854     2805     2754 
    2706     2662     2619     2580     2546     2515     2486     2461 
    2443     2429     2414     2400     2390     2382     2373     2365 
    2357     2347     2336     2328     2319     2304     2286     2269 
    2255     2242     2224     2202     2182     2165     2147     2131 
    2117     2100     2078     2056     2034     2011     1985     1956 
    1924     1891     1854     1814     1772     1729     1686     1638 
    1584     1531     1475     1417     1361     1305     1248     1192 
    1134     1077     1021      966      910      852      792      732 
     670      605      536      465      394      317      236      152 
      59      -43     -148     -252     -360     -476     -599     -722 
    -850     -982    -1115    -1251    -1388    -1528    -1666    -1800 
   -1934    -2065    -2191    -2310    -2422    -2531    -2637    -2738 
   -2838    -2935    -3028    -3122    -3216    -3306    -3398    -3493 
   -3590    -3688    -3787    -3886    -3983    -4078    -4173    -4266 
   -4352    -4432    -4508    -4577    -4642    -4703    -4757    -4808 
   -4856    -4898    -4937    -4974    -5008    -5040    -5070    -5101 
   -5131    -5160    -5190    -5218    -5244    -5268    -5286    -5304 
   -5324    -5343    -5357    -5366    -5374    -5378    -5379    -5380 
   -5381    -5379    -5376    -5373    -5374    -5375    -5373    -5373 
   -5375    -5378    -5381    -5382    -5381    -5383    -5385    -5380 
   -5369    -5354    -5334    -5309    -5282    -5244    -5197    -5142 
   -5077    -5007    -4937    -4857    -4766    -4670    -4567    -4461 
   -4349    -4230    -4108    -3984    -3856    -3726    -3595    -3461 
   -3326    -3194    -3063    -2934    -2807    -2678    -2553    -2435 
   -2318    -2204    -2094    -1985    -1883    -1783    -1681    -1579 
   -1478    -1377    -1274    -1171    -1069     -966     -864     -758 
    -653     -547     -435     -322     -211      -97       20      142 
     273      401      528      663      797      930     1069     1212 
    1352     1490     1628     1767     1911     2056     2192     2323 
    2462     2601     2734     2866     2998     3122     3241     3366 
    3490     3605     3716     3821     3919     4015     4114     4214 
    4307     4395     4484     4573     4661     4748     4830     4907 
    4984     5061     5139     5218     5297     5373     5447     5522 
    5598     5674     5750     5824     5890     5956     6020     6079 
    6134     6182     6223     6262     6299     6329     6354     6371 
    6375     6373     6373     6371     6363     6344     6317     6287 
    6255     6221     6184     6139     6088     6035     5981     5927 
    5873     5821     5769     5717     5664     5619     5585     5556 
    5526     5499     5479     5471     5475     5478     5476     5472 
    5473     5484     5502     5519     5532     5545     5560     5576 
    5593     5608     5619     5628     5645     5671     5700     5723 
    5742     5764     5791     5818     5846     5874     5898     5919 
    5938     5958     5977     5990     5996     5998     5999     5996 
    5988     5971     5945     5914     5883     5851     5813     5770 
    5723     5671     5620     5571     5522     5472     5423     5374 
    5326     5279     5234     5188     5143     5094     5040     4988 
    4938     4882     4825     4765     4695     4625     4559     4489 
    4409     4323     4236     4153     4073     3995     3921     3856 
    3792     3726     3670     3617     3560     3515     3487     3456 
    3429     3401     3352     3310     3295     3281     3274     3270 
    3245     3222     3212     3199     3187     3190     3190     3183 
    3186     3191     3203     3232     3251     3259     3284     3304 
    3303     3312     3332     3336     3333     3323     3302     3299 
    3291     3235     3193     3178     3119     3052     3019     2956 
    2881     2840     2783     2716     2682     2639     2570     2513 
    2484     2466     2419     2371     2348     2310     2289     2283 
    2246     2243     2245     2201     2160     2082     1981     1939 
    1906     1835     1760     1708     1668     1604     1519     1453 
    1398     1334     1265     1195     1135     1082     1028      964 
     877      789      718      657      604      527      412      338 
     283      155       33      -60     -205     -335     -430     -566 
    -706     -805     -919    -1061    -1180    -1285    -1410    -1537 
   -1649    -1760    -1867    -1963    -2059    -2157    -2259    -2371 
   -2474    -2564    -2657    -2752    -2843    -2934    -3025    -3115 
   -3215    -3326    -3433    -3525    -3606    -3685    -3765    -3845 
   -3929    -4011    -4089    -4165    -4240    -4310    -4367    -4411 
   -4451    -4499    -4564    -4642    -4717    -4779    -4835    -4897 
   -4968    -5039    -5107    -5173    -5238    -5306    -5376    -5443 
   -5514    -5588    -5661    -5731    -5802    -5872    -5944    -6022 
   -6102    -6182    -6259    -6331    -6402    -6475    -6541    -6603 
   -6666    -6726    -6780    -6832    -6884    -6935    -6989    -7050 
   -7111    -7166    -7221    -7281    -7342    -7401    -7461    -7520 
   -7573    -7626    -7682    -7740    -7801    -7864    -7928    -8001 
   -8082    -8171    -8265    -8363    -8462    -8562    -8660    -8759 
   -8857    -8953    -9055    -9161    -9264    -9365    -9461    -9548 
   -9626    -9698    -9765    -9825    -9883    -9937    -9989   -10037 
  -10083   -10124   -10161   -10195   -10225   -10252   -10279   -10308 
  -10332   -10347   -10352   -10350   -10341   -10327   -10305   -10280 
  -10253   -10218   -10178   -10138   -10095   -10047    -9997    -9949 
   -9898    -9840    -9782    -9721    -9654    -9583    -9510    -9436 
   -9362    -9284    -9208    -9133    -9056    -8982    -8908    -8826 
   -8734    -8645    -8558    -8467    -8369    -8272    -8173    -8072 
   -7972    -7876    -7777    -7672    -7565    -7459    -7354    -7249 
   -7145    -7042    -6942    -6846    -6752    -6657    -6560    -6462 
   -6365    -6270    -6176    -6079    -5979    -5881    -5787    -5695 
   -5600    -5497    -5391    -5285    -5182    -5078    -4971    -4858 
   -4744    -4629    -4511    -4395    -4277    -4152    -4024    -3898 
   -3775    -3653    -3535    -3419    -3297    -3176    -3061    -2946 
   -2832    -2719    -2600    -2477    -2357    -2240    -2125    -2010 
   -1891    -1767    -1642    -1522    -1407    -1291    -1183    -1078 
    -967     -857     -756     -655     -552     -455     -361     -267 
    -174      -85       -1       80      158      237      314      386 
     456      525      592      657      720      782      841      898 
     956     1019     1084     1146     1202     1256     1317     1381 
    1441     1497     1545     1585     1620     1657     1697     1727 
    1746     1759     1767     1769     1771     1774     1772     1764 
    1756     1753     1752     1752     1751     1751     1752     1749 
    1747     1756     1775     1793     1807     1816     1823     1836 
    1853     1869     1890     1913     1929     1940     1946     1954 
    1970     1991     2003     2002     1996     1984     1968     1956 
    1946     1919     1870     1813     1756     1704     1660     1604 
    1531     1459     1376     1282     1208     1144     1068      990 
     912      841      783      725      663      603      542      483 
     431      384      337      285      233      184      134       85 
      36      -19      -76     -135     -201     -272     -344     -413 
    -483     -557     -636     -719     -801     -878     -956    -1029 
   -1103    -1181    -1249    -1308    -1367    -1428    -1486    -1535 
   -1574    -1610    -1645    -1679    -1714    -1745    -1766    -1785 
   -1806    -1825    -1839    -1849    -1857    -1867    -1875    -1877 
   -1874    -1867    -1861    -1858    -1856    -1850    -1844    -1838 
   -1828    -1816    -1812    -1811    -1808    -1806    -1800    -1792 
   -1787    -1785    -1777    -1766    -1754    -1745    -1738    -1730 
   -1721    -1714    -1703    -1687    -1665    -1638    -1609    -1582 
   -1556    -1531    -1504    -1484    -1472    -1452    -1423    -1405 
   -1390    -1370    -1357    -1352    -1343    -1334    -1325    -1313 
   -1303    -1297    -1286    -1271    -1262    -1252    -1237    -1223 
   -1200    -1162    -1128    -1101    -1075    -1057    -1037     -998 
    -959     -942     -930     -916     -898     -873     -845     -824 
    -812     -800     -777     -747     -722     -705     -692     -683 
    -676     -664     -644     -626     -609     -586     -564     -542 
    -513     -481     -453     -427     -402     -374     -341     -313 
    -297     -287     -270     -244     -217     -198     -189     -181 
    -164     -139     -107      -79      -65      -55      -38      -17 
       0        8       12       25       52       77       96      117 
     139      164      198      238      281      330      377      416 
     453      492      531      573      618      659      693      725 
     760      791      823      861      903      943      975     1005 
    1043     1082     1113     1136     1148     1156     1167     1164 
    1143     1120     1107     1092     1062     1022      988      955 
     914      873      826      765      705      651      590      519 
     449      390      325      244      161       75      -23     -123 
    -215     -317     -438     -560     -677     -802     -919    -1017 
   -1121    -1240    -1348    -1446    -1551    -1657    -1755    -1834 
   -1901    -1972    -2055    -2142    -2227    -2304    -2382    -2468 
   -2548    -2623    -2708    -2800    -2883    -2960    -3031    -3096 
   -3171    -3233    -3276    -3328    -3397    -3468    -3520    -3535 
   -3554    -3597    -3629    -3643    -3650    -3664    -3695    -3712 
   -3696    -3672    -3647    -3631    -3632    -3612    -3571    -3534 
   -3493    -3448    -3410    -3373    -3340    -3314    -3285    -3252 
   -3214    -3178    -3147    -3123    -3097    -3070    -3052    -3034 
   -3008    -2983    -2972    -2959    -2929    -2904    -2890    -2878 
   -2872    -2860    -2834    -2823    -2840    -2850    -2843    -2837 
   -2845    -2863    -2880    -2891    -2893    -2892    -2898    -2907 
   -2914    -2919    -2926    -2942    -2958    -2971    -2985    -2998 
   -3027    -3071    -3105    -3130    -3161    -3196    -3242    -3302 
   -3349    -3381    -3433    -3507    -3572    -3614    -3638    -3667 
   -3717    -3771    -3820    -3852    -3853    -3839    -3831    -3831 
   -3841    -3857    -3880    -3919    -3955    -3938    -3879    -3842 
   -3836    -3860    -3922    -3966    -3952    -3928    -3912    -3859 
   -3786    -3781    -3835    -3849    -3853    -3871    -3821    -3717 
   -3632    -3615    -3691    -3775    -3752    -3593    -3384    -3294 
   -3402    -3612    -3704    -3573    -3332    -3114    -3021    -3106 
   -3275    -3356    -3278    -3130    -2993    -2893    -2884    -2925 
   -2902    -2825    -2765    -2717    -2634    -2535    -2484    -2449 
   -2359    -2285    -2292    -2268    -2128    -1955    -1848    -1819 
   -1813    -1762    -1656    -1546    -1458    -1362    -1254    -1171 
   -1116    -1074    -1074    -1075     -982     -826     -703     -647 
    -654     -657     -594     -495     -400     -332     -299     -267 
