Origin Time       2011/03/11 14:46:00
Lat.              38.103
Long.             142.860
Depth. (km)       24
Mag.              9.0
Station Code      HKD003
Station Lat.      45.1033
Station Long.     141.7665
Station Height(m) 10
Record Time       2011/03/11 14:51:07
Sampling Freq(Hz) 100Hz
Duration Time(s)  60
Dir.              U-D
Scale Factor      3920(gal)/6182761
Max. Acc. (gal)   2.314
Last Correction   2011/03/11 14:50:52
Memo.             
[...]
  -13771   -13784   -13802   -13821   -13829   -13830   -13828   -13811 
  -13782   -13749   -13712   -13675   -13645   -13618   -13593   -13577 
  -13564   -13552   -13543   -13532   -13516   -13501   -13485   -13460 
  -13434   -13412   -13391   -13377   -13371   -13367   -13366   -13371 
  -13371   -13366   -13358   -13345   -13322   -13293   -13261   -13228 
  -13195   -13168   -13147   -13127   -13104   -13083   -13065   -13044 
  -13019   -12998   -12985   -12977   -12972   -12970   -12968   -12963 
  -12956   -12949   -12943   -12941   -12944   -12951   -12962   -12978 
  -12997   -13022   -13048   -13069   -13088   -13107   -13120   -13134 
  -13158   -13182   -13202   -13224   -13247   -13267   -13291   -13329 
  -13370   -13408   -13447   -13482   -13512   -13544   -13576   -13611 
  -13656   -13705   -13759   -13824   -13888   -13945   -13999   -14046 
  -14083   -14119   -14152   -14177   -14202   -14223   -14235   -14246 
  -14261   -14279   -14306   -14343   -14382   -14424   -14472   -14520 
  -14565   -14604   -14631   -14648   -14659   -14666   -14668   -14674 
  -14685   -14692   -14701   -14711   -14713   -14712   -14712   -14702 
  -14685   -14671   -14653   -14630   -14607   -14578   -14544   -14511 
  -14477   -14440   -14408   -14377   -14344   -14317   -14297   -14272 
  -14245   -14218   -14183   -14149   -14120   -14088   -14057   -14021 
  -13976   -13931   -13892   -13849   -13804   -13765   -13731   -13701 
  -13683   -13672   -13656   -13641   -13632   -13615   -13594   -13582 
  -13576   -13572   -13579   -13595   -13609   -13623   -13632   -13627 
  -13608   -13589   -13572   -13555   -13545   -13541   -13542   -13555 
  -13577   -13602   -13634   -13665   -13684   -13690   -13692   -13685 
  -13666   -13641   -13616   -13589   -13568   -13556   -13548   -13545 
  -13548   -13556   -13566   -13574   -13570   -13555   -13538   -13516 
  -13489   -13466   -13442   -13418   -13401   -13385   -13369   -13356 
  -13340   -13322   -13300   -13268   -13232   -13199   -13166   -13134 
  -13101   -13066   -13029   -12996   -12964   -12930   -12902   -12884 
  -12867   -12849   -12835   -12822   -12805   -12790   -12774   -12756 
  -12740   -12725   -12710   -12700   -12693   -12684   -12675   -12668 
  -12651   -12626   -12602   -12573   -12539   -12509   -12484   -12464 
  -12453   -12451   -12454   -12460   -12466   -12466   -12459   -12446 
  -12424   -12398   -12375   -12350   -12323   -12302   -12277   -12248 
  -12224   -12202   -12174   -12151   -12131   -12108   -12091   -12080 
  -12064   -12044   -12029   -12017   -12008   -12007   -12014   -12029 
  -12051   -12072   -12088   -12100   -12106   -12102   -12089   -12068 
  -12043   -12017   -11993   -11973   -11953   -11935   -11917   -11899 
  -11883   -11870   -11853   -11828   -11804   -11778   -11749   -11722 
  -11698   -11675   -11651   -11633   -11617   -11603   -11595   -11585 
  -11570   -11555   -11534   -11510   -11487   -11459   -11425   -11396 
  -11371   -11344   -11320   -11302   -11286   -11275   -11267   -11256 
  -11238   -11217   -11191   -11161   -11130   -11100   -11070   -11044 
  -11026   -11015   -11006   -11002   -11001   -11001   -11002   -10999 
  -10992   -10986   -10975   -10959   -10944   -10933   -10928   -10931 
  -10942   -10956   -10972   -10992   -11016   -11040   -11061   -11078 
  -11089   -11102   -11121   -11142   -11167   -11197   -11226   -11253 
  -11283   -11308   -11324   -11341   -11355   -11363   -11375   -11386 
  -11390   -11392   -11401   -11413   -11429   -11455   -11485   -11513 
  -11541   -11565   -11581   -11596   -11610   -11618   -11624   -11630 
  -11638   -11647   -11656   -11658   -11660   -11668   -11677   -11687 
  -11705   -11733   -11767   -11806   -11849   -11884   -11905   -11917 
  -11919   -11916   -11916   -11921   -11927   -11939   -11957   -11976 
  -11996   -12025   -12053   -12075   -12099   -12117   -12128   -12143 
  -12160   -12175   -12194   -12219   -12242   -12264   -12292   -12324 
  -12353   -12385   -12416   -12435   -12446   -12451   -12449   -12449 
  -12456   -12461   -12467   -12482   -12497   -12505   -12517   -12529 
  -12532   -12537   -12545   -12546   -12546   -12553   -12556   -12554 
  -12558   -12557   -12543   -12525   -12507   -12479   -12449   -12422 
  -12393   -12365   -12343   -12322   -12300   -12283   -12267   -12255 
  -12248   -12241   -12229   -12222   -12219   -12212   -12210   -12214 
  -12214   -12208   -12201   -12191   -12177   -12160   -12136   -12109 
  -12087   -12073   -12068   -12074   -12091   -12112   -12129   -12144 
  -12155   -12155   -12146   -12130   -12108   -12087   -12069   -12052 
  -12037   -12032   -12035   -12040   -12053   -12072   -12087   -12097 
  -12107   -12113   -12112   -12109   -12100   -12086   -12077   -12071 
  -12067   -12067   -12071   -12075   -12077   -12079   -12082   -12089 
  -12096   -12099   -12100   -12100   -12095   -12090   -12090   -12089 
  -12086   -12085   -12087   -12092   -12102   -12111   -12115   -12115 
  -12117   -12124   -12134   -12147   -12164   -12182   -12206   -12234 
  -12263   -12295   -12326   -12345   -12356   -12364   -12362   -12357 
  -12355   -12354   -12354   -12359   -12365   -12375   -12394   -12423 
  -12460   -12498   -12533   -12568   -12601   -12626   -12638   -12646 
  -12654   -12662   -12673   -12696   -12726   -12761   -12803   -12847 
  -12895   -12944   -12989   -13028   -13064   -13098   -13132   -13174 
  -13226   -13284   -13346   -13411   -13472   -13528   -13583   -13640 
  -13701   -13767   -13835   -13911   -13996   -14086   -14171   -14244 
  -14309   -14365   -14411   -14451   -14486   -14516   -14543   -14564 
  -14581   -14601   -14630   -14661   -14694   -14732   -14769   -14801 
  -14827   -14846   -14863   -14881   -14899   -14913   -14922   -14927 
  -14925   -14920   -14914   -14906   -14898   -14890   -14884   -14881 
  -14883   -14892   -14909   -14933   -14963   -14986   -14998   -15005 
  -15002   -14990   -14979   -14968   -14953   -14937   -14919   -14898 
  -14880   -14866   -14853   -14844   -14839   -14830   -14814   -14798 
  -14778   -14752   -14725   -14697   -14660   -14621   -14583   -14546 
  -14514   -14482   -14441   -14399   -14363   -14323   -14283   -14250 
  -14218   -14184   -14154   -14126   -14097   -14075   -14057   -14034 
  -14019   -14010   -13994   -13977   -13962   -13944   -13926   -13911 
  -13896   -13884   -13878   -13876   -13879   -13889   -13908   -13930 
  -13954   -13982   -14004   -14016   -14028   -14040   -14046   -14049 
  -14053   -14050   -14043   -14036   -14030   -14024   -14019   -14013 
  -14002   -13988   -13975   -13956   -13929   -13903   -13875   -13844 
  -13814   -13788   -13764   -13745   -13728   -13705   -13679   -13656 
  -13632   -13606   -13584   -13562   -13534   -13508   -13480   -13442 
  -13400   -13361   -13324   -13293   -13271   -13256   -13248   -13246 
  -13246   -13242   -13234   -13221   -13201   -13177   -13159   -13146 
  -13129   -13118   -13110   -13099   -13087   -13075   -13059   -13039 
  -13020   -13001   -12983   -12970   -12962   -12957   -12958   -12964 
  -12975   -12988   -13005   -13019   -13029   -13036   -13040   -13041 
  -13044   -13048   -13048   -13044   -13038   -13029   -13022   -13022 
  -13026   -13033   -13046   -13056   -13056   -13056   -13059   -13063 
  -13070   -13081   -13089   -13097   -13110   -13123   -13135   -13145 
  -13150   -13152   -13157   -13159   -13154   -13147   -13144   -13139 
  -13136   -13139   -13141   -13141   -13143   -13146   -13150   -13157 
  -13162   -13166   -13170   -13171   -13169   -13172   -13177   -13185 
  -13194   -13203   -13206   -13210   -13213   -13213   -13217   -13228 
  -13237   -13247   -13264   -13281   -13294   -13307   -13321   -13326 
  -13322   -13320   -13321   -13326   -13336   -13351   -13369   -13380 
  -13381   -13374   -13366   -13355   -13347   -13344   -13344   -13341 
  -13338   -13341   -13347   -13354   -13361   -13366   -13368   -13370 
  -13371   -13364   -13354   -13349   -13345   -13343   -13346   -13346 
  -13347   -13350   -13358   -13371   -13388   -13400   -13407   -13416 
  -13423   -13422   -13418   -13414   -13406   -13393   -13378   -13365 
  -13357   -13359   -13368   -13384   -13403   -13416   -13425   -13428 
  -13423   -13418   -13412   -13405   -13400   -13397   -13396   -13395 
  -13401   -13412   -13420   -13427   -13431   -13431   -13430   -13432 
  -13435   -13437   -13439   -13436   -13425   -13407   -13383   -13351 
  -13312   -13268   -13218   -13167   -13113   -13059   -13013   -12970 
  -12925   -12885   -12849   -12807   -12759   -12711   -12664   -12621 
  -12586   -12555   -12523   -12492   -12466   -12439   -12408   -12374 
  -12335   -12289   -12240   -12187   -12131   -12074   -12016   -11959 
  -11903   -11847   -11792   -11738   -11685   -11633   -11585   -11541 
  -11502   -11464   -11433   -11409   -11388   -11370   -11353   -11329 
  -11300   -11269   -11232   -11192   -11157   -11126   -11099   -11076 
  -11053   -11031   -11007   -10981   -10959   -10941   -10923   -10907 
  -10894   -10882   -10872   -10866   -10862   -10860   -10859   -10853 
  -10843   -10832   -10820   -10811   -10812   -10819   -10825   -10832 
  -10843   -10856   -10871   -10888   -10904   -10919   -10935   -10950 
  -10964   -10980   -10995   -11010   -11033   -11060   -11090   -11125 
  -11158   -11189   -11222   -11251   -11268   -11281   -11296   -11311 
  -11326   -11345   -11368   -11390   -11413   -11433   -11449   -11462 
  -11475   -11486   -11495   -11504   -11509   -11509   -11503   -11490 
  -11473   -11453   -11432   -11412   -11397   -11387   -11381   -11381 
  -11386   -11391   -11393   -11391   -11384   -11373   -11360   -11347 
  -11336   -11325   -11315   -11309   -11303   -11297   -11295   -11291 
  -11280   -11269   -11257   -11241   -11222   -11205   -11184   -11159 
  -11136   -11112   -11086   -11058   -11029   -10998   -10964   -10925 
  -10882   -10841   -10801   -10763   -10729   -10697   -10665   -10637 
  -10608   -10574   -10539   -10505   -10472   -10441   -10412   -10384 
  -10357   -10327   -10293   -10257   -10218   -10177   -10136   -10099 
  -10064   -10028    -9995    -9964    -9931    -9898    -9868    -9838 
   -9806    -9779    -9753    -9724    -9699    -9675    -9647    -9621 
   -9596    -9567    -9537    -9507    -9478    -9458    -9443    -9430 
   -9423    -9421    -9418    -9416    -9418    -9415    -9406    -9408 
   -9418    -9429    -9446    -9467    -9481    -9494    -9505    -9508 
   -9510    -9514    -9511    -9504    -9502    -9497    -9488    -9485 
   -9492    -9506    -9531    -9561    -9590    -9618    -9650    -9678 
   -9702    -9730    -9759    -9781    -9802    -9825    -9846    -9872 
   -9900    -9927    -9959    -9993   -10021   -10048   -10075   -10105 
  -10141   -10181   -10218   -10255   -10291   -10325   -10355   -10391 
  -10431   -10466   -10498   -10531   -10560   -10588   -10619   -10653 
  -10686   -10721   -10759   -10793   -10824   -10856   -10889   -10920 
  -10953   -10993   -11037   -11082   -11133   -11187   -11240   -11293 
  -11343   -11384   -11417   -11445   -11476   -11508   -11538   -11572 
  -11609   -11642   -11677   -11712   -11745   -11779   -11815   -11851 
  -11889   -11930   -11974   -12024   -12077   -12128   -12175   -12216 
  -12250   -12281   -12317   -12353   -12386   -12420   -12456   -12484 
  -12508   -12532   -12558   -12589   -12618   -12639   -12659   -12684 
  -12710   -12736   -12770   -12806   -12842   -12880   -12918   -12943 
  -12964   -12986   -13005   -13029   -13058   -13084   -13108   -13136 
  -13164   -13192   -13225   -13259   -13287   -13316   -13340   -13357 
  -13371   -13384   -13398   -13419   -13440   -13460   -13482   -13503 
  -13526   -13552   -13579   -13602   -13623   -13645   -13661   -13670 
  -13680   -13689   -13684   -13670   -13655   -13638   -13620   -13604 
  -13593   -13591   -13598   -13608   -13621   -13639   -13654   -13662 
  -13666   -13670   -13678   -13693   -13707   -13719   -13739   -13768 
  -13800   -13831   -13855   -13867   -13875   -13887   -13891   -13887 
  -13889   -13894   -13895   -13903   -13920   -13939   -13965   -13997 
  -14027   -14055   -14078   -14091   -14104   -14120   -14137   -14153 
  -14172   -14191   -14203   -14209   -14216   -14215   -14207   -14200 
  -14197   -14196   -14204   -14221   -14240   -14268   -14303   -14335 
  -14366   -14399   -14428   -14451   -14478   -14513   -14550   -14584 
  -14616   -14645   -14676   -14716   -14758   -14806   -14863   -14912 
  -14949   -14984   -15017   -15049   -15090   -15132   -15173   -15220 
  -15268   -15310   -15346   -15374   -15390   -15405   -15424   -15439 
  -15450   -15470   -15498   -15525   -15553   -15580   -15600   -15616 
  -15630   -15641   -15654   -15668   -15679   -15684   -15688   -15691 
  -15687   -15678   -15669   -15663   -15660   -15663   -15666   -15664 
  -15663   -15664   -15663   -15658   -15651   -15640   -15627   -15616 
  -15607   -15598   -15592   -15591   -15590   -15592   -15599   -15605 
  -15612   -15619   -15617   -15610   -15602   -15591   -15581   -15572 
  -15562   -15556   -15561   -15571   -15586   -15605   -15623   -15641 
  -15667   -15688   -15696   -15707   -15724   -15737   -15755   -15783 
  -15810   -15840   -15875   -15908   -15940   -15972   -15999   -16027 
  -16062   -16099   -16136   -16177   -16219   -16260   -16306   -16348 
  -16376   -16398   -16418   -16430   -16439   -16451   -16463   -16478 
  -16496   -16513   -16523   -16534   -16545   -16549   -16544   -16533 
  -16523   -16507   -16485   -16461   -16435   -16406   -16377   -16347 
  -16315   -16287   -16256   -16219   -16181   -16134   -16078   -16026 
  -15977   -15930   -15889   -15852   -15813   -15779   -15748   -15709 
  -15665   -15621   -15578   -15541   -15511   -15483   -15453   -15426 
  -15403   -15382   -15367   -15355   -15338   -15318   -15300   -15275 
  -15236   -15193   -15150   -15104   -15063   -15031   -14999   -14969 
  -14944   -14919   -14896   -14874   -14849   -14823   -14793   -14761 
  -14729   -14695   -14655   -14615   -14578   -14539   -14502   -14470 
  -14440   -14411   -14390   -14371   -14346   -14320   -14298   -14272 
  -14245   -14219   -14192   -14165   -14142   -14120   -14099   -14082 
  -14067   -14051   -14037   -14026   -14015   -14002   -13992   -13980 
  -13965   -13954   -13945   -13935   -13928   -13927   -13923   -13917 
  -13915   -13909   -13903   -13902   -13900   -13893   -13886   -13879 
  -13873   -13866   -13860   -13853   -13844   -13840   -13838   -13836 
  -13838   -13845   -13851   -13861   -13876   -13895   -13918   -13946 
  -13973   -13998   -14024   -14046   -14061   -14074   -14084   -14091 
  -14094   -14100   -14110   -14117   -14123   -14132   -14142   -14154 
  -14165   -14176   -14188   -14201   -14217   -14233   -14245   -14257 
  -14273   -14286   -14292   -14299   -14305   -14308   -14311   -14315 
  -14318   -14314   -14309   -14304   -14296   -14293   -14296   -14298 
  -14297   -14295   -14292   -14288   -14288   -14291   -14290   -14288 
  -14286   -14283   -14274   -14259   -14238   -14213   -14187   -14167 
  -14150   -14131   -14114   -14097   -14082   -14072   -14058   -14043 
  -14034   -14030   -14027   -14026   -14023   -14015   -14006   -13998 
  -13987   -13974   -13959   -13937   -13913   -13893   -13868   -13837 
  -13809   -13781   -13752   -13727   -13701   -13673   -13652   -13634 
  -13615   -13593   -13567   -13547   -13536   -13522   -13502   -13483 
  -13468   -13452   -13433   -13410   -13380   -13345   -13306   -13267 
  -13227   -13185   -13148   -13109   -13062   -13013   -12963   -12908 
  -12849   -12795   -12744   -12692   -12641   -12590   -12539   -12492 
  -12442   -12386   -12332   -12282   -12238   -12197   -12156   -12119 
  -12087   -12055   -12023   -11993   -11968   -11941   -11910   -11880 
  -11850   -11817   -11786   -11762   -11739   -11712   -11687   -11662 
  -11639   -11618   -11598   -11580   -11564   -11552   -11542   -11536 
  -11536   -11535   -11532   -11534   -11540   -11544   -11548   -11554 
  -11557   -11556   -11554   -11554   -11550   -11544   -11539   -11532 
  -11520   -11507   -11494   -11480   -11466   -11447   -11421   -11395 
  -11371   -11341   -11309   -11284   -11260   -11233   -11209   -11181 
  -11144   -11104   -11062   -11016   -10971   -10925   -10875   -10825 
  -10771   -10710   -10651   -10594   -10535   -10480   -10431   -10383 
  -10340   -10301   -10267   -10233   -10200   -10169   -10141   -10113 
  -10089   -10069   -10048   -10033   -10022   -10008    -9998    -9992 
   -9982    -9969    -9959    -9950    -9940    -9931    -9926    -9920 
   -9916    -9915    -9911    -9906    -9904    -9900    -9896    -9899 
   -9904    -9908    -9919    -9936    -9948    -9958    -9969    -9979 
   -9985    -9995   -10009   -10024   -10041   -10063   -10085   -10110 
  -10139   -10170   -10201   -10236   -10274   -10310   -10344   -10378 
  -10412   -10442   -10474   -10508   -10541   -10576   -10613   -10646 
  -10676   -10708   -10737   -10766   -10797   -10830   -10863   -10893 
  -10921   -10950   -10981   -11009   -11035   -11059   -11082   -11106 
  -11128   -11142   -11156   -11170   -11180   -11187   -11194   -11205 
  -11221   -11240   -11264   -11290   -11315   -11341   -11363   -11380 
  -11395   -11407   -11414   -11422   -11434   -11448   -11467   -11491 
  -11512   -11526   -11540   -11551   -11555   -11555   -11558   -11562 
  -11568   -11580   -11590   -11598   -11609   -11617   -11615   -11614 
  -11617   -11618   -11625   -11640   -11652   -11661   -11669   -11670 
  -11658   -11637   -11612   -11587   -11569   -11557   -11552   -11559 
  -11571   -11582   -11589   -11597   -11608   -11623   -11642   -11662 
  -11683   -11705   -11726   -11743   -11757   -11761   -11758   -11755 
  -11750   -11747   -11748   -11746   -11745   -11753   -11760   -11769 
  -11790   -11818   -11847   -11876   -11901   -11924   -11947   -11967 
  -11981   -11988   -11991   -11990   -11985   -11979   -11971   -11965 
  -11969   -11979   -11995   -12022   -12052   -12081   -12108   -12134 
  -12154   -12166   -12173   -12175   -12167   -12149   -12130   -12113 
  -12095   -12083   -12084   -12093   -12111   -12141   -12174   -12208 
  -12247   -12286   -12317   -12345   -12373   -12394   -12410   -12423 
  -12428   -12434   -12448   -12466   -12486   -12511   -12540   -12570 
  -12606   -12654   -12710   -12770   -12832   -12895   -12957   -13012 
  -13057   -13090   -13114   -13132   -13145   -13154   -13163   -13175 
  -13191   -13212   -13242   -13282   -13330   -13383   -13443   -13506 
  -13561   -13607   -13649   -13681   -13708   -13729   -13744   -13756 
  -13772   -13789   -13810   -13837   -13868   -13906   -13950   -13992 
  -14031   -14068   -14099   -14126   -14150   -14172   -14193   -14208 
  -14220   -14230   -14236   -14242   -14256   -14275   -14296   -14332 
  -14376   -14415   -14449   -14481   -14504   -14522   -14538   -14543 
  -14536   -14525   -14512   -14499   -14492   -14486   -14481   -14484 
  -14493   -14507   -14531   -14561   -14591   -14623   -14655   -14684 
  -14707   -14727   -14744   -14751   -14748   -14743   -14736   -14728 
  -14726   -14736   -14753   -14777   -14811   -14850   -14893   -14934 
  -14970   -15004   -15030   -15045   -15053   -15059   -15062   -15063 
