Origin Time       2011/03/11 14:46:00
Lat.              38.103
Long.             142.860
Depth. (km)       24
Mag.              9.0
Station Code      HKD006
Station Lat.      45.1267
Station Long.     142.3516
Station Height(m) 14
Record Time       2011/03/11 14:50:11
Sampling Freq(Hz) 100Hz
Duration Time(s)  289
Dir.              E-W
Scale Factor      3920(gal)/6182761
Max. Acc. (gal)   4.440
Last Correction   2011/03/11 14:49:56
Memo.             
[...]
   -4841    -4909    -4978    -5052    -5134    -5207    -5262    -5314 
   -5365    -5401    -5433    -5463    -5485    -5502    -5515    -5514 
   -5498    -5474    -5441    -5401    -5358    -5302    -5234    -5166 
   -5102    -5043    -4993    -4945    -4898    -4850    -4792    -4726 
   -4662    -4604    -4549    -4504    -4472    -4448    -4433    -4427 
   -4422    -4418    -4417    -4416    -4416    -4414    -4409    -4411 
   -4422    -4440    -4469    -4498    -4523    -4545    -4566    -4591 
   -4620    -4655    -4691    -4719    -4735    -4737    -4719    -4680 
   -4627    -4567    -4505    -4439    -4372    -4292    -4198    -4098 
   -3986    -3858    -3725    -3585    -3439    -3295    -3152    -3007 
   -2851    -2684    -2520    -2358    -2187    -2014    -1849    -1694 
   -1549    -1408    -1271    -1136     -998     -856     -714     -577 
    -445     -320     -206      -99       14      133      262      398 
     534      666      797      926     1046     1152     1249     1349 
    1456     1563     1670     1771     1861     1943     2017     2076 
    2124     2171     2212     2243     2273     2298     2310     2319 
    2326     2324     2309     2281     2244     2200     2156     2110 
    2059     2000     1937     1871     1800     1718     1628     1531 
    1419     1296     1172     1045      914      782      649      516 
     385      253      126        9     -106     -224     -344     -467 
    -595     -724     -856     -991    -1124    -1253    -1378    -1499 
   -1612    -1721    -1835    -1953    -2070    -2191    -2318    -2446 
   -2565    -2678    -2788    -2891    -2990    -3095    -3201    -3307 
   -3414    -3519    -3623    -3720    -3804    -3882    -3953    -4008 
   -4057    -4116    -4180    -4247    -4321    -4404    -4492    -4580 
   -4662    -4734    -4793    -4839    -4874    -4906    -4945    -4988 
   -5034    -5079    -5119    -5154    -5181    -5191    -5189    -5179 
   -5158    -5131    -5101    -5070    -5035    -4998    -4964    -4927 
   -4891    -4861    -4835    -4818    -4812    -4810    -4810    -4813 
   -4812    -4799    -4777    -4753    -4721    -4680    -4642    -4614 
   -4599    -4596    -4593    -4583    -4571    -4565    -4560    -4559 
   -4571    -4590    -4608    -4629    -4653    -4673    -4692    -4721 
   -4763    -4812    -4867    -4924    -4983    -5049    -5115    -5168 
   -5213    -5264    -5319    -5376    -5436    -5502    -5572    -5637 
   -5693    -5730    -5750    -5759    -5762    -5767    -5773    -5769 
   -5755    -5740    -5728    -5711    -5683    -5649    -5614    -5581 
   -5548    -5509    -5465    -5420    -5376    -5336    -5301    -5266 
   -5233    -5210    -5196    -5186    -5176    -5162    -5145    -5123 
   -5103    -5090    -5077    -5061    -5062    -5079    -5105    -5138 
   -5177    -5218    -5259    -5289    -5306    -5318    -5330    -5339 
   -5337    -5321    -5300    -5273    -5235    -5186    -5132    -5077 
   -5020    -4963    -4904    -4839    -4768    -4700    -4635    -4575 
   -4521    -4467    -4414    -4365    -4326    -4289    -4248    -4204 
   -4157    -4104    -4051    -3991    -3926    -3863    -3798    -3730 
   -3668    -3613    -3554    -3490    -3421    -3346    -3266    -3181 
   -3083    -2973    -2860    -2742    -2620    -2495    -2368    -2243 
   -2123    -2008    -1898    -1786    -1670    -1551    -1426    -1295 
   -1160    -1024     -888     -745     -596     -444     -297     -160 
     -33       80      172      240      290      326      347      357 
     362      362      356      342      313      275      236      194 
     144       93       52       16      -28      -83     -150     -230 
    -317     -405     -491     -569     -631     -678     -717     -750 
    -778     -808     -840     -876     -917     -954     -985    -1014 
   -1036    -1054    -1069    -1073    -1060    -1036    -1004     -972 
    -946     -925     -906     -882     -847     -812     -785     -764 
    -743     -723     -705     -684     -659     -631     -607     -591 
    -590     -601     -610     -611     -612     -610     -615     -635 
    -666     -702     -748     -801     -862     -931     -998    -1059 
   -1116    -1174    -1238    -1311    -1386    -1468    -1558    -1653 
   -1750    -1843    -1931    -2014    -2096    -2179    -2265    -2352 
   -2428    -2485    -2529    -2561    -2578    -2581    -2577    -2570 
   -2565    -2565    -2567    -2563    -2548    -2515    -2465    -2408 
   -2348    -2289    -2235    -2190    -2158    -2138    -2126    -2127 
   -2144    -2168    -2201    -2252    -2317    -2390    -2471    -2554 
   -2639    -2735    -2849    -2977    -3119    -3270    -3428    -3592 
   -3753    -3913    -4078    -4238    -4395    -4554    -4714    -4870 
   -5021    -5164    -5299    -5429    -5551    -5673    -5802    -5925 
   -6029    -6124    -6208    -6275    -6333    -6382    -6420    -6448 
   -6478    -6508    -6528    -6539    -6544    -6532    -6503    -6464 
   -6416    -6358    -6295    -6232    -6166    -6094    -6014    -5928 
   -5841    -5751    -5662    -5581    -5510    -5443    -5377    -5311 
   -5241    -5166    -5086    -5003    -4924    -4855    -4792    -4735 
   -4687    -4640    -4590    -4533    -4473    -4418    -4370    -4333 
   -4304    -4279    -4249    -4214    -4169    -4112    -4049    -3982 
   -3913    -3850    -3798    -3745    -3690    -3645    -3603    -3559 
   -3519    -3485    -3456    -3437    -3427    -3428    -3440    -3456 
   -3476    -3501    -3524    -3550    -3582    -3617    -3657    -3713 
   -3779    -3846    -3916    -3980    -4033    -4081    -4125    -4165 
   -4210    -4259    -4294    -4310    -4319    -4324    -4321    -4309 
   -4287    -4255    -4218    -4183    -4149    -4122    -4102    -4078 
   -4049    -4013    -3971    -3925    -3879    -3841    -3811    -3785 
   -3763    -3752    -3748    -3745    -3742    -3740    -3739    -3737 
   -3736    -3742    -3755    -3770    -3789    -3809    -3827    -3841 
   -3851    -3858    -3868    -3882    -3902    -3926    -3950    -3973 
   -3999    -4024    -4042    -4052    -4049    -4033    -4011    -3987 
   -3958    -3918    -3872    -3823    -3762    -3696    -3625    -3546 
   -3458    -3368    -3273    -3173    -3079    -2989    -2895    -2800 
   -2708    -2613    -2517    -2424    -2329    -2229    -2130    -2026 
   -1919    -1824    -1738    -1654    -1573    -1499    -1424    -1351 
   -1276    -1193    -1113    -1043     -974     -895     -811     -725 
    -631     -539     -447     -345     -241     -144      -45       56 
     157      256      353      454      562      674      780      883 
     985     1081     1164     1245     1324     1396     1463     1526 
    1583     1636     1684     1731     1780     1825     1864     1902 
    1940     1977     2007     2039     2078     2117     2161     2221 
    2289     2352     2411     2467     2508     2533     2549     2552 
    2539     2515     2483     2445     2402     2351     2287     2212 
    2132     2039     1937     1831     1723     1605     1480     1349 
    1210     1065      922      781      640      502      371      252 
     139       35      -54     -131     -200     -252     -288     -316 
    -340     -359     -373     -381     -387     -400     -413     -418 
    -426     -445     -474     -510     -549     -583     -616     -656 
    -696     -730     -759     -788     -825     -872     -924     -980 
   -1045    -1119    -1195    -1279    -1371    -1467    -1576    -1701 
   -1831    -1961    -2101    -2254    -2413    -2574    -2728    -2870 
   -3005    -3132    -3249    -3351    -3447    -3543    -3641    -3736 
   -3820    -3891    -3959    -4023    -4083    -4145    -4205    -4257 
   -4311    -4368    -4422    -4472    -4520    -4564    -4604    -4642 
   -4683    -4719    -4746    -4768    -4784    -4793    -4804    -4816 
   -4834    -4860    -4877    -4881    -4881    -4881    -4873    -4855 
   -4834    -4817    -4804    -4798    -4801    -4809    -4815    -4821 
   -4829    -4836    -4842    -4845    -4845    -4840    -4825    -4801 
   -4779    -4753    -4718    -4684    -4648    -4607    -4567    -4525 
   -4480    -4439    -4406    -4385    -4378    -4376    -4381    -4394 
   -4413    -4438    -4461    -4483    -4511    -4548    -4587    -4628 
   -4667    -4699    -4731    -4766    -4797    -4830    -4871    -4914 
   -4950    -4979    -5000    -5012    -5012    -5001    -4985    -4964 
   -4936    -4905    -4875    -4848    -4828    -4808    -4787    -4771 
   -4755    -4735    -4716    -4695    -4673    -4654    -4632    -4610 
   -4593    -4576    -4559    -4542    -4526    -4510    -4486    -4458 
   -4423    -4380    -4339    -4298    -4257    -4220    -4184    -4150 
   -4125    -4106    -4089    -4068    -4049    -4035    -4017    -3992 
   -3959    -3918    -3869    -3812    -3751    -3685    -3609    -3532 
   -3461    -3392    -3312    -3216    -3110    -2997    -2877    -2754 
   -2637    -2528    -2425    -2329    -2242    -2159    -2078    -1997 
   -1913    -1830    -1757    -1691    -1631    -1577    -1528    -1482 
   -1435    -1385    -1334    -1284    -1237    -1197    -1169    -1156 
   -1149    -1143    -1139    -1129    -1113    -1096    -1076    -1047 
   -1015     -984     -953     -921     -892     -859     -825     -797 
    -776     -759     -748     -749     -757     -762     -764     -761 
    -750     -738     -726     -712     -695     -677     -664     -658 
    -651     -638     -620     -603     -583     -561     -542     -519 
    -487     -456     -428     -396     -353     -297     -244     -197 
    -144      -81      -11       65      139      207      277      352 
     430      506      575      640      707      773      840      912 
     985     1059     1132     1204     1269     1330     1392     1455 
    1515     1571     1624     1678     1738     1795     1839     1873 
    1899     1916     1926     1930     1931     1931     1933     1938 
    1942     1941     1931     1908     1878     1841     1794     1741 
    1682     1617     1549     1483     1413     1331     1240     1141 
    1031      924      828      740      658      585      521      460 
     401      346      290      236      184      130       83       44 
       9      -19      -33      -35      -22       -1       21       43 
      66       84       98      115      134      152      165      171 
     164      142      108       63        8      -58     -136     -223 
    -314     -416     -531     -661     -803     -953    -1112    -1279 
   -1444    -1610    -1782    -1952    -2119    -2292    -2468    -2647 
   -2828    -3011    -3195    -3382    -3571    -3763    -3951    -4132 
   -4310    -4479    -4626    -4755    -4872    -4977    -5074    -5173 
   -5271    -5369    -5464    -5557    -5644    -5722    -5787    -5839 
   -5880    -5916    -5947    -5980    -6018    -6054    -6088    -6117 
   -6140    -6156    -6165    -6169    -6165    -6151    -6126    -6086 
   -6031    -5968    -5899    -5834    -5776    -5719    -5660    -5607 
   -5566    -5527    -5490    -5449    -5398    -5345    -5295    -5244 
   -5194    -5148    -5104    -5059    -5010    -4958    -4905    -4855 
   -4807    -4764    -4728    -4698    -4668    -4637    -4607    -4572 
   -4532    -4494    -4452    -4412    -4385    -4364    -4343    -4326 
   -4307    -4279    -4242    -4204    -4164    -4120    -4080    -4049 
   -4027    -4017    -4021    -4033    -4050    -4065    -4071    -4063 
   -4048    -4030    -4013    -3990    -3956    -3913    -3876    -3850 
   -3825    -3787    -3734    -3677    -3625    -3581    -3536    -3480 
   -3422    -3378    -3339    -3290    -3226    -3168    -3131    -3104 
   -3086    -3079    -3078    -3082    -3104    -3147    -3194    -3243 
   -3315    -3399    -3464    -3516    -3583    -3662    -3724    -3770 
   -3824    -3872    -3916    -3988    -4090    -4199    -4297    -4386 
   -4476    -4561    -4634    -4707    -4764    -4791    -4807    -4830 
   -4860    -4897    -4942    -4996    -5057    -5110    -5142    -5164 
   -5186    -5212    -5239    -5263    -5272    -5249    -5196    -5145 
   -5121    -5122    -5122    -5091    -5030    -4969    -4930    -4912 
   -4896    -4865    -4824    -4780    -4737    -4701    -4663    -4621 
   -4573    -4522    -4486    -4470    -4445    -4396    -4343    -4288 
   -4214    -4129    -4045    -3954    -3855    -3757    -3669    -3592 
   -3511    -3417    -3312    -3196    -3076    -2968    -2872    -2775 
   -2681    -2596    -2519    -2443    -2355    -2259    -2172    -2098 
   -2029    -1951    -1865    -1791    -1735    -1688    -1648    -1623 
   -1612    -1607    -1608    -1616    -1634    -1656    -1675    -1692 
   -1715    -1745    -1769    -1787    -1804    -1827    -1852    -1873 
   -1893    -1915    -1939    -1957    -1960    -1955    -1948    -1920 
   -1875    -1824    -1765    -1698    -1625    -1547    -1469    -1391 
   -1310    -1234    -1164    -1096    -1022     -939     -850     -766 
    -685     -606     -522     -425     -315     -202      -83       46 
     181      309      422      532      646      758      873     1000 
    1134     1273     1420     1575     1725     1865     2003     2144 
    2291     2451     2620     2789     2947     3093     3236     3381 
    3515     3635     3745     3841     3928     4001     4058     4117 
    4189     4269     4341     4386     4409     4429     4453     4487 
    4522     4541     4550     4560     4573     4589     4594     4579 
    4551     4515     4475     4444     4425     4410     4396     4381 
    4371     4363     4344     4311     4277     4246     4214     4173 
    4117     4056     3994     3933     3884     3846     3812     3784 
    3758     3731     3704     3671     3632     3587     3536     3486 
    3432     3372     3322     3292     3280     3279     3272     3248 
    3212     3166     3104     3029     2954     2884     2807     2725 
    2648     2571     2494     2412     2322     2224     2112     2003 
    1907     1813     1708     1584     1440     1286     1130      977 
     826      672      508      342      186       36     -115     -272 
    -441     -615     -793     -978    -1166    -1354    -1550    -1748 
   -1940    -2130    -2322    -2520    -2721    -2919    -3111    -3302 
   -3494    -3684    -3879    -4082    -4281    -4473    -4660    -4852 
   -5046    -5233    -5410    -5580    -5742    -5893    -6039    -6183 
   -6324    -6467    -6612    -6759    -6909    -7060    -7213    -7371 
   -7525    -7672    -7814    -7948    -8064    -8160    -8240    -8309 
   -8368    -8415    -8456    -8488    -8509    -8526    -8541    -8550 
   -8552    -8545    -8529    -8503    -8470    -8434    -8394    -8351 
   -8313    -8279    -8249    -8224    -8203    -8183    -8161    -8134 
   -8100    -8055    -8002    -7942    -7878    -7811    -7742    -7672 
   -7602    -7524    -7446    -7371    -7291    -7205    -7121    -7036 
   -6942    -6845    -6746    -6639    -6523    -6406    -6287    -6163 
   -6033    -5894    -5741    -5577    -5411    -5244    -5072    -4893 
   -4712    -4542    -4374    -4205    -4044    -3886    -3728    -3576 
   -3431    -3289    -3149    -3010    -2873    -2738    -2603    -2467 
   -2334    -2207    -2081    -1953    -1821    -1691    -1568    -1443 
   -1322    -1210    -1096     -979     -863     -746     -636     -537 
    -441     -351     -268     -185     -103      -26       41       91 
     134      181      225      264      303      339      373      411 
     439      455      470      483      489      495      501      499 
     493      492      491      482      473      464      447      426 
     404      384      370      354      324      277      219      156 
      87       16      -55     -131     -210     -287     -365     -448 
    -538     -634     -736     -838     -940    -1040    -1135    -1223 
   -1310    -1399    -1485    -1568    -1646    -1715    -1781    -1848 
   -1916    -1987    -2065    -2140    -2211    -2274    -2328    -2376 
   -2419    -2459    -2497    -2535    -2575    -2618    -2661    -2702 
   -2733    -2755    -2773    -2783    -2777    -2759    -2730    -2695 
   -2663    -2633    -2597    -2557    -2519    -2475    -2422    -2365 
   -2309    -2250    -2190    -2131    -2076    -2021    -1966    -1913 
   -1862    -1814    -1778    -1754    -1729    -1708    -1692    -1672 
   -1648    -1629    -1613    -1603    -1603    -1604    -1609    -1623 
   -1644    -1666    -1686    -1699    -1705    -1708    -1711    -1708 
   -1693    -1679    -1669    -1656    -1647    -1649    -1651    -1650 
   -1654    -1656    -1655    -1651    -1633    -1594    -1547    -1503 
   -1453    -1396    -1342    -1285    -1226    -1164    -1093    -1018 
    -945     -871     -789     -709     -640     -569     -498     -435 
    -371     -315     -270     -227     -186     -152     -124      -98 
     -78      -68      -67      -71      -77      -93     -127     -174 
    -230     -303     -392     -493     -610     -738     -875    -1016 
   -1156    -1296    -1426    -1546    -1662    -1769    -1869    -1966 
   -2063    -2158    -2248    -2343    -2446    -2548    -2645    -2735 
   -2822    -2910    -2992    -3065    -3136    -3205    -3270    -3330 
   -3386    -3440    -3492    -3544    -3590    -3634    -3683    -3728 
   -3767    -3801    -3833    -3859    -3874    -3881    -3882    -3872 
   -3849    -3823    -3796    -3765    -3723    -3679    -3631    -3577 
   -3525    -3470    -3413    -3363    -3313    -3266    -3219    -3158 
   -3090    -3025    -2964    -2911    -2862    -2815    -2774    -2735 
   -2695    -2650    -2599    -2544    -2490    -2444    -2398    -2342 
   -2293    -2261    -2238    -2220    -2208    -2208    -2212    -2219 
   -2235    -2260    -2289    -2325    -2372    -2425    -2470    -2511 
   -2565    -2637    -2710    -2783    -2868    -2958    -3048    -3145 
   -3244    -3336    -3421    -3504    -3585    -3660    -3717    -3763 
   -3801    -3830    -3855    -3878    -3899    -3922    -3944    -3963 
   -3978    -3983    -3975    -3949    -3912    -3870    -3824    -3771 
   -3709    -3640    -3570    -3500    -3427    -3348    -3260    -3165 
   -3067    -2967    -2868    -2772    -2676    -2579    -2484    -2395 
   -2304    -2207    -2108    -2004    -1897    -1798    -1711    -1631 
   -1554    -1484    -1427    -1381    -1344    -1318    -1294    -1262 
   -1226    -1195    -1175    -1167    -1168    -1177    -1193    -1214 
   -1240    -1267    -1293    -1321    -1346    -1364    -1378    -1387 
   -1392    -1388    -1375    -1364    -1356    -1349    -1354    -1375 
   -1409    -1451    -1497    -1543    -1590    -1640    -1693    -1748 
   -1806    -1862    -1913    -1961    -2001    -2030    -2055    -2077 
   -2096    -2111    -2118    -2115    -2106    -2098    -2089    -2083 
   -2082    -2088    -2104    -2121    -2136    -2153    -2171    -2182 
   -2194    -2212    -2227    -2233    -2230    -2226    -2221    -2214 
   -2208    -2206    -2208    -2220    -2245    -2282    -2326    -2369 
   -2408    -2444    -2476    -2509    -2537    -2562    -2598    -2637 
   -2672    -2705    -2732    -2755    -2780    -2810    -2846    -2884 
   -2925    -2968    -3016    -3072    -3131    -3191    -3259    -3333 
