Origin Time       2011/03/11 14:46:00
Lat.              38.103
Long.             142.860
Depth. (km)       24
Mag.              9.0
Station Code      HKD051
Station Lat.      44.0187
Station Long.     143.7747
Station Height(m) 33
Record Time       2011/03/11 14:49:18
Sampling Freq(Hz) 100Hz
Duration Time(s)  157
Dir.              E-W
Scale Factor      3920(gal)/6182761
Max. Acc. (gal)   2.998
Last Correction   2011/03/11 14:49:03
Memo.             
[...]
  -12961   -13084   -13161   -13243   -13395   -13611   -13775   -13811 
  -13776   -13788   -13940   -14225   -14509   -14645   -14593   -14399 
  -14109   -13792   -13571   -13488   -13464   -13454   -13486   -13553 
  -13627   -13756   -13989   -14227   -14319   -14216   -13963   -13660 
  -13444   -13388   -13420   -13398   -13248   -12976   -12611   -12219 
  -11929   -11823   -11872   -12038   -12291   -12573   -12810   -12955 
  -13014   -13041   -13071   -13095   -13064   -12936   -12748   -12614 
  -12640   -12814   -13029   -13180   -13207   -13092   -12857   -12568 
  -12320   -12141   -11940   -11654   -11337   -11075   -10915   -10887 
  -11011   -11280   -11641   -11966   -12135   -12142   -12044   -11879 
  -11714   -11640   -11686   -11793   -11879   -11936   -12015   -12127 
  -12210   -12223   -12193   -12141   -12044   -11900   -11762   -11693 
  -11747   -11947   -12271   -12640   -12932   -13093   -13171   -13203 
  -13199   -13198   -13208   -13174   -13041   -12829   -12618   -12484 
  -12457   -12538   -12683   -12785   -12767   -12652   -12520   -12435 
  -12411   -12390   -12317   -12240   -12245   -12341   -12475   -12618 
  -12752   -12837   -12839   -12794   -12796   -12904   -13074   -13218 
  -13262   -13133   -12809   -12413   -12140   -12093   -12218   -12359 
  -12392   -12287   -12076   -11857   -11756   -11815   -11967   -12117 
  -12236   -12357   -12496   -12627   -12735   -12814   -12844   -12794 
  -12643   -12406   -12136   -11890   -11722   -11667   -11717   -11823 
  -11947   -12066   -12164   -12246   -12339   -12462   -12585   -12671 
  -12731   -12762   -12726   -12662   -12679   -12851   -13141   -13420 
  -13573   -13593   -13560   -13572   -13681   -13852   -13998   -14039 
  -13949   -13786   -13650   -13576   -13537   -13548   -13651   -13770 
  -13749   -13541   -13244   -12975   -12797   -12708   -12631   -12468 
  -12167   -11774   -11441   -11323   -11465   -11794   -12174   -12517 
  -12815   -13091   -13380   -13678   -13902   -13961   -13851   -13635 
  -13404   -13223   -13080   -12916   -12678   -12366   -12073   -11907 
  -11900   -12032   -12223   -12319   -12225   -12003   -11801   -11740 
  -11847   -12016   -12070   -11926   -11648   -11360   -11180   -11149 
  -11165   -11047   -10710   -10257    -9880    -9724    -9841   -10180 
  -10579   -10883   -11076   -11250   -11433   -11566   -11617   -11595 
  -11478   -11232   -10921   -10707   -10680   -10786   -10917   -10990 
  -10989   -10966   -10965   -10995   -11050   -11109   -11162   -11233 
  -11347   -11521   -11756   -12041   -12345   -12601   -12763   -12843 
  -12842   -12732   -12550   -12401   -12344   -12341   -12305   -12188 
  -12009   -11792   -11578   -11455   -11485   -11631   -11786   -11856 
  -11822   -11724   -11587   -11426   -11295   -11231   -11175   -11036 
  -10808   -10578   -10429   -10382   -10438   -10591   -10763   -10882 
  -11001   -11218   -11529   -11848   -12129   -12373   -12555   -12659 
  -12750   -12914   -13169   -13476   -13778   -14033   -14227   -14336 
  -14325   -14215   -14070   -13918   -13743   -13545   -13364   -13245 
  -13203   -13236   -13350   -13542   -13769   -13984   -14192   -14459 
  -14832   -15219   -15468   -15522   -15428   -15239   -14988   -14750 
  -14626   -14594   -14510   -14304   -14031   -13749   -13505   -13369 
  -13344   -13305   -13117   -12773   -12351   -11909   -11502   -11243 
  -11216   -11371   -11587   -11787   -11964   -12100   -12129   -12041 
  -11912   -11776   -11567   -11249   -10947   -10799   -10803   -10923 
  -11195   -11613   -12083   -12508   -12845   -13073   -13153   -13052 
  -12794   -12471   -12167   -11890   -11618   -11362   -11148   -10998 
  -10934   -10969   -11121   -11380   -11671   -11928   -12185   -12525 
  -12951   -13369   -13664   -13767   -13673   -13438   -13183   -13029 
  -13025   -13151   -13351   -13558   -13724   -13845   -13946   -14030 
  -14047   -13954   -13789   -13633   -13520   -13458   -13484   -13597 
  -13712   -13776   -13848   -13976   -14096   -14132   -14084   -13966 
  -13772   -13528   -13304   -13105   -12864   -12534   -12135   -11714 
  -11325   -11023   -10839   -10750   -10693   -10637   -10618   -10651 
  -10693   -10719   -10743   -10749   -10662   -10428   -10091    -9767 
   -9567    -9537    -9667    -9903   -10160   -10352   -10441   -10435 
  -10376   -10297   -10230   -10214   -10238   -10221   -10126   -10019 
   -9987   -10087   -10346   -10741   -11188   -11606   -11960   -12227 
  -12385   -12444   -12441   -12413   -12378   -12329   -12254   -12182 
  -12183   -12302   -12506   -12738   -12963   -13140   -13227   -13238 
  -13235   -13238   -13206   -13113   -12975   -12789   -12546   -12299 
  -12117   -12029   -12046   -12139   -12265   -12437   -12675   -12905 
  -13029   -13022   -12914   -12743   -12552   -12374   -12209   -12042 
  -11853   -11627   -11387   -11211   -11191   -11308   -11450   -11564 
  -11645   -11635   -11505   -11342   -11268   -11315   -11411   -11482 
  -11544   -11622   -11696   -11763   -11850   -11934   -11956   -11856 
  -11629   -11366   -11130   -10881   -10589   -10291   -10022    -9807 
   -9691    -9715    -9844    -9989   -10141   -10374   -10680   -11008 
  -11346   -11649   -11832   -11846   -11728   -11591   -11504   -11419 
  -11314   -11265   -11310   -11431   -11645   -11965   -12310   -12538 
  -12591   -12556   -12546   -12597   -12694   -12783   -12807   -12766 
  -12685   -12574   -12469   -12419   -12441   -12525   -12667   -12866 
  -13084   -13280   -13465   -13674   -13897   -14069   -14085   -13876 
  -13490   -13046   -12618   -12242   -11958   -11797   -11758   -11824 
  -11968   -12133   -12255   -12325   -12410   -12570   -12807   -13087 
  -13353   -13570   -13737   -13828   -13831   -13783   -13687   -13508 
  -13268   -13001   -12727   -12504   -12395   -12416   -12570   -12835 
  -13140   -13432   -13679   -13868   -14043   -14219   -14314   -14272 
  -14124   -13893   -13581   -13252   -12992   -12829   -12731   -12658 
  -12586   -12521   -12533   -12688   -12917   -13072   -13064   -12844 
  -12357   -11649   -10899   -10272    -9793    -9410    -9125    -8963 
   -8915    -8985    -9232    -9661   -10115   -10400   -10463   -10376 
  -10237   -10161   -10232   -10424   -10614   -10691   -10630   -10473 
  -10307   -10226   -10255   -10337   -10416   -10456   -10424   -10324 
  -10203   -10126   -10129   -10198   -10316   -10461   -10592   -10716 
  -10890   -11140   -11455   -11792   -12046   -12145   -12144   -12110 
  -12025   -11858   -11634   -11406   -11211   -11089   -11057   -11066 
  -11092   -11184   -11381   -11669   -11990   -12269   -12439   -12474 
  -12407   -12289   -12144   -12012   -11940   -11915   -11892   -11859 
  -11855   -11922   -12095   -12379   -12713   -12978   -13093   -13055 
  -12894   -12632   -12299   -11936   -11573   -11235   -10963   -10815 
  -10872   -11177   -11695   -12317   -12913   -13377   -13641   -13684 
  -13581   -13449   -13325   -13182   -13024   -12890   -12809   -12766 
  -12750   -12785   -12875   -12984   -13085   -13197   -13354   -13545 
  -13714   -13821   -13824   -13668   -13366   -13005   -12711   -12568 
  -12541   -12544   -12544   -12522   -12455   -12349   -12250   -12219 
  -12252   -12277   -12235   -12121   -11987   -11915   -11966   -12157 
  -12457   -12767   -13000   -13167   -13314   -13432   -13491   -13513 
  -13543   -13598   -13656   -13701   -13743   -13803   -13907   -14059 
  -14212   -14283   -14210   -13983   -13653   -13316   -13062   -12922 
  -12871   -12879   -12905   -12891   -12803   -12650   -12433   -12120 
  -11693   -11187   -10697   -10349   -10254   -10464   -10919   -11468 
  -11961   -12279   -12405   -12425   -12416   -12403   -12408   -12457 
  -12557   -12687   -12838   -13038   -13303   -13562   -13728   -13781 
  -13766   -13738   -13711   -13669   -13607   -13493   -13284   -13029 
  -12836   -12776   -12864   -13044   -13213   -13322   -13411   -13543 
  -13779   -14140   -14557   -14880   -14964   -14730   -14216   -13600 
  -13089   -12770   -12612   -12539   -12484   -12433   -12423   -12485 
  -12641   -12840   -12954   -12910   -12740   -12507   -12271   -12076 
  -11915   -11763   -11624   -11538   -11573   -11756   -12037   -12344 
  -12585   -12688   -12682   -12620   -12501   -12296   -11971   -11515 
  -11032   -10694   -10597   -10711   -10926   -11117   -11221   -11246 
  -11218   -11180   -11165   -11136   -11027   -10864   -10757   -10783 
  -10907   -11040   -11147   -11227   -11262   -11269   -11344   -11542 
  -11794   -12001   -12139   -12252   -12381   -12488   -12491   -12364 
  -12117   -11746   -11295   -10901   -10652   -10482   -10271    -9974 
   -9638    -9344    -9163    -9149    -9304    -9537    -9711    -9766 
   -9777    -9848    -9952    -9954    -9755    -9357    -8842    -8341 
   -8005    -7902    -7946    -8026    -8155    -8381    -8666    -8970 
   -9320    -9719   -10096   -10442   -10864   -11453   -12177   -12890 
  -13417   -13668   -13640   -13398   -13128   -13055   -13218   -13408 
  -13389   -13108   -12633   -12041   -11452   -10987   -10684   -10492 
  -10345   -10238   -10225   -10341   -10561   -10804   -11002   -11132 
  -11208   -11280   -11403   -11555   -11643   -11594   -11414   -11191 
  -11033   -10970   -10947   -10905   -10832   -10786   -10868   -11116 
  -11473   -11830   -12035   -11960   -11633   -11244   -11009   -11040 
  -11316   -11734   -12161   -12461   -12570   -12583   -12670   -12902 
  -13212   -13494   -13688   -13800   -13888   -14005   -14187   -14459 
  -14809   -15209   -15650   -16122   -16558   -16849   -16958   -16950 
  -16901   -16833   -16747   -16625   -16432   -16219   -16125   -16210 
  -16410   -16628   -16768   -16722   -16442   -16025   -15640   -15393 
  -15309   -15397   -15608   -15788   -15809   -15684   -15499   -15327 
  -15209   -15125   -15023   -14854   -14584   -14214   -13800   -13419 
  -13110   -12877   -12763   -12825   -13061   -13399   -13810   -14327 
  -14948   -15614   -16240   -16693   -16832   -16588   -15989   -15173 
  -14311   -13512   -12839   -12333   -11983   -11776   -11741   -11886 
  -12141   -12395   -12545   -12510   -12267   -11863   -11390   -10930 
  -10496   -10045    -9586    -9228    -9071    -9123    -9346    -9716 
  -10159   -10539   -10789   -10953   -11070   -11132   -11161   -11204 
  -11227   -11197   -11225   -11456   -11894   -12457   -13048   -13533 
  -13775   -13733   -13484   -13143   -12802   -12523   -12315   -12159 
  -12075   -12071   -12090   -12085   -12046   -11991   -11958   -11972 
  -12028   -12118   -12217   -12307   -12400   -12514   -12668   -12832 
  -12893   -12776   -12524   -12224   -11948   -11721   -11540   -11409 
  -11360   -11428   -11606   -11845   -12092   -12300   -12432   -12472 
  -12431   -12310   -12115   -11894   -11689   -11507   -11357   -11273 
  -11296   -11458   -11764   -12176   -12638   -13091   -13480   -13784 
  -14009   -14167   -14272   -14356   -14459   -14584   -14688   -14712 
  -14623   -14420   -14123   -13819   -13652   -13677   -13822   -14007 
  -14149   -14173   -14095   -13990   -13908   -13857   -13799   -13700 
  -13557   -13374   -13210   -13177   -13326   -13619   -13978   -14274 
  -14394   -14333   -14167   -13994   -13854   -13674   -13401   -13099 
  -12875   -12793   -12835   -12916   -12984   -13014   -12974   -12884 
  -12792   -12689   -12546   -12385   -12260   -12195   -12159   -12132 
  -12140   -12168   -12134   -12026   -11960   -12021   -12225   -12617 
  -13221   -13903   -14437   -14666   -14596   -14334   -13969   -13591 
  -13286   -13016   -12695   -12373   -12164   -12091   -12160   -12438 
  -12926   -13490   -13983   -14378   -14670   -14801   -14742   -14538 
  -14189   -13655   -13011   -12426   -11991   -11703   -11529   -11414 
  -11365   -11456   -11704   -12082   -12586   -13142   -13573   -13745 
  -13719   -13688   -13748   -13825   -13796   -13571   -13112   -12497 
  -11912   -11533   -11410   -11485   -11662   -11883   -12147   -12455 
  -12765   -13021   -13205   -13264   -13116   -12767   -12333   -11947 
  -11671   -11480   -11300   -11106   -10926   -10742   -10514   -10257 
   -9973    -9622    -9232    -8931    -8857    -9074    -9483    -9897 
  -10214   -10404   -10462   -10437   -10389   -10322   -10210   -10059 
   -9902    -9795    -9833   -10067   -10426   -10794   -11117   -11360 
  -11462   -11431   -11383   -11399   -11481   -11650   -11925   -12283 
  -12668   -13038   -13391   -13720   -13979   -14154   -14260   -14287 
  -14241   -14164   -14097   -14076   -14138   -14285   -14479   -14668 
  -14849   -15066   -15337   -15616   -15807   -15817   -15656   -15432 
  -15263   -15232   -15347   -15494   -15551   -15476   -15261   -14930 
  -14564   -14230   -13964   -13772   -13620   -13475   -13349   -13277 
  -13321   -13510   -13763   -13939   -13981   -13939   -13910   -13977 
  -14166   -14403   -14513   -14359   -13976   -13522   -13136   -12880 
  -12731   -12582   -12367   -12122   -11925   -11844   -11928   -12129 
  -12277   -12242   -12082   -11963   -12013   -12278   -12737   -13254 
  -13636   -13784   -13773   -13756   -13811   -13877   -13844   -13634 
  -13247   -12785   -12353   -12031   -11932   -12074   -12299   -12440 
  -12447   -12373   -12284   -12227   -12262   -12415   -12621   -12834 
  -13085   -13382   -13660   -13839   -13822   -13543   -13048   -12466 
  -11941   -11584   -11444   -11532   -11829   -12328   -13071   -14084 
  -15235   -16255   -16924   -17185   -17079   -16710   -16239   -15756 
  -15218   -14548   -13740   -12890   -12152   -11663   -11511   -11694 
  -12102   -12581   -12999   -13278   -13405   -13405   -13283   -12990 
  -12499   -11858   -11147   -10454    -9912    -9652    -9679    -9854 
  -10044   -10230   -10419   -10580   -10724   -10928   -11231   -11551 
  -11768   -11856   -11868   -11848   -11844   -11917   -12091   -12325 
  -12513   -12533   -12356   -12084   -11841   -11675   -11601   -11613 
  -11647   -11651   -11671   -11799   -12088   -12522   -13004   -13422 
  -13692   -13767   -13676   -13490   -13237   -12909   -12502   -12035 
  -11564   -11136   -10788   -10577   -10504   -10477   -10419   -10320 
  -10166    -9955    -9736    -9548    -9398    -9301    -9274    -9348 
   -9555    -9834   -10032   -10027    -9807    -9483    -9183    -8943 
   -8757    -8631    -8522    -8396    -8313    -8351    -8536    -8860 
   -9300    -9788   -10218   -10563   -10894   -11226   -11482   -11625 
  -11670   -11602   -11435   -11280   -11234   -11252   -11209   -11059 
  -10874   -10760   -10735   -10773   -10895   -11063   -11163   -11209 
  -11353   -11687   -12171   -12682   -13121   -13444   -13624   -13689 
  -13722   -13758   -13751   -13691   -13675   -13788   -14026   -14355 
  -14744   -15119   -15373   -15450   -15412   -15345   -15273   -15169 
  -15019   -14835   -14651   -14512   -14467   -14551   -14759   -15060 
  -15411   -15740   -15960   -16010   -15843   -15441   -14839   -14068 
  -13155   -12177   -11296   -10651   -10240   -10038   -10091   -10437 
  -11037   -11801   -12604   -13317   -13814   -14025   -13996   -13842 
  -13625   -13305   -12823   -12236   -11704   -11369   -11309   -11531 
  -11946   -12384   -12717   -12957   -13191   -13447   -13715   -13979 
  -14175   -14230   -14159   -14033   -13900   -13764   -13621   -13489 
  -13375   -13290   -13274   -13358   -13532   -13712   -13787   -13709 
  -13475   -13139   -12839   -12639   -12463   -12255   -12053   -11913 
  -11863   -11909   -12008   -12036   -11880   -11537   -11105   -10725 
  -10512   -10490   -10598   -10734   -10794   -10741   -10638   -10617 
  -10768   -11000   -11113   -11013   -10733   -10362   -10063    -9985 
  -10128   -10348   -10469   -10427   -10346   -10409   -10737   -11353 
  -12092   -12644   -12802   -12618   -12341   -12228   -12350   -12569 
  -12676   -12561   -12312   -12138   -12199   -12533   -13025   -13428 
  -13553   -13441   -13281   -13236   -13367   -13628   -13876   -13955 
  -13847   -13666   -13524   -13488   -13542   -13543   -13363   -13030 
  -12709   -12583   -12734   -13101   -13534   -13867   -14016   -14025 
  -13978   -13896   -13761   -13551   -13264   -12981   -12817   -12805 
  -12867   -12892   -12800   -12557   -12173   -11691   -11181   -10750 
  -10502   -10470   -10624   -10939   -11386   -11905   -12434   -12908 
  -13262   -13441   -13396   -13115   -12674   -12200   -11781   -11449 
  -11214   -11070   -11029   -11117   -11323   -11610   -11937   -12248 
  -12488   -12670   -12850   -13044   -13228   -13390   -13534   -13650 
  -13724   -13770   -13813   -13854   -13877   -13879   -13864   -13828 
  -13756   -13651   -13551   -13491   -13441   -13334   -13150   -12944 
  -12788   -12730   -12782   -12908   -13034   -13086   -13027   -12849 
  -12561   -12239   -11967   -11743   -11527   -11318   -11187   -11230 
  -11452   -11768   -12098   -12397   -12649   -12870   -13075   -13252 
  -13392   -13498   -13562   -13600   -13645   -13669   -13602   -13460 
  -13348   -13313   -13292   -13221   -13087   -12876   -12593   -12322 
  -12178   -12224   -12468   -12848   -13239   -13528   -13668   -13658 
  -13523   -13301   -13020   -12681   -12260   -11772   -11321   -11062 
  -11086   -11397   -11946   -12613   -13218   -13662   -13979   -14228 
  -14425   -14536   -14501   -14303   -13990   -13615   -13233   -12924 
  -12751   -12701   -12696   -12658   -12594   -12573   -12624   -12725 
  -12856   -13001   -13159   -13334   -13485   -13557   -13505   -13275 
  -12879   -12448   -12138   -12028   -12122   -12352   -12607   -12768 
  -12765   -12634   -12499   -12425   -12386   -12345   -12298   -12236 
  -12189   -12265   -12574   -13106   -13689   -14128   -14365   -14430 
  -14344   -14146   -13911   -13710   -13589   -13541   -13529   -13543 
  -13582   -13629   -13694   -13810   -13965   -14109   -14209   -14262 
  -14261   -14175   -14022   -13890   -13804   -13693   -13496   -13215 
  -12866   -12482   -12180   -12093   -12227   -12434   -12556   -12536 
  -12376   -12083   -11717   -11376   -11092   -10820   -10535   -10281 
  -10145   -10203   -10451   -10782   -11077   -11265   -11318   -11268 
  -11188   -11103   -11002   -10900   -10824   -10774   -10726   -10687 
  -10707   -10794   -10907   -11034   -11159   -11226   -11210   -11159 
  -11109   -11065   -11041   -11047   -11084   -11155   -11286   -11488 
  -11700   -11818   -11802   -11703   -11602   -11578   -11684   -11899 
  -12110   -12212   -12238   -12329   -12559   -12869   -13174   -13420 
  -13531   -13451   -13276   -13207   -13333   -13577   -13845   -14101 
  -14335   -14561   -14842   -15223   -15656   -16029   -16239   -16254 
  -16144   -16052   -16101   -16310   -16603   -16862   -16987   -16957 
  -16833   -16717   -16718   -16855   -17014   -17039   -16868   -16564 
  -16257   -16086   -16143   -16354   -16490   -16381   -16059   -15697 
  -15451   -15378   -15452   -15588   -15644   -15496   -15162   -14797 
  -14554   -14475   -14532   -14672   -14796   -14801   -14707   -14664 
  -14765   -14913   -14946   -14805   -14491   -14027   -13562   -13349 
  -13519   -13929   -14338   -14636   -14808   -14863   -14878   -14965 
  -15130   -15224   -15082   -14710   -14245   -13825   -13551   -13462 
  -13525   -13633   -13637   -13484   -13282   -13170   -13169   -13213 
