Origin Time       2011/03/11 14:46:00
Lat.              38.103
Long.             142.860
Depth. (km)       24
Mag.              9.0
Station Code      HKD062
Station Lat.      43.6746
Station Long.     143.3088
Station Height(m) 500
Record Time       2011/03/11 14:49:07
Sampling Freq(Hz) 100Hz
Duration Time(s)  195
Dir.              E-W
Scale Factor      3920(gal)/6182761
Max. Acc. (gal)   3.407
Last Correction   2011/03/11 14:48:52
Memo.             
[...]
   -8357    -8421    -8421    -8255    -7964    -7653    -7433    -7433 
   -7616    -7841    -8000    -8001    -7899    -7736    -7307    -6655 
   -6356    -6696    -7283    -7739    -7888    -7699    -7559    -7803 
   -8194    -8337    -8221    -8268    -8701    -9136    -9075    -8480 
   -7828    -7592    -7775    -8090    -8217    -8096    -7978    -7963 
   -7926    -7783    -7592    -7660    -8143    -8506    -8203    -7550 
   -7122    -6965    -6862    -6782    -6835    -6963    -7040    -7162 
   -7429    -7752    -7958    -7937    -7757    -7538    -7367    -7381 
   -7591    -7765    -7683    -7400    -7232    -7462    -8002    -8427 
   -8468    -8248    -8014    -7989    -8225    -8403    -8172    -7702 
   -7459    -7624    -8024    -8304    -8238    -8050    -7985    -7947 
   -7955    -8183    -8462    -8429    -8026    -7491    -7107    -7016 
   -7093    -7192    -7395    -7751    -8052    -8028    -7776    -7641 
   -7654    -7669    -7725    -7766    -7646    -7455    -7235    -6890 
   -6617    -6610    -6694    -6782    -6874    -6851    -6876    -7248 
   -7829    -8310    -8575    -8553    -8230    -7813    -7498    -7237 
   -7058    -7200    -7630    -8046    -8272    -8179    -7714    -7110 
   -6726    -6854    -7467    -8139    -8643    -9062    -9204    -8834 
   -8101    -7241    -6504    -6286    -6697    -7294    -7569    -7454 
   -7240    -7161    -7231    -7474    -7806    -7896    -7674    -7489 
   -7516    -7687    -7946    -8031    -7719    -7355    -7264    -7263 
   -7251    -7296    -7340    -7433    -7659    -7918    -8192    -8425 
   -8356    -8053    -7947    -8141    -8339    -8254    -7783    -7183 
   -6939    -7268    -7900    -8236    -7978    -7523    -7342    -7527 
   -8035    -8645    -9001    -8990    -8741    -8415    -8222    -8338 
   -8701    -9093    -9379    -9495    -9379    -8991    -8345    -7710 
   -7515    -7773    -8039    -8022    -7821    -7642    -7599    -7699 
   -7784    -7686    -7535    -7571    -7860    -8391    -9009    -9369 
   -9317    -8889    -8118    -7278    -6830    -6973    -7444    -7688 
   -7443    -7105    -7202    -7652    -7922    -7802    -7575    -7586 
   -7860    -7987    -7626    -7038    -6658    -6596    -6846    -7321 
   -7588    -7338    -6950    -6914    -7094    -7092    -6875    -6716 
   -6779    -6966    -7137    -7389    -7961    -8839    -9629    -9805 
   -9139    -8104    -7634    -8039    -8548    -8538    -8222    -7936 
   -7873    -8018    -7911    -7363    -6821    -6554    -6530    -6677 
   -6687    -6519    -6634    -7098    -7471    -7525    -7423    -7502 
   -7861    -8180    -8239    -8140    -8024    -8047    -8269    -8490 
   -8463    -8167    -7938    -8193    -8819    -9218    -9093    -8731 
   -8504    -8488    -8427    -8009    -7312    -6627    -6187    -6250 
   -6799    -7422    -7846    -8061    -7933    -7444    -7110    -7232 
   -7426    -7457    -7586    -7980    -8411    -8547    -8334    -8056 
   -7984    -8103    -8346    -8590    -8538    -8200    -8005    -8177 
   -8504    -8630    -8399    -8048    -7868    -7852    -7824    -7587 
   -7078    -6552    -6360    -6653    -7272    -7808    -7947    -7780 
   -7657    -7806    -8093    -8171    -7975    -7786    -7675    -7411 
   -7075    -7099    -7567    -8044    -8117    -7690    -7032    -6765 
   -7157    -7752    -8058    -7926    -7578    -7507    -7816    -8124 
   -8206    -8038    -7672    -7422    -7583    -8034    -8442    -8516 
   -8266    -8127    -8204    -8133    -7951    -7813    -7595    -7432 
   -7403    -7253    -7159    -7571    -8296    -8701    -8481    -7843 
   -7292    -7125    -7183    -7412    -7924    -8381    -8371    -8049 
   -7751    -7702    -8036    -8453    -8403    -7942    -7572    -7441 
   -7576    -8076    -8588    -8687    -8521    -8411    -8297    -7860 
   -7033    -6188    -5944    -6712    -8049    -8861    -8628    -7923 
   -7575    -7712    -7772    -7457    -7237    -7595    -8362    -8950 
   -8867    -8251    -7779    -7771    -7904    -7871    -7716    -7603 
   -7635    -7704    -7546    -7192    -6999    -7197    -7699    -8175 
   -8323    -8229    -8183    -8246    -8246    -8086    -7988    -8276 
   -8768    -8785    -8204    -7834    -8166    -8771    -9158    -9233 
   -9127    -9005    -8921    -8861    -8826    -8858    -8768    -8148 
   -7169    -6547    -6638    -7186    -7559    -7508    -7650    -8447 
   -9365    -9707    -9456    -9022    -8790    -8848    -8758    -8123 
   -7355    -7118    -7400    -7758    -7795    -7357    -6921    -7124 
   -7833    -8369    -8326    -7898    -7590    -7624    -7760    -7751 
   -7644    -7525    -7409    -7278    -6955    -6479    -6331    -6769 
   -7464    -7934    -8091    -8228    -8433    -8460    -8151    -7668 
   -7436    -7700    -8114    -8147    -7695    -7020    -6440    -6268 
   -6690    -7556    -8505    -9109    -9052    -8566    -8291    -8530 
   -9009    -9229    -8890    -8169    -7504    -7131    -7060    -7178 
   -7396    -7888    -8596    -8925    -8592    -7903    -7258    -7083 
   -7458    -7689    -7251    -6662    -6606    -6927    -7046    -6844 
   -6736    -7163    -8063    -8644    -8244    -7384    -7114    -7678 
   -8386    -8546    -8255    -8045    -8098    -8142    -7920    -7608 
   -7560    -7859    -8282    -8476    -8407    -8342    -8221    -7803 
   -7167    -6610    -6440    -6809    -7470    -8005    -8351    -8635 
   -8677    -8431    -8256    -8212    -8046    -7855    -7880    -8046 
   -8153    -8125    -8038    -8036    -8059    -7934    -7810    -8050 
   -8629    -9069    -9024    -8543    -7910    -7508    -7415    -7387 
   -7408    -7638    -7960    -8060    -7877    -7659    -7624    -7683 
   -7511    -7039    -6720    -7011    -7735    -8312    -8493    -8448 
   -8407    -8425    -8290    -7882    -7549    -7719    -8235    -8483 
   -8231    -7875    -7712    -7723    -8009    -8551    -8897    -8790 
   -8510    -8300    -8161    -8155    -8285    -8315    -8091    -7850 
   -7892    -8126    -8249    -8134    -7903    -7735    -7660    -7646 
   -7723    -7900    -8153    -8406    -8488    -8293    -7858    -7394 
   -7260    -7498    -7761    -7914    -8070    -8200    -8231    -8229 
   -8198    -8055    -7780    -7416    -7149    -7236    -7626    -8032 
   -8219    -7986    -7452    -7210    -7533    -8043    -8383    -8510 
   -8469    -8272    -8017    -7858    -7694    -7400    -7290    -7628 
   -8132    -8525    -8814    -8895    -8735    -8625    -8644    -8567 
   -8444    -8459    -8399    -8040    -7613    -7433    -7631    -8188 
   -8664    -8509    -7883    -7377    -7179    -7205    -7333    -7302 
   -7035    -6850    -6980    -7217    -7232    -7125    -7332    -7918 
   -8503    -8909    -9096    -8799    -7986    -7125    -6661    -6771 
   -7310    -7875    -8261    -8542    -8793    -9029    -9267    -9542 
   -9760    -9739    -9368    -8802    -8508    -8683    -9030    -9144 
   -8819    -8391    -8372    -8622    -8647    -8313    -7818    -7493 
   -7493    -7562    -7457    -7283    -7245    -7355    -7351    -7131 
   -7013    -7155    -7314    -7277    -7055    -6889    -7044    -7458 
   -7827    -7966    -7946    -7982    -8099    -7909    -7176    -6444 
   -6456    -7299    -8533    -9629   -10239   -10423   -10356   -10004 
   -9502    -9161    -8967    -8697    -8260    -7717    -7266    -7141 
   -7322    -7527    -7716    -8009    -8196    -8123    -7901    -7520 
   -7115    -7089    -7557    -8163    -8388    -8109    -7793    -7860 
   -8258    -8894    -9733   -10310   -10158    -9522    -8815    -8133 
   -7705    -7812    -8188    -8327    -8141    -7867    -7700    -7618 
   -7468    -7366    -7582    -8024    -8367    -8354    -7859    -7081 
   -6538    -6527    -6836    -7167    -7434    -7511    -7323    -7114 
   -7142    -7424    -7825    -8027    -7806    -7480    -7412    -7451 
   -7458    -7544    -7653    -7765    -7944    -7983    -7842    -7893 
   -8314    -8890    -9341    -9532    -9429    -9242    -9391    -9839 
  -10076    -9906    -9559    -9156    -8632    -8102    -7732    -7452 
   -7172    -6994    -7075    -7373    -7613    -7708    -7929    -8420 
   -8944    -9233    -9145    -8626    -7844    -7067    -6471    -6171 
   -6107    -6102    -6173    -6473    -6998    -7485    -7590    -7407 
   -7553    -8295    -9035    -9034    -8246    -7312    -6830    -6765 
   -6679    -6409    -6316    -6753    -7570    -8426    -9282   -10166 
  -10825   -11069   -10955   -10518    -9878    -9277    -8880    -8760 
   -8820    -8822    -8761    -8740    -8523    -7887    -7073    -6478 
   -6418    -6971    -7750    -8146    -7859    -7245    -6989    -7226 
   -7506    -7761    -8276    -8780    -8782    -8365    -7857    -7434 
   -7207    -7207    -7342    -7511    -7774    -8225    -8590    -8474 
   -8001    -7649    -7659    -7958    -8308    -8448    -8222    -7686 
   -7348    -7790    -8813    -9592    -9690    -9376    -8951    -8323 
   -7480    -6715    -6351    -6694    -7744    -8916    -9590    -9573 
   -9000    -8197    -7474    -7135    -7388    -8114    -8984    -9466 
   -9065    -7966    -7028    -7056    -7970    -8847    -8993    -8414 
   -7535    -6940    -6789    -6625    -6277    -6220    -6672    -7235 
   -7442    -7153    -6719    -6752    -7448    -8408    -9025    -8968 
   -8492    -8094    -7920    -7874    -7844    -7668    -7535    -8056 
   -9272   -10287   -10381    -9790    -9279    -9437   -10061   -10290 
   -9767    -8911    -8048    -7252    -6754    -6732    -6926    -6853 
   -6343    -5698    -5338    -5383    -5608    -5709    -5580    -5460 
   -5763    -6584    -7451    -7809    -7681    -7530    -7687    -8292 
   -9372   -10593   -11322   -11233   -10558    -9806    -9372    -9291 
   -9330    -9187    -8617    -7737    -7154    -7165    -7249    -6991 
   -6561    -6170    -6017    -6239    -6620    -6830    -6706    -6411 
   -6406    -6853    -7312    -7360    -7100    -6825    -6662    -6703 
   -7092    -7859    -8773    -9492    -9874    -9968    -9845    -9574 
   -9239    -8781    -8022    -7122    -6647    -6907    -7674    -8502 
   -8985    -8838    -8104    -7308    -6923    -6879    -6919    -7032 
   -7436    -8159    -8836    -9244    -9377    -9111    -8528    -7909 
   -7328    -6766    -6231    -5833    -5854    -6326    -6879    -7349 
   -7938    -8640    -9257    -9843   -10193    -9648    -8313    -7246 
   -7095    -7558    -7995    -8073    -7852    -7461    -7075    -6992 
   -7353    -7932    -8382    -8433    -7927    -7203    -6979    -7379 
   -7804    -7837    -7646    -7630    -7985    -8346    -7994    -6799 
   -5580    -5321    -6257    -7706    -8686    -8715    -8018    -7140 
   -6558    -6503    -7008    -7872    -8549    -8609    -8156    -7653 
   -7550    -7722    -7702    -7484    -7207    -6739    -6096    -5595 
   -5511    -5903    -6638    -7423    -7855    -7782    -7494    -7182 
   -6671    -6041    -5856    -6404    -7200    -7504    -7043    -6209 
   -5697    -5948    -6734    -7381    -7646    -7863    -8124    -8190 
   -8001    -7758    -7896    -8694    -9663   -10119   -10055    -9724 
   -9271    -9018    -9274    -9941   -10691   -11111   -10817   -10038 
   -9510    -9469    -9368    -8511    -6730    -4627    -3216    -3178 
   -4424    -6393    -8380    -9718   -10067    -9349    -7866    -6424 
   -5718    -6005    -7104    -8285    -8874    -8993    -9210    -9521 
   -9252    -8266    -7373    -7330    -8188    -9353    -9928    -9560 
   -8807    -8240    -7691    -6726    -5407    -4398    -4286    -5021 
   -6201    -7307    -7779    -7679    -7514    -7262    -6732    -6298 
   -6354    -6802    -7279    -7520    -7626    -8006    -8970   -10342 
  -11500   -11745   -10798    -9130    -7439    -6037    -5270    -5584 
   -6654    -7579    -7971    -8123    -8529    -9285    -9847    -9892 
   -9731    -9436    -8739    -7723    -6839    -6513    -6826    -7288 
   -7201    -6576    -6148    -6268    -6570    -6579    -6414    -6851 
   -8148    -9532   -10272   -10211    -9469    -8293    -7070    -6252 
   -6096    -6483    -7044    -7527    -8010    -8570    -9084    -9400 
   -9448    -9334    -9179    -8759    -7738    -6341    -5373    -5371 
   -6062    -6772    -7138    -7390    -7928    -8611    -8913    -8761 
   -8670    -9080    -9827   -10179    -9594    -8477    -7572    -6907 
   -6192    -5708    -5974    -6904    -7625    -7305    -6263    -5529 
   -5630    -6491    -7841    -9196    -9847    -9405    -8278    -7258 
   -6830    -6820    -6842    -6938    -7167    -7343    -7695    -8663 
   -9935   -10796   -11009   -10673   -10052    -9583    -9387    -9170 
   -8783    -8435    -8389    -8684    -8918    -8508    -7452    -6303 
   -5684    -5995    -7015    -8127    -8882    -8920    -8009    -6513 
   -5246    -4810    -5376    -6620    -7515    -7176    -6100    -5419 
   -5464    -5951    -6395    -6244    -5619    -5304    -5688    -6542 
   -7453    -8134    -8676    -9176    -9256    -8649    -7839    -7646 
   -8346    -9378    -9870    -9415    -8260    -6969    -6350    -7101 
   -9018   -11111   -12410   -12496   -11698   -10657    -9888    -9732 
  -10129   -10729   -11252   -11494   -11202   -10159    -8543    -6985 
   -6091    -5990    -6271    -6376    -5966    -5234    -4903    -5322 
   -6114    -6913    -7523    -7699    -7411    -6801    -5852    -4672 
   -3615    -2985    -3120    -4027    -5001    -5471    -5610    -5893 
   -6644    -7740    -8876   -10148   -11653   -12906   -13227   -12537 
  -11639   -11397   -11815   -12266   -12219   -11673   -11076   -10750 
  -10410    -9494    -8057    -6998    -7110    -8129    -8973    -8720 
   -7185    -4980    -3415    -3668    -5557    -7812    -9316    -9485 
   -8507    -7231    -6206    -5620    -5697    -6349    -7208    -7938 
   -8142    -7672    -6980    -6529    -6399    -6487    -6516    -6484 
   -6925    -7987    -9164    -9938   -10014    -9406    -8481    -7762 
   -7519    -7302    -6539    -5458    -4583    -4102    -4238    -5153 
   -6477    -7705    -8633    -9121    -9045    -8516    -7922    -7783 
   -8381    -9262    -9519    -8821    -7634    -6674    -6458    -6752 
   -6871    -6832    -7139    -7875    -8719    -9117    -8681    -7795 
   -7360    -7922    -9081    -9678    -8892    -7118    -5448    -4554 
   -4301    -4297    -4599    -5438    -6585    -7614    -8411    -9178 
  -10042   -10716   -10705    -9862    -8590    -7440    -6857    -7200 
   -8462   -10200   -11751   -12402   -11729    -9860    -7468    -5425 
   -4278    -4207    -5032    -6094    -6952    -8008    -9512   -10568 
  -10224    -8676    -6760    -5315    -4825    -5111    -5913    -7197 
   -8540    -9150    -8682    -7589    -6596    -6280    -6895    -7908 
   -8384    -8298    -8445    -9079    -9576    -9367    -8523    -7530 
   -6872    -6720    -6870    -6909    -6719    -6946    -8113    -9599 
  -10548   -10878   -10779   -10273    -9431    -8235    -6729    -5421 
   -4779    -4882    -5621    -6629    -7423    -7690    -7324    -6467 
   -5491    -4926    -5057    -5486    -5627    -5536    -5637    -5934 
   -6274    -6907    -7855    -8648    -9082    -9250    -9264    -9355 
   -9585    -9682    -9391    -8829    -8433    -8390    -8484    -8514 
   -8343    -7999    -7866    -8269    -8945    -9471    -9901   -10161 
   -9851    -9185    -8586    -7924    -7145    -6378    -5688    -5439 
   -5801    -6400    -7142    -8189    -9303   -10089   -10362   -10088 
   -9341    -8200    -6658    -4990    -3847    -3550    -3793    -4164 
   -4604    -5313    -6335    -7587    -8969   -10047   -10339    -9850 
   -8838    -7581    -6415    -5678    -5600    -6126    -6897    -7567 
   -8028    -8248    -8203    -8155    -8391    -8609    -8227    -7210 
   -6324    -6464    -7627    -8995    -9665    -9087    -7589    -6202 
   -5871    -6988    -8812   -10002   -10150    -9744    -9048    -7828 
   -6221    -5077    -4958    -5698    -6518    -6419    -5356    -4372 
   -4414    -5452    -6684    -7611    -8423    -9270    -9863    -9906 
   -9472    -8852    -8347    -7997    -7684    -7805    -8773   -10007 
  -10714   -10892   -10774   -10313    -9612    -9064    -8787    -8555 
   -8305    -8071    -7899    -7963    -8182    -8303    -8397    -8491 
   -8272    -7726    -7308    -7489    -8531    -9836    -9998    -8515 
   -6431    -4973    -4629    -5205    -6070    -6635    -6796    -6950 
   -7439    -7981    -8187    -8115    -7661    -6764    -5937    -5547 
   -5645    -6164    -6629    -6654    -6306    -5840    -5618    -5990 
   -6937    -7939    -8648    -9223    -9538    -9295    -8615    -7613 
   -6407    -5615    -5868    -7045    -8324    -8953    -8979    -8929 
   -8925    -8946    -9400   -10416   -11481   -12104   -12059   -11430 
  -10556    -9598    -8648    -8108    -8145    -8365    -8512    -8679 
   -8924    -9371   -10192   -11172   -11734   -11427   -10115    -8101 
   -6338    -5844    -6634    -7643    -7903    -7480    -6946    -6509 
   -6120    -5921    -6024    -6196    -6184    -6034    -5966    -6120 
   -6367    -6549    -6737    -7064    -7473    -7746    -7904    -8110 
   -8197    -7943    -7396    -6666    -5955    -5613    -5832    -6427 
   -6942    -7049    -6854    -6591    -6358    -6381    -6829    -7591 
   -8657   -10091   -11614   -12550   -12160   -10339    -7930    -5944 
   -4597    -3753    -3667    -4338    -5037    -5025    -4289    -3702 
   -4231    -5864    -7776    -9093    -9390    -9087    -8790    -8361 
   -7593    -7075    -7452    -8631   -10113   -11360   -11978   -12105 
  -12096   -11734   -10569    -8840    -7171    -5912    -5236    -5091 
   -5119    -5176    -5472    -6109    -6963    -7740    -8018    -7806 
   -7543    -7287    -6768    -6035    -5624    -6080    -7239    -8329 
   -8805    -8733    -8542    -8685    -9247    -9927   -10545   -11065 
  -11268   -10923   -10050    -9018    -8401    -8491    -8845    -8586 
   -7493    -6328    -5847    -6135    -6644    -6610    -5929    -5308 
   -5401    -6144    -6800    -6859    -6550    -6333    -6493    -6883 
   -7140    -7337    -7823    -8599    -9324    -9713    -9674    -9132 
   -8012    -6568    -5626    -6063    -7867    -9939   -11001   -10737 
   -9912    -9243    -8732    -8329    -8312    -8751    -9273    -9334 
   -8510    -6917    -5422    -4971    -5704    -6931    -7699    -7565 
   -6976    -6525    -6373    -6697    -7479    -8100    -8103    -7503 
   -6344    -4937    -3902    -3450    -3446    -4000    -5279    -7183 
   -9385   -11267   -12152   -11889   -11026   -10292   -10001    -9958 
   -9577    -8477    -7143    -6179    -5641    -5485    -5659    -6039 
   -6641    -7284    -7505    -7246    -6862    -6428    -5968    -5905 
   -6355    -6808    -6951    -6897    -6998    -7612    -8562    -9367 
   -9835   -10014   -10042    -9989    -9766    -9607   -10046   -10859 
  -11039   -10072    -8388    -6907    -6315    -6341    -6187    -5568 
   -4877    -4764    -5554    -6805    -7683    -7749    -7283    -6778 
   -6248    -5498    -4794    -4732    -5681    -7583    -9871   -11531 
  -11822   -10829    -9166    -7614    -6909    -7416    -8839   -10099 
  -10053    -8664    -6923    -5822    -5683    -6093    -6592    -7034 
   -7336    -7620    -8124    -8779    -9439   -10074   -10473   -10378 
