Origin Time       2011/03/11 14:46:00
Lat.              38.103
Long.             142.860
Depth. (km)       24
Mag.              9.0
Station Code      HKD041
Station Lat.      43.6246
Station Long.     142.6839
Station Height(m) 440
Record Time       2011/03/11 14:48:27
Sampling Freq(Hz) 100Hz
Duration Time(s)  289
Dir.              U-D
Scale Factor      3920(gal)/6182761
Max. Acc. (gal)   4.329
Last Correction   2011/03/11 14:48:12
Memo.             
[...]
   10053     9761     9438     9098     8791     8523     8253     7973 
    7746     7614     7524     7415     7303     7218     7164     7123 
    7074     6997     6905     6817     6731     6669     6685     6779 
    6883     6947     6998     7096     7245     7415     7587     7725 
    7804     7857     7914     7923     7818     7647     7554     7611 
    7770     7988     8245     8470     8576     8569     8526     8500 
    8470     8376     8228     8118     8109     8135     8095     8029 
    8062     8204     8334     8352     8296     8264     8285     8332 
    8358     8327     8253     8201     8232     8361     8523     8633 
    8708     8848     9117     9485     9845    10092    10213    10328 
   10575    10893    11053    10949    10765    10779    11057    11413 
   11616    11592    11463    11425    11562    11765    11825    11607 
   11193    10836    10680    10628    10529    10342    10119     9934 
    9817     9706     9516     9255     9014     8849     8724     8564 
    8346     8164     8177     8417     8704     8825     8772     8744 
    8898     9201     9538     9832    10056    10233    10420    10687 
   11079    11568    12046    12428    12734    13034    13391    13814 
   14240    14549    14641    14560    14460    14427    14414    14323 
   14111    13839    13613    13463    13371    13338    13352    13333 
   13212    13001    12734    12437    12149    11883    11600    11273 
   10951    10710    10586    10549    10536    10475    10325    10127 
    9972     9957    10133    10444    10740    10915    10983    11036 
   11173    11449    11833    12232    12542    12698    12714    12685 
   12669    12621    12514    12430    12456    12598    12778    12897 
   12893    12817    12815    12936    12981    12784    12541    12597 
   12944    13233    13183    12915    12851    13099    13284    13210 
   13033    12847    12658    12440    12131    11808    11627    11592 
   11551    11376    11142    11009    10945    10826    10549    10090 
    9699     9526     9336     9147     9225     9346     9163     8839 
    8716     8868     9088     9146     9030     8891     8902     9112 
    9335     9375     9321     9408     9688    10004    10186    10167 
   10051    10062    10305    10613    10735    10665    10606    10594 
   10490    10344    10284    10220    10055     9857     9700     9612 
    9581     9531     9449     9393     9345     9225     9022     8842 
    8759     8714     8711     8835     9000     9057     9100     9269 
    9454     9523     9528     9522     9534     9654     9887    10114 
   10238    10228    10106     9985     9991    10084    10093    10050 
   10164    10419    10633    10822    11066    11238    11209    11082 
   11007    10982    10923    10773    10570    10385    10188     9889 
    9508     9185     8947     8654     8294     8063     8063     8164 
    8184     8060     7877     7794     7892     8066     8163     8175 
    8185     8222     8264     8319     8394     8454     8533     8752 
    9092     9320     9291     9143     9079     9127     9208     9250 
    9216     9164     9197     9299     9361     9359     9317     9220 
    9075     8977     9003     9111     9241     9401     9562     9640 
    9644     9684     9814     9951     9969     9848     9666     9514 
    9464     9512     9568     9550     9442     9309     9282     9422 
    9592     9567     9331     9127     9116     9179     9161     9086 
    9064     9113     9171     9208     9222     9177     9083     9012 
    8988     8961     8887     8784     8730     8754     8790     8787 
    8767     8756     8728     8683     8679     8722     8744     8685 
    8539     8375     8295     8304     8335     8408     8558     8667 
    8604     8501     8607     8927     9265     9501     9594     9570 
    9603     9884    10341    10684    10809    10897    11041    11174 
   11274    11336    11349    11414    11675    12141    12641    12999 
   13221    13436    13680    13846    13843    13739    13652    13570 
   13405    13148    12888    12671    12422    12104    11818    11576 
   11224    10726    10245     9891     9579     9152     8604     8152 
    7949     7844     7651     7421     7254     7088     6862     6686 
    6672     6737     6708     6542     6368     6308     6319     6303 
    6297     6422     6708     7074     7418     7680     7870     8037 
    8247     8523     8749     8839     8957     9228     9476     9551 
    9559     9644     9872    10248    10660    10941    11044    11078 
   11173    11393    11696    11963    12130    12255    12428    12670 
   12952    13198    13316    13275    13142    13018    12912    12754 
   12532    12255    11877    11439    11120    10991    10922    10804 
   10676    10613    10647    10744    10798    10751    10678    10667 
   10703    10732    10763    10817    10850    10822    10791    10815 
   10844    10789    10631    10427    10243    10100    10001     9948 
    9899     9790     9623     9468     9379     9346     9276     9085 
    8801     8544     8376     8254     8085     7807     7481     7265 
    7205     7184     7145     7153     7187     7147     7030     6894 
    6745     6599     6523     6528     6536     6482     6375     6249 
    6155     6140     6161     6136     6069     6040     6103     6265 
    6527     6860     7175     7409     7608     7834     8099     8381 
    8630     8818     8999     9229     9459     9592     9627     9693 
    9910    10272    10681    11011    11149    11102    11013    11015 
   11130    11285    11376    11360    11308    11331    11467    11630 
   11710    11664    11523    11366    11250    11118    10909    10690 
   10540    10421    10246     9997     9712     9416     9142     8930 
    8746     8516     8246     8009     7840     7694     7493     7219 
    6979     6893     6929     6953     6910     6860     6856     6859 
    6816     6729     6638     6580     6541     6471     6371     6277 
    6174     6058     5998     6054     6179     6224     6088     5850 
    5681     5649     5665     5614     5474     5300     5170     5159 
    5288     5479     5617     5670     5726     5891     6147     6370 
    6496     6575     6676     6818     7000     7214     7439     7680 
    7980     8319     8589     8723     8771     8825     8925     9042 
    9126     9149     9151     9213     9384     9649     9959    10277 
   10576    10827    11020    11181    11318    11387    11340    11192 
   10982    10699    10355    10060     9905     9833     9714     9506 
    9300     9188     9174     9193     9124     8875     8548     8335 
    8276     8285     8290     8243     8150     8069     8004     7918 
    7797     7659     7525     7402     7316     7305     7362     7469 
    7619     7791     7972     8171     8371     8524     8613     8655 
    8652     8596     8499     8400     8324     8266     8214     8155 
    8078     8016     8023     8126     8324     8563     8757     8887 
    9032     9259     9550     9823    10026    10187    10329    10382 
   10297    10142    10007     9947     9966     9960     9785     9451 
    9128     8954     8931     8924     8763     8454     8223     8249 
    8424     8511     8430     8296     8228     8246     8301     8321 
    8262     8149     8048     7997     7999     8020     7994     7930 
    7908     7931     7898     7778     7696     7778     7951     8032 
    7944     7749     7547     7420     7359     7229     6924     6493 
    6105     5932     5987     6072     5974     5737     5619     5747 
    5998     6209     6329     6425     6604     6908     7245     7480 
    7618     7771     7976     8183     8365     8532     8702     8892 
    9100     9294     9458     9625     9809     9982    10146    10361 
   10633    10883    11056    11160    11237    11360    11556    11720 
   11730    11643    11622    11712    11816    11860    11866    11888 
   11963    12081    12182    12224    12224    12180    12053    11863 
   11683    11510    11285    11008    10733    10469    10229    10054 
    9923     9749     9508     9262     9055     8842     8542     8181 
    7888     7765     7781     7807     7725     7546     7399     7403 
    7564     7783     7953     8052     8127     8208     8298     8412 
    8541     8640     8694     8736     8787     8819     8823     8867 
    9027     9289     9546     9687     9679     9579     9485     9474 
    9519     9488     9315     9078     8913     8867     8842     8726 
    8506     8236     7989     7828     7782     7819     7855     7865 
    7932     8106     8343     8575     8779     8956     9101     9205 
    9246     9206     9157     9218     9394     9576     9684     9730 
    9796     9936    10110    10257    10339    10366    10393    10464 
   10566    10664    10728    10724    10653    10562    10482    10414 
   10361    10315    10263    10245    10342    10572    10848    11062 
   11178    11242    11349    11560    11810    11979    12057    12136 
   12261    12379    12419    12384    12347    12344    12344    12314 
   12251    12132    11939    11717    11542    11463    11464    11486 
   11481    11419    11312    11193    11067    10928    10801    10711 
   10665    10655    10691    10778    10856    10874    10881    10959 
   11104    11247    11360    11479    11625    11748    11803    11827 
   11901    12044    12174    12221    12205    12138    11993    11794 
   11610    11440    11226    10950    10646    10382    10213    10135 
   10056     9848     9489     9107     8814     8572     8274     7888 
    7471     7129     6967     6958     6922     6746     6486     6225 
    5998     5853     5783     5676     5464     5218     5055     5035 
    5109     5178     5203     5246     5382     5595     5813     5989 
    6125     6284     6550     6918     7265     7500     7684     7929 
    8247     8567     8850     9108     9332     9525     9746     9999 
   10199    10303    10352    10388    10402    10397    10376    10326 
   10279    10289    10348    10424    10505    10565    10603    10670 
   10798    10967    11115    11178    11153    11092    11042    11019 
   11001    10987    10987    11004    11053    11120    11151    11094 
   10972    10886    10851    10754    10521    10224     9978     9792 
    9600     9347     9044     8759     8503     8238     7970     7705 
    7430     7146     6830     6503     6263     6139     6056     5968 
    5892     5828     5772     5788     5923     6130     6374     6663 
    6936     7136     7318     7604     8039     8544     9000     9329 
    9557     9789    10102    10446    10696    10814    10883    10977 
   11139    11324    11405    11413    11479    11554    11539    11455 
   11326    11128    10874    10639    10476    10330    10098     9752 
    9380     9097     8907     8733     8553     8392     8230     8062 
    7942     7896     7895     7879     7823     7815     7901     7949 
    7862     7734     7671     7653     7641     7616     7535     7397 
    7260     7207     7259     7294     7251     7173     7077     7021 
    7018     6981     6911     6894     6916     6923     6981     7128 
    7293     7432     7570     7816     8208     8599     8907     9191 
    9458     9692     9881     9985    10037    10107    10185    10257 
   10355    10480    10688    10990    11197    11249    11320    11489 
   11730    11955    12025    11972    11964    12029    12056    12000 
   11930    11922    11925    11823    11659    11564    11505    11398 
   11301    11276    11292    11292    11195    10968    10702    10511 
   10402    10307    10175    10046    10001    10012     9992     9925 
    9815     9689     9619     9615     9614     9555     9439     9362 
    9423     9570     9674     9668     9546     9352     9195     9165 
    9226     9262     9203     9095     9100     9323     9664     9940 
   10069    10111    10192    10320    10348    10209     9997     9838 
    9795     9818     9813     9753     9662     9592     9620     9744 
    9893    10037    10165    10323    10568    10808    10917    10931 
   10936    11009    11207    11430    11564    11643    11723    11819 
   11978    12196    12356    12358    12240    12137    12132    12143 
   12057    11912    11775    11660    11608    11630    11641    11636 
   11683    11754    11780    11780    11760    11671    11496    11288 
   11086    10850    10555    10281    10097    10001     9990    10029 
   10055    10038     9969     9878     9822     9790     9725     9611 
    9507     9518     9640     9725     9697     9635     9620     9704 
    9890    10051    10094    10133    10267    10406    10463    10479 
   10531    10646    10808    10938    10940    10814    10626    10460 
   10399    10439    10468    10396    10277    10266    10435    10641 
   10712    10661    10602    10623    10753    10964    11168    11304 
   11382    11424    11467    11567    11726    11876    11951    11971 
   11995    12009    11985    11940    11892    11875    11904    11902 
   11813    11676    11556    11497    11487    11438    11255    10945 
   10619    10395    10281    10161     9945     9682     9486     9391 
    9316     9164     8922     8666     8415     8107     7737     7369 
    7071     6857     6622     6302     5963     5681     5456     5233 
    4980     4728     4500     4255     3949     3635     3408     3289 
    3230     3159     3054     2953     2929     3045     3290     3605 
    3962     4354     4794     5262     5666     5982     6289     6613 
    6950     7337     7812     8336     8845     9366     9943    10555 
   11161    11669    11990    12203    12477    12852    13225    13463 
   13527    13512    13590    13844    14133    14235    14133    13977 
   13920    14012    14111    14040    13787    13486    13289    13208 
   13103    12867    12534    12155    11732    11285    10859    10462 
   10095     9760     9445     9125     8798     8456     8095     7770 
    7498     7228     6960     6724     6516     6341     6213     6158 
    6195     6283     6351     6371     6381     6457     6620     6775 
    6833     6844     6904     7011     7120     7250     7438     7667 
    7882     8053     8236     8531     8934     9317     9598     9798 
    9989    10231    10527    10844    11161    11456    11704    11886 
   12002    12098    12238    12430    12614    12722    12730    12669 
   12579    12482    12353    12165    11931    11675    11411    11173 
   10980    10797    10585    10334    10050     9739     9392     8998 
    8565     8128     7698     7274     6884     6559     6345     6257 
    6237     6249     6288     6347     6453     6636     6853     7035 
    7156     7249     7387     7606     7869     8138     8444     8832 
    9284     9734    10122    10436    10703    10922    11071    11161 
   11246    11387    11581    11766    11919    12076    12275    12502 
   12714    12868    12918    12861    12755    12638    12523    12424 
   12330    12235    12159    12115    12089    12068    12051    12026 
   11976    11888    11737    11496    11200    10943    10765    10637 
   10519    10374    10170     9935     9772     9763     9872     9998 
   10050    10016     9973    10006    10107    10180    10166    10116 
   10114    10202    10361    10549    10735    10891    11027    11174 
   11316    11424    11506    11572    11626    11706    11834    12002 
   12204    12423    12628    12802    12953    13116    13329    13560 
   13752    13918    14116    14364    14611    14783    14853    14865 
   14881    14920    14955    14938    14837    14678    14562    14558 
   14614    14660    14699    14705    14601    14397    14212    14092 
   13913    13530    12980    12408    11906    11478    11080    10676 
   10270     9899     9620     9445     9335     9234     9079     8863 
    8687     8623     8631     8650     8668     8695     8747     8808 
    8836     8858     8967     9174     9393     9586     9773     9968 
   10183    10457    10813    11208    11533    11717    11817    11971 
   12221    12459    12589    12645    12735    12930    13195    13410 
   13483    13452    13398    13316    13195    13074    12964    12857 
   12757    12673    12632    12649    12657    12573    12400    12189 
   11952    11703    11465    11217    10943    10684    10421    10071 
    9639     9212     8826     8465     8082     7624     7111     6614 
    6164     5754     5396     5086     4778     4453     4151     3907 
    3715     3542     3359     3177     3056     3036     3087     3174 
    3289     3433     3621     3878     4182     4489     4804     5161 
    5569     6030     6539     7063     7580     8084     8571     9078 
    9639    10208    10728    11216    11717    12216    12658    13019 
   13301    13493    13593    13651    13729    13826    13893    13928 
   13983    14077    14166    14194    14129    13974    13777    13597 
   13449    13314    13168    13008    12844    12699    12593    12516 
   12416    12236    11969    11680    11462    11371    11385    11416 
   11384    11278    11139    11019    10930    10844    10757    10683 
   10605    10506    10400    10299    10189    10060     9913     9741 
    9541     9337     9160     9029     8975     9043     9228     9448 
    9638     9818    10042    10310    10569    10753    10832    10816 
   10744    10684    10702    10807    10931    11014    11083    11237 
   11530    11925    12320    12628    12832    12983    13150    13382 
   13660    13910    14073    14137    14125    14101    14155    14297 
   14416    14414    14301    14145    14000    13884    13776    13634 
   13431    13170    12900    12674    12472    12213    11864    11475 
   11100    10763    10474    10227     9985     9722     9463     9243 
    9020     8725     8346     7955     7638     7417     7244     7070 
    6892     6721     6563     6438     6365     6334     6331     6341 
    6354     6376     6413     6437     6421     6367     6284     6215 
    6240     6403     6655     6908     7118     7296     7451     7589 
    7750     7974     8234     8470     8694     8986     9367     9734 
    9990    10172    10377    10645    10964    11303    11600    11825 
   12025    12266    12571    12912    13216    13425    13568    13734 
   13966    14224    14460    14651    14812    14985    15188    15398 
   15572    15679    15702    15656    15572    15456    15295    15093 
   14891    14718    14543    14315    14033    13733    13445    13178 
   12901    12582    12230    11875    11547    11265    11014    10750 
   10435    10079     9728     9414     9127     8868     8641     8430 
    8229     8072     7990     7953     7908     7853     7823     7825 
    7851     7891     7941     8015     8119     8231     8329     8407 
    8448     8453     8477     8570     8711     8843     8944     9047 
    9173     9292     9396     9524     9696     9869    10004    10119 
   10235    10344    10445    10547    10640    10705    10732    10736 
   10746    10773    10781    10721    10610    10507    10440    10416 
   10429    10445    10440    10445    10492    10584    10713    10867 
   11024    11173    11312    11430    11516    11563    11566    11529 
