Origin Time       2011/03/11 14:46:00
Lat.              38.103
Long.             142.860
Depth. (km)       24
Mag.              9.0
Station Code      HKD093
Station Lat.      43.3191
Station Long.     143.3049
Station Height(m) 364
Record Time       2011/03/11 14:48:22
Sampling Freq(Hz) 100Hz
Duration Time(s)  300
Dir.              E-W
Scale Factor      3920(gal)/6182761
Max. Acc. (gal)   11.647
Last Correction   2011/03/11 14:48:07
Memo.             
[...]
    -845     -369      926     2033     2600     3017     3571     4042 
    4169     4295     5093     6586     7846     7983     7268     6896 
    7636     8971     9874    10098    10059    10031    10254    11024 
   12093    12848    13217    13721    14572    15225    15132    14893 
   15756    17574    18700    18393    17773    18174    19581    20693 
   20372    19149    18755    19947    21511    21781    20517    18798 
   17622    17308    17604    17897    17842    17598    17410    17420 
   17551    17407    16656    15396    14141    13459    13542    14255 
   15158    15344    14272    12730    12083    12584    13018    12404 
   11439    11362    12170    12766    12274    11019    10274    10714 
   11478    11364    10469     9718     9409     9305     9419     9746 
    9762     8957     7506     6216     5999     7077     8773    10197 
   10818    10587    10050    10227    11559    13134    13847    13483 
   12253    10582     9228     8791     9257    10100    10847    11522 
   12211    12544    12293    12073    12788    14448    15944    16250 
   15585    14876    14391    13637    12295    10800    10008    10157 
   10500    10304     9669     9199     9329     9900    10175     9620 
    8738     8661     9713    10772    10490     8874     7223     6706 
    7296     8145     8817     9653    10921    12059    12074    10809 
    9380     8955     9564    10301    10240     9145     7664     6791 
    6858     7220     7282     7204     7217     7121     6691     6043 
    5723     6278     7496     8472     8453     7363     5681     4073 
    3115     3203     4308     5807     7121     8259     9370    10254 
   10419     9512     8058     7408     8234     9516     9748     8827 
    7958     7849     8113     8349     8620     9110     9883    10709 
   11222    11392    11657    12447    13386    13454    12332    10787 
    9713     9605    10432    11492    12104    12229    12100    12005 
   12368    13321    14456    15260    15484    15396    15755    16834 
   17669    17123    15530    14350    14326    15017    15705    15997 
   15953    15721    15140    14172    13298    12908    12935    13330 
   13813    13515    12118    10504     9465     8736     7734     6552 
    5846     5993     6732     7622     8465     9292    10061    10467 
   10444    10442    10751    11051    10801     9981     9372     9765 
   11091    12513    13153    12738    11765    10992    10807    11124 
   11412    11140    10532    10204    10125     9826     9328     9048 
    9034     8940     8700     8685     9191    10095    10850    11050 
   11214    12148    13637    14827    15466    15794    15691    14971 
   14215    14331    15437    16811    17630    17634    17258    16811 
   15860    14193    12679    12226    12656    13293    13626    13180 
   11790    10099     9408    10588    12824    14243    14046    13153 
   12716    12760    12652    12220    11729    11421    11626    12424 
   13137    13209    13227    14113    15786    17289    18059    18408 
   18612    18366    17433    15991    14378    13205    13163    14329 
   16179    17867    18469    17739    16343    15019    13830    12380 
   10760     9726     9599     9675     9133     8178     7730     8055 
    8362     7687     5947     4283     3956     4833     5704     5990 
    6280     7148     8198     8457     7434     5629     3998     3173 
    3404     4734     6721     8388     8985     8478     7375     6381 
    5700     4981     4477     4966     6141     6685     6125     5493 
    5897     6788     6441     4460     2517     2179     3297     4723 
    5523     5416     4852     4778     5842     7671     9037     8882 
    7470     6203     5936     5952     5188     4031     3783     4733 
    5842     5946     4960     4055     4272     5307     6245     6624 
    6258     4912     2718      681      185     1614     3781     5014 
    4787     4126     4319     5605     7165     8115     8461     8885 
    9587     9956     9581     8823     8211     8047     8518     9458 
   10170    10079     9526     9606    10861    12354    12572    11147 
    9442     9323    11055    12848    12858    11002     8777     7695 
    8010     8969     9687     9709     9403     9585    10491    11375 
   11131     9519     7611     6340     5325     3982     2600     1992 
    2971     5357     7480     8091     7970     8349     9132     9681 
   10013    10367    10474    10129     9892    10245    10653    10331 
    9493     9249    10380    12594    14840    15860    14945    12860 
   11529    12223    14291    16071    16739    16819    17385    19004 
   20957    21737    20695    18837    17806    18295    19515    20168 
   19699    18460    17208    16543    16402    16225    15691    14932 
   14227    13851    14060    14972    16383    17949    19557    21167 
   22362    22426    21031    18807    17074    16633    16802    16227 
   14792    13996    14965    16680    16940    14917    12053    10144 
    9342     8541     7203     6068     5991     6847     7765     7924 
    7336     6787     6720     6683     6036     4849     3953     4158 
    5322     6263     6060     5179     4668     4752     4842     4544 
    4122     4149     5035     6440     7074     6105     4800     5347 
    7812     9916    10096     9273     9290    10430    11279    10917 
    9846     8852     8396     8787     9923    11187    12075    12279 
   11292     9048     6570     5157     5180     5985     6701     6737 
    5982     4981     4315     3839     3343     3267     3807     4291 
    4319     4476     5244     6039     6033     5392     4906     5019 
    5863     7405     9221    10711    11526    11656    11415    11197 
   10899    10088     9020     8714     9791    11764    13608    14844 
   15761    16395    15983    14216    12446    12432    13862    14447 
   12865    10417     9316    10232    12034    13405    13846    13400 
   12496    12011    12562    13659    14246    13941    13194    12808 
   13239    13945    14137    13977    14106    14474    14323    13455 
   12973    13989    15924    16851    15522    12723    10544    10376 
   11529    11951    10456     8139     7314     8881    11378    12819 
   12585    11592    11087    11351    11708    11492    10790    10460 
   11283    13073    14873    15887    15889    15014    13663    12570 
   12604    14172    16481    17898    17807    17429    18011    19176 
   19789    19571    19022    18298    17116    15670    14833    14937 
   14791    13029    10313     8805     9266    10042     9326     7374 
    5934     5877     6206     5363     2633     -992    -3216    -3085 
   -2198    -2406    -3773    -4996    -5118    -4421    -3471    -2368 
   -1292     -676     -640     -685     -170      706      980      256 
    -626     -351     1529     4182     6600     8370     9290     9521 
    9913    11045    12347    12709    11628     9789     8664     9280 
   11084    12350    12095    11197    11155    12023    12464    12031 
   11896    12678    13392    13402    13629    14790    15838    15580 
   14945    15925    18716    21280    21650    20066    18572    18667 
   19664    19665    18220    16887    16632    16464    15295    13430 
   11679    10410     9700     9417     9353     9462     9627     9648 
    9524     9342     9294     9929    11523    13357    14353    14032 
   12696    11228    10718    11767    13886    15720    15955    14170 
   11153     8349     6842     6866     7892     8925     9234     8768 
    7874     7261     7644     8859    10125    10911    10968    10385 
    9876    10031    10356     9922     8682     7437     6838     6870 
    7230     7785     8365     8720     9119    10238    12048    13492 
   13617    12705    11929    11825    11929    11993    12267    12724 
   13236    14018    15094    16153    17184    18208    18730    18589 
   18448    18384    17234    14337    10818     8400     7844     8776 
   10089    10639    10384    10483    11864    14046    15492    15222 
   14008    13331    13534    13817    13564    12824    11819    10759 
    9735     8504     7036     5847     5228     4793     4063     3139 
    2431     1890     1169      315     -343     -593     -215     1052 
    2977     4630     5214     4772     3830     2896     2370     2452 
    2962     3300     2897     1922     1203     1203     1399     1028 
     249       73     1163     2901     3589     1955    -1194    -3528 
   -3771    -2429     -112     2772     5111     5728     4830     4084 
    4817     6565     7980     8521     8709     9137     9865    10720 
   11516    11941    11755    11137    10757    11362    13007    14725 
   15380    14990    14718    15503    17131    18501    18742    18183 
   17716    17452    16997    16594    16855    17719    18476    18620 
   18265    17910    17960    18420    19131    19987    20633    20433 
   19223    17956    18120    19986    21546    20469    17460    15864 
   17410    20070    20787    19244    17692    17602    18415    19104 
   19435    19729    19848    19013    16913    14353    12632    12473 
   13424    14166    13644    12292    11627    12315    13397    13489 
   12328    11250    11737    13326    13887    12266     9810     8697 
    9136     9064     6884     3764     2289     3176     4732     5382 
    5285     5406     5794     5532     4274     2892     2774     4550 
    7201     8927     9030     8576     8940    10011    10571    10089 
    9163     8407     7809     7030     5941     5259     5843     7114 
    7801     7733     7594     7770     7957     7758     7473     7706 
    8486     9246     9258     8404     7648     7881     8582     8473 
    7067     5069     3524     2878     2814     2772     2611     2745 
    3433     4255     4646     4382     3555     2815     2974     3971 
    5085     5685     5297     4063     3110     3581     5610     8179 
    9642     8963     6701     4489     3593     3905     4456     4796 
    5146     5731     6799     8516    10519    12233    13529    14394 
   14432    13513    12237    11078     9889     8676     8141     9155 
   11665    14218    15139    14172    12498    11587    12316    14337 
   16003    15697    13427    10714     9168     9369    10667    11722 
   11679    10974    10567    11012    12458    14371    15631    15767 
   15289    14698    14181    14015    14326    14753    15052    15580 
   16649    17803    18139    17199    15457    13963    13448    13757 
   14252    14508    14470    14369    14673    15831    17530    18362 
   17082    14003    10576     8371     8259     9572    10465     9574 
    7174     4828     3841     4140     4533     3931     2571     1733 
    2304     4239     6791     8698     8989     8042     7080     6619 
    6102     4828     2913     1277      530      557     1181     2140 
    2768     2660     2322     2684     3963     5103     4702     2781 
    1198     1805     4728     8501    10951    10514     7841     5478 
    5260     6731     8321     8900     7966     6065     4990     5982 
    8326    10419    11329    11090    10251     9605     9789    10551 
   10641     9182     7242     7117     9660    13146    15029    14332 
   12215    10586    10310    10586    10209     9177     8225     7852 
    8715    11068    13697    15145    15320    15115    15219    15411 
   14858    13434    12315    12732    14399    15677    15381    14046 
   13281    14046    15640    16610    16453    15899    15836    16406 
   16953    16895    16585    16884    18174    20058    21621    22021 
   21212    20090    19841    20944    22708    23924    23915    22884 
   21497    20299    19307    18298    17428    17076    17319    17711 
   17757    17811    18547    19522    19759    19315    19049    19548 
   20647    21380    20856    19361    18099    17892    18200    17725 
   16130    14500    13747    13399    12660    11572    10383     9071 
    7900     7306     7112     6672     5802     5026     4918     5478 
    6160     6418     6093     5466     5154     5437     5595     4828 
    3590     3039     3670     4915     5677     5270     4030     2893 
    2490     2891     3886     4978     5299     4295     2675     1813 
    1962     2095     1620     1101     1026      928      457      375 
    1558     3716     5701     6750     6996     6799     6383     6314 
    7293     9333    11461    12206    11003     9143     8438     9183 
   10256    10757    10819    11016    11436    11522    11024    10458 
   10309    10530    10592     9916     8750     8091     8509     9612 
   10839    12062    12900    12617    11536    11123    11926    12727 
   12250    10939    10516    11953    14380    16126    16511    16116 
   15744    15971    16947    17977    18099    17164    15929    15129 
   14607    13846    13110    13165    14323    16277    18260    19334 
   18994    17646    16419    16118    16458    16735    16763    16703 
   16484    15993    15618    15793    16194    16151    15685    15763 
   17230    19272    19761    17895    15623    15204    16354    17352 
   17438    16691    15191    13291    11944    12180    13820    15205 
   14990    13688    12867    13128    13421    12465    10402     8443 
    7138     6051     5078     4892     5880     7380     8321     8343 
    7991     7922     8201     8409     8238     7812     7526     7661 
    7951     7640     6308     4413     2818     2006     1641      647 
   -1915    -5461    -7889    -7622    -5150    -2429    -1116    -1127 
   -1139     -218     1565     3291     3845     3168     2226     1754 
    2032     3165     4640     5352     4748     3627     3223     3787 
    4643     5140     5213     5292     5566     5635     5336     5289 
    5926     6628     6741     6915     8289    10828    13245    14219 
   13679    12810    12596    12948    13354    13560    13566    13612 
   13870    13992    13759    13743    14403    15248    15658    15873 
   16374    16893    17043    17221    17956    18886    19065    18278 
   17510    17683    18539    19323    19715    19667    19401    19479 
   19952    20259    20325    20540    20872    20924    20462    19657 
   18940    18398    17576    16140    14246    12222    10524     9746 
   10135    11293    12295    12051    10315     8214     7033     7030 
    7866     9263    10813    11937    12314    11879    10823     9848 
    9598     9844     9989    10026    10385    11374    12995    14802 
   16133    16702    16662    16198    15351    14169    13001    12436 
   12507    12374    11472    10475    10487    11655    12950    13175 
   12243    11344    11243    11024     9608     7571     6326     6159 
    6162     5775     5128     4323     3706     4022     5459     7231 
    8240     7978     6960     6169     6112     6511     6778     6554 
    5796     4778     4084     4148     4861     5592     5536     4603 
    3714     3574     3768     3545     2753     1955     1970     2963 
    4078     4490     4353     4265     4433     4692     5020     5697 
    6760     7713     8192     8387     8562     8525     7787     6231 
    4415     3296     3540     4721     5563     5303     4496     4446 
    5792     7542     7945     6799     6026     6885     8045     7807 
    6516     5682     6165     7904    10417    12884    14188    13685 
   12034    10730    10606    11056    11066    10550    10114    10020 
    9845     9144     8530     9457    12275    15039    15443    13803 
   12510    12793    13549    13116    11402     9879     9566     9909 
    9815     9222     9162    10254    11984    13485    14266    14211 
   13343    12016    11206    11819    13643    15270    15173    13192 
   10763     9341     9251     9801     9888     9300     9037     9428 
    9267     7811     6142     5776     6868     8131     8382     7989 
    8231     9476    10969    12137    12765    12451    11269    10169 
   10000    10844    12045    12403    11209     9384     8688     9532 
   10575    10663    10139    10190    11417    13180    14489    14962 
   14909    14993    15364    15366    14770    14413    15123    16499 
   17185    16415    14871    13827    13793    14243    14619    15031 
   15592    15858    15447    14597    13916    14013    14912    15624 
   15112    13517    11807    10856    10919    11398    11651    11804 
   12018    11781    10618     8887     7401     6756     7147     8036 
    8073     6374     3747     2045     2322     3742     4604     4455 
    4376     5206     6354     6617     5894     5402     5888     6560 
    6461     5873     5572     5611     5574     5378     5337     5677 
    6073     5971     5469     5270     5524     5372     4273     3142 
    3338     5017     7179     8977    10135    10584    10695    11221 
   12228    12880    12749    12515    12737    12841    12003    10479 
    9564    10083    11250    11532    10395     8824     8240     9065 
   10426    11128    10767    10023     9836    10314    10713    10439 
    9880    10047    11129    12057    12025    11640    11981    13077 
   13823    13355    12110    11271    11283    11427    11237    11364 
   12229    12844    12035    10333     9586    10697    12548    13228 
   11973     9841     8518     8775    10365    12638    14625    15448 
   15251    14925    14768    14336    13400    12402    12058    12550 
   13349    13980    14433    15060    16142    17029    16515    14859 
   14144    15578    17464    17236    14883    12731    12414    13421 
   14198    13801    12536    11592    11916    13110    14006    14202 
   14107    14026    13894    13533    13111    13628    16004    19076 
   20113    18044    14727    12670    12397    12529    12095    11612 
   11677    11988    12260    12902    14180    15341    15352    14490 
   14279    15557    17442    18587    18694    18218    17463    16529 
   15389    14029    12743    11736    10697     9338     8127     7905 
    8787     9861    10040     9132     7924     7278     7451     8163 
    9024     9849    10583    11139    11355    11186    10866    10537 
    9918     8855     7843     7536     8046     8764     8744     7593 
    6162     5804     6809     8119     8577     7951     6866     6010 
    5564     5605     6361     7576     8424     8511     8190     7654 
    6805     6080     6171     6929     7407     6849     5290     3401 
    1896     1026      747     1045     1852     2974     4059     4637 
    4310     3198     2364     2890     4204     4535     3221     1496 
     920     1658     2341     1676      304      396     3026     6954 
   10379    12493    13181    12800    12236    12199    12608    13024 
   13428    14156    15304    16596    17692    18492    19163    19606 
   19175    17786    16690    16774    16966    15891    14278    13925 
   15081    16532    16940    15522    13096    11758    12433    14033 
   15219    15717    15892    15839    15253    14079    12886    12277 
   12255    12442    12678    13212    14061    14446    13645    12087 
   10776    10205    10496    11759    13581    15045    15739    15946 
   15934    15942    16320    16798    16468    15104    13759    13688 
   14808    15738    15709    15313    15224    15528    16081    16640 
   16905    16595    15645    14824    15348    17250    19189    20072 
