Origin Time       2011/03/11 14:46:00
Lat.              38.103
Long.             142.860
Depth. (km)       24
Mag.              9.0
Station Code      HKD087
Station Lat.      43.1502
Station Long.     143.8916
Station Height(m) 170
Record Time       2011/03/11 14:48:07
Sampling Freq(Hz) 100Hz
Duration Time(s)  300
Dir.              U-D
Scale Factor      3920(gal)/6182761
Max. Acc. (gal)   5.331
Last Correction   2011/03/11 14:47:52
Memo.             
[...]
    1241     1655     2218     2194     1420      899     1338     2143 
    2089      912     -234     -844    -1336     -892     1152     2881 
    2397      819      213      679     1053      691       77      453 
    2041     3195     2600      962      -70      249      937      768 
     164      360     1628     2913     2930     1729      563      269 
     354       -2     -264      387     1145      757     -684    -1889 
   -1542      322     1812      940    -1605    -2972    -1993     -124 
    1047      702    -1109    -2783    -2893    -2240    -2084    -2244 
   -2314    -2462    -2544    -2049    -1157     -858    -1285     -960 
     694     2121     2263     1869     2016     2709     2785     1583 
     -10    -1000    -1187     -700      -92      102      181      448 
     659      676      215    -1127    -2531    -2243     -225     1215 
     792      -85       86     1059     1538      841      115      641 
    1559     1721     2116     3827     5500     5144     3121     1541 
    1509     2042     1488     -125    -1028     -430      610      931 
     383     -207      -66      496      605     -140    -1010    -1052 
    -882    -1291    -1104      656     2743     3763     3889     4075 
    4832     5594     5310     3680     1531       98     -146      335 
     884      959      427      -54      175      729      813      569 
     771     1332     1233      261     -185      961     2524     2506 
     755    -1060    -1637    -1093      -10     1191     1591      450 
    -846     -218     1595     2443     2357     2278     1932     1093 
     279      -50      -17     -346    -1143    -1542    -1602    -2177 
   -2743    -1959       78     1965     2913     3135     2802     1861 
     371    -1126    -1442      -31     1900     2796     2664     2372 
    1968     1160      147     -783    -1276     -969       16     1196 
    1943     1591      214     -965    -1111    -1149    -2080    -3240 
   -3368    -2090     -283      752      896      815      372     -588 
   -1280    -1332    -1309    -1262     -277     1773     3118     2551 
    1441     1334     2008     2469     2144     1433      974      479 
    -438     -692     1224     3894     3961     1625      305      737 
     696     -416    -1035     -318     1014     1871     1812     1001 
    -218    -1210    -1206      -38     1446     1835      900      309 
     979     1469      769     -207     -841    -1225     -954     -281 
    -278     -479      510     2182     2755     1743      389       -1 
     398      543      181       -1      436     1043     1154      641 
      16       -1      626     1328     1707     1635     1213      543 
    -144      -52     1004     2041     2257     1374     -239    -1014 
     129     2098     3434     3963     3925     3460     2617     1378 
     328      430     1770     2875     2107      229     -665     -516 
    -624     -957     -653      -92     -644    -2414    -3581    -2341 
     691     2607     1856      142     -633     -739    -1183    -1549 
    -271     2440     3862     2678     1057     1018     1276     -178 
   -2178    -2124     -577     -237    -1313    -1773    -1111     -663 
   -1129    -1987    -2484    -2213    -1357     -430      195      239 
    -351    -1001     -875       -4      629      664      938     1797 
    2198     1395      439      781     2163     3098     2822     2214 
    2798     4491     5300     4097     1870       37     -407      521 
    1030      -45    -1250     -940      608     2097     2551     1876 
     860      539      853      892      902     1478     1413     -266 
   -1981    -2177    -1551    -1076     -557       37       22     -626 
   -1119    -1099     -668       72      900     1452     1491     1249 
     988      465     -518    -1593    -1773     -564      669      587 
     342     1591     3571     4121     2902     2005     2566     2900 
    1810      712      723     1003      858      672      498      -19 
    -430      -63      736     1216     1233      999      667      642 
    1298     2086     2239     1956     1699     1513     1517     1872 
    2423     2879     2814     2083     1576     1827     1805      927 
    -250    -1558    -2533    -2404    -2212    -3323    -4525    -3977 
   -2241    -1190    -1148     -830      -43       20     -849    -1459 
    -718     1006     1987     1338      122     -114     1069     2626 
    3230     2820     2316     2267     2227     1457      216     -638 
   -1106    -1649    -2187    -2443    -2124    -1136      -96      580 
    1534     3230     4591     4258     2836     2139     2442     2361 
    1514     1100     1572     2121     2038     1199       93     -727 
   -1002     -339     1074     1800     1023     -111     -514     -341 
     478     1898     2523     1224     -899    -1621     -441     1068 
    1422       48    -2151    -2599     -652      975      783       36 
    -506    -1002    -1044     -764    -1073    -1619    -1336     -256 
    1018     2017     2540     2843     3020     2688     1694      612 
     332      959     1535     1201      339       39      345      322 
     -22      -54     -122     -608     -685      453     2195     3276 
    3256     2745     2606     2766     2368     1737     1927     2141 
     724    -1627    -2231     -194     2202     2647     1425      411 
     692     1456     1551     1130      693      176     -466     -691 
     -26      699      453       62      789     2011     2242     1217 
     328     1049     2506     2504     1435     1468     2075      901 
   -1365    -1315     1823     4804     5042     3264     1599     1446 
    2041     1346     -347     -759      192      636       40    -1079 
   -2573    -3826    -3944    -3428    -3505    -4045    -3894    -2916 
   -2171    -2008    -1602     -648      375     1236     1559      976 
     336      613     1409     1933     1910     1172     -298    -1641 
   -1593     -274      855      786     -145     -549      598     2272 
    2125     -128    -1854    -1444     -240      186        2      178 
     837     1569     2733     4504     5461     4235     2038     1571 
    3375     5001     4189     1754      228      166      -45     -851 
   -1223    -1655    -3116    -3669    -1308     1735     2053     -198 
   -2103    -1674      194     1274      852      103     -303    -1290 
   -3087    -4192    -3580    -2062    -1360    -1717    -1220      652 
    1708     1125      969     2279     3040     1772      255      682 
    2527     3550     2580      845      239      617      694      606 
    1034     1577     1540      807      -89     -277      274      479 
      16      -13      627      528     -844    -2031    -1960    -1215 
    -201     1185     2073     1637      725      653     1335     1578 
     942      519     1417     2949     3353     2545     2051     1875 
     813     -687    -1490    -1849    -2130    -1812     -810       -7 
     -61     -300      514     2303     3558     3129     1645      875 
    1399     1710      665     -439      188     1968     2765     2198 
    1951     2451     2334     1361      828     1668     3498     4437 
    2834       79     -935     -406     -996    -2850    -3510    -2480 
   -1502    -1045     -275      586      954     1445     2274     2764 
    2883     2190      218    -1306     -990     -241     -595    -1659 
   -2318    -2231    -1804    -1507    -1469    -1357    -1035    -1024 
   -1656    -2247    -1618      148     1365     1148      433      381 
    1237     2110     2139     2109     3064     4185     4317     3913 
    3638     3190     2477     2285     3176     4144     3418      953 
   -1616    -3141    -3329    -2516    -1718    -1308     -754     -149 
    -143     -447      184     1782     2482     1482      481      969 
    2216     2642     2111     1876     2134     1308    -1366    -4126 
   -4808    -3573    -2182    -1711    -2147    -2552    -1388     1323 
    3112     2180       28     -466     1142     2471     1804      106 
    -566      393     1044     -303    -1609     -338     1778     1994 
    1418     2372     4160     4909     4541     3539     2197     1597 
    1805     1241      159      666     2745     4413     4646     3829 
    3587     5437     7465     6531     3886     2613     2328     1716 
    1500     1836     1575      608     -299     -873    -1413    -2315 
   -3261    -3204    -1765       -7     1042     1707     2353     2288 
    1137     -115     -440     -240     -637    -1958    -3456    -4197 
   -4173    -4075    -3735    -2446     -888     -208     -246     -483 
    -713     -429      908     2653     2820      889     -602      277 
    1821     1528     -130    -1079    -1054     -921     -616      -44 
     207       64      206      973     1672     1346      595     1155 
    2906     4097     4486     4907     4997     3873     1928      941 
    2378     5323     6753     4985     2175     1447     2549     2981 
    2127     1364     1283     1416     1659     2143     2516     2231 
    1473     1076      935       96    -1236    -1863    -1265      297 
    2294     3562     2567     -247    -2013    -1328     -124     -511 
   -1866    -1624     1154     3649     2855      140    -1145     -357 
     750      686     -104     -198      195     -103     -792     -760 
     -15      548      629      512      294      343     1528     3850 
    5628     5232     3197     1540     1289     1407      481     -820 
    -688      585      765     -796    -1805     -657      278    -1407 
   -3707    -3937    -2736    -1814    -1431     -833      117      411 
    -388    -1265    -1355    -1228    -1674    -1710     -136     1527 
    1405     1015     2364     3613     2211     -635    -2683    -3944 
   -4836    -4847    -3446     -716     1741     1942      601     -335 
   -1070    -2174    -2663    -2472    -2735    -2883    -1501      682 
    1558      484    -1103    -1766    -1674    -1455     -837      558 
    2248     3543     4061     3539     2462     1852     2065     3155 
    4894     6290     7026     7603     7666     6770     5542     4413 
    3267     2600     2986     4039     4800     4439     2954     1578 
    1123      518     -681     -835      372     1201      936     -131 
   -2011    -4022    -4822    -4264    -3303    -2530    -1816     -381 
    2259     4640     4877     3700     3345     4569     5840     5119 
    2831     1264      979      558     -837    -2354    -2661    -1627 
    -255      425       58     -564     -173     1725     4699     7058 
    6775     4616     3310     3559     4079     3610     1827      208 
     277     1034      966      697     1595     3106     3270     2071 
    1203      922      618      586     1507     3082     3635     2664 
    1966     1982     1223     -173     -918    -1172    -1769    -2570 
   -2985    -3076    -3105    -3010    -2777    -2050     -379     1270 
    1350      414      576     1914     2120      663       54     1721 
    3660     3305     1000     -949    -1592    -1184      439     2756 
    3910     2872     1322     1733     3677     4551     3621     2609 
    2662     2592      837    -1584    -2039     -372      551     -954 
   -3308    -4224    -2943     -380     1207      500    -1002    -1940 
   -2645    -2211      -69     1012     -611    -2718    -3377    -2462 
    -749      100      -68      506     1861     2604     2967     3866 
    4950     5293     4488     3084     2121     1822     1605     1055 
     137     -870    -1755    -2585    -3203    -3468    -3702    -4086 
   -4193    -3309    -1405       20     -324    -1170     -671      548 
    1010      940     1346     2489     3537     3297     2346     2373 
    3019     3189     3346     3601     3647     4562     6645     7892 
    7220     5887     4546     2744     1395     1500     1576      313 
    -672      -31      625       24     -497     -404     -972    -1689 
   -1062      393     1892     3195     3595     3291     2949     2177 
     993      154     -503    -1533    -2364    -1907     -412      385 
      79      630     2546     3523     2459      799     -401    -1489 
   -2564    -3023    -2620    -1810    -1372    -1726    -1916     -565 
    1611     2877     3574     4726     5384     4860     4331     4044 
    3265     2450     2018     1555      953      321      -52      338 
    1079     1225     1123     1488     1379      -78    -1596    -1538 
    -154      994      821     -291     -866       77     1389      934 
   -1110    -2502    -2173     -372     2256     4134     4081     2927 
    2127     1715      728     -470     -405      455       92    -1445 
   -2014     -502     1677     1993       30    -1409     -439      915 
     741      298      887     1871     1904      135    -2214    -2503 
    -644      628      213     -326       14      535      330     -554 
    -988     -203      968     1456     1518     1595     1219      473 
      39     -692    -2321    -3477    -3017    -2098    -2212    -2955 
   -3004    -2107    -1299    -1504    -1980    -1042     1212     2768 
    2829     2709     3244     3938     4227     3654     2308     1310 
    1127      700     -438    -1082     -817     -838     -974     -177 
     713     1306     2719     3915     3091     1744     1983     2765 
    2032      159     -512      859     2225     1603      -68     -380 
     595      414    -1180    -1889    -1445    -2489    -5672    -7327 
   -4975    -1791    -2059    -5352    -7757    -6805    -3932    -2229 
   -2327    -2400    -1351      696     3267     5041     4721     3106 
    2278     3148     4913     5937     5457     4565     4489     4782 
    4245     2887     1449     -102    -1332     -990      445     1173 
     812       67     -633    -1120    -1342    -1073     -346     -163 
   -1093    -2109    -1900     -211     2090     3469     3331     3065 
    3228     2118     -315    -1452      -99     1798     1943      573 
    -385     -272     -377    -1540    -2429    -1530      258      817 
    -328    -1721    -2067    -1939    -2615    -3435    -2463      203 
    2317     2351     1073      911     2713     3660     1317    -2657 
   -4969    -4402    -2763    -2234    -2280    -1060     1476     3398 
    3354     2594     2680     2828     2513     3362     5725     7179 
    6312     4718     3922     3382     2572     2204     2709     3169 
    2489     1185      529      754     1584     2830     3982     4674 
    5211     6190     7534     7871     6292     4268     3498     3351 
    2312      384     -770     -151      520     -704    -2489    -2639 
   -1942    -2399    -4019    -5173    -4648    -2659     -317     1246 
    1399      432     -614     -937     -472      250      177    -1036 
   -2250    -2529    -2035    -1472    -1386    -1108      195     1561 
    1667     1005      980     1756     2165     1776     1242      611 
    -200     -572     -537     -599     -724     -932    -1147    -1041 
   -1047    -1680    -2387    -2463    -1702     -271     1233     2563 
    3812     4470     4260     3872     3840     4177     4774     5032 
    4283     2718     1195      712     1219      968     -872    -2596 
   -2931    -2882    -3383    -3844    -3585    -2924    -2772    -3457 
   -4237    -4720    -5311    -5522    -4454    -2635     -959      594 
    2175     3720     5065     5540     4513     2722     1737     1689 
    1050     -667    -2019    -2243    -1999    -1665    -1284     -942 
    -840    -1677    -3498    -4704    -3731    -1498     -642    -1590 
   -2153    -1533    -1049    -1497    -2521    -3184    -2651    -1258 
     100     1131     1560     1234     1318     2969     4841     4696 
    3000     1909     1829     2158     3123     3983     3188     1313 
     -64     -658     -778     -761     -630      122     1118      983 
    -410    -1196     -177     1090      693     -625     -675     1154 
    3005     2971     1780     1504     2491     3073     1891     -249 
   -1308     -414     1159     1588     1086     1376     2534     2917 
    1840      516      843     2983     4436     3466     1428      100 
    -127      272      184     -759    -1607    -1808    -1455    -1025 
   -1778    -3899    -5381    -4860    -3527    -3005    -2997    -2453 
   -1570     -989     -590       70     1011     1594     1169       66 
    -481      152     1320     2326     2805     2493     1665      572 
    -766    -1557    -1021      182      887      899     1078     2374 
    4238     4872     3981     3363     4129     5012     4173     2380 
    2525     5084     7174     6863     5150     3396     1717      319 
    -257     -376     -480     -123      356     -110     -856     -401 
    1003     1629      111    -2282    -2324      -97      719     -479 
   -1081    -1130    -1915    -2285    -1535     -555      722     2198 
    2852     2875     2676     1643      387      249      360     -661 
   -1848    -1872    -1220     -950    -1372    -1604     -509      913 
     859      321     1118     2183     1796     1094     1950     3515 
    3725     2376     1106     1093     1344      669       74      663 
    1634     2065     2281     2768     3230     3514     4019     4277 
    3620     3083     3154     2302      479     -724    -1295    -1705 
   -1467     -881     -963    -1809    -2619    -2476    -1336     -230 
     296      522      446      -38     -678     -875     -215      606 
     747      610      752     1158     1825     2488     2773     2722 
    2529     2578     3020     3151     2395      966     -359     -280 
    1599     3415     3216     1884     1749     2965     3673     2905 
    1435      877     1942     3139     2926     2038     1681     1452 
     492     -717    -1007     -381      220      456      626     1023 
    1590     1697      955       16     -380     -268       63      290 
      32     -427     -326      188      315      -82     -961    -2497 
   -3859    -3785    -2536    -1288     -570     -350     -304      -18 
     471      820      938      985     1016     1280     2254     3212 
    2535      764      264     1023      815     -613    -1445     -950 
    -101       92     -135      215     1221     1858     1407      420 
     178      643      518       63      630     1923     2931     3452 
    3435     3062     2570     1452     -549    -2268    -2193     -670 
     381      240     -286     -578     -649    -1166    -2765    -4578 
   -5082    -4339    -3423    -2485    -1284      -56      880      696 
   -1278    -3500    -3630    -2061    -1455    -2638    -3425    -2274 
    -160     1327     1379      640      569     1308     2025     2583 
    3223     3907     4293     4084     3573     3193     2909     2597 
    2305     2029     1690     1515     1939     2802     3436     3501 
    3293     3323     3347     2647     1855     2161     2741     2090 
     778      333      851     1241     1056      626     -180    -1223 
   -1315     -254      438      -58     -830     -724       -6     -164 
   -1400    -2183    -1831    -1063     -666     -759     -566      463 
    1557     1909     2034     2416     2325     1540     1189     1840 
    2640     2484     1427     1028     2409     4155     4137     2997 
    2836     3347     2925     2019     1985     2680     3005     2581 
