Origin Time       2011/03/11 14:46:00
Lat.              38.103
Long.             142.860
Depth. (km)       24
Mag.              9.0
Station Code      HKD043
Station Lat.      44.5820
Station Long.     142.9644
Station Height(m) 11
Record Time       2011/03/11 14:50:02
Sampling Freq(Hz) 100Hz
Duration Time(s)  100
Dir.              N-S
Scale Factor      3920(gal)/6182761
Max. Acc. (gal)   1.705
Last Correction   2011/03/11 14:49:47
Memo.             
[...]
   -4838    -4887    -4869    -4815    -4750    -4706    -4710    -4742 
   -4757    -4779    -4846    -4934    -5017    -5096    -5161    -5209 
   -5245    -5256    -5217    -5163    -5159    -5197    -5239    -5300 
   -5382    -5450    -5476    -5462    -5438    -5457    -5542    -5667 
   -5772    -5838    -5895    -5924    -5891    -5849    -5837    -5814 
   -5777    -5767    -5782    -5778    -5755    -5751    -5750    -5732 
   -5745    -5772    -5758    -5715    -5680    -5663    -5666    -5698 
   -5754    -5785    -5789    -5807    -5827    -5823    -5806    -5779 
   -5748    -5731    -5728    -5711    -5658    -5596    -5540    -5490 
   -5456    -5432    -5387    -5315    -5244    -5196    -5173    -5185 
   -5210    -5205    -5178    -5169    -5199    -5253    -5307    -5355 
   -5386    -5380    -5358    -5341    -5315    -5303    -5328    -5358 
   -5374    -5419    -5508    -5576    -5596    -5630    -5693    -5749 
   -5806    -5879    -5935    -5949    -5966    -6015    -6037    -6012 
   -6003    -6007    -5981    -5951    -5944    -5935    -5924    -5960 
   -6031    -6070    -6070    -6053    -6004    -5937    -5893    -5876 
   -5865    -5860    -5880    -5913    -5913    -5871    -5801    -5726 
   -5686    -5701    -5757    -5826    -5875    -5869    -5809    -5735 
   -5696    -5711    -5786    -5892    -5978    -6020    -6020    -5966 
   -5872    -5797    -5787    -5817    -5847    -5876    -5888    -5860 
   -5818    -5801    -5813    -5844    -5882    -5903    -5867    -5793 
   -5738    -5713    -5695    -5676    -5653    -5609    -5538    -5473 
   -5435    -5411    -5409    -5427    -5425    -5386    -5337    -5293 
   -5259    -5240    -5236    -5233    -5224    -5224    -5242    -5284 
   -5372    -5499    -5608    -5662    -5671    -5643    -5587    -5534 
   -5511    -5523    -5564    -5607    -5618    -5594    -5558    -5535 
   -5525    -5520    -5534    -5569    -5590    -5579    -5544    -5475 
   -5382    -5308    -5259    -5218    -5213    -5241    -5241    -5197 
   -5154    -5132    -5116    -5098    -5081    -5066    -5033    -4977 
   -4905    -4829    -4782    -4788    -4802    -4786    -4761    -4734 
   -4673    -4600    -4575    -4600    -4647    -4698    -4735    -4740 
   -4721    -4703    -4687    -4662    -4644    -4661    -4678    -4652 
   -4603    -4539    -4454    -4391    -4364    -4351    -4361    -4403 
   -4452    -4468    -4445    -4409    -4364    -4319    -4300    -4299 
   -4288    -4279    -4279    -4257    -4194    -4115    -4040    -3977 
   -3941    -3947    -3970    -3998    -4056    -4125    -4171    -4204 
   -4252    -4310    -4361    -4402    -4433    -4469    -4530    -4610 
   -4676    -4709    -4737    -4789    -4848    -4898    -4957    -5027 
   -5096    -5176    -5253    -5293    -5313    -5327    -5327    -5318 
   -5311    -5300    -5272    -5252    -5269    -5289    -5283    -5275 
   -5280    -5285    -5291    -5307    -5310    -5291    -5299    -5360 
   -5436    -5510    -5579    -5626    -5661    -5722    -5778    -5766 
   -5712    -5669    -5638    -5614    -5601    -5595    -5587    -5583 
   -5590    -5588    -5570    -5570    -5591    -5603    -5602    -5615 
   -5634    -5645    -5659    -5663    -5630    -5583    -5557    -5543 
   -5510    -5468    -5445    -5434    -5434    -5475    -5567    -5674 
   -5767    -5834    -5855    -5829    -5796    -5770    -5740    -5720 
   -5729    -5752    -5770    -5798    -5837    -5847    -5841    -5846 
   -5845    -5833    -5836    -5853    -5865    -5877    -5891    -5869 
   -5797    -5713    -5646    -5596    -5559    -5525    -5474    -5407 
   -5352    -5324    -5296    -5257    -5227    -5198    -5143    -5075 
   -5022    -4973    -4923    -4897    -4900    -4899    -4885    -4867 
   -4832    -4776    -4730    -4703    -4668    -4626    -4598    -4577 
   -4546    -4524    -4528    -4545    -4570    -4587    -4550    -4468 
   -4400    -4368    -4367    -4406    -4476    -4544    -4603    -4657 
   -4692    -4697    -4693    -4703    -4724    -4740    -4758    -4776 
   -4785    -4792    -4805    -4811    -4817    -4867    -4957    -5036 
   -5093    -5149    -5185    -5183    -5182    -5205    -5229    -5250 
   -5263    -5231    -5148    -5051    -4981    -4939    -4921    -4949 
   -5014    -5073    -5119    -5163    -5182    -5179    -5183    -5179 
   -5160    -5155    -5147    -5115    -5087    -5092    -5124    -5158 
   -5197    -5253    -5296    -5307    -5327    -5379    -5422    -5447 
   -5475    -5499    -5520    -5559    -5606    -5636    -5658    -5681 
   -5675    -5630    -5597    -5607    -5645    -5709    -5789    -5834 
   -5810    -5727    -5618    -5505    -5432    -5454    -5548    -5658 
   -5756    -5817    -5814    -5765    -5710    -5664    -5632    -5640 
   -5677    -5678    -5618    -5537    -5462    -5396    -5349    -5342 
   -5346    -5343    -5360    -5382    -5387    -5425    -5520    -5622 
   -5688    -5726    -5743    -5736    -5727    -5742    -5767    -5784 
   -5809    -5838    -5857    -5890    -5940    -5988    -6043    -6116 
   -6183    -6216    -6213    -6198    -6176    -6148    -6136    -6139 
   -6136    -6160    -6213    -6231    -6202    -6171    -6157    -6156 
   -6157    -6160    -6167    -6170    -6185    -6216    -6231    -6214 
   -6184    -6148    -6108    -6073    -6040    -6008    -6000    -6027 
   -6056    -6058    -6061    -6077    -6082    -6071    -6051    -6007 
   -5936    -5867    -5826    -5807    -5816    -5867    -5927    -5959 
   -5975    -5991    -6012    -6052    -6128    -6210    -6266    -6317 
   -6381    -6427    -6442    -6452    -6451    -6417    -6376    -6352 
   -6347    -6369    -6413    -6451    -6479    -6497    -6493    -6469 
   -6460    -6495    -6542    -6567    -6577    -6566    -6516    -6447 
   -6370    -6285    -6216    -6188    -6176    -6149    -6119    -6095 
   -6041    -5966    -5937    -5964    -5992    -6000    -6006    -5986 
   -5918    -5847    -5796    -5724    -5623    -5525    -5430    -5331 
   -5268    -5263    -5279    -5291    -5311    -5332    -5337    -5323 
   -5304    -5281    -5232    -5186    -5175    -5173    -5164    -5169 
   -5185    -5176    -5145    -5118    -5089    -5043    -4997    -4973 
   -4952    -4919    -4902    -4887    -4819    -4705    -4594    -4509 
   -4429    -4343    -4257    -4145    -3999    -3866    -3782    -3749 
   -3757    -3782    -3795    -3773    -3730    -3692    -3653    -3604 
   -3578    -3578    -3572    -3561    -3552    -3526    -3483    -3453 
   -3462    -3511    -3575    -3642    -3702    -3730    -3735    -3727 
   -3691    -3639    -3603    -3597    -3603    -3614    -3640    -3678 
   -3704    -3711    -3714    -3714    -3722    -3759    -3812    -3837 
   -3824    -3790    -3745    -3727    -3765    -3841    -3927    -3998 
   -4044    -4072    -4087    -4098    -4120    -4154    -4190    -4225 
   -4239    -4230    -4234    -4266    -4299    -4337    -4379    -4387 
   -4366    -4356    -4363    -4365    -4361    -4379    -4436    -4519 
   -4625    -4745    -4852    -4938    -5014    -5080    -5129    -5150 
   -5157    -5171    -5195    -5248    -5338    -5432    -5508    -5566 
   -5608    -5645    -5687    -5737    -5787    -5822    -5827    -5800 
   -5758    -5726    -5687    -5598    -5452    -5295    -5161    -5070 
   -5066    -5137    -5197    -5189    -5121    -5016    -4897    -4789 
   -4704    -4633    -4584    -4573    -4579    -4564    -4532    -4504 
   -4481    -4439    -4381    -4337    -4296    -4235    -4167    -4110 
   -4057    -4021    -4023    -4023    -3973    -3891    -3815    -3762 
   -3741    -3762    -3813    -3867    -3922    -3969    -3987    -3988 
   -3995    -4005    -3997    -3984    -4011    -4091    -4202    -4323 
   -4414    -4433    -4402    -4380    -4380    -4391    -4417    -4457 
   -4482    -4483    -4488    -4497    -4475    -4447    -4469    -4511 
   -4539    -4583    -4639    -4671    -4703    -4765    -4820    -4840 
   -4853    -4866    -4836    -4774    -4753    -4770    -4774    -4778 
   -4801    -4810    -4798    -4804    -4824    -4812    -4772    -4742 
   -4712    -4672    -4678    -4751    -4816    -4831    -4832    -4814 
   -4764    -4736    -4760    -4795    -4803    -4788    -4770    -4754 
   -4748    -4774    -4818    -4836    -4848    -4885    -4906    -4899 
   -4908    -4927    -4941    -4977    -5039    -5084    -5100    -5107 
   -5113    -5118    -5144    -5218    -5308    -5365    -5399    -5424 
   -5424    -5415    -5415    -5412    -5399    -5372    -5333    -5294 
   -5267    -5265    -5292    -5312    -5320    -5343    -5380    -5419 
   -5470    -5523    -5558    -5578    -5601    -5606    -5572    -5526 
   -5482    -5422    -5353    -5282    -5211    -5147    -5079    -4997 
   -4916    -4847    -4805    -4783    -4764    -4759    -4769    -4762 
   -4738    -4712    -4682    -4650    -4636    -4638    -4634    -4609 
   -4563    -4515    -4477    -4454    -4443    -4438    -4442    -4456 
   -4456    -4428    -4398    -4401    -4415    -4422    -4443    -4472 
   -4484    -4477    -4467    -4450    -4412    -4371    -4345    -4313 
   -4259    -4218    -4218    -4243    -4290    -4365    -4453    -4533 
   -4596    -4641    -4676    -4721    -4789    -4864    -4915    -4949 
   -4996    -5063    -5152    -5252    -5319    -5325    -5299    -5273 
   -5252    -5261    -5335    -5456    -5561    -5611    -5609    -5569 
   -5510    -5470    -5460    -5458    -5456    -5448    -5414    -5356 
   -5321    -5330    -5342    -5348    -5365    -5368    -5334    -5297 
   -5282    -5267    -5255    -5275    -5318    -5343    -5344    -5340 
   -5318    -5271    -5216    -5166    -5129    -5125    -5163    -5199 
   -5194    -5164    -5120    -5044    -4974    -4960    -4976    -4973 
   -4940    -4879    -4797    -4712    -4650    -4617    -4602    -4603 
   -4593    -4542    -4483    -4447    -4427    -4429    -4450    -4465 
   -4458    -4442    -4437    -4450    -4476    -4525    -4600    -4671 
   -4718    -4741    -4730    -4679    -4628    -4615    -4629    -4672 
   -4766    -4882    -4975    -5052    -5131    -5177    -5188    -5216 
   -5274    -5334    -5405    -5491    -5577    -5646    -5700    -5745 
   -5776    -5814    -5889    -5966    -5999    -6010    -6026    -6043 
   -6060    -6086    -6097    -6064    -6007    -5956    -5897    -5827 
   -5784    -5770    -5760    -5759    -5751    -5715    -5667    -5630 
   -5598    -5557    -5516    -5491    -5458    -5396    -5334    -5294 
   -5258    -5228    -5204    -5172    -5131    -5081    -5015    -4936 
   -4871    -4847    -4845    -4849    -4864    -4867    -4842    -4817 
   -4800    -4780    -4773    -4795    -4806    -4762    -4677    -4598 
   -4534    -4483    -4461    -4446    -4394    -4306    -4220    -4142 
   -4071    -4014    -3956    -3888    -3827    -3789    -3766    -3741 
   -3728    -3736    -3732    -3712    -3706    -3707    -3704    -3709 
   -3726    -3744    -3768    -3812    -3863    -3896    -3910    -3911 
   -3897    -3883    -3891    -3907    -3908    -3922    -3965    -3997 
   -4007    -4028    -4053    -4058    -4053    -4037    -4013    -3998 
   -3995    -3993    -3972    -3942    -3924    -3911    -3904    -3930 
   -3977    -4022    -4059    -4074    -4069    -4070    -4095    -4146 
   -4196    -4221    -4221    -4183    -4123    -4090    -4094    -4108 
   -4136    -4188    -4231    -4220    -4163    -4085    -4005    -3949 
   -3933    -3939    -3956    -3995    -4037    -4053    -4066    -4107 
   -4165    -4227    -4303    -4395    -4472    -4515    -4552    -4594 
   -4630    -4673    -4719    -4737    -4733    -4728    -4703    -4636 
   -4563    -4517    -4490    -4481    -4510    -4551    -4551    -4511 
   -4463    -4406    -4348    -4319    -4305    -4269    -4220    -4189 
   -4153    -4096    -4082    -4123    -4155    -4172    -4195    -4202 
   -4196    -4204    -4216    -4224    -4236    -4255    -4251    -4201 
   -4150    -4132    -4122    -4127    -4181    -4248    -4272    -4253 
   -4212    -4170    -4174    -4236    -4312    -4363    -4394    -4401 
   -4366    -4332    -4360    -4425    -4478    -4527    -4571    -4582 
   -4567    -4561    -4570    -4594    -4644    -4715    -4770    -4805 
   -4847    -4892    -4927    -4971    -5031    -5067    -5045    -4997 
   -4967    -4955    -4951    -4958    -4976    -4997    -5030    -5080 
   -5119    -5136    -5152    -5174    -5195    -5237    -5318    -5416 
   -5506    -5589    -5669    -5766    -5890    -6016    -6115    -6194 
   -6247    -6257    -6258    -6287    -6329    -6375    -6435    -6496 
   -6533    -6538    -6525    -6504    -6478    -6476    -6522    -6577 
   -6628    -6703    -6768    -6767    -6721    -6679    -6640    -6601 
   -6579    -6555    -6488    -6390    -6311    -6262    -6219    -6191 
   -6183    -6161    -6118    -6082    -6044    -5981    -5916    -5885 
   -5852    -5793    -5759    -5743    -5683    -5606    -5557    -5519 
   -5485    -5475    -5469    -5436    -5379    -5323    -5263    -5206 
   -5176    -5159    -5113    -5032    -4947    -4850    -4721    -4603 
   -4516    -4428    -4346    -4307    -4296    -4276    -4246    -4212 
   -4171    -4118    -4058    -3984    -3872    -3746    -3655    -3596 
   -3567    -3561    -3549    -3517    -3468    -3398    -3321    -3269 
   -3248    -3237    -3224    -3212    -3185    -3126    -3047    -2960 
   -2864    -2770    -2702    -2657    -2608    -2555    -2514    -2457 
   -2365    -2273    -2197    -2120    -2068    -2059    -2063    -2064 
   -2082    -2114    -2141    -2162    -2194    -2223    -2233    -2230 
   -2203    -2146    -2085    -2058    -2081    -2114    -2138    -2178 
   -2216    -2241    -2299    -2391    -2482    -2561    -2644    -2739 
   -2817    -2877    -2941    -3004    -3069    -3154    -3253    -3352 
   -3446    -3546    -3650    -3739    -3827    -3933    -4052    -4182 
   -4313    -4432    -4534    -4604    -4640    -4668    -4708    -4747 
   -4765    -4777    -4787    -4764    -4723    -4700    -4690    -4699 
   -4744    -4801    -4822    -4817    -4824    -4835    -4835    -4849 
   -4881    -4882    -4851    -4823    -4786    -4709    -4630    -4587 
   -4544    -4499    -4496    -4505    -4464    -4408    -4387    -4368 
   -4339    -4362    -4430    -4472    -4489    -4504    -4480    -4410 
   -4356    -4357    -4382    -4421    -4497    -4546    -4496    -4414 
   -4337    -4220    -4113    -4081    -4084    -4070    -4042    -4004 
   -3933    -3859    -3827    -3812    -3786    -3784    -3808    -3800 
   -3757    -3724    -3707    -3699    -3716    -3760    -3795    -3802 
   -3811    -3822    -3822    -3844    -3896    -3949    -3991    -4023 
   -4023    -3997    -3998    -4048    -4117    -4188    -4274    -4353 
   -4409    -4475    -4550    -4588    -4611    -4666    -4730    -4780 
   -4841    -4915    -4963    -4969    -4969    -4970    -4943    -4923 
   -4940    -4962    -4973    -4998    -5037    -5056    -5055    -5078 
   -5119    -5144    -5159    -5165    -5154    -5138    -5134    -5135 
   -5127    -5111    -5075    -5011    -4938    -4890    -4863    -4844 
   -4845    -4867    -4896    -4913    -4907    -4895    -4894    -4905 
   -4919    -4928    -4939    -4961    -4980    -4975    -4953    -4944 
   -4947    -4951    -4963    -4979    -4989    -4985    -4952    -4899 
   -4856    -4836    -4834    -4850    -4859    -4824    -4740    -4649 
   -4584    -4542    -4518    -4521    -4538    -4536    -4510    -4485 
   -4462    -4439    -4447    -4477    -4497    -4508    -4505    -4469 
   -4406    -4362    -4360    -4363    -4342    -4322    -4310    -4294 
   -4298    -4346    -4417    -4482    -4537    -4571    -4556    -4513 
   -4494    -4484    -4455    -4442    -4467    -4512    -4562    -4620 
   -4672    -4695    -4701    -4701    -4674    -4621    -4578    -4549 
   -4516    -4497    -4501    -4506    -4497    -4478    -4442    -4386 
   -4333    -4307    -4308    -4319    -4332    -4329    -4298    -4250 
   -4198    -4153    -4124    -4112    -4119    -4141    -4156    -4144 
   -4097    -4030    -3957    -3882    -3831    -3822    -3840    -3857 
   -3865    -3880    -3899    -3910    -3929    -3962    -3980    -3975 
   -3970    -3970    -3979    -4012    -4063    -4097    -4104    -4099 
   -4090    -4070    -4062    -4079    -4089    -4088    -4101    -4118 
   -4129    -4141    -4172    -4226    -4267    -4282    -4293    -4303 
   -4295    -4265    -4227    -4195    -4176    -4174    -4175    -4171 
   -4161    -4127    -4067    -4010    -3983    -3981    -4014    -4099 
   -4185    -4211    -4205    -4215    -4226    -4229    -4256    -4311 
   -4359    -4399    -4440    -4458    -4467    -4510    -4580    -4632 
   -4668    -4708    -4745    -4764    -4759    -4726    -4668    -4615 
   -4603    -4622    -4643    -4657    -4660    -4640    -4608    -4585 
   -4570    -4557    -4568    -4596    -4599    -4591    -4591    -4574 
   -4552    -4566    -4596    -4608    -4618    -4653    -4690    -4710 
   -4735    -4757    -4746    -4724    -4704    -4646    -4546    -4460 
   -4414    -4381    -4364    -4391    -4436    -4450    -4435    -4393 
   -4303    -4183    -4086    -4032    -3994    -3964    -3941    -3899 
   -3830    -3761    -3712    -3671    -3645    -3642    -3637    -3602 
   -3555    -3517    -3480    -3442    -3430    -3433    -3422    -3414 
   -3421    -3418    -3395    -3373    -3372    -3389    -3418    -3448 
   -3471    -3507    -3567    -3614    -3624    -3620    -3618    -3599 
   -3573    -3562    -3580    -3620    -3661    -3679    -3663    -3635 
   -3622    -3608    -3584    -3594    -3629    -3633    -3619    -3629 
   -3648    -3660    -3670    -3676    -3663    -3631    -3600    -3556 
   -3481    -3413    -3383    -3354    -3316    -3295    -3275    -3227 
   -3171    -3126    -3077    -3025    -2998    -2990    -2983    -2995 
   -3019    -3032    -3043    -3055    -3058    -3062    -3086    -3136 
   -3189    -3209    -3207    -3197    -3172    -3166    -3201    -3227 
   -3220    -3210    -3203    -3194    -3193    -3203    -3210    -3200 
   -3187    -3181    -3166    -3156    -3167    -3169    -3159    -3161 
   -3161    -3144    -3133    -3141    -3149    -3151    -3170    -3206 
   -3239    -3275    -3318    -3362    -3405    -3455    -3509    -3546 
   -3575    -3604    -3603    -3580    -3580    -3604    -3621    -3625 
   -3639    -3655    -3654    -3651    -3649    -3626    -3607    -3638 
   -3701    -3753    -3799    -3843    -3860    -3858    -3875    -3919 
   -3974    -4047    -4130    -4182    -4202    -4222    -4246    -4256 
   -4253    -4266    -4294    -4335    -4396    -4456    -4496    -4527 
   -4543    -4526    -4500    -4520    -4576    -4624    -4677    -4747 
   -4798    -4830    -4869    -4913    -4943    -4953    -4963    -4972 
   -4975    -4998    -5036    -5071    -5128    -5227    -5329    -5406 
   -5471    -5521    -5540    -5545    -5563    -5594    -5634    -5682 
   -5710    -5693    -5648    -5596    -5549    -5521    -5523    -5538 
   -5539    -5545    -5586    -5632    -5662    -5704    -5765    -5815 
   -5849    -5894    -5930    -5927    -5923    -5946    -5966    -5976 
   -5996    -6028    -6050    -6056    -6051    -6014    -5955    -5922 
   -5912    -5894    -5870    -5862    -5856    -5838    -5824    -5801 
