Origin Time       2011/03/11 14:46:00
Lat.              38.103
Long.             142.860
Depth. (km)       24
Mag.              9.0
Station Code      HKD098
Station Lat.      42.4985
Station Long.     143.2790
Station Height(m) 81
Record Time       2011/03/11 14:47:58
Sampling Freq(Hz) 100Hz
Duration Time(s)  300
Dir.              N-S
Scale Factor      3920(gal)/6182761
Max. Acc. (gal)   31.512
Last Correction   2011/03/11 14:47:43
Memo.             
[...]
    4838     5094     4038     1990     -563    -3573    -6997   -10205 
  -12188   -12529   -11666    -9866    -7312    -5073    -4361    -5202 
   -6541    -7551    -8289    -8755    -8796    -8848    -9449   -10757 
  -12541   -14224   -15227   -15249   -14652   -13880   -12443    -9930 
   -7070    -4955    -3966    -3492    -2940    -2816    -3736    -5022 
   -5667    -5518    -4584    -3073    -1946    -1808    -2295    -2975 
   -3584    -3618    -2696    -1319     -427     -215     -416    -1145 
   -2260    -2906    -2611    -1704     -470      934     2029     2373 
    2140     1881     1818     1607      703    -1119    -3412    -5455 
   -7213    -9082   -10551   -10438    -8505    -5889    -4118    -3838 
   -4341    -4875    -5441    -5525    -4186    -1820      139      924 
     713      -61     -968    -1456    -1125     -308      253      253 
     -17     -184      -94      531     1728     2914     3728     4217 
    4477     4745     5161     5838     6956     8219     9174     9979 
   10972    11920    12065    10737     8160     5639     4466     4702 
    5354     5639     5705     5850     5715     5018     4032     2759 
     993    -1027    -2872    -4388    -6135    -8916   -12339   -15345 
  -17856   -20087   -21247   -20651   -19226   -18469   -18504   -18393 
  -17681   -16611   -15349   -14018   -13206   -13379   -14217   -15185 
  -15821   -15604   -14459   -13055   -12362   -12703   -13179   -12633 
  -10885    -8299    -5207    -2685    -1896    -2423    -3119    -3230 
   -2104      286     2908     4462     4613     4454     5185     6775 
    8274     8729     7749     5774     4022     3687     4626     5402 
    4867     3018      745     -948    -1927    -2661    -3227    -3564 
   -4033    -4835    -5552    -5895    -5998    -6002    -6304    -7381 
   -8986   -10350   -10825    -9999    -8082    -6150    -4980    -4201 
   -3220    -1844     -280      968     1681     1964     1900     1669 
    1458      976     -406    -2733    -5357    -7370    -7769    -6443 
   -4602    -3596    -3826    -4635    -5424    -6362    -7734    -9631 
  -11989   -14198   -15199   -14743   -14258   -15393   -18148   -21083 
  -22610   -22414   -21870   -22238   -23127   -23449   -23103   -22911 
  -22980   -22315   -20456   -18254   -16321   -13952   -10722    -7548 
   -5441    -4790    -5496    -6736    -7366    -6838    -5517    -4221 
   -3367    -2650    -1784    -1203    -1390    -1673     -604     2191 
    5476     7931     9190     9612     9760     9748     9227     8061 
    6692     5755     5174     4262     3002     2048     1418      561 
    -311     -391      329     1190     2139     3607     5214     6110 
    6432     6723     6943     7045     7125     7307     7879     8584 
    8597     7703     6419     5201     4197     3372     2615     1893 
    1115      -70    -1650    -2932    -3427    -3041    -1623      407 
    1650      912    -1673    -4824    -7144    -8352    -9290   -10658 
  -12556   -14914   -17340   -19155   -20255   -21076   -21886   -23062 
  -24975   -27218   -29315   -31417   -33507   -35357   -37005   -38310 
  -39132   -39838   -40677   -41429   -41760   -41423   -40638   -39787 
  -38503   -36218   -33175   -30198   -27836   -25758   -23140   -19742 
  -16116   -12792    -9994    -7869    -6284    -4866    -3406    -2122 
   -1570    -2272    -4529    -7837   -10767   -12411   -12951   -12970 
  -13119   -13449   -12935   -10637    -6883    -2528     1943     5966 
    8862    10462    11158    11655    12874    15042    16804    17064 
   16662    16117    14491    12126    10945    11606    13139    14319 
   14447    14211    14554    14937    14815    14775    15082    15144 
   14307    12761    11647    11450    11202     9900     7691     5577 
    4306     3603     2859     2257     2211     2095     1138        6 
     -74      876     1514      856     -353     -869     -913    -1671 
   -3443    -5103    -5710    -5733    -5732    -5564    -5585    -6382 
   -7530    -8358    -9110   -10198   -11216   -11586   -11456   -11257 
  -10995   -10538    -9950    -9339    -8983    -9246    -9833   -10041 
   -9728    -9130    -8582    -8708    -9855   -11733   -13804   -15355 
  -15671   -14792   -13507   -12429   -11574   -10430    -8590    -6659 
   -5350    -4161    -2459     -644      796     1959     2815     3096 
    2925     2753     2916     3251     3090     2345     1835     1966 
    2578     3610     4740     5504     5665     5056     3930     2691 
    1023    -1350    -3736    -5438    -6698    -7719    -7949    -7320 
   -6735    -6851    -7804    -9609   -11642   -12919   -13541   -14435 
  -15888   -17531   -18782   -18923   -17976   -16842   -15841   -14763 
  -14278   -15026   -16188   -16805   -16924   -16577   -15541   -14259 
  -13387   -12878   -12538   -12372   -11910   -10589    -8537    -6222 
   -4288    -3536    -3941    -4437    -4168    -3385    -2717    -2214 
   -1844    -1713    -1681    -1844    -2129    -1884    -1454    -2180 
   -4297    -6830    -8916   -10267   -11001   -11261   -11056   -10322 
   -9011    -7148    -4834    -2512     -704      899     3383     7246 
   10909    11696     9348     6480     5094     5136     5828     6484 
    6746     6298     4701     2657     1627     1616     1946     2833 
    3945     4156     3549     2851     1411    -1747    -5632    -8223 
   -9167    -9703   -10328   -10151    -8709    -6842    -5262    -3961 
   -3181    -3560    -5036    -6544    -7451    -8159    -9022    -9975 
  -11006   -12218   -13365   -14103   -15046   -17081   -19757   -21836 
  -22840   -23293   -23719   -23879   -23400   -22422   -21345   -20254 
  -18650   -16503   -14767   -13854   -13249   -12524   -11724   -11377 
  -11764   -12280   -12199   -11476   -10704   -10515   -10724   -10461 
   -9422    -7889    -6023    -4527    -4202    -4363    -4067    -3980 
   -5104    -6864    -7761    -7148    -5666    -4386    -3586    -2781 
   -1960    -1336     -466     1121     3192     5051     6395     7825 
    9902    12217    14065    15364    16585    18009    19224    19787 
   20180    21271    22992    24189    24008    23134    22636    22076 
   20394    17688    14911    12777    11263     9843     8384     7345 
    6534     4956     2551      427     -929    -2149    -3761    -5644 
   -7471    -8739    -8881    -7969    -6546    -4917    -3454    -2642 
   -2166    -1245      134     1589     3176     4807     5744     5481 
    4602     3926     3098     1251    -1194    -2935    -3489    -3226 
   -2589    -1969    -1835    -2673    -4410    -6434    -8544   -10859 
  -13183   -15355   -17222   -18378   -18799   -18727   -18278   -18010 
  -18236   -17787   -15341   -11290    -7133    -3856    -1622      -94 
    1629     4220     7044     8848     9074     8085     6629     5098 
    3405     1667      274     -880    -2310    -4114    -5968    -7862 
  -10455   -14034   -17211   -18304   -17602   -16738   -16947   -18346 
  -20184   -21781   -22815   -23122   -22762   -22088   -21695   -21810 
  -21803   -20882   -18989   -16481   -13641   -11135    -9800    -9655 
   -9933   -10180   -10962   -12694   -14302   -14664   -14074   -13066 
  -11650   -10053    -8516    -6910    -5444    -4411    -3208     -984 
    2257     5806     9019    11922    14814    17404    19390    21138 
   22648    23336    23218    22904    22791    22481    21128    19004 
   17292    16006    14035    11223     8699     7015     5529     3647 
    1424     -521    -1324    -1022     -941    -2079    -4128    -6611 
   -9430   -11895   -12816   -12106   -10897    -9807    -8594    -7457 
   -7111    -7704    -8529    -8817    -8772    -9409   -10984   -12508 
  -13426   -14414   -16013   -17883   -19833   -22254   -25016   -27340 
  -29307   -31568   -33550   -34296   -34197   -34140   -34168   -33841 
  -33248   -33061   -33561   -34113   -33762   -32196   -30057   -28223 
  -26941   -25829   -24514   -23082   -21859   -20853   -19986   -19436 
  -18980   -18125   -16977   -15694   -13918   -11565    -9274    -7633 
   -6546    -5948    -5922    -5756    -4397    -1650     1753     4889 
    7265     8706     9150     9080     9457    10685    12398    14099 
   15109    14894    13883    12936    12653    13189    13818    13754 
   13031    11656     9652     7710     6301     5249     4409     3656 
    2660     1123    -1005    -3518    -6038    -8231   -10149   -12113 
  -14304   -16855   -19748   -22502   -24683   -26392   -28010   -29738 
  -31094   -31021   -29108   -26403   -24164   -22397   -20797   -19744 
  -19016   -17310   -13927    -9582    -5649    -3198    -2305    -2145 
   -1693     -459     1378     3767     6813     9569    10491     9679 
    9038     9833    11632    13799    16338    19026    21596    24312 
   26876    28417    29207    30342    31804    32655    32906    33416 
   34387    35348    35931    36285    36816    37562    38431    39294 
   39530    38763    37519    36604    36421    36382    35149    32060 
   27906    24108    21346    19217    17141    14994    12707    10011 
    6958     4031     1419    -1126    -3683    -6221    -8876   -11591 
  -14088   -16108   -17480   -18389   -19111   -19671   -20203   -20894 
  -21582   -21893   -21839   -21947   -22544   -23467   -24507   -25501 
  -26127   -26120   -25548   -24732   -23881   -22606   -20415   -17952 
  -16548   -16754   -18222   -20137   -21462   -21890   -22043   -22209 
  -22127   -21661   -20805   -19660   -18535   -17642   -16993   -16702 
  -16867   -17346   -18370   -20559   -23552   -25942   -27046   -27447 
  -27942   -28780   -29500   -29480   -29007   -28985   -29547   -30052 
  -30011   -29374   -28591   -28087   -27712   -27271   -26750   -26026 
  -25259   -24985   -25211   -25309   -25088   -24781   -24327   -23798 
  -23447   -23101   -22545   -21899   -21295   -20829   -20565   -20147 
  -19046   -17462   -16097   -15188   -14587   -14175   -13913   -13806 
  -13664   -13306   -13019   -13214   -13829   -14221   -13736   -12388 
  -10571    -8695    -7344    -6736    -6336    -5415    -3544    -1012 
    1434     3693     6098     8317     9803    10791    11632    12042 
   11885    11655    11903    12813    14029    14864    14995    14644 
   14253    14157    14383    15068    16484    18131    19003    18873 
   18520    18719    19499    20672    22347    24522    26744    28354 
   29255    30051    30814    30748    29489    27457    24973    22205 
   19611    17515    15746    14030    12072     9770     7354     4624 
    1298    -1930    -4314    -6076    -7707    -9414   -11189   -12778 
  -14006   -14976   -15591   -15733   -15746   -15885   -16067   -16263 
  -16585   -17401   -18988   -20820   -22059   -22754   -23705   -25349 
  -27335   -28974   -29931   -30441   -30723   -30851   -31127   -31660 
  -32309   -33302   -34621   -35540   -35742   -35609   -35477   -35308 
  -34740   -33579   -32113   -30503   -28545   -26186   -23609   -20847 
  -17787   -14496   -11156    -7871    -4875    -2533     -926      242 
    1371     2501     3249     3649     4559     6779    10093    13348 
   15585    16840    17546    17865    18066    18753    19841    20219 
   19358    17817    16140    14951    14850    15196    14954    14203 
   13222    12124    11626    11991    12377    12069    10747     8263 
    5389     3441     2499     1228    -1252    -4368    -6951    -8268 
   -8361    -7817    -7211    -6798    -6568    -6319    -5866    -5221 
   -4415    -3525    -2925    -2821    -2788    -2301    -1354     -442 
    -226     -833    -1460    -1443    -1017     -374      645     1801 
    2490     2593     2605     2674     2532     2125     1199     -660 
   -2964    -4647    -5260    -4931    -3972    -2961    -2428    -2358 
   -2328    -1978    -1236     -196     1182     3052     5013     6158 
    6313     6286     6721     7758     9434    11385    12902    13447 
   12739    11336    10476    10500    10872    11416    12075    12359 
   12145    12222    13215    14664    15763    16232    15786    13942 
   11122     8498     6568     5073     3681     2004     -404    -3594 
   -7049   -10233   -12945   -14915   -15987   -16540   -16823   -16833 
  -16911   -17222   -17433   -17846   -19347   -21751   -24014   -25925 
  -27699   -29044   -29762   -29872   -29557   -29485   -30060   -30804 
  -30919   -29883   -27668   -24785   -22193   -20727   -20453   -20943 
  -21784   -22635   -23342   -23867   -24033   -23871   -23792   -24167 
  -25004   -25853   -26159   -25741   -24752   -23448   -22032   -20729 
  -19893   -19624   -19557   -19175   -18274   -17249   -16875   -17591 
  -18986   -20124   -20276   -19378   -18076   -17094   -16410   -15522 
  -14378   -13013   -10779    -7392    -3933    -1650     -400     1107 
    3618     6397     8431     9893    11606    13867    16388    18750 
   20803    22889    25274    27694    29911    31917    33471    34404 
   35092    35795    36069    35610    35036    35129    35826    36521 
   36988    37297    37188    36527    35903    35628    35267    34739 
   34241    33545    32586    31365    29063    25117    20641    16912 
   13763    10639     7539     4667     2062     -353    -2287    -3240 
   -3505    -3883    -4573    -5382    -6300    -7139    -7517    -7726 
   -8657   -10637   -13229   -15983   -18631   -21000   -23164   -25207 
  -27173   -29398   -31906   -34095   -35725   -36998   -38059   -39287 
  -40958   -42542   -43337   -43395   -43180   -42916   -42811   -43436 
  -45244   -47885   -50503   -52530   -53795   -54185   -53734   -52679 
  -51096   -49004   -46767   -44654   -42523   -40333   -38239   -36102 
  -33277   -29279   -24671   -20523   -17237   -14601   -12413   -10573 
   -8819    -6962    -5268    -3897    -2452     -592     1401     2870 
    3437     3407     3429     3841     4794     6550     8847    10772 
   11835    12257    12324    12295    12585    13376    14196    14337 
   13645    12500    11242     9956     8597     7363     6813     7089 
    7506     7422     6897     6421     6509     7496     9307    11185 
   12153    12071    11622    11391    11560    12110    13040    14470 
   16210    17546    17948    17432    16175    14529    12983    11621 
   10222     8974     8282     7964     7402     6324     4897     3164 
    1112     -839    -2143    -2594    -2446    -2467    -3341    -4982 
   -6825    -8433    -9689   -10726   -11827   -13120   -14316   -15166 
  -15876   -16699   -17648   -18715   -19856   -20874   -21504   -21628 
  -21343   -20809   -20297   -20262   -20934   -21972   -22791   -23104 
  -22810   -21771   -20160   -18412   -16748   -15399   -14712   -14419 
  -13737   -12335   -10477    -8637    -7134    -5849    -4597    -3431 
   -2405    -1512     -763     -139      343      646      980     1751 
    3095     4791     6501     7856     8664     8954     8674     7960 
    7477     7560     7597     7208     6996     7318     7677     7684 
    7397     6920     6178     4997     3490     2022      685     -725 
   -2216    -3787    -5791    -8141   -10063   -11357   -12548   -13754 
  -14724   -15692   -16820   -17504   -17412   -16967   -16194   -14709 
  -12946   -11965   -11921   -11805   -10860    -9224    -7353    -5650 
   -4388    -3580    -2959    -2331    -1966    -2336    -3662    -5796 
   -8398   -11202   -13746   -15292   -15650   -15518   -15787   -16633 
  -17503   -18100   -18497   -18672   -18876   -19234   -18825   -16759 
  -13789   -11447   -10109    -9261    -8780    -8532    -7746    -5561 
   -1814     2376     5302     6696     7979     9995    12120    13898 
   15805    17988    19771    20784    21319    21799    22502    23072 
   22877    22280    22073    21962    21310    20386    19474    18332 
   17164    16395    15657    14290    12235     9862     7466     5109 
    2905     1503     1464     2191     2586     2548     2679     2840 
    2403     1477      575     -176     -811    -1508    -2644    -4399 
   -6811    -9820   -12892   -15057   -15740   -15863   -17086   -19694 
  -22664   -25347   -27769   -29720   -30816   -31469   -32500   -34066 
  -35771   -37128   -37933   -38601   -39432   -39898   -39645   -39103 
  -38295   -36519   -33570   -30286   -27784   -26250   -24787   -22737 
  -20224   -17496   -14734   -12333   -10717    -9804    -9035    -7685 
   -5390    -2820     -931      269     1119     1471     1115      240 
    -708    -1624    -3009    -5085    -7259    -9026   -10562   -12226 
  -13985   -15222   -15486   -15247   -15015   -14677   -14222   -13931 
  -13997   -14196   -13997   -13445   -13052   -12671   -11811   -10702 
   -9875    -9261    -8445    -7244    -5665    -3948    -2724    -2442 
   -2751    -2901    -2614    -2259    -2247    -2623    -3105    -3180 
   -2623    -2091    -2338    -3085    -3575    -3719    -4088    -4908 
   -5293    -4232    -2202     -516      667     1868     2730     3080 
    3860     5693     8434    11637    14367    15863    16148    15560 
   14531    13519    12791    12296    11513     9825     7238     4810 
    3923     4397     4492     3316     1716      657      126     -192 
    -324     -111      411      901     1496     2567     3777     4875 
    6216     7973     9946    11944    13961    16012    18091    20213 
   22195    23781    24916    25564    25642    25267    24583    23509 
   22127    20657    18779    16150    13448    11564    10454     9811 
    9488     9012     8135     7232     6368     5230     4026     3207 
    2667     1904      728     -376     -901    -1230    -1857    -2270 
   -2068    -2006    -2850    -4300    -5508    -6072    -6201    -6221 
   -6250    -5991    -5346    -4977    -5222    -5555    -5474    -4985 
   -4554    -4754    -5866    -7889   -10454   -12906   -14721   -15803 
  -16472   -17008   -17502   -18257   -19753   -22064   -24515   -26251 
  -27182   -27735   -27829   -27416   -27632   -29435   -31944   -34016 
  -35864   -37830   -39399   -40059   -39933   -39488   -38995   -38139 
  -36390   -34107   -32454   -31646   -30904   -30106   -29606   -29393 
  -29238   -28837   -28123   -27325   -26349   -24722   -22485   -20240 
  -18228   -16474   -15036   -13207    -9825    -5133    -1014     1329 
    2500     3310     3680     3426     2880     2254     1197     -287 
   -1277    -1257     -882     -797     -722      -60     1057     1849 
    1766      814     -562    -1766    -2301    -1925     -980     -133 
     487     1227     2282     3846     6005     8207     9634     9874 
    9191     8459     8457     9005     9350     9391     9500     9434 
    8670     7306     6114     5953     6802     7718     8091     8121 
    8217     8777    10064    11671    12842    13653    14877    16782 
   19079    21486    23621    24951    25228    24711    23882    22926 
   21622    20038    18974    19031    19894    20889    21380    21026 
   20079    18929    17766    16855    16227    15140    12711     8785 
    3811    -1213    -5022    -7242    -8478    -9308   -10254   -11928 
  -14275   -16591   -18477   -19905   -20824   -21464   -22329   -23512 
  -24680   -25573   -25998   -25772   -25041   -24297   -23871   -23568 
  -23101   -22708   -22766   -23208   -24046   -25742   -28367   -31057 
  -32799   -33173   -32336   -30788   -29022   -27394   -26162   -25268 
  -24385   -23104   -21275   -19427   -18126   -17204   -16234   -15077 
