Origin Time       2011/03/11 14:46:00
Lat.              38.103
Long.             142.860
Depth. (km)       24
Mag.              9.0
Station Code      HKD098
Station Lat.      42.4985
Station Long.     143.2790
Station Height(m) 81
Record Time       2011/03/11 14:47:58
Sampling Freq(Hz) 100Hz
Duration Time(s)  300
Dir.              E-W
Scale Factor      3920(gal)/6182761
Max. Acc. (gal)   34.117
Last Correction   2011/03/11 14:47:43
Memo.             
[...]
   -8408    -6663    -3391       76     2580     4111     4935     4890 
    4127     3451     3434     4082     5380     7300     9282    10589 
   11169    11488    11665    11532    11204    10727     9936     8878 
    7611     6425     5986     6300     6888     7937     9874    12584 
   15714    18808    21090    21866    21154    19798    18710    18097 
   17884    18377    19860    21543    22016    21238    20437    19981 
   19328    18711    18697    18524    16971    14172    11233     9046 
    7908     7652     8025     8677     8985     8886     9094     9706 
   10113    10491    11713    13664    15102    15671    16369    17786 
   19436    20609    20960    20471    19401    18382    17815    17049 
   15322    13448    12876    13708    15308    17309    19093    20143 
   20620    20848    20916    20506    19495    18565    17997    17120 
   15737    14635    14529    15224    15983    16507    17214    18609 
   20777    23492    26336    28795    30898    32904    34243    34622 
   35152    36693    38581    39763    39959    39265    37698    35652 
   33896    32679    31560    30141    28182    25529    22412    19264 
   16603    14981    14576    14979    15365    15182    14641    14260 
   14246    14397    14367    13831    12545    10701     8839     7265 
    6259     6070     6167     5861     5379     5146     4920     4364 
    3401     1915      -31    -2220    -4376    -5893    -6544    -6660 
   -6357    -5708    -4595    -2788    -1052     -153      697     2211 
    3364     3173     2513     2424     2020      190    -1668    -1180 
    1725     5293     8561    11768    14662    16322    17043    18023 
   19105    19076    18007    17430    17953    18806    19829    21311 
   22580    22899    22611    22588    23341    24801    26831    29237 
   31158    31789    31427    30867    30548    30516    30708    31095 
   31239    30481    29128    27984    27152    26572    26067    24906 
   22816    20351    18140    16524    15287    13835    11977    10207 
    9069     8431     7914     7618     7691     8044     8889    10613 
   13093    15554    16976    16987    16586    17153    18594    19681 
   20156    21005    22471    23234    22399    20740    19027    17004 
   14528    12107    10188     8796     7840     7161     6459     5689 
    5060     4306     2923     1194     -110     -701    -1071    -2008 
   -3499    -4753    -5256    -4955    -3826    -1733      899     2921 
    4058     5531     8426    12377    16316    19890    22934    24732 
   25333    26067    27790    29666    30398    30158    30170    30933 
   31922    32302    31709    30744    30227    30077    29642    28619 
   26999    24966    23217    22302    22030    22004    21647    20376 
   18444    16310    13777    10914     8371     6208     3921     1673 
     189     -238      -71     -253    -1110    -1582     -544     1737 
    4332     6833     8896     9867     9944    10343    11626    13395 
   15381    17272    18396    18409    17548    16431    15800    16088 
   17228    18510    18979    18610    18214    18085    17771    17116 
   16753    17128    17739    18015    18120    18504    19346    20459 
   21000    19762    16910    14478    13985    14847    15797    16290 
   15946    14394    12152    10134     8549     6958     4855     2260 
    -139    -1560    -1788    -1286     -664       56     1337     3173 
    5071     7033     9488    12452    15338    17469    18822    20062 
   21805    24511    28203    31682    33798    34850    35543    36134 
   36574    36827    37247    37861    37675    35772    32623    29612 
   27489    25855    24057    22166    20719    19789    19044    18260 
   17531    17322    17939    19035    20018    20498    20363    19867 
   19503    19448    19161    17922    15798    13516    11608    10107 
    8781     7830     7937     9198    10980    12668    13942    14957 
   15731    15523    14319    13417    13438    13706    13592    13196 
   13072    13268    12832    11392    10097     9778     9980    10206 
   10427    10787    11331    11675    11420    10670     9807     9163 
    8663     8190     8346     9531    11057    12381    13621    14584 
   14950    14875    14955    16065    18334    20420    21125    20637 
   19532    18226    17154    16491    16343    16981    18423    20144 
   21452    22233    22779    22941    22466    21782    21544    21789 
   22110    22367    22666    22820    22380    21166    19712    18985 
   19293    19890    19993    19656    19308    19005    18599    17962 
   17028    16128    15666    15357    14811    14545    15267    16576 
   17266    16730    15562    14655    14007    12950    11426    10042 
    9199     9006     9416     9989    10006     9131     7921     7509 
    8354     9592    10124     9582     8184     6559     5310     4414 
    3560     2940     3080     4064     5367     6439     7225     7705 
    7497     6525     5117     3398     1814     1361     1978     2310 
    2109     2650     4346     6060     6882     7163     7709     8733 
    9976    11394    12816    13572    13395    12752    12097    11738 
   12180    13856    16265    17984    18282    18200    19076    20593 
   21573    21752    21531    20925    19593    17592    15634    14123 
   12510    10355     8070     6174     4736     3546     2681     2956 
    4976     7907    10232    11261    11704    12900    14940    16514 
   17006    17118    17696    18903    20352    21895    23554    24623 
   24061    21967    19679    17951    16131    13945    12336    11676 
   11288    11036    11456    12476    13307    13633    14173    15439 
   16766    17465    17588    17266    16571    15719    15089    15081 
   15447    15726    16270    17295    18120    18140    17216    15595 
   13749    11944    10321     8677     6436     3808     1821      834 
     182     -689    -1463    -1563    -1066     -436      319     1537 
    3102     4417     5032     5093     5251     5860     6673     7420 
    7738     7336     6527     5315     3245      968     -202     -217 
     -59     -222     -428     -212      597     2069     4454     7370 
    9663    10961    12061    13599    15553    17718    19880    21753 
   23001    23487    23766    24660    26006    26933    27309    27360 
   26917    26472    27011    28714    30970    32619    32820    32191 
   31629    31208    30979    30761    29962    28588    26794    24383 
   21608    19126    17296    15751    13949    12387    11833    11622 
   10824    10335    11461    13738    15818    16870    16816    15988 
   14407    12410    11430    12268    13909    15149    15839    16175 
   16068    15484    14653    13742    12994    12950    13606    14143 
   13924    12810    11034     9146     7502     6303     5921     6518 
    8021    10176    12189    13543    14685    15805    16449    16592 
   16584    16354    15428    13482    10830     8129     5704     3911 
    3402     4188     5741     7825     9977    11483    12303    13005 
   14187    15827    17271    18539    20415    22910    25313    27545 
   29961    32220    33648    34471    35622    37187    38206    38409 
   38469    38412    37632    36263    35173    34537    33335    31039 
   28675    27459    27676    29098    31227    33048    33819    34045 
   34660    35760    36769    37313    37307    36552    35250    34164 
   33684    33797    34295    34396    33458    31930    30511    29102 
   27614    26592    26013    25120    23765    22304    20941    19659 
   17853    15153    12656    11697    12101    12670    12438    11088 
    8992     6651     4126     1873      888     1297     2265     3083 
    3494     3408     2776     1818      862     -233    -1667    -2975 
   -3619    -3729    -3553    -2875    -1657     -499      120      308 
     190     -213     -599     -792     -906     -840     -696    -1069 
   -2220    -3805    -5405    -6905    -8393    -9780   -10816   -11544 
  -11937   -11513   -10234    -8887    -8146    -7725    -6848    -5669 
   -5050    -4844    -3887    -1670     1060     3372     5215     6971 
    8517     9818    11513    13956    16769    19405    21352    22095 
   21578    20663    20517    21467    22850    23988    24509    24126 
   23213    22718    23073    23840    24093    23127    21278    19639 
   18734    18155    17509    16887    16426    15777    14305    12146 
   10079     7879     4641      826    -2267    -4465    -6023    -6401 
   -5644    -5071    -5255    -5239    -4270    -2689    -1127      240 
    1594     3007     4473     6149     7970     9420    10062    10157 
   10444    11334    12690    13913    14420    14735    15818    17091 
   17406    17234    17499    17868    17841    17797    18301    19343 
   20572    21756    22590    22683    22240    22167    23160    25175 
   27737    30179    31787    31991    30862    29431    28886    29587 
   30910    31890    31934    30721    28215    25100    22351    20358 
   18746    16630    13470    10186     8289     8022     8768    10183 
   11714    12477    12099    10716     8630     6765     6305     7088 
    7780     7899     7967     8150     8287     8687     9854    11523 
   12781    13257    13413    13899    15192    17492    20435    22942 
   24167    24440    24474    24480    24372    23976    23284    22550 
   21912    21397    21029    20718    20610    21218    22595    24122 
   25508    27020    28650    29910    30446    30423    30247    30275 
   30621    30947    30805    29992    28479    26487    24388    22453 
   20835    19548    18343    16691    14307    11600     9157     7235 
    5738     4530     3821     3542     2797     1169     -529    -1708 
   -2727    -3863    -4827    -5040    -4140    -2795    -2221    -2577 
   -2965    -2828    -2451    -2043    -1183      369     2136     3626 
    5145     7449    10667    13913    16166    17364    18143    19000 
   19971    20598    20479    19590    18076    16625    16107    16571 
   17616    18966    20267    21222    21889    22387    22621    22362 
   21534    20642    20593    21884    24065    26270    27950    28781 
   28718    28066    27119    26044    24743    22840    20240    17397 
   14801    12388     9792     6961     4086     1379     -660    -1504 
   -1416    -1252    -1337    -1211     -366     1336     3605     5928 
    7971     9517    10535    11520    12886    14475    15871    16676 
   17082    17867    19345    21068    22741    24615    26641    28333 
   29642    30869    32151    33366    34202    34662    35026    34992 
   34002    32285    30686    29700    28855    27199    24345    20615 
   16609    13252    11454    10943    10283     8584     6142     3255 
    -237    -4149    -7622   -10106   -12348   -15450   -19289   -22735 
  -25110   -26920   -28734   -30202   -31059   -31799   -32870   -34134 
  -35215   -36140   -37003   -37284   -36528   -35068   -33589   -32626 
  -32178   -31592   -30090   -27347   -23671   -19631   -15557   -11941 
   -9511    -8180    -7024    -5176    -2290     1232     4686     7737 
   10070    11248    11666    12374    13716    15211    16527    18036 
   20247    23152    26556    30105    33140    35592    38167    41303 
   44660    47385    49082    50347    51492    51985    51671    51016 
   50343    49708    49237    48961    48459    47394    45957    44341 
   42474    40279    37812    35187    32286    28910    25469    22546 
   19750    16349    12640     9475     7216     5823     5028     4366 
    3431     1840     -496    -2975    -5231    -7715   -10528   -13090 
  -15072   -16371   -16900   -16798   -16012   -14399   -12456   -10542 
   -8024    -4479     -700     2308     4601     7138    10449    14008 
   17174    19981    22607    25062    27577    30519    34157    38464 
   42757    46104    48241    49611    50610    51346    51916    52389 
   52743    52874    52500    51175    48866    46294    44055    42121 
   40238    38018    35378    32817    30445    27933    25521    23561 
   21765    19787    17774    16207    15407    15212    15153    14619 
   13220    11428    10206     9627     8964     8318     8456     9408 
   10603    11473    11840    12353    13541    14853    15635    15870 
   15739    15595    15825    16399    17060    17670    18159    18497 
   18856    19408    19955    20168    20131    20212    20533    20829 
   20888    20882    20767    20357    20260    20882    21498    21547 
   21377    21539    21958    22097    21843    21457    20927    19972 
   18584    17371    16931    16862    16549    16471    16976    17219 
   16771    16273    16024    15567    14564    13235    11804    10061 
    7908     5832     4595     4522     4996     5200     4855     3931 
    2743     1811     1147      564       19     -758    -2097    -3908 
   -5760    -7196    -8037    -8676    -9722   -11237   -12831   -14144 
  -14850   -14702   -13565   -11649    -9622    -7622    -5165    -2253 
     704     3267     5183     6762     8291     9790    11541    13875 
   16597    19013    20549    21330    22011    23241    25216    27628 
   30129    32527    34648    36386    37969    39896    42200    44126 
   45043    45225    45261    45140    44689    44288    44271    44317 
   43879    42830    41425    39578    36746    32657    27686    22745 
   18629    15125    11470     7527     3600     -262    -4037    -7503 
  -10671   -13690   -16534   -19391   -22537   -25738   -28543   -30799 
  -32688   -34624   -36799   -38693   -39688   -39650   -38523   -36522 
  -34222   -31805   -29229   -26640   -23988   -21021   -17753   -14614 
  -12049    -9869    -7317    -4049     -473     3064     6622    10163 
   13492    16457    18922    20855    22317    23325    23939    24367 
   24878    25516    26053    26423    26776    27133    27253    26913 
   26505    26798    27870    29024    29824    30519    31270    32022 
   33175    35116    37493    39679    41370    42821    44636    46905 
   48811    49723    49997    50060    49916    49734    49784    50330 
   51467    52537    52801    52201    51008    49830    49394    49635 
   49647    48714    46951    44786    42471    40256    38350    36781 
   35226    33276    31278    30008    29441    28888    28061    27194 
   26313    25096    23566    22270    21609    21327    20659    19083 
   16813    14449    12536    11264    10305     9457     8892     8310 
    7257     6135     5541     5325     4911     4009     2697      985 
    -952    -2283    -2223     -976      482     1384     1610     1174 
     -84    -1907    -3524    -4447    -4803    -5204    -6254    -7724 
   -8801    -8942    -7909    -5684    -2682      275     2562     4564 
    7030     9686    11987    14184    16400    18284    19852    21407 
   23127    25134    27439    29950    32192    33163    32666    31743 
   30923    29575    27218    24406    21949    19881    17842    15927 
   14499    13336    11728     9427     6814     4609     3525     3644 
    4490     5652     6720     7077     6433     5168     3849     2902 
    2419     1982     1195      355      -43     -220     -776    -1718 
   -2424    -2485    -2348    -2615    -3133    -3505    -3694    -3685 
   -3377    -2892    -2352    -1876    -1953    -2752    -3572    -3815 
   -3706    -3688    -3842    -3969    -3846    -3465    -3062    -2719 
   -2248    -1589     -798      165     1251     2470     4049     5941 
    7668     8897     9892    11198    13024    15179    17163    18388 
   18916    19672    21193    22827    24022    25095    26112    26506 
   26103    25697    26269    27732    29187    30028    29986    29099 
   27992    27296    26848    25701    23264    20167    17337    15055 
   13325    12271    11938    11900    11631    11342    11472    11623 
   11254    10764    10744    10967    10919    10607    10439    10416 
    9922     8849     8106     8305     8834     8949     8985     9501 
   10030     9759     8875     8040     7125     6035     5442     5583 
    6096     6866     7918     9157    10451    11654    12746    13833 
   14681    14868    14409    13481    12133    10691     9786     9593 
    9516     8996     8089     7238     6908     7097     7446     7875 
    8629     9694    10595    11162    11852    13271    15603    17901 
   19155    19790    20305    20344    19855    19296    19033    19078 
   19247    19665    20360    20754    20586    20391    20803    21965 
   23436    24859    26319    27696    28822    29962    31213    32194 
   32694    33056    33760    34887    36241    37890    39902    41507 
   41474    39503    36546    33770    31809    30663    29841    28971 
   27893    26448    24921    23786    23158    23269    24308    25621 
   26419    26732    27046    27846    29087    29859    29531    28507 
   27379    26404    25762    25741    26406    27259    27829    28066 
   28070    28225    28748    29080    28738    27699    25899    23663 
   21622    19779    17863    16053    14673    13719    12798    11631 
   10224     8418     6026     3174      193    -2450    -4374    -5482 
   -5882    -5951    -6391    -7669    -9436   -11025   -12214   -13032 
  -13382   -13258   -13036   -12946   -12440   -10980    -8625    -5558 
   -2442     -262     1019     1884     2386     2983     4114     5535 
    6925     7740     7719     7812     8981    11191    13932    16563 
   18494    19501    19843    19959    19951    19754    19814    20410 
   20724    20082    19072    18669    19146    19838    19941    19441 
   18877    18456    17851    16990    16240    15769    15555    15406 
   15026    14574    14294    14073    13852    13575    13019    12037 
   10596     8926     7629     7003     6556     5519     3739     1946 
     688     -294     -951     -724      263     1233     1782     2039 
    2332     2931     3897     5161     6388     7039     7198     7644 
    8615     9565    10471    12118    14673    17198    19119    20928 
   23120    25405    27241    28895    31057    33303    34469    34492 
   34478    35074    35877    36496    37274    38400    39233    39399 
   39230    38534    36709    34008    31360    29335    27793    26286 
   24656    23122    21707    20124    18221    16192    14565    13446 
   12164    10633     9630     9522    10199    11747    14217    17107 
   19606    21342    22685    24091    25314    25960    26264    26507 
   26615    26476    26037    25381    24664    23573    21546    19070 
   17272    16040    14643    13414    12983    13418    14434    15200 
   15213    15041    15080    15197    15199    14719    13626    12260 
   10915     9381     7152     4564     2670     1569      615     -301 
   -1325    -3063    -5503    -7968   -10167   -12273   -14430   -16408 
  -17596   -17813   -17683   -17509   -16946   -16208   -15915   -15918 
  -15617   -14766   -13790   -13531   -14035   -14454   -14277   -13434 
  -12041   -10766   -10229   -10055    -9523    -8603    -7649    -6760 
   -5827    -4902    -4320    -4177    -3972    -3125    -1520      557 
    2655     4294     5306     6293     8202    10989    13564    15117 
   15600    15440    15248    15519    16460    17817    19065    19916 
   20644    21985    24119    26099    27123    27586    28299    29374 
   30250    30572    30887    31948    33449    34306    34040    33421 
