Origin Time       2011/03/11 14:46:00
Lat.              38.103
Long.             142.860
Depth. (km)       24
Mag.              9.0
Station Code      HKD035
Station Lat.      43.7704
Station Long.     142.9033
Station Height(m) 491
Record Time       2011/03/11 14:49:35
Sampling Freq(Hz) 100Hz
Duration Time(s)  89
Dir.              U-D
Scale Factor      3920(gal)/6182761
Max. Acc. (gal)   1.854
Last Correction   2011/03/11 14:49:20
Memo.             
[...]
    -710     -688     -659     -639     -650     -691     -743     -778 
    -790     -788     -771     -734     -697     -666     -634     -608 
    -606     -621     -628     -616     -597     -589     -590     -590 
    -597     -630     -677     -713     -740     -762     -771     -762 
    -752     -769     -798     -802     -805     -832     -858     -881 
    -921     -945     -938     -943     -966     -979     -984     -998 
   -1027    -1070    -1126    -1194    -1256    -1291    -1312    -1345 
   -1373    -1394    -1425    -1455    -1466    -1467    -1468    -1478 
   -1492    -1512    -1539    -1558    -1578    -1610    -1650    -1704 
   -1761    -1809    -1863    -1921    -1965    -2003    -2040    -2073 
   -2098    -2105    -2089    -2069    -2068    -2079    -2081    -2071 
   -2053    -2035    -2023    -2017    -2012    -2007    -2021    -2055 
   -2075    -2068    -2057    -2064    -2100    -2152    -2210    -2274 
   -2339    -2407    -2470    -2509    -2542    -2587    -2624    -2635 
   -2636    -2659    -2712    -2766    -2807    -2844    -2883    -2935 
   -2993    -3024    -3033    -3043    -3041    -3032    -3042    -3057 
   -3068    -3089    -3102    -3095    -3096    -3108    -3115    -3128 
   -3147    -3156    -3167    -3177    -3158    -3120    -3102    -3097 
   -3086    -3079    -3096    -3141    -3194    -3216    -3224    -3255 
   -3290    -3298    -3297    -3300    -3290    -3273    -3266    -3237 
   -3181    -3140    -3124    -3111    -3075    -3027    -3003    -2992 
   -2976    -2975    -2984    -2980    -2965    -2958    -2960    -2951 
   -2931    -2922    -2908    -2881    -2867    -2853    -2815    -2765 
   -2714    -2662    -2609    -2557    -2507    -2442    -2354    -2275 
   -2218    -2175    -2140    -2107    -2076    -2044    -1999    -1961 
   -1940    -1925    -1928    -1962    -1994    -2006    -2012    -2008 
   -1991    -1975    -1954    -1903    -1828    -1748    -1679    -1631 
   -1588    -1538    -1501    -1483    -1465    -1440    -1418    -1413 
   -1420    -1412    -1389    -1366    -1336    -1283    -1221    -1183 
   -1177    -1153    -1085    -1056    -1094    -1121    -1160    -1252 
   -1305    -1305    -1344    -1407    -1447    -1469    -1488    -1529 
   -1578    -1606    -1644    -1702    -1751    -1806    -1863    -1906 
   -1969    -2065    -2154    -2228    -2291    -2327    -2356    -2418 
   -2517    -2592    -2601    -2635    -2755    -2836    -2832    -2870 
   -2981    -3056    -3082    -3142    -3181    -3144    -3150    -3245 
   -3315    -3299    -3312    -3438    -3539    -3549    -3575    -3621 
   -3663    -3741    -3833    -3915    -3980    -4036    -4115    -4182 
   -4205    -4232    -4253    -4255    -4282    -4288    -4256    -4260 
   -4285    -4302    -4335    -4348    -4360    -4423    -4461    -4454 
   -4456    -4451    -4434    -4421    -4405    -4403    -4408    -4402 
   -4408    -4414    -4393    -4377    -4368    -4313    -4229    -4186 
   -4192    -4204    -4202    -4183    -4167    -4203    -4249    -4230 
   -4224    -4279    -4283    -4222    -4189    -4187    -4158    -4132 
   -4154    -4161    -4132    -4139    -4154    -4123    -4077    -4031 
   -4004    -4002    -3994    -3986    -3981    -3960    -3923    -3869 
   -3821    -3814    -3804    -3754    -3702    -3658    -3609    -3588 
   -3591    -3560    -3514    -3480    -3408    -3288    -3188    -3130 
   -3098    -3057    -2993    -2927    -2878    -2863    -2861    -2833 
   -2824    -2847    -2856    -2879    -2928    -2916    -2856    -2840 
   -2823    -2740    -2667    -2626    -2548    -2445    -2374    -2346 
   -2320    -2267    -2226    -2214    -2187    -2166    -2185    -2199 
   -2185    -2179    -2183    -2179    -2170    -2163    -2162    -2164 
   -2151    -2111    -2054    -1990    -1938    -1910    -1888    -1868 
   -1860    -1867    -1880    -1885    -1891    -1904    -1917    -1923 
   -1924    -1919    -1916    -1913    -1895    -1853    -1795    -1739 
   -1716    -1728    -1729    -1690    -1634    -1585    -1556    -1545 
   -1528    -1495    -1453    -1420    -1410    -1424    -1441    -1439 
   -1415    -1386    -1363    -1357    -1369    -1364    -1324    -1286 
   -1282    -1288    -1270    -1221    -1157    -1094    -1018     -930 
    -862     -821     -772     -713     -671     -639     -593     -555 
    -541     -526     -497     -476     -468     -462     -454     -445 
    -435     -428     -421     -396     -371     -385     -409     -406 
    -405     -432     -483     -545     -592     -615     -651     -726 
    -825     -906     -947     -988    -1067    -1164    -1246    -1289 
   -1312    -1344    -1374    -1398    -1425    -1444    -1470    -1507 
   -1520    -1528    -1560    -1581    -1593    -1611    -1617    -1613 
   -1610    -1605    -1607    -1623    -1652    -1688    -1711    -1718 
   -1728    -1743    -1759    -1777    -1794    -1811    -1830    -1844 
   -1841    -1833    -1843    -1865    -1888    -1909    -1927    -1954 
   -2002    -2060    -2094    -2117    -2164    -2236    -2293    -2318 
   -2328    -2351    -2408    -2475    -2515    -2556    -2627    -2681 
   -2695    -2706    -2730    -2755    -2782    -2814    -2837    -2848 
   -2869    -2902    -2930    -2948    -2969    -2990    -3001    -3007 
   -3019    -3040    -3066    -3086    -3103    -3106    -3084    -3063 
   -3071    -3076    -3039    -2978    -2930    -2899    -2875    -2840 
   -2790    -2737    -2683    -2637    -2602    -2546    -2485    -2452 
   -2433    -2422    -2399    -2336    -2262    -2217    -2190    -2156 
   -2130    -2126    -2099    -2043    -2004    -1985    -1956    -1916 
   -1878    -1851    -1834    -1812    -1779    -1751    -1732    -1716 
   -1715    -1746    -1783    -1800    -1812    -1850    -1899    -1929 
   -1958    -2001    -2037    -2063    -2105    -2150    -2181    -2203 
   -2219    -2221    -2212    -2198    -2171    -2139    -2121    -2108 
   -2071    -2025    -1996    -1975    -1952    -1925    -1880    -1822 
   -1771    -1728    -1680    -1628    -1580    -1535    -1490    -1456 
   -1436    -1411    -1388    -1383    -1380    -1367    -1366    -1373 
   -1378    -1394    -1413    -1417    -1430    -1456    -1457    -1441 
   -1432    -1417    -1396    -1384    -1376    -1360    -1352    -1369 
   -1386    -1382    -1371    -1366    -1352    -1337    -1328    -1308 
   -1288    -1298    -1314    -1305    -1301    -1319    -1327    -1317 
   -1314    -1311    -1288    -1268    -1256    -1221    -1177    -1164 
   -1184    -1211    -1247    -1289    -1316    -1327    -1348    -1380 
   -1397    -1394    -1381    -1359    -1340    -1326    -1302    -1269 
   -1239    -1210    -1176    -1138    -1098    -1053    -1014     -999 
   -1016    -1036    -1038    -1039    -1048    -1051    -1047    -1042 
   -1043    -1040    -1018     -985     -960     -943     -927     -907 
    -874     -839     -827     -833     -830     -807     -786     -796 
    -829     -860     -882     -899     -915     -925     -922     -922 
    -942     -963     -966     -967     -980    -1000    -1009     -998 
    -981     -961     -934     -913     -898     -874     -850     -836 
    -824     -804     -780     -760     -738     -702     -654     -624 
    -609     -582     -532     -481     -439     -401     -355     -291 
    -218     -160     -119      -82      -49      -13       35       88 
     127      159      192      214      224      241      269      295 
     310      325      343      356      361      370      383      393 
     394      387      369      337      295      259      248      254 
     248      230      221      221      215      206      188      154 
     111       68       25      -13      -37      -51      -69      -87 
    -101     -119     -146     -176     -220     -272     -313     -344 
    -376     -393     -394     -394     -395     -388     -369     -357 
    -352     -329     -290     -261     -239     -218     -204     -191 
    -170     -151     -141     -133     -118     -100      -92      -97 
    -110     -132     -156     -171     -189     -220     -258     -305 
    -368     -433     -492     -548     -599     -644     -690     -745 
    -793     -819     -842     -887     -945     -999    -1056    -1116 
   -1172    -1235    -1327    -1426    -1498    -1552    -1608    -1652 
   -1684    -1713    -1739    -1765    -1794    -1818    -1839    -1867 
   -1893    -1908    -1917    -1928    -1945    -1961    -1970    -1964 
   -1934    -1889    -1851    -1838    -1847    -1859    -1865    -1871 
   -1875    -1869    -1874    -1904    -1932    -1940    -1936    -1937 
   -1950    -1968    -1977    -1972    -1963    -1968    -1993    -2018 
   -2035    -2053    -2089    -2150    -2221    -2278    -2312    -2330 
   -2336    -2331    -2315    -2294    -2267    -2230    -2191    -2168 
   -2158    -2147    -2125    -2094    -2070    -2059    -2053    -2042 
   -2020    -1987    -1949    -1912    -1880    -1858    -1839    -1811 
   -1784    -1772    -1774    -1781    -1797    -1817    -1820    -1798 
   -1768    -1739    -1710    -1688    -1683    -1684    -1679    -1676 
   -1683    -1692    -1692    -1686    -1689    -1694    -1683    -1655 
   -1621    -1581    -1533    -1480    -1430    -1380    -1331    -1283 
   -1242    -1225    -1231    -1230    -1223    -1230    -1255    -1286 
   -1304    -1305    -1309    -1327    -1341    -1342    -1336    -1326 
   -1316    -1318    -1328    -1326    -1320    -1330    -1356    -1386 
   -1409    -1417    -1420    -1432    -1452    -1477    -1516    -1562 
   -1600    -1632    -1654    -1653    -1638    -1617    -1602    -1589 
   -1570    -1549    -1535    -1517    -1492    -1476    -1472    -1467 
   -1456    -1444    -1444    -1453    -1456    -1449    -1448    -1455 
   -1454    -1435    -1409    -1388    -1377    -1377    -1371    -1348 
   -1327    -1331    -1352    -1361    -1349    -1335    -1331    -1323 
   -1307    -1304    -1315    -1320    -1316    -1314    -1317    -1331 
   -1350    -1362    -1358    -1334    -1296    -1264    -1244    -1219 
   -1175    -1109    -1031     -953     -883     -834     -807     -784 
    -755     -723     -676     -607     -543     -507     -477     -429 
    -383     -353     -330     -318     -316     -300     -275     -264 
    -260     -238     -203     -168     -136     -111      -92      -82 
     -90     -107     -129     -157     -179     -195     -211     -232 
    -263     -299     -332     -367     -407     -452     -502     -555 
    -613     -672     -727     -771     -804     -830     -850     -873 
    -903     -930     -952     -968     -972     -973     -983     -990 
    -985     -978     -983     -987     -968     -947     -956     -988 
   -1018    -1047    -1081    -1110    -1123    -1121    -1098    -1054 
   -1013    -1000    -1004     -994     -967     -954     -967     -988 
   -1002    -1012    -1016    -1012    -1004     -991     -966     -936 
    -910     -873     -825     -776     -738     -711     -677     -627 
    -592     -583     -580     -574     -563     -546     -535     -526 
    -505     -474     -447     -424     -393     -345     -293     -252 
    -220     -190     -159     -128     -100      -88      -91      -85 
     -64      -35      -12        0        3       -7      -33      -63 
     -77      -79      -88     -102     -101      -93      -97      -97 
     -78      -63      -76     -106     -135     -159     -185     -214 
    -239     -266     -303     -332     -346     -357     -371     -388 
    -417     -456     -490     -520     -552     -579     -593     -604 
    -626     -655     -689     -731     -777     -821     -860     -899 
    -942     -991    -1036    -1076    -1115    -1156    -1195    -1223 
   -1241    -1261    -1284    -1303    -1315    -1316    -1307    -1292 
   -1279    -1286    -1303    -1319    -1337    -1357    -1370    -1380 
   -1389    -1396    -1402    -1408    -1411    -1408    -1411    -1414 
   -1403    -1386    -1373    -1354    -1316    -1272    -1246    -1233 
   -1214    -1192    -1177    -1163    -1146    -1127    -1109    -1091 
   -1070    -1046    -1015     -974     -929     -890     -864     -846 
    -827     -803     -780     -762     -753     -746     -729     -703 
    -681     -666     -646     -614     -588     -576     -566     -565 
    -591     -628     -662     -700     -732     -752     -771     -795 
    -822     -851     -882     -928     -989    -1036    -1065    -1098 
   -1134    -1161    -1178    -1190    -1196    -1199    -1205    -1208 
   -1196    -1178    -1172    -1181    -1190    -1191    -1191    -1184 
   -1168    -1144    -1118    -1106    -1113    -1112    -1100    -1105 
   -1136    -1173    -1204    -1225    -1229    -1213    -1187    -1170 
   -1165    -1165    -1166    -1157    -1135    -1111    -1103    -1109 
   -1110    -1099    -1095    -1111    -1123    -1122    -1122    -1119 
   -1102    -1073    -1035     -987     -929     -867     -805     -738 
    -666     -611     -573     -508     -424     -365     -331     -301 
    -255     -215     -225     -207     -111      -76     -122      -96 
       5       54       48      119      293      379      338      398 
     529      523      496      554      563      549      609      665 
     661      641      660      728      769      749      767      841 
     878      874      887      937      983      989      996     1016 
     998      987     1037     1073     1039     1019     1076     1136 
    1131     1132     1177     1172     1111     1083     1072     1048 
    1021      974      921      883      858      825      769      714 
     673      617      563      534      490      424      383      346 
     303      299      283      234      209      179      121       74 
      48       17      -43      -98     -129     -187     -257     -280 
    -281     -308     -357     -385     -391     -429     -489     -527 
    -565     -618     -654     -666     -700     -783     -875     -928 
    -979    -1072    -1168    -1232    -1303    -1397    -1471    -1527 
   -1616    -1740    -1832    -1876    -1935    -2008    -2043    -2070 
   -2108    -2114    -2109    -2122    -2118    -2096    -2080    -2089 
   -2108    -2101    -2086    -2089    -2086    -2084    -2105    -2131 
   -2154    -2160    -2134    -2124    -2134    -2110    -2081    -2095 
   -2105    -2074    -2054    -2060    -2046    -2011    -1982    -1964 
   -1947    -1941    -1965    -1983    -1968    -1979    -2028    -2020 
   -1961    -1968    -2039    -2045    -1912    -1818    -1981    -2095 
   -1899    -1845    -2028    -2011    -1915    -1960    -2012    -2018 
   -1995    -2025    -2128    -2111    -2036    -2115    -2169    -2093 
   -2130    -2217    -2162    -2126    -2171    -2167    -2163    -2201 
   -2225    -2248    -2276    -2257    -2208    -2192    -2204    -2202 
   -2202    -2204    -2182    -2184    -2223    -2207    -2139    -2128 
   -2157    -2138    -2082    -2031    -2017    -2002    -1901    -1817 
   -1834    -1817    -1754    -1737    -1713    -1664    -1646    -1658 
   -1693    -1714    -1691    -1705    -1767    -1786    -1775    -1775 
   -1765    -1765    -1786    -1782    -1764    -1768    -1755    -1696 
   -1653    -1674    -1695    -1641    -1586    -1603    -1594    -1529 
   -1525    -1549    -1495    -1424    -1406    -1429    -1457    -1446 
   -1454    -1504    -1511    -1523    -1583    -1583    -1550    -1562 
   -1576    -1597    -1622    -1577    -1514    -1514    -1518    -1493 
   -1476    -1459    -1450    -1455    -1422    -1378    -1398    -1432 
   -1418    -1394    -1393    -1416    -1407    -1335    -1294    -1303 
   -1274    -1238    -1263    -1284    -1272    -1293    -1339    -1360 
   -1362    -1382    -1443    -1496    -1495    -1491    -1521    -1545 
   -1565    -1604    -1617    -1585    -1564    -1586    -1615    -1623 
   -1634    -1668    -1697    -1721    -1763    -1790    -1791    -1796 
   -1820    -1861    -1905    -1952    -2002    -2029    -2057    -2106 
   -2140    -2173    -2236    -2282    -2288    -2300    -2344    -2422 
   -2485    -2480    -2472    -2532    -2601    -2643    -2697    -2759 
   -2796    -2836    -2920    -3010    -3058    -3090    -3145    -3206 
   -3242    -3266    -3307    -3351    -3367    -3351    -3337    -3352 
   -3351    -3289    -3227    -3216    -3200    -3154    -3105    -3075 
   -3054    -2998    -2916    -2862    -2820    -2778    -2760    -2766 
   -2772    -2758    -2733    -2736    -2741    -2714    -2701    -2724 
   -2746    -2757    -2757    -2737    -2704    -2676    -2663    -2649 
   -2619    -2599    -2595    -2581    -2560    -2575    -2626    -2658 
   -2665    -2679    -2690    -2681    -2675    -2690    -2703    -2690 
   -2670    -2667    -2666    -2647    -2642    -2683    -2737    -2755 
   -2755    -2785    -2834    -2859    -2886    -2947    -2992    -2989 
   -2989    -3017    -3038    -3045    -3062    -3084    -3087    -3083 
   -3092    -3098    -3078    -3033    -2995    -2989    -2987    -2971 
   -2963    -2968    -2957    -2919    -2892    -2894    -2874    -2825 
   -2796    -2777    -2733    -2682    -2662    -2666    -2650    -2633 
   -2651    -2668    -2670    -2702    -2754    -2794    -2826    -2857 
   -2885    -2907    -2928    -2931    -2903    -2878    -2892    -2921 
   -2939    -2955    -2973    -2995    -3037    -3097    -3136    -3144 
   -3166    -3226    -3270    -3280    -3327    -3418    -3469    -3485 
   -3534    -3608    -3661    -3705    -3764    -3798    -3794    -3804 
   -3823    -3822    -3825    -3850    -3881    -3903    -3910    -3914 
   -3928    -3935    -3922    -3897    -3871    -3850    -3822    -3783 
   -3764    -3756    -3718    -3688    -3696    -3694    -3668    -3646 
   -3628    -3601    -3561    -3517    -3483    -3440    -3388    -3361 
   -3348    -3307    -3270    -3264    -3235    -3178    -3130    -3084 
   -3037    -2999    -2969    -2964    -2961    -2934    -2944    -2985 
   -2983    -2975    -3004    -3021    -3018    -3024    -3032    -3035 
   -3027    -3010    -2998    -2970    -2912    -2866    -2859    -2853 
   -2823    -2792    -2785    -2778    -2760    -2759    -2760    -2733 
   -2696    -2680    -2682    -2677    -2656    -2644    -2649    -2655 
   -2664    -2674    -2673    -2675    -2698    -2723    -2732    -2743 
   -2778    -2818    -2841    -2865    -2905    -2953    -2999    -3030 
   -3056    -3088    -3118    -3146    -3174    -3193    -3210    -3233 
   -3250    -3249    -3232    -3223    -3239    -3263    -3271    -3269 
   -3281    -3290    -3274    -3274    -3305    -3314    -3299    -3309 
   -3347    -3387    -3422    -3457    -3491    -3495    -3469    -3454 
   -3450    -3426    -3409    -3433    -3450    -3456    -3489    -3519 
   -3528    -3553    -3576    -3554    -3520    -3517    -3528    -3527 
   -3526    -3530    -3532    -3535    -3539    -3548    -3556    -3537 
   -3529    -3560    -3565    -3525    -3505    -3531    -3576    -3618 
   -3649    -3667    -3663    -3641    -3618    -3590    -3561    -3524 
   -3461    -3397    -3357    -3328    -3300    -3275    -3261    -3258 
   -3245    -3213    -3172    -3129    -3101    -3083    -3058    -3039 
   -3023    -2986    -2947    -2927    -2912    -2892    -2867    -2827 
   -2776    -2740    -2727    -2718    -2704    -2690    -2685    -2684 
