Origin Time       2011/03/11 14:46:00
Lat.              38.103
Long.             142.860
Depth. (km)       24
Mag.              9.0
Station Code      HKD079
Station Lat.      43.3034
Station Long.     144.5998
Station Height(m) 32
Record Time       2011/03/11 14:48:12
Sampling Freq(Hz) 100Hz
Duration Time(s)  300
Dir.              E-W
Scale Factor      3920(gal)/6182761
Max. Acc. (gal)   12.841
Last Correction   2011/03/11 14:47:57
Memo.             
[...]
    3962     4503     5382     7198     9402    10322     9161     6720 
    4248     2525     1807     2092     3233     4838     6378     7555 
    8214     8231     8069     8443     9272    10308    11509    12209 
   11954    11067     9658     8225     7888     8540     9103     9364 
    9543     9650    10147    11376    12903    14424    15749    16234 
   15548    13999    12055    10290     8897     7568     6718     7060 
    8096     9323    11025    12537    12702    11572     9776     7783 
    6178     5521     6025     7339     8510     8734     8014     6822 
    5875     5999     7603    10397    13111    14248    13679    11930 
    9041     5709     3311     2318     2258     2481     2495     2328 
    2178     2003     1904     2047     2672     4146     6200     8299 
   10431    11999    12010    10851     9276     7611     6989     7976 
    9918    12654    15365    16542    16181    14696    12553    11084 
   10325     9234     8026     6871     5497     4585     4445     4565 
    4805     5047     5489     6804     8749    10713    12669    13927 
   13744    12962    12391    11695    11049    11291    12641    14665 
   16361    16655    15713    14106    11847    10016     9974    10994 
   12096    13494    14572    14340    13318    12411    12192    13373 
   15910    19060    22195    24122    23843    22142    20351    19215 
   19153    19819    20340    20193    19249    17759    16393    15352 
   13912    11989    10717    10699    11769    14001    16835    18783 
   19185    18383    16861    15526    14941    14939    15583    16485 
   17022    17681    18586    18909    18612    18115    17643    17644 
   18086    18616    19373    20053    19886    18823    17227    15557 
   14602    14777    15737    17078    18407    18984    18262    16426 
   14225    12461    11797    12580    14188    15384    15382    13901 
   11261     8033     4544     1926     1541     2982     5032     6927 
    7752     7030     5583     4669     4917     6125     7820     9675 
   11119    11550    11088    10316     9662     9253     8725     7817 
    7271     7604     7977     7513     5950     3365      740     -749 
   -1064     -624      276     1187     2091     3308     4564     5407 
    5859     5975     5849     6051     6879     8026     9368    10412 
   10544    10531    10891    10786    10226     9627     8278     6206 
    4632     3949     3796     3902     3901     3655     3572     3887 
    4085     3490     1918     -250    -1875    -2283    -2320    -2231 
   -1435     -740     -808     -720     -129      760     2314     4060 
    5039     5311     4797     3362     1864      670     -391     -467 
    1055     3472     5872     7429     7786     7488     6907     6319 
    6335     6842     7518     8577     9493     9284     8098     6556 
    5180     4964     6047     7342     8380     8909     8554     8252 
    9060    10237    10686    10528     9946     8913     8669    10389 
   13020    15061    16238    16328    15147    13521    12291    11502 
   10912    10050     9003     8623     8577     7955     7448     7580 
    7277     6365     5995     6391     6987     7503     7990     8638 
    9111     9061     9077     9196     8578     7637     7392     7510 
    7481     7608     7911     8374     9247    10267    11409    12687 
   13174    12810    12303    11277    10034     9604     9594    10043 
   11419    12244    11969    11847    11502    10549     9942     9658 
   10033    12044    14622    16392    17225    16655    15229    14675 
   15065    15838    16994    17611    17117    16235    15111    13808 
   13190    13211    13089    13044    13623    14573    15171    14872 
   13817    12667    12229    13158    15024    16573    17090    16195 
   13719    10642     8503     7651     7457     8007     9441    10673 
   11060    11035    10567     9682     9303     9859    10614    10664 
    9475     7206     4921     3533     3084     3303     3863     4561 
    5544     7015     8947    10706    11333    10976    10787    11359 
   12477    13353    13042    11750    10450     9650     9964    11515 
   13117    14057    14017    12133     8969     6195     4500     4570 
    6541     8639     9928    11044    11613    11236    10691    10146 
    9533     9459     9766     9854     9819     9511     8613     7646 
    7055     6769     6926     7303     7164     6396     5505     5215 
    6150     7839     9074     9372     8843     7516     5808     4706 
    4882     5840     6351     6025     5411     4771     4422     5012 
    6656     9151    12034    14234    15147    15252    15335    15933 
   17231    19059    20827    21559    20645    18496    15964    13727 
   12485    12722    14261    16543    18707    19731    19336    17876 
   15445    12557    10583    10127    10509    11399    12866    14311 
   15112    15387    15601    16085    17050    18642    20591    22246 
   23037    22496    20474    17773    15732    14980    15156    15805 
   16742    17269    16469    14815    13694    13389    13436    14018 
   15192    16253    16946    17292    16728    15233    13582    12348 
   12034    12563    13071    13580    14659    15727    16106    15882 
   14943    13452    12293    11802    11462    10692     9580     8693 
    7902     7200     7589     8744     8961     8090     6710     4383 
    1389     -904    -1860    -1739    -1178     -662       12      852 
    1543     2463     4103     6337     8709    10438    10956    10578 
    9772     8770     8036     7748     7351     6393     5123     4200 
    4214     5272     6896     8147     8026     6472     4645     3708 
    4122     5824     7907     9016     8848     7782     5469     2381 
     992     2366     4937     7806    10537    11764    11240     9626 
    7407     6053     6292     7027     7871     8808     9185     8699 
    6808     3469      403     -954     -214     2660     6360     8910 
    9599     8711     6930     5418     5163     6392     8517    10502 
   11767    12132    11270     9439     7683     6474     5523     5286 
    6652     9334    12407    15129    16331    15210    12838    11123 
   10921    11919    13039    13222    12305    10349     7922     7110 
    9086    12340    15286    17653    19201    19606    19179    18824 
   19283    20040    19700    18120    16469    15111    13860    13010 
   12520    12257    12436    12781    13110    13557    13518    12969 
   12865    13015    13061    13917    15565    16829    17473    17767 
   17828    17970    18000    17452    16795    16666    16929    17450 
   18037    18078    17669    17285    16909    17358    19375    21331 
   21498    20304    18570    16583    14657    13040    11940    11167 
   10008     8671     8022     7730     7200     6946     7292     7809 
    8246     9053    11089    13980    15997    16611    16601    16351 
   16238    16587    16867    16622    15807    14245    12503    11623 
   11372    11026    10805    10893    10601     9446     8254     8233 
    9179    10225    11701    13733    14648    13565    11871    10409 
    8797     7359     6832     7398     8695     9788    10197    10484 
   10531     9527     7950     6855     6330     6189     6350     6178 
    4941     2634     -252    -3058    -4915    -5122    -3607    -1221 
     693     1505     1065     -889    -3340    -4163    -2930    -1002 
     887     2769     4278     5025     4933     3976     2474     1024 
     263      920     2821     4679     5745     6199     6400     6475 
    6240     6057     6563     7017     6281     5044     4592     4794 
    5346     6435     7644     8557     8842     8010     7139     7707 
    9173    10859    12949    14909    16183    17103    18169    19725 
   21601    23152    24063    24556    25121    25648    25048    22660 
   18895    14875    12081    10914    10955    12464    14869    16388 
   16867    17414    17785    17319    16650    16404    16170    15750 
   15872    17150    19157    20975    22182    22970    23654    24011 
   23616    23046    23180    23725    24161    24692    25106    24795 
   23966    22965    21795    20849    20365    20176    20149    19650 
   18218    16719    15914    15438    15501    16699    17927    18048 
   17834    17804    17704    17969    18592    19022    19514    19752 
   18619    16398    14134    12331    11489    11565    11703    11108 
    9188     6230     3559     1961     1781     3507     6128     7645 
    7839     7544     6878     6278     6400     6942     7657     8778 
   10036    11072    12258    13958    15574    16276    16018    14975 
   13017    10624     9175     9176     9460     9254     9172     9389 
    9409     9584    10347    11442    12652    13334    12882    11761 
   10101     7714     5640     4584     3844     3390     3762     4300 
    4292     4074     3909     3963     4578     5414     6170     7072 
    7560     7382     7457     7644     7306     6965     6556     5310 
    3595     2203     1455     1673     2856     4343     5298     5286 
    4497     3377     2464     2097     1862     1324      528     -537 
   -1342    -1221     -630       84     1198     2373     3201     3473 
    2824     2063     2343     3077     3728     4550     4720     3808 
    2722     1740      955      619      170     -154      676     1884 
    2042     1199     -162    -1429    -1687    -1104     -333      706 
    1561     1742     2204     3310     4255     5280     6661     7667 
    8241     8601     8761     9355    10468    11534    12439    12604 
   11589    10381     9761     9702    10281    11333    12667    14222 
   15225    14888    13384    11311     9504     8766     9057    10088 
   11726    13092    13437    13236    12898    12565    12939    14347 
   16367    18257    19015    18632    18054    17200    15542    13573 
   12047    11184    10753    10510    10447    10331     9798     9190 
    9361    10587    12340    14351    16772    18919    19794    19850 
   20003    20125    20214    20548    20351    18888    16537    13988 
   12235    12053    12679    12735    11847    10581     9714     9682 
   10502    12045    13789    14814    14907    14962    15436    15700 
   15689    16017    16451    16680    17125    17687    17676    16969 
   15874    14495    13241    13069    14063    15077    15133    13953 
   12111    10944    11180    12064    12390    11840    10839     9670 
    8575     8097     8277     8398     8205     7990     7963     8657 
   10336    12035    12908    13206    13158    12616    11632    10565 
    9623     8260     6208     4603     4192     4344     4849     5733 
    5880     4524     2366      202    -1451    -2066    -1725     -669 
     987     2396     3030     3647     4741     5962     7034     7994 
    9093    10457    11858    13336    15224    17115    17767    16749 
   15168    13753    12296    11344    11343    11336    10579     9346 
    8283     7981     8339     9031     9908    10387    10227     9894 
    9608     9754    10558    11085    10836    10441     9909     8961 
    8242     8610    10364    12739    14217    14427    14194    13973 
   14093    14833    15724    16335    16436    15436    13562    11916 
   10717     9610     8487     7082     5489     4403     4078     4149 
    4324     4478     4578     4595     4274     3571     2744     1721 
     573     -163     -179      683     2340     4151     5893     7967 
   10302    12387    13934    14875    15283    15237    14860    14358 
   13483    12046    10708     9955     9815    10778    12854    14906 
   16362    17373    17600    17135    16703    16317    15968    16131 
   16946    18418    19990    20500    20143    19877    19277    18174 
   18024    19281    20661    21709    22728    23426    23600    23158 
   22081    20932    19766    18442    17966    18702    19811    21093 
   22089    21721    20080    17818    15543    14517    15403    17471 
   19827    21827    22953    23390    23708    23827    23529    23104 
   22746    22733    23470    24228    23589    21233    17953    14724 
   12572    12129    12795    13553    13945    13483    12174    10952 
   10290    10379    11423    12464    12679    12782    13219    13628 
   13958    14016    13258    11601     9811     9031     9297     9486 
    9012     7649     5059     1925     -502    -1713    -1612     -642 
     436     1750     3051     3404     3603     4836     6276     6966 
    7320     7724     7760     6962     5308     3366     1905      958 
     409      773     2053     3356     4232     5006     5785     6233 
    6218     5729     4734     3536     2305      713    -1085    -2498 
   -3652    -4657    -4909    -4381    -3559    -2572    -1673    -1277 
   -1586    -2683    -4084    -4696    -4178    -3110    -1463      730 
    2086     1929     1352     1119     1193     1352     1181      944 
    1237     1614     1519     1380     1769     2775     4178     5572 
    6582     6906     6384     5549     5125     5038     5182     5877 
    7057     8507     9883    10457    10410    10784    11708    12751 
   13922    14965    15385    15461    15786    16388    17048    17608 
   17745    17306    16773    16503    16197    15890    15963    16398 
   17359    18960    20521    21641    22308    22013    20907    19908 
   19202    18678    18400    18287    18419    18758    19304    20392 
   21433    21468    20925    20471    20063    20034    20711    21639 
   22596    23858    25267    26629    28321    30118    30861    30189 
   28743    26739    24324    22319    21097    20178    19343    18583 
   17762    17181    17023    16910    16894    17024    16642    15737 
   14880    13986    13158    12894    13136    13805    14782    15649 
   16567    17479    17567    16920    16347    16066    16015    16103 
   16076    15738    15076    14128    13014    12110    11554    11149 
   11163    11680    12088    12444    13138    13804    14470    15328 
   15666    15312    14958    14880    15182    15752    15883    15285 
   14383    13557    13100    13042    12966    12523    11609    10540 
    9903     9905    10502    11302    11652    11562    11374    11253 
   11534    12213    12835    13213    13061    11963    10448     9329 
    8587     8164     8159     8297     8242     7866     7489     7495 
    7412     6715     5816     5249     5127     5395     5965     6897 
    8030     8756     8995     9192     9290     9140     8970     8796 
    8524     8219     7902     7579     7170     6663     6518     7290 
    9097    11514    13718    15107    15617    15383    14657    13932 
   13647    13541    12733    10920     8784     6994     5668     4640 
    3729     3043     2830     2901     3084     3749     5044     6625 
    8132     9233     9756     9618     8810     7800     7030     6379 
    5878     5925     6561     7287     7494     7078     6715     6854 
    6997     6878     6787     6600     6226     5837     5318     4725 
    4135     3406     3009     3412     4310     5476     6725     7772 
    8675     9103     8710     8243     8035     7392     6516     6236 
    6647     7573     8714     9783    11169    12881    14015    14325 
   14407    14584    14632    14073    13196    12922    12982    12556 
   11803    10911     9959     9382     9157     9304    10190    11164 
   11237    10673    10099     9634     9505    10058    11105    11987 
   12513    13312    14538    15295    15316    15246    15171    15116 
   15527    16171    16548    16720    16609    16071    15606    15495 
   15084    14042    12887    11784    10725    10355    10955    11940 
   12682    12694    12050    11482    11120    10702    10642    11124 
   11700    12422    13569    14907    16121    16988    17304    17107 
   16546    15744    14926    14404    14228    14146    14188    14442 
   14453    14037    13676    13551    13538    13606    13602    13559 
   13596    13443    13385    14148    15176    15634    15942    16299 
   16170    15539    14743    14026    13613    13402    13199    13077 
   12810    12030    11133    10670    10590    10848    11295    11533 
   11625    11411    10445     9393     8931     8594     8384     8589 
    8618     8319     8104     7727     7334     7457     7503     7050 
    6650     6328     5967     5778     5349     4388     3177     1699 
     279     -540    -1133    -1580    -1379    -1199    -1750    -2294 
   -2401    -2330    -1718     -458      771     1654     2108     1981 
    1713     1669     1516     1153      841      679      714     1063 
    1839     2851     3363     2818     1603      556      116      205 
     527      940     1478     2044     2632     3362     3882     3683 
    2854     1884     1170      863      891     1183     1769     2523 
    3354     4655     6506     7947     8221     7588     6389     4851 
    3469     2422     1539      705     -376    -1670    -2642    -3102 
   -2974    -2109     -661     1343     3592     5300     6478     7380 
    7732     7908     8446     9242    10380    11717    12857    13909 
   14496    14048    13332    13343    13975    14860    15967    17099 
   17761    17562    16591    15553    15079    15249    16140    17562 
   18605    18848    18550    17736    16723    15937    15219    14799 
   15115    15818    16408    16590    16203    15398    14468    14013 
   14392    14794    14420    13571    12797    12433    12882    14434 
   16740    18758    19732    19739    18882    17318    15986    15744 
   16535    17806    18913    19596    19945    19902    19648    19747 
   20332    20969    21360    21649    22022    22395    22556    22326 
   21880    21693    21745    21741    22003    22719    23348    23824 
   24478    24818    24383    23560    22511    21204    20101    19346 
   18740    18439    18251    17717    17228    17243    17435    17697 
   18473    19909    21520    22603    22973    22775    21828    20319 
   19038    18203    17471    16674    15840    15178    14781    14354 
   13749    13190    12791    12483    12368    12452    12234    11444 
   10424     9398     8563     8277     8751    10218    12297    13664 
   13793    13291    12470    11539    10919    10709    10871    11010 
   10289     8664     6832     5206     4086     3672     3874     4620 
    5627     6365     6595     6341     5852     5536     5262     4666 
    4103     3841     3537     3296     3363     3483     3583     3534 
    3272     3483     4327     5068     5600     6085     5939     4800 
    3240     1991     1349     1235     1371     1489     1312      890 
     995     1982     3158     4319     5980     7868     9261    10159 
   10820    11223    11148    10288     8718     6821     4866     3396 
    3126     3935     4857     5199     4923     4252     3625     3500 
    3929     4584     5017     5012     4750     4323     3516     2401 
    1533     1175     1014     1060     1865     3535     5466     7109 
    8302     8914     8679     7889     7634     8280     8883     8781 
    7987     6612     5346     5097     5950     7551     9488    10848 
   11038    10735    10530    10223    10151    10854    11899    12745 
   13441    14102    14792    15415    15666    15630    15610    15671 
   15950    16429    16833    17140    17025    15940    14509    13783 
