Origin Time       2011/03/11 14:46:00
Lat.              38.103
Long.             142.860
Depth. (km)       24
Mag.              9.0
Station Code      HKD050
Station Lat.      43.8785
Station Long.     143.1747
Station Height(m) 386
Record Time       2011/03/11 14:49:23
Sampling Freq(Hz) 100Hz
Duration Time(s)  123
Dir.              N-S
Scale Factor      3920(gal)/6182761
Max. Acc. (gal)   1.446
Last Correction   2011/03/11 14:49:08
Memo.             
[...]
   -1610    -1730    -1814    -1852    -1801    -1696    -1628    -1579 
   -1487    -1347    -1199    -1078     -978     -929     -936     -870 
    -665     -440     -284     -200     -165     -138     -116     -131 
    -181     -239     -315     -471     -690     -826     -831     -823 
    -879     -931     -907     -860     -872     -970    -1150    -1333 
   -1435    -1476    -1481    -1442    -1341    -1162    -1000     -984 
   -1036    -1041    -1043    -1082    -1124    -1086     -870     -589 
    -450     -423     -419     -469     -530     -558     -602     -639 
    -582     -451     -328     -283     -304     -247     -110      -94 
    -207     -283     -301     -319     -363     -422     -429     -383 
    -398     -495     -517     -366     -181     -147     -288     -508 
    -694     -813     -924    -1021    -1064    -1103    -1155    -1155 
   -1105    -1104    -1189    -1260    -1227    -1110     -953     -811 
    -746     -724     -723     -802     -930    -1033    -1148    -1255 
   -1280    -1222    -1117    -1038    -1029    -1020     -937     -764 
    -538     -341     -161       54      256      353      326      249 
     206      177       93      -13      -57      -61      -72      -72 
     -59      -11      112      227      201       52      -82     -132 
    -124      -77      -14        7      -12      -33      -70      -84 
     -55      -80     -145     -159     -197     -312     -444     -546 
    -542     -387     -167      -22       -2      -25       -8       -1 
     -37      -49      -42     -137     -375     -633     -807     -910 
    -989    -1063    -1082    -1001     -891     -793     -623     -367 
    -143      -25       31       94      178      206       95     -129 
    -351     -509     -635     -686     -575     -425     -400     -442 
    -468     -501     -555     -627     -746     -897     -993    -1064 
   -1177    -1241    -1181    -1068    -1014    -1071    -1174    -1272 
   -1403    -1530    -1594    -1620    -1605    -1542    -1495    -1457 
   -1382    -1324    -1271    -1110     -920     -904    -1066    -1259 
   -1399    -1511    -1644    -1762    -1808    -1755    -1615    -1541 
   -1652    -1801    -1857    -1881    -1905    -1909    -1889    -1839 
   -1779    -1738    -1699    -1626    -1580    -1661    -1833    -1951 
   -1935    -1883    -1939    -2068    -2153    -2162    -2125    -2068 
   -1970    -1796    -1628    -1531    -1451    -1379    -1324    -1220 
   -1100    -1058    -1082    -1171    -1265    -1237    -1193    -1261 
   -1304    -1242    -1159    -1109    -1106    -1113    -1112    -1125 
   -1154    -1236    -1306    -1217    -1060    -1061    -1283    -1542 
   -1611    -1535    -1508    -1521    -1467    -1411    -1457    -1530 
   -1577    -1656    -1680    -1527    -1340    -1275    -1243    -1178 
   -1196    -1318    -1352    -1210    -1029     -920     -884     -862 
    -820     -804     -785     -663     -463     -312     -311     -418 
    -460     -386     -331     -406     -565     -661     -620     -538 
    -520     -514     -461     -386     -298     -213     -200     -256 
    -305     -286     -217     -182     -289     -509     -669     -738 
    -788     -776     -675     -514     -335     -258     -344     -545 
    -815    -1053    -1226    -1431    -1632    -1764    -1894    -1995 
   -2024    -2067    -2129    -2125    -2080    -2060    -2070    -2051 
   -2005    -2030    -2138    -2239    -2300    -2349    -2387    -2358 
   -2295    -2242    -2131    -2048    -2105    -2157    -2167    -2264 
   -2417    -2531    -2537    -2428    -2380    -2510    -2659    -2632 
   -2449    -2314    -2333    -2335    -2186    -2043    -2028    -2006 
   -1901    -1835    -1881    -1986    -2074    -2092    -2075    -2097 
   -2139    -2147    -2151    -2159    -2123    -2075    -2042    -1990 
   -1975    -2064    -2203    -2291    -2282    -2268    -2333    -2380 
   -2344    -2337    -2425    -2549    -2604    -2505    -2337    -2301 
   -2316    -2194    -2055    -1983    -1834    -1639    -1561    -1628 
   -1748    -1777    -1694    -1616    -1537    -1349    -1057     -789 
    -638     -586     -562     -492     -384     -311     -267     -178 
     -43       70      154      267      361      303       91     -122 
    -186     -168     -268     -512     -750     -872     -843     -723 
    -612     -518     -401     -278     -210     -220     -231     -242 
    -322     -405     -475     -619     -766     -835     -856     -867 
    -883     -871     -845     -879     -966    -1108    -1314    -1528 
   -1742    -1891    -1847    -1725    -1727    -1773    -1705    -1575 
   -1492    -1437    -1374    -1336    -1333    -1340    -1319    -1235 
   -1126    -1040     -963     -873     -823     -871     -927     -902 
    -873     -886     -897     -923     -978    -1015    -1015     -984 
    -914     -850     -833     -811     -778     -805     -877     -941 
    -962     -921     -921    -1002    -1004     -828     -579     -378 
    -224      -69       96      258      406      523      569      591 
     653      601      297      -67     -275     -344     -309     -134 
     118      272      284      283      356      427      370      191 
      15      -77      -54       45      114      141      179      227 
     236      199      198      269      340      412      488      469 
     366      276      168      -13     -191     -338     -497     -622 
    -647     -613     -591     -594     -606     -626     -623     -575 
    -533     -535     -563     -590     -583     -599     -722     -929 
   -1202    -1485    -1634    -1677    -1750    -1845    -1923    -1982 
   -1947    -1803    -1676    -1646    -1617    -1548    -1541    -1558 
   -1505    -1460    -1491    -1589    -1687    -1693    -1633    -1524 
   -1377    -1401    -1637    -1811    -1797    -1669    -1520    -1393 
   -1183     -847     -559     -408     -339     -349     -404     -408 
    -396     -459     -507     -383     -124      110      228      244 
     268      365      459      472      482      590      716      774 
     815      824      752      660      590      562      564      503 
     409      425      534      656      803      933      947      811 
     608      486      446      389      347      356      333      237 
     140      159      322      502      630      712      696      603 
     514      412      298      190       46     -118     -229     -249 
    -238     -304     -412     -454     -460     -512     -601     -726 
    -883     -971     -959     -959     -990     -998    -1057    -1218 
   -1327    -1319    -1346    -1436    -1485    -1503    -1494    -1405 
   -1328    -1368    -1446    -1479    -1547    -1672    -1736    -1721 
   -1711    -1701    -1647    -1581    -1553    -1585    -1641    -1649 
   -1620    -1617    -1646    -1638    -1567    -1540    -1622    -1719 
   -1776    -1842    -1929    -1972    -1904    -1818    -1845    -1916 
   -1934    -1899    -1907    -2057    -2243    -2408    -2667    -2917 
   -3010    -3005    -2965    -2894    -2795    -2713    -2687    -2629 
   -2472    -2291    -2181    -2201    -2348    -2510    -2550    -2486 
   -2485    -2557    -2594    -2644    -2747    -2802    -2791    -2744 
   -2611    -2337    -2008    -1747    -1518    -1325    -1264    -1300 
   -1373    -1437    -1404    -1280    -1167    -1159    -1232    -1227 
   -1128    -1066    -1034     -922     -749     -601     -462     -385 
    -462     -541     -517     -545     -663     -799     -955    -1088 
   -1155    -1167    -1131    -1113    -1127    -1071     -975     -924 
    -904     -877     -803     -753     -833     -942     -962     -923 
    -887     -928    -1019    -1065    -1100    -1152    -1151    -1103 
   -1059    -1026    -1037    -1076    -1019     -898     -910    -1053 
   -1140    -1073     -933     -911    -1022    -1062     -977     -912 
    -898     -893     -919     -952     -964    -1016    -1108    -1213 
   -1365    -1462    -1378    -1251    -1245    -1266    -1247    -1292 
   -1422    -1536    -1589    -1601    -1616    -1672    -1782    -1887 
   -1879    -1819    -1881    -2042    -2091    -1933    -1744    -1698 
   -1685    -1600    -1563    -1625    -1650    -1600    -1609    -1747 
   -1906    -1946    -1862    -1749    -1649    -1619    -1700    -1756 
   -1711    -1648    -1603    -1586    -1603    -1595    -1561    -1571 
   -1621    -1611    -1511    -1442    -1467    -1484    -1447    -1434 
   -1475    -1538    -1587    -1545    -1371    -1163    -1012     -873 
    -711     -612     -592     -548     -436     -282     -141      -84 
    -131     -232     -325     -421     -582     -750     -819     -802 
    -775     -782     -773     -701     -660     -682     -702     -733 
    -821     -932     -970     -929     -886     -845     -878    -1082 
   -1310    -1397    -1389    -1390    -1436    -1437    -1314    -1180 
   -1163    -1256    -1342    -1281    -1089     -918     -858     -913 
   -1072    -1246    -1322    -1373    -1489    -1591    -1614    -1591 
   -1615    -1713    -1739    -1592    -1378    -1274    -1341    -1444 
   -1454    -1473    -1613    -1757    -1809    -1870    -2003    -2114 
   -2139    -2057    -1880    -1758    -1791    -1854    -1859    -1883 
   -1949    -2045    -2159    -2193    -2156    -2197    -2283    -2287 
   -2250    -2282    -2424    -2563    -2567    -2522    -2514    -2444 
   -2304    -2250    -2319    -2359    -2262    -2140    -2141    -2212 
   -2184    -1981    -1675    -1402    -1250    -1249    -1341    -1405 
   -1367    -1266    -1230    -1306    -1363    -1338    -1350    -1484 
   -1678    -1845    -1955    -2033    -2142    -2265    -2280    -2228 
   -2287    -2428    -2484    -2428    -2317    -2145    -1950    -1844 
   -1842    -1897    -1995    -2108    -2202    -2276    -2337    -2328 
   -2181    -1958    -1761    -1575    -1399    -1307    -1323    -1354 
   -1274    -1083     -912     -893    -1038    -1220    -1329    -1363 
   -1336    -1232    -1035     -835     -803     -907     -951     -911 
    -895     -943     -997     -996     -965     -912     -811     -682 
    -511     -396     -494     -643     -625     -517     -390     -233 
     -81       84      235      298      333      369      330      244 
     159       -5     -250     -446     -548     -639     -753     -821 
    -785     -684     -565     -495     -538     -577     -520     -485 
    -503     -510     -618     -905    -1202    -1355    -1359    -1250 
   -1136    -1076     -985     -866     -773     -675     -584     -545 
    -538     -530     -545     -605     -669     -746     -851     -851 
    -714     -609     -602     -672     -802     -883     -876     -861 
    -835     -764     -733     -747     -671     -464     -240     -148 
    -202     -260     -247     -245     -292     -318     -242     -131 
    -113     -109       11      163      222      207      164       64 
    -122     -390     -726    -1021    -1115    -1024     -866     -700 
    -572     -488     -381     -260     -200     -199     -216     -273 
    -393     -487     -496     -506     -535     -490     -390     -310 
    -253     -211     -148      -23      129      271      402      514 
     535      411      283      308      418      460      411      372 
     333      215      146      251      411      534      645      713 
     748      808      821      697      506      361      283      249 
     282      396      484      468      370      199       37        0 
      55      126      211      308      436      586      653      613 
     543      419      243      141      112       57      -25      -80 
     -86      -99     -174     -197      -70      123      303      444 
     496      469      423      341      176       18       -5        7 
    -115     -294     -391     -444     -536     -669     -786     -885 
   -1009    -1090    -1051     -976     -928     -888     -930    -1094 
   -1262    -1329    -1301    -1275    -1317    -1371    -1434    -1586 
   -1833    -2125    -2394    -2564    -2618    -2522    -2292    -2069 
   -1937    -1843    -1779    -1838    -2050    -2289    -2453    -2537 
   -2549    -2525    -2463    -2290    -2043    -1880    -1907    -2065 
   -2184    -2210    -2191    -2106    -1958    -1805    -1721    -1754 
   -1753    -1603    -1527    -1618    -1655    -1624    -1623    -1549 
   -1335    -1133    -1141    -1351    -1567    -1708    -1844    -2065 
   -2384    -2604    -2554    -2384    -2256    -2073    -1778    -1531 
   -1393    -1267    -1142    -1028     -922     -868     -843     -833 
    -920    -1120    -1368    -1567    -1618    -1557    -1478    -1345 
   -1136     -964     -908     -905     -862     -742     -595     -509 
    -513     -556     -601     -696     -847     -947     -976     -995 
    -981     -906     -741     -400       25      298      363      314 
     196        4     -218     -403     -600     -838    -1005    -1053 
   -1055    -1101    -1232    -1405    -1608    -1862    -2111    -2306 
   -2429    -2470    -2495    -2521    -2441    -2239    -2041    -1986 
   -2153    -2407    -2509    -2492    -2540    -2625    -2610    -2461 
   -2288    -2245    -2263    -2166    -2010    -1902    -1823    -1785 
   -1777    -1836    -2100    -2489    -2778    -2918    -2972    -3043 
   -3179    -3257    -3140    -2898    -2725    -2640    -2512    -2358 
   -2297    -2342    -2409    -2455    -2565    -2772    -2950    -3050 
   -3116    -3208    -3370    -3446    -3254    -2919    -2730    -2759 
   -2769    -2650    -2578    -2647    -2772    -2803    -2599    -2230 
   -1973    -1984    -2116    -2192    -2322    -2609    -2853    -2888 
   -2738    -2478    -2239    -2065    -1893    -1782    -1751    -1647 
   -1446    -1273    -1228    -1303    -1325    -1203    -1146    -1289 
   -1545    -1866    -2130    -2241    -2291    -2253    -2090    -1941 
   -1888    -1924    -1954    -1836    -1655    -1586    -1625    -1699 
   -1741    -1754    -1871    -2126    -2389    -2565    -2647    -2620 
   -2405    -2074    -1847    -1748    -1667    -1573    -1510    -1534 
   -1554    -1476    -1430    -1503    -1619    -1716    -1753    -1778 
   -1896    -2032    -2041    -2020    -2137    -2322    -2437    -2480 
   -2458    -2345    -2178    -2058    -2105    -2358    -2592    -2605 
   -2556    -2582    -2612    -2584    -2433    -2227    -2147    -2183 
   -2214    -2167    -1979    -1726    -1561    -1457    -1277    -1020 
    -769     -572     -442     -346     -251     -241     -367     -567 
    -821    -1063    -1164    -1162    -1167    -1184    -1132    -1003 
    -903     -819     -763     -895    -1171    -1401    -1531    -1587 
   -1612    -1557    -1337    -1081     -915     -784     -676     -623 
    -672     -817     -844     -737     -739     -843     -930    -1025 
   -1146    -1292    -1428    -1492    -1515    -1542    -1565    -1562 
   -1506    -1442    -1440    -1528    -1700    -1843    -1827    -1666 
   -1461    -1362    -1433    -1481    -1341    -1163    -1110    -1117 
   -1110    -1136    -1192    -1242    -1303    -1344    -1314    -1219 
   -1106    -1037     -998     -971    -1003    -1064    -1097    -1094 
   -1021     -929     -896     -870     -807     -737     -731     -797 
    -809     -807     -947    -1156    -1341    -1523    -1661    -1767 
   -1887    -1970    -1971    -1898    -1847    -1892    -1941    -1951 
   -2000    -2016    -1883    -1727    -1700    -1670    -1558    -1551 
   -1662    -1677    -1574    -1520    -1660    -1996    -2270    -2275 
   -2196    -2228    -2298    -2333    -2313    -2230    -2141    -1993 
   -1775    -1689    -1757    -1786    -1709    -1583    -1493    -1492 
   -1543    -1581    -1542    -1393    -1189    -1024     -899     -786 
    -726     -669     -554     -511     -631     -808     -900     -864 
    -754     -630     -526     -444     -305      -96       40       74 
     120      146       56      -59      -77      -38       -8       18 
      23       16       34       29      -44     -150     -214     -175 
    -128     -197     -274     -184       64      279      311      268 
     287      318      301      250      210      173       90       47 
      96       72     -121     -351     -512     -659     -782     -761 
    -627     -556     -598     -692     -850    -1078    -1251    -1274 
   -1211    -1124    -1033     -996    -1012     -998     -984    -1092 
   -1296    -1391    -1266    -1066     -943     -898     -916     -959 
    -969     -962     -993    -1045    -1067    -1063    -1047    -1054 
   -1152    -1303    -1398    -1447    -1480    -1449    -1331    -1192 
   -1171    -1293    -1389    -1378    -1313    -1234    -1227    -1307 
   -1318    -1217    -1146    -1155    -1165    -1108     -972     -858 
    -879     -923     -931    -1030    -1168    -1173    -1024     -766 
    -572     -599     -649     -506     -271     -118      -93     -121 
    -208     -448     -720     -848     -891     -938    -1038    -1201 
   -1242    -1107     -991     -908     -800     -745     -744     -793 
    -872     -885     -901    -1019    -1159    -1228    -1194    -1115 
   -1069    -1042    -1064    -1135    -1180    -1255    -1398    -1471 
   -1352    -1076     -812     -643     -488     -397     -438     -485 
    -517     -594     -650     -632     -523     -361     -309     -383 
    -474     -659     -982    -1274    -1480    -1591    -1525    -1374 
   -1264    -1128     -944     -862     -982    -1171    -1260    -1229 
   -1151    -1133    -1181    -1209    -1222    -1226    -1134     -969 
    -831     -717     -641     -609     -557     -517     -536     -588 
    -671     -742     -754     -730     -637     -480     -362     -277 
    -204     -176      -88      100      192      109      -45     -213 
    -388     -531     -637     -738     -762     -619     -397     -238 
    -196     -281     -415     -504     -514     -412     -268     -205 
    -192     -190     -256     -361     -442     -508     -544     -528 
    -539     -639     -793     -976    -1124    -1152    -1135    -1173 
   -1232    -1302    -1375    -1380    -1316    -1284    -1314    -1289 
   -1156    -1028     -965     -930     -938     -991    -1002    -1002 
   -1110    -1245    -1292    -1299    -1249    -1108     -956     -867 
    -894    -1032    -1198    -1327    -1382    -1367    -1289    -1177 
   -1117    -1117    -1153    -1262    -1417    -1518    -1508    -1420 
   -1321    -1209    -1069     -988    -1034    -1142    -1223    -1297 
   -1433    -1653    -1918    -2124    -2189    -2203    -2274    -2305 
   -2199    -2000    -1759    -1571    -1534    -1576    -1581    -1575 
   -1597    -1582    -1468    -1350    -1357    -1437    -1471    -1438 
   -1385    -1431    -1590    -1671    -1619    -1547    -1472    -1438 
   -1483    -1545    -1665    -1842    -1925    -1878    -1775    -1680 
   -1650    -1648    -1621    -1600    -1599    -1555    -1421    -1303 
   -1338    -1449    -1514    -1585    -1689    -1758    -1787    -1809 
   -1824    -1844    -1880    -1870    -1768    -1636    -1545    -1464 
   -1376    -1340    -1345    -1366    -1448    -1476    -1374    -1353 
   -1495    -1634    -1705    -1724    -1718    -1729    -1765    -1870 
   -2044    -2208    -2319    -2328    -2243    -2195    -2173    -2017 
