Origin Time       2011/03/11 14:46:00
Lat.              38.103
Long.             142.860
Depth. (km)       24
Mag.              9.0
Station Code      HKD082
Station Lat.      43.4369
Station Long.     144.0855
Station Height(m) 429
Record Time       2011/03/11 14:48:15
Sampling Freq(Hz) 100Hz
Duration Time(s)  300
Dir.              N-S
Scale Factor      3920(gal)/6182761
Max. Acc. (gal)   23.835
Last Correction   2011/03/11 14:48:00
Memo.             
[...]
  -15645   -14935   -14284   -13786   -13269   -12669   -12119   -11533 
  -10819   -10095    -9388    -8629    -7727    -6632    -5426    -4194 
   -3027    -2047    -1203     -348      569     1522     2422     3137 
    3684     4251     4946     5715     6506     7350     8279     9201 
    9944    10451    10800    11068    11307    11591    11984    12481 
   13024    13548    14007    14396    14772    15197    15684    16287 
   17139    18255    19433    20451    21252    21894    22443    22969 
   23551    24230    24889    25269    25219    24839    24302    23745 
   23287    22949    22673    22443    22229    21957    21620    21265 
   20849    20226    19358    18402    17573    16980    16584    16303 
   16121    16079    16220    16551    17042    17626    18240    18852 
   19521    20332    21208    21984    22605    23060    23289    23284 
   23107    22842    22571    22372    22311    22332    22275    22093 
   21913    21880    22019    22225    22370    22392    22274    21992 
   21499    20805    20039    19336    18750    18311    18032    17928 
   18024    18278    18621    19082    19675    20282    20792    21207 
   21570    21911    22216    22427    22499    22457    22382    22364 
   22476    22718    22993    23209    23331    23382    23413    23418 
   23322    23079    22705    22276    21902    21605    21348    21177 
   21117    20989    20542    19727    18755    17880    17147    16404 
   15502    14422    13241    12010    10768     9634     8734     8106 
    7718     7468     7254     7069     7000     7144     7527     8054 
    8598     9118     9622    10091    10508    10862    11112    11226 
   11194    10983    10588    10032     9283     8341     7342     6462 
    5753     5075     4259     3328     2448     1821     1574     1628 
    1852     2178     2463     2587     2576     2495     2376     2186 
    1889     1562     1320     1234     1313     1489     1650     1742 
    1803     1887     1971     1967     1831     1566     1135      501 
    -315    -1299    -2448    -3670    -4834    -5912    -6956    -7973 
   -8899    -9755   -10706   -11825   -12977   -13992   -14734   -15176 
  -15474   -15756   -15948   -15955   -15808   -15587   -15353   -15163 
  -15093   -15187   -15398   -15597   -15607   -15290   -14651   -13818 
  -12883   -11814   -10586    -9305    -8113    -6980    -5700    -4149 
   -2459     -830      643     1887     2853     3687     4674     5829 
    6918     7904     8930    10048    11121    11924    12392    12601 
   12736    13132    13919    14793    15328    15331    14876    14213 
   13656    13328    13080    12776    12512    12459    12641    12959 
   13281    13436    13268    12784    12160    11546    10920    10158 
    9263     8439     7897     7693     7790     8110     8556     9046 
    9462     9733     9966    10393    11166    12161    13118    13933 
   14653    15295    15874    16499    17261    18114    18991    19878 
   20745    21506    22123    22639    23089    23463    23749    23967 
   24131    24242    24377    24681    25249    26048    26950    27856 
   28731    29535    30244    30895    31520    32077    32543    32945 
   33264    33503    33734    33961    34157    34349    34506    34558 
   34494    34255    33805    33240    32633    32098    31835    31860 
   32091    32438    32639    32502    32046    31242    30091    28659 
   26874    24817    22848    21185    19793    18584    17509    16575 
   15771    15079    14558    14283    14258    14416    14594    14587 
   14396    14156    13859    13491    13145    12856    12604    12395 
   12257    12178    12036    11703    11184    10592    10003     9370 
    8679     8022     7492     7088     6672     6065     5225     4316 
    3558     2981     2518     2170     1901     1626     1630     2084 
    1689      212      230     1393     1461     1919     2833     2593 
    2283     2103     1630     1502     1473     1266     1190     1368 
    1577     1621     1663     1722     1642     1527     1484     1466 
    1450     1445     1437     1449     1536     1622     1594     1548 
    1655     1936     2361     2886     3393     3764     3908     3750 
    3282     2539     1584      594     -254     -951    -1578    -2206 
   -2873    -3569    -4274    -4999    -5790    -6574    -7127    -7397 
   -7519    -7570    -7572    -7503    -7304    -7032    -6839    -6790 
   -6760    -6502    -5892    -5008    -3940    -2751    -1488     -181 
    1133     2430     3684     4868     6018     7152     8178     8999 
    9596     9985    10167    10130     9887     9537     9200     8947 
    8794     8738     8762     8723     8380     7728     7007     6371 
    5894     5628     5457     5206     4809     4316     3879     3564 
    3249     2893     2662     2695     2949     3266     3499     3561 
    3465     3376     3419     3526     3634     3788     3978     4185 
    4471     4892     5449     6107     6764     7248     7416     7263 
    6923     6625     6578     6809     7211     7705     8290     8950 
    9568     9982    10165    10297    10604    11123    11694    12158 
   12415    12400    12111    11598    10964    10371     9912     9603 
    9465     9470     9628    10048    10619    11214    12127    13267 
   14043    14869    16616    18464    19253    19600    19542    17512 
   14751    16816    24533    28687    26817    27435    29596    30095 
   33309    36902    37167    36599    37544    39560    39549    38233 
   38825    39785    39264    38252    37510    37135    37541    38392 
   38500    37650    36179    34443    33112    32232    31568    31022 
   30184    28956    27482    25761    23967    22286    20819    19634 
   18570    17401    16092    14715    13316    11853    10334     8957 
    7902     7205     6791     6430     5859     5033     4148     3370 
    2696     2178     1887     1688     1369      874      279     -336 
    -943    -1501    -1995    -2460    -2878    -3181    -3345    -3426 
   -3606    -4070    -4795    -5569    -6144    -6399    -6410    -6360 
   -6391    -6510    -6609    -6592    -6418    -6117    -5899    -6050 
   -6636    -7427    -8121    -8591    -8914    -9222    -9540    -9775 
   -9822    -9606    -9078    -8338    -7666    -7221    -6927    -6659 
   -6314    -5839    -5319    -4863    -4381    -3685    -2764    -1812 
   -1065     -598     -257      152      710     1451     2347     3283 
    4144     4866     5449     5970     6574     7363     8241     9037 
    9764    10510    11234    11896    12533    13080    13347    13219 
   12780    12286    11962    11746    11471    11193    10979    10756 
   10569    10546    10699    10933    11197    11621    12303    13155 
   14103    15121    16158    17080    17655    17746    17378    16692 
   15933    15298    14836    14501    14201    13887    13559    13174 
   12718    12278    11878    11390    10709     9910     9119     8382 
    7705     7095     6567     6136     5777     5427     5043     4661 
    4427     4472     4735     5033     5281     5560     6001     6569 
    7099     7586     8167     8917     9866    10948    11938    12711 
   13395    14205    15264    16587    18171    19915    21500    22586 
   23057    22953    22416    21684    20934    20251    19729    19447 
   19384    19381    19194    18688    17918    17006    16008    14922 
   13791    12841    12368    12351    12451    12434    12308    12169 
   11991    11578    10848     9937     9007     8174     7470     6859 
    6300     5775     5330     5069     5093     5381     5730     5864 
    5592     4994     4386     4041     4061     4446     5180     6225 
    7447     8694     9917    11133    12261    13086    13494    13674 
   13920    14334    14823    15296    15757    16228    16659    16991 
   17269    17638    18198    18881    19471    19800    19886    19807 
   19523    18948    18106    17113    16037    14885    13665    12417 
   11149     9816     8370     6790     5119     3485     1997      693 
    -453    -1508    -2527    -3528    -4454    -5217    -5829    -6322 
   -6685    -6905    -6952    -6913    -6899    -6783    -6331    -5386 
   -3943    -2246     -656      697     1964     3239     4461     5585 
    6514     7164     7599     7860     7951     7954     7951     8023 
    8308     8785     9216     9565     9998    10476    11001    11705 
   12414    12876    13046    13000    12954    13073    13273    13423 
   13572    13821    14167    14566    14913    15149    15370    15635 
   15831    15793    15524    15223    15027    14906    14828    14833 
   14868    14775    14534    14222    13853    13412    12834    12039 
   10952     9519     7908     6405     5110     3951     2879     1882 
     920      -37     -965    -1896    -2908    -3963    -4881    -5513 
   -5919    -6309    -6810    -7391    -7987    -8497    -8769    -8663 
   -8164    -7526    -7121    -7021    -7004    -6831    -6357    -5564 
   -4516    -3321    -2205    -1383     -820     -296      351     1159 
    2028     2784     3412     4012     4551     5007     5492     6004 
    6421     6722     6997     7355     7874     8590     9538    10707 
   11930    12998    13886    14718    15563    16295    16718    16815 
   16762    16845    17327    18276    19551    20872    22012    22930 
   23670    24300    24849    25306    25774    26403    27248    28346 
   29699    31122    32388    33505    34578    35597    36520    37357 
   38134    38791    39265    39657    40104    40592    41075    41572 
   42027    42289    42216    41784    41094    40227    39208    38135 
   37147    36219    35231    34222    33323    32623    32110    31600 
   30972    30226    29324    28343    27422    26550    25619    24541 
   23364    22164    20924    19697    18557    17457    16364    15185 
   13795    12437    11417    10585     9715     8774     7752     6696 
    5672     4689     3873     3251     2515     1617      831      197 
    -323     -732    -1101    -1250     -983     -535      -72      399 
     652      727      963     1464     2148     2746     2985     3028 
    3279     3963     4987     6134     7273     8287     9208    10163 
   11112    12104    13222    14302    15114    15479    15425    15196 
   14820    14272    13636    12686    11369    10147     9332     8997 
    8928     8618     7913     6985     5989     5034     4160     3477 
    2970     2279     1119     -537    -2501    -4254    -5407    -6173 
   -6977    -7908    -8753    -9448   -10122   -10795   -11514   -12393 
  -13287   -13978   -14589   -15250   -15856   -16404   -16817   -16848 
  -16641   -16487   -16254   -15692   -14821   -13837   -12812   -11833 
  -11016   -10086    -8810    -7455    -6188    -4908    -3710    -2699 
   -1770     -973     -251      539     1035     1003      605       50 
    -176      217      782      977      890      908     1115     1398 
    1712     2052     2359     2415     1974     1249      721      484 
     632     1465     2792     3984     4694     5103     5496     5884 
    6211     6453     6699     7099     7640     8283     9000     9750 
   10480    11075    11558    11975    12300    12688    13254    13914 
   14730    15810    17004    18134    19148    19907    20378    20868 
   21613    22536    23542    24511    25258    25675    25588    25123 
   24840    24904    25070    25187    25126    24935    24907    24960 
   24713    24167    23509    22905    22691    22915    23282    23684 
   24209    24863    25462    25725    25677    25761    25970    25754 
   25197    24832    24673    24425    23977    23572    23629    24062 
   24308    24257    24396    24947    25596    26108    26637    27323 
   27955    28253    28242    28194    28323    28595    28932    29251 
   29331    29300    29528    29925    30257    30461    30477    30356 
   30214    30119    30077    29935    29569    29109    28702    28279 
   27706    26917    25899    24692    23343    22023    21082    20543 
   20085    19550    18741    17599    16592    16028    15777    15653 
   15443    15090    14697    14134    13139    11783    10457     9371 
    8551     8010     7590     7264     7196     7185     6891     6319 
    5507     4483     3583     3029     2674     2348     1964     1514 
    1030      362     -717    -2123    -3469    -4440    -5066    -5613 
   -6118    -6394    -6465    -6399    -6177    -5924    -5790    -5885 
   -6268    -6726    -7091    -7525    -8026    -8345    -8563    -8950 
   -9432    -9790    -9966    -9905    -9505    -8837    -8084    -7469 
   -7374    -7841    -8307    -8544    -8917    -9500   -10096   -10789 
  -11499   -11986   -12439   -12981   -13508   -14094   -14605   -14844 
  -14960   -15023   -15029   -15197   -15664   -16202   -16436   -16231 
  -15870   -15643   -15493   -15450   -15704   -16088   -16259   -16101 
  -15680   -15177   -14691   -14072   -13234   -12388   -11656   -10769 
   -9643    -8664    -7979    -7324    -6503    -5425    -4154    -3023 
   -2161    -1322     -411      419     1141     1912     2805     3734 
    4605     5287     5784     6318     7082     8289    10100    12309 
   14559    16601    18347    19847    21129    22144    22952    23775 
   24871    26309    27911    29545    31184    32686    34014    35294 
   36547    37765    39004    40306    41683    43057    44254    45123 
   45651    45936    46123    46344    46613    46863    47064    47224 
   47300    47141    46696    46214    45839    45345    44525    43417 
   42120    40708    39246    37803    36436    35049    33417    31552 
   29793    28354    27177    26143    25154    24195    23282    22310 
   21171    19922    18759    17879    17333    17105    17201    17492 
   17688    17628    17433    17297    17274    17336    17560    18003 
   18488    18848    19092    19282    19532    19919    20329    20661 
   20874    20869    20632    20335    20179    20198    20223    20081 
   19809    19562    19352    19042    18558    18013    17597    17338 
   17117    16940    16926    17036    17044    16777    16269    15627 
   14865    13967    12963    11890    10800     9726     8674     7688 
    6748     5667     4255     2490      578    -1117    -2395    -3382 
   -4266    -5118    -5967    -6793    -7514    -8042    -8312    -8370 
   -8432    -8657    -9007    -9386    -9685    -9741    -9409    -8684 
   -7702    -6687    -5843    -5205    -4676    -4253    -4009    -3927 
   -3999    -4269    -4632    -4916    -5101    -5180    -5033    -4669 
   -4337    -4222    -4242    -4275    -4395    -4692    -5110    -5606 
   -6244    -7026    -7798    -8397    -8801    -9026    -9017    -8744 
   -8254    -7641    -7083    -6848    -7120    -7844    -8909   -10273 
  -11815   -13276   -14302   -14670   -14532   -14172   -13787   -13576 
  -13547   -13414   -12937   -12082   -11012   -10017    -9179    -8337 
   -7436    -6621    -6058    -5779    -5718    -5761    -5661    -5193 
   -4333    -3176    -1912     -707      458     1602     2678     3747 
    4937     6265     7649     9037    10417    11698    12759    13614 
   14333    14875    15183    15320    15483    15912    16710    17823 
   19161    20617    22065    23441    24729    25857    26712    27264 
   27596    27801    27929    28028    28174    28417    28725    29016 
   29218    29321    29416    29608    29942    30439    31056    31656 
   32108    32359    32370    32127    31812    31612    31335    30767 
   30026    29228    28353    27463    26628    25822    25132    24613 
   24102    23548    22933    22177    21403    20768    20292    19984 
   19809    19629    19278    18638    17625    16292    14917    13740 
   12750    11820    10815     9683     8561     7690     7254     7295 
    7670     8047     8108     7796     7257     6661     6093     5467 
    4623     3556     2481     1657     1143      775      420      178 
     226      561      998     1282     1197      698      -73     -929 
   -1714    -2293    -2621    -2770    -2853    -3041    -3548    -4405 
   -5414    -6358    -7078    -7550    -7936    -8275    -8443    -8497 
   -8637    -8966    -9470   -10092   -10758   -11283   -11397   -11027 
  -10351    -9529    -8682    -7941    -7266    -6559    -5863    -5211 
   -4630    -4107    -3418    -2450    -1392     -362      662     1672 
    2719     3890     5122     6243     7165     7949     8790     9852 
   11053    12208    13243    14171    15071    15988    16845    17547 
   18083    18559    19136    19911    20845    21819    22755    23663 
   24585    25624    26867    28112    29132    30133    31290    32295 
   32949    33501    33929    33846    33333    32778    32324    32054 
   31979    31971    31967    31977    31986    31957    31919    31935 
   31938    31783    31471    31075    30541    29768    28816    27884 
   27099    26393    25647    24855    24039    23183    22315    21520 
   20891    20458    20166    19915    19579    18997    18027    16697 
   15219    13812    12532    11346    10286     9457     8944     8673 
    8364     7765     6901     6000     5211     4492     3777     3078 
    2458     2021     1796     1644     1479     1409     1501     1641 
    1687     1644     1668     1830     2057     2365     2785     3129 
    3228     3117     2893     2735     2861     3266     3719     4036 
    4193     4276     4454     4832     5354     5990     6714     7374 
    7812     7966     7841     7459     6760     5603     4079     2569 
    1329      338     -473    -1085    -1465    -1546    -1303     -984 
    -825     -698     -628     -888    -1315    -1685    -2227    -3083 
   -4169    -5360    -6571    -7772    -8796    -9518   -10070   -10523 
  -10648   -10263    -9566    -8808    -8127    -7669    -7366    -7050 
   -6708    -6408    -6148    -5826    -5469    -5265    -5262    -5321 
   -5229    -4868    -4348    -3625    -2427    -1013      204     1568 
    3116     4153     4775     5552     6255     6497     6484     6658 
    7132     7561     7912     8845    10460    11926    13014    14110 
   14885    14938    14702    14487    14199    14152    14627    15220 
   15560    15747    15836    15802    15732    15628    15359    14839 
   14223    13807    13636    13554    13519    13520    13423    13146 
   12760    12356    12022    11822    11755    11824    12073    12517 
   13046    13402    13429    13265    13060    12799    12521    12398 
   12560    12941    13357    13716    14027    14267    14312    14143 
   14075    14389    14902    15316    15641    15983    16233    16203 
   16081    16340    16975    17532    17882    18038    17851    17505 
   17356    17308    17102    16784    16492    16216    15879    15479 
   15169    15027    14874    14589    14305    14120    13933    13641 
   13220    12615    11878    11161    10483     9826     9259     8867 
    8655     8467     8153     7737     7301     6963     6925     7321 
    8051     8764     9149     9320     9646    10252    10951    11514 
   11861    12149    12619    13356    14228    15002    15567    16008 
   16413    16770    17062    17253    17268    17095    16784    16372 
   15907    15430    14931    14364    13665    12870    12189    11814 
   11713    11717    11718    11694    11694    11836    12180    12609 
