Origin Time       2011/03/11 14:46:00
Lat.              38.103
Long.             142.860
Depth. (km)       24
Mag.              9.0
Station Code      HKD088
Station Lat.      43.4704
Station Long.     143.7488
Station Height(m) 215
Record Time       2011/03/11 14:48:36
Sampling Freq(Hz) 100Hz
Duration Time(s)  249
Dir.              U-D
Scale Factor      3920(gal)/6182761
Max. Acc. (gal)   3.179
Last Correction   2011/03/11 14:48:21
Memo.             
[...]
   -5708    -5004    -4583    -4782    -5413    -5988    -5647    -4402 
   -3183    -2565    -2480    -2764    -3148    -3010    -2478    -2582 
   -3209    -3252    -2872    -3018    -3564    -3858    -4014    -4370 
   -4695    -4795    -4656    -4211    -3815    -3679    -3533    -3413 
   -3432    -3577    -3994    -4378    -4180    -3924    -4212    -4435 
   -4174    -3553    -2651    -1920    -1750    -2035    -2416    -2537 
   -2568    -2856    -3248    -3628    -3947    -4019    -4022    -3925 
   -3570    -3692    -4553    -5014    -4622    -4196    -4054    -3859 
   -3692    -3738    -3538    -2842    -2303    -2003    -1492    -1320 
   -1618    -1559    -1707    -2917    -4056    -4158    -3916    -4021 
   -4404    -4596    -4534    -4609    -4641    -4497    -4606    -4808 
   -4754    -4700    -4903    -5391    -5814    -5786    -5501    -5015 
   -4552    -4679    -4741    -4061    -3341    -2969    -2871    -3234 
   -3881    -4221    -4009    -3802    -3903    -3945    -4012    -4233 
   -4352    -4429    -4553    -4733    -4989    -4968    -4792    -5034 
   -5308    -5205    -5141    -4989    -4450    -3955    -3705    -3567 
   -3541    -3534    -3703    -4214    -4572    -4482    -4513    -4978 
   -5224    -4867    -4410    -4212    -4333    -4616    -4467    -3738 
   -3026    -2552    -1957    -1403    -1357    -1553    -1776    -2148 
   -2273    -2036    -2112    -2502    -2605    -2790    -3596    -4443 
   -4714    -4614    -4520    -4571    -4654    -4271    -3367    -3046 
   -3630    -3816    -3332    -2870    -2344    -2118    -2484    -2429 
   -1878    -1767    -1865    -1835    -2099    -2467    -2247    -1722 
   -1754    -2096    -2308    -2770    -3215    -3412    -3829    -3943 
   -3503    -3331    -3247    -2875    -2702    -2748    -2773    -3080 
   -3713    -4002    -3726    -3563    -3781    -4078    -4503    -4973 
   -5054    -4953    -5066    -5024    -4624    -4412    -4500    -4607 
   -4821    -4922    -4844    -5201    -5827    -6038    -5850    -5436 
   -4972    -4821    -4878    -4690    -4310    -4116    -4093    -4005 
   -3761    -3498    -3440    -3424    -3218    -3019    -2969    -3034 
   -3162    -3059    -2790    -2942    -3304    -3307    -3305    -3397 
   -3039    -2393    -2061    -2056    -2009    -1885    -1908    -2039 
   -2441    -3405    -4186    -3991    -3594    -3806    -3885    -3317 
   -2951    -3033    -3015    -2998    -3262    -3492    -3359    -3304 
   -3598    -3692    -3459    -3314    -3495    -3817    -3750    -3246 
   -2795    -2682    -3061    -3730    -3839    -3147    -2471    -2330 
   -2630    -3231    -3708    -3565    -3221    -3262    -3518    -3833 
   -4019    -4027    -4033    -3702    -3152    -3057    -3381    -3593 
   -3606    -3765    -4156    -4796    -5474    -5442    -4820    -4539 
   -4562    -4379    -4137    -3922    -3691    -3841    -4300    -4299 
   -3818    -3620    -3900    -4290    -4559    -4678    -4779    -4741 
   -4378    -4173    -4358    -4406    -4194    -3901    -3751    -4106 
   -4620    -4879    -4884    -4483    -4105    -4037    -3768    -3463 
   -3517    -3639    -3788    -4176    -4522    -4706    -5056    -5378 
   -5351    -5209    -5028    -4866    -4924    -4836    -4203    -3521 
   -3314    -3174    -3068    -3707    -4501    -4387    -3978    -4087 
   -4376    -4553    -4696    -4511    -3836    -3383    -3779    -4581 
   -5101    -5191    -5083    -5144    -5338    -5212    -4811    -4484 
   -4354    -4619    -5132    -5247    -4865    -4463    -3965    -3048 
   -2288    -2275    -2755    -3432    -3886    -3656    -3300    -3701 
   -4350    -4053    -3193    -2958    -3317    -3967    -4771    -5071 
   -4958    -5067    -5245    -5485    -5842    -5801    -5414    -4891 
   -4031    -3315    -3284    -3286    -2750    -2428    -2781    -2846 
   -2332    -2046    -1990    -2075    -2528    -2757    -2442    -2003 
   -1881    -2265    -2418    -2058    -2088    -2527    -2760    -2784 
   -2864    -3253    -3652    -3670    -3692    -3836    -3658    -3265 
   -3083    -3217    -3412    -3151    -2537    -2251    -2460    -2937 
   -3312    -3245    -2949    -2685    -2429    -2244    -2151    -2220 
   -2694    -3384    -3754    -3940    -4279    -4357    -3999    -3681 
   -3502    -3518    -3909    -3995    -3230    -2451    -2367    -2502 
   -2506    -2534    -2219    -1462    -1187    -1626    -2097    -2569 
   -3182    -3417    -3438    -4069    -4714    -4543    -4223    -4288 
   -4597    -5103    -5518    -5281    -4438    -4073    -4672    -4990 
   -4452    -3877    -3316    -2805    -2751    -2785    -3027    -3744 
   -4104    -3843    -3639    -3567    -3558    -3920    -4198    -3919 
   -3668    -3602    -3097    -2369    -2393    -2944    -2992    -2869 
   -3354    -3917    -3832    -3425    -3144    -2879    -2862    -3424 
   -3889    -3737    -3592    -3557    -3219    -3269    -4021    -4440 
   -4373    -4424    -4549    -4789    -5258    -5560    -5445    -5068 
   -4496    -3871    -3406    -2951    -2569    -2602    -2996    -3330 
   -3393    -3637    -3923    -3551    -3140    -3403    -3817    -4002 
   -4071    -3992    -4033    -4403    -4514    -4266    -4168    -4225 
   -4343    -4389    -4374    -4540    -4688    -4731    -4923    -5052 
   -4817    -4731    -5116    -5284    -5051    -4955    -5068    -5081 
   -4861    -4418    -3639    -2837    -2656    -2822    -2840    -2880 
   -2789    -2399    -2105    -2071    -2245    -2591    -2958    -3237 
   -3378    -3542    -3802    -3801    -3630    -3848    -4160    -3966 
   -3604    -3344    -3008    -2916    -3346    -3976    -4375    -4306 
   -3894    -3489    -3443    -3883    -4288    -4085    -3609    -3495 
   -3848    -4334    -4542    -4486    -4345    -4086    -3850    -3707 
   -3493    -3272    -3174    -3178    -3290    -3445    -3388    -3015 
   -2527    -2289    -2327    -2175    -1910    -1893    -1809    -1731 
   -2176    -2602    -2379    -2221    -2512    -2546    -2384    -2635 
   -2878    -2528    -1911    -1336     -999    -1313    -1820    -1764 
   -1428    -1290    -1465    -1747    -1556     -925     -523     -643 
   -1070    -1291    -1223    -1387    -1895    -2572    -3319    -3708 
   -3862    -4480    -4955    -4444    -3841    -3835    -3765    -3612 
   -3808    -3761    -3309    -3151    -3289    -3400    -3414    -3369 
   -3375    -3386    -3336    -3352    -3605    -3882    -3875    -3786 
   -3776    -3580    -3279    -3244    -3238    -2938    -2759    -3106 
   -3765    -4320    -4506    -4275    -4044    -4294    -4632    -4456 
   -4102    -4087    -4272    -4405    -4296    -3976    -4047    -4593 
   -4956    -4728    -3813    -2920    -2740    -2507    -1853    -1591 
   -1754    -1579    -1042     -884    -1071    -1018     -991    -1252 
   -1497    -1689    -1735    -1550    -1644    -2522    -4042    -5201 
   -5297    -5038    -4936    -4978    -5468    -5999    -5898    -5346 
   -4740    -4673    -5560    -6483    -6452    -5879    -5400    -4964 
   -4510    -4315    -4373    -4459    -4519    -4041    -2890    -2268 
   -2748    -3392    -3318    -2766    -2588    -2622    -2338    -2329 
   -2707    -2719    -2583    -2740    -2858    -2848    -2858    -2767 
   -2765    -3290    -3982    -4045    -3716    -3670    -3648    -3435 
   -3495    -3738    -3750    -3786    -3656    -2958    -2620    -3020 
   -3219    -3118    -3006    -2803    -2674    -2769    -2951    -2908 
   -2659    -2591    -2592    -2317    -2105    -2348    -2686    -2911 
   -3180    -3008    -2171    -1570    -1775    -2137    -1966    -1730 
   -1957    -2327    -2685    -2838    -2724    -2995    -3671    -4183 
   -4360    -4232    -4160    -4467    -4829    -4811    -4380    -3763 
   -3139    -2607    -2146    -1631    -1335    -1571    -1990    -2142 
   -2189    -2395    -2492    -2500    -2765    -2835    -2548    -2755 
   -3478    -3719    -3138    -2184    -1382    -1367    -2131    -2509 
   -2087    -1811    -1798    -1431    -1170    -1485    -1792    -1864 
   -2091    -2473    -2810    -3032    -2976    -2850    -3069    -3149 
   -2908    -3146    -3541    -3424    -3492    -3786    -3259    -2366 
   -2367    -2899    -3292    -3819    -4385    -4482    -4195    -3976 
   -3817    -3411    -2835    -2456    -2571    -3209    -3912    -4129 
   -3797    -3198    -2649    -2379    -2193    -1987    -2266    -2767 
   -2741    -2802    -3491    -3974    -3698    -3168    -2955    -3121 
   -3469    -3545    -3066    -2673    -2931    -3299    -3401    -3455 
   -3194    -2462    -1588    -1052    -1422    -2161    -2199    -1809 
   -1628    -1559    -1669    -2097    -2506    -2792    -3020    -2981 
   -2634    -2431    -2758    -2917    -2254    -1589    -1602    -1977 
   -2375    -2472    -2010    -1389    -1262    -1558    -1642    -1438 
   -1609    -2232    -2462    -2132    -2103    -2690    -3259    -3351 
   -3206    -3221    -3497    -4020    -4646    -4952    -4815    -4671 
   -4672    -4427    -4024    -3917    -3929    -3912    -3987    -4146 
   -4709    -5444    -5603    -5552    -5857    -6234    -6290    -6013 
   -5791    -5921    -6220    -6244    -5712    -5127    -5291    -5836 
   -5736    -5247    -5206    -5343    -5135    -4673    -4138    -3730 
   -3669    -3747    -3380    -2725    -2594    -2749    -2668    -2719 
   -2976    -3300    -3723    -3800    -3188    -2365    -1909    -1691 
   -1655    -2023    -2312    -2157    -1950    -1876    -1900    -1993 
   -2016    -2041    -2076    -2029    -2192    -2537    -2574    -2542 
   -2765    -2660    -2112    -1927    -2426    -2934    -2906    -2773 
   -2793    -2928    -3368    -3646    -3259    -2510    -1874    -1561 
   -1501    -1736    -2208    -2525    -2695    -3119    -3762    -4167 
   -4168    -4026    -4125    -4513    -4832    -5065    -5441    -5678 
   -5473    -5155    -4985    -4743    -4297    -3717    -3054    -2461 
   -2481    -3386    -4374    -4875    -5158    -4976    -4487    -4625 
   -4962    -4744    -4398    -4046    -3643    -3826    -4811    -5633 
   -5574    -5261    -4977    -4506    -4401    -4704    -4823    -4828 
   -4748    -4535    -4704    -5186    -5249    -4844    -4349    -3829 
   -3311    -3096    -3265    -3397    -3406    -3588    -3742    -3570 
   -3334    -3311    -3399    -3434    -3428    -3743    -4316    -4335 
   -3844    -3470    -3225    -3332    -3708    -3487    -2708    -2116 
   -1783    -1498    -1467    -1566    -1311    -1138    -1441    -1743 
   -1973    -2196    -2385    -2888    -3693    -4302    -4421    -4351 
   -4620    -5240    -5881    -6092    -5481    -4582    -4165    -3912 
   -3460    -3201    -3176    -3115    -3209    -3412    -3457    -3540 
   -3350    -2528    -1837    -1662    -1544    -1232     -799     -625 
    -874    -1246    -1483    -1522    -1603    -1884    -2385    -3367 
   -4583    -5472    -6229    -6954    -7141    -6872    -6591    -6301 
   -6195    -6369    -6374    -6106    -5708    -5150    -4509    -3892 
   -3321    -2901    -2874    -2997    -2728    -2448    -2671    -3065 
   -3381    -3694    -3976    -4199    -4445    -4877    -5392    -5662 
   -5724    -5911    -6373    -6916    -7103    -6741    -6240    -5975 
   -5640    -4927    -4164    -3639    -3355    -3558    -4262    -4967 
   -5362    -5628    -5990    -6115    -5716    -5162    -4612    -3998 
   -3657    -3787    -4176    -4837    -5742    -6208    -5995    -5594 
   -5027    -4365    -3908    -3446    -3135    -3238    -3136    -2661 
   -2364    -2253    -2015    -1642    -1599    -2150    -2857    -3575 
   -4445    -5094    -5266    -5304    -5351    -5202    -4969    -4792 
   -4560    -4539    -4882    -4957    -4593    -4345    -4095    -3574 
   -3070    -2509    -1903    -1870    -2176    -1934    -1253     -888 
   -1137    -1531    -1461    -1168    -1334    -1868    -2222    -2346 
   -2335    -2310    -2607    -3170    -3684    -4025    -4292    -4577 
   -4476    -3997    -3869    -4228    -4734    -4884    -4361    -3985 
   -4176    -4391    -4805    -5348    -5434    -5218    -4787    -4173 
   -3659    -3245    -2975    -2823    -2814    -3272    -3941    -4107 
   -3899    -3864    -3735    -3356    -3088    -2863    -2823    -3092 
   -2916    -2142    -1605    -1755    -2335    -2840    -3169    -3511 
   -3758    -3610    -2989    -2500    -2553    -2614    -2537    -2541 
   -2463    -2403    -2533    -2653    -2615    -2487    -2432    -2487 
   -2593    -2804    -3074    -2956    -2170    -1509    -1791    -2227 
   -2109    -1938    -1659     -978     -335     -196     -635    -1253 
   -1523    -1244     -772     -631     -672     -615     -522     -587 
   -1253    -2417    -3293    -3548    -3530    -3646    -3837    -3904 
   -3998    -4138    -4185    -4247    -4172    -3675    -3190    -3152 
   -3199    -3011    -2555    -2008    -2003    -2527    -2707    -2245 
   -1710    -1610    -1655    -1638    -2025    -2655    -2989    -3166 
   -3491    -4004    -4595    -5014    -5096    -4959    -4646    -4147 
   -3693    -3468    -3328    -3234    -3543    -3918    -3586    -3080 
   -3003    -2945    -2966    -3213    -3208    -2860    -2445    -2108 
   -2093    -2424    -2712    -2925    -3262    -3383    -3165    -3110 
   -3224    -3094    -2923    -3005    -2840    -2227    -1995    -2437 
   -2955    -3337    -3767    -4244    -4484    -4220    -3771    -3943 
   -4852    -5585    -5718    -5682    -5772    -6175    -6750    -7004 
   -7267    -8018    -8545    -8235    -7420    -6427    -5454    -4881 
   -4737    -4538    -4274    -4402    -4671    -4651    -4674    -4999 
   -5443    -6013    -6672    -6925    -6347    -5294    -4524    -4314 
   -4394    -4377    -4333    -4509    -4466    -3858    -3456    -3968 
   -4803    -5101    -4675    -3868    -3410    -3331    -3061    -2817 
   -2794    -2694    -2726    -3161    -3599    -3622    -3397    -3184 
   -3006    -2990    -3074    -3083    -3212    -3316    -3218    -3425 
   -3862    -3951    -3898    -3905    -3708    -3660    -4132    -4572 
   -4750    -5157    -5823    -6155    -5842    -5381    -5276    -5506 
   -6086    -6852    -7478    -7864    -7785    -7436    -7540    -7956 
   -8124    -8142    -7917    -7160    -6277    -5745    -5356    -4673 
   -3752    -2996    -2506    -2186    -1918    -1704    -1933    -2314 
   -2071    -1850    -2449    -3118    -3145    -3092    -3624    -4125 
   -4143    -4285    -4245    -3779    -3946    -4505    -4287    -3709 
   -3386    -3060    -2791    -2462    -1605     -645     -309     -435 
    -668    -1021    -1272    -1155     -900     -938    -1373    -1850 
   -2027    -2007    -2157    -2677    -3279    -3422    -3087    -2840 
   -2870    -2819    -2678    -2857    -3265    -3355    -3063    -2542 
   -1829    -1429    -1687    -2154    -2460    -2618    -2767    -3230 
   -3919    -4170    -3955    -4035    -4433    -4559    -4645    -4839 
   -4543    -4048    -4009    -4095    -4274    -4880    -5248    -4814 
   -4236    -4121    -4308    -4471    -4340    -3732    -2931    -2518 
   -2480    -2519    -2696    -2904    -2923    -2951    -3167    -3260 
   -3146    -3304    -3575    -3475    -3352    -3304    -3225    -3493 
   -3901    -4294    -4837    -4944    -4491    -4323    -4895    -5794 
   -6477    -6815    -6613    -5906    -5349    -5165    -4986    -4592 
   -4090    -3756    -3617    -3521    -3438    -3223    -2716    -2154 
   -1911    -1866    -1676    -1434    -1199     -947    -1228    -2000 
   -2334    -2385    -2832    -3283    -3355    -3316    -3201    -2803 
   -2218    -1688    -1182     -694     -505     -524     -298       -4 
    -178     -693     -932     -757     -583     -478     -327     -106 
     269      432       33     -454     -493     -326     -505    -1022 
   -1503    -1913    -2214    -2288    -2677    -3416    -3719    -3818 
   -4000    -3880    -3843    -4255    -4547    -4307    -3953    -4061 
   -4579    -4971    -5012    -4814    -4376    -4161    -4525    -4609 
   -3983    -3329    -2987    -2923    -2965    -3008    -3351    -3700 
   -3521    -3155    -3027    -3080    -2946    -2402    -1678    -1082 
   -1037    -1724    -2631    -3227    -3332    -3104    -3027    -3385 
   -3899    -4150    -4222    -4311    -4180    -3778    -3389    -3015 
   -2614    -2375    -2244    -2256    -2744    -3272    -3090    -2444 
   -1904    -1657    -1895    -2626    -3235    -3168    -2929    -3171 
   -3514    -3570    -3477    -3391    -3685    -4357    -4744    -4600 
   -4497    -4917    -5521    -5923    -6017    -5658    -5255    -5321 
   -5795    -6157    -5829    -5171    -4867    -4854    -4801    -4528 
   -4384    -4570    -4492    -4160    -4046    -3984    -3906    -4066 
   -4162    -3537    -2417    -1737    -1637    -1664    -1916    -2454 
   -2715    -2788    -3235    -3522    -3289    -3223    -3408    -3445 
   -3316    -3287    -3434    -3252    -2730    -2561    -2791    -3079 
   -3370    -3596    -3778    -4132    -4474    -4444    -4259    -4325 
   -4817    -5464    -5647    -5431    -5248    -5190    -5295    -5251 
   -4932    -4712    -4566    -4635    -5070    -5193    -4879    -4845 
   -5046    -5048    -5226    -5601    -5161    -3965    -3269    -3427 
   -3930    -4247    -4178    -4095    -4191    -4222    -4116    -3921 
   -3615    -3403    -3644    -4046    -4034    -3854    -3633    -2745 
   -1578    -1353    -1802    -2082    -2437    -2789    -2748    -2700 
   -2833    -3018    -3413    -3817    -3788    -3263    -2481    -2047 
   -2114    -1983    -1833    -2197    -2572    -2936    -3664    -4175 
   -4204    -4372    -4849    -5321    -5703    -6036    -6193    -5961 
   -5588    -5470    -5178    -4519    -4286    -4564    -4679    -4543 
   -4365    -4227    -4195    -4293    -4480    -4440    -4025    -3728 
   -3900    -4318    -4631    -4679    -4586    -4630    -4959    -5557 
   -6372    -6967    -6969    -6710    -6174    -5330    -5076    -5559 
   -5808    -5645    -5733    -6003    -5854    -5383    -4818    -4219 
   -3991    -4099    -4083    -4061    -4124    -4041    -4057    -4285 
   -4391    -4426    -4552    -4723    -4740    -4377    -3909    -3725 
   -3929    -4457    -4811    -4679    -4187    -3410    -2869    -2869 
   -2892    -3053    -3603    -3829    -3555    -3266    -2815    -2210 
   -1992    -1958    -1638    -1423    -1571    -1706    -1738    -1808 
   -1947    -2071    -2043    -1898    -1696    -1620    -1766    -1757 
   -1672    -2007    -2645    -3154    -3508    -4055    -4858    -5642 
   -6321    -6767    -6701    -6202    -5563    -4768    -3966    -3484 
   -3024    -2564    -2687    -3298    -3877    -4123    -4159    -4384 
   -4726    -5004    -5207    -5300    -5463    -5637    -5740    -5959 
   -5929    -5504    -5087    -4473    -3894    -4084    -4494    -4446 
   -4288    -4068    -3467    -2863    -2658    -2726    -2953    -3135 
   -3091    -2955    -2887    -2924    -2846    -2554    -2361    -2398 
   -2701    -3116    -3097    -2795    -2777    -2813    -2731    -2800 
   -3073    -3678    -4414    -4805    -5026    -5009    -4398    -3753 
   -3692    -3789    -3445    -2980    -2689    -2230    -1776    -1616 
   -1485    -1420    -1545    -1636    -1818    -2541    -3507    -3825 
   -3746    -4081    -4364    -4490    -5246    -6059    -6115    -6005 
