Origin Time       2011/03/11 14:46:00
Lat.              38.103
Long.             142.860
Depth. (km)       24
Mag.              9.0
Station Code      HKD031
Station Lat.      44.1185
Station Long.     142.5952
Station Height(m) 214
Record Time       2011/03/11 14:49:41
Sampling Freq(Hz) 100Hz
Duration Time(s)  129
Dir.              N-S
Scale Factor      3920(gal)/6182761
Max. Acc. (gal)   1.884
Last Correction   2011/03/11 14:49:26
Memo.             
[...]
   16806    16874    16927    16952    16963    16965    16958    16966 
   17002    17050    17098    17144    17175    17184    17178    17166 
   17156    17154    17162    17179    17203    17226    17238    17232 
   17223    17223    17229    17246    17279    17318    17336    17322 
   17281    17217    17143    17076    17018    16984    16993    17025 
   17053    17075    17092    17086    17065    17054    17047    17037 
   17030    17010    16975    16950    16949    16969    17019    17096 
   17176    17248    17317    17367    17386    17391    17384    17352 
   17319    17313    17325    17338    17356    17380    17400    17412 
   17414    17395    17349    17292    17246    17221    17217    17219 
   17201    17158    17101    17033    16969    16921    16893    16883 
   16897    16938    16988    17030    17061    17072    17070    17073 
   17080    17080    17072    17051    17007    16954    16908    16874 
   16863    16887    16936    16992    17052    17116    17162    17182 
   17176    17145    17106    17088    17081    17073    17079    17095 
   17102    17115    17148    17180    17205    17240    17279    17318 
   17368    17413    17438    17444    17430    17402    17378    17362 
   17356    17375    17430    17509    17598    17689    17775    17850 
   17911    17956    17990    18017    18034    18041    18027    17994 
   17981    18005    18035    18067    18097    18104    18099    18106 
   18120    18144    18195    18260    18318    18377    18445    18508 
   18560    18600    18612    18591    18545    18477    18394    18318 
   18254    18199    18159    18141    18133    18130    18127    18100 
   18050    18006    17967    17916    17873    17858    17854    17848 
   17846    17829    17784    17721    17640    17535    17426    17337 
   17271    17226    17201    17189    17175    17152    17132    17107 
   17072    17038    17001    16947    16885    16822    16753    16688 
   16632    16583    16553    16556    16569    16572    16576    16580 
   16571    16549    16525    16493    16444    16385    16327    16280 
   16253    16252    16266    16287    16316    16343    16365    16390 
   16397    16373    16342    16322    16313    16338    16404    16480 
   16533    16552    16546    16529    16528    16570    16644    16730 
   16805    16842    16832    16787    16717    16633    16563    16522 
   16497    16480    16474    16458    16413    16351    16283    16210 
   16142    16076    16005    15945    15904    15866    15823    15780 
   15726    15639    15536    15454    15394    15347    15325    15312 
   15267    15197    15122    15027    14915    14815    14723    14629 
   14538    14453    14378    14318    14272    14235    14223    14249 
   14276    14259    14204    14144    14092    14060    14061    14076 
   14069    14031    13971    13908    13874    13872    13883    13920 
   13993    14077    14167    14286    14417    14533    14652    14778 
   14879    14945    14999    15043    15080    15134    15212    15295 
   15365    15425    15484    15544    15607    15680    15769    15872 
   15981    16074    16127    16144    16139    16122    16112    16112 
   16120    16151    16209    16280    16369    16477    16582    16667 
   16734    16779    16798    16805    16809    16791    16753    16718 
   16685    16661    16677    16737    16821    16923    17025    17084 
   17091    17059    16985    16881    16782    16704    16643    16598 
   16553    16483    16388    16281    16161    16027    15894    15766 
   15639    15517    15396    15260    15119    15000    14912    14855 
   14832    14821    14793    14758    14732    14709    14705    14735 
   14779    14814    14842    14859    14869    14874    14865    14841 
   14810    14778    14741    14703    14691    14722    14778    14851 
   14956    15082    15208    15336    15469    15591    15688    15769 
   15841    15894    15930    15951    15958    15980    16020    16053 
   16079    16102    16108    16105    16106    16107    16108    16119 
   16130    16119    16088    16052    16002    15940    15898    15889 
   15892    15917    15966    16008    16038    16067    16082    16075 
   16069    16072    16072    16076    16085    16087    16096    16132 
   16190    16263    16350    16434    16501    16556    16589    16592 
   16581    16571    16558    16538    16518    16504    16496    16505 
   16538    16595    16663    16731    16791    16833    16847    16845 
   16834    16821    16824    16840    16855    16870    16882    16885 
   16895    16930    16978    17022    17064    17092    17103    17123 
   17155    17184    17223    17269    17293    17303    17333    17366 
   17382    17409    17456    17499    17530    17552    17560    17555 
   17541    17512    17488    17490    17499    17495    17497    17509 
   17509    17496    17467    17409    17346    17306    17276    17248 
   17242    17262    17295    17347    17430    17544    17670    17782 
   17867    17924    17957    17969    17966    17968    17993    18035 
   18076    18109    18125    18112    18079    18043    18000    17954 
   17916    17880    17836    17799    17786    17782    17773    17761 
   17733    17691    17668    17669    17677    17701    17733    17740 
   17723    17700    17672    17635    17598    17552    17490    17422 
   17352    17281    17229    17206    17176    17125    17080    17032 
   16961    16888    16828    16775    16733    16712    16716    16744 
   16785    16822    16848    16865    16878    16885    16896    16927 
   16979    17036    17092    17135    17136    17083    17001    16919 
   16861    16844    16861    16881    16902    16930    16948    16952 
   16950    16929    16892    16868    16850    16824    16797    16774 
   16745    16730    16736    16745    16755    16770    16772    16759 
   16739    16709    16657    16581    16485    16382    16279    16178 
   16079    15983    15899    15834    15782    15734    15680    15604 
   15510    15438    15405    15396    15412    15454    15501    15535 
   15557    15560    15534    15489    15428    15340    15249    15177 
   15127    15102    15110    15141    15170    15190    15190    15154 
   15088    15019    14959    14911    14889    14890    14896    14908 
   14931    14959    15001    15062    15118    15152    15168    15158 
   15121    15082    15061    15059    15085    15136    15198    15272 
   15363    15464    15568    15684    15809    15916    15993    16052 
   16091    16107    16118    16139    16164    16206    16271    16335 
   16376    16398    16408    16421    16437    16438    16415    16382 
   16358    16353    16364    16398    16446    16482    16499    16501 
   16493    16490    16503    16525    16556    16600    16626    16614 
   16589    16566    16536    16510    16505    16515    16535    16562 
   16579    16573    16559    16546    16522    16498    16509    16554 
   16617    16691    16758    16803    16840    16865    16870    16873 
   16894    16929    16981    17050    17108    17131    17121    17076 
   16992    16896    16813    16747    16711    16724    16773    16829 
   16881    16923    16944    16946    16934    16899    16836    16773 
   16735    16724    16740    16788    16853    16918    16965    16985 
   16991    17007    17041    17083    17124    17149    17140    17092 
   17013    16924    16847    16805    16799    16808    16831    16866 
   16883    16868    16834    16792    16757    16741    16732    16717 
   16702    16678    16636    16596    16572    16548    16518    16500 
   16495    16495    16501    16511    16501    16472    16447    16418 
   16371    16325    16294    16279    16291    16329    16365    16371 
   16337    16257    16149    16065    16011    15961    15928    15926 
   15925    15909    15884    15831    15755    15686    15632    15588 
   15571    15572    15561    15549    15552    15554    15547    15533 
   15518    15513    15524    15534    15532    15524    15519    15498 
   15444    15390    15367    15363    15375    15415    15476    15544 
   15622    15694    15750    15808    15874    15946    16047    16180 
   16317    16444    16551    16629    16691    16756    16818    16874 
   16929    16976    16997    16998    16994    16981    16958    16934 
   16897    16833    16754    16673    16596    16531    16492    16471 
   16451    16434    16429    16432    16438    16437    16398    16322 
   16241    16152    16054    15974    15921    15890    15901    15950 
   16001    16049    16095    16106    16074    16029    15976    15918 
   15890    15905    15944    16000    16068    16119    16135    16132 
   16118    16085    16033    15987    15958    15942    15950    15987 
   16033    16082    16131    16160    16171    16179    16185    16187 
   16200    16238    16297    16373    16451    16518    16569    16599 
   16594    16542    16451    16337    16222    16133    16079    16048 
   16037    16053    16080    16100    16118    16145    16171    16187 
   16191    16177    16148    16131    16139    16174    16249    16361 
   16473    16557    16619    16673    16715    16740    16747    16742 
   16725    16699    16671    16643    16619    16602    16602    16631 
   16685    16738    16773    16796    16800    16788    16781    16779 
   16774    16772    16773    16777    16787    16792    16767    16707 
   16633    16559    16502    16476    16466    16444    16417    16400 
   16384    16366    16346    16306    16243    16180    16132    16108 
   16115    16133    16143    16139    16118    16094    16081    16069 
   16038    15994    15941    15881    15828    15783    15731    15673 
   15620    15571    15541    15539    15547    15559    15585    15617 
   15637    15640    15620    15575    15527    15481    15440    15431 
   15464    15514    15557    15578    15569    15528    15467    15396 
   15314    15235    15174    15123    15091    15098    15126    15145 
   15164    15173    15147    15104    15063    14999    14925    14860 
   14790    14731    14701    14663    14613    14594    14590    14566 
   14532    14473    14358    14234    14133    14029    13945    13911 
   13884    13844    13823    13802    13754    13713    13692    13655 
   13619    13603    13578    13545    13526    13497    13459    13442 
   13432    13419    13430    13452    13455    13451    13453    13449 
   13441    13448    13461    13469    13484    13499    13507    13513 
   13503    13471    13449    13466    13521    13593    13678    13779 
   13873    13941    14000    14057    14092    14117    14161    14214 
   14271    14342    14405    14448    14500    14567    14630    14683 
   14727    14739    14713    14660    14595    14533    14485    14449 
   14425    14419    14432    14453    14476    14501    14523    14546 
   14580    14628    14689    14770    14867    14971    15080    15190 
   15294    15379    15436    15474    15483    15468    15454    15434 
   15405    15403    15431    15465    15512    15579    15652    15730 
   15819    15912    16004    16090    16159    16212    16259    16307 
   16360    16431    16527    16641    16753    16849    16918    16944 
   16937    16925    16910    16890    16882    16890    16892    16898 
   16913    16906    16878    16861    16858    16870    16908    16961 
   17015    17082    17160    17225    17281    17332    17356    17352 
   17353    17356    17341    17319    17292    17246    17189    17149 
   17137    17147    17172    17198    17208    17195    17152    17065 
   16955    16864    16810    16795    16831    16917    17020    17119 
   17199    17242    17253    17248    17220    17182    17159    17155 
   17163    17191    17241    17286    17309    17315    17301    17277 
   17257    17240    17233    17256    17296    17334    17358    17361 
   17337    17294    17254    17228    17225    17236    17241    17232 
   17213    17185    17135    17066    16999    16949    16913    16881 
   16844    16793    16717    16619    16524    16442    16368    16303 
   16240    16166    16088    16004    15904    15805    15709    15598 
   15482    15369    15240    15099    14978    14867    14762    14679 
   14610    14531    14444    14354    14260    14173    14099    14031 
   13976    13955    13961    13972    13989    14011    14017    13992 
   13953    13916    13896    13907    13927    13921    13905    13898 
   13895    13909    13956    14022    14094    14173    14252    14327 
   14396    14443    14459    14459    14460    14471    14498    14548 
   14613    14677    14735    14784    14813    14824    14828    14829 
   14833    14855    14899    14963    15042    15125    15203    15274 
   15344    15417    15497    15575    15643    15693    15732    15775 
   15826    15874    15934    16006    16061    16103    16142    16151 
   16120    16084    16055    16037    16070    16157    16242    16312 
   16368    16395    16405    16423    16446    16479    16544    16618 
   16670    16706    16726    16711    16681    16671    16689    16742 
   16829    16921    17002    17066    17107    17138    17187    17259 
   17349    17444    17533    17606    17630    17594    17540    17496 
   17465    17481    17576    17727    17890    18040    18146    18207 
   18249    18271    18277    18309    18371    18430    18498    18590 
   18673    18728    18781    18831    18872    18932    19002    19065 
   19132    19205    19255    19274    19265    19220    19156    19108 
   19077    19050    19028    18999    18965    18947    18935    18909 
   18880    18848    18801    18740    18672    18599    18522    18449 
   18389    18350    18323    18285    18218    18118    17993    17867 
   17743    17616    17508    17430    17361    17307    17282    17257 
   17212    17162    17103    17026    16950    16883    16825    16788 
   16768    16742    16718    16701    16660    16593    16534    16484 
   16436    16403    16380    16351    16326    16301    16258    16211 
   16179    16133    16070    16026    16001    15972    15937    15888 
   15802    15676    15532    15396    15285    15202    15145    15111 
   15094    15087    15078    15057    15035    15018    14988    14949 
   14928    14920    14912    14917    14939    14967    15007    15057 
   15101    15140    15165    15147    15091    15034    14970    14893 
   14840    14826    14838    14885    14967    15055    15141    15230 
   15307    15365    15413    15443    15438    15421    15418    15432 
   15475    15550    15627    15697    15763    15804    15815    15816 
   15808    15770    15706    15641    15585    15539    15512    15520 
   15569    15648    15742    15838    15914    15956    15971    15988 
   16034    16105    16177    16245    16308    16342    16346    16352 
   16364    16363    16363    16372    16383    16401    16425    16437 
   16439    16447    16447    16431    16429    16449    16459    16461 
   16478    16493    16493    16486    16473    16462    16472    16508 
   16563    16647    16746    16817    16846    16851    16826    16768 
   16692    16605    16523    16479    16481    16512    16549    16575 
   16572    16533    16479    16432    16395    16368    16368    16402 
   16466    16558    16663    16760    16837    16902    16961    17019 
   17086    17153    17203    17241    17271    17284    17289    17293 
   17298    17319    17365    17416    17468    17518    17546    17552 
   17555    17551    17538    17533    17538    17542    17545    17560 
   17589    17635    17702    17774    17829    17869    17903    17921 
   17928    17941    17944    17921    17889    17851    17805    17765 
   17741    17729    17727    17726    17706    17666    17613    17530 
   17428    17341    17279    17225    17177    17142    17113    17064 
   17004    16969    16963    16967    16973    16970    16946    16888 
   16785    16664    16564    16499    16453    16423    16419    16419 
   16400    16374    16350    16323    16301    16280    16242    16191 
   16141    16074    15983    15889    15789    15668    15544    15429 
   15311    15200    15113    15044    14979    14917    14861    14799 
   14722    14649    14582    14519    14475    14451    14418    14376 
   14339    14295    14242    14200    14168    14135    14107    14086 
   14072    14063    14052    14046    14063    14096    14124    14136 
   14127    14098    14077    14079    14090    14100    14124    14171 
   14223    14275    14337    14398    14448    14491    14519    14526 
   14533    14552    14566    14576    14598    14611    14602    14601 
   14618    14641    14683    14760    14855    14954    15052    15139 
   15219    15301    15370    15420    15490    15595    15705    15813 
   15934    16051    16142    16220    16290    16356    16438    16537 
   16642    16756    16854    16913    16945    16960    16944    16902 
   16876    16884    16918    16981    17080    17201    17312    17387 
   17414    17396    17340    17265    17186    17119    17083    17072 
   17058    17054    17087    17128    17141    17130    17100    17064 
   17039    17029    17032    17049    17071    17083    17089    17097 
   17098    17098    17130    17191    17254    17317    17363    17352 
   17302    17251    17197    17147    17128    17132    17148    17183 
   17228    17258    17258    17229    17178    17131    17103    17091 
   17105    17158    17223    17278    17322    17347    17350    17345 
   17345    17356    17379    17413    17446    17466    17454    17391 
   17282    17154    17031    16925    16849    16812    16802    16799 
   16797    16796    16783    16754    16727    16706    16673    16644 
   16628    16606    16569    16529    16477    16417    16380    16374 
   16380    16403    16451    16498    16525    16538    16532    16508 
   16483    16442    16384    16339    16321    16327    16367    16426 
   16465    16481    16489    16485    16480    16512    16580    16650 
   16709    16742    16719    16645    16556    16466    16381    16324 
   16303    16300    16303    16312    16317    16324    16356    16413 
   16462    16500    16531    16552    16564    16566    16558    16537 
   16501    16455    16416    16399    16404    16429    16472    16519 
   16544    16534    16490    16423    16349    16296    16273    16258 
   16236    16209    16158    16068    15963    15878    15806    15751 
   15725    15699    15655    15625    15600    15552    15510    15488 
   15456    15427    15428    15436    15435    15444    15479    15540 
   15630    15734    15830    15926    16021    16094    16136    16154 
   16141    16098    16047    16003    15976    15986    16031    16092 
   16166    16257    16344    16409    16455    16482    16486    16473 
   16459    16447    16438    16435    16430    16411    16383    16350 
   16298    16229    16175    16154    16148    16179    16272    16380 
   16460    16530    16595    16630    16636    16630    16607    16562 
   16522    16519    16561    16626    16692    16753    16802    16818 
   16789    16730    16663    16592    16526    16475    16421    16355 
   16278    16178    16074    16006    15971    15956    15962    15974 
   15962    15925    15887    15856    15835    15842    15875    15915 
