Origin Time       2011/03/11 14:46:00
Lat.              38.103
Long.             142.860
Depth. (km)       24
Mag.              9.0
Station Code      HKD086
Station Lat.      42.8542
Station Long.     143.8579
Station Height(m) 9
Record Time       2011/03/11 14:48:02
Sampling Freq(Hz) 100Hz
Duration Time(s)  300
Dir.              E-W
Scale Factor      3920(gal)/6182761
Max. Acc. (gal)   42.697
Last Correction   2011/03/11 14:47:47
Memo.             
[...]
  -32907   -30197   -26852   -24024   -22668   -23602   -28017   -35908 
  -45714   -55499   -63391   -68607   -71722   -73515   -74675   -75465 
  -75276   -73658   -71228   -68893   -67109   -65732   -63803   -61123 
  -59468   -60033   -62008   -64313   -66068   -66384   -64761   -61003 
  -55825   -50997   -47773   -46204   -45651   -45344   -44909   -43969 
  -41747   -38058   -33621   -29081   -25004   -22199   -21079   -21478 
  -23033   -24825   -25493   -24467   -22345   -20563   -21088   -25080 
  -32122   -40887   -49483   -56255   -60937   -64004   -66163   -68739 
  -72712   -77972   -83741   -88892   -92549   -94092   -93192   -90507 
  -86869   -82809   -79318   -76949   -75331   -74367   -74247   -74882 
  -75682   -74889   -70480   -62268   -52341   -43927   -39352   -38652 
  -40352   -42549   -43354   -41394   -36681   -30966   -26244   -23252 
  -21850   -21771   -22858   -24990   -27842   -31277   -35159   -38313 
  -39553   -39270   -38692   -38859   -40525   -44049   -48870   -53674 
  -57577   -60220   -61490   -62085   -62959   -64360   -65699   -66375 
  -66918   -67538   -67039   -65038   -62237   -59179   -57040   -57099 
  -59096   -61600   -63051   -62707   -60881   -57896   -54219   -50767 
  -47937   -46120   -45794   -46178   -46046   -44773   -41765   -37046 
  -32141   -28982   -28947   -32560   -38628   -45213   -51038   -54898 
  -56172   -55766   -55172   -55366   -56330   -57808   -60135   -62846 
  -64244   -63677   -62267   -61340   -61497   -62505   -63611   -64591 
  -65863   -67493   -69040   -69752   -68619   -65164   -60221   -55713 
  -53267   -52911   -53465   -53463   -51590   -47471   -42014   -36699 
  -32812   -31089   -31387   -32446   -32477   -30286   -25937   -20313 
  -14160    -8405    -4521    -3755    -7112   -15086   -26882   -40615 
  -53423   -62622   -67440   -68277   -66068   -62784   -60197   -59058 
  -59824   -62052   -64295   -65967   -67508   -68871   -69716   -70468 
  -71738   -73213   -73668   -71453   -65660   -57782   -50539   -44857 
  -40191   -36457   -33901   -32642   -32711   -34258   -37365   -40686 
  -41781   -39524   -34750   -29534   -26499   -27036   -30187   -33861 
  -36071   -35619   -33343   -31374   -30711   -31249   -32934   -35773 
  -39929   -45551   -52342   -59407   -65169   -68438   -69544   -69545 
  -69289   -69199   -68783   -67241   -65023   -63449   -63336   -64934 
  -68205   -72664   -76912   -78769   -76852   -71328   -63200   -54231 
  -46469   -41029   -38530   -39329   -41941   -43593   -42875   -40430 
  -37649   -35291   -33392   -32086   -31213   -30098   -28654   -27287 
  -26098   -25228   -25240   -26718   -29761   -34067   -39023   -43805 
  -48078   -51763   -54611   -57232   -61173   -66992   -73532   -79661 
  -85161   -89707   -92586   -93116   -90965   -86571   -80951   -75459 
  -71595   -69338   -66498   -61524   -54974   -47639   -40043   -33402 
  -29282   -28585   -30991   -35075   -39213   -42384   -43865   -43124 
  -40255   -35875   -31302   -28618   -29487   -33887   -40153   -46282 
  -51011   -54062   -55692   -55836   -54673   -53889   -55354   -58852 
  -62652   -65342   -66297   -65746   -64541   -63078   -61198   -59233 
  -57714   -56410   -54580   -51714   -47991   -44389   -42194   -42151 
  -43899   -46299   -48019   -47415   -43244   -36177   -28682   -23654 
  -22785   -25525   -30155   -35220   -39484   -41943   -42503   -41796 
  -40770   -40784   -43018   -47510   -53114   -58328   -61875   -62659 
  -60252   -55341   -49423   -44765   -43382   -44909   -47276   -49446 
  -51238   -51735   -50126   -46887   -43419   -41147   -40841   -42548 
  -45574   -48786   -51418   -52821   -52338   -50276   -47626   -45206 
  -43779   -43497   -43528   -43232   -42934   -43574   -45722   -48944 
  -52729   -57471   -63389   -69184   -73341   -75771   -76995   -77098 
  -76185   -74931   -73675   -71943   -69571   -66682   -63319   -60110 
  -57852   -57031   -58009   -60331   -62412   -62704   -60833   -57659 
  -54315   -51571   -49938   -49050   -47841   -46033   -43535   -39651 
  -34873   -30936   -28531   -27139   -26299   -25994   -26360   -27354 
  -28913   -30971   -33319   -36301   -40776   -47010   -54392   -61732 
  -67562   -70980   -72033   -71170   -69239   -67672   -67649   -69385 
  -72349   -75675   -78305   -79102   -77537   -74062   -69227   -63615 
  -58585   -54980   -52319   -50296   -48915   -47834   -46820   -45669 
  -44007   -41466   -37796   -33516   -29608   -26213   -23050   -20003 
  -16901   -14199   -12650   -12582   -14547   -18850   -24525   -29726 
  -33170   -35358   -37553   -40168   -43111   -46076   -48130   -48651 
  -48242   -47627   -46938   -46599   -47422   -49772   -53205   -57105 
  -61303   -65185   -67484   -67630   -66031   -63936   -63111   -64090 
  -65547   -65613   -63135   -58535   -53595   -50196   -49794   -52586 
  -56811   -60545   -62972   -63777   -63209   -61818   -59645   -56463 
  -52606   -49137   -46832   -45677   -45754   -46957   -48018   -47790 
  -46874   -46860   -48585   -51330   -53868   -55697   -56387   -55711 
  -54446   -53379   -52824   -52952   -53884   -55774   -58127   -60047 
  -61351   -62131   -62028   -60749   -58728   -56984   -56480   -57477 
  -59641   -62526   -65031   -65815   -65021   -63768   -62582   -61726 
  -61670   -62441   -63448   -64121   -64559   -65268   -66075   -66226 
  -65408   -63926   -62375   -61148   -59837   -57517   -53748   -48769 
  -43493   -39528   -38167   -39716   -43714   -48842   -53209   -55646 
  -56643   -57365   -58244   -59011   -59029   -58172   -57671   -58231 
  -58440   -56731   -53218   -49077   -45246   -42357   -41502   -43226 
  -46115   -48314   -49418   -49522   -48202   -45419   -41977   -38720 
  -36180   -35073   -36437   -40703   -46854   -53316   -58971   -62893 
  -65100   -66713   -68157   -69298   -70226   -70468   -69161   -65958 
  -61202   -55963   -51559   -48386   -45883   -43801   -42707   -43240 
  -44825   -45678   -44584   -41720   -37980   -34385   -31614   -29664 
  -28331   -27677   -27389   -26715   -25945   -26449   -28850   -32712 
  -37450   -42468   -47451   -52670   -58206   -63437   -67732   -70794 
  -72341   -72628   -72604   -72858   -73536   -74733   -75885   -75994 
  -74606   -71566   -66866   -61084   -55182   -50190   -46562   -43741 
  -40987   -37635   -32955   -27231   -21692   -17253   -14537   -13874 
  -15250   -18520   -22457   -25308   -26651   -26701   -25724   -24862 
  -25352   -27881   -32812   -39538   -46535   -51887   -53647   -51483 
  -47369   -43903   -42770   -44063   -46713   -49602   -51458   -50803 
  -47201   -41927   -37061   -34024   -33060   -34011   -36716   -40545 
  -44013   -45048   -42693   -38484   -34846   -33283   -34535   -38565 
  -44275   -49791   -53379   -54746   -54615   -53582   -52746   -53337 
  -54656   -54449   -51400   -45751   -38339   -30796   -25477   -23979 
  -26683   -32919   -41001   -48955   -55287   -59820   -63293   -65317 
  -64985   -62778   -59847   -57203   -55096   -52075   -46741   -39839 
  -33259   -28621   -26951   -28395   -32166   -36733   -40325   -41752 
  -40759   -37825   -33894   -29860   -25878   -22153   -20044   -20665 
  -23511   -27431   -31699   -36096   -40660   -45641   -51349   -57281 
  -61948   -64108   -63641   -61258   -58065   -55493   -54461   -54493 
  -55118   -56863   -59526   -62161   -64846   -67853   -70500   -72078 
  -72198   -70598   -67709   -64566   -61720   -59010   -56758   -56056 
  -57331   -59991   -63425   -67116   -70525   -73451   -75884   -77718 
  -78453   -77186   -73500   -68113   -62657   -58779   -57061   -57263 
  -59111   -61822   -64031   -65185   -65626   -65258   -63850   -61766 
  -59325   -57082   -56270   -57265   -58748   -59059   -57851   -56135 
  -54714   -53793   -53536   -53800   -54520   -55727   -56522   -55834 
  -53548   -49782   -44756   -39360   -34823   -32412   -33007   -36394 
  -41397   -46485   -50400   -52699   -53771   -54664   -56609   -60093 
  -64627   -69085   -71911   -71852   -69242   -66218   -64752   -64972 
  -66105   -67624   -69135   -70293   -70834   -70442   -69043   -66927 
  -64166   -60915   -58080   -56567   -56480   -57022   -57061   -56100 
  -54051   -51024   -47918   -45637   -44116   -43123   -42870   -43311 
  -44085   -45360   -47841   -51635   -55376   -57393   -57420   -55992 
  -53623   -51255   -49700   -49076   -49250   -49806   -50114   -49657 
  -48076   -45519   -42519   -39397   -36403   -34083   -32968   -32942 
  -33242   -33219   -32941   -32757   -32558   -32287   -32318   -32664 
  -33322   -35171   -38908   -43831   -48614   -52375   -54891   -56549 
  -57785   -58660   -58929   -57914   -55026   -50780   -46438   -42668 
  -39309   -36385   -34290   -33008   -32877   -35555   -42010   -50517 
  -57819   -61449   -60624   -55276   -45901   -34663   -24550   -17455 
  -13680   -12878   -14950   -19229   -24115   -28622   -32571   -35769 
  -38579   -41825   -45176   -47180   -46608   -42990   -37114   -30609 
  -24543   -19619   -16604   -15798   -17178   -20391   -24620   -29264 
  -33671   -36925   -38805   -39599   -39751   -40234   -41659   -43311 
  -43800   -42235   -38826   -34599   -30992   -29394   -30145   -32561 
  -36036   -40684   -46926   -54386   -61956   -68352   -71523   -69809 
  -64132   -57021   -50710   -46415   -43643   -41058   -38330   -36151 
  -35555   -37725   -43231   -51195   -59805   -67390   -73000   -76487 
  -77833   -76926   -74190   -70797   -68462   -68370   -70050   -72336 
  -74647   -76446   -76726   -75152   -72698   -70327   -68237   -66058 
  -62497   -56488   -48783   -40978   -34591   -31116   -31528   -35654 
  -41445   -45967   -47803   -47155   -45081   -43113   -42010   -41721 
  -42501   -44590   -47274   -49245   -49809   -49086   -47504   -46285 
  -47422   -51640   -57451   -62869   -66602   -67621   -65479   -61259 
  -56803   -53686   -53112   -55043   -58438   -62633   -66877   -70154 
  -72113   -72565   -71166   -68514   -66165   -65171   -65650   -67542 
  -71026   -75655   -79684   -82161   -83808   -84415   -83111   -80682 
  -78737   -78137   -78768   -80088   -81404   -81221   -78267   -73097 
  -66911   -60214   -53282   -46622   -41124   -37484   -35254   -33793 
  -33358   -33944   -34836   -35580   -36418   -38147   -40902   -43418 
  -44418   -43201   -39659   -35127   -31539   -30274   -32026   -36020 
  -40482   -44526   -48379   -52185   -55258   -56507   -55281   -51668 
  -46686   -42118   -39247   -38022   -37531   -36982   -36668   -37699 
  -41327   -48489   -58238   -67877   -75464   -80265   -81881   -80462 
  -76944   -72659   -68545   -65084   -62731   -61065   -58717   -54919 
  -49560   -43080   -37235   -33536   -32021   -32528   -34621   -37037 
  -38138   -36196   -31105   -25077   -20117   -17446   -18362   -23294 
  -31748   -41878   -49927   -53646   -54176   -53481   -53352   -55199 
  -58934   -63458   -67467   -70343   -72550   -73915   -73822   -72538 
  -70322   -67659   -65257   -62669   -59124   -54580   -49863   -46508 
  -45029   -44944   -46345   -48725   -50280   -49490   -45846   -40338 
  -34991   -31012   -29027   -29419   -31554   -34772   -38422   -41642 
  -44650   -47663   -50546   -53793   -56737   -58365   -59817   -61774 
  -63055   -63078   -61552   -58309   -54565   -51561   -49763   -48860 
  -47798   -46167   -43857   -40763   -37830   -35941   -35222   -35784 
  -36942   -37462   -37430   -37643   -38183   -39123   -40905   -43847 
  -47876   -52495   -57059   -60671   -62628   -63361   -63355   -61955 
  -58870   -55564   -53872   -54211   -55750   -57142   -56855   -53749 
  -47888   -40784   -34539   -30945   -31028   -34741   -41271   -49238 
  -57064   -64149   -70721   -76148   -78829   -78210   -75620   -72833 
  -70807   -69483   -68185   -66532   -64890   -63866   -63649   -63957 
  -64364   -64701   -65387   -66935   -69255   -71770   -73278   -71946 
  -66877   -59323   -51914   -46723   -43567   -40942   -38005   -34286 
  -30119   -27674   -28696   -32670   -38062   -43151   -46582   -48329 
  -48948   -48706   -47726   -45884   -43557   -41732   -40914   -41513 
  -43541   -46007   -48118   -49291   -48990   -47676   -46093   -44525 
  -43272   -42517   -42498   -43479   -45048   -46587   -47149   -45362 
  -41343   -36750   -33203   -31915   -32811   -34814   -37712   -41631 
  -45931   -49879   -53068   -55684   -58528   -62126   -66139   -69386 
  -70820   -70418   -68519   -65668   -62994   -61485   -61490   -62463 
  -62998   -62167   -60011   -56941   -53885   -51499   -49313   -47370 
  -46696   -47367   -48411   -48764   -47579   -45081   -42186   -39245 
  -36553   -34806   -34619   -36259   -39078   -41707   -43001   -41852 
  -37939   -32767   -27855   -23875   -21599   -21236   -21963   -22621 
  -22624   -22271   -21520   -20095   -18660   -17837   -17931   -19961 
  -24482   -30653   -37528   -44320   -50039   -54324   -57783   -61422 
  -65682   -69752   -72363   -72809   -71428   -69549   -68207   -67557 
  -67820   -69498   -72766   -77568   -83941   -91559   -99358  -106029 
 -110060  -109707  -104648   -96526   -87135   -78033   -70482   -64427 
  -59061   -53938   -49170   -44780   -40167   -35086   -30006   -25285 
  -21077   -17449   -14243   -11105    -7630    -3669      613     4983 
    8995    11866    13297    14039    14968    16005    16244    14617 
   10067     2044    -8340   -18850   -27822   -34556   -39497   -43880 
  -48564   -54805   -64325   -76911   -90410  -102598  -111743  -116919 
 -117731  -113687  -105399   -95579   -87680   -84178   -85455   -90346 
  -97791  -105934  -111707  -113478  -111571  -106590   -99376   -91382 
  -83764   -76240   -67457   -56906   -45258   -32842   -20187    -9441 
   -3314    -3237    -8708   -17612   -26978   -34014   -37304   -37260 
  -34739   -30095   -24900   -21982   -22841   -27230   -34272   -42800 
  -51217   -57856   -62626   -66954   -71600   -76932   -84070   -93223 
 -102470  -109319  -112017  -109854  -103259   -93433   -83026   -75956 
  -74383   -77483   -83217   -89373   -93290   -92796   -88425   -82714 
  -77381   -72947   -69743   -67791   -66218   -63647   -59186   -52763 
  -44605   -34902   -24712   -15997    -9983    -7111    -7352   -10057 
  -14657   -19972   -24602   -28633   -32558   -36401   -39801   -41913 
  -42871   -43002   -41007   -36830   -32853   -30705   -30778   -33682 
  -40213   -49911   -60291   -69194   -76197   -80682   -81125   -76785 
  -68910   -59658   -50593   -43166   -38667   -37213   -38270   -41310 
  -45454   -49319   -51465   -50924   -47991   -44359   -40924   -37264 
  -33401   -29302   -24479   -18971   -13251    -7724    -2629     1751 
    4930     6472     6231     3869    -1191    -8965   -18832   -29689 
  -40574   -51658   -63043   -73820   -83488   -91632   -97133   -99596 
  -99209   -95766   -89821   -83110   -77325   -73016   -69624   -66890 
  -65270   -64744   -64560   -63864   -62139   -59259   -55148   -49902 
  -44109   -38696   -34761   -33036   -33275   -34804   -37037   -39446 
  -41759   -43323   -43004   -40677   -37162   -32880   -27912   -22741 
  -18429   -15874   -14766   -14499   -15854   -19873   -26510   -35132 
  -44110   -50944   -54148   -53961   -51504   -47969   -44480   -41953 
  -40651   -40555   -41740   -43974   -46733   -49082   -50030   -49919 
  -50025   -51645   -56029   -62873   -70161   -76046   -79069   -78338 
  -74236   -67866   -61090   -56330   -54611   -55554   -58881   -63478 
  -66950   -67657   -65341   -60086   -52172   -42971   -35150   -31601 
  -34607   -44756   -59251   -72649   -80895   -83898   -83086   -79201 
  -74015   -70241   -69056   -69437   -68704   -64336   -56463   -47690 
  -40580   -36616   -37079   -42438   -51294   -61148   -69324   -73646 
  -72847   -66959   -58006   -48843   -41628   -37875   -38019   -41716 
  -48461   -56292   -62695   -67085   -69809   -70623   -69252   -65773 
  -60891   -56086   -52504   -50175   -48502   -46518   -43495   -40064 
  -37525   -36991   -39781   -46618   -56504   -66979   -75174   -79644 
  -80491   -77375   -70285   -60867   -50914   -42515   -38316   -39148 
  -43731   -50461   -58015   -65199   -71065   -75419   -78818   -81844 
  -84403   -85354   -83049   -76591   -66602   -54926   -43484   -33891 
  -27682   -25403   -26196   -28758   -32129   -35713   -39388   -44004 
  -50160   -56721   -62041   -65152   -65331   -62362   -57285   -51678 
  -46916   -44749   -46167   -49535   -52448   -54179   -54959   -55028 
  -55120   -56382   -59220   -63330   -68311   -72974   -75824   -76501 
  -75092   -71143   -64372   -55267   -45121   -36211   -30301   -26633 
  -23129   -19038   -15265   -12769   -11853   -12744   -15264   -18292 
  -20590   -21590   -21341   -20202   -18929   -18938   -20912   -23711 
  -26516   -29852   -33681   -37375   -40607   -43074   -45035   -47227 
  -50090   -54065   -59105   -64045   -67606   -69058   -68390   -66546 
  -64564   -62907   -61666   -60375   -58371   -55728   -52869   -49949 
  -47051   -43833   -40029   -36643   -34607   -33903   -34515   -35978 
  -37346   -37680   -36127   -33556   -32397   -34274   -39346   -46035 
  -51462   -53882   -53296   -50259   -45903   -41745   -38847   -37920 
  -39028   -41502   -44874   -48284   -50484   -51197   -50604   -49307 
  -48865   -50550   -54720   -60895   -67821   -74419   -79832   -83225 
  -84594   -84432   -83155   -81456   -79881   -78821   -78959   -80303 
  -82173   -84007   -84546   -81923   -75372   -66139   -56888   -49659 
  -44626   -41250   -38815   -35762   -30726   -23748   -15646    -7845 
   -2547    -1786    -6582   -16278   -28247   -39350   -47669   -52569 
  -53575   -50223   -43675   -36783   -31608   -28604   -28092   -30500 
  -35707   -43218   -52219   -61691   -70476   -77328   -81518   -82770 
  -81443   -78614   -74681   -69848   -65308   -61740   -58534   -54846 
  -50089   -44121   -37337   -30969   -27154   -27079   -30004   -35031 
  -41488   -48126   -54033   -58954   -62300   -63234   -61103   -55047 
  -44612   -31197   -17819    -7265     -655     1619    -1315    -9687 
  -22685   -38325   -52598   -62596   -69389   -74805   -79157   -83107 
  -87627   -92242   -95576   -96591   -94306   -87809   -77435   -65534 
  -55826   -51175   -51721   -56317   -64489   -74493   -82254   -84956 
  -82461   -75377   -64944   -53064   -41509   -31486   -22882   -15779 
  -12213   -13242   -17003   -21558   -26410   -31344   -36245   -41458 
  -47096   -52501   -56529   -58058   -56435   -51325   -42754   -31842 
  -20693   -11566    -5724    -3314    -4741   -10096   -17875   -26041 
  -32941   -37683   -40359   -41006   -39432   -36008   -31291   -25821 
  -20422   -15972   -13450   -13782   -16979   -21872   -27295   -33041 
  -38993   -44590   -49389   -53230   -56533   -59811   -62367   -63307 
  -62910   -61605   -59817   -58676   -58940   -60459   -62729   -65024 
  -66719   -67669   -68356   -69185   -69466   -67931   -63706   -57035 
  -49878   -45004   -44317   -47823   -53790   -60092   -65230   -68571 
  -70016   -69527   -67233   -63594   -59465   -56087   -54573   -55992 
  -61493   -70484   -80032   -87789   -93379   -96525   -96319   -92123 
  -83978   -72986   -61648   -52148   -44680   -39097   -35842   -34429 
  -33849   -33584   -33293   -32729   -31173   -27902   -23575   -19056 
  -14653   -10796    -7075    -2697     2189     7493    12825    16451 
