Origin Time       2011/03/11 14:46:00
Lat.              38.103
Long.             142.860
Depth. (km)       24
Mag.              9.0
Station Code      HKD024
Station Lat.      44.0494
Station Long.     141.8573
Station Height(m) 38
Record Time       2011/03/11 14:49:25
Sampling Freq(Hz) 100Hz
Duration Time(s)  208
Dir.              N-S
Scale Factor      3920(gal)/6182761
Max. Acc. (gal)   4.006
Last Correction   2011/03/11 14:49:10
Memo.             
[...]
   37564    37607    37647    37687    37727    37765    37795    37816 
   37836    37859    37890    37933    37986    38043    38104    38173 
   38247    38320    38399    38487    38573    38656    38735    38806 
   38868    38922    38967    38992    38995    38992    38987    38978 
   38977    38990    39018    39069    39143    39230    39325    39425 
   39523    39613    39684    39732    39762    39776    39779    39773 
   39756    39730    39708    39687    39658    39620    39581    39541 
   39499    39451    39396    39336    39280    39221    39151    39068 
   38967    38849    38716    38565    38400    38227    38053    37881 
   37711    37547    37394    37256    37135    37028    36935    36860 
   36798    36749    36712    36682    36651    36626    36610    36594 
   36569    36537    36502    36465    36425    36376    36312    36233 
   36142    36034    35904    35755    35598    35435    35269    35104 
   34940    34779    34626    34487    34360    34242    34139    34054 
   33973    33891    33815    33742    33673    33611    33558    33512 
   33474    33447    33431    33421    33421    33434    33458    33500 
   33565    33658    33778    33925    34095    34279    34471    34666 
   34858    35046    35220    35384    35547    35712    35877    36041 
   36200    36353    36498    36634    36763    36884    36998    37106 
   37209    37304    37388    37465    37540    37611    37671    37721 
   37764    37797    37822    37838    37847    37851    37848    37839 
   37817    37777    37724    37666    37608    37549    37489    37429 
   37371    37319    37268    37216    37165    37112    37064    37017 
   36964    36910    36855    36801    36755    36717    36680    36644 
   36613    36582    36539    36485    36422    36354    36283    36213 
   36145    36078    36016    35961    35912    35871    35845    35835 
   35841    35859    35878    35892    35902    35905    35893    35863 
   35820    35770    35717    35656    35586    35510    35434    35365 
   35304    35252    35215    35200    35204    35222    35253    35292 
   35336    35386    35438    35485    35529    35572    35613    35645 
   35664    35674    35677    35679    35683    35688    35689    35693 
   35711    35740    35768    35797    35828    35859    35887    35908 
   35918    35919    35920    35921    35915    35902    35887    35874 
   35865    35854    35843    35839    35844    35862    35894    35932 
   35977    36033    36093    36144    36177    36194    36199    36191 
   36172    36148    36129    36120    36125    36141    36165    36193 
   36221    36251    36276    36291    36294    36285    36268    36241 
   36201    36150    36093    36040    35999    35966    35938    35922 
   35922    35930    35939    35950    35964    35982    35994    35997 
   35988    35961    35915    35852    35767    35666    35564    35467 
   35372    35278    35190    35116    35053    35001    34962    34926 
   34888    34858    34836    34809    34775    34746    34727    34714 
   34703    34695    34688    34680    34667    34641    34599    34547 
   34495    34443    34386    34328    34275    34229    34189    34155 
   34125    34095    34069    34052    34043    34042    34053    34080 
   34116    34159    34200    34240    34284    34329    34366    34391 
   34403    34407    34411    34417    34428    34444    34463    34489 
   34520    34553    34593    34642    34706    34783    34869    34961 
   35059    35164    35270    35370    35470    35573    35679    35789 
   35896    35992    36079    36160    36232    36292    36342    36388 
   36439    36495    36556    36630    36715    36813    36926    37046 
   37162    37270    37371    37463    37539    37597    37646    37693 
   37737    37776    37814    37848    37876    37901    37920    37928 
   37929    37934    37949    37976    38017    38072    38139    38213 
   38287    38357    38417    38473    38531    38585    38627    38661 
   38689    38715    38731    38729    38716    38696    38671    38645 
   38623    38605    38598    38612    38650    38705    38771    38839 
   38901    38951    38982    38992    38987    38973    38956    38945 
   38943    38951    38987    39057    39148    39256    39382    39520 
   39660    39791    39907    40009    40097    40167    40217    40240 
   40235    40211    40172    40116    40049    39980    39917    39862 
   39810    39763    39726    39699    39689    39700    39720    39738 
   39747    39740    39704    39636    39544    39432    39297    39147 
   38985    38821    38664    38529    38425    38351    38301    38273 
   38263    38259    38251    38230    38194    38147    38088    38013 
   37923    37823    37719    37614    37513    37419    37342    37285 
   37248    37224    37209    37198    37191    37186    37177    37159 
   37130    37094    37046    36980    36901    36812    36719    36630 
   36539    36454    36383    36329    36298    36287    36282    36282 
   36293    36314    36338    36358    36371    36374    36371    36361 
   36340    36305    36260    36207    36140    36065    35987    35916 
   35858    35817    35792    35784    35800    35841    35907    35996 
   36101    36221    36356    36497    36632    36764    36887    37000 
   37105    37195    37271    37348    37426    37507    37591    37685 
   37793    37920    38058    38196    38326    38456    38586    38711 
   38820    38907    38975    39021    39037    39025    38989    38932 
   38863    38788    38708    38626    38553    38487    38429    38379 
   38328    38269    38209    38149    38075    37988    37898    37809 
   37718    37627    37537    37445    37349    37252    37154    37052 
   36946    36844    36750    36657    36560    36464    36374    36284 
   36194    36102    36002    35895    35781    35657    35520    35374 
   35223    35076    34937    34810    34696    34595    34510    34437 
   34367    34301    34243    34195    34156    34119    34081    34050 
   34027    34008    33994    33984    33983    33996    34016    34034 
   34051    34067    34080    34088    34088    34082    34076    34072 
   34075    34085    34106    34143    34199    34267    34345    34428 
   34515    34611    34717    34823    34930    35046    35165    35275 
   35372    35450    35507    35545    35568    35577    35569    35552 
   35535    35521    35510    35507    35515    35540    35584    35643 
   35711    35779    35846    35908    35950    35961    35946    35914 
   35866    35802    35735    35675    35630    35608    35609    35628 
   35668    35730    35812    35902    35982    36053    36122    36185 
   36238    36280    36315    36350    36388    36430    36475    36526 
   36583    36650    36724    36800    36878    36959    37048    37136 
   37217    37292    37360    37418    37467    37503    37522    37523 
   37513    37491    37446    37383    37310    37233    37153    37074 
   36997    36928    36871    36825    36789    36752    36714    36676 
   36635    36586    36531    36473    36412    36353    36292    36225 
   36158    36099    36042    35981    35918    35856    35799    35754 
   35723    35705    35698    35704    35718    35734    35742    35738 
   35717    35681    35629    35564    35493    35422    35362    35314 
   35276    35247    35227    35222    35229    35241    35258    35284 
   35317    35354    35393    35434    35481    35532    35579    35624 
   35668    35714    35767    35827    35888    35948    36010    36081 
   36160    36243    36328    36421    36522    36627    36726    36814 
   36889    36959    37031    37095    37153    37217    37287    37358 
   37428    37491    37548    37603    37656    37698    37724    37733 
   37728    37715    37693    37662    37624    37584    37544    37500 
   37445    37377    37301    37228    37158    37091    37029    36975 
   36931    36891    36839    36768    36685    36592    36488    36371 
   36247    36122    36007    35905    35807    35708    35619    35542 
   35477    35424    35387    35372    35382    35414    35465    35526 
   35591    35658    35728    35798    35858    35911    35962    36014 
   36067    36124    36189    36264    36351    36446    36540    36628 
   36714    36797    36869    36920    36942    36943    36931    36909 
   36871    36818    36758    36697    36635    36563    36482    36397 
   36303    36202    36097    35981    35857    35737    35621    35506 
   35393    35281    35177    35083    34991    34894    34789    34680 
   34572    34462    34348    34240    34148    34075    34017    33969 
   33930    33901    33881    33861    33838    33815    33800    33797 
   33804    33819    33845    33888    33953    34034    34125    34223 
   34335    34460    34583    34698    34806    34903    34982    35043 
   35086    35113    35135    35160    35193    35235    35287    35351 
   35420    35489    35552    35601    35636    35662    35673    35664 
   35634    35586    35523    35443    35345    35236    35118    35000 
   34890    34789    34696    34614    34546    34498    34468    34441 
   34413    34385    34347    34293    34230    34162    34095    34035 
   33977    33922    33868    33816    33773    33738    33706    33686 
   33685    33699    33723    33757    33797    33842    33893    33941 
   33978    34009    34031    34047    34060    34069    34079    34102 
   34143    34200    34272    34355    34442    34534    34632    34731 
   34823    34911    34997    35073    35131    35178    35212    35236 
   35257    35269    35274    35281    35298    35325    35360    35396 
   35436    35488    35550    35618    35692    35767    35837    35905 
   35966    36008    36032    36050    36066    36078    36092    36113 
   36144    36188    36247    36319    36400    36488    36586    36693 
   36800    36897    36988    37077    37161    37240    37319    37402 
   37489    37579    37670    37763    37855    37941    38021    38095 
   38158    38210    38255    38299    38339    38378    38424    38476 
   38526    38574    38617    38651    38674    38676    38649    38602 
   38548    38486    38409    38328    38250    38177    38113    38062 
   38025    38005    38004    38018    38040    38067    38095    38116 
   38128    38132    38128    38108    38068    38020    37966    37900 
   37824    37749    37681    37624    37577    37539    37510    37488 
   37472    37461    37450    37439    37433    37430    37426    37418 
   37409    37401    37393    37385    37377    37368    37362    37361 
   37362    37370    37393    37430    37489    37576    37682    37799 
   37931    38075    38223    38371    38515    38644    38758    38856 
   38936    39004    39066    39126    39189    39254    39327    39412 
   39514    39637    39783    39949    40133    40330    40536    40746 
   40951    41146    41334    41501    41637    41749    41840    41907 
   41956    41993    42023    42050    42081    42117    42152    42188 
   42227    42271    42316    42360    42397    42420    42428    42429 
   42416    42381    42332    42278    42215    42151    42086    42019 
   41953    41888    41816    41740    41659    41574    41490    41406 
   41316    41226    41141    41064    40994    40924    40852    40785 
   40724    40664    40599    40518    40419    40311    40188    40051 
   39907    39759    39611    39467    39325    39190    39062    38945 
   38841    38749    38665    38593    38534    38484    38438    38394 
   38350    38309    38271    38236    38204    38176    38159    38159 
   38169    38186    38216    38261    38316    38370    38419    38464 
   38501    38532    38555    38563    38550    38526    38494    38453 
   38412    38379    38361    38364    38389    38430    38482    38541 
   38604    38664    38710    38733    38733    38714    38679    38629 
   38569    38508    38448    38386    38323    38257    38189    38127 
   38072    38020    37970    37922    37881    37841    37804    37770 
   37735    37692    37636    37564    37474    37371    37262    37152 
   37043    36936    36838    36754    36683    36621    36562    36498 
   36429    36355    36278    36199    36123    36053    35989    35932 
   35880    35834    35790    35740    35679    35602    35505    35390 
   35264    35122    34961    34785    34600    34418    34242    34076 
   33927    33799    33694    33607    33530    33456    33383    33311 
   33232    33137    33024    32901    32765    32613    32455    32298 
   32145    32006    31882    31772    31686    31625    31588    31575 
   31578    31590    31616    31655    31695    31723    31735    31730 
   31711    31683    31647    31609    31574    31547    31527    31516 
   31513    31520    31541    31578    31621    31666    31712    31756 
   31794    31822    31840    31850    31857    31863    31860    31849 
   31836    31814    31787    31765    31743    31715    31698    31693 
   31684    31671    31658    31644    31634    31620    31604    31591 
   31577    31557    31532    31500    31461    31426    31399    31378 
   31358    31340    31329    31323    31320    31314    31299    31276 
   31246    31208    31165    31114    31055    30995    30938    30881 
   30829    30784    30747    30718    30691    30667    30641    30612 
   30586    30567    30550    30538    30535    30534    30531    30528 
   30524    30514    30501    30484    30459    30429    30400    30377 
   30362    30353    30352    30370    30408    30462    30530    30606 
   30685    30764    30837    30899    30947    30987    31027    31067 
   31103    31142    31188    31246    31319    31409    31506    31612 
   31737    31878    32022    32170    32324    32482    32639    32792 
   32947    33104    33266    33433    33601    33769    33937    34106 
   34278    34448    34614    34781    34949    35108    35259    35404 
   35533    35645    35748    35845    35932    36011    36083    36149 
   36212    36274    36331    36388    36455    36532    36611    36689 
   36771    36855    36930    36995    37055    37108    37149    37177 
   37186    37174    37151    37131    37116    37105    37104    37118 
   37147    37189    37234    37284    37347    37415    37481    37543 
   37588    37616    37634    37633    37610    37577    37541    37510 
   37488    37478    37480    37494    37523    37564    37611    37663 
   37725    37796    37869    37939    38007    38068    38113    38141 
   38152    38143    38123    38105    38087    38072    38064    38068 
   38086    38121    38171    38232    38304    38394    38492    38588 
   38682    38771    38848    38912    38964    39002    39026    39040 
   39044    39032    39004    38967    38928    38885    38838    38794 
   38759    38733    38722    38729    38740    38756    38783    38810 
   38828    38838    38837    38824    38808    38791    38767    38734 
   38701    38670    38632    38591    38552    38516    38488    38472 
   38467    38473    38494    38525    38556    38579    38596    38605 
   38608    38600    38578    38548    38511    38474    38438    38399 
   38361    38324    38286    38247    38210    38176    38142    38116 
   38103    38090    38073    38056    38039    38023    38003    37978 
   37948    37917    37894    37879    37866    37850    37835    37823 
   37813    37801    37788    37775    37764    37753    37735    37715 
   37701    37694    37688    37685    37680    37675    37675    37674 
   37671    37668    37667    37667    37666    37656    37635    37608 
   37582    37552    37516    37481    37455    37444    37446    37451 
   37453    37454    37449    37435    37410    37372    37323    37267 
   37210    37147    37079    37018    36963    36909    36858    36812 
   36763    36709    36660    36622    36596    36582    36583    36597 
   36613    36627    36635    36639    36637    36628    36616    36602 
   36587    36577    36579    36589    36604    36627    36652    36672 
   36686    36695    36694    36685    36669    36657    36653    36656 
   36667    36685    36706    36727    36753    36788    36827    36865 
   36901    36936    36968    36994    37011    37020    37021    37020 
   37020    37023    37028    37038    37061    37093    37131    37176 
   37229    37288    37350    37414    37476    37540    37613    37689 
   37759    37828    37897    37963    38021    38070    38111    38148 
   38184    38215    38237    38253    38268    38287    38311    38336 
   38361    38396    38444    38501    38570    38652    38741    38831 
   38923    39011    39089    39151    39199    39233    39250    39250 
   39240    39220    39190    39157    39123    39091    39067    39059 
   39067    39089    39121    39167    39227    39295    39366    39437 
   39506    39565    39611    39639    39646    39634    39608    39567 
   39513    39457    39412    39381    39364    39365    39378    39404 
   39454    39516    39580    39646    39711    39768    39810    39833 
   39833    39808    39764    39705    39632    39553    39474    39403 
   39340    39284    39234    39195    39172    39162    39163    39175 
   39192    39212    39241    39270    39289    39297    39295    39276 
   39237    39175    39090    38998    38908    38818    38735    38667 
   38619    38598    38604    38633    38682    38748    38829    38915 
   38996    39069    39138    39204    39257    39301    39334    39353 
   39370    39390    39407    39423    39447    39479    39513    39553 
   39598    39640    39678    39712    39736    39749    39756    39754 
   39739    39710    39666    39613    39554    39484    39400    39307 
   39202    39093    38990    38888    38782    38678    38586    38501 
   38418    38337    38258    38177    38092    38003    37907    37800 
   37693    37591    37495    37406    37331    37271    37225    37192 
   37165    37142    37133    37143    37163    37193    37236    37288 
   37345    37402    37446    37475    37490    37492    37482    37462 
   37434    37408    37391    37387    37394    37414    37447    37494 
   37548    37597    37641    37681    37710    37726    37725    37704 
   37663    37607    37539    37453    37348    37238    37131    37022 
   36917    36824    36746    36684    36636    36599    36563    36525 
   36494    36465    36427    36380    36332    36286    36245    36205 
   36169    36140    36118    36109    36111    36118    36127    36141 
   36164    36190    36216    36244    36276    36310    36346    36379 
   36401    36414    36423    36420    36404    36378    36353    36339 
   36328    36316    36311    36318    36334    36353    36372    36389 
   36401    36416    36430    36434    36425    36410    36382    36336 
   36268    36184    36091    35992    35889    35791    35700    35612 
   35537    35481    35435    35396    35371    35361    35357    35354 
   35352    35351    35355    35360    35362    35362    35359    35355 
   35350    35336    35317    35294    35264    35227    35182    35128 
   35071    35020    34977    34942    34912    34887    34872    34865 
   34858    34846    34833    34820    34808    34791    34762    34719 
   34664    34600    34527    34441    34347    34259    34184    34114 
   34043    33974    33912    33853    33799    33747    33695    33645 
