Origin Time       2011/03/11 14:46:00
Lat.              38.103
Long.             142.860
Depth. (km)       24
Mag.              9.0
Station Code      HKD022
Station Lat.      43.8516
Station Long.     141.5279
Station Height(m) 42
Record Time       2011/03/11 14:48:44
Sampling Freq(Hz) 100Hz
Duration Time(s)  300
Dir.              N-S
Scale Factor      3920(gal)/6182761
Max. Acc. (gal)   10.343
Last Correction   2011/03/11 14:48:29
Memo.             
[...]
    2497     2205     1955     1707     1477     1248      984      741 
     563      431      347      325      356      429      541      710 
     930     1156     1380     1645     1985     2409     2897     3420 
    3943     4420     4814     5123     5403     5714     6059     6441 
    6891     7398     7909     8406     8913     9436     9949    10418 
   10841    11254    11681    12125    12531    12869    13187    13448 
   13593    13686    13786    13883    13973    14067    14196    14388 
   14591    14763    14944    15078    15108    15092    15019    14869 
   14731    14611    14469    14349    14221    14027    13820    13614 
   13389    13197    13061    12975    12954    12975    13018    13054 
   13058    13062    13078    13142    13304    13524    13756    13971 
   14134    14228    14264    14283    14326    14418    14575    14781 
   15005    15203    15343    15412    15416    15378    15330    15317 
   15333    15330    15295    15216    15082    14942    14840    14791 
   14784    14776    14703    14513    14186    13748    13258    12757 
   12271    11807    11343    10848    10304     9719     9132     8567 
    8022     7521     7086     6676     6231     5739     5220     4693 
    4181     3728     3365     3091     2887     2713     2533     2339 
    2121     1868     1593     1281      911      531      187     -106 
    -331     -477     -542     -556     -582     -633     -697     -780 
    -873     -942     -932     -830     -694     -538     -348     -155 
      30      228      451      697      959     1242     1519     1736 
    1897     2017     2097     2143     2160     2161     2153     2146 
    2165     2239     2356     2501     2673     2849     3001     3141 
    3269     3373     3486     3631     3780     3930     4097     4272 
    4475     4714     4966     5230     5493     5724     5910     6049 
    6136     6168     6175     6193     6232     6301     6395     6504 
    6618     6722     6819     6920     7017     7093     7158     7249 
    7390     7580     7803     8040     8286     8531     8762     8982 
    9204     9443     9718    10040    10378    10698    11009    11318 
   11607    11859    12057    12185    12228    12191    12108    12030 
   11992    11988    12004    12033    12063    12085    12089    12075 
   12076    12103    12120    12121    12170    12297    12411    12466 
   12522    12568    12549    12527    12520    12453    12360    12312 
   12227    12037    11804    11579    11354    11101    10824    10569 
   10359    10152     9899     9607     9318     9042     8782     8556 
    8392     8299     8238     8165     8073     7970     7903     7922 
    8017     8167     8341     8513     8693     8877     9050     9236 
    9465     9740    10043    10364    10696    11011    11293    11547 
   11769    11950    12099    12236    12386    12574    12787    12983 
   13132    13215    13248    13273    13310    13362    13416    13457 
   13449    13362    13226    13086    12939    12796    12674    12563 
   12459    12353    12230    12094    11941    11767    11587    11401 
   11174    10870    10502    10105     9703     9325     8990     8690 
    8416     8138     7815     7440     7032     6627     6267     5974 
    5752     5591     5471     5365     5259     5148     5046     4987 
    4992     5069     5225     5455     5715     5947     6138     6281 
    6353     6366     6366     6389     6420     6406     6338     6248 
    6158     6107     6156     6319     6591     6975     7441     7916 
    8341     8724     9080     9406     9734    10084    10434    10789 
   11136    11460    11768    12045    12281    12484    12654    12783 
   12880    12953    13007    13075    13179    13297    13393    13451 
   13450    13377    13227    13014    12769    12516    12265    12029 
   11805    11589    11376    11140    10862    10559    10251     9953 
    9682     9436     9212     9024     8881     8773     8701     8684 
    8726     8794     8861     8936     9025     9136     9280     9457 
    9671     9920    10176    10435    10704    10982    11287    11637 
   12020    12417    12834    13272    13699    14087    14443    14789 
   15133    15462    15757    16006    16188    16291    16308    16233 
   16074    15829    15509    15168    14821    14447    14055    13637 
   13186    12710    12220    11732    11244    10736    10204     9638 
    9023     8370     7707     7053     6438     5905     5474     5121 
    4799     4473     4139     3811     3529     3332     3233     3234 
    3324     3464     3620     3800     4015     4236     4441     4670 
    4936     5193     5447     5729     6006     6235     6429     6590 
    6688     6762     6898     7092     7322     7644     8069     8530 
    8976     9386     9764    10106    10381    10618    10873    11124 
   11359    11608    11856    12084    12297    12482    12630    12729 
   12773    12793    12818    12849    12880    12889    12844    12732 
   12520    12184    11749    11241    10684    10101     9496     8890 
    8314     7763     7237     6764     6348     5967     5582     5146 
    4649     4088     3461     2801     2153     1559     1030      532 
      29     -482     -979    -1444    -1869    -2226    -2516    -2795 
   -3092    -3399    -3699    -3969    -4185    -4339    -4442    -4514 
   -4565    -4593    -4604    -4596    -4551    -4460    -4324    -4149 
   -3947    -3726    -3498    -3262    -3008    -2728    -2411    -2054 
   -1656    -1214     -736     -243      256      743     1192     1614 
    2053     2526     3022     3537     4056     4554     5017     5436 
    5795     6126     6480     6873     7309     7786     8254     8653 
    8983     9270     9528     9784    10068    10389    10745    11111 
   11438    11696    11873    11980    12051    12110    12156    12170 
   12149    12115    12060    11983    11935    11928    11917    11895 
   11843    11729    11542    11290    11014    10774    10609    10538 
   10528    10525    10499    10416    10268    10083     9879     9682 
    9515     9384     9289     9222     9179     9158     9152     9151 
    9142     9114     9086     9094     9147     9225     9334     9484 
    9628     9755     9900    10071    10289    10560    10840    11108 
   11354    11552    11674    11710    11675    11577    11419    11256 
   11144    11080    11061    11098    11184    11309    11470    11668 
   11896    12142    12398    12653    12908    13164    13417    13657 
   13879    14074    14215    14282    14281    14222    14124    13986 
   13786    13539    13274    13008    12761    12561    12398    12229 
   12031    11778    11436    11027    10598    10173     9771     9398 
    9019     8591     8098     7530     6897     6245     5618     5037 
    4514     4042     3593     3158     2754     2387     2084     1879 
    1784     1801     1912     2075     2274     2498     2723     2951 
    3199     3457     3737     4058     4414     4790     5177     5562 
    5948     6350     6774     7203     7634     8057     8446     8808 
    9198     9657    10192    10798    11462    12140    12786    13389 
   13941    14434    14879    15271    15612    15919    16180    16373 
   16499    16561    16577    16580    16590    16637    16741    16872 
   16985    17059    17075    17032    16932    16793    16645    16504 
   16351    16152    15879    15532    15124    14678    14229    13822 
   13475    13192    12966    12762    12534    12247    11873    11439 
   11013    10629    10337    10155    10026     9902     9762     9553 
    9236     8840     8431     8044     7703     7446     7276     7160 
    7059     6917     6716     6478     6227     5978     5760     5596 
    5481     5403     5364     5336     5300     5291     5326     5378 
    5444     5543     5655     5762     5883     6032     6189     6342 
    6506     6686     6863     7042     7226     7395     7535     7652 
    7757     7843     7897     7912     7901     7868     7797     7701 
    7602     7493     7379     7264     7124     6956     6769     6554 
    6316     6069     5821     5589     5387     5217     5063     4932 
    4829     4694     4488     4245     3967     3643     3324     3056 
    2829     2641     2507     2407     2330     2297     2309     2358 
    2454     2591     2739     2879     3006     3123     3259     3453 
    3731     4102     4566     5104     5683     6282     6889     7492 
    8073     8632     9175     9662    10073    10449    10827    11233 
   11680    12165    12691    13232    13757    14251    14681    15031 
   15315    15543    15722    15870    15998    16119    16237    16351 
   16449    16507    16496    16396    16212    15964    15671    15346 
   14995    14614    14197    13736    13236    12733    12261    11827 
   11441    11109    10813    10538    10249     9901     9521     9157 
    8768     8317     7848     7387     6933     6515     6172     5896 
    5671     5521     5426     5346     5306     5294     5261     5238 
    5246     5272     5317     5382     5466     5566     5659     5745 
    5833     5930     6031     6122     6216     6328     6462     6618 
    6776     6942     7118     7251     7314     7321     7279     7197 
    7097     6992     6893     6799     6693     6566     6425     6271 
    6092     5895     5704     5539     5417     5341     5282     5211 
    5110     4966     4771     4539     4296     4068     3876     3710 
    3560     3434     3327     3212     3088     2982     2906     2849 
    2809     2790     2775     2737     2662     2566     2468     2372 
    2293     2259     2286     2368     2486     2616     2753     2898 
    3045     3201     3384     3581     3758     3921     4088     4243 
    4395     4573     4776     5011     5291     5609     5956     6319 
    6680     7032     7380     7721     8042     8359     8691     9018 
    9326     9631     9928    10199    10451    10696    10941    11192 
   11433    11663    11901    12144    12383    12606    12780    12885 
   12933    12943    12928    12892    12837    12766    12696    12645 
   12636    12677    12758    12863    12977    13077    13134    13144 
   13128    13111    13137    13216    13308    13396    13473    13525 
   13533    13496    13422    13306    13135    12911    12638    12325 
   11980    11616    11242    10863    10486    10113     9732     9341 
    8932     8469     7949     7412     6878     6358     5851     5352 
    4883     4441     4003     3587     3205     2848     2520     2220 
    1940     1680     1422     1158      929      756      617      528 
     508      550      628      707      777      866      991     1148 
    1305     1447     1575     1676     1734     1753     1738     1700 
    1670     1664     1670     1700     1760     1816     1833     1810 
    1754     1668     1548     1419     1323     1263     1232     1218 
    1191     1128     1016      837      596      342       96     -141 
    -337     -480     -616     -752     -853     -914     -944     -919 
    -830     -715     -589     -445     -303     -172      -21      152 
     327      532      785     1082     1428     1810     2222     2683 
    3193     3743     4318     4884     5406     5851     6205     6510 
    6812     7143     7523     7940     8367     8793     9190     9545 
    9887    10253    10666    11119    11569    11989    12379    12735 
   13054    13341    13616    13890    14171    14468    14780    15091 
   15389    15676    15950    16195    16402    16579    16741    16894 
   17045    17196    17329    17432    17502    17544    17564    17557 
   17528    17500    17480    17453    17393    17290    17139    16939 
   16725    16529    16341    16156    15976    15775    15538    15262 
   14927    14532    14086    13588    13066    12567    12112    11719 
   11397    11135    10906    10681    10468    10294    10167    10095 
   10097    10172    10294    10441    10596    10733    10848    10955 
   11068    11227    11459    11760    12126    12542    12975    13397 
   13789    14140    14445    14707    14950    15183    15402    15605 
   15789    15961    16126    16281    16436    16596    16749    16879 
   16975    17054    17123    17180    17256    17367    17483    17600 
   17708    17769    17771    17709    17577    17392    17188    16985 
   16795    16608    16389    16125    15833    15503    15116    14685 
   14217    13693    13101    12461    11800    11142    10534    10026 
    9609     9231     8832     8383     7875     7292     6664     6029 
    5391     4787     4215     3633     3050     2466     1848     1220 
     629       69     -494    -1068    -1650    -2255    -2876    -3452 
   -3964    -4418    -4796    -5090    -5327    -5524    -5693    -5842 
   -5969    -6079    -6163    -6213    -6239    -6236    -6193    -6128 
   -6038    -5892    -5686    -5424    -5096    -4705    -4271    -3820 
   -3380    -2956    -2549    -2167    -1786    -1364     -869     -309 
     291      922     1555     2138     2651     3116     3570     4050 
    4571     5130     5714     6299     6871     7417     7921     8383 
    8808     9204     9575     9941    10330    10727    11140    11606 
   12112    12637    13204    13807    14415    15040    15686    16348 
   17016    17674    18348    19035    19687    20316    20927    21516 
   22097    22633    23104    23516    23831    24047    24199    24297 
   24375    24455    24527    24600    24653    24652    24598    24488 
   24342    24182    24015    23873    23741    23561    23317    23027 
   22711    22384    22066    21780    21520    21285    21058    20785 
   20466    20119    19726    19307    18910    18546    18209    17908 
   17636    17362    17075    16770    16454    16147    15842    15510 
   15126    14668    14134    13539    12919    12338    11827    11372 
   10968    10615    10282     9947     9613     9303     9042     8808 
    8568     8332     8095     7829     7549     7297     7089     6940 
    6853     6803     6769     6747     6729     6698     6659     6623 
    6589     6561     6539     6493     6400     6254     6059     5825 
    5555     5248     4914     4571     4221     3854     3472     3103 
    2754     2406     2069     1778     1521     1282     1069      854 
     612      385      197       18     -160     -295     -399     -516 
    -633     -721     -780     -802     -801     -813     -808     -757 
    -718     -718     -717     -687     -633     -539     -412     -305 
    -221     -135      -57       33      152      277      438      664 
     922     1204     1524     1873     2241     2630     3058     3520 
    3978     4418     4853     5274     5671     6035     6375     6708 
    7035     7357     7688     8026     8362     8682     8940     9115 
    9219     9262     9272     9276     9283     9311     9349     9365 
    9350     9286     9181     9063     8938     8822     8708     8597 
    8506     8414     8317     8228     8122     7974     7811     7680 
    7582     7471     7332     7168     6966     6724     6473     6253 
    6082     5946     5805     5635     5470     5348     5249     5160 
    5129     5206     5352     5495     5644     5799     5951     6166 
    6423     6632     6827     7086     7415     7741     8014     8305 
    8679     9104     9559    10059    10598    11163    11720    12232 
   12701    13150    13582    13980    14342    14699    15065    15413 
   15698    15894    16040    16194    16362    16543    16744    16940 
   17071    17095    17024    16874    16637    16335    16012    15682 
   15339    14989    14617    14200    13746    13268    12769    12271 
   11798    11355    10927    10499    10049     9558     9039     8516 
    8018     7550     7109     6700     6316     5944     5579     5212 
    4844     4497     4203     3975     3811     3733     3735     3766 
    3822     3914     4017     4114     4208     4290     4352     4389 
    4391     4362     4319     4261     4198     4144     4085     3992 
    3867     3717     3552     3413     3313     3232     3161     3076 
    2944     2761     2537     2295     2087     1950     1890     1895 
    1939     1980     1965     1854     1655     1402     1154      956 
     823      757      750      777      812      855      919     1018 
    1172     1400     1661     1914     2165     2417     2643     2839 
    3032     3226     3409     3587     3754     3873     3958     4055 
    4153     4244     4377     4553     4725     4889     5036     5156 
    5254     5334     5404     5468     5516     5558     5610     5679 
    5773     5900     6059     6238     6400     6525     6623     6716 
    6838     7001     7191     7399     7597     7739     7813     7831 
    7821     7836     7905     8004     8098     8190     8277     8331 
    8346     8357     8391     8449     8560     8699     8791     8874 
    9008     9138     9253     9426     9605     9713     9807     9914 
    9983    10022    10047    10081    10170    10285    10420    10564 
   10650    10694    10698    10613    10478    10324    10149     9971 
    9803     9641     9471     9291     9100     8896     8692     8496 
    8304     8094     7855     7615     7384     7166     6999     6900 
    6842     6798     6757     6729     6718     6707     6709     6759 
    6845     6940     7036     7106     7136     7170     7253     7390 
    7577     7812     8060     8274     8444     8591     8751     8958 
    9241     9625    10092    10591    11104    11620    12126    12641 
   13166    13681    14187    14673    15123    15545    15941    16299 
   16631    16940    17225    17508    17790    18042    18241    18373 
   18441    18460    18426    18353    18294    18282    18317    18383 
   18446    18468    18434    18353    18242    18119    18008    17899 
   17766    17615    17455    17277    17086    16884    16665    16424 
   16131    15754    15312    14831    14305    13765    13256    12787 
   12357    11962    11597    11247    10890    10523    10159     9811 
    9508     9282     9141     9080     9083     9108     9127     9132 
    9103     9036     8946     8852     8779     8738     8716     8700 
    8689     8690     8703     8709     8697     8682     8654     8587 
    8516     8479     8474     8512     8612     8758     8892     8958 
    8969     8963     8933     8872     8815     8764     8685     8563 
    8413     8254     8083     7928     7804     7654     7469     7301 
    7139     6942     6727     6520     6309     6079     5811     5499 
    5151     4779     4402     4037     3685     3362     3073     2811 
    2574     2350     2139     1960     1825     1731     1674     1637 
    1606     1584     1583     1600     1626     1666     1730     1807 
    1877     1953     2065     2204     2370     2583     2817     3045 
    3270     3486     3698     3928     4178     4447     4727     4992 
    5245     5498     5743     5993     6280     6618     7004     7429 
    7870     8312     8751     9178     9582     9977    10394    10845 
   11319    11815    12336    12855    13362    13884    14429    15015 
   15661    16354    17072    17773    18408    18964    19433    19811 
   20114    20350    20514    20627    20694    20691    20616    20476 
