Origin Time       2011/03/11 14:46:00
Lat.              38.103
Long.             142.860
Depth. (km)       24
Mag.              9.0
Station Code      HKD076
Station Lat.      43.0509
Station Long.     144.8498
Station Height(m) 2
Record Time       2011/03/11 14:48:06
Sampling Freq(Hz) 100Hz
Duration Time(s)  300
Dir.              U-D
Scale Factor      3920(gal)/6182761
Max. Acc. (gal)   9.239
Last Correction   2011/03/11 14:47:51
Memo.             
[...]
  -27091   -27589   -27871   -27998   -28081   -27650   -26505   -25187 
  -24066   -22835   -21203   -19416   -17933   -16802   -15671   -14512 
  -13507   -12509   -11653   -11402   -11635   -11775   -11626   -11653 
  -12342   -13484   -14661   -15837   -17019   -18140   -19367   -20805 
  -22127   -23080   -23796   -24292   -24210   -23295   -21783   -20158 
  -18768   -17648   -16565   -15448   -14629   -14303   -14255   -14319 
  -14371   -14085   -13459   -13048   -13156   -13561   -14164   -15015 
  -15925   -16733   -17604   -18584   -19341   -19691   -19670   -19180 
  -18425   -17911   -17657   -17359   -17007   -16765   -16796   -17243 
  -17912   -18425   -18650   -18559   -18287   -18269   -18557   -18592 
  -17912   -16510   -14931   -14091   -14353   -15213   -16096   -16735 
  -17090   -17357   -17744   -18391   -19354   -20400   -21314   -22156 
  -22886   -23399   -23805   -24043   -23704   -22788   -21885   -21159 
  -20265   -19270   -18484   -17868   -17401   -17297   -17504   -17707 
  -17814   -17907   -18025   -18226   -18475   -18597   -18543   -18423 
  -18336   -18478   -19118   -20084   -20871   -21432   -21958   -22286 
  -22249   -22020   -21826   -21642   -21340   -20980   -20593   -20022 
  -19389   -19081   -19033   -18899   -18799   -19018   -19370   -19620 
  -20108   -21015   -21700   -21830   -21869   -21935   -21892   -22086 
  -22346   -21695   -20157   -18688   -17454   -16431   -16152   -16340 
  -16050   -15376   -15026   -14949   -14719   -14221   -13519   -12894 
  -12641   -12632   -12695   -12849   -12965   -13086   -13541   -14123 
  -14191   -13811   -13725   -14272   -15189   -16112   -16714   -16847 
  -16797   -17124   -18059   -19304   -20564   -21738   -22684   -23290 
  -23610   -23804   -24069   -24569   -25189   -25534   -25347   -24585 
  -23177   -21393   -20028   -19407   -19041   -18707   -18475   -18027 
  -17230   -16354   -15483   -14854   -14943   -15666   -16337   -16511 
  -16471   -16539   -16527   -16275   -15696   -14679   -13551   -12743 
  -12295   -11966   -11566   -11265   -11175   -11090   -11143   -11701 
  -12614   -13599   -14785   -16042   -16989   -17961   -19501   -21297 
  -22755   -23826   -24739   -25572   -26235   -26586   -26455   -25751 
  -24685   -23629   -22794   -22252   -21922   -21520   -20981   -20484 
  -20177   -20261   -20673   -20895   -20807   -20799   -20691   -19960 
  -18835   -17847   -17094   -16774   -17098   -17477   -17291   -16774 
  -16141   -15310   -14638   -14495   -14764   -15319   -15975   -16376 
  -16562   -16876   -17452   -18266   -19020   -19313   -19307   -19353 
  -19457   -19548   -19470   -19120   -18835   -18940   -19090   -18772 
  -18178   -17850   -17848   -17842   -17528   -16731   -15565   -14387 
  -13502   -13143   -13458   -14220   -14937   -15247   -15035   -14483 
  -14050   -14243   -15095   -16035   -16782   -17455   -17921   -18270 
  -18911   -19811   -20579   -21090   -21581   -22104   -22346   -22342 
  -22456   -22590   -22549   -22649   -23086   -23592   -23925   -24056 
  -23976   -23540   -22856   -22465   -22253   -21411   -20149   -19468 
  -19387   -19369   -19495   -19763   -19592   -18905   -18451   -18555 
  -18744   -18991   -19689   -20269   -20007   -19510   -19391   -19213 
  -18852   -18654   -18345   -17665   -17011   -16472   -15725   -14880 
  -14241   -13784   -13398   -13095   -12972   -13074   -13227   -13469 
  -14324   -15868   -17385   -18449   -19095   -19160   -18826   -18740 
  -18899   -18972   -19286   -20111   -20962   -21475   -21817   -21940 
  -21782   -21833   -22351   -22914   -23176   -23098   -22660   -22013 
  -21578   -21688   -22125   -22153   -21407   -20351   -19234   -17841 
  -16612   -16214   -16462   -16989   -17725   -18249   -18133   -17723 
  -17485   -17354   -17212   -17056   -16840   -16664   -16663   -16783 
  -16875   -16728   -16319   -16031   -16059   -16061   -15844   -15660 
  -15662   -15733   -15883   -16304   -16819   -16821   -16170   -15438 
  -14988   -14803   -14952   -15407   -16021   -16900   -18144   -19401 
  -20258   -20744   -20998   -21138   -21403   -21572   -21001   -19732 
  -18442   -17470   -16736   -16137   -15552   -14850   -14165   -13836 
  -13962   -14229   -14053   -13181   -12100   -11446   -11455   -11944 
  -12530   -13080   -13808   -14813   -15821   -16388   -16368   -16245 
  -16725   -17873   -19071   -19873   -20236   -20164   -19812   -19380 
  -18850   -18372   -18311   -18798   -19715   -20675   -21089   -20676 
  -19573   -18074   -16631   -15640   -15113   -14883   -14854   -14943 
  -15133   -15480   -16003   -16657   -17319   -17993   -18971   -20207 
  -21044   -21220   -21127   -20816   -20099   -19251   -18443   -17652 
  -17298   -17495   -17655   -17589   -17674   -18080   -18723   -19395 
  -19747   -19674   -19605   -20040   -20864   -21545   -21952   -22134 
  -21811   -21071   -20484   -20090   -19615   -19241   -18995   -18499 
  -17932   -17762   -17784   -17646   -17443   -17334   -17182   -16902 
  -16706   -16407   -15667   -14821   -14102   -13265   -12542   -12329 
  -12280   -11982   -11641   -11432   -11125   -10752   -10704   -11099 
  -11862   -12948   -14020   -14859   -15813   -17133   -18564   -19695 
  -20270   -20393   -20554   -21071   -21796   -22660   -23747   -24880 
  -25925   -26975   -27938   -28644   -29042   -29048   -28758   -28501 
  -28325   -27989   -27412   -26644   -25742   -24865   -24247   -24062 
  -24186   -24260   -24149   -23846   -23179   -22265   -21542   -20888 
  -19765   -18289   -16994   -15937   -14938   -14074   -13395   -12791 
  -12557   -13103   -13824   -13655   -12716   -11994   -11955   -12700 
  -14258   -15855   -16562   -16733   -17211   -17978   -18748   -19584 
  -20396   -20847   -20832   -20603   -20403   -20086   -19421   -18566 
  -17651   -16510   -15364   -14726   -14535   -14416   -14386   -14544 
  -14709   -14914   -15590   -16724   -17785   -18716   -19680   -20430 
  -20912   -21210   -20962   -20083   -19186   -18677   -18369   -18100 
  -17894   -17558   -17004   -16562   -16215   -15655   -15202   -15243 
  -15531   -15925   -16533   -17011   -16911   -16390   -15861   -15514 
  -15460   -15702   -16034   -16330   -16563   -16561   -16326   -16145 
  -16040   -15910   -16011   -16470   -16929   -17170   -17411   -17855 
  -18394   -18635   -18243   -17483   -17022   -17143   -17702   -18535 
  -19265   -19503   -19587   -19862   -19778   -19027   -18104   -17366 
  -17033   -17407   -18228   -18907   -19328   -19656   -20034   -20601 
  -21185   -21529   -21657   -21490   -21045   -20803   -20903   -21021 
  -21097   -21215   -21335   -21500   -21802   -22134   -22288   -22301 
  -22280   -21937   -21072   -20139   -19415   -18564   -17550   -16593 
  -15602   -14839   -14867   -15494   -16242   -17167   -18258   -19221 
  -20121   -21170   -22198   -22984   -23593   -24110   -24434   -24518 
  -24533   -24602   -24586   -24316   -23979   -23872   -23920   -24009 
  -24263   -24554   -24385   -23523   -22334   -21295   -20592   -20362 
  -20747   -21404   -21596   -21153   -20564   -19805   -18390   -16510 
  -14675   -13045   -12060   -12168   -12681   -12678   -12324   -12028 
  -11727   -11569   -11896   -12450   -12865   -13429   -14100   -14213 
  -13979   -14130   -14400   -14484   -14736   -14905   -14495   -13863 
  -13514   -13565   -14142   -15208   -16189   -16669   -16964   -17349 
  -17685   -17959   -18362   -19119   -20296   -21583   -22632   -23383 
  -23988   -24692   -25588   -26409   -26845   -26861   -26432   -25426 
  -23967   -22328   -20591   -18880   -17452   -16440   -15811   -15326 
  -14709   -13973   -13353   -13070   -13367   -14347   -15633   -16662 
  -17129   -16877   -16194   -15992   -16678   -17729   -18849   -20115 
  -21081   -21406   -21609   -21932   -22065   -22201   -22519   -22484 
  -21901   -21225   -20550   -19758   -19100   -18611   -17851   -16819 
  -16120   -15889   -15808   -16088   -16910   -17714   -18132   -18224 
  -17804   -16877   -15959   -15401   -15232   -15255   -14966   -14131 
  -13268   -13052   -13637   -14759   -16005   -17003   -17744   -18529 
  -19493   -20344   -20679   -20460   -20048   -19862   -19854   -19591 
  -18971   -18143   -17297   -16921   -17050   -16844   -15997   -15274 
  -15142   -15344   -15558   -15394   -14758   -14371   -14978   -16530 
  -18318   -19571   -20115   -20252   -20112   -19694   -19206   -18772 
  -18250   -17793   -17690   -17581   -16927   -15904   -15014   -14364 
  -13851   -13472   -12968   -11968   -10877   -10491   -10615   -10472 
  -10197   -10423   -11105   -12063   -13354   -14433   -14641   -14535 
  -15116   -16278   -17406   -18568   -19818   -20508   -20319   -19659 
  -18783   -17845   -17404   -17721   -18175   -18190   -17866   -17220 
  -16209   -15545   -15851   -16636   -17232   -17661   -18054   -18318 
  -18659   -19509   -20613   -21266   -21599   -22112   -22546   -22780 
  -23353   -24301   -25099   -25561   -25745   -25655   -25332   -24698 
  -23690   -22719   -22264   -22143   -21945   -21739   -21678   -21613 
  -21521   -21471   -21275   -20783   -20130   -19557   -19321   -19457 
  -19693   -19881   -20162   -20644   -21146   -21475   -21731   -21823 
  -21512   -21144   -21062   -21002   -20946   -21210   -21777   -22410 
  -22779   -22645   -22112   -21069   -19356   -17590   -16506   -15944 
  -15265   -14325   -13447   -12866   -12693   -12902   -13248   -13414 
  -13326   -13331   -13585   -13768   -13775   -13900   -14348   -15155 
  -16290   -17525   -18542   -19270   -19784   -20068   -20317   -20943 
  -21818   -22362   -22380   -22027   -21604   -21522   -21883   -22492 
  -23170   -23621   -23495   -22713   -21372   -19743   -18342   -17304 
  -16225   -14999   -13839   -12699   -11511   -10538   -10061    -9983 
  -10062   -10392   -11058   -11649   -11908   -12140   -12514   -12949 
  -13707   -14970   -16298   -17212   -17706   -17980   -18189   -18342 
  -18427   -18830   -19877   -21174   -22321   -23295   -23767   -23567 
  -23513   -24194   -24888   -25026   -24974   -24810   -24337   -23836 
  -23365   -22512   -21396   -20520   -19967   -19577   -19076   -18101 
  -16816   -15909   -15763   -16261   -17271   -18672   -20233   -21703 
  -22721   -23112   -23158   -23027   -22640   -22141   -21724   -21414 
  -21276   -21248   -21019   -20430   -19569   -18573   -17544   -16477 
  -15396   -14542   -14123   -14144   -14693   -15754   -16813   -17517 
  -18170   -19002   -19789   -20266   -20263   -19758   -18902   -17787 
  -16683   -15999   -15565   -14938   -14088   -13169   -12490   -12555 
  -13431   -14555   -15439   -16114   -16768   -17273   -17437   -17318 
  -16991   -16574   -16322   -16161   -15760   -15296   -15223   -15471 
  -15836   -16489   -17494   -18580   -19476   -20037   -20270   -20233 
  -19949   -19674   -19498   -19029   -18333   -17996   -18175   -18544 
  -18840   -19092   -19256   -19152   -18807   -18374   -17838   -16850 
  -15232   -13383   -11621   -10073    -9153    -9008    -9025    -8667 
   -8184    -7947    -7931    -8352    -9508   -10907   -11963   -12955 
  -14299   -15836   -17341   -18789   -19983   -20657   -20999   -21595 
  -22728   -24109   -25534   -26872   -27375   -26832   -26348   -26347 
  -26149   -25791   -25418   -24137   -21713   -19245   -17313   -15801 
  -15006   -15001   -15057   -14770   -14420   -14159   -13977   -13978 
  -14110   -14148   -14154   -14500   -15438   -16877   -18337   -19147 
  -19163   -19007   -19242   -19851   -20556   -21073   -21192   -20903 
  -20458   -20028   -19299   -18152   -17288   -17143   -17156   -16885 
  -16486   -15940   -15464   -15951   -17478   -18882   -19698   -20418 
  -20811   -20493   -20135   -19981   -19530   -19015   -18741   -18310 
  -17625   -17032   -16640   -16488   -16809   -17590   -18506   -19507 
  -20562   -21205   -21193   -20694   -19764   -18737   -18327   -18516 
  -18482   -17956   -17346   -16729   -15999   -15472   -15281   -15002 
  -14484   -14090   -13909   -13677   -13461   -13574   -13844   -14111 
  -15088   -17211   -19640   -21701   -23610   -25231   -26074   -26240 
  -25947   -25099   -24010   -23181   -22486   -21784   -21056   -19926 
  -18534   -17323   -16420   -16109   -15910   -14951   -13698   -12744 
  -11813   -10931   -10448   -10291   -10286   -10471   -10736   -10791 
  -10807   -11395   -12614   -14108   -15798   -17361   -18347   -18937 
  -19348   -19468   -19545   -19838   -20050   -20057   -20072   -20213 
  -20744   -21767   -22976   -24315   -25711   -26720   -27328   -27755 
  -27572   -26509   -25224   -24386   -24170   -24614   -25314   -25333 
  -24234   -22501   -20592   -18590   -16900   -15939   -15467   -15099 
  -14757   -14470   -14172   -13783   -13423   -13291   -13349   -13403 
  -13638   -14207   -14577   -14549   -14604   -14846   -15080   -15356 
  -15646   -15597   -15063   -14536   -14400   -14384   -14528   -15390 
  -16872   -18443   -19941   -21105   -21743   -22305   -23257   -24522 
  -25540   -25807   -25607   -25436   -25169   -24587   -23870   -23285 
  -22940   -22877   -22963   -22695   -21751   -20543   -19643   -19175 
  -19123   -19440   -19664   -19339   -18655   -17925   -17043   -15923 
  -14792   -13898   -13358   -13093   -12740   -12043   -11148   -10181 
   -9076    -7974    -7227    -7041    -7387    -8093    -8976    -9995 
  -11127   -12276   -13541   -15203   -17259   -19429   -21687   -24049 
  -25984   -27005   -27449   -27867   -28394   -29197   -30505   -31922 
  -32800   -33044   -32699   -31675   -30305   -29080   -27790   -25973 
  -23738   -21373   -19159   -17727   -17310   -17229   -16929   -16283 
  -15066   -13652   -12991   -13280   -14094   -15148   -15969   -16051 
  -15491   -14692   -14052   -13958   -14441   -15349   -16505   -17421 
  -17803   -17979   -18248   -18612   -19268   -20481   -21996   -23266 
  -24027   -24292   -24219   -24179   -24425   -24745   -24772   -24467 
  -24011   -23432   -22802   -22187   -21542   -21342   -21801   -22240 
  -22419   -22421   -21675   -20124   -18912   -18527   -18327   -18387 
  -18877   -18829   -17909   -16911   -16192   -15669   -15464   -15615 
  -15718   -15408   -14887   -14433   -14108   -14019   -14048   -13885 
  -13600   -13346   -13039   -12902   -13219   -13699   -14158   -14925 
  -16079   -17441   -19009   -20611   -21856   -22598   -23061   -23675 
  -24662   -25789   -26790   -27588   -28069   -28093   -27634   -26824 
  -25933   -25022   -23884   -22605   -21387   -19932   -17990   -16039 
  -14716   -14048   -13776   -13978   -14616   -15131   -15398   -15959 
  -16753   -17182   -17374   -17759   -18088   -18090   -18046   -18062 
  -17962   -17905   -18160   -18678   -19347   -20116   -20835   -21375 
  -21767   -22181   -22912   -24034   -25023   -25275   -24756   -23634 
  -22037   -20438   -19368   -18776   -18314   -18006   -17961   -17969 
  -17865   -17659   -17485   -17577   -17706   -17411   -16878   -16377 
  -15873   -15531   -15302   -14873   -14313   -13929   -13812   -13657 
  -13368   -13354   -13646   -13917   -14347   -15134   -15639   -15406 
  -15018   -14768   -14299   -13976   -14459   -15409   -16309   -17314 
  -18458   -19429   -20214   -21093   -22136   -23133   -24103   -25261 
  -26386   -27035   -27210   -27190   -27020   -26514   -25531   -24219 
  -22993   -22096   -21521   -21227   -20958   -20350   -19391   -18349 
  -17426   -16636   -15793   -14646   -13184   -11761   -10805   -10405 
  -10301   -10331   -10650   -11384   -12318   -13058   -13626   -14491 
  -15800   -17306   -18829   -20062   -20614   -20519   -20176   -19894 
  -19588   -18927   -18121   -17893   -18394   -19317   -20550   -21632 
  -21920   -21650   -21386   -21038   -20466   -20029   -20077   -20644 
  -21591   -22648   -23659   -24655   -25335   -25397   -25098   -24600 
  -24119   -24161   -24434   -24541   -24582   -23968   -22357   -20436 
  -18372   -15887   -13446   -11568   -10038    -8718    -7790    -7069 
   -6276    -5681    -5603    -5750    -5811    -6103    -6962    -8297 
  -10021   -12060   -14116   -16025   -17907   -19889   -22048   -24284 
  -26350   -28147   -29382   -29631   -29194   -28690   -28289   -28096 
  -28170   -28264   -28028   -27170   -25700   -24018   -22687   -22149 
  -22306   -22602   -22578   -21995   -20755   -19061   -17588   -16990 
  -17136   -17597   -18268   -18775   -18652   -18218   -17861   -17322 
  -16720   -16605   -16548   -15848   -15017   -14610   -14320   -14330 
  -15259   -16707   -17961   -19252   -20802   -21960   -22335   -22574 
  -23215   -23882   -24291   -24596   -24479   -23601   -22625   -22353 
  -22739   -23358   -23916   -24106   -23585   -22496   -21632   -21509 
  -21946   -22595   -23139   -23272   -22875   -22064   -21006   -19812 
  -18722   -17939   -17249   -16337   -15268   -14230   -13345   -12878 
  -12896   -13009   -13099   -13435   -14008   -14552   -14873   -15133 
  -15829   -16879   -17525   -17457   -16783   -15636   -14751   -14933 
  -15899   -16979   -18059   -18958   -19238   -19106   -19341   -20214 
  -21366   -22515   -23544   -24168   -24236   -23999   -23554   -22891 
  -22450   -22414   -22245   -21678   -20864   -19711   -18189   -16831 
  -16249   -16370   -16732   -17124   -17311   -16935   -16139   -15572 
  -15468   -15365   -15069   -15024   -15301   -15575   -15873   -16129 
  -16126   -16259   -17232   -19074   -21127   -22841   -24055   -24714 
  -24893   -24837   -24821   -25111   -25639   -25905   -25741   -25299 
  -24419   -23176   -22114   -21364   -20671   -20154   -20061   -20188 
  -20127   -19784   -19269   -18388   -17032   -15782   -15115   -14820 
  -14762   -15017   -15170   -14744   -13996   -13472   -13627   -14811 
  -16569   -17848   -18382   -18572   -18487   -18150   -17847   -17776 
  -18168   -19244   -20765   -22195   -22953   -22703   -21881   -21158 
  -20615   -20253   -20292   -20513   -20413   -19909   -19187   -18441 
  -17995   -18008   -18382   -19164   -20375   -21774   -23148   -24283 
  -24847   -24736   -24212   -23528   -22765   -22037   -21448   -20801 
  -19848   -18767   -17903   -17287   -16905   -16849   -16835   -16222 
  -14845   -13508   -12909   -12712   -12599   -12681   -12661   -12369 
  -12334   -12730   -13184   -13716   -14488   -15363   -16234   -16912 
  -17279   -17657   -18300   -19214   -20296   -21016   -21061   -21035 
  -21368   -21725   -21778   -21290   -20137   -18930   -18443   -18520 
  -18673   -18752   -18599   -18485   -18990   -19846   -20401   -20706 
  -21027   -21120   -20783   -20387   -20201   -19958   -19503   -19172 
  -19112   -18937   -18388   -17660   -16842   -15740   -14446   -13451 
  -13124   -13391   -13848   -14134   -14119   -13954   -14019   -14435 
  -14973   -15585   -16473   -17615   -18657   -19397   -19961   -20464 
  -20869   -21145   -21334   -21422   -21347   -21258   -21342   -21430 
  -21317   -21178   -21057   -20631   -20087   -20062   -20385   -20453 
  -20381   -20394   -20307   -20332   -20861   -21541   -21906   -22234 
  -22736   -22969   -22664   -21982   -21140   -20506   -20278   -20244 
  -20214   -20088   -19866   -19805   -19938   -19917   -19713   -19660 
  -19692   -19392   -18704   -17947   -17278   -16672   -16159   -15678 
  -15122   -14766   -14930   -15309   -15529   -15791   -16303   -17010 
  -18039   -19456   -20765   -21461   -21736   -21974   -22119   -22091 
