Origin Time       2011/03/11 14:46:00
Lat.              38.103
Long.             142.860
Depth. (km)       24
Mag.              9.0
Station Code      HKD095
Station Lat.      42.9311
Station Long.     143.2137
Station Height(m) 35
Record Time       2011/03/11 14:48:05
Sampling Freq(Hz) 100Hz
Duration Time(s)  300
Dir.              N-S
Scale Factor      3920(gal)/6182761
Max. Acc. (gal)   36.349
Last Correction   2011/03/11 14:47:50
Memo.             
[...]
   12774    13564    13868    13699    13236    12445    11301    10084 
    9199     8725     8400     8091     7964     8041     7888     7129 
    5942     4655     3228     1468     -538    -2553    -4470    -6259 
   -7860    -9071    -9661    -9810   -10032   -10687   -11802   -13199 
  -14699   -16212   -17460   -17723   -16624   -14938   -13683   -13108 
  -13156   -14043   -15923   -18369   -20620   -22354   -23649   -24314 
  -24117   -23347   -22417   -21484   -20558   -19578   -18730   -18386 
  -18375   -18048   -16964   -14991   -12310    -9407    -6647    -4174 
   -2241    -1188    -1189    -1988    -2944    -3786    -4594    -4989 
   -4550    -3370    -1604      473     2243     2927     1869     -739 
   -3825    -6541    -8620    -9823   -10009    -9538    -8881    -8050 
   -6919    -5766    -4778    -3547    -2041    -1151    -1254    -1588 
   -1925    -3066    -4928    -6203    -6491    -6634    -6755    -6061 
   -4573    -3457    -3393    -3827    -4540    -6364    -9291   -11865 
  -13192   -13610   -13089   -10937    -7430    -3936    -1230      861 
    2265     2466     1650      830      603      910     1821     3416 
    5203     6427     6590     5517     3592     1547     -402    -2344 
   -3900    -4657    -4766    -4693    -4692    -4585    -4263    -4052 
   -4226    -4770    -5728    -7267    -9287   -11177   -12275   -12525 
  -12227   -11454   -10456    -9979   -10266   -10693   -10932   -11412 
  -12408   -13405   -13771   -13683   -13717   -13820   -13415   -12404 
  -11312   -10389    -9337    -8074    -7042    -6426    -5788    -4975 
   -4399    -3857    -2587     -703      869     1457      919     -461 
   -1940    -2604    -2161    -1065      371     2126     3739     4519 
    4528     4340     3994     2916      837    -1613    -3693    -5431 
   -7032    -8160    -8343    -7731    -6986    -6281    -5296    -4231 
   -3583    -3173    -2652    -2080    -1230      272     2207     4164 
    6030     7763     9119     9801     9913     9895     9911     9785 
    9446     8913     8062     6778     5151     3519     2181     1139 
     465      316      329     -291    -1817    -3769    -5822    -7947 
   -9715   -10699   -11257   -12058   -13267   -14762   -16424   -17942 
  -19122   -20076   -20978   -22133   -23790   -25740   -27565   -29208 
  -30928   -32739   -34111   -34364   -33573   -32530   -31596   -30613 
  -29613   -28642   -27381   -25421   -22838   -20221   -17721   -14760 
  -11253    -7999    -5432    -3256    -1521     -769    -1016    -1483 
   -1269      -32     1782     3608     5376     6901     7570     7512 
    7805     8886    10082    10915    11660    12474    12931    12770 
   12426    12399    12643    12960    13421    14047    14685    15319 
   15892    16110    15891    15606    15775    16688    18052    19338 
   20479    21453    21827    21323    20067    18390    16720    15345 
   14270    13299    12051    10188     7744     5173     3074     1673 
     871      886     1832     2952     3326     2753     1615      345 
    -896    -1843    -1881     -831      550     1458     1896     2184 
    2221     1912     1805     2285     2749     2703     2510     2299 
    1557      181    -1170    -2104    -3006    -3944    -4178    -3313 
   -1839     -265     1156     1956     1805      941     -299    -1758 
   -3136    -3769    -3235    -2210    -1625    -1357     -959     -584 
    -397     -195      116      402      531      486      284     -294 
   -1391    -2441    -2902    -3024    -2792    -1786     -441      362 
     540      600      439     -570    -2006    -2840    -3280    -4075 
   -5116    -5949    -6504    -6883    -6917    -6402    -5723    -5537 
   -5909    -6427    -6789    -6624    -5552    -3939    -2436    -1069 
     111      637      553      574     1228     2274     2979     3082 
    2917     2575     2007     1450      999      540      -85    -1214 
   -2811    -4308    -5518    -6552    -7040    -6662    -6040    -5979 
   -6333    -6643    -7081    -8087    -9633   -11126   -12293   -13573 
  -15131   -16490   -17154   -17160   -17073   -17171   -17456   -18469 
  -20579   -22851   -23903   -23426   -21853   -19279   -15678   -11722 
   -8565    -6393    -4248    -1829      133     1312     1845     1500 
      97    -1750    -2966    -2946    -1937     -500      762     1165 
     611     -335    -1198    -1520     -771      789     1995     2088 
    1538     1109      987     1386     2425     3105     2353      667 
    -751    -1459    -1559     -863      880     2911     3936     3859 
    3317     2394     1260      423     -165    -1103    -2847    -5055 
   -6795    -7449    -6668    -4607    -2694    -2130    -2348    -2525 
   -2801    -3165    -3144    -2847    -3203    -4906    -7140    -8397 
   -8360    -7445    -5756    -3595    -1649     -467     -289    -1075 
   -2406    -3582    -4148    -4208    -4175    -4339    -4770    -5474 
   -6281    -6986    -7762    -8818   -10078   -11541   -13194   -14649 
  -15394   -15247   -14427   -13232   -11978   -11202   -11332   -12284 
  -13813   -15887   -18285   -20446   -22011   -22998   -23565   -23764 
  -23526   -23109   -22920   -22909   -23108   -23911   -25174   -26401 
  -27718   -29549   -31830   -33931   -35251   -35822   -35790   -34782 
  -32620   -30017   -28117   -27515   -27866   -28612   -29679   -31068 
  -32260   -32540   -31810   -30631   -29288   -27629   -26062   -25311 
  -25237   -25154   -24802   -24326   -23786   -23053   -22083   -21044 
  -20046   -19072   -18105   -16915   -15357   -14083   -14002   -15031 
  -16173   -16912   -17761   -19053   -20239   -20864   -21169   -21407 
  -21448   -21030   -20001   -18514   -16814   -14877   -12658   -10314 
   -7906    -5310    -2514      251     2520     3738     3777     3177 
    2518     1827      950      126     -112      554     1950     3801 
    6066     8629    11152    13259    14724    15841    17101    18241 
   18609    18182    17173    15432    13135    11289    10703    11041 
   11654    12285    12467    11616     9742     7298     4727     2400 
     773      180      306      540      956     2133     3899     5263 
    5666     5390     4875     4303     3748     3481     3941     5154 
    6509     7303     7354     7237     7627     8420     9256    10446 
   12376    14478    15874    16723    17767    18895    19435    19675 
   20660    22461    24179    25754    28176    31753    35590    38963 
   41811    43796    44229    43195    41736    40435    38793    36389 
   33536    30752    28492    26969    25947    25141    24597    24515 
   24726    24487    23302    21344    18681    15156    11180     7753 
    5560     4398     3681     3137     2620     1827      677     -576 
   -1629    -2137    -1972    -1415     -600      611     2204     4218 
    6708     9170    10844    11414    10946     9647     7929     6384 
    5374     4842     4820     5408     5924     5461     4393     3547 
    2806     1946     1129      208    -1134    -2838    -4187    -4365 
   -3747    -3257    -2696    -1630     -730     -723    -1469    -2417 
   -3044    -3193    -2847    -1801     -291      953     1363      812 
     -42     -459     -944    -2222    -3749    -4733    -5051    -4787 
   -4148    -3493    -3191    -3231    -2766    -1360       64      739 
     762      227     -815    -2115    -3370    -4368    -5279    -6420 
   -7729    -9185   -11005   -12943   -14481   -15531   -16366   -17319 
  -18638   -20410   -22440   -24366   -25883   -26713   -26738   -26228 
  -25619   -25186   -24947   -24895   -25232   -26081   -27074   -27724 
  -27876   -27339   -25848   -23660   -21574   -20367   -20303   -21159 
  -22556   -23757   -24002   -23372   -22343   -21035   -19555   -18249 
  -17504   -17641   -18716   -20369   -22174   -23896   -25374   -26492 
  -27074   -27109   -27078   -27125   -26711   -25818   -25044   -24552 
  -24064   -23627   -23909   -25419   -27546   -29257   -30263   -30606 
  -30213   -29341   -28213   -26590   -24481   -22237   -19924   -17374 
  -14695   -12472   -11062   -10038    -9033    -8205    -7479    -6463 
   -5008    -3379    -2067    -1188     -465       50       90     -250 
    -670    -1172    -2156    -3822    -5594    -6705    -7251    -7800 
   -8391    -8947    -9595   -10062    -9700    -8273    -6623    -5933 
   -6173    -6633    -7396    -8532    -9133    -8726    -8082    -7895 
   -8096    -8383    -8671    -9014    -9237    -9220    -9278    -9653 
  -10327   -11229   -11828   -11258    -9461    -7235    -5012    -2704 
    -626      479      353     -279     -540     -415     -140      463 
    1129     1198      724      224      -78     -145      279     1443 
    2799     3374     2844     1452     -482    -2374    -3451    -3452 
   -2755    -1756     -521      998     2657     4036     4745     4926 
    5136     5478     5521     5439     6075     7642     9609    11537 
   13183    14412    15094    15039    14616    14694    15705    17435 
   19278    20666    21475    21725    21358    20645    20326    20899 
   22128    23637    25533    28167    31282    33797    35081    35455 
   35107    33897    32032    30008    28028    25898    23568    21218 
   18860    16520    14528    13161    12344    11783    10968     9299 
    6546     3093     -229    -2668    -4046    -4816    -5710    -7076 
   -8709   -10310   -11711   -12968   -14204   -15188   -15720   -16008 
  -16052   -15500   -14253   -12716   -11585   -11236   -11332   -11575 
  -12295   -13462   -14231   -14291   -14419   -15248   -16183   -16279 
  -15864   -15655   -15048   -13438   -11750   -11142   -11602   -12449 
  -13218   -13790   -14114   -13950   -13150   -12216   -11983   -12465 
  -12630   -11979   -11285   -11186   -11598   -12729   -14913   -17491 
  -19341   -20066   -19792   -18809   -17887   -17767   -18315   -19148 
  -20294   -21489   -22125   -22198   -22305   -22687   -22766   -21735 
  -19443   -16520   -13610   -11107    -9784   -10260   -11874   -13601 
  -15231   -16735   -17641   -17541   -16672   -15721   -15143   -14973 
  -15140   -15455   -15631   -15619   -15552   -15380   -14950   -14253 
  -13438   -12857   -12749   -12838   -12802   -12522   -11763   -10592 
   -9814   -10087   -11172   -12485   -13612   -14192   -13910   -12853 
  -11742   -11301   -11616   -12425   -13263   -13639   -13802   -14544 
  -16163   -18136   -19777   -21068   -22341   -23500   -24249   -24589 
  -24705   -24679   -24437   -23880   -23089   -22172   -20824   -18920 
  -17097   -15820   -14748   -13334   -11554    -9949    -8742    -7455 
   -5866    -4559    -4056    -3887    -3144    -1720      -64     1847 
    3956     5408     5612     5120     4739     4393     3559     2626 
    2513     3212     4179     5276     6092     5642     3565      575 
   -2416    -4953    -6797    -7550    -7194    -6456    -5917    -5621 
   -5722    -6391    -7218    -7644    -7909    -8805   -10298   -11388 
  -11705   -11892   -12308   -12757   -13248   -13976   -14810   -15402 
  -15625   -15439   -14605   -12864   -10321    -7792    -6385    -6528 
   -7853    -9681   -11515   -13340   -15210   -16755   -17577   -17741 
  -17338   -16315   -14903   -13453   -12147   -11018   -10180    -9757 
   -9301    -8305    -7199    -6692    -6756    -7026    -7464    -7881 
   -7656    -6624    -5438    -4636    -3979    -3232    -2878    -3293 
   -4293    -5878    -8058   -10371   -12346   -13638   -14208   -14752 
  -15748   -16762   -17560   -18593   -20056   -21465   -22346   -22936 
  -23723   -24417   -24383   -23865   -23481   -23240   -23194   -23772 
  -24979   -26188   -26583   -25776   -24099   -21845   -18878   -15436 
  -12268   -10042    -9260    -9833   -10781   -11478   -12201   -12625 
  -11614    -9321    -6986    -4669    -2107      117     1768     2880 
    3519     4087     4550     4574     4400     4524     4870     5209 
    5760     6502     7131     7622     8105     8740     9576    10582 
   11654    12299    12113    11457    11214    12101    13808    15469 
   17142    19170    21273    23282    25330    27726    30698    33915 
   37121    40214    42546    43630    43758    43451    43130    43234 
   44132    45641    46973    47651    48086    48724    49269    49436 
   49505    49647    49778    49993    50581    51670    52798    53313 
   53133    52610    52035    51526    51125    50855    50788    51115 
   51711    52006    51686    51028    50345    49362    47658    45411 
   43129    41167    39607    38404    37459    36279    34358    31993 
   29830    27990    26400    25292    24760    24563    24419    24173 
   23853    23300    22103    20326    18556    17349    17026    17466 
   18338    19590    20879    21389    20920    19944    18816    17759 
   16927    16268    15638    14927    14246    13891    13835    13885 
   14123    14396    13999    12449    10208     8078     6189     4243 
    2161      -29    -2440    -5131    -7737    -9684   -10877   -11701 
  -12352   -12770   -13149   -13907   -15360   -17520   -19908   -21963 
  -23620   -25077   -26486   -27975   -29364   -30202   -30432   -30570 
  -31120   -31990   -32720   -33279   -33971   -34809   -35653   -36536 
  -37504   -38387   -38983   -39495   -40295   -41247   -41859   -41875 
  -41303   -40227   -38729   -36906   -35116   -33997   -34015   -35206 
  -37292   -39847   -42358   -44346   -45526   -45963   -46130   -46450 
  -46817   -47010   -47211   -47704   -48564   -49927   -52003   -54574 
  -57069   -59105   -60486   -60819   -59842   -58079   -56379   -55121 
  -54396   -54220   -54354   -54565   -54771   -54768   -54318   -53330 
  -51782   -49665   -46916   -43517   -39702   -35906   -32589   -30040 
  -28233   -26836   -25300   -23067   -19875   -15938   -12083    -9372 
   -8090    -7678    -7761    -8356    -9253   -10017   -10338   -10050 
   -9045    -7380    -5520    -4146    -3517    -3679    -5016    -7459 
   -9991   -11958   -13411   -14088   -13847   -13336   -13050   -12708 
  -11885   -10689    -9623    -8917    -8539    -8677    -9322    -9818 
   -9636    -8892    -7777    -6402    -5178    -4556    -4432    -4422 
   -4565    -4978    -5138    -4687    -4116    -3653    -2860    -1535 
      56     1622     3095     4388     4952     4244     2707     1267 
     401      545     1948     4028     6019     7576     8617     9257 
    9616     9759    10005    10559    11117    11514    11920    12448 
   13230    14301    15434    16425    17106    17386    17482    17611 
   17545    16884    15617    13997    12007     9622     7363     5986 
    5909     7008     8719    10534    12106    12886    12601    11695 
   10593     9363     8114     7098     6835     7814     9637    11420 
   12797    13694    13886    13216    11760     9915     8419     7892 
    8436     9645    10802    11279    10985    10325     9737     9349 
    8928     8283     7728     7630     7824     7981     7981     7594 
    6443     4531     2379      446    -1456    -3801    -6282    -7973 
   -8789    -9341    -9584    -9149    -8270    -7506    -7172    -7102 
   -6976    -6849    -6616    -5672    -4027    -2465    -1201      290 
    2334     4596     6292     6950     6729     5773     4220     2643 
    1509      874      846     1482     2523     3660     4668     5457 
    6014     6171     5731     4660     3072     1215     -561    -1917 
   -2643    -2778    -2627    -2551    -2679    -3015    -3710    -5116 
   -7300    -9663   -11620   -13106   -14205   -15016   -15592   -15801 
  -15575   -15076   -14575   -14377   -14631   -15406   -16881   -18856 
  -20756   -22390   -23767   -24692   -25120   -25333   -25517   -25487 
  -25043   -24390   -23856   -23545   -23636   -24188   -24642   -24399 
  -23401   -21798   -19736   -17577   -15828   -14843   -14728   -15305 
  -16139   -16737   -16962   -17130   -17468   -18003   -18860   -19918 
  -20766   -21299   -21838   -22760   -24133   -25531   -26526   -27210 
  -27650   -27462   -26435   -24990   -23723   -22616   -21205   -19697 
  -18790   -18320   -17615   -16850   -16638   -16835   -16715   -15998 
  -15075   -14127   -12756   -10718    -8295    -6020    -4398    -3403 
   -2608    -1952    -1599    -1341     -856     -176      545     1480 
    2870     4394     5302     5370     5100     4806     4457     4310 
    4672     5394     6284     7412     8544     9100     8966     8665 
    8488     8238     8070     8329     8660     8634     8681     9306 
    9957     9898     9726    10437    11632    12176    11959    11737 
   11801    11945    12431    13775    15567    16733    16925    16604 
   16113    15335    14104    12697    11581    10823    10261    10110 
   10843    12506    14442    15698    15825    14961    13344    11627 
   10889    11649    13484    15675    17708    19208    19994    20219 
   20007    19348    18541    17971    17672    17726    18400    19555 
   20476    20644    20300    19678    18585    17172    16002    15426 
   15304    15135    14710    14325    14040    13644    13368    13393 
   13197    12149     9985     6938     3726      847    -1636    -3573 
   -4813    -5500    -5977    -6531    -6993    -6881    -6216    -5501 
   -5012    -4991    -5802    -7081    -7731    -7153    -5748    -4201 
   -2736    -1293     -266     -414    -1669    -2915    -3565    -4037 
   -4303    -3768    -2647    -1913    -1730    -1178       38     1123 
    1723     2278     2983     3654     4188     4772     5768     7261 
    9013    10780    12289    13306    13786    13751    13240    12417 
   11509    10570     9546     8565     7965     8022     8502     8621 
    7887     6550     5011     3542     2465     1774     1053      128 
    -828    -1619    -1878    -1183      438     2296     3408     3482 
    3094     2720     2602     2877     3173     3101     2801     2450 
    2161     2289     3006     3994     5026     6186     7446     8375 
    8426     7846     7300     6574     5359     4124     3300     2997 
    3227     3900     4807     5303     4716     3369     2017      888 
     301      738     1824     2710     3079     3085     2991     2811 
    2467     2383     2677     2423     1234      162        2      514 
    1341     2219     3163     4563     6346     7963     8924     9144 
    9294     9817    10172    10013     9543     8642     7364     6700 
    7397     8962    10419    11411    12288    13031    13174    13077 
   13361    13614    13343    12961    12881    12890    12838    12924 
   13199    13479    13573    13496    13479    13598    13918    14681 
   15799    16849    17513    17677    17341    16454    14954    12991 
   10852     8770     6911     5463     4700     4758     5228     5584 
    5748     5559     4568     2660      231    -2120    -4177    -6275 
   -8437   -10082   -10944   -11450   -11997   -12578   -13160   -13950 
  -15104   -16320   -17208   -17876   -18530   -19007   -19174   -19183 
  -19175   -19062   -18611   -17762   -16847   -16200   -15773   -15322 
  -14871   -14803   -15331   -16296   -17500   -18810   -19966   -20425 
  -19751   -18228   -16564   -15048   -13746   -13204   -13702   -14471 
  -14813   -15078   -15864   -17095   -18347   -19571   -20815   -21643 
  -21857   -22047   -22690   -23585   -24390   -25207   -26175   -26877 
  -26975   -26818   -26898   -27227   -27558   -27957   -28456   -28554 
