Origin Time       2011/03/11 14:46:00
Lat.              38.103
Long.             142.860
Depth. (km)       24
Mag.              9.0
Station Code      HKD056
Station Lat.      43.6705
Station Long.     143.5781
Station Height(m) 229
Record Time       2011/03/11 14:48:59
Sampling Freq(Hz) 100Hz
Duration Time(s)  239
Dir.              U-D
Scale Factor      3920(gal)/6182761
Max. Acc. (gal)   2.592
Last Correction   2011/03/11 14:48:44
Memo.             
[...]
   -7090    -6735    -6802    -7457    -8276    -8652    -8390    -7875 
   -7567    -7359    -6724    -5675    -5074    -5529    -6528    -7104 
   -6955    -6612    -6653    -7067    -7394    -7240    -6654    -6097 
   -6017    -6437    -6806    -6564    -6074    -6161    -6673    -6800 
   -6516    -6380    -6503    -6645    -6739    -6670    -6234    -5756 
   -5781    -6077    -6080    -6003    -6292    -6672    -6891    -7295 
   -7806    -7694    -6876    -6290    -6509    -6830    -6495    -5918 
   -5817    -6140    -6474    -6679    -6859    -7073    -7204    -7078 
   -6683    -6397    -6694    -7323    -7543    -7354    -7363    -7582 
   -7518    -7022    -6384    -6090    -6408    -6855    -6690    -6066 
   -5863    -6364    -6923    -6975    -6667    -6401    -6347    -6518 
   -6795    -6805    -6392    -6127    -6508    -7040    -7025    -6634 
   -6416    -6475    -6703    -7090    -7462    -7575    -7531    -7502 
   -7368    -7000    -6491    -6089    -6028    -6228    -6430    -6540 
   -6607    -6702    -6891    -7197    -7460    -7333    -6824    -6370 
   -6072    -5723    -5472    -5632    -6004    -5950    -5256    -4605 
   -4783    -5628    -6384    -6669    -6580    -6482    -6763    -7198 
   -7140    -6597    -6316    -6705    -7169    -6895    -6047    -5468 
   -5500    -5871    -6183    -6111    -5767    -5680    -5914    -5919 
   -5516    -5262    -5551    -6042    -6365    -6695    -7197    -7584 
   -7687    -7838    -8098    -7938    -7363    -7135    -7329    -7086 
   -6131    -5189    -4755    -4706    -4984    -5540    -6012    -6324 
   -6841    -7434    -7434    -6801    -6202    -5965    -5923    -6051 
   -6425    -6817    -7035    -7211    -7398    -7434    -7149    -6437 
   -5617    -5484    -6223    -6757    -6309    -5708    -5855    -6291 
   -6406    -6436    -6538    -6523    -6691    -7408    -8057    -7850 
   -7169    -6918    -7144    -7229    -6996    -6892    -7253    -7790 
   -7898    -7403    -6699    -6250    -6293    -6733    -7074    -6901 
   -6471    -6353    -6538    -6598    -6558    -6765    -7179    -7495 
   -7653    -7752    -7790    -7821    -8020    -8205    -7864    -7088 
   -6626    -6683    -6593    -5980    -5381    -5466    -6304    -7352 
   -7903    -7828    -7654    -7676    -7580    -7132    -6535    -6047 
   -5863    -6097    -6469    -6543    -6345    -6203    -6167    -6079 
   -5962    -5877    -5714    -5503    -5544    -6014    -6598    -6681 
   -6200    -6020    -6792    -7877    -8143    -7438    -6584    -6218 
   -6316    -6560    -6631    -6452    -6384    -6732    -7106    -7053 
   -6950    -7166    -7263    -6903    -6449    -6276    -6234    -6003 
   -5754    -5880    -6276    -6573    -6542    -6188    -5890    -6033 
   -6411    -6527    -6412    -6700    -7594    -8200    -7745    -6734 
   -5981    -5617    -5522    -5559    -5578    -5726    -6244    -6933 
   -7375    -7552    -7711    -7830    -7780    -7580    -7141    -6452 
   -5954    -5971    -6150    -6046    -5826    -5933    -6349    -6646 
   -6658    -6732    -7271    -8083    -8360    -7667    -6741    -6682 
   -7436    -7865    -7346    -6478    -6130    -6468    -6984    -6904 
   -5967    -5131    -5452    -6402    -6699    -6197    -5781    -6066 
   -6885    -7632    -7805    -7399    -6877    -6563    -6287    -5858 
   -5549    -5750    -6284    -6522    -6287    -6224    -6884    -7750 
   -7886    -7268    -6642    -6449    -6578    -6764    -6896    -7082 
   -7411    -7700    -7790    -7876    -8014    -7675    -6709    -6011 
   -6073    -6150    -5797    -5557    -5739    -6010    -6143    -6165 
   -6032    -5918    -6314    -7091    -7365    -6881    -6400    -6464 
   -6875    -7295    -7531    -7351    -6773    -6373    -6453    -6309 
   -5400    -4528    -4736    -5717    -6324    -6163    -5800    -5666 
   -5670    -5680    -5623    -5509    -5605    -5995    -6281    -6292 
   -6337    -6560    -6855    -7145    -7211    -6743    -6078    -6085 
   -6792    -7204    -6912    -6565    -6447    -6118    -5686    -5728 
   -5944    -5695    -5471    -6233    -7764    -8905    -9158    -8976 
   -8794    -8672    -8525    -8066    -7031    -5881    -5571    -6152 
   -6533    -6125    -5627    -5732    -6083    -6014    -5544    -5177 
   -5191    -5492    -5944    -6575    -7450    -8323    -8640    -8229 
   -7575    -7066    -6695    -6473    -6398    -6422    -6661    -7212 
   -7792    -7903    -7500    -7062    -6799    -6501    -6139    -5922 
   -5965    -6350    -7004    -7343    -6944    -6433    -6520    -6877 
   -6943    -6861    -7020    -7380    -7592    -7422    -6913    -6277 
   -5638    -5053    -4791    -5026    -5337    -5265    -5063    -5219 
   -5612    -5818    -5925    -6378    -7244    -8060    -8291    -7868 
   -7295    -7066    -7002    -6593    -5922    -5651    -6085    -6737 
   -7027    -7013    -7127    -7483    -7690    -7277    -6356    -5728 
   -5930    -6385    -6209    -5676    -5739    -6325    -6486    -5987 
   -5568    -5799    -6464    -7013    -7104    -6822    -6648    -6786 
   -6724    -6189    -5813    -6074    -6622    -7055    -7265    -7152 
   -6810    -6471    -6144    -5904    -6002    -6348    -6574    -6636 
   -6832    -7165    -7160    -6593    -5885    -5606    -6083    -7129 
   -7862    -7671    -7201    -7376    -8033    -8365    -8168    -7977 
   -8077    -8095    -7721    -7059    -6480    -6510    -7076    -7243 
   -6705    -6364    -6706    -7153    -7232    -7079    -6897    -6719 
   -6675    -6980    -7405    -7516    -7341    -7029    -6535    -6109 
   -6117    -6392    -6469    -6340    -6447    -6899    -7186    -6937 
   -6449    -6112    -5869    -5512    -5105    -4932    -5140    -5749 
   -6698    -7421    -7361    -6966    -6821    -6573    -6025    -5937 
   -6569    -6877    -6364    -5928    -5912    -5639    -5213    -5347 
   -5796    -5900    -5926    -6377    -6769    -6582    -6501    -7092 
   -7601    -7409    -6984    -6700    -6395    -6214    -6396    -6499 
   -6070    -5562    -5492    -5574    -5636    -6004    -6428    -6347 
   -6171    -6401    -6453    -6074    -6081    -6498    -6412    -5991 
   -6112    -6495    -6513    -6704    -7444    -7826    -7415    -7011 
   -6849    -6401    -6008    -6304    -6674    -6468    -6518    -7468 
   -8165    -7676    -7127    -7639    -8308    -7893    -6890    -6575 
   -7064    -7432    -7232    -6869    -6737    -6785    -6841    -6754 
   -6464    -6375    -6932    -7561    -7298    -6460    -6211    -6715 
   -7125    -7032    -6693    -6345    -6198    -6424    -6680    -6428 
   -5836    -5571    -5769    -6058    -6357    -6782    -7159    -7428 
   -7903    -8608    -9086    -8968    -8264    -7419    -7072    -7336 
   -7739    -7960    -8175    -8621    -8967    -8614    -7776    -7380 
   -7637    -7762    -7285    -6741    -6684    -6958    -7353    -7789 
   -7849    -7445    -7238    -7358    -7070    -6337    -6010    -6283 
   -6598    -6809    -7129    -7446    -7502    -7149    -6267    -5159 
   -4671    -5179    -6021    -6476    -6544    -6448    -6249    -6135 
   -6371    -6691    -6522    -6093    -6057    -6151    -5880    -5749 
   -6370    -7256    -7595    -7376    -6959    -6559    -6476    -6707 
   -6669    -6167    -5824    -6037    -6358    -6433    -6639    -7206 
   -7710    -7905    -8071    -8209    -7978    -7637    -7778    -8170 
   -8109    -7598    -7092    -6723    -6563    -6716    -6832    -6481 
   -5917    -5623    -5528    -5435    -5556    -5938    -6223    -6313 
   -6333    -6203    -5974    -5987    -6221    -6242    -6010    -5944 
   -6170    -6503    -6901    -7328    -7561    -7536    -7479    -7478 
   -7407    -7353    -7461    -7443    -6840    -5732    -4838    -4795 
   -5462    -6220    -6719    -6949    -6927    -6758    -6693    -6829 
   -7040    -7213    -7293    -7207    -6920    -6522    -6263    -6419 
   -6833    -6970    -6803    -6844    -7118    -7183    -7107    -7314 
   -7630    -7665    -7676    -7831    -7730    -7525    -7804    -8213 
   -7976    -7360    -7117    -7086    -6752    -6306    -6006    -5672 
   -5507    -5999    -6755    -6907    -6688    -7159    -8339    -9073 
   -8867    -8468    -8486    -8675    -8661    -8318    -7618    -6850 
   -6518    -6619    -6568    -6099    -5661    -5672    -6017    -6391 
   -6583    -6659    -6971    -7518    -7690    -7123    -6346    -6140 
   -6487    -6641    -6225    -5861    -6268    -7095    -7573    -7683 
   -7745    -7819    -7920    -7936    -7504    -6675    -6112    -6122 
   -6289    -6231    -5948    -5620    -5528    -5806    -6203    -6441 
   -6616    -6847    -6920    -6743    -6618    -6707    -6835    -6978 
   -7308    -7633    -7414    -6675    -6313    -6793    -7391    -7506 
   -7478    -7595    -7676    -7747    -8055    -8365    -8146    -7538 
   -7163    -7094    -7002    -6804    -6423    -5774    -5307    -5505 
   -5976    -6059    -5935    -6073    -6295    -6239    -5945    -5656 
   -5631    -6059    -6755    -7224    -7286    -7179    -7102    -7098 
   -6974    -6486    -5960    -5951    -6281    -6345    -6077    -5948 
   -6196    -6581    -6814    -6901    -7117    -7609    -7990    -7878 
   -7545    -7330    -7070    -6690    -6479    -6311    -5727    -4963 
   -4664    -4874    -5227    -5478    -5582    -5783    -6311    -6760 
   -6532    -5956    -5961    -6674    -7336    -7487    -7492    -7808 
   -8121    -7800    -6986    -6461    -6507    -6671    -6614    -6529 
   -6739    -7251    -7703    -7684    -7227    -6933    -7132    -7257 
   -6821    -6310    -6367    -6922    -7460    -7635    -7520    -7378 
   -7355    -7427    -7385    -6943    -6264    -6094    -6682    -7287 
   -7385    -7274    -7243    -7215    -7228    -7405    -7408    -6930 
   -6557    -6772    -6898    -6402    -5810    -5629    -5784    -6039 
   -6033    -5622    -5368    -5687    -6088    -6217    -6472    -6910 
   -7143    -7393    -7811    -7615    -6690    -6187    -6308    -5944 
   -5013    -4654    -5174    -5828    -6261    -6665    -7108    -7636 
   -8279    -8686    -8536    -8056    -7620    -7225    -6679    -6028 
   -5518    -5401    -5666    -5855    -5652    -5353    -5283    -5557 
   -6232    -6942    -7170    -7150    -7610    -8576    -9317    -9456 
   -9234    -8884    -8500    -8039    -7291    -6411    -6053    -6378 
   -6618    -6312    -6051    -6271    -6555    -6575    -6543    -6648 
   -6706    -6445    -5976    -5766    -6078    -6575    -6710    -6508 
   -6404    -6393    -6146    -5779    -5734    -6125    -6722    -7237 
   -7403    -7246    -7076    -6943    -6782    -6906    -7454    -7924 
   -7898    -7509    -7102    -6987    -7076    -6829    -6140    -5727 
   -6109    -6920    -7516    -7585    -7165    -6745    -6874    -7245 
   -7138    -6578    -5998    -5449    -4892    -4523    -4466    -4632 
   -4968    -5433    -5782    -5964    -6368    -7073    -7513    -7398 
   -7155    -7023    -6825    -6775    -7136    -7432    -7337    -7210 
   -6947    -6021    -5055    -5164    -5838    -5918    -5759    -6009 
   -6198    -6223    -6855    -8041    -8934    -9490   -10131   -10364 
   -9572    -8459    -8094    -8246    -7893    -6730    -5379    -4614 
   -4890    -5931    -6633    -6337    -5757    -5665    -5704    -5421 
   -5219    -5476    -5951    -6547    -7298    -7738    -7656    -7706 
   -8088    -8016    -7359    -6936    -6904    -6843    -6940    -7322 
   -7325    -6786    -6644    -7315    -7944    -7892    -7516    -7251 
   -7030    -6669    -6287    -6149    -6309    -6660    -7003    -6950 
   -6240    -5348    -5127    -5701    -6555    -7365    -7851    -7778 
   -7516    -7534    -7569    -7129    -6431    -5941    -5475    -4941 
   -5006    -5714    -6052    -5811    -5936    -6541    -6537    -5571 
   -4614    -4442    -4841    -5203    -5157    -4821    -4787    -5352 
   -5778    -5387    -4789    -4850    -5466    -5932    -5643    -4725 
   -4152    -4536    -5267    -5578    -5667    -5984    -6357    -6654 
   -7216    -8012    -8407    -8135    -7701    -7537    -7507    -7480 
   -7434    -7007    -6087    -5436    -5580    -5920    -5865    -5755 
   -5924    -5995    -5760    -5634    -5734    -5795    -6089    -6978 
   -8047    -8813    -9353    -9613    -9260    -8419    -7602    -7027 
   -6687    -6683    -7013    -7527    -8156    -8578    -8257    -7348 
   -6753    -6888    -7280    -7550    -7833    -8118    -8132    -7819 
   -7225    -6326    -5432    -5154    -5543    -5788    -5327    -4711 
   -4778    -5533    -6390    -6982    -7209    -7039    -6763    -6701 
   -6465    -5650    -4851    -4678    -4705    -4592    -4771    -5270 
   -5584    -5787    -6323    -7051    -7439    -7351    -7194    -7345 
   -7563    -7147    -5882    -4592    -4198    -4584    -5025    -5200 
   -5152    -4934    -4787    -4900    -5110    -5616    -6865    -8297 
   -8919    -8972    -9357    -9888    -9628    -8566    -7556    -6940 
   -6580    -6497    -6451    -6099    -5993    -6778    -7649    -7451 
   -6579    -6188    -6459    -6664    -6284    -5523    -5025    -5350 
   -6423    -7388    -7535    -7206    -7259    -7737    -7645    -6649 
   -6031    -6673    -7644    -7915    -7713    -7649    -7869    -8190 
   -8325    -8039    -7596    -7583    -7959    -8137    -8019    -7878 
   -7730    -7610    -7510    -6980    -5970    -5326    -5416    -5556 
   -5371    -5180    -4910    -4364    -4142    -4513    -4505    -3631 
   -2796    -2599    -2600    -2577    -2886    -3724    -5046    -6581 
   -7602    -7723    -7683    -8296    -9247    -9923   -10221    -9857 
   -8624    -7362    -6859    -6624    -6019    -5315    -4967    -5005 
   -5407    -6127    -6826    -7257    -7615    -8126    -8535    -8204 
   -6969    -5665    -5125    -5139    -5072    -4845    -4770    -4944 
   -5121    -4941    -4277    -3449    -3051    -3364    -3947    -4242 
   -4506    -5257    -6038    -6048    -5671    -5900    -6592    -6936 
   -7175    -7884    -8461    -8337    -8177    -8359    -8126    -7251 
   -6642    -6738    -6919    -6711    -6341    -6056    -5903    -6105 
   -6751    -7512    -8269    -9105    -9559    -9123    -8234    -7711 
   -7528    -7106    -6518    -6334    -6562    -6851    -7172    -7390 
   -7151    -6609    -6289    -6291    -6380    -6560    -7068    -7858 
   -8306    -7823    -6909    -6937    -8307    -9632    -9652    -9043 
   -9023    -9152    -8351    -7090    -6473    -6379    -6276    -6380 
   -6762    -6783    -6249    -5825    -5793    -5746    -5771    -6351 
   -7054    -7140    -7180    -7962    -8606    -8130    -7483    -7576 
   -7469    -6675    -6448    -7243    -7831    -7636    -7367    -7309 
   -6986    -6310    -5765    -5671    -6041    -6739    -7374    -7485 
   -7053    -6655    -6838    -7424    -7734    -7284    -6360    -5770 
   -5560    -5005    -4210    -4040    -4546    -4988    -5194    -5606 
   -6150    -6537    -7033    -7447    -7003    -6071    -5895    -6508 
   -6825    -6643    -6808    -7419    -7744    -7667    -7518    -7213 
   -6772    -6579    -6534    -6184    -5762    -5710    -5616    -5054 
   -4737    -5372    -6284    -6626    -6855    -7612    -8466    -8965 
   -9389    -9603    -8994    -8017    -7695    -7687    -7032    -5945 
   -5093    -4394    -3672    -3262    -3423    -4060    -5069    -6283 
   -7331    -8017    -8458    -8667    -8571    -8363    -8207    -8070 
   -8196    -8845    -9547    -9595    -8993    -8106    -7024    -5993 
   -5582    -5781    -5905    -5762    -5853    -6272    -6560    -6554 
   -6366    -6045    -5797    -5904    -6294    -6524    -6465    -6668 
   -7410    -8244    -8854    -9162    -9011    -8637    -8599    -8739 
   -8268    -7202    -6403    -6069    -5839    -5979    -6775    -7722 
   -8390    -8814    -8866    -8562    -8445    -8634    -8412    -7590 
   -7029    -7038    -6859    -6235    -5813    -5882    -6086    -6285 
   -6685    -7041    -6786    -6143    -5902    -6058    -5830    -5021 
   -4404    -4457    -4696    -4629    -4305    -4066    -4377    -5162 
   -5619    -5390    -5049    -5085    -5299    -5402    -5431    -5374 
   -5150    -5132    -5915    -7211    -7942    -7898    -7955    -8450 
   -8779    -8426    -7536    -6711    -6439    -6649    -6907    -6978 
   -7003    -6994    -6604    -5831    -5198    -4918    -4739    -4568 
   -4596    -4951    -5463    -5836    -5915    -5578    -4877    -4332 
   -4326    -4475    -4394    -4559    -5291    -5802    -5583    -5341 
   -5553    -5859    -6195    -6688    -6884    -6733    -7111    -8133 
   -8650    -8250    -7862    -7977    -8141    -8217    -8370    -8280 
   -7798    -7385    -7092    -6643    -6501    -6999    -7323    -6927 
   -6420    -6109    -5564    -4842    -4402    -4213    -4171    -4535 
   -5267    -5896    -6278    -6601    -6744    -6658    -6879    -7518 
   -7796    -7346    -6805    -6863    -7404    -7661    -7332    -7164 
   -7792    -8666    -8864    -8338    -7754    -7538    -7536    -7463 
   -7242    -6947    -6910    -7455    -8132    -8083    -7317    -6563 
   -6055    -5601    -5416    -5726    -6185    -6501    -6777    -6943 
   -6760    -6490    -6666    -7159    -7413    -7341    -7069    -6629 
   -6398    -6694    -7146    -7309    -7317    -7505    -7887    -8243 
   -8479    -8499    -8109    -7453    -6948    -6621    -6071    -5176 
   -4455    -4476    -5106    -5649    -5687    -5516    -5621    -6080 
   -6638    -6932    -6666    -6133    -6177    -6932    -7564    -7674 
   -7557    -7330    -7074    -7046    -7092    -6688    -5832    -5155 
   -4999    -5096    -5243    -5483    -5717    -5875    -6107    -6462 
   -6803    -6936    -6736    -6353    -6095    -6084    -6248    -6394 
   -6358    -6291    -6438    -6693    -6744    -6511    -6206    -6022 
   -5952    -5984    -6150    -6424    -6772    -7157    -7440    -7575 
   -7733    -7903    -7795    -7366    -7013    -6956    -6795    -6204 
   -5625    -5602    -5915    -6119    -6429    -7203    -8103    -8549 
   -8495    -8352    -8464    -8799    -9053    -9034    -9034    -9502 
  -10232   -10433    -9759    -8856    -8513    -8536    -8272    -7790 
   -7507    -7410    -7398    -7445    -7265    -6689    -6107    -5904 
   -5867    -5611    -5269    -5318    -5796    -6214    -6270    -6111 
   -6072    -6461    -7148    -7479    -7192    -6917    -7151    -7402 
   -7093    -6609    -6567    -6817    -6848    -6535    -6101    -5759 
   -5551    -5359    -5033    -4633    -4457    -4650    -4952    -5035 
   -4994    -5273    -5957    -6546    -6725    -6650    -6440    -6242 
   -6407    -6875    -7161    -7355    -8033    -9118    -9855    -9768 
   -9073    -8352    -8012    -7836    -7168    -5929    -5119    -5504 
   -6410    -6815    -6809    -7061    -7493    -7475    -6989    -6428 
   -5748    -5072    -5067    -5583    -5631    -5382    -5835    -6659 
   -6876    -6730    -6807    -6907    -7038    -7616    -8157    -7809 
   -7088    -6883    -6720    -6142    -5921    -6273    -6223    -5570 
   -5269    -5640    -5998    -6016    -6080    -6402    -6813    -7153 
   -7230    -7048    -7093    -7523    -7763    -7598    -7507    -7647 
   -7555    -6962    -6226    -5843    -5816    -5742    -5463    -5293 
   -5490    -5822    -6040    -6400    -7112    -7862    -8473    -9127 
