Origin Time       2011/03/11 14:46:00
Lat.              38.103
Long.             142.860
Depth. (km)       24
Mag.              9.0
Station Code      HKD078
Station Lat.      43.1488
Station Long.     144.4976
Station Height(m) 25
Record Time       2011/03/11 14:47:57
Sampling Freq(Hz) 100Hz
Duration Time(s)  300
Dir.              U-D
Scale Factor      3920(gal)/6182761
Max. Acc. (gal)   13.767
Last Correction   2011/03/11 14:47:42
Memo.             
[...]
   -5157    -5761    -5803    -5341    -2778     1053     2409     1398 
     458     -385     -918     -645     -802    -1371     -856       64 
    -455    -1416     -571      630     -787    -3777    -5624    -6817 
   -8708    -9553    -7722    -6284    -7842    -9474    -9367    -9065 
   -8872    -9397   -10334   -10052   -10359   -10889    -8478    -6500 
   -7931    -9077    -8763    -9581   -12242   -15093   -16304   -15699 
  -14057   -13009   -13928   -14000   -10170    -5922    -5196    -5612 
   -4534    -3213    -2691    -2961    -4327    -6178    -7127    -6751 
   -5579    -4235    -3556    -3702    -3636    -3891    -6220    -9044 
   -9212    -7152    -4497     -878     2543     2903     1499     1140 
    -818    -6080   -10154   -11496   -12636   -12835   -11484   -10505 
   -9889    -8661    -6534    -3573     -995      952     3023     3505 
    1047    -1763    -3131    -4648    -6907    -8381    -8582    -8486 
   -8084    -7032    -7254   -10282   -13657   -14114   -12807   -12986 
  -13533   -11663    -8722    -6271    -3032     1009     3843     4786 
    5090     4118     -843    -7539   -10735   -11209   -11415   -10295 
   -8608    -8083    -7224    -5304    -4768    -6407    -7340    -6215 
   -4844    -3630    -1749       -2      754     1619     4245     7650 
    8493     5583     1460    -1175    -2124    -2396    -2159    -1007 
     244      125     -905     -700     1922     5351     6363     3995 
    -349    -5810   -10515   -11723   -10639    -9890    -8292    -4441 
     449     4761     6629     5314     2945     1769     1539      486 
   -1426    -2940    -5012    -7840    -9005    -8642    -7724    -4705 
    -503     1902     1991     -581    -5668   -10007   -12109   -13929 
  -15255   -14515   -11676    -6298      726     5469     5571     2714 
     -17    -1262    -1867    -2367    -2530    -2386    -1384      296 
     622     -641    -1483    -1586    -1133      288     1377     1909 
    2843     2579      774    -1056    -3944    -7079    -6227    -1690 
    1514     1137     -928    -2480    -3400    -4441    -5688    -7284 
   -8427    -7442    -5249    -3873    -3117    -2832    -3383    -3400 
   -2385    -2166    -3728    -7168   -12046   -15504   -15146   -12002 
   -8123    -4812    -1893     1594     4560     5901     7150     8468 
    7630     4661     1377    -1789    -4013    -3740    -2930    -5267 
   -9139    -9969    -8148    -7151    -7545    -8438   -10037   -11578 
  -10581    -6254    -1755     -725    -2099    -1834      498     1808 
     882     -852    -2095    -2597    -2502    -2409    -2941    -3073 
    -915     3327     6703     6941     5474     4129     2037     -761 
   -3164    -6611   -11590   -14415   -13138   -11319   -11757   -11860 
   -8726    -4421    -2182     -679     1567     1486    -1665    -3765 
   -4026    -5238    -6050    -2777     2835     6279     7449     7790 
    6120     2008    -2144    -4449    -6982   -11972   -15480   -13323 
   -7936    -2629     1200     2643     3408     5266     7122     7599 
    6152     3186       85    -3235    -8187   -13670   -16336   -15060 
  -11535    -7348    -4168    -3477    -2880      826     5213     7014 
    7330     6938     4770      -49    -7625   -15066   -19624   -22375 
  -23185   -20444   -15738   -11327    -7478    -3815     -137     2831 
    4157     3514      632    -2203     -397     4784     5742      690 
   -4078    -5467    -5954    -6863    -7962    -9183    -9072    -6946 
   -5161    -4492    -2535      684     2161      988     -889    -2192 
   -4145    -7510   -10113    -9806    -7627    -6539    -6772    -5371 
   -2802    -2358    -2688    -1466    -1273    -3784    -6976    -9296 
   -9698    -8075    -6107    -3465      691     2938      781    -1705 
     347     4953     5833     1721    -2247    -2928    -3331    -6475 
   -9463    -9186    -8047    -7162    -4473    -1474     -906    -2328 
   -4219    -5744    -7231    -8803   -10054   -11378   -11380    -8726 
   -6346    -6019    -5048    -1764     1234      765    -2119    -4768 
   -7218    -9138    -8932    -7594    -7057    -6968    -6175    -4841 
   -4501    -5598    -6708    -7271    -7205    -6158    -4909    -3777 
   -2980    -3849    -4952    -3211      262     1657     -414    -3983 
   -7348   -11556   -16285   -17771   -15380   -13185   -11995    -8564 
   -3250      153      663     -518    -2886    -5266    -6884    -8967 
  -10960    -9636    -5358    -3703    -6563    -8302    -5783    -2614 
   -1146     -781    -2265    -6155    -9052    -6727    -1868     -907 
   -2837    -2374     -420     -263     -501        7     -941    -3104 
   -3768    -2579    -1146    -1456    -4350    -7288    -7635    -6666 
   -6607    -7292    -7239    -6228    -5084    -3596    -2772    -4527 
   -6558    -6240    -4745    -2746    -1229    -1250     -101     3023 
    4693     4107     2817      457    -3060    -4431    -1462     2180 
    3212     3651     5411     7747     8893     6629     1125    -4019 
   -5189    -1144     5464     8486     4843     -214     -159     2608 
    1761    -1992    -4186    -4556    -4432    -2889     -332      370 
    -599      177     2928     4745     4606     3160     1252      226 
     430      545     -962    -3656    -4863    -4480    -5981    -8401 
   -6624    -1910      470     1371     3720     5169     2837     -999 
   -2998    -4210    -6403    -7867    -7302    -5475    -3034    -1213 
   -1220    -2415    -3291    -3117    -1977     -733    -1235    -2798 
   -2354    -1625    -3303    -3797    -1293      117    -1553    -4031 
   -4962    -4434    -3657    -2714    -1884    -1925    -2145    -1627 
   -1194    -1917    -2906    -3863    -6043    -7581    -6829    -6447 
   -6640    -5531    -4531    -4885    -5783    -6155    -6458    -8733 
  -11281   -11196   -11181   -12353   -11548   -10312   -11877   -14174 
  -14327   -11817    -7061    -2059      606     -328    -4035    -7103 
   -7626    -8303   -10261   -10664   -10048   -11920   -15137   -16206 
  -15144   -12803    -9584    -8059    -8155    -5617    -1792    -1742 
   -3523    -4420    -6794    -9343    -8743    -7083    -6504    -5873 
   -4681    -3427    -3393    -5659    -8030    -8783    -9571    -9553 
   -7010    -4731    -3985    -2790    -2023    -2407    -1614      100 
    -718    -4685    -8320    -9951   -10791   -10009    -7454    -5796 
   -4973    -3839    -3510    -3933    -4140    -3686    -2408    -1944 
   -4032    -7895    -9982    -7479    -4412    -5659    -7362    -5228 
   -2017      -19     1453     1574     -937    -4999    -8361   -10712 
  -13596   -16119   -15567   -12121    -7082    -2427    -2125    -5086 
   -6296    -5876    -5385    -4470    -4303    -4808    -3477      697 
    5453     6967     5180     3656     2956     1713      544     -446 
   -2182    -3596    -2912    -1143      -26      540      616      968 
    2630     4226     5246     6286     6285     5110     3024      304 
    -851     -710    -1751    -2630     -929     1455      781    -1858 
   -1437     1857     3858     4672     5225     3916     1852     1790 
    2111     -672    -4637    -5052    -2670    -1295    -1399    -1836 
   -1912    -1129      120     1716     3359     3447     2534     3179 
    5188     5840     4170     2735     2823      942    -3463    -5138 
   -3728    -4325    -6395    -5680    -3732    -4241    -5373    -3984 
   -1473     -992    -2460    -2775    -2127    -4626    -8987    -9712 
   -7545    -6677    -6712    -4606     -693     1313      617       19 
    -109    -2320    -6424    -8421    -7356    -7589   -11016   -13398 
  -11682    -8476    -5811    -2710     -427     -869    -2096    -2525 
   -4358    -8665   -12989   -15035   -14866   -13591   -10973    -7220 
   -5013    -4468    -3920    -5538    -9328   -10682    -9312    -9541 
  -12643   -15245   -15415   -15765   -17084   -16695   -14479   -11743 
   -9315    -9404   -11615   -12745   -12211   -10575    -8207    -6303 
   -5231    -5469    -7160    -8868   -10814   -13149   -14037   -13621 
  -12582   -11704   -13041   -13752   -10101    -5534    -2326     1066 
    2706     1647     1150     1861     1354     -949    -3688    -6232 
   -7961    -7309    -5573    -5866    -6864    -5536    -2155     1914 
    4951     5199     3559     1989      933     -453    -2364    -2787 
   -1113      342     1121     2515     4341     5470     3966     -826 
   -5284    -5779    -2912      738     3027     3583     3119     1350 
    -211     1039     2388      683    -1540    -2483    -2775    -2902 
   -4573    -6469    -5140    -2631    -1894    -1923    -1164      919 
    2380     1824     1560     1091    -2025    -4799    -3986    -1614 
    -773    -1555    -1104     1060     1778     1491     2811     3387 
    -509    -7029    -9504    -4464     2861     5535     3865     2100 
    1485     1615     2581     1689    -3560    -8949    -9740    -8436 
   -9626   -12812   -13344    -8081      415     5998     6486     4055 
    -309    -4623    -6801    -9178   -12481   -14954   -16658   -14795 
   -7473     -797      272    -1464    -1744     -542    -1240    -5301 
  -10196   -12956   -13610   -14784   -16897   -17547   -16724   -15467 
  -12591    -8324    -5155    -4323    -5091    -6511    -8846   -11809 
  -13356   -12664   -11598   -12574   -14426   -12135    -5810    -2356 
   -3320    -3749    -2503    -2293    -4311    -6900    -7538    -7394 
   -8156    -6787    -3371    -2920    -4708    -4842    -5253    -8628 
  -11862   -11365    -8566    -5762    -3228    -1947    -2855    -4937 
   -6096    -5155    -4385    -6984   -11997   -15568   -15239   -11894 
   -8655    -7633    -8502    -8914    -6183    -1138     2545     3395 
    2506     1494     1612     2025      351    -4374   -10028   -13260 
  -13482   -12394   -11316   -10338    -7838    -4899    -5244    -7282 
   -7980    -8357    -7901    -5243    -1844      139     -542    -2403 
   -3097    -4321    -8236   -12880   -15350   -14442   -10980    -7363 
   -5744    -7028    -9138    -8673    -6022    -3033     -515     -907 
   -3996    -5869    -6514    -7466    -7635    -6633    -4060     -669 
    -462    -3455    -5233    -5297    -4868    -2469     1463     3128 
    1923     2323     5366     6537     5078     3439      709    -3511 
   -6899    -7640    -4853       39     4004     5679     5084     4143 
    5365     6670     5421     3879     3405     3240     4542     7040 
    7872     6296     4279     2910     2768     5862    10106     9502 
    5615     4468     5268     4902     2801     -430    -2519    -3054 
   -3213    -1829      141     -197    -1643    -2440    -3903    -5970 
   -6225    -4311    -1530     1914     4353     3310      674     -174 
     243     -156    -1327    -2067    -3172    -6140    -8718    -8370 
   -7333    -7506    -6737    -3435      996     3982     3892     1478 
   -1664    -4698    -6521    -7369    -9027   -10217    -8849    -5902 
   -1643     3180     5602     5204     2487    -2216    -5485    -5731 
   -5739    -7024    -9053   -11200   -12499   -12605   -12100   -10837 
   -7826    -4553    -3836    -3888    -2122     -512     -458    -1715 
   -5004    -8924   -11111   -12015   -12536   -12103   -10149    -7635 
   -6492    -7102    -8769   -10894   -11767   -10241    -6464    -1038 
    2163     -117    -3382    -3107    -3036    -6009    -8297    -8347 
   -8840   -11228   -14530   -16531   -17143   -17406   -14630    -8417 
   -4361    -3952    -4662    -7593   -12061   -14151   -14366   -15128 
  -16454   -16835   -13987    -9559    -7374    -6419    -5416    -5806 
   -6893    -7116    -7594   -10049   -12595   -12108   -10388    -9849 
   -8426    -6039    -5497    -6715    -8649   -10950   -12466   -13296 
  -14609   -16333   -17457   -16816   -14593   -11755    -8056    -4426 
   -3159    -4116    -5542    -7169    -9816   -12711   -13248   -11364 
   -9726    -8375    -5986    -2873      681     3260     2787      292 
   -1504    -2295    -4370    -8073   -10988   -13106   -15287   -15852 
  -14338   -11136    -6246    -1462     3304     8588    10226     7247 
    4438     2363    -1244    -4854    -6378    -6197    -5604    -5029 
   -4082    -3398    -2803     -316     2774     2962     1049      424 
    2272     5858     9099     9467     7343     5497     5459     6703 
    6678     3628      164     -707      813     3089     3429      692 
   -1744     -288     4766     9831    10766     7962     5860     6198 
    7442     8175     7895     8148    10023    10472     7911     5283 
    3654     2400     1574     -610    -3859    -4753    -3784    -2990 
   -1653     -403     -443     -383     1130     3840     6590     7794 
    5918      784    -4708    -7121    -6537    -5341    -4936    -5087 
   -5466    -6200    -7175    -8524    -9470    -8248    -6157    -5974 
   -7431    -8852    -8690    -6221    -3101    -1018     -366    -2320 
   -7147   -11615   -12607   -11685   -12136   -13586   -14168   -14119 
  -13064    -9748    -6039    -4843    -5008    -4186    -3262    -3021 
   -2861    -3596    -5511    -8330   -12228   -14261   -12357   -10191 
  -10218   -10541    -9673    -8592    -9296   -10939   -10813    -8801 
   -5187     -547     2167     2879     3805     3373     -417    -5869 
  -10203   -12347   -12643   -11876   -11988   -14055   -16058   -15758 
  -12735    -8437    -4487     -457     3572     6849     9815    11102 
    9044     5131      625    -4670    -9855   -13264   -14391   -14157 
  -12795    -9585    -4460     2747    10947    16561    17805    15768 
   11824     7694     4722     3222     2700     1199    -1284    -1913 
   -1204    -1135      -37     2356     3001     1318     -133     -251 
    -420     -270     2409     6013     6446     3809     1739     1714 
    1575      -77    -1826    -3980    -7839   -10551   -10389   -10528 
  -10808    -8431    -5359    -3804    -2776    -1689     -660     -280 
   -1471    -4096    -7116    -9722   -11955   -12945   -12024   -12220 
  -14646   -14581   -10766    -8505    -9293    -7772    -2925    -1368 
   -4328    -5853    -6123    -9694   -14227   -15332   -15223   -17080 
  -18502   -17104   -14682   -11937    -7937    -3571      -64     1307 
    -266    -3375    -6829   -10283   -12410   -12375   -11023    -9586 
   -8368    -7135    -6870    -8415   -10115    -9587    -6167    -1913 
     740     2409     2981     -243    -6350   -11641   -15351   -17858 
  -17818   -14231    -9048    -5133    -2107     1574     4637     5500 
    5086     4991     4622     1421    -4398    -9290   -11708   -12433 
  -12545   -12882   -11773    -7398    -2047     1492     3347     3800 
    2311     -242    -2100    -3476    -5665    -8292    -9758    -8891 
   -6576    -5024    -3774    -1381      -59     -703      328     2866 
    2674     -221    -3116    -4607    -4501    -4858    -6676    -7177 
   -5059    -2684    -1376      -28      605    -1842    -5509    -7140 
   -8241   -10156   -10338    -7307    -3047      178     2488     3872 
    3213     1547      357    -1213    -3925    -5500    -3915    -3241 
   -5921    -6904    -5960    -6356    -4566      334     2920     1564 
    -559     -812     -492    -2118    -4061    -4763    -6127    -7408 
   -4933     1224     6411     7285     5127     2111    -1788    -6405 
   -9578    -9293    -6169    -3431    -3806    -6029    -6894    -5841 
   -3890    -2349    -3513    -6702    -8143    -6932    -4857    -3306 
   -3097    -4111    -5281    -4993    -2488     -358    -1552    -4134 
   -4350    -2496    -1714    -2799    -3260    -2721    -4505    -8146 
   -8118    -3995    -1526    -1135     1524     5009     5506     4122 
    2681      382    -2424    -3309    -2975    -4480    -5557    -2554 
     489     -329     -827     1140     1886      986     -135    -2802 
   -7055   -10889   -12723   -12387   -11465   -10126    -6519    -1842 
    -496    -3880    -8180    -8791    -6293    -6976   -11162   -10600 
   -7175    -9712   -13845   -12555    -9373    -8645    -9144    -8519 
   -7952    -8692    -8532    -7300    -7464    -8609    -9101    -7817 
   -2993     2518     3277      885    -1439    -5322   -10504   -14059 
  -14847   -13317   -11972   -12246   -11006    -7082    -4191    -3288 
   -2645    -4274    -9510   -14854   -17899   -18731   -17810   -16818 
  -16219   -14150   -10379    -6619    -3654    -1989    -2565    -4610 
   -5978    -5958    -5418    -5394    -6067    -6442    -6865    -8796 
  -10227    -8675    -6392    -6153    -7731    -9308    -8811    -6698 
   -5327    -5165    -5228    -3823     -465     1509      301    -1601 
   -2864    -4611    -7847   -11155   -11182    -7082    -1698     1444 
    1573      935      731      679      692     -380    -2846    -4509 
   -3589       93     4310     5268     3461     2966     4619     6422 
    7236     7548     7573     5606     2796     3493     6869     8360 
    6949     4665     3980     5881     8373     8370     5845     4052 
    3850     3000     1079     -740    -1728    -1313      212     1159 
     348     -699     -527     -611     -598     2156     5865     7669 
    9771    13320    14592    12024     8454     6268     5819     6073 
    5913     5213     3580     1853     2396     3723     2391      563 
    2026     4427     3751      853    -1624    -3800    -6907    -9268 
   -7896    -4352    -2943    -3616    -3335    -2229    -3685    -8012 
   -9705    -6782    -4423    -4150    -3369    -2559    -2038    -1039 
    -694     -930     -952    -2314    -5566    -8535    -9682    -9961 
  -10386    -9945    -7752    -3827      429     1520      -43      181 
    1222       69    -1344    -2035    -4098    -7031    -8059    -6870 
   -6204    -7219    -7788    -7342    -8315   -10872   -11747   -10204 
   -9277    -9607    -8857    -6772    -4755    -3305    -2629    -2339 
   -1744    -1949    -4344    -7450    -8786    -8283    -6861    -4190 
     183     5149     7578     5646     2320      856      484     -582 
   -2251    -3321    -4494    -6732    -6605    -2413     1021      776 
    -790    -1422    -1838    -3407    -4385    -3434    -2956    -3803 
   -4377    -4419    -4359    -4145    -3439    -2397    -1855    -1657 
   -1721    -2691    -3120    -1556       35    -1147    -5094    -8496 
   -9142    -8754    -9014    -9982   -11532   -12778   -12310    -9436 
   -6055    -5625    -7837    -9428    -9317    -8207    -7074    -6416 
   -5391    -4439    -5131    -6083    -5603    -5855    -8268   -10649 
  -11777   -12228   -12094   -11773   -10783    -8062    -5775    -5433 
   -4511    -2489    -1134     -669    -1750    -4666    -7401    -9301 
  -11998   -15168   -16063   -13929   -11179    -9295    -7512    -5740 
   -4330    -2194      710     1852       88    -2884    -5895    -9198 
  -11861   -11582    -9014    -7270    -6022    -3866    -2654    -3366 
   -4191    -3831    -2974    -2967    -3487    -3747    -5190    -8223 
   -9727    -7979    -5031    -3532    -4413    -5472    -3801    -1299 
   -1672    -4022    -5798    -6390    -5689    -4563    -4205    -4299 
   -4884    -6321    -7400    -6646    -3812     -450     1711     3187 
    3709     2011      573     1343     1948     1486      854     -255 
   -1739    -3115    -3807    -3424    -3033    -2815    -1894     -986 
     -89     2324     5520     7144     7115     6602     4796     1571 
