Origin Time       2011/03/11 14:46:00
Lat.              38.103
Long.             142.860
Depth. (km)       24
Mag.              9.0
Station Code      HKD048
Station Lat.      44.2199
Station Long.     143.6155
Station Height(m) 4
Record Time       2011/03/11 14:48:41
Sampling Freq(Hz) 100Hz
Duration Time(s)  299
Dir.              N-S
Scale Factor      3920(gal)/6182761
Max. Acc. (gal)   9.441
Last Correction   2011/03/11 14:48:26
Memo.             
[...]
    9732     9605     9435     9235     9018     8791     8571     8374 
    8204     8099     8100     8181     8271     8340     8378     8366 
    8294     8184     8091     8054     8063     8105     8185     8316 
    8513     8735     8891     8927     8852     8681     8422     8082 
    7694     7315     7017     6851     6817     6889     7034     7180 
    7279     7361     7442     7505     7540     7547     7572     7712 
    8035     8506     9015     9472     9849    10153    10367    10473 
   10477    10374    10171     9898     9574     9205     8813     8427 
    8069     7740     7438     7167     6923     6707     6535     6402 
    6285     6164     6030     5917     5896     5991     6185     6483 
    6907     7457     8083     8722     9330     9865    10306    10682 
   11046    11409    11741    12008    12200    12345    12474    12565 
   12571    12476    12298    12080    11851    11608    11339    11041 
   10740    10486    10311    10206    10150    10129    10132    10171 
   10301    10558    10910    11313    11711    12035    12273    12447 
   12566    12660    12761    12870    12980    13052    13017    12868 
   12684    12507    12314    12104    11929    11781    11561    11332 
   11228    11183    11181    11208    11182    11115    10944    10748 
   10651    10534    10426    10369    10266    10144    10017     9860 
    9705     9570     9485     9482     9492     9448     9358     9212 
    9029     8881     8804     8803     8849     8873     8847     8816 
    8818     8863     8965     9109     9235     9297     9277     9170 
    8997     8752     8397     7958     7508     7075     6636     6165 
    5653     5111     4558     4003     3442     2920     2485     2116 
    1775     1426     1038      647      314       44     -188     -398 
    -598     -790     -974    -1162    -1359    -1538    -1661    -1678 
   -1518    -1173     -718     -217      301      800     1263     1711 
    2173     2683     3261     3896     4572     5280     6004     6749 
    7568     8481     9427    10351    11221    12023    12794    13547 
   14242    14874    15471    16034    16570    17091    17589    18082 
   18574    18987    19228    19257    19079    18731    18269    17731 
   17142    16544    15995    15521    15104    14699    14269    13789 
   13246    12660    12072    11510    10985    10484    10002     9555 
    9158     8820     8524     8241     7991     7791     7625     7495 
    7415     7388     7403     7433     7446     7431     7431     7490 
    7601     7745     7907     8075     8238     8392     8535     8638 
    8698     8777     8938     9201     9524     9837    10119    10385 
   10627    10848    11072    11290    11470    11584    11594    11490 
   11322    11137    10938    10720    10483    10204     9864     9477 
    9048     8582     8135     7780     7547     7389     7237     7069 
    6872     6617     6288     5891     5501     5212     5026     4886 
    4761     4673     4663     4761     4961     5220     5543     5929 
    6217     6363     6563     6839     7178     7653     8144     8660 
    9204     9633    10072    10527    10897    11309    11737    12132 
   12563    13007    13437    13858    14259    14628    14930    15141 
   15267    15306    15273    15217    15150    15095    15090    15130 
   15236    15440    15681    15887    16013    16004    15874    15668 
   15370    14973    14512    14063    13693    13351    12931    12395 
   11779    11150    10559     9999     9437     8855     8233     7574 
    6918     6304     5780     5421     5244     5199     5246     5351 
    5447     5469     5402     5234     4959     4635     4335     4096 
    3938     3841     3784     3760     3746     3711     3639     3534 
    3413     3286     3160     3031     2892     2739     2545     2300 
    2041     1845     1760     1786     1894     2051     2241     2486 
    2816     3233     3705     4218     4757     5275     5722     6079 
    6371     6658     6971     7298     7619     7928     8209     8443 
    8635     8812     9014     9287     9623     9952    10183    10258 
   10182    10007     9812     9661     9567     9521     9530     9601 
    9716     9837     9947    10056    10185    10344    10512    10638 
   10681    10643    10580    10553    10587    10672    10765    10810 
   10778    10657    10461    10236    10023     9847     9725     9637 
    9544     9423     9289     9199     9197     9267     9353     9413 
    9449     9487     9578     9770    10042    10300    10448    10444 
   10311    10124     9977     9919     9934     9994    10080    10160 
   10225    10289    10355    10415    10473    10546    10650    10814 
   11068    11416    11828    12250    12621    12925    13190    13439 
   13701    14021    14419    14901    15492    16173    16879    17532 
   18053    18433    18669    18716    18589    18332    18001    17680 
   17381    17041    16683    16353    16012    15652    15226    14692 
   14136    13533    12920    12421    11962    11552    11215    10827 
   10382     9909     9388     8861     8387     7992     7677     7412 
    7143     6849     6538     6239     5981     5777     5617     5464 
    5268     5005     4685     4368     4106     3873     3686     3616 
    3652     3767     3962     4201     4462     4744     5055     5434 
    5874     6336     6814     7308     7815     8323     8766     9067 
    9224     9307     9380     9462     9546     9604     9601     9498 
    9266     8943     8635     8429     8350     8376     8451     8509 
    8513     8483     8480     8558     8708     8906     9148     9431 
    9748    10058    10313    10520    10692    10824    10892    10844 
   10666    10407    10099     9764     9457     9228     9082     8986 
    8899     8789     8638     8449     8260     8142     8151     8282 
    8479     8687     8879     9079     9329     9626     9923    10170 
   10325    10365    10337    10327    10354    10364    10297    10110 
    9789     9383     8965     8557     8152     7755     7362     6968 
    6602     6340     6236     6277     6409     6565     6701     6835 
    7015     7269     7599     7963     8289     8520     8630     8636 
    8600     8574     8576     8597     8615     8594     8510     8362 
    8158     7924     7711     7554     7430     7272     7030     6695 
    6300     5899     5553     5296     5115     4975     4876     4877 
    5037     5326     5675     6032     6346     6610     6875     7169 
    7512     7906     8316     8716     9101     9449     9733     9938 
   10081    10180    10239    10304    10401    10489    10540    10585 
   10677    10863    11145    11466    11754    11989    12194    12349 
   12441    12571    12830    13166    13563    14096    14709    15306 
   15872    16352    16742    17011    17063    16978    16810    16560 
   16352    16219    16117    16046    15979    15918    15873    15825 
   15788    15784    15793    15795    15783    15727    15606    15443 
   15291    15191    15149    15142    15150    15180    15189    15109 
   14922    14602    14125    13560    12980    12413    11866    11306 
   10714    10096     9477     8919     8485     8188     8005     7885 
    7759     7584     7352     7068     6734     6358     5933     5448 
    4876     4183     3386     2567     1820     1237      875      704 
     654      644      613      569      574      668      848     1123 
    1541     2126     2833     3629     4494     5369     6199     6960 
    7640     8236     8763     9224     9607     9905    10127    10280 
   10359    10340    10220    10044     9854     9667     9499     9330 
    9114     8843     8550     8236     7886     7511     7132     6764 
    6409     6053     5698     5381     5130     4945     4826     4787 
    4837     4977     5211     5503     5808     6122     6439     6775 
    7169     7617     8128     8698     9260     9764    10211    10619 
   11018    11440    11916    12457    13036    13609    14124    14534 
   14825    14977    14980    14869    14669    14387    14043    13641 
   13190    12791    12459    12026    11515    11091    10665    10199 
    9734     9199     8697     8217     7706     7359     7138     6990 
    7029     7158     7304     7481     7640     7777     7900     8009 
    8152     8314     8453     8587     8692     8719     8697     8661 
    8639     8672     8759     8840     8874     8878     8907     9021 
    9240     9525     9846    10241    10736    11303    11912    12547 
   13191    13812    14387    14918    15397    15802    16131    16393 
   16561    16566    16377    16009    15478    14805    14003    13070 
   12026    10916     9792     8704     7685     6795     6065     5452 
    4897     4341     3725     3043     2361     1744     1234      875 
     679      645      822     1201     1693     2217     2686     3065 
    3389     3654     3861     4032     4183     4362     4615     4961 
    5379     5809     6226     6601     6871     7046     7179     7281 
    7364     7478     7676     7983     8349     8699     9023     9359 
    9725    10088    10395    10612    10708    10676    10548    10385 
   10239    10123    10015     9874     9670     9407     9113     8800 
    8486     8213     8015     7892     7801     7686     7553     7437 
    7358     7350     7435     7608     7832     8063     8307     8585 
    8912     9336     9866    10458    11049    11539    11844    11976 
   11988    11910    11749    11499    11174    10798    10383     9957 
    9549     9156     8769     8411     8099     7827     7608     7456 
    7342     7242     7160     7113     7131     7221     7371     7563 
    7772     7989     8215     8435     8643     8831     8982     9121 
    9278     9435     9572     9690     9790     9902    10097    10413 
   10795    11113    11277    11272    11136    10969    10871    10845 
   10854    10846    10769    10605    10375    10120     9863     9589 
    9262     8842     8344     7834     7378     7038     6858     6837 
    6944     7116     7281     7413     7523     7622     7724     7851 
    8024     8243     8490     8744     8970     9147     9287     9403 
    9515     9635     9745     9814     9846     9873     9844     9685 
    9515     9385     9205     9042     8917     8834     8856     8865 
    8894     9049     9215     9382     9552     9651     9722     9816 
    9963    10185    10447    10735    11028    11270    11485    11751 
   12074    12426    12771    13046    13214    13282    13273    13241 
   13254    13327    13431    13500    13460    13283    12952    12480 
   11926    11319    10691    10101     9584     9176     8907     8748 
    8654     8573     8461     8322     8181     8051     7977     7999 
    8089     8209     8351     8532     8745     8934     9057     9088 
    8998     8798     8554     8323     8121     7930     7716     7467 
    7216     6989     6783     6549     6229     5822     5413     5099 
    4926     4896     4978     5129     5325     5543     5759     5974 
    6210     6489     6837     7271     7784     8345     8905     9392 
    9752     9969    10055    10038     9943     9775     9536     9245 
    8946     8710     8592     8576     8615     8677     8727     8742 
    8740     8755     8832     8992     9200     9404     9578     9718 
    9836     9969    10133    10287    10382    10420    10434    10436 
   10419    10405    10440    10541    10672    10758    10714    10524 
   10242     9919     9569     9199     8814     8415     8054     7824 
    7778     7900     8153     8498     8885     9274     9637     9937 
   10166    10355    10538    10727    10910    11065    11179    11265 
   11347    11439    11566    11748    11932    12009    11918    11687 
   11383    11072    10779    10489    10202     9948     9752     9631 
    9569     9538     9537     9567     9636     9783    10029    10350 
   10725    11158    11636    12107    12511    12807    12979    13031 
   12976    12798    12496    12127    11745    11400    11079    10694 
   10227     9717     9186     8699     8302     7982     7729     7525 
    7351     7226     7165     7146     7157     7201     7289     7451 
    7694     7980     8249     8440     8545     8589     8586     8537 
    8456     8322     8094     7787     7481     7230     7040     6921 
    6899     6979     7131     7296     7443     7618     7877     8233 
    8665     9131     9595    10053    10524    11028    11581    12160 
   12704    13165    13548    13886    14210    14560    14947    15320 
   15615    15796    15856    15822    15740    15656    15610    15648 
   15786    15972    16156    16346    16537    16700    16840    16951 
   17005    16991    16902    16728    16499    16284    16122    16010 
   15945    15922    15911    15886    15861    15816    15619    15256 
   14884    14503    14100    13725    13364    13089    12893    12734 
   12689    12683    12679    12745    12827    12896    12951    12921 
   12761    12462    12074    11703    11402    11131    10841    10504 
   10121     9730     9334     8948     8629     8395     8255     8208 
    8220     8254     8239     8103     7844     7503     7126     6753 
    6417     6147     5946     5786     5613     5387     5106     4768 
    4361     3876     3327     2736     2101     1437      779      152 
    -410     -889    -1335    -1753    -2097    -2427    -2815    -3235 
   -3667    -4110    -4544    -4963    -5321    -5564    -5685    -5664 
   -5499    -5253    -4989    -4708    -4389    -4011    -3522    -2943 
   -2364    -1751    -1060     -382      241      883     1581     2331 
    3153     4051     4953     5768     6495     7160     7694     8028 
    8189     8253     8288     8355     8456     8530     8566     8599 
    8585     8489     8360     8229     8112     8051     8070     8152 
    8247     8338     8430     8483     8509     8601     8769     8969 
    9199     9453     9696     9950    10277    10676    11088    11462 
   11744    11909    11993    12052    12145    12327    12619    13012 
   13487    13993    14454    14846    15208    15546    15838    16075 
   16263    16409    16525    16643    16804    17022    17297    17609 
   17915    18201    18517    18897    19318    19779    20231    20502 
   20616    20681    20626    20504    20310    20012    19807    19604 
   19343    19161    18889    18485    18057    17523    16871    16151 
   15352    14487    13648    12957    12520    12385    12513    12822 
   13193    13516    13782    14023    14262    14565    14979    15454 
   15923    16342    16682    16953    17160    17284    17320    17232 
   17003    16636    16098    15455    14829    14281    13869    13580 
   13321    13050    12762    12460    12173    11947    11795    11671 
   11506    11266    10988    10723    10506    10378    10367    10469 
   10666    10912    11156    11365    11509    11558    11505    11356 
   11100    10730    10262     9757     9295     8933     8683     8524 
    8413     8287     8094     7824     7501     7170     6858     6574 
    6330     6118     5919     5708     5479     5274     5126     5013 
    4917     4824     4705     4559     4419     4298     4179     4068 
    3979     3893     3794     3693     3588     3499     3493     3539 
    3521     3437     3300     3078     2860     2728     2651     2606 
    2557     2517     2541     2526     2404     2284     2212     2166 
    2142     2150     2179     2154     2095     2109     2170     2248 
    2399     2602     2823     3039     3228     3475     3769     3957 
    4014     3978     3839     3656     3528     3545     3776     4209 
    4790     5466     6162     6812     7383     7875     8313     8726 
    9118     9459     9754    10053    10377    10737    11173    11707 
   12301    12900    13443    13863    14165    14407    14581    14656 
   14647    14571    14453    14382    14444    14649    14951    15270 
   15532    15706    15794    15818    15807    15773    15686    15525 
   15283    14928    14453    13949    13485    13022    12552    12122 
   11723    11353    10991    10643    10353    10033     9661     9286 
    8880     8531     8303     8132     8021     7965     7933     7927 
    7919     7886     7830     7734     7601     7467     7350     7267 
    7249     7344     7576     7896     8224     8493     8672     8763 
    8777     8769     8787     8831     8908     9024     9147     9268 
    9366     9410     9427     9444     9448     9420     9341     9181 
    8938     8683     8469     8270     8097     7931     7657     7282 
    6907     6536     6202     5971     5822     5747     5792     5973 
    6292     6735     7235     7694     8074     8375     8565     8647 
    8687     8723     8789     8942     9197     9550    10001    10471 
   10867    11183    11429    11618    11787    11958    12168    12455 
   12815    13265    13816    14405    14949    15396    15732    15965 
   16137    16268    16340    16329    16225    16034    15755    15329 
   14712    13931    13010    11961    10823     9633     8419     7182 
    5901     4583     3296     2125     1122      287     -406     -987 
   -1500    -1957    -2327    -2603    -2816    -2961    -3000    -2912 
   -2683    -2304    -1779    -1133     -394      416     1271     2104 
    2824     3403     3874     4259     4587     4912     5241     5559 
    5884     6253     6702     7236     7776     8262     8735     9247 
    9814    10438    11054    11570    11957    12237    12434    12563 
   12629    12644    12643    12654    12689    12791    12974    13174 
   13317    13363    13288    13086    12779    12402    11996    11621 
   11344    11199    11188    11310    11534    11806    12058    12213 
   12239    12163    12023    11852    11684    11563    11538    11628 
   11836    12136    12453    12716    12879    12908    12802    12592 
   12336    12086    11860    11680    11583    11591    11682    11797 
   11879    11869    11742    11550    11343    11139    10980    10869 
   10754    10595    10341     9926     9334     8632     7941     7342 
    6826     6339     5840     5329     4849     4431     4101     3875 
    3757     3763     3905     4150     4429     4696     4964     5294 
    5761     6403     7176     7954     8649     9255     9733    10073 
   10385    10645    10713    10659    10557    10348    10082     9818 
    9609     9499     9395     9351     9395     9428     9497     9547 
    9457     9284     9061     8809     8588     8414     8331     8387 
    8538     8731     8949     9192     9476     9769    10042    10292 
   10470    10545    10515    10369    10141     9909     9724     9621 
    9600     9621     9671     9771     9915    10090    10296    10526 
   10755    10951    11119    11287    11464    11659    11870    12067 
   12212    12290    12296    12236    12143    12060    12023    12025 
   12037    12053    12064    12060    12062    12053    11995    11862 
   11625    11334    11057    10749    10417    10133     9879     9672 
    9562     9549     9681     9946    10285    10706    11135    11527 
   11903    12204    12399    12508    12514    12423    12266    12052 
   11783    11441    11020    10578    10183     9885     9735     9727 
