Origin Time       2011/03/11 14:46:00
Lat.              38.103
Long.             142.860
Depth. (km)       24
Mag.              9.0
Station Code      HKD014
Station Lat.      45.2519
Station Long.     141.8541
Station Height(m) 23
Record Time       2011/03/11 14:50:47
Sampling Freq(Hz) 100Hz
Duration Time(s)  142
Dir.              U-D
Scale Factor      3920(gal)/6182761
Max. Acc. (gal)   1.385
Last Correction   2011/03/11 14:50:32
Memo.             
[...]
  -36797   -36826   -36862   -36897   -36928   -36959   -36990   -37018 
  -37043   -37066   -37086   -37101   -37110   -37115   -37116   -37116 
  -37117   -37116   -37114   -37116   -37115   -37112   -37116   -37121 
  -37118   -37110   -37106   -37103   -37095   -37085   -37079   -37077 
  -37071   -37058   -37042   -37031   -37019   -37002   -36982   -36966 
  -36956   -36945   -36924   -36899   -36881   -36864   -36841   -36809 
  -36774   -36741   -36701   -36652   -36604   -36561   -36522   -36480 
  -36437   -36398   -36365   -36338   -36314   -36291   -36272   -36252 
  -36229   -36207   -36182   -36156   -36133   -36114   -36096   -36079 
  -36066   -36055   -36040   -36021   -36006   -36001   -36003   -35999 
  -35992   -35990   -35992   -35990   -35978   -35966   -35966   -35974 
  -35977   -35976   -35982   -35992   -35997   -35996   -36004   -36021 
  -36039   -36051   -36063   -36084   -36104   -36113   -36121   -36139 
  -36158   -36168   -36172   -36174   -36179   -36192   -36205   -36217 
  -36231   -36245   -36258   -36273   -36286   -36296   -36309   -36331 
  -36355   -36369   -36373   -36383   -36398   -36414   -36427   -36443 
  -36463   -36478   -36485   -36492   -36504   -36517   -36522   -36521 
  -36526   -36534   -36532   -36519   -36509   -36509   -36507   -36500 
  -36492   -36488   -36483   -36471   -36453   -36439   -36431   -36420 
  -36404   -36386   -36369   -36350   -36332   -36314   -36293   -36273 
  -36251   -36223   -36192   -36161   -36130   -36104   -36080   -36050 
  -36014   -35979   -35946   -35905   -35856   -35814   -35787   -35763 
  -35732   -35697   -35663   -35627   -35588   -35551   -35520   -35495 
  -35467   -35434   -35404   -35382   -35362   -35340   -35316   -35301 
  -35299   -35300   -35300   -35311   -35339   -35370   -35398   -35435 
  -35485   -35540   -35595   -35652   -35707   -35766   -35835   -35909 
  -35984   -36062   -36140   -36213   -36281   -36349   -36420   -36495 
  -36578   -36665   -36748   -36827   -36909   -36991   -37068   -37147 
  -37234   -37321   -37401   -37471   -37535   -37597   -37660   -37718 
  -37773   -37827   -37880   -37926   -37961   -37991   -38023   -38058 
  -38086   -38110   -38136   -38159   -38168   -38170   -38178   -38188 
  -38194   -38192   -38189   -38191   -38192   -38184   -38169   -38153 
  -38138   -38123   -38110   -38099   -38091   -38082   -38070   -38056 
  -38046   -38039   -38037   -38038   -38038   -38038   -38033   -38026 
  -38021   -38018   -38013   -38010   -38009   -37998   -37976   -37953 
  -37937   -37922   -37899   -37877   -37864   -37849   -37826   -37797 
  -37769   -37748   -37726   -37695   -37660   -37628   -37591   -37544 
  -37498   -37461   -37427   -37384   -37335   -37290   -37244   -37191 
  -37133   -37079   -37029   -36975   -36914   -36853   -36794   -36735 
  -36673   -36608   -36546   -36491   -36439   -36380   -36317   -36254 
  -36186   -36118   -36052   -35986   -35915   -35845   -35782   -35719 
  -35645   -35569   -35504   -35440   -35374   -35309   -35246   -35188 
  -35129   -35065   -35007   -34956   -34900   -34838   -34779   -34732 
  -34691   -34647   -34599   -34555   -34522   -34488   -34449   -34418 
  -34401   -34389   -34374   -34359   -34355   -34354   -34347   -34339 
  -34335   -34338   -34341   -34345   -34351   -34361   -34369   -34381 
  -34402   -34430   -34464   -34500   -34533   -34563   -34589   -34611 
  -34641   -34680   -34715   -34745   -34782   -34827   -34866   -34895 
  -34924   -34962   -35003   -35039   -35075   -35118   -35165   -35203 
  -35233   -35265   -35304   -35343   -35378   -35408   -35441   -35478 
  -35509   -35532   -35557   -35586   -35613   -35642   -35672   -35698 
  -35724   -35747   -35762   -35774   -35783   -35790   -35794   -35796 
  -35801   -35805   -35801   -35796   -35792   -35787   -35785   -35785 
  -35785   -35787   -35793   -35798   -35799   -35795   -35787   -35777 
  -35769   -35762   -35751   -35742   -35741   -35741   -35736   -35727 
  -35722   -35720   -35710   -35694   -35681   -35675   -35667   -35654 
  -35645   -35641   -35635   -35624   -35609   -35597   -35590   -35577 
  -35553   -35527   -35504   -35475   -35436   -35397   -35362   -35327 
  -35290   -35254   -35226   -35203   -35181   -35159   -35142   -35128 
  -35109   -35089   -35071   -35053   -35038   -35025   -35017   -35010 
  -34997   -34981   -34972   -34962   -34947   -34934   -34930   -34937 
  -34946   -34956   -34967   -34981   -34995   -35002   -35006   -35020 
  -35037   -35043   -35049   -35064   -35081   -35087   -35084   -35084 
  -35091   -35094   -35088   -35082   -35081   -35083   -35083   -35083 
  -35088   -35100   -35113   -35120   -35124   -35126   -35125   -35119 
  -35115   -35112   -35107   -35102   -35095   -35086   -35079   -35075 
  -35076   -35083   -35091   -35093   -35095   -35101   -35106   -35109 
  -35116   -35132   -35148   -35158   -35166   -35179   -35197   -35209 
  -35214   -35232   -35262   -35291   -35316   -35342   -35373   -35406 
  -35434   -35461   -35496   -35539   -35574   -35598   -35617   -35640 
  -35664   -35681   -35700   -35730   -35756   -35775   -35799   -35824 
  -35847   -35868   -35886   -35902   -35915   -35925   -35936   -35952 
  -35968   -35985   -36003   -36022   -36034   -36042   -36049   -36057 
  -36059   -36052   -36047   -36052   -36061   -36068   -36074   -36081 
  -36088   -36093   -36094   -36096   -36110   -36133   -36148   -36157 
  -36165   -36175   -36188   -36204   -36225   -36260   -36300   -36333 
  -36360   -36395   -36436   -36476   -36518   -36563   -36605   -36643 
  -36678   -36714   -36754   -36797   -36835   -36865   -36889   -36905 
  -36914   -36919   -36925   -36931   -36938   -36948   -36958   -36968 
  -36973   -36976   -36979   -36982   -36984   -36990   -37000   -37014 
  -37026   -37035   -37042   -37054   -37068   -37082   -37095   -37110 
  -37124   -37127   -37126   -37138   -37160   -37179   -37193   -37205 
  -37215   -37217   -37208   -37200   -37201   -37201   -37194   -37187 
  -37184   -37181   -37171   -37154   -37142   -37134   -37116   -37090 
  -37072   -37059   -37049   -37042   -37041   -37041   -37038   -37030 
  -37016   -36994   -36965   -36936   -36910   -36891   -36877   -36861 
  -36838   -36808   -36767   -36719   -36675   -36647   -36630   -36604 
  -36568   -36531   -36494   -36453   -36407   -36368   -36343   -36317 
  -36277   -36230   -36190   -36158   -36130   -36106   -36086   -36067 
  -36043   -36017   -35995   -35983   -35974   -35959   -35935   -35908 
  -35883   -35859   -35833   -35814   -35797   -35779   -35762   -35748 
  -35735   -35723   -35710   -35700   -35694   -35690   -35694   -35708 
  -35725   -35735   -35736   -35734   -35736   -35739   -35750   -35776 
  -35806   -35825   -35834   -35843   -35858   -35880   -35904   -35928 
  -35959   -35994   -36021   -36044   -36076   -36117   -36155   -36184 
  -36208   -36231   -36251   -36268   -36291   -36327   -36367   -36397 
  -36417   -36440   -36467   -36494   -36519   -36551   -36591   -36632 
  -36672   -36707   -36735   -36756   -36775   -36791   -36809   -36831 
  -36851   -36869   -36887   -36888   -36870   -36851   -36851   -36870 
  -36882   -36871   -36863   -36860   -36842   -36818   -36807   -36814 
  -36821   -36814   -36801   -36787   -36766   -36736   -36708   -36688 
  -36671   -36649   -36621   -36590   -36564   -36543   -36524   -36504 
  -36479   -36453   -36429   -36403   -36379   -36361   -36350   -36339 
  -36322   -36305   -36287   -36268   -36244   -36218   -36198   -36189 
  -36190   -36191   -36185   -36173   -36156   -36134   -36115   -36106 
  -36106   -36110   -36110   -36104   -36095   -36087   -36084   -36082 
  -36082   -36086   -36091   -36087   -36075   -36066   -36065   -36069 
  -36068   -36059   -36052   -36047   -36035   -36021   -36017   -36023 
  -36027   -36019   -36009   -36005   -36002   -35996   -35992   -35996 
  -36005   -36007   -36002   -35999   -35998   -36000   -36001   -36005 
  -36013   -36019   -36021   -36024   -36022   -36009   -35991   -35978 
  -35968   -35958   -35947   -35940   -35935   -35924   -35907   -35892 
  -35886   -35886   -35881   -35876   -35875   -35871   -35858   -35840 
  -35830   -35827   -35819   -35805   -35799   -35803   -35805   -35798 
  -35795   -35796   -35792   -35780   -35765   -35750   -35741   -35733 
  -35722   -35713   -35707   -35695   -35673   -35650   -35634   -35620 
  -35606   -35596   -35593   -35589   -35581   -35572   -35566   -35557 
  -35542   -35530   -35528   -35528   -35523   -35523   -35530   -35532 
  -35528   -35527   -35531   -35536   -35535   -35531   -35533   -35547 
  -35561   -35569   -35581   -35603   -35628   -35648   -35669   -35696 
  -35725   -35751   -35771   -35791   -35812   -35825   -35831   -35837 
  -35850   -35874   -35899   -35916   -35929   -35939   -35942   -35948 
  -35966   -35990   -36015   -36043   -36073   -36102   -36128   -36154 
  -36182   -36212   -36241   -36270   -36297   -36320   -36335   -36345 
  -36355   -36370   -36383   -36393   -36407   -36430   -36450   -36457 
  -36461   -36472   -36488   -36500   -36502   -36507   -36523   -36533 
  -36533   -36535   -36549   -36567   -36573   -36573   -36576   -36580 
  -36582   -36585   -36593   -36611   -36635   -36651   -36663   -36679 
  -36701   -36724   -36750   -36778   -36808   -36833   -36852   -36870 
  -36889   -36912   -36938   -36963   -36986   -37011   -37038   -37067 
  -37096   -37123   -37152   -37189   -37225   -37249   -37263   -37283 
  -37314   -37345   -37371   -37395   -37424   -37450   -37464   -37479 
  -37505   -37535   -37555   -37564   -37577   -37592   -37597   -37597 
  -37602   -37616   -37633   -37646   -37657   -37670   -37682   -37689 
  -37693   -37699   -37712   -37728   -37740   -37747   -37752   -37751 
  -37745   -37738   -37730   -37723   -37714   -37704   -37692   -37676 
  -37656   -37640   -37633   -37623   -37609   -37597   -37589   -37577 
  -37558   -37542   -37533   -37526   -37513   -37497   -37484   -37475 
  -37462   -37446   -37436   -37433   -37422   -37397   -37368   -37340 
  -37315   -37290   -37268   -37251   -37234   -37209   -37171   -37129 
  -37094   -37062   -37028   -36996   -36970   -36943   -36911   -36872 
  -36830   -36790   -36757   -36726   -36699   -36677   -36654   -36631 
  -36613   -36595   -36576   -36559   -36551   -36545   -36533   -36514 
  -36499   -36485   -36463   -36439   -36418   -36394   -36359   -36318 
  -36285   -36260   -36231   -36194   -36161   -36139   -36118   -36084 
  -36041   -36001   -35967   -35936   -35913   -35896   -35883   -35867 
  -35840   -35804   -35768   -35736   -35708   -35687   -35666   -35644 
  -35624   -35600   -35568   -35544   -35531   -35520   -35510   -35503 
  -35497   -35489   -35480   -35467   -35455   -35452   -35456   -35458 
  -35455   -35451   -35448   -35452   -35456   -35457   -35458   -35468 
  -35483   -35495   -35507   -35530   -35560   -35588   -35611   -35631 
  -35651   -35671   -35687   -35705   -35737   -35773   -35801   -35819 
  -35828   -35833   -35836   -35839   -35851   -35875   -35900   -35915 
  -35922   -35926   -35936   -35948   -35961   -35980   -35999   -36010 
  -36015   -36021   -36028   -36035   -36047   -36061   -36071   -36077 
  -36081   -36087   -36101   -36118   -36133   -36151   -36173   -36187 
  -36187   -36183   -36190   -36207   -36224   -36243   -36272   -36302 
  -36317   -36323   -36336   -36359   -36378   -36389   -36413   -36455 
  -36494   -36522   -36541   -36556   -36574   -36593   -36606   -36623 
  -36647   -36663   -36671   -36679   -36685   -36684   -36685   -36689 
  -36697   -36710   -36717   -36718   -36720   -36726   -36735   -36744 
  -36750   -36753   -36754   -36756   -36758   -36753   -36739   -36722 
  -36713   -36706   -36686   -36651   -36618   -36591   -36559   -36525 
  -36491   -36453   -36406   -36351   -36297   -36254   -36216   -36170 
  -36117   -36069   -36020   -35964   -35909   -35865   -35835   -35811 
  -35785   -35755   -35725   -35700   -35678   -35649   -35622   -35604 
  -35587   -35571   -35558   -35543   -35524   -35504   -35493   -35492 
  -35488   -35480   -35471   -35455   -35434   -35419   -35415   -35421 
  -35422   -35414   -35401   -35386   -35373   -35368   -35375   -35391 
  -35402   -35401   -35393   -35390   -35392   -35391   -35380   -35370 
  -35372   -35376   -35375   -35370   -35363   -35352   -35336   -35315 
  -35296   -35286   -35279   -35273   -35274   -35274   -35260   -35237 
  -35219   -35211   -35207   -35199   -35185   -35165   -35145   -35132 
  -35126   -35121   -35116   -35116   -35122   -35127   -35121   -35115 
  -35123   -35148   -35173   -35184   -35187   -35194   -35209   -35229 
  -35247   -35266   -35287   -35298   -35301   -35313   -35345   -35387 
  -35427   -35471   -35517   -35558   -35592   -35626   -35668   -35721 
  -35781   -35837   -35884   -35927   -35968   -36003   -36033   -36065 
  -36102   -36142   -36179   -36213   -36243   -36264   -36285   -36315 
  -36354   -36400   -36445   -36485   -36520   -36551   -36589   -36645 
  -36705   -36754   -36791   -36817   -36846   -36885   -36933   -36986 
  -37041   -37087   -37118   -37140   -37169   -37208   -37249   -37289 
  -37333   -37384   -37433   -37471   -37503   -37542   -37591   -37632 
  -37664   -37702   -37747   -37792   -37832   -37874   -37918   -37953 
  -37975   -38000   -38043   -38091   -38131   -38163   -38193   -38224 
  -38255   -38281   -38314   -38357   -38394   -38411   -38415   -38418 
  -38423   -38433   -38450   -38464   -38466   -38454   -38440   -38438 
  -38444   -38444   -38437   -38425   -38403   -38372   -38342   -38323 
  -38305   -38275   -38238   -38200   -38159   -38111   -38061   -38019 
  -37993   -37967   -37930   -37887   -37847   -37811   -37776   -37739 
  -37712   -37693   -37669   -37637   -37609   -37587   -37564   -37534 
  -37509   -37496   -37479   -37453   -37426   -37399   -37371   -37349 
  -37334   -37315   -37289   -37262   -37236   -37211   -37192   -37177 
  -37160   -37138   -37106   -37063   -37017   -36980   -36948   -36914 
  -36880   -36859   -36842   -36812   -36769   -36727   -36695   -36672 
  -36649   -36622   -36602   -36588   -36569   -36540   -36511   -36487 
  -36464   -36436   -36402   -36368   -36340   -36310   -36275   -36240 
  -36208   -36172   -36132   -36089   -36048   -36010   -35974   -35941 
  -35908   -35873   -35842   -35811   -35775   -35741   -35714   -35689 
  -35664   -35640   -35613   -35584   -35555   -35526   -35496   -35469 
  -35450   -35435   -35420   -35402   -35383   -35363   -35340   -35312 
  -35288   -35278   -35268   -35248   -35230   -35220   -35209   -35191 
  -35178   -35174   -35173   -35170   -35165   -35162   -35168   -35174 
  -35177   -35186   -35205   -35223   -35232   -35238   -35248   -35261 
  -35272   -35277   -35281   -35291   -35300   -35304   -35310   -35320 
  -35329   -35330   -35325   -35317   -35307   -35298   -35296   -35306 
  -35315   -35316   -35319   -35330   -35339   -35340   -35339   -35346 
  -35360   -35373   -35388   -35412   -35437   -35452   -35465   -35484 
  -35513   -35545   -35574   -35605   -35646   -35690   -35723   -35746 
  -35770   -35801   -35835   -35863   -35892   -35926   -35958   -35985 
  -36014   -36046   -36080   -36117   -36150   -36178   -36205   -36235 
  -36264   -36294   -36325   -36354   -36380   -36402   -36421   -36442 
  -36473   -36513   -36554   -36585   -36610   -36637   -36662   -36682 
  -36703   -36735   -36778   -36811   -36828   -36844   -36867   -36886 
  -36900   -36917   -36943   -36971   -36992   -37003   -37021   -37051 
  -37075   -37087   -37106   -37130   -37146   -37150   -37156   -37166 
  -37172   -37168   -37162   -37159   -37156   -37149   -37139   -37130 
  -37126   -37121   -37107   -37086   -37063   -37038   -37015   -37003 
  -36998   -36990   -36979   -36975   -36971   -36960   -36949   -36943 
  -36939   -36933   -36925   -36923   -36928   -36933   -36934   -36930 
  -36928   -36931   -36928   -36923   -36922   -36926   -36930   -36931 
  -36929   -36929   -36927   -36921   -36919   -36923   -36928   -36929 
  -36923   -36920   -36920   -36918   -36915   -36916   -36918   -36920 
  -36922   -36924   -36928   -36934   -36939   -36941   -36946   -36954 
  -36963   -36976   -36989   -37000   -37009   -37013   -37016   -37023 
  -37031   -37042   -37058   -37071   -37077   -37080   -37086   -37095 
  -37102   -37105   -37108   -37114   -37126   -37135   -37140   -37149 
  -37161   -37169   -37172   -37178   -37191   -37203   -37212   -37224 
  -37238   -37249   -37249   -37241   -37240   -37254   -37266   -37266 
  -37266   -37270   -37265   -37252   -37241   -37231   -37222   -37218 
  -37215   -37209   -37197   -37182   -37170   -37161   -37152   -37144 
  -37132   -37115   -37092   -37063   -37030   -37002   -36973   -36943 
  -36914   -36883   -36842   -36791   -36737   -36689   -36648   -36608 
  -36565   -36520   -36476   -36428   -36373   -36323   -36292   -36266 
  -36229   -36187   -36147   -36107   -36070   -36032   -35995   -35971 
  -35951   -35924   -35891   -35866   -35842   -35813   -35784   -35761 
  -35749   -35740   -35722   -35704   -35693   -35682   -35667   -35653 
  -35645   -35640   -35632   -35620   -35606   -35591   -35581   -35584 
  -35593   -35598   -35600   -35603   -35609   -35618   -35630   -35647 
  -35675   -35706   -35731   -35746   -35759   -35777   -35802   -35833 
  -35873   -35912   -35939   -35954   -35963   -35978   -36005   -36030 
  -36051   -36079   -36109   -36125   -36129   -36138   -36160   -36190 
  -36217   -36238   -36258   -36278   -36295   -36318   -36352   -36386 
  -36419   -36446   -36470   -36495   -36517   -36536   -36559   -36590 
  -36620   -36649   -36675   -36696   -36705   -36701   -36697   -36705 
  -36718   -36732   -36750   -36764   -36761   -36744   -36727   -36723 
  -36728   -36726   -36718   -36706   -36681   -36641   -36597   -36562 
  -36537   -36510   -36469   -36422   -36378   -36333   -36288   -36251 
  -36223   -36201   -36178   -36149   -36120   -36101   -36085   -36064 
  -36041   -36023   -36006   -35993   -35981   -35965   -35945   -35927 
  -35910   -35897   -35889   -35884   -35876   -35863   -35844   -35825 
  -35806   -35792   -35786   -35779   -35768   -35755   -35737   -35713 
  -35698   -35702   -35714   -35719   -35714   -35705   -35698   -35693 
  -35687   -35689   -35708   -35731   -35741   -35735   -35724   -35720 
  -35718   -35715   -35719   -35728   -35736   -35735   -35727   -35724 
  -35724   -35722   -35723   -35734   -35747   -35755   -35757   -35758 
  -35768   -35786   -35800   -35809   -35819   -35829   -35830   -35828 
  -35831   -35838   -35844   -35847   -35846   -35835   -35812   -35792 
  -35779   -35762   -35741   -35716   -35691   -35665   -35633   -35594 
  -35561   -35534   -35504   -35466   -35426   -35395   -35367   -35336 
  -35307   -35287   -35267   -35241   -35212   -35189   -35181   -35173 
  -35157   -35141   -35134   -35126   -35111   -35095   -35082   -35068 
  -35050   -35036   -35032   -35031   -35026   -35023   -35022   -35017 
  -35011   -35007   -35010   -35020   -35033   -35045   -35057   -35067 
  -35073   -35081   -35099   -35126   -35152   -35171   -35187   -35206 
  -35225   -35247   -35278   -35323   -35370   -35407   -35443   -35485 
  -35525   -35560   -35592   -35626   -35668   -35705   -35730   -35755 
