Origin Time       2011/03/11 14:46:00
Lat.              38.103
Long.             142.860
Depth. (km)       24
Mag.              9.0
Station Code      HKD071
Station Lat.      43.2326
Station Long.     145.2604
Station Height(m) 38
Record Time       2011/03/11 14:48:42
Sampling Freq(Hz) 100Hz
Duration Time(s)  225
Dir.              N-S
Scale Factor      3920(gal)/6182761
Max. Acc. (gal)   18.819
Last Correction   2011/03/11 14:48:27
Memo.             
[...]
   -5550    -5364    -4300    -2920    -2489    -3699    -6223    -9434 
  -12052   -12685   -11341    -9210    -7583    -6960    -6584    -4953 
   -1142     3929     8425    11723    14071    15283    14888    12719 
    9583     6616     3627      449    -1466    -1235      423     2612 
    4314     4967     5155     4700     2673     -435    -3577    -6289 
   -8046    -8674    -8535    -7689    -6222    -4721    -3638    -2932 
   -2103     -335     2745     6231     8321     7611     3996    -1082 
   -5408    -7551    -7078    -4230     -748      872     -159    -2537 
   -4218    -3884    -1801      908     3529     6100     8376     8999 
    7204     4399     2883     3946     7131    10861    13620    13957 
   10551     3712    -4024    -9702   -12181   -12312   -11463   -10432 
   -9433    -8447    -7095    -4912    -2030     1260     4424     6147 
    5885     4885     4508     4791     4928     4466     3568     2212 
     300    -1071     -535      994     1445      568     -713    -2096 
   -3597    -5020    -6150    -6727    -6300    -4645    -2215      174 
    1776     2167     1794     1934     3540     6572    10037    12127 
   11593     8983     5493     1676    -1939    -4330    -5283    -5615 
   -5509    -4831    -4400    -5037    -6253    -6599    -4978    -1712 
    1505     3192     3480     3199     2377     1048      570     1916 
    4043     5697     6512     6147     4618     2902     2590     4575 
    7606     9464     9116     6624     2317    -3224    -8835   -13095 
  -15362   -15909   -15341   -14416   -13427   -12206   -11184   -10190 
   -7337    -2041     3710     8161    11055    13403    16379    19444 
   21175    21073    19266    15973    12011     8788     6981     6112 
    5489     4376     2264     -296    -2496    -4281    -5737    -7031 
   -8719   -11205   -14926   -20097   -25205   -27897   -27259   -23520 
  -17227    -9875    -3469      808     2864     3920     5997     9795 
   14156    17440    18863    19078    18771    17396    14421    10658 
    7579     5532     3748     2283     1815     1699      555    -1923 
   -5429    -9803   -14276   -17560   -18854   -17871   -14857   -11111 
   -8153    -6197    -4422    -2102      943     4301     7672    10770 
   12358    11600     9218     5995     2684      811     1218     3090 
    4864     5353     4688     3623     2295     1202     1427     2972 
    4789     5857     5284     2597    -1795    -6691   -10423   -11871 
  -11511   -10503    -9637   -10012   -12214   -14888   -16405   -16166 
  -13936   -10006    -4758     1846     8635    13070    14092    13198 
   12062    11041    10555    11481    13644    15950    17529    17569 
   15540    12308     9497     7319     4656     1279    -2174    -5792 
   -9936   -14437   -18828   -22211   -23728   -23308   -21131   -17302 
  -12635    -8709    -6350    -4679    -2283     1554     6756    12186 
   16047    17401    16606    14736    12855    11295    10418    10822 
   11405     9933     6065     1587    -1446    -1846      -84     1892 
    2228      -41    -4313    -8269   -10814   -13224   -16007   -17826 
  -17239   -13544    -7209      -60     6148    10848    13687    14483 
   14192    13565    11954     8671     4359     1139      949     2974 
    4289     3159       91    -3491    -5996    -5909    -3344     -938 
   -1620    -6158   -12919   -19043   -21834   -19874   -14141    -7085 
    -531     4096     6045     6571     7380     8650     9741    10047 
    9244     7653     5791     4079     3218     3249     2933     1944 
    1719     3080     4914     4763     1327    -3797    -8946   -13212 
  -14805   -13092    -9103    -4354     -924      624     1233     1111 
     891     1878     4014     5911     6460     5808     5093     5648 
    7462     8548     7973     7305     7213     6522     4768     2115 
   -1623    -6295   -11478   -16264   -18851   -18244   -15111   -10689 
   -6268    -2308     2005     6763    10585    12865    14589    16499 
   17562    15908    11705     7546     5260     4474     4184     3545 
    2160      460    -1565    -4572    -8571   -13265   -17821   -20244 
  -19040   -14234    -6963      467     5342     6414     4882     3200 
    2934     3913     4781     4263     2337      -32    -1617    -1563 
    -371      476      -61    -2007    -4485    -6582    -7898    -7995 
   -6301    -2799     1341     4720     7175     8823     9460     9511 
    9351     8912     8450     8011     7222     5748     2806    -1972 
   -6764    -8943    -7808    -4514     -688     2104     3054     2718 
    2317     3004     5164     7071     6408     3374     -836    -5575 
   -9001    -9578    -8217    -6655    -5943    -5619    -4515    -3562 
   -3992    -3973    -1917     1009     3695     5770     6778     6558 
    5316     4141     4268     5781     8238    10402    10214     6837 
    1307    -4729   -10185   -14982   -19012   -20921   -19887   -17550 
  -16082   -15351   -13323    -9238    -4067     1954     9197    16802 
   22224    23219    20377    15934    11378     8015     6975     7598 
    8360     9016     9999    10813    10367     8439     5740     2738 
    -392    -3457    -6634   -10422   -14667   -17661   -18014   -17106 
  -16726   -16282   -14601   -11600    -7856    -4369    -1337     2530 
    7596    12856    17480    20115    20319    19638    18659    17085 
   14440     8787     -311    -9884   -16509   -17598   -12619    -4767 
    1746     4351     2146    -3061    -7096    -6889    -2870     1450 
    2587      696    -1901    -4780    -8763   -12851   -14541   -12615 
   -7723     -977     6203    11799    13551    10333     4314       58 
     602     5448    11629    16112    17517    15889    11995     7445 
    4153     2895     2658     1667     -976    -5053    -9717   -13838 
  -16455   -16863   -14922   -11019    -5409      794     5296     6917 
    5889     2885     -280    -1683     -840     2161     6777    11633 
   15191    15999    13309     7821     1100    -4653    -7115    -6153 
   -4443    -4260    -5211    -6299    -7517    -8664    -8902    -7566 
   -5006    -1988     1766     6534    10851    12461    10311     5502 
     609    -2054    -1323     2490     7175     9899     8853     3270 
   -5485   -13198   -16245   -14182    -9332    -5582    -4346    -3599 
   -2560    -1787     -452     2083     4860     6851     8299    10370 
   12921    13610    11379     8487     7287     8007     9537    10290 
    9408     6639     1540    -4533    -8740   -10667   -12012   -13532 
  -15082   -16429   -16935   -15726   -12668    -8749    -4758     -659 
    3249     6570     9813    13476    16334    15907    11877     6906 
    3223     1513     1920     3891     6213     7544     7243     6126 
    5618     5991     6170     5125     2210    -2815    -8638   -12989 
  -14743   -14139   -12067    -9620    -7258    -4977    -3149    -2107 
   -1571     -725     1377     4822     8590    11336    12067    10652 
    8001     6241     7773    12324    16947    19068    16852     9856 
     916    -6142    -9446    -9003    -6248    -3292    -2162    -3740 
   -6824    -9984   -12860   -14752   -14678   -13028   -10866    -7949 
   -3718     1235     6177    10111    11637    10686     8268     5521 
    3741     3643     5519     9317    13512    15635    14143    10020 
    6108     3902     2904     2235      218    -4927   -12598   -19987 
  -24106   -23398   -18788   -12923    -8157    -5663    -5296    -5708 
   -5205    -2874      153     1520      320    -2367    -4327    -3517 
     273     5579    10319    12630    11826     8960     6466     6411 
    8614    11091    12159    11467     9578     7416     5761     4765 
    3891     2181    -1175    -5895   -10421   -13372   -14601   -14801 
  -15100   -15801   -15499   -13424   -10949    -9444    -8496    -6599 
   -2731     3085    10231    17601    23565    26096    24021    19128 
   14541    10757     6212      157    -6587   -11636   -13097   -12207 
  -10674    -7742    -3428     -169      835      849     1432     2732 
    3258     1679    -1907    -6102    -8667    -8465    -5931    -1416 
    4588    10544    14239    14295    11992    10037     9114     7670 
    4998     2423      898     -176    -1520    -3390    -5279    -5568 
   -2870     2209     7037     8875     6651      711    -7799   -16260 
  -21225   -21134   -17080   -11362    -6022    -1342     3586     8141 
   10613    10857     9942     8956     8940     9936    10985    11524 
   11155     9516     7723     7658     9305    10851    10904     9369 
    6808     3090    -2770    -9952   -15045   -16409   -15750   -14433 
  -13005   -12185   -11434   -10447   -10105    -9441    -6491    -1289 
    4696     9236    10743    10165     8557     5085     -436    -5805 
   -7751    -4478     2577     9952    14745    15314    11157     3672 
   -3648    -6819    -4402      778     4213     3733      186    -4656 
   -9689   -14061   -16529   -16056   -12370    -6690    -1728      843 
    1332      880     1705     5780    12255    18140    21175    21181 
   18929    15334    12303    12151    14545    16430    16143    13938 
    9620     3394    -3273    -9047   -13614   -17343   -20328   -22338 
  -23903   -25556   -26229   -24922   -22400   -19359   -15669   -11917 
   -9124    -7456    -6350    -5135    -3295     -238     4662    11354 
   18797    24719    26651    24259    19232    13644     9876     9821 
   12614    15142    14979    11788     6938     1807    -2860    -5750 
   -6159    -5449    -5041    -5272    -6547    -8830   -10856   -11522 
  -10528    -8282    -6123    -5136    -5498    -7092    -8899    -8563 
   -5075     -505     3332     6143     7592     8848    11373    14083 
   15890    16708    16235    15135    12992     7185    -2125   -11377 
  -17467   -18567   -14646    -7805    -1224     1521     -631    -3786 
   -3096     2410    10522    17990    20548    14578     1084   -14137 
  -24798   -27164   -21263   -11438    -3384      232      103    -1793 
   -3413    -2578     2636    11247    19048    22990    22802    18438 
   10672     2882    -1987    -4086    -4937    -5560    -5862    -5243 
   -3794    -1653      835     1658     -545    -3869    -5754    -5369 
   -2756     1076     4052     4223      412    -6132   -11429   -13156 
  -11911    -7934    -2557      615      398    -1308    -2955    -3536 
   -2823    -1704     -106     2733     6283     9234    10695    10966 
   11278    12067    13076    14775    17773    21376    23223    20810 
   14429     7516     2762     -532    -4041    -8307   -13791   -20373 
  -26229   -29118   -28202   -24565   -20033   -16001   -12934   -10023 
   -6559    -2633     2473     9164    15296    17973    16032    10716 
    4935      617    -2181    -3118    -1270     2980     8101    12669 
   15282    15176    12865     9217     5362     2720     1951     2447 
    2550      581    -3969   -10192   -16210   -19969   -20023   -16007 
   -8770     -862     3889     3312    -1639    -8425   -13713   -14393 
   -9549     -983     7339    11794    11737     8373     3668      345 
    -154     1440     3509     4602     4785     5333     6524     7572 
    7532     5649     2751     1132     2074     5052     8729    11521 
   12295    10867     7446     2318    -3139    -6604    -7667    -8089 
   -8670    -9133    -9705   -10907   -12931   -14615   -13752    -9882 
   -4737      221     4612     8804    12963    15383    14604    12460 
   11230    11323    12657    14125    13971    10892     3824    -5652 
  -13063   -15434   -13488   -10609    -9634   -10578   -12663   -15112 
  -15519   -11809    -5013     1786     5828     6729     6724     7516 
    8367     8469     8663     9364     9438     8286     6594     5028 
    3523     1939      710      -45     -432       97     1408     2025 
     894    -1474    -3865    -5960    -8044    -9617   -10451   -11626 
  -13857   -16678   -19245   -20433   -19323   -16134   -11639    -6667 
   -2407      589     2887     4932     6780     8492    10049    11366 
   12486    14038    16386    18319    18753    17908    15980    13631 
   12450    13069    14226    13592     9422     2241    -5825   -12836 
  -17350   -18952   -18573   -16556   -12588    -7901    -4136    -1725 
   -1222    -3086    -5997    -7476    -6214    -2835     1493     5609 
    7852     6876     3282      112      466     4038     7978    10554 
   11249     9328     4674    -1446    -6478    -8239    -7406    -5738 
   -3712    -1981    -1066     -509     -258       95     1610     4259 
    7415    10363    11810    11053     8725     5273      552    -4106 
   -5802    -3178     1882     6032     7096     4888      289    -5281 
   -9530   -10522    -8476    -5244    -2937    -2809    -4839    -8074 
  -10793   -11905   -11711   -10318    -7518    -3856     -898     -185 
   -1065    -1397     -418     1313     3527     6066     7942     8086 
    6920     5930     5851     6334     7198     8915    11463    13222 
   12184     8610     5062     3959     5765     8430     8621     4603 
   -2705   -11220   -18987   -24772   -27386   -25799   -21129   -15184 
   -8065     -145     6409     9528     9372     8030     7348     7603 
    7585     5645      884    -6401   -13910   -17450   -14398    -6371 
    2693     9438    11985     9774     4017    -1634    -3652    -2432 
   -1027     -843     -615     1119     4293     8216    12749    17433 
   20626    21257    19884    16862    11259     2106    -9790   -21357 
  -28678   -29334   -24069   -16139    -9273    -5923    -5822    -6627 
   -6573    -5146    -2114     1851     4925     5718     4469     3092 
    3168     4491     6934    10433    13368    14236    13177    10622 
    6455     1212    -3501    -6681    -8815   -10852   -13142   -15274 
  -16339   -15439   -12624    -8752    -4115     1374     7452    13592 
   18759    22287    24446    24791    22601    19172    16899    16624 
   17427    17837    16082    10738     2172    -7868   -17261   -23255 
  -24178   -21509   -17914   -14591   -11631    -9452    -8523    -8246 
   -7850    -7565    -7452    -7161    -7476    -8989   -10100    -9140 
   -6019    -1557     2758     6205     8928     9923     8502     6251 
    5222     6136     8084     8874     7460     5377     3929     3260 
    4380     7649    11315    13194    11752     7295     1934    -2768 
   -6499    -9409   -11251   -11096    -9359    -8686   -10492   -12357 
  -11233    -7759    -5066    -4653    -4982    -3582     -132     3676 
    7083    10577    14046    16380    16220    13320     8565     2607 
   -3451    -7812    -9326    -7813    -4660    -2292    -1920    -3685 
   -7447   -11622   -13837   -13336   -11215    -8593    -5414    -1776 
    1187     3475     7020    12908    19412    23827    25229    24474 
   22791    20467    16107     8963      499    -7290   -12111   -12256 
   -8557    -2754     3532     7265     5988     1110    -4153    -8341 
  -11585   -13971   -14993   -14143   -11779    -8817    -5481    -1869 
     927     2414     3523     4899     5882     5107     2513     -179 
   -1450     -595     2500     6903    11146    14291    15638    14547 
   11523     8016     5212     3779     4022     6022     8827    10140 
    8206     3192    -3205    -9208   -14420   -18850   -21362   -21138 
  -19199   -16973   -14778   -12270    -8843    -3964     1983     8172 
   13534    16075    14527     9840     3610    -2674    -6850    -7389 
   -4794     -432     4430     8994    13270    16937    19058    19024 
   16652    13151    10479     7883     2810    -4669   -11441   -14491 
  -13402    -9642    -4508      677     4552     6898     7994     7979 
    6812     3609    -1832    -7239    -9754    -8268    -3772     1310 
    4913     6589     6564     4423      234    -3979    -6737    -8589 
   -9460    -8857    -7076    -4342    -2260    -2951    -5869    -9170 
  -11027    -9306    -3598     3376     8019     8998     7184     4450 
    2598     1960     2095     2067      361    -2784    -4975    -3951 
     372     5553     9472    12147    13797    13583    10575     5453 
     138    -4621    -8963   -12060   -12303    -9143    -4518    -1394 
    -991    -2486    -4651    -6324    -5817    -2491     1457     3595 
    4348     5226     6478     7730     8912    10538    12929    15020 
   15174    12664     8091     3365      571       99      819     1572 
    1334     -822    -5000    -9949   -13223   -13180   -11238   -10265 
  -11013   -12216   -13139   -13324   -11457    -6914     -795     5021 
    8659     9423     8428     6989     5399     3845     2971     3062 
    3962     5562     7071     7662     8144     9067     9472     9187 
    8684     7916     6653     3765    -1565    -7700   -12452   -15028 
  -15446   -14190   -11935    -9582    -8409    -8603    -8850    -8079 
   -5955    -2907     -421      812     1571     2245     3091     5265 
    9471    14778    19215    21109    20467    18589    16327    13821 
   10847     6975     2423    -1707    -4722    -7206    -9629   -11210 
  -11135    -9682    -8130    -7836    -8887   -10026   -10071    -9109 
   -7898    -6266    -3689    -1107      138      272      232      645 
    1821     3499     5614     8225    10453    11609    11965    11331 
    8903     4844      443    -3178    -5145    -5054    -4010    -3676 
   -4922    -7631   -10618   -12441   -12037    -9027    -4844    -1628 
     405     2570     5527     8645    10692    11112    10776    10758 
   11285    12419    14037    15216    14789    12312     8550     5107 
    3254     3105     3581     3238     1569    -1038    -4351    -8126 
  -11190   -12471   -12473   -11995   -11425   -11314   -11369   -11271 
  -11299   -10100    -6583    -2376     1127     4101     6746     8786 
    9743     9862    10297    11966    13770    13267    10199     6329 
    3054     1121      563     1600     4085     5549     4176      988 
   -2947    -6790    -9755   -12614   -15633   -17716   -18657   -17918 
  -14385    -9283    -4972    -2649    -2652    -3244    -1054     4298 
    9838    13971    17073    18827    18630    16855    14565    12966 
   12563    12482    11047     6762     -778    -9815   -17121   -20969 
  -22450   -23138   -22821   -21141   -19158   -17303   -15176   -12966 
  -10373    -6611    -1641     3816     8769    12767    15618    16967 
   16984    16273    15402    14742    14084    12880    11174     9438 
    7162     3685     -131    -3612    -6503    -7566    -7246    -7745 
   -8824    -8760    -7598    -6113    -4782    -4124    -3570    -1952 
     576     3129     4927     5072     3147      356    -1070     -591 
     216       67    -1058    -2190    -2202    -1005     1491     6024 
   11522    15259    16311    15429    12878     8968     4485     -162 
   -4306    -6844    -7825    -8043    -7640    -6736    -5427    -3358 
   -1027      200     -336    -2419    -5337    -7761    -8446    -7014 
   -3820     -114     2271     2682     2328     2748     4395     6360 
    7161     6704     6047     5120     3358      928    -1728    -3599 
   -4168    -4421    -4663    -4253    -3240    -1867     -285     1209 
    2604     4011     5360     5833     4511     2195     -307    -3808 
   -8050   -10745   -10051    -6127    -1390     1205     1104     -671 
   -3399    -5978    -7273    -6828    -5324    -5159    -7391    -9552 
