Origin Time       2011/03/11 14:46:00
Lat.              38.103
Long.             142.860
Depth. (km)       24
Mag.              9.0
Station Code      HKD091
Station Lat.      42.8088
Station Long.     143.6590
Station Height(m) 16
Record Time       2011/03/11 14:48:01
Sampling Freq(Hz) 100Hz
Duration Time(s)  300
Dir.              N-S
Scale Factor      3920(gal)/6182761
Max. Acc. (gal)   44.291
Last Correction   2011/03/11 14:47:46
Memo.             
[...]
   10880     8934     7101     5379     3576     1720      -33    -1670 
   -3134    -4225    -4778    -4666    -3856    -2565    -1160      196 
    1706     3644     5916     8054     9746    11170    12644    14261 
   15864    17043    17472    17432    17607    18385    19557    20727 
   21973    23728    26030    28376    29997    30106    28367    25077 
   20853    16419    12418     9151     6544     4335     2347      770 
      -9      164     1185     2926     5273     7969    10535    12657 
   14605    16736    18911    20812    22313    23506    24672    26138 
   28156    30780    33705    36465    38771    40459    41373    41381 
   40375    38397    35824    33226    31021    29219    27513    25696 
   23757    21595    19083    16384    13963    12323    11718    11978 
   12590    12960    12771    12209    11806    11911    12304    12464 
   12112    11361    10612    10330    10753    11743    12846    13764 
   14834    16564    18879    21255    23222    24501    24945    24490 
   23184    21206    18729    15932    12999     9966     6931     4321 
    2700     2407     3212     4462     5692     6638     7022     6988 
    7176     7904     8631     8540     7465     5726     3536     1178 
   -1016    -3070    -5138    -7053    -8547    -9666   -10595   -11274 
  -11533   -11387   -11001   -10603   -10492   -10938   -11835   -12610 
  -12735   -12040   -10569    -8534    -6063    -2892     1213     6022 
   11197    16546    21659    26078    29921    33338    35786    36740 
   36311    34880    32844    30502    28035    25681    23537    21515 
   19775    18656    18129    17637    16482    14480    12101     9919 
    8323     7548     7489     7889     8693     9957    11790    14307 
   17425    20894    24407    27782    31062    34198    36926    39093 
   40556    41119    40990    40528    39593    37933    35703    33093 
   30001    26327    22095    17076    10848     3491    -4277   -11779 
  -18671   -24553   -29027   -32148   -34311   -35882   -37096   -38154 
  -39190   -40009   -40111   -39066   -36576   -32452   -26839   -20189 
  -13048    -5892     1031     7482    12946    16780    18417    17722 
   15248    11901     8656     6281     4992     4609     4712     4754 
    4592     4504     4582     4481     3774     2466     1005       17 
      84     1306     3309     5800     8780    12345    16394    20637 
   25037    29807    34991    40431    45809    50601    54251    56356 
   56831    56015    54447    52512    50327    47887    45233    42545 
   40092    38013    36197    34419    32502    30370    27928    24990 
   21498    17660    13826    10288     7117     4212     1465    -1122 
   -3381    -5192    -6465    -6814    -5714    -2993      918     5041 
    8393    10548    11641    12216    12985    14329    16066    17783 
   19210    20204    20781    21311    22156    23177    24012    24436 
   24263    23372    21859    19925    17859    16186    15372    15357 
   15686    16091    16778    18129    19959    21326    21517    20765 
   19626    18320    16978    15987    15533    15298    15006    14678 
   14432    14455    14772    15061    14972    14443    13802    13508 
   13466    13129    12387    11631    11237    11400    12121    13259 
   14554    15652    16322    16420    15817    14661    13357    12201 
   11273    10767    11151    12593    14751    17341    20145    22696 
   24554    25616    25907    25214    23289    20411    17189    13929 
   10671     7519     4572     1851     -409    -1746    -2064    -1787 
   -1328     -923     -723     -723     -861    -1041    -1021     -582 
     307     1550     3086     4959     7041     8991    10638    11988 
   12922    13251    12960    12293    11611    11268    11588    12565 
   13597    13961    13505    12643    11764    10884     9928     8946 
    8036     7412     7310     7718     8481     9536    10950    12698 
   14474    15969    17223    18534    20065    21605    22842    23681 
   24193    24656    25487    26737    28115    29545    31084    32533 
   33699    34783    36061    37304    37874    37408    35932    33454 
   29934    25425    19976    13617     6587     -532    -7019   -12350 
  -16352   -19172   -21264   -23159   -25015   -26625   -27878   -28890 
  -29817   -30758   -31627   -32257   -32692   -33046   -33167   -32705 
  -31362   -28992   -25545   -21044   -15701    -9912    -4108     1228 
    5628     8967    11566    13921    16301    18651    20947    23296 
   25526    27135    27726    27309    26278    25213    24469    23869 
   22880    21075    18510    15825    13663    12140    11165    10625 
   10277    10156    10705    12253    14721    17698    20727    23643 
   26629    29912    33316    36358    38891    40988    42492    43293 
   43500    43182    42485    41730    41168    40779    40308    39611 
   38742    37662    36292    34631    32576    30061    27198    24137 
   21135    18600    16794    15722    15285    15325    15571    15582 
   14915    13437    11324     8844     6244     3636      939    -1858 
   -4502    -6626    -7933    -8328    -8052    -7451    -6732    -6103 
   -5696    -5262    -4366    -2878    -1089      538     1592     1924 
    1790     1636     1772     2343     3337     4519     5610     6635 
    7863     9448    11375    13526    15566    17148    18314    19439 
   20883    22831    25170    27455    29313    30845    32284    33483 
   34156    34260    33800    32744    31275    29713    28171    26405 
   24085    21265    18381    15812    13641    11829    10433     9212 
    7413     4613     1223    -2124    -5098    -7446    -8762    -8795 
   -7583    -5253    -1975     1951     5957     9471    12217    14025 
   15033    15808    16685    17610    18497    19218    19590    19398 
   18359    16449    14045    11726    10294    10403    11995    14501 
   17265    19703    21400    22126    21838    20731    19136    17322 
   15470    13892    13056    13201    14137    15548    17242    19088 
   21062    23328    25919    28558    30826    32434    33583    34668 
   35500    35444    34152    31894    29216    26284    22931    19185 
   15235    11392     8303     6537     5929     5952     6494     7574 
    8790     9744    10619    11812    13233    14342    14581    13627 
   11588     9024     6560     4479     2732     1288      250     -304 
    -425     -233      136      531      787      672      -48    -1270 
   -2422    -2858    -2339    -1094      651     3002     5951     9079 
   12055    14866    17438    19492    20765    21314    21530    21759 
   22073    22359    22337    21733    20770    20100    20102    20605 
   21097    21057    20285    18762    16505    13870    11387     9289 
    7598     6397     5927     6379     7598     9201    10767    11793 
   11948    11354    10282     8812     7024     5053     2718     -281 
   -3814    -7478   -11117   -14764   -18218   -21087   -23182   -24418 
  -24591   -23692   -22051   -19900   -17234   -14155   -10923    -7729 
   -4629    -1587     1498     4536     7092     8872    10094    11108 
   12134    13450    15363    18057    21554    25484    29108    31996 
   34435    36879    39278    41231    42525    43210    43376    43155 
   42761    42257    41411    40034    38280    36325    34125    31809 
   29682    27697    25575    23264    20937    18812    16886    14867 
   12587    10123     7488     4768     2313      384    -1040    -1977 
   -2213    -1542     -262      958     1552     1051     -777    -3554 
   -6587    -9483   -12114   -14155   -15161   -14959   -13675   -11612 
   -9146    -6548    -4003    -1780     -114     1032     1820     2183 
    2046     1683     1351     1000      684      694     1143     1802 
    2481     3398     4944     7228    10071    13258    16686    20319 
   24015    27491    30525    33013    34962    36628    38466    40743 
   43278    45692    47790    49543    50952    52105    53095    53739 
   53725    53077    52089    50831    49069    46579    43285    39107 
   33980    28180    22211    16419    11171     7070     4558     3453 
    3141     3212     3583     4177     4980     6065     7263     8330 
    9250     9942    10190     9984     9474     8772     7902     6790 
    5405     3862     2357     1122      262     -409    -1119    -1897 
   -2648    -3240    -3655    -4017    -4365    -4669    -4850    -4598 
   -3639    -2023       74     2467     5073     7988    11219    14674 
   18307    21976    25453    28509    30901    32605    33829    34704 
   35238    35466    35529    35543    35421    35118    34855    34875 
   35211    35762    36477    37323    38099    38511    38330    37450 
   36019    34314    32570    31179    30537    30758    31807    33471 
   35286    36827    37851    38417    38881    39421    39763    39482 
   38336    36300    33386    29599    25135    20374    15623    11026 
    6596     2278    -1924    -6004   -10151   -14596   -19211   -23465 
  -26923   -29542   -31415   -32555   -33026   -32983   -32530   -31605 
  -30172   -28386   -26418   -24432   -22681   -21197   -19611   -17520 
  -14760   -11392    -7640    -3768       36     3708     7232    10495 
   13305    15563    17263    18323    18575    18040    17075    15984 
   14771    13546    12665    12368    12754    13935    16036    19094 
   22793    26588    30169    33344    35720    37166    38115    38913 
   39442    39548    39191    38298    36962    35449    33734    31399 
   28179    24345    20511    17137    14276    11730     9292     6945 
    4911     3414     2309     1136     -272    -1596    -2490    -2844 
   -2718    -2294    -1780    -1364    -1111     -866     -613     -679 
   -1262    -2148    -2989    -3659    -4243    -4721    -4980    -5021 
   -4781    -4045    -2751    -1063      883     2988     5005     6695 
    8159     9744    11673    13873    16162    18628    21583    25029 
   28551    31869    35027    37852    39675    39995    39043    37334 
   35137    32529    29525    26093    22273    18401    14961    12112 
    9820     8179     7089     6247     5493     4769     4048     3416 
    3170     3765     5343     7568    10063    12654    15277    17805 
   19876    21148    21617    21434    20779    19924    19102    18341 
   17561    16892    16637    16805    17096    17363    17765    18510 
   19628    20992    22219    22656    21874    19870    16850    13324 
   10109     7920     7126     7738     9460    11809    14193    16155 
   17870    19958    22462    24641    25931    26449    26624    26748 
   26932    27356    28021    28334    27706    26246    24316    22087 
   19834    17937    16377    14725    12794    10875     9178     7545 
    5875     4307     2885     1362     -538    -2703    -4654    -6021 
   -6763    -6938    -6615    -5906    -4814    -3215    -1139     1175 
    3575     6157     9011    11902    14491    16732    18692    20299 
   21616    22867    23940    24530    24881    25650    27079    28887 
   30738    32525    34327    36134    37763    38999    39673    39728 
   39216    38249    36916    35131    32775    29951    26885    23834 
   21151    19127    17769    16696    15212    12863     9879     6688 
    3504      625    -1592    -3037    -3925    -4916    -6930   -10493 
  -15241   -20103   -24041   -26556   -27538   -27123   -25712   -23609 
  -20736   -17028   -12716    -8131    -3716       -9     2686     4476 
    5669     6502     7162     7897     8971    10639    12926    15483 
   17963    20181    21899    22955    23363    23116    22108    20396 
   18434    16733    15322    14035    13128    13098    14040    15608 
   17466    19394    21122    22502    23763    25334    27369    29694 
   32198    34834    37393    39625    41294    42139    41934    40485 
   37687    33761    29318    25059    21352    18177    15648    14273 
   14352    15564    17314    19015    20215    20634    20047    18513 
   16556    14743    13485    13090    13486    14260    15192    16222 
   17103    17632    17787    17468    16622    15427    14056    12479 
   10515     8017     5192     2676     1047      456      878     2283 
    4507     7340    10725    14649    18875    22945    26391    28866 
   30188    30377    29731    28624    27114    25040    22430    19472 
   16294    13071    10091     7423     4870     2448      488     -873 
   -1998    -3403    -5261    -7324    -9271   -11022   -12656   -14070 
  -14888   -14690   -13203   -10537    -7296    -4196    -1740     -307 
    -111     -953    -2138    -2721    -2026      -30     2830     6106 
    9465    12589    15151    16926    17933    18403    18636    18994 
   19827    21248    23163    25335    27449    29317    30854    31984 
   32780    33432    34076    34672    34944    34644    33829    32710 
   31520    30493    29684    28863    27564    25334    22305    19171 
   16354    13761    11170     8363     5319     2442      124    -1810 
   -3837    -6214    -8984   -12085   -15285   -18327   -21142   -23809 
  -26281   -28186   -29173   -29211   -28330   -26693   -24909   -23493 
  -22427   -21572   -20872   -20177   -19294   -18201   -17173   -16719 
  -17318   -19109   -21739   -24531   -26861   -28437   -29405   -30173 
  -30894   -31190   -30542   -28769   -26092   -22923   -19514   -15926 
  -12159    -7981    -3143     2193     7768    13518    19320    25054 
   30811    36713    42751    48800    54647    60124    65149    69609 
   73363    76354    78698    80601    82027    82756    82813    82389 
   81642    80578    78920    76534    73740    70870    68051    65591 
   63900    62853    61958    60898    59567    58060    56288    54073 
   51812    49827    47840    45588    42918    40029    37389    34815 
   31754    28140    24237    20154    15958    11978     8537     5619 
    3050      670    -1772    -4657    -8337   -12863   -17886   -22949 
  -27770   -32222   -36265   -39937   -43195   -45478   -46245   -46135 
  -45968   -45376   -44094   -42707   -41263   -39143   -36457   -33912 
  -31638   -29259   -26810   -24936   -24166   -24429   -25043   -25137 
  -24298   -22283   -18949   -14854   -10612    -6229    -1764     2565 
    6780    10772    14402    18072    22400    27586    33390    39421 
   45207    50191    53976    56588    58165    58660    58288    57469 
   56132    54003    51089    47587    43846    40078    36417    33329 
   31120    29536    28143    26601    24780    22799    20896    19216 
   17578    15602    13139    10270     7080     3629      -19    -3729 
   -7235   -10155   -12102   -12890   -12671   -11899   -11110   -10665 
  -10698   -11194   -12089   -13446   -15395   -17878   -20582   -22941 
  -24200   -23910   -22158   -18937   -14363    -9610    -5949    -3371 
   -1358      328     1882     3495     5414     7897    10960    14603 
   18983    23948    28922    33350    36929    39770    42327    44787 
   46893    48277    48608    47738    45872    43480    41224    39726 
   39026    38555    37692    36038    33439    30072    26296    22466 
   18970    16306    15122    15785    17793    20279    22815    25111 
   26652    26998    25968    23653    20390    16641    12937     9683 
    6898     4410     2182      306    -1149    -2131    -2562    -2486 
   -2269    -2430    -3203    -4437    -5862    -7127    -7608    -6817 
   -4975    -2688     -316     2085     4688     7896    11885    16224 
   20195    23342    25677    27108    27163    25711    23199    20106 
   16779    13595    10951     9036     7622     6426     5472     4812 
    4486     4747     5803     7674    10430    14135    18558    23218 
   27753    32090    36197    39940    43168    45640    47062    47357 
   46677    45248    43336    41080    38394    35174    31422    27348 
   23487    20336    18011    16390    15270    14441    13754    13089 
   12430    11833    11103     9942     8348     6385     4087     1663 
    -733    -3145    -5658    -8307   -10851   -12860   -14170   -14749 
  -14420   -13205   -11546   -10030    -9089    -8914    -9509   -10726 
  -12252   -13732   -15013   -16184   -17198   -17657   -17212   -15938 
  -14141   -12029    -9819    -7874    -6354    -5039    -3718    -2553 
   -1931    -1988    -2428    -2942    -3477    -4008    -4434    -4539 
   -3939    -2445     -401     1595     3173     4378     5510     6812 
    8380    10263    12497    15174    18487    22559    27177    31821 
   35982    39350    41772    43180    43653    43473    43037    42728 
   42698    42649    42117    40938    39305    37546    35942    34637 
   33569    32534    31489    30672    30279    30227    30322    30624 
   31437    32831    34472    35947    36968    37373    37173    36506 
   35522    34398    33357    32576    32024    31577    31317    31295 
   31202    30700    29821    28792    27609    25971    23626    20531 
   16905    13378    10709     9232     8761     8941     9466    10016 
   10128     9440     8095     6627     5505     4909     4730     4693 
    4525     4209     3982     3854     3549     2978     2234     1289 
     170     -840    -1530    -2018    -2476    -2813    -2714    -1928 
    -539     1177     3053     4894     6268     6752     6434     5872 
    5393     4772     3681     2127      316    -1570    -3181    -4091 
   -4351    -4294    -4018    -3647    -3572    -4056    -4890    -5593 
   -5937    -6098    -6197    -5977    -5041    -3156     -293     3240 
    6728     9349    10637    10756    10344    10045    10264    11121 
   12433    13944    15632    17697    20298    23200    25859    27905 
   29257    29948    30019    29495    28632    27895    27354    26567 
   25302    23911    22783    21824    20650    18984    16751    14016 
   11063     8288     5769     3207      356    -2738    -5703    -7933 
   -9071    -9391    -9404    -9412    -9620   -10248   -11209   -11974 
  -12023   -11225    -9601    -7181    -4367    -1836      132     1880 
    3762     5620     7246     8858    10708    12798    15123    17804 
   21046    24976    29477    34202    38593    42055    44389    45836 
   46693    47152    47304    47167    46642    45566    44111    42765 
   41748    40972    40449    40247    40380    40942    41926    42957 
   43588    43776    43795    43734    43453    42954    42363    41743 
   41150    40614    40168    39912    39868    39933    39968    39827 
   39401    38527    36924    34336    30645    26030    21065    16354 
   12231     8766     5718     2601     -980    -5012    -9150   -12997 
  -16047   -17720   -17683   -15934   -12833    -9199    -5949    -3491 
   -1712     -510      -44     -440    -1540    -2914    -3956    -4120 
   -3193    -1238     1551     4837     8128    10827    12499    13094 
   12850    12088    11040     9633     7712     5713     4585     4739 
    5674     6748     7772     8926    10489    12562    14948    17290 
   19260    20653    21334    21283    20796    20232    19748    19552 
   19823    20379    20854    20818    19959    18536    17145    16108 
   15391    14860    14461    14088    13460    12350    10680     8452 
    5764     2800     -194    -2958    -5274    -7113    -8726   -10429 
  -12426   -14709   -16924   -18628   -19586   -19769   -19448   -19109 
  -19017   -19058   -18915   -18281   -17030   -15261   -13149   -10878 
