Origin Time       2011/03/11 14:46:00
Lat.              38.103
Long.             142.860
Depth. (km)       24
Mag.              9.0
Station Code      HKD084
Station Lat.      43.1141
Station Long.     144.1230
Station Height(m) 30
Record Time       2011/03/11 14:48:08
Sampling Freq(Hz) 100Hz
Duration Time(s)  300
Dir.              U-D
Scale Factor      3920(gal)/6182761
Max. Acc. (gal)   9.258
Last Correction   2011/03/11 14:47:53
Memo.             
[...]
   11984    12170    11313    10963    11866    12753    13420    14446 
   15202    15007    14064    12996    12340    12131    12276    12470 
   11900    10501     9155     8319     7865     7623     7594     7750 
    7978     8358     8547     7877     6928     6880     7537     8155 
    8700     9000     8701     8267     8287     8326     7897     7583 
    7895     8461     9053     9514     9272     8732     9000     9440 
    8668     7180     6258     6113     6509     7275     7973     8456 
    9225    10302    11159    11973    12891    13219    13020    12666 
   11404     9395     8090     7739     7709     7562     6902     5783 
    4534     3491     2935     2360     1545     1548     2656     3913 
    4821     5312     5286     4750     3785     2703     2149     2778 
    4440     6106     6904     6564     5667     5215     4901     3904 
    2765     1909      971      323      366      556      510      425 
     622     1600     3278     4462     4729     4808     4621     4243 
    4760     6180     7927    10015    11584    11820    11477    10875 
    9763     9027     8893     7823     5416     3369     2779     3028 
    3399     3728     3862     3681     3257     2527     1185     -281 
    -495      389      681      -62    -1055    -1497    -1250    -1772 
   -3531    -4144    -2815    -1760    -1658    -1607    -1851    -1895 
    -348     1422     1368      914     1544     1986     1935     2783 
    4271     4969     5187     6368     8293     9500     9493     8532 
    7582     8167     9249     8540     7740     8867     9360     8277 
    8611    10272    10630    10005     9831     9857     9583     8982 
    8082     7226     6823     6878     7513     8852     9768     9105 
    7837     7153     6511     5544     4672     3662     2275     1155 
     913     1478     1898      941    -1134    -2633    -2648    -2201 
   -2805    -4203    -5139    -5479    -5400    -4834    -4289    -3879 
   -3236    -2459    -1413     -372     -382     -820       20     1754 
    2899     3453     4157     4793     4652     3890     3267     2958 
    2835     3149     3790     4163     4218     4349     4603     4557 
    3990     3597     4009     4566     4804     5820     7983     9544 
    9766    10145    11019    11036    10242     9897    10169    10627 
   11032    10684     9547     8686     8340     8272     8401     7932 
    6773     5767     4937     4524     4996     5481     5421     5367 
    5426     5691     6087     5484     4091     3654     3856     3470 
    3326     4111     4952     5259     4965     4296     3934     4035 
    4250     4438     4532     4859     5578     6000     6167     6848 
    7584     7527     7163     7435     8184     8275     7509     7030 
    6895     6275     5677     5648     5896     6797     8356     9248 
    8976     8280     7497     7352     8790    10394    10404     9703 
    9008     7871     7222     7911     8654     8217     7375     7105 
    6694     5711     5141     5091     4860     4609     4839     5751 
    7054     8172     8868     8803     7755     6549     5978     5614 
    4826     4154     4441     5011     4906     4678     4555     3929 
    3234     2896     2619     2677     2852     2361     1838     2228 
    2604     1604      151       12      672     1037     1610     2551 
    3325     4019     4732     5433     5994     6018     5786     5839 
    5945     5731     5233     4866     5234     6225     6711     6093 
    5152     4880     5488     6330     6840     7382     8028     8221 
    8377     9113     9804    10002     9986     9968    10180     9978 
    8390     6635     6423     7002     6903     6106     5183     4792 
    5531     6435     6031     4984     4520     4464     4679     5457 
    6417     6751     6247     5540     5226     5336     5715     6059 
    6208     6508     6760     6186     5044     4170     3791     3777 
    3481     2352     1294     1455     2708     4205     4704     3655 
    2231     1235      411        0      -58       -8      789     2036 
    2419     2064     2029     2300     2196     1863     1807     1513 
     493     -300     -249      -93     -123      -30      167      701 
    1619     2223     2494     2821     3052     3645     4488     4083 
    3008     3085     3850     4259     4195     4132     4683     5233 
    5587     6778     7970     8118     8822    10447    10966    10368 
   10255    10948    12100    13159    13833    14838    15912    15933 
   15420    15444    15940    16390    16467    16264    15974    15400 
   14873    14971    15001    14424    13593    12437    11219    10406 
    9382     7722     5872     4348     3844     4486     5362     6163 
    7085     7625     7861     8368     8431     7669     7283     7526 
    7270     6428     6077     6103     5197     3725     2972     2560 
    2149     2028     1855     2064     3033     3513     3325     3522 
    3720     3358     3174     3444     3485     3408     4105     5087 
    4935     4151     4109     4192     3735     4127     5950     7496 
    7825     7896     7904     7142     6198     5830     5750     6138 
    6985     7375     7702     8816     9639     9505     9635    10144 
   10023     9863    10364    10481     9610     8594     8259     8731 
    9407     9733    10152    11028    11543    11058    10227     9537 
    8644     7923     8146     9174    10598    11925    12672    13065 
   12870    11635    10675    10764    10327     8822     7625     7211 
    6775     6038     5702     5807     5741     5985     6771     6997 
    6752     7065     7412     6878     5793     4756     3989     3398 
    2356      738      -50      735     1470      883       -8       19 
     722     1287     1506     1621     1547     1469     2131     3010 
    2841     1830      709       10      490     1653     2235     2709 
    4161     5990     7026     7158     6847     6309     5490     4451 
    3673     3372     3060     2770     3000     3120     2493     2268 
    3767     6377     8331     9062     9576    10302    10420     9878 
    9849    10408    10201     9162     8424     7502     5638     4083 
    3261     2129     1237     1160     1265     2198     4183     5591 
    6007     6152     6192     6312     6695     7293     7896     8122 
    7916     7534     7245     7270     7836     8933     9444     8531 
    7779     8538     9557     9758     9437     8661     7436     6257 
    5840     6305     6656     6525     6553     6186     4566     2719 
    1952     2034     2245     2292     2052     1794     2032     2307 
    1775     1062     1026      939      207     -755    -1938    -2731 
   -1594      889     2414     2566     2575     3137     4092     4770 
    5058     5789     7043     7958     8325     8699     9311     9472 
    8721     7954     7676     7349     7666     9300    10577    10420 
    9691     8260     5612     2927     1577     1557     1783     1556 
    1539     2076     2689     3486     4266     4343     4036     3685 
    3140     2883     3117     3389     3755     3942     3037     1422 
     380      -84     -227      729     2344     3038     3339     4509 
    5550     5748     6105     6448     6197     6127     6010     4990 
    4263     4845     5766     6550     7228     7175     6727     6536 
    5753     4261     3485     3595     3778     4265     5156     5475 
    5318     6070     7337     7479     7052     7487     8418     9311 
    9931     9410     8441     8458     8368     7285     6728     7138 
    7036     6103     5579     5525     5018     4866     5660     5623 
    4214     2918     2078     1488     1466     1597     1363     1478 
    2789     4552     5190     4695     4261     4178     4620     6061 
    7430     7547     7452     7998     8329     8415     9242    10349 
   10601    10476    10865    10997     9751     7917     7177     7856 
    9080     9751     9386     9171    10251    11478    11574    11221 
   11217    11274    11223    11552    12263    12446    11538     9988 
    8609     7757     7137     7003     8088     9333     9155     8473 
    8697     8971     8091     6755     5814     4545     3125     3329 
    4593     4529     3508     3252     3343     3076     3048     3042 
    2278     1950     3347     5221     6404     7351     7805     6907 
    5543     5215     5141     4221     3850     4851     5886     6440 
    6927     7390     8054     8838     8925     8362     8184     8249 
    7766     7365     7530     7562     7697     8819    10523    11711 
   12153    12577    13028    12711    11990    11728    11611    11350 
   11037    10651    10736    11187    10662     9105     7816     7219 
    7038     7419     8344     8813     8272     7649     7325     6721 
    6481     7504     8561     8091     6951     6718     7012     6852 
    6376     5679     4537     3391     2718     2048     1031      900 
    2380     3520     3338     3705     4770     4933     4718     4797 
    4278     3281     2470     1531      504     -200     -605     -606 
    -111      839     2226     3248     2923     1864     1180      401 
   -1111    -2501    -2826    -2125     -894      196     1061     2384 
    3816     4348     4733     5928     7098     7750     8187     7951 
    6755     5422     4696     4217     3714     3863     4279     3761 
    2987     2690     1806      403     -111      210      553     1199 
    2331     2698     1732     1066     1349     1201      942     1960 
    3657     5425     7274     7873     6588     4905     3847     3061 
    1812     -140    -1482    -1050     -179      -91      279     1246 
    1358      588      350      546      255     -123     -139     -352 
    -783     -694      161     1509     2567     2333     1414     1382 
    2039     2468     3111     4215     5059     5723     6975     8594 
    9763    10517    11184    11567    11827    12274    12398    11828 
   11011    10224     9224     7817     6233     5295     5716     7089 
    8422     9045     8637     7798     7559     7304     6182     5419 
    5553     5364     5212     5989     6623     6853     7905     9422 
   10377    10946    11120    10566     9873     9611     9530     9741 
   10528    11040    10408     9552     9774    10495    10580    10102 
    9465     9040     9126     9743    11072    12034    10839     8871 
    8593     9104     9044     9203     9577     8831     7084     5968 
    6146     6590     6805     7819     9596    10507    10513    10661 
   10341     9338     8753     8154     7105     6646     6103     4403 
    3060     3126     3473     3412     3630     4580     5341     5300 
    5385     5747     5622     5610     6218     6640     6789     7072 
    7082     6481     5604     5347     6218     7175     7219     6859 
    6532     5996     5377     4832     4446     4671     5064     4754 
    4602     5119     4668     3253     3146     4146     4147     3363 
    3290     4116     5113     5521     5317     5650     7130     8548 
    8477     7129     5960     5546     5233     4980     4989     5030 
    5635     7011     7830     7552     7427     8158     9004     9447 
    9568     9217     8997     9816    10411     9484     8556     8710 
    8635     7833     7142     6386     5351     5290     6610     7934 
    8360     7398     5125     3735     3966     3525     2522     2615 
    2618     2021     1971     1238     -851    -1915    -1831    -2680 
   -3404    -2769    -2644    -3013    -1748      365     1583     2442 
    3376     3779     3737     3729     3715     3469     3194     3548 
    4849     6740     8713    10320    11387    12055    12153    11478 
   10684    10298     9904     9476     9235     8578     7672     7606 
    8044     7986     7382     6300     4939     4050     4065     4377 
    4011     3381     3419     3399     3012     3323     3830     3817 
    4427     5856     6999     7794     8411     8216     6979     5592 
    4808     4235     3763     3823     3794     3414     3549     4179 
    4943     5860     6329     6137     5980     6084     6211     6525 
    7306     7815     6880     5362     5031     4991     3592     1922 
    1430     1738     2306     2813     3197     4093     4997     4721 
    4079     4056     3878     3229     2708     2315     2059     2319 
    3009     3937     4965     5790     6553     7135     6998     6622 
    6189     4940     3782     4260     5362     5224     4238     3719 
    3340     2328     1334     1342     2322     3558     4460     4749 
    4575     4748     5602     6366     6478     6183     5981     6055 
    6001     5482     4808     4235     3375     2110     1153     1215 
    2309     3387     3185     2291     2484     3749     4479     4300 
    4339     4863     4916     4497     4390     4025     2884     2294 
    2933     3738     4310     4964     5017     4173     3978     4954 
    5471     5119     5025     5680     6584     6378     4903     4354 
    5173     4839     2771     1220     1105     1456     1890     2767 
    3853     4322     4170     4123     4419     5384     7007     7948 
    7929     8224     8528     7911     7518     8291     8888     8188 
    7137     6620     6037     5277     5192     6134     8089    10137 
   10466     9569     9455     9293     7615     6151     6412     6784 
    6349     6790     8568    10108    11276    13094    14867    15095 
   14278    14408    15639    15789    14374    13985    15737    17601 
   18598    19585    20306    19959    18958    18073    17417    16794 
   16255    16069    16458    16966    16762    16325    16066    14586 
   11885    10069     9413     8683     7936     7790     8057     8161 
    7753     6982     6207     5365     4049     1916     -492    -1471 
    -473      614      282     -641     -972     -955     -935     -509 
    -127     -707    -1204     -110     1279     1235      998     1612 
    1678     1189     1259      659     -912    -1357    -1237    -2283 
   -2839    -1815     -864     -133      860      969      570     1191 
    1835     1342     1025     1645     2781     4660     6650     7661 
    8325     9170     9362     8425     6761     5206     4441     4478 
    5053     5627     5679     5789     6741     7958     8502     8262 
    7765     7784     8225     8400     8732     9363     9194     8610 
    8833     9123     8784     8641     8925     9182     9066     8356 
    7658     7640     7894     7989     8161     8355     8044     7632 
    8022     8639     8751     8903     9043     9080    10130    11659 
   11680    10607    10032     9547     8460     7618     7158     6271 
    5857     6653     6792     5627     5460     6751     7324     7088 
    7747     9111     9966    10103    10084    10649    11864    12800 
   12510    11165     9948     9476     9372     9357     9314     9401 
    9787     9700     9419    10512    11961    11907    11375    11054 
   10101     9650    10760    11377    10497    10260    11266    11935 
   12318    12973    12808    11904    11847    11945    10567     8959 
    9029     9902     9697     8717     8509     8915     8926     8746 
    8571     7864     6429     4863     4096     3957     3306     2569 
    3207     4713     5577     5512     4736     3904     3946     4193 
    3660     3156     3034     2416     1731     1684     1152     -564 
   -1805    -1323     -603     -773     -799     -626    -1069    -1555 
   -1793    -2310    -2513    -1449       90      732     1057     2091 
    2885     2717     2731     3192     3245     3524     4411     4371 
    3488     3771     5114     5759     5381     4976     5040     4771 
    3506     2038     1123      667      795     1289     1236      681 
     709     1488     2062     2087     1830     1158      371      -88 
    -875    -1751    -1084      685     1843     2781     3855     3704 
    2291     1287     1263     1431     1305      904      744     2031 
    3916     3698     2446     3083     4073     3312     2503     2631 
    2655     2921     3792     3862     3014     3291     5012     6278 
    6474     6274     5569     4355     3509     3089     2154      699 
    -207      147     1354     2407     3038     3623     3832     3583 
    4171     5529     5545     4137     3281     3337     3416     3492 
    4008     4485     4191     3828     4107     4121     3683     3917 
    4678     5200     5660     6243     7031     7828     8001     8166 
    9178    10108    10431    10847    11206    11025    10805    11429 
   12873    13710    13331    13042    13190    13085    12988    12813 
   12115    11624    12142    13044    12894    11723    10908    10568 
   10386    10669    10525     9375     8865     9606    10002     9420 
    8610     7871     7203     6965     7106     7062     7103     7621 
    7679     6749     5854     5852     6295     6210     5400     4413 
    4119     4960     5493     4866     4872     5482     4990     4631 
    5288     5348     4935     4679     3776     2947     2938     2382 
    1215      728      797     1034     1429     1808     2283     2544 
    2190     1752     1793     2444     3052     2440     1287     1387 
    2252     2250     1621     1571     2196     2634     2420     2354 
    3055     3420     3116     3516     4029     2954     1317      672 
     349     -366     -748     -678    -1082    -1269       60     1826 
    2789     3451     4025     3983     3427     3170     3427     3537 
    3360     3376     3603     4091     5308     6772     7259     6796 
    6351     6213     6251     6267     5685     4690     4340     4518 
    4467     4869     6168     6569     5147     4043     4544     5340 
    5693     5944     6220     6556     6901     7314     7986     8909 
    9967    10728    10717    10076     9168     8313     7897     7955 
    8158     8165     7855     7444     7259     7415     7534     7286 
    7143     7418     7764     8235     8671     8188     7158     7132 
    8079     8576     8405     8191     7957     7795     7827     7907 
    8327     9020     9098     8298     7276     6571     6189     6049 
    6110     6098     6036     6211     6567     7195     7887     7883 
    7434     7342     7486     7384     6832     5887     4652     3125 
    1696      844      144     -960    -1596     -535      955      686 
    -480    -1042    -1462    -1303     -234        0     -752     -930 
    -339      834     2202     2423     1644     1553     2531     4086 
    5507     5443     4467     4929     6679     7809     8099     8492 
    9568    11055    12429    13993    15372    15125    14150    14539 
   15224    14775    14458    14274    12942    11871    12496    13898 
   15641    17315    17573    16699    15809    14696    13684    13517 
   12939    11196     9896     9510     9313     9587    10020    10023 
   10253    10656    10380     9830     9632     9682     9963    10147 
    9743     9183     9046     9294    10027    11118    11643    11475 
   11592    11758    11138    10526    10157     8890     7410     7086 
    7233     7154     7275     7255     6573     6205     6632     6352 
    4821     3549     3251     3222     2994     2782     3023     3617 
    3986     4004     3952     4003     4241     4826     5676     6028 
    5553     4850     3960     3005     2889     3324     3408     3086 
