Origin Time       2011/03/11 14:46:00
Lat.              38.103
Long.             142.860
Depth. (km)       24
Mag.              9.0
Station Code      HKD042
Station Lat.      44.5449
Station Long.     142.5692
Station Height(m) 271
Record Time       2011/03/11 14:50:06
Sampling Freq(Hz) 100Hz
Duration Time(s)  90
Dir.              N-S
Scale Factor      3920(gal)/6182761
Max. Acc. (gal)   1.580
Last Correction   2011/03/11 14:49:51
Memo.             
[...]
  -16321   -16285   -16239   -16182   -16122   -16065   -16018   -15990 
  -15991   -16023   -16085   -16168   -16261   -16354   -16447   -16538 
  -16630   -16716   -16780   -16819   -16846   -16861   -16859   -16853 
  -16861   -16876   -16893   -16903   -16898   -16880   -16859   -16849 
  -16863   -16895   -16925   -16939   -16938   -16927   -16902   -16869 
  -16838   -16810   -16773   -16723   -16674   -16633   -16606   -16598 
  -16615   -16643   -16662   -16668   -16678   -16711   -16764   -16822 
  -16883   -16940   -16982   -17007   -17031   -17059   -17075   -17080 
  -17086   -17097   -17106   -17113   -17118   -17110   -17079   -17033 
  -16982   -16931   -16878   -16820   -16759   -16698   -16634   -16573 
  -16522   -16483   -16444   -16394   -16333   -16261   -16182   -16102 
  -16031   -15974   -15927   -15885   -15858   -15847   -15851   -15872 
  -15913   -15971   -16032   -16091   -16162   -16247   -16339   -16432 
  -16523   -16611   -16699   -16788   -16873   -16953   -17022   -17082 
  -17140   -17202   -17264   -17326   -17385   -17435   -17459   -17459 
  -17450   -17438   -17416   -17391   -17377   -17368   -17352   -17332 
  -17319   -17309   -17290   -17267   -17246   -17221   -17193   -17165 
  -17138   -17110   -17081   -17058   -17054   -17066   -17085   -17110 
  -17135   -17153   -17155   -17142   -17119   -17083   -17021   -16945 
  -16884   -16849   -16834   -16834   -16847   -16856   -16851   -16844 
  -16849   -16868   -16885   -16900   -16921   -16946   -16966   -16977 
  -16978   -16967   -16944   -16923   -16922   -16946   -16975   -16997 
  -17015   -17033   -17049   -17055   -17056   -17050   -17030   -17011 
  -17015   -17041   -17076   -17112   -17136   -17137   -17118   -17096 
  -17074   -17040   -16991   -16936   -16884   -16839   -16798   -16760 
  -16727   -16694   -16656   -16615   -16576   -16545   -16527   -16528 
  -16555   -16598   -16646   -16706   -16786   -16877   -16955   -17009 
  -17044   -17059   -17061   -17067   -17084   -17091   -17073   -17036 
  -17001   -16972   -16943   -16911   -16874   -16824   -16762   -16699 
  -16643   -16588   -16530   -16469   -16401   -16318   -16229   -16150 
  -16097   -16067   -16055   -16053   -16048   -16022   -15969   -15908 
  -15874   -15868   -15871   -15881   -15906   -15938   -15967   -16001 
  -16050   -16114   -16185   -16248   -16308   -16373   -16432   -16489 
  -16557   -16624   -16679   -16735   -16805   -16886   -16968   -17045 
  -17119   -17193   -17267   -17342   -17413   -17468   -17499   -17517 
  -17534   -17548   -17563   -17582   -17603   -17617   -17626   -17650 
  -17690   -17721   -17736   -17744   -17747   -17749   -17756   -17778 
  -17818   -17855   -17875   -17882   -17880   -17877   -17879   -17877 
  -17859   -17813   -17734   -17639   -17542   -17446   -17356   -17283 
  -17225   -17171   -17123   -17091   -17061   -17009   -16938   -16868 
  -16799   -16731   -16663   -16585   -16499   -16421   -16360   -16325 
  -16310   -16292   -16259   -16217   -16172   -16131   -16096   -16066 
  -16034   -15990   -15928   -15856   -15796   -15759   -15745   -15748 
  -15748   -15741   -15737   -15748   -15777   -15822   -15873   -15923 
  -15968   -16007   -16040   -16068   -16093   -16110   -16127   -16154 
  -16183   -16202   -16216   -16230   -16239   -16243   -16249   -16272 
  -16316   -16368   -16429   -16501   -16568   -16612   -16633   -16646 
  -16662   -16684   -16716   -16769   -16840   -16921   -17012   -17117 
  -17226   -17330   -17423   -17501   -17559   -17591   -17608   -17627 
  -17653   -17677   -17698   -17720   -17742   -17754   -17756   -17762 
  -17774   -17777   -17778   -17791   -17803   -17802   -17791   -17776 
  -17764   -17756   -17746   -17730   -17706   -17671   -17634   -17608 
  -17593   -17575   -17546   -17500   -17443   -17376   -17300   -17223 
  -17145   -17060   -16978   -16909   -16854   -16815   -16787   -16760 
  -16723   -16681   -16655   -16659   -16681   -16701   -16712   -16716 
  -16714   -16709   -16706   -16700   -16678   -16640   -16611   -16609 
  -16636   -16677   -16724   -16778   -16837   -16893   -16964   -17056 
  -17148   -17228   -17304   -17375   -17430   -17462   -17485   -17507 
  -17523   -17524   -17519   -17512   -17498   -17480   -17472   -17480 
  -17491   -17488   -17469   -17445   -17427   -17420   -17426   -17444 
  -17462   -17468   -17466   -17464   -17456   -17435   -17409   -17384 
  -17357   -17333   -17322   -17319   -17315   -17307   -17294   -17284 
  -17272   -17242   -17192   -17139   -17092   -17049   -17004   -16953 
  -16884   -16789   -16686   -16601   -16534   -16480   -16438   -16407 
  -16380   -16355   -16338   -16334   -16333   -16319   -16298   -16282 
  -16268   -16245   -16219   -16192   -16159   -16115   -16066   -16019 
  -15975   -15936   -15903   -15878   -15854   -15821   -15777   -15730 
  -15679   -15624   -15573   -15531   -15495   -15462   -15435   -15418 
  -15410   -15410   -15428   -15465   -15505   -15539   -15582   -15649 
  -15730   -15813   -15896   -15969   -16024   -16075   -16137   -16211 
  -16284   -16347   -16403   -16457   -16511   -16569   -16633   -16703 
  -16763   -16800   -16824   -16847   -16870   -16885   -16883   -16866 
  -16840   -16814   -16814   -16848   -16902   -16959   -17010   -17047 
  -17064   -17068   -17079   -17108   -17150   -17208   -17286   -17373 
  -17447   -17504   -17549   -17579   -17592   -17593   -17588   -17579 
  -17563   -17537   -17511   -17499   -17497   -17500   -17510   -17530 
  -17555   -17584   -17617   -17656   -17696   -17736   -17779   -17817 
  -17835   -17839   -17843   -17848   -17849   -17841   -17824   -17797 
  -17762   -17726   -17698   -17682   -17673   -17666   -17663   -17661 
  -17645   -17607   -17557   -17505   -17449   -17388   -17321   -17243 
  -17151   -17051   -16955   -16871   -16793   -16719   -16655   -16602 
  -16561   -16536   -16533   -16547   -16565   -16593   -16640   -16698 
  -16749   -16790   -16830   -16872   -16908   -16939   -16971   -16995 
  -17006   -17021   -17060   -17126   -17203   -17273   -17333   -17385 
  -17424   -17442   -17448   -17445   -17428   -17404   -17389   -17380 
  -17366   -17354   -17351   -17349   -17346   -17346   -17343   -17332 
  -17311   -17289   -17274   -17268   -17261   -17246   -17231   -17224 
  -17220   -17225   -17242   -17255   -17254   -17238   -17211   -17172 
  -17124   -17082   -17050   -17027   -17022   -17042   -17079   -17127 
  -17173   -17214   -17258   -17301   -17332   -17350   -17366   -17385 
  -17415   -17460   -17509   -17542   -17560   -17576   -17597   -17625 
  -17655   -17679   -17697   -17701   -17693   -17698   -17724   -17759 
  -17787   -17804   -17815   -17816   -17800   -17779   -17769   -17766 
  -17769   -17778   -17793   -17813   -17838   -17872   -17914   -17956 
  -17994   -18032   -18075   -18120   -18165   -18211   -18250   -18272 
  -18279   -18289   -18306   -18319   -18326   -18335   -18349   -18355 
  -18350   -18346   -18352   -18361   -18382   -18426   -18483   -18530 
  -18560   -18581   -18600   -18616   -18630   -18653   -18677   -18682 
  -18667   -18641   -18609   -18571   -18528   -18481   -18430   -18369 
  -18301   -18235   -18173   -18110   -18043   -17970   -17897   -17827 
  -17761   -17704   -17658   -17615   -17565   -17512   -17458   -17404 
  -17354   -17318   -17292   -17265   -17231   -17208   -17203   -17201 
  -17196   -17192   -17183   -17160   -17133   -17124   -17132   -17146 
  -17170   -17216   -17281   -17347   -17403   -17442   -17460   -17455 
  -17441   -17439   -17452   -17477   -17510   -17542   -17567   -17584 
  -17606   -17646   -17695   -17742   -17792   -17843   -17880   -17902 
  -17921   -17949   -17982   -18012   -18038   -18069   -18102   -18131 
  -18157   -18178   -18183   -18169   -18140   -18104   -18060   -18013 
  -17972   -17941   -17915   -17895   -17884   -17885   -17892   -17894 
  -17888   -17882   -17867   -17830   -17781   -17742   -17719   -17699 
  -17681   -17676   -17679   -17680   -17683   -17684   -17674   -17649 
  -17610   -17561   -17505   -17439   -17361   -17287   -17227   -17186 
  -17158   -17138   -17116   -17085   -17053   -17028   -17006   -16981 
  -16960   -16946   -16929   -16906   -16895   -16902   -16917   -16929 
  -16944   -16962   -16963   -16935   -16878   -16803   -16725   -16655 
  -16602   -16569   -16540   -16509   -16478   -16450   -16423   -16391 
  -16366   -16357   -16347   -16329   -16322   -16333   -16347   -16355 
  -16354   -16346   -16328   -16302   -16281   -16273   -16274   -16281 
  -16302   -16333   -16355   -16359   -16349   -16338   -16334   -16337 
  -16345   -16354   -16357   -16355   -16368   -16409   -16465   -16523 
  -16581   -16640   -16699   -16761   -16827   -16894   -16955   -17005 
  -17044   -17072   -17090   -17101   -17113   -17131   -17144   -17155 
  -17170   -17183   -17180   -17162   -17141   -17124   -17115   -17128 
  -17167   -17218   -17266   -17315   -17376   -17446   -17513   -17570 
  -17611   -17633   -17639   -17634   -17636   -17648   -17657   -17656 
  -17654   -17655   -17670   -17707   -17756   -17801   -17835   -17858 
  -17884   -17929   -17994   -18079   -18177   -18279   -18381   -18472 
  -18551   -18626   -18691   -18737   -18767   -18783   -18778   -18763 
  -18749   -18733   -18708   -18669   -18623   -18579   -18534   -18491 
  -18461   -18446   -18429   -18406   -18388   -18379   -18366   -18344 
  -18326   -18314   -18299   -18280   -18256   -18222   -18175   -18113 
  -18047   -17990   -17947   -17920   -17919   -17939   -17963   -17982 
  -17991   -17986   -17966   -17939   -17909   -17878   -17842   -17796 
  -17747   -17706   -17680   -17674   -17693   -17725   -17754   -17782 
  -17813   -17849   -17884   -17905   -17920   -17939   -17956   -17978 
  -18016   -18072   -18129   -18178   -18220   -18255   -18287   -18320 
  -18348   -18367   -18380   -18389   -18391   -18381   -18358   -18324 
  -18286   -18248   -18207   -18164   -18125   -18091   -18056   -18025 
  -18009   -18002   -17992   -17981   -17973   -17961   -17935   -17901 
  -17876   -17863   -17856   -17851   -17845   -17826   -17803   -17786 
  -17779   -17778   -17778   -17767   -17738   -17688   -17622   -17549 
  -17482   -17430   -17385   -17350   -17329   -17322   -17329   -17353 
  -17398   -17459   -17520   -17571   -17620   -17673   -17732   -17796 
  -17867   -17933   -17985   -18025   -18064   -18106   -18156   -18215 
  -18275   -18322   -18345   -18349   -18349   -18356   -18371   -18394 
  -18421   -18443   -18455   -18460   -18465   -18461   -18433   -18385 
  -18332   -18276   -18211   -18144   -18084   -18028   -17969   -17910 
  -17860   -17817   -17774   -17736   -17705   -17667   -17608   -17530 
  -17443   -17355   -17272   -17200   -17141   -17089   -17040   -16994 
  -16959   -16942   -16936   -16935   -16948   -16973   -16998   -17021 
  -17052   -17093   -17134   -17166   -17198   -17231   -17250   -17259 
  -17271   -17286   -17300   -17313   -17322   -17317   -17295   -17269 
  -17249   -17240   -17244   -17260   -17292   -17333   -17367   -17395 
  -17425   -17454   -17483   -17518   -17560   -17600   -17631   -17653 
  -17674   -17700   -17730   -17767   -17819   -17890   -17968   -18040 
  -18095   -18129   -18146   -18148   -18138   -18114   -18071   -18020 
  -17982   -17960   -17954   -17968   -17993   -18003   -17989   -17967 
  -17957   -17961   -17975   -17990   -18007   -18017   -18019   -18030 
  -18063   -18107   -18143   -18171   -18189   -18198   -18209   -18230 
  -18250   -18250   -18227   -18192   -18157   -18128   -18104   -18089 
  -18087   -18091   -18087   -18079   -18075   -18068   -18050   -18023 
  -17995   -17968   -17940   -17917   -17899   -17886   -17874   -17857 
  -17835   -17811   -17787   -17771   -17769   -17767   -17752   -17727 
  -17684   -17621   -17553   -17495   -17448   -17416   -17395   -17379 
  -17370   -17370   -17377   -17388   -17403   -17418   -17430   -17443 
  -17460   -17476   -17487   -17500   -17515   -17529   -17549   -17587 
  -17644   -17709   -17769   -17820   -17871   -17919   -17965   -18024 
  -18099   -18170   -18215   -18232   -18229   -18221   -18211   -18202 
  -18193   -18179   -18153   -18123   -18095   -18063   -18025   -17993 
  -17968   -17945   -17922   -17900   -17883   -17868   -17850   -17839 
  -17828   -17801   -17758   -17710   -17661   -17610   -17556   -17506 
  -17460   -17416   -17375   -17338   -17301   -17256   -17210   -17179 
  -17161   -17136   -17104   -17080   -17063   -17054   -17067   -17100 
  -17137   -17168   -17200   -17236   -17276   -17312   -17343   -17376 
  -17411   -17440   -17460   -17486   -17528   -17578   -17632   -17696 
  -17756   -17799   -17848   -17924   -18025   -18137   -18252   -18358 
  -18441   -18489   -18505   -18506   -18503   -18500   -18501   -18510 
  -18528   -18556   -18597   -18651   -18713   -18770   -18829   -18903 
  -18986   -19068   -19147   -19217   -19265   -19287   -19286   -19268 
  -19234   -19184   -19131   -19083   -19035   -18986   -18940   -18901 
  -18865   -18836   -18821   -18824   -18828   -18828   -18828   -18821 
  -18802   -18778   -18749   -18709   -18665   -18621   -18582   -18553 
  -18534   -18520   -18508   -18495   -18481   -18471   -18478   -18503 
  -18532   -18564   -18608   -18665   -18729   -18799   -18881   -18972 
  -19052   -19111   -19157   -19191   -19217   -19247   -19287   -19333 
  -19386   -19440   -19495   -19550   -19599   -19640   -19681   -19720 
  -19756   -19792   -19827   -19859   -19878   -19890   -19900   -19897 
  -19875   -19852   -19838   -19830   -19819   -19803   -19781   -19753 
  -19707   -19637   -19557   -19473   -19381   -19283   -19192   -19108 
  -19024   -18942   -18865   -18782   -18681   -18567   -18456   -18358 
  -18279   -18222   -18182   -18142   -18092   -18028   -17960   -17901 
  -17852   -17809   -17771   -17735   -17701   -17671   -17651   -17640 
  -17632   -17623   -17617   -17612   -17606   -17608   -17615   -17612 
  -17600   -17585   -17581   -17588   -17600   -17619   -17649   -17678 
  -17699   -17720   -17751   -17785   -17801   -17789   -17757   -17711 
  -17655   -17602   -17551   -17493   -17428   -17375   -17343   -17326 
  -17324   -17333   -17339   -17334   -17319   -17302   -17293   -17290 
  -17280   -17263   -17249   -17237   -17221   -17209   -17207   -17203 
  -17189   -17159   -17111   -17042   -16959   -16876   -16808   -16760 
  -16729   -16713   -16711   -16720   -16737   -16755   -16775   -16798 
  -16816   -16831   -16847   -16848   -16827   -16795   -16769   -16759 
  -16775   -16818   -16881   -16949   -17019   -17100   -17193   -17292 
  -17395   -17504   -17610   -17701   -17778   -17853   -17931   -18004 
  -18059   -18092   -18107   -18105   -18090   -18074   -18056   -18032 
  -18004   -17979   -17959   -17939   -17913   -17884   -17856   -17825 
  -17791   -17760   -17727   -17684   -17630   -17567   -17495   -17415 
  -17325   -17235   -17161   -17096   -17033   -16985   -16956   -16933 
  -16916   -16915   -16924   -16936   -16950   -16967   -16983   -16993 
  -17007   -17035   -17074   -17108   -17134   -17156   -17171   -17178 
  -17184   -17196   -17214   -17231   -17245   -17257   -17266   -17267 
  -17265   -17271   -17284   -17298   -17321   -17356   -17384   -17392 
  -17388   -17376   -17364   -17353   -17340   -17323   -17300   -17270 
  -17243   -17235   -17245   -17257   -17262   -17264   -17268   -17280 
  -17296   -17311   -17314   -17298   -17268   -17236   -17209   -17191 
  -17186   -17194   -17205   -17210   -17212   -17218   -17222   -17215 
  -17205   -17199   -17194   -17194   -17203   -17218   -17233   -17238 
  -17230   -17215   -17191   -17160   -17133   -17121   -17119   -17121 
  -17134   -17154   -17161   -17155   -17147   -17143   -17139   -17132 
  -17126   -17127   -17130   -17129   -17133   -17156   -17188   -17212 
  -17230   -17251   -17271   -17288   -17312   -17350   -17395   -17439 
  -17492   -17551   -17606   -17655   -17705   -17761   -17823   -17895 
  -17987   -18096   -18207   -18302   -18379   -18447   -18507   -18560 
  -18613   -18659   -18680   -18684   -18694   -18714   -18731   -18745 
  -18762   -18772   -18760   -18735   -18711   -18685   -18647   -18587 
  -18508   -18417   -18319   -18227   -18159   -18107   -18056   -18003 
  -17959   -17921   -17883   -17846   -17814   -17782   -17748   -17716 
  -17695   -17687   -17687   -17697   -17722   -17758   -17792   -17816 
  -17828   -17827   -17811   -17791   -17778   -17772   -17769   -17774 
  -17799   -17840   -17889   -17947   -18011   -18066   -18112   -18158 
  -18211   -18268   -18315   -18355   -18391   -18421   -18441   -18450 
  -18451   -18450   -18449   -18456   -18476   -18501   -18519   -18529 
  -18533   -18532   -18528   -18529   -18530   -18514   -18471   -18412 
  -18351   -18292   -18233   -18179   -18130   -18079   -18018   -17942 
  -17859   -17778   -17703   -17642   -17596   -17561   -17537   -17531 
  -17550   -17592   -17639   -17678   -17712   -17734   -17736   -17728 
  -17721   -17710   -17690   -17670   -17654   -17636   -17610   -17575 
  -17541   -17521   -17515   -17520   -17536   -17557   -17563   -17556 
  -17547   -17542   -17537   -17532   -17528   -17520   -17501   -17482 
  -17465   -17447   -17428   -17407   -17387   -17365   -17345   -17342 
  -17359   -17379   -17391   -17392   -17385   -17375   -17365   -17358 
  -17360   -17371   -17388   -17411   -17432   -17448   -17456   -17468 
  -17496   -17536   -17576   -17615   -17659   -17702   -17742   -17788 
  -17840   -17885   -17915   -17939   -17969   -18002   -18031   -18053 
  -18069   -18075   -18069   -18059   -18050   -18047   -18053   -18068 
  -18088   -18104   -18112   -18116   -18117   -18117   -18118   -18125 
  -18139   -18144   -18123   -18089   -18067   -18058   -18058   -18070 
  -18092   -18112   -18128   -18149   -18178   -18209   -18241   -18286 
  -18345   -18405   -18459   -18515   -18576   -18630   -18676   -18723 
  -18779   -18836   -18886   -18934   -18986   -19037   -19079   -19108 
  -19131   -19142   -19139   -19127   -19113   -19097   -19079   -19062 
  -19051   -19042   -19029   -19022   -19022   -19014   -18996   -18976 
  -18951   -18908   -18840   -18754   -18660   -18560   -18451   -18342 
  -18229   -18104   -17969   -17837   -17718   -17614   -17518   -17431 
  -17355   -17280   -17199   -17119   -17045   -16967   -16876   -16781 
  -16696   -16622   -16558   -16511   -16482   -16466   -16464   -16483 
  -16520   -16557   -16584   -16606   -16626   -16652   -16692   -16742 
  -16794   -16840   -16875   -16901   -16924   -16947   -16973   -16997 
  -17013   -17015   -17001   -16979   -16958   -16935   -16910   -16896 
  -16891   -16876   -16847   -16811   -16768   -16716   -16657   -16600 
  -16547   -16492   -16432   -16373   -16319   -16269   -16227   -16200 
  -16186   -16173   -16152   -16126   -16095   -16062   -16035   -16012 
  -15986   -15952   -15907   -15861   -15824   -15788   -15748   -15709 
  -15670   -15620   -15565   -15514   -15471   -15429   -15386   -15348 
  -15323   -15311   -15310   -15315   -15324   -15332   -15337   -15351 
  -15378   -15407   -15432   -15465   -15508   -15560   -15618   -15679 
  -15740   -15796   -15846   -15904   -15979   -16065   -16159   -16270 
  -16390   -16502   -16598   -16679   -16746   -16800   -16851   -16913 
