Origin Time       2011/03/11 14:46:00
Lat.              38.103
Long.             142.860
Depth. (km)       24
Mag.              9.0
Station Code      HKD081
Station Lat.      43.6427
Station Long.     144.3901
Station Height(m) 130
Record Time       2011/03/11 14:48:17
Sampling Freq(Hz) 100Hz
Duration Time(s)  300
Dir.              E-W
Scale Factor      3920(gal)/6182761
Max. Acc. (gal)   9.451
Last Correction   2011/03/11 14:48:02
Memo.             
[...]
  -21441   -20452   -19961   -19908   -20081   -20209   -20080   -19688 
  -19259   -19070   -19234   -19653   -20160   -20650   -21062   -21360 
  -21623   -22073   -22914   -24172   -25631   -26912   -27721   -28001 
  -27785   -27115   -26172   -25285   -24678   -24312   -24054   -23864 
  -23722   -23511   -23054   -22232   -21083   -19793   -18612   -17751 
  -17273   -17058   -16954   -16937   -17131   -17687   -18620   -19715 
  -20636   -21256   -21796   -22587   -23759   -25071   -26057   -26458 
  -26338   -25804   -24918   -23804   -22639   -21636   -21043   -20970 
  -21194   -21304   -21087   -20733   -20639   -21092   -22034   -23092 
  -23832   -24004   -23584   -22702   -21626   -20717   -20268   -20357 
  -20859   -21568   -22292   -22860   -23172   -23249   -23159   -22949 
  -22670   -22365   -22036   -21679   -21238   -20582   -19614   -18403 
  -17172   -16199   -15738   -15976   -16928   -18340   -19811   -21022 
  -21794   -22088   -22032   -21863   -21854   -22217   -22937   -23735 
  -24334   -24659   -24752   -24655   -24473   -24325   -24195   -23985 
  -23733   -23573   -23577   -23797   -24282   -24910   -25320   -25138 
  -24280   -23013   -21739   -20776   -20305   -20361   -20780   -21282 
  -21663   -21900   -22150   -22606   -23312   -24100   -24679   -24791 
  -24343   -23417   -22219   -20975   -19844   -18940   -18363   -18112 
  -18052   -18058   -18114   -18258   -18514   -18841   -19187   -19586 
  -20067   -20494   -20687   -20663   -20593   -20580   -20647   -20791 
  -20904   -20783   -20336   -19732   -19252   -19051   -19176   -19706 
  -20737   -22252   -24006   -25524   -26304   -26148   -25347   -24501 
  -24092   -24168   -24448   -24629   -24547   -24150   -23468   -22598 
  -21657   -20744   -19910   -19195   -18671   -18359   -18178   -18065 
  -18061   -18230   -18585   -19161   -20010   -21052   -22060   -22831 
  -23307   -23512   -23501   -23368   -23219   -23069   -22829   -22443 
  -22036   -21878   -22199   -22949   -23728   -24077   -23842   -23259 
  -22740   -22576   -22775   -23096   -23249   -23072   -22552   -21800 
  -21081   -20749   -21050   -21904   -22892   -23508   -23478   -22898 
  -22121   -21516   -21279   -21416   -21878   -22602   -23394   -23916 
  -23839   -23005   -21506   -19655   -17852   -16411   -15441   -14884 
  -14638   -14655   -14964   -15612   -16569   -17732   -18972   -20088 
  -20874   -21324   -21652   -22098   -22780   -23626   -24344   -24508 
  -23862   -22588   -21228   -20304   -20028   -20274   -20767   -21340 
  -21950   -22494   -22876   -23196   -23628   -24166   -24696   -25211 
  -25748   -26187   -26336   -26180   -25870   -25525   -25132   -24582 
  -23793   -22770   -21641   -20681   -20196   -20271   -20702   -21124 
  -21244   -21052   -20803   -20791   -21161   -21827   -22575   -23259 
  -23854   -24349   -24665   -24644   -24169   -23321   -22389   -21704 
  -21429   -21497   -21729   -21972   -22180   -22423   -22839   -23476 
  -24112   -24404   -24276   -23933   -23530   -23054   -22443   -21715 
  -21049   -20642   -20487   -20371   -20105   -19693   -19305   -19169 
  -19484   -20323   -21535   -22740   -23488   -23572   -23192   -22719 
  -22341   -22024   -21700   -21322   -20849   -20286   -19694   -19172 
  -18832   -18696   -18643   -18518   -18204   -17641   -16953   -16482 
  -16566   -17290   -18461   -19780   -21016   -22017   -22676   -22992 
  -23156   -23438   -24011   -24846   -25737   -26479   -27067   -27618 
  -28133   -28475   -28563   -28481   -28406   -28461   -28644   -28824 
  -28753   -28138   -26807   -24832   -22480   -20108   -18116   -16861 
  -16487   -16832   -17519   -18203   -18744   -19172   -19563   -19963 
  -20402   -20878   -21325   -21661   -21844   -21888   -21809   -21555 
  -21047   -20336   -19665   -19269   -19127   -19059   -19101   -19520 
  -20446   -21696   -22859   -23476   -23369   -22791   -22180   -21858 
  -21888   -22104   -22270   -22232   -22001   -21666   -21263   -20808 
  -20337   -19837   -19211   -18389   -17544   -17033   -17082   -17614 
  -18375   -19115   -19693   -20067   -20292   -20533   -20949   -21512 
  -22014   -22259   -22156   -21733   -21138   -20545   -20004   -19519 
  -19221   -19274   -19674   -20266   -20887   -21457   -21971   -22463 
  -22965   -23447   -23872   -24361   -25062   -25878   -26512   -26702 
  -26385   -25766   -25171   -24823   -24693   -24549   -24198   -23616 
  -22833   -21849   -20684   -19461   -18409   -17789   -17739   -18164 
  -18815   -19444   -19875   -20108   -20278   -20460   -20668   -21012 
  -21599   -22279   -22695   -22629   -22216   -21771   -21516   -21545 
  -21911   -22560   -23188   -23360   -22785   -21515   -20103   -19417 
  -19935   -21294   -22682   -23512   -23700   -23550   -23542   -24062 
  -25060   -25994   -26228   -25558   -24376   -23283   -22551   -22032 
  -21471   -20785   -20050   -19316   -18605   -18018   -17685   -17607 
  -17685   -17855   -18135   -18587   -19259   -20127   -21153   -22333 
  -23526   -24344   -24489   -24141   -23752   -23559   -23546   -23704 
  -24057   -24579   -25245   -26020   -26778   -27394   -27835   -28032 
  -27790   -27013   -25918   -24880   -24103   -23528   -22917   -21938 
  -20456   -18824   -17681   -17410   -17873   -18581   -18999   -18844 
  -18298   -17804   -17568   -17339   -16719   -15593   -14256   -13284 
  -13257   -14340   -16137   -18097   -19964   -21772   -23501   -24886 
  -25640   -25781   -25606   -25374   -25136   -24903   -24791   -24908 
  -25230   -25625   -25897   -25862   -25453   -24718   -23830   -23120 
  -22926   -23295   -23881   -24105   -23477   -21907   -19764   -17671 
  -16294   -16113   -17171   -19083   -21261   -23081   -24079   -24172 
  -23638   -22835   -22018   -21404   -21178   -21332   -21612   -21646 
  -21132   -20062   -18815   -17986   -18026   -18877   -19939   -20514 
  -20373   -19843   -19393   -19320   -19735   -20566   -21632   -22816 
  -24042   -25175   -26071   -26598   -26613   -26156   -25621   -25512 
  -25917   -26405   -26453   -25835   -24656   -23226   -21918   -21025 
  -20679   -20806   -21208   -21693   -22111   -22316   -22210   -21839 
  -21354   -20873   -20478   -20322   -20576   -21245   -22087   -22708 
  -22762   -22144   -21056   -19934   -19230   -19187   -19860   -21185 
  -22821   -24132   -24605   -24276   -23548   -22636   -21443   -19977 
  -18562   -17622   -17395   -17848   -18675   -19315   -19266   -18578 
  -17866   -17769   -18425   -19429   -20261   -20696   -20837   -20886 
  -20920   -20760   -20099   -18881   -17549   -16826   -17271   -18984 
  -21496   -23925   -25463   -25803   -25126   -23886   -22548   -21360 
  -20445   -20012   -20146   -20471   -20383   -19584   -18282   -17041 
  -16483   -16906   -18052   -19341   -20381   -21148   -21727   -22124 
  -22353   -22579   -23072   -23924   -24907   -25708   -26176   -26324 
  -26218   -25952   -25677   -25472   -25248   -24927   -24610   -24414 
  -24240   -23852   -23028   -21632   -19794   -17974   -16691   -16239 
  -16587   -17442   -18419   -19209   -19652   -19778   -19809   -20055 
  -20703   -21703   -22854   -23890   -24570   -24827   -24795   -24680 
  -24664   -24815   -25045   -25159   -24985   -24610   -24494   -25159 
  -26658   -28435   -29741   -30122   -29614   -28615   -27517   -26355 
  -24928   -23231   -21593   -20385   -19718   -19435   -19277   -19027 
  -18612   -18192   -18059   -18369   -19018   -19830   -20713   -21634 
  -22555   -23408   -24164   -24901   -25653   -26247   -26425   -26073 
  -25294   -24375   -23650   -23271   -23073   -22756   -22161   -21304 
  -20317   -19420   -18770   -18310   -17898   -17637   -17894   -18861 
  -20264   -21651   -22719   -23289   -23308   -23014   -22866   -23243 
  -24268   -25757   -27224   -28058   -27849   -26610   -24803   -23203 
  -22514   -22845   -23585   -23875   -23272   -21969   -20537   -19576 
  -19396   -19826   -20381   -20736   -21023   -21548   -22375   -23239 
  -23683   -23292   -21918   -19748   -17372   -15596   -14889   -15027 
  -15401   -15642   -15855   -16329   -17241   -18582   -20221   -21953 
  -23550   -24864   -25816   -26349   -26544   -26627   -26738   -26841 
  -26827   -26599   -26062   -25139   -23839   -22275   -20566   -18747 
  -16857   -15081   -13707   -12952   -12838   -13204   -13826   -14559 
  -15395   -16448   -17816   -19371   -20794   -21822   -22369   -22510 
  -22359   -21934   -21245   -20478   -19932   -19794   -20107   -20886 
  -22109   -23612   -25117   -26422   -27421   -27943   -27818   -27094 
  -26013   -24902   -24120   -23878   -24132   -24712   -25385   -25768 
  -25381   -23967   -21728   -19202   -17013   -15629   -15210   -15662 
  -16807   -18438   -20264   -21999   -23521   -24803   -25751   -26296 
  -26551   -26675   -26704   -26693   -26883   -27446   -28163   -28521 
  -28118   -26915   -25247   -23653   -22534   -21970   -21809   -21839 
  -21951   -22178   -22577   -23132   -23708   -24156   -24449   -24595 
  -24499   -24090   -23553   -23328   -23772   -24766   -25666   -25811 
  -25106   -24019   -23064   -22394   -21849   -21202   -20297   -19095 
  -17796   -16835   -16545   -16846   -17361   -17798   -18162   -18636 
  -19300   -20023   -20591   -20950   -21271   -21769   -22473   -23066 
  -23006   -22020   -20487   -19173   -18709   -19295   -20638   -22058 
  -22863   -22814   -22271   -21907   -22229   -23284   -24758   -26213 
  -27194   -27363   -26743   -25740   -24835   -24324   -24274   -24526 
  -24742   -24615   -24119   -23564   -23326   -23535   -24068   -24734 
  -25324   -25514   -24867   -23192   -20928   -18932   -17877   -17821 
  -18264   -18603   -18522   -18042   -17455   -17194   -17624   -18806 
  -20481   -22239   -23611   -24188   -23982   -23506   -23268   -23388 
  -23706   -24004   -24152   -24211   -24433   -25096   -26250   -27541 
  -28438   -28690   -28437   -27905   -27122   -25914   -24161   -22066 
  -20197   -19165   -19114   -19550   -19820   -19720   -19551   -19761 
  -20581   -21814   -22883   -23155   -22317   -20538   -18369   -16545 
  -15770   -16400   -18168   -20287   -21917   -22578   -22304   -21603 
  -21182   -21413   -22102   -22813   -23315   -23635   -23798   -23682 
  -23131   -22188   -21165   -20395   -19930   -19590   -19248   -18929 
  -18629   -18217   -17626   -17026   -16678   -16651   -16783   -16876 
  -16939   -17242   -18000   -19127   -20311   -21101   -21092   -20299 
  -19238   -18510   -18332   -18454   -18553   -18651   -18978   -19581 
  -20278   -20850   -21196   -21484   -22103   -23324   -25032   -26712 
  -27707   -27694   -26969   -26219   -25917   -25953   -25923   -25607 
  -25042   -24334   -23529   -22650   -21772   -21046   -20694   -20863 
  -21453   -22202   -22848   -23144   -22884   -22040   -20838   -19695 
  -19048   -19086   -19519   -19708   -19196   -18094   -16963   -16406 
  -16736   -17816   -19100   -19983   -20237   -20070   -19827   -19731 
  -19852   -20164   -20522   -20679   -20427   -19767   -18984   -18460 
  -18344   -18440   -18509   -18659   -19324   -20804   -22878   -24838 
  -25954   -26040   -25531   -25039   -24921   -25189   -25688   -26321 
  -27102   -27930   -28433   -28291   -27661   -27046   -26807   -26919 
  -27017   -26548   -25119   -22853   -20346   -18260   -17000   -16681 
  -17171   -18048   -18737   -18858   -18496   -18087   -18018   -18357 
  -19018   -20121   -21989   -24691   -27719   -30201   -31404   -31078 
  -29599   -27820   -26593   -26352   -27037   -28183   -29143   -29392 
  -28801   -27727   -26775   -26410   -26721   -27372   -27815   -27727 
  -27223   -26634   -26220   -26077   -26139   -26238   -26200   -25878 
  -25201   -24214   -23024   -21718   -20410   -19233   -18219   -17244 
  -16164   -15010   -14000   -13358   -13175   -13345   -13548   -13438 
  -12932   -12255   -11745   -11643   -12086   -13181   -14835   -16680 
  -18415   -20029   -21580   -22985   -24009   -24335   -23780   -22531 
  -21047   -19792   -19136   -19285   -20175   -21579   -23317   -25240 
  -27109   -28566   -29287   -29219   -28679   -28109   -27693   -27223 
  -26328   -24840   -22998   -21364   -20439   -20274   -20465   -20492 
  -20096   -19444   -18933   -18834   -19147   -19693   -20225   -20542 
  -20632   -20607   -20421   -19855   -18833   -17665   -16952   -17154 
  -18151   -19384   -20429   -21249   -21908   -22267   -22116   -21488 
  -20644   -19769   -18856   -17850   -16746   -15650   -14871   -14857 
  -15920   -17953   -20443   -22740   -24355   -25096   -24989   -24224 
  -23165   -22286   -22059   -22819   -24501   -26488   -27896   -28124 
  -27171   -25462   -23410   -21151   -18724   -16392   -14594   -13595 
  -13334   -13570   -14063   -14637   -15203   -15849   -16734   -17851 
  -19038   -20165   -21142   -21854   -22289   -22670   -23383   -24737 
  -26673   -28714   -30244   -30833   -30365   -29028   -27248   -25485 
  -23957   -22609   -21418   -20581   -20304   -20553   -21153   -22004 
  -23039   -24048   -24827   -25416   -25930   -26275   -26298   -26124 
  -26064   -26274   -26675   -27029   -27042   -26564   -25732   -24869 
  -24238   -23943   -23943   -24087   -24327   -24759   -25254   -25404 
  -24998   -24241   -23468   -22903   -22688   -22901   -23497   -24366 
  -25439   -26659   -27822   -28503   -28264   -26933   -24721   -22186 
  -19977   -18475   -17707   -17446   -17349   -17197   -17024   -16940 
  -16980   -17145   -17400   -17537   -17214   -16269   -14948   -13727 
  -12879   -12245   -11431   -10201    -8741    -7521    -6941    -7231 
   -8419   -10194   -12077   -13756   -15201   -16587   -18140   -20076 
  -22501   -25192   -27602   -29172   -29564   -28717   -26867   -24601 
  -22731   -21874   -22075   -22860   -23609   -23952   -23947   -23850 
  -23830   -23970   -24298   -24758   -25272   -25773   -26141   -26177 
  -25703   -24744   -23584   -22557   -21765   -21079   -20363   -19605 
  -18916   -18470   -18389   -18713   -19432   -20465   -21720   -23135 
  -24551   -25716   -26545   -27214   -27938   -28782   -29708   -30718 
  -31829   -32889   -33557   -33488   -32497   -30688   -28523   -26582 
  -25154   -24168   -23498   -23111   -22903   -22666   -22268   -21777 
  -21318   -20850   -20170   -19168   -18037   -17137   -16614   -16397 
  -16475   -16858   -17427   -18020   -18503   -18699   -18364   -17365 
  -15878   -14346   -13285   -13100   -13975   -15816   -18289   -20924 
  -23202   -24638   -24964   -24333   -23327   -22652   -22745   -23570 
  -24660   -25367   -25222   -24204   -22717   -21252   -20072   -19171 
  -18397   -17677   -17185   -17294   -18276   -20064   -22274   -24387 
  -25990   -26981   -27549   -27930   -28224   -28420   -28444   -28130 
  -27284   -25844   -24007   -22256   -21179   -21143   -22011   -23153 
  -23828   -23560   -22220   -20120   -18094   -17009   -17081   -17798 
  -18440   -18668   -18704   -18930   -19414   -19929   -20267   -20395 
  -20429   -20580   -21084   -22015   -23192   -24299   -25056   -25303 
  -25023   -24328   -23430   -22581   -22036   -22014   -22516   -23224 
  -23685   -23606   -23081   -22523   -22186   -21800   -20861   -19243 
  -17346   -15708   -14671   -14369   -14684   -15103   -15008   -14285 
  -13489   -13360   -14248   -15927   -17760   -19030   -19334   -18844 
  -18216   -18159   -18982   -20483   -22156   -23514   -24310   -24538 
  -24339   -23964   -23658   -23530   -23589   -23809   -24161   -24655 
  -25293   -25950   -26437   -26673   -26694   -26570   -26387   -26261 
  -26318   -26617   -27072   -27454   -27457   -26817   -25464   -23626 
  -21824   -20654   -20447   -21075   -22001   -22563   -22334   -21312 
  -19927   -18799   -18317   -18472   -19020   -19662   -20131   -20272 
  -20094   -19710   -19217   -18652   -18051   -17593   -17580   -18141 
  -19047   -19902   -20455   -20730   -20968   -21462   -22317   -23342 
  -24241   -24839   -25129   -25222   -25250   -25254   -25219   -25242 
  -25537   -26186   -26943   -27340   -27026   -26044   -24783   -23635 
  -22742   -22090   -21626   -21228   -20681   -19798   -18575   -17218 
  -16015   -15251   -15077   -15366   -15845   -16392   -17027   -17717 
  -18330   -18783   -19136   -19539   -20141   -20929   -21712   -22318 
  -22788   -23292   -23809   -24059   -23855   -23229   -22282   -21169 
  -20148   -19471   -19201   -19128   -19002   -18834   -18826   -19108 
  -19615   -20127   -20458   -20665   -20922   -21269   -21598   -21778 
  -21770   -21725   -21945   -22623   -23604   -24480   -24843   -24519 
  -23667   -22656   -21743   -20874   -19890   -18899   -18273   -18316 
  -19031   -20152   -21276   -22070   -22489   -22757   -23124   -23669 
  -24316   -24920   -25321   -25407   -25219   -24974   -24895   -25004 
  -25122   -25001   -24474   -23500   -22168   -20691   -19326   -18250 
  -17582   -17416   -17727   -18320   -18996   -19769   -20815   -22143 
  -23446   -24335   -24620   -24364   -23760   -23025   -22436   -22265 
  -22490   -22713   -22502   -21787   -20926   -20390   -20431   -20946 
  -21502   -21608   -21060   -20050   -18996   -18348   -18429   -19228 
  -20377   -21337   -21656   -21261   -20574   -20232   -20646   -21716 
  -22917   -23719   -23990   -23957   -23880   -23904   -24122   -24617 
  -25382   -26188   -26719   -26862   -26705   -26372   -26038   -25928 
  -26157   -26588   -26837   -26496   -25486   -24119   -22821   -21933 
  -21632   -21917   -22688   -23797   -24990   -25894   -26103   -25472 
  -24386   -23556   -23435   -23905   -24441   -24486   -23801   -22627 
  -21413   -20427   -19750   -19419   -19403   -19528   -19589   -19475 
  -19107   -18399   -17386   -16355   -15801   -16143   -17373   -19016 
  -20465   -21273   -21246   -20514   -19476   -18544   -18017   -18102 
  -18860   -20053   -21123   -21485   -21024   -20236   -19788   -19910 
  -20284   -20473   -20278   -19766   -19198   -18917   -19164   -19926 
  -20932   -21830   -22348   -22414   -22219   -22050   -21897   -21390 
  -20280   -18797   -17437   -16565   -16348   -16802   -17781   -19001 
  -20161   -21070   -21691   -22088   -22450   -23136   -24452   -26265 
  -27872   -28420   -27606   -25970   -24474   -23773   -23836   -24180 
  -24365   -24316   -24329   -24708   -25300   -25575   -25227   -24496 
  -23908   -23854   -24361   -25132   -25780   -26011   -25725   -24998 
  -23990   -22868   -21823   -21099   -20885   -21084   -21354   -21433 
  -21332   -21232   -21299   -21577   -21971   -22314   -22492   -22461 
  -22233   -21900   -21653   -21698   -22031   -22362   -22344   -21825 
  -20886   -19698   -18452   -17412   -16854   -16902   -17515   -18595 
  -19930   -21203   -22247   -23082   -23621   -23671   -23247   -22678 
  -22376   -22592   -23340   -24466   -25722   -26872   -27723   -28049 
  -27691   -26848   -26017   -25530   -25253   -24869   -24335   -23859 
  -23503   -23073   -22368   -21356   -20137   -18905   -17930   -17367 
  -17054   -16700   -16264   -15957   -15848   -15679   -15193   -14477 
  -13849   -13589   -13851   -14680   -15997   -17572   -19072   -20277 
  -21275   -22367   -23640   -24794   -25447   -25457   -24870   -23823 
  -22648   -21820   -21564   -21655   -21667   -21315   -20598   -19734 
  -18924   -18203   -17488   -16745   -16097   -15786   -15961   -16541 
  -17325   -18124   -18785   -19198   -19369   -19446   -19648   -20133 
