Origin Time       2011/03/11 14:46:00
Lat.              38.103
Long.             142.860
Depth. (km)       24
Mag.              9.0
Station Code      HKD003
Station Lat.      45.1033
Station Long.     141.7665
Station Height(m) 10
Record Time       2011/03/11 14:51:07
Sampling Freq(Hz) 100Hz
Duration Time(s)  60
Dir.              N-S
Scale Factor      3920(gal)/6182761
Max. Acc. (gal)   4.358
Last Correction   2011/03/11 14:50:52
Memo.             
[...]
   20749    20636    20527    20423    20322    20228    20144    20065 
   19992    19926    19867    19819    19787    19770    19760    19755 
   19760    19773    19793    19823    19857    19902    19959    20020 
   20079    20144    20216    20293    20378    20468    20559    20653 
   20753    20851    20953    21064    21173    21280    21393    21505 
   21617    21735    21853    21970    22090    22210    22326    22439 
   22557    22677    22799    22927    23053    23172    23290    23409 
   23526    23639    23757    23878    23991    24098    24206    24312 
   24416    24520    24621    24720    24817    24908    24998    25087 
   25174    25260    25341    25415    25488    25560    25627    25696 
   25773    25845    25911    25978    26044    26103    26161    26221 
   26274    26318    26360    26395    26425    26457    26489    26518 
   26547    26573    26595    26622    26654    26686    26728    26774 
   26817    26862    26911    26961    27020    27092    27165    27241 
   27325    27409    27491    27580    27675    27771    27869    27968 
   28064    28161    28263    28368    28471    28576    28682    28787 
   28893    29004    29113    29224    29337    29444    29544    29643 
   29733    29821    29912    29998    30081    30167    30245    30309 
   30370    30430    30480    30520    30556    30583    30603    30620 
   30632    30641    30654    30658    30649    30637    30629    30620 
   30604    30585    30566    30543    30514    30477    30432    30387 
   30339    30288    30238    30186    30131    30073    30010    29950 
   29894    29834    29779    29724    29660    29595    29532    29474 
   29419    29366    29318    29276    29239    29203    29167    29136 
   29106    29073    29042    29004    28962    28926    28889    28854 
   28824    28789    28745    28698    28646    28588    28529    28470 
   28410    28342    28267    28192    28119    28045    27973    27908 
   27844    27778    27717    27662    27619    27586    27555    27529 
   27512    27500    27492    27492    27501    27519    27546    27580 
   27615    27652    27698    27751    27810    27876    27942    28005 
   28066    28121    28175    28232    28283    28331    28379    28415 
   28441    28468    28487    28498    28510    28510    28491    28463 
   28423    28364    28300    28233    28155    28069    27974    27865 
   27747    27627    27502    27373    27244    27105    26956    26799 
   26633    26465    26302    26134    25957    25785    25617    25446 
   25280    25120    24960    24806    24659    24508    24360    24221 
   24089    23969    23861    23758    23662    23576    23499    23433 
   23383    23348    23321    23299    23285    23282    23298    23326 
   23364    23414    23476    23546    23626    23713    23807    23911 
   24021    24135    24255    24373    24489    24604    24718    24830 
   24939    25042    25144    25248    25354    25460    25567    25674 
   25782    25887    25986    26085    26187    26288    26390    26494 
   26595    26699    26809    26914    27016    27122    27226    27325 
   27419    27505    27581    27655    27724    27785    27842    27892 
   27933    27971    28003    28026    28046    28063    28072    28077 
   28077    28069    28059    28051    28043    28031    28020    28009 
   28004    28006    28013    28025    28047    28075    28106    28139 
   28174    28217    28270    28326    28382    28443    28509    28580 
   28658    28743    28830    28917    29006    29093    29176    29262 
   29349    29433    29514    29591    29662    29729    29790    29843 
   29894    29947    29990    30024    30056    30083    30104    30122 
   30131    30135    30135    30124    30106    30088    30073    30062 
   30057    30052    30041    30034    30033    30030    30025    30023 
   30016    30005    29999    29993    29986    29982    29979    29970 
   29958    29941    29914    29885    29858    29828    29795    29760 
   29720    29677    29631    29576    29517    29458    29393    29320 
   29245    29167    29086    29006    28925    28838    28746    28650 
   28548    28442    28337    28231    28122    28015    27909    27801 
   27694    27590    27488    27387    27285    27187    27093    27003 
   26918    26842    26776    26718    26665    26617    26569    26524 
   26483    26442    26399    26360    26320    26278    26240    26203 
   26166    26130    26097    26062    26027    25993    25951    25909 
   25873    25837    25802    25768    25733    25690    25645    25603 
   25563    25531    25505    25476    25447    25420    25390    25361 
   25335    25308    25279    25254    25223    25190    25169    25152 
   25133    25126    25125    25120    25124    25134    25149    25175 
   25208    25240    25280    25332    25388    25447    25522    25610 
   25700    25787    25872    25959    26048    26134    26220    26310 
   26395    26477    26560    26643    26726    26814    26907    26994 
   27076    27159    27236    27306    27377    27447    27517    27586 
   27647    27701    27754    27809    27865    27922    27978    28031 
   28085    28134    28176    28216    28254    28286    28312    28332 
   28345    28355    28365    28373    28381    28386    28391    28392 
   28387    28382    28379    28378    28378    28376    28369    28360 
   28355    28355    28360    28373    28389    28409    28431    28453 
   28480    28513    28548    28581    28614    28643    28670    28699 
   28730    28758    28789    28822    28849    28872    28895    28918 
   28940    28962    28983    28996    29005    29016    29028    29040 
   29058    29079    29101    29125    29147    29169    29200    29240 
   29279    29322    29371    29419    29472    29534    29598    29667 
   29746    29823    29898    29978    30058    30143    30234    30326 
   30415    30500    30580    30655    30726    30795    30860    30924 
   30985    31036    31075    31109    31136    31153    31160    31159 
   31142    31113    31078    31032    30975    30917    30850    30767 
   30677    30578    30465    30351    30238    30116    29992    29869 
   29741    29608    29481    29353    29224    29102    28983    28859 
   28739    28626    28512    28398    28290    28183    28074    27972 
   27875    27776    27680    27592    27509    27430    27358    27283 
   27213    27153    27097    27047    27007    26967    26927    26894 
   26865    26842    26835    26840    26851    26869    26891    26914 
   26943    26984    27029    27076    27125    27169    27208    27252 
   27303    27358    27420    27483    27542    27600    27653    27699 
   27750    27802    27849    27893    27932    27959    27976    27994 
   28012    28027    28039    28047    28047    28037    28021    28003 
   27983    27956    27918    27875    27827    27765    27700    27642 
   27585    27526    27464    27400    27328    27253    27183    27119 
   27057    26995    26933    26870    26806    26746    26695    26655 
   26622    26593    26564    26537    26513    26492    26476    26463 
   26444    26422    26399    26375    26354    26340    26328    26317 
   26307    26293    26273    26256    26245    26235    26226    26219 
   26207    26192    26183    26180    26182    26191    26206    26216 
   26227    26242    26256    26271    26290    26307    26317    26326 
   26328    26326    26327    26330    26328    26330    26334    26328 
   26318    26313    26305    26293    26279    26260    26233    26200 
   26159    26114    26071    26026    25976    25927    25874    25806 
   25728    25648    25569    25485    25396    25301    25192    25074 
   24956    24841    24732    24624    24513    24397    24277    24155 
   24032    23910    23790    23669    23549    23427    23301    23181 
   23073    22970    22869    22773    22679    22583    22486    22392 
   22298    22209    22123    22035    21946    21859    21776    21697 
   21620    21547    21478    21410    21340    21270    21210    21155 
   21102    21056    21015    20970    20924    20882    20843    20810 
   20782    20760    20740    20720    20701    20686    20673    20665 
   20659    20652    20647    20647    20650    20659    20680    20710 
   20746    20787    20832    20878    20932    20997    21067    21144 
   21229    21318    21410    21510    21616    21727    21843    21961 
   22082    22204    22325    22449    22578    22705    22827    22945 
   23055    23157    23253    23344    23428    23509    23586    23656 
   23723    23785    23841    23896    23951    24000    24042    24080 
   24120    24159    24197    24236    24280    24323    24363    24405 
   24446    24484    24519    24550    24580    24603    24619    24636 
   24652    24663    24673    24680    24678    24669    24655    24638 
   24623    24614    24605    24593    24580    24564    24543    24523 
   24508    24498    24490    24485    24483    24486    24496    24508 
   24528    24556    24586    24617    24654    24696    24742    24794 
   24858    24926    24999    25078    25161    25248    25342    25447 
   25556    25665    25776    25884    25988    26093    26202    26312 
   26417    26516    26610    26696    26770    26838    26903    26954 
   26991    27018    27033    27034    27028    27016    26995    26971 
   26940    26893    26841    26790    26738    26691    26648    26599 
   26544    26492    26441    26392    26353    26319    26285    26254 
   26226    26197    26172    26153    26136    26118    26104    26091 
   26071    26047    26028    26011    25993    25977    25961    25941 
   25918    25897    25879    25864    25848    25832    25819    25802 
   25780    25762    25752    25743    25734    25728    25723    25718 
   25715    25719    25728    25735    25743    25750    25753    25762 
   25777    25791    25809    25831    25856    25882    25905    25927 
   25954    25988    26021    26048    26074    26102    26133    26167 
   26206    26248    26296    26353    26405    26448    26492    26540 
   26583    26624    26667    26704    26739    26777    26814    26848 
   26881    26914    26947    26987    27035    27083    27134    27193 
   27253    27315    27379    27443    27505    27571    27637    27702 
   27774    27848    27923    28000    28076    28148    28219    28287 
   28350    28411    28470    28524    28575    28624    28667    28699 
   28729    28760    28782    28796    28807    28811    28810    28807 
   28799    28784    28763    28740    28712    28681    28647    28609 
   28565    28521    28477    28429    28382    28333    28282    28235 
   28189    28138    28089    28042    27994    27948    27904    27859 
   27814    27776    27741    27710    27687    27665    27637    27615 
   27599    27585    27579    27584    27590    27599    27616    27634 
   27654    27683    27715    27743    27771    27802    27829    27855 
   27885    27916    27952    27995    28036    28075    28120    28167 
   28216    28275    28342    28413    28491    28578    28670    28772 
   28885    29005    29135    29274    29414    29558    29708    29861 
   30013    30162    30310    30458    30603    30740    30866    30984 
   31092    31194    31291    31377    31448    31508    31557    31597 
   31628    31646    31652    31645    31629    31607    31578    31543 
   31509    31467    31415    31361    31307    31250    31194    31138 
   31077    31017    30958    30901    30848    30803    30762    30725 
   30693    30662    30631    30601    30577    30562    30556    30551 
   30546    30546    30550    30559    30575    30600    30634    30668 
   30700    30733    30769    30803    30836    30871    30904    30930 
   30951    30967    30976    30980    30983    30981    30979    30973 
   30955    30928    30903    30876    30845    30814    30784    30749 
   30706    30660    30615    30572    30531    30489    30443    30395 
   30341    30281    30221    30160    30091    30015    29937    29857 
   29772    29688    29605    29518    29432    29347    29256    29164 
   29075    28987    28901    28817    28732    28647    28564    28484 
   28408    28334    28263    28193    28123    28056    27990    27923 
   27860    27803    27749    27693    27639    27591    27545    27504 
   27468    27432    27398    27367    27340    27318    27303    27297 
   27296    27301    27310    27322    27340    27365    27396    27428 
   27464    27501    27540    27583    27632    27682    27731    27778 
   27822    27860    27894    27921    27938    27953    27964    27965 
   27962    27952    27929    27905    27880    27846    27807    27764 
   27708    27645    27580    27504    27425    27350    27268    27178 
   27084    26986    26885    26780    26666    26548    26430    26305 
   26175    26047    25916    25785    25657    25525    25387    25244 
   25102    24961    24819    24680    24542    24398    24254    24112 
   23968    23826    23688    23556    23432    23313    23199    23090 
   22988    22892    22798    22705    22614    22524    22440    22361 
   22288    22218    22150    22082    22013    21941    21871    21803 
   21732    21660    21590    21519    21446    21368    21287    21207 
   21129    21052    20972    20889    20807    20722    20637    20552 
   20464    20376    20289    20200    20110    20025    19944    19865 
   19791    19720    19650    19579    19513    19453    19398    19350 
   19312    19278    19247    19220    19198    19182    19177    19183 
   19199    19225    19256    19291    19334    19389    19453    19524 
   19599    19673    19746    19818    19887    19962    20044    20122 
   20197    20267    20336    20404    20470    20535    20602    20665 
   20724    20781    20831    20875    20923    20973    21014    21050 
   21088    21123    21152    21186    21223    21256    21296    21337 
   21377    21417    21460    21507    21556    21606    21657    21705 
   21749    21794    21836    21879    21924    21964    21998    22035 
   22066    22093    22123    22152    22183    22217    22248    22278 
   22312    22352    22394    22442    22495    22548    22605    22672 
   22741    22810    22889    22973    23055    23137    23221    23303 
   23385    23468    23550    23634    23720    23797    23869    23940 
   24003    24061    24123    24182    24229    24269    24306    24337 
   24362    24385    24407    24425    24437    24443    24446    24444 
   24438    24430    24421    24403    24379    24349    24310    24269 
   24233    24192    24147    24100    24049    23995    23942    23890 
   23840    23792    23742    23691    23640    23589    23539    23491 
   23445    23400    23357    23316    23272    23224    23179    23131 
   23084    23041    22995    22944    22896    22852    22809    22773 
   22740    22707    22675    22649    22628    22610    22601    22598 
   22594    22593    22597    22603    22613    22629    22645    22662 
   22686    22711    22735    22765    22797    22833    22875    22916 
   22955    22998    23041    23086    23133    23181    23232    23287 
   23342    23397    23457    23519    23578    23640    23713    23786 
   23851    23916    23983    24050    24118    24187    24251    24311 
   24374    24437    24502    24571    24641    24707    24767    24824 
   24881    24932    24982    25030    25075    25118    25157    25189 
   25222    25255    25288    25326    25365    25400    25434    25470 
   25502    25535    25575    25610    25633    25657    25681    25698 
   25712    25726    25735    25736    25730    25721    25709    25689 
   25666    25646    25622    25592    25563    25533    25501    25472 
   25448    25424    25399    25374    25349    25323    25300    25282 
   25261    25237    25213    25185    25157    25139    25126    25110 
   25095    25077    25053    25031    25017    25005    24996    24995 
   24996    24995    24996    24999    25003    25014    25033    25049 
   25066    25082    25091    25099    25112    25122    25126    25125 
   25119    25109    25096    25081    25061    25035    25006    24970 
   24923    24872    24814    24750    24685    24619    24546    24472 
   24398    24318    24233    24150    24069    23989    23910    23828 
   23743    23661    23581    23502    23423    23344    23266    23190 
   23112    23038    22968    22897    22829    22764    22697    22625 
   22552    22487    22431    22379    22327    22281    22236    22192 
   22153    22120    22091    22067    22048    22033    22020    22015 
   22019    22030    22049    22073    22105    22141    22179    22224 
   22275    22331    22391    22456    22523    22591    22665    22742 
   22819    22900    22980    23061    23144    23230    23313    23396 
   23481    23565    23649    23735    23822    23912    24009    24106 
   24200    24301    24404    24505    24610    24720    24833    24948 
   25064    25177    25289    25400    25508    25611    25707    25800 
   25887    25969    26043    26108    26163    26213    26256    26291 
   26320    26341    26352    26358    26359    26352    26342    26331 
   26312    26287    26262    26237    26205    26170    26136    26100 
   26064    26032    26001    25969    25941    25915    25889    25868 
   25849    25829    25813    25799    25785    25775    25767    25759 
   25753    25750    25748    25749    25751    25752    25757    25766 
   25775    25783    25793    25804    25814    25825    25836    25841 
   25846    25855    25859    25858    25861    25867    25877    25890 
   25904    25917    25932    25950    25966    25984    26008    26033 
   26059    26094    26131    26168    26211    26263    26317    26373 
   26432    26492    26551    26616    26683    26748    26814    26880 
   26943    27005    27065    27120    27174    27228    27272    27310 
   27348    27379    27406    27430    27447    27459    27472    27480 
   27481    27480    27476    27463    27445    27422    27395    27366 
   27333    27292    27248    27200    27147    27090    27030    26969 
   26906    26840    26773    26702    26630    26561    26493    26422 
   26353    26287    26224    26162    26105    26052    26004    25959 
   25919    25886    25859    25834    25813    25801    25795    25793 
   25791    25789    25792    25799    25804    25808    25814    25819 
   25816    25808    25806    25804    25793    25782    25769    25750 
   25729    25704    25675    25648    25615    25574    25530    25487 
   25438    25379    25317    25255    25192    25120    25043    24963 
   24881    24800    24720    24642    24566    24478    24385    24301 
   24223    24141    24050    23957    23865    23779    23696    23612 
   23527    23451    23377    23302    23235    23173    23111    23050 
   22995    22944    22895    22849    22805    22760    22717    22676 
   22635    22594    22555    22515    22473    22438    22404    22368 
   22338    22313    22287    22266    22255    22245    22236    22235 
   22237    22242    22255    22281    22313    22353    22403    22455 
   22511    22576    22647    22723    22806    22891    22978    23069 
   23165    23265    23370    23479    23593    23709    23828    23949 
   24069    24191    24318    24445    24574    24704    24837    24970 
