Origin Time       2011/03/11 14:46:00
Lat.              38.103
Long.             142.860
Depth. (km)       24
Mag.              9.0
Station Code      HKD034
Station Lat.      43.8543
Station Long.     142.7686
Station Height(m) 350
Record Time       2011/03/11 14:49:22
Sampling Freq(Hz) 100Hz
Duration Time(s)  131
Dir.              U-D
Scale Factor      3920(gal)/6182761
Max. Acc. (gal)   2.043
Last Correction   2011/03/11 14:49:07
Memo.             
[...]
    6775     6810     6859     6925     6990     7049     7102     7131 
    7118     7065     6990     6915     6860     6821     6785     6761 
    6741     6705     6651     6599     6577     6600     6654     6721 
    6775     6795     6795     6799     6803     6790     6766     6756 
    6772     6797     6808     6797     6771     6753     6760     6795 
    6838     6865     6872     6870     6853     6826     6827     6877 
    6962     7052     7143     7257     7402     7548     7656     7702 
    7704     7688     7659     7613     7545     7451     7309     7100 
    6859     6652     6507     6426     6400     6404     6398     6369 
    6352     6381     6432     6460     6463     6470     6493     6531 
    6569     6589     6608     6641     6654     6631     6596     6586 
    6626     6707     6784     6838     6895     6977     7065     7129 
    7168     7210     7271     7329     7373     7419     7485     7570 
    7646     7690     7698     7675     7645     7633     7646     7659 
    7656     7652     7662     7676     7668     7620     7553     7503 
    7481     7456     7392     7303     7231     7192     7170     7151 
    7146     7154     7129     7068     7012     6969     6925     6866 
    6776     6651     6516     6402     6319     6259     6205     6137 
    6046     5974     5959     5978     5990     5988     5971     5917 
    5816     5705     5608     5502     5381     5261     5149     5062 
    5025     5015     4994     4971     5000     5103     5237     5348 
    5430     5511     5605     5697     5780     5853     5914     5973 
    6041     6100     6123     6118     6123     6152     6185     6200 
    6186     6130     6051     5973     5885     5777     5665     5571 
    5500     5454     5444     5473     5523     5582     5649     5742 
    5868     6012     6176     6366     6580     6788     6955     7077 
    7174     7244     7276     7280     7283     7315     7402     7536 
    7663     7743     7782     7794     7787     7770     7726     7648 
    7559     7479     7437     7444     7467     7478     7482     7489 
    7494     7500     7516     7525     7515     7501     7472     7404 
    7297     7182     7107     7094     7130     7179     7200     7185 
    7144     7089     7033     6983     6938     6889     6825     6745 
    6675     6641     6628     6592     6530     6471     6438     6442 
    6466     6477     6470     6470     6488     6496     6471     6419 
    6357     6320     6334     6371     6391     6388     6370     6325 
    6242     6134     6019     5895     5768     5657     5588     5577 
    5622     5694     5745     5744     5709     5687     5697     5707 
    5687     5647     5628     5641     5676     5739     5830     5931 
    6010     6046     6030     5958     5850     5756     5726     5783 
    5905     6037     6154     6269     6398     6531     6643     6726 
    6784     6810     6827     6869     6925     6969     7007     7062 
    7137     7202     7243     7276     7325     7412     7527     7640 
    7735     7823     7932     8068     8200     8306     8386     8447 
    8480     8474     8428     8345     8251     8178     8118     8032 
    7909     7783     7674     7568     7445     7316     7218     7183 
    7193     7207     7206     7188     7142     7081     7034     7000 
    6945     6846     6712     6574     6452     6341     6230     6139 
    6103     6130     6177     6190     6161     6099     6008     5893 
    5780     5698     5661     5654     5652     5663     5699     5739 
    5756     5746     5730     5746     5813     5899     5950     5954 
    5940     5926     5905     5843     5732     5603     5483     5389 
    5339     5325     5329     5360     5436     5549     5680     5824 
    5964     6051     6046     5970     5883     5822     5792     5778 
    5757     5718     5669     5601     5495     5368     5248     5168 
    5145     5161     5161     5120     5067     5037     5020     4997 
    4968     4944     4938     4951     4960     4951     4938     4937 
    4965     5018     5068     5103     5138     5184     5240     5293 
    5330     5347     5374     5442     5536     5611     5664     5707 
    5723     5702     5650     5589     5550     5543     5564     5613 
    5681     5748     5803     5869     5974     6111     6236     6329 
    6395     6443     6503     6614     6777     6941     7062     7156 
    7263     7367     7424     7421     7377     7318     7271     7262 
    7290     7314     7309     7280     7230     7155     7061     6963 
    6879     6806     6726     6632     6517     6377     6235     6131 
    6079     6069     6083     6102     6119     6143     6181     6246 
    6340     6433     6515     6613     6740     6871     6981     7067 
    7148     7238     7318     7350     7324     7269     7192     7082 
    6943     6775     6592     6435     6321     6230     6149     6091 
    6073     6080     6088     6093     6114     6168     6234     6289 
    6338     6391     6437     6458     6453     6437     6416     6384 
    6345     6316     6310     6308     6286     6256     6260     6311 
    6396     6490     6579     6665     6746     6817     6869     6895 
    6895     6878     6850     6820     6793     6775     6757     6729 
    6712     6734     6784     6825     6835     6827     6815     6793 
    6766     6762     6792     6834     6857     6860     6867     6901 
    6944     6969     6962     6911     6842     6802     6810     6852 
    6894     6919     6934     6941     6946     6949     6954     6956 
    6927     6856     6764     6661     6554     6456     6368     6278 
    6189     6109     6054     6051     6090     6120     6105     6053 
    5990     5934     5891     5848     5795     5745     5714     5720 
    5755     5779     5777     5749     5698     5625     5526     5417 
    5327     5268     5240     5217     5183     5153     5130     5106 
    5064     5015     4992     5012     5075     5179     5297     5385 
    5424     5426     5414     5378     5299     5198     5114     5055 
    5015     5005     5023     5045     5051     5036     5016     5035 
    5106     5198     5275     5328     5371     5416     5449     5444 
    5388     5300     5210     5146     5108     5080     5076     5128 
    5235     5349     5427     5466     5485     5493     5494     5496 
    5512     5541     5574     5602     5614     5611     5605     5571 
    5492     5392     5307     5256     5225     5198     5182     5190 
    5224     5268     5295     5302     5323     5402     5541     5675 
    5742     5745     5742     5779     5866     5985     6110     6228 
    6342     6438     6498     6523     6527     6516     6494     6468 
    6451     6457     6481     6509     6532     6549     6565     6595 
    6654     6727     6776     6786     6780     6789     6821     6862 
    6902     6941     6975     6998     7016     7053     7104     7133 
    7126     7108     7106     7121     7133     7120     7090     7065 
    7063     7094     7154     7215     7238     7221     7196     7186 
    7189     7186     7150     7077     6999     6943     6901     6842 
    6782     6762     6783     6803     6790     6756     6733     6730 
    6739     6735     6707     6673     6653     6647     6642     6635 
    6647     6686     6731     6765     6790     6821     6879     6970 
    7072     7163     7230     7290     7363     7432     7465     7461 
    7456     7479     7518     7560     7606     7662     7747     7865 
    7998     8128     8236     8307     8343     8341     8304     8248 
    8170     8077     7999     7935     7861     7763     7660     7560 
    7450     7333     7235     7168     7110     7042     6970     6916 
    6886     6875     6883     6917     6963     6994     6996     6981 
    6972     6991     7049     7136     7224     7279     7298     7309 
    7323     7330     7328     7321     7295     7242     7190     7185 
    7232     7281     7292     7272     7245     7224     7204     7173 
    7114     7035     6965     6899     6808     6681     6524     6359 
    6203     6058     5919     5785     5657     5536     5414     5300 
    5231     5209     5198     5187     5179     5158     5113     5046 
    4962     4879     4807     4738     4656     4547     4413     4282 
    4170     4083     4020     3972     3933     3895     3849     3794 
    3719     3619     3513     3419     3349     3303     3267     3251 
    3261     3287     3330     3405     3509     3612     3702     3793 
    3880     3945     3983     3994     3987     3979     3988     4028 
    4079     4111     4123     4137     4160     4199     4254     4338 
    4462     4612     4784     4980     5190     5403     5605     5789 
    5946     6058     6124     6164     6183     6185     6193     6216 
    6238     6225     6172     6113     6071     6044     6033     6027 
    6017     6012     6025     6066     6120     6150     6153     6160 
    6187     6238     6304     6379     6465     6546     6593     6591 
    6552     6509     6480     6459     6446     6451     6491     6576 
    6699     6828     6942     7034     7096     7129     7155     7194 
    7233     7242     7221     7198     7190     7190     7181     7156 
    7113     7077     7066     7073     7095     7116     7117     7108 
    7115     7149     7206     7274     7339     7388     7441     7515 
    7582     7601     7594     7611     7655     7700     7738     7795 
    7877     7962     8052     8166     8292     8402     8457     8446 
    8390     8306     8220     8147     8060     7925     7747     7566 
    7419     7309     7217     7137     7080     7051     7046     7045 
    7033     7009     6977     6936     6882     6824     6794     6797 
    6822     6862     6910     6954     6982     7000     7030     7084 
    7148     7209     7257     7297     7340     7387     7443     7513 
    7582     7634     7651     7610     7516     7405     7289     7161 
    7032     6919     6829     6757     6705     6680     6686     6707 
    6714     6698     6684     6693     6706     6704     6696     6692 
    6685     6676     6676     6681     6696     6725     6777     6839 
    6883     6901     6903     6902     6913     6923     6915     6896 
    6886     6901     6950     7015     7061     7076     7081     7097 
    7118     7144     7177     7212     7239     7245     7228     7201 
    7183     7189     7207     7194     7133     7070     7045     7043 
    7036     7019     6990     6973     6985     7004     6999     6981 
    6964     6947     6935     6936     6947     6952     6928     6861 
    6765     6682     6626     6581     6542     6510     6480     6430 
    6354     6261     6156     6045     5939     5845     5757     5679 
    5612     5550     5494     5452     5413     5367     5329     5305 
    5274     5227     5187     5189     5241     5312     5373     5418 
    5459     5514     5588     5673     5761     5829     5869     5909 
    5980     6073     6161     6229     6286     6342     6400     6479 
    6590     6712     6815     6899     6993     7107     7228     7337 
    7423     7500     7596     7705     7794     7857     7906     7952 
    7988     8012     8031     8061     8113     8176     8237     8297 
    8352     8390     8410     8420     8417     8402     8396     8420 
    8470     8539     8618     8697     8777     8856     8929     8977 
    8973     8932     8892     8862     8834     8815     8821     8852 
    8878     8857     8784     8675     8542     8403     8267     8105 
    7896     7675     7492     7357     7261     7189     7122     7047 
    6963     6881     6812     6737     6635     6504     6347     6177 
    6020     5891     5785     5690     5602     5514     5433     5379 
    5362     5371     5385     5386     5380     5392     5430     5488 
    5549     5594     5616     5622     5648     5691     5712     5697 
    5670     5642     5604     5558     5526     5522     5542     5566 
    5563     5520     5465     5441     5453     5449     5387     5287 
    5180     5087     5015     4951     4888     4845     4855     4937 
    5066     5183     5265     5327     5375     5419     5470     5522 
    5545     5523     5477     5441     5449     5515     5601     5674 
    5737     5791     5832     5843     5819     5767     5702     5648 
    5624     5620     5612     5584     5560     5565     5571     5543 
    5498     5450     5389     5318     5253     5207     5195     5213 
    5237     5264     5294     5323     5351     5378     5385     5363 
    5336     5322     5311     5307     5326     5349     5364     5373 
    5368     5348     5330     5336     5381     5454     5535     5601 
    5638     5654     5660     5661     5657     5653     5653     5660 
    5696     5773     5874     5977     6059     6095     6088     6057 
    6014     5975     5953     5952     5986     6049     6109     6160 
    6217     6286     6360     6430     6488     6535     6579     6620 
    6660     6707     6769     6837     6890     6930     6980     7065 
    7190     7321     7428     7505     7579     7687     7830     7972 
    8094     8184     8238     8281     8345     8429     8516     8589 
    8635     8654     8673     8715     8780     8865     8967     9064 
    9139     9214     9317     9443     9553     9610     9614     9595 
    9583     9580     9579     9581     9579     9549     9496     9468 
    9493     9548     9601     9626     9611     9569     9533     9511 
    9482     9419     9318     9200     9078     8953     8833     8721 
    8593     8434     8274     8142     8029     7917     7804     7688 
    7573     7477     7399     7327     7262     7197     7131     7070 
    7013     6961     6913     6852     6759     6640     6508     6378 
    6282     6225     6168     6087     5977     5838     5688     5539 
    5385     5220     5046     4903     4819     4785     4795     4837 
    4879     4912     4958     5032     5110     5165     5203     5247 
    5288     5306     5306     5308     5316     5313     5297     5279 
    5267     5263     5266     5258     5238     5217     5195     5184 
    5193     5209     5234     5267     5294     5324     5362     5402 
    5431     5432     5400     5363     5335     5307     5269     5225 
    5176     5141     5134     5153     5202     5273     5350     5428 
    5490     5508     5486     5465     5476     5510     5549     5575 
    5585     5602     5639     5684     5737     5790     5833     5861 
    5876     5891     5920     5951     5974     5991     6006     6032 
    6088     6171     6265     6350     6416     6470     6518     6563 
    6603     6634     6656     6673     6694     6713     6720     6719 
    6717     6702     6669     6636     6617     6610     6622     6678 
    6770     6853     6904     6941     6973     6995     7000     6992 
    6992     7009     7043     7097     7156     7189     7185     7158 
    7122     7081     7036     6982     6926     6887     6876     6888 
    6917     6950     6971     6968     6948     6930     6922     6924 
    6922     6919     6929     6940     6935     6923     6924     6955 
    7011     7057     7081     7092     7092     7075     7043     7005 
    6968     6923     6862     6802     6769     6754     6722     6656 
    6566     6479     6422     6390     6378     6408     6492     6605 
    6714     6804     6874     6934     6997     7075     7169     7265 
    7345     7410     7473     7542     7609     7642     7633     7609 
    7598     7586     7546     7475     7396     7327     7266     7220 
    7194     7179     7164     7162     7180     7202     7211     7201 
    7175     7149     7130     7104     7070     7043     7022     6990 
    6935     6857     6778     6720     6687     6659     6610     6529 
    6419     6298     6195     6117     6052     5999     5957     5934 
    5950     5997     6043     6071     6099     6137     6159     6152 
    6139     6142     6156     6181     6227     6294     6365     6416 
    6430     6416     6382     6331     6291     6289     6316     6340 
    6339     6317     6300     6308     6339     6380     6416     6428 
    6417     6396     6376     6370     6362     6325     6272     6243 
    6250     6272     6290     6310     6345     6391     6435     6476 
    6528     6604     6701     6805     6892     6964     7043     7133 
    7225     7319     7411     7487     7545     7582     7596     7590 
    7568     7539     7508     7481     7470     7474     7469     7445 
    7428     7444     7498     7583     7677     7764     7849     7919 
    7936     7898     7846     7825     7842     7875     7893     7859 
    7775     7668     7537     7385     7238     7095     6961     6857 
    6804     6808     6837     6858     6866     6866     6855     6837 
    6815     6778     6711     6616     6511     6413     6337     6289 
    6253     6211     6155     6085     6026     5988     5959     5935 
    5915     5890     5863     5851     5863     5886     5895     5891 
    5901     5933     5971     6003     6022     6018     6006     6018 
    6057     6103     6149     6205     6265     6303     6317     6329 
    6354     6391     6436     6485     6535     6587     6644     6690 
    6707     6696     6645     6551     6441     6337     6246     6164 
    6073     5952     5802     5655     5524     5382     5219     5058 
    4920     4818     4762     4760     4793     4825     4829     4820 
    4831     4882     4960     5036     5088     5112     5113     5117 
    5146     5197     5258     5337     5446     5595     5782     5968 
    6117     6222     6300     6383     6496     6620     6744     6883 
    7026     7143     7244     7355     7481     7617     7744     7841 
    7910     7970     8046     8148     8255     8317     8324     8304 
    8275     8243     8209     8155     8076     7989     7898     7810 
    7731     7646     7536     7387     7221     7071     6944     6828 
    6710     6595     6502     6439     6401     6375     6340     6285 
    6226     6179     6155     6162     6194     6233     6272     6313 
    6364     6424     6478     6512     6528     6530     6515     6485 
    6452     6419     6389     6369     6361     6351     6323     6279 
    6240     6213     6185     6159     6142     6129     6114     6095 
    6072     6038     5979     5894     5799     5708     5620     5523 
    5440     5414     5444     5487     5505     5490     5464     5448 
    5433     5412     5392     5377     5377     5394     5408     5406 
    5393     5372     5343     5313     5285     5266     5272     5292 
    5296     5285     5271     5258     5258     5271     5285     5311 
    5353     5399     5453     5500     5524     5552     5594     5638 
    5670     5692     5726     5786     5875     5997     6135     6257 
    6349     6405     6424     6416     6404     6405     6416     6418 
    6401     6356     6285     6215     6154     6099     6065     6057 
    6064     6074     6071     6050     6015     5985     5960     5920 
    5854     5771     5681     5584     5482     5388     5323     5299 
    5281     5233     5164     5097     5040     4989     4950     4929 
    4912     4898     4904     4919     4929     4942     4975     5021 
