Origin Time       2011/03/11 14:46:00
Lat.              38.103
Long.             142.860
Depth. (km)       24
Mag.              9.0
Station Code      HKD034
Station Lat.      43.8543
Station Long.     142.7686
Station Height(m) 350
Record Time       2011/03/11 14:49:22
Sampling Freq(Hz) 100Hz
Duration Time(s)  131
Dir.              N-S
Scale Factor      3920(gal)/6182761
Max. Acc. (gal)   1.757
Last Correction   2011/03/11 14:49:07
Memo.             
[...]
   92762    92744    92716    92675    92600    92481    92344    92214 
   92094    91994    91920    91858    91795    91729    91657    91564 
   91442    91291    91125    90972    90849    90765    90718    90682 
   90648    90632    90623    90594    90545    90488    90423    90347 
   90268    90189    90110    90024    89928    89838    89768    89707 
   89650    89607    89562    89504    89442    89391    89367    89382 
   89426    89481    89535    89581    89606    89619    89641    89686 
   89763    89862    89967    90074    90176    90279    90392    90509 
   90627    90745    90848    90926    90983    91017    91028    91026 
   91027    91040    91071    91116    91182    91262    91341    91413 
   91483    91547    91600    91637    91653    91646    91611    91541 
   91448    91352    91259    91183    91141    91142    91179    91230 
   91276    91298    91291    91266    91226    91168    91097    91016 
   90932    90865    90825    90800    90775    90744    90699    90641 
   90582    90531    90486    90454    90443    90452    90485    90534 
   90579    90608    90626    90633    90617    90577    90537    90513 
   90501    90501    90516    90546    90587    90638    90695    90755 
   90815    90847    90841    90823    90805    90783    90766    90765 
   90776    90789    90797    90794    90773    90727    90662    90601 
   90557    90533    90536    90563    90604    90663    90748    90854 
   90973    91095    91202    91271    91297    91286    91238    91163 
   91091    91029    90975    90934    90907    90892    90881    90870 
   90873    90880    90878    90874    90869    90856    90844    90852 
   90880    90931    90992    91046    91088    91106    91090    91044 
   90975    90891    90810    90745    90700    90681    90680    90670 
   90632    90574    90510    90440    90374    90328    90304    90306 
   90338    90386    90426    90435    90407    90352    90264    90134 
   89977    89812    89646    89496    89384    89311    89265    89237 
   89234    89253    89267    89268    89262    89240    89194    89141 
   89098    89072    89066    89075    89087    89101    89110    89107 
   89098    89086    89071    89060    89050    89038    89025    89010 
   88979    88922    88855    88793    88736    88691    88673    88688 
   88734    88809    88917    89053    89203    89357    89501    89627 
   89730    89794    89822    89846    89887    89931    89970    90019 
   90088    90169    90252    90317    90354    90372    90379    90385 
   90407    90448    90514    90617    90740    90858    90957    91035 
   91109    91193    91281    91367    91441    91498    91534    91550 
   91551    91556    91576    91607    91650    91700    91745    91791 
   91833    91845    91816    91754    91667    91555    91430    91302 
   91179    91074    90988    90919    90865    90818    90780    90764 
   90768    90775    90782    90797    90826    90866    90908    90950 
   90981    90988    90976    90962    90950    90954    90974    90999 
   91039    91091    91142    91194    91244    91279    91301    91312 
   91312    91300    91265    91213    91155    91086    91021    90987 
   90988    91024    91096    91188    91284    91368    91418    91425 
   91400    91357    91312    91276    91247    91227    91222    91226 
   91227    91213    91184    91149    91114    91075    91031    90989 
   90934    90860    90779    90703    90628    90536    90435    90349 
   90280    90238    90240    90273    90308    90332    90360    90403 
   90450    90479    90487    90480    90453    90395    90316    90245 
   90198    90171    90159    90166    90199    90258    90330    90391 
   90417    90408    90363    90277    90159    90037    89934    89876 
   89874    89915    89984    90079    90189    90286    90353    90392 
   90408    90416    90431    90458    90491    90526    90559    90586 
   90600    90589    90560    90533    90512    90502    90506    90516 
   90528    90542    90548    90544    90537    90535    90530    90513 
   90495    90479    90465    90461    90473    90513    90592    90697 
   90813    90931    91034    91119    91193    91263    91332    91398 
   91455    91488    91492    91478    91460    91455    91474    91512 
   91559    91609    91645    91662    91669    91675    91690    91731 
   91799    91886    92000    92126    92236    92323    92368    92357 
   92309    92250    92190    92133    92088    92066    92058    92052 
   92039    92016    91995    91968    91910    91818    91707    91597 
   91507    91418    91312    91220    91167    91132    91103    91067 
   91009    90918    90790    90619    90414    90201    90005    89830 
   89680    89557    89454    89362    89264    89148    89020    88895 
   88783    88682    88597    88539    88512    88513    88534    88571 
   88626    88686    88731    88754    88761    88756    88749    88756 
   88784    88836    88910    88994    89082    89173    89250    89315 
   89390    89488    89610    89763    89953    90166    90377    90578 
   90753    90876    90931    90923    90886    90845    90800    90762 
   90745    90748    90780    90848    90940    91047    91162    91271 
   91372    91451    91493    91507    91502    91478    91439    91392 
   91353    91339    91359    91416    91490    91546    91568    91564 
   91527    91451    91351    91247    91136    91034    90955    90886 
   90826    90801    90818    90872    90958    91058    91146    91206 
   91248    91284    91310    91335    91380    91437    91481    91506 
   91515    91491    91413    91297    91171    91056    90968    90919 
   90916    90955    91002    91031    91035    90996    90914    90812 
   90715    90628    90530    90410    90282    90158    90031    89907 
   89806    89733    89681    89631    89574    89512    89445    89373 
   89301    89250    89227    89206    89179    89157    89143    89132 
   89132    89142    89159    89187    89234    89299    89390    89526 
   89698    89882    90068    90241    90386    90501    90582    90623 
   90636    90652    90691    90761    90870    91027    91226    91442 
   91653    91852    92029    92176    92289    92373    92444    92502 
   92530    92529    92509    92477    92437    92397    92371    92367 
   92387    92439    92513    92596    92683    92760    92798    92793 
   92755    92685    92590    92467    92314    92143    91958    91769 
   91602    91459    91316    91179    91055    90931    90806    90694 
   90599    90526    90484    90467    90449    90423    90390    90347 
   90290    90235    90196    90174    90159    90154    90163    90182 
   90203    90235    90291    90364    90435    90492    90519    90499 
   90446    90387    90320    90249    90186    90131    90094    90082 
   90095    90131    90176    90207    90219    90226    90243    90269 
   90301    90335    90361    90388    90445    90534    90636    90739 
   90830    90898    90950    90993    91023    91033    91031    91034 
   91046    91070    91113    91159    91183    91178    91140    91068 
   90963    90845    90729    90622    90527    90441    90354    90267 
   90192    90133    90089    90064    90052    90036    90010    89978 
   89937    89887    89846    89827    89829    89851    89899    89985 
   90097    90192    90245    90261    90242    90186    90122    90083 
   90068    90063    90069    90084    90104    90127    90145    90155 
   90156    90146    90141    90157    90183    90203    90218    90231 
   90244    90253    90253    90249    90249    90263    90305    90381 
   90485    90604    90721    90825    90901    90922    90890    90836 
   90771    90697    90627    90561    90489    90416    90340    90257 
   90184    90136    90103    90078    90068    90068    90065    90058 
   90050    90045    90040    90036    90036    90040    90042    90049 
   90069    90094    90111    90122    90127    90115    90099    90092 
   90094    90110    90141    90175    90202    90221    90230    90233 
   90239    90254    90284    90346    90436    90536    90632    90711 
   90760    90783    90789    90785    90782    90785    90795    90813 
   90833    90861    90910    90973    91033    91096    91153    91178 
   91163    91115    91045    90968    90897    90843    90804    90777 
   90775    90811    90874    90946    91029    91122    91207    91259 
   91269    91240    91185    91131    91114    91148    91224    91331 
   91449    91558    91639    91671    91645    91584    91513    91441 
   91394    91396    91432    91484    91552    91627    91683    91703 
   91675    91607    91530    91451    91371    91320    91315    91346 
   91410    91495    91573    91618    91613    91562    91473    91356 
   91243    91161    91107    91086    91109    91166    91246    91343 
   91436    91508    91556    91582    91599    91629    91668    91689 
   91686    91671    91632    91572    91525    91499    91480    91474 
   91486    91512    91561    91620    91675    91740    91811    91873 
   91930    91982    92024    92069    92133    92222    92316    92389 
   92443    92478    92483    92460    92416    92357    92290    92216 
   92149    92098    92044    91966    91871    91769    91655    91532 
   91406    91278    91148    91026    90920    90838    90787    90776 
   90807    90871    90938    90982    90984    90941    90883    90833 
   90793    90772    90785    90829    90883    90927    90966    91001 
   91015    91001    90963    90898    90815    90730    90648    90574 
   90503    90431    90362    90298    90249    90228    90228    90241 
   90255    90256    90237    90209    90188    90169    90139    90092 
   90037    89988    89957    89953    89977    90023    90087    90169 
   90257    90339    90408    90456    90467    90436    90386    90336 
   90288    90255    90248    90264    90294    90327    90354    90378 
   90401    90409    90393    90355    90298    90222    90133    90043 
   89961    89895    89860    89850    89850    89856    89867    89898 
   89953    90021    90100    90187    90256    90287    90302    90304 
   90286    90265    90265    90294    90358    90445    90533    90610 
   90673    90709    90710    90686    90657    90655    90687    90739 
   90805    90869    90920    90951    90942    90890    90813    90726 
   90649    90590    90546    90508    90484    90488    90514    90570 
   90671    90806    90955    91116    91289    91457    91596    91696 
   91748    91768    91774    91763    91735    91704    91672    91636 
   91593    91536    91471    91400    91311    91191    91045    90892 
   90743    90598    90462    90352    90289    90278    90307    90365 
   90436    90500    90539    90536    90494    90426    90348    90272 
   90215    90195    90218    90275    90351    90424    90479    90511 
   90516    90498    90471    90447    90438    90453    90491    90554 
   90638    90726    90812    90903    90998    91084    91152    91208 
   91257    91308    91368    91420    91451    91474    91495    91511 
   91521    91518    91487    91442    91412    91408    91431    91501 
   91638    91831    92050    92268    92462    92614    92708    92751 
   92759    92734    92692    92660    92635    92604    92576    92555 
   92541    92533    92530    92521    92504    92481    92453    92422 
   92394    92367    92338    92311    92280    92242    92200    92164 
   92146    92155    92180    92215    92257    92301    92353    92432 
   92535    92639    92739    92831    92905    92960    92993    92993 
   92959    92901    92836    92781    92740    92711    92688    92661 
   92630    92601    92580    92572    92572    92572    92574    92573 
   92570    92577    92596    92611    92612    92595    92556    92498 
   92416    92317    92213    92095    91967    91841    91712    91578 
   91453    91349    91263    91189    91123    91066    91004    90919 
   90798    90636    90434    90193    89929    89674    89461    89299 
   89187    89120    89093    89089    89096    89112    89112    89078 
   89020    88944    88849    88741    88629    88516    88413    88351 
   88344    88384    88463    88572    88694    88808    88893    88937 
   88941    88918    88879    88841    88824    88836    88875    88933 
   88986    89033    89094    89170    89251    89332    89412    89486 
   89550    89595    89614    89608    89588    89555    89509    89459 
   89406    89348    89296    89262    89254    89266    89293    89331 
   89376    89434    89528    89645    89753    89838    89906    89946 
   89935    89882    89825    89792    89796    89835    89901    89971 
   90029    90058    90041    89983    89908    89833    89774    89727 
   89678    89627    89578    89524    89457    89381    89308    89248 
   89203    89161    89119    89084    89068    89087    89150    89246 
   89351    89451    89540    89604    89638    89649    89636    89610 
   89605    89635    89702    89807    89939    90070    90185    90279 
   90353    90412    90481    90579    90709    90867    91037    91195 
   91332    91436    91508    91573    91651    91752    91879    92024 
   92164    92276    92365    92447    92530    92614    92695    92778 
   92868    92958    93040    93100    93123    93101    93041    92968 
   92904    92858    92838    92849    92877    92909    92947    92991 
   93043    93105    93170    93239    93313    93384    93453    93520 
   93577    93625    93638    93586    93475    93319    93128    92919 
   92710    92500    92302    92138    92005    91898    91813    91733 
   91654    91586    91533    91501    91488    91491    91494    91476 
   91442    91396    91343    91294    91251    91205    91148    91076 
   90990    90898    90810    90732    90666    90614    90568    90522 
   90477    90430    90369    90300    90245    90217    90217    90245 
   90296    90359    90426    90485    90514    90508    90485    90451 
   90417    90391    90375    90378    90404    90454    90533    90627 
   90725    90833    90947    91052    91144    91236    91321    91370 
   91383    91371    91321    91221    91087    90936    90781    90624 
   90465    90308    90164    90051    89967    89894    89838    89807 
   89791    89781    89769    89758    89761    89782    89824    89879 
   89928    89976    90030    90075    90107    90128    90130    90119 
   90099    90068    90043    90028    90005    89990    90000    90027 
   90061    90103    90164    90253    90369    90510    90672    90841 
   90995    91116    91190    91213    91201    91167    91116    91066 
   91034    91017    91019    91049    91108    91199    91324    91473 
   91613    91729    91839    91952    92049    92111    92153    92193 
   92220    92232    92245    92250    92246    92241    92227    92204 
   92185    92177    92178    92193    92218    92250    92280    92311 
   92347    92373    92390    92411    92439    92474    92510    92535 
   92540    92529    92511    92486    92453    92427    92415    92402 
   92377    92341    92294    92224    92137    92045    91939    91818 
   91697    91579    91474    91399    91346    91290    91217    91116 
   90977    90805    90613    90425    90270    90145    90052    90007 
   89989    89973    89949    89912    89863    89814    89774    89757 
   89767    89792    89832    89895    89976    90054    90112    90168 
   90241    90324    90408    90502    90605    90710    90808    90895 
   90963    90995    91000    91003    91009    91024    91070    91155 
   91282    91447    91627    91803    91967    92099    92191    92264 
   92323    92346    92346    92351    92366    92392    92431    92489 
   92558    92615    92663    92706    92732    92747    92751    92742 
   92731    92716    92686    92638    92587    92549    92528    92517 
   92510    92492    92440    92353    92248    92134    92026    91944 
   91885    91856    91871    91901    91907    91880    91826    91758 
   91695    91637    91577    91521    91484    91453    91410    91364 
   91324    91296    91287    91301    91332    91371    91414    91446 
   91453    91442    91432    91436    91448    91473    91534    91633 
   91733    91811    91874    91926    91965    91991    92001    91988 
   91952    91906    91858    91809    91767    91733    91704    91673 
   91633    91579    91507    91425    91355    91319    91325    91358 
   91402    91458    91506    91515    91481    91415    91336    91275 
   91236    91196    91154    91114    91068    91006    90924    90832 
   90744    90653    90557    90479    90436    90417    90394    90362 
   90325    90273    90193    90089    89966    89825    89666    89504 
   89364    89242    89138    89075    89059    89075    89127    89205 
   89279    89333    89363    89373    89381    89388    89373    89332 
   89276    89207    89141    89087    89037    88982    88932    88905 
   88919    88963    89013    89061    89099    89117    89112    89101 
   89093    89091    89103    89132    89165    89187    89201    89218 
   89249    89298    89348    89392    89434    89470    89492    89488 
   89453    89412    89385    89383    89411    89459    89512    89567 
   89635    89707    89766    89819    89879    89947    90016    90073 
   90111    90133    90143    90140    90142    90167    90204    90246 
   90295    90333    90353    90364    90369    90381    90422    90500 
   90619    90773    90940    91100    91234    91323    91354    91341 
   91306    91265    91229    91217    91236    91285    91359    91443 
   91529    91610    91672    91705    91723    91738    91737    91717 
   91691    91664    91627    91575    91512    91446    91389    91345 
   91320    91324    91366    91449    91567    91700    91824    91898 
   91901    91845    91748    91622    91490    91367    91270    91205 
   91160    91129    91120    91136    91173    91224    91281    91344 
   91415    91495    91586    91685    91779    91851    91898    91924 
   91940    91964    92000    92049    92124    92222    92330    92428 
   92486    92489    92451    92382    92288    92180    92064    91945 
   91836    91734    91636    91560    91523    91518    91530    91559 
   91615    91675    91720    91741    91723    91678    91625    91565 
   91508    91464    91429    91401    91384    91377    91384    91414 
   91463    91510    91544    91563    91567    91560    91555    91555 
   91562    91583    91608    91629    91660    91695    91717    91735 
   91748    91750    91742    91727    91702    91667    91616    91553 
   91497    91465    91463    91482    91521    91588    91676    91761 
   91820    91847    91846    91828    91816    91827    91859    91916 
   92005    92126    92259    92383    92487    92563    92604    92612 
   92606    92596    92575    92545    92517    92498    92493    92493 
   92487    92472    92440    92385    92318    92243    92163    92090 
   92027    91959    91880    91798    91722    91656    91617    91600 
   91584    91563    91539    91502    91438    91345    91223    91087 
   90958    90846    90760    90712    90691    90679    90674    90662 
   90633    90597    90563    90528    90493    90461    90434    90400 
   90345    90277    90206    90132    90053    89970    89893    89836 
