Origin Time       2011/03/11 14:46:00
Lat.              38.103
Long.             142.860
Depth. (km)       24
Mag.              9.0
Station Code      HKD096
Station Lat.      42.6977
Station Long.     143.1357
Station Height(m) 192
Record Time       2011/03/11 14:48:04
Sampling Freq(Hz) 100Hz
Duration Time(s)  300
Dir.              N-S
Scale Factor      3920(gal)/6182761
Max. Acc. (gal)   14.247
Last Correction   2011/03/11 14:47:49
Memo.             
[...]
  -30824   -30107   -29290   -28285   -27811   -28015   -28067   -28084 
  -29258   -31146   -31877   -31173   -30562   -31434   -33975   -37053 
  -38792   -38124   -36167   -35001   -35141   -35557   -35797   -36107 
  -35854   -34360   -32425   -31326   -31130   -31228   -31842   -32794 
  -32804   -31809   -31075   -31265   -31960   -32204   -31335   -29631 
  -28101   -27275   -26527   -25100   -23150   -21321   -20065   -19418 
  -19055   -18665   -18192   -17790   -17617   -17975   -18997   -19884 
  -20019   -19897   -19708   -18640   -16417   -14361   -13590   -13581 
  -13540   -13260   -12825   -12782   -13683   -14909   -15265   -15134 
  -16121   -18387   -20305   -20458   -18907   -17022   -16260   -16742 
  -17252   -16978   -16255   -15337   -14136   -13260   -13751   -15404 
  -16938   -17786   -17772   -16444   -14204   -12297   -11493   -11662 
  -12291   -12713   -12307   -11549   -11647   -12706   -13694   -14144 
  -14656   -15673   -17005   -17977   -17576   -15590   -13251   -12039 
  -11961   -12318   -13290   -14655   -15470   -15801   -16471   -17596 
  -18745   -20259   -22381   -23761   -22931   -20594   -19513   -21230 
  -23936   -25050   -24353   -23687   -24375   -25788   -26767   -27403 
  -28497   -29856   -30622   -30850   -31240   -32150   -33372   -34118 
  -33779   -32564   -31174   -30638   -31464   -32716   -33110   -32393 
  -31410   -31310   -32510   -33884   -33430   -30895   -28720   -28986 
  -30541   -30810   -29405   -27868   -26908   -25874   -24421   -23169 
  -22629   -22605   -22521   -21840   -20574   -19373   -19048   -19946 
  -21312   -21550   -19951   -17599   -16179   -16514   -17949   -18935 
  -18428   -16909   -15915   -15956   -15974   -15372   -14831   -14617 
  -13848   -12112   -10560   -10513   -11536   -12434   -12899   -12662 
  -11379    -9942   -10046   -11790   -13042   -12518   -11662   -12053 
  -13106   -13899   -14663   -15286   -15375   -15470   -16113   -16792 
  -16550   -15178   -13407   -11897   -10590    -9538    -9588   -10760 
  -11000    -8848    -6144    -5723    -7800   -10443   -12163   -12483 
  -11706   -11453   -13025   -15145   -15760   -14841   -13830   -13643 
  -14394   -16080   -18261   -19878   -20155   -19189   -17873   -17303 
  -17950   -19598   -21484   -22643   -22752   -22208   -21815   -22241 
  -23211   -23923   -24297   -25102   -26636   -28199   -29278   -30103 
  -31053   -32313   -33864   -35373   -36354   -36834   -37287   -37705 
  -37658   -37173   -36757   -36805   -37076   -36683   -35392   -34412 
  -34867   -36064   -36438   -35815   -35205   -35236   -35897   -36476 
  -35912   -34182   -32458   -32057   -33217   -34462   -34155   -32270 
  -30163   -29140   -29110   -29216   -29326   -29740   -30457   -31167 
  -31688   -32399   -33619   -34973   -35915   -36289   -36264   -35966 
  -35315   -34343   -33736   -34256   -35399   -35980   -35623   -34817 
  -34191   -33984   -34357   -35549   -37018   -37400   -35844   -33095 
  -30824   -29746   -29098   -27964   -26249   -24386   -22739   -21588 
  -21118   -21241   -21810   -22378   -22050   -20539   -18471   -16552 
  -15086   -14006   -13323   -13094   -12980   -12719   -12386   -11770 
  -10712    -9644    -8754    -8061    -8088    -8755    -9057    -8498 
   -7537    -6783    -6495    -6844    -7656    -8191    -8474    -9207 
  -10076   -10181    -9471    -8830    -9230   -10701   -12214   -12620 
  -11748   -10589   -10223   -10718   -11463   -12349   -13439   -14090 
  -14156   -14442   -15066   -15323   -14937   -14691   -15452   -16768 
  -17650   -17795   -17424   -17060   -17053   -17181   -17461   -18345 
  -19922   -21594   -22253   -21405   -19998   -19294   -19513   -19948 
  -20138   -20279   -20503   -20642   -20600   -20508   -20435   -20284 
  -20293   -20656   -20881   -20535   -20059   -20406   -21739   -22923 
  -22907   -22159   -21794   -21986   -22527   -23180   -23407   -23465 
  -24010   -24518   -24071   -23044   -22553   -22708   -22727   -22570 
  -22841   -23106   -22437   -21123   -20299   -20825   -22543   -24374 
  -25453   -25782   -25795   -25734   -25577   -25483   -26059   -27697 
  -29674   -30626   -30141   -28844   -27372   -26619   -27436   -29341 
  -30903   -31129   -30285   -29170   -27869   -26594   -25885   -25194 
  -23962   -22802   -22088   -21387   -20503   -20111   -20861   -22013 
  -22143   -20931   -19494   -18940   -18829   -18085   -16690   -15250 
  -14123   -13460   -13278   -13468   -13886   -14302   -14236   -13609 
  -13375   -14304   -15715   -16301   -15818   -15136   -14835   -15015 
  -15653   -15980   -15027   -13240   -12278   -13010   -14489   -15311 
  -15076   -14244   -13646   -13901   -14894   -16302   -18004   -19557 
  -20587   -21368   -22209   -23496   -25660   -28077   -29646   -30362 
  -31080   -32342   -33959   -35549   -36857   -37354   -36983   -36628 
  -36492   -36215   -36239   -36788   -37245   -37336   -37202   -36640 
  -35726   -35229   -35402   -35493   -34547   -32602   -30719   -29184 
  -27820   -27227   -27233   -26621   -25147   -23789   -23139   -22788 
  -22289   -21728   -21319   -20965   -20500   -20006   -19607   -19365 
  -18726   -16639   -13561   -11557   -11521   -12264   -12408   -11907 
  -11636   -11733   -11746   -12314   -13935   -15431   -15865   -16091 
  -17370   -19393   -20824   -20976   -20013   -18846   -18480   -18947 
  -19726   -20631   -21842   -23144   -23839   -24023   -24710   -26162 
  -27471   -28021   -28072   -27908   -27570   -27440   -28054   -29001 
  -29203   -28629   -28212   -28094   -27604   -26831   -26386   -26323 
  -26527   -26823   -26935   -26672   -25822   -24581   -23248   -21907 
  -21178   -21513   -22133   -22327   -22497   -23120   -24370   -25804 
  -26317   -26235   -26702   -27110   -26780   -26534   -26733   -26807 
  -26520   -25942   -25232   -24547   -23734   -22905   -22653   -23254 
  -24470   -25292   -24376   -22067   -19783   -17991   -16941   -16863 
  -17051   -16754   -16063   -15403   -14937   -14521   -14031   -13631 
  -13714   -14419   -15391   -16312   -16681   -15935   -14924   -14867 
  -15496   -16173   -16659   -16875   -17041   -17268   -17890   -19433 
  -21144   -21335   -19936   -18668   -18119   -17632   -17658   -18979 
  -20850   -21656   -20960   -19864   -19510   -20628   -23070   -25238 
  -26101   -26362   -26632   -26891   -27398   -27992   -27650   -26411 
  -25751   -26222   -26909   -27285   -27604   -27627   -27163   -26941 
  -27429   -28162   -28358   -27613   -26320   -25551   -26137   -27568 
  -28672   -29073   -28920   -28086   -26866   -26597   -27909   -29284 
  -28927   -27014   -25006   -23831   -23919   -25312   -26801   -27093 
  -26468   -25990   -25864   -25630   -25517   -25570   -25014   -23774 
  -22357   -21223   -20763   -20970   -21576   -21895   -21399   -20734 
  -20673   -21154   -21973   -23155   -24198   -23925   -22295   -20968 
  -20952   -21420   -21386   -20996   -20575   -19824   -18764   -18079 
  -17947   -17973   -18075   -18416   -18876   -19036   -18855   -18718 
  -18609   -18394   -18070   -17228   -15648   -14139   -13561   -13401 
  -12756   -11871   -11471   -11518   -11290   -10596   -10243   -10765 
  -11456   -11687   -12289   -13915   -15310   -15114   -14248   -14424 
  -15738   -17280   -18179   -18115   -17551   -17113   -17080   -17346 
  -17877   -18626   -19191   -19404   -19631   -20080   -20095   -19209 
  -18190   -17771   -17808   -18041   -18599   -19407   -19864   -19490 
  -18312   -17126   -17029   -18070   -19139   -19536   -19980   -21007 
  -21904   -22352   -22657   -22498   -21482   -20629   -21436   -23225 
  -24251   -24381   -24089   -23313   -22021   -20386   -18855   -18073 
  -18218   -18656   -19004   -19647   -20449   -20665   -20421   -20508 
  -20706   -20002   -18620   -17937   -18403   -19138   -18814   -16773 
  -14128   -12596   -12692   -13873   -15432   -16965   -17925   -17815 
  -17079   -16307   -15461   -14747   -14903   -15726   -15851   -14866 
  -13783   -13774   -15173   -17088   -18705   -20227   -21759   -22599 
  -22382   -21778   -21311   -20948   -20792   -20866   -20824   -20396 
  -19857   -19595   -19467   -19303   -19623   -21042   -23261   -25432 
  -26958   -27220   -25981   -24614   -24999   -26758   -27749   -27309 
  -26782   -27309   -28616   -29690   -29852   -29048   -28037   -27982 
  -28637   -28524   -27709   -27678   -28534   -28921   -28201   -27223 
  -27178   -28640   -30998   -32165   -30880   -28563   -27351   -27986 
  -29334   -29347   -27286   -24617   -23437   -24267   -25745   -26765 
  -27817   -29536   -31269   -32052   -32367   -33379   -34816   -35265 
  -33853   -31037   -28314   -27063   -27566   -28702   -28966   -28152 
  -27219   -26902   -27083   -27204   -26918   -26197   -25180   -23932 
  -22557   -21523   -21292   -21734   -21882   -20865   -19268   -18529 
  -19317   -20828   -21367   -20073   -17942   -16911   -17971   -20214 
  -21655   -20878   -18548   -16817   -16675   -17231   -17552   -17896 
  -18859   -19984   -20028   -18275   -15485   -13609   -13796   -15181 
  -16189   -16106   -15393   -15152   -16159   -17695   -17840   -16146 
  -14511   -14326   -14762   -14479   -13384   -12399   -12187   -12396 
  -12367   -12303   -13025   -14707   -16745   -18756   -20426   -21186 
  -21437   -22576   -24926   -26833   -26784   -25573   -24987   -25682 
  -27323   -29249   -30921   -32158   -32885   -33296   -33910   -35180 
  -36896   -38021   -37837   -36634   -35469   -35433   -36328   -36837 
  -36036   -34278   -32631   -31743   -31737   -32428   -33334   -33701 
  -33011   -32079   -32044   -32533   -32586   -32002   -31044   -29972 
  -28967   -28258   -27858   -27495   -26972   -25823   -23623   -20953 
  -18871   -17874   -17550   -17053   -16347   -16145   -16431   -16499 
  -16183   -15851   -15587   -14944   -13695   -12407   -11616   -11271 
  -11157   -10971   -10315    -9154    -8027    -7505    -7528    -7673 
   -7826    -8063    -8186    -7854    -7291    -7219    -7443    -6823 
   -5274    -4031    -3876    -4605    -5678    -6448    -6456    -6067 
   -6095    -6685    -7420    -8256    -9347   -10128    -9891    -9238 
   -9433   -10787   -12780   -14721   -15764   -15317   -13790   -12471 
  -12208   -12676   -13316   -13996   -14504   -14696   -15122   -16354 
  -18113   -19684   -20533   -20584   -20395   -20743   -21831   -23232 
  -24420   -25019   -24734   -23696   -22970   -23537   -24956   -26089 
  -26480   -26389   -26193   -26411   -27311   -28196   -27982   -26538 
  -25374   -26261   -29106   -32174   -34124   -35107   -35894   -36931 
  -38334   -39936   -41495   -42690   -42948   -41804   -39474   -37040 
  -35203   -33405   -31785   -31661   -32891   -33843   -34014   -34354 
  -35077   -35283   -34721   -34090   -34060   -34514   -34745   -34333 
  -33342   -32066   -30512   -28588   -26796   -25625   -25145   -25225 
  -25389   -25267   -25007   -24683   -24071   -23262   -22647   -22591 
  -22969   -22802   -21849   -21079   -20770   -20551   -20451   -20756 
  -21354   -21457   -20595   -19388   -18761   -18867   -19200   -19443 
  -19460   -18898   -17813   -16978   -17163   -18363   -19499   -19686 
  -19288   -19042   -19330   -20350   -22115   -23780   -24113   -23426 
  -23142   -23552   -23776   -23462   -23117   -23091   -23155   -23138 
  -23214   -22967   -21807   -20576   -20597   -21769   -22952   -23541 
  -23607   -23088   -21961   -20426   -18997   -18675   -19701   -20865 
  -21099   -20703   -20367   -19865   -18995   -18539   -18550   -17684 
  -15378   -13016   -12164   -12499   -12644   -11933   -10440    -8905 
   -8288    -8617    -9141    -9407    -9383    -8685    -6903    -4686 
   -3408    -3867    -5297    -6011    -5607    -5402    -6426    -8262 
   -9861   -10869   -11741   -12889   -14220   -14951   -14174   -12211 
  -10709   -11236   -13648   -16051   -17128   -17315   -17497   -18272 
  -19915   -22085   -24096   -25309   -25472   -25115   -25022   -25294 
  -25742   -26349   -26479   -25477   -24189   -23990   -25108   -26626 
  -27516   -27767   -27772   -27176   -26262   -26272   -26916   -27106 
  -27034   -26761   -25762   -24347   -23215   -22351   -21351   -20510 
  -20485   -21154   -22001   -22672   -22868   -22543   -22254   -22747 
  -23644   -24055   -24191   -24400   -24353   -23825   -22964   -22188 
  -21835   -21823   -22017   -22219   -21903   -21055   -20525   -20981 
  -22345   -23931   -24893   -24978   -24627   -24390   -24381   -24243 
  -23872   -23812   -24346   -24842   -24714   -24425   -24693   -25284 
  -25461   -25099   -24754   -24987   -25938   -27303   -28216   -27766 
  -26378   -25567   -26008   -26931   -27038   -25969   -24850   -24499 
  -24257   -23633   -23079   -22735   -22208   -21505   -21346   -21949 
  -22329   -22061   -21834   -22130   -23023   -24190   -25057   -25612 
  -26020   -25944   -25335   -24886   -24989   -25386   -26044   -27273 
  -28800   -29786   -30274   -31163   -32455   -33518   -34370   -34982 
  -34857   -33853   -32525   -31651   -31052   -29985   -28949   -28829 
  -29280   -29641   -29701   -29441   -29057   -28559   -27923   -27663 
  -27585   -26592   -24846   -23510   -22843   -22260   -21320   -20433 
  -20135   -20044   -19806   -19410   -18568   -17543   -16958   -16599 
  -15832   -14365   -12682   -11371   -10002    -8640    -8207    -8239 
   -7861    -7433    -7320    -7295    -7251    -7161    -6476    -4701 
   -2458     -895     -491     -924    -1426    -1263     -368      658 
     942     -279    -2649    -4804    -6040    -6588    -6741    -6908 
   -7590    -8758   -10023   -10960   -10977    -9936    -8664    -8397 
   -9816   -12225   -14342   -15828   -16990   -18035   -19272   -21081 
  -23566   -26148   -27843   -28437   -28543   -28785   -29480   -30511 
  -31504   -32220   -32590   -32409   -31719   -31503   -32608   -34379 
  -35705   -36459   -36883   -36703   -35979   -35630   -36024   -36383 
  -36174   -35628   -34975   -34312   -33753   -33447   -33484   -33632 
  -33647   -33338   -32491   -31366   -30566   -30569   -31105   -31166 
  -30354   -28988   -27558   -26815   -27182   -28247   -28958   -28511 
  -27310   -26192   -25369   -24932   -25183   -25961   -26332   -25440 
  -23702   -22323   -21641   -21123   -20310   -18990   -17169   -15112 
  -13404   -12694   -13012   -13591   -13715   -13647   -14232   -15628 
  -17053   -17626   -17166   -16353   -15764   -15028   -13806   -12881 
  -13076   -13523   -12831   -11224    -9675    -8637    -8288    -8598 
   -9255    -9710    -9616    -9256    -9077    -9203    -9397    -9177 
   -8302    -7304    -7060    -7724    -8686    -9624   -10609   -11398 
  -11894   -12607   -13797   -15085   -16120   -17008   -17768   -18023 
  -17927   -18332   -19359   -20080   -20167   -20351   -20937   -21569 
  -22193   -22873   -23327   -23416   -23430   -23635   -23982   -24349 
  -24671   -24936   -25272   -25770   -26360   -26935   -27472   -27890 
  -27925   -27616   -27432   -27546   -27621   -27463   -27284   -27229 
  -27422   -28164   -29314   -30149   -30295   -30163   -30303   -30700 
  -31000   -31310   -31715   -31672   -31083   -30270   -29036   -27215 
  -25235   -23794   -22919   -21860   -20505   -19611   -19606   -20125 
  -20523   -20491   -19930   -18936   -17992   -17499   -17429   -17382 
  -16869   -15849   -14643   -13337   -11825   -10209    -8806    -8032 
   -7946    -8102    -8105    -7880    -7871    -8409    -9061    -9733 
  -10846   -12413   -14070   -15359   -16105   -16588   -17112   -17393 
  -16878   -15993   -15631   -15697   -15807   -16540   -18679   -21589 
  -23672   -24510   -25058   -26051   -27476   -28995   -30182   -30874 
  -31149   -30691   -29297   -27780   -27215   -27950   -29423   -30870 
  -32030   -32722   -33077   -33966   -35992   -38550   -40198   -40222 
  -39254   -37991   -36533   -35092   -34091   -33306   -32136   -30758 
  -29911   -29535   -28764   -27800   -27824   -28774   -29634   -30151 
  -30620   -30753   -29811   -27816   -25777   -24647   -24291   -23892 
  -23145   -22283   -21884   -22315   -22895   -23200   -23632   -24098 
  -24384   -24713   -25139   -25413   -25251   -24769   -24416   -24222 
  -23894   -23416   -22767   -22043   -21951   -22680   -23458   -24136 
  -25227   -26225   -25913   -24323   -22755   -21848   -21036   -20005 
  -19147   -18281   -16820   -15167   -14149   -13711   -13259   -12613 
  -12248   -12920   -14672   -16407   -16991   -15988   -13902   -12019 
  -11029   -10589    -9929    -8401    -6451    -5288    -5574    -7046 
   -8865   -10311   -11045   -11047   -10738   -10752   -11313   -11913 
  -11994   -11415   -10554   -10244   -10590   -10858   -10534    -9588 
   -8583    -8294    -9214   -11344   -13861   -15770   -16962   -17973 
  -19031   -19983   -20998   -22391   -23756   -24450   -24603   -24534 
  -24318   -24412   -25067   -25684   -25889   -26358   -27770   -29544 
  -30874   -32079   -33475   -34647   -35472   -36174   -36342   -35294 
  -33343   -31425   -30139   -29592   -29215   -28351   -27025   -25642 
  -24649   -24369   -24955   -26022   -26432   -25561   -23954   -22171 
  -20301   -18676   -17889   -17926   -17769   -16417   -14175   -12176 
  -11386   -12416   -14842   -17309   -19050   -20214   -20777   -20544 
  -20330   -21145   -22496   -23264   -23271   -22925   -22332   -21534 
  -20943   -21072   -21939   -22910   -23502   -23838   -24359   -25497 
  -27277   -29342   -31184   -32195   -32057   -31324   -30835   -30498 
  -29803   -28867   -27848   -26390   -24626   -23826   -24837   -26591 
  -27616   -27770   -27373   -26482   -25610   -25503   -26029   -26448 
  -26365   -25811   -24962   -23968   -23062   -22348   -21721   -21583 
  -22091   -22168   -21024   -19547   -19238   -20499   -22229   -22954 
  -22478   -21834   -21638   -21929   -22845   -24421   -26335   -27818 
  -28259   -28033   -27832   -27893   -28126   -28122   -27444   -26118 
  -24793   -24467   -25459   -26888   -27591   -27356   -26932   -27141 
  -28462   -30286   -31238   -30890   -29467   -27141   -24092   -20809 
  -18652   -18021   -17819   -17716   -17725   -17383   -16530   -15554 
  -15199   -15300   -14899   -13921   -12704   -11351    -9783    -7829 
   -6058    -5028    -4358    -3513    -2401    -1377     -517      248 
     683      854      587     -383    -1401    -1684    -1376    -1467 
   -2338    -3141    -3530    -3995    -4581    -5037    -5361    -5690 
   -6377    -7743    -9554   -11248   -12653   -14173   -15803   -17052 
  -18354   -20497   -22956   -24470   -24600   -23954   -23231   -22739 
  -22731   -23526   -25227   -27301   -28812   -29679   -30727   -32479 
  -34692   -36338   -36538   -35826   -35406   -35554   -35608   -35444 
  -35176   -33936   -31664   -29998   -30042   -31674   -34336   -37026 
  -38562   -38817   -38742   -38747   -38681   -38723   -38765   -38422 
  -37836   -37100   -35883   -34533   -34032   -34311   -34344   -34090 
  -34002   -33438   -32267   -31992   -33364   -34852   -34671   -33149 
  -31537   -30094   -29050   -29260   -30688   -31921   -32054   -31499 
  -30528   -29363   -29067   -29835   -30105   -29138   -27928   -26911 
  -25657   -24469   -23945   -23668   -22867   -21701   -20900   -20828 
  -21096   -21023   -20640   -20532   -20787   -20874   -20461   -19458 
  -17682   -15660   -14349   -13520   -12621   -12132   -11853   -10441 
