Origin Time       2011/03/11 14:46:00
Lat.              38.103
Long.             142.860
Depth. (km)       24
Mag.              9.0
Station Code      HKD065
Station Lat.      43.7938
Station Long.     145.0565
Station Height(m) 10
Record Time       2011/03/11 14:48:37
Sampling Freq(Hz) 100Hz
Duration Time(s)  300
Dir.              E-W
Scale Factor      3920(gal)/6182761
Max. Acc. (gal)   6.197
Last Correction   2011/03/11 14:48:22
Memo.             
[...]
   16144    15645    14858    14015    13284    12870    12754    12855 
   13213    13675    13993    14166    14302    14309    13830    12720 
   11521    10961    11181    11796    12337    12484    12220    11824 
   11558    11399    11223    11011    10678    10046     9114     8080 
    7173     6631     6620     7026     7524     7865     8024     8145 
    8281     8279     8010     7611     7485     7934     8865     9948 
   10806    11140    10906    10324     9725     9354     9280     9440 
    9666     9703     9382     8726     7901     7154     6686     6497 
    6498     6773     7354     8056     8809     9538     9854     9496 
    8888     8798     9462    10404    11119    11516    11739    12044 
   12718    13662    14396    14694    14796    15046    15576    16277 
   16988    17507    17513    16972    16424    16434    17108    18119 
   18918    19219    19186    19004    18766    18631    18535    18260 
   17980    18001    18120    17857    17008    15787    14680    14123 
   14227    14667    14870    14664    14411    14359    14386    14309 
   14128    14017    14121    14488    15116    15826    16301    16411 
   16268    15993    15626    15184    14697    14138    13390    12427 
   11420    10672    10410    10495    10611    10726    10948    11225 
   11438    11552    11672    12015    12687    13587    14491    15157 
   15524    15697    15684    15474    15293    15350    15513    15587 
   15576    15416    14964    14316    13756    13479    13455    13538 
   13685    13892    14054    14079    13972    13870    13938    14076 
   14043    13782    13335    12863    12671    12832    13140    13472 
   13839    14241    14572    14685    14554    14283    14102    14176 
   14275    14054    13575    13200    13200    13573    14056    14350 
   14447    14625    15061    15577    15891    15960    15946    16054 
   16335    16617    16783    16921    17095    17289    17556    17996 
   18634    19257    19468    19181    18665    18084    17569    17323 
   17298    17245    17055    16805    16537    16161    15665    15052 
   14244    13468    13180    13374    13678    14006    14420    14705 
   14585    14053    13405    13069    13184    13377    13241    12894 
   12769    13005    13349    13598    13770    13943    14190    14505 
   14828    15267    16029    16962    17596    17718    17514    17206 
   16873    16518    15992    15169    14439    14384    14925    15458 
   15619    15488    15324    15267    15201    14943    14513    14170 
   14103    14033    13392    12010    10295     8750     7655     7054 
    6804     6741     6739     6707     6769     7188     8004     9043 
   10110    10945    11328    11331    11200    11038    10901    10961 
   11217    11335    11232    11353    11893    12395    12541    12591 
   12833    13190    13419    13489    13688    14231    14857    15097 
   14881    14555    14468    14902    16027    17566    18959    20011 
   20871    21536    21806    21528    20818    20048    19478    19116 
   18877    18565    18027    17320    16656    16313    16275    16143 
   15713    15120    14511    14002    13642    13316    12895    12379 
   11868    11529    11526    11890    12404    12761    12875    12945 
   13128    13209    12963    12639    12538    12610    12773    13011 
   13322    13812    14375    14616    14372    13914    13696    13927 
   14250    14149    13571    12885    12415    12199    12136    12205 
   12372    12530    12665    12790    12973    13554    14724    16022 
   16863    17185    17274    17373    17511    17485    17139    16616 
   16193    16032    16109    16224    16141    15801    15439    15350 
   15476    15615    15848    16153    16205    15994    15839    15755 
   15434    14718    13834    13127    12709    12508    12370    12001 
   11266    10507    10147    10185    10312    10271    10045     9828 
    9714     9528     9057     8380     7974     8274     9018     9544 
    9687     9801    10177    10791    11413    11867    12261    12778 
   13368    13906    14353    14654    14796    14871    15033    15451 
   16071    16639    17152    17734    18234    18465    18453    18320 
   18147    17943    17808    17949    18383    18778    18704    18055 
   17179    16474    16026    15728    15449    15114    14869    14932 
   15292    15767    16190    16484    16764    17315    18264    19357 
   20198    20589    20561    20271    19970    19927    20191    20555 
   20813    20797    20341    19553    18793    18316    18232    18517 
   18959    19408    19926    20527    21091    21545    21873    22018 
   21894    21541    21162    20801    20274    19531    18732    18000 
   17366    16831    16371    16035    15871    15612    14830    13487 
   11947    10579     9584     8984     8581     8090     7483     7078 
    6998     6894     6564     6225     6042     6072     6370     6829 
    7284     7662     7921     8063     8176     8393     8790     9343 
   10070    11018    12013    12783    13180    13124    12723    12328 
   12109    11952    11788    11623    11472    11471    11742    12133 
   12426    12676    12990    13188    12995    12479    12018    11739 
   11419    10981    10520    10060     9625     9206     8724     8257 
    8041     8194     8573     8948     9325     9869    10632    11550 
   12552    13593    14511    15010    14992    14590    14000    13633 
   13890    14647    15459    15982    16113    16086    16224    16463 
   16428    15955    15268    14612    14057    13668    13481    13349 
   13073    12731    12664    12975    13285    13180    12613    11858 
   11285    11056    11030    10973    10747    10398    10072     9829 
    9764    10048    10601    11084    11463    12033    12741    13216 
   13537    14146    15035    15701    15900    15829    15589    15153 
   14658    14215    13780    13452    13383    13474    13543    13633 
   13850    14057    14003    13600    12972    12370    11988    11779 
   11620    11516    11450    11308    11037    10670    10343    10170 
    9998     9578     9028     8851     9319    10101    10770    11320 
   11915    12521    13048    13424    13450    13032    12432    11988 
   11889    12240    12974    13803    14463    14871    14997    14790 
   14383    14082    13994    13963    14003    14343    14969    15473 
   15434    14779    13817    12995    12633    12856    13563    14312 
   14627    14562    14517    14589    14530    14262    14047    14032 
   14020    13857    13610    13250    12684    12073    11638    11391 
   11306    11388    11587    11770    11696    11243    10609    10062 
    9637     9315     9208     9341     9532     9644     9685     9671 
    9562     9331     9047     8798     8584     8365     8158     8108 
    8432     9133     9910    10474    10834    11150    11414    11550 
   11699    12032    12519    13078    13698    14427    15268    16036 
   16502    16611    16465    16280    16278    16574    17159    17878 
   18366    18212    17351    16205    15300    14875    14818    14867 
   14875    14817    14704    14607    14583    14581    14404    13859 
   13020    12095    11171    10436    10130    10173    10331    10522 
   10705    10788    10718    10635    10815    11280    11776    12240 
   12728    13106    13325    13551    13708    13448    12800    12280 
   12147    12204    12354    12628    12875    12966    12984    13067 
   13269    13619    14155    14686    14861    14696    14433    14140 
   14003    14279    14832    15272    15364    15138    14787    14519 
   14496    14684    14801    14671    14397    14085    13813    13717 
   13808    13919    13996    14133    14362    14612    14796    14939 
   15141    15319    15308    15210    15307    15722    16278    16741 
   17116    17501    17831    18016    18042    17843    17370    16705 
   15938    15175    14712    14780    15159    15514    15812    16070 
   16131    15917    15557    15163    14828    14772    15006    15060 
   14623    13962    13337    12820    12549    12486    12464    12561 
   12915    13547    14402    15262    15826    15981    15954    16088 
   16417    16758    17043    17215    17291    17540    18007    18297 
   18200    17957    17749    17550    17344    17181    17065    16929 
   16851    16990    17124    16895    16325    15489    14389    13308 
   12591    12169    11664    11016    10671    10732    10747    10566 
   10348    10078     9708     9291     8896     8678     8772     9113 
    9598    10215    10964    11858    12804    13485    13662    13423 
   12972    12452    12019    11866    12104    12633    13275    13952 
   14614    15250    15845    16272    16463    16548    16732    17105 
   17550    17882    18124    18384    18514    18212    17530    16964 
   16851    17080    17498    17953    18123    17935    17720    17649 
   17555    17311    17010    16748    16424    15888    15156    14316 
   13478    12900    12815    13095    13409    13566    13485    13193 
   12949    13053    13527    14021    14056    13543    12882    12435 
   12230    12101    11868    11424    10736     9921     9259     8949 
    8976     9283     9769    10241    10675    11211    11788    12196 
   12361    12311    12175    12258    12708    13222    13487    13624 
   13863    14226    14665    15017    14972    14501    14073    14160 
   14797    15723    16619    17214    17445    17506    17640    17808 
   17772    17602    17640    17930    18227    18372    18237    17706 
   16993    16534    16314    15857    15040    14280    13861    13710 
   13652    13458    13050    12694    12536    12383    12142    11900 
   11730    11726    11907    12179    12513    12962    13536    14039 
   14152    13823    13287    12658    11909    11169    10653    10389 
   10226    10116    10251    10752    11468    12309    13306    14202 
   14633    14644    14466    14152    13803    13636    13632    13563 
   13443    13487    13659    13744    13706    13566    13202    12675 
   12425    12747    13379    13868    14118    14386    14871    15522 
   16180    16627    16629    16204    15613    15029    14537    14249 
   14179    14207    14135    13850    13551    13501    13585    13538 
   13237    12661    12082    11951    12403    13190    13945    14524 
   15106    15652    15834    15780    15830    15789    15460    15176 
   15157    15209    15194    15127    15063    15137    15402    15588 
   15355    14738    14131    13831    13739    13562    13206    12819 
   12556    12498    12719    13140    13503    13689    13678    13335 
   12659    12048    11911    12176    12424    12412    12269    12169 
   12037    11815    11564    11239    10795    10332    10029    10106 
   10559    10953    10803     9998     8928     8247     8180     8431 
    8731     8904     8922     9078     9526    10044    10497    10940 
   11279    11214    10701    10280    10485    11164    11832    12249 
   12448    12693    13249    14014    14629    14793    14446    13924 
   13676    13713    13758    13743    13762    13757    13553    13210 
   13138    13631    14439    14937    14704    13982    13492    13696 
   14302    14609    14241    13364    12346    11490    10939    10579 
   10089     9307     8502     8089     8250     8887     9599     9861 
    9467     8648     7805     7314     7393     7870     8273     8374 
    8335     8309     8256     8178     8303     8895     9926    11036 
   11710    11582    10797     9956     9634    10082    11221    12721 
   14085    14832    14886    14759    14949    15284    15289    14900 
   14504    14542    14967    15296    15291    14991    14477    14023 
   13843    13907    14329    15204    16226    17062    17609    17857 
   17932    17882    17533    16864    16113    15462    14923    14410 
   13847    13205    12428    11541    10783    10329    10210    10506 
   11141    11774    12230    12645    13124    13535    13658    13495 
   13287    13270    13453    13607    13568    13322    12807    12157 
   11827    12051    12694    13597    14543    15279    15765    16054 
   16152    16129    16163    16371    16604    16585    16294    15882 
   15286    14520    13943    13760    13905    14346    15069    16013 
   16951    17627    18225    18967    19498    19487    19133    18657 
   17955    16917    15748    14669    13529    12211    10947     9866 
    8830     7912     7477     7624     8034     8467     8905     9277 
    9391     9037     8245     7368     6722     6302     5915     5486 
    5170     5118     5297     5581     5868     6215     6785     7552 
    8369     9177     9936    10724    11744    12885    13718    14145 
   14496    14966    15442    15709    15534    14813    13792    12982 
   12782    13212    13937    14526    14874    15179    15493    15722 
   15887    15999    16000    15942    16001    16250    16394    16131 
   15637    15150    14621    14079    13597    13063    12424    11731 
   11040    10560    10492    10747    10988    10848    10354    10070 
   10431    11245    12037    12487    12650    12770    12859    12959 
   13401    14254    15201    15982    16484    16643    16469    16189 
   16242    16756    17388    17940    18472    18874    19005    18995 
   19071    19268    19340    19061    18634    18459    18687    19260 
   19951    20449    20709    20955    21284    21436    21192    20905 
   21118    21803    22567    23179    23506    23408    22822    21863 
   20831    20009    19473    19097    18745    18497    18529    18837 
   19153    19031    18239    17049    15871    14938    14458    14603 
   15262    16041    16496    16372    15740    14919    14187    13619 
   13141    12647    12122    11686    11504    11660    12083    12574 
   12893    12876    12622    12423    12478    12821    13340    13771 
   13823    13498    13241    13508    14304    15353    16343    17005 
   17251    17103    16586    15895    15290    14847    14563    14475 
   14614    14994    15468    15684    15413    14727    13826    12910 
   12135    11649    11595    11944    12487    12927    12967    12618 
   12195    11837    11358    10693    10199    10183    10520    11108 
   12078    13374    14646    15579    16117    16357    16366    16207 
   15963    15668    15414    15332    15416    15508    15433    15165 
   14973    15180    15696    16084    16090    15826    15514    15318 
   15344    15602    15962    16206    16138    15788    15500    15652 
   16217    16730    16755    16169    15145    14134    13610    13594 
   13652    13369    12790    12377    12470    12924    13355    13522 
   13453    13322    13174    12905    12451    11870    11303    10725 
    9988     9219     8701     8620     9052     9741    10240    10418 
   10440    10473    10556    10681    10865    11103    11502    12245 
   13222    14112    14623    14394    13142    11055     8886     7493 
    7166     7700     8833    10120    11071    11732    12426    13114 
   13642    14113    14579    14824    14649    14133    13482    12701 
   11608    10295     9318     9155     9682    10456    11171    11744 
   12278    12891    13578    14305    14900    15052    14730    14196 
   13690    13351    13195    13034    12696    12329    12178    12156 
   11932    11327    10541    10013     9886     9880     9711     9331 
    8864     8537     8586     9161    10146    11168    11950    12422 
   12584    12592    12750    13131    13422    13423    13343    13407 
   13688    14258    15014    15561    15561    14991    14070    13093 
   12245    11667    11578    12031    12731    13257    13417    13389 
   13313    12906    11927    10630     9460     8809     8954     9772 
   10760    11477    11899    12305    12785    13183    13356    13140 
   12495    11715    11217    11223    11604    12066    12409    12505 
   12368    12185    12136    12282    12556    12891    13282    13592 
   13636    13508    13489    13776    14446    15263    15713    15541 
   14984    14496    14397    14631    14900    14967    14765    14526 
   14549    14693    14666    14498    14249    14039    14243    14922 
   15603    15900    15818    15492    15099    15042    15729    16870 
   17508    16973    15457    13689    12307    11479    11044    10810 
   10709    10857    11333    11876    12142    12097    11869    11527 
   11279    11463    12060    12641    12936    12933    12676    12435 
   12549    12935    13172    12915    12124    11098    10211     9722 
    9834    10482    11211    11638    11906    12413    13196    13982 
   14585    14894    14830    14521    14286    14292    14442    14681 
   15043    15422    15619    15619    15665    15965    16425    16917 
   17541    18296    18847    18900    18492    17732    16633    15338 
   14212    13618    13623    13969    14319    14485    14547    14811 
   15375    15858    15968    15957    16090    16117    15553    14225 
   12428    10612     9093     8021     7464     7436     7886     8660 
    9437     9884     9985     9957     9934    10007    10230    10484 
   10723    11126    11707    12168    12275    12090    11780    11345 
   10763    10348    10434    10917    11511    12069    12667    13519 
   14522    15166    15137    14583    13770    12931    12310    12107 
   12348    12803    13232    13654    14147    14601    14843    14876 
   14814    14586    14094    13488    12909    12314    11728    11327 
   11144    10993    10776    10586    10562    10932    11811    12830 
   13582    14138    14559    14571    14119    13534    13124    13067 
   13458    14098    14503    14319    13652    12941    12554    12544 
   12657    12577    12348    12412    13050    14000    14745    14942 
   14646    14265    14101    13976    13575    12909    12205    11625 
   11256    11216    11509    11875    12077    12153    12233    12370 
   12540    12731    13043    13532    14082    14640    15277    15972 
   16635    17266    17738    17758    17320    16668    15884    15038 
   14470    14512    15065    15624    15749    15373    14796    14480 
   14551    14637    14406    13922    13486    13467    14054    15045 
   16088    16922    17438    17681    17540    16587    14751    12727 
   11220    10307     9825     9732     9855     9895     9860     9827 
    9511     8844     8308     8256     8502     8553     8217     7873 
    7822     8036     8539     9206     9643     9729     9640     9409 
    8981     8461     8060     7926     8128     8656     9274     9605 
    9608     9666    10072    10681    11080    10885     9903     8262 
    6480     5199     4802     5223     5955     6470     6726     7040 
    7614     8393     9249    10080    10643    10592    10044     9603 
    9579     9699     9541     8983     8326     7924     7832     7928 
    8139     8495     9059     9815    10690    11597    12336    12642 
   12583    12542    12730    13171    13746    14085    13974    13584 
   13213    13089    13088    12812    12116    11172    10207     9449 
    9116     9363    10184    11393    12784    14068    14802    14882 
   14764    14812    14908    14872    14701    14425    14186    14222 
   14575    15038    15430    15833    16469    17323    18181    18975 
