Origin Time       2011/03/11 14:46:00
Lat.              38.103
Long.             142.860
Depth. (km)       24
Mag.              9.0
Station Code      HKD092
Station Lat.      42.9283
Station Long.     143.4485
Station Height(m) 17
Record Time       2011/03/11 14:48:11
Sampling Freq(Hz) 100Hz
Duration Time(s)  300
Dir.              E-W
Scale Factor      3920(gal)/6182761
Max. Acc. (gal)   23.603
Last Correction   2011/03/11 14:47:56
Memo.             
[...]
     -13     -197     1017     2213     2216     1428      624     -298 
   -1165    -1050      102      938       78    -2144    -3523    -2649 
    -689      636     1116     1183      366    -1609    -3282    -3472 
   -3222    -3555    -3755    -3111    -1920     -826     -464     -962 
   -1663    -1697     -716      387      222     -976    -1598     -938 
     238      668      -89     -861     -426      457      158    -1333 
   -2451    -2195    -1397    -1554    -2566    -2886    -1746      374 
    2269     2456      819    -1385    -3315    -4104    -2979    -1435 
   -1725    -3598    -5053    -4311     -690     4358     7993     8864 
    8245     7881     7658     6225     3321      127    -2356    -4045 
   -4924    -4596    -3478    -2952    -3110    -2268      637     4586 
    7066     6466     4322     3004     2378     1413       43    -1709 
   -3060    -2125     1481     5982     9545    10948     9501     5599 
     668    -3497    -5901    -6777    -6502    -5225    -3027      -47 
    2484     3223     3226     4211     5598     6195     5755     3925 
    1228     -749    -1939    -3112    -3869    -3687    -2500     -441 
    1870     3880     5092     5035     4371     4032     3727     2966 
    1862      595     -412     -470      401     1281     1262       24 
   -1783    -2604    -1673      100     1464     1348     -692    -3107 
   -3796    -2574     -476     1461     2671     3261     3078     1668 
    -722    -3126    -4210    -3305    -1633     -804     -543      400 
    2430     4636     5333     4440     4061     4620     3794      371 
   -4455    -8959   -11562   -11458    -9508    -6857    -3919    -1565 
    -549      217     1910     3131     1709    -1969    -5583    -7479 
   -7235    -5220    -2414      290     2439     3962     5366     6589 
    6554     5738     5900     6398     5002     1259    -3611    -7707 
   -9189    -7827    -4928    -1912      414     1972     2591     1748 
     119     -719     -674     -877    -1507    -1960    -2139    -1826 
    -391     1710     3526     5175     6319     5752     4022     2554 
     851    -1538    -3312    -3999    -4597    -5778    -7203    -7116 
   -3836     1234     4663     4932     3334     1905     1476     1406 
    1193     1447     2454     3279     3019     2005     1428     1283 
    -105    -2782    -4541    -4892    -5353    -6110    -6015    -4445 
   -1160     3400     7301     8815     8040     6369     5327     5056 
    4670     3802     2277      427     -591     -425      634     2388 
    3713     3515     2414     1303       22    -1846    -4326    -6594 
   -7115    -5576    -3948    -3965    -4618    -4300    -3247    -1575 
    1509     5145     6751     4634     -296    -4828    -6297    -4713 
   -1434     1931     3590     3171     2505     3225     4731     5430 
    4587     2646      742     -215      -84      463      134    -1424 
   -2802    -2620     -924      967     1689     1445     1318     1431 
    1157      417      120     1199     3368     5344     5689     3422 
    -752    -4109    -4296    -2035     -140       15     -583     -564 
     534     2311     4018     5167     5866     6454     6837     6542 
    5047     1766    -3101    -7539    -9268    -8300    -6277    -4359 
   -3219    -3134    -3247    -2259      -73     1450      102    -3335 
   -5813    -5993    -4050     -468     2714     3829     3681     3068 
    1707     -368    -2447    -3158    -2251    -1828    -2636    -2757 
   -1732     -599      903     2841     3927     3777     3404     3190 
    2565     1467      421     -481    -1536    -2719    -3570    -3531 
   -2479    -1114     -348     -330     -414     -224     -555    -2166 
   -4152    -4565    -2373     1037     2968     2285      176    -1390 
   -1314      416     2928     4543     4436     3404     2066      277 
   -2039    -4286    -4993    -3333     -614      984      588     -544 
    -506      879     2617     4203     4771     3567     1862     1298 
    2173     4061     5163     3760     1489     1187     3183     5930 
    7659     6916     3375    -1315    -4700    -5547    -3937    -1428 
    -782    -2568    -4300    -4212    -2677     -617     1389     3390 
    5551     7040     6645     4654     2905     2714     3505     3774 
    2785     1174      423     1324     2784     3117     2053      408 
   -1246    -2492    -2843    -2585    -2733    -3319    -2792     -493 
    2068     3842     5095     5539     4528     2254     -286    -2001 
   -2654    -2480     -900     2359     5378     5795     3586      374 
   -2717    -5603    -8107    -8920    -7198    -4324    -1992     -236 
    1768     4356     6338     6225     4959     4680     5183     4361 
    1796     -744    -2320    -3318    -3933    -4201    -3332        9 
    4297     5928     4691     3578     3675     3601     2579     1251 
     392        2     -188      112      975     1316      -16    -2574 
   -4583    -4710    -3052     -760      698      573       36      883 
    2570     3258     2852     1978      881      764     2326     3717 
    2728     -975    -6142   -10489   -12052   -10674    -7243    -2514 
    2207     4713     4086     2353     1847     2256     2537     2769 
    2212      -42    -2450    -3142    -2705    -2874    -4378    -5765 
   -4342       10     3722     4171     2890     2467     3305     4771 
    6311     6610     4320      220    -2943    -3319    -1734     -194 
     419      300     -192     -245      520      981      274    -1337 
   -3591    -5867    -7048    -6942    -6293    -5411    -3687     -982 
    1124     1641     2088     3912     6696     9265    10532     9681 
    6339     1230    -3364    -5081    -4003    -2249     -594     1930 
    5181     7915     9703    10472     9628     6648     2464     -191 
    -206      216     -364    -1763    -4214    -6728    -7736    -7202 
   -5053    -1366     2233     4220     4519     3542     1160    -2416 
   -5772    -7841    -8416    -6955    -3595      -48     2420     4256 
    5916     6728     6362     4920     1901    -1652    -3156    -2642 
   -1702       93     2804     4628     4886     4330     3506     2787 
    2021      237    -2636    -5178    -6583    -6962    -6127    -4564 
   -3116    -1304      964     2349     2862     4319     7269     9830 
    9685     6784     3574     2189     2489     3000     3088     3416 
    3757     2849     1031      233     1137     1834      157    -2986 
   -4294    -1962     2470     6009     6770     5011     2369        5 
   -1652    -2018    -1115      174     1829     4529     7603     9642 
   10326     9901     8799     7827     6752     4744     2552     1197 
     267     -485    -1030    -2361    -4639    -6198    -5882    -3682 
    -303     2450     3441     3381     2448      -84    -3119    -4165 
   -2558     -172      462    -1479    -4262    -6190    -7240    -7012 
   -4572     -531     2974     4125     3025      829    -1960    -4082 
   -3438     -378     2766     4832     5536     4544     2785     1830 
    1291     -205    -2712    -5699    -8422    -9625    -8810    -6119 
   -1883     2006     3345     2789     2964     5079     8181    10699 
   11491    10021     6420     1696    -2373    -4420    -4686    -4481 
   -4730    -4988    -4247    -3007    -2029      118     4071     7274 
    7290     3987     -350    -2324    -1735    -1056     -336     1397 
    2706     2234     1054     1039     2661     4582     5475     5667 
    6211     7076     7301     6799     6447     6474     6906     8218 
    9595     9288     7028     3982     1467      -59     -925     -829 
     688     2823     4345     4891     4566     2880     -587    -4880 
   -8281    -9481    -8173    -5027     -812     3738     7057     7573 
    5754     3550     2234     1919     1367    -1019    -4511    -6823 
   -7260    -6760    -6044    -5129    -4119    -3532    -3582    -3495 
   -1742     2108     5644     5754     2533     -620     -558     2478 
    5560     6549     5800     5079     5247     4989     2546    -2208 
   -7920   -12776   -15370   -15622   -14632   -13046   -10591    -7004 
   -2141     3252     5914     2494    -4849    -9303    -7436    -2295 
    1645     2606     1755     1658     3107     4428     5086     6029 
    6369     4788     2722     2175     2980     3261      773    -4544 
   -9795   -12431   -11869    -8588    -4495    -2027    -1763    -2710 
   -3343    -2120     1140     5758    10793    13625    12309     8712 
    5250     2177     -173     -729      901     4140     7997    11624 
   14081    14175    11734     8462     6050     3927      974    -1939 
   -3572    -4051    -3360     -703     3858     8692    11761    12229 
   10769     7842     3357    -1532    -5200    -7613    -9298    -9834 
   -8651    -5957    -2723     -234     1250     2571     3752     3902 
    2413     -747    -4537    -7289    -8298    -7575    -4504      917 
    6219     8851     9340     9868    11264    12438    11912     9358 
    5268      347    -3692    -5077    -4697    -4731    -5301    -6238 
   -8554   -11066   -10971    -8067    -4002       72     3376     5270 
    5194     3512     1949     1389     1300     1689     3096     5089 
    6012     4809     2829     2062     2260     1557     -788    -3315 
   -4213    -3137     -599     2183     2965      514    -3579    -5979 
   -4687    -1046     2302     3937     4339     6119    10768    15799 
   18095    16280    10589     4210      614     -882    -2954    -6343 
  -10265   -13977   -16993   -18732   -17939   -13272    -5365     2895 
    9039    12600    13589    11709     7634     3343      759       50 
    -201    -1145    -2926    -4437    -3820    -1020     1814     3506 
    5365     8606    11639    11427     6356    -3417   -15416   -23430 
  -21105    -8497     7996    21874    29880    31298    28011    23463 
   19505    15716    10840     4502    -2093    -7590   -11221   -12867 
  -12696    -9912    -4368     1713     6255     8956     9701     7878 
    3393    -2383    -7449   -11791   -16922   -21666   -21726   -14850 
   -4123     5317    11106    13355    12360     9298     6229     4025 
    2264      384    -2003    -5047    -8592   -11974   -13621   -12310 
   -9168    -5839    -2017     2021     4118     3522     1082    -2989 
   -7717   -10598    -9988    -5619     1782     9674    14898    16040 
   13845    10355     7500     5504     2989     -845    -4734    -6598 
   -6107    -4622    -2612     -128     1373     1672     2549     2988 
      46    -5089    -8440    -8566    -6721    -4495    -2780    -1871 
   -1383     -800    -1591    -5787   -12447   -18728   -21522   -18649 
  -11385    -2365     7288    16017    21271    21034    14866     4950 
   -5275   -13729   -19836   -23417   -23910   -20232   -12456    -3387 
    3906     9131    12416    12285     9626     8473    10067    11281 
    8847     2102    -6153   -11500   -12112    -9190    -4301     1503 
    6987    10661    11892    10868     7515     2035    -4597   -11146 
  -15762   -15862    -9947      303    10999    19421    24846    27019 
   26246    23560    19686    14863     9208     3246    -1946    -5923 
   -9234   -11793   -12258   -10285    -7553    -5078    -1784     3308 
    8928    12186    11149     6145     -806    -7034   -10790   -11428 
   -8523    -3144     2066     5982     9016    10151     7735     2367 
   -3669    -8410   -10806   -10777    -8699    -4835      243     5434 
    9661    12221    12288     9460     5933     5119     6974     8099 
    5998      682    -5820   -10462   -11429    -8846    -4117      -65 
     715    -1549    -4318    -5831    -7013    -9518   -12145   -11710 
   -8008    -4189    -1872      288     3416     6479     7653     6035 
    1833    -3596    -7699    -7379    -1446     7031    13348    15035 
   11774     5325     -177    -1570      301     2489     2336    -1849 
   -8202   -11529    -9894    -6557    -4557    -4558    -6339    -9006 
  -10795    -9486    -4069     3554     9747    12306    11970    10630 
    9579    10142    12786    15583    16530    15283    11548     5111 
   -2461    -7878    -8731    -6270    -3812    -2685    -2084    -1477 
    -924     -498     -669    -1845    -3045    -2426      246     3060 
    4768     5961     6805     6350     4051      150    -4435    -7983 
   -9180    -8050    -4791      347     5579     8573     9003     8586 
    9233    11922    15910    18731    18622    16176    12765     9153 
    5829     2871       -5    -1824     -424     4618    10913    15407 
   16446    14701    12267     9979     6736     2211    -1734    -3280 
   -2401     -578     -438    -3339    -6716    -7516    -6348    -4725 
   -2255     1280     4788     7141     7925     7460     5874     2646 
   -1302    -3047    -1483      537       33    -2374    -4792    -6684 
   -7064    -5104    -3136    -4051    -7200    -9594    -9157    -6454 
   -3582    -1505     -247     -357    -2046    -4872    -9048   -14796 
  -19892   -20373   -15164    -7461     -981     2101     1103    -2123 
   -4222    -3374     -326     2318     2220      -50    -2095    -2901 
   -2501     -455     3080     6911     9831    10721     9298     7332 
    6711     6487     4479      872    -2115    -3148    -2949    -2486 
   -1143     1764     5385     8479    10250    10088     7677     3836 
     787     -339    -1266    -4406   -10229   -16373   -19564   -19268 
  -17299   -14904   -13258   -13901   -15990   -16329   -12556    -3650 
    9992    24643    34816    37733    34503    28278    22671    19684 
   18225    16645    14816    12223     7506       61    -8916   -16421 
  -20275   -19977   -14834    -6555     -172     2080     1871      833 
     356      244    -2049    -7067   -12887   -17752   -19422   -16314 
  -10093    -3997      171     2224     2616     1936      828      558 
    2292     5048     6462     5914     5321     7283    12719    19570 
   24359    24804    20468    12715     4509    -1782    -6642   -12307 
  -19662   -27186   -32734   -34563   -31015   -22076   -10380     1109 
   10584    17148    20961    22683    23113    23322    23279    21619 
   18035    13884    10049     6516     4141     3780     3898     2854 
    1559      697     -560    -2172    -3766    -6537   -11775   -18310 
  -23222   -24504   -21435   -14252    -4900     3566     8387     8432 
    5521     2879     1817     1592     1236      282    -1364    -3709 
   -5891    -6063    -3773     -530     2195     3961     5356     6746 
    7350     7210     7829     9745    12496    16631    22242    26483 
   26048    20535    11465      734    -9755   -18746   -25040   -27580 
  -27155   -25220   -22077   -17796   -12582    -7118    -3594    -4047 
   -8066   -13423   -17478   -17912   -13798    -6430     1321     6850 
    8509     6457     4830     8385    15770    20781    19091    11437 
    2238    -4116    -5966    -3830      975     6548    10916    12668 
   10812     5265    -1945    -7161    -8284    -6905    -5656    -5534 
   -6985    -9286    -9648    -7124    -3486      822     6103    11040 
   14707    17698    20297    21619    20230    14854     5260    -6652 
  -17493   -24559   -26822   -25222   -21980   -18138   -13614    -9479 
   -6965    -5723    -5253    -5759    -6828    -6992    -4577      646 
    6161     8994     9102     8406     7880     7487     7151     6387 
    4629     2430     1012     1197     3157     6108     9110    11666 
   12692    11647     9827     8396     7706     7652     6810     4155 
    1154     -483     -923     -232     2407     6088     8177     6738 
    1229    -6663   -13279   -16186   -15326   -12313    -9776    -8618 
   -7397    -5332    -3196    -2180    -2940    -4909    -7162    -9228 
  -10303    -9749    -8231    -6606    -4574    -1482     2425     6496 
   10184    12232    11197     6890      412    -6254   -11363   -14562 
  -15905   -15394   -13774   -11531    -8254    -4118     -310     2177 
    3975     7177    12763    18942    22220    20223    14015     6488 
    -293    -4616    -5356    -3769    -2090    -1235     -989     -628 
     348     1372     1310      228      433     3856     8918    12074 
   11017     6560     2598     1769     2086      743    -1819    -3537 
   -2961      392     5008     8231     9500     9845     9485     8695 
    7757     5435      912    -4130    -7106    -6612    -3885    -2603 
   -3891    -4005     -607     3930     6732     6826     4847     2871 
    2005      271    -4544   -11675   -18481   -21829   -19057   -11091 
   -2599     2998     5982     8365    11786    15053    14331     8165 
    -877    -9413   -14782   -15871   -13410    -7945       17     8142 
   14076    17515    18413    16485    12879     8962     5341     2990 
    2169     1817      961    -1274    -4338    -5018    -1970     1662 
    3140     2947     2852     4100     5763     5889     4562     2917 
    1670     1664     3110     5622     8477     9434     7190     3846 
    1392      -27      -27     1992     6182    11667    16034    16785 
   13038     5963    -1817    -7659   -10566   -11488   -11092    -8883 
   -5230    -1455     1932     5122     7843     9033     7611     3874 
    -383    -3077    -2840     -347     1757     2274     2841     4447 
    5877     5784     3514     -366    -3797    -5304    -5332    -5576 
   -7901   -12965   -19151   -22642   -19998   -11989    -3262     2587 
    5976     8927    11560    12923    13616    14004    12673     9787 
    7166     4922     2067    -2460    -9908   -19581   -27738   -29897 
  -24295   -13138     -228    11177    18458    20188    17152    12097 
    7702     5373     5412     5944     4591     1759    -1662    -5482 
   -7966    -8616    -9158    -9145    -7176    -3908      174     5093 
    9367    10784     7933     1609    -4238    -5515    -1603     5361 
   11720    13203     8839     2733    -1124    -3114    -4886    -6232 
   -5994    -3149     1027     2960      919    -4717   -11796   -15011 
  -11302    -4051     1823     4249     3356     -112    -4843    -8894 
  -10913   -11082   -10653   -10639   -10473    -8024    -2576     3551 
    8358    11481    12331    10904     8818     7943     8431     8718 
    8374     8079     6765     3703      511    -1853    -2708     -854 
    1529      732    -2833    -6511    -8715    -8407    -5902    -2424 
    1389     3879     3750     2644     1913      605    -1675    -3348 
   -2312     1549     5975    10147    15109    19278    19712    16745 
   13104    10335     7269     2664    -1801    -4723    -7705   -11244 
  -12597   -10144    -5799    -2239     -844    -1449    -2705    -3373 
   -2302     1264     5532     7388     6041     3146      524    -1042 
   -1774    -1900     -459     2683     4613     3508     1387      134 
    -341     -554     -433     1003     3944     7129     9974    12058 
   12060     9993     7537     5802     5612     7794    11009    12474 
   11304     8725     5888     3094      472    -2304    -5328    -6679 
   -4821    -1150     2722     6209     7725     5745      808    -4850 
   -7481    -4341     2612     8989    12006    11081     7621     3997 
    1911     1751     2690     3429     2850      235    -4330    -9056 
  -10773    -7966    -2288     3522     7131     8217     9314    12239 
   15750    17437    15570     9757     1183    -7298   -12897   -15282 
