Origin Time       2011/03/11 14:46:00
Lat.              38.103
Long.             142.860
Depth. (km)       24
Mag.              9.0
Station Code      HKD057
Station Lat.      43.7054
Station Long.     144.0273
Station Height(m) 99
Record Time       2011/03/11 14:48:48
Sampling Freq(Hz) 100Hz
Duration Time(s)  262
Dir.              U-D
Scale Factor      3920(gal)/6182761
Max. Acc. (gal)   3.174
Last Correction   2011/03/11 14:48:33
Memo.             
[...]
   -8729    -8218    -7639    -7075    -6708    -6652    -6834    -7073 
   -7279    -7491    -7709    -7874    -8039    -8347    -8786    -9136 
   -9307    -9551   -10005   -10425   -10661   -10866   -11099   -11249 
  -11280   -11231   -11160   -11198   -11448   -11813   -12102   -12252 
  -12311   -12361   -12451   -12529   -12569   -12663   -12864   -13102 
  -13264   -13314   -13313   -13239   -12983   -12631   -12375   -12189 
  -11947   -11733   -11704   -11745   -11648   -11494   -11489   -11596 
  -11655   -11729   -11931   -12119   -12127   -12016   -11896   -11777 
  -11609   -11330   -10979   -10715   -10609   -10603   -10669   -10826 
  -11062   -11371   -11722   -12024   -12266   -12456   -12490   -12400 
  -12405   -12550   -12742   -12987   -13195   -13200   -13098   -13027 
  -12940   -12912   -13101   -13428   -13682   -13777   -13663   -13348 
  -13026   -12825   -12691   -12644   -12680   -12683   -12690   -12809 
  -12994   -13133   -13129   -13015   -13011   -13172   -13339   -13467 
  -13527   -13448   -13295   -13106   -12891   -12819   -13000   -13274 
  -13450   -13543   -13644   -13782   -13957   -14112   -14224   -14363 
  -14518   -14533   -14340   -14094   -13970   -13880   -13639   -13361 
  -13252   -13196   -13024   -12738   -12470   -12457   -12609   -12592 
  -12558   -12741   -12859   -12827   -12879   -12949   -12889   -12739 
  -12578   -12439   -12223   -11878   -11596   -11529   -11697   -12001 
  -12204   -12328   -12503   -12432   -11943   -11317   -10677   -10052 
   -9625    -9367    -9082    -8794    -8578    -8345    -8075    -7918 
   -7969    -8108    -8233    -8483    -8877    -9211    -9518    -9886 
  -10147   -10236   -10254   -10142    -9868    -9574    -9219    -8731 
   -8364    -8351    -8552    -8713    -8814    -8981    -9219    -9415 
   -9457    -9385    -9370    -9476    -9564    -9512    -9355    -9179 
   -9025    -8884    -8713    -8526    -8388    -8316    -8284    -8318 
   -8502    -8861    -9338    -9844   -10190   -10248   -10133    -9997 
   -9891    -9841    -9830    -9824    -9889   -10020   -10053    -9931 
   -9731    -9527    -9474    -9707   -10192   -10794   -11310   -11544 
  -11474   -11279   -11096   -10880   -10661   -10546   -10404   -10100 
   -9900   -10046   -10277   -10345   -10344   -10342   -10372   -10524 
  -10725   -10840   -10867   -10847   -10749   -10571   -10407   -10325 
  -10320   -10331   -10240   -10019    -9858    -9961   -10351   -10921 
  -11411   -11566   -11444   -11222   -10874   -10255    -9416    -8649 
   -8046    -7417    -6840    -6554    -6411    -6195    -6056    -6073 
   -6108    -6211    -6559    -7165    -7876    -8533    -9083    -9549 
   -9984   -10370   -10598   -10710   -10858   -10965   -10877   -10735 
  -10730   -10759   -10636   -10361   -10121   -10124   -10366   -10707 
  -11024   -11211   -11289   -11391   -11568   -11759   -11782   -11510 
  -11147   -10967   -10959   -10988   -11028   -11082   -11111   -11106 
  -11014   -10864   -10884   -11129   -11401   -11737   -12284   -12835 
  -13145   -13359   -13704   -14144   -14526   -14845   -15123   -15218 
  -15064   -14761   -14332   -13779   -13199   -12650   -12165   -11839 
  -11708   -11689   -11700   -11688   -11610   -11512   -11478   -11514 
  -11596   -11649   -11577   -11466   -11512   -11663   -11697   -11607 
  -11538   -11566   -11651   -11712   -11830   -12089   -12294   -12279 
  -12141   -12015   -11961   -12010   -12172   -12359   -12410   -12315 
  -12174   -12017   -11917   -11951   -11983   -11970   -12178   -12654 
  -13058   -13189   -13171   -13170   -13164   -13112   -13116   -13148 
  -12987   -12576   -12059   -11501   -10911   -10380    -9994    -9794 
   -9787    -9912   -10124   -10372   -10545   -10632   -10722   -10779 
  -10719   -10641   -10601   -10407   -10020    -9696    -9538    -9426 
   -9348    -9412    -9657   -10063   -10568   -11023   -11388   -11787 
  -12205   -12535   -12784   -12929   -12939   -12917   -12936   -12945 
  -12838   -12602   -12370   -12228   -12134   -12009   -11764   -11452 
  -11270   -11313   -11553   -11879   -12084   -12158   -12315   -12545 
  -12722   -12880   -12901   -12655   -12401   -12342   -12329   -12276 
  -12212   -12124   -12067   -12068   -12062   -12093   -12215   -12289 
  -12134   -11731   -11203   -10693   -10314   -10149   -10171   -10257 
  -10353   -10438   -10493   -10595   -10746   -10827   -10856   -10916 
  -10954   -10928   -10879   -10784   -10579   -10288    -9994    -9639 
   -9173    -8846    -8818    -8880    -8923    -8993    -9055    -9147 
   -9339    -9585    -9904   -10308   -10679   -10949   -11100   -11068 
  -10904   -10716   -10502   -10241    -9925    -9607    -9415    -9359 
   -9356    -9405    -9460    -9463    -9554    -9786    -9918    -9862 
   -9769    -9690    -9601    -9570    -9689    -9908   -10131   -10386 
  -10672   -10780   -10580   -10285   -10039    -9696    -9332    -9193 
   -9229    -9335    -9527    -9723    -9861   -10054   -10418   -10871 
  -11232   -11369   -11234   -10862   -10310    -9706    -9269    -9071 
   -8902    -8650    -8547    -8743    -9100    -9525    -9987   -10395 
  -10743   -11067   -11214   -11043   -10775   -10653   -10570   -10416 
  -10249   -10093    -9978    -9925    -9826    -9625    -9486    -9498 
   -9568    -9714    -9921   -10007   -10008   -10160   -10483   -10729 
  -10720   -10553   -10405   -10296   -10240   -10293   -10312   -10151 
   -9920    -9752    -9683    -9676    -9651    -9646    -9651    -9461 
   -9082    -8755    -8505    -8272    -8177    -8261    -8424    -8661 
   -8898    -8990    -9003    -9140    -9489    -9958   -10380   -10652 
  -10724   -10513   -10098    -9763    -9588    -9448    -9410    -9630 
  -10090   -10582   -10872   -10985   -11049   -11044   -11024   -11077 
  -11172   -11352   -11648   -11906   -12010   -11983   -11926   -12064 
  -12436   -12754   -12925   -13008   -12867   -12542   -12281   -12104 
  -11926   -11771   -11595   -11343   -11038   -10675   -10295    -9970 
   -9752    -9718    -9799    -9872   -10042   -10375   -10689   -10830 
  -10809   -10733   -10705   -10718   -10743   -10873   -11117   -11309 
  -11394   -11395   -11316   -11332   -11562   -11763   -11759   -11685 
  -11638   -11600   -11606   -11664   -11743   -11841   -11996   -12297 
  -12728   -13141   -13522   -13928   -14274   -14487   -14598   -14657 
  -14744   -14808   -14638   -14214   -13761   -13451   -13257   -12996 
  -12647   -12442   -12508   -12783   -13075   -13122   -12938   -12787 
  -12825   -12998   -13125   -13080   -12950   -12912   -12967   -12920 
  -12669   -12352   -12146   -12100   -12117   -11930   -11409   -10822 
  -10405   -10077    -9827    -9758    -9826    -9931   -10036   -10088 
  -10054    -9980    -9922    -9890    -9821    -9772    -9874   -10004 
  -10050   -10103   -10088    -9960    -9890    -9826    -9597    -9297 
   -9046    -8840    -8668    -8511    -8390    -8283    -8134    -8066 
   -8144    -8225    -8293    -8414    -8538    -8584    -8510    -8353 
   -8209    -8159    -8190    -8253    -8386    -8586    -8833    -9130 
   -9271    -9065    -8688    -8370    -8127    -8008    -8086    -8220 
   -8315    -8522    -8900    -9230    -9322    -9327    -9437    -9543 
   -9489    -9262    -8894    -8472    -8124    -7882    -7635    -7336 
   -7076    -6864    -6706    -6666    -6714    -6820    -7029    -7322 
   -7553    -7608    -7594    -7717    -8024    -8444    -8942    -9455 
   -9918   -10358   -10685   -10827   -10957   -11143   -11248   -11217 
  -11082   -10956   -10933   -10939   -10965   -11098   -11231   -11246 
  -11289   -11473   -11705   -11942   -12219   -12491   -12583   -12429 
  -12195   -11971   -11743   -11683   -11908   -12231   -12488   -12626 
  -12536   -12280   -12084   -11993   -11950   -11890   -11705   -11411 
  -11177   -11064   -10889   -10517   -10153    -9994    -9907    -9795 
   -9732    -9691    -9714    -9920   -10109   -10068    -9963    -9950 
   -9928    -9829    -9750    -9747    -9772    -9822    -9913   -10006 
  -10067   -10174   -10413   -10683   -10933   -11279   -11693   -12085 
  -12540   -13016   -13355   -13597   -13720   -13598   -13368   -13183 
  -12955   -12709   -12569   -12513   -12517   -12553   -12519   -12443 
  -12435   -12438   -12391   -12416   -12554   -12705   -12826   -12931 
  -13005   -13044   -13121   -13319   -13593   -13780   -13712   -13423 
  -13140   -12879   -12476   -12055   -11884   -11919   -12004   -12180 
  -12448   -12670   -12829   -12956   -12923   -12676   -12426   -12278 
  -12070   -11799   -11653   -11648   -11674   -11671   -11635   -11579 
  -11482   -11325   -11195   -11268   -11575   -11901   -12059   -12083 
  -12029   -11865   -11658   -11496   -11337   -11229   -11235   -11266 
  -11333   -11439   -11428   -11294   -11185   -11206   -11384   -11598 
  -11716   -11811   -11986   -12169   -12238   -12157   -11933   -11602 
  -11317   -11276   -11410   -11497   -11538   -11620   -11726   -11865 
  -12050   -12206   -12332   -12507   -12687   -12725   -12600   -12453 
  -12351   -12214   -12051   -11949   -11898   -11827   -11655   -11428 
  -11345   -11402   -11456   -11546   -11703   -11843   -11933   -11925 
  -11768   -11594   -11473   -11315   -11201   -11147   -10915   -10502 
  -10129    -9875    -9742    -9618    -9343    -9113    -9241    -9593 
   -9899   -10170   -10426   -10582   -10616   -10575   -10457   -10213 
  -10016   -10037    -9994    -9741    -9570    -9451    -9241    -9195 
   -9305    -9335    -9414    -9551    -9569    -9540    -9491    -9434 
   -9511    -9645    -9704    -9810   -10046   -10350   -10681   -11023 
  -11315   -11413   -11201   -10782   -10335    -9848    -9322    -8880 
   -8577    -8465    -8576    -8798    -9101    -9579   -10159   -10625 
  -10904   -11044   -11033   -10853   -10631   -10523   -10511   -10490 
  -10417   -10252    -9999    -9770    -9579    -9314    -9040    -8962 
   -9138    -9489    -9929   -10396   -10851   -11255   -11569   -11852 
  -12135   -12284   -12198   -11952   -11698   -11515   -11285   -10939 
  -10714   -10719   -10734   -10671   -10597   -10512   -10420   -10249 
   -9869    -9426    -9148    -9006    -8969    -9099    -9315    -9567 
   -9920   -10282   -10586   -10917   -11191   -11325   -11431   -11531 
  -11570   -11579   -11644   -11869   -12233   -12522   -12681   -12835 
  -12918   -12869   -12760   -12565   -12306   -12065   -11816   -11586 
  -11411   -11183   -10949   -10911   -10947   -10847   -10701   -10526 
  -10286   -10126    -9988    -9729    -9458    -9330    -9445    -9760 
  -10052   -10264   -10510   -10775   -11033   -11331   -11611   -11839 
  -12032   -12077   -11995   -11910   -11784   -11660   -11588   -11488 
  -11447   -11592   -11803   -12014   -12271   -12390   -12237   -12078 
  -12071   -12071   -12054   -12094   -12154   -12142   -11991   -11734 
  -11466   -11179   -10888   -10694   -10558   -10498   -10526   -10417 
  -10187   -10062   -10025   -10104   -10405   -10752   -10968   -11121 
  -11214   -11160   -10972   -10632   -10185    -9765    -9376    -9127 
   -9168    -9282    -9243    -9145    -9041    -8938    -8957    -9068 
   -9149    -9279    -9435    -9467    -9428    -9329    -9097    -8810 
   -8591    -8528    -8569    -8614    -8780    -9097    -9349    -9518 
   -9725    -9876    -9941   -10037   -10128   -10194   -10255   -10268 
  -10353   -10534   -10539   -10296    -9968    -9655    -9473    -9479 
   -9529    -9527    -9489    -9385    -9281    -9316    -9494    -9824 
  -10362   -10984   -11514   -11954   -12258   -12332   -12360   -12467 
  -12527   -12499   -12354   -12090   -11856   -11701   -11573   -11491 
  -11454   -11470   -11622   -11825   -11921   -11959   -11920   -11770 
  -11697   -11767   -11918   -12070   -11966   -11584   -11187   -10765 
  -10219    -9731    -9355    -8961    -8728    -8718    -8727    -8854 
   -9134    -9391    -9731   -10209   -10599   -10809   -10867   -10753 
  -10520   -10219    -9881    -9618    -9348    -8960    -8657    -8479 
   -8348    -8422    -8608    -8758    -9026    -9327    -9428    -9408 
   -9369    -9299    -9331    -9469    -9518    -9546    -9594    -9507 
   -9373    -9249    -8974    -8625    -8348    -8043    -7749    -7654 
   -7760    -8013    -8358    -8704    -8993    -9103    -9052    -9110 
   -9334    -9562    -9702    -9604    -9195    -8688    -8200    -7642 
   -7077    -6625    -6293    -6164    -6286    -6573    -6958    -7345 
   -7714    -8208    -8835    -9343    -9589    -9619    -9441    -9204 
   -9027    -8781    -8571    -8494    -8341    -8264    -8511    -8833 
   -9086    -9385    -9699   -10001   -10220   -10109    -9748    -9454 
   -9203    -8916    -8701    -8639    -8726    -8846    -8983    -9259 
   -9521    -9558    -9533    -9658    -9871   -10050   -10159   -10234 
  -10328   -10363   -10298   -10285   -10356   -10326   -10091    -9776 
   -9567    -9521    -9518    -9476    -9516    -9741    -9995   -10114 
  -10130   -10054    -9912    -9826    -9791    -9827   -10047   -10370 
  -10669   -10896   -10979   -11091   -11446   -11826   -12056   -12292 
  -12518   -12609   -12627   -12524   -12183   -11774   -11542   -11493 
  -11455   -11329   -11189   -11084   -11007   -11069   -11317   -11625 
  -11973   -12388   -12737   -13038   -13437   -13853   -14171   -14405 
  -14489   -14506   -14648   -14723   -14499   -14237   -14161   -14116 
  -14090   -14239   -14464   -14629   -14770   -14881   -14887   -14840 
  -14863   -14881   -14775   -14770   -15062   -15416   -15679   -15909 
  -15919   -15591   -15152   -14737   -14332   -14023   -13855   -13763 
  -13690   -13598   -13495   -13431   -13402   -13319   -13089   -12773 
  -12555   -12425   -12224   -12003   -11791   -11448   -11094   -10904 
  -10754   -10576   -10527   -10717   -11070   -11409   -11621   -11715 
  -11754   -11802   -11958   -12259   -12550   -12740   -12941   -13181 
  -13370   -13506   -13608   -13581   -13343   -12983   -12608   -12235 
  -11843   -11424   -11057   -10736   -10377   -10065    -9856    -9596 
   -9243    -8989    -8907    -8843    -8763    -8799    -8951    -9133 
   -9393    -9721    -9915    -9958    -9991    -9987    -9957    -9935 
   -9757    -9412    -9039    -8559    -7934    -7384    -7005    -6751 
   -6653    -6677    -6780    -6950    -7083    -7195    -7353    -7492 
   -7577    -7591    -7526    -7491    -7548    -7646    -7849    -8202 
   -8518    -8744    -9032    -9341    -9520    -9528    -9395    -9190 
   -8961    -8718    -8489    -8313    -8190    -8180    -8387    -8716 
   -9009    -9216    -9240    -9164    -9208    -9331    -9521    -9948 
  -10510   -10941   -11227   -11423   -11512   -11526   -11492   -11499 
  -11693   -11980   -12140   -12186   -12300   -12541   -12754   -12838 
  -12852   -12830   -12828   -12915   -13026   -13127   -13388   -13869 
  -14385   -14858   -15236   -15339   -15186   -15017   -14900   -14702 
  -14434   -14236   -14106   -14045   -14056   -14006   -13833   -13645 
  -13558   -13532   -13448   -13335   -13232   -13078   -12955   -12931 
  -12790   -12455   -12229   -12249   -12330   -12383   -12472   -12595 
  -12710   -12824   -12926   -12943   -12880   -12769   -12577   -12358 
  -12188   -12019   -11830   -11725   -11718   -11674   -11539   -11359 
  -11130   -10822   -10500   -10311   -10254   -10170   -10034    -9914 
   -9833    -9892   -10153   -10479   -10715   -10858   -10934   -10884 
  -10727   -10559   -10370   -10187   -10192   -10429   -10703   -10899 
  -10966   -10805   -10492   -10184    -9875    -9546    -9276    -9195 
   -9375    -9653    -9800    -9844    -9913    -9994   -10018    -9981 
   -9956    -9969    -9962    -9969   -10069   -10160   -10105    -9930 
   -9762    -9677    -9594    -9464    -9444    -9620    -9836   -10011 
  -10200   -10372   -10570   -10898   -11192   -11246   -11180   -11187 
  -11294   -11417   -11444   -11443   -11568   -11758   -11874   -11861 
  -11750   -11680   -11731   -11962   -12436   -12870   -12942   -12814 
  -12674   -12498   -12354   -12220   -11962   -11725   -11687   -11632 
  -11445   -11361   -11426   -11497   -11549   -11531   -11356   -11036 
  -10610   -10127    -9673    -9299    -9045    -8935    -8925    -8963 
   -9004    -9021    -9068    -9146    -9189    -9252    -9352    -9374 
   -9340    -9371    -9409    -9339    -9206    -9156    -9197    -9229 
   -9269    -9366    -9397    -9329    -9312    -9383    -9474    -9610 
   -9746    -9693    -9460    -9262    -9165    -9149    -9248    -9380 
   -9448    -9504    -9513    -9372    -9155    -8932    -8700    -8552 
   -8518    -8468    -8383    -8368    -8435    -8519    -8576    -8631 
   -8734    -8843    -8893    -8920    -8994    -9165    -9467    -9852 
  -10286   -10787   -11239   -11539   -11832   -12075   -12022   -11821 
  -11740   -11657   -11454   -11203   -10939   -10695   -10509   -10390 
  -10317   -10177    -9965    -9893    -9998   -10081   -10148   -10410 
  -10900   -11427   -11838   -12121   -12257   -12190   -12017   -11936 
  -11931   -11807   -11576   -11407   -11218   -10883   -10566   -10435 
  -10475   -10554   -10521   -10402   -10322   -10280   -10194   -10053 
   -9914    -9852    -9876    -9908    -9968   -10165   -10483   -10847 
  -11222   -11575   -11873   -12116   -12384   -12772   -13252   -13662 
  -13821   -13766   -13696   -13678   -13686   -13716   -13760   -13801 
  -13836   -13821   -13679   -13446   -13252   -13094   -12858   -12570 
  -12357   -12217   -12065   -11855   -11606   -11390   -11243   -11089 
  -10896   -10730   -10615   -10525   -10426   -10324   -10270   -10228 
  -10073    -9837    -9744    -9845    -9882    -9713    -9536    -9537 
   -9685    -9887   -10054   -10152   -10215   -10261   -10352   -10521 
  -10649   -10655   -10572   -10473   -10455   -10524   -10530   -10398 
  -10238   -10133   -10043    -9910    -9744    -9692    -9844   -10048 
  -10217   -10419   -10648   -10833   -10913   -10850   -10713   -10623 
  -10599   -10682   -10934   -11202   -11311   -11296   -11172   -10895 
  -10548   -10225    -9943    -9769    -9748    -9777    -9799    -9901 
  -10122   -10393   -10577   -10588   -10543   -10620   -10818   -11032 
  -11206   -11265   -11159   -11034   -11031   -11035   -10948   -10905 
  -10979   -11080   -11168   -11210   -11203   -11225   -11303   -11438 
  -11598   -11664   -11574   -11351   -11130   -11053   -11042   -11023 
  -11069   -11119   -11034   -10757   -10239    -9560    -9026    -8769 
   -8600    -8371    -8056    -7704    -7473    -7409    -7404    -7382 
   -7339    -7310    -7369    -7581    -7964    -8469    -8956    -9377 
   -9796   -10139   -10340   -10471   -10502   -10427   -10383   -10403 
  -10418   -10368   -10159    -9773    -9407    -9202    -9017    -8767 
   -8557    -8424    -8289    -8130    -8031    -7951    -7768    -7637 
   -7789    -8101    -8379    -8651    -8907    -9073    -9197    -9305 
   -9333    -9266    -9145    -9043    -8977    -8830    -8595    -8480 
   -8606    -8866    -9187    -9570    -9918   -10160   -10382   -10701 
  -11134   -11568   -11920   -12218   -12463   -12650   -12873   -13182 
  -13426   -13520   -13573   -13626   -13695   -13810   -13875   -13838 
  -13744   -13617   -13520   -13505   -13539   -13606   -13667   -13587 
  -13357   -13156   -13050   -13018   -13077   -13177   -13314   -13494 
