Origin Time       2011/03/11 14:46:00
Lat.              38.103
Long.             142.860
Depth. (km)       24
Mag.              9.0
Station Code      HKD094
Station Lat.      43.1692
Station Long.     143.2410
Station Height(m) 204
Record Time       2011/03/11 14:48:12
Sampling Freq(Hz) 100Hz
Duration Time(s)  300
Dir.              E-W
Scale Factor      3920(gal)/6182761
Max. Acc. (gal)   16.797
Last Correction   2011/03/11 14:47:57
Memo.             
[...]
  -34555   -33214   -32905   -33921   -35877   -38140   -39781   -39947 
  -38524   -36170   -34159   -33743   -35059   -37179   -38950   -39580 
  -39104   -38065   -36721   -35172   -33754   -32911   -32862   -33317 
  -33931   -34811   -35753   -36019   -35630   -35422   -35624   -35779 
  -35777   -35914   -36025   -35605   -34695   -33518   -32022   -30633 
  -29968   -29818   -29667   -29377   -29053   -28925   -29011   -29068 
  -29114   -29175   -28984   -28562   -28205   -28142   -28765   -30194 
  -31733   -32540   -32220   -30820   -28918   -27431   -26807   -26737 
  -26907   -27273   -27588   -27538   -27237   -26943   -26663   -26375 
  -26012   -25492   -25069   -24935   -24947   -25212   -25988   -27058 
  -27906   -28168   -27512   -25831   -24021   -23371   -24174   -25795 
  -27379   -28363   -28573   -27781   -26101   -24261   -22712   -21574 
  -21099   -21338   -21958   -22454   -22438   -21989   -21358   -20631 
  -20022   -19460   -18445   -17127   -16169   -15822   -16026   -16486 
  -16838   -17032   -16999   -16769   -16825   -17319   -17919   -18585 
  -19307   -19664   -19358   -18523   -17541   -16762   -15994   -14623 
  -12450   -10210    -8896    -8719    -9477   -10970   -12593   -13886 
  -14888   -15369   -15025   -14185   -13448   -13099   -13165   -13519 
  -13764   -13488   -12721   -11872   -11413   -11692   -12778   -14423 
  -16259   -18055   -19707   -21157   -22437   -23499   -24174   -24453 
  -24411   -23957   -22967   -21750   -20981   -20970   -21492   -22177 
  -22799   -23264   -23430   -23339   -23125   -22646   -22037   -21980 
  -22957   -24741   -26590   -27650   -27432   -26295   -25192   -24761 
  -25045   -25839   -26687   -26847   -26313   -26176   -26955   -28067 
  -29186   -30441   -31639   -32420   -32706   -32788   -33218   -34142 
  -34937   -35084   -34825   -34557   -34249   -33922   -33901   -34240 
  -34881   -36137   -37863   -38914   -38495   -37190   -36231   -36512 
  -38185   -40492   -42368   -43527   -44228   -44496   -44473   -44624 
  -45300   -46399   -47137   -46659   -45036   -43047   -41303   -39940 
  -38805   -37848   -37214   -36845   -36390   -35787   -35591   -36361 
  -37981   -39838   -41362   -42413   -43241   -43918   -44188   -43989 
  -43536   -43020   -42579   -42327   -42217   -42087   -41969   -41803 
  -41412   -41225   -41500   -41513   -40887   -40060   -39327   -38668 
  -38023   -37355   -36614   -35632   -34163   -32426   -31211   -30889 
  -31102   -31519   -32022   -32440   -32546   -32331   -32168   -32192 
  -31976   -31300   -30497   -29920   -29443   -28797   -28195   -27741 
  -26975   -25751   -24316   -22829   -21633   -20998   -20629   -20256 
  -19905   -19568   -19536   -20157   -20977   -21458   -21785   -22047 
  -21931   -21452   -21126   -21253   -21329   -20743   -19538   -18154 
  -17159   -16767   -16646   -16518   -16162   -15512   -15122   -15227 
  -15152   -14777   -14811   -15303   -15613   -15344   -14462   -13240 
  -12101   -11344   -11217   -11691   -12258   -12602   -12999   -13666 
  -14177   -14001   -13507   -13639   -14591   -15873   -17245   -18457 
  -19077   -19276   -19755   -20877   -22496   -24177   -25449   -26251 
  -26944   -27780   -28665   -29471   -30210   -30779   -31150   -31548 
  -31912   -31783   -31076   -30567   -30957   -31960   -33104   -34157 
  -34728   -34766   -34606   -34263   -33511   -32309   -30939   -29994 
  -29882   -30193   -30352   -30520   -30887   -31125   -31160   -31462 
  -32304   -33368   -34278   -34909   -35122   -34853   -34289   -33806 
  -33835   -34374   -34803   -34501   -33562   -32720   -32422   -32299 
  -31713   -30554   -29375   -28815   -28904   -28958   -28394   -27498 
  -26994   -27107   -27509   -27814   -27864   -27939   -28398   -29085 
  -29598   -29732   -29527   -29314   -29438   -29563   -29048   -27973 
  -26616   -25159   -24213   -23838   -23242   -22208   -21226   -20579 
  -20125   -19693   -19250   -18787   -18433   -18320   -18227   -17950 
  -17649   -17421   -17098   -16612   -16022   -15287   -14308   -13130 
  -12051   -11297   -10815   -10611   -10616   -10423    -9989   -10061 
  -11133   -12614   -13580   -13894   -14242   -15379   -17268   -19006 
  -19800   -19421   -18159   -16864   -15987   -15164   -14447   -14229 
  -14080   -13435   -12356   -10948    -9383    -8193    -7871    -8425 
   -9306    -9790    -9467    -8547    -7789    -7813    -8660    -9929 
  -10999   -11510   -11784   -12432   -13490   -14273   -14186   -13267 
  -11961   -10825   -10447   -11181   -12720   -14235   -15065   -15066 
  -14536   -14187   -14815   -16450   -18272   -19785   -21124   -22153 
  -22623   -22785   -22834   -22603   -22287   -22396   -22944   -23551 
  -24029   -24469   -25131   -26045   -26770   -26969   -26687   -26285 
  -26461   -27287   -28064   -28686   -29356   -29835   -30096   -30297 
  -30394   -30535   -31215   -32565   -33827   -34172   -33506   -32294 
  -31405   -31615   -32630   -33414   -33560   -33153   -32131   -31071 
  -30799   -30920   -30723   -30440   -30459   -30819   -31499   -32340 
  -33114   -33711   -34089   -34183   -33804   -33048   -32655   -33185 
  -34400   -35769   -36879   -37703   -38595   -39552   -40146   -40192 
  -39808   -39064   -37853   -36343   -35083   -34401   -34484   -35395 
  -36545   -37310   -37651   -37662   -37541   -37631   -37888   -37938 
  -37550   -36503   -34690   -32627   -31011   -29954   -29118   -28032 
  -26472   -24715   -22944   -21135   -19821   -19659   -20255   -20775 
  -20995   -20847   -20161   -19011   -17623   -16155   -14697   -13401 
  -12321   -11428   -10992   -11188   -11828   -12774   -13671   -14061 
  -14066   -13893   -13574   -13600   -14362   -15223   -15390   -14999 
  -14488   -14057   -13987   -14338   -14788   -15082   -15007   -14752 
  -15024   -15820   -16421   -16728   -17196   -18055   -19036   -19504 
  -19216   -18596   -18080   -18078   -18900   -20104   -20952   -21281 
  -21360   -21376   -21232   -20982   -21030   -21442   -21895   -22202 
  -22262   -22078   -21838   -21683   -21812   -22349   -23047   -23964 
  -25397   -26840   -27547   -27676   -27724   -27851   -28338   -29487 
  -30883   -31868   -32426   -32961   -33660   -34216   -34192   -33940 
  -34399   -35606   -36729   -37268   -37070   -36280   -35512   -35024 
  -34445   -33558   -32645   -32056   -31708   -31211   -30336   -29239 
  -28332   -27814   -27617   -27874   -28585   -29162   -29202   -28655 
  -27364   -25720   -24644   -24522   -25178   -26196   -27009   -27200 
  -26656   -25796   -25395   -25930   -27227   -28579   -29462   -30001 
  -30491   -31020   -31604   -32233   -32985   -33983   -34921   -35289 
  -35077   -34839   -35421   -37126   -39047   -40079   -40093   -39616 
  -39060   -38626   -38325   -37994   -37689   -37448   -36937   -36093 
  -35259   -34669   -34357   -34214   -33879   -32690   -30593   -28537 
  -26895   -25209   -23547   -22244   -21273   -20448   -19383   -18006 
  -17050   -16838   -16658   -16136   -15611   -15142   -14696   -14502 
  -14552   -14849   -15571   -16350   -16517   -15956   -15024   -14243 
  -14264   -15332   -17062   -19075   -20960   -22052   -22168   -21757 
  -21258   -20923   -20920   -21270   -21603   -21374   -20777   -20623 
  -21006   -21401   -21601   -21707   -21958   -22493   -23235   -24051 
  -24440   -23725   -22013   -20284   -19254   -18747   -18392   -18000 
  -17389   -16568   -15767   -15260   -14854   -14113   -13541   -13846 
  -14600   -15210   -15822   -16670   -17639   -18555   -19265   -19575 
  -19566   -19727   -20494   -21632   -22353   -22279   -21790   -21455 
  -21359   -20865   -19821   -19181   -19497   -20420   -21535   -22501 
  -23285   -24336   -25716   -26860   -27565   -28186   -28952   -29740 
  -30168   -29824   -28836   -27926   -27467   -27115   -26843   -27171 
  -28026   -28751   -29098   -29204   -29317   -29705   -30236   -30474 
  -30467   -30900   -32077   -33417   -34187   -34195   -33922   -34133 
  -34992   -35904   -36319   -36060   -35186   -34003   -32826   -31901 
  -31666   -32300   -33178   -33368   -32571   -31376   -30604   -30611 
  -31122   -31572   -31711   -31646   -31627   -31988   -32885   -34204 
  -35632   -36631   -36997   -37119   -37133   -36895   -36709   -36807 
  -36871   -36689   -36179   -35277   -34238   -33210   -32209   -31464 
  -30939   -30622   -30896   -31527   -31751   -31471   -30981   -30277 
  -29373   -28370   -27090   -25459   -23886   -22617   -21197   -19282 
  -17309   -15706   -14682   -14753   -15971   -17455   -18389   -18736 
  -19059   -19663   -20075   -20033   -20094   -20572   -21184   -21933 
  -22817   -23103   -22311   -20877   -19309   -17988   -17257   -17009 
  -17012   -16936   -16186   -14894   -13811   -13280   -13479   -14454 
  -15925   -17675   -19288   -20274   -20980   -21883   -22527   -22513 
  -22284   -22244   -22492   -23257   -24478   -25518   -25794   -25328 
  -24739   -24771   -25504   -26255   -26433   -26123   -25836   -25951 
  -26477   -27241   -27993   -28551   -28959   -29058   -28625   -28100 
  -28109   -28971   -30686   -32563   -33785   -34261   -34307   -34345 
  -34832   -35744   -36476   -36825   -37060   -37076   -37212   -38383 
  -40230   -41482   -41709   -41090   -39788   -38028   -36041   -34272 
  -33498   -33962   -34801   -35146   -35102   -35177   -35595   -36167 
  -36427   -36079   -35474   -35326   -35596   -35583   -35091   -34333 
  -33543   -33023   -32768   -32638   -32970   -34074   -35629   -37082 
  -37929   -37892   -37246   -36507   -35971   -35547   -34778   -33332 
  -31428   -29679   -28653   -28679   -29670   -31021   -32035   -32372 
  -32193   -31903   -31731   -31890   -32467   -33105   -33434   -33271 
  -32580   -31555   -30398   -29207   -28167   -27426   -26781   -26081 
  -25413   -24777   -24325   -24287   -24394   -24233   -24069   -24642 
  -26087   -27743   -29141   -30282   -30863   -30487   -29630   -29285 
  -29803   -30747   -31491   -31619   -31270   -30991   -30941   -30797 
  -30259   -29260   -28284   -28083   -28438   -28355   -27708   -27240 
  -27134   -26865   -26116   -25052   -24007   -23222   -22785   -22320 
  -20934   -18317   -15296   -12818   -11236   -10390    -9844    -9279 
   -8804    -8808    -9488   -10582   -11507   -12007   -12330   -12385 
  -12077   -12220   -13308   -14452   -14760   -14413   -13839   -13030 
  -11893   -10581    -9473    -8799    -8235    -7488    -7004    -7258 
   -8089    -9114    -9880    -9905    -9279    -8761    -8870    -9243 
   -9431    -9663   -10206   -10933   -11541   -11715   -11375   -10523 
   -9460    -9233   -10484   -12472   -13977   -14153   -12970   -11404 
  -10319    -9639    -9131    -8642    -7941    -7308    -7033    -6669 
   -5915    -4989    -3909    -2769    -2134    -2191    -2529    -3086 
   -4102    -5544    -7218    -8825   -10078   -10826   -11061   -11110 
  -11402   -11961   -12482   -12917   -13594   -14539   -15466   -16341 
  -17312   -18662   -20685   -23195   -25494   -26957   -27666   -28050 
  -28298   -28526   -28449   -27596   -26663   -26858   -27880   -28358 
  -27710   -26391   -25083   -24350   -24453   -25067   -25603   -25889 
  -26230   -26759   -27411   -28389   -29805   -31452   -33009   -33994 
  -34144   -33631   -32842   -32255   -32257   -33102   -34388   -34964 
  -34462   -33753   -33634   -34116   -34908   -35956   -37289   -38782 
  -40164   -41257   -42293   -43412   -44220   -44364   -43839   -42714 
  -41428   -40990   -41793   -42684   -42562   -41864   -41322   -40944 
  -40529   -39988   -39253   -38378   -37775   -37753   -38157   -38844 
  -39420   -39191   -38244   -37162   -36052   -35030   -34607   -34920 
  -35400   -35643   -35874   -36315   -36882   -37339   -37388   -36947 
  -36300   -35855   -35812   -36039   -36383   -36941   -37873   -38971 
  -39695   -39830   -39522   -38846   -37963   -37267   -37154   -37665 
  -38175   -37943   -36907   -35492   -34173   -33203   -32387   -31494 
  -30681   -29927   -28787   -27261   -25996   -25427   -25360   -25410 
  -25508   -25662   -25628   -25306   -25021   -25032   -25071   -24748 
  -24315   -24465   -25353   -26484   -27225   -27092   -26022   -24386 
  -22796   -21840   -21532   -21548   -21901   -22495   -22745   -22344 
  -21622   -21022   -20858   -21337   -22421   -23698   -24543   -24751 
  -24806   -25071   -25236   -24916   -24131   -23025   -21805   -21077 
  -21397   -22369   -22978   -22734   -21963   -21153   -20249   -18957 
  -17555   -16591   -16409   -17180   -18635   -20048   -20831   -20927 
  -20458   -19346   -17852   -16870   -16987   -17907   -18989   -19908 
  -20750   -21561   -22164   -22613   -23265   -24203   -25176   -26129 
  -27136   -27923   -28136   -27742   -26773   -25290   -23672   -22545 
  -22244   -22371   -22303   -21880   -21340   -21016   -21008   -21367 
  -22318   -23436   -23794   -23413   -23044   -23112   -23783   -24902 
  -25855   -26202   -25764   -24584   -23396   -22868   -22779   -22931 
  -23410   -23713   -23266   -22283   -21258   -20684   -21097   -22381 
  -23821   -25175   -26706   -28296   -29451   -30015   -30286   -30723 
  -31611   -32647   -33145   -32816   -31870   -30607   -29563   -29389 
  -30016   -30810   -31610   -32646   -33665   -34241   -34615   -35346 
  -36701   -38721   -41137   -43437   -45347   -46831   -47892   -48601 
  -48928   -48851   -48647   -48700   -49263   -50008   -50158   -49592 
  -48783   -48012   -47407   -46905   -46280   -45702   -45709   -46493 
  -47684   -48938   -50123   -51031   -51640   -51944   -51620   -50782 
  -50123   -50196   -50974   -51580   -50804   -48367   -45199   -42337 
  -40198   -38786   -37702   -36311   -34478   -32573   -30954   -29858 
  -29250   -28853   -28565   -28364   -28013   -27632   -27739   -28211 
  -28618   -29154   -29887   -30187   -29665   -28616   -27519   -26803 
  -26459   -25982   -25426   -25465   -26274   -27437   -28463   -28884 
  -28375   -27262   -26400   -25924   -25246   -24381   -23711   -23312 
  -23240   -23271   -22925   -22311   -21868   -21706   -21864   -22391 
  -23173   -24033   -24658   -24770   -24494   -24039   -23345   -22030 
  -19854   -17740   -16897   -17135   -17581   -17722   -17248   -16098 
  -14671   -13446   -12455   -11523   -10805   -10610   -10701   -10379 
   -9798    -9856   -10526   -11148   -11317   -10611    -9167    -7840 
   -7089    -6997    -7611    -8527    -9135    -9286    -9232    -9171 
   -9334    -9996   -10908   -11385   -11101   -10708   -11309   -13068 
  -15399   -17878   -19993   -21250   -21555   -21010   -20069   -19353 
  -19021   -19102   -19719   -20542   -21161   -21593   -21892   -21979 
  -21819   -21602   -21827   -22739   -23978   -25116   -25963   -26558 
  -27220   -28138   -29172   -30222   -31321   -32445   -33608   -34952 
  -36375   -37681   -38898   -39863   -40644   -41912   -43692   -45157 
  -45919   -46128   -45846   -45079   -44028   -42949   -41848   -40689 
  -39741   -39249   -39067   -38999   -39080   -39175   -38994   -38626 
  -38214   -37644   -36840   -35740   -34341   -32708   -30726   -28440 
  -26260   -24496   -22967   -21131   -18753   -16219   -14050   -12303 
  -10775    -9606    -8758    -7924    -7313    -6946    -6266    -4995 
   -3439    -2728    -3933    -6726   -10050   -12846   -14215   -14072 
  -13097   -12028   -11290   -11059   -11315   -11686   -11739   -11381 
  -10743   -10101    -9813    -9952   -10151    -9940    -9315    -8837 
   -9224   -10773   -12745   -13778   -13559   -13254   -13623   -14131 
  -14431   -14770   -15099   -15377   -15803   -16173   -16043   -15489 
  -15077   -15200   -15647   -15940   -15972   -15764   -15313   -15186 
  -16008   -17430   -18530   -18892   -19077   -19976   -21760   -23863 
  -25466   -25860   -25030   -23601   -22225   -21424   -21268   -21257 
  -21182   -20985   -20065   -18216   -16082   -14272   -13177   -13226 
  -14526   -16415   -17879   -18373   -18022   -17506   -17713   -18841 
  -20099   -20715   -20709   -20380   -19851   -19328   -19056   -19128 
  -19407   -19264   -18257   -16995   -16463   -17124   -18686   -20200 
  -20851   -20787   -20623   -20503   -20319   -20168   -20104   -20181 
  -20488   -20868   -21073   -20972   -20385   -19287   -18224   -17676 
  -17566   -17952   -18975   -20295   -21418   -21770   -21153   -20469 
  -20672   -21698   -22899   -23713   -24152   -24618   -25417   -26671 
  -28042   -28909   -29138   -29118   -29114   -29133   -29145   -28966 
  -28502   -27896   -27092   -26127   -25355   -24823   -24547   -24769 
  -25029   -24740   -24428   -24558   -24737   -24672   -24189   -23255 
  -22670   -23188   -24262   -24811   -24515   -23724   -23059   -22960 
  -23194   -23772   -25088   -26758   -28138   -28769   -28052   -26373 
  -25328   -25811   -27140   -27892   -27034   -24966   -23007   -21653 
  -20770   -20593   -20983   -21160   -20770   -20206   -19977   -20323 
  -21463   -23348   -25152   -26120   -26351   -26442   -27016   -27965 
  -28751   -29699   -31283   -32809   -33309   -32769   -31836   -31064 
  -30677   -30666   -30762   -30755   -30899   -31444   -32271   -33113 
  -33732   -34058   -34302   -34793   -35435   -35745   -35794   -36134 
  -36686   -36877   -36451   -35463   -34018   -32140   -29764   -27326 
  -25883   -25945   -26890   -27916   -28835   -29808   -30607   -30813 
  -30617   -30560   -30924   -31729   -32751   -33724   -34499   -34895 
  -34687   -33856   -32880   -32375   -32188   -31724   -30962   -30110 
  -29248   -28847   -29166   -29741   -30315   -30713   -30216   -28642 
  -26874   -25772   -25762   -26819   -28068   -28838   -29514   -30105 
  -29955   -29113   -28279   -28116   -28801   -29638   -29945   -30006 
  -30350   -30905   -31467   -31985   -32136   -31773   -31195   -30538 
  -29798   -28985   -28332   -28464   -29381   -30183   -30311   -30053 
  -29756   -29427   -29260   -29575   -30208   -30643   -30583   -30232 
  -29789   -29196   -28714   -28535   -28319   -27820   -27166   -26676 
  -26331   -25568   -24390   -23694   -23812   -24108   -24133   -23905 
  -23429   -22860   -22728   -23605   -25469   -27561   -29123   -29848 
  -29764   -29220   -28772   -28883   -29550   -30244   -30550   -30471 
  -29954   -28728   -26973   -25646   -25569   -26706   -28521   -30330 
  -31641   -32419   -32777   -32805   -32710   -32686   -32604   -32272 
  -31834   -31260   -30402   -29643   -29148   -28671   -28355   -28326 
  -28267   -27921   -27496   -27392   -27673   -28083   -28154   -27453 
  -26020   -24169   -22362   -21100   -20324   -19663   -19277   -19377 
  -19491   -19171   -18578   -18070   -18106   -18969   -20133   -20760 
  -20625   -20145   -19884   -20099   -20816   -21855   -22365   -21632 
  -20487   -20298   -21345   -23163   -24948   -25781   -25597   -25069 
  -24618   -24392   -24372   -24411   -24824   -25947   -27078   -27222 
  -26422   -25280   -24002   -22720   -21800   -21332   -20814   -19880 
  -19276   -20102   -22141   -24248   -25708   -26287   -26309   -26555 
  -27133   -27614   -28050   -28730   -29640   -30265   -29760   -28128 
  -26637   -26248   -26682   -27222   -27433   -27378   -27391   -27770 
  -28870   -30558   -31725   -31716   -31224   -30805   -30373   -30032 
  -29790   -29579   -29670   -30072   -30457   -30529   -30081   -29341 
  -28789   -28426   -28078   -27843   -27697   -27630   -27872   -28361 
