Origin Time       2011/03/11 14:46:00
Lat.              38.103
Long.             142.860
Depth. (km)       24
Mag.              9.0
Station Code      HKD096
Station Lat.      42.6977
Station Long.     143.1357
Station Height(m) 192
Record Time       2011/03/11 14:48:04
Sampling Freq(Hz) 100Hz
Duration Time(s)  300
Dir.              U-D
Scale Factor      3920(gal)/6182761
Max. Acc. (gal)   10.590
Last Correction   2011/03/11 14:47:49
Memo.             
[...]
  -18300   -19121   -16669   -16388   -18200   -17109   -14933   -15797 
  -16822   -14898   -13423   -15008   -16563   -15820   -14407   -13442 
  -12958   -13296   -13379   -11702    -9694    -9976   -11613   -11447 
   -9852   -10198   -12528   -12980   -10069    -7088    -7288    -9731 
  -11262   -10673    -9627   -10623   -13603   -15096   -13995   -14619 
  -18476   -19594   -15680   -13886   -16737   -17550   -15763   -17270 
  -20079   -18578   -14988   -13621   -14821   -18353   -21487   -19352 
  -14567   -14904   -19765   -21856   -20214   -19501   -19932   -19117 
  -18191   -18305   -18676   -19008   -18435   -16614   -15954   -18264 
  -21361   -21804   -20401   -20806   -22755   -23163   -21857   -21040 
  -21582   -21724   -19581   -16541   -15364   -15428   -14341   -12801 
  -12366   -11769   -10235    -9496   -11010   -14581   -17862   -17990 
  -15923   -15523   -17675   -18861   -16926   -14834   -15064   -16458 
  -18476   -19865   -17511   -13242   -12534   -14925   -15304   -12755 
  -10477   -10177   -11986   -15322   -17209   -15833   -14009   -13895 
  -14219   -14167   -13854   -13023   -12557   -13693   -14641   -13200 
  -11817   -13061   -14553   -13877   -11811   -10044   -10349   -12770 
  -14186   -12621   -10756   -11581   -13846   -15118   -15396   -15253 
  -14527   -13768   -13974   -14778   -14560   -13087   -12106   -12586 
  -13879   -14627   -14286   -14474   -15753   -16007   -14938   -14784 
  -16375   -17900   -16425   -11748    -8640   -10471   -13599   -14068 
  -13869   -14794   -14450   -13598   -16530   -20768   -19808   -15212 
  -13149   -14423   -16462   -17815   -17250   -14946   -13595   -14014 
  -14157   -13724   -14678   -16948   -17637   -16142   -15096   -15115 
  -15668   -17650   -18775   -15462   -11972   -14722   -19702   -19646 
  -16460   -14597   -12849   -10879   -11600   -13511   -13424   -13102 
  -12590    -9196    -6585    -8810   -11786   -12544   -13200   -12138 
   -7663    -6078   -10911   -14920   -13521   -11215   -10527   -10058 
  -11566   -15555   -16535   -12925   -10968   -12347   -12446   -12220 
  -15184   -17491   -15334   -12456   -12043   -12467   -13015   -14063 
  -14320   -14263   -15549   -15520   -12616   -12069   -15489   -16911 
  -15193   -14937   -15869   -15274   -14933   -16174   -16814   -16439 
  -15922   -13814   -10575   -10862   -15346   -17856   -15372   -12173 
  -11568   -11326    -9223    -7284    -7174    -6732    -5092    -5191 
   -8229   -11269   -11897   -10909   -10003   -10450   -12303   -13374 
  -12572   -11969   -12680   -12995   -11738   -10198    -9643    -9903 
  -10880   -11228    -9336    -8130   -10616   -13724   -14288   -13784 
  -13771   -13248   -12129   -13108   -16813   -19614   -19506   -18048 
  -16717   -16563   -17939   -18550   -16209   -13087   -12424   -13093 
  -12640   -12455   -14727   -16600   -13723    -9171   -10032   -15450 
  -18004   -15867   -13827   -13794   -13770   -13615   -13963   -14308 
  -14946   -15154   -13788   -13975   -18272   -21683   -19059   -14119 
  -12693   -14341   -16263   -16809   -15064   -13460   -15063   -17476 
  -17471   -16347   -14993   -12747   -11814   -13394   -13952   -11912 
   -9893    -9042    -9345   -11371   -12980   -10945    -7647    -8596 
  -12298   -12956   -11876   -12726   -12782   -10855   -11476   -14499 
  -14052   -10412    -9428   -11041   -12531   -15259   -17613   -15867 
  -13307   -14284   -16364   -16886   -17639   -19628   -20985   -20843 
  -20433   -20577   -20736   -20386   -19585   -18141   -16072   -14396 
  -14470   -17167   -21141   -22158   -17961   -12700   -12289   -16268 
  -19042   -18948   -19008   -19538   -18665   -17276   -16817   -16594 
  -16485   -17990   -20426   -20651   -18306   -15945   -15294   -17292 
  -20562   -20071   -14438   -10344   -13077   -18791   -21363   -20069 
  -17503   -16457   -18105   -19336   -16815   -13399   -13361   -15011 
  -14781   -13531   -13529   -14261   -14107   -12313   -10015   -10030 
  -12001   -11834    -9844   -10541   -12814   -12319   -11188   -13142 
  -15844   -17121   -18430   -19195   -17941   -16476   -16631   -17765 
  -19362   -20687   -19562   -16745   -16156   -18285   -20654   -22205 
  -21871   -19026   -16505   -17259   -19710   -20213   -18709   -18449 
  -19995   -20294   -18399   -16488   -15939   -17104   -19541   -20660 
  -19152   -17541   -17499   -17798   -18433   -19797   -18880   -14417 
  -11552   -13793   -17214   -18009   -17491   -16762   -14850   -12860 
  -12886   -13558   -12603   -12122   -14883   -18099   -18032   -16547 
  -16633   -16697   -14997   -13783   -14000   -13141   -10897    -9978 
  -11574   -13509   -13161   -10641    -7587    -6110    -7537    -9876 
  -10943   -10596    -8905    -6986    -6129    -6741    -8950   -10847 
  -10455    -9229    -9671   -11774   -12811   -11152    -9461   -10381 
  -11707   -10725    -9605   -11329   -13993   -14223   -12826   -12560 
  -13073   -12368   -11298   -12033   -13854   -14447   -13673   -13154 
  -12878   -11911   -12353   -16022   -18737   -16958   -14810   -15353 
  -14999   -12868   -12795   -14848   -15867   -15517   -15150   -14969 
  -15072   -15236   -14145   -12206   -11723   -12109   -11127   -10183 
  -10952   -11670   -11671   -11876   -10613    -7217    -6046    -9152 
  -11736   -10838    -9796   -10794   -11666   -12082   -14386   -16260 
  -13035    -7454    -5712    -8250   -12171   -15010   -14081    -9374 
   -6241    -8778   -12521   -11830    -9399    -9673   -11528   -12850 
  -13359   -12773   -12223   -13163   -13314   -11314   -11560   -15213 
  -15978   -12853   -12802   -15990   -15435   -11681   -11140   -13708 
  -14804   -13748   -12568   -12512   -14043   -14987   -12135    -7905 
   -7732   -11088   -12661   -10383    -7875    -8683   -10474    -9448 
   -7545    -8175    -8942    -6174    -2954    -4962   -10238   -11457 
   -7786    -5533    -7389    -9914   -10999   -11455   -11074    -9724 
   -8875    -8632    -7621    -7149    -9401   -11026    -8008    -5010 
   -7744   -12273   -13021   -11982   -12707   -14604   -15747   -15332 
  -14083   -13645   -14628   -16023   -16179   -15074   -14626   -14784 
  -14401   -14926   -17231   -19511   -20299   -19887   -19297   -19184 
  -20462   -23324   -25469   -25378   -23563   -20814   -20371   -24514 
  -28169   -26384   -22807   -22120   -23278   -24856   -26793   -26922 
  -25077   -24949   -26449   -26200   -24936   -24498   -23410   -21837 
  -22163   -22813   -21087   -19163   -19236   -19345   -18319   -17863 
  -18251   -16905   -13662   -12866   -15563   -16907   -14888   -12807 
  -12997   -14320   -14935   -14405   -12932   -11692   -12768   -14808 
  -13710   -10324    -9440   -10826   -10621    -9669   -10624   -11223 
  -10002   -10694   -13669   -14585   -13488   -13590   -14861   -15933 
  -16011   -14271   -12538   -14038   -17047   -17033   -14552   -13467 
  -14492   -15747   -15917   -15283   -15036   -15558   -16325   -16602 
  -16605   -17727   -18839   -17259   -15115   -16131   -17710   -15992 
  -14293   -16330   -18282   -16855   -15340   -16119   -17572   -18726 
  -18685   -15861   -12724   -13559   -16332   -16132   -13673   -12492 
  -13449   -16045   -19308   -20442   -17843   -14568   -13497   -12805 
  -11499   -12007   -13422   -12293   -10363   -10665   -11127   -10445 
  -11063   -12993   -13650   -13237   -13658   -14561   -15566   -17568 
  -18615   -15963   -12189   -11753   -14026   -14916   -12890   -10080 
   -9009   -10723   -13925   -14577   -11402    -9155    -9647    -9131 
   -7911    -8981   -10621   -10612   -10292   -10393   -10063    -9902 
  -11213   -13567   -14859   -12656    -7166    -3597    -6854   -13138 
  -13983    -8896    -5109    -6438    -9735    -9977    -6544    -4233 
   -5865    -7801    -6812    -5768    -7343    -8951    -9097    -9745 
  -10541    -9823    -8563    -7864    -7753    -9461   -12693   -13325 
  -10814   -10729   -13748   -13625    -9376    -7203    -9881   -13470 
  -13835   -11376    -9907   -12162   -16156   -17509   -15207   -12145 
  -10516   -10327   -11713   -14287   -15312   -13425   -11610   -12428 
  -14289   -14694   -13535   -12130   -11676   -13245   -15742   -15001 
  -10255    -7522   -10394   -13999   -13339   -10373    -9110    -9318 
   -8897    -8930   -11224   -13849   -14359   -13645   -12671   -10401 
   -8196   -10048   -15049   -16919   -14157   -12007   -12937   -14656 
  -15823   -16000   -14532   -12857   -12882   -14276   -16152   -17581 
  -17341   -16702   -18017   -19328   -17608   -16071   -19266   -23582 
  -22923   -20042   -20618   -22677   -22919   -22975   -22911   -20545 
  -18339   -20399   -24153   -24691   -23496   -23355   -22714   -21555 
  -22197   -23774   -24153   -23744   -23300   -22002   -20454   -20869 
  -21979   -21085   -19999   -20658   -20763   -19494   -19416   -20373 
  -19921   -19462   -21617   -24305   -24141   -21436   -18949   -19247 
  -22525   -25786   -26185   -24025   -21643   -21125   -22443   -23386 
  -22268   -19922   -18701   -19673   -20481   -18657   -16625   -17762 
  -20195   -20464   -18839   -17769   -18765   -21131   -22739   -22104 
  -19890   -18374   -18586   -20043   -22121   -22475   -19912   -18138 
  -19358   -20216   -18163   -15368   -15103   -17015   -18215   -17886 
  -16925   -15962   -15766   -15686   -13940   -12007   -12495   -13360 
  -11950    -9931    -8966    -8261    -7391    -6859    -6888    -6980 
   -6220    -4666    -4090    -5588    -7226    -6481    -4027    -2844 
   -4103    -5869    -6117    -5104    -4901    -6940    -9387    -9614 
   -8594    -8980   -11083   -12811   -12572   -11491   -11127   -11183 
  -11441   -12128   -12479   -12283   -12340   -12494   -12727   -14021 
  -15728   -15974   -14783   -13868   -14227   -15009   -14962   -14256 
  -13631   -13526   -14219   -14981   -14534   -13538   -14369   -17082 
  -18524   -17044   -14857   -14698   -16754   -19121   -19256   -16436 
  -14245   -15856   -18240   -18156   -17308   -16428   -13899   -11200 
  -11464   -13652   -14070   -12592   -11984   -12950   -14590   -16101 
  -15960   -13990   -13173   -15162   -17023   -16005   -13525   -12473 
  -13804   -15333   -14481   -12631   -12383   -13262   -13904   -13940 
  -13733   -14106   -14733   -14780   -14776   -15094   -14753   -13688 
  -13844   -15377   -15348   -13280   -12153   -12866   -14060   -15036 
  -14670   -12340   -10395   -10362    -9958    -7772    -5989    -6643 
   -8706    -9805    -9716    -9868   -10062    -9495    -9184   -10376 
  -12029   -11892   -10019    -8293    -7849    -9423   -11549   -10290 
   -6169    -4417    -6297    -8128    -7706    -6486    -6891    -9366 
  -11672   -11616   -10199    -9333    -8543    -8089    -9739   -11826 
  -11846   -11581   -12047   -11690   -12377   -15546   -17110   -16138 
  -17100   -19702   -20108   -18994   -18859   -20348   -22679   -22749 
  -19186   -16820   -19174   -21822   -20766   -19302   -20408   -21743 
  -21869   -22108   -22528   -22975   -23914   -23884   -21749   -20213 
  -21792   -24216   -24704   -23795   -21708   -18601   -17629   -19830 
  -21230   -19736   -17438   -15665   -14969   -16517   -18377   -17042 
  -14222   -13660   -14209   -14053   -14455   -14672   -12913   -11444 
  -12139   -12821   -12326   -11822   -11199   -10308   -10781   -12554 
  -13064   -11707   -10512   -10598   -11533   -12830   -13494   -12267 
  -10329   -10371   -12188   -13350   -13163   -12477   -11807   -11540 
  -12418   -14207   -14768   -13453   -12960   -14354   -15288   -14923 
  -14919   -15287   -14046   -11386   -10468   -12835   -15560   -15229 
  -13124   -12893   -14766   -16154   -16001   -15373   -15265   -15511 
  -15100   -14087   -14905   -18096   -19292   -16463   -14189   -15486 
  -17569   -17924   -17535   -17537   -17001   -15493   -14467   -14600 
  -15627   -16946   -15920   -11443    -8116    -9349   -11089    -9525 
   -7264    -6799    -6684    -5686    -4630    -4715    -5461    -5330 
   -5212    -7142    -9314    -8497    -6763    -8524   -12317   -13459 
  -12154   -11404   -11226   -11133   -12596   -15342   -17237   -18174 
  -18955   -18982   -18474   -19035   -21038   -23024   -22953   -20771 
  -19763   -22267   -25604   -25805   -23581   -22434   -22252   -21230 
  -21837   -25982   -29197   -28211   -26195   -25538   -24994   -24480 
  -24829   -25296   -25290   -25463   -25801   -24825   -22782   -22240 
  -22547   -21052   -19606   -20185   -20629   -20572   -21512   -22330 
  -21607   -19937   -18540   -17858   -17385   -16512   -15247   -14710 
  -15726   -17048   -17496   -17180   -15418   -11906    -9575   -11255 
  -14360   -14918   -14145   -13917   -12694   -11728   -14106   -16280 
  -13925   -11143   -11928   -13275   -13687   -15507   -17581   -17040 
  -15451   -15026   -14297   -12699   -12956   -15431   -16197   -14160 
  -13006   -13278   -12451   -11968   -13615   -14604   -13714   -14166 
  -16742   -18318   -18641   -20205   -21922   -21323   -19734   -18760 
  -18007   -18210   -19428   -19392   -18644   -20046   -21871   -21132 
  -20495   -22236   -22817   -20010   -17380   -18387   -21015   -21219 
  -18838   -16248   -14912   -15523   -17418   -18113   -16309   -14299 
  -14127   -13698   -11778   -11058   -12205   -12761   -12146   -11339 
  -10009    -8029    -7216    -8343    -9035    -7867    -6505    -5306 
   -3771    -4669    -8632   -10146    -6679    -3026    -2731    -3839 
   -3943    -3179    -2432    -2107    -2146    -1997    -1460     -881 
    -149      887     1907     2367     1329     -773    -1526     -484 
    -263    -1842    -2580     -955      818     1153      964      421 
   -1235    -3607    -5242    -4417    -1470     -602    -4551    -8818 
   -8163    -5607    -6694   -10036   -11097    -9860    -9566   -11438 
  -13906   -14779   -13352   -12293   -14662   -18713   -20602   -20620 
  -21316   -22020   -20896   -19487   -19942   -20862   -20261   -19637 
  -21092   -23454   -24897   -25219   -24214   -22858   -23010   -23127 
  -21504   -21108   -22557   -21204   -17275   -15957   -16539   -14946 
  -13131   -14155   -14650   -12159   -10860   -12894   -14968   -15016 
  -13273   -10494    -9087   -10543   -11823   -10005    -7659    -7496 
   -7349    -5870    -5476    -6016    -4227    -1855    -4013    -8751 
   -9971    -7530    -5296    -5790    -9454   -13120   -12250    -8331 
   -7461    -9663    -9930    -8946    -9782   -10671   -11077   -13310 
  -15466   -14509   -12620   -12688   -14351   -16423   -17185   -15831 
  -15405   -18268   -21181   -20330   -17126   -14728   -13495   -12975 
  -13625   -15342   -17032   -17894   -18406   -18765   -17977   -16699 
  -17091   -18356   -17545   -15034   -13942   -15290   -18160   -21228 
  -21123   -15730   -10208   -11452   -17743   -21496   -19850   -16486 
  -15041   -16369   -19790   -21990   -19744   -15668   -14562   -15979 
  -15941   -13517   -11969   -13401   -15928   -16951   -15892   -14307 
  -14186   -15631   -16663   -14871   -11316   -10744   -14350   -18626 
  -20647   -18782   -14767   -14277   -18358   -21204   -20194   -19481 
  -21124   -21557   -19548   -18504   -19883   -21897   -22884   -21706 
  -18362   -15676   -16556   -19909   -22330   -22040   -19665   -17404 
  -17599   -20027   -21350   -20058   -19214   -20803   -22151   -20663 
  -17801   -16952   -19197   -22109   -22407   -19337   -15748   -15432 
  -18955   -22894   -23755   -21688   -18983   -16928   -15819   -15160 
  -13621   -11620   -11914   -14823   -16623   -15182   -12458   -11142 
  -12600   -15112   -14451   -10801    -9427   -11604   -14176   -16524 
  -17750   -14480    -9620   -10080   -13612   -13615   -11598   -11849 
  -13634   -15418   -16799   -16213   -14486   -15278   -17451   -16782 
  -15281   -16784   -18658   -18011   -17416   -18682   -19216   -17758 
  -17123   -18841   -20690   -20443   -18638   -17693   -18521   -19482 
  -19565   -19352   -19532   -20166   -20205   -19330   -19300   -20816 
  -21528   -19467   -16226   -14420   -15038   -17836   -20177   -18616 
  -14599   -12518   -12165   -11168   -11412   -13952   -14929   -13100 
  -11509   -11074   -10637    -9875    -8512    -6425    -5499    -7210 
   -8866    -8205    -7793    -9048    -9184    -6832    -3967    -2765 
   -3532    -4591    -4395    -3637    -4109    -5703    -5933    -4145 
   -2902    -2956    -2781    -2800    -3776    -4111    -3094    -2593 
   -3377    -4183    -4676    -4900    -3958    -2359    -1743    -2415 
   -3941    -4867    -3130     -684    -1793    -5447    -7372    -7207 
   -7317    -8346    -9497   -10544   -11637   -12082   -11335   -10456 
  -10105    -9631    -9895   -12494   -16111   -17867   -17002   -15031 
  -13345   -12502   -13399   -15392   -15409   -13260   -12592   -13935 
  -14193   -13365   -13766   -14558   -14014   -13276   -13582   -14396 
  -15268   -15686   -14931   -14086   -14569   -15203   -14871   -14995 
  -16151   -17018   -17301   -17547   -18048   -19077   -20054   -19652 
  -17443   -14206   -11527   -11656   -14653   -16580   -14731   -11595 
  -10678   -11893   -12335   -10429    -8266    -8407   -10121   -11255 
  -11047    -9631    -8332    -8666    -9222    -9009   -10112   -11643 
  -10196    -7872    -9250   -12591   -13731   -12944   -11326    -9792 
  -11233   -14242   -13862   -12133   -13658   -15126   -12943   -11416 
  -13780   -16034   -15116   -13977   -15365   -17535   -18241   -17931 
  -17947   -18975   -20833   -21675   -20091   -18484   -20021   -23616 
  -25372   -24173   -23534   -25005   -25214   -23704   -23424   -23941 
  -23413   -22148   -21201   -21604   -23188   -23700   -21870   -20167 
  -20573   -20322   -18324   -18385   -20910   -22508   -22879   -22933 
  -21253   -17554   -14943   -15482   -16752   -15403   -11794    -9490 
  -10434   -11909   -10912    -8807    -7263    -5368    -4445    -7141 
  -10604   -10457    -9044   -10070   -11530   -10847    -8842    -7405 
   -8689   -12495   -14234   -11494    -9156   -11281   -13312   -11542 
  -11065   -14061   -14798   -12288   -11894   -14294   -15547   -15336 
  -16061   -17613   -18895   -19413   -18667   -17946   -19205   -21589 
  -22172   -20207   -18976   -20879   -23388   -22848   -19362   -17018 
  -18828   -21991   -21831   -18287   -15698   -17084   -19631   -18941 
  -15945   -14340   -14688   -15520   -16424   -16603   -14547   -11714 
  -10851   -11120   -10695    -9514    -7563    -5750    -5194    -5218 
   -5668    -6709    -6810    -5260    -3791    -4222    -5858    -6696 
   -6791    -6837    -6117    -5356    -6705    -9342    -9943    -8536 
   -8200    -8764    -9003   -10518   -12385   -12150   -12117   -14091 
  -14888   -13513   -13618   -15819   -16467   -15251   -15246   -16636 
  -17667   -18626   -19636   -18721   -16860   -18229   -22021   -23239 
  -20977   -18157   -16944   -17564   -18397   -17833   -16640   -16494 
  -17192   -17435   -16908   -15658   -13243   -10627   -10401   -12824 
  -14823   -14643   -13416   -12332   -12273   -13328   -12866    -9273 
   -6175    -6915    -9163    -9984   -10122   -10480   -10773   -11621 
  -12947   -12785   -10697    -9087    -9875   -12405   -14725   -15637 
  -15979   -17506   -19681   -19981   -18881   -19876   -22858   -24180 
  -23617   -23631   -23663   -22263   -21487   -23590   -26998   -28445 
  -26553   -23357   -22608   -25015   -26959   -25862   -23476   -21688 
