Origin Time       2011/03/11 14:46:00
Lat.              38.103
Long.             142.860
Depth. (km)       24
Mag.              9.0
Station Code      HKD041
Station Lat.      43.6246
Station Long.     142.6839
Station Height(m) 440
Record Time       2011/03/11 14:48:27
Sampling Freq(Hz) 100Hz
Duration Time(s)  289
Dir.              N-S
Scale Factor      3920(gal)/6182761
Max. Acc. (gal)   7.332
Last Correction   2011/03/11 14:48:12
Memo.             
[...]
    5119     5060     4867     4643     4453     4343     4323     4394 
    4580     4849     5114     5323     5467     5578     5717     5890 
    6037     6088     5980     5688     5253     4749     4254     3836 
    3518     3240     2909     2499     2062     1658     1308     1000 
     724      509      427      485      560      505      316       96 
     -47      -53       82      335      666      998     1252     1365 
    1311     1181     1125     1232     1492     1823     2161     2476 
    2772     3093     3472     3909     4386     4891     5441     6046 
    6594     6914     6943     6780     6607     6590     6790     7142 
    7571     8077     8651     9179     9537     9721     9814     9890 
    9969    10048    10126    10220    10353    10546    10802    11088 
   11361    11618    11864    12066    12197    12272    12310    12336 
   12409    12551    12680    12687    12543    12311    12111    12039 
   12079    12108    12018    11775    11395    10939    10528    10289 
   10259    10368    10524    10705    10936    11205    11432    11531 
   11475    11309    11102    10913    10712    10397     9921     9324 
    8724     8270     8012     7840     7585     7168     6674     6300 
    6183     6254     6298     6137     5759     5261     4712     4151 
    3622     3171     2856     2720     2750     2843     2819     2564 
    2182     1850     1640     1557     1594     1693     1763     1747 
    1688     1722     1920     2218     2501     2659     2657     2573 
    2484     2403     2321     2233     2155     2140     2231     2425 
    2702     3054     3429     3717     3841     3801     3717     3795 
    4162     4763     5419     5933     6256     6510     6764     6952 
    7046     7122     7255     7473     7745     7966     8030     7951 
    7830     7724     7657     7693     7875     8114     8280     8343 
    8356     8381     8480     8687     8932     9073     9015     8747 
    8320     7787     7199     6666     6346     6333     6552     6782 
    6806     6533     6016     5399     4838     4443     4204     3976 
    3600     3059     2483     2067     1961     2191     2621     2989 
    3037     2650     1944     1168      531      159      106      329 
     673      908      864      555      149     -170     -301     -213 
      56      399      740     1061     1320     1460     1479     1458 
    1512     1658     1792     1804     1676     1484     1320     1226 
    1212     1286     1446     1643     1839     2083     2444     2915 
    3425     3890     4239     4472     4681     4993     5482     6115 
    6786     7404     7920     8300     8571     8850     9268     9863 
   10554    11229    11812    12272    12599    12771    12799    12782 
   12835    12984    13170    13318    13395    13423    13445    13464 
   13432    13315    13120    12886    12681    12548    12457    12327 
   12084    11726    11329    10959    10639    10349    10064     9764 
    9423     9024     8602     8201     7808     7368     6858     6313 
    5819     5499     5410     5465     5520     5487     5361     5231 
    5220     5364     5613     5915     6237     6564     6875     7105 
    7216     7266     7351     7533     7817     8143     8409     8522 
    8458     8311     8221     8296     8535     8801     8912     8778 
    8464     8145     7995     8071     8313     8599     8802     8878 
    8865     8809     8750     8738     8796     8862     8824     8634 
    8366     8112     7890     7688     7487     7256     6979     6640 
    6212     5683     5086     4489     3960     3524     3169     2886 
    2713     2670     2694     2688     2618     2497     2358     2262 
    2249     2288     2354     2471     2651     2874     3123     3366 
    3572     3749     3909     4064     4248     4471     4677     4789 
    4774     4644     4455     4305     4282     4430     4760     5206 
    5612     5809     5664     5131     4326     3491     2874     2620 
    2720     3011     3271     3323     3106     2725     2391     2282 
    2461     2852     3275     3556     3630     3522     3293     3057 
    2960     3118     3556     4176     4799     5272     5538     5647 
    5722     5891     6194     6570     6924     7191     7367     7510 
    7698     7979     8363     8832     9317     9728    10032    10250 
   10404    10515    10607    10675    10674    10580    10432    10302 
   10259    10337    10494    10632    10688    10605    10294     9730 
    9018     8313     7759     7470     7484     7723     8020     8214 
    8246     8189     8165     8254     8455     8694     8878     8979 
    9042     9128     9281     9537     9901    10313    10681    10900 
   10881    10604    10171     9753     9457     9272     9131     8980 
    8789     8556     8315     8106     7950     7857     7806     7736 
    7581     7309     6951     6595     6339     6208     6147     6068 
    5897     5597     5198     4810     4564     4521     4635     4777 
    4809     4671     4399     4092     3876     3831     3926     4052 
    4119     4098     4025     3968     3964     4005     4079     4196 
    4383     4658     4986     5239     5278     5116     4933     4893 
    4998     5118     5126     4994     4790     4615     4532     4524 
    4550     4601     4673     4757     4804     4725     4461     4033 
    3531     3098     2842     2748     2715     2651     2550     2483 
    2511     2625     2758     2871     2981     3088     3158     3181 
    3173     3187     3294     3503     3740     3927     4026     4029 
    3967     3915     3955     4109     4308     4461     4544     4595 
    4694     4931     5314     5723     6025     6239     6482     6810 
    7202     7607     7962     8229     8427     8613     8845     9156 
    9544     9972    10378    10713    10962    11146    11306    11443 
   11518    11516    11470    11428    11410    11391    11307    11107 
   10781    10393    10065     9889     9842     9809     9670     9335 
    8777     8069     7338     6705     6267     6066     6050     6069 
    5979     5742     5418     5085     4790     4549     4384     4347 
    4480     4730     4938     4952     4721     4321     3928     3712 
    3729     3928     4205     4419     4465     4334     4100     3889 
    3836     3986     4262     4556     4790     4932     5001     5036 
    5063     5100     5159     5228     5260     5192     4977     4633 
    4224     3800     3381     3005     2713     2510     2393     2400 
    2553     2798     3064     3347     3702     4156     4683     5208 
    5661     6058     6512     7092     7727     8251     8526     8542 
    8440     8403     8547     8887     9327     9696     9861     9827 
    9693     9571     9587     9800    10123    10375    10421    10260 
    9998     9765     9631     9594     9594     9546     9370     9032 
    8541     7941     7312     6748     6308     5989     5724     5429 
    5082     4745     4480     4296     4127     3875     3510     3093 
    2717     2440     2249     2095     1948     1830     1795     1820 
    1782     1599     1296      979      776      734      769      742 
     597      371      102     -181     -439     -654     -807     -862 
    -810     -710     -660     -680     -735     -784     -723     -473 
    -115      216      449      575      621      611      577      586 
     700      935     1267     1624     1922     2118     2245     2403 
    2670     3046     3497     3976     4419     4787     5106     5462 
    5934     6498     7022     7384     7562     7668     7835     8096 
    8390     8637     8795     8905     9049     9272     9536     9750 
    9851     9851     9830     9874    10000    10170    10346    10503 
   10648    10827    11072    11362    11615    11747    11765    11784 
   11913    12163    12462    12712    12822    12770    12632    12501 
   12384    12220    11979    11689    11422    11226    11094    11011 
   10950    10877    10793    10673    10471    10190     9869     9577 
    9353     9188     9084     9043     9060     9139     9240     9291 
    9275     9219     9156     9118     9113     9151     9235     9364 
    9536     9705     9787     9724     9521     9245     8983     8779 
    8636     8514     8348     8128     7905     7730     7616     7568 
    7597     7705     7854     7961     7939     7761     7484     7233 
    7112     7111     7135     7088     6901     6551     6090     5612 
    5187     4836     4547     4258     3880     3379     2815     2291 
    1867     1537     1240      899      487       15     -494     -987 
   -1382    -1616    -1660    -1559    -1447    -1456    -1634    -1931 
   -2238    -2431    -2445    -2317    -2137    -1988    -1899    -1812 
   -1631    -1312     -896     -474     -104      213      519      864 
    1262     1682     2076     2425     2747     3062     3365     3602 
    3715     3715     3696     3776     3999     4294     4565     4750 
    4825     4817     4787     4797     4886     5048     5243     5411 
    5501     5490     5374     5199     5058     5014     5070     5170 
    5203     5103     4925     4779     4768     4938     5243     5572 
    5799     5823     5677     5532     5555     5797     6203     6643 
    6979     7149     7175     7115     7044     6999     6958     6905 
    6838     6740     6568     6293     5940     5569     5236     4986 
    4822     4698     4577     4457     4355     4295     4299     4367 
    4481     4611     4724     4813     4887     4952     4996     4977 
    4840     4576     4272     4077     4080     4216     4319     4248 
    3966     3541     3093     2749     2601     2691     2961     3279 
    3552     3747     3854     3894     3915     3951     4014     4094 
    4175     4242     4276     4270     4261     4344     4605     5037 
    5532     5953     6238     6419     6566     6753     7038     7416 
    7830     8233     8609     8938     9194     9348     9379     9296 
    9154     9014     8912     8864     8867     8913     8971     8995 
    8944     8812     8635     8466     8353     8308     8283     8211 
    8088     7935     7739     7505     7263     7012     6749     6508 
    6299     6112     5966     5877     5808     5713     5582     5416 
    5220     5005     4774     4550     4385     4313     4314     4307 
    4216     4065     3954     3968     4130     4372     4540     4500 
    4257     3927     3647     3492     3449     3437     3378     3284 
    3261     3396     3670     3971     4188     4307     4400     4546 
    4770     5003     5140     5143     5086     5063     5066     5032 
    4949     4857     4805     4833     4940     5077     5163     5092 
    4800     4349     3890     3577     3504     3669     3970     4266 
    4478     4625     4796     5084     5518     6042     6587     7108 
    7577     7986     8313     8518     8626     8778     9143     9776 
   10559    11274    11785    12119    12363    12558    12689    12728 
   12681    12600    12520    12432    12322    12191    12048    11886 
   11698    11510    11369    11309    11321    11324    11212    10955 
   10617    10266     9925     9582     9229     8901     8665     8541 
    8446     8263     7951     7552     7136     6738     6346     5910 
    5407     4862     4327     3840     3396     2933     2381     1746 
    1123      602      231       17      -74     -105     -129     -172 
    -290     -558     -966    -1405    -1720    -1801    -1674    -1460 
   -1251    -1092     -982     -885     -763     -618     -494     -443 
    -490     -638     -861    -1113    -1352    -1547    -1643    -1576 
   -1323     -921     -464      -80      151      250      288      345 
     461      646      929     1346     1890     2518     3152     3693 
    4087     4370     4632     4943     5319     5731     6140     6524 
    6864     7139     7359     7586     7886     8285     8751     9206 
    9576     9814     9917     9903     9790     9603     9429     9390 
    9535     9773     9917     9834     9561     9256     9078     9096 
    9244     9356     9283     8999     8599     8187     7801     7463 
    7236     7166     7241     7396     7519     7531     7443     7303 
    7137     6986     6914     6958     7072     7151     7121     6961 
    6684     6345     6031     5797     5631     5486     5353     5263 
    5243     5280     5292     5169     4881     4512     4176     3923 
    3716     3488     3235     3048     3033     3197     3458     3696 
    3834     3903     3995     4178     4474     4847     5265     5710 
    6123     6435     6664     6904     7244     7709     8244     8750 
    9147     9395     9499     9534     9614     9796    10053    10315 
   10519    10619    10569    10337     9948     9504     9141     8962 
    8988     9152     9320     9363     9267     9143     9138     9301 
    9542     9698     9664     9456     9179     8949     8834     8844 
    8916     8942     8861     8701     8518     8321     8104     7912 
    7821     7858     7957     7999     7892     7621     7242     6842 
    6482     6160     5812     5366     4818     4230     3666     3145 
    2632     2073     1447      804      238     -173     -411     -534 
    -643     -817    -1075    -1420    -1861    -2369    -2866    -3283 
   -3599    -3860    -4143    -4484    -4869    -5254    -5569    -5742 
   -5739    -5600    -5394    -5171    -4989    -4931    -5045    -5286 
   -5545    -5722    -5782    -5737    -5616    -5446    -5274    -5155 
   -5104    -5083    -5002    -4759    -4326    -3780    -3240    -2802 
   -2493    -2231    -1865    -1285     -465      531     1554     2438 
    3098     3560     3914     4269     4732     5362     6107     6840 
    7407     7702     7752     7731     7856     8254     8887     9573 
   10102    10344    10309    10133    10019    10145    10560    11148 
   11709    12101    12295    12338    12296    12213    12132    12107 
   12148    12191    12148    11950    11583    11140    10790    10684 
   10842    11121    11297    11207    10834    10284     9708     9219 
    8846     8536     8215     7829     7354     6836     6367     6018 
    5824     5761     5735     5623     5372     5053     4770     4604 
    4584     4653     4741     4828     4914     4962     4951     4919 
    4931     5032     5256     5587     5903     6087     6154     6197 
    6263     6351     6467     6631     6854     7121     7398     7640 
    7800     7832     7748     7636     7582     7639     7819     8047 
    8204     8237     8172     8074     8019     8059     8174     8283 
    8339     8370     8417     8454     8415     8283     8102     7925 
    7792     7700     7603     7507     7491     7594     7755     7866 
    7842     7658     7337     6951     6566     6202     5866     5584 
    5362     5150     4888     4577     4265     3974     3684     3391 
    3132     2942     2823     2748     2645     2466     2233     2016 
    1892     1909     2053     2255     2420     2464     2364     2183 
    2010     1895     1834     1790     1726     1645     1583     1583 
    1657     1770     1870     1921     1925     1939     2022     2196 
    2473     2844     3268     3702     4120     4500     4823     5080 
    5299     5517     5743     5981     6200     6325     6338     6308 
    6334     6488     6807     7265     7745     8104     8277     8296 
    8225     8125     8054     8085     8251     8469     8576     8421 
    8002     7507     7158     7039     7086     7172     7179     7059 
    6867     6680     6514     6366     6260     6212     6198     6152 
    5994     5693     5296     4906     4602     4435     4413     4477 
    4531     4502     4364     4164     4018     4033     4203     4422 
    4569     4595     4553     4533     4583     4694     4805     4850 
    4839     4854     4916     4986     5055     5149     5280     5458 
    5674     5874     5983     5983     5925     5888     5939     6091 
    6289     6461     6587     6698     6794     6809     6657     6310 
    5874     5540     5418     5465     5579     5705     5845     6032 
    6275     6515     6667     6678     6561     6387     6234     6122 
    5995     5800     5562     5355     5228     5183     5186     5223 
    5326     5511     5737     5930     6017     5935     5712     5501 
    5455     5599     5856     6127     6351     6508     6584     6564 
    6461     6322     6194     6105     6032     5918     5741     5504 
    5190     4809     4443     4185     4065     4051     4062     4019 
    3884     3687     3488     3349     3314     3368     3457     3533 
    3557     3492     3343     3161     3013     2935     2909     2920 
    2982     3091     3222     3357     3495     3650     3846     4106 
    4429     4808     5236     5682     6105     6495     6875     7255 
    7625     7976     8299     8588     8859     9123     9337     9431 
    9416     9407     9523     9783    10119    10444    10693    10862 
   10988    11084    11147    11205    11310    11500    11744    11948 
   12003    11853    11540    11213    11007    10942    10952    10949 
   10863    10663    10356     9975     9556     9120     8726     8459 
    8322     8236     8127     7950     7700     7413     7119     6852 
    6645     6483     6342     6187     5964     5684     5433     5239 
    5087     4975     4892     4845     4857     4867     4735     4382 
    3878     3420     3168     3142     3256     3376     3402     3352 
    3319     3355     3448     3582     3737     3895     4100     4386 
    4682     4904     5021     5018     4938     4875     4892     5003 
    5192     5419     5640     5846     6017     6098     6060     5926 
    5765     5681     5755     5978     6266     6537     6777     7012 
    7259     7538     7865     8194     8455     8618     8689     8706 
    8763     8960     9282     9595     9775     9823     9845     9958 
   10215    10574    10946    11262    11460    11490    11345    11041 
   10617    10188     9888     9771     9795     9866     9904     9875 
    9780     9625     9403     9116     8748     8278     7711     7063 
    6352     5635     5038     4694     4648     4826     5076     5216 
    5148     4922     4658     4431     4231     4009     3747     3449 
    3108     2745     2377     1972     1514     1044      618      274 
      -7     -313     -740    -1296    -1853    -2213    -2250    -1995 
   -1621    -1327    -1206    -1230    -1334    -1450    -1501    -1426 
   -1196     -826     -391        4      301      507      692      957 
    1374     1921     2539     3197     3866     4467     4898     5110 
    5149     5115     5118     5223     5400     5584     5744     5857 
    5928     6019     6168     6305     6344     6287     6204     6150 
    6137     6143     6118     6006     5806     5584     5419     5375 
    5494     5767     6116     6449     6710     6866     6893     6828 
    6746     6702     6741     6908     7204     7539     7776     7851 
    7837     7850     7932     8052     8154     8174     8117     8089 
    8172     8337     8477     8490     8352     8153     8023     8031 
    8152     8285     8366     8419     8454     8440     8357     8223 
    8079     7984     7989     8086     8226     8365     8478     8533 
