Origin Time       2011/03/11 14:46:00
Lat.              38.103
Long.             142.860
Depth. (km)       24
Mag.              9.0
Station Code      HKD020
Station Lat.      44.1487
Station Long.     141.6647
Station Height(m) 48
Record Time       2011/03/11 14:49:40
Sampling Freq(Hz) 100Hz
Duration Time(s)  172
Dir.              U-D
Scale Factor      3920(gal)/6182761
Max. Acc. (gal)   2.704
Last Correction   2011/03/11 14:49:25
Memo.             
[...]
  -35267   -35312   -35369   -35415   -35456   -35489   -35513   -35527 
  -35526   -35528   -35554   -35581   -35603   -35653   -35706   -35741 
  -35795   -35857   -35888   -35907   -35932   -35929   -35907   -35891 
  -35865   -35841   -35821   -35803   -35797   -35784   -35761   -35752 
  -35740   -35715   -35702   -35712   -35716   -35713   -35722   -35726 
  -35717   -35709   -35687   -35640   -35603   -35574   -35532   -35483 
  -35437   -35405   -35372   -35337   -35309   -35284   -35263   -35239 
  -35211   -35201   -35186   -35165   -35164   -35161   -35153   -35151 
  -35144   -35147   -35145   -35124   -35116   -35113   -35087   -35058 
  -35026   -34982   -34948   -34916   -34873   -34859   -34866   -34839 
  -34806   -34795   -34774   -34739   -34700   -34680   -34691   -34696 
  -34687   -34707   -34756   -34786   -34807   -34845   -34886   -34928 
  -34959   -34977   -35019   -35072   -35115   -35170   -35220   -35254 
  -35313   -35370   -35394   -35428   -35478   -35516   -35554   -35601 
  -35650   -35689   -35711   -35731   -35738   -35729   -35736   -35740 
  -35723   -35714   -35690   -35649   -35616   -35568   -35497   -35412 
  -35308   -35196   -35066   -34909   -34752   -34601   -34442   -34281 
  -34139   -34020   -33896   -33768   -33666   -33583   -33501   -33419 
  -33343   -33275   -33199   -33109   -33032   -32961   -32876   -32797 
  -32732   -32680   -32651   -32628   -32608   -32603   -32591   -32558 
  -32543   -32549   -32517   -32469   -32467   -32467   -32450   -32461 
  -32470   -32462   -32471   -32475   -32473   -32485   -32499   -32517 
  -32542   -32570   -32608   -32658   -32723   -32798   -32882   -32980 
  -33082   -33188   -33296   -33392   -33468   -33530   -33591   -33653 
  -33721   -33803   -33893   -34000   -34122   -34225   -34313   -34417 
  -34516   -34589   -34663   -34742   -34809   -34890   -34980   -35043 
  -35103   -35180   -35231   -35234   -35234   -35245   -35223   -35181 
  -35143   -35085   -35009   -34939   -34860   -34782   -34715   -34645 
  -34589   -34557   -34535   -34541   -34585   -34629   -34673   -34736 
  -34802   -34873   -34953   -35020   -35080   -35153   -35222   -35270 
  -35305   -35349   -35389   -35414   -35444   -35476   -35505   -35550 
  -35598   -35640   -35696   -35757   -35824   -35920   -36030   -36143 
  -36258   -36360   -36451   -36530   -36603   -36666   -36707   -36739 
  -36757   -36757   -36767   -36786   -36797   -36823   -36869   -36905 
  -36943   -36998   -37045   -37098   -37159   -37214   -37272   -37321 
  -37350   -37373   -37394   -37419   -37444   -37458   -37470   -37479 
  -37471   -37450   -37419   -37378   -37326   -37267   -37210   -37153 
  -37091   -37028   -36969   -36913   -36858   -36811   -36783   -36775 
  -36779   -36805   -36855   -36908   -36953   -36994   -37027   -37058 
  -37100   -37154   -37198   -37214   -37228   -37246   -37248   -37237 
  -37221   -37204   -37200   -37189   -37161   -37139   -37107   -37053 
  -36988   -36910   -36821   -36728   -36640   -36563   -36484   -36407 
  -36355   -36322   -36288   -36258   -36232   -36208   -36184   -36152 
  -36116   -36072   -36024   -35987   -35956   -35915   -35873   -35838 
  -35802   -35769   -35735   -35683   -35629   -35594   -35552   -35494 
  -35434   -35370   -35304   -35244   -35198   -35134   -35061   -35044 
  -35041   -34982   -34951   -34982   -34964   -34918   -34933   -34933 
  -34905   -34917   -34927   -34925   -34933   -34919   -34908   -34915 
  -34913   -34913   -34923   -34944   -34975   -35000   -35024   -35057 
  -35079   -35091   -35105   -35109   -35099   -35092   -35101   -35110 
  -35117   -35133   -35144   -35148   -35149   -35142   -35156   -35197 
  -35228   -35267   -35335   -35393   -35443   -35513   -35582   -35642 
  -35716   -35792   -35850   -35892   -35927   -35962   -35990   -36004 
  -36019   -36037   -36053   -36065   -36073   -36082   -36079   -36062 
  -36048   -36042   -36048   -36068   -36079   -36069   -36072   -36107 
  -36123   -36116   -36149   -36194   -36193   -36196   -36220   -36219 
  -36217   -36224   -36222   -36223   -36221   -36212   -36213   -36214 
  -36212   -36226   -36258   -36290   -36319   -36355   -36393   -36422 
  -36449   -36471   -36483   -36493   -36511   -36534   -36530   -36512 
  -36543   -36580   -36567   -36567   -36592   -36602   -36598   -36597 
  -36617   -36629   -36613   -36606   -36599   -36583   -36551   -36488 
  -36459   -36465   -36430   -36371   -36331   -36299   -36258   -36199 
  -36138   -36090   -36042   -35995   -35966   -35937   -35902   -35875 
  -35840   -35797   -35772   -35750   -35725   -35720   -35734   -35765 
  -35801   -35824   -35858   -35904   -35916   -35906   -35909   -35907 
  -35883   -35858   -35836   -35816   -35799   -35766   -35739   -35730 
  -35705   -35683   -35686   -35688   -35685   -35691   -35702   -35719 
  -35734   -35745   -35760   -35768   -35758   -35751   -35746   -35717 
  -35683   -35657   -35615   -35563   -35517   -35458   -35396   -35339 
  -35266   -35204   -35164   -35110   -35057   -35015   -34964   -34913 
  -34865   -34823   -34786   -34743   -34708   -34685   -34648   -34593 
  -34522   -34458   -34422   -34355   -34255   -34198   -34143   -34049 
  -33970   -33905   -33838   -33768   -33695   -33650   -33618   -33578 
  -33547   -33529   -33516   -33502   -33492   -33491   -33487   -33486 
  -33502   -33510   -33531   -33583   -33635   -33700   -33777   -33843 
  -33915   -33988   -34049   -34111   -34176   -34243   -34311   -34363 
  -34402   -34443   -34477   -34511   -34553   -34596   -34642   -34696 
  -34758   -34812   -34854   -34930   -35028   -35081   -35129   -35232 
  -35325   -35376   -35443   -35525   -35593   -35638   -35677   -35732 
  -35781   -35804   -35832   -35876   -35926   -35973   -36001   -36035 
  -36091   -36123   -36126   -36146   -36163   -36166   -36167   -36169 
  -36189   -36205   -36203   -36206   -36198   -36175   -36157   -36131 
  -36099   -36068   -36025   -35971   -35935   -35913   -35865   -35806 
  -35787   -35784   -35765   -35758   -35773   -35786   -35795   -35803 
  -35814   -35827   -35827   -35820   -35814   -35804   -35798   -35799 
  -35786   -35773   -35767   -35744   -35725   -35707   -35681   -35668 
  -35656   -35639   -35642   -35645   -35636   -35647   -35668   -35671 
  -35672   -35678   -35685   -35695   -35711   -35744   -35795   -35833 
  -35868   -35920   -35945   -35949   -35969   -35981   -35985   -35994 
  -35992   -36002   -36027   -36025   -36010   -36007   -35996   -35970 
  -35940   -35925   -35924   -35900   -35860   -35823   -35773   -35730 
  -35699   -35671   -35663   -35648   -35620   -35625   -35641   -35634 
  -35633   -35644   -35646   -35640   -35636   -35638   -35649   -35680 
  -35722   -35754   -35786   -35839   -35895   -35937   -35985   -36050 
  -36116   -36169   -36212   -36264   -36326   -36379   -36421   -36461 
  -36502   -36536   -36543   -36521   -36505   -36495   -36479   -36461 
  -36460   -36473   -36477   -36476   -36486   -36495   -36494   -36495 
  -36502   -36511   -36516   -36511   -36503   -36487   -36450   -36405 
  -36364   -36327   -36307   -36294   -36280   -36281   -36299   -36315 
  -36316   -36315   -36332   -36351   -36359   -36371   -36390   -36410 
  -36425   -36432   -36437   -36441   -36446   -36455   -36465   -36495 
  -36539   -36577   -36630   -36711   -36793   -36855   -36908   -36979 
  -37054   -37081   -37075   -37111   -37159   -37163   -37161   -37167 
  -37141   -37094   -37043   -36980   -36917   -36867   -36823   -36780 
  -36741   -36702   -36660   -36618   -36585   -36553   -36523   -36495 
  -36453   -36412   -36385   -36347   -36312   -36302   -36287   -36262 
  -36245   -36222   -36194   -36173   -36168   -36171   -36170   -36176 
  -36188   -36198   -36214   -36230   -36240   -36259   -36279   -36286 
  -36307   -36334   -36326   -36331   -36385   -36398   -36360   -36380 
  -36432   -36447   -36476   -36529   -36568   -36608   -36644   -36671 
  -36707   -36730   -36755   -36824   -36887   -36907   -36952   -37034 
  -37080   -37099   -37124   -37126   -37120   -37134   -37138   -37107 
  -37065   -37033   -36989   -36895   -36782   -36689   -36577   -36436 
  -36310   -36197   -36093   -35994   -35887   -35800   -35725   -35644 
  -35604   -35589   -35564   -35567   -35590   -35604   -35636   -35692 
  -35748   -35773   -35783   -35823   -35842   -35820   -35833   -35837 
  -35803   -35819   -35833   -35814   -35850   -35879   -35871   -35898 
  -35921   -35935   -35972   -35994   -36001   -36014   -36035   -36057 
  -36080   -36115   -36149   -36175   -36201   -36207   -36194   -36185 
  -36161   -36136   -36131   -36110   -36077   -36058   -36031   -36001 
  -35985   -35963   -35937   -35904   -35862   -35846   -35844   -35816 
  -35778   -35771   -35778   -35760   -35730   -35728   -35757   -35770 
  -35752   -35770   -35805   -35784   -35793   -35846   -35836   -35814 
  -35826   -35825   -35807   -35784   -35756   -35728   -35696   -35642 
  -35588   -35554   -35504   -35442   -35402   -35355   -35290   -35244 
  -35203   -35152   -35109   -35074   -35044   -35023   -35000   -34982 
  -34970   -34952   -34925   -34889   -34855   -34821   -34784   -34758 
  -34736   -34710   -34689   -34675   -34651   -34604   -34553   -34516 
  -34478   -34447   -34424   -34384   -34353   -34350   -34345   -34328 
  -34320   -34324   -34320   -34306   -34302   -34300   -34282   -34280 
  -34305   -34318   -34324   -34334   -34334   -34327   -34321   -34309 
  -34274   -34237   -34209   -34167   -34133   -34118   -34086   -34060 
  -34074   -34080   -34052   -34066   -34120   -34138   -34167   -34222 
  -34252   -34280   -34303   -34311   -34329   -34349   -34368   -34384 
  -34406   -34443   -34471   -34497   -34547   -34607   -34675   -34757 
  -34826   -34871   -34931   -35016   -35076   -35115   -35179   -35247 
  -35283   -35329   -35412   -35458   -35466   -35506   -35532   -35522 
  -35532   -35530   -35503   -35489   -35482   -35468   -35447   -35419 
  -35404   -35412   -35401   -35368   -35366   -35375   -35363   -35353 
  -35347   -35349   -35361   -35360   -35371   -35406   -35430   -35457 
  -35504   -35540   -35561   -35571   -35577   -35597   -35604   -35589 
  -35592   -35598   -35588   -35563   -35524   -35488   -35441   -35371 
  -35314   -35270   -35210   -35157   -35114   -35054   -34993   -34946 
  -34895   -34851   -34828   -34810   -34798   -34797   -34801   -34813 
  -34834   -34865   -34909   -34953   -34995   -35045   -35097   -35150 
  -35200   -35237   -35279   -35320   -35341   -35357   -35372   -35392 
  -35425   -35451   -35482   -35519   -35534   -35550   -35571   -35576 
  -35588   -35597   -35593   -35610   -35630   -35654   -35679   -35673 
  -35695   -35759   -35784   -35791   -35818   -35842   -35845   -35836 
  -35829   -35806   -35773   -35765   -35759   -35736   -35715   -35689 
  -35651   -35614   -35565   -35491   -35408   -35326   -35247   -35172 
  -35113   -35078   -35048   -35017   -35001   -34991   -34978   -34971 
  -34968   -34964   -34960   -34948   -34927   -34906   -34888   -34865 
  -34835   -34804   -34777   -34752   -34730   -34722   -34723   -34731 
  -34757   -34799   -34858   -34924   -34988   -35071   -35169   -35254 
  -35341   -35429   -35502   -35565   -35613   -35646   -35686   -35698 
  -35677   -35669   -35647   -35607   -35593   -35576   -35538   -35507 
  -35498   -35490   -35447   -35400   -35388   -35363   -35327   -35314 
  -35295   -35283   -35290   -35281   -35267   -35267   -35273   -35275 
  -35250   -35218   -35208   -35181   -35136   -35121   -35104   -35072 
  -35065   -35053   -35020   -35031   -35056   -35056   -35079   -35145 
  -35213   -35265   -35320   -35386   -35452   -35526   -35585   -35617 
  -35657   -35691   -35718   -35759   -35778   -35797   -35848   -35878 
  -35907   -35964   -36005   -36054   -36126   -36177   -36232   -36301 
  -36360   -36418   -36455   -36465   -36476   -36485   -36483   -36479 
  -36472   -36463   -36451   -36434   -36415   -36400   -36377   -36350 
  -36340   -36312   -36272   -36279   -36305   -36312   -36326   -36353 
  -36418   -36479   -36467   -36511   -36633   -36676   -36700   -36802 
  -36907   -36977   -37029   -37098   -37202   -37267   -37293   -37364 
  -37432   -37449   -37484   -37548   -37578   -37597   -37639   -37665 
  -37670   -37690   -37694   -37667   -37656   -37648   -37603   -37553 
  -37519   -37471   -37411   -37375   -37347   -37299   -37265   -37259 
  -37218   -37148   -37135   -37137   -37099   -37100   -37117   -37082 
  -37062   -37054   -37001   -36949   -36899   -36840   -36793   -36714 
  -36617   -36559   -36490   -36374   -36275   -36216   -36143   -36047 
  -35971   -35914   -35850   -35787   -35736   -35686   -35639   -35598 
  -35550   -35499   -35447   -35394   -35345   -35296   -35249   -35206 
  -35160   -35123   -35107   -35090   -35070   -35064   -35071   -35079 
  -35082   -35095   -35123   -35154   -35185   -35222   -35262   -35315 
  -35368   -35409   -35470   -35551   -35615   -35676   -35768   -35868 
  -35947   -36011   -36077   -36154   -36232   -36290   -36352   -36427 
  -36484   -36547   -36641   -36734   -36830   -36941   -37071   -37207 
  -37332   -37460   -37590   -37709   -37816   -37915   -38012   -38109 
  -38207   -38316   -38425   -38535   -38655   -38770   -38876   -38979 
  -39061   -39136   -39218   -39287   -39358   -39436   -39501   -39575 
  -39655   -39711   -39758   -39803   -39848   -39897   -39938   -39957 
  -39976   -40016   -40047   -40049   -40054   -40074   -40083   -40058 
  -40022   -40016   -39981   -39887   -39815   -39737   -39613   -39508 
  -39389   -39242   -39130   -39010   -38865   -38755   -38647   -38518 
  -38410   -38313   -38215   -38131   -38064   -38004   -37942   -37888 
  -37847   -37809   -37776   -37764   -37766   -37773   -37780   -37789 
  -37801   -37801   -37797   -37810   -37806   -37776   -37759   -37759 
  -37755   -37707   -37646   -37640   -37611   -37535   -37499   -37457 
  -37393   -37360   -37313   -37268   -37258   -37227   -37181   -37169 
  -37150   -37103   -37069   -37050   -37012   -36972   -36955   -36947 
  -36933   -36916   -36903   -36887   -36860   -36825   -36781   -36729 
  -36680   -36631   -36577   -36523   -36465   -36403   -36335   -36257 
  -36184   -36121   -36046   -35965   -35907   -35853   -35791   -35737 
  -35711   -35705   -35683   -35642   -35621   -35625   -35628   -35617 
  -35618   -35652   -35679   -35680   -35689   -35712   -35722   -35722 
  -35726   -35728   -35727   -35724   -35718   -35711   -35690   -35660 
  -35637   -35604   -35551   -35501   -35460   -35417   -35363   -35300 
  -35253   -35210   -35146   -35091   -35039   -34961   -34878   -34794 
  -34695   -34593   -34496   -34409   -34324   -34225   -34135   -34048 
  -33939   -33823   -33716   -33604   -33479   -33352   -33248   -33155 
  -33043   -32922   -32824   -32757   -32681   -32567   -32471   -32424 
  -32365   -32282   -32228   -32213   -32196   -32161   -32139   -32137 
  -32122   -32104   -32111   -32124   -32140   -32171   -32195   -32222 
  -32255   -32274   -32312   -32374   -32423   -32478   -32542   -32596 
  -32658   -32714   -32744   -32784   -32824   -32831   -32839   -32863 
  -32886   -32910   -32929   -32960   -33005   -33023   -33041   -33086 
  -33115   -33126   -33151   -33180   -33201   -33211   -33216   -33230 
  -33261   -33287   -33285   -33299   -33343   -33363   -33373   -33396 
  -33420   -33462   -33501   -33518   -33566   -33615   -33639   -33674 
  -33700   -33724   -33759   -33774   -33785   -33804   -33827   -33866 
  -33903   -33937   -33996   -34066   -34124   -34185   -34255   -34313 
  -34364   -34406   -34437   -34479   -34525   -34567   -34610   -34647 
  -34687   -34730   -34753   -34777   -34804   -34808   -34812   -34827 
  -34822   -34809   -34804   -34799   -34792   -34781   -34775   -34775 
  -34761   -34753   -34763   -34752   -34717   -34703   -34708   -34697 
  -34685   -34701   -34737   -34773   -34810   -34863   -34922   -34984 
  -35048   -35110   -35177   -35238   -35292   -35353   -35401   -35431 
  -35467   -35504   -35532   -35558   -35593   -35615   -35617   -35626 
  -35642   -35652   -35672   -35699   -35722   -35733   -35737   -35756 
  -35770   -35761   -35771   -35802   -35810   -35813   -35837   -35854 
  -35864   -35876   -35880   -35881   -35872   -35842   -35815   -35788 
  -35725   -35653   -35602   -35539   -35471   -35430   -35389   -35340 
  -35312   -35290   -35258   -35233   -35202   -35176   -35162   -35145 
  -35143   -35165   -35191   -35229   -35292   -35362   -35425   -35493 
  -35575   -35656   -35732   -35809   -35874   -35935   -35998   -36042 
  -36070   -36103   -36139   -36168   -36202   -36251   -36317   -36388 
  -36453   -36519   -36583   -36650   -36729   -36796   -36842   -36905 
  -36979   -37030   -37079   -37131   -37162   -37183   -37230   -37277 
  -37294   -37318   -37360   -37375   -37378   -37385   -37378   -37368 
  -37358   -37338   -37317   -37296   -37269   -37250   -37235   -37211 
  -37187   -37167   -37145   -37127   -37112   -37087   -37063   -37025 
  -36965   -36920   -36895   -36851   -36800   -36766   -36731   -36693 
  -36666   -36650   -36639   -36642   -36663   -36684   -36703   -36735 
  -36772   -36796   -36816   -36857   -36900   -36915   -36936   -36976 
  -37006   -37032   -37068   -37114   -37173   -37227   -37271   -37328 
  -37391   -37438   -37483   -37524   -37540   -37539   -37541   -37534 
  -37505   -37469   -37432   -37384   -37335   -37276   -37217   -37172 
  -37114   -37047   -36991   -36931   -36870   -36828   -36800   -36780 
  -36763   -36742   -36717   -36699   -36680   -36646   -36604   -36564 
  -36515   -36456   -36398   -36332   -36257   -36188   -36126   -36050 
  -35963   -35904   -35863   -35785   -35721   -35716   -35678   -35613 
  -35624   -35654   -35646   -35660   -35706   -35748   -35785   -35847 
  -35922   -35958   -35991   -36050   -36080   -36084   -36094   -36101 
  -36095   -36089   -36093   -36089   -36079   -36082   -36082   -36082 
  -36098   -36117   -36142   -36183   -36217   -36239   -36262   -36292 
  -36321   -36337   -36355   -36374   -36369   -36356   -36346   -36323 
  -36301   -36288   -36269   -36251   -36247   -36248   -36248   -36251 
  -36268   -36301   -36340   -36384   -36445   -36516   -36578   -36640 
  -36706   -36766   -36830   -36899   -36950   -36994   -37050   -37093 
  -37124   -37171   -37200   -37226   -37267   -37277   -37310   -37351 
  -37344   -37350   -37365   -37379   -37388   -37383   -37393   -37405 
  -37417   -37436   -37459   -37474   -37473   -37480   -37498   -37502 
  -37486   -37476   -37476   -37468   -37468   -37478   -37469   -37461 
  -37465   -37448   -37421   -37407   -37397   -37393   -37394   -37379 
  -37358   -37341   -37310   -37271   -37242   -37204   -37168   -37163 
  -37143   -37090   -37057   -37028   -36976   -36942   -36918   -36888 
  -36882   -36896   -36906   -36914   -36931   -36946   -36954   -36960 
  -36955   -36943   -36932   -36912   -36881   -36848   -36819   -36796 
  -36771   -36748   -36741   -36734   -36730   -36742   -36756   -36779 
  -36813   -36842   -36875   -36916   -36953   -36989   -37025   -37053 
  -37077   -37104   -37125   -37136   -37142   -37140   -37134   -37132 
  -37133   -37129   -37126   -37132   -37133   -37116   -37105   -37099 
