Origin Time       2011/03/11 14:46:00
Lat.              38.103
Long.             142.860
Depth. (km)       24
Mag.              9.0
Station Code      HKD073
Station Lat.      43.3327
Station Long.     145.6003
Station Height(m) 36
Record Time       2011/03/11 14:48:10
Sampling Freq(Hz) 100Hz
Duration Time(s)  285
Dir.              E-W
Scale Factor      3920(gal)/6182761
Max. Acc. (gal)   16.137
Last Correction   2011/03/11 14:47:55
Memo.             
[...]
   -7870   -10650   -12591   -12955   -11586    -9078    -6799    -5924 
   -6499    -7634    -8447    -8723    -8745    -9104   -10381   -12276 
  -13759   -13926   -12036    -8260    -4196    -1280     -215    -1786 
   -5963   -11033   -14816   -15871   -13951   -10512    -7857    -7107 
   -7650    -8302    -8469    -8582    -9529   -11352   -13019   -13552 
  -12694   -10830    -8979    -8264    -8776    -9899   -11392   -12825 
  -13130   -11601    -8597    -5390    -3319    -2894    -3828    -5477 
   -7354    -9168   -10420   -10911   -11111   -11396   -11604   -11081 
   -9362    -7035    -5306    -5082    -6417    -8608   -10965   -12841 
  -13536   -13179   -12509   -11456    -9560    -7321    -5602    -4727 
   -4875    -6391    -9427   -13238   -16331   -17578   -16486   -13266 
   -9236    -5827    -3524    -2781    -4380    -7957   -11823   -14427 
  -15051   -13901   -11815    -9084    -5543    -2298    -1484    -3867 
   -8357   -13398   -17258   -18086   -15195    -9838    -4277     -519 
     146    -2409    -6865   -11318   -14388   -15547   -14961   -13288 
  -11402    -9713    -7866    -5910    -5015    -6048    -8535   -11386 
  -13581   -14283   -13193   -10963    -8892    -8039    -8648   -10002 
  -10688    -9864    -8250    -7308    -7829    -9497   -11274   -12029 
  -11233    -9108    -6144    -3099    -1144    -1401    -4206    -8485 
  -12322   -14464   -14733   -13388   -11034    -8674    -7135    -6611 
   -6862    -7694    -8898    -9952   -10461   -10637   -10847   -11001 
  -10845   -10540   -10307    -9930    -9298    -8566    -7697    -6955 
   -7157    -8731   -11198   -13479   -14522   -13935   -11955    -9257 
   -6864    -5661    -5889    -6932    -7758    -8208    -9356   -11693 
  -13691   -13470   -11050    -7806    -5072    -3773    -4223    -6172 
   -9264   -12803   -15336   -15809   -14747   -13283   -11713    -9880 
   -8356    -7784    -7780    -7743    -7662    -7954    -9140   -10820 
  -11504   -10473    -8642    -7299    -6706    -6200    -5724    -5960 
   -7285    -9556   -11732   -12521   -12060   -11321   -10530    -9410 
   -8146    -7393    -7303    -7403    -7690    -8436    -9558   -11051 
  -12494   -12698   -11392    -9732    -8704    -8460    -8516    -8155 
   -7672    -8079    -9127    -9799   -10185   -10821   -11570   -12138 
  -12417   -12281   -11651   -10442    -8359    -5573    -3575    -4083 
   -6699    -8975    -9431    -9021    -9307   -10680   -12140   -12276 
  -11037    -9847    -9362    -8755    -7587    -6506    -6200    -6935 
   -8413    -9906   -11075   -11744   -11153    -9026    -6393    -4537 
   -4326    -5917    -8317   -10362   -11921   -13649   -15994   -18006 
  -17727   -14273    -8894    -4089    -1866    -2880    -6450   -10599 
  -13235   -13656   -12439   -10651    -9332    -8968    -9128    -8933 
   -8059    -7231    -7867   -10603   -13822   -14994   -13286    -9647 
   -5731    -3306    -3232    -5087    -7880   -10479   -11934   -12110 
  -11832   -11797   -11602   -10497    -8360    -5818    -4191    -4635 
   -6916    -9614   -11634   -13051   -14198   -14793   -14291   -12485 
   -9853    -7550    -6568    -7066    -8593   -10174   -10879   -10792 
  -10638   -10837   -10864    -9601    -7110    -4995    -4710    -6309 
   -8626   -10503   -11617   -11981   -11325    -9641    -8158    -8357 
   -9816   -10685   -10201    -9497   -10171   -12171   -13453   -12616 
  -10522    -8545    -6935    -5227    -3584    -3428    -5733    -9185 
  -11605   -12469   -12773   -13157   -13249   -12661   -11564   -10024 
   -7896    -5659    -4155    -3532    -3490    -4165    -5882    -8347 
  -10633   -11850   -11940   -11491   -10517    -8403    -5377    -2874 
   -2374    -4504    -8568   -12802   -15682   -16743   -16025   -13664 
  -10420    -7334    -4963    -3840    -4646    -7482   -11234   -13935 
  -14283   -12472    -9980    -8399    -7925    -8078    -8868    -9849 
  -10135    -9900    -9767    -9393    -8244    -6413    -4453    -3580 
   -4734    -6980    -8525    -8826    -8378    -7496    -6630    -6782 
   -8278   -10138   -11441   -11870   -11055    -9223    -7639    -7213 
   -7953    -9739   -12214   -14542   -15933   -15733   -13586   -10009 
   -6233    -3537    -2683    -3596    -5667    -8252   -10959   -13678 
  -15916   -16674   -15642   -13379   -10571    -8349    -7841    -8818 
  -10049   -10841   -11705   -13211   -14455   -13563    -9714    -4447 
    -863     -810    -3407    -6808    -9635   -10843   -10143    -8176 
   -6040    -4715    -4364    -4777    -6133    -8732   -12497   -16299 
  -18306   -17807   -15607   -12910   -10598    -8859    -7524    -6987 
   -7914    -9867   -11457   -12191   -12657   -12999   -12677   -11286 
   -9110    -7084    -5883    -5388    -5287    -5626    -6728    -8861 
  -11934   -14936   -16072   -14628   -11999    -9793    -8375    -7745 
   -7685    -7623    -7684    -8348    -9342   -10261   -11069   -11070 
   -9181    -5995    -3499    -3118    -5053    -8144   -10660   -11835 
  -11889   -11312   -10642    -9945    -8506    -5975    -3458    -2527 
   -3682    -6391    -9585   -11761   -11858   -10132    -7553    -4880 
   -2718    -2019    -3674    -7304   -11274   -14164   -15396   -14696 
  -12412   -10194    -9521    -9923    -9991    -9279    -8440    -7780 
   -6815    -5563    -4722    -5144    -7368   -10268   -11788   -11409 
  -10227    -9303    -8700    -7967    -7125    -6819    -7506    -8594 
   -9112    -9193    -9795   -11210   -12710   -13178   -11815    -9048 
   -6505    -5307    -5263    -6167    -8278   -11171   -13431   -13666 
  -11588    -8536    -6580    -6862    -9155   -12103   -13763   -13180 
  -10892    -7563    -3255     1927     6636     8261     5062    -2102 
  -10339   -16702   -19793   -19648   -17145   -13447    -9465    -6689 
   -6605    -8271    -9384    -9314    -8969    -8754    -8060    -6520 
   -5104    -5520    -8186   -11652   -14481   -16024   -15381   -11873 
   -6617    -2366    -1900    -6374   -13923   -20137   -21398   -17560 
  -10933    -4181      177      407    -3206    -8816   -14221   -17241 
  -16678   -13281    -8732    -4608    -2634    -3827    -7405   -11553 
  -14689   -15841   -14230    -9584    -3155     2578     4919     2361 
   -4064   -11921   -19308   -24483   -25581   -22047   -15158    -7157 
    -513     3128     3649     1547    -2801    -8122   -12030   -13594 
  -14789   -17425   -20396   -21493   -19974   -16482   -12190    -8251 
   -4902    -1671     1000     1568    -1216    -7314   -14855   -20863 
  -23292   -21369   -15215    -6785      826     5066     4248    -1187 
   -8071   -13163   -15433   -15658   -15012   -14242   -13144   -10664 
   -6951    -4349    -4990    -8540   -12685   -15364   -16124   -15294 
  -13204   -10486    -7998    -6553    -6577    -7481    -8143    -8093 
   -7758    -7833    -8149    -7592    -5963    -4634    -4941    -7074 
  -10182   -13168   -15352   -16028   -14586   -11683    -8673    -6095 
   -4180    -3712    -5252    -8427   -12112   -14820   -15402   -13681 
  -10492    -7355    -5509    -5066    -5326    -5488    -5354    -5549 
   -6495    -7719    -8771    -9775   -10563   -10380    -8841    -6586 
   -4463    -2544     -903     -463    -2200    -6155   -11053   -15109 
  -17595   -18552   -17634   -14697   -10340    -5657    -2445    -2359 
   -4972    -8382   -11517   -13896   -14351   -11771    -6461     -421 
    3528     3345     -845    -7089   -13531   -18992   -22008   -20954 
  -15398    -7132      607     5357     6636     5422     2617    -1925 
   -8009   -13824   -17549   -18763   -17572   -14469   -11107    -8803 
   -7194    -6079    -6292    -7855    -9998   -12919   -17268   -22322 
  -26146   -26910   -23363   -15699    -6497     1335     6935    10285 
   10447     5751    -4466   -17382   -27464   -30839   -27501   -20206 
  -12349    -5837    -1094     1359     1048    -1631    -6104   -12055 
  -18288   -21845   -19801   -12619    -4784    -1259    -3292    -8389 
  -13761   -17966   -20116   -19460   -15583    -8832     -770     6173 
    9434     7113     -772   -11638   -21380   -26546   -25991   -20754 
  -13255    -6427    -2229     -809    -1064    -1873    -3265    -5975 
   -9593   -12489   -13790   -13865   -13235   -12307   -11386   -10430 
   -9189    -7820    -7130    -7639    -9097   -10921   -12294   -12486 
  -11439    -9778    -8269    -7488    -7653    -7851    -6822    -5157 
   -4386    -4748    -5791    -6965    -7341    -6715    -6241    -6976 
   -8459    -9541   -10114   -10689   -11204   -11272   -10656    -9863 
  -10635   -13979   -18102   -20359   -19855   -17455   -14940   -13581 
  -12908   -11741   -10351   -10125   -10740   -10350    -9144    -8894 
   -9404    -8846    -6009     -990     4512     8284     9440     7946 
    3452    -3723   -11539   -17645   -20972   -22084   -22749   -23523 
  -22410   -17940   -11684    -6155    -2052     1072     2701     1569 
   -2515    -8627   -15589   -21524   -24396   -23262   -17905    -9088 
     428     7116     8927     5900     -758    -9271   -16842   -20447 
  -19176   -14784   -10496    -9185   -11111   -14248   -16531   -16831 
  -15062   -11873    -8189    -4771    -1694     1101     2932     2889 
     807    -2685    -6665   -10370   -13120   -13781   -11409    -6901 
   -2816    -1276    -2756    -6503   -11632   -17526   -23081   -26909 
  -28180   -26471   -22084   -16190    -9732    -3226     2625     6780 
    8200     6610     2332    -4372   -12087   -17951   -20016   -18185 
  -13919   -10034    -8508    -8911    -9622    -9571    -9040    -8909 
   -9417   -10053   -10083    -8988    -6696    -3607     -485     1748 
    2278      691    -2667    -6937   -11587   -16415   -20711   -23015 
  -22459   -19975   -16975   -13825   -10607    -8035    -7256    -9225 
  -13362   -17006   -17660   -15192   -11132    -7017    -3760    -1676 
    -812    -1516    -4609   -10214   -16420   -20420   -20912   -18384 
  -13914    -8476    -2982      583     -740    -7605   -17081   -25360 
  -29697   -29041   -24518   -18244   -11742    -6124    -2365     -508 
     292      451     -599    -3126    -5971    -7673    -7727    -6350 
   -4655    -4392    -6380   -10292   -15113   -18869   -19796   -17947 
  -14500   -10277    -5952    -2595    -1026    -1597    -4758   -10434 
  -16878   -21389   -21976   -17870   -10015    -1311     4740     5669 
    1184    -6441   -13661   -17952   -18749   -16636   -12951    -9559 
   -7544    -6461    -5366    -4121    -3487    -4789    -9076   -14949 
  -18558   -17383   -12405    -6470    -2416    -2002    -4886    -9211 
  -13037   -14999   -15026   -13975   -12114    -8867    -3818     2088 
    6513     7598     5125      -68    -6488   -12741   -18145   -22015 
  -23708   -22993   -19809   -14912   -10144    -7030    -5530    -4924 
   -5371    -7294    -9827   -11261   -11309   -11603   -13248   -15257 
  -15819   -14100   -10973    -8369    -7258    -7010    -7147    -7841 
   -9228   -11447   -13866   -14595   -12297    -7838    -3394     -602 
      99    -1067    -3568    -6527    -8981   -10196   -10324   -10450 
  -11146   -11847   -11304    -8583    -4955    -3253    -4383    -6919 
   -9824   -13016   -16061   -18129   -18832   -18159   -16004   -12501 
   -8307    -4242    -1295     -204     -741    -2603    -6166   -11750 
  -18857   -25354   -28279   -26480   -20914   -12824    -3083     6801 
   13457    13268     6197    -3813   -12342   -16945   -16895   -12686 
   -6382     -872     1777      491    -4878   -12348   -18695   -22321 
  -23243   -21563   -17595   -12167    -6680    -2709     -913     -904 
   -2199    -5109   -10256   -16732   -21889   -23544   -21732   -18140 
  -14470   -11778   -10287    -9239    -7773    -5943    -4984    -6501 
  -10391   -14341   -16117   -15343   -12944   -10267    -8706    -8406 
   -8278    -8002    -7793    -6866    -4451    -1267     1485     3430 
    4426     3801      783    -4622   -11198   -17059   -20835   -22285 
  -21535   -18755   -14995   -11558    -8645    -5871    -3526    -2886 
   -4874    -8375   -11094   -11790   -10838    -9466    -8738    -8862 
   -9643   -11069   -13000   -14637   -14940   -14105   -13350   -12534 
  -10046    -5506     -691     2717     4284     3637      581    -4133 
   -9536   -14890   -18993   -20177   -17646   -12498    -7243    -3918 
   -2531    -2013    -1966    -2722    -4355    -6432    -9115   -12944 
  -16971   -18946   -17513   -13761   -10212    -7974    -6194    -4340 
   -3436    -5108   -10083   -17097   -23458   -26832   -26188   -21589 
  -13392    -2792     6753    11348     9853     3921    -3901   -11523 
  -17775   -22363   -25178   -25428   -22133   -15612    -7716     -798 
    3133     3010    -1188    -8394   -15985   -20882   -21980   -20372 
  -16777   -10467    -1752     6425    10476     8921     3236    -3531 
   -9056   -12884   -15134   -15160   -13086   -10492    -8138    -5298 
   -1508     1710     1276    -4311   -13457   -22801   -28574   -28640 
  -24042   -16809    -7801     1467     7864     9489     6733      414 
   -7719   -13881   -15022   -11261    -4968      630     3142     2484 
    -287    -4738   -10532   -16686   -22128   -26079   -28476   -29995 
  -30490   -28244   -21886   -12195    -1611     6771    10817    11087 
    8643     2818    -6392   -16536   -24017   -25976   -21951   -14411 
   -7031    -2659    -2975    -7661   -13318   -15978   -14772   -11762 
   -9293    -8336    -8155    -6883    -3287     1935     6941     9593 
    8103     2588    -5269   -14309   -23641   -31219   -34672   -32776 
  -25783   -15755    -5667     2443     7294     8190     5295    -1340 
  -10958   -20729   -27460   -29446   -26713   -20482   -11953    -2731 
    3705     3857    -1934    -9365   -14259   -15358   -13100    -8278 
   -2516     2262     5199     6564     6659     5015     1271    -3856 
   -9175   -13790   -17174   -18505   -16707   -12358    -7734    -4058 
   -1346     -460    -2368    -6387   -11156   -16008   -20179   -22397 
  -22377   -20698   -16867   -10564    -3544     2548     7337     9620 
    7202     -830   -12222   -22279   -26994   -25141   -17978    -7885 
    2440    10025    12673     9958     2472    -8327   -19442   -27435 
  -29933   -26072   -17780    -9571    -4579    -2581    -2605    -4128 
   -5834    -6107    -4590    -2500    -1827    -3874    -8104   -12524 
  -15226   -15449   -13704   -11199    -9015    -7978    -8388    -9161 
   -9036    -8775    -9441   -10177   -10083    -9326    -8028    -6402 
   -5401    -6373    -9959   -14889   -18055   -16920   -11834    -5384 
    -396     1173    -1306    -6836   -12953   -16448   -15099    -9852 
   -4423    -1841    -2250    -4408    -7618   -11539   -15447   -18074 
  -18595   -17629   -15801   -12618    -8197    -4462    -3817    -7061 
  -12399   -16409   -16934   -14942   -12457    -9989    -7294    -5033 
   -4671    -7048   -10913   -13397   -12872   -10576    -8691    -8345 
   -9782   -12625   -15791   -18100   -18564   -16547   -12400    -6786 
    -665     3381     3409      922    -1771    -4784    -8789   -12252 
  -13003   -10885    -7463    -4688    -4035    -5400    -7017    -7748 
   -8464   -10189   -12514   -14556   -15895   -16342   -15845   -14561 
  -12379    -8863    -4262       14     2356     1854    -1757    -8162 
  -16343   -24327   -29023   -27765   -21057   -12433    -4842      984 
    4591     4951     1661    -4393   -11102   -15825   -16864   -14276 
   -8804    -1508     4506     5664     2148    -3102    -7818   -10848 
  -12205   -12736   -12615   -11287    -8579    -5408    -3413    -3392 
   -4634    -6080    -7167    -7986    -9132   -10716   -11881   -11321 
   -8204    -3107     2143     5306     4773      624    -5330   -10518 
  -13408   -14269   -13681   -11823    -8900    -4903     -457     2215 
    1300    -2712    -7773   -11448   -12144   -10464    -8410    -7256 
   -7023    -7113    -7103    -6948    -6656    -6843    -8775   -12780 
  -17250   -19870   -19582   -16941   -13086    -8764    -3898     1376 
    5192     5573     3011     -766    -4554    -7477    -9155    -9797 
  -10014   -10681   -11963   -12966   -12946   -12122   -10979    -9594 
   -8082    -7057    -7579   -10667   -15877   -20571   -21953   -19381 
  -13672    -5989     1560     6283     6322     1557    -6193   -14316 
  -20712   -24260   -24716   -22299   -18487   -15745   -14457   -12728 
   -9597    -5925    -3072    -2142    -3451    -5980    -8137    -9053 
   -8465    -6510    -4144    -2665    -3021    -5477    -9513   -14390 
  -19260   -22960   -24263   -22111   -16685   -10026    -4622    -1850 
   -1386    -1921    -2953    -5028    -8141   -11201   -13060   -13575 
  -13500   -12936   -11670   -11108   -12585   -14943   -15957   -14832 
  -12708   -10862    -9060    -6377    -3146    -1068     -914    -1653 
   -2542    -3956    -5703    -6683    -6176    -4644    -4058    -5930 
   -8870   -10427    -9693    -7137    -4341    -3758    -6739   -12190 
  -18182   -23176   -25564   -24417   -20308   -14778    -9841    -7136 
   -6752    -7894   -10192   -12889   -14101   -12730    -9981    -8017 
   -7794    -8337    -7812    -5472    -2484     -580     -431    -1616 
   -3489    -5745    -8062    -9826   -10387    -9360    -7422    -5724 
   -4134    -2176     -807    -1700    -5615   -11660   -17851   -22138 
  -23003   -20036   -14346    -8458    -5155    -5163    -6484    -6889 
   -6361    -6434    -7783    -9618   -11195   -12620   -13866   -14233 
  -13468   -11923    -9298    -4923      661     5340     6646     3521 
   -2999   -10658   -17052   -20481   -20503   -17447   -11767    -4202 
    3327     7506     5842    -1078   -10441   -19347   -25751   -28395 
  -26750   -21271   -13236    -4612     1990     4749     3641     -728 
   -7585   -14918   -19939   -20993   -18131   -12573    -6354    -1426 
    1127      918    -1746    -5945   -10704   -15012   -17494   -16834 
  -13218    -8687    -5172    -3181    -2615    -3492    -5842    -9178 
  -12020   -12773   -11443    -9732    -8957    -8689    -8072    -7448 
   -8039   -10414   -13532   -15811   -16658   -16395   -15523   -14010 
  -11455    -8236    -5250    -2648     -315      913     -298    -4570 
  -11155   -18006   -23093   -25713   -25984   -23864   -19530   -13859 
   -7931    -2898       39      301    -2033    -6479   -11920   -16822 
  -19740   -19573   -15908    -9579    -2913     1424     2396      551 
   -3319    -8351   -13513   -17839   -20841   -22646   -22921   -20582 
  -15595    -9767    -5066    -2655    -3158    -5893    -9236   -12409 
  -15061   -16165   -15199   -13072   -10643    -8025    -5939    -5536 
   -6499    -7357    -7282    -6210    -4371    -2193     -189      713 
    -213    -2145    -3749    -5359    -8014   -10925   -12259   -11685 
  -10431    -9785   -10123   -10831   -11256   -11753   -13145   -15136 
  -16443   -16400   -15447   -14709   -14951   -15192   -13818   -10874 
   -7854    -5859    -5040    -5835    -8657   -12126   -13976   -13260 
  -10934    -8916    -8027    -6922    -4130     -531     1337      -39 
   -3695    -7292    -9712   -11882   -14555   -16623   -16755   -15287 
  -12948    -9692    -6127    -3968    -4708    -8752   -14547   -19058 
  -20749   -20622   -20134   -19262   -16255   -10206    -3091     2416 
    5246     5824     5026     2770    -1685    -7932   -14047   -17879 
