Origin Time       2011/03/11 14:46:00
Lat.              38.103
Long.             142.860
Depth. (km)       24
Mag.              9.0
Station Code      HKD070
Station Lat.      43.3852
Station Long.     145.2840
Station Height(m) 6
Record Time       2011/03/11 14:48:16
Sampling Freq(Hz) 100Hz
Duration Time(s)  300
Dir.              E-W
Scale Factor      3920(gal)/6182761
Max. Acc. (gal)   24.878
Last Correction   2011/03/11 14:48:01
Memo.             
[...]
   13008    13307    13345    13259    12685    11749    11035    10941 
   11480    12283    12899    13273    13654    14115    14440    14413 
   14007    13346    12562    11676    10725     9873     9158     8388 
    7493     6702     6277     6321     6817     7613     8541     9591 
   10633    11354    11730    12012    12242    12279    12134    11931 
   11857    12123    12559    12719    12522    12226    11983    11834 
   11767    11635    11404    11282    11271    11149    10954    10828 
   10567     9992     9316     8646     7887     7346     7413     7929 
    8734     9880    11160    12461    13896    15105    15506    15108 
   14269    13090    11510     9633     7801     6530     6190     6605 
    7314     8186     9368    10747    11885    12478    12635    12632 
   12599    12539    12470    12451    12382    12132    11825    11371 
   10482     9410     8570     8004     7770     8025     8792     9951 
   11171    11989    12176    11884    11417    11015    10782    10698 
   10844    11536    12844    14138    14796    15010    15067    14513 
   13105    11586    10541     9819     9472     9785    10661    11896 
   13208    14036    14151    13812    13011    11534     9698     8162 
    7270     6943     6930     7182     7945     9209    10333    10780 
   10847    11050    11450    11915    12290    12463    12723    13361 
   14087    14407    14114    13310    12363    11709    11509    11534 
   11540    11671    12114    12620    12829    12798    12835    12862 
   12433    11449    10314     9364     8553     7723     6915     6329 
    6092     6134     6309     6652     7442     8739    10131    11247 
   12001    12281    11979    11193    10328     9848     9780     9936 
   10408    11339    12589    13886    14984    15598    15569    14960 
   13872    12645    11766    11205    10705    10369    10332    10553 
   10750    10407     9575     8942     8751     8716     8679     8666 
    8749     8945     9000     8537     7784     7413     7439     7445 
    7510     7798     8124     8406     8740     9161     9618    10040 
   10545    11262    11863    12015    12031    12251    12474    12519 
   12470    12124    11226    10235     9702     9338     8725     8069 
    7701     7717     8228     9282    10581    11876    13286    14799 
   16061    16795    17021    16933    16541    15595    14210    12946 
   11951    10923     9908     9291     9332    10057    11254    12541 
   13532    13936    13571    12404    10773     9294     8150     7048 
    6037     5470     5319     5311     5402     5774     6680     8103 
    9617    10925    12253    13871    15361    16033    15911    15408 
   14625    13620    12607    11883    11661    11790    11904    11693 
   10972     9755     8249     6847     5823     5107     4766     5100 
    6230     8166    10601    12612    13612    14038    14297    14044 
   13205    12492    12304    12427    12798    13241    13336    13222 
   13187    12900    12086    10898     9619     8613     7980     7430 
    6968     7078     7914     8810     9063     8807     8613     8600 
    8409     7892     7463     7708     8612     9424     9834    10599 
   12055    13355    13900    13873    13350    12209    10486     8500 
    6985     6578     7170     8274     9697    11330    12668    13119 
   12566    11424    10219     9154     8318     8060     8547     9354 
   10006    10537    11130    11622    11802    11765    11649    11455 
   11239    11020    10580     9844     9139     8698     8374     7896 
    7302     7143     7854     9096    10174    10933    11709    12387 
   12292    11271    10033     9276     9043     8988     9057     9499 
   10266    10992    11546    12127    12834    13442    13616    13314 
   12862    12496    12134    11671    11147    10709    10494    10375 
   10042     9605     9635    10292    11138    11951    12832    13602 
   13892    13568    12721    11516    10269     9380     8891     8418 
    7779     7337     7463     7987     8576     9283    10159    10868 
   11189    11309    11362    11317    11370    11726    12288    12986 
   13724    14137    13957    13181    11950    10654     9646     8841 
    8052     7412     7189     7518     8301     9183     9892    10563 
   11267    11665    11454    10629     9494     8674     8661     9407 
   10523    11660    12829    14280    15830    16816    16878    16240 
   15199    13729    11622     9106     7077     6272     6487     7012 
    7656     8523     9090     8864     8126     7324     6863     7123 
    8047     9388    11158    13251    15002    15749    15467    14429 
   12900    11197     9625     8498     8122     8677    10174    12206 
   14008    15172    15709    15394    13800    10983     7715     4950 
    3247     2749     3438     5229     7783    10292    11939    12521 
   12364    11967    11560    10936    10092     9518     9484     9693 
    9671     9155     8454     8133     8034     7516     6646     6046 
    5873     5938     6218     6587     6784     6884     7077     7245 
    7422     7918     8732     9756    11020    12260    13208    13983 
   14598    14943    15066    14867    14375    14070    14238    14599 
   14604    13929    12866    11883    10949     9948     9289     9147 
    8837     8022     7379     7393     7581     7374     7231     7883 
    8979     9919    10813    11677    12325    12806    12912    12285 
   11159    10046     9124     8459     8311     8850     9834    10901 
   11988    13084    13905    14232    14307    14472    14588    14265 
   13481    12815    12913    13609    14234    14646    15174    15838 
   16114    15431    13828    11828     9770     7743     5946     4728 
    4415     5099     6467     7964     9400    10970    12383    13135 
   13536    13999    14190    13837    13327    13156    13185    12759 
   11645    10337     9342     8539     7513     6521     6510     7828 
    9711    11288    12315    12953    13340    13200    12094    10380 
    8997     8029     6904     5886     5597     5791     6095     6706 
    7584     8289     8867     9632    10259    10428    10592    10979 
   11243    11509    12143    12830    13082    13025    13095    13374 
   13703    14183    14828    15427    16113    16872    17111    16544 
   15368    13718    11812    10088     8979     8711     9205    10174 
   11211    11934    12245    12154    11561    10639     9920     9708 
    9788     9755     9512     9290     9195     9048     8685     8251 
    8115     8456     9071     9547     9464     8682     7588     6774 
    6406     6310     6613     7632     9136    10335    10691    10435 
   10217    10306    10509    10833    11552    12807    14561    16528 
   18268    19614    20621    21045    20443    18937    16950    14392 
   11270     8152     5363     3050     1648     1304     1918     3630 
    6173     8646    10619    12358    13850    14698    14797    14380 
   13813    13473    13391    13198    12660    12026    11729    11818 
   11829    11450    11069    11116    11338    11424    11578    11968 
   12564    13385    14035    13833    12894    11887    10889     9667 
    8496     7599     6743     5974     5581     5580     6112     7450 
    9151    10475    11512    12481    12648    11397     9510     8188 
    7665     7645     8108     9215    11100    13594    16084    18229 
   20206    21779    22297    21420    19010    15259    11089     7451 
    4613     2808     2801     4830     7922    11172    14387    17171 
   18885    19313    18453    16476    14239    12563    11277    10242 
   10197    11579    13906    16354    18060    18684    18648    17873 
   15489    11582     7575     4533     2523     1333      824      977 
    1898     3510     5213     6382     7115     7629     7595     7067 
    6771     7062     7831     9100    10946    13196    15401    17084 
   18224    19203    19967    20069    19627    19003    17975    16435 
   14891    13731    13192    13569    14698    16100    17635    19206 
   20305    20508    19919    18850    17470    15779    13878    12318 
   11578    11176    10261     8813     7166     5163     2818      631 
   -1053    -1764     -764     1942     5272     8224    10726    12847 
   13936    13153    10352     6368     2448     -603    -2417    -2596 
    -762     2947     7491    11327    13527    14174    13694    12562 
   11353    10674    11188    13208    16326    19820    22957    25050 
   25716    25038    23468    21642    20156    19141    18150    16875 
   15470    13829    11663     9338     7385     5808     4654     4047 
    3672     3303     3229     3554     3821     3896     4426     5679 
    7020     7996     8664     9032     8983     8573     8075     7637 
    7372     7358     7362     7379     7705     8184     8485     8630 
    8804     9232     9923    10548    10873    11045    11385    12004 
   12901    14255    16073    18030    19792    21049    21731    22120 
   22193    21648    20616    19257    17190    14283    11461     9843 
    9474     9713    10165    10624    10843    10527     9391     7564 
    5693     4263     3209     2456     2123     2123     2344     3068 
    4712     7338    10581    13699    15937    17273    17809    16580 
   12891     7981     3667      635    -1191    -1538      203     3995 
    9186    15014    20359    24351    27104    28694    28743    27680 
   26540    25265    23061    20176    17438    14775    11730     8594 
    6206     5329     6080     7600     8939    10231    11990    13596 
   13762    12093     9296     6435     4224     2607     1445     1244 
    2366     4338     6453     8069     8588     8014     6804     5092 
    3028     1254      224      -92      238     1016     1989     3312 
    5243     7573    10004    12624    15540    18675    22000    25442 
   28853    31997    34286    34886    33150    29083    23550    17724 
   12638     9072     7174     6527     6862     8245    10307    11875 
   11981    10612     8197     5194     2086     -790    -3329    -5366 
   -6208    -5357    -3652    -2044     -288     2036     4798     7627 
   10085    11874    13057    13801    14019    13667    13104    12737 
   12870    13792    15311    16695    17292    16728    15083    13110 
   11551    10765    11047    12337    13993    15234    15630    15166 
   13822    11484     8563     6001     4338     3338     2767     2828 
    3650     4889     6054     7097     8575    11339    15580    19997 
   23134    25168    26672    26850    24855    21191    16440    10555 
    4133    -1523    -5740    -8368    -9164    -8380    -6493    -3435 
     563     4670     8366    11663    14674    17155    18765    19840 
   21063    22677    24407    25613    25745    24790    23135    21336 
   19856    18760    17884    17166    16409    15282    13858    12205 
   10083     7846     6275     5442     4881     4349     4066     4477 
    5724     7513     9463    11159    12217    12568    12277    11243 
    9505     7564     6061     5083     4162     3222     2847     3281 
    3938     4336     4753     5558     6802     8355     9816    10942 
   11932    12597    12237    10630     8082     4837     1320    -1671 
   -3458    -3613    -1801     1952     7029    12408    17079    20362 
   22065    22631    22725    22633    22546    22893    24008    25736 
   27274    27644    26272    22960    18019    12441     7313     3396 
    1142      515     1062     2371     4265     6458     8225     8947 
    8605     7307     5094     2393      128     -788       50     2583 
    6326    10347    13862    16612    18467    19268    19101    18279 
   16918    14889    12329     9631     7223     5781     5670     6173 
    6578     7162     7924     8146     7759     7320     7101     7268 
    7906     8535     8532     7866     6668     4714     2041     -793 
   -3257    -4834    -5057    -3774     -856     3583     8586    12799 
   15335    16040    15273    13657    11954    10802    10652    11678 
   13311    14395    14263    13499    13318    14205    15904    18443 
   21799    25220    27902    29303    28691    25556    20271    13878 
    7508     1926    -2415    -5182    -6447    -6633    -6181    -5452 
   -4649    -3931    -3196    -1723     1023     4606     8206    11264 
   13265    13576    11838     8492     4708     1375    -1181    -2333 
   -1405     1241     4581     8111    11669    14597    16317    17071 
   17323    17492    18225    19860    22315    25710    29954    33947 
   36129    35568    32168    26425    19450    12621     6936     2933 
     919      873     2282     4475     6904     8868     9657     9091 
    7516     5336     2731       43    -1807    -2001     -426     2788 
    7200    11763    15606    18590    20804    22114    22468    22124 
   21149    19162    16101    12721     9819     7576     6229     6409 
    8093    10320    12349    14009    15103    15503    15300    14411 
   12679    10332     7818     5371     3241     1995     2034     3190 
    5036     6878     7776     7539     7017     6726     6270     5410 
    4368     3203     1814      198    -1589    -3477    -5278    -6586 
   -6958    -6017    -3472      348     4331     7584    10085    12069 
   13227    12992    11852    11484    12850    15231    17800    20740 
   24129    26914    27766    26430    23794    20932    18644    17537 
   17854    19410    21753    23868    23970    20535    13685     4682 
   -5595   -16034   -24310   -28422   -27912   -23340   -15873    -7178 
    1032     7990    13771    17925    20067    20874    20823    19956 
   18800    17873    17411    17783    19216    21257    22775    22906 
   21997    21099    20681    20068    18335    15560    12804    11164 
   10960    11716    13036    14828    16574    17466    17156    15643 
   13003     9651     6344     3804     2532     2668     3888     5644 
    7429     8819     9341     8529     6643     4611     2729      664 
   -1400    -2813    -3129    -2287     -679     1028     2470     3932 
    5901     8147     9858    10656    10764    10272     8898     6604 
    3888     1479       63     -125      671     2346     4861     7761 
   10426    12614    14508    16304    18144    20218    22324    23896 
   24782    25366    25994    26650    27067    27203    27215    26724 
   25053    22065    17852    12680     7384     2669    -1315    -4213 
   -5165    -3581      207     5194    10391    15190    19167    21948 
   23300    23073    21376    18994    17034    16193    16861    19178 
   22631    26277    29142    30118    28294    23610    16832     9091 
    1634    -4560    -9151   -11941   -12428   -10745    -8177    -5922 
   -4339    -3476    -3147    -2714    -1680     -437      345     1063 
    2629     4917     7243     9544    11949    14261    16516    19106 
   21744    23597    24878    26514    28209    28708    27595    25458 
   22954    20694    19101    17743    15771    13015     9721     5935 
    1940    -1544    -3928    -4877    -4082    -1421     2871     8127 
   13328    17723    21230    23923    25507    25439    23686    21055 
   18295    15703    13731    12758    12412    11817    10328     7973 
    5252     2547      -27    -2022    -2388     -469     2936     6212 
    8537    10064    10736    10065     8028     5309     2833     1321 
    1130     2609     6072    11031    16298    20756    23528    24209 
   22972    20062    15935    11763     8871     7727     8094     9863 
   12912    16574    19847    21626    20797    16977    11136     4962 
    -377    -4573    -7324    -7955    -6271    -2866     1495     6005 
    9989    13265    15695    16988    17032    15637    12673     8924 
    5783     3922     3116     3260     4512     6512     8438     9695 
   10367    11256    12871    14623    15920    16887    17482    17349 
   16469    15203    14168    13731    13479    12909    12194    11753 
   11464    10778     9615     8353     7080     5747     4612     3977 
    3874     4432     6041     8673    11638    14116    15722    16761 
   17903    19763    22401    25262    28162    31323    34217    35690 
   34978    31992    26896    19909    12030     5038       82    -2383 
   -1710     2137     7934    14141    19361    22292    22259    19357 
   13961     6851     -310    -5594    -8029    -7801    -5444    -1249 
    4506    10954    16530    19945    20934    19788    16996    13046 
    8158     2871    -1700    -4705    -6082    -6173    -4834    -1132 
    5530    14242    23030    30381    36029    40133    42177    41334 
   37503    31586    25125    19492    15328    12952    12692    14455 
   17426    20282    21601    20554    17152    11874     5919      785 
   -3208    -6477    -8696    -9283    -8352    -6386    -3784     -850 
    2240     5333     8027     9935    11179    12117    12805    13107 
   12912    12047    10482     8632     7099     6269     6449     8072 
   11298    15619    20106    23855    26157    26744    26154    25133 
   23732    21634    18781    15636    13366    12983    14066    15264 
   15933    16180    15600    13416     9960     7042     6440     8635 
   13000    18549    24624    30713    35642    38077    37699    35048 
   30750    25281    19256    13520     8639     4710     1685     -352 
   -1208    -1034     -531     -329     -441     -561     -480     -134 
     447     1264     2360     3751     5426     7001     7701     7182 
    5929     4599     3422     2484     2177     2883     4422     6489 
    9351    13281    17718    21933    25934    29685    32322    33137 
   32145    29518    25667    21479    17862    15265    13735    13267 
   13716    14640    15707    16799    17708    18155    18090    17776 
   17500    17385    17569    18293    19446    20363    20737    20955 
   21065    20554    19226    17258    14682    11698     9088     7441 
    6499     5861     5642     6088     7069     8126     8519     7504 
    5127     2268     -394    -2838    -4801    -5365    -4191    -2206 
    -542      183     -352    -2145    -4613    -6800    -7787    -6827 
   -3741      640     5056     9009    12876    16489    18571    18180 
   15736    12440     9380     7245     6553     7495     9677    12618 
   16075    19570    22186    23378    23520    23155    22412    21481 
   20793    20509    20394    20198    19707    18572    16670    14344 
   12147    10486     9433     9141    10215    13023    17055    21174 
   24197    25478    25034    23141    20088    16274    12211     8444 
    5532     4029     4287     6095     8663    10968    12155    11897 
   10256     7318     3557       84    -2076    -2647    -2001     -583 
    1574     4492     7593     9964    11299    12212    13482    15180 
   16918    18569    20350    22767    26115    29603    31957    32792 
   32425    31151    29310    27210    25006    23131    22109    21727 
   21365    21111    21276    21092    19461    16289    12195     8049 
    4721     2427      908      175      295      881     1327     1256 
     592     -395    -1156    -1299     -696      708     2630     4411 
    5503     5630     4705     2914      705    -1311    -2465    -2391 
   -1319      439     3280     7825    13643    19440    24237    27700 
   29744    30060    28317    24982    21151    17619    14521    11736 
