Origin Time       2011/03/11 14:46:00
Lat.              38.103
Long.             142.860
Depth. (km)       24
Mag.              9.0
Station Code      HKD071
Station Lat.      43.2326
Station Long.     145.2604
Station Height(m) 38
Record Time       2011/03/11 14:48:42
Sampling Freq(Hz) 100Hz
Duration Time(s)  225
Dir.              U-D
Scale Factor      3920(gal)/6182761
Max. Acc. (gal)   5.664
Last Correction   2011/03/11 14:48:27
Memo.             
[...]
   -7662    -8067    -8556    -8992    -8894    -8184    -7235    -6903 
   -8124   -10569   -12626   -13072   -11674    -8935    -6397    -6056 
   -8042    -9875    -9704    -8467    -7908    -8252    -7994    -6667 
   -6300    -7814    -9578   -10436   -10745   -10762    -9830    -8044 
   -7158    -8071    -9544   -10090    -9794    -9940   -10449    -9732 
   -7777    -6440    -6890    -8071    -8244    -7922    -8763   -10233 
  -10106    -7730    -5209    -4911    -6955    -9747   -11852   -12610 
  -11866   -10223    -8770    -8344    -8800    -8925    -8886   -10074 
  -11829   -12557   -11858   -10383    -9533    -9422    -8829    -8057 
   -7807    -7055    -5333    -4318    -5716    -8921   -11303   -11078 
   -9224    -7959    -8749   -11294   -13004   -11942    -9702    -8537 
   -8674    -9137    -9121    -9046    -9309    -9067    -8282    -8349 
   -9129    -8685    -7174    -6929    -8057    -8054    -6055    -4289 
   -5211    -8697   -11710   -11626    -9701    -9116   -10966   -13461 
  -13888   -11116    -6742    -4343    -6361   -10974   -13848   -13101 
  -10527    -8731    -8847    -9859   -10238    -9977    -9336    -8251 
   -7732    -8773   -10459   -10935    -9667    -8052    -7799    -8685 
   -9047    -8829    -9200    -9806    -9478    -8260    -7395    -7583 
   -7851    -7773    -8339    -9093    -8595    -7363    -7262    -8851 
  -10188    -9347    -7667    -7669    -9346   -10927   -11356   -11113 
  -10936   -10519    -9526    -8662    -8729    -9130    -8794    -7912 
   -7110    -6852    -7422    -8575    -9802   -10004    -8573    -6748 
   -6154    -7555   -10209   -12301   -13031   -12737   -12087   -12043 
  -12756   -12678   -10472    -7630    -6677    -7563    -8600    -8906 
   -8509    -8042    -8072    -8197    -7877    -7300    -6688    -6197 
   -6128    -6674    -8250   -10730   -12188   -10537    -6940    -5579 
   -8124   -11134   -11243    -9544    -8926    -9669    -9929    -9407 
   -9673   -10624    -9899    -7250    -5766    -7027    -8688    -8137 
   -6200    -5705    -6877    -7256    -6704    -7652   -10053   -11000 
   -9408    -7710    -8240    -9869   -10257    -9491    -8737    -8125 
   -7574    -7441    -8409   -10458   -12056   -12098   -11343   -10632 
   -9439    -7608    -6885    -8319    -9914    -9731    -8949    -9265 
  -10420   -11249   -10711    -9301    -8940    -9502    -9085    -7819 
   -7280    -7545    -7571    -6974    -5941    -5297    -6530    -9320 
  -11491   -12035   -10860    -8763    -8401   -10488   -12507   -12922 
  -12194   -11491   -11734   -12313   -11933   -10637    -9828   -10147 
  -10457   -10039    -9698    -9557    -8662    -7103    -5942    -5817 
   -6467    -6593    -5543    -5034    -6759    -9734   -11859   -12062 
  -10399    -7873    -5879    -5248    -6275    -8463   -10224   -10402 
   -8904    -6517    -5183    -5594    -6390    -7338    -9070   -10591 
  -10490    -9264    -8424    -8372    -8679    -8987    -9257    -9824 
  -10313   -10046    -9649    -9477    -8666    -7394    -6996    -7780 
   -8871    -9659    -9804    -8890    -7304    -5957    -5359    -6039 
   -8180   -10682   -12038   -11888   -10890    -9649    -8669    -8432 
   -8948    -9814   -10624   -11353   -12224   -13024   -12648   -10287 
   -7990    -8820   -11262   -10867    -7208    -4084    -4229    -6511 
   -8119    -8761   -10017   -11187   -10702    -9974   -11121   -12671 
  -11656    -8993    -8068    -9447   -11155   -11544   -10592    -9344 
   -8077    -7083    -7733    -9997   -11304    -9960    -7871    -7806 
   -9842   -11769   -11558    -9208    -6160    -4163    -4685    -6784 
   -7563    -6521    -5931    -7070    -8656    -8387    -6363    -6089 
   -9464   -13496   -14404   -11843    -8335    -6467    -7220    -9794 
  -11932   -11975    -9813    -6417    -4883    -6889    -9251    -9649 
   -9412    -9585   -10262   -10973   -10576    -9159    -8114    -8038 
   -8412    -8821    -8958    -8351    -7352    -6840    -6769    -6750 
   -7072    -8118    -9879   -11872   -13312   -13708   -12479    -9415 
   -6427    -6556   -10252   -13842   -13523    -9981    -6921    -6230 
   -6575    -6631    -6994    -8222    -9868   -10963   -10679    -9303 
   -7471    -5659    -4818    -5499    -7316    -9085    -9006    -7175 
   -6645    -8921   -11749   -13232   -13415   -12845   -13002   -14825 
  -16298   -14712   -10642    -6906    -4917    -5059    -7184    -8881 
   -7885    -5718    -5566    -7875    -9888    -9445    -7956    -8003 
   -9637   -11390   -12508   -12472   -10848    -8370    -6722    -6385 
   -6262    -6465    -8094   -10490   -12295   -12661   -11034    -8745 
   -7857    -8628   -10365   -11636   -10817    -8605    -7198    -6956 
   -6553    -6073    -6695    -7961    -8614    -8446    -8120    -8681 
  -10073   -10543    -9281    -8233    -9478   -11295    -9888    -5213 
   -1326    -1512    -5446    -9591   -10315    -8188    -6890    -7373 
   -7762    -8334   -10316   -12069   -12316   -12801   -14479   -15369 
  -13658   -10854    -9688    -9830    -8853    -6228    -4407    -5988 
   -9277    -9592    -6419    -4075    -5116    -8004    -9990    -9658 
   -7676    -5688    -5033    -6653   -10128   -12862   -12799   -10846 
   -9044    -8729   -10232   -12125   -12009    -9671    -7866    -8712 
  -11530   -13939   -13469   -10137    -6665    -5571    -7316    -9606 
   -9643    -7763    -6102    -5715    -6306    -6540    -6188    -7090 
   -9150   -10031    -9393    -8577    -8794   -10513   -12580   -13626 
  -12875    -9647    -5228    -2809    -3878    -6845    -9043    -9963 
  -11740   -14688   -15625   -13197   -10404    -9159    -7856    -6176 
   -5963    -7406    -8472    -7660    -6167    -5824    -6241    -6272 
   -6349    -7717    -9645   -10142    -9508    -9230    -9822   -11222 
  -12641   -13898   -15100   -14462   -11476    -8623    -7805    -8906 
  -10387   -10949   -10768    -9788    -7740    -6075    -6576    -7972 
   -6938    -3720    -2849    -6612   -10696    -8973    -2880     -306 
   -4688   -11484   -14368   -12495   -10453   -10893   -12563   -14083 
  -14536   -13511   -11829   -10807   -11307   -12520   -12307    -9618 
   -6048    -4403    -5288    -7087    -7987    -6926    -5025    -4245 
   -5115    -6874    -8089    -8338    -8291    -8801   -11056   -14315 
  -16154   -16021   -14692   -12887   -11298   -10150    -9454    -8643 
   -7285    -6206    -5735    -5742    -6386    -6833    -6539    -6005 
   -5739    -6308    -7379    -8485   -10372   -12512   -12870   -11181 
   -8985    -7839    -8557   -10012   -10852   -11595   -11445    -9076 
   -6817    -6273    -5508    -4699    -5939    -8621   -10805   -11108 
   -9147    -7365    -8175    -9991   -10692   -10880   -11152   -10883 
  -10617   -11062   -10496    -7698    -4517    -3735    -6466    -9607 
   -9115    -7238    -8829   -12733   -13797   -10601    -7061    -6779 
   -8672    -9928   -10573   -11402   -10902    -8683    -7000    -6927 
   -7616    -7720    -6679    -6240    -8397   -12145   -13937   -11614 
   -7395    -5308    -6680    -9099   -10022   -10118   -10435    -9615 
   -6722    -3738    -3419    -5719    -8169    -9430   -10144   -10580 
  -10054    -9058    -9051    -9527    -8839    -7757    -8199    -9938 
  -11577   -12306   -11928   -10845    -8925    -5953    -3881    -4322 
   -6062    -7829    -8957    -8687    -7720    -7209    -7114    -7061 
   -7225    -8900   -12433   -14923   -13777   -10181    -7633    -8403 
  -10905   -11924   -10238    -6976    -4536    -4628    -7000    -9009 
   -7398    -3275    -1346    -3857    -9208   -13716   -13980   -10285 
   -6443    -5312    -6378    -7982    -9482   -10447   -10447    -9965 
   -9423    -9197   -10477   -12690   -13579   -13042   -11987   -10055 
   -7325    -5519    -6218    -8014    -7969    -5907    -4370    -5627 
   -9443   -12976   -13650   -11349    -7894    -5403    -5019    -6854 
   -9199    -9191    -6534    -3767    -3549    -6628   -10368   -11928 
  -11834   -11541   -11397   -10862    -9175    -7580    -8377   -11240 
  -13736   -14456   -13480   -11151    -8487    -7409    -8417    -9868 
   -9957    -7815    -4805    -4171    -6527    -8979    -9945   -10417 
  -10888   -10730    -9802    -8621    -8105    -9183   -10713   -10679 
   -9873    -9242    -8139    -7569    -7978    -7886    -7416    -7304 
   -7589    -8755   -10894   -12680   -12085    -9293    -6816    -5085 
   -3173    -2586    -4841    -8617   -11766   -13366   -13906   -14042 
  -13075   -10474    -8017    -7519    -8029    -8084    -8504   -10232 
  -11348    -9219    -4940    -2729    -4535    -7902   -10103   -11427 
  -12525   -12127   -10483   -10402   -12161   -12922   -11230    -8239 
   -6431    -7100    -8583    -9061    -9006    -9070    -8740    -8048 
   -7705    -7642    -7510    -7265    -6663    -5959    -6789    -9740 
  -12117   -11813   -10536   -10093    -9962    -9879   -10364   -11437 
  -12687   -12500    -9363    -4832    -1784    -1290    -2619    -4598 
   -6500    -7758    -8326    -9038   -10208   -11454   -12465   -12795 
  -12480   -12104   -11271    -8820    -5283    -3314    -4417    -6948 
   -8158    -7454    -7227    -9305   -11883   -12252   -10544    -8764 
   -7846    -7591    -7871    -8521    -9405   -10215   -10685   -11249 
  -11965   -12398   -12262   -11672   -11741   -12486   -12147   -10759 
   -9829    -9051    -7196    -5089    -5117    -7440    -9795   -10842 
  -10324    -8551    -6816    -5781    -5436    -5939    -6538    -6467 
   -6151    -5778    -5249    -5595    -7641   -10187   -11798   -12191 
  -11277    -9876    -9745   -11218   -12914   -13222   -11493    -8912 
   -7558    -7849    -8482    -8923    -9008    -8192    -7150    -7030 
   -8165    -9862   -10658   -10088    -8827    -7907    -8696   -10979 
  -11857    -9443    -6104    -5322    -7560   -10807   -12474   -10942 
   -7440    -4938    -4701    -6713   -10784   -14458   -14890   -12546 
   -9585    -7744    -8046    -9773   -11337   -12554   -13203   -12220 
  -10793   -10415    -9372    -6945    -5312    -5192    -5395    -5092 
   -4643    -5926   -10112   -14742   -15898   -13436   -10464    -8530 
   -8270   -10690   -13410   -12346    -8546    -6892    -9008   -12041 
  -13279   -12634   -11163    -9329    -6909    -4920    -5141    -6746 
   -7884    -8633    -8994    -8145    -6419    -4762    -3749    -4323 
   -6494    -8631   -10333   -12017   -12318   -10886    -9974   -10376 
  -10625    -9628    -7466    -5128    -4234    -6193    -9625   -10728 
   -8972    -7606    -7890    -8868   -10634   -12769   -13376   -11859 
   -9074    -6160    -4979    -6859   -10473   -12286   -10444    -7295 
   -5663    -5611    -6125    -6771    -7677    -8361    -7941    -7307 
   -8025    -9678   -10746   -10494    -9286    -8289    -7978    -7546 
   -6973    -7134    -8202    -9632   -10564   -10732   -10732   -10384 
   -8509    -5453    -3786    -5664   -10464   -14224   -13750   -11465 
  -11232   -12596   -12596    -9947    -6325    -4132    -4137    -5243 
   -5766    -5510    -5445    -6219    -8076   -10041   -10705   -10501 
   -9971    -8941    -8696    -9828   -11017   -11960   -12668   -12788 
  -13046   -13255   -11897    -9061    -6443    -5637    -6781    -8303 
   -9369    -9870    -9093    -7850    -7453    -7155    -6799    -7550 
   -8746    -9342   -10606   -13164   -15172   -14760   -12374   -11075 
  -12109   -12441   -10054    -6602    -4052    -2854    -3084    -4887 
   -6960    -7303    -6455    -6619    -8094    -9750   -11114   -11765 
  -11366   -10893   -10813    -9922    -7885    -5719    -4187    -3766 
   -4664    -6083    -6894    -7529    -8344    -7548    -5396    -4793 
   -5934    -7886   -11028   -13730   -13537   -10925    -8253    -7876 
  -10237   -12392   -11630    -8932    -7300    -8883   -12471   -14810 
  -15153   -14507   -12824   -10833   -10128   -10320    -9967    -8093 
   -4282     -622     -721    -4618    -8477   -10039   -10390   -10546 
   -9821    -7942    -7330   -10155   -13949   -15278   -14136   -11961 
   -9927    -7779    -4438    -1821    -2741    -6165    -9566   -11992 
  -13349   -13392   -11805    -9584    -8669    -9605   -11010   -11236 
   -9998    -7993    -6089    -4726    -4313    -6325    -9877   -11116 
   -9548    -8225    -8972   -10670   -11092   -11104   -12483   -13590 
  -13270   -12729   -12336   -11199    -8569    -6187    -6831    -9016 
   -9716    -9234    -8149    -6194    -4657    -5214    -8029   -11159 
  -11454    -8256    -4929    -4635    -6628    -8299    -8685    -7950 
   -6146    -4650    -5382    -8215   -11623   -14287   -15047   -13859 
  -12664   -11807    -9366    -6683    -6926    -9167   -10245    -9390 
   -8471    -8693    -8834    -7827    -6570    -7031    -9820   -11899 
  -10767    -8625    -7726    -7636    -7874    -8825   -10722   -12079 
  -11387    -9609    -8008    -7163    -7125    -6744    -6358    -7707 
  -10396   -12485   -12523   -10669    -8478    -7000    -6471    -6343 
   -5812    -5444    -5740    -6182    -6913    -8100    -9493   -11112 
  -12246   -12267   -12475   -13713   -13929   -11811    -9326    -8220 
   -8376    -8676    -8205    -8056    -8935    -9260    -8662    -8643 
   -9389    -9548    -8283    -6182    -5028    -5549    -6193    -6597 
   -7929    -9156    -8945    -8749    -9919   -11493   -12110   -10760 
   -7416    -4760    -5225    -7426    -8678    -8399    -7709    -7222 
   -6868    -6868    -7736    -9316    -9710    -8125    -6656    -6477 
   -7318    -9080   -11037   -13051   -15764   -17899   -17062   -13117 
   -8699    -6639    -7530    -9625   -10482    -9362    -7154    -4497 
   -3025    -4201    -6581    -9007   -11134   -11892   -11877   -11755 
  -10593    -8305    -6095    -5580    -7129    -9583   -11938   -13309 
  -14175   -15847   -16133   -12475    -8158    -7825   -10863   -12786 
  -10506    -6413    -4630    -4617    -4697    -5459    -6709    -7764 
   -8222    -7750    -7890    -9680   -10552    -8650    -7146    -9190 
  -12184   -12477   -10917    -9601    -8713    -8087    -7658    -7443 
   -8218    -9392    -8774    -7074    -7649   -10549   -12218   -11014 
   -8616    -7269    -7716    -8870    -9363    -8735    -7424    -6486 
   -6369    -6387    -5926    -5018    -4249    -4820    -6765    -8184 
   -8343    -8226    -8366    -9124   -10288   -11362   -13454   -16203 
  -16656   -14513   -12056   -10900   -11641   -12731   -12568   -12051 
  -11122    -8278    -4993    -4561    -6589    -7234    -4780    -2065 
   -2612    -5533    -6874    -5978    -6301    -8855   -10080    -8814 
   -8665   -10800   -12221   -11530    -9766    -8152    -7715    -7781 
   -7607    -9257   -12964   -15066   -13465    -9606    -7146    -8490 
  -11221   -11874   -10426    -9112    -9676   -11415   -12530   -12510 
  -11575   -10342    -9165    -8019    -8192    -9864   -10622    -9391 
   -8040    -8657    -9948    -9420    -8315    -8673   -10166   -11613 
  -11905   -11392   -10808    -9506    -7392    -5443    -4743    -5583 
   -6519    -6182    -4714    -2933    -2234    -3868    -7185    -9727 
   -9659    -8262    -8065    -9064   -10043   -10428    -9533    -7902 
   -6604    -5067    -3795    -4761    -7376    -9518   -10608   -10680 
  -10098   -10154   -11333   -12884   -14210   -14574   -13022   -10531 
   -9847   -11034   -11331   -10391    -9777    -9889   -10416    -9861 
   -7614    -6106    -6633    -7615    -7841    -7849    -8054    -7568 
   -6835    -7722    -9802   -10828   -10089    -9242    -9872   -10790 
   -9838    -8155    -9328   -13599   -16396   -14461   -10110    -7050 
   -6225    -7116    -7785    -5714    -2232    -1057    -3328    -7896 
  -12571   -14862   -14494   -13062   -11470   -10210    -9546    -8712 
   -7461    -6750    -6636    -6138    -5367    -5178    -5545    -6060 
   -6667    -7400    -8037    -8168    -7793    -7638    -8446    -9957 
  -10963   -10020    -7273    -5676    -7250    -9905   -11223   -11586 
  -11693   -11369   -11336   -12191   -13005   -13155   -12344   -10122 
   -7750    -6706    -6326    -6065    -6531    -7773    -9421   -10584 
   -9822    -7834    -6969    -7378    -7754    -8002    -8054    -7879 
   -9139   -11973   -13728   -13889   -13994   -14061   -13439   -12308 
  -11180   -10073    -8855    -8323    -9452   -11218   -11158    -9331 
   -8356    -8868    -9417    -9281    -8563    -7957    -8209    -8996 
   -9342    -8519    -6789    -5394    -5351    -6813    -8731    -9307 
   -8229    -7010    -6659    -7108    -8018    -8823    -9577   -10883 
  -12204   -12506   -11881   -11281   -11559   -12216   -11959   -11027 
  -10140    -8921    -7386    -6531    -7674   -10286   -11056    -8430 
   -4789    -2678    -2172    -2167    -2223    -1899    -1219    -2207 
   -5618    -9132   -10961   -10992   -10462   -11774   -14722   -15750 
  -13442   -10533    -9582    -9763    -9205    -7996    -7265    -7696 
   -8657    -8839    -8725    -9115    -8941    -8197    -9197   -12019 
  -13069   -11013    -8569    -7550    -7993    -9396   -10218   -10589 
  -12197   -13637   -12903   -11191   -10024    -9654    -9226    -7545 
   -5829    -6413    -9185   -11916   -12544   -11401   -10422    -9681 
   -8343    -7301    -7563    -8128    -7404    -6418    -7371    -9212 
   -9517    -8077    -5976    -4921    -5924    -7052    -6450    -5516 
   -5711    -6474    -6956    -6743    -6533    -7564    -9127    -9598 
   -9640   -11291   -14199   -15636   -14401   -12169   -11318   -12197 
  -12365   -10379    -8543    -8555    -8625    -7920    -7893    -7622 
   -5064    -1995    -1436    -3697    -7190    -9647    -9493    -7590 
   -6421    -6972    -8122    -9213   -10124   -10225    -9911   -10337 
  -11055   -11217   -11545   -12356   -12608   -12243   -12583   -14024 
  -15037   -14297   -12714   -11477   -10318    -8956    -7118    -4568 
   -2880    -3275    -4289    -4683    -4595    -4751    -6561    -8960 
   -9009    -7589    -7104    -7040    -6937    -7671    -9177   -10626 
  -11467   -11762   -12159   -13042   -13427   -11905    -9528    -8910 
   -9949   -10541   -10056    -8908    -7964    -7850    -7508    -6817 
   -7153    -8111    -8628    -8808    -8689    -8793   -10335   -12689 
  -14123   -14057   -11738    -7489    -4935    -6556    -9930   -11265 
   -9993    -8261    -7543    -8010    -9172    -9751    -9245    -7993 
   -6112    -5036    -6129    -7775    -8257    -8873   -10881   -13116 
  -14592   -15121   -14034   -11582    -9293    -8217    -8278    -9007 
   -9986   -10876   -11403   -10942    -9104    -7213    -7160    -8503 
   -9144    -8402    -7568    -8130    -9606   -10061    -8986    -7592 
   -7065    -7485    -8235    -9001    -9019    -7433    -5499    -5505 
   -8231   -11982   -13329   -11827   -11416   -12852   -12198    -8915 
   -6349    -5976    -7011    -8269    -9059    -9085    -7750    -5590 
   -4540    -5522    -7771    -9743   -10491   -11051   -12400   -12927 
  -11454    -9531    -8691    -9055    -9833   -10132    -9808    -8610 
   -6359    -3993    -2864    -3808    -6328    -8474    -9037    -8832 
   -8459    -7965    -8268    -8998    -8582    -7364    -6528    -6369 
   -6659    -6378    -5016    -4184    -4814    -5262    -4670    -4582 
   -6275    -8506    -9073    -8236    -7981    -9106   -10757   -11358 
  -10753   -10762   -12162   -13477   -13265   -11867   -10785   -10362 
