Origin Time       2011/03/11 14:46:00
Lat.              38.103
Long.             142.860
Depth. (km)       24
Mag.              9.0
Station Code      HKD044
Station Lat.      44.4796
Station Long.     143.1276
Station Height(m) 3
Record Time       2011/03/11 14:49:22
Sampling Freq(Hz) 100Hz
Duration Time(s)  253
Dir.              U-D
Scale Factor      3920(gal)/6182761
Max. Acc. (gal)   2.427
Last Correction   2011/03/11 14:49:07
Memo.             
[...]
    2445     2358     2272     2172     2079     2009     1958     1927 
    1913     1911     1922     1957     2006     2051     2088     2117 
    2145     2187     2242     2269     2235     2164     2107     2079 
    2057     2033     2033     2066     2111     2135     2107     2039 
    1980     1948     1940     1953     1975     1996     1996     1965 
    1927     1902     1894     1907     1942     1997     2050     2073 
    2069     2062     2072     2122     2221     2332     2423     2509 
    2603     2693     2771     2842     2910     2983     3076     3199 
    3335     3458     3572     3675     3751     3803     3840     3875 
    3913     3946     3968     3991     4001     3970     3920     3885 
    3864     3851     3852     3874     3916     3970     4012     4029 
    4018     3969     3901     3859     3867     3920     4001     4104 
    4229     4336     4400     4437     4470     4516     4575     4629 
    4671     4695     4679     4617     4528     4442     4360     4279 
    4222     4203     4188     4140     4075     4042     4052     4087 
    4140     4203     4259     4296     4308     4292     4260     4229 
    4214     4219     4232     4239     4233     4208     4162     4094 
    4017     3952     3908     3879     3884     3945     4036     4106 
    4155     4213     4280     4351     4434     4527     4617     4691 
    4752     4826     4926     5031     5137     5254     5375     5482 
    5561     5603     5592     5524     5411     5289     5197     5146 
    5109     5067     5022     4983     4948     4918     4896     4893 
    4906     4917     4917     4924     4925     4904     4879     4877 
    4905     4959     5018     5064     5115     5174     5221     5245 
    5255     5269     5299     5344     5398     5457     5512     5541 
    5544     5540     5542     5552     5575     5614     5673     5736 
    5782     5797     5778     5735     5685     5623     5540     5438 
    5315     5179     5028     4866     4724     4625     4558     4504 
    4454     4403     4363     4335     4291     4225     4162     4108 
    4048     3986     3939     3906     3865     3803     3734     3669 
    3594     3513     3453     3411     3367     3327     3283     3214 
    3135     3072     3031     3007     2988     2963     2934     2903 
    2872     2831     2768     2698     2657     2653     2659     2657 
    2655     2657     2660     2674     2711     2764     2829     2893 
    2935     2929     2872     2784     2698     2632     2605     2632 
    2702     2774     2795     2749     2667     2555     2402     2227 
    2049     1896     1791     1710     1628     1554     1497     1450 
    1426     1438     1473     1512     1548     1584     1621     1633 
    1612     1593     1583     1557     1521     1497     1485     1492 
    1538     1616     1687     1728     1744     1752     1763     1791 
    1848     1908     1931     1923     1904     1867     1810     1749 
    1715     1714     1711     1695     1707     1772     1877     2002 
    2133     2258     2370     2467     2563     2669     2777     2874 
    2951     3022     3117     3240     3363     3477     3611     3779 
    3954     4100     4207     4294     4358     4362     4303     4248 
    4235     4245     4262     4294     4350     4433     4551     4720 
    4931     5139     5319     5470     5583     5646     5661     5627 
    5547     5438     5326     5222     5119     5006     4898     4816 
    4759     4721     4696     4665     4598     4503     4419     4352 
    4264     4138     4007     3905     3837     3803     3796     3792 
    3770     3727     3659     3575     3490     3406     3339     3310 
    3312     3314     3299     3272     3243     3215     3187     3155 
    3118     3082     3056     3026     2985     2955     2943     2938 
    2941     2956     2978     3000     3010     3002     2977     2942 
    2900     2867     2870     2919     2983     3025     3038     3050 
    3071     3093     3114     3135     3149     3159     3171     3182 
    3181     3164     3138     3113     3085     3058     3058     3097 
    3169     3275     3404     3541     3672     3779     3857     3922 
    3969     3988     3996     4029     4079     4106     4101     4085 
    4060     4015     3972     3962     3967     3959     3946     3958 
    3997     4031     4046     4067     4111     4170     4225     4270 
    4304     4315     4303     4281     4256     4228     4211     4225 
    4257     4273     4262     4233     4195     4147     4095     4046 
    3997     3942     3897     3862     3818     3777     3757     3744 
    3704     3628     3534     3443     3359     3281     3222     3184 
    3140     3062     2950     2830     2707     2583     2474     2403 
    2367     2352     2337     2299     2235     2164     2108     2076 
    2055     2045     2054     2088     2134     2152     2132     2107 
    2095     2102     2152     2240     2345     2465     2610     2767 
    2895     2979     3062     3149     3203     3223     3238     3254 
    3261     3256     3257     3284     3333     3383     3430     3481 
    3528     3547     3534     3521     3533     3566     3604     3635 
    3651     3664     3715     3823     3948     4051     4134     4215 
    4292     4339     4340     4303     4248     4192     4129     4045 
    3957     3895     3857     3811     3742     3654     3552     3440 
    3338     3260     3210     3183     3166     3145     3129     3132 
    3155     3186     3207     3224     3255     3298     3338     3355 
    3345     3313     3255     3178     3112     3070     3055     3080 
    3134     3196     3258     3311     3360     3419     3479     3548 
    3654     3792     3926     4035     4115     4176     4225     4245 
    4227     4173     4092     3994     3890     3783     3676     3573 
    3479     3407     3374     3380     3424     3503     3600     3688 
    3760     3825     3890     3959     4019     4066     4107     4133 
    4121     4064     3955     3798     3617     3436     3276     3156 
    3070     3011     2980     2964     2944     2924     2908     2885 
    2846     2792     2736     2702     2694     2692     2682     2666 
    2642     2619     2611     2614     2616     2602     2578     2572 
    2599     2659     2739     2808     2836     2830     2804     2760 
    2704     2654     2615     2580     2538     2492     2456     2434 
    2416     2407     2418     2444     2478     2516     2561     2640 
    2750     2856     2942     3012     3069     3113     3132     3118 
    3085     3052     3029     3027     3044     3069     3082     3062 
    3027     3013     3014     3013     3007     2989     2951     2897 
    2843     2803     2786     2772     2730     2664     2606     2571 
    2558     2569     2611     2689     2794     2890     2948     2974 
    2992     3012     3030     3053     3090     3133     3176     3224 
    3281     3348     3408     3442     3458     3476     3499     3529 
    3560     3592     3640     3714     3803     3891     3968     4031 
    4085     4118     4114     4081     4052     4040     4038     4029 
    4002     3959     3917     3884     3858     3841     3849     3892 
    3962     4049     4141     4223     4282     4318     4339     4355 
    4368     4369     4350     4326     4301     4252     4161     4030 
    3870     3700     3537     3394     3281     3190     3091     2980 
    2886     2829     2801     2797     2822     2866     2897     2903 
    2893     2874     2857     2843     2828     2820     2824     2842 
    2858     2838     2762     2660     2566     2484     2414     2366 
    2342     2346     2393     2466     2515     2518     2478     2429 
    2413     2430     2462     2514     2583     2663     2737     2762 
    2716     2624     2508     2387     2266     2157     2076     2037 
    2039     2065     2091     2108     2114     2117     2125     2127 
    2115     2080     2006     1903     1804     1737     1710     1720 
    1767     1843     1917     1946     1920     1872     1840     1830 
    1834     1862     1919     1994     2076     2160     2235     2293 
    2342     2393     2448     2494     2512     2497     2462     2415 
    2368     2322     2273     2218     2179     2174     2188     2187 
    2153     2096     2038     1998     1983     1980     1974     1966 
    1972     2001     2043     2082     2109     2141     2190     2233 
    2244     2212     2148     2084     2040     2006     1976     1966 
    1992     2040     2089     2132     2167     2192     2216     2255 
    2300     2338     2382     2446     2514     2569     2617     2671 
    2740     2815     2889     2962     3024     3066     3109     3199 
    3351     3518     3646     3731     3807     3888     3963     4021 
    4072     4120     4174     4244     4331     4425     4513     4583 
    4625     4647     4669     4678     4654     4610     4558     4498 
    4433     4350     4249     4155     4083     4023     3967     3913 
    3865     3826     3784     3723     3656     3604     3575     3566 
    3570     3578     3575     3562     3562     3582     3596     3588 
    3580     3598     3640     3674     3683     3677     3677     3686 
    3688     3665     3622     3574     3531     3495     3464     3437 
    3403     3344     3257     3154     3042     2924     2813     2735 
    2704     2693     2668     2626     2575     2523     2480     2442 
    2397     2351     2318     2301     2283     2243     2187     2138 
    2105     2086     2080     2081     2089     2102     2101     2075 
    2042     2022     2032     2089     2170     2240     2307     2383 
    2467     2558     2639     2691     2722     2761     2816     2878 
    2934     2983     3021     3050     3077     3112     3156     3211 
    3273     3336     3379     3383     3344     3276     3212     3181 
    3181     3184     3172     3162     3177     3205     3215     3202 
    3183     3157     3118     3080     3063     3054     3039     3030 
    3030     3024     3003     2977     2960     2937     2892     2829 
    2772     2749     2770     2823     2901     2997     3090     3175 
    3270     3374     3469     3542     3599     3669     3762     3858 
    3935     4001     4060     4105     4128     4134     4121     4091 
    4071     4091     4140     4184     4219     4265     4326     4380 
    4406     4400     4370     4341     4343     4367     4382     4380 
    4367     4341     4310     4277     4235     4192     4162     4137 
    4097     4033     3959     3880     3786     3685     3600     3533 
    3471     3405     3349     3309     3268     3215     3166     3143 
    3148     3162     3161     3137     3090     3025     2948     2847 
    2716     2578     2465     2402     2382     2390     2396     2379 
    2344     2307     2275     2247     2220     2192     2162     2135 
    2114     2098     2075     2043     2012     1978     1928     1865 
    1819     1807     1811     1814     1825     1857     1906     1949 
    1966     1967     1958     1938     1906     1850     1767     1679 
    1597     1540     1521     1527     1541     1562     1591     1624 
    1643     1643     1644     1657     1671     1693     1738     1786 
    1823     1869     1947     2036     2099     2137     2172     2212 
    2250     2285     2311     2327     2346     2383     2429     2460 
    2479     2511     2566     2627     2684     2742     2799     2846 
    2889     2943     2998     3039     3071     3097     3117     3133 
    3146     3163     3192     3236     3291     3353     3411     3451 
    3477     3513     3565     3619     3664     3709     3760     3804 
    3829     3832     3808     3755     3704     3682     3671     3648 
    3626     3623     3640     3676     3720     3758     3780     3791 
    3796     3790     3767     3749     3768     3826     3905     3987 
    4062     4121     4170     4225     4299     4393     4494     4584 
    4654     4702     4733     4741     4719     4688     4676     4678 
    4670     4641     4598     4562     4531     4490     4445     4416 
    4407     4413     4428     4441     4448     4455     4471     4499 
    4542     4593     4648     4701     4729     4725     4703     4677 
    4647     4621     4600     4566     4505     4433     4369     4322 
    4300     4296     4282     4241     4191     4146     4095     4044 
    4016     4023     4051     4076     4081     4068     4042     4014 
    4007     4028     4058     4081     4099     4117     4128     4113 
    4068     4005     3926     3837     3759     3701     3653     3617 
    3607     3618     3628     3628     3622     3615     3600     3573 
    3550     3534     3514     3487     3454     3409     3359     3311 
    3258     3190     3104     2997     2869     2727     2598     2507 
    2426     2326     2219     2127     2045     1961     1875     1804 
    1755     1721     1698     1682     1667     1645     1632     1640 
    1656     1655     1628     1585     1545     1518     1502     1483 
    1452     1429     1428     1426     1405     1378     1352     1321 
    1288     1261     1234     1201     1180     1186     1205     1219 
    1222     1211     1182     1140     1089     1023      944      863 
     792      726      650      545      410      257       97      -59 
    -202     -318     -392     -430     -447     -449     -449     -456 
    -464     -448     -397     -325     -243     -157      -75        7 
      88      169      252      336      429      538      638      717 
     795      884      966     1038     1117     1220     1356     1523 
    1702     1864     1989     2083     2168     2239     2287     2313 
    2319     2321     2345     2385     2426     2470     2523     2591 
    2673     2762     2855     2955     3059     3164     3278     3400 
    3510     3606     3709     3830     3956     4063     4146     4225 
    4302     4359     4387     4384     4345     4275     4196     4122 
    4056     3997     3955     3936     3929     3918     3893     3843 
    3782     3730     3687     3637     3577     3517     3475     3448 
    3427     3411     3410     3428     3460     3508     3556     3586 
    3602     3617     3642     3681     3730     3776     3804     3817 
    3836     3872     3925     3986     4049     4122     4198     4254 
    4282     4295     4308     4321     4319     4294     4246     4174 
    4094     4018     3957     3914     3882     3865     3864     3870 
    3879     3893     3913     3955     4010     4049     4058     4056 
    4057     4056     4048     4043     4052     4072     4098     4118 
    4130     4133     4120     4094     4063     4023     3970     3910 
    3861     3841     3839     3833     3819     3814     3834     3880 
    3950     4044     4140     4215     4279     4350     4417     4452 
    4462     4470     4481     4482     4474     4480     4509     4555 
    4613     4663     4686     4686     4687     4699     4715     4727 
    4739     4739     4717     4684     4648     4601     4535     4466 
    4424     4420     4420     4387     4323     4264     4236     4230 
    4228     4219     4189     4133     4056     3976     3908     3849 
    3801     3777     3770     3764     3761     3769     3795     3834 
    3878     3917     3939     3943     3945     3943     3932     3915 
    3892     3871     3855     3832     3793     3744     3695     3656 
    3627     3594     3550     3500     3443     3376     3311     3254 
    3185     3085     2979     2889     2799     2697     2605     2548 
    2527     2523     2521     2514     2503     2496     2499     2506 
    2513     2522     2542     2588     2661     2746     2834     2922 
    3016     3110     3184     3234     3271     3302     3325     3351 
    3399     3463     3518     3564     3601     3599     3550     3495 
    3457     3418     3370     3327     3298     3281     3287     3331 
    3404     3475     3517     3536     3551     3571     3591     3607 
    3612     3604     3590     3579     3580     3613     3687     3792 
    3901     3994     4071     4140     4223     4321     4420     4517 
    4611     4686     4731     4760     4785     4788     4756     4714 
    4686     4651     4586     4503     4420     4329     4222     4110 
    4007     3924     3862     3817     3776     3722     3649     3572 
    3520     3493     3462     3419     3386     3365     3337     3300 
    3253     3185     3107     3039     2970     2880     2777     2668 
    2534     2377     2225     2096     1992     1910     1851     1822 
    1806     1779     1747     1736     1759     1818     1903     1990 
    2073     2164     2265     2353     2420     2483     2551     2611 
    2653     2683     2701     2695     2670     2655     2656     2652 
    2644     2651     2683     2717     2739     2759     2781     2798 
    2826     2873     2923     2968     3025     3086     3137     3164 
    3171     3168     3172     3187     3207     3225     3230     3217 
    3193     3170     3161     3166     3162     3139     3116     3102 
    3075     3025     2972     2946     2962     3004     3053     3106 
    3157     3203     3251     3295     3336     3379     3419     3453 
    3493     3529     3538     3515     3486     3473     3467     3457 
    3456     3469     3478     3476     3474     3482     3503     3541 
    3594     3650     3703     3766     3846     3944     4055     4159 
    4248     4317     4360     4366     4324     4233     4123     4028 
    3965     3927     3900     3874     3843     3809     3796     3813 
    3829     3813     3778     3753     3727     3667     3574     3472 
    3376     3288     3216     3178     3174     3182     3191     3188 
    3155     3091     3006     2935     2898     2882     2870     2865 
    2883     2924     2959     2962     2939     2901     2858     2821 
    2782     2741     2730     2761     2815     2881     2954     3027 
    3094     3153     3222     3300     3358     3396     3440     3489 
    3526     3544     3539     3520     3495     3466     3431     3392 
    3350     3298     3234     3163     3095     3038     2982     2918 
    2860     2810     2764     2719     2686     2686     2727     2790 
    2844     2877     2905     2935     2961     2963     2931     2890 
    2875     2898     2953     3028     3117     3212     3305     3408 
    3526     3636     3722     3804     3909     4025     4120     4194 
    4275     4372     4473     4562     4630     4675     4711     4756 
    4804     4838     4852     4845     4827     4816     4819     4827 
    4823     4782     4712     4640     4573     4516     4478     4466 
    4475     4489     4488     4464     4435     4424     4427     4418 
    4382     4335     4294     4262     4226     4180     4122     4056 
    3978     3890     3810     3756     3723     3696     3675     3659 
    3643     3632     3640     3658     3664     3653     3634     3606 
    3572     3545     3523     3498     3461     3416     3380     3367 
    3379     3405     3423     3423     3418     3417     3420     3424 
    3432     3447     3471     3498     3526     3554     3576     3595 
    3611     3621     3624     3625     3617     3597     3569     3541 
