Origin Time       2011/03/11 14:46:00
Lat.              38.103
Long.             142.860
Depth. (km)       24
Mag.              9.0
Station Code      HKD049
Station Lat.      44.0921
Station Long.     143.5336
Station Height(m) 59
Record Time       2011/03/11 14:49:22
Sampling Freq(Hz) 100Hz
Duration Time(s)  162
Dir.              N-S
Scale Factor      3920(gal)/6182761
Max. Acc. (gal)   3.001
Last Correction   2011/03/11 14:49:07
Memo.             
[...]
   11972    12434    12887    13271    13487    13518    13462    13473 
   13635    13876    14032    13925    13444    12685    11943    11439 
   11175    11056    10994    10868    10619    10388    10380    10617 
   10980    11425    11961    12525    13000    13325    13499    13497 
   13324    13153    13189    13429    13721    13933    13969    13795 
   13458    13000    12465    11962    11598    11394    11262    11060 
   10755    10515    10529    10754    10971    11080    11196    11466 
   11882    12296    12566    12669    12703    12775    12865    12890 
   12843    12763    12699    12692    12737    12798    12850    12887 
   12919    12906    12717    12290    11786    11419    11245    11196 
   11207    11270    11393    11579    11880    12356    12989    13721 
   14486    15189    15727    16046    16181    16200    16140    16032 
   15856    15507    14919    14169    13454    12998    12884    12939 
   12911    12765    12631    12555    12513    12513    12569    12673 
   12859    13179    13610    13991    14158    14109    13925    13600 
   13113    12624    12385    12434    12596    12701    12718    12719 
   12754    12778    12716    12602    12521    12488    12466    12423 
   12330    12171    11973    11827    11770    11752    11798    11995 
   12308    12611    12799    12835    12789    12787    12930    13262 
   13698    14049    14275    14534    14887    15161    15216    15118 
   14978    14838    14723    14603    14420    14267    14289    14381 
   14262    13823    13231    12713    12311    11907    11481    11153 
   10961    10798    10579    10316    10058     9859     9781     9826 
    9946    10149    10496    10998    11633    12377    13088    13580 
   13866    14108    14396    14686    14880    14962    14998    14954 
   14716    14277    13734    13188    12714    12325    11955    11534 
   11118    10862    10818    10883    10961    11017    11021    11000 
   11067    11316    11710    12133    12527    12890    13173    13276 
   13177    12977    12827    12873    13131    13445    13690    13864 
   13984    14069    14178    14336    14487    14532    14450    14368 
   14374    14352    14158    13778    13241    12605    11994    11551 
   11358    11353    11380    11365    11328    11311    11362    11496 
   11650    11735    11735    11754    11920    12224    12514    12697 
   12742    12545    12140    11805    11731    11856    12014    12082 
   12063    12055    12144    12335    12551    12672    12645    12560 
   12553    12624    12652    12563    12377    12174    12024    11902 
   11749    11613    11593    11672    11777    11904    12015    11972 
   11714    11358    11075    10953    10984    11071    11083    11015 
   11021    11203    11485    11741    11927    12071    12165    12084 
   11715    11172    10739    10572    10614    10752    10907    11054 
   11216    11357    11382    11280    11170    11179    11325    11479 
   11469    11288    11104    11011    10973    10949    10909    10797 
   10656    10687    10993    11410    11751    12028    12336    12690 
   13061    13406    13637    13677    13537    13270    12929    12598 
   12372    12259    12187    12113    12036    11971    11931    11890 
   11819    11730    11623    11505    11460    11568    11813    12117 
   12336    12314    12065    11787    11649    11700    11960    12418 
   12978    13524    13990    14326    14549    14753    14941    15026 
   14951    14723    14452    14286    14241    14230    14160    13969 
   13683    13381    13181    13185    13355    13494    13482    13429 
   13522    13804    14207    14665    15026    15092    14882    14600 
   14344    14137    14044    14059    14051    13927    13756    13708 
   13886    14203    14459    14538    14453    14290    14184    14243 
   14503    14901    15307    15671    16009    16255    16328    16273 
   16150    15909    15484    14938    14423    14049    13823    13698 
   13634    13622    13640    13617    13509    13330    13087    12809 
   12578    12420    12260    12078    11988    12110    12389    12667 
   12887    13093    13321    13543    13698    13777    13812    13824 
   13848    13940    14116    14307    14356    14121    13643    13103 
   12608    12150    11751    11483    11333    11181    10952    10677 
   10421    10293    10388    10612    10731    10647    10507    10491 
   10626    10827    11031    11230    11459    11751    12057    12239 
   12195    11939    11620    11466    11568    11780    11942    12046 
   12142    12244    12269    12085    11701    11313    11136    11245 
   11570    12018    12465    12723    12732    12660    12644    12629 
   12557    12511    12585    12698    12729    12737    12793    12784 
   12623    12419    12346    12492    12769    12978    12979    12781 
   12520    12356    12323    12321    12242    12106    11995    11898 
   11764    11629    11542    11490    11477    11551    11696    11794 
   11767    11677    11676    11835    12084    12305    12408    12385 
   12378    12537    12868    13240    13481    13512    13414    13328 
   13344    13472    13647    13762    13720    13494    13141    12774 
   12476    12235    12021    11839    11697    11589    11503    11431 
   11349    11192    10970    10835    10892    11057    11194    11264 
   11325    11488    11832    12275    12590    12641    12496    12309 
   12225    12332    12571    12784    12939    13144    13457    13803 
   14037    14019    13727    13312    12918    12545    12165    11778 
   11411    11148    11014    10897    10788    10852    11135    11473 
   11733    11931    12113    12293    12481    12638    12706    12774 
   13038    13552    14114    14433    14380    14075    13746    13553 
   13512    13515    13424    13175    12857    12651    12611    12602 
   12477    12226    11991    11878    11842    11828    11892    12114 
   12484    12851    12989    12802    12456    12220    12215    12399 
   12648    12831    12894    12844    12653    12296    11845    11440 
   11171    11130    11421    11964    12510    12901    13114    13171 
   13118    13023    12951    12948    13056    13292    13620    13960 
   14245    14394    14311    14007    13637    13334    13095    12869 
   12625    12369    12145    11981    11883    11891    12057    12368 
   12740    13075    13344    13583    13789    13887    13824    13659 
   13519    13468    13462    13453    13425    13359    13225    13032 
   12824    12618    12356    12024    11744    11625    11684    11944 
   12347    12697    12893    13005    13085    13108    13086    13059 
   12976    12748    12412    12150    12104    12209    12269    12194 
   12084    12092    12269    12515    12713    12866    13031    13217 
   13411    13609    13838    14124    14460    14771    14932    14861 
   14555    14072    13538    13139    12988    13044    13192    13324 
   13391    13444    13527    13577    13539    13495    13554    13719 
   13883    13935    13886    13878    14017    14224    14326    14214 
   13917    13569    13281    13071    12905    12752    12637    12645 
   12803    13065    13364    13597    13686    13666    13576    13403 
   13179    13005    12964    12955    12786    12496    12299    12306 
   12508    12795    13036    13207    13319    13365    13343    13232 
   13070    13005    13092    13189    13191    13143    13110    13045 
   12876    12653    12452    12246    12011    11809    11702    11659 
   11588    11448    11276    11123    11022    10953    10862    10765 
   10752    10852    10981    11021    10911    10720    10572    10541 
   10625    10735    10766    10754    10804    10928    11096    11312 
   11559    11759    11818    11738    11679    11815    12130    12439 
   12572    12532    12473    12496    12554    12531    12357    12034 
   11601    11136    10716    10356    10043     9753     9423     9047 
    8789     8880     9350     9969    10485    10823    10999    10994 
   10855    10756    10822    11028    11285    11528    11758    11965 
   12091    12103    12043    12017    12148    12409    12610    12606 
   12426    12248    12245    12393    12505    12459    12314    12242 
   12380    12683    12946    13044    13027    12989    12940    12839 
   12705    12591    12434    12109    11645    11252    11141    11380 
   11906    12523    12987    13190    13164    12979    12748    12614 
   12636    12761    12966    13281    13635    13856    13830    13559 
   13101    12567    12087    11749    11579    11476    11303    11151 
   11275    11721    12268    12693    12915    12984    13027    13123 
   13177    13045    12789    12607    12517    12384    12203    12106 
   12179    12400    12680    12938    13114    13184    13272    13582 
   14087    14520    14746    14856    14912    14847    14636    14304 
   13865    13427    13201    13293    13554    13743    13756    13670 
   13601    13554    13438    13248    13050    12854    12677    12586 
   12580    12641    12770    12890    12905    12852    12887    13142 
   13590    14019    14180    14042    13782    13551    13383    13298 
   13287    13274    13212    13187    13269    13363    13344    13236 
   13111    12950    12757    12623    12591    12644    12783    12921 
   12834    12435    11935    11571    11349    11167    10998    10836 
   10703    10712    10917    11205    11460    11676    11915    12212 
   12487    12635    12687    12743    12828    12936    13071    13210 
   13345    13489    13570    13460    13121    12672    12324    12202 
   12201    12076    11681    11104    10609    10374    10342    10295 
   10080     9808     9757     9980    10215    10249    10143    10058 
   10058    10087    10091    10114    10215    10360    10444    10406 
   10328    10401    10698    11045    11260    11375    11527    11780 
   12080    12303    12366    12339    12386    12564    12783    12929 
   12968    12953    12948    12935    12852    12663    12411    12230 
   12198    12241    12241    12165    12052    11957    11902    11897 
   11973    12136    12343    12517    12620    12725    12917    13147 
   13302    13333    13291    13308    13476    13687    13773    13743 
   13690    13617    13461    13212    12952    12818    12898    13176 
   13532    13785    13800    13599    13318    13048    12798    12579 
   12435    12372    12308    12193    12089    12055    12106    12251 
   12464    12705    12966    13274    13691    14225    14733    15038 
   15115    15082    15024    14929    14785    14602    14370    14085 
   13824    13662    13503    13211    12837    12498    12241    12124 
   12167    12221    12080    11765    11539    11577    11771    11892 
   11825    11679    11688    11940    12264    12460    12540    12636 
   12812    13030    13205    13314    13413    13551    13730    13905 
   14018    14101    14242    14445    14588    14529    14221    13781 
   13416    13295    13449    13709    13859    13883    13917    13968 
   13925    13799    13685    13587    13495    13469    13513    13509 
   13304    12851    12291    11858    11687    11686    11665    11628 
   11725    11946    12096    12037    11831    11666    11662    11777 
   11883    11895    11825    11756    11788    11960    12186    12305 
   12212    11999    11854    11826    11789    11647    11480    11433 
   11446    11307    11001    10709    10592    10730    11057    11360 
   11479    11467    11520    11754    12057    12288    12492    12711 
   12807    12657    12279    11768    11226    10711    10274     9936 
    9666     9500     9593    10005    10591    11147    11572    11878 
   12125    12374    12702    13141    13603    13949    14134    14174 
   14050    13788    13528    13365    13253    13129    12976    12799 
   12672    12622    12470    12083    11612    11262    11131    11251 
   11469    11459    11078    10547    10194    10148    10337    10611 
   10788    10747    10585    10514    10595    10779    11067    11404 
   11641    11737    11808    11941    12131    12378    12667    12911 
   13059    13109    13012    12769    12487    12271    12212    12326 
   12443    12419    12309    12152    11903    11641    11558    11711 
   11984    12261    12536    12906    13407    13902    14227    14345 
   14302    14140    13902    13662    13532    13553    13655    13785 
   13909    13920    13781    13607    13460    13298    13187    13267 
   13534    13805    13888    13742    13457    13163    12980    12880 
   12673    12288    11939    11862    12037    12257    12327    12202 
   12031    12002    12112    12214    12231    12191    12074    11822 
   11491    11234    11179    11335    11611    11941    12292    12558 
   12671    12682    12608    12454    12359    12454    12661    12788 
   12729    12580    12527    12627    12802    12882    12692    12254 
   11780    11493    11505    11720    11924    12039    12142    12303 
   12511    12683    12728    12667    12615    12668    12811    12928 
   12939    12890    12874    12928    13015    13068    13087    13080 
   13000    12903    12918    13015    13048    13007    13052    13297 
   13676    14052    14332    14465    14466    14443    14483    14549 
   14604    14748    15035    15305    15366    15217    15025    14996 
   15205    15520    15767    15938    16146    16449    16771    16999 
   17128    17228    17284    17215    17036    16825    16569    16271 
   16062    16036    16107    16120    15983    15677    15281    14961 
   14792    14675    14558    14557    14779    15167    15519    15632 
   15479    15261    15161    15146    15051    14757    14301    13834 
   13452    13140    12888    12776    12889    13153    13338    13287 
   13109    13059    13240    13517    13722    13855    14008    14163 
   14209    14100    13858    13608    13622    13993    14416    14576 
   14457    14180    13864    13632    13522    13454    13365    13295 
   13282    13264    13134    12871    12564    12314    12155    12058 
   12016    12017    11939    11698    11424    11274    11221    11186 
   11200    11314    11508    11712    11855    11937    12027    12149 
   12258    12277    12186    12049    11918    11831    11817    11819 
   11806    11856    11977    12070    12111    12199    12365    12490 
   12515    12451    12221    11794    11375    11148    11026    10861 
   10674    10541    10505    10637    10970    11390    11677    11689 
   11551    11531    11717    11983    12232    12458    12615    12637 
   12582    12532    12450    12313    12233    12283    12335    12245 
   12046    11841    11674    11592    11636    11758    11886    11992 
   12037    11973    11790    11557    11432    11545    11836    12107 
   12230    12235    12188    12105    11994    11854    11666    11426 
   11153    10885    10698    10645    10665    10651    10601    10587 
   10629    10711    10847    11022    11139    11143    11108    11171 
   11428    11884    12436    12948    13374    13727    13933    13867 
   13561    13214    13006    12984    13022    12929    12648    12287 
   11981    11809    11720    11579    11321    11015    10821    10882 
   11208    11628    11900    11933    11875    11888    11976    12074 
   12161    12262    12389    12516    12607    12631    12578    12485 
   12392    12355    12460    12672    12839    12876    12768    12486 
   12084    11719    11494    11411    11468    11623    11747    11800 
   11860    11875    11721    11443    11160    10909    10708    10568 
   10431    10284    10249    10415    10705    10985    11171    11229 
   11179    11057    10904    10799    10775    10766    10717    10635 
   10555    10553    10732    11077    11415    11572    11493    11219 
   10864    10589    10521    10691    11027    11401    11715    11944 
   12102    12230    12395    12613    12793    12855    12852    12868 
   12900    12896    12834    12760    12699    12613    12482    12324 
   12158    12018    11930    11887    11898    11985    12104    12150 
   12058    11881    11775    11821    11928    11974    11952    11977 
   12157    12467    12793    13057    13271    13476    13646    13703 
   13623    13476    13374    13366    13437    13562    13716    13878 
   14041    14202    14325    14381    14387    14362    14339    14373 
   14455    14503    14468    14378    14295    14209    14026    13703 
   13313    12976    12775    12651    12443    12150    11976    12040 
   12299    12681    13129    13580    13963    14246    14452    14570 
   14530    14362    14206    14111    14000    13802    13492    13056 
   12530    12031    11699    11582    11620    11752    11937    12116 
   12236    12293    12326    12342    12274    12103    11946    11887 
   11880    11861    11834    11834    11851    11867    11901    11982 
   12094    12210    12345    12515    12713    12917    13060    13050 
   12866    12580    12303    12088    11871    11554    11189    10958 
   10956    11108    11283    11424    11591    11827    12046    12136 
   12134    12190    12368    12592    12740    12706    12452    12089 
   11844    11848    12032    12231    12325    12324    12322    12389 
   12513    12613    12617    12542    12480    12450    12325    12052 
   11787    11684    11696    11656    11507    11371    11409    11662 
   11981    12163    12176    12142    12142    12144    12114    12080 
   12082    12128    12189    12229    12300    12542    12966    13424 
   13786    14001    14059    13978    13798    13555    13298    13100 
   12998    12896    12657    12298    11948    11720    11711    11925 
   12198    12383    12486    12582    12697    12763    12755    12776 
   12911    13146    13393    13522    13498    13438    13444    13481 
   13482    13453    13421    13367    13257    13107    12974    12911 
   12950    13066    13182    13248    13266    13260    13288    13432 
   13726    14092    14363    14453    14396    14256    14140    14136 
   14188    14221    14243    14244    14179    14007    13715    13357 
   12987    12648    12399    12233    12073    11888    11701    11541 
   11452    11498    11695    11977    12284    12632    13060    13544 
   14016    14417    14711    14908    15065    15187    15221    15178 
   15126    15096    15055    14980    14906    14905    14976    15042 
   15066    15018    14831    14518    14198    13998    13952    13967 
   13977    14024    14142    14282    14340    14246    14054    13836 
   13613    13426    13334    13372    13526    13701    13799    13817 
   13804    13794    13767    13668    13505    13364    13283    13232 
   13211    13218    13178    13003    12688    12333    12032    11808 
   11685    11679    11741    11837    12006    12286    12661    13079 
   13505    13927    14371    14902    15493    15962    16195    16238 
   16142    15913    15571    15183    14864    14708    14706    14769 
   14789    14670    14386    13998    13617    13355    13254    13277 
   13372    13504    13637    13710    13622    13280    12744    12237 
   11966    11985    12226    12558    12770    12743    12587    12488 
   12527    12684    12904    13123    13262    13299    13280    13228 
