Origin Time       2011/03/11 14:46:00
Lat.              38.103
Long.             142.860
Depth. (km)       24
Mag.              9.0
Station Code      HKD049
Station Lat.      44.0921
Station Long.     143.5336
Station Height(m) 59
Record Time       2011/03/11 14:49:22
Sampling Freq(Hz) 100Hz
Duration Time(s)  162
Dir.              U-D
Scale Factor      3920(gal)/6182761
Max. Acc. (gal)   1.919
Last Correction   2011/03/11 14:49:07
Memo.             
[...]
    1333     1136     1277     1622     1875     1781     1318      955 
    1167     1720     1922     1543     1110     1229     1804     2040 
    1449      585      315      779     1574     2261     2381     1845 
    1320     1432     1910     2089     1852     1642     1769     2065 
    2170     1994     1876     2116     2493     2590     2255     1622 
    1168     1412     2054     2162     1500      839      885     1491 
    1973     2015     1923     1964     1993     1888     1900     2317 
    3015     3506     3337     2596     1999     2111     2676     2926 
    2435     1711     1680     2401     2851     2369     1626     1560 
    2092     2465     2187     1430      915     1158     1830     2180 
    1890     1401     1354     1747     1908     1396      669      510 
     996     1545     1759     1659     1435     1431     1876     2403 
    2424     1950     1640     1970     2593     2818     2547     2244 
    2185     2222     2195     2167     2190     2175     2209     2502 
    2824     2733     2361     2232     2439     2421     1824     1195 
    1199     1676     1938     1615     1081      927     1128     1157 
     789      465      772     1614     2252     2131     1507     1241 
    1738     2406     2492     2022     1646     1769     2156     2373 
    2285     2108     2118     2340     2517     2302     1702     1314 
    1595     2174     2356     1949     1414     1336     1756     2152 
    2085     1694     1550     1990     2650     2852     2410     1846 
    1806     2288     2662     2535     2243     2233     2446     2501 
    2154     1567     1158     1160     1452     1713     1738     1600 
    1525     1791     2381     2736     2480     2069     2144     2675 
    2983     2547     1787     1616     2248     2891     2789     2192 
    1909     2242     2776     3016     2941     2924     3207     3531 
    3416     2868     2509     2713     3071     3131     2967     2796 
    2724     2783     2910     3044     3122     3047     2850     2728 
    2751     2765     2756     2873     2914     2498     1829     1544 
    1812     2176     2240     2045     1869     1922     2201     2551 
    2773     2676     2247     1778     1582     1585     1518     1484 
    1800     2380     2743     2630     2349     2274     2275     2143 
    2102     2375     2738     2774     2376     1920     1840     2093 
    2265     2130     1822     1495     1251     1226     1363     1380 
    1161      862      716      938     1518     1959     1817     1410 
    1276     1441     1675     1808     1757     1557     1314     1227 
    1473     1826     1654      726     -206     -242      562     1372 
    1561     1247      964     1066     1469     1759     1625     1257 
    1169     1655     2310     2354     1739     1334     1687     2274 
    2302     1716      996      551      650     1181     1519     1260 
     701      423      675     1111     1185      837      589      833 
    1251     1249      771      322      379     1022     1867     2287 
    2057     1650     1681     2244     2799     2812     2368     1890 
    1585     1347     1034      746      634      635      747     1032 
    1278     1205      784      301      261      815     1391     1359 
     933      902     1471     2048     2194     2029     1841     1760 
    1672     1437     1208     1203     1282     1207     1118     1267 
    1564     1743     1588     1086      655      734     1129     1354 
    1276     1036      777      674      805     1005     1093     1064 
    1039     1207     1563     1753     1567     1343     1459     1790 
    1907     1562     1034      968     1614     2367     2367     1579 
     943     1167     1843     2115     1741     1154      862     1007 
    1406     1795     1953     1853     1831     2199     2678     2680 
    2170     1776     1896     2198     2136     1583     1020     1007 
    1416     1690     1625     1354     1008      722      608      657 
     851     1269     1841     2185     2057     1702     1603     1983 
    2453     2424     1967     1650     1617     1557     1428     1591 
    2095     2414     2207     1819     1799     2262     2735     2681 
    2189     1853     2049     2644     3200     3339     3036     2645 
    2500     2486     2336     2164     2273     2642     2872     2691 
    2306     2106     2182     2296     2244     2129     2181     2389 
    2454     2174     1766     1578     1698     1986     2156     1960 
    1606     1600     1975     2294     2404     2459     2501     2545 
    2689     2871     2878     2738     2703     2800     2877     2835 
    2675     2601     2863     3302     3436     3126     2777     2688 
    2661     2557     2551     2625     2613     2567     2477     2200 
    1890     1905     2326     2889     3181     2931     2323     1855 
    1813     2025     2097     1872     1511     1265     1328     1582 
    1664     1527     1358     1160      939      766      551      310 
     309      649     1122     1433     1386     1253     1709     2619 
    2883     2195     1572     1712     2167     2250     1902     1558 
    1531     1751     1936     1877     1699     1730     2027     2325 
    2346     1999     1583     1596     2051     2380     2153     1544 
    1058      950     1117     1367     1501     1406     1275     1365 
    1583     1568     1244     1046     1218     1325      969      407 
     111      221      518      701      726      823     1063     1199 
    1159     1225     1406     1310     1006     1046     1454     1822 
    2018     1982     1715     1615     2059     2673     2616     1869 
    1316     1398     1803     2066     1970     1860     2131     2447 
    2388     2272     2436     2522     2258     2051     2169     2208 
    1879     1601     1775     2069     1961     1534     1302     1447 
    1597     1439     1193     1158     1272     1504     1905     2126 
    1787     1159      862     1053     1278     1111      683      479 
     735     1142     1232      939      547      287      289      636 
    1121     1312     1187     1120     1219     1306     1330     1433 
    1675     1824     1607     1164      933     1070     1319     1494 
    1622     1630     1438     1228     1195     1274     1363     1482 
    1503     1243      934     1047     1647     2245     2342     1986 
    1642     1635     1883     2074     1984     1636     1238     1051 
    1178     1484     1766     1890     1793     1546     1391     1528 
    1796     1804     1498     1195     1106     1254     1689     2409 
    3054     3066     2463     1959     2124     2710     2907     2456 
    2026     2032     2066     1757     1303     1212     1678     2223 
    2299     1931     1527     1389     1502     1669     1707     1581 
    1456     1466     1578     1740     1856     1850     1876     2043 
    2173     2097     1856     1653     1726     2051     2316     2318 
    2229     2387     2879     3387     3505     3254     3117     3247 
    3164     2630     2117     2146     2696     3277     3346     2835 
    2355     2533     3123     3259     2609     1822     1739     2417 
    3042     2911     2332     2108     2399     2681     2607     2358 
    2256     2406     2604     2583     2398     2314     2435     2651 
    2813     2890     2868     2681     2427     2296     2227     2028 
    1657     1264     1087     1171     1238     1093      899      892 
    1073     1277     1342     1273     1256     1444     1710     1725 
    1485     1402     1680     2091     2269     2047     1667     1499 
    1608     1825     2038     2140     1959     1502     1089     1079 
    1509     2011     2105     1732     1391     1556     2111     2535 
    2516     2213     1947     1873     1927     1932     1785     1559 
    1509     1831     2228     2183     1708     1275     1208     1466 
    1708     1587     1114      589      279      289      486      585 
     489      435      571      690      666      644      698      771 
     834      842      728      539      406      408      553      778 
     900      778      552      484      582      652      546      298 
     135      278      635      846      725      526      546      680 
     624      416      446      813     1119      988      506      179 
     318      586      534      211      -12      113      475      672 
     418      -40     -179       69      283      161     -144     -265 
    -104       72       89      140      371      559      499      298 
      97       44      324      772     1032     1081     1081     1094 
    1152     1246     1261     1193     1191     1237     1275     1450 
    1699     1761     1714     1767     1829     1724     1452     1203 
    1221     1515     1798     1850     1817     1956     2185     2204 
    1960     1707     1689     1845     1878     1677     1444     1329 
    1224     1051     1000     1267     1679     1839     1641     1441 
    1604     1995     2169     1924     1465     1190     1327     1651 
    1779     1727     1766     1907     1998     2013     1931     1701 
    1472     1503     1732     1809     1603     1413     1589     2010 
    2153     1799     1370     1359     1727     2084     2196     2050 
    1769     1613     1685     1716     1572     1532     1783     2129 
    2215     1974     1749     1783     1926     1961     1882     1824 
    1807     1756     1765     1946     2171     2243     2104     1873 
    1754     1821     2019     2305     2514     2420     2106     1913 
    1928     1894     1713     1614     1687     1750     1695     1554 
    1390     1357     1570     1916     2164     2168     1982     1913 
    2180     2560     2687     2563     2428     2379     2350     2264 
    2101     2024     2243     2659     2935     2859     2489     2139 
    2181     2605     2914     2690     2161     1927     2215     2636 
    2704     2424     2194     2227     2407     2644     2880     2917 
    2673     2393     2358     2471     2369     1982     1696     1851 
    2293     2562     2468     2303     2354     2531     2597     2378 
    1865     1412     1511     2095     2412     1978     1252      913 
     980     1047      945      914     1204     1605     1678     1435 
    1345     1634     1963     1930     1606     1339     1291     1392 
    1561     1748     1833     1636     1196      930     1164     1592 
    1629     1205      781      696      884     1102     1144      992 
     882      960     1028      828      460      379      840     1394 
    1357      777      414      687     1156     1205      828      586 
     857     1353     1565     1375     1055      919     1015     1158 
    1216     1288     1558     1944     2093     1846     1482     1348 
    1407     1404     1301     1250     1308     1336     1264     1255 
    1398     1516     1402     1105      875      800      805      921 
    1206     1560     1803     1867     1788     1586     1355     1246 
    1205     1002      663      584     1000     1590     1823     1626 
    1489     1720     1951     1786     1505     1642     2149     2479 
    2413     2265     2299     2489     2686     2650     2246     1712 
    1500     1817     2348     2593     2513     2548     2875     3118 
    2979     2566     2076     1714     1806     2357     2760     2575 
    2099     1893     2179     2612     2677     2305     1905     1852 
    2081     2320     2506     2626     2544     2230     1914     1938 
    2352     2691     2461     1824     1473     1699     2072     2114 
    1875     1772     1922     1986     1781     1568     1606     1774 
    1902     1971     1909     1720     1545     1423     1271     1045 
     864      878     1009     1055      957      856      924     1041 
     981      802      591      234     -201     -351      -59      324 
     355       35     -294     -387     -353     -368     -272       -9 
      67     -163     -417     -615     -765     -636     -303      -70 
     126      316      403      516      693      789      831      966 
    1066      912      709      739      912     1075     1136     1031 
     868      889     1166     1453     1534     1508     1447     1366 
    1408     1460     1276     1143     1425     1722     1482      920 
     653      858     1118     1082      937      972     1132     1165 
    1024      866      686      501      632     1136     1466     1226 
     796      817     1378     1977     2124     1904     1801     1969 
    2122     2085     1925     1779     1787     1916     2020     2017 
    1889     1803     1928     2070     2034     1962     2085     2357 
    2463     2367     2474     2895     3241     3200     2868     2638 
    2763     2945     2716     2153     1918     2517     3536     3860 
    3063     2199     2380     3265     3751     3406     2816     2713 
    2992     3095     2875     2485     2165     2309     3012     3651 
    3499     2734     2375     2941     3759     3957     3409     2711 
    2543     2841     2946     2684     2576     2981     3654     4005 
    3715     3117     2726     2781     3203     3514     3336     2924 
    2767     2984     3161     2963     2710     2764     2932     2848 
    2497     2257     2459     2959     3283     3207     3041     3129 
    3354     3457     3402     3236     3083     3196     3592     3905 
    3863     3591     3379     3359     3438     3492     3579     3773 
    3975     4108     4183     4169     4049     4015     4330     4735 
    4632     4029     3605     3821     4287     4327     4011     3829 
    3814     3852     4053     4249     4163     3909     3720     3755 
    4002     4272     4421     4336     4123     4047     4053     3911 
    3675     3602     3701     3696     3435     2996     2635     2697 
    3107     3320     3124     2757     2421     2330     2551     2729 
    2601     2333     2102     1903     1782     1800     1816     1631 
    1298     1135     1164      984      605      526      747      877 
     914      894      625      330      493      931      998      712 
     636      748      656      372       96      -12      161      513 
     764      674      304       72      209      337       40     -354 
    -215      301      437      102      -54      178      342      216 
      69      110      243      244      -39     -424     -515     -277 
     -22       84       50      -58     -196     -461     -707     -610 
    -461     -781    -1186    -1018     -651     -760    -1014     -839 
    -450     -277     -442     -839    -1011     -588       14      194 
      34      -52       21       81       73      108      204      234 
     207      235      222      159      384      857      972      592 
     261      230      253      345      691     1012      985      774 
     567      253     -158     -281      150      803     1081      803 
     427      568     1262     1829     1638      916      532      919 
    1623     1957     1717     1331     1432     1951     2068     1526 
    1083     1307     1813     1941     1583     1229     1309     1683 
    1971     2025     1854     1557     1311     1186     1201     1388 
    1633     1740     1675     1611     1735     1996     2184     2269 
    2292     2269     2304     2324     2149     1942     1939     2059 
    2152     2210     2313     2483     2506     2263     2175     2604 
    3122     3089     2586     2355     2804     3315     3250     3043 
    3195     3376     3307     3208     3267     3446     3568     3519 
    3406     3421     3598     3793     3902     3881     3686     3541 
    3800     4281     4393     4037     3689     3636     3701     3534 
    3078     2743     2847     3149     3260     3095     2742     2345 
    2143     2253     2512     2642     2494     2145     1753     1487 
    1473     1563     1573     1595     1733     1896     1891     1677 
    1526     1674     2002     2214     2138     1889     1716     1751 
    1970     2172     2119     1834     1629     1787     2189     2404 
    2178     1667     1343     1557     1985     2002     1582     1242 
    1292     1615     1902     1907     1677     1570     1776     2007 
    1928     1593     1293     1246     1436     1623     1580     1397 
    1413     1754     2214     2469     2363     2105     2046     2251 
    2463     2452     2270     2128     2095     2017     1804     1595 
    1510     1532     1686     2016     2395     2612     2638     2601 
    2556     2531     2626     2781     2754     2587     2637     2957 
    3154     2925     2482     2298     2349     2164     1723     1500 
    1626     1777     1788     1819     1950     2076     2128     2142 
    2186     2234     2208     2166     2186     2192     2132     2084 
    2064     1908     1534     1212     1237     1469     1575     1531 
    1596     1804     1862     1625     1267     1046     1065     1180 
    1232     1251     1282     1322     1379     1394     1302     1185 
    1122     1018      775      481      372      538      695      535 
     240      231      490      589      343      -15     -155       80 
     538      789      553       80     -143       56      437      628 
     548      477      548      569      517      601      716      549 
     217      130      328      517      618      829     1215     1504 
    1370      899      620      865     1285     1327      983      653 
     573      646      650      553      494      516      618      825 
    1037     1118     1122     1246     1531     1756     1720     1497 
    1274     1148     1155     1324     1618     1831     1785     1639 
    1689     1986     2316     2462     2399     2242     2173     2298 
    2433     2354     2163     2130     2324     2619     2862     2969 
    2957     2861     2716     2609     2523     2343     2143     2125 
    2280     2452     2589     2741     2942     3105     3064     2780 
    2426     2246     2350     2622     2829     2853     2794     2857 
    3059     3165     3020     2726     2490     2506     2857     3340 
    3563     3372     3076     3038     3143     3098     2940     2834 
    2758     2617     2503     2643     2933     2932     2535     2167 
    2179     2400     2507     2517     2590     2721     2834     2897 
    2919     2951     3046     3167     3148     2884     2576     2522 
    2690     2757     2482     1974     1616     1702     2119     2447 
    2468     2329     2203     2127     2082     1980     1760     1555 
    1512     1526     1433     1317     1357     1558     1856     2139 
    2182     1908     1574     1514     1781     2074     2033     1691 
    1501     1699     1835     1470      942      821     1101     1348 
    1265      917      572      441      538      715      726      458 
     167      220      600      882      816      686      849     1217 
    1463     1449     1274     1088     1000     1089     1320     1439 
    1257     1023     1157     1602     1846     1622     1207     1010 
    1135     1397     1638     1829     1950     1997     1956     1745 
    1356      976      872     1127     1503     1596     1236      762 
     611      752      913     1059     1306     1655     2000     2266 
    2426     2407     2192     2023     2123     2318     2215     1678 
