Origin Time       2011/03/11 14:46:00
Lat.              38.103
Long.             142.860
Depth. (km)       24
Mag.              9.0
Station Code      HKD039
Station Lat.      43.3421
Station Long.     142.3845
Station Height(m) 170
Record Time       2011/03/11 14:48:50
Sampling Freq(Hz) 100Hz
Duration Time(s)  277
Dir.              U-D
Scale Factor      3920(gal)/6182761
Max. Acc. (gal)   5.588
Last Correction   2011/03/11 14:48:35
Memo.             
[...]
  -10439   -10578   -10676   -10682   -10595   -10477   -10365   -10268 
  -10193   -10114   -10001    -9869    -9746    -9655    -9611    -9600 
   -9584    -9542    -9478    -9405    -9332    -9232    -9095    -8948 
   -8758    -8503    -8237    -7983    -7737    -7527    -7335    -7110 
   -6849    -6568    -6277    -6027    -5849    -5714    -5617    -5575 
   -5571    -5598    -5671    -5763    -5830    -5881    -5938    -5996 
   -6067    -6170    -6294    -6416    -6546    -6709    -6902    -7114 
   -7343    -7580    -7795    -7970    -8121    -8257    -8385    -8520 
   -8660    -8786    -8879    -8898    -8839    -8745    -8634    -8503 
   -8372    -8269    -8192    -8115    -8015    -7895    -7761    -7605 
   -7437    -7280    -7141    -6998    -6850    -6727    -6645    -6598 
   -6593    -6627    -6698    -6813    -6970    -7144    -7322    -7493 
   -7637    -7755    -7858    -7951    -8051    -8162    -8277    -8419 
   -8605    -8837    -9105    -9366    -9613    -9898   -10237   -10588 
  -10920   -11235   -11558   -11922   -12308   -12644   -12899   -13127 
  -13366   -13603   -13834   -14060   -14265   -14437   -14563   -14639 
  -14695   -14772   -14895   -15069   -15276   -15480   -15657   -15816 
  -15977   -16152   -16338   -16515   -16682   -16848   -16985   -17042 
  -17012   -16941   -16879   -16840   -16816   -16809   -16826   -16850 
  -16854   -16852   -16872   -16923   -17000   -17074   -17111   -17128 
  -17161   -17209   -17235   -17227   -17225   -17266   -17335   -17397 
  -17439   -17478   -17528   -17553   -17499   -17368   -17186   -16975 
  -16740   -16484   -16225   -15989   -15794   -15608   -15387   -15135 
  -14871   -14597   -14314   -14054   -13860   -13730   -13610   -13473 
  -13355   -13282   -13205   -13084   -12944   -12824   -12729   -12652 
  -12606   -12596   -12600   -12596   -12593   -12602   -12622   -12676 
  -12796   -12972   -13156   -13332   -13518   -13701   -13834   -13929 
  -14060   -14227   -14388   -14544   -14699   -14851   -14999   -15140 
  -15274   -15391   -15493   -15589   -15679   -15756   -15789   -15761 
  -15720   -15691   -15623   -15498   -15342   -15169   -14990   -14825 
  -14671   -14499   -14315   -14144   -13963   -13735   -13491   -13288 
  -13129   -12987   -12867   -12782   -12712   -12639   -12564   -12497 
  -12435   -12345   -12221   -12068   -11860   -11593   -11314   -11062 
  -10864   -10728   -10624   -10521   -10404   -10272   -10132   -10007 
   -9922    -9856    -9781    -9702    -9615    -9509    -9430    -9438 
   -9519    -9604    -9633    -9599    -9540    -9497    -9483    -9477 
   -9472    -9481    -9489    -9464    -9412    -9351    -9284    -9247 
   -9289    -9401    -9535    -9642    -9707    -9767    -9862    -9983 
  -10091   -10151   -10148   -10099   -10048   -10007    -9948    -9860 
   -9769    -9689    -9598    -9483    -9364    -9246    -9120    -8997 
   -8885    -8763    -8640    -8546    -8480    -8434    -8401    -8363 
   -8314    -8273    -8261    -8240    -8141    -7973    -7803    -7631 
   -7424    -7166    -6865    -6558    -6291    -6082    -5937    -5859 
   -5841    -5850    -5858    -5881    -5938    -6043    -6187    -6339 
   -6518    -6771    -7081    -7401    -7699    -7977    -8251    -8530 
   -8823    -9133    -9464    -9841   -10256   -10674   -11088   -11525 
  -11997   -12475   -12929   -13360   -13780   -14187   -14567   -14880 
  -15104   -15272   -15426   -15567   -15700   -15825   -15923   -15988 
  -16032   -16054   -16032   -15933   -15737   -15480   -15204   -14901 
  -14562   -14198   -13816   -13439   -13108   -12828   -12572   -12332 
  -12105   -11888   -11693   -11502   -11282   -11040   -10800   -10554 
  -10296   -10062    -9877    -9696    -9476    -9233    -8976    -8708 
   -8455    -8233    -8035    -7859    -7706    -7585    -7513    -7487 
   -7473    -7458    -7473    -7517    -7556    -7596    -7664    -7728 
   -7737    -7721    -7746    -7832    -7953    -8074    -8185    -8304 
   -8440    -8595    -8771    -8947    -9105    -9270    -9467    -9682 
   -9913   -10144   -10346   -10522   -10676   -10793   -10883   -10991 
  -11131   -11285   -11442   -11601   -11745   -11866   -11984   -12112 
  -12250   -12391   -12512   -12614   -12739   -12871   -12950   -12991 
  -13031   -13029   -12954   -12816   -12619   -12387   -12166   -11956 
  -11718   -11452   -11212   -11004   -10786   -10568   -10392   -10225 
  -10017    -9766    -9515    -9288    -9069    -8840    -8604    -8379 
   -8175    -7963    -7725    -7467    -7199    -6944    -6749    -6605 
   -6466    -6334    -6248    -6193    -6145    -6125    -6148    -6204 
   -6276    -6340    -6387    -6419    -6443    -6478    -6527    -6585 
   -6665    -6767    -6878    -6996    -7111    -7199    -7272    -7365 
   -7482    -7627    -7818    -8034    -8235    -8419    -8586    -8708 
   -8772    -8815    -8879    -8929    -8909    -8810    -8670    -8518 
   -8337    -8124    -7917    -7751    -7624    -7506    -7371    -7233 
   -7099    -6974    -6869    -6774    -6667    -6549    -6449    -6386 
   -6354    -6361    -6417    -6494    -6557    -6595    -6602    -6580 
   -6565    -6595    -6674    -6804    -6986    -7194    -7409    -7650 
   -7906    -8130    -8316    -8507    -8738    -9020    -9348    -9697 
  -10045   -10403   -10795   -11192   -11565   -11926   -12277   -12621 
  -12979   -13364   -13752   -14091   -14361   -14575   -14712   -14755 
  -14747   -14740   -14728   -14694   -14649   -14591   -14502   -14387 
  -14274   -14189   -14139   -14098   -14052   -14018   -13998   -13982 
  -13983   -14011   -14036   -14033   -14032   -14030   -13997   -13962 
  -13978   -14027   -14039   -13985   -13912   -13865   -13841   -13846 
  -13889   -13956   -14034   -14135   -14267   -14424   -14596   -14766 
  -14920   -15065   -15233   -15427   -15615   -15779   -15934   -16106 
  -16315   -16559   -16797   -17002   -17188   -17385   -17597   -17805 
  -17985   -18136   -18292   -18461   -18606   -18701   -18756   -18777 
  -18752   -18694   -18646   -18628   -18618   -18595   -18561   -18545 
  -18577   -18637   -18701   -18756   -18773   -18720   -18626   -18517 
  -18355   -18111   -17829   -17560   -17292   -17000   -16681   -16341 
  -15988   -15629   -15266   -14921   -14630   -14397   -14201   -14026 
  -13878   -13762   -13662   -13559   -13436   -13278   -13093   -12903 
  -12722   -12535   -12327   -12088   -11813   -11509   -11199   -10894 
  -10596   -10309   -10022    -9718    -9409    -9125    -8859    -8589 
   -8319    -8068    -7839    -7650    -7529    -7473    -7471    -7524 
   -7617    -7716    -7793    -7837    -7868    -7923    -8038    -8222 
   -8436    -8639    -8829    -9005    -9152    -9295    -9473    -9678 
   -9889   -10101   -10303   -10480   -10649   -10837   -11023   -11161 
  -11230   -11269   -11292   -11210   -11025   -10877   -10782   -10664 
  -10530   -10399   -10257   -10111    -9971    -9819    -9677    -9580 
   -9506    -9437    -9385    -9351    -9342    -9359    -9375    -9369 
   -9359    -9367    -9396    -9451    -9537    -9626    -9669    -9674 
   -9669    -9652    -9627    -9606    -9570    -9509    -9459    -9431 
   -9393    -9337    -9276    -9210    -9135    -9034    -8890    -8703 
   -8499    -8313    -8184    -8132    -8135    -8140    -8134    -8120 
   -8075    -7986    -7885    -7801    -7730    -7651    -7572    -7516 
   -7481    -7450    -7420    -7398    -7394    -7411    -7448    -7512 
   -7613    -7728    -7837    -7972    -8154    -8359    -8568    -8793 
   -9045    -9302    -9526    -9702    -9844    -9968   -10107   -10287 
  -10501   -10723   -10942   -11163   -11395   -11641   -11892   -12144 
  -12403   -12662   -12869   -12991   -13059   -13104   -13123   -13150 
  -13220   -13297   -13332   -13324   -13304   -13304   -13339   -13390 
  -13446   -13539   -13699   -13909   -14144   -14387   -14600   -14740 
  -14822   -14881   -14917   -14938   -14964   -15003   -15047   -15087 
  -15121   -15130   -15099   -15046   -14977   -14895   -14821   -14752 
  -14636   -14461   -14280   -14109   -13922   -13738   -13583   -13425 
  -13253   -13089   -12938   -12825   -12762   -12728   -12712   -12721 
  -12759   -12811   -12851   -12876   -12898   -12899   -12882   -12888 
  -12919   -12939   -12923   -12864   -12786   -12722   -12661   -12578 
  -12492   -12434   -12388   -12331   -12254   -12146   -12027   -11949 
  -11922   -11903   -11851   -11752   -11621   -11501   -11419   -11369 
  -11341   -11308   -11236   -11142   -11047   -10933   -10794   -10647 
  -10506   -10383   -10287   -10199   -10090    -9963    -9844    -9752 
   -9686    -9637    -9611    -9627    -9687    -9780    -9913   -10107 
  -10336   -10551   -10738   -10892   -10990   -11018   -11002   -10974 
  -10941   -10909   -10888   -10876   -10860   -10831   -10791   -10741 
  -10693   -10681   -10711   -10736   -10727   -10709   -10712   -10734 
  -10767   -10827   -10917   -11012   -11092   -11153   -11198   -11235 
  -11263   -11289   -11325   -11352   -11337   -11291   -11255   -11270 
  -11346   -11457   -11600   -11786   -11990   -12175   -12333   -12496 
  -12699   -12933   -13174   -13406   -13603   -13744   -13831   -13903 
  -14010   -14134   -14226   -14280   -14305   -14316   -14338   -14374 
  -14398   -14394   -14357   -14300   -14247   -14208   -14163   -14098 
  -14044   -14025   -14036   -14075   -14135   -14196   -14263   -14342 
  -14406   -14459   -14527   -14602   -14666   -14726   -14774   -14764 
  -14679   -14556   -14416   -14235   -14004   -13766   -13561   -13369 
  -13167   -12965   -12764   -12549   -12317   -12083   -11870   -11687 
  -11509   -11326   -11189   -11133   -11104   -11035   -10935   -10841 
  -10756   -10673   -10619   -10595   -10573   -10558   -10586   -10647 
  -10698   -10739   -10803   -10891   -10979   -11070   -11183   -11313 
  -11451   -11595   -11752   -11916   -12054   -12136   -12183   -12235 
  -12270   -12245   -12157   -12030   -11881   -11714   -11523   -11319 
  -11120   -10915   -10673   -10420   -10226   -10112   -10017    -9889 
   -9727    -9523    -9271    -8994    -8712    -8422    -8122    -7838 
   -7592    -7369    -7142    -6920    -6721    -6554    -6414    -6291 
   -6177    -6064    -5961    -5888    -5843    -5797    -5710    -5570 
   -5419    -5289    -5167    -5044    -4941    -4881    -4853    -4822 
   -4790    -4811    -4929    -5110    -5297    -5498    -5730    -5942 
   -6101    -6239    -6382    -6522    -6649    -6775    -6908    -7039 
   -7171    -7319    -7467    -7586    -7682    -7792    -7919    -8010 
   -8041    -8056    -8104    -8182    -8260    -8321    -8340    -8300 
   -8220    -8137    -8067    -8016    -7974    -7928    -7887    -7864 
   -7851    -7829    -7791    -7759    -7761    -7788    -7820    -7872 
   -7954    -8031    -8059    -8047    -8025    -7987    -7946    -7935 
   -7956    -8006    -8083    -8172    -8245    -8303    -8390    -8546 
   -8764    -9003    -9229    -9432    -9636    -9865   -10111   -10350 
  -10569   -10778   -10997   -11230   -11458   -11680   -11924   -12194 
  -12466   -12757   -13085   -13391   -13649   -13894   -14095   -14210 
  -14287   -14373   -14437   -14435   -14363   -14258   -14169   -14085 
  -13980   -13887   -13819   -13722   -13589   -13462   -13328   -13150 
  -12957   -12803   -12712   -12684   -12688   -12667   -12612   -12570 
  -12538   -12459   -12345   -12249   -12153   -12020   -11874   -11768 
  -11703   -11644   -11578   -11510   -11424   -11325   -11253   -11235 
  -11257   -11278   -11282   -11287   -11299   -11312   -11350   -11442 
  -11595   -11786   -11962   -12077   -12132   -12157   -12162   -12163 
  -12188   -12224   -12218   -12167   -12112   -12073   -12029   -11966 
  -11901   -11843   -11802   -11823   -11920   -12062   -12245   -12479 
  -12748   -13030   -13295   -13528   -13747   -13964   -14165   -14348 
  -14542   -14771   -15021   -15265   -15501   -15732   -15953   -16161 
  -16340   -16471   -16586   -16719   -16853   -16967   -17070   -17172 
  -17271   -17379   -17510   -17658   -17796   -17902   -17982   -18045 
  -18083   -18111   -18145   -18152   -18108   -18033   -17947   -17854 
  -17766   -17680   -17582   -17466   -17339   -17182   -16973   -16730 
  -16480   -16230   -15971   -15719   -15514   -15341   -15156   -14964 
  -14798   -14658   -14544   -14464   -14420   -14412   -14420   -14434 
  -14464   -14501   -14520   -14535   -14582   -14652   -14695   -14693 
  -14684   -14700   -14729   -14738   -14718   -14688   -14654   -14583 
  -14463   -14344   -14265   -14212   -14185   -14205   -14272   -14351 
  -14407   -14436   -14448   -14454   -14470   -14494   -14497   -14479 
  -14458   -14441   -14431   -14426   -14417   -14430   -14500   -14622 
  -14772   -14944   -15147   -15371   -15599   -15825   -16048   -16278 
  -16526   -16772   -16982   -17139   -17229   -17256   -17265   -17303 
  -17343   -17323   -17264   -17232   -17227   -17199   -17135   -17060 
  -16988   -16919   -16850   -16782   -16718   -16656   -16575   -16467 
  -16354   -16247   -16114   -15939   -15746   -15574   -15430   -15292 
  -15153   -15008   -14826   -14582   -14281   -13947   -13605   -13263 
  -12922   -12586   -12241   -11867   -11448   -10999   -10552   -10096 
   -9599    -9063    -8530    -8015    -7496    -6956    -6405    -5877 
   -5397    -4964    -4571    -4231    -3944    -3697    -3496    -3354 
   -3245    -3136    -3027    -2939    -2866    -2803    -2767    -2732 
   -2648    -2516    -2385    -2296    -2266    -2283    -2319    -2377 
   -2479    -2612    -2743    -2888    -3055    -3206    -3331    -3450 
   -3560    -3673    -3823    -3986    -4138    -4327    -4589    -4897 
   -5207    -5484    -5722    -5967    -6250    -6553    -6876    -7238 
   -7625    -8002    -8349    -8667    -8958    -9213    -9433    -9632 
   -9811    -9972   -10114   -10227   -10307   -10353   -10338   -10250 
  -10117    -9957    -9756    -9520    -9279    -9052    -8826    -8578 
   -8294    -7997    -7726    -7498    -7328    -7236    -7194    -7162 
   -7147    -7149    -7134    -7072    -6971    -6856    -6735    -6629 
   -6550    -6494    -6474    -6480    -6465    -6418    -6366    -6322 
   -6276    -6206    -6114    -6035    -5991    -5975    -5968    -5959 
   -5937    -5904    -5894    -5933    -6001    -6084    -6207    -6379 
   -6555    -6690    -6774    -6826    -6867    -6920    -6999    -7093 
   -7181    -7273    -7372    -7465    -7579    -7739    -7945    -8184 
   -8418    -8625    -8836    -9045    -9202    -9296    -9363    -9427 
   -9487    -9552    -9653    -9799    -9956   -10100   -10232   -10362 
  -10493   -10607   -10683   -10722   -10731   -10732   -10759   -10824 
  -10915   -11015   -11118   -11227   -11332   -11416   -11494   -11609 
  -11764   -11904   -12011   -12131   -12294   -12477   -12653   -12825 
  -12996   -13155   -13278   -13351   -13391   -13418   -13418   -13395 
  -13378   -13366   -13325   -13229   -13074   -12863   -12605   -12339 
  -12120   -11984   -11910   -11844   -11750   -11638   -11534   -11446 
  -11361   -11278   -11193   -11081   -10931   -10762   -10607   -10485 
  -10405   -10356   -10320   -10286   -10240   -10170   -10112   -10118 
  -10181   -10248   -10310   -10378   -10422   -10412   -10389   -10411 
  -10481   -10557   -10614   -10648   -10655   -10635   -10615   -10623 
  -10660   -10692   -10699   -10721   -10795   -10897   -10993   -11085 
  -11177   -11246   -11285   -11322   -11369   -11404   -11408   -11391 
  -11383   -11400   -11441   -11518   -11657   -11870   -12128   -12386 
  -12622   -12820   -12961   -13060   -13149   -13218   -13240   -13220 
  -13173   -13096   -12971   -12799   -12594   -12359   -12113   -11886 
  -11677   -11465   -11240   -10998   -10735   -10442   -10129    -9835 
   -9590    -9394    -9250    -9157    -9110    -9087    -9076    -9102 
   -9191    -9328    -9500    -9709    -9908   -10046   -10167   -10343 
  -10545   -10706   -10817   -10904   -10979   -11025   -11024   -11001 
  -10983   -10971   -10951   -10929   -10932   -10969   -11015   -11078 
  -11182   -11308   -11407   -11472   -11530   -11573   -11582   -11599 
  -11662   -11753   -11841   -11916   -11988   -12073   -12150   -12184 
  -12177   -12134   -12044   -11934   -11840   -11759   -11673   -11569 
  -11449   -11338   -11258   -11200   -11132   -11037   -10936   -10846 
  -10767   -10702   -10649   -10589   -10505   -10418   -10370   -10379 
  -10418   -10454   -10488   -10551   -10654   -10787   -10947   -11137 
  -11353   -11579   -11788   -11970   -12155   -12350   -12530   -12693 
  -12847   -12983   -13103   -13229   -13369   -13510   -13647   -13777 
  -13887   -13974   -14060   -14170   -14313   -14475   -14629   -14756 
  -14850   -14898   -14889   -14845   -14790   -14719   -14629   -14543 
  -14463   -14377   -14281   -14179   -14067   -13924   -13735   -13515 
  -13282   -13053   -12858   -12690   -12533   -12402   -12297   -12184 
  -12054   -11916   -11750   -11546   -11337   -11143   -10968   -10819 
  -10680   -10534   -10389   -10240   -10082    -9927    -9800    -9709 
   -9633    -9560    -9526    -9546    -9586    -9613    -9628    -9628 
   -9623    -9641    -9703    -9786    -9872    -9956   -10030   -10092 
  -10141   -10163   -10170   -10191   -10226   -10236   -10207   -10178 
  -10174   -10184   -10209   -10259   -10308   -10314   -10296   -10307 
  -10350   -10375   -10353   -10307   -10281   -10306   -10369   -10442 
  -10531   -10642   -10741   -10813   -10876   -10921   -10944   -11001 
  -11131   -11313   -11507   -11688   -11866   -12058   -12245   -12410 
  -12583   -12789   -13006   -13202   -13375   -13544   -13720   -13898 
  -14066   -14204   -14296   -14352   -14396   -14420   -14382   -14276 
  -14144   -14020   -13901   -13761   -13590   -13410   -13236   -13061 
  -12897   -12767   -12655   -12524   -12375   -12241   -12137   -12043 
  -11947   -11860   -11776   -11684   -11599   -11546   -11530   -11542 
  -11560   -11565   -11567   -11565   -11536   -11488   -11455   -11443 
  -11445   -11466   -11496   -11502   -11471   -11420   -11366   -11310 
  -11254   -11215   -11213   -11249   -11292   -11295   -11251   -11186 
  -11099   -10988   -10885   -10810   -10768   -10754   -10757   -10739 
  -10669   -10561   -10464   -10403   -10366   -10332   -10303   -10275 
  -10229   -10162   -10074    -9970    -9872    -9790    -9716    -9672 
   -9682    -9716    -9727    -9716    -9707    -9691    -9649    -9601 
   -9560    -9501    -9400    -9270    -9124    -8953    -8754    -8540 
   -8326    -8111    -7892    -7684    -7530    -7456    -7428    -7385 
   -7316    -7260    -7239    -7239    -7249    -7278    -7327    -7382 
   -7419    -7427    -7436    -7467    -7501    -7528    -7563    -7602 
   -7640    -7683    -7724    -7739    -7736    -7746    -7765    -7757 
   -7710    -7645    -7601    -7600    -7636    -7697    -7762    -7810 
   -7824    -7806    -7773    -7736    -7684    -7617    -7554    -7509 
   -7469    -7421    -7374    -7331    -7283    -7232    -7193    -7165 
   -7145    -7122    -7083    -7029    -6974    -6910    -6824    -6726 
   -6637    -6546    -6425    -6294    -6199    -6150    -6132    -6145 
   -6193    -6250    -6293    -6330    -6398    -6527    -6712    -6924 
   -7167    -7446    -7725    -7988    -8256    -8529    -8803    -9090 
