Origin Time       2011/03/11 14:46:00
Lat.              38.103
Long.             142.860
Depth. (km)       24
Mag.              9.0
Station Code      HKD072
Station Lat.      43.1948
Station Long.     145.5209
Station Height(m) 46
Record Time       2011/03/11 14:48:06
Sampling Freq(Hz) 100Hz
Duration Time(s)  300
Dir.              E-W
Scale Factor      3920(gal)/6182761
Max. Acc. (gal)   23.314
Last Correction   2011/03/11 14:47:51
Memo.             
[...]
  -29645   -30925   -31265   -30592   -28924   -26423   -23336   -19978 
  -16747   -14003   -11913   -10517    -9887   -10079   -11013   -12547 
  -14613   -17061   -19541   -21774   -23689   -25237   -26317   -26804 
  -26573   -25584   -23936   -21826   -19537   -17385   -15652   -14472 
  -13751   -13295   -13035   -13131   -13802   -15096   -16919   -19137 
  -21456   -23474   -24979   -25981   -26514   -26556   -26032   -24868 
  -23089   -20889   -18541   -16208   -13968   -12045   -10746   -10184 
  -10332   -11221   -12859   -15181   -18088   -21343   -24542   -27294 
  -29328   -30526   -30850   -30231   -28694   -26409   -23502   -20129 
  -16680   -13548   -10975    -9241    -8618    -9173   -10742   -13041 
  -15799   -18846   -22029   -25037   -27424   -28880   -29452   -29530 
  -29417   -29001   -27983   -26134   -23380   -19879   -16048   -12392 
   -9332    -7204    -6218    -6433    -7818   -10202   -13278   -16686 
  -20010   -22945   -25373   -27143   -28118   -28263   -27564   -26077 
  -23974   -21487   -18931   -16670   -14974   -13933   -13522   -13702 
  -14436   -15666   -17242   -18911   -20477   -21851   -22925   -23583 
  -23767   -23464   -22725   -21741   -20788   -20066   -19603   -19214 
  -18546   -17339   -15657   -13898   -12585   -12100   -12611   -14071 
  -16195   -18585   -20870   -22826   -24427   -25639   -26316   -26386 
  -25903   -24950   -23617   -21947   -19970   -17777   -15528   -13361 
  -11374    -9738    -8677    -8372    -8923   -10309   -12453   -15312 
  -18799   -22649   -26467   -29868   -32465   -33923   -34142   -33236 
  -31398   -28740   -25270   -21133   -16712   -12388    -8421    -4991 
   -2225     -439     -170    -1708    -4950    -9654   -15436   -21665 
  -27642   -32827   -36854   -39429   -40266   -39211   -36431   -32278 
  -27110   -21405   -15730   -10475    -5893    -2308      -42      767 
     187    -1653    -4704    -8877   -13785   -18775   -23266   -26957 
  -29765   -31749   -33034   -33661   -33558   -32650   -30863   -28081 
  -24419   -20350   -16367   -12758    -9661    -7154    -5476    -5010 
   -5876    -7874   -10858   -14691   -18975   -23301   -27383   -30846 
  -33340   -34662   -34567   -32913   -29885   -25950   -21694   -17522 
  -13561    -9990    -7171    -5374    -4659    -5046    -6527    -8941 
  -12108   -15957   -20344   -24856   -28857   -31782   -33314   -33301 
  -31759   -28964   -25305   -21094   -16695   -12609    -9328    -7222 
   -6396    -6763    -8294   -10895   -14311   -18225   -22158   -25456 
  -27662   -28847   -29366   -29423   -29062   -28299   -27074   -25237 
  -22728   -19753   -16660   -13738   -11242    -9366    -8167    -7736 
   -8263    -9792   -12196   -15338   -19073   -23084   -26852   -29977 
  -32282   -33468   -33144   -31159   -27652   -23022   -17934   -13068 
   -8875    -5593    -3331    -2194    -2354    -3924    -6824   -10871 
  -15814   -21211   -26477   -31083   -34646   -36870   -37525   -36605 
  -34299   -30798   -26367   -21433   -16410   -11633    -7487    -4418 
   -2804    -2833    -4428    -7248   -10819   -14683   -18548   -22295 
  -25730   -28450   -30101   -30499   -29489   -27062   -23643   -19954 
  -16641   -14065   -12252   -11036   -10299   -10158   -10948   -12834 
  -15509   -18542   -21584   -24196   -26062   -27177   -27608   -27448 
  -26756   -25429   -23359   -20670   -17740   -14990   -12596   -10612 
   -9206    -8559    -8700    -9543   -11029   -13134   -15716   -18589 
  -21627   -24699   -27601   -29979   -31488   -32030   -31533   -29904 
  -27292   -23921   -19881   -15395   -10941    -6960    -3730    -1483 
    -415     -617    -2061    -4595    -7932   -11835   -16276   -21149 
  -26075   -30673   -34604   -37429   -38758   -38499   -36804   -33861 
  -29928   -25377   -20486   -15492   -10731    -6502    -3003     -498 
     626       80    -2203    -6217   -11754   -18257   -24939   -30930 
  -35517   -38314   -39129   -37862   -34585   -29645   -23680   -17406 
  -11354    -5940    -1736      624      786    -1193    -4970   -10121 
  -16183   -22593   -28770   -34059   -37769   -39613   -39777   -38472 
  -35800   -31852   -26729   -20727   -14461    -8638    -3894     -720 
     758      727     -584    -2946    -6139   -10040   -14510   -19212 
  -23776   -28012   -31635   -34225   -35624   -35780   -34601   -32151 
  -28514   -23870   -18678   -13416    -8542    -4531    -1661      -82 
      75    -1174    -3695    -7338   -11864   -17017   -22579   -28087 
  -32896   -36548   -38784   -39439   -38514   -36185   -32799   -28766 
  -24367   -19836   -15397   -11220    -7673    -5374    -4727    -5649 
   -7766   -10726   -14260   -18043   -21765   -25305   -28573   -31343 
  -33326   -34166   -33475   -31080   -27166   -22191   -16758   -11470 
   -6858    -3488    -1878    -2154    -4103    -7456   -11922   -17188 
  -22904   -28560   -33459   -36889   -38330   -37517   -34470   -29502 
  -23111   -16010    -9123    -3150     1619     4828     5864     4287 
     191    -5861   -13179   -21143   -29009   -36020   -41514   -44730 
  -45183   -42953   -38413   -32180   -25020   -17659   -10773    -4926 
    -724     1265      980    -1160    -4624    -9030   -14075   -19223 
  -23961   -28125   -31506   -33782   -34812   -34536   -32974   -30390 
  -27097   -23247   -18955   -14513   -10340    -6775    -4035    -2349 
   -2020    -3282    -6076   -10040   -14764   -19901   -25029   -29695 
  -33427   -35645   -35969   -34378   -30952   -25971   -20132   -14256 
   -8934    -4623    -1814     -773    -1434    -3634    -7164   -11760 
  -16991   -22047   -26150   -29034   -30801   -31735   -32035   -31547 
  -30076   -27629   -24319   -20473   -16623   -13286   -10920    -9937 
  -10511   -12437   -15395   -19056   -22892   -26286   -28841   -30462 
  -31243   -31371   -31053   -30274   -28686   -25931   -21997   -17254 
  -12298    -7856    -4619    -2890    -2627    -3837    -6392    -9774 
  -13621   -17901   -22452   -27043   -31477   -35403   -38337   -39731 
  -39128   -36492   -32220   -26878   -21013   -15023    -9161    -3635 
    1240     4836     6428     5712     2798    -2089    -8520   -15791 
  -23185   -30022   -35554   -39185   -40851   -40892   -39561   -36974 
  -33179   -28151   -22025   -15207    -8203    -1550     4096     7975 
    9584     8833     5773      606    -6276   -14452   -23297   -31919 
  -39403   -44989   -48280   -49131   -47504   -43706   -38209   -31519 
  -24444   -17820   -12226    -8116    -5839    -5577    -7236   -10411 
  -14521   -18938   -22999   -26011   -27576   -27712   -26482   -24099 
  -21072   -17763   -14332   -11012    -8037    -5681    -4241    -3899 
   -4783    -6899   -10099   -14238   -19089   -24185   -28911   -32651 
  -34940   -35486   -33984   -30333   -25114   -19355   -13914    -9384 
   -6222    -4654    -4743    -6482    -9593   -13565   -17957   -22461 
  -26854   -30925   -34324   -36652   -37609   -36954   -34614   -30882 
  -26274   -21289   -16453   -12278    -9033    -6766    -5539    -5406 
   -6295    -8069   -10582   -13659   -17160   -20936   -24657   -27820 
  -30038   -31318   -31886   -31908   -31336   -29886   -27393   -24051 
  -20195   -16163   -12310    -8999    -6604    -5284    -4989    -5672 
   -7156    -9269   -12027   -15361   -19106   -23015   -26732   -29972 
  -32386   -33523   -33104   -31171   -28129   -24464   -20390   -16022 
  -11681    -7923    -5488    -5121    -7124   -10988   -15723   -20486 
  -24643   -27785   -29804   -30550   -29737   -27333   -23738   -19600 
  -15576   -12236   -10007    -8991    -8956    -9626   -10903   -12786 
  -15232   -18102   -21092   -23844   -26212   -28259   -29988   -31236 
  -31795   -31509   -30307   -28203   -25359   -22102   -18674   -15162 
  -11811    -9029    -7134    -6367    -6955    -8989   -12257   -16288 
  -20580   -24809   -28798   -32268   -34793   -36061   -35970   -34510 
  -31710   -27694   -22746   -17314   -11950    -7147    -3332    -1017 
    -635    -2298    -5861   -10988   -17119   -23505   -29365   -34029 
  -37008   -38048   -37235   -34914   -31305   -26487   -20717   -14387 
   -8011    -2397     1562     3253     2387     -981    -6169   -12064 
  -17857   -23284   -28321   -32870   -36662   -39291   -40302   -39503 
  -37079   -33278   -28465   -23289   -18312   -13723    -9571    -6047 
   -3320    -1393     -468     -947    -2940    -6267   -10709   -15822 
  -20902   -25453   -29371   -32588   -34928   -36242   -36345   -34923 
  -31768   -27117   -21635   -16138   -11471    -8222    -6324    -5305 
   -4961    -5512    -7214   -10010   -13481   -17019   -20031   -22101 
  -23157   -23399   -23114   -22631   -22175   -21760   -21333   -20812 
  -20191   -19758   -19917   -20815   -22371   -24407   -26570   -28407 
  -29696   -30450   -30620   -30213   -29457   -28449   -26979   -24734 
  -21551   -17549   -13129    -8896    -5448    -3178    -2290    -2848 
   -4689    -7498   -11090   -15330   -19803   -23971   -27413   -29770 
  -30932   -31212   -30921   -30076   -28624   -26473   -23439   -19500 
  -14860    -9884    -5203    -1671     -114     -911    -3820    -8363 
  -14142   -20681   -27270   -33042   -37215   -39344   -39329   -37333 
  -33702   -28779   -22884   -16493   -10296    -4950     -884     1603 
    2322     1293    -1285    -5013    -9366   -13970   -18504   -22592 
  -26146   -29243   -31744   -33498   -34396   -34185   -32687   -30062 
  -26858   -23727   -21006   -18773   -17049   -15704   -14470   -13174 
  -11795   -10519    -9842   -10396   -12537   -16119   -20619   -25419 
  -29936   -33593   -35851   -36431   -35305   -32604   -28656   -23844 
  -18566   -13443    -9171    -6221    -4787    -4846    -6289    -8923 
  -12408   -16325   -20136   -23225   -25201   -26057   -26039   -25429 
  -24494   -23562   -22813   -22096   -21217   -20160   -19084   -18310 
  -18142   -18642   -19608   -20767   -21968   -23068   -23806   -24028 
  -23768   -23115   -22164   -21022   -19782   -18465   -17030   -15501 
  -14032   -12864   -12205   -12048   -12162   -12310   -12434   -12625 
  -12993   -13719   -14995   -16788   -18865   -20923   -22583   -23581 
  -24005   -24209   -24549   -25143   -25879   -26531   -26588   -25413 
  -22888   -19472   -15830   -12626   -10267    -8778    -7997    -7593 
   -7229    -6985    -7242    -8344   -10582   -14033   -18353   -23032 
  -27681   -31916   -35329   -37748   -39112   -39191   -37836   -35202 
  -31666   -27752   -23880   -20165   -16584   -13078    -9605    -6356 
   -3760    -2239    -2013    -2994    -4765    -6815    -8901   -11126 
  -13725   -16902   -20764   -25295   -30214   -34832   -38296   -39923 
  -39328   -36638   -32565   -28010   -23645   -19709   -15999   -12279 
   -8646    -5436    -3076    -2044    -2740    -5266    -9316   -14265 
  -19384   -23981   -27462   -29454   -29892   -28935   -26953   -24559 
  -22326   -20401   -18596   -16809   -15101   -13678   -12926   -13057 
  -13830   -14791   -15519   -15702   -15259   -14417   -13578   -13138 
  -13377   -14331   -15707   -16984   -17765   -17985   -17801   -17573 
  -17848   -18996   -21008   -23677   -26585   -29062   -30535   -30814 
  -29969   -28127   -25481   -22422   -19485   -17080   -15304   -14040 
  -13199   -12781   -12763   -13029   -13386   -13668   -13810   -13825 
  -13751   -13652   -13604   -13695   -14198   -15487   -17578   -20139 
  -22909   -25727   -28446   -30991   -33179   -34742   -35609   -35691 
  -34519   -31625   -27080   -21356   -15112    -9206    -4425    -1124 
     650      813     -675    -3640    -7909   -13429   -20040   -27326 
  -34603   -40972   -45601   -48025   -48060   -45619   -40757   -33751 
  -25082   -15486    -5925     2566     9097    13246    15059    14631 
   12008     7390     1063    -6629   -15141   -23727   -31621   -38226 
  -43123   -46046   -47044   -46387   -44146   -40242   -34909   -28634 
  -21786   -14717    -7878    -1657     3511     7152     8970     8693 
    6125     1563    -4263   -10536   -16597   -22111   -27021   -31349 
  -35000   -37754   -39323   -39374   -37710   -34449   -29962   -24817 
  -19534   -14258    -8982    -3924      541     3986     5847     5555 
    2972    -1496    -7236   -13646   -20166   -26405   -32111   -36998 
  -40695   -42897   -43524   -42697   -40527   -37063   -32443   -26832 
  -20432   -13812    -7855    -3210     -138     1226      844    -1090 
   -4167    -7932   -12065   -16441   -21044   -25799   -30391   -34221 
  -36605   -36935   -34849   -30545   -24696   -18085   -11527    -5742 
   -1192     1939     3574     3445     1297    -2715    -8176   -14579 
  -21384   -28054   -33872   -38110   -40495   -41151   -40377   -38439 
  -35379   -31274   -26227   -20286   -13915    -7834    -2589     1122 
    2521     1243    -2557    -8347   -15554   -23575   -31491   -38177 
  -42630   -44354   -43506   -40516   -35843   -29966   -23320   -16328 
   -9532    -3668      647     3264     4242     3641     1708    -1272 
   -5230   -10114   -15728   -21833   -28137   -34214   -39492   -43318 
  -45237   -45111   -42844   -38408   -32232   -25121   -17750   -10641 
   -4339      819     4701     7152     7979     7004     4079     -888 
   -7724   -15752   -24014   -31706   -38239   -43122   -45988   -46591 
  -44834   -40889   -35168   -28112   -20078   -11566    -3389     3615 
    8963    12471    13839    12636     8800     2665    -5336   -14550 
  -24156   -33401   -41482   -47669   -51556   -52876   -51408   -47002 
  -39710   -30044   -18941    -7703     2249    10030    15277    17682 
   17087    13581     7393     -832   -10046   -19444   -28547   -36788 
  -43588   -48561   -51283   -51287   -48409   -42792   -34890   -25553 
  -15726    -6201     2333     9226    13904    15867    14652    10234 
    3185    -5693   -15463   -25241   -34234   -41410   -45803   -47085 
  -45512   -41673   -36364   -30263   -23684   -16798    -9847    -3132 
    2742     6846     8504     7470     3785    -2081    -9332   -17096 
  -24641   -31521   -37328   -41585   -43983   -44298   -42296   -37979 
  -31684   -23947   -15378    -6716     1218     7695    12070    13904 
   13058     9559     3702    -3874   -12336   -20919   -29144   -36646 
  -42992   -47762   -50551   -50992   -48883   -44333   -37768   -29754 
  -20987   -12224    -4111     2690     7635    10521    11276     9940 
    6688     1542    -5415   -13652   -22433   -31072   -38890   -45159 
  -49202   -50656   -49509   -45853   -39969   -32382   -23618   -14314 
   -5413     2068     7353     9966     9663     6559     1194    -5736 
  -13491   -21301   -28562   -34758   -39314   -41801   -42034   -39949 
  -35844   -30396   -24108   -17375   -10848    -5153     -673     2272 
    3317     2191    -1025    -5817   -11473   -17217   -22300   -26412 
  -29753   -32509   -34695   -36291   -37052   -36597   -34800   -31775 
  -27759   -23037   -17832   -12456    -7408    -3260     -516      614 
     219    -1627    -4955    -9652   -15354   -21528   -27421   -32178 
  -35198   -36147   -34912   -31774   -27340   -22196   -16798   -11660 
   -7324    -4190    -2539    -2557    -4257    -7394   -11561   -16331 
  -21172   -25722   -30009   -33938   -37172   -39495   -40736   -40674 
  -39181   -36264   -32060   -26907   -21340   -15960   -11278    -7574 
   -4987    -3668    -3687    -4991    -7339   -10320   -13643   -17121 
  -20518   -23558   -25963   -27686   -28771   -29143   -28823   -27877 
  -26278   -23977   -20932   -17239   -13237    -9371    -6065    -3798 
   -3048    -4069    -6885   -11329   -16992   -23175   -28909   -33255 
  -35675   -36129   -35002   -32863   -30199   -27278   -24196   -21023 
  -17837   -14696   -11702    -9111    -7262    -6322    -6252    -6956 
   -8353   -10327   -12705   -15353   -18190   -21055   -23746   -26153 
  -28182   -29657   -30351   -30034   -28617   -26240   -23110   -19463 
  -15660   -12094    -9029    -6665    -5249    -4955    -5786    -7675 
  -10600   -14544   -19275   -24260   -28896   -32739   -35581   -37379 
  -38084   -37575   -35709   -32520   -28252   -23149   -17524   -11903 
   -6902    -3077     -783     -140    -1185    -3889    -8054   -13263 
  -18863   -24144   -28612   -32001   -34120   -34907   -34508   -33086 
  -30743   -27667   -24092   -20202   -16227   -12493    -9312    -6819 
   -5072    -4337    -5008    -7312   -11201   -16211   -21574   -26642 
  -30958   -34119   -35895   -36327   -35558   -33749   -31113   -27863 
  -24150   -20110   -15929   -11813    -7951    -4655    -2352    -1325 
   -1608    -3175    -6094   -10384   -15784   -21767   -27670   -32767 
  -36349   -37901   -37278   -34751   -30852   -26115   -20992   -15912 
  -11347    -7835    -5788    -5293    -6235    -8392   -11397   -14867 
  -18574   -22371   -26025   -29209   -31603   -32878   -32770   -31247 
  -28449   -24698   -20533   -16401   -12581    -9453    -7402    -6538 
   -6794    -8101   -10404   -13646   -17762   -22470   -27162   -31234 
  -34228   -35723   -35537   -33791   -30759   -26892   -22728   -18680 
  -14946   -11627    -8882    -6872    -5658    -5298    -5960    -7862 
  -11007   -15054   -19485   -23805   -27706   -31112   -33973   -36154 
  -37475   -37715   -36660   -34194   -30352   -25353   -19635   -13744 
   -8144    -3243      466     2497     2604      827    -2653    -7511 
  -13258   -19351   -25213   -30220   -33910   -36109   -36777   -35963 
  -33944   -31183   -28135   -25164   -22497   -20175   -18047   -15882 
  -13583   -11281    -9215    -7673    -6913    -7100    -8382   -10766 
  -13875   -17160   -20267   -22993   -25182   -26728   -27501   -27371 
  -26376   -24666   -22353   -19643   -16879   -14471   -12754   -11741 
  -11305   -11398   -11946   -12956   -14506   -16430   -18407   -20268 
  -21905   -23113   -23704   -23643   -23017   -21968   -20613   -19021 
  -17337   -15866   -14875   -14422   -14451   -14928   -15823   -17064 
  -18544   -20124   -21681   -23107   -24283   -25073   -25367   -25120 
  -24382   -23262   -21806   -20047   -18143   -16321   -14735   -13420 
  -12456   -11996   -12099   -12795   -14111   -15903   -17923   -20009 
  -22069   -23890   -25154   -25665   -25389   -24353   -22671   -20521 
  -18049   -15405   -12878   -10863    -9656    -9406   -10116   -11620 
  -13708   -16198   -18909   -21772   -24762   -27675   -30170   -31844 
  -32324   -31533   -29710   -27124   -23996   -20594   -17177   -13965 
  -11144    -8818    -7095    -6175    -6183    -7106    -8874   -11337 
  -14254   -17297   -20119   -22514   -24315   -25309   -25520   -25197 
  -24495   -23516   -22405   -21210   -19816   -18120   -16253   -14483 
  -13121   -12475   -12727   -13916   -15900   -18282   -20607   -22595 
  -24198   -25466   -26297   -26464   -25893   -24737   -23192   -21339 
  -19133   -16620   -14025   -11555    -9368    -7683    -6689    -6463 
   -7050    -8439   -10462   -12966   -15920   -19154   -22259   -24783 
  -26459   -27325   -27618   -27530   -27087   -26257   -24980   -23146 
  -20812   -18249   -15734   -13485   -11644   -10220    -9137    -8406 
   -8305    -9221   -11304   -14385   -18046   -21667   -24645   -26591 
  -27314   -26785   -25217   -23044   -20700   -18482   -16594   -15165 
  -14260   -13915   -14113   -14833   -16060   -17742   -19740   -21705 
  -23168   -23849   -23787   -23197   -22290   -21172   -19823   -18154 
