Origin Time       2011/03/11 14:46:00
Lat.              38.103
Long.             142.860
Depth. (km)       24
Mag.              9.0
Station Code      HKD015
Station Lat.      44.8846
Station Long.     141.7503
Station Height(m) 5
Record Time       2011/03/11 14:50:39
Sampling Freq(Hz) 100Hz
Duration Time(s)  168
Dir.              U-D
Scale Factor      3920(gal)/6182761
Max. Acc. (gal)   4.085
Last Correction   2011/03/11 14:50:24
Memo.             
[...]
  -16046   -16040   -16034   -16027   -16017   -16005   -15992   -15977 
  -15957   -15932   -15903   -15872   -15841   -15809   -15778   -15748 
  -15718   -15682   -15645   -15607   -15569   -15531   -15490   -15449 
  -15406   -15363   -15324   -15290   -15260   -15230   -15198   -15164 
  -15132   -15098   -15062   -15027   -14991   -14954   -14917   -14880 
  -14847   -14817   -14786   -14757   -14734   -14710   -14685   -14663 
  -14642   -14621   -14600   -14573   -14543   -14516   -14495   -14480 
  -14472   -14461   -14445   -14428   -14413   -14403   -14401   -14403 
  -14408   -14413   -14419   -14423   -14422   -14420   -14421   -14423 
  -14424   -14425   -14430   -14435   -14439   -14444   -14449   -14454 
  -14464   -14477   -14487   -14498   -14511   -14522   -14533   -14544 
  -14554   -14563   -14571   -14579   -14588   -14598   -14605   -14610 
  -14613   -14611   -14604   -14594   -14583   -14572   -14558   -14540 
  -14524   -14509   -14487   -14466   -14446   -14426   -14403   -14384 
  -14367   -14342   -14313   -14286   -14254   -14221   -14191   -14161 
  -14133   -14109   -14086   -14063   -14038   -14011   -13982   -13950 
  -13915   -13880   -13849   -13824   -13801   -13780   -13763   -13743 
  -13724   -13706   -13686   -13662   -13634   -13601   -13564   -13526 
  -13488   -13446   -13401   -13355   -13309   -13264   -13215   -13160 
  -13095   -13021   -12943   -12867   -12792   -12718   -12643   -12566 
  -12482   -12397   -12311   -12222   -12129   -12037   -11951   -11874 
  -11801   -11732   -11663   -11590   -11510   -11423   -11330   -11240 
  -11154   -11068   -10982   -10897   -10813   -10724   -10638   -10558 
  -10478   -10395   -10314   -10236   -10158   -10075    -9994    -9917 
   -9838    -9760    -9684    -9605    -9521    -9436    -9350    -9266 
   -9186    -9109    -9035    -8966    -8902    -8835    -8762    -8684 
   -8608    -8532    -8454    -8378    -8303    -8234    -8170    -8111 
   -8051    -7989    -7935    -7886    -7829    -7770    -7720    -7674 
   -7626    -7581    -7548    -7518    -7479    -7442    -7414    -7388 
   -7362    -7341    -7322    -7303    -7287    -7267    -7247    -7240 
   -7237    -7224    -7204    -7193    -7187    -7179    -7177    -7184 
   -7190    -7197    -7207    -7209    -7197    -7185    -7179    -7171 
   -7166    -7176    -7186    -7194    -7215    -7243    -7267    -7314 
   -7361    -7289    -7210    -7380    -7538    -7417    -7372    -7503 
   -7561    -7581    -7608    -7624    -7647    -7690    -7744    -7746 
   -7750    -7838    -7929    -7979    -8037    -8114    -8183    -8222 
   -8246    -8316    -8412    -8453    -8476    -8549    -8644    -8708 
   -8741    -8766    -8809    -8863    -8903    -8927    -8958    -8998 
   -9035    -9070    -9110    -9152    -9191    -9220    -9241    -9262 
   -9287    -9304    -9313    -9318    -9324    -9329    -9334    -9337 
   -9336    -9332    -9328    -9330    -9331    -9323    -9311    -9306 
   -9315    -9328    -9333    -9333    -9338    -9351    -9360    -9365 
   -9370    -9375    -9378    -9384    -9388    -9393    -9396    -9395 
   -9392    -9387    -9376    -9364    -9353    -9342    -9333    -9327 
   -9321    -9314    -9304    -9292    -9286    -9278    -9261    -9236 
   -9207    -9183    -9166    -9148    -9126    -9104    -9085    -9065 
   -9044    -9025    -9011    -9006    -9009    -9012    -9010    -9004 
   -8997    -8990    -8978    -8964    -8953    -8951    -8951    -8945 
   -8929    -8906    -8880    -8862    -8851    -8838    -8828    -8825 
   -8822    -8815    -8809    -8805    -8801    -8799    -8796    -8795 
   -8796    -8792    -8786    -8784    -8781    -8780    -8784    -8789 
   -8790    -8791    -8801    -8812    -8819    -8820    -8821    -8830 
   -8845    -8858    -8865    -8869    -8876    -8893    -8916    -8931 
   -8940    -8950    -8962    -8973    -8983    -8994    -9013    -9043 
   -9075    -9106    -9136    -9168    -9200    -9226    -9249    -9276 
   -9304    -9328    -9353    -9382    -9413    -9453    -9497    -9533 
   -9565    -9601    -9635    -9664    -9692    -9721    -9755    -9793 
   -9830    -9864    -9892    -9917    -9941    -9967    -9994   -10022 
  -10051   -10077   -10101   -10123   -10142   -10163   -10183   -10202 
  -10221   -10234   -10245   -10258   -10272   -10285   -10299   -10313 
  -10330   -10346   -10360   -10376   -10397   -10424   -10453   -10481 
  -10510   -10542   -10574   -10602   -10633   -10662   -10688   -10712 
  -10738   -10762   -10783   -10803   -10822   -10839   -10852   -10862 
  -10872   -10879   -10882   -10881   -10878   -10874   -10865   -10854 
  -10842   -10824   -10803   -10780   -10760   -10748   -10737   -10722 
  -10707   -10694   -10680   -10666   -10653   -10643   -10634   -10629 
  -10629   -10629   -10628   -10629   -10634   -10640   -10647   -10654 
  -10662   -10674   -10688   -10703   -10718   -10735   -10757   -10784 
  -10815   -10849   -10882   -10913   -10939   -10964   -10989   -11009 
  -11028   -11052   -11079   -11107   -11132   -11157   -11184   -11208 
  -11231   -11252   -11269   -11284   -11301   -11316   -11332   -11349 
  -11368   -11385   -11397   -11405   -11412   -11416   -11421   -11432 
  -11442   -11450   -11456   -11459   -11458   -11459   -11457   -11449 
  -11439   -11430   -11420   -11406   -11389   -11367   -11344   -11324 
  -11300   -11270   -11242   -11215   -11190   -11171   -11152   -11126 
  -11100   -11081   -11068   -11056   -11042   -11029   -11019   -11006 
  -10991   -10975   -10961   -10948   -10930   -10913   -10904   -10900 
  -10895   -10893   -10890   -10883   -10872   -10855   -10835   -10815 
  -10799   -10788   -10777   -10767   -10761   -10762   -10765   -10762 
  -10756   -10748   -10740   -10739   -10741   -10747   -10763   -10783 
  -10804   -10826   -10845   -10863   -10882   -10901   -10922   -10945 
  -10970   -10995   -11023   -11054   -11086   -11119   -11155   -11190 
  -11222   -11253   -11288   -11325   -11364   -11406   -11449   -11493 
  -11542   -11596   -11650   -11704   -11761   -11823   -11892   -11960 
  -12020   -12080   -12147   -12216   -12287   -12364   -12442   -12518 
  -12595   -12674   -12750   -12824   -12899   -12973   -13047   -13122 
  -13196   -13272   -13346   -13412   -13473   -13530   -13583   -13637 
  -13692   -13745   -13800   -13860   -13918   -13966   -14008   -14052 
  -14094   -14128   -14158   -14188   -14221   -14257   -14297   -14338 
  -14380   -14420   -14453   -14481   -14510   -14536   -14558   -14579 
  -14602   -14625   -14646   -14666   -14687   -14700   -14708   -14711 
  -14710   -14707   -14702   -14697   -14689   -14677   -14666   -14655 
  -14639   -14618   -14595   -14571   -14549   -14529   -14507   -14479 
  -14450   -14418   -14381   -14341   -14303   -14265   -14229   -14198 
  -14170   -14139   -14114   -14096   -14076   -14046   -14014   -13984 
  -13953   -13921   -13889   -13857   -13821   -13786   -13753   -13717 
  -13674   -13629   -13589   -13552   -13511   -13469   -13428   -13389 
  -13350   -13310   -13267   -13227   -13192   -13155   -13115   -13078 
  -13042   -13000   -12956   -12914   -12874   -12834   -12793   -12749 
  -12703   -12661   -12623   -12583   -12544   -12512   -12484   -12460 
  -12439   -12416   -12389   -12360   -12335   -12315   -12291   -12261 
  -12227   -12191   -12155   -12122   -12090   -12059   -12025   -11986 
  -11944   -11902   -11860   -11811   -11753   -11693   -11640   -11592 
  -11547   -11500   -11446   -11386   -11325   -11261   -11197   -11127 
  -11055   -10989   -10924   -10861   -10801   -10738   -10671   -10604 
  -10536   -10466   -10401   -10340   -10278   -10214   -10148   -10077 
  -10007    -9938    -9871    -9803    -9737    -9677    -9624    -9571 
   -9514    -9453    -9391    -9333    -9280    -9226    -9171    -9119 
   -9069    -9020    -8975    -8934    -8898    -8865    -8827    -8788 
   -8756    -8726    -8692    -8652    -8611    -8576    -8545    -8510 
   -8470    -8426    -8381    -8342    -8306    -8269    -8237    -8208 
   -8174    -8141    -8114    -8099    -8087    -8070    -8049    -8027 
   -7999    -7969    -7945    -7923    -7901    -7881    -7865    -7848 
   -7824    -7793    -7764    -7746    -7738    -7731    -7722    -7714 
   -7711    -7708    -7699    -7691    -7684    -7675    -7664    -7658 
   -7662    -7669    -7674    -7681    -7691    -7702    -7712    -7718 
   -7719    -7722    -7728    -7736    -7748    -7764    -7783    -7811 
   -7849    -7892    -7924    -7946    -7968    -7989    -8005    -8024 
   -8050    -8078    -8110    -8140    -8160    -8169    -8173    -8173 
   -8173    -8175    -8177    -8176    -8171    -8165    -8160    -8155 
   -8148    -8134    -8118    -8108    -8101    -8097    -8093    -8082 
   -8067    -8057    -8044    -8026    -8008    -7992    -7975    -7964 
   -7956    -7944    -7930    -7924    -7922    -7916    -7907    -7874 
   -7816    -7824    -7896    -7887    -7837    -7855    -7873    -7862 
   -7864    -7876    -7886    -7880    -7878    -7895    -7907    -7912 
   -7914    -7925    -7948    -7968    -7977    -7999    -8041    -8090 
   -8130    -8153    -8170    -8206    -8260    -8300    -8318    -8353 
   -8419    -8477    -8514    -8548    -8596    -8659    -8714    -8763 
   -8803    -8826    -8874    -8948    -8991    -8990    -9005    -9094 
   -9179    -9176    -9165    -9227    -9323    -9350    -9292    -9292 
   -9376    -9411    -9419    -9448    -9470    -9513    -9553    -9555 
   -9575    -9615    -9644    -9652    -9640    -9670    -9746    -9800 
   -9834    -9874    -9906    -9924    -9930    -9930    -9951    -9997 
  -10037   -10070   -10093   -10069   -10030   -10093   -10211   -10183 
  -10104   -10175   -10231   -10206   -10257   -10330   -10341   -10318 
  -10286   -10273   -10276   -10275   -10277   -10297   -10324   -10337 
  -10336   -10332   -10327   -10331   -10346   -10363   -10381   -10399 
  -10403   -10389   -10363   -10343   -10343   -10352   -10364   -10389 
  -10432   -10477   -10504   -10508   -10498   -10487   -10480   -10476 
  -10480   -10504   -10545   -10583   -10611   -10621   -10615   -10601 
  -10585   -10573   -10569   -10574   -10580   -10579   -10576   -10578 
  -10582   -10583   -10573   -10553   -10527   -10502   -10483   -10467 
  -10455   -10454   -10454   -10440   -10419   -10400   -10382   -10363 
  -10342   -10316   -10287   -10260   -10237   -10220   -10203   -10184 
  -10167   -10146   -10121   -10099   -10076   -10052   -10035   -10021 
  -10003    -9987    -9975    -9956    -9925    -9898    -9873    -9843 
   -9812    -9779    -9743    -9712    -9688    -9668    -9655    -9651 
   -9648    -9644    -9637    -9623    -9603    -9585    -9567    -9548 
   -9529    -9514    -9506    -9497    -9487    -9480    -9473    -9462 
   -9450    -9440    -9433    -9432    -9437    -9447    -9456    -9463 
   -9468    -9469    -9467    -9468    -9466    -9464    -9467    -9470 
   -9473    -9478    -9482    -9486    -9489    -9491    -9497    -9515 
   -9544    -9571    -9586    -9595    -9604    -9613    -9623    -9638 
   -9663    -9692    -9719    -9747    -9775    -9798    -9820    -9846 
   -9866    -9876    -9883    -9890    -9897    -9909    -9923    -9933 
   -9934    -9927    -9919    -9915    -9916    -9923    -9936    -9954 
   -9970    -9983    -9990    -9986    -9979    -9975    -9973    -9966 
   -9955    -9944    -9940    -9941    -9941    -9934    -9917    -9896 
   -9875    -9860    -9844    -9821    -9802    -9791    -9780    -9766 
   -9747    -9721    -9699    -9678    -9652    -9629    -9611    -9592 
   -9572    -9546    -9518    -9495    -9472    -9447    -9420    -9391 
   -9368    -9353    -9341    -9333    -9325    -9311    -9289    -9273 
   -9264    -9249    -9234    -9228    -9227    -9232    -9241    -9234 
   -9212    -9196    -9190    -9186    -9178    -9160    -9145    -9133 
   -9115    -9093    -9071    -9050    -9037    -9028    -9014    -8994 
   -8977    -8970    -8971    -8969    -8968    -8969    -8966    -8959 
   -8954    -8948    -8938    -8929    -8923    -8923    -8933    -8946 
   -8954    -8960    -8971    -8992    -9017    -9037    -9049    -9060 
   -9075    -9093    -9114    -9143    -9181    -9210    -9214    -9213 
   -9233    -9266    -9298    -9330    -9361    -9383    -9394    -9401 
   -9410    -9421    -9437    -9458    -9481    -9502    -9525    -9555 
   -9593    -9630    -9663    -9694    -9728    -9768    -9819    -9877 
   -9931    -9978   -10021   -10065   -10115   -10178   -10245   -10308 
  -10355   -10387   -10428   -10490   -10561   -10625   -10683   -10741 
  -10800   -10852   -10901   -10960   -11033   -11105   -11165   -11216 
  -11267   -11324   -11388   -11439   -11474   -11516   -11566   -11620 
  -11675   -11724   -11779   -11849   -11923   -11997   -12067   -12137 
  -12205   -12268   -12333   -12396   -12459   -12527   -12594   -12656 
  -12724   -12796   -12863   -12926   -12992   -13061   -13120   -13169 
  -13227   -13300   -13379   -13448   -13508   -13567   -13637   -13719 
  -13800   -13870   -13934   -14002   -14076   -14152   -14225   -14294 
  -14362   -14437   -14520   -14602   -14681   -14763   -14852   -14946 
  -15035   -15112   -15193   -15277   -15358   -15444   -15527   -15601 
  -15679   -15764   -15842   -15918   -16006   -16105   -16193   -16256 
  -16317   -16398   -16485   -16569   -16649   -16721   -16788   -16856 
  -16917   -16957   -16985   -17017   -17049   -17079   -17113   -17148 
  -17172   -17187   -17205   -17227   -17241   -17241   -17227   -17206 
  -17191   -17180   -17156   -17119   -17080   -17043   -17001   -16948 
  -16887   -16828   -16777   -16728   -16659   -16571   -16489   -16423 
  -16357   -16275   -16180   -16087   -16007   -15935   -15854   -15759 
  -15652   -15541   -15447   -15368   -15280   -15183   -15087   -14992 
  -14901   -14812   -14714   -14605   -14500   -14406   -14318   -14235 
  -14153   -14066   -13972   -13879   -13801   -13739   -13678   -13612 
  -13543   -13472   -13405   -13331   -13244   -13157   -13079   -12999 
  -12913   -12831   -12763   -12702   -12629   -12542   -12458   -12402 
  -12362   -12296   -12190   -12083   -12016   -11982   -11936   -11854 
  -11758   -11669   -11596   -11537   -11478   -11411   -11341   -11277 
  -11221   -11166   -11102   -11022   -10940   -10875   -10821   -10758 
  -10679   -10596   -10523   -10463   -10409   -10358   -10308   -10264 
  -10234   -10208   -10170   -10122   -10074   -10021    -9972    -9947 
   -9929    -9895    -9849    -9809    -9769    -9724    -9682    -9647 
   -9613    -9578    -9544    -9513    -9479    -9444    -9428    -9432 
   -9437    -9424    -9388    -9341    -9309    -9300    -9296    -9280 
   -9254    -9237    -9230    -9230    -9249    -9279    -9289    -9282 
   -9288    -9299    -9283    -9261    -9281    -9318    -9331    -9353 
   -9399    -9422    -9417    -9440    -9507    -9566    -9580    -9569 
   -9578    -9624    -9690    -9757    -9814    -9855    -9886    -9916 
   -9956   -10013   -10068   -10109   -10152   -10217   -10298   -10365 
  -10393   -10412   -10462   -10525   -10570   -10610   -10649   -10665 
  -10660   -10664   -10700   -10761   -10822   -10871   -10891   -10870 
  -10845   -10849   -10861   -10861   -10862   -10870   -10869   -10856 
  -10845   -10837   -10821   -10799   -10786   -10779   -10769   -10742 
  -10689   -10626   -10583   -10559   -10547   -10547   -10535   -10492 
  -10438   -10394   -10353   -10310   -10277   -10262   -10250   -10220 
  -10171   -10117   -10071   -10042   -10018    -9978    -9933    -9893 
   -9852    -9806    -9758    -9716    -9679    -9631    -9582    -9544 
   -9502    -9450    -9409    -9378    -9338    -9281    -9235    -9223 
   -9218    -9192    -9162    -9139    -9120    -9098    -9062    -9017 
   -8987    -8989    -8999    -8989    -8956    -8919    -8912    -8948 
   -8990    -9011    -9010    -8994    -8997    -9034    -9060    -9058 
   -9063    -9090    -9136    -9182    -9197    -9190    -9212    -9273 
   -9349    -9414    -9437    -9434    -9441    -9437    -9401    -9369 
   -9404    -9539    -9733    -9869    -9805    -9553    -9348    -9392 
   -9670   -10008   -10190   -10084    -9791    -9613    -9729   -10014 
  -10228   -10204    -9966    -9733    -9717    -9957   -10284   -10488 
  -10487   -10329   -10139   -10012    -9973   -10037   -10193   -10395 
  -10603   -10744   -10725   -10567   -10421   -10363   -10385   -10503 
  -10675   -10777   -10788   -10797   -10834   -10878   -10930   -10964 
  -10927   -10832   -10805   -10922   -11089   -11139   -11045   -10986 
  -11126   -11348   -11397   -11217   -11011   -10983   -11132   -11334 
  -11501   -11553   -11494   -11442   -11428   -11388   -11319   -11256 
  -11278   -11472   -11722   -11764   -11594   -11464   -11450   -11462 
  -11533   -11689   -11794   -11722   -11526   -11381   -11419   -11606 
  -11785   -11851   -11869   -11891   -11852   -11712   -11536   -11460 
  -11591   -11848   -12037   -12101   -12059   -11916   -11767   -11735 
  -11845   -12039   -12164   -12117   -12003   -11981   -12047   -12111 
  -12150   -12175   -12211   -12257   -12256   -12244   -12279   -12297 
  -12277   -12319   -12427   -12485   -12491   -12541   -12602   -12557 
  -12427   -12381   -12547   -12802   -12907   -12840   -12773   -12790 
  -12810   -12772   -12740   -12768   -12830   -12920   -13094   -13321 
  -13425   -13265   -12900   -12599   -12568   -12773   -13109   -13435 
  -13560   -13440   -13187   -12948   -12858   -12928   -13019   -13048 
  -13080   -13152   -13206   -13203   -13151   -13060   -12926   -12794 
  -12734   -12788   -12921   -13008   -12982   -12906   -12804   -12635 
  -12456   -12396   -12493   -12645   -12713   -12680   -12594   -12418 
  -12148   -11934   -11932   -12105   -12282   -12357   -12298   -12111 
  -11858   -11625   -11506   -11522   -11590   -11651   -11667   -11591 
  -11433   -11241   -11066   -10973   -10949   -10951   -10962   -10912 
  -10818   -10775   -10769   -10739   -10637   -10450   -10292   -10261 
  -10325   -10405   -10404   -10314   -10232   -10174   -10092    -9982 
   -9873    -9809    -9819    -9872    -9931    -9963    -9926    -9819 
   -9655    -9493    -9436    -9475    -9539    -9599    -9622    -9595 
   -9545    -9463    -9363    -9300    -9281    -9290    -9316    -9392 
   -9535    -9561    -9416    -9361    -9422    -9431    -9394    -9367 
   -9412    -9519    -9612    -9656    -9629    -9591    -9597    -9588 
   -9555    -9556    -9614    -9727    -9836    -9819    -9689    -9623 
   -9694    -9815    -9898    -9937    -9951    -9939    -9913    -9928 
   -9984   -10033   -10071   -10109   -10161   -10217   -10205   -10152 
  -10167   -10247   -10342   -10395   -10374   -10364   -10425   -10533 
  -10624   -10618   -10560   -10574   -10669   -10747   -10794   -10889 
  -11001   -11055   -11055   -11015   -10962   -10970   -11043   -11160 
  -11330   -11490   -11535   -11464   -11344   -11283   -11384   -11557 
  -11676   -11784   -11873   -11871   -11857   -11905   -11956   -11973 
  -11979   -12001   -12060   -12168   -12303   -12428   -12486   -12419 
  -12369   -12456   -12494   -12455   -12527   -12684   -12797   -12834 
  -12854   -12897   -12923   -12932   -12970   -13038   -13108   -13139 
  -13135   -13146   -13169   -13187   -13247   -13334   -13373   -13393 
