Origin Time       2011/03/11 14:46:00
Lat.              38.103
Long.             142.860
Depth. (km)       24
Mag.              9.0
Station Code      HKD056
Station Lat.      43.6705
Station Long.     143.5781
Station Height(m) 229
Record Time       2011/03/11 14:48:59
Sampling Freq(Hz) 100Hz
Duration Time(s)  239
Dir.              N-S
Scale Factor      3920(gal)/6182761
Max. Acc. (gal)   5.278
Last Correction   2011/03/11 14:48:44
Memo.             
[...]
  -13023   -13218   -13232   -13105   -13182   -13453   -13667   -13824 
  -13997   -14001   -13663   -13175   -12913   -13024   -13320   -13668 
  -14188   -14774   -14941   -14577   -14174   -14091   -14255   -14592 
  -15026   -15237   -15034   -14703   -14613   -14781   -14905   -14752 
  -14489   -14401   -14383   -14103   -13551   -13104   -13082   -13459 
  -14015   -14551   -15029   -15376   -15216   -14326   -13247   -12797 
  -13027   -13301   -13394   -13681   -14306   -14872   -14970   -14599 
  -14004   -13359   -12834   -12679   -12919   -13272   -13560   -13822 
  -14044   -14185   -14312   -14396   -14318   -14226   -14338   -14459 
  -14271   -13930   -13903   -14371   -15070   -15606   -15748   -15510 
  -15045   -14506   -13994   -13540   -13270   -13485   -14233   -15039 
  -15446   -15508   -15455   -15249   -14794   -14222   -13746   -13398 
  -13152   -13167   -13505   -13984   -14422   -14611   -14470   -14357 
  -14543   -14781   -14736   -14368   -14014   -14106   -14558   -14890 
  -14976   -15093   -15337   -15405   -15067   -14579   -14289   -14088 
  -13691   -13205   -13018   -13241   -13588   -13780   -13826   -13871 
  -13909   -13776   -13490   -13309   -13360   -13555   -13813   -14090 
  -14388   -14723   -14963   -14946   -14693   -14226   -13514   -12841 
  -12727   -13244   -13851   -14098   -14067   -13989   -13852   -13541 
  -13053   -12463   -11957   -11833   -12195   -12791   -13247   -13463 
  -13721   -14212   -14609   -14443   -13771   -13144   -12926   -12971 
  -12961   -12864   -12908   -13209   -13699   -14250   -14677   -14888 
  -14942   -14845   -14626   -14472   -14438   -14284   -13908   -13628 
  -13716   -14008   -14190   -14087   -13710   -13338   -13187   -13144 
  -13225   -13598   -13994   -13980   -13685   -13661   -14135   -14728 
  -14949   -14698   -14254   -13962   -13883   -13792   -13634   -13619 
  -13776   -13853   -13717   -13488   -13287   -13151   -13159   -13409 
  -13842   -14246   -14505   -14697   -14931   -15118   -14976   -14443 
  -13906   -13703   -13714   -13694   -13667   -13779   -14001   -14133 
  -14002   -13562   -12938   -12325   -11901   -11946   -12581   -13469 
  -14278   -14972   -15438   -15387   -14833   -14258   -14018   -13993 
  -13932   -13812   -13769   -13716   -13449   -13212   -13347   -13655 
  -13808   -13883   -14083   -14308   -14274   -13950   -13694   -13889 
  -14535   -15275   -15705   -15672   -15414   -15130   -14566   -13571 
  -12582   -12116   -12217   -12563   -12902   -13307   -13832   -14114 
  -13891   -13553   -13546   -13762   -13820   -13635   -13587   -13934 
  -14352   -14484   -14436   -14533   -14871   -15154   -15133   -14940 
  -14683   -14234   -13602   -13090   -12850   -12668   -12399   -12255 
  -12551   -13277   -13957   -14197   -14139   -14052   -13987   -13992 
  -14151   -14401   -14578   -14568   -14270   -13670   -13017   -12678 
  -12820   -13321   -13785   -13754   -13167   -12480   -12167   -12228 
  -12356   -12457   -12749   -13300   -13770   -13812   -13575   -13408 
  -13345   -13310   -13328   -13292   -13149   -13205   -13655   -14180 
  -14456   -14558   -14537   -14161   -13411   -12796   -12836   -13416 
  -14003   -14400   -14850   -15380   -15620   -15298   -14522   -13612 
  -12786   -12216   -12252   -12959   -13806   -14343   -14539   -14436 
  -14126   -13758   -13374   -13080   -13069   -13273   -13500   -13779 
  -14126   -14482   -14824   -14993   -14841   -14430   -13823   -13193 
  -12862   -12814   -12774   -12813   -13217   -13920   -14520   -14729 
  -14711   -14837   -15116   -15215   -14905   -14240   -13501   -12997 
  -12827   -12914   -13177   -13579   -13973   -14035   -13693   -13341 
  -13192   -13048   -12937   -13031   -13178   -13185   -13060   -12991 
  -13253   -13856   -14546   -15168   -15682   -15967   -15853   -15295 
  -14437   -13520   -12849   -12759   -13264   -13865   -14115   -14093 
  -14029   -13885   -13464   -12807   -12259   -12107   -12310   -12631 
  -12980   -13452   -13868   -13742   -13035   -12405   -12394   -12772 
  -13095   -13514   -14278   -14919   -14885   -14342   -13749   -13235 
  -12740   -12523   -12998   -13923   -14539   -14635   -14627   -14676 
  -14548   -14130   -13545   -13024   -12848   -13159   -13801   -14469 
  -14958   -15190   -15040   -14401   -13556   -13022   -12962   -13122 
  -13207   -13182   -13238   -13514   -14027   -14610   -14890   -14664 
  -14076   -13305   -12548   -12131   -12233   -12709   -13338   -14014 
  -14684   -15191   -15350   -15239   -15197   -15413   -15599   -15259 
  -14481   -13982   -14054   -14132   -13816   -13577   -13947   -14618 
  -14967   -15002   -15149   -15347   -15132   -14516   -13935   -13536 
  -13328   -13483   -13958   -14443   -14751   -14815   -14561   -14006 
  -13305   -12781   -12782   -13319   -14131   -15012   -15731   -16054 
  -15980   -15672   -15233   -14734   -14290   -14016   -13954   -14045 
  -14174   -14286   -14288   -14112   -13990   -14040   -13866   -13259 
  -12705   -12787   -13396   -13822   -13739   -13527   -13427   -13289 
  -13106   -13121   -13438   -13872   -14181   -14300   -14291   -14241 
  -14197   -14124   -13952   -13708   -13621   -13982   -14733   -15397 
  -15544   -15104   -14273   -13398   -12862   -12847   -13320   -14105 
  -14850   -15219   -15127   -14675   -14063   -13474   -13047   -13029 
  -13464   -14003   -14405   -14693   -14745   -14399   -13949   -13977 
  -14593   -15253   -15392   -14956   -14246   -13501   -12921   -12737 
  -12888   -13098   -13267   -13457   -13662   -13778   -13673   -13389 
  -13235   -13285   -13082   -12497   -12193   -12623   -13397   -13982 
  -14306   -14583   -14881   -15012   -14924   -14787   -14482   -13729 
  -12746   -11991   -11573   -11507   -11987   -12970   -13995   -14607 
  -14682   -14346   -13795   -13173   -12592   -12272   -12463   -13201 
  -14180   -15019   -15556   -15722   -15426   -14635   -13489   -12380 
  -11662   -11365   -11436   -11848   -12474   -13165   -13798   -14226 
  -14443   -14617   -14812   -14924   -14935   -14979   -15142   -15345 
  -15474   -15482   -15310   -14891   -14262   -13685   -13452   -13470 
  -13523   -13683   -13954   -14120   -14036   -13764   -13525   -13450 
  -13456   -13472   -13518   -13673   -13992   -14385   -14635   -14549 
  -14160   -13720   -13381   -13089   -12799   -12625   -12802   -13425 
  -14164   -14512   -14401   -14264   -14397   -14571   -14515   -14472 
  -14831   -15435   -15809   -15741   -15382   -15003   -14698   -14454 
  -14357   -14318   -14135   -14022   -14390   -15178   -15863   -16071 
  -15856   -15408   -14768   -13838   -12699   -11878   -11861   -12492 
  -13222   -13713   -13958   -13969   -13599   -12830   -12003   -11596 
  -11897   -12862   -14088   -15058   -15556   -15727   -15796   -15782 
  -15463   -14792   -14197   -14091   -14402   -14886   -15367   -15509 
  -14932   -13775   -12702   -12186   -12133   -12335   -12876   -13736 
  -14401   -14305   -13708   -13543   -14122   -14886   -15472   -15951 
  -16233   -16094   -15687   -15493   -15583   -15434   -14775   -14034 
  -13710   -13809   -14075   -14380   -14723   -15144   -15596   -15863 
  -15718   -15097   -14224   -13361   -12491   -11632   -11038   -10970 
  -11593   -12861   -14382   -15546   -15948   -15702   -15012   -13840 
  -12535   -11827   -12009   -12912   -14264   -15659   -16647   -16850 
  -16029   -14422   -12826   -11868   -11561   -11840   -12779   -14163 
  -15418   -15964   -15554   -14447   -13112   -11848   -10988   -11086 
  -12284   -13864   -15048   -15803   -16356   -16368   -15292   -13317 
  -11412   -10444   -10594   -11568   -13103   -15001   -16657   -17196 
  -16436   -15081   -13851   -13051   -12766   -13031   -13839   -14915 
  -15629   -15588   -14934   -13890   -12683   -11754   -11497   -11984 
  -13083   -14562   -16027   -16997   -17110   -16299   -14844   -13196 
  -11777   -10862   -10596   -11164   -12490   -13947   -15007   -15634 
  -15842   -15599   -15062   -14566   -14350   -14224   -14010   -14057 
  -14572   -15022   -14894   -14435   -14244   -14494   -14822   -14949 
  -15026   -15173   -15269   -15391   -15801   -16393   -16795   -16902 
  -16678   -15849   -14380   -12793   -11590   -10815   -10332   -10248 
  -10915   -12354   -13900   -14879   -15301   -15451   -15273   -14602 
  -13680   -13029   -13006   -13670   -14746   -15792   -16492   -16574 
  -15909   -14789   -13717   -13096   -13113   -13722   -14808   -16082 
  -16950   -16988   -16415   -15731   -15060   -14301   -13636   -13458 
  -14031   -15116   -15957   -16016   -15415   -14590   -13857   -13326 
  -13136   -13468   -14265   -15173   -15706   -15664   -15339   -14895 
  -14137   -13082   -12009   -10995   -10008    -9362    -9540   -10581 
  -12026   -13382   -14446   -15247   -15739   -15748   -15261   -14573 
  -14151   -14262   -14724   -15254   -15870   -16549   -16868   -16419 
  -15316   -14070   -13056   -12353   -12055   -12331   -13159   -14339 
  -15586   -16422   -16336   -15316   -13954   -12750   -11814   -11297 
  -11408   -12162   -13412   -14758   -15676   -15946   -15603   -14821 
  -13927   -13163   -12662   -12683   -13398   -14468   -15358   -15942 
  -16376   -16720   -16875   -16777   -16592   -16454   -16165   -15563 
  -14796   -14058   -13284   -12320   -11361   -10822   -10870   -11476 
  -12545   -13805   -14781   -14969   -14304   -13335   -12637   -12340 
  -12426   -12989   -13900   -14671   -14961   -14763   -14136   -13227 
  -12332   -11903   -12412   -13792   -15305   -16234   -16260   -15358 
  -13790   -12132   -11002   -10702   -11170   -12140   -13272   -14293 
  -15021   -15274   -14858   -13747   -12269   -11005   -10407   -10558 
  -11369   -12788   -14427   -15450   -15348   -14290   -12790   -11421 
  -10512   -10274   -10883   -11949   -12819   -13235   -13100   -12459 
  -11739   -11374   -11487   -11986   -12573   -12942   -13095   -13241 
  -13568   -14163   -14965   -15765   -16298   -16393   -16069   -15523 
  -14955   -14398   -14168   -14908   -16436   -17571   -17591   -16924 
  -16153   -15178   -13932   -13083   -13193   -14048   -15188   -16367 
  -17485   -18299   -18423   -17736   -16441   -14831   -13202   -11774 
  -10676   -10073   -10130   -10685   -11310   -11859   -12501   -13313 
  -14276   -15348   -16421   -17411   -18160   -18383   -17993   -17194 
  -16211   -15233   -14416   -13738   -13102   -12632   -12590   -13074 
  -13906   -14710   -15118   -14971   -14349   -13553   -13007   -12970 
  -13424   -14227   -15195   -16087   -16669   -16780   -16361   -15398 
  -14009   -12716   -12184   -12461   -13010   -13533   -14091   -14489 
  -14202   -13072   -11598   -10435    -9937   -10158   -10917   -11863 
  -12627   -13139   -13684   -14356   -14783   -14627   -13975   -13133 
  -12355   -11915   -12185   -13205   -14464   -15388   -15721   -15396 
  -14576   -13746   -13339   -13500   -14186   -14868   -14779   -13969 
  -13236   -13166   -13667   -14189   -14489   -14870   -15447   -15935 
  -16202   -16289   -16013   -15049   -13341   -11198    -9059    -7304 
   -6258    -6159    -6903    -8136    -9584   -10965   -11942   -12435 
  -12656   -12859   -13165   -13489   -13753   -14185   -15053   -16104 
  -16861   -17185   -17095   -16594   -15778   -14772   -13676   -12689 
  -12222   -12476   -12955   -13013   -12585   -11979   -11537   -11455 
  -11692   -12259   -13280   -14655   -16012   -17096   -18092   -19217 
  -20182   -20538   -20176   -19285   -18170   -16946   -15472   -13795 
  -12227   -10965   -10081    -9813   -10483   -11917   -13372   -14324 
  -14892   -15260   -15185   -14387   -13208   -12490   -12575   -12869 
  -12885   -12991   -13578   -14411   -15083   -15371   -15269   -15157 
  -15461   -15944   -15958   -15429   -14850   -14338   -13659   -13052 
  -12997   -13356   -13619   -13760   -14084   -14369   -14058   -13243 
  -12686   -12890   -13551   -14041   -14294   -14642   -14875   -14468 
  -13571   -12857   -12719   -13270   -14525   -15946   -16581   -16110 
  -15079   -14094   -13329   -12691   -12213   -12175   -12713   -13582 
  -14401   -14867   -14886   -14696   -14532   -14170   -13326   -12238 
  -11327   -10730   -10569   -11186   -12700   -14540   -15910   -16610 
  -16817   -16575   -16140   -16049   -16310   -16286   -15523   -14171 
  -12639   -11204   -10079    -9643   -10082   -11022   -11952   -12832 
  -13958   -15246   -16100   -16172   -15694   -15009   -14282   -13670 
  -13382   -13443   -13526   -13268   -12704   -12005   -11062    -9986 
   -9478    -9996   -11282   -12859   -14381   -15795   -17238   -18365 
  -18459   -17518   -16120   -14314   -12077   -10440   -10623   -12379 
  -14371   -15893   -17142   -17945   -17437   -15405   -12952   -11261 
  -10453   -10129   -10372   -11525   -13206   -14474   -15041   -15390 
  -15738   -15811   -15552   -15139   -14497   -13440   -12065   -10759 
  -10005   -10103   -10941   -12083   -13169   -14210   -15203   -15708 
  -15406   -14699   -14176   -13870   -13528   -13254   -13259   -13401 
  -13577   -13964   -14530   -14813   -14542   -14279   -14630   -15212 
  -15426   -15464   -15722   -15984   -15715   -14916   -14037   -13191 
  -12251   -11315   -10601   -10191   -10011    -9945    -9822    -9443 
   -8979    -9023    -9846   -11112   -12483   -13801   -14707   -14846 
  -14386   -13778   -13195   -12610   -12212   -12315   -12938   -13813 
  -14591   -14904   -14562   -13681   -12620   -11969   -12379   -14062 
  -16422   -18575   -20259   -21604   -22256   -21582   -19693   -17652 
  -16363   -15638   -14944   -14458   -14425   -14296   -13561   -12537 
  -11649   -10806    -9946    -9573   -10122   -11206   -12218   -13141 
  -14137   -14987   -15404   -15457   -15410   -15293   -14902   -14381 
  -14233   -14625   -15238   -15717   -15935   -15808   -15082   -13678 
  -11936   -10334    -9311    -9192   -10134   -12176   -14965   -17561 
  -18945   -18727   -17265   -15232   -13296   -12117   -12060   -12939 
  -14294   -15553   -16066   -15617   -14567   -13331   -12267   -11748 
  -11890   -12528   -13299   -13705   -13528   -13033   -12610   -12388 
  -12269   -12110   -11834   -11593   -11633   -11898   -12226   -12597 
  -12799   -12675   -12654   -13139   -13823   -14183   -14176   -14170 
  -14381   -14694   -14973   -15285   -15770   -16186   -15960   -14966 
  -13774   -12996   -12874   -13486   -14699   -15929   -16469   -15976 
  -14689   -13172   -11626   -10114    -9307    -9767   -11030   -12314 
  -13454   -14685   -15975   -16923   -17297   -17230   -16758   -15731 
  -14178   -12421   -10932   -10021    -9727    -9994   -10753   -11883 
  -13130   -14163   -14809   -14938   -14332   -13150   -12197   -12202 
  -13061   -14194   -15268   -16119   -16476   -16041   -14735   -13059 
  -11842   -11365   -11360   -11806   -12780   -13813   -14303   -14054 
  -13012   -11327    -9628    -8521    -8225    -8835   -10241   -11894 
  -13224   -14202   -15132   -16076   -16924   -17847   -19035   -20087 
  -20276   -19487   -18330   -17343   -16608   -15986   -15429   -15081 
  -14908   -14585   -13975   -13272   -12757   -12469   -12021   -11180 
  -10422   -10404   -11255   -12533   -13720   -14711   -15594   -16089 
  -15791   -14811   -13759   -13183   -13201   -13659   -14439   -15338 
  -15899   -15867   -15593   -15546   -15685   -15724   -15637   -15572 
  -15548   -15417   -15075   -14612   -14109   -13620   -13322   -13236 
  -13116   -12802   -12279   -11577   -10832   -10295   -10295   -10935 
  -11885   -12771   -13413   -13782   -14090   -14457   -14580   -14288 
  -13827   -13307   -12675   -12213   -12255   -12662   -13209   -13941 
  -14781   -15384   -15356   -14432   -12912   -11679   -11395   -11990 
  -12970   -14037   -15336   -16882   -18165   -18782   -18773   -18272 
  -17492   -16741   -16091   -15442   -14859   -14528   -14586   -14914 
  -15123   -15088   -15067   -15091   -14796   -14011   -13144   -12649 
  -12415   -12216   -12241   -12680   -13461   -14420   -15219   -15432 
  -15028   -14358   -13603   -12714   -11746   -10893   -10486   -10770 
  -11510   -12247   -12799   -13183   -13290   -13049   -12780   -12914 
  -13494   -14183   -14653   -14900   -15096   -15221   -15180   -15200 
  -15518   -15803   -15665   -15325   -15157   -15054   -14650   -13859 
  -12921   -12102   -11596   -11451   -11632   -12172   -12961   -13676 
  -14016   -13785   -13086   -12404   -12150   -12393   -12999   -13713 
  -14311   -14761   -15073   -15167   -15037   -14829   -14704   -14729 
  -14815   -14895   -15187   -15830   -16461   -16660   -16361   -15652 
  -14619   -13462   -12510   -12097   -12386   -13257   -14401   -15549 
  -16533   -17150   -17093   -16154   -14621   -13169   -12153   -11532 
  -11462   -12149   -13332   -14515   -15448   -16029   -16048   -15395 
  -14324   -13259   -12549   -12392   -12801   -13760   -15234   -16752 
  -17522   -17219   -16146   -14625   -12906   -11536   -11074   -11628 
  -13016   -14922   -16766   -17894   -18057   -17492   -16585   -15634 
  -14845   -14327   -14099   -14097   -14182   -14163   -13849   -13245 
  -12725   -12677   -12999   -13299   -13389   -13334   -13317   -13482 
  -13818   -14379   -15254   -16097   -16423   -16271   -15900   -15326 
  -14583   -13903   -13427   -13029   -12643   -12464   -12599   -12944 
  -13350   -13538   -13291   -12878   -12683   -12623   -12468   -12466 
  -13032   -13968   -14666   -15023   -15534   -16381   -17018   -16900 
  -16096   -15045   -13968   -12721   -11348   -10343   -10077   -10326 
  -10597   -10802   -11243   -11932   -12572   -13092   -13526   -13771 
  -13866   -14012   -14324   -14869   -15649   -16481   -17071   -17081 
  -16357   -15172   -14043   -13435   -13480   -13830   -14078   -14152 
  -14093   -13855   -13509   -13379   -13766   -14598   -15350   -15503 
  -15158   -14689   -14039   -13156   -12441   -12151   -12068   -11972 
  -11948   -12254   -13031   -14112   -15060   -15451   -15193   -14470 
  -13414   -12185   -11166   -10779   -11284   -12607   -14260   -15687 
  -16598   -16794   -15955   -14160   -12301   -11255   -11055   -11242 
  -11505   -11784   -11985   -11803   -11095   -10292   -10099   -10843 
  -12369   -14440   -16818   -18964   -20178   -20198   -19352   -18081 
  -16682   -15516   -15017   -15372   -16317   -17211   -17461   -16955 
  -15976   -14750   -13451   -12460   -12042   -11986   -12046   -12263 
  -12645   -12973   -12989   -12682   -12357   -12281   -12413   -12655 
  -13052   -13552   -13922   -13991   -13897   -14008   -14426   -14862 
  -15164   -15384   -15477   -15339   -14954   -14502   -14223   -14159 
  -14378   -15089   -16241   -17416   -18132   -18151   -17574   -16724 
  -16082   -16037   -16570   -17469   -18575   -19590   -20124   -19917 
  -18905   -17269   -15436   -13862   -12796   -12280   -12348   -13018 
  -14110   -15196   -15776   -15654   -15037   -14154   -13137   -12222 
  -11683   -11649   -11964   -12225   -12263   -12231   -12134   -11881 
  -11632   -11846   -12889   -14455   -15790   -16536   -16812   -16617 
  -15806   -14679   -13956   -13948   -14291   -14646   -15024   -15361 
  -15507   -15486   -15284   -14821   -14223   -13715   -13447   -13364 
  -13145   -12610   -11991   -11525   -11142   -10712   -10308    -9993 
   -9573    -8933    -8343    -8119    -8271    -8676    -9300   -10085 
