Origin Time       2011/03/11 14:46:00
Lat.              38.103
Long.             142.860
Depth. (km)       24
Mag.              9.0
Station Code      HKD037
Station Lat.      43.5889
Station Long.     142.4673
Station Height(m) 240
Record Time       2011/03/11 14:49:03
Sampling Freq(Hz) 100Hz
Duration Time(s)  226
Dir.              E-W
Scale Factor      3920(gal)/6182761
Max. Acc. (gal)   4.922
Last Correction   2011/03/11 14:48:48
Memo.             
[...]
  -21417   -21302   -21185   -21087   -21013   -20951   -20906   -20900 
  -20926   -20975   -21059   -21186   -21358   -21570   -21808   -22044 
  -22223   -22290   -22250   -22163   -22095   -22095   -22170   -22299 
  -22468   -22664   -22839   -22942   -22977   -22978   -22957   -22928 
  -22929   -22988   -23097   -23263   -23501   -23762   -23980   -24132 
  -24231   -24303   -24359   -24380   -24377   -24385   -24393   -24367 
  -24284   -24131   -23923   -23691   -23478   -23339   -23284   -23275 
  -23313   -23408   -23525   -23654   -23811   -23971   -24102   -24216 
  -24321   -24405   -24478   -24574   -24721   -24917   -25137   -25362 
  -25555   -25687   -25790   -25892   -25963   -25986   -26008   -26061 
  -26102   -26115   -26142   -26183   -26186   -26138   -26076   -26024 
  -25980   -25954   -25937   -25869   -25728   -25549   -25355   -25168 
  -25053   -25062   -25146   -25207   -25233   -25269   -25310   -25349 
  -25406   -25468   -25485   -25429   -25294   -25052   -24672   -24170 
  -23590   -22985   -22425   -21950   -21564   -21267   -21082   -21071 
  -21254   -21547   -21874   -22204   -22498   -22748   -22960   -23115 
  -23209   -23250   -23232   -23180   -23141   -23124   -23097   -23049 
  -22994   -22950   -22930   -22961   -23087   -23324   -23641   -23986 
  -24301   -24527   -24606   -24534   -24362   -24163   -23994   -23882 
  -23836   -23866   -23971   -24122   -24260   -24371   -24485   -24591 
  -24650   -24669   -24680   -24678   -24654   -24604   -24472   -24175 
  -23731   -23253   -22794   -22336   -21926   -21655   -21521   -21473 
  -21512   -21631   -21762   -21832   -21827   -21785   -21755   -21770 
  -21849   -21966   -22062   -22113   -22122   -22098   -22060   -22002 
  -21899   -21751   -21553   -21320   -21082   -20866   -20704   -20624 
  -20610   -20623   -20647   -20683   -20726   -20801   -20929   -21095 
  -21281   -21464   -21639   -21822   -22023   -22220   -22369   -22454 
  -22476   -22407   -22252   -22074   -21922   -21804   -21722   -21685 
  -21640   -21515   -21326   -21123   -20906   -20690   -20519   -20403 
  -20334   -20326   -20382   -20468   -20552   -20616   -20641   -20603 
  -20519   -20424   -20308   -20146   -19961   -19802   -19655   -19496 
  -19375   -19333   -19347   -19422   -19592   -19832   -20074   -20308 
  -20567   -20844   -21103   -21319   -21484   -21582   -21614   -21619 
  -21642   -21683   -21745   -21854   -22018   -22213   -22394   -22533 
  -22644   -22761   -22908   -23100   -23347   -23621   -23863   -24052 
  -24233   -24453   -24727   -25051   -25399   -25727   -26038   -26359 
  -26682   -26984   -27278   -27577   -27837   -28007   -28110   -28185 
  -28227   -28209   -28156   -28133   -28179   -28273   -28381   -28462 
  -28480   -28436   -28355   -28235   -28069   -27891   -27739   -27608 
  -27494   -27430   -27404   -27357   -27267   -27124   -26899   -26614 
  -26334   -26083   -25840   -25583   -25303   -25006   -24714   -24443 
  -24186   -23915   -23618   -23339   -23130   -22991   -22905   -22873 
  -22890   -22914   -22896   -22818   -22660   -22396   -22047   -21672 
  -21288   -20877   -20442   -20024   -19669   -19394   -19196   -19039 
  -18875   -18712   -18594   -18556   -18615   -18762   -18987   -19273 
  -19572   -19843   -20058   -20186   -20217   -20191   -20162   -20151 
  -20168   -20234   -20349   -20507   -20696   -20889   -21060   -21174 
  -21212   -21236   -21319   -21454   -21628   -21854   -22120   -22418 
  -22752   -23104   -23434   -23714   -23954   -24186   -24422   -24655 
  -24890   -25132   -25365   -25593   -25834   -26066   -26247   -26397 
  -26550   -26675   -26743   -26779   -26800   -26801   -26801   -26852 
  -26975   -27132   -27270   -27383   -27509   -27684   -27927   -28227 
  -28537   -28796   -28945   -28958   -28865   -28709   -28499   -28246 
  -27976   -27734   -27564   -27446   -27340   -27257   -27209   -27175 
  -27133   -27045   -26879   -26639   -26344   -26044   -25816   -25676 
  -25577   -25489   -25410   -25339   -25281   -25241   -25238   -25284 
  -25346   -25396   -25435   -25454   -25447   -25434   -25408   -25342 
  -25245   -25144   -25044   -24926   -24767   -24547   -24253   -23910 
  -23574   -23277   -23014   -22796   -22656   -22584   -22537   -22504 
  -22485   -22482   -22510   -22576   -22646   -22669   -22654   -22661 
  -22701   -22729   -22719   -22662   -22540   -22368   -22188   -22022 
  -21871   -21754   -21722   -21785   -21896   -22019   -22160   -22339 
  -22541   -22715   -22831   -22902   -22949   -22986   -23014   -23034 
  -23047   -23034   -22992   -22932   -22839   -22708   -22569   -22458 
  -22397   -22417   -22522   -22664   -22813   -22980   -23159   -23305 
  -23416   -23553   -23742   -23931   -24082   -24216   -24319   -24339 
  -24295   -24237   -24155   -24037   -23945   -23951   -24062   -24255 
  -24526   -24867   -25223   -25561   -25925   -26343   -26786   -27235 
  -27670   -28024   -28261   -28406   -28470   -28456   -28410   -28378 
  -28343   -28276   -28197   -28120   -27992   -27792   -27585   -27411 
  -27262   -27156   -27132   -27196   -27328   -27508   -27707   -27894 
  -28042   -28145   -28238   -28352   -28495   -28688   -28940   -29227 
  -29504   -29740   -29914   -30004   -29999   -29924   -29808   -29663 
  -29494   -29318   -29158   -29049   -29011   -29027   -29074   -29126 
  -29182   -29268   -29373   -29458   -29525   -29575   -29580   -29519 
  -29439   -29393   -29342   -29242   -29121   -29011   -28884   -28718 
  -28558   -28443   -28356   -28317   -28365   -28470   -28574   -28651 
  -28691   -28670   -28604   -28564   -28560   -28541   -28512   -28523 
  -28568   -28604   -28618   -28605   -28536   -28382   -28146   -27857 
  -27535   -27212   -26945   -26766   -26688   -26707   -26783   -26853 
  -26857   -26769   -26602   -26359   -26048   -25714   -25426   -25208 
  -25053   -24948   -24868   -24779   -24640   -24419   -24129   -23818 
  -23529   -23300   -23154   -23071   -23020   -22979   -22914   -22790 
  -22601   -22374   -22140   -21921   -21734   -21610   -21538   -21464 
  -21359   -21232   -21076   -20879   -20669   -20504   -20409   -20385 
  -20429   -20528   -20647   -20734   -20764   -20719   -20585   -20395 
  -20203   -20037   -19920   -19871   -19867   -19853   -19793   -19693 
  -19565   -19413   -19256   -19095   -18928   -18799   -18760   -18803 
  -18874   -18920   -18897   -18779   -18575   -18332   -18091   -17857 
  -17648   -17519   -17485   -17503   -17554   -17645   -17781   -17943 
  -18091   -18200   -18281   -18359   -18469   -18640   -18884   -19196 
  -19549   -19896   -20196   -20416   -20520   -20500   -20407   -20312 
  -20295   -20434   -20734   -21120   -21528   -21909   -22182   -22287 
  -22256   -22171   -22082   -22014   -22015   -22106   -22224   -22319 
  -22397   -22446   -22436   -22381   -22315   -22244   -22190   -22219 
  -22363   -22589   -22882   -23258   -23690   -24093   -24404   -24630 
  -24771   -24795   -24713   -24585   -24479   -24455   -24531   -24673 
  -24836   -24987   -25094   -25135   -25125   -25095   -25052   -24974 
  -24874   -24797   -24754   -24697   -24579   -24402   -24166   -23854 
  -23459   -22997   -22520   -22111   -21850   -21756   -21779   -21862 
  -21974   -22088   -22151   -22130   -22039   -21894   -21733   -21626 
  -21609   -21689   -21841   -21998   -22119   -22170   -22080   -21833 
  -21499   -21165   -20872   -20616   -20402   -20250   -20153   -20087 
  -20049   -20034   -20030   -20062   -20154   -20276   -20411   -20590 
  -20807   -21006   -21179   -21338   -21447   -21476   -21486   -21512 
  -21513   -21484   -21470   -21470   -21463   -21468   -21504   -21562 
  -21624   -21680   -21751   -21832   -21903   -21999   -22142   -22292 
  -22423   -22536   -22640   -22747   -22843   -22911   -22970   -23035 
  -23106   -23199   -23307   -23387   -23419   -23419   -23412   -23388 
  -23309   -23169   -22982   -22763   -22527   -22314   -22169   -22099 
  -22124   -22271   -22500   -22737   -22947   -23136   -23324   -23509 
  -23664   -23772   -23846   -23933   -24080   -24306   -24589   -24905 
  -25234   -25533   -25738   -25797   -25696   -25444   -25102   -24755 
  -24430   -24114   -23837   -23641   -23507   -23373   -23197   -22967 
  -22683   -22384   -22148   -22006   -21940   -21947   -22025   -22119 
  -22177   -22175   -22094   -21925   -21705   -21504   -21382   -21366 
  -21463   -21672   -21966   -22291   -22602   -22853   -22997   -23035 
  -23008   -22968   -22966   -23028   -23158   -23340   -23517   -23634 
  -23685   -23690   -23659   -23605   -23559   -23550   -23571   -23614 
  -23704   -23840   -23966   -24020   -23986   -23903   -23834   -23824 
  -23896   -24041   -24225   -24418   -24602   -24747   -24819   -24830 
  -24822   -24796   -24737   -24656   -24578   -24510   -24437   -24355 
  -24255   -24105   -23914   -23731   -23574   -23450   -23386   -23378 
  -23372   -23355   -23381   -23468   -23585   -23719   -23887   -24077 
  -24248   -24401   -24567   -24741   -24919   -25128   -25380   -25630 
  -25814   -25895   -25864   -25725   -25501   -25259   -25059   -24908 
  -24781   -24677   -24617   -24609   -24628   -24644   -24665   -24716 
  -24788   -24859   -24926   -24987   -25047   -25114   -25172   -25200 
  -25223   -25293   -25407   -25517   -25597   -25623   -25578   -25477 
  -25354   -25205   -24998   -24748   -24495   -24244   -23982   -23708 
  -23414   -23076   -22715   -22390   -22109   -21838   -21601   -21437 
  -21329   -21257   -21229   -21234   -21252   -21278   -21325   -21411 
  -21520   -21625   -21728   -21851   -22017   -22259   -22578   -22911 
  -23188   -23412   -23584   -23668   -23673   -23637   -23574   -23486 
  -23398   -23344   -23315   -23273   -23223   -23203   -23207   -23207 
  -23230   -23333   -23524   -23776   -24081   -24427   -24763   -25010 
  -25116   -25077   -24903   -24612   -24233   -23799   -23355   -22985 
  -22781   -22753   -22833   -22943   -23030   -23053   -23007   -22916 
  -22821   -22763   -22763   -22856   -23056   -23313   -23552   -23740 
  -23858   -23888   -23847   -23796   -23782   -23813   -23913   -24121 
  -24419   -24752   -25116   -25495   -25807   -26007   -26141   -26233 
  -26251   -26208   -26163   -26135   -26111   -26103   -26116   -26108 
  -26050   -25966   -25879   -25773   -25632   -25476   -25336   -25227 
  -25167   -25150   -25111   -24986   -24776   -24531   -24289   -24068 
  -23902   -23825   -23830   -23902   -24037   -24190   -24274   -24250 
  -24153   -24012   -23841   -23665   -23522   -23460   -23502   -23652 
  -23895   -24187   -24486   -24772   -25041   -25276   -25457   -25592 
  -25707   -25849   -26058   -26344   -26691   -27054   -27375   -27625 
  -27814   -27951   -28057   -28155   -28258   -28382   -28559   -28799 
  -29071   -29323   -29519   -29644   -29658   -29554   -29398   -29251 
  -29151   -29135   -29213   -29326   -29406   -29444   -29466   -29432 
  -29286   -29054   -28804   -28550   -28289   -28064   -27898   -27761 
  -27646   -27554   -27440   -27252   -26992   -26693   -26379   -26080 
  -25833   -25647   -25515   -25453   -25470   -25565   -25726   -25903 
  -26023   -26039   -25972   -25868   -25785   -25773   -25850   -25990 
  -26142   -26265   -26369   -26468   -26536   -26555   -26558   -26595 
  -26686   -26830   -27018   -27214   -27370   -27457   -27487   -27485 
  -27458   -27418   -27404   -27453   -27575   -27758   -27987   -28233 
  -28443   -28587   -28685   -28739   -28713   -28618   -28507   -28394 
  -28252   -28071   -27872   -27641   -27358   -27084   -26878   -26716 
  -26572   -26469   -26421   -26407   -26410   -26426   -26425   -26381 
  -26326   -26304   -26316   -26341   -26390   -26458   -26509   -26536 
  -26547   -26521   -26449   -26359   -26288   -26232   -26159   -26060 
  -25950   -25826   -25682   -25535   -25389   -25216   -25020   -24851 
  -24755   -24737   -24768   -24822   -24891   -24981   -25080   -25166 
  -25244   -25348   -25482   -25616   -25724   -25778   -25759   -25680 
  -25566   -25427   -25273   -25123   -25006   -24938   -24931   -24992 
  -25110   -25268   -25462   -25701   -25967   -26230   -26470   -26663 
  -26794   -26875   -26908   -26876   -26786   -26687   -26607   -26508 
  -26363   -26203   -26048   -25863   -25632   -25414   -25244   -25085 
  -24934   -24801   -24625   -24354   -24032   -23727   -23442   -23158 
  -22888   -22649   -22442   -22282   -22174   -22082   -21983   -21892 
  -21804   -21694   -21564   -21447   -21352   -21258   -21174   -21129 
  -21119   -21127   -21159   -21237   -21346   -21442   -21504   -21538 
  -21553   -21537   -21489   -21437   -21400   -21368   -21351   -21380 
  -21451   -21511   -21548   -21619   -21737   -21867   -22000   -22131 
  -22245   -22334   -22428   -22547   -22655   -22711   -22726   -22710 
  -22652   -22566   -22484   -22398   -22302   -22250   -22273   -22326 
  -22354   -22338   -22265   -22129   -22007   -21984   -22066   -22232 
  -22480   -22789   -23098   -23365   -23597   -23786   -23902   -23956 
  -23990   -24008   -23974   -23884   -23752   -23571   -23328   -23027 
  -22692   -22342   -21988   -21627   -21245   -20829   -20375   -19911 
  -19481   -19092   -18732   -18399   -18099   -17833   -17580   -17319 
  -17066   -16842   -16647   -16476   -16342   -16254   -16211   -16211 
  -16234   -16261   -16285   -16296   -16282   -16240   -16194   -16157 
  -16091   -15988   -15898   -15837   -15779   -15724   -15690   -15650 
  -15596   -15575   -15616   -15706   -15829   -16001   -16225   -16456 
  -16673   -16896   -17118   -17290   -17399   -17450   -17419   -17337 
  -17302   -17372   -17523   -17707   -17910   -18097   -18227   -18320 
  -18427   -18578   -18788   -19060   -19388   -19751   -20120   -20477 
  -20811   -21104   -21349   -21556   -21728   -21855   -21955   -22056 
  -22151   -22222   -22280   -22339   -22405   -22500   -22627   -22750 
  -22849   -22923   -22976   -23028   -23105   -23205   -23324   -23456 
  -23583   -23680   -23737   -23756   -23742   -23707   -23674   -23648 
  -23584   -23467   -23340   -23212   -23047   -22872   -22744   -22658 
  -22590   -22537   -22497   -22455   -22410   -22391   -22411   -22448 
  -22482   -22529   -22617   -22764   -22992   -23306   -23664   -23997 
  -24271   -24483   -24621   -24679   -24685   -24665   -24625   -24595 
  -24602   -24610   -24575   -24491   -24374   -24218   -24002   -23739 
  -23455   -23155   -22860   -22619   -22461   -22372   -22324   -22298 
  -22277   -22248   -22209   -22170   -22153   -22203   -22337   -22543 
  -22801   -23071   -23317   -23504   -23599   -23608   -23575   -23541 
  -23524   -23542   -23618   -23756   -23924   -24092   -24255   -24397 
  -24500   -24585   -24711   -24904   -25133   -25391   -25710   -26110 
  -26572   -27076   -27588   -28047   -28408   -28693   -28945   -29171 
  -29368   -29539   -29672   -29733   -29730   -29702   -29641   -29515 
  -29327   -29097   -28852   -28639   -28496   -28420   -28382   -28379 
  -28440   -28566   -28725   -28889   -29013   -29051   -29015   -28971 
  -28946   -28913   -28867   -28835   -28822   -28814   -28813   -28823 
  -28821   -28785   -28717   -28618   -28475   -28282   -28047   -27783 
  -27526   -27308   -27124   -26948   -26755   -26529   -26273   -26011 
  -25762   -25523   -25292   -25098   -24953   -24826   -24680   -24492 
  -24264   -24036   -23836   -23627   -23378   -23104   -22834   -22594 
  -22415   -22310   -22238   -22147   -22043   -21940   -21814   -21643 
  -21449   -21268   -21122   -21017   -20969   -20986   -21038   -21116 
  -21249   -21438   -21627   -21784   -21958   -22178   -22402   -22594 
  -22753   -22875   -22933   -22921   -22867   -22783   -22667   -22557 
  -22527   -22610   -22781   -22998   -23234   -23471   -23691   -23862 
  -23965   -24017   -24054   -24104   -24169   -24220   -24254   -24273 
  -24260   -24230   -24206   -24157   -24048   -23882   -23673   -23443 
  -23215   -23001   -22838   -22739   -22657   -22585   -22557   -22578 
  -22632   -22735   -22918   -23170   -23427   -23654   -23881   -24129 
  -24379   -24622   -24864   -25086   -25268   -25448   -25661   -25879 
  -26086   -26301   -26519   -26745   -26993   -27214   -27334   -27322 
  -27191   -26959   -26649   -26325   -26055   -25842   -25659   -25517 
  -25416   -25302   -25132   -24943   -24797   -24716   -24706   -24767 
  -24840   -24863   -24831   -24761   -24667   -24562   -24462   -24375 
  -24310   -24286   -24311   -24359   -24398   -24407   -24375   -24296 
  -24166   -23978   -23735   -23476   -23235   -23013   -22810   -22624 
  -22436   -22247   -22091   -21981   -21913   -21904   -21953   -22032 
  -22109   -22168   -22215   -22240   -22232   -22209   -22180   -22134 
  -22071   -22015   -21966   -21895   -21773   -21615   -21431   -21205 
  -20959   -20756   -20616   -20519   -20482   -20508   -20562   -20633 
  -20724   -20811   -20884   -20963   -21071   -21190   -21296   -21421 
  -21586   -21753   -21904   -22057   -22214   -22338   -22380   -22345 
  -22271   -22157   -22033   -21961   -21954   -22016   -22166   -22374 
  -22571   -22699   -22755   -22771   -22760   -22736   -22738   -22785 
  -22878   -23027   -23239   -23495   -23776   -24073   -24370   -24647 
  -24900   -25143   -25381   -25591   -25778   -25957   -26115   -26225 
  -26271   -26246   -26160   -26025   -25858   -25690   -25543   -25420 
  -25315   -25238   -25181   -25098   -24975   -24864   -24798   -24756 
  -24717   -24684   -24652   -24594   -24504   -24377   -24174   -23883 
  -23539   -23167   -22787   -22444   -22173   -21946   -21736   -21585 
  -21507   -21460   -21451   -21510   -21559   -21507   -21382   -21249 
  -21073   -20805   -20499   -20223   -19953   -19679   -19458   -19308 
  -19161   -18960   -18745   -18584   -18490   -18466   -18524   -18668 
  -18875   -19106   -19341   -19586   -19825   -20021   -20170   -20302 
  -20439   -20582   -20745   -20950   -21168   -21335   -21403   -21386 
  -21357   -21351   -21350   -21332   -21290   -21246   -21241   -21282 
  -21366   -21504   -21687   -21886   -22113   -22385   -22652   -22869 
  -23069   -23286   -23476   -23588   -23651   -23704   -23705   -23640 
  -23572   -23518   -23433   -23308   -23169   -22989   -22732   -22426 
  -22103   -21755   -21391   -21051   -20753   -20513   -20372   -20336 
  -20368   -20434   -20513   -20598   -20673   -20722   -20766   -20842 
  -20965   -21161   -21456   -21806   -22150   -22462   -22723   -22898 
  -22976   -22998   -23019   -23062   -23132   -23270   -23505   -23803 
  -24111   -24385   -24579   -24689   -24761   -24830   -24909   -25003 
  -25092   -25152   -25210   -25305   -25432   -25552   -25648   -25726 
  -25791   -25860   -25948   -26022   -26052   -26045   -25996   -25894 
  -25773   -25671   -25565   -25416   -25240   -25072   -24873   -24609 
  -24334   -24096   -23882   -23700   -23584   -23520   -23459   -23393 
  -23339   -23293   -23257   -23267   -23321   -23360   -23374   -23414 
  -23496   -23608   -23790   -24050   -24306   -24503   -24651   -24729 
  -24705   -24604   -24489   -24401   -24339   -24324   -24368   -24389 
  -24321   -24217   -24133   -24056   -23977   -23914   -23869   -23827 
  -23805   -23828   -23877   -23921   -23969   -24047   -24157   -24284 
  -24389   -24427   -24388   -24280   -24110   -23920   -23768   -23661 
