Origin Time       2011/03/11 14:46:00
Lat.              38.103
Long.             142.860
Depth. (km)       24
Mag.              9.0
Station Code      HKD081
Station Lat.      43.6427
Station Long.     144.3901
Station Height(m) 130
Record Time       2011/03/11 14:48:17
Sampling Freq(Hz) 100Hz
Duration Time(s)  300
Dir.              U-D
Scale Factor      3920(gal)/6182761
Max. Acc. (gal)   5.043
Last Correction   2011/03/11 14:48:02
Memo.             
[...]
    1672      996      263     -102      177      647      870      892 
     800      367     -533    -1654    -2725    -3386    -3172    -2197 
   -1029       35      856     1337     1552     1511     1187      754 
     469      511      965     1797     2805     3613     3899     3679 
    3248     2995     3127     3436     3673     3963     4526     5029 
    4769     3740     2686     2210     2459     3114     3636     3814 
    3705     3342     2891     2609     2499     2385     2184     1813 
    1144      297     -289     -334       46      709     1601     2553 
    3392     4010     4221     3931     3339     2661     2042     1824 
    2186     2624     2501     1774      915      352       44     -139 
     -82       56     -113     -506     -793     -876     -759     -634 
    -899    -1578    -2222    -2468    -2227    -1562     -649      218 
     625      402      -56     -290     -315     -244      120      905 
    1760     2210     2180     1905     1625     1479     1529     1780 
    2011     1856     1222      249     -972    -2245    -3234    -3808 
   -4014    -3795    -3238    -2683    -2298    -2131    -2337    -2863 
   -3456    -3941    -4151    -3972    -3480    -2875    -2375    -2040 
   -1822    -1761    -1800    -1723    -1526    -1387    -1342    -1261 
    -997     -593     -310     -375     -777    -1281    -1639    -1737 
   -1492     -892      -96      727     1487     2121     2553     2608 
    2146     1427      857      510      321      352      677     1313 
    2130     2763     2901     2687     2637     3095     3809     4266 
    4389     4461     4517     4362     4076     4034     4399     4848 
    4995     4856     4676     4585     4560     4553     4622     4828 
    5057     5112     4951     4672     4282     3813     3624     4004 
    4643     5015     4937     4557     4192     4188     4615     5188 
    5559     5609     5504     5441     5458     5520     5501     5190 
    4531     3743     3173     2984     2948     2826     2788     3136 
    3858     4584     4845     4443     3551     2479     1579     1206 
    1428     1855     2059     1959     1670     1349     1218     1406 
    1791     2305     3154     4282     5054     4956     4172     3298 
    2783     2765     3170     3730     4194     4607     5079     5473 
    5584     5333     4678     3698     2729     1998     1371      787 
     489      612      921     1066      938      633      242     -147 
    -467     -685     -745     -669     -617     -736     -999    -1157 
    -986     -548      -47      431      841     1061     1104     1186 
    1376     1461     1313     1065      846      690      640      709 
     821      867      820      770      757      713      591      385 
     166      112      294      535      590      405       75     -344 
    -738     -845     -610     -395     -503     -881    -1384    -1829 
   -1872    -1331     -553      -63        7     -175     -494     -879 
   -1170    -1127     -649       83      768     1165     1240     1173 
    1038      801      653      876     1480     2154     2459     2179 
    1564      986      529      179      120      430      802      854 
     404     -582    -1963    -3410    -4557    -5079    -4753    -3656 
   -2295    -1352    -1139    -1366    -1627    -1770    -1636     -992 
     122     1329     2182     2399     1946     1000       68     -173 
     471     1567     2534     2953     2697     1981     1219      776 
     812     1309     2042     2620     2708     2260     1660     1387 
    1568     2007     2316     2099     1386      641      251      256 
     506      891     1375     1866     2210     2284     2059     1662 
    1270      994     1003     1491     2420     3396     3912     3839 
    3448     3097     3171     3830     4747     5395     5315     4374 
    2987     1720      867      538      734     1147     1352     1388 
    1552     1800     1916     1865     1750     1588     1262      697 
    -119     -975    -1347    -1038     -437        0       56     -311 
   -1014    -1737    -2020    -1727    -1180     -699     -200      474 
    1042     1157      876      436       87       61      385      839 
    1182     1386     1609     2122     3161     4516     5532     5758 
    5316     4572     3732     2922     2313     2014     2107     2643 
    3475     4292     4814     4814     4163     3058     2095     1886 
    2670     4214     5886     6952     6927     5727     3769     1866 
     731      564     1083     1947     2976     3883     4291     4115 
    3531     2793     2146     1708     1445     1316     1355     1583 
    1912     2204     2310     2046     1469     1139     1539     2421 
    3155     3382     3211     3007     2944     2950     3028     3190 
    3286     3249     3259     3468     3741     3845     3657     3182 
    2536     1860     1292     1019     1148     1608     2179     2535 
    2382     1722      903      336      259      731     1618     2594 
    3328     3626     3394     2843     2398     2144     1909     1756 
    1967     2617     3368     3817     3840     3510     3049     2698 
    2475     2320     2335     2558     2760     2734     2561     2396 
    2271     2164     2025     1857     1808     1946     2092     2043 
    1726     1167      583      386      823     1777     2918     3886 
    4400     4280     3523     2421     1337      446     -134     -235 
     149      732     1171     1358     1350     1178      916      703 
     615      798     1443     2360     3167     3786     4210     4246 
    3826     3109     2237     1351      615       43     -378     -462 
    -107      394      619      426      -67     -633    -1021    -1157 
   -1108     -851     -356      268      772      925      692      160 
    -490     -954    -1030     -676       24      806     1308     1343 
    1030      520      -79     -387       37     1085     2201     3005 
    3512     3772     3708     3287     2545     1607      741      199 
      79      271      433      217     -401    -1149    -1723    -1838 
   -1339     -533        1      147      349      949     1774     2371 
    2548     2467     2304     2161     2167     2328     2432     2272 
    1814     1127      423      -48     -274     -398     -473     -422 
    -172      201      576      847      824      377     -389    -1239 
   -1939    -2347    -2476    -2436    -2318    -2058    -1565    -1015 
    -730     -789     -929     -848     -418      446     1747     3164 
    4176     4420     3863     2714     1248     -239    -1344    -1664 
   -1074      130     1338     2003     1990     1499      714     -294 
   -1411    -2361    -2839    -2749    -2234    -1470     -574      208 
     415     -158    -1007    -1362     -923       32     1091     2085 
    2953     3523     3667     3443     3144     3152     3514     3947 
    4189     4085     3644     3064     2617     2604     3040     3468 
    3474     3126     2759     2611     2633     2610     2479     2414 
    2567     2940     3505     4159     4621     4556     3860     2833 
    1796      787     -171     -959    -1376    -1248     -790     -438 
    -343     -340     -270     -246     -455     -783    -1011    -1038 
    -852     -556     -241      107      447      621      550      343 
     142       69      314     1006     2004     2940     3436     3372 
    3083     3034     3315     3731     4123     4415     4560     4421 
    3915     3340     3113     3330     3849     4388     4501     3860 
    2604     1251      297      -35      260     1044     2063     2971 
    3411     3252     2709     2063     1469     1199     1538     2249 
    2725     2612     1905      808     -303    -1025    -1130     -642 
     239     1159     1664     1582     1131      582      188      116 
     197       94     -299     -791    -1152    -1376    -1676    -2229 
   -2909    -3336    -3237    -2595    -1588     -530      301      816 
    1073     1153     1137     1108     1054      831      348     -323 
    -983    -1373    -1335     -842       67     1118     1818     1955 
    1791     1650     1677     1945     2450     3036     3478     3528 
    2983     1908      686     -267     -804    -1040    -1131    -1073 
    -757     -319      -71      -33       10      130      213       91 
    -325     -949    -1506    -1644    -1229     -468      302      766 
     710      149     -658    -1353    -1631    -1311     -496      368 
     893     1063      979      704      436      438      743     1117 
    1312     1181      729      140     -410     -847    -1011     -783 
    -395     -293     -711    -1568    -2590    -3336    -3345    -2531 
   -1269       27     1127     1861     2209     2349     2404     2328 
    2115     1927     1838     1684     1371     1028      849     1012 
    1526     2121     2486     2506     2256     1938     1821     2110 
    2722     3262     3386     3061     2398     1566      962     1036 
    1868     3100     4166     4645     4505     3972     3374     2961 
    2668     2337     2059     1953     1953     1954     1926     1944 
    2065     2251     2537     3056     3774     4367     4501     4171 
    3617     2996     2372     1882     1669     1717     1885     1951 
    1754     1387      994      540       26     -347     -270      463 
    1706     2988     3815     3979     3616     3034     2529     2259 
    2157     2066     1925     1780     1673     1485     1015      228 
    -672    -1378    -1604    -1277     -730     -482     -744    -1269 
   -1718    -2071    -2504    -3098    -3842    -4626    -5198    -5383 
   -5207    -4781    -4272    -3920    -3864    -3921    -3744    -3187 
   -2317    -1245      -96      966     1738     2108     2215     2274 
    2387     2568     2734     2783     2667     2301     1635      753 
    -141     -773     -967     -683       35      964     1792     2287 
    2323     1932     1373      914      546      147     -158     -156 
       3      -11     -222     -386     -427     -492     -674     -946 
   -1192    -1236     -961     -261      913     2243     3124     3184 
    2570     1766     1182      938      894      794      514      222 
     125      167      233      407      801     1367     2041     2699 
    2966     2523     1591      829      779     1426     2295     2998 
    3482     3846     4137     4274     4069     3496     2908     2698 
    2904     3377     4043     4787     5403     5763     5933     6081 
    6328     6666     6950     7036     6922     6607     6107     5660 
    5544     5686     5799     5887     6112     6306     6185     5759 
    5232     4827     4680     4690     4779     5105     5586     5782 
    5446     4691     3757     2848     2145     1915     2326     3169 
    3962     4167     3662     3069     2968     3280     3614     3608 
    3082     2031      632     -618    -1247    -1241     -909     -618 
    -627     -938    -1218    -1145    -1018    -1328    -2002    -2783 
   -3478    -3767    -3441    -2715    -2139    -1983    -1991    -1910 
   -1754    -1697    -1821    -1932    -1848    -1562    -1081     -356 
     583     1397     1704     1712     1919     2293     2560     2814 
    3134     3302     3171     2765     2192     1637     1175      808 
     636      671      808      891      756      597      796     1346 
    1908     2058     1585      629     -558    -1565    -2026    -2014 
   -1711    -1274    -1067    -1222    -1499    -1617    -1344     -926 
    -703     -226      789     1723     2088     1990     1616     1017 
     179     -835    -1698    -2099    -2120    -1841    -1129       -7 
    1107     1591     1322      747      348      375      591      751 
     886      578     -541    -1923    -2823    -3216    -3401    -3082 
   -2164    -1477    -1076     -409     -642    -2826    -4908    -5050 
   -4994    -5906    -5930    -4405    -3090    -3102    -3635    -3318 
   -2414    -2160    -1956     -648      924     2189     3751     4705 
    3880     2183      997      813     1250     1596     1774     1980 
    2236     2531     2528     2334     2721     3659     4332     4278 
    3892     3842     3825     3239     2016      713      767     1595 
     980      -15      471     1611     2227     2184     2377     3137 
    3190     2349     1850     1544      668       72      664     1911 
    2792     2639     1490       41     -827     -956     -595      172 
     397      -17      574     1863     1627     -543    -1993     -385 
    2064     2205     1844     3989     6457     5642     3536     3919 
    5634     5646     4614     5261     7166     7718     6601     4905 
    4305     6064     7421     6377     5757     6763     7304     5364 
    1959     1740     4503     5339     4552     4110     3966     4550 
    4465     2846     1954     2981     4798     5955     6058     5571 
    5186     5119     3996     2269     2786     4443     4441     3929 
    4736     6178     6270     5053     4700     5069     4728     3961 
    3384     3512     4320     4623     3983     3617     4261     4690 
    3808     3085     4040     4890     4424     4526     5250     5136 
    4427     3360     2532     2355     1727     1090     1016      276 
    -523       11     1011     1093      579      735     1161      927 
    1209     2899     4431     4108     2568     1887     2488     2712 
    2139     2044     1985      922      268      712      358    -1254 
   -2537    -3322    -4882    -6608    -6457    -5060    -4060    -2688 
   -1400    -2172    -3607    -3652    -3396    -3680    -3414    -2173 
   -1373    -2142    -3036    -2371    -1478    -2119    -3050    -2334 
    -752     -555    -1964    -3148    -3019    -2042    -1115     -446 
    -300    -1373    -2569    -2505    -1987    -1445     -343      869 
    1330     1268     1759     2352     1863     1826     3960     6333 
    6479     4603     2207      748      749     1302     1174     -157 
   -1944    -2993    -3221    -2700    -1105      751     1817     2467 
    2968     2591     1362      338       48      375     1552     3268 
    3689     2596     2354     2818     1982      796      399      351 
     966     1517      865      418     1357     2342     1968      744 
    -133     -259      147      340       -4      117     1098     1616 
     620    -1197    -2093    -1323     -163      108       24      764 
    2485     4047     4239     3361     2748     3075     3936     4562 
    4680     4618     4352     3738     3297     3055     2421     1622 
    1205     1309     1828     2141     1881     2046     3277     3885 
    2501      604     -188     -257     -291      184     1607     2502 
    1703      942     1649     2655     2467     1182      291      355 
     351      142      557     1711     2872     3064     2410     2281 
    3098     3583     2976     2212     2195     2765     3271     2898 
    1446     -113     -278     1176     2196     1516      337     -428 
    -618     -195       64     -124     -337     -739    -1361    -1697 
   -1576    -1685    -2599    -3391    -3126    -2441    -2109    -2228 
   -2637    -2877    -2735    -2285    -1284      -28      567      524 
     611      986     1225     1141      996      918      875      850 
     458     -435    -1142    -1131     -443      587     1290     1175 
     761      815      795      164      159     1980     4783     6600 
    6551     5447     4260     3141     1987     1214     1319     1829 
    2107     2719     4264     5670     5499     4244     3272     2986 
    3553     4704     5233     4688     3770     3054     2649     2603 
    2972     3317     3170     2935     3116     3544     3683     3248 
    2700     2548     2661     2904     3372     3960     4348     4120 
    3223     2296     1820     1621     1493     1340     1029      475 
    -153     -374      -32      354      251     -137     -306     -432 
    -523      105     1100     1227      591      531     1295     1647 
    1202      879      925     1080     1790     3071     3640     2930 
    2302     2592     2491     1130     -141     -154      495     1163 
    1934     2471     2243     1575     1248     1500     1920     2234 
    2574     2770     2555     2357     2555     2625     2124     1616 
    1799     2538     3281     3643     3546     3514     4095     4894 
    5116     4659     4141     4039     4065     4004     4323     5021 
    5270     4722     3847     3104     2510     1984     1804     2116 
    2396     2121     1443      954     1058     1505     1729     1575 
    1274     1064     1102     1461     1966     2026     1150     -217 
   -1173    -1586    -1859    -1924    -1605    -1143     -586      190 
     903     1266     1411     1499     1568     1802     2421     3124 
    3193     2475     1662     1353     1439     1493     1353     1248 
    1393     1453      862     -373    -1669    -2420    -2453    -2067 
   -1575    -1149     -830     -468      -93      119      337      642 
     724      663      979     1581     1686      944     -118     -781 
    -775     -141     1056     2430     3159     2680     1316      -45 
    -765     -881     -922    -1304    -1863    -2270    -2594    -3036 
   -3510    -3804    -3820    -3644    -3548    -3632    -3603    -3226 
   -2666    -2309    -2340    -2597    -2919    -3288    -3689    -4099 
   -4381    -4304    -3884    -3364    -2844    -2279    -1716    -1174 
    -496      365     1069     1181      806      426      105     -535 
   -1679    -2963    -3699    -3597    -2991    -2305    -1676    -1018 
    -390     -159     -598    -1508    -2268    -2335    -1781     -978 
     -42      970     1797     2261     2474     2507     2290     2055 
    2196     2690     3197     3447     3338     2857     2053     1236 
     925     1439     2639     3812     4140     3612     2975     2885 
    3365     3883     4029     3930     3844     3895     4139     4397 
    4375     4136     3914     3648     3253     2928     2897     3251 
    4016     5009     5813     6125     6060     6000     6065     5992 
    5617     5137     4942     5231     5802     6307     6522     6516 
    6702     7299     7987     8362     8180     7342     6059     4848 
    4250     4376     4824     5208     5299     4889     4029     3011 
    2062     1301      804      682     1006     1637     2256     2507 
    2214     1555      823      104     -569     -970     -908     -544 
    -178      179      712     1377     1889     2118     2272     2485 
    2426     1723      451    -1017    -2284    -3005    -3008    -2523 
   -2022    -1672    -1368    -1200    -1290    -1498    -1627    -1672 
   -1741    -1860    -1976    -2029    -1961    -1707    -1246     -724 
    -371     -204     -121     -228     -708    -1497    -2333    -2937 
   -3070    -2705    -2148    -1741    -1581    -1711    -2106    -2398 
   -2212    -1688    -1239    -1084    -1184    -1449    -1848    -2350 
   -2845    -3117    -2968    -2428    -1682     -925     -376     -183 
    -343     -765    -1215    -1404    -1267     -942     -537      -52 
     499      989     1271     1336     1354     1550     1947     2400 
    2891     3440     3827     3828     3611     3391     2926     1970 
     871      161      -55      -71     -152     -257     -197       58 
