Origin Time       2011/03/11 14:46:00
Lat.              38.103
Long.             142.860
Depth. (km)       24
Mag.              9.0
Station Code      HKD078
Station Lat.      43.1488
Station Long.     144.4976
Station Height(m) 25
Record Time       2011/03/11 14:47:57
Sampling Freq(Hz) 100Hz
Duration Time(s)  300
Dir.              N-S
Scale Factor      3920(gal)/6182761
Max. Acc. (gal)   19.295
Last Correction   2011/03/11 14:47:42
Memo.             
[...]
   12173    13151    13218    12163    10651     9660     9377     9403 
    9517     9956    11014    12270    12994    12908    12309    12140 
   12792    13424    13684    13985    14085    13671    13342    13560 
   13953    14177    14237    14055    13543    12931    12838    13876 
   16068    18498    19784    19308    17410    14648    11887    10262 
   10116    10582    10891    11399    12656    14586    16620    18009 
   18579    18597    18060    17182    16076    14239    12111    11075 
   11028    10738    10380    10781    11418    11862    12908    14524 
   15595    15887    15814    15413    14948    14931    15023    14348 
   13096    12398    12555    13019    13922    15599    17159    17524 
   17000    16374    15685    14652    13355    12188    11290    10503 
    9965     9617     8891     7955     7664     8012     8201     7931 
    7342     6560     6078     6446     7486     8445     9001     9752 
   11077    12494    13471    13819    13752    13909    14841    16455 
   18188    19552    20013    19356    18434    18111    17859    16410 
   13537    10388     8076     6986     6967     7350     7447     7117 
    6616     6288     6472     7186     7834     8072     8597    10058 
   11957    13336    13860    13773    13455    13406    13611    13349 
   12510    11719    11407    11886    13279    15130    16670    17352 
   17090    16321    16012    16523    16676    15630    14284    13596 
   13516    13934    15030    16403    16939    16175    14901    13872 
   13046    12291    11604    10703     9666     9261     9693    10429 
   11135    11446    11055    10467    10484    11389    12852    14423 
   16243    18146    18849    17986    17008    16891    17128    16951 
   16140    15066    14239    13770    13676    14076    14761    15575 
   16669    17705    17994    17068    14671    11625     9723     9504 
   10084    10952    11615    11077     9486     8355     8335     8601 
    8542     8524     8918     9334     9481    10091    11602    13246 
   14432    15135    15504    15998    16634    16768    15951    14224 
   12410    11684    12150    12986    13722    14149    13601    11677 
    9070     6708     5259     5239     6401     8074     9799    11120 
   11941    12677    13753    15297    17172    19062    20077    19558 
   18166    16305    13635    10993     9861    10294    11077    11277 
   10753     9618     8466     8282     8998     9620     9969    10668 
   11836    13147    14458    15548    16175    16402    16179    15637 
   15605    16525    17918    19286    20142    19984    19184    18470 
   17626    16116    14237    12891    12446    12191    11430    10346 
    9410     8874     8714     8786     9200    10121    11127    11902 
   13152    14883    15579    14545    12495    10480     9702    10616 
   12465    14426    16215    17760    18572    17605    14822    11869 
    9822     8395     7799     8726    10821    13030    15042    17053 
   18404    18260    17156    16291    16243    16792    17261    17253 
   16962    16663    16177    15302    14400    13653    12962    12587 
   12285    11506    10536     9716     9057     8985     9866    11273 
   12317    12458    11809    10688     9093     7267     6546     8081 
   11035    13648    15237    16053    16321    16150    15525    14381 
   13175    12824    13763    15204    15747    15210    14632    14422 
   14247    13988    13653    13057    12085    11181    10990    11341 
   11422    10989    10680    11246    12839    14799    16350    17469 
   18355    18521    17379    15453    13659    11983    10563    10186 
   10556    10434     9624     9244     9847    10378    10064     9681 
   10001    11282    13634    16019    16943    16495    15775    15439 
   15918    17460    19312    20271    19941    18307    15669    13376 
   12505    12626    12794    12539    11982    11396    10635     9625 
    8973     8984     8990     8742     8899     9481     9825     9834 
    9703     9340     8534     7336     6434     6575     7814     9778 
   11884    13526    14196    13780    13385    14279    16160    18053 
   19333    19727    19571    19096    17963    16343    14967    13854 
   12243    10265     9283     9399     9016     7751     6759     6493 
    6795     7877     9283     9914    10056    11036    13131    15485 
   17098    17024    14926    12256    11117    11713    12683    12956 
   12420    11810    11921    12814    13933    14755    15043    14597 
   13455    12376    12301    12830    12711    12450    13469    15051 
   15403    14255    12817    12229    12294    12377    12928    14675 
   17076    18505    17908    15824    13545    11922    10914     9990 
    9255     9412    10481    11664    12410    12710    12745    12857 
   13605    15570    18366    20334    20438    19308    18043    17076 
   16254    15564    15135    14958    15078    15480    15882    15719 
   14883    14273    14321    14255    13585    12798    12627    13192 
   13830    13670    12346    10330     8614     8073     8931    10701 
   12664    14136    14794    15050    15315    15352    14896    14356 
   14528    15372    15796    15282    14197    12943    12391    13230 
   14544    14813    13620    11962    11132    11427    12241    12724 
   12342    11330    10252     9456     9163     9455    10036    10515 
   11182    12889    15851    19009    20939    21086    19606    16804 
   13519    10840     9139     8397     8684     9745    11269    13024 
   14235    14236    13142    10887     7529     4546     3406     3711 
    4134     4117     4475     6368     9330    11492    12049    11725 
   11331    11579    12942    14980    17211    19303    20202    19333 
   17425    14950    12042     9929    10041    11976    13787    14144 
   13620    13116    12216    10875    10390    11492    14077    17802 
   21110    22166    21293    19948    18286    15541    11622     7611 
    4587     2488     1458     2300     4559     6885     9027    11411 
   13584    14370    13304    11178     9587     9659    10726    11494 
   12002    12900    13973    14371    13678    12248    10583     9175 
    8906    10216    12241    14059    15649    17040    18064    18733 
   18982    18640    17723    16498    15296    14162    13182    12799 
   12988    13019    12717    12683    12941    13208    14010    15247 
   15491    14453    13807    14721    16289    16853    15513    12563 
    9780     8954     9666    10360    10699    11084    11116    10406 
   10045    11099    12633    13130    12555    11948    12237    13868 
   16552    19065    19745    17745    14318    11853    11040    10701 
   10084     9203     7980     7144     8322    11522    14679    16388 
   16785    16447    16056    15847    15174    13882    13016    13144 
   13606    13990    14270    13649    11536     9101     8015     8366 
    9496    11693    14841    17455    18773    19045    18215    16737 
   15656    15340    15477    15285    14144    12734    12185    12540 
   13076    13414    13650    13706    13362    12929    12958    13418 
   14052    14916    15754    16402    17726    20068    22149    22902 
   22231    20145    17264    15137    14697    15306    15734    15377 
   14345    13181    12927    14191    15878    15974    13496     9488 
    6524     6266     7473     8131     8382     9114     9863    10019 
   10110    10758    11488    11458    10692     9830     9301     9326 
   10250    12240    14784    16947    18061    18370    18606    18430 
   16816    13939    11163     9936    10783    12670    14185    14855 
   14803    14283    13751    13934    15213    16515    16167    14083 
   11442     9189     7913     7792     8725    10777    13597    16064 
   17157    16615    14643    11614     8686     7573     8466     9503 
    9099     7536     6316     6825     9080    11780    13944    15597 
   16660    16583    15547    14334    12816    11087    10592    11569 
   12799    14081    15505    16401    16304    14807    11515     7549 
    5097     4750     5464     6835     8874    10591    11038    10684 
   10229     9469     8639     8850    10074    11136    12192    14316 
   17005    18736    18631    16654    14159    13173    13805    14214 
   13463    12589    12843    14052    14670    13425    10792     8361 
    7628     9119    12121    15526    17880    17692    15249    12132 
    8960     5758     3440     2582     2362     2727     4850     8522 
   12310    15761    18890    20692    20375    18741    16692    14334 
   12139    10933    11151    12954    15736    17829    18016    16339 
   13311     9820     6890     4812     3712     4088     5673     7611 
   10098    13517    16555    17917    18805    20879    23263    24154 
   23315    21593    20148    19548    18997    17968    17112    16574 
   15633    14284    13357    13328    14442    16533    18110    17563 
   14569    10050     5609     2537     1922     4194     7559     9757 
   10668    11472    12888    14364    14692    13583    11723     9995 
    9449    10614    12695    14525    15761    16622    17400    18436 
   19629    20116    19070    16916    15547    16354    18458    20022 
   19867    17569    13967    11016    10170    11578    14506    17654 
   19527    19283    17016    13459     9715     6326     3437     2192 
    3551     6710    10592    14492    17077    17475    16419    14523 
   11613     8568     6754     6250     6859     8734    11503    14511 
   17196    19070    19891    19706    18898    17675    15499    12212 
    9240     8488    10568    14451    18444    21382    22698    22126 
   20285    18305    16454    14141    11189     8516     7063     6497 
    5880     4627     2537      389     -237      998     2842     4856 
    7801    11429    14228    14887    13411    11364    10149     9733 
    9741     9962     9743     8840     8322     8940    10073    10939 
   11198    11449    13086    15926    17492    15724    11559     8288 
    7876     9045     9796     9991    10961    13718    17292    19065 
   17726    14977    13356    13266    13369    13069    12520    11146 
    8863     7256     7384     8552     9963    11346    12463    13276 
   13723    13619    13149    12794    12985    13782    15021    16939 
   19527    21403    20966    18561    15883    13494    11019     8762 
    7208     6582     7080     8422    10110    11727    12658    12897 
   13305    14199    14835    14400    13203    12798    14100    15920 
   16429    15233    13169    11194    10459    12039    15321    17999 
   18602    17839    16686    14734    12042    10361    10559    11600 
   12813    14653    17154    18740    17875    15510    13510    12172 
   10634     7601     2562    -2568    -4569    -1753     4419    10496 
   14144    15451    15932    17350    20139    22828    23709    22266 
   18951    14603    10291     7021     5087     4286     4281     4193 
    3873     4854     7692    10751    12697    13728    14337    14756 
   15357    16230    16827    16434    15066    13855    13889    15584 
   18305    19874    19110    17496    16524    16374    17266    19212 
   20724    20089    17680    15388    14425    14830    15970    16404 
   15088    13711    15071    18791    21339    19994    15014     8735 
    3888     2009     3043     6451    11429    16536    20206    21339 
   19866    16769    13299    10534     9280     9900    11652    12549 
   11603    10131     9303     8519     7145     5943     5924     6662 
    6493     4540     2225     1935     4486     8837    13353    16978 
   20020    23075    25596    26966    27172    25717    22062    16793 
   11272     6718     3875     3329     5007     7514     9521    10759 
   10844     9361     7200     5570     4822     5490     8160    12148 
   15794    17533    17014    15625    15509    17744    20974    22633 
   21948    19936    16993    13215    10042     8683     8235     7203 
    5596     4579     4900     6873    10502    14192    16194    17541 
   20156    23468    25431    24822    21367    15616     9127     3804 
     748     -275       -7      860     1601     2270     3702     6509 
   10741    15158    17477    16704    14217    11607     8475     4493 
    1770     2071     4423     7665    12462    18990    25143    29237 
   31494    31659    29471    26419    23490    20282    16992    14456 
   13187    12960    12934    12488    11616    10904    10792    10784 
   10065     7967     4444      619    -2132    -3083    -2319     -264 
    3285     8765    15615    21796    24935    24960    24169    23468 
   21020    16010    10634     7156     6193     7851    11633    15936 
   19193    21116    22179    21996    19505    14896     9567     4110 
   -1742    -7462   -11051    -9968    -3836     4303    10898    14547 
   15682    15414    14760    14771    16496    19784    23368    26749 
   30012    31934    30926    27075    21901    17209    13861    11437 
    9251     6932     4789     3449     2424      914     -285      341 
    3285     7934    13375    18633    22376    23672    22869    21137 
   19471    17412    13539     7922     2458     -519      805     6148 
   12567    16930    18642    19231    19630    19625    19642    20362 
   21711    23537    25344    25822    23708    19141    14198    11278 
   11583    14518    17372    17675    15291    10857     4818    -1181 
   -4337    -3433      -16     3618     5654     5320     4425     6400 
   12454    20862    30024    38472    43362    42921    37989    30352 
   22073    15326    11525    10453    10430    10509    11203    11779 
   10133     6629     4104     3855     5323     7854     9881     9629 
    7829     6529     6479     8012    11294    15112    18317    20751 
   21778    20686    18445    17082    17122    17133    16267    15164 
   14177    12958    11697    10693     8808     4895      198    -3055 
   -3972    -2631      639     5001     9719    15029    20826    25244 
   26416    25086    23798    23286    21953    19242    16042    12731 
    9891     8273     7431     6871     6511     5746     4342     2719 
    1188      -15     -584      224     3232     8422    14955    21025 
   24650    25552    24608    22256    18801    15055    11907     9487 
    7524     6510     7017     8793    11596    14886    16995    16361 
   12774     7059      286    -6072    -9756    -9636    -7103    -3749 
      43     3576     5450     5367     5112     6367     8550    10896 
   14679    20744    27258    31806    33471    32681    30347    26767 
   22157    17380    12869     8940     6577     5524     3635     -342 
   -5477   -10090   -12863   -13197   -10389    -3933     3810     9118 
   11289    12301    14178    17896    22989    27667    29873    29006 
   26274    23178    20566    18713    17557    17070    17637    19380 
   20397    18421    14687    12053    10615     8960     7066     5566 
    4902     5386     6237     6558     7038     9026    13535    20198 
   26535    30352    31513    30124    26027    20769    16406    13416 
   12359    13713    16248    18585    19745    19769    20347    21160 
   19675    15756    12132    11106    12441    13703    12120     7399 
    2874     2298     6347    12675    18163    21178    21626    20076 
   18303    18017    18583    18946    19427    19999    20003    18894 
   16304    13220    11349    10772    10510    10036     9111     7948 
    7404     7804     8413     8746     9224    10425    12529    14694 
   14984    12285     8043     5507     7223    13152    20708    26040 
   27032    24776    20141    12977     5740     2333     3618     6877 
    9186    10314    11040    10322     6932     2350     -261       74 
    1399     2907     6414    12361    18548    23647    28072    31783 
   33868    33559    30867    26581    21828    17669    15105    14990 
   16998    19365    20697    20929    20465    19468    17790    15431 
   12421     8326     3317     -967    -2717    -1303     2385     6559 
    9855    11947    13476    15389    17899    20454    21832    20667 
   17718    16004    17289    20569    24060    26522    27323    26606 
   24787    21990    18374    14139     8835     1829    -5562    -9789 
   -8451    -2969     3174     7822    10440    10753     9619     9112 
    9466     8678     6498     5445     7028    10482    14721    18585 
   20515    19857    18410    19607    24615    30896    35945    38911 
   38383    33207    24863    16683    11688    10060     8625     4447 
   -2461    -9879   -14893   -15705   -13784   -12747   -13863   -14838 
  -12967    -7791    -1120     5349    10866    14316    15560    16361 
   17957    20376    23015    24588    24991    25994    28342    30782 
   31784    30588    27955    24988    21007    15366     9482     5308 
    4095     6185    10562    14642    15377    12637    10095    10081 
   10259     7957     4366     2295     3261     7393    13375    18806 
   21172    19330    15538    13867    15997    20393    24036    24501 
   22168    19284    16752    14070    11064     7821     3939     -798 
   -4592    -4284     1172     9451    16777    19908    18060    14105 
   11624    10647     8386     3538    -1151    -1411     3264     9412 
   14067    16000    14955    12412    10271     8696     7384     6551 
    5961     5349     4943     5436     8263    13741    19884    24877 
   28147    29081    27250    23926    21345    19514    16662    13358 
   12169    13683    16360    19053    20698    19680    16107    12015 
    8931     7797     9188    11999    14555    16778    18857    19641 
   18150    14371     8810     3463     1842     6122    14656    23488 
   29785    32373    31119    27479    23564    20217    17628    16436 
   15914    13825     9473     3598    -3065    -8736   -11150    -9325 
   -3785     3823    11873    19146    23819    24753    23406    21681 
   19523    16455    12824     8824     4527      681    -1508    -1134 
    1744     6247    11290    15534    17450    16174    12781    10320 
   10613    11938    12148    11905    12279    11825     9217     6362 
    5998     8082    10446    12072    13906    16470    19186    21645 
   23150    22943    21665    20230    18655    17397    17442    19066 
   22106    25954    29092    30511    30316    28035    23060    16477 
    9940     4605     2141     3798     8114    11473    11234     7386 
    1324    -5121    -9613   -10627    -9121    -6880    -3474     2595 
   11141    20735    29193    33782    33612    30623    27982    28058 
   29839    29673    26149    20785    14761     9150     5783     4780 
    4061     2158     -953    -4676    -8129   -11046   -13606   -15494 
  -16256   -15310   -12541    -9237    -6119    -1644     6044    16401 
   26375    32791    34584    33073    30248    27547    26634    28594 
   31649    32606    30067    24310    17007    11553     9693    10061 
   11629    14183    16912    19014    19498    17287    12989     9074 
    7428     7543     7872     7882     7589     6355     4440     4179 
    6856    10999    15395    20264    24973    28391    31182    34179 
   36110    35570    32704    28411    23854    19940    16655    13411 
    9595     5117      934    -2120    -4534    -6412    -6555    -4621 
   -1820      682     2564     4631     8321    13359    17390    18614 
