Origin Time       2011/03/11 14:46:00
Lat.              38.103
Long.             142.860
Depth. (km)       24
Mag.              9.0
Station Code      HKD030
Station Lat.      44.1821
Station Long.     142.3942
Station Height(m) 131
Record Time       2011/03/11 14:49:28
Sampling Freq(Hz) 100Hz
Duration Time(s)  178
Dir.              N-S
Scale Factor      3920(gal)/6182761
Max. Acc. (gal)   3.972
Last Correction   2011/03/11 14:49:13
Memo.             
[...]
    6498     6591     6692     6797     6913     7023     7125     7247 
    7378     7490     7595     7701     7807     7911     8000     8084 
    8170     8237     8300     8371     8429     8478     8525     8555 
    8580     8614     8621     8586     8556     8547     8506     8429 
    8384     8362     8333     8329     8342     8336     8333     8352 
    8371     8374     8374     8383     8411     8438     8443     8431 
    8418     8415     8426     8443     8454     8462     8470     8471 
    8465     8476     8498     8495     8474     8468     8453     8405 
    8364     8335     8285     8214     8137     8062     8001     7950 
    7892     7834     7791     7757     7719     7669     7623     7596 
    7576     7541     7494     7453     7419     7370     7292     7205 
    7117     7028     6955     6891     6819     6750     6695     6637 
    6582     6540     6496     6461     6449     6437     6412     6389 
    6372     6355     6325     6281     6237     6187     6124     6066 
    6018     5964     5913     5881     5857     5835     5825     5830 
    5839     5847     5853     5852     5833     5814     5816     5802 
    5755     5731     5741     5727     5689     5653     5607     5558 
    5519     5474     5407     5338     5284     5230     5161     5088 
    5012     4946     4896     4847     4790     4735     4692     4671 
    4661     4654     4655     4657     4660     4690     4737     4768 
    4797     4838     4878     4907     4936     4960     4979     5006 
    5042     5083     5124     5160     5208     5282     5359     5430 
    5504     5584     5665     5741     5819     5900     5973     6032 
    6085     6135     6189     6246     6294     6329     6358     6366 
    6365     6368     6357     6333     6298     6230     6138     6044 
    5940     5818     5697     5592     5494     5399     5324     5267 
    5204     5146     5110     5084     5052     5030     5030     5042 
    5053     5067     5095     5142     5193     5240     5288     5344 
    5413     5488     5547     5592     5651     5732     5817     5905 
    5994     6072     6149     6231     6308     6378     6442     6499 
    6552     6612     6679     6736     6775     6811     6843     6862 
    6885     6911     6931     6950     6968     6985     7003     7009 
    7009     7034     7095     7158     7207     7266     7334     7403 
    7482     7556     7617     7691     7778     7849     7913     8002 
    8112     8219     8309     8391     8495     8614     8711     8784 
    8845     8897     8940     8974     8999     9024     9046     9051 
    9053     9063     9068     9062     9044     9014     8972     8925 
    8871     8788     8675     8552     8420     8271     8120     7969 
    7816     7657     7499     7346     7197     7055     6919     6790 
    6673     6560     6446     6326     6193     6052     5915     5781 
    5644     5494     5344     5227     5138     5053     4972     4899 
    4828     4768     4723     4672     4615     4575     4546     4509 
    4473     4445     4411     4371     4344     4333     4342     4377 
    4422     4468     4536     4638     4744     4828     4900     4993 
    5109     5218     5308     5400     5501     5597     5692     5791 
    5879     5968     6075     6186     6294     6404     6505     6581 
    6657     6751     6839     6921     7016     7111     7216     7344 
    7456     7554     7689     7839     7953     8058     8177     8272 
    8356     8461     8542     8578     8627     8700     8753     8791 
    8845     8896     8933     8984     9035     9050     9045     9040 
    9013     8957     8894     8806     8698     8610     8518     8387 
    8262     8175     8088     7978     7872     7782     7691     7594 
    7481     7366     7287     7238     7177     7109     7053     6999 
    6950     6915     6885     6852     6829     6814     6782     6748 
    6727     6694     6649     6629     6635     6645     6641     6626 
    6627     6660     6704     6739     6780     6820     6842     6858 
    6877     6890     6905     6933     6959     6964     6960     6957 
    6944     6935     6951     6967     6970     6978     6996     7018 
    7049     7090     7126     7150     7173     7193     7198     7196 
    7207     7238     7272     7297     7318     7344     7372     7390 
    7402     7421     7437     7434     7416     7393     7366     7333 
    7292     7254     7243     7250     7240     7242     7285     7335 
    7376     7424     7465     7501     7564     7642     7684     7705 
    7760     7842     7904     7933     7946     7976     8030     8080 
    8104     8112     8130     8164     8203     8238     8278     8330 
    8386     8434     8468     8487     8496     8513     8530     8520 
    8483     8450     8428     8393     8345     8299     8256     8216 
    8179     8145     8113     8088     8079     8070     8039     8006 
    7980     7942     7881     7792     7692     7580     7447     7303 
    7162     7028     6894     6746     6594     6454     6318     6182 
    6056     5944     5825     5699     5577     5460     5364     5288 
    5216     5157     5120     5097     5089     5101     5124     5145 
    5182     5241     5304     5360     5409     5457     5523     5617 
    5709     5782     5858     5965     6095     6232     6379     6530 
    6677     6843     7036     7232     7407     7566     7724     7879 
    8028     8187     8325     8419     8517     8640     8755     8853 
    8944     9026     9114     9208     9284     9341     9405     9470 
    9517     9558     9591     9605     9624     9650     9662     9661 
    9660     9658     9637     9609     9596     9571     9510     9440 
    9375     9299     9214     9122     9020     8907     8788     8673 
    8552     8413     8284     8172     8067     7968     7876     7785 
    7672     7550     7453     7358     7240     7126     7033     6941 
    6838     6755     6720     6696     6657     6626     6612     6619 
    6637     6630     6594     6564     6564     6559     6511     6451 
    6421     6412     6400     6367     6329     6324     6325     6292 
    6247     6227     6240     6249     6215     6167     6151     6161 
    6167     6156     6145     6167     6210     6234     6220     6211 
    6243     6276     6268     6233     6206     6206     6199     6154 
    6087     6035     6006     5972     5915     5861     5826     5800 
    5782     5792     5840     5906     5958     6028     6128     6225 
    6336     6471     6598     6729     6871     7006     7138     7272 
    7415     7559     7670     7768     7890     8013     8117     8211 
    8314     8436     8548     8628     8702     8786     8860     8891 
    8883     8866     8848     8822     8770     8679     8586     8506 
    8398     8278     8181     8096     7993     7865     7753     7675 
    7599     7511     7420     7340     7289     7247     7169     7070 
    6992     6924     6838     6727     6607     6508     6415     6305 
    6188     6077     5979     5896     5816     5737     5663     5606 
    5578     5559     5534     5517     5516     5535     5570     5606 
    5649     5698     5743     5796     5850     5892     5926     5946 
    5953     5960     5970     5976     5966     5939     5906     5867 
    5825     5783     5727     5651     5563     5470     5382     5291 
    5201     5128     5051     4963     4887     4819     4764     4727 
    4683     4624     4569     4542     4549     4556     4537     4502 
    4466     4454     4482     4526     4561     4593     4639     4703 
    4784     4886     4990     5079     5174     5291     5423     5574 
    5733     5876     6006     6133     6256     6394     6546     6688 
    6813     6919     7017     7125     7249     7396     7547     7684 
    7820     7964     8105     8236     8359     8483     8606     8735 
    8869     8980     9070     9162     9245     9316     9380     9412 
    9411     9402     9376     9321     9251     9181     9099     8990 
    8872     8748     8613     8507     8429     8332     8217     8110 
    8009     7925     7868     7825     7786     7751     7719     7696 
    7692     7716     7739     7738     7747     7778     7819     7865 
    7910     7959     8026     8112     8211     8321     8438     8562 
    8696     8848     8996     9113     9218     9330     9439     9538 
    9604     9614     9602     9607     9622     9614     9585     9541 
    9467     9389     9354     9320     9242     9162     9097     9026 
    8958     8901     8840     8767     8710     8680     8649     8601 
    8549     8508     8499     8501     8481     8458     8428     8387 
    8378     8395     8394     8368     8347     8348     8358     8377 
    8410     8435     8446     8473     8518     8576     8646     8717 
    8773     8820     8880     8970     9077     9178     9257     9312 
    9369     9427     9483     9551     9617     9658     9681     9700 
    9723     9750     9767     9775     9769     9744     9731     9740 
    9733     9696     9652     9609     9551     9467     9382     9304 
    9207     9097     9016     8962     8899     8821     8742     8663 
    8606     8572     8528     8473     8433     8398     8368     8365 
    8364     8338     8317     8322     8341     8363     8384     8384 
    8369     8382     8425     8451     8466     8483     8492     8513 
    8557     8601     8629     8637     8630     8627     8633     8641 
    8629     8587     8549     8541     8545     8538     8522     8511 
    8497     8480     8473     8467     8447     8414     8369     8304 
    8222     8132     8020     7881     7745     7618     7468     7293 
    7118     6932     6733     6548     6366     6162     5940     5719 
    5522     5346     5166     4977     4795     4632     4498     4385 
    4271     4146     4029     3934     3849     3766     3703     3647 
    3584     3542     3524     3517     3531     3559     3579     3600 
    3661     3740     3783     3809     3864     3911     3942     3993 
    4044     4078     4119     4159     4195     4248     4316     4374 
    4432     4506     4582     4651     4720     4781     4842     4916 
    4974     4995     4997     4990     4970     4936     4885     4821 
    4761     4710     4656     4596     4541     4485     4421     4366 
    4317     4254     4185     4128     4081     4042     4014     3987 
    3957     3949     3973     3995     4006     4021     4036     4052 
    4070     4080     4099     4124     4153     4204     4250     4279 
    4323     4375     4411     4451     4502     4541     4575     4624 
    4664     4674     4677     4676     4658     4640     4628     4611 
    4597     4584     4556     4534     4526     4523     4526     4534 
    4535     4526     4520     4529     4537     4541     4559     4574 
    4588     4632     4689     4731     4769     4815     4866     4897 
    4906     4925     4952     4963     4965     4963     4957     4957 
    4968     4994     5030     5067     5107     5147     5179     5209 
    5239     5272     5300     5312     5327     5368     5424     5467 
    5504     5562     5640     5713     5775     5836     5899     5962 
    6027     6088     6138     6180     6225     6275     6321     6367 
    6414     6447     6464     6485     6525     6570     6608     6658 
    6739     6834     6940     7061     7188     7322     7459     7592 
    7728     7863     7991     8105     8211     8316     8418     8514 
    8613     8720     8826     8924     9019     9120     9233     9349 
    9461     9576     9693     9796     9888     9985    10086    10182 
   10290    10408    10517    10623    10734    10846    10965    11084 
   11190    11298    11406    11500    11594    11686    11759    11816 
   11865    11916    11962    11992    12006    12011    12010    12003 
   11986    11965    11937    11902    11861    11813    11751    11667 
   11567    11477    11383    11263    11132    10989    10834    10695 
   10566    10415    10253    10098     9939     9777     9624     9463 
    9280     9105     8944     8769     8590     8431     8268     8083 
    7893     7716     7563     7418     7257     7092     6944     6802 
    6649     6482     6313     6145     5973     5814     5671     5534 
    5408     5289     5179     5084     4988     4886     4784     4693 
    4612     4529     4438     4348     4253     4151     4056     3971 
    3896     3834     3783     3741     3710     3708     3735     3758 
    3782     3836     3897     3958     4026     4080     4117     4151 
    4184     4203     4200     4187     4181     4177     4165     4159 
    4163     4170     4191     4239     4314     4387     4434     4494 
    4591     4692     4773     4832     4876     4921     4981     5049 
    5104     5156     5225     5298     5378     5489     5611     5719 
    5844     5992     6124     6260     6418     6559     6675     6812 
    6963     7080     7188     7325     7462     7583     7703     7830 
    7948     8055     8179     8323     8462     8592     8726     8872 
    9042     9216     9369     9522     9695     9868    10033    10208 
   10392    10560    10721    10902    11082    11241    11398    11559 
   11719    11875    12026    12183    12334    12458    12580    12711 
   12833    12935    13016    13089    13157    13214    13263    13297 
   13326    13370    13410    13449    13507    13556    13585    13628 
   13668    13677    13662    13639    13614    13567    13486    13396 
   13307    13209    13102    12989    12874    12761    12653    12549 
   12432    12300    12166    12039    11914    11780    11637    11502 
   11378    11261    11145    11030    10929    10838    10748    10659 
   10554    10434    10334    10229    10084     9933     9794     9650 
    9498     9340     9170     8995     8829     8678     8527     8379 
    8242     8104     7975     7865     7767     7686     7614     7532 
    7458     7398     7331     7269     7231     7200     7168     7133 
    7086     7036     7002     6986     6965     6919     6875     6864 
    6874     6876     6872     6877     6896     6928     6968     7002 
    7033     7068     7088     7087     7089     7101     7122     7142 
    7152     7173     7215     7256     7294     7338     7364     7370 
    7390     7426     7437     7421     7404     7388     7369     7360 
    7345     7307     7285     7298     7306     7281     7236     7202 
    7179     7150     7119     7079     7022     6968     6918     6861 
    6801     6730     6653     6588     6521     6441     6361     6295 
    6251     6220     6188     6166     6151     6136     6130     6139 
    6164     6196     6227     6274     6344     6430     6531     6634 
    6722     6786     6834     6907     7000     7045     7038     7032 
    7045     7060     7062     7036     7001     6984     6978     6964 
    6939     6917     6909     6927     6973     7014     7035     7069 
    7123     7168     7196     7222     7264     7322     7376     7421 
    7464     7515     7582     7641     7686     7726     7740     7732 
    7739     7760     7774     7764     7725     7686     7651     7621 
    7607     7590     7562     7531     7489     7454     7452     7463 
    7460     7446     7446     7456     7428     7362     7317     7302 
    7272     7198     7115     7084     7100     7094     7019     6906 
    6838     6837     6847     6838     6800     6727     6653     6594 
    6535     6481     6420     6342     6275     6230     6172     6089 
    6000     5948     5938     5914     5845     5783     5793     5869 
    5951     5989     5988     5986     6023     6106     6202     6272 
    6306     6334     6404     6497     6565     6629     6761     6944 
    7052     7052     7106     7342     7652     7844     7883     7902 
    8012     8196     8398     8567     8679     8763     8834     8874 
    8923     9017     9090     9075     9028     9034     9078     9088 
    9040     8995     8988     8958     8873     8809     8840     8940 
    8999     8954     8871     8851     8904     9008     9124     9188 
    9173     9126     9132     9240     9378     9443     9433     9413 
    9434     9507     9588     9613     9565     9499     9466     9450 
    9410     9335     9230     9121     9033     8960     8872     8763 
    8672     8607     8524     8422     8322     8231     8160     8109 
    8062     7995     7896     7804     7774     7775     7750     7704 
    7664     7650     7658     7650     7615     7579     7543     7493 
    7441     7407     7382     7340     7285     7235     7202     7189 
    7162     7110     7075     7072     7081     7074     7035     7002 
    6994     6974     6946     6931     6927     6942     6964     6964 
    6943     6938     6964     6996     7021     7022     6985     6955 
    6966     6971     6947     6927     6926     6947     6973     6967 
    6952     6954     6964     6994     7018     6997     6955     6921 
    6900     6889     6873     6850     6832     6826     6836     6869 
    6924     6986     7032     7076     7146     7223     7282     7328 
    7374     7425     7478     7521     7560     7599     7630     7654 
    7674     7709     7763     7814     7832     7814     7820     7890 
    7957     7976     7965     7935     7918     7949     7964     7905 
    7813     7746     7707     7643     7531     7427     7339     7237 
    7140     7067     6985     6866     6756     6693     6615     6479 
    6325     6171     6007     5833     5644     5466     5310     5120 
    4895     4687     4501     4317     4125     3927     3754     3625 
    3517     3402     3249     3071     2945     2890     2829     2740 
    2659     2574     2468     2387     2366     2370     2360     2334 
    2320     2341     2379     2420     2474     2543     2630     2735 
    2850     2976     3096     3200     3329     3503     3691     3874 
    4043     4207     4389     4590     4808     5026     5209     5371 
    5552     5772     6022     6267     6463     6592     6704     6879 
    7098     7262     7346     7390     7426     7488     7586     7675 
    7728     7762     7778     7778     7782     7793     7785     7755 
    7728     7710     7685     7640     7583     7535     7498     7460 
    7418     7371     7318     7257     7179     7124     7148     7214 
    7229     7176     7134     7154     7208     7273     7340     7374 
    7355     7326     7344     7410     7460     7464     7478     7543 
    7642     7740     7812     7864     7916     7979     8073     8193 
    8304     8389     8458     8517     8574     8639     8703     8762 
    8821     8897     8990     9041     9005     8959     9002     9114 
    9203     9210     9140     9053     9006     9003     9039     9096 
    9118     9082     9025     8987     8967     8930     8863     8815 
    8799     8757     8664     8568     8482     8365     8241     8165 
    8102     8000     7861     7725     7633     7577     7523     7460 
    7398     7371     7394     7430     7452     7468     7486     7538 
    7642     7753     7833     7881     7919     7973     8041     8119 
    8219     8323     8405     8494     8623     8786     8957     9130 
    9304     9472     9632     9791     9953    10119    10274    10410 
