Origin Time       2011/03/11 14:46:00
Lat.              38.103
Long.             142.860
Depth. (km)       24
Mag.              9.0
Station Code      HKD065
Station Lat.      43.7938
Station Long.     145.0565
Station Height(m) 10
Record Time       2011/03/11 14:48:37
Sampling Freq(Hz) 100Hz
Duration Time(s)  300
Dir.              N-S
Scale Factor      3920(gal)/6182761
Max. Acc. (gal)   7.063
Last Correction   2011/03/11 14:48:22
Memo.             
[...]
   14354    15106    15675    16115    16318    16262    16130    16037 
   16042    16084    15923    15604    15447    15580    15738    15450 
   14713    14179    14233    14420    14186    13620    13208    13302 
   13705    13705    12911    11718    10732    10260    10272    10458 
   10603    10892    11450    12001    12302    12454    12583    12692 
   12928    13384    13786    13878    13661    13217    12598    11835 
   11087    10689    10692    10683    10545    10575    10772    10926 
   10953    10993    11414    12128    12424    11919    10824     9450 
    8100     7166     6929     7322     8102     8887     9233     9264 
    9368     9596    10069    10877    11738    12375    12688    12747 
   12724    12494    11939    11440    11189    10854    10383    10163 
   10436    11048    11523    11464    11058    10787    10718    10683 
   10736    10986    11493    12141    12468    12175    11479    10828 
   10546    10596    10808    11068    11244    11413    11579    11444 
   11197    11375    11841    12148    12291    12426    12583    12775 
   12914    12836    12658    12817    13527    14442    15049    15164 
   14938    14604    14314    14166    14211    14382    14665    15091 
   15397    15396    15350    15379    15411    15555    15682    15564 
   15481    15678    15876    15747    15323    14787    14157    13479 
   12987    12857    13254    14199    15165    15490    15095    14528 
   14452    14957    15662    16297    16667    16662    16468    16384 
   16519    16602    16309    15729    15198    14830    14406    13899 
   13615    13513    13282    12822    12296    12176    12665    13192 
   13278    13175    13342    13931    14822    15668    16105    16108 
   15786    15248    14796    14577    14423    14186    13785    13125 
   12338    11885    11982    12245    12230    11863    11374    10998 
   10744    10434     9947     9584     9600     9577     9386     9556 
   10109    10511    10488    10087     9407     8721     8548     8989 
    9561    10023    10400    10571    10582    10580    10448    10209 
   10124    10102     9907     9790     9965    10078     9821     9252 
    8728     8821     9557    10351    10771    10623    10131     9974 
   10340    10821    11212    11541    11780    11961    12138    12126 
   11751    11383    11414    11668    11860    11987    12210    12526 
   12647    12243    11269    10278     9946    10259    10731    11087 
   11452    12030    12685    13184    13724    14544    15385    15878 
   15996    16028    16142    16074    15613    15008    14566    14326 
   14121    13691    12866    11791    10767     9985     9527     9359 
    9387     9635    10135    10671    11000    11242    11664    12297 
   13042    13819    14491    14886    14885    14398    13556    12745 
   12135    11722    11601    11677    11765    11862    11829    11534 
   11198    10952    10577     9971     9309     8703     8114     7544 
    7084     6833     6802     6874     6918     6978     7172     7456 
    7806     8454     9434    10366    11003    11290    11207    11043 
   11049    10963    10559    10042     9529     8944     8360     7711 
    6832     6019     5509     4855     3787     2879     2596     2633 
    2731     3026     3485     4032     4747     5556     6396     7245 
    7980     8907    10477    12300    13678    14470    14574    13890 
   12882    11928    11019    10481    10594    10953    11186    11371 
   11454    11356    11530    12297    13168    13672    13889    13953 
   14125    14815    15852    16660    17044    17026    16763    16721 
   17054    17528    18149    18858    19151    18761    18012    17253 
   16774    16853    17192    17197    16851    16541    16336    15908 
   15115    14221    13435    12948    12946    13111    12987    12730 
   12768    13028    13012    12560    12175    12384    13038    13615 
   13866    13874    13961    14247    14352    14220    14251    14455 
   14665    14881    15097    15396    15678    15421    14388    13016 
   11912    11535    12057    13091    14089    14867    15311    15315 
   15071    14786    14595    14710    15064    15248    15062    14659 
   14175    13512    12490    11132     9726     8735     8523     8814 
    8874     8457     7931     7563     7327     7213     7319     7717 
    8364     9105     9746    10111    10104     9787     9445     9446 
    9844    10370    10961    11614    12123    12512    12814    12672 
   11978    11103    10416    10116    10083     9934     9658     9632 
    9983    10546    11117    11648    12395    13457    14456    14986 
   14933    14492    14072    13764    13240    12428    11666    11368 
   11760    12482    13009    13426    14011    14633    15004    14954 
   14552    14158    14163    14519    14802    14875    14908    14758 
   14302    13943    13924    14030    14323    14997    15758    16251 
   16394    16164    15749    15260    14397    13130    11917    11038 
   10486    10204    10098     9960     9526     8778     8071     7842 
    8236     8928     9456     9796    10306    11077    11860    12552 
   13150    13559    13746    13628    13205    12837    12750    12862 
   13021    12879    12220    11340    10665    10179     9667     9430 
    9844    10628    11120    10870    10207     9940    10287    10840 
   11230    11380    11424    11483    11450    11058    10272     9467 
    9183     9523     9977    10227    10330    10153     9679     9148 
    8818     9096     9950    10732    11194    11497    11637    11684 
   11728    11609    11297    11026    10908    10827    10692    10546 
   10491    10619    10875    11086    11315    11784    12296    12407 
   12146    11883    11935    12648    14015    15403    16273    16494 
   16024    15073    14233    13958    14264    14796    14907    14251 
   13304    12818    12895    12970    12756    12559    12563    12641 
   12702    12686    12646    12719    12630    12171    11836    12013 
   12516    13068    13472    13740    14273    15349    16548    17187 
   17019    16467    16164    16147    16213    16552    17255    18186 
   19140    19861    20414    20897    21100    20986    20728    20286 
   19541    18664    17963    17462    17091    16885    16832    16980 
   17242    17179    16520    15378    14173    13396    12997    12700 
   12488    12297    12204    12391    12622    12533    12194    12175 
   12854    13816    14444    14566    14363    14275    14612    15115 
   15465    15599    15402    14949    14625    14658    14985    15369 
   15421    14850    13881    13017    12480    12434    13083    14074 
   14749    14989    15018    14828    14415    13801    12769    11412 
   10208     9306     8673     8330     8187     8223     8351     8352 
    8232     8175     8513     9540    10813    11473    11400    11170 
   11138    11198    11024    10400     9495     8682     8198     7984 
    7913     8200     9053    10055    10706    10957    10951    11119 
   11802    12504    12773    12865    12939    12956    12985    13023 
   13006    12993    13058    12973    12444    11656    11171    11313 
   11844    12317    12565    12707    12842    12699    12075    11405 
   10945    10422    10001    10186    10934    11694    12077    12115 
   11978    11865    11991    12309    12677    13096    13329    12975 
   12098    11231    10921    11233    11568    11393    11019    11124 
   11772    12402    12587    12244    11513    10739    10146     9775 
    9657     9640     9486     9228     9009     8739     8278     7743 
    7352     7322     7884     8914     9963    10730    11136    11303 
   11500    11807    11998    11840    11294    10386     9261     8326 
    7811     7629     7634     7338     6386     5361     4812     4611 
    4831     5621     6652     7639     8457     9020     9620    10516 
   11600    12897    14499    16221    17849    19123    19668    19399 
   18612    17740    16964    16051    14904    13755    12845    12387 
   12320    12394    12520    12626    12818    13332    14062    14786 
   15360    15793    16451    17521    18583    19096    19064    18944 
   18931    18850    18477    17682    16698    15932    15468    15196 
   15130    15365    15661    15497    14867    14330    14296    14798 
   15533    16001    16001    15758    15486    15148    14660    14192 
   14044    14187    14271    14037    13505    12836    12150    11605 
   11402    11538    11886    12431    13005    13310    13362    13236 
   12991    12812    12664    12571    12717    12976    13042    12699 
   12075    11586    11436    11693    12265    12750    12997    13247 
   13753    14546    15186    15194    14542    13478    12477    11948 
   11851    11972    11967    11502    10814    10280     9733     8935 
    8155     7924     8393     9191    10002    10780    11451    11910 
   12125    12064    11645    10907    10204     9730     9134     8223 
    7330     6774     6587     6511     6343     6304     6553     6927 
    7380     7896     8389     9003     9822    10594    11094    11318 
   11458    11910    12777    13462    13392    12845    12383    12038 
   11557    10833    10123    10017    10637    11298    11393    10918 
   10036     9024     8388     8221     8130     8031     8176     8622 
    9055     8969     8288     7431     6610     5947     5767     6072 
    6506     6824     7012     7257     7788     8554     9180     9369 
    9139     8788     8721     9013     9408     9577     9272     8714 
    8407     8544     8942     9145     8989     9062     9806    10869 
   11835    12618    13200    13491    13326    12831    12476    12388 
   12243    11840    11360    11104    11186    11579    12108    12549 
   12888    12979    12654    12220    11910    11779    12113    12845 
   13476    13744    13528    12723    11563    10336     9073     8052 
    7742     8135     8898     9811    10582    10822    10637    10573 
   10891    11559    12594    13859    14929    15558    15783    15558 
   14977    14445    14146    14002    14031    14269    14671    15061 
   15152    14903    14516    14093    13663    13295    13028    12771 
   12484    12406    12695    13135    13438    13414    13078    12724 
   12692    13171    14061    14915    15386    15404    14981    14415 
   13984    13593    13365    13638    14285    14852    14908    14316 
   13506    13041    13126    13766    14844    16005    16910    17480 
   17627    17336    17032    17109    17488    17961    18467    19069 
   19796    20483    20906    21009    20878    20593    20287    20048 
   19869    19888    20282    20928    21430    21423    20995    20491 
   19943    19221    18386    17563    16775    15873    14766    13732 
   13117    12854    12570    12086    11553    11144    11007    11242 
   11618    11814    11865    11958    12161    12578    13204    13672 
   13626    13091    12395    11884    11641    11556    11487    11330 
   11258    11550    12122    12619    12710    12188    11195    10093 
    8973     7814     6799     6250     6411     6997     7533     8015 
    8422     8577     8565     8442     8220     8111     8149     8101 
    7811     7280     6712     6407     6295     5987     5392     4829 
    4505     4298     4208     4342     4505     4678     5287     6387 
    7390     7895     8150     8398     8543     8773     9362    10074 
   10733    11404    11805    11791    11831    12039    11994    11775 
   11702    11608    11383    11241    11217    11058    10564     9848 
    9298     9292     9802    10359    10550    10318     9818     9298 
    9033     9211     9689     9910     9562     9107     9205     9904 
   10690    11134    11119    10685    10073     9715     9911    10539 
   11279    12081    12867    13100    12421    11252    10311     9919 
    9983    10310    10561    10493    10392    10464    10555    10846 
   11569    12412    12928    13007    12889    12886    13144    13557 
   13840    13861    13650    13204    12568    11923    11489    11366 
   11470    11729    12356    13538    14836    15530    15442    14850 
   14085    13559    13569    13981    14464    14923    15522    15997 
   15714    14808    13854    12990    12510    12696    13263    13975 
   14755    15483    16095    16307    15943    15367    14758    13868 
   12871    12343    12391    12534    12351    11907    11580    11812 
   12888    14574    16216    17356    17986    18195    17988    17541 
   17099    16628    15991    15245    14631    14382    14525    14910 
   15407    15954    16452    16870    17240    17459    17567    17827 
   18213    18479    18370    17597    16383    15501    15257    15300 
   15356    15399    15464    15683    16013    16165    16183    16419 
   16952    17541    17954    18258    18624    19076    19583    19910 
   19880    19714    19452    18813    17711    16374    15104    14012 
   13119    12607    12588    12874    13133    13161    13028    12968 
   13162    13505    13702    13702    13483    12761    11604    10615 
   10230    10550    11466    12524    13246    13591    13742    13753 
   13609    13427    13320    13279    13466    14132    15194    16176 
   16496    15938    14939    14291    14392    14785    14685    13867 
   12693    11610    10785     9989     9080     8385     8075     7855 
    7513     6972     6163     5274     4619     4370     4451     4538 
    4341     3763     2903     2049     1406     1011     1080     1923 
    3125     3622     3181     2643     2574     2914     3439     3935 
    4368     4732     4809     4505     4112     3865     3594     3119 
    2652     2483     2699     3197     3526     3416     3370     3778 
    4587     5842     7300     8612     9907    11339    12677    13536 
   13865    14016    14262    14690    15305    16054    16730    16839 
   16166    15083    14028    13430    13619    14289    14668    14339 
   13528    12718    12391    12819    13668    14259    14319    14088 
   13955    14106    14344    14433    14315    13986    13743    13947 
   14427    14901    15407    15943    16382    16600    16545    16301 
   15990    15794    15944    16456    16923    16846    16335    15935 
   15888    16141    16515    16728    16556    16071    15722    15671 
   15480    14910    14199    13673    13538    13836    14422    14964 
   15193    15215    15302    15365    15111    14732    14643    14861 
   15235    15577    15557    15084    14536    14301    14289    14144 
   13743    13342    13251    13410    13573    13676    13556    12902 
   11728    10360     9220     8633     8365     8005     7614     7426 
    7555     8014     8698     9444    10026    10378    10637    10832 
   10933    10845    10322     9413     8615     8394     8850     9576 
    9980    10113    10459    10858    10741    10293    10298    10991 
   11982    12826    13065    12514    11536    10654    10392    10945 
   11863    12871    13991    14834    15072    14869    14382    13695 
   13030    12557    12289    12312    12748    13381    13786    13648 
   12764    11422    10306     9721     9893    11050    12590    13552 
   13549    12822    12034    11611    11341    10984    10671    10552 
   10584    10682    10953    11542    12198    12549    12544    12233 
   11746    11400    11353    11639    12438    13714    15033    16000 
   16517    16665    16534    16285    16050    15649    15136    15086 
   15570    15975    15986    15706    15214    14705    14545    14812 
   15159    15228    15090    15117    15322    15442    15389    15226 
   15332    15945    16522    16712    16772    16886    17267    17901 
   18247    17935    17154    16497    16409    16737    16961    16466 
   15024    13217    11772    10947    10630    10399     9859     9091 
    8373     7921     8024     8695     9461     9930    10062     9769 
    8924     7819     7016     6928     7552     8237     8386     8184 
    7859     7427     7060     6751     6385     6133     6279     6807 
    7365     7768     7986     7794     7106     6278     5870     6082 
    6356     6005     5096     4163     3409     2932     3042     3685 
    4560     5692     7015     7969     8194     8086     8053     7909 
    7473     6933     6632     6749     6965     6819     6410     6165 
    6332     7022     8098     9112     9885    10547    10931    10783 
   10322    10046    10291    11038    11926    12460    12390    12152 
   12412    13067    13516    13488    13128    12985    13540    14479 
   15236    15740    15986    15794    15252    14697    14430    14610 
   14857    14465    13421    12292    11433    11033    11158    11646 
   12364    13237    14041    14574    14927    15211    15367    15384 
   15303    15154    14982    14810    14678    14522    14143    13673 
   13675    14384    15462    16505    17172    17287    17232    17528 
   18193    18913    19288    19064    18535    18322    18598    19071 
   19641    20262    20595    20610    20848    21534    22184    22361 
   21999    21070    19752    18365    16981    15663    14629    14102 
   14127    14432    14761    14955    14826    14500    14316    14330 
   14437    14625    14904    15360    16084    16789    17016    16787 
   16527    16565    17017    17662    17969    17902    17924    17948 
   17633    17160    16708    16158    15396    14406    13431    12808 
   12587    12665    12934    13241    13504    13717    13967    14303 
   14423    14009    13233    12486    11821    11029    10242     9885 
   10007    10346    10563    10351    10035    10165    10539    10620 
   10195     9459     8823     8533     8772     9604    10536    11111 
   11481    11937    12500    12910    12962    12864    12960    13272 
   13514    13427    13064    12720    12498    12224    11909    11669 
   11410    11081    10830    10779    10930    11123    11067    10648 
   10070     9533     9109     8866     8740     8668     8760     9077 
    9499     9783     9847     9903    10137    10691    11821    13400 
   14633    14896    14459    13999    13958    14339    14698    14653 
   14304    14060    14180    14457    14589    14512    14314    14173 
   14130    14105    14147    14150    13834    13234    12635    12195 
   11944    12013    12470    12934    12960    12666    12473    12496 
   12500    12403    12357    12306    12044    11520    10859    10343 
   10216    10259     9900     8986     7990     7473     7623     8047 
    8319     8365     8231     8247     8627     9069     9435     9789 
    9948     9709     9295     9352    10216    11537    12629    12932 
   12603    12283    12137    11944    11589    10962    10100     9331 
    8964     9003     9071     8790     8429     8597     9304    10034 
   10431    10389    10073     9980    10383    10963    11289    11252 
   11074    11061    11209    11245    11215    11387    11509    11225 
   10759    10453    10457    10765    11023    11029    11086    11328 
   11574    11709    11703    11689    11949    12506    13131    13716 
   14138    14143    13809    13558    13591    13814    14083    14160 
   13930    13773    14037    14384    14405    14176    13879    13808 
   14309    15143    15708    15825    15693    15473    15314    15429 
