Origin Time       2011/03/11 14:46:00
Lat.              38.103
Long.             142.860
Depth. (km)       24
Mag.              9.0
Station Code      HKD099
Station Lat.      43.0736
Station Long.     142.8392
Station Height(m) 177
Record Time       2011/03/11 14:48:09
Sampling Freq(Hz) 100Hz
Duration Time(s)  300
Dir.              N-S
Scale Factor      3920(gal)/6182761
Max. Acc. (gal)   18.908
Last Correction   2011/03/11 14:47:54
Memo.             
[...]
   -2360    -2103    -1997    -2920    -4847    -7265    -9832   -11887 
  -12822   -12575   -11113    -8524    -5907    -4652    -4952    -6248 
   -7993    -9453    -9696    -8331    -6047    -3586    -1451     -664 
   -1248    -1629    -1182     -491      185      337     -911    -3734 
   -7409   -10707   -12833   -13918   -14351   -14447   -14640   -15099 
  -15181   -14510   -13346   -11132    -7642    -4300    -2360    -2008 
   -2878    -4623    -7053    -9312   -10701   -11299   -10955    -9868 
   -8720    -7748    -7305    -7792    -8989   -10414   -11720   -12933 
  -14515   -16953   -19896   -22193   -23364   -23887   -24110   -23968 
  -23462   -22478   -20391   -17177   -13923   -11211    -8766    -6739 
   -5738    -5903    -6756    -7716    -8342    -8293    -7685    -7449 
   -7939    -8154    -7774    -7210    -6004    -4190    -2913    -2365 
   -1847    -1524    -1863    -2611    -3756    -5642    -8099   -10672 
  -12815   -14014   -14057   -12876   -10829    -8693    -6685    -4444 
   -2308    -1021     -324       62     -109       25     1530     3819 
    5623     6314     5703     3604      392    -2722    -4782    -5935 
   -6523    -6477    -6350    -7130    -9114   -12154   -15596   -18255 
  -19512   -19467   -18580   -17562   -16806   -16637   -17495   -18650 
  -18439   -16171   -12223    -7131    -1746     2693     5160     5585 
    4918     3817     2318     1043      750     1426     3035     5549 
    8183    10031    11006    11103     9818     7290     4308      978 
   -2667    -5961    -8640   -10704   -11756   -12378   -13953   -16207 
  -18253   -20488   -22740   -23928   -23673   -22034   -19422   -16880 
  -15503   -15718   -16739   -17249   -16783   -15762   -14465   -13076 
  -12123   -11856   -12204   -13145   -14661   -16846   -19252   -20886 
  -21425   -21265   -20701   -19658   -18442   -17588   -16726   -15689 
  -15001   -14441   -13534   -12303   -10837    -9199    -7381    -5474 
   -3563    -1620      110     1819     4172     6428     6965     5878 
    4099     1754     -241     -601      250     1542     3193     4729 
    5822     6830     7695     8086     8070     7465     6087     4481 
    3214     2396     1900     1685     1863     2379     3105     3501 
    2916     1775      644     -554    -1795    -2929    -3838    -4539 
   -4940    -4930    -5193    -6123    -7150    -8118    -9179   -10268 
  -11569   -13121   -14217   -14269   -13909   -13892   -14172   -14906 
  -16166   -17535   -18761   -19348   -18675   -16987   -15116   -13415 
  -11575    -9701    -8253    -7094    -5958    -4989    -4562    -4804 
   -5386    -6411    -7980    -9461   -11042   -13207   -15183   -16360 
  -17027   -17680   -18645   -19440   -19343   -18567   -17650   -17018 
  -17329   -18384   -18879   -18268   -17027   -15321   -13038   -10411 
   -7889    -5733    -3690    -1690     -363      345      919      712 
    -692    -2423    -3875    -5158    -6200    -6841    -7285    -7837 
   -8546    -9122    -9238    -8898    -8019    -6462    -4692    -3477 
   -3631    -5478    -7987   -10103   -11841   -13245   -14375   -15172 
  -14787   -12766    -9436    -5404    -1948     -168      -51     -978 
   -2145    -3067    -3977    -5245    -6548    -7325    -7622    -7529 
   -7259    -7299    -7268    -6765    -6214    -5780    -5887    -7148 
   -9038   -10921   -12768   -14095   -14186   -13149   -11752   -10166 
   -7837    -4860    -2337    -1123    -1061    -1828    -3008    -3537 
   -3221    -2998    -2861    -2397    -1950    -1316      304     2706 
    4744     5852     6261     5947     4858     3616     2616     1754 
    1514     2208     2921     2931     2095      184    -2383    -4982 
   -7603   -10132   -12364   -14261   -15521   -16211   -17115   -18263 
  -18889   -18892   -18452   -17435   -16122   -15360   -15601   -16062 
  -15599   -14408   -13641   -13444   -12774   -11397   -10309    -9845 
   -9748   -10219   -10887   -10927   -10252    -9066    -8047    -8057 
   -8675    -9535   -11231   -13406   -15033   -15878   -16083   -15846 
  -15494   -15507   -16261   -17465   -18824   -20142   -20637   -20093 
  -18922   -17058   -15082   -14162   -14123   -13898   -12800   -10521 
   -7450    -4624    -2670    -1653    -1119      -21     1657     2730 
    3196     3916     4967     6020     6531     5940     4473     2990 
    2381     2832     3497     3464     2499      687    -1820    -4462 
   -6714    -8941   -11448   -13882   -16376   -19074   -21327   -22536 
  -22484   -21571   -20887   -20798   -20707   -20572   -20677   -20349 
  -18781   -16328   -13846   -11742   -10199    -9358    -8936    -8165 
   -6373    -3722    -1129      613     1173      486    -1192    -3222 
   -4834    -5399    -4934    -4336    -4185    -3995    -3491    -3094 
   -2974    -3089    -3503    -3697    -2767     -793     1359     3137 
    3999     3550     2404     1323      398     -258     -384     -195 
    -198     -354     -285     -118      -61       35      306      579 
      58    -1542    -3199    -4484    -5699    -6473    -6701    -6930 
   -7331    -7803    -8257    -8505    -8353    -7652    -6385    -4886 
   -3550    -2463    -2042    -2836    -4356    -5954    -7649    -9171 
  -10212   -11005   -11767   -12388   -12684   -12945   -13825   -15495 
  -17451   -18927   -19822   -20629   -21452   -22543   -23957   -24724 
  -24654   -24684   -25003   -25293   -25635   -25816   -25419   -24760 
  -23987   -22756   -21420   -20076   -18049   -15374   -12412    -9288 
   -6607    -4863    -3995    -4086    -5127    -6395    -6952    -6441 
   -4895    -2536     -214     1250     1953     2274     2385     2287 
    2013     2089     2626     2876     2584     1651     -550    -3748 
   -6723    -8704    -9433    -9106    -8219    -7012    -5424    -3229 
    -547     1832     3258     3687     3505     3155     2685     2096 
    1330      146    -1328    -3000    -4860    -6524    -7769    -8737 
   -9633   -10643   -12173   -14655   -17785   -20698   -22745   -23893 
  -24151   -23185   -21523   -19729   -17047   -13668   -10870    -8553 
   -6182    -4078    -2641    -2053    -2408    -3552    -5170    -6827 
   -7900    -8436    -9208   -10231   -10927   -10926   -10009    -8874 
   -8848    -9923   -11199   -12529   -13741   -14406   -14952   -15811 
  -16807   -18192   -20218   -21954   -22181   -20856   -18794   -16907 
  -15882   -15711   -16029   -16627   -16871   -16012   -14428   -12940 
  -11770   -11130   -11046   -11057   -11082   -11036   -10704   -10496 
  -10394    -9854    -9147    -8630    -8314    -8432    -8854    -9324 
   -9782    -9337    -7154    -4047    -1402      275     1179     1786 
    3004     5356     8100    10230    11044    10216     8333     6240 
    4273     2518     1255      871     1122     1308     1324     1253 
     803      195       95      505      860     1035     1163     1038 
    1007     1840     3516     5758     7970     9156     9438     9188 
    8157     6977     6269     5485     4458     3678     3222     2939 
    2583     1371    -1138    -4207    -7305   -10514   -13300   -15172 
  -16255   -16291   -15310   -14371   -14155   -14514   -15220   -15807 
  -15926   -15901   -15836   -15542   -15440   -15995   -17028   -18202 
  -19449   -20726   -21598   -21725   -21379   -20992   -20900   -21191 
  -21273   -20639   -19807   -19297   -18825   -18368   -18170   -17912 
  -17335   -16472   -15146   -13199   -10744    -8424    -7198    -6995 
   -6813    -6396    -5876    -4877    -3703    -3487    -4556    -6230 
   -8101   -10134   -11837   -12846   -13624   -14676   -15680   -15960 
  -15881   -16242   -16910   -17918   -19438   -20590   -20808   -20385 
  -19316   -17718   -16126   -14592   -12897   -11271    -9797    -8119 
   -6268    -4561    -2924    -1383     -447     -163      167     1008 
    2277     3694     4835     5166     4528     3539     2939     2834 
    3192     4046     4789     4979     5186     5558     5455     4593 
    2968      966     -586    -1433    -1846    -2044    -2295    -2501 
   -2314    -2039    -2396    -3442    -4422    -4929    -5382    -5850 
   -5786    -5242    -4816    -4566    -4407    -4712    -5731    -7356 
   -9114   -10211   -10408   -10070    -9507    -9312   -10147   -11988 
  -14651   -18019   -21482   -24296   -26274   -27423   -27630   -27012 
  -25861   -24452   -23137   -22126   -21372   -20830   -20594   -20815 
  -21361   -21545   -20647   -18721   -16449   -14384   -12633   -11145 
  -10143    -9829    -9808    -9695    -9608    -9497    -9201    -8948 
   -8866    -8729    -8198    -6868    -4761    -2705    -1490    -1113 
   -1092     -963     -396      676     1751     2231     2233     2161 
    2136     2279     2604     3099     3947     4717     4591     3578 
    2081       -5    -2848    -6056    -9035   -11329   -12599   -12947 
  -12772   -12338   -12081   -12332   -12642   -12583   -12287   -11689 
  -10976   -10728   -10593   -10070    -9504    -8993    -8293    -7593 
   -7239    -6895    -5833    -4314    -3197    -2558    -2207    -2635 
   -4360    -6963    -9587   -11877   -13783   -15072   -15826   -17023 
  -19253   -21754   -24118   -26454   -28189   -29251   -30031   -30369 
  -30287   -29660   -28170   -26359   -25137   -24786   -24775   -24396 
  -23332   -21444   -18960   -16423   -13979   -11680    -9477    -6866 
   -3999    -1499      763     2845     4420     5705     6971     7967 
    8737     9855    11324    12233    11899    10288     7684     5038 
    3238     1888      372    -1312    -3269    -5341    -6967    -8153 
   -8924    -8780    -7827    -6948    -6618    -6652    -6915    -6980 
   -5795    -3147     -240     1780     2976     4108     5401     6846 
    8477     9405     9097     8560     8265     7582     6496     5569 
    4809     4048     3619     3610     3520     3010     2107      892 
    -610    -2172    -3504    -5076    -7637   -10607   -12702   -13783 
  -14413   -15059   -16125   -17551   -19104   -20463   -21061   -21071 
  -21100   -21180   -21282   -21756   -22656   -23292   -23313   -23218 
  -22931   -21816   -20287   -19036   -17644   -16027   -14978   -14381 
  -13713   -13516   -13925   -13940   -13373   -12910   -12499   -11715 
  -10937   -11108   -12531   -14332   -15668   -16534   -16894   -16959 
  -17596   -18944   -20243   -21133   -21433   -20682   -19135   -17696 
  -16406   -14980   -13969   -13691   -13526   -12820   -11695   -10558 
   -9134    -7145    -5003    -3052    -1460     -597     -657    -1233 
   -1711    -2008    -2205    -2014    -1351     -589     -196     -257 
    -584    -1395    -2464    -2851    -2596    -2282    -1808    -1286 
   -1218    -1438    -1219     -337      671     1392     1910     2093 
    1661      969      483      -44     -846    -1453    -1604    -1796 
   -2268    -2420    -2159    -2478    -3574    -4760    -5793    -6250 
   -5514    -3788    -2014     -925     -373     -256    -1041    -2392 
   -3394    -4011    -4556    -5005    -5687    -7332    -9774   -11886 
  -13454   -14966   -16073   -16279   -15604   -14442   -13582   -13543 
  -14291   -15377   -15941   -15532   -14721   -14290   -14168   -14006 
  -13893   -13563   -13048   -13574   -15661   -18416   -21222   -23970 
  -26202   -27322   -27310   -26600   -25482   -23962   -22277   -21100 
  -20510   -19980   -19965   -20875   -21484   -21329   -21189   -20534 
  -19012   -17397   -15497   -13109   -10756    -8452    -6250    -4665 
   -4093    -4470    -5261    -6003    -6621    -7203    -7835    -8382 
   -8273    -7075    -5035    -2327      633     2532     3283     3972 
    4415     4109     3371     2687     2709     3887     5993     8577 
   11257    13365    14351    14552    14044    12447    10360     8639 
    7704     7725     8199     8690     8923     8137     6496     5172 
    4285     3316     2529     1931      864     -636    -2417    -4778 
   -7269    -9008    -9629    -9281    -8454    -7489    -6872    -7244 
   -8181    -8751    -9119    -9977   -11195   -12323   -13477   -14636 
  -15354   -15718   -16258   -16820   -17031   -17289   -17532   -17103 
  -16391   -15743   -14879   -14300   -14094   -13708   -13599   -14035 
  -14642   -15421   -16040   -15976   -15270   -14076   -12623   -11322 
  -10463   -10235   -10717   -11803   -13256   -14487   -15078   -15510 
  -15943   -15735   -15059   -14620   -14197   -13453   -12683   -11580 
   -9535    -7301    -5930    -5249    -4892    -4837    -4702    -4019 
   -2910    -2203    -2529    -3403    -4151    -4680    -5141    -5685 
   -5761    -4831    -3679    -3117    -3358    -4811    -7490   -10640 
  -13266   -14987   -16252   -17074   -17132   -17022   -17227   -17166 
  -16677   -16309   -16004   -15619   -15456   -15355   -15212   -15541 
  -16299   -16719   -16346   -15024   -12761   -10385    -8754    -7717 
   -6998    -6378    -5467    -4367    -3344    -2400    -1440     -264 
    1012     1936     2249     2052     1522      741      298      774 
    1611     2018     1762      730     -895    -2424    -3305    -3690 
   -4045    -4619    -5349    -6130    -7193    -8623    -9993   -11044 
  -11872   -12307   -12111   -11931   -12641   -13913   -14874   -15114 
  -14652   -13943   -13601   -14084   -15482   -17112   -18230   -18851 
  -19055   -18936   -19046   -19112   -18222   -16768   -15579   -14555 
  -13823   -13743   -13655   -12610   -10608    -8246    -5992    -3999 
   -2003      322     2935     5757     8597    10938    12591    13941 
   15469    17334    19379    21184    22049    21871    21228    19991 
   17809    15452    13695    12129    10219     8030     5351     2032 
   -1367    -4530    -7487   -10001   -11725   -12441   -12576   -12756 
  -12859   -12963   -13658   -14965   -16797   -19222   -21500   -22776 
  -23129   -22832   -22019   -20964   -19809   -18699   -17951   -17641 
  -17346   -16579   -15559   -14784   -14316   -14245   -14583   -14846 
  -14714   -14253   -13567   -12824   -12120   -11231    -9870    -8257 
   -6845    -5647    -4483    -3257    -2014    -1091     -783    -1026 
   -1505    -2148    -3264    -4825    -6336    -7554    -8722   -10064 
  -11190   -11593   -11732   -12333   -13280   -14347   -15546   -16503 
  -16894   -17119   -17716   -18471   -19031   -19504   -19637   -19092 
  -18235   -17429   -16613   -15683   -14713   -13667   -12277   -11152 
  -11286   -12027   -12294   -12163   -11606   -10489    -9324    -8376 
   -7471    -6581    -5779    -5067    -4303    -3421    -2631    -2145 
   -2182    -2757    -3144    -2926    -2512    -1596      196     2134 
    3988     5920     7414     8752    10698    12722    14309    15652 
   16201    15477    14160    12696    10831     8944     7922     7592 
    6939     5736     4410     2884     1002     -803    -2397    -4172 
   -5936    -7137    -7779    -8119    -8190    -8184    -8806   -10170 
  -11484   -12463   -13329   -14255   -15122   -15343   -14994   -14770 
  -14763   -14997   -15694   -16636   -17296   -17370   -17273   -17633 
  -18453   -19728   -21447   -22724   -22748   -21746   -20256   -18801 
  -18028   -18185   -18733   -19172   -19679   -20006   -19595   -18910 
  -18424   -17908   -17573   -17800   -18288   -18512   -18182   -17095 
  -15316   -13670   -12912   -12503   -11717   -10880   -10289    -9636 
   -9135    -9160    -9009    -8270    -7812    -7723    -7166    -6382 
   -5865    -5263    -4752    -5084    -6114    -6990    -7420    -7525 
   -6924    -5515    -4016    -2686    -1288     -154      248       84 
    -264     -700     -963     -596      234      923     1251     1147 
     441     -338     -302      280      758     1380     2430     3777 
    5155     6315     7371     8415     9094     9253     9183     8858 
    8096     7379     6956     6119     4637     3085     1751      778 
     220     -236     -766    -1541    -2788    -4345    -5994    -7541 
   -8867   -10307   -11770   -12624   -12976   -13329   -13558   -13486 
  -13602   -14141   -14510   -14411   -14039   -13453   -12991   -13214 
  -14225   -15727   -17194   -18106   -18361   -18120   -17619   -16970 
  -16118   -15017   -13533   -11885   -10495    -9121    -7663    -6628 
   -6337    -7133    -9104   -11237   -12577   -13122   -12957   -12263 
  -11507   -10745    -9629    -7981    -6351    -5810    -6580    -8025 
   -9755   -11273   -12024   -12362   -12707   -12796   -12969   -14035 
  -15650   -16955   -17824   -18119   -17353   -15600   -13519   -11915 
  -11181   -10768   -10302   -10156   -10247   -10240   -10186    -9885 
   -9051    -7733    -6103    -4567    -3541    -3167    -3265    -3217 
   -2714    -2034    -1430    -1253    -1521    -1482     -884     -349 
    -175      -75       70      140      265      321     -125     -795 
   -1516    -2856    -4618    -6093    -7213    -7910    -8038    -7756 
   -6985    -5517    -3736    -2496    -2412    -3380    -4885    -6628 
   -8472   -10106   -11300   -12301   -13239   -13539   -13204   -13043 
  -12948   -12383   -11745   -11575   -11798   -12219   -12833   -13235 
  -12702   -11428   -10379    -9939    -9706    -9317    -8886    -8578 
   -8557    -8851    -8755    -7853    -6756    -5892    -5191    -4485 
   -3613    -2581    -1257      242     1306     2024     2816     3276 
    3345     3797     4551     4692     4264     4010     3788     2951 
    1639      272    -1294    -3100    -4744    -6123    -7570    -9097 
  -10359   -11454   -12676   -13766   -14464   -14941   -15230   -15363 
  -15730   -16470   -17228   -17741   -18147   -18461   -18248   -17547 
  -17040   -16846   -16613   -16258   -15651   -14575   -13030   -11094 
   -9048    -7204    -5290    -3142    -1405     -559     -558    -1402 
   -2612    -3199    -2979    -2446    -1737     -886     -139      277 
      75     -744    -1937    -3700    -5663    -6697    -6621    -5673 
   -3935    -2366    -1901    -2123    -1983    -1157     -290      135 
     125     -506    -1637    -2560    -3217    -4173    -4918    -4296 
   -2612    -1130     -420     -859    -2689    -4992    -6651    -7600 
   -8384    -9574   -11167   -12670   -14056   -15437   -16699   -17959 
  -18944   -18866   -17707   -16262   -14849   -13221   -11604   -10470 
   -9620    -8836    -8557    -9042    -9655    -9437    -8252    -6692 
   -5061    -3717    -3342    -3727    -4094    -4424    -4662    -4315 
   -3723    -3760    -4655    -6131    -7760    -9025    -9627    -9753 
   -9750    -9442    -8326    -6384    -4314    -2925    -2488    -2941 
   -3893    -4518    -4813    -5591    -6741    -7709    -8643    -9663 
  -10602   -11515   -12564   -13823   -15233   -16584   -17700   -18499 
  -18893   -18973   -19018   -19038   -19116   -19494   -19841   -19774 
  -19425   -18680   -17241   -15336   -13241   -10725    -7675    -4709 
   -2611    -1346     -345      438      894     1455     2273     3147 
    4305     5713     6616     6438     5327     3886     2482     1120 
     139      -14      347      665      934     1030      583     -100 
    -642    -1331    -2132    -2601    -2562    -2039    -1431    -1296 
   -1766    -2676    -3626    -4280    -4662    -4612    -4238    -4396 
   -5117    -5788    -6746    -8260    -9988   -11674   -12771   -13073 
  -12989   -12497   -11573   -10433    -9291    -8609    -8570    -9164 
  -10570   -12290   -13216   -13027   -12396   -11713   -10928   -10168 
