Origin Time       2011/03/11 14:46:00
Lat.              38.103
Long.             142.860
Depth. (km)       24
Mag.              9.0
Station Code      HKD046
Station Lat.      44.1920
Station Long.     143.0767
Station Height(m) 132
Record Time       2011/03/11 14:50:26
Sampling Freq(Hz) 100Hz
Duration Time(s)  60
Dir.              E-W
Scale Factor      3920(gal)/6182761
Max. Acc. (gal)   1.832
Last Correction   2011/03/11 14:50:11
Memo.             
[...]
    2593     2552     2560     2610     2611     2581     2578     2571 
    2553     2555     2562     2566     2588     2612     2602     2585 
    2575     2522     2439     2407     2413     2402     2399     2429 
    2433     2411     2443     2498     2529     2589     2645     2656 
    2682     2709     2681     2643     2634     2617     2570     2553 
    2617     2676     2679     2693     2714     2720     2751     2816 
    2858     2852     2851     2859     2824     2774     2764     2771 
    2751     2726     2733     2720     2630     2548     2526     2499 
    2458     2455     2485     2504     2517     2545     2576     2591 
    2592     2576     2556     2571     2606     2638     2704     2792 
    2843     2869     2901     2910     2887     2867     2856     2847 
    2854     2901     2969     3019     3075     3133     3144     3132 
    3123     3095     3074     3093     3119     3118     3111     3119 
    3137     3159     3156     3121     3119     3144     3102     3019 
    3000     3002     2927     2837     2823     2813     2752     2738 
    2778     2775     2763     2818     2882     2876     2864     2929 
    2989     2951     2930     2995     3018     2952     2915     2944 
    2931     2845     2786     2777     2765     2764     2804     2857 
    2882     2887     2895     2894     2910     2968     3026     3048 
    3026     2974     2931     2906     2885     2840     2747     2669 
    2643     2608     2558     2570     2626     2650     2668     2705 
    2707     2685     2700     2738     2756     2768     2806     2854 
    2904     2988     3086     3143     3187     3276     3372     3418 
    3456     3526     3564     3554     3553     3563     3570     3587 
    3621     3666     3705     3740     3789     3843     3911     3967 
    3967     3985     4081     4175     4202     4210     4274     4365 
    4387     4365     4367     4348     4282     4256     4306     4343 
    4324     4339     4408     4445     4448     4470     4484     4459 
    4429     4442     4475     4488     4514     4575     4610     4608 
    4630     4648     4608     4577     4571     4504     4422     4422 
    4421     4326     4235     4245     4227     4097     4012     4041 
    4065     4052     4084     4162     4185     4125     4069     4056 
    4026     3974     3968     3992     3984     3986     4060     4145 
    4190     4259     4369     4437     4463     4500     4516     4489 
    4481     4520     4547     4541     4556     4606     4633     4627 
    4626     4630     4599     4552     4540     4540     4502     4458 
    4471     4491     4464     4455     4489     4505     4499     4505 
    4519     4529     4547     4588     4623     4638     4651     4659 
    4654     4641     4609     4584     4583     4578     4562     4545 
    4523     4531     4575     4607     4606     4595     4593     4583 
    4552     4530     4517     4471     4397     4310     4205     4111 
    4051     3998     3942     3899     3859     3817     3804     3777 
    3688     3625     3635     3618     3568     3573     3604     3581 
    3539     3549     3563     3532     3519     3543     3547     3557 
    3619     3680     3683     3665     3681     3696     3669     3652 
    3662     3645     3612     3599     3593     3588     3594     3597 
    3596     3624     3688     3736     3743     3742     3741     3734 
    3755     3808     3848     3893     3973     4012     4001     4046 
    4123     4136     4161     4260     4322     4298     4293     4320 
    4272     4205     4236     4289     4272     4239     4249     4275 
    4265     4238     4252     4289     4300     4284     4279     4302 
    4319     4312     4290     4247     4205     4155     4067     3987 
    3916     3830     3760     3722     3716     3734     3725     3699 
    3700     3680     3640     3645     3660     3652     3624     3586 
    3590     3617     3599     3601     3687     3758     3779     3834 
    3917     3963     3992     4055     4127     4146     4118     4099 
    4086     4050     4023     4059     4102     4093     4139     4264 
    4328     4325     4372     4465     4490     4482     4558     4629 
    4594     4541     4515     4454     4356     4312     4343     4347 
    4303     4306     4338     4318     4290     4324     4390     4416 
    4421     4482     4541     4505     4447     4452     4471     4441 
    4392     4391     4408     4385     4368     4379     4370     4330 
    4305     4319     4325     4290     4253     4246     4275     4305 
    4302     4308     4296     4189     4088     4064     3996     3850 
    3722     3644     3570     3461     3370     3337     3279     3177 
    3132     3142     3129     3106     3120     3147     3127     3099 
    3114     3107     3071     3078     3097     3079     3071     3116 
    3147     3091     3013     2956     2872     2784     2701     2626 
    2584     2511     2428     2434     2476     2484     2478     2481 
    2471     2421     2391     2412     2411     2398     2442     2463 
    2409     2350     2312     2289     2261     2221     2183     2127 
    2095     2112     2092     2036     2007     1989     1956     1929 
    1938     1949     1931     1922     1944     1996     2062     2092 
    2096     2113     2130     2153     2199     2249     2305     2338 
    2339     2345     2339     2347     2385     2372     2340     2364 
    2380     2351     2312     2315     2372     2397     2414     2497 
    2543     2535     2558     2587     2612     2633     2642     2696 
    2744     2723     2731     2799     2838     2826     2870     3002 
    3087     3134     3266     3383     3383     3388     3447     3464 
    3419     3408     3457     3470     3422     3412     3446     3442 
    3393     3339     3322     3349     3387     3455     3540     3555 
    3524     3513     3498     3463     3453     3459     3432     3419 
    3443     3403     3338     3346     3338     3287     3312     3398 
    3429     3412     3437     3481     3474     3481     3530     3529 
    3508     3544     3595     3635     3678     3728     3768     3780 
    3795     3820     3834     3865     3886     3849     3807     3789 
    3766     3739     3716     3692     3701     3744     3765     3780 
    3831     3877     3900     3905     3892     3913     3950     3941 
    3943     3977     3998     4056     4172     4306     4427     4495 
    4549     4619     4660     4707     4759     4732     4667     4665 
    4718     4745     4740     4808     4968     5080     5126     5205 
    5272     5296     5323     5362     5428     5485     5486     5460 
    5431     5423     5397     5310     5273     5324     5345     5347 
    5427     5516     5503     5462     5495     5552     5549     5526 
    5520     5452     5352     5301     5260     5202     5156     5142 
    5144     5138     5163     5224     5298     5369     5385     5370 
    5381     5370     5287     5207     5155     5091     5015     4960 
    4942     4926     4890     4873     4891     4931     4977     5006 
    5038     5046     4971     4849     4775     4772     4762     4723 
    4708     4705     4680     4669     4680     4658     4597     4556 
    4566     4592     4624     4683     4770     4846     4882     4925 
    4990     5033     5054     5072     5087     5115     5141     5142 
    5144     5167     5168     5148     5148     5133     5098     5082 
    5064     5027     4987     4943     4894     4855     4823     4787 
    4781     4824     4879     4924     4963     4969     4948     4949 
    4968     4974     4990     5041     5116     5198     5270     5322 
    5354     5353     5325     5303     5288     5219     5097     5008 
    4957     4896     4861     4855     4827     4797     4789     4767 
    4718     4678     4647     4586     4527     4518     4518     4511 
    4520     4516     4487     4484     4531     4568     4556     4559 
    4621     4658     4607     4535     4501     4468     4424     4403 
    4379     4310     4247     4224     4187     4119     4088     4107 
    4108     4086     4116     4193     4251     4319     4432     4541 
    4609     4680     4760     4785     4776     4806     4816     4722 
    4607     4562     4531     4446     4353     4327     4333     4288 
    4220     4203     4199     4144     4094     4108     4137     4132 
    4124     4147     4157     4145     4177     4217     4184     4129 
    4091     4047     4018     4017     4022     4009     4009     4062 
    4100     4088     4127     4226     4285     4309     4352     4394 
    4414     4446     4497     4513     4487     4485     4509     4510 
    4519     4544     4541     4538     4571     4581     4520     4461 
    4448     4408     4380     4450     4537     4572     4625     4713 
    4735     4675     4650     4657     4597     4515     4481     4442 
    4341     4222     4137     4046     3940     3871     3811     3728 
    3660     3626     3596     3558     3532     3518     3511     3528 
    3551     3572     3598     3609     3589     3552     3501     3430 
    3356     3297     3249     3237     3276     3310     3314     3365 
    3477     3516     3468     3501     3616     3634     3571     3598 
    3690     3716     3724     3786     3832     3817     3815     3878 
    3939     3938     3924     3935     3921     3876     3859     3869 
    3845     3797     3799     3832     3838     3860     3908     3892 
    3808     3757     3750     3732     3715     3720     3709     3677 
    3674     3706     3722     3706     3711     3763     3802     3776 
    3714     3668     3657     3667     3689     3733     3764     3746 
    3742     3779     3782     3749     3721     3693     3656     3595 
    3534     3504     3493     3510     3545     3584     3658     3718 
    3706     3674     3644     3599     3564     3549     3562     3601 
    3622     3634     3674     3704     3697     3692     3692     3663 
    3633     3651     3693     3705     3723     3770     3772     3744 
    3777     3811     3788     3793     3834     3825     3780     3768 
    3756     3680     3621     3641     3634     3574     3561     3601 
    3615     3588     3562     3563     3577     3596     3654     3747 
    3785     3763     3755     3744     3692     3652     3677     3725 
    3736     3751     3820     3892     3903     3900     3916     3897 
    3876     3938     4016     4011     4001     4055     4065     3984 
    3929     3926     3888     3814     3784     3808     3830     3843 
    3878     3914     3924     3938     3978     4000     4000     4009 
    4023     4036     4040     4037     4057     4109     4161     4188 
    4220     4249     4232     4203     4206     4213     4199     4180 
    4167     4145     4130     4148     4193     4244     4282     4321 
    4365     4385     4399     4451     4498     4493     4501     4551 
    4569     4538     4525     4536     4536     4528     4525     4528 
    4540     4520     4457     4393     4330     4262     4229     4243 
    4271     4280     4269     4248     4229     4226     4208     4155 
    4112     4106     4088     4038     4011     4011     3972     3909 
    3905     3956     3987     3982     3980     3979     3968     3965 
    3971     3971     3966     3943     3882     3797     3720     3666 
    3623     3569     3509     3466     3419     3351     3313     3314 
    3315     3315     3334     3369     3406     3450     3476     3446 
    3414     3434     3441     3419     3437     3472     3452     3418 
    3443     3490     3509     3545     3618     3654     3640     3646 
    3651     3597     3541     3529     3528     3549     3608     3658 
    3688     3751     3828     3844     3822     3828     3842     3832 
    3827     3854     3892     3934     3985     4008     3996     3979 
    3971     3963     3944     3945     3987     4005     3977     3973 
    4013     4046     4051     4054     4036     3984     3954     3948 
    3944     3976     4034     4110     4214     4279     4279     4303 
    4350     4336     4327     4382     4393     4340     4320     4348 
    4390     4437     4492     4554     4596     4606     4600     4585 
    4571     4581     4597     4589     4570     4570     4584     4589 
    4585     4590     4601     4634     4698     4745     4758     4777 
    4801     4774     4691     4621     4598     4592     4598     4604 
    4577     4560     4603     4621     4568     4561     4612     4591 
    4508     4467     4479     4502     4500     4487     4514     4563 
    4596     4621     4637     4642     4648     4646     4653     4693 
    4726     4728     4744     4806     4902     4982     5001     4986 
    4963     4926     4897     4897     4902     4878     4862     4872 
    4856     4801     4774     4799     4842     4877     4905     4919 
    4880     4822     4826     4870     4880     4857     4888     4971 
    4984     4955     4995     5043     5013     4977     5017     5057 
    5042     5051     5096     5118     5142     5190     5236     5251 
    5255     5302     5356     5385     5448     5519     5538     5555 
    5603     5660     5704     5735     5797     5871     5908     5953 
    6015     6057     6103     6133     6106     6070     6078     6111 
    6110     6081     6107     6190     6252     6291     6339     6367 
    6371     6415     6507     6575     6575     6564     6598     6618 
    6585     6589     6663     6714     6722     6735     6762     6758 
    6701     6670     6680     6657     6630     6642     6652     6648 
    6655     6662     6655     6659     6669     6656     6657     6667 
    6640     6607     6590     6558     6487     6403     6348     6295 
    6228     6188     6169     6132     6093     6083     6082     6052 
    6007     5973     5908     5794     5694     5640     5595     5543 
    5501     5470     5419     5319     5227     5209     5197     5139 
    5080     5051     5038     5013     4987     4963     4934     4948 
    4995     4993     4963     4959     4960     4950     4939     4923 
    4882     4811     4761     4744     4706     4646     4599     4577 
    4541     4487     4472     4438     4314     4216     4209     4198 
    4129     4045     3979     3919     3864     3835     3822     3813 
    3818     3805     3768     3757     3747     3712     3701     3721 
    3733     3698     3647     3642     3670     3671     3639     3619 
    3613     3558     3464     3424     3433     3404     3341     3316 
    3328     3344     3381     3452     3535     3601     3655     3720 
    3770     3780     3782     3797     3787     3773     3808     3826 
    3781     3739     3719     3680     3640     3647     3685     3708 
    3723     3752     3789     3823     3830     3806     3802     3818 
    3818     3825     3844     3836     3802     3767     3724     3668 
    3610     3539     3454     3387     3332     3275     3243     3235 
    3196     3120     3065     3042     2976     2867     2825     2830 
    2775     2708     2713     2744     2736     2720     2748     2784 
    2767     2717     2681     2665     2644     2625     2619     2606 
    2592     2596     2610     2626     2648     2669     2660     2631 
    2632     2638     2622     2637     2691     2721     2712     2719 
    2732     2697     2661     2676     2710     2709     2673     2670 
    2700     2688     2670     2712     2759     2767     2762     2768 
    2754     2711     2690     2700     2706     2716     2758     2823 
    2869     2899     2963     3056     3119     3132     3169     3265 
    3313     3270     3262     3337     3393     3379     3387     3455 
    3495     3499     3542     3612     3639     3619     3621     3651 
    3625     3531     3455     3421     3370     3306     3279     3278 
    3258     3230     3209     3175     3152     3156     3137     3094 
    3101     3152     3158     3138     3196     3279     3284     3284 
    3332     3345     3318     3315     3318     3304     3305     3353 
    3420     3438     3425     3453     3494     3484     3475     3510 
    3528     3500     3463     3453     3453     3417     3390     3420 
    3446     3438     3424     3413     3403     3386     3365     3358 
    3358     3357     3359     3375     3390     3377     3364     3377 
    3386     3372     3344     3329     3348     3362     3351     3354 
    3360     3336     3306     3305     3322     3329     3316     3328 
    3384     3410     3390     3390     3391     3346     3289     3269 
    3280     3267     3244     3261     3269     3241     3224     3209 
    3190     3186     3185     3178     3154     3093     3030     2999 
    2972     2943     2950     2966     2935     2907     2932     2948 
    2936     2957     2997     2992     2963     2986     3018     2990 
    2981     3057     3123     3114     3116     3172     3199     3195 
    3248     3310     3292     3279     3344     3380     3347     3364 
    3441     3478     3479     3492     3508     3519     3527     3549 
    3577     3588     3572     3538     3536     3556     3529     3492 
    3495     3509     3508     3495     3477     3434     3394     3393 
    3378     3333     3308     3310     3306     3277     3273     3324 
    3340     3313     3342     3380     3353     3310     3303     3311 
    3298     3278     3295     3306     3271     3244     3268     3315 
    3318     3297     3333     3377     3383     3422     3479     3466 
    3435     3446     3470     3497     3539     3578     3602     3624 
    3633     3636     3670     3690     3674     3689     3721     3723 
    3714     3711     3735     3781     3804     3802     3797     3800 
    3809     3811     3824     3879     3923     3926     3949     3993 
    4026     4063     4094     4130     4163     4145     4130     4164 
    4176     4150     4145     4164     4162     4165     4213     4233 
    4225     4277     4332     4323     4313     4308     4267     4229 
    4227     4204     4156     4146     4139     4093     4077     4111 
    4122     4093     4083     4096     4101     4103     4117     4139 
    4155     4162     4183     4215     4228     4226     4239     4267 
    4293     4327     4360     4367     4391     4448     4473     4470 
    4485     4499     4484     4469     4481     4492     4476     4488 
    4537     4541     4524     4568     4617     4614     4605     4629 
    4660     4668     4678     4689     4681     4660     4621     4575 
    4547     4529     4527     4525     4514     4516     4516     4529 
    4568     4586     4585     4605     4627     4615     4590     4608 
    4631     4596     4565     4580     4590     4577     4582     4613 
    4633     4627     4638     4655     4628     4579     4547     4536 
    4542     4558     4580     4601     4613     4627     4638     4633 
    4628     4635     4656     4686     4710     4740     4799     4857 
    4879     4880     4893     4918     4920     4905     4919     4920 
    4883     4885     4919     4922     4919     4930     4928     4898 
    4881     4894     4873     4829     4836     4832     4781     4771 
    4804     4787     4735     4726     4736     4704     4679     4710 
    4730     4707     4698     4712     4711     4681     4643     4619 
