Origin Time       2011/03/11 14:46:00
Lat.              38.103
Long.             142.860
Depth. (km)       24
Mag.              9.0
Station Code      HKD009
Station Lat.      44.8417
Station Long.     142.4811
Station Height(m) 23
Record Time       2011/03/11 14:49:55
Sampling Freq(Hz) 100Hz
Duration Time(s)  110
Dir.              U-D
Scale Factor      3920(gal)/6182761
Max. Acc. (gal)   1.398
Last Correction   2011/03/11 14:49:40
Memo.             
[...]
   -6083    -6137    -6183    -6234    -6295    -6342    -6377    -6419 
   -6465    -6518    -6570    -6607    -6641    -6668    -6675    -6678 
   -6679    -6679    -6687    -6696    -6703    -6722    -6756    -6793 
   -6823    -6856    -6895    -6935    -6987    -7054    -7117    -7163 
   -7199    -7232    -7264    -7300    -7350    -7398    -7437    -7481 
   -7521    -7547    -7572    -7587    -7580    -7581    -7598    -7596 
   -7577    -7563    -7552    -7541    -7532    -7513    -7474    -7431 
   -7392    -7344    -7292    -7243    -7191    -7140    -7082    -7012 
   -6946    -6882    -6810    -6740    -6662    -6571    -6505    -6462 
   -6415    -6374    -6344    -6312    -6270    -6225    -6178    -6118 
   -6058    -6017    -5980    -5943    -5907    -5859    -5810    -5773 
   -5737    -5697    -5654    -5605    -5557    -5512    -5473    -5438 
   -5385    -5326    -5287    -5251    -5212    -5179    -5149    -5136 
   -5146    -5155    -5161    -5160    -5150    -5136    -5107    -5077 
   -5072    -5063    -5048    -5057    -5093    -5143    -5194    -5250 
   -5330    -5416    -5483    -5547    -5610    -5672    -5755    -5831 
   -5875    -5919    -5974    -6021    -6080    -6162    -6236    -6290 
   -6324    -6336    -6355    -6396    -6434    -6473    -6516    -6550 
   -6586    -6620    -6635    -6646    -6653    -6653    -6661    -6675 
   -6688    -6704    -6725    -6738    -6729    -6707    -6683    -6653 
   -6623    -6592    -6555    -6524    -6505    -6486    -6474    -6471 
   -6469    -6451    -6424    -6404    -6372    -6322    -6274    -6219 
   -6159    -6104    -6045    -5990    -5959    -5947    -5944    -5929 
   -5893    -5863    -5843    -5815    -5784    -5747    -5705    -5668 
   -5642    -5614    -5573    -5541    -5528    -5511    -5494    -5480 
   -5446    -5410    -5387    -5365    -5349    -5335    -5302    -5281 
   -5292    -5316    -5343    -5371    -5396    -5404    -5401    -5399 
   -5397    -5397    -5410    -5437    -5465    -5494    -5530    -5569 
   -5606    -5646    -5692    -5740    -5770    -5789    -5828    -5871 
   -5899    -5934    -5977    -5999    -6014    -6039    -6047    -6042 
   -6053    -6055    -6037    -6024    -6007    -5982    -5976    -5980 
   -5976    -5966    -5953    -5957    -5977    -5982    -5990    -6021 
   -6035    -6017    -6008    -6022    -6041    -6058    -6071    -6082 
   -6093    -6113    -6141    -6168    -6201    -6240    -6263    -6288 
   -6324    -6336    -6336    -6354    -6371    -6394    -6433    -6457 
   -6471    -6491    -6509    -6538    -6583    -6625    -6659    -6698 
   -6739    -6780    -6824    -6871    -6915    -6937    -6952    -6962 
   -6944    -6931    -6950    -6960    -6960    -6981    -7020    -7057 
   -7074    -7065    -7039    -7017    -7016    -7017    -7007    -6993 
   -6972    -6952    -6942    -6918    -6876    -6831    -6763    -6684 
   -6628    -6581    -6526    -6472    -6423    -6387    -6373    -6374 
   -6374    -6376    -6398    -6445    -6499    -6534    -6561    -6596 
   -6633    -6661    -6670    -6651    -6620    -6592    -6569    -6554 
   -6536    -6509    -6491    -6496    -6494    -6461    -6425    -6386 
   -6317    -6250    -6201    -6145    -6096    -6070    -6050    -6030 
   -6022    -6016    -5998    -5988    -6010    -6031    -6023    -6009 
   -6005    -5992    -5964    -5951    -5944    -5928    -5921    -5919 
   -5900    -5884    -5882    -5872    -5852    -5827    -5810    -5810 
   -5819    -5822    -5815    -5811    -5828    -5857    -5879    -5893 
   -5910    -5926    -5937    -5956    -5986    -6013    -6048    -6095 
   -6142    -6185    -6230    -6267    -6306    -6357    -6410    -6473 
   -6556    -6631    -6691    -6751    -6803    -6844    -6883    -6918 
   -6949    -6975    -6996    -7010    -7001    -6987    -7002    -7024 
   -7038    -7061    -7090    -7118    -7148    -7173    -7189    -7192 
   -7183    -7180    -7195    -7195    -7166    -7152    -7160    -7153 
   -7143    -7137    -7122    -7113    -7095    -7051    -6996    -6938 
   -6883    -6839    -6802    -6754    -6702    -6676    -6664    -6629 
   -6571    -6505    -6448    -6400    -6356    -6328    -6308    -6285 
   -6270    -6256    -6237    -6232    -6229    -6218    -6210    -6207 
   -6196    -6173    -6158    -6158    -6158    -6168    -6182    -6182 
   -6185    -6188    -6174    -6158    -6142    -6115    -6091    -6082 
   -6090    -6101    -6081    -6048    -6031    -6013    -5997    -6008 
   -6018    -6016    -6016    -6010    -6005    -6027    -6059    -6092 
   -6131    -6150    -6153    -6159    -6162    -6166    -6170    -6158 
   -6151    -6174    -6205    -6238    -6282    -6313    -6324    -6334 
   -6333    -6318    -6287    -6235    -6199    -6196    -6200    -6210 
   -6227    -6241    -6276    -6319    -6356    -6411    -6460    -6471 
   -6468    -6480    -6495    -6493    -6493    -6506    -6504    -6491 
   -6486    -6470    -6447    -6427    -6401    -6379    -6358    -6318 
   -6273    -6255    -6257    -6254    -6251    -6251    -6239    -6232 
   -6255    -6280    -6271    -6249    -6241    -6234    -6216    -6197 
   -6189    -6183    -6176    -6184    -6210    -6232    -6247    -6271 
   -6289    -6289    -6289    -6289    -6299    -6341    -6372    -6375 
   -6401    -6433    -6450    -6489    -6522    -6525    -6541    -6556 
   -6558    -6587    -6624    -6650    -6702    -6768    -6808    -6837 
   -6877    -6904    -6909    -6921    -6944    -6950    -6943    -6967 
   -6995    -6987    -6976    -6972    -6944    -6917    -6914    -6908 
   -6892    -6879    -6865    -6847    -6837    -6838    -6836    -6839 
   -6851    -6852    -6850    -6866    -6879    -6872    -6881    -6915 
   -6939    -6966    -7000    -7012    -7023    -7059    -7083    -7089 
   -7098    -7100    -7090    -7075    -7065    -7057    -7033    -7012 
   -7006    -6992    -6968    -6948    -6933    -6910    -6860    -6796 
   -6748    -6709    -6670    -6634    -6603    -6578    -6550    -6532 
   -6535    -6537    -6549    -6573    -6571    -6558    -6565    -6560 
   -6531    -6503    -6466    -6427    -6411    -6392    -6352    -6317 
   -6287    -6255    -6235    -6211    -6181    -6173    -6187    -6215 
   -6249    -6277    -6299    -6319    -6328    -6333    -6342    -6358 
   -6374    -6378    -6388    -6415    -6434    -6443    -6468    -6509 
   -6550    -6572    -6576    -6585    -6587    -6583    -6591    -6583 
   -6547    -6518    -6485    -6429    -6375    -6333    -6278    -6208 
   -6141    -6077    -6012    -5956    -5911    -5863    -5813    -5776 
   -5748    -5723    -5709    -5702    -5699    -5701    -5695    -5670 
   -5638    -5603    -5576    -5570    -5571    -5555    -5551    -5558 
   -5541    -5526    -5535    -5513    -5467    -5452    -5460    -5456 
   -5442    -5424    -5416    -5417    -5411    -5394    -5379    -5366 
   -5350    -5338    -5328    -5303    -5283    -5294    -5305    -5292 
   -5292    -5318    -5347    -5373    -5388    -5400    -5425    -5448 
   -5449    -5450    -5459    -5465    -5480    -5495    -5486    -5479 
   -5483    -5469    -5455    -5460    -5455    -5458    -5500    -5542 
   -5579    -5646    -5700    -5720    -5764    -5816    -5843    -5869 
   -5897    -5918    -5932    -5919    -5899    -5893    -5876    -5846 
   -5813    -5773    -5733    -5699    -5655    -5596    -5534    -5483 
   -5451    -5422    -5386    -5352    -5326    -5309    -5305    -5304 
   -5295    -5280    -5270    -5259    -5240    -5222    -5214    -5213 
   -5232    -5264    -5275    -5289    -5328    -5358    -5380    -5406 
   -5414    -5418    -5429    -5418    -5410    -5422    -5417    -5407 
   -5416    -5399    -5370    -5361    -5334    -5292    -5267    -5248 
   -5237    -5237    -5234    -5251    -5291    -5341    -5404    -5457 
   -5500    -5564    -5627    -5672    -5720    -5761    -5783    -5803 
   -5824    -5837    -5850    -5864    -5868    -5859    -5862    -5878 
   -5887    -5892    -5896    -5889    -5891    -5892    -5869    -5848 
   -5839    -5824    -5809    -5791    -5756    -5716    -5674    -5633 
   -5616    -5616    -5610    -5613    -5629    -5632    -5627    -5638 
   -5664    -5679    -5681    -5708    -5759    -5787    -5806    -5851 
   -5887    -5901    -5913    -5911    -5903    -5910    -5913    -5908 
   -5912    -5920    -5931    -5943    -5951    -5971    -5998    -6022 
   -6048    -6069    -6071    -6067    -6064    -6056    -6047    -6040 
   -6042    -6063    -6076    -6058    -6028    -5988    -5949    -5935 
   -5925    -5911    -5907    -5898    -5878    -5859    -5838    -5812 
   -5794    -5789    -5779    -5762    -5759    -5763    -5750    -5727 
   -5715    -5700    -5674    -5654    -5635    -5617    -5610    -5597 
   -5564    -5522    -5493    -5492    -5503    -5489    -5458    -5433 
   -5394    -5343    -5300    -5257    -5224    -5211    -5186    -5141 
   -5105    -5078    -5047    -5016    -4996    -4987    -4976    -4961 
   -4961    -4979    -4994    -4999    -5006    -5028    -5061    -5082 
   -5098    -5123    -5139    -5144    -5159    -5175    -5187    -5216 
   -5264    -5322    -5384    -5434    -5479    -5551    -5638    -5723 
   -5807    -5883    -5948    -6009    -6087    -6183    -6269    -6352 
   -6453    -6545    -6622    -6704    -6773    -6828    -6883    -6932 
   -6981    -7038    -7092    -7136    -7167    -7191    -7220    -7249 
   -7269    -7288    -7307    -7317    -7322    -7324    -7306    -7282 
   -7274    -7269    -7257    -7248    -7245    -7250    -7251    -7234 
   -7223    -7227    -7214    -7174    -7118    -7046    -6981    -6939 
   -6909    -6885    -6862    -6829    -6803    -6787    -6771    -6757 
   -6727    -6675    -6633    -6592    -6528    -6465    -6407    -6339 
   -6276    -6212    -6154    -6123    -6108    -6093    -6075    -6057 
   -6046    -6032    -6002    -5981    -5979    -5974    -5965    -5956 
   -5944    -5940    -5941    -5939    -5943    -5945    -5938    -5936 
   -5930    -5905    -5892    -5900    -5892    -5873    -5869    -5869 
   -5870    -5881    -5893    -5899    -5913    -5925    -5926    -5939 
   -5973    -5994    -6002    -6018    -6032    -6045    -6072    -6094 
   -6111    -6142    -6170    -6194    -6226    -6257    -6284    -6304 
   -6309    -6306    -6298    -6280    -6261    -6243    -6213    -6166 
   -6118    -6082    -6058    -6045    -6039    -6029    -6019    -6014 
   -6005    -5990    -5989    -5999    -5985    -5952    -5932    -5915 
   -5888    -5866    -5855    -5849    -5844    -5823    -5781    -5739 
   -5702    -5664    -5627    -5585    -5540    -5511    -5498    -5476 
   -5441    -5420    -5420    -5423    -5435    -5460    -5469    -5467 
   -5483    -5511    -5530    -5555    -5594    -5633    -5675    -5720 
   -5744    -5754    -5759    -5758    -5759    -5757    -5750    -5752 
   -5751    -5740    -5736    -5725    -5694    -5657    -5625    -5593 
   -5559    -5516    -5472    -5439    -5411    -5389    -5377    -5360 
   -5337    -5319    -5295    -5263    -5238    -5210    -5176    -5155 
   -5142    -5120    -5102    -5092    -5080    -5065    -5044    -5025 
   -5025    -5040    -5056    -5066    -5058    -5036    -5028    -5031 
   -5024    -5014    -5002    -4983    -4973    -4977    -4978    -4971 
   -4978    -4995    -5008    -5021    -5037    -5052    -5075    -5118 
   -5179    -5241    -5289    -5327    -5367    -5413    -5470    -5534 
   -5588    -5637    -5692    -5745    -5791    -5831    -5866    -5902 
   -5919    -5900    -5870    -5838    -5794    -5749    -5712    -5679 
   -5660    -5656    -5646    -5629    -5617    -5612    -5615    -5630 
   -5648    -5658    -5663    -5670    -5684    -5700    -5711    -5715 
   -5706    -5684    -5658    -5625    -5580    -5532    -5486    -5435 
   -5373    -5313    -5265    -5223    -5194    -5174    -5154    -5146 
   -5143    -5138    -5142    -5143    -5124    -5099    -5087    -5083 
   -5088    -5103    -5131    -5173    -5218    -5258    -5303    -5350 
   -5390    -5434    -5488    -5548    -5607    -5669    -5738    -5799 
   -5846    -5898    -5941    -5951    -5960    -6002    -6042    -6066 
   -6112    -6175    -6212    -6231    -6263    -6304    -6339    -6364 
   -6383    -6398    -6403    -6396    -6385    -6375    -6371    -6382 
   -6387    -6379    -6390    -6404    -6388    -6369    -6351    -6321 
   -6302    -6294    -6278    -6261    -6250    -6234    -6223    -6220 
   -6213    -6204    -6204    -6205    -6207    -6214    -6223    -6236 
   -6256    -6269    -6274    -6281    -6285    -6274    -6256    -6237 
   -6215    -6198    -6184    -6172    -6168    -6168    -6159    -6139 
   -6123    -6125    -6124    -6115    -6132    -6179    -6206    -6207 
   -6222    -6247    -6259    -6270    -6282    -6289    -6297    -6308 
   -6316    -6310    -6297    -6289    -6275    -6248    -6232    -6230 
   -6214    -6186    -6155    -6123    -6104    -6095    -6081    -6064 
   -6050    -6028    -5998    -5970    -5945    -5911    -5858    -5805 
   -5771    -5747    -5721    -5691    -5652    -5608    -5567    -5522 
   -5464    -5403    -5349    -5298    -5234    -5163    -5097    -5029 
   -4956    -4890    -4831    -4777    -4731    -4690    -4650    -4622 
   -4602    -4581    -4563    -4543    -4512    -4475    -4441    -4412 
   -4380    -4348    -4321    -4288    -4246    -4219    -4201    -4166 
   -4117    -4082    -4070    -4066    -4051    -4023    -3993    -3967 
   -3952    -3956    -3966    -3971    -3981    -4000    -4027    -4056 
   -4080    -4099    -4121    -4146    -4172    -4201    -4238    -4281 
   -4325    -4377    -4436    -4489    -4536    -4583    -4633    -4690 
   -4752    -4811    -4871    -4934    -5003    -5083    -5161    -5237 
   -5314    -5377    -5428    -5486    -5541    -5580    -5618    -5669 
   -5723    -5769    -5814    -5855    -5898    -5946    -5984    -6006 
   -6018    -6026    -6032    -6036    -6033    -6029    -6028    -6026 
   -6023    -6021    -6020    -6020    -6014    -6000    -5974    -5935 
   -5891    -5842    -5795    -5755    -5714    -5678    -5657    -5634 
   -5617    -5621    -5622    -5618    -5634    -5655    -5665    -5680 
   -5709    -5750    -5795    -5847    -5905    -5963    -6027    -6099 
   -6152    -6185    -6235    -6278    -6292    -6319    -6362    -6381 
   -6391    -6415    -6442    -6468    -6485    -6487    -6489    -6505 
   -6518    -6523    -6532    -6549    -6579    -6616    -6648    -6680 
   -6714    -6746    -6778    -6801    -6813    -6829    -6842    -6842 
   -6844    -6859    -6880    -6900    -6913    -6920    -6930    -6938 
   -6943    -6954    -6965    -6972    -6980    -6982    -6974    -6970 
   -6967    -6951    -6925    -6898    -6876    -6862    -6853    -6846 
   -6835    -6831    -6836    -6831    -6810    -6787    -6771    -6754 
   -6725    -6678    -6624    -6573    -6523    -6473    -6426    -6383 
   -6337    -6294    -6264    -6244    -6224    -6208    -6199    -6187 
   -6171    -6156    -6142    -6138    -6146    -6157    -6175    -6205 
   -6244    -6293    -6342    -6387    -6434    -6474    -6501    -6531 
   -6562    -6579    -6598    -6625    -6637    -6639    -6638    -6627 
   -6609    -6597    -6591    -6593    -6603    -6612    -6620    -6629 
   -6632    -6630    -6615    -6588    -6572    -6561    -6544    -6532 
   -6524    -6508    -6492    -6470    -6431    -6385    -6335    -6279 
   -6229    -6184    -6144    -6111    -6075    -6038    -6012    -5990 
   -5970    -5959    -5945    -5924    -5907    -5892    -5873    -5854 
   -5834    -5811    -5787    -5764    -5746    -5733    -5722    -5711 
   -5702    -5694    -5684    -5670    -5659    -5640    -5606    -5575 
   -5550    -5515    -5473    -5424    -5379    -5356    -5335    -5309 
   -5297    -5291    -5276    -5263    -5251    -5241    -5242    -5247 
   -5248    -5247    -5242    -5236    -5223    -5202    -5190    -5184 
   -5170    -5162    -5167    -5176    -5192    -5205    -5207    -5204 
   -5197    -5181    -5169    -5168    -5180    -5203    -5230    -5253 
   -5275    -5298    -5329    -5370    -5406    -5441    -5484    -5526 
   -5574    -5632    -5682    -5722    -5757    -5780    -5795    -5812 
   -5826    -5836    -5850    -5865    -5877    -5883    -5878    -5863 
   -5841    -5807    -5770    -5741    -5708    -5677    -5655    -5637 
   -5622    -5612    -5595    -5566    -5529    -5486    -5443    -5406 
   -5375    -5341    -5303    -5269    -5239    -5214    -5198    -5186 
   -5172    -5164    -5160    -5157    -5163    -5169    -5171    -5183 
   -5201    -5215    -5230    -5245    -5258    -5273    -5290    -5311 
   -5345    -5387    -5436    -5487    -5530    -5570    -5613    -5651 
   -5692    -5738    -5771    -5793    -5813    -5827    -5837    -5849 
   -5857    -5863    -5870    -5879    -5895    -5919    -5941    -5965 
   -5989    -6016    -6055    -6090    -6118    -6163    -6215    -6246 
   -6271    -6297    -6306    -6304    -6307    -6310    -6309    -6305 
   -6291    -6274    -6259    -6239    -6223    -6226    -6234    -6240 
   -6248    -6256    -6267    -6281    -6287    -6281    -6271    -6257 
   -6249    -6246    -6239    -6231    -6229    -6232    -6232    -6229 
   -6226    -6224    -6224    -6223    -6221    -6215    -6201    -6180 
   -6163    -6147    -6123    -6097    -6076    -6057    -6036    -6011 
   -5987    -5965    -5939    -5912    -5892    -5871    -5848    -5829 
   -5815    -5809    -5809    -5813    -5820    -5819    -5811    -5809 
   -5812    -5808    -5806    -5821    -5842    -5860    -5880    -5899 
   -5920    -5943    -5955    -5964    -5978    -5982    -5983    -5994 
   -6009    -6017    -6021    -6014    -6000    -5994    -5998    -6001 
   -5998    -5991    -5991    -6001    -6016    -6031    -6035    -6025 
   -6006    -5972    -5925    -5881    -5845    -5814    -5784    -5752 
   -5722    -5702    -5692    -5691    -5697    -5702    -5703    -5696 
   -5682    -5664    -5645    -5625    -5600    -5567    -5529    -5486 
   -5444    -5415    -5391    -5365    -5351    -5343    -5335    -5338 
   -5345    -5348    -5358    -5372    -5391    -5415    -5436    -5462 
   -5508    -5554    -5583    -5600    -5615    -5630    -5640    -5644 
   -5651    -5660    -5671    -5685    -5700    -5714    -5740    -5778 
   -5818    -5865    -5915    -5964    -6019    -6076    -6128    -6186 
   -6248    -6296    -6336    -6375    -6407    -6434    -6465    -6486 
   -6501    -6523    -6540    -6549    -6565    -6585    -6597    -6599 
   -6600    -6607    -6623    -6653    -6691    -6717    -6734    -6758 
   -6781    -6801    -6823    -6840    -6850    -6866    -6887    -6900 
   -6910    -6927    -6939    -6943    -6946    -6943    -6928    -6906 
   -6886    -6864    -6837    -6802    -6769    -6742    -6712    -6676 
   -6640    -6597    -6547    -6508    -6482    -6452    -6420    -6389 
   -6365    -6355    -6351    -6339    -6327    -6326    -6329    -6329 
   -6330    -6331    -6334    -6335    -6327    -6310    -6287    -6269 
   -6266    -6271    -6278    -6292    -6302    -6312    -6330    -6346 
   -6362    -6386    -6407    -6425    -6448    -6470    -6486    -6498 
   -6502    -6499    -6495    -6484    -6473    -6465    -6456    -6462 
   -6482    -6487    -6481    -6480    -6477    -6474    -6473    -6466 
