Origin Time       2011/03/11 14:46:00
Lat.              38.103
Long.             142.860
Depth. (km)       24
Mag.              9.0
Station Code      HKD069
Station Lat.      43.3941
Station Long.     145.1168
Station Height(m) 25
Record Time       2011/03/11 14:48:21
Sampling Freq(Hz) 100Hz
Duration Time(s)  300
Dir.              N-S
Scale Factor      3920(gal)/6182761
Max. Acc. (gal)   17.813
Last Correction   2011/03/11 14:48:06
Memo.             
[...]
    3439     3493     3758     3531     2945     2650     2509     1892 
    1091     1064     1721     1985     1627     1582     2452     3834 
    4981     5481     5415     5174     4987     4473     3136     1403 
     268      -78     -151       78     1080     2579     3550     3441 
    2741     2244     2357     3168     4378     5205     5201     4847 
    4683     4504     4047     3710     3858     4099     3822     2981 
    2057     1496     1354     1392     1195      415     -612    -1098 
   -1050    -1181    -1491    -1227      -76     1639     3625     5589 
    6857     6914     6080     4885     3312     1582      744     1216 
    1955     2189     2382     2836     3131     3162     3115     2656 
    1496      350      110      449      466      261      597     1411 
    1822     1478      996     1008     1534     2341     3270     4158 
    4805     5070     4788     3738     2052      585      278     1077 
    2035     2449     2340     1924     1359      945      843      750 
     527      679     1524     2511     3013     3047     2763     2079 
    1098      295      182      969     2364     3602     4137     4370 
    4968     5695     5991     6243     7120     8048     7789     6372 
    5071     4625     4606     4299     3523     2674     2237     2299 
    2358     1813      906      487      725      933      619       66 
    -152      113      492      600      370      -94     -748    -1518 
   -2058    -1823     -589      992     1840     1722     1414     1414 
    1308      677      -73     -254      139      460      358      233 
     459      761      865     1017     1503     2127     2399     2160 
    1734     1390     1183     1314     1930     2730     3313     3592 
    3734     3950     4192     4168     3898     3815     4166     4601 
    4572     4131     3804     3538     2774     1648     1060     1337 
    1824     1940     1761     1435      976      728     1019     1380 
    1246     1117     1792     2849     3117     2510     2045     1928 
    1288      -20    -1009    -1003     -221     1032     2637     4022 
    4429     3922     3290     3112     3340     3569     3512     3205 
    2764     2069      963     -185     -678     -489     -247       26 
    1174     3371     5317     5710     4745     3523     2751     2541 
    2914     3825     4765     4922     4015     2753     2004     1773 
    1594     1394     1410     1743     2184     2326     1843      728 
    -677    -1965    -2984    -3607    -3500    -2551    -1181       50 
     966     1857     3009     4274     5184     5241     4313     3076 
    2570     2979     3377     2931     1855     1030      995     1363 
    1443     1385     1964     3287     4563     5130     5170     5310 
    5736     5858     5022     3529     2326     1657      921      -27 
    -392      426     1729     2308     2089     1995     2443     2972 
    3108     2972     2995     3183     3031     2221     1021       60 
    -274     -248     -391     -921    -1662    -2297    -2765    -3118 
   -3011    -2169    -1040     -197      318      637      591       97 
    -210      333     1313     2189     3530     5792     7941     8663 
    8141     7511     7109     6479     5648     5077     4709     4145 
    3318     2424     1663     1284     1362     1454     1086      588 
     764     1677     2493     2739     2795     2864     2562     1868 
    1440     1670     2231     2879     3977     5534     6416     5538 
    3361     1351      293      -51      182     1187     2490     3072 
    2577     1514      387     -662    -1365    -1299     -575      204 
     672      716      195     -718    -1418    -1554    -1286     -661 
     540     2121     3350     3912     4381     5143     5550     5038 
    4183     3761     3632     3313     2896     2603     2192     1428 
     510     -227     -600     -559     -105      717     1769     2795 
    3396     3236     2529     2060     2336     2986     3295     3060 
    2670     2447     2246     1870     1596     1981     3253     4920 
    5996     5745     4251     2271      648     -216     -428     -134 
     669     1725     2464     2468     1733      646     -306    -1072 
   -1968    -2839    -2911    -1891     -623     -128     -488    -1051 
   -1258     -962     -374      130      336      309      144     -200 
    -683     -921     -474      534     1501     1981     1973     1860 
    2057     2540     3059     3674     4610     5836     7087     7970 
    8089     7421     6550     6244     6561     6862     6932     7178 
    7510     7065     5423     3512     2666     3194     4308     4878 
    4383     3568     3465     3843     3593     2368     1057      523 
     421     -129    -1105    -1646    -1312     -538      111      436 
     433      272      265      639     1558     3037     4714     6136 
    7151     7760     7802     7118     6058     5215     4608     3928 
    3398     3365     3419     2904     1885      877      105     -418 
    -674     -801     -966     -961     -427      352      415     -693 
   -2257    -3407    -4034    -4015    -2640      262     3508     5470 
    5473     4226     2894     2054     1779     2015     2531     3086 
    3527     3480     2778     2166     2491     3361     3742     3670 
    4109     5119     5422     4251     2572     1485      640     -397 
    -701      521     2395     3570     3926     4192     4574     4713 
    4790     5493     6727     7547     7527     7066     6381     5250 
    3829     2863     2783     3284     4001     4928     5890     6126 
    4848     2028    -1471    -4329    -5491    -4811    -3056    -1242 
     133     1189     2110     2955     3771     4329     4251     3589 
    2651     1624      866      841     1357     1504      698     -534 
   -1227    -1247    -1400    -2232    -3269    -3696    -3347    -2794 
   -2658    -2938    -2931    -1898      257     2935     5106     5935 
    5520     4724     4282     4171     3810     3047     2381     1949 
    1374      744      648     1446     2954     4520     5654     6566 
    7365     7572     7155     6750     6521     5971     4709     3063 
    2022     1960     1906      873     -935    -2597    -3472    -3754 
   -4084    -4524    -4559    -4074    -3548    -3248    -2627     -962 
    1323     2788     2956     2982     3702     4441     4417     4084 
    4378     5333     6168     6289     5673     4895     4706     4897 
    4425     3189     2271     1946     1206     -222    -1215    -1023 
    -174      488      655      398     -245    -1082    -1568    -1385 
    -823     -404     -609    -1663    -3176    -4350    -4654    -3898 
   -2028      360     1953     2060     1259      223    -1127    -2779 
   -3642    -2368      827     4096     6052     7184     8781    11209 
   13629    15077    15662    16222    16634    15729    13066     9440 
    5682     2223     -279    -1121     -534      498     1360     1983 
    2295     2272     1897      644    -1942    -4958    -6800    -7244 
   -7360    -7403    -6639    -5197    -4138    -3756    -3365    -2664 
   -2167    -2333    -2891    -3321    -3577    -3665    -3029    -1330 
     703     1961     2175     1934     1670     1229      658      794 
    2292     4484     6166     6966     7141     6847     6163     5238 
    4085     2512      785       12      823     2237     2966     3017 
    2970     2715     1835      610        7      718     2435     4279 
    5813     7276     9058    11382    14117    16482    17481    16792 
   14932    12732    10599     8355     6096     4522     3851     3293 
    2134      700     -110       -6      286      -78     -949    -1428 
   -1271    -1248    -1852    -2428    -2209    -1798    -2577    -4536 
   -5900    -5428    -4114    -3797    -4513    -4397    -2693    -1112 
    -988    -1139      314     3410     6113     6414     4372     1345 
   -1736    -4200    -5367    -5113    -3580     -888     2271     4793 
    6101     6403     6327     6536     7475     8980    10086     9913 
    8556     6494     3736      237    -3312    -5790    -6589    -5743 
   -3470     -113     3597     6351     6948     5490     3219     1100 
    -666    -1675     -907     1985     5673     8040     7714     5031 
    1759     -608    -2142    -3584    -4667    -4333    -2407       25 
    1877     2891     3202     2644     1032    -1031    -2446    -2650 
   -1919    -1008     -680    -1118    -1706    -1880    -1960    -2450 
   -3034    -2870    -1391     1174     3897     6051     7647     8842 
    9398     9013     7852     6412     5014     3793     3100     3437 
    4973     7349     9819    11703    12833    13202    12453    10319 
    7172     3848     1239     -253     -920    -1094     -879     -595 
    -462       63     1750     4415     6875     8212     8566     8240 
    6740     3568     -637    -4574    -7487    -9495   -10966   -11817 
  -11385    -9327    -7250    -7293    -7424    -4048      610     2536 
    1909      121    -1775    -3333    -4799    -6234    -7212    -5493 
   -1257     1896     3933     6205     7940     8991     9334     9167 
    9291     9466     9193     8580     8054     7617     6263     3938 
    2504     3175     5142     7172     9179    11661    14105    15311 
   14821    12652     8756     3716    -1189    -4831    -6376    -5147 
   -1233     4005     8572    10970    10789     8546     5291     2341 
     804      811     1340     1341     1067     1563     2885     4053 
    4483     4188     3509     3460     4873     6899     7596     6013 
    2751    -1518    -6661   -11839   -15535   -17234   -17644   -17393 
  -16634   -15584   -14197   -11567    -7219    -2101     2809     7210 
   10707    12446    12005    10461     9145     8135     7083     6025 
    5033     3936     2739     1773     1204     1146     1859     3202 
    4856     6878     8887     9865     9334     7409     4093     -573 
   -5784    -9712   -10868    -9572    -7150    -4465    -1886      171 
    1271     1276      642      495     1626     3438     4730     4941 
    3964     1573    -2170    -6320    -8972    -7562    -1759     4957 
   10502    16237    22039    25035    23353    18826    13807     8717 
    5215     3969     2327     -803    -3718    -4789    -4575    -4320 
   -3238    -1447     -632     -476      272     1890     3373     2546 
   -1071    -4867    -6394    -6833    -8947   -11339   -10840    -8649 
   -6524    -4081    -1895     -560      200      820      943      297 
     860     2305     1499    -1237    -3728    -4746    -3657    -1453 
     738     2957     5330     7600     8993     9225     9317    10177 
   11258    11174     9477     7008     4627     2921     2236     2271 
    2472     2312     1067    -1560    -4614    -6515    -6451    -4770 
   -2436     -442      368     -455    -2508    -4842    -6358    -6293 
   -5437    -5283    -5872    -6225    -5722    -4516    -3231    -1785 
     654     4183     8037    11958    16310    20601    23217    23193 
   21210    18567    16114    14399    13616    13164    12254    10629 
    8102     4206     -897    -5513    -7594    -7211    -6538    -6808 
   -7044    -6400    -5549    -5170    -4961    -4314    -2971    -1049 
    1103     3086     4890     6826     8890    10778    12328    13562 
   14320    14018    12164     9083     5776     3093     1051     -784 
   -2099    -1956     -300     1948     4321     6893     9309    11196 
   12872    14713    16659    18501    19815    19885    18200    14717 
    9732     3832    -2070    -6679    -8786    -8335    -6758    -5857 
   -6341    -7541    -8160    -7346    -5551    -3962    -3222    -3303 
   -3955    -5011    -6385    -7867    -9333   -10550   -10792    -9514 
   -5851     1139     9311    15322    18694    19903    19185    17172 
   14906    13182    11114     8912     8070     7863     7857     8791 
   10282    11762    12485    11787     9836     6540     2140    -1915 
   -3863    -2925     -338     1909     2849     2241      264    -2431 
   -4975    -6757    -8009    -9078    -9707    -9915   -10267   -10928 
  -11272   -10505    -8376    -5293    -1989     1006     3745     6567 
    9267    10989    11178    10263     9240     8663     8482     8742 
    9470    10308    10632     9669     7415     5188     3919     2868 
     820    -2176    -4559    -5028    -4348    -4239    -5053    -6020 
   -6749    -7130    -6808    -5511    -3417    -1351     -662    -2051 
   -4188    -5053    -5312    -6697    -8191    -8055    -6200    -3737 
   -1947     -734      859     4006     8893    13121    14623    13524 
   10654     7307     4768     3939     5395     8448    11326    12793 
   13171    13540    14035    13696    11779     8615     5247     2368 
    -301    -3298    -6347    -8677    -9829    -9649    -8363    -6725 
   -5520    -4969    -4580    -3470     -881     3175     7629    10689 
   10565     7010     2073    -1688    -3534    -5095    -7816   -10175 
  -10338    -9226    -8244    -7967    -8246    -7220    -3105     3583 
   10381    15071    17231    16870    14466    12017    11164    11635 
   12168    12673    14552    17581    19592    20253    20703    20567 
   19234    17047    14133    10662     7230     4356     1998     -384 
   -2491    -3254    -2704    -1747     -852     -138      238     -189 
   -1870    -4342    -6872    -9399   -11919   -14126   -15774   -16581 
  -16122   -14533   -12603   -10706    -8561    -5749    -2782     -502 
    1885     5134     9034    13792    19466    25661    30215    30216 
   26318    21389    17850    17105    17609    16535    13485    10570 
    9701    10118     9998     9032     7115     3668     -713    -4299 
   -5818    -5447    -4219    -2715    -1135      274     1212      938 
    -899    -3324    -5230    -6197    -6202    -5718    -5449    -5611 
   -5747    -5169    -3630    -1765     -762    -1336    -3093    -5056 
   -6335    -6405    -5504    -4180    -2200      800     3893     5489 
    5084     3472     1808     1066     1589     2733     3457     3354 
    2802     2217     1643      869     -493    -2502    -4282    -4684 
   -3630    -2179    -1226     -780     -727    -1371    -2377    -2211 
       5     2860     4261     4152     4206     5173     6181     6635 
    7144     8272     9682    10642    10426     8686     5961     3364 
    1725     1263     1903     3337     4804     5647     5969     6155 
    6329     6525     6701     6783     6959     7428     7862     7405 
    5573     3053      943     -482    -1597    -2398    -2407    -1767 
   -1492    -2153    -3317    -4826    -7250   -10524   -13556   -15434 
  -15856   -14655   -12121    -9371    -7002    -4369    -1276     1504 
    3443     4745     6032     7162     7246     6276     5128     4649 
    5313     7245    10271    13361    15261    15914    16052    16201 
   16294    15747    14234    12100     9853     7755     5999     4617 
    3057      873    -1678    -4712    -8849   -13529   -16936   -18205 
  -18186   -17405   -15292   -12047    -9410    -8914    -9944   -10541 
   -9866    -8350    -6078    -2505     2672     8900    14800    18857 
   20144    18534    14703     9925     5613     2441     -122    -2867 
   -5877    -8334    -9483    -9571    -8995    -8174    -7829    -7976 
   -8209    -8293    -7975    -7053    -5084    -1904     2328     7673 
   12779    15438    15456    14014    12188    10794    10133    10418 
   11877    14041    15309    13624     8947     3871      621     -481 
     188     2372     5507     8216     9218     8671     7702     7015 
    6464     5778     5258     5293     5574     5161     3177     -447 
   -4677    -8109   -10760   -14227   -18261   -20172   -19473   -18194 
  -17368   -16518   -14115    -9361    -3715      682     2807     3920 
    5706     8194    11716    16525    21190    23921    23922    22873 
   23153    24399    25482    26141    25650    23477    20061    16491 
   13545    11405    10613    10760     9870     7098     3145    -1485 
   -6606   -11748   -15765   -17270   -16236   -14317   -13005   -12772 
  -13303   -13269   -11811    -9858    -8695    -8572    -8262    -6541 
   -4098    -1876      547     3753     7346    10451    12169    11278 
    7419     1992    -2701    -4507    -3450    -1669     -358      658 
    1468     1889     1620      747     -212     -726       48     2573 
    6136     9715    12274    12703    10485     6328     2212     -236 
   -1072    -1083     -847     -683     -747     -904     -572      449 
    1462     1955     2299     2950     3954     5476     7775    10543 
   12949    14407    15077    15787    17289    18940    18974    16655 
   12706     7948     2978    -1323    -4075    -5280    -5795    -6206 
   -6380    -6123    -5652    -5366    -5398    -5753    -6229    -5951 
   -4595    -3420    -3496    -4211    -4749    -5653    -7030    -7363 
   -5937    -3321      162     3827     6287     7028     7066     7316 
    7432     7414     8207     9642    10614    10736     9724     7596 
    5524     4058     2362      156    -1582    -1905    -1090     -497 
   -1043    -2325    -3547    -4341    -4883    -5697    -6340    -5412 
   -2946     -588      657     1684     4167     7917    11137    12931 
   13617    13701    13141    11550     9123     6582     4351     2322 
     287    -1506    -2022     -424     2221     3702     3338     2539 
    2588     3187     3569     3683     4003     4853     5874     6275 
    5404     3173      205    -2859    -6037    -9518   -12670   -14364 
  -14318   -13089   -11415    -9968    -8903    -7827    -5929    -2492 
    1734     4946     6616     7789     9229    10513    10778    10033 
    9305     9144     9057     8462     7460     6995     8122    11182 
   15513    19311    20699    19591    17548    15730    13800    11015 
    7674     4534     1502    -1812    -5011    -7110    -7764    -8026 
   -8931   -10020   -10094    -8614    -6178    -3597    -1375      409 
    2973     6842     9889    10404     8938     6545     3880     1172 
   -1467    -3982    -6502    -8789   -10464   -11375   -11419   -10461 
   -8297    -5606    -3921    -3774    -4759    -6522    -8250    -8884 
   -8302    -7262    -6383    -5587    -4205    -1576     2193     6540 
   11287    16046    19611    20786    18912    14198     8458     4221 
    2237     1048     -598    -2301    -3124    -2822    -1755     -323 
    1163     2409     3262     3781     3894     3142     1244    -1413 
   -3935    -5268    -5181    -4550    -4068    -3581    -2832    -2403 
   -2810    -3127    -2467    -1392     -777     -660     -471      -27 
     242      -28    -1036    -2610    -3874    -3933    -2409      357 
    3088     4686     5208     5053     4504     4049     3924     3756 
    3125     2050      647    -1204    -3234    -4361    -3606    -1075 
    2092     4415     4903     3507      927    -1917    -4172    -5092 
   -4453    -2967    -1539      -21     2467     5783     8310     8901 
    8417     8479     9323     9940     9537     7893     5343     2733 
     559    -1256    -2247    -1423      956     3194     4345     5043 
    5807     6364     6582     6567     6157     5016     3376     2045 
    1519     2222     4598     8506    13664    19410    23857    24946 
   23054    21108    20435    19444    17025    13558     9882     7290 
