Origin Time       2011/03/11 14:46:00
Lat.              38.103
Long.             142.860
Depth. (km)       24
Mag.              9.0
Station Code      HKD050
Station Lat.      43.8785
Station Long.     143.1747
Station Height(m) 386
Record Time       2011/03/11 14:49:23
Sampling Freq(Hz) 100Hz
Duration Time(s)  123
Dir.              E-W
Scale Factor      3920(gal)/6182761
Max. Acc. (gal)   2.061
Last Correction   2011/03/11 14:49:08
Memo.             
[...]
   10278    10288    10368    10465    10553    10626    10714    10847 
   11004    11121    11117    11052    11080    11176    11266    11418 
   11588    11656    11692    11783    11885    11957    11991    11973 
   11917    11843    11776    11754    11810    11895    11886    11785 
   11740    11768    11749    11707    11759    11858    11870    11820 
   11796    11793    11783    11774    11812    11946    12117    12205 
   12196    12163    12155    12169    12145    12033    11917    11883 
   11858    11794    11760    11772    11774    11719    11635    11589 
   11561    11500    11410    11319    11273    11281    11326    11391 
   11401    11331    11259    11230    11213    11179    11170    11237 
   11331    11355    11279    11162    11090    11061    11016    10988 
   11028    11091    11117    11069    10928    10756    10651    10612 
   10559    10477    10414    10367    10291    10183    10112    10157 
   10288    10372    10354    10281    10190    10097    10049    10056 
   10087    10135    10170    10106     9974     9936     9980     9964 
    9936     9982    10030    10056    10131    10199    10155    10064 
   10056    10111    10117    10123    10289    10522    10619    10648 
   10731    10814    10845    10832    10804    10806    10866    10954 
   10992    11014    11122    11271    11389    11441    11404    11381 
   11414    11410    11407    11487    11594    11677    11693    11619 
   11568    11607    11619    11544    11477    11499    11580    11627 
   11613    11585    11558    11528    11513    11473    11331    11130 
   10999    10986    11037    11068    11060    11056    11077    11097 
   11082    11048    11031    11012    10978    10968    10978    10967 
   10924    10848    10756    10730    10824    10940    10976    10993 
   11041    11086    11170    11283    11295    11207    11104    11001 
   10904    10823    10760    10730    10730    10720    10679    10649 
   10641    10602    10552    10551    10560    10512    10434    10384 
   10350    10307    10283    10287    10300    10344    10430    10507 
   10540    10548    10559    10612    10724    10821    10825    10749 
   10640    10565    10574    10661    10774    10876    10966    11053 
   11169    11303    11366    11347    11343    11372    11384    11402 
   11478    11586    11665    11687    11645    11566    11492    11438 
   11411    11394    11360    11319    11265    11159    11029    10933 
   10899    10974    11178    11421    11595    11674    11703    11762 
   11839    11821    11685    11538    11468    11448    11417    11378 
   11388    11458    11535    11599    11681    11776    11846    11851 
   11769    11620    11451    11337    11326    11351    11359    11411 
   11529    11651    11741    11777    11775    11770    11751    11728 
   11723    11695    11610    11486    11350    11216    11111    11083 
   11129    11177    11197    11204    11186    11092    10874    10636 
   10547    10557    10513    10461    10511    10610    10606    10495 
   10466    10571    10650    10648    10634    10644    10691    10743 
   10763    10779    10776    10730    10703    10703    10669    10602 
   10537    10510    10520    10485    10395    10340    10351    10423 
   10535    10618    10687    10787    10841    10818    10792    10775 
   10736    10677    10639    10596    10486    10378    10375    10445 
   10527    10622    10732    10822    10859    10863    10862    10858 
   10856    10892    11000    11134    11237    11320    11389    11408 
   11358    11279    11239    11249    11285    11351    11463    11630 
   11812    11929    11983    12036    12098    12115    12068    12016 
   11990    11939    11846    11771    11759    11787    11800    11792 
   11796    11828    11874    11903    11924    11969    12013    12021 
   11992    11945    11914    11888    11833    11817    11873    11893 
   11845    11800    11762    11720    11671    11599    11578    11620 
   11595    11505    11445    11392    11320    11264    11216    11182 
   11187    11175    11099    11022    11013    11045    11054    11031 
   10987    10931    10881    10849    10832    10807    10749    10667 
   10570    10483    10423    10372    10339    10363    10413    10438 
   10429    10349    10203    10068     9979     9919     9890     9892 
    9931     9993    10037    10072    10102    10062     9942     9837 
    9777     9676     9500     9352     9342     9430     9487     9477 
    9436     9377     9314     9293     9322     9345     9332     9311 
    9312     9348     9411     9505     9642     9754     9765     9706 
    9652     9643     9692     9749     9769     9767     9746     9693 
    9639     9590     9508     9446     9457     9473     9468     9486 
    9502     9484     9446     9392     9351     9378     9465     9566 
    9635     9663     9699     9757     9760     9712     9703     9727 
    9732     9743     9782     9835     9907    10007    10113    10193 
   10240    10276    10337    10422    10442    10380    10358    10408 
   10437    10440    10481    10543    10573    10591    10609    10609 
   10602    10563    10472    10408    10426    10466    10463    10417 
   10361    10352    10389    10402    10369    10326    10313    10351 
   10409    10460    10506    10548    10605    10680    10746    10777 
   10758    10707    10662    10666    10722    10779    10804    10774 
   10695    10649    10668    10692    10673    10604    10534    10518 
   10552    10593    10585    10519    10454    10435    10484    10609 
   10712    10721    10710    10731    10746    10717    10615    10493 
   10440    10459    10484    10447    10367    10319    10294    10281 
   10344    10434    10474    10514    10571    10596    10596    10586 
   10553    10509    10489    10517    10583    10659    10750    10866 
   10967    11012    11033    11067    11090    11086    11074    11095 
   11171    11254    11284    11271    11243    11226    11231    11242 
   11260    11299    11329    11318    11283    11236    11169    11081 
   10987    10913    10880    10902    10974    11073    11169    11218 
   11200    11153    11146    11196    11265    11351    11447    11482 
   11477    11520    11576    11577    11543    11527    11554    11571 
   11498    11384    11334    11347    11364    11366    11346    11292 
   11231    11211    11230    11248    11245    11262    11328    11374 
   11316    11174    11042    10972    10942    10916    10897    10892 
   10873    10822    10791    10802    10781    10699    10618    10577 
   10578    10610    10633    10619    10601    10609    10606    10539 
   10419    10312    10243    10196    10188    10228    10254    10195 
   10094    10027    10004    10041    10117    10177    10209    10225 
   10249    10270    10225    10134    10064    10008     9954     9914 
    9909     9932     9926     9910     9963    10040    10053     9983 
    9858     9758     9725     9717     9719     9748     9819     9942 
   10063    10137    10202    10281    10345    10356    10297    10201 
   10124    10078    10062    10038     9951     9832     9757     9775 
    9903    10080    10206    10258    10261    10228    10164    10087 
   10008     9912     9795     9669     9548     9443     9337     9219 
    9108     9010     8927     8868     8811     8743     8664     8560 
    8414     8245     8120     8094     8149     8221     8282     8325 
    8333     8290     8216     8157     8123     8082     8044     8061 
    8121     8146     8112     8072     8041     7997     7981     8030 
    8076     8049     7995     7962     7894     7800     7775     7824 
    7886     7918     7919     7928     7968     8020     8076     8144 
    8220     8267     8250     8230     8274     8324     8324     8314 
    8325     8332     8324     8341     8372     8363     8326     8271 
    8203     8172     8206     8304     8457     8592     8664     8697 
    8709     8691     8644     8595     8553     8520     8531     8576 
    8602     8599     8597     8610     8613     8613     8676     8790 
    8852     8821     8742     8677     8642     8625     8625     8621 
    8620     8667     8741     8783     8798     8850     8975     9116 
    9189     9231     9322     9432     9492     9496     9491     9519 
    9540     9520     9521     9559     9552     9466     9372     9344 
    9339     9241     9060     8913     8833     8772     8712     8671 
    8647     8608     8572     8625     8775     8909     8971     8990 
    8982     8939     8869     8801     8755     8717     8675     8671 
    8756     8888     8984     9015     8999     8948     8851     8739 
    8678     8671     8664     8646     8642     8654     8664     8671 
    8687     8724     8763     8775     8767     8761     8761     8749 
    8704     8631     8561     8525     8526     8538     8564     8606 
    8647     8712     8808     8869     8862     8823     8794     8770 
    8748     8768     8820     8817     8762     8756     8816     8855 
    8817     8738     8682     8646     8582     8492     8455     8534 
    8674     8793     8883     8957     8999     9033     9113     9245 
    9374     9432     9404     9337     9258     9183     9172     9223 
    9248     9246     9294     9374     9393     9357     9363     9424 
    9438     9373     9301     9265     9255     9258     9289     9346 
    9359     9329     9350     9437     9526     9566     9532     9468 
    9407     9307     9196     9189     9323     9520     9674     9768 
    9880    10012    10102    10149    10164    10126    10056    10006 
   10004    10011     9972     9913     9877     9856     9854     9879 
    9925    10021    10142    10199    10204    10247    10316    10301 
   10175    10047     9980     9909     9800     9718     9706     9732 
    9777     9829     9882     9950    10019    10063    10074    10042 
    9981     9944     9984    10101    10237    10345    10442    10543 
   10615    10646    10634    10582    10550    10586    10652    10708 
   10752    10807    10898    10980    10969    10899    10879    10905 
   10877    10781    10701    10672    10643    10592    10562    10587 
   10650    10715    10777    10821    10821    10786    10749    10748 
   10801    10821    10728    10614    10571    10573    10605    10691 
   10804    10868    10840    10775    10759    10779    10774    10738 
   10680    10623    10648    10761    10859    10892    10914    10965 
   11025    11055    11059    11060    11075    11155    11320    11471 
   11521    11483    11397    11294    11214    11202    11285    11437 
   11609    11750    11778    11679    11549    11457    11416    11448 
   11516    11539    11521    11510    11498    11489    11517    11570 
   11583    11534    11494    11502    11508    11476    11419    11335 
   11201    11027    10872    10780    10721    10643    10527    10414 
   10387    10441    10472    10455    10447    10498    10630    10792 
   10871    10829    10688    10482    10295    10203    10201    10267 
   10395    10537    10639    10707    10806    10974    11110    11077 
   10930    10826    10828    10882    10903    10882    10882    10922 
   10961    10982    11011    11044    11034    10996    10994    11017 
   11006    10967    10943    10937    10947    10979    11017    11051 
   11067    11027    10930    10831    10776    10745    10690    10640 
   10622    10590    10557    10564    10549    10485    10443    10455 
   10503    10576    10639    10607    10461    10315    10235    10184 
   10163    10181    10204    10231    10253    10239    10239    10331 
   10482    10568    10553    10537    10598    10690    10741    10759 
   10808    10887    10915    10877    10846    10849    10840    10800 
   10758    10739    10753    10764    10717    10662    10695    10759 
   10761    10734    10709    10648    10547    10457    10425    10452 
   10504    10571    10640    10700    10778    10860    10853    10734 
   10587    10491    10467    10486    10511    10539    10554    10541 
   10507    10450    10411    10399    10350    10253    10162    10114 
   10115    10159    10235    10318    10386    10448    10493    10509 
   10510    10513    10533    10562    10536    10402    10214    10096 
   10084    10128    10191    10268    10346    10408    10473    10579 
   10719    10835    10868    10847    10872    10954    11029    11070 
   11084    11068    11017    10969    10994    11107    11248    11324 
   11305    11278    11287    11237    11072    10871    10718    10630 
   10616    10684    10786    10850    10879    10898    10877    10796 
   10687    10585    10501    10447    10437    10434    10385    10314 
   10244    10173    10124    10084    10034    10032    10101    10115 
    9978     9788     9647     9505     9364     9333     9425     9532 
    9582     9635     9759     9896     9963     9984     9991     9953 
    9860     9772     9746     9738     9655     9518     9421     9380 
    9363     9382     9432     9419     9294     9138     9009     8889 
    8770     8659     8574     8535     8544     8598     8669     8704 
    8704     8711     8718     8695     8649     8605     8558     8452 
    8322     8270     8243     8143     8027     7981     7987     8007 
    8066     8166     8184     8064     7907     7774     7642     7534 
    7478     7475     7515     7557     7565     7544     7498     7427 
    7371     7387     7493     7618     7671     7664     7659     7647 
    7619     7607     7625     7631     7606     7595     7641     7715 
    7740     7694     7635     7600     7592     7646     7750     7815 
    7817     7828     7897     7979     8013     8022     8055     8117 
    8196     8273     8344     8416     8473     8532     8623     8713 
    8796     8896     9000     9117     9268     9408     9507     9574 
    9596     9573     9519     9455     9427     9462     9528     9592 
    9659     9728     9790     9848     9922    10016    10091    10122 
   10160    10249    10345    10393    10411    10433    10446    10439 
   10464    10559    10673    10750    10788    10788    10767    10749 
   10731    10691    10625    10569    10601    10734    10870    10956 
   10995    11005    11043    11121    11153    11121    11098    11122 
   11181    11227    11234    11220    11204    11189    11176    11152 
   11081    10955    10851    10842    10853    10767    10628    10571 
   10604    10625    10605    10612    10659    10664    10640    10683 
   10758    10800    10859    10951    11018    11026    11011    11020 
   11037    11073    11152    11226    11248    11223    11211    11267 
   11346    11391    11406    11374    11319    11313    11334    11326 
   11308    11323    11373    11393    11386    11457    11598    11681 
   11708    11773    11878    11994    12098    12165    12221    12250 
   12173    12022    11930    11929    11954    11962    11983    12023 
   12024    11993    11974    11946    11916    11926    11939    11909 
   11883    11911    11942    11933    11928    11975    12057    12112 
   12118    12121    12144    12190    12223    12201    12189    12188 
   12113    11994    11914    11884    11870    11840    11817    11821 
   11848    11928    12056    12173    12232    12239    12239    12239 
   12197    12137    12125    12133    12108    12064    12042    12090 
   12191    12247    12241    12251    12296    12309    12246    12165 
   12135    12135    12146    12205    12275    12294    12298    12357 
   12458    12504    12454    12354    12259    12221    12237    12236 
   12206    12185    12188    12206    12236    12282    12333    12350 
   12329    12327    12379    12454    12512    12547    12597    12668 
   12711    12706    12663    12600    12555    12547    12532    12479 
   12439    12454    12493    12486    12413    12338    12316    12298 
   12265    12268    12284    12242    12150    12083    12069    12075 
   12087    12128    12174    12164    12099    12038    12028    12050 
   12072    12100    12130    12126    12075    12005    11970    11966 
   11903    11786    11727    11747    11769    11727    11671    11709 
   11799    11801    11702    11571    11437    11301    11134    10924 
   10718    10584    10536    10485    10395    10342    10345    10336 
   10330    10388    10484    10555    10603    10655    10677    10619 
   10507    10436    10448    10486    10508    10542    10616    10722 
   10838    10930    10938    10813    10596    10406    10280    10191 
   10168    10221    10283    10296    10260    10225    10261    10352 
   10411    10433    10468    10513    10571    10649    10730    10789 
   10779    10698    10649    10701    10802    10873    10907    10934 
   10956    10962    10943    10893    10843    10834    10870    10912 
   10939    10968    10999    11040    11109    11186    11242    11237 
   11165    11128    11179    11254    11307    11324    11303    11291 
   11299    11283    11225    11171    11164    11177    11168    11164 
   11181    11153    11062    10997    10994    11027    11069    11067 
   11033    11025    10996    10928    10884    10833    10754    10716 
   10722    10741    10730    10670    10664    10735    10787    10845 
   10918    10937    10914    10876    10843    10861    10910    10930 
   10904    10859    10819    10777    10731    10683    10635    10607 
   10587    10569    10588    10626    10623    10599    10612    10655 
   10669    10591    10450    10344    10294    10266    10259    10240 
   10193    10192    10266    10355    10443    10541    10632    10720 
   10819    10907    10977    11047    11118    11190    11256    11295 
   11309    11325    11372    11447    11531    11634    11750    11808 
   11771    11702    11660    11629    11563    11492    11468    11446 
   11381    11321    11299    11281    11239    11183    11145    11149 
   11183    11194    11158    11133    11166    11197    11165    11122 
   11135    11170    11188    11228    11309    11392    11438    11438 
   11408    11380    11363    11305    11168    11028    10979    11016 
   11100    11182    11205    11157    11057    10950    10885    10839 
   10775    10720    10701    10724    10788    10859    10900    10906 
   10857    10794    10797    10819    10784    10769    10860    10995 
   11071    11074    11051    11030    10996    10953    10934    10932 
   10905    10839    10772    10728    10670    10583    10506    10454 
   10414    10387    10393    10440    10495    10534    10557    10571 
   10610    10678    10737    10769    10764    10725    10681    10653 
   10658    10707    10754    10738    10701    10714    10729    10689 
   10642    10655    10725    10795    10801    10748    10705    10670 
   10603    10567    10602    10602    10528    10510    10577    10586 
   10519    10487    10501    10500    10463    10422    10412    10408 
   10356    10248    10139    10107    10175    10284    10364    10386 
   10380    10387    10403    10456    10574    10691    10750    10773 
   10814    10905    10971    10939    10894    10884    10831    10709 
   10588    10530    10513    10511    10548    10616    10721    10837 
   10885    10943    11084    11170    11153    11151    11186    11175 
