Origin Time       2011/03/11 14:46:00
Lat.              38.103
Long.             142.860
Depth. (km)       24
Mag.              9.0
Station Code      HKD043
Station Lat.      44.5820
Station Long.     142.9644
Station Height(m) 11
Record Time       2011/03/11 14:50:02
Sampling Freq(Hz) 100Hz
Duration Time(s)  100
Dir.              U-D
Scale Factor      3920(gal)/6182761
Max. Acc. (gal)   1.441
Last Correction   2011/03/11 14:49:47
Memo.             
[...]
   -1557    -1576    -1593    -1602    -1605    -1595    -1586    -1610 
   -1654    -1683    -1683    -1648    -1595    -1551    -1552    -1605 
   -1642    -1628    -1611    -1620    -1657    -1713    -1761    -1779 
   -1775    -1802    -1844    -1837    -1817    -1834    -1853    -1869 
   -1891    -1887    -1848    -1815    -1833    -1877    -1908    -1941 
   -1978    -2002    -2037    -2102    -2163    -2193    -2220    -2264 
   -2286    -2279    -2261    -2235    -2226    -2255    -2290    -2289 
   -2255    -2228    -2227    -2226    -2222    -2221    -2207    -2203 
   -2210    -2171    -2095    -2034    -2011    -2031    -2060    -2063 
   -2030    -1967    -1935    -1944    -1918    -1864    -1825    -1777 
   -1704    -1640    -1594    -1537    -1468    -1415    -1372    -1309 
   -1252    -1240    -1247    -1251    -1260    -1242    -1195    -1179 
   -1187    -1174    -1152    -1147    -1155    -1150    -1143    -1141 
   -1095    -1008     -950     -931     -929     -955     -976     -944 
    -887     -852     -814     -727     -640     -631     -669     -681 
    -661     -607     -515     -439     -423     -437     -436     -419 
    -399     -391     -415     -456     -472     -454     -436     -432 
    -414     -387     -383     -380     -345     -300     -248     -181 
    -142     -157     -186     -189     -184     -176     -128      -69 
     -41       -7       52       84       80       93      139      182 
     212      254      296      304      301      317      316      320 
     383      464      529      582      595      552      508      529 
     578      591      596      626      637      613      596      588 
     559      536      548      572      582      590      605      602 
     603      638      653      610      564      549      543      555 
     599      633      632      631      645      653      652      648 
     630      610      639      708      755      789      851      899 
     895      873      853      818      781      757      728      690 
     661      643      633      634      651      661      645      633 
     631      605      574      561      538      500      470      450 
     427      397      374      361      360      391      433      441 
     407      371      359      357      354      337      289      239 
     219      214      203      189      163      115       78       85 
     107       95       33      -56     -140     -190     -214     -274 
    -387     -484     -524     -547     -582     -632     -705     -793 
    -853     -859     -856     -883     -917     -950     -977     -987 
    -996    -1018    -1049    -1076    -1075    -1072    -1081    -1064 
   -1022    -1000     -994    -1001    -1024    -1032    -1011     -973 
    -928     -903     -903     -915     -924     -912     -902     -926 
    -964     -977     -965     -939     -916     -916     -918     -892 
    -849     -828     -849     -893     -934     -980    -1012    -1002 
    -984     -972     -937     -901     -893     -888     -876     -875 
    -884     -882     -884     -922     -950     -928     -900     -898 
    -897     -879     -863     -858     -842     -837     -858     -877 
    -883     -901     -939     -972     -998    -1012     -995     -984 
   -1029    -1091    -1104    -1088    -1092    -1102    -1108    -1143 
   -1193    -1193    -1138    -1073    -1003     -947     -954     -988 
    -983     -964     -960     -930     -859     -793     -757     -730 
    -717     -745     -783     -783     -749     -686     -623     -620 
    -676     -722     -726     -721     -724     -713     -700     -714 
    -715     -681     -658     -649     -615     -576     -540     -490 
    -456     -466     -490     -485     -462     -465     -487     -498 
    -516     -529     -493     -444     -442     -459     -444     -404 
    -364     -314     -260     -240     -245     -235     -238     -250 
    -206     -133     -114     -144     -171     -179     -178     -182 
    -192     -221     -261     -272     -276     -314     -338     -329 
    -316     -294     -271     -281     -321     -341     -316     -298 
    -314     -335     -352     -364     -363     -372     -411     -435 
    -398     -344     -331     -339     -341     -358     -379     -383 
    -386     -397     -402     -413     -446     -474     -473     -470 
    -477     -461     -440     -477     -540     -560     -549     -557 
    -584     -613     -636     -633     -603     -584     -591     -584 
    -550     -511     -469     -413     -388     -431     -472     -428 
    -327     -242     -197     -168     -139      -93      -32      -21 
     -52      -35       21       44       34       45       82      122 
     158      182      158       97       54       22      -17      -16 
      10       -9      -57     -103     -152     -200     -242     -271 
    -309     -366     -425     -500     -600     -668     -709     -761 
    -777     -732     -680     -655     -651     -658     -677     -699 
    -687     -667     -698     -759     -833     -918     -966     -962 
    -962     -989    -1010    -1020    -1059    -1126    -1158    -1146 
   -1133    -1124    -1120    -1138    -1161    -1164    -1161    -1176 
   -1187    -1186    -1201    -1236    -1259    -1271    -1301    -1348 
   -1374    -1384    -1382    -1345    -1304    -1292    -1288    -1262 
   -1236    -1244    -1267    -1281    -1305    -1338    -1367    -1423 
   -1509    -1578    -1618    -1667    -1735    -1788    -1833    -1908 
   -1984    -2024    -2063    -2122    -2175    -2215    -2247    -2268 
   -2312    -2389    -2427    -2411    -2423    -2473    -2498    -2483 
   -2484    -2526    -2556    -2565    -2593    -2603    -2586    -2616 
   -2676    -2694    -2685    -2689    -2686    -2639    -2579    -2550 
   -2534    -2512    -2494    -2469    -2424    -2368    -2301    -2224 
   -2166    -2144    -2116    -2066    -2040    -2044    -2042    -2028 
   -2016    -2004    -1995    -1998    -1995    -1965    -1954    -1987 
   -2001    -1961    -1898    -1841    -1803    -1796    -1812    -1800 
   -1734    -1681    -1655    -1596    -1521    -1472    -1420    -1347 
   -1286    -1263    -1250    -1227    -1227    -1230    -1178    -1111 
   -1077    -1046    -1014    -1023    -1057    -1074    -1093    -1133 
   -1156    -1151    -1169    -1214    -1234    -1233    -1254    -1270 
   -1261    -1275    -1304    -1300    -1291    -1285    -1255    -1232 
   -1237    -1246    -1221    -1171    -1146    -1118    -1050    -1005 
   -1011    -1019    -1012    -1004     -992     -965     -939     -919 
    -886     -855     -873     -917     -940     -969    -1018    -1045 
   -1047    -1033     -997     -977     -996    -1015     -991     -930 
    -886     -876     -867     -877     -921     -943     -955     -991 
   -1004     -984     -964     -953     -961     -994    -1049    -1094 
   -1096    -1084    -1093    -1095    -1089    -1105    -1111    -1091 
   -1086    -1112    -1145    -1166    -1187    -1209    -1207    -1202 
   -1224    -1237    -1229    -1240    -1261    -1260    -1254    -1259 
   -1245    -1215    -1206    -1212    -1195    -1170    -1174    -1186 
   -1196    -1237    -1306    -1351    -1354    -1340    -1325    -1324 
   -1358    -1404    -1423    -1441    -1501    -1570    -1601    -1633 
   -1702    -1765    -1801    -1824    -1816    -1779    -1766    -1789 
   -1821    -1853    -1881    -1903    -1920    -1940    -1969    -1973 
   -1943    -1927    -1924    -1903    -1881    -1869    -1845    -1811 
   -1776    -1735    -1694    -1664    -1649    -1642    -1649    -1689 
   -1733    -1749    -1768    -1798    -1801    -1767    -1729    -1703 
   -1698    -1735    -1804    -1852    -1861    -1860    -1847    -1801 
   -1733    -1674    -1617    -1555    -1522    -1515    -1501    -1490 
   -1496    -1492    -1471    -1452    -1437    -1409    -1381    -1368 
   -1342    -1285    -1228    -1189    -1166    -1159    -1161    -1153 
   -1123    -1085    -1054    -1020     -995    -1002    -1008     -989 
    -982     -990     -980     -960     -937     -906     -891     -903 
    -920     -921     -919     -922     -911     -879     -845     -828 
    -820     -825     -852     -859     -830     -816     -836     -855 
    -859     -854     -846     -838     -843     -864     -860     -826 
    -804     -800     -794     -788     -791     -792     -781     -784 
    -803     -796     -768     -762     -779     -790     -793     -785 
    -745     -710     -712     -712     -703     -715     -754     -793 
    -815     -836     -844     -822     -813     -848     -886     -896 
    -893     -877     -849     -847     -849     -824     -804     -811 
    -814     -795     -769     -756     -742     -732     -753     -770 
    -764     -780     -806     -817     -843     -878     -885     -859 
    -830     -822     -825     -832     -849     -859     -865     -893 
    -934     -968    -1019    -1104    -1183    -1218    -1231    -1242 
   -1252    -1277    -1330    -1369    -1355    -1327    -1333    -1348 
   -1352    -1370    -1386    -1378    -1381    -1400    -1403    -1396 
   -1415    -1452    -1461    -1460    -1485    -1496    -1490    -1510 
   -1530    -1523    -1518    -1542    -1566    -1556    -1543    -1543 
   -1527    -1509    -1524    -1541    -1536    -1554    -1617    -1668 
   -1689    -1709    -1712    -1694    -1691    -1710    -1718    -1702 
   -1693    -1687    -1664    -1646    -1645    -1632    -1625    -1654 
   -1687    -1686    -1668    -1672    -1686    -1677    -1658    -1645 
   -1639    -1674    -1740    -1778    -1783    -1802    -1826    -1842 
   -1883    -1940    -1957    -1938    -1928    -1942    -1965    -1986 
   -2007    -2036    -2079    -2152    -2217    -2236    -2261    -2329 
   -2395    -2441    -2472    -2481    -2460    -2453    -2496    -2542 
   -2548    -2548    -2572    -2606    -2628    -2635    -2627    -2626 
   -2673    -2739    -2753    -2733    -2744    -2785    -2815    -2819 
   -2801    -2760    -2733    -2755    -2783    -2765    -2728    -2712 
   -2699    -2692    -2709    -2715    -2702    -2711    -2727    -2700 
   -2653    -2638    -2631    -2596    -2565    -2556    -2534    -2505 
   -2506    -2504    -2449    -2388    -2348    -2286    -2212    -2158 
   -2105    -2040    -1994    -1975    -1925    -1839    -1790    -1778 
   -1758    -1740    -1735    -1706    -1643    -1600    -1588    -1558 
   -1522    -1529    -1545    -1532    -1531    -1530    -1471    -1389 
   -1350    -1323    -1266    -1216    -1204    -1191    -1172    -1180 
   -1188    -1158    -1136    -1156    -1155    -1120    -1116    -1122 
   -1089    -1068    -1098    -1121    -1100    -1083    -1088    -1072 
   -1039    -1039    -1058    -1056    -1060    -1094    -1116    -1120 
   -1157    -1214    -1242    -1263    -1315    -1358    -1361    -1374 
   -1434    -1505    -1579    -1686    -1789    -1846    -1893    -1955 
   -1994    -2009    -2040    -2085    -2108    -2123    -2161    -2177 
   -2129    -2077    -2053    -2028    -2003    -1997    -1995    -1983 
   -1981    -1998    -2011    -2037    -2098    -2153    -2183    -2205 
   -2219    -2205    -2178    -2185    -2221    -2225    -2204    -2203 
   -2207    -2193    -2169    -2130    -2073    -2031    -2021    -2008 
   -1961    -1907    -1864    -1827    -1807    -1824    -1845    -1816 
   -1764    -1738    -1718    -1686    -1664    -1662    -1663    -1697 
   -1777    -1828    -1813    -1782    -1753    -1713    -1686    -1683 
   -1672    -1637    -1591    -1534    -1455    -1349    -1253    -1202 
   -1153    -1084    -1014     -916     -801     -735     -712     -676 
    -624     -599     -598     -571     -518     -475     -417     -356 
    -353     -373     -355     -336     -343     -356     -360     -372 
    -398     -410     -426     -476     -499     -473     -470     -513 
    -547     -548     -550     -568     -575     -575     -608     -647 
    -657     -673     -704     -713     -723     -764     -790     -783 
    -804     -852     -874     -881     -907     -941     -957     -981 
   -1023    -1042    -1040    -1048    -1057    -1051    -1047    -1070 
   -1099    -1098    -1084    -1078    -1059    -1036    -1050    -1078 
   -1071    -1056    -1070    -1091    -1096    -1116    -1170    -1222 
   -1251    -1260    -1237    -1203    -1208    -1246    -1263    -1242 
   -1212    -1174    -1131    -1118    -1122    -1091    -1037    -1012 
   -1008     -984     -954     -938     -917     -903     -935     -978 
    -981     -984    -1011    -1027    -1037    -1048    -1045    -1036 
   -1029    -1039    -1061    -1064    -1048    -1029    -1007     -992 
    -984     -956     -914     -885     -869     -856     -833     -804 
    -802     -807     -785     -761     -743     -726     -725     -746 
    -776     -806     -822     -810     -773     -737     -735     -757 
    -780     -800     -808     -805     -816     -836     -856     -894 
    -958    -1037    -1118    -1189    -1257    -1335    -1417    -1495 
   -1574    -1642    -1690    -1708    -1704    -1723    -1766    -1809 
   -1845    -1875    -1918    -1966    -1992    -2009    -2042    -2078 
   -2117    -2162    -2187    -2181    -2185    -2224    -2284    -2336 
   -2369    -2394    -2422    -2470    -2530    -2576    -2610    -2654 
   -2711    -2761    -2786    -2793    -2803    -2818    -2844    -2905 
   -2971    -3021    -3095    -3193    -3272    -3318    -3344    -3364 
   -3373    -3386    -3418    -3449    -3457    -3463    -3468    -3448 
   -3430    -3434    -3426    -3394    -3379    -3381    -3361    -3334 
   -3327    -3305    -3243    -3167    -3099    -3035    -2977    -2942 
   -2907    -2845    -2786    -2745    -2699    -2651    -2630    -2623 
   -2594    -2563    -2538    -2494    -2452    -2445    -2442    -2401 
   -2350    -2321    -2297    -2257    -2227    -2202    -2165    -2148 
   -2156    -2139    -2080    -2027    -2002    -1966    -1911    -1862 
   -1810    -1753    -1718    -1711    -1690    -1635    -1569    -1486 
   -1382    -1293    -1231    -1168    -1109    -1083    -1066    -1029 
    -996     -978     -949     -908     -881     -853     -793     -736 
    -711     -684     -646     -619     -594     -556     -528     -523 
    -505     -458     -444     -470     -472     -453     -448     -423 
    -369     -343     -345     -333     -328     -339     -327     -297 
    -277     -275     -272     -270     -293     -297     -233     -154 
    -111      -83      -52      -39      -41      -30      -10        9 
      52      112      132      105      100      115      106      107 
     130      136      135      165      221      258      270      280 
     279      265      270      284      272      248      242      247 
     249      246      228      192      156      147      137      100 
      60       26      -17      -57      -88     -118     -166     -232 
    -290     -344     -417     -485     -541     -605     -665     -728 
    -819     -892     -923     -969    -1063    -1176    -1269    -1345 
   -1421    -1494    -1575    -1671    -1734    -1756    -1792    -1848 
   -1884    -1903    -1935    -1977    -2001    -2023    -2065    -2092 
   -2102    -2132    -2167    -2179    -2182    -2186    -2166    -2130 
   -2123    -2142    -2144    -2133    -2136    -2144    -2140    -2154 
   -2188    -2206    -2221    -2239    -2227    -2205    -2201    -2191 
   -2155    -2100    -2054    -2029    -2005    -1989    -1983    -1956 
   -1929    -1940    -1959    -1960    -1958    -1958    -1942    -1920 
   -1916    -1919    -1909    -1907    -1924    -1930    -1924    -1939 
   -1962    -1955    -1936    -1938    -1951    -1961    -1971    -1977 
   -1963    -1947    -1958    -1976    -1978    -1998    -2033    -2039 
   -2044    -2085    -2116    -2122    -2156    -2211    -2241    -2263 
   -2290    -2293    -2276    -2278    -2303    -2315    -2318    -2322 
   -2304    -2275    -2267    -2262    -2243    -2213    -2182    -2166 
   -2146    -2133    -2143    -2121    -2082    -2094    -2104    -2066 
   -2031    -2009    -1973    -1945    -1940    -1925    -1877    -1826 
   -1811    -1795    -1761    -1744    -1720    -1678    -1663    -1648 
   -1596    -1529    -1483    -1456    -1416    -1357    -1295    -1225 
   -1162    -1156    -1178    -1154    -1107    -1069    -1019     -972 
    -958     -959     -955     -947     -941     -928     -912     -925 
    -955     -959     -962     -989    -1007    -1015    -1034    -1056 
   -1072    -1120    -1213    -1299    -1336    -1353    -1395    -1458 
   -1541    -1646    -1710    -1717    -1744    -1789    -1816    -1855 
   -1916    -1964    -1993    -2024    -2058    -2071    -2076    -2100 
   -2128    -2162    -2206    -2244    -2276    -2299    -2307    -2308 
   -2291    -2267    -2272    -2266    -2237    -2236    -2246    -2237 
   -2240    -2242    -2210    -2163    -2123    -2084    -2041    -2005 
   -1969    -1913    -1848    -1810    -1790    -1774    -1785    -1792 
   -1747    -1687    -1649    -1615    -1595    -1611    -1628    -1607 
   -1570    -1562    -1556    -1512    -1477    -1459    -1397    -1323 
   -1286    -1235    -1161    -1117    -1096    -1065    -1037    -1027 
   -1020     -972     -931     -962     -972     -921     -904     -907 
    -883     -881     -909     -925     -928     -942     -961     -947 
    -912     -933     -985     -998    -1013    -1030    -1003     -973 
    -972     -977     -970     -949     -946     -958     -952     -954 
    -959     -924     -903     -928     -938     -925     -923     -914 
    -890     -863     -820     -782     -767     -757     -745     -705 
    -640     -593     -542     -496     -481     -457     -423     -405 
    -381     -332     -284     -261     -261     -271     -285     -312 
    -336     -353     -404     -449     -455     -478     -500     -479 
    -462     -482     -509     -499     -482     -502     -517     -507 
    -517     -548     -554     -553     -579     -578     -534     -536 
    -579     -606     -633     -669     -680     -657     -650     -679 
    -695     -684     -699     -727     -734     -760     -813     -836 
    -842     -877     -911     -914     -917     -933     -928     -888 
    -853     -830     -800     -784     -783     -764     -727     -696 
    -681     -664     -633     -596     -554     -528     -533     -526 
    -477     -434     -436     -450     -455     -471     -483     -487 
    -521     -569     -580     -573     -581     -592     -606     -650 
    -698     -693     -662     -679     -719     -727     -727     -751 
    -772     -772     -776     -790     -780     -778     -823     -859 
    -871     -908     -949     -950     -938     -955     -975     -973 
   -1003    -1078    -1120    -1118    -1130    -1141    -1128    -1133 
   -1154    -1147    -1146    -1192    -1243    -1268    -1306    -1353 
   -1384    -1414    -1462    -1517    -1559    -1590    -1615    -1631 
   -1652    -1695    -1736    -1749    -1744    -1743    -1747    -1730 
   -1694    -1664    -1650    -1657    -1671    -1679    -1682    -1684 
   -1696    -1714    -1724    -1727    -1735    -1741    -1727    -1711 
   -1697    -1657    -1610    -1581    -1566    -1552    -1541    -1544 
   -1553    -1543    -1521    -1516    -1536    -1565    -1587    -1585 
