Origin Time       2011/03/11 14:46:00
Lat.              38.103
Long.             142.860
Depth. (km)       24
Mag.              9.0
Station Code      HKD075
Station Lat.      43.0767
Station Long.     145.1296
Station Height(m) 11
Record Time       2011/03/11 14:48:09
Sampling Freq(Hz) 100Hz
Duration Time(s)  300
Dir.              N-S
Scale Factor      3920(gal)/6182761
Max. Acc. (gal)   10.454
Last Correction   2011/03/11 14:47:54
Memo.             
[...]
    2092     2503     3748     5205     6183     6281     5536     4312 
    3139     2580     2963     4086     5285     6023     6207     5859 
    5004     3966     3212     2922     3044     3565     4471     5583 
    6507     6772     6217     5238     4422     4080     4212     4749 
    5559     6273     6488     6172     5582     4864     4024     3277 
    3086     3705     4862     6034     6878     7316     7371     7052 
    6369     5505     4795     4384     4188     4241     4733     5559 
    6234     6417     6121     5525     4898     4416     4088     4003 
    4379     5249     6364     7302     7586     6925     5505     3960 
    3028     3157     4257     5719     6785     6974     6295     5246 
    4397     3885     3610     3653     4153     4989     5761     6065 
    5739     4898     3823     2991     2942     3754     4872     5620 
    5735     5378     4678     3704     2847     2566     2916     3765 
    5027     6399     7330     7431     6708     5561     4707     4706 
    5447     6426     7256     7559     6937     5509     3976     3033 
    2968     3636     4678     5795     6672     6831     5997     4546 
    3295     2823     3126     3980     5198     6382     6959     6628 
    5632     4488     3552     3085     3396     4569     6309     7952 
    8731     8377     7199     5651     4181     3248     3120     3656 
    4358     4681     4420     3775     2943     2039     1374     1216 
    1616     2648     4196     5623     6236     5918     4995     3931 
    3381     3865     5167     6488     7228     7346     7086     6721 
    6485     6410     6300     5970     5432     4982     5068     5690 
    6141     5835     5047     4385     4027     3881     3927     4035 
    3945     3642     3449     3729     4471     5199     5505     5355 
    4875     4378     4263     4623     5255     5883     6274     6454 
    6613     6634     6267     5600     4957     4660     4801     5184 
    5731     6445     6946     6725     5818     4736     3913     3570 
    3827     4604     5622     6555     7063     6876     6018     4858 
    3871     3459     3796     4634     5542     6238     6479     6204 
    5734     5300     4932     4808     5061     5571     6079     6244 
    5883     5179     4459     4007     4063     4662     5466     5912 
    5589     4587     3421     2580     2265     2597     3669     5171 
    6459     7008     6623     5611     4523     3604     2990     3016 
    3756     4719     5336     5499     5402     5127     4737     4501 
    4638     4955     5095     5127     5425     5992     6303     5983 
    5404     5200     5468     5897     6229     6349     6315     6291 
    6370     6513     6548     6251     5548     4723     4321     4563 
    5141     5594     5510     4803     3888     3238     3050     3314 
    3857     4410     4680     4583     4264     3797     3289     2968 
    2964     3371     4197     5185     6004     6398     6277     5880 
    5576     5507     5538     5531     5504     5441     5232     4880 
    4448     3971     3584     3497     3834     4518     5229     5625 
    5502     4872     4170     4095     4935     6245     7292     7615 
    7083     5828     4353     3387     3365     4054     4896     5690 
    6471     6943     6773     6011     4895     3831     3258     3363 
    4236     5736     7173     7821     7567     6769     5803     4958 
    4491     4496     4798     5034     4967     4802     4850     5050 
    5133     4996     4809     4744     4746     4820     5059     5150 
    4637     3681     2863     2504     2632     3194     3902     4323 
    4310     4045     3854     4035     4532     5106     5731     6252 
    6211     5492     4515     3801     3678     4203     5178     6257 
    6943     6657     5222     3311     2035     1934     2846     4409 
    6104     7427     8096     7865     6875     5773     4925     4289 
    3942     4057     4687     5644     6444     6684     6407     5824 
    5042     4375     4288     4776     5368     5567     5014     3726 
    2165      938      685     1739     3595     5236     5967     5645 
    4521     3070     1744      973     1286     2799     4730     6104 
    6546     6122     5128     4068     3404     3486     4510     6199 
    7806     8629     8405     7332     5896     4669     4133     4499 
    5549     6745     7556     7644     6965     5922     5065     4555 
    4312     4375     4746     5231     5666     5966     5958     5554 
    4928     4403     4326     4837     5774     6769     7273     6946 
    6068     5178     4660     4749     5372     6024     6182     5672 
    4691     3733     3212     3119     3279     3567     3831     4022 
    4230     4466     4589     4440     4009     3545     3419     3761 
    4388     5096     5724     6025     5853     5440     5242     5518 
    6118     6675     6902     6680     6060     5227     4418     3873 
    3676     3668     3745     3906     4003     4046     4309     4726 
    4998     5197     5481     5759     5928     5888     5508     4875 
    4219     3666     3370     3423     3575     3586     3479     3238 
    2773     2201     1876     2091     2787     3632     4326     4725 
    4839     4770     4549     4225     4048     4115     4223     4361 
    4639     4848     4836     4901     5329     6098     7146     8402 
    9576    10145     9648     8084     6139     4885     4841     5554 
    6396     7133     7522     7184     6150     5019     4368     4277 
    4523     4968     5647     6492     7103     6993     6079     4828 
    3767     3106     2995     3499     4194     4390     3733     2397 
     916     -141     -540     -297      678     2315     3979     4993 
    5295     5175     4700     3745     2465     1440     1185     1674 
    2561     3667     4928     5976     6289     5773     4837     4078 
    3842     4006     4424     5069     5704     6084     6243     6328 
    6378     6259     5859     5363     5171     5399     5657     5631 
    5386     4950     4435     4325     4944     6051     7146     7795 
    7777     7135     6047     4823     3952     3718     3904     4120 
    4222     4427     4905     5392     5586     5613     5750     5876 
    5642     5202     5076     5259     5383     5343     5177     5011 
    5075     5347     5630     5940     6362     6752     6970     7109 
    7236     7219     6879     6135     5203     4679     5136     6551 
    8212     9268     9356     8549     7003     5000     3106     2007 
    2016     2849     4071     5453     6808     7769     7745     6444 
    4447     2723     1865     2105     3437     5318     6799     7407 
    7428     7186     6744     6205     5651     5116     4769     4603 
    4358     3987     3570     3037     2416     2006     2184     3061 
    4179     4710     4196     3051     2082     1681     1826     2421 
    3275     4148     4802     5016     4857     4592     4248     3622 
    2696     1963     2083     3005     4069     4874     5416     5679 
    5651     5626     5886     6127     5859     5069     4184     3810 
    4258     5247     6235     6691     6235     4977     3694     3268 
    3812     4677     5223     5265     4967     4534     4135     4046 
    4379     4759     4818     4738     4937     5449     5926     6056 
    5827     5486     5295     5310     5400     5443     5382     5182 
    4959     4914     4949     4798     4469     4197     4278     4982 
    6243     7530     8357     8543     8024     7100     6518     6667 
    7149     7426     7433     7359     7105     6434     5454     4485 
    3694     3131     2877     3106     3891     4796     5083     4461 
    3296     2094     1150      832     1576     3218     4850     5682 
    5636     4874     3494     2096     1659     2570     4509     6893 
    9013    10238    10177     8698     6224     3792     2317     2033 
    2791     4230     5641     6341     6030     4678     2715     1064 
     395      846     2333     4425     6260     7050     6572     5195 
    3550     2356     2256     3429     5444     7328     7915     6794 
    4744     2893     1862     1792     2571     3747     4606     4754 
    4423     3911     3238     2543     2264     2780     4082     5667 
    6832     7290     7104     6115     4259     2229     1108     1411 
    2737     4168     4984     4993     4232     2778      930     -521 
    -503     1342     4204     7135     9799    11762    12210    10979 
    8857     6692     5146     4868     5973     7770     9398    10218 
    9801     8311     6565     5339     4947     5325     6178     7177 
    7939     7982     7033     5226     3110     1603     1496     2774 
    4664     6298     7060     6635     5188     3470     2445     2526 
    3297     4253     5269     6009     5839     4682     3118     1723 
     780      413      727     1874     3818     5984     7558     8169 
    7923     7139     6231     5342     4360     3412     2818     2801 
    3485     4775     6058     6519     5981     4923     3796     2776 
    1880     1264     1162     1288     1162      936     1001     1178 
     992      545      559     1444     2785     3852     4268     4027 
    3221     2235     1720     1905     2598     3673     4804     5303 
    4823     3738     2734     2396     3003     4339     5858     7159 
    8000     8105     7545     6900     6642     6853     7358     7683 
    7330     6361     5384     4901     4936     5365     6170     7216 
    8139     8473     7884     6607     5368     4680     4719     5601 
    7122     8554     8997     8077     6465     5305     5223     6267 
    8149    10200    11673    12192    11791    10640     8899     6836 
    4898     3539     2960     3024     3430     3888     4096     3813 
    3071     2122     1062     -182    -1412    -2048    -1477      487 
    3317     5960     7307     6782     4897     2766     1109      229 
     320     1295     2695     3875     4457     4560     4456     4236 
    3748     2876     1933     1343     1220     1515     2178     3150 
    4276     5373     6388     7255     7743     7605     6753     5376 
    3927     2922     2626     2941     3534     4011     4070     3610 
    2772     1830      873     -212    -1308    -1837    -1276      318 
    2507     4802     6698     7793     8003     7591     7001     6593 
    6473     6577     6897     7481     8231     8805     8878     8438 
    7663     6842     6366     6222     5829     4723     2981     1093 
    -378    -1213    -1490    -1219     -409      867     2588     4476 
    5782     5986     5272     3996     2633     2185     3262     5129 
    6435     6462     5527     4253     2755     1049     -293     -487 
     695     2707     4764     6438     7612     8137     7974     7562 
    7546     8061     8652     8924     8953     9065     9403     9667 
    9361     8400     7147     5978     5214     5125     5555     5657 
    4667     2921     1402      664      666     1067     1564     1946 
    1908     1411     1001     1291     2451     4182     5916     7148 
    7522     6765     4999     3021     1804     1687     2298     3095 
    3817     4594     5548     6452     6927     6661     5525     3763 
    2030     1204     1815     3586     5836     8106    10200    11974 
   13347    14239    14290    12996    10518     8110     7024     7335 
    8365     9460    10188    10317     9641     8205     6581     5370 
    4677     4128     3403     2619     1871     1070      435      313 
     706     1469     2600     3936     4849     4742     3751     2530 
    1486      799      926     2197     4157     5745     6027     5114 
    4160     3915     4105     4344     4559     4669     4570     4416 
    4693     5688     6984     7882     8067     7534     6205     4153 
    2111     1248     2197     4461     6902     8503     8595     7141 
    4879     2792     1629     1637     2377     3122     3437     3154 
    2205     1010      466      941     1985     3099     3939     4200 
    3948     3716     4023     5007     6393     7600     7961     7110 
    5357     3348     1568      549      717     1770     2940     3778 
    4260     4298     3756     2931     2249     1878     2024     2772 
    3825     4722     4951     4284     2998     1473      151     -334 
     434     2467     5456     8628    10895    11605    10921     9460 
    7886     6830     6689     7234     7747     7733     7119     5880 
    4151     2511     1565     1459     1973     2736     3390     3725 
    3609     3032     2257     1508      713     -123     -702     -878 
    -906    -1025    -1164    -1142     -668      602     2576     4817 
    6982     8667     9488     9502     8940     8059     7341     7028 
    6947     7054     7338     7490     7283     6880     6535     6324 
    6191     6069     6160     6766     7533     7749     7368     6720 
    6011     5755     6455     7786     9026     9683     9271     7569 
    5324     3722     3314     3960     5141     6039     5961     4820 
    3086     1615     1405     2722     4608     5752     5535     4133 
    2360     1525     2650     5599     9082    11345    11170     8752 
    5519     3045     2273     3395     5882     8635    10519    10770 
    9100     5902     2094    -1279    -2993    -2270       65     2273 
    3329     2930     1087    -1505    -3701    -4635    -3994    -1934 
    1023     4236     7352    10157    12173    13055    12981    12397 
   11922    12297    13981    16708    19512    21293    21336    19664 
   17058    14261    11443     8815     6963     6089     5745     5697 
    6269     7457     8496     8619     7482     4995     1395    -2746 
   -6587    -9094    -9666    -8506    -6215    -3583    -1510     -577 
    -810    -1661    -2211    -1827     -564     1057     2346     2730 
    2038      647     -611     -967     -204     1408     3362     5154 
    6452     7205     7647     8155     9220    11221    13865    16189 
   17224    16600    14603    11776     8834     6731     6222     7388 
    9455    11062    11278    10247     8510     6467     4718     3937 
    4153     4805     5493     6162     6634     6465     5447     4032 
    3016     2846     3294     3770     3857     3499     2916     2458 
    2446     3101     4233     5036     4742     3387     1760      774 
     896     1973     3555     5378     7253     8668     9118     8824 
    8485     8309     8064     7684     6915     5270     3005     1158 
     557     1311     2739     3731     3625     2564     1040     -301 
    -796     -390      171      199     -255     -786    -1005     -470 
     968     2817     4506     5899     6908     7207     6759     6070 
    5658     5619     5872     6506     7624     8879     9442     8665 
    6662     4105     1924     1231     2748     6080     9896    12732 
   13567    12061     8544     3898     -656    -4077    -5858    -5810 
   -4038    -1202     1537     2965     2613     1008     -933    -2128 
   -1530     1014     4337     6660     6871     5274     3017     1023 
    -399    -1165     -927      553     2780     4946     6480     7004 
    6585     6014     6304     8043    11103    14472    16741    17165 
   15890    13450    10627     8283     6910     6411     6488     7079 
    8113     9062     9160     7934     5528     2719      368    -1117 
   -1417     -188     2188     4704     6671     7885     8183     7348 
    5493     3477     2496     2902     3839     4315     3985     2737 
     628    -1508    -2490    -1869      -91     1957     3374     3712 
    3043     1832     1066     1709     3830     6820     9896    12147 
   12883    11974     9664     6654     4067     2742     2878     4302 
    6647     9456    12073    13627    13585    11900     8670     4462 
     634    -1480    -1467      214     2585     4650     5904     6329 
    6345     6817     8457    11191    14287    16851    18203    17975 
   15902    11990     7253     3513     1904     2216     3659     5340 
    6181     5271     2642     -534    -2766    -3203    -1868      668 
    3680     6330     7760     7676     6514     4941     3553     2665 
    2089     1353      140    -1532    -3323    -4638    -4902    -3892 
   -1661     1504     4667     6613     6876     5680     3513     1261 
    -277     -975    -1010     -367     1216     3864     6994     9442 
   10360     9632     7550     4807     2563     1712     2255     3738 
    5636     7181     7653     6967     5692     4572     4046     4403 
    5944     8150     9542     9137     7173     4390     1596     -311 
    -634      603     2456     3730     4035     3807     3543     3534 
    3967     4788     5500     5545     5053     4635     4442     4042 
    3055     1644      357     -410     -460      273     1622     3471 
    5627     7592     9108    10151    10437     9849     8915     8197 
    7779     7650     7914     8324     8312     7743     7054     6777 
    7311     8653    10212    11234    11075     9294     6237     3097 
     984      395     1419     3838     7087    10339    12524    12616 
   10588     7571     4721     2668     1792     2255     3736     5288 
    5747     4706     2869     1178       39     -391      112     1522 
    3411     5076     5795     5382     4187     2472      604     -710 
   -1192    -1146     -818     -441     -449    -1276    -3130    -5722 
   -8082    -8911    -7518    -4319     -264     3566     5933     6021 
    4131     1553     -106      167     2205     5099     7985    10247 
   11434    11328    10079     8238     6388     4744     3589     3756 
    5862     9344    12964    15669    16583    15281    12423     9274 
    6673     4852     3861     3781     4544     5682     6536     6794 
    6502     5698     4605     3912     4110     4926     5740     6057 
    5824     5621     5956     6792     8107     9919    11717    12694 
   12334    10551     7557     3798      -25    -3023    -4370    -3705 
   -1367     1693     4336     5768     5851     4900     3263     1475 
     400      487     1356     2559     4248     6796    10111    13569 
   16380    17978    18241    17226    14959    11686     7872     3875 
     106    -2658    -3524    -2084     1108     4659     7170     7785 
    6104     2409    -2065    -5666    -7293    -6693    -4070      -48 
    4303     7877     9718     9323     7099     4022      898    -1596 
   -2724    -2443    -1737    -1446    -1534    -1511     -860      630 
    2703     4847     6536     7367     7120     5948     4556     3693 
    3572     4033     4633     4736     4266     3916     4257     5310 
    6994     9252    11660    13382    13792    13049    11689     9824 
    7523     5655     5319     6828     9596    12272    13410    12475 
    9745     5941     2500      945     1567     3478     5756     8020 
   10017    11126    10807     9263     7109     4807     2711     1298 
    1046     1991     3623     5400     7021     8175     8474     7760 
    6320     4753     3495     2480     1564      863      205     -905 
   -2503    -4134    -5647    -7265    -8877    -9937    -9964    -8731 
   -6268    -2942      512     3393     5565     7134     7841     7509 
    6563     5494     4525     4066     4609     6040     7672     8767 
    8739     7440     5480     3876     3352     4091     5719     7361 
