Origin Time       2011/03/11 14:46:00
Lat.              38.103
Long.             142.860
Depth. (km)       24
Mag.              9.0
Station Code      HKD072
Station Lat.      43.1948
Station Long.     145.5209
Station Height(m) 46
Record Time       2011/03/11 14:48:06
Sampling Freq(Hz) 100Hz
Duration Time(s)  300
Dir.              U-D
Scale Factor      3920(gal)/6182761
Max. Acc. (gal)   5.140
Last Correction   2011/03/11 14:47:51
Memo.             
[...]
   -8124    -8175    -8031    -7673    -7259    -7058    -7269    -7821 
   -8285    -8316    -8234    -8616    -9403    -9884    -9507    -8596 
   -8079    -8424    -9166    -9484    -8991    -8028    -7322    -7216 
   -7420    -7578    -7758    -8370    -9541   -10577   -10551    -9412 
   -8110    -7630    -8153    -9140    -9830    -9838    -9566    -9528 
   -9529    -9060    -8130    -7460    -7776    -8913   -10011   -10408 
  -10021    -9266    -8780    -8850    -9159    -9300    -9288    -9405 
   -9729   -10001    -9875    -9265    -8473    -7944    -7958    -8506 
   -9290    -9906   -10051    -9621    -8743    -7708    -6956    -6926 
   -7616    -8518    -9079    -9129    -8990    -9188    -9874   -10452 
  -10105    -8857    -7700    -7481    -7991    -8380    -8203    -7702 
   -7274    -7156    -7442    -8007    -8515    -8676    -8522    -8313 
   -8173    -8085    -8171    -8648    -9537   -10502   -11017   -10923 
  -10635   -10484   -10139    -9193    -7964    -7218    -7421    -8305 
   -9002    -8928    -8410    -8254    -8886    -9850   -10424   -10548 
  -10508   -10209    -9415    -8232    -7119    -6527    -6541    -6910 
   -7328    -7620    -7776    -7831    -7840    -7949    -8293    -8796 
   -9145    -9140    -9011    -9034    -9074    -8942    -8698    -8491 
   -8385    -8213    -7817    -7434    -7346    -7446    -7593    -7862 
   -8282    -8677    -8734    -8352    -7911    -7840    -8222    -8970 
   -9823   -10296   -10118    -9439    -8585    -7910    -7715    -8134 
   -8986    -9765   -10029    -9784    -9341    -8911    -8512    -8159 
   -7887    -7735    -7849    -8212    -8340    -7791    -6902    -6503 
   -6985    -7990    -8996    -9909   -10730   -10994   -10330    -9162 
   -8286    -8083    -8277    -8266    -7793    -7221    -7108    -7604 
   -8260    -8524    -8359    -8354    -9115   -10303   -10822   -10218 
   -9153    -8585    -8821    -9200    -8918    -8028    -7229    -7001 
   -7097    -6937    -6567    -6584    -7161    -7889    -8294    -8291 
   -8314    -8846    -9824   -10696   -10899   -10336    -9441    -8744 
   -8475    -8401    -8024    -7319    -6904    -7243    -8229    -9454 
  -10502   -11080   -11024   -10429    -9735    -9363    -9375    -9492 
   -9528    -9809   -10520   -10931   -10223    -8684    -7407    -7054 
   -7284    -7355    -7137    -7196    -7862    -8757    -9272    -9175 
   -8841    -8825    -9229    -9723    -9977    -9864    -9385    -8634 
   -7899    -7565    -7767    -8352    -9099    -9833   -10388   -10659 
  -10620   -10236    -9579    -8880    -8231    -7708    -7550    -7721 
   -7916    -7991    -7883    -7677    -7698    -8039    -8398    -8521 
   -8489    -8544    -8660    -8538    -8124    -7841    -8185    -9072 
   -9739    -9530    -8698    -8125    -8219    -8452    -8266    -7862 
   -7839    -8538    -9689   -10599   -10728    -9947    -8634    -7589 
   -7412    -8055    -8890    -9173    -8819    -8458    -8437    -8458 
   -8405    -8605    -9073    -9269    -8803    -7982    -7418    -7215 
   -6949    -6523    -6440    -6999    -7874    -8636    -9105    -9146 
   -8612    -7678    -7047    -7453    -8844   -10338   -11020   -10624 
   -9584    -8510    -7732    -7414    -7744    -8649    -9586    -9884 
   -9343    -8498    -8098    -8219    -8295    -7954    -7476    -7504 
   -8288    -9189    -9407    -8920    -8196    -7663    -7639    -8066 
   -8606    -9042    -9256    -9241    -9100    -8757    -8052    -7196 
   -6729    -6957    -7659    -8371    -8919    -9398    -9629    -9264 
   -8405    -7572    -7206    -7478    -8359    -9657   -11035   -11967 
  -11936   -10886    -9203    -7454    -6334    -6277    -7068    -8144 
   -9178   -10127   -10740   -10575    -9621    -8458    -7818    -8089 
   -9005    -9789    -9749    -8864    -7872    -7571    -8018    -8714 
   -9218    -9353    -9161    -8811    -8531    -8457    -8471    -8558 
   -9061   -10023   -10846   -10849    -9861    -8504    -7719    -7786 
   -8217    -8510    -8556    -8454    -8312    -8238    -8277    -8245 
   -8009    -7897    -8309    -9104    -9682    -9589    -9091    -9039 
   -9964   -11352   -11999   -11243    -9711    -8613    -8513    -8995 
   -9304    -9197    -9090    -9385    -9900    -9991    -9199    -7841 
   -6873    -7049    -8264    -9652   -10277    -9939    -9375    -9321 
   -9565    -9286    -8212    -7156    -7236    -8530    -9834   -10024 
   -9173    -8045    -7120    -6443    -5944    -5652    -5893    -7063 
   -8875   -10229   -10175    -8869    -7455    -6969    -7519    -8471 
   -9138    -9348    -9452    -9780   -10172   -10064    -9187    -8159 
   -7952    -8739    -9726   -10070    -9651    -9021    -8744    -8847 
   -9028    -9139    -9324    -9876   -10808   -11408   -10829    -9230 
   -7606    -6606    -6128    -5846    -5751    -6019    -6539    -7000 
   -7317    -7707    -8441    -9413   -10120   -10296   -10186    -9979 
   -9454    -8570    -7940    -8077    -8581    -8692    -8365    -8264 
   -8629    -8704    -7817    -6461    -5789    -6396    -7711    -8649 
   -8954    -9153    -9313    -8863    -7557    -6111    -5659    -6538 
   -8062    -9463   -10438   -10931   -10905   -10449    -9887    -9487 
   -9030    -8174    -7291    -7110    -7581    -7915    -7713    -7454 
   -7725    -8486    -9322    -9841    -9840    -9446    -8936    -8460 
   -7981    -7474    -7240    -7580    -8226    -8684    -8795    -8732 
   -8819    -9177    -9474    -9389    -9032    -8778    -8980    -9670 
  -10497   -11035   -10984   -10246    -9124    -8114    -7399    -7000 
   -7019    -7396    -7962    -8533    -8797    -8572    -8001    -7410 
   -7301    -8097    -9548   -10843   -11455   -11389   -10788    -9779 
   -8610    -7632    -7105    -7073    -7386    -7741    -7730    -7178 
   -6536    -6546    -7354    -8479    -9635   -10793   -11573   -11466 
  -10498    -9178    -8071    -7606    -7996    -8955    -9702    -9631 
   -8844    -7893    -7080    -6377    -6042    -6560    -7766    -8943 
   -9733   -10150   -10052    -9275    -8036    -6968    -6747    -7512 
   -8804   -10146   -11233   -11776   -11616   -10734    -9192    -7436 
   -6316    -6376    -7260    -8068    -8352    -8357    -8198    -7659 
   -7015    -7011    -7811    -8897    -9925   -10725   -10959   -10541 
   -9858    -9315    -8957    -8530    -7998    -7756    -7963    -8273 
   -8387    -8195    -7668    -7016    -6659    -6835    -7276    -7534 
   -7666    -8056    -8649    -9035    -9109    -9100    -9230    -9479 
   -9485    -8893    -7914    -7279    -7512    -8319    -8854    -8590 
   -7817    -7284    -7497    -8243    -8726    -8518    -8173    -8424 
   -9242   -10001   -10130    -9664    -9272    -9442    -9929   -10157 
   -9778    -9089    -8654    -8205    -7032    -5530    -5055    -6402 
   -8931   -11074   -11793   -11398   -10828   -10647   -10836   -11017 
  -10801   -10236    -9778    -9670    -9553    -8930    -7850    -6939 
   -6774    -7269    -7891    -8340    -8659    -9007    -9445    -9689 
   -9530    -9347    -9540    -9967   -10140    -9612    -8489    -7457 
   -7109    -7642    -8781    -9841   -10404   -10505   -10258    -9911 
   -9591    -9109    -8622    -8593    -8991    -9423    -9697    -9828 
   -9766    -9375    -8803    -8491    -8581    -8593    -7961    -6859 
   -6070    -5998    -6314    -6555    -6728    -7232    -8147    -8972 
   -9450    -9883   -10456   -11027   -11265   -10783    -9648    -8293 
   -7023    -6235    -6385    -7363    -8443    -8902    -8673    -8128 
   -7304    -6165    -5251    -5264    -6393    -8136    -9638   -10488 
  -10978   -11376   -11379   -10545    -9117    -8031    -7980    -8753 
   -9596    -9916    -9642    -9179    -8870    -8613    -8290    -7912 
   -7467    -7158    -7246    -7616    -7980    -8268    -8747    -9626 
  -10383   -10186    -9086    -8016    -7798    -8494    -9288    -9188 
   -8206    -7442    -7711    -8432    -8178    -6356    -4042    -2908 
   -3713    -6063    -8931   -11203   -12237   -12068   -11149    -9885 
   -8324    -6660    -5689    -5997    -7299    -8836    -9734    -9490 
   -8589    -7896    -7584    -7285    -6831    -6578    -7127    -8426 
   -9464    -9454    -8740    -8199    -8498    -9718   -11164   -12023 
  -12076   -11505   -10657    -9788    -8659    -7205    -6177    -6170 
   -6911    -7820    -8485    -8725    -8437    -7457    -5984    -4863 
   -4927    -6190    -7778    -8630    -8473    -7978    -7798    -7890 
   -7815    -7268    -6509    -6277    -6838    -7626    -8152    -8608 
   -9433   -10475   -10794    -9840    -8467    -8145    -9258   -10650 
  -11168   -10960   -10724   -10569   -10101    -9217    -8474    -8486 
   -9190    -9862    -9803    -9072    -8204    -7474    -7024    -7023 
   -7351    -7880    -8780   -10144   -11596   -12335   -11829   -10603 
   -9828    -9961   -10126    -9233    -7593    -6664    -7171    -8338 
   -9014    -9044    -9180    -9848   -10592   -10712   -10112    -9441 
   -9235    -9372    -9668   -10183   -10589   -10209    -8961    -7449 
   -6289    -5837    -6086    -6881    -8226    -9742   -10469   -10039 
   -9177    -8628    -8514    -8731    -9176    -9833   -10605   -11036 
  -10843   -10370   -10056    -9946    -9760    -9236    -8466    -7858 
   -7760    -8190    -8808    -9168    -9372   -10067   -11250   -11802 
  -10948    -9492    -8742    -8895    -9283    -9367    -8970    -8246 
   -7582    -7180    -6654    -5531    -4295    -4030    -5051    -6637 
   -7831    -8054    -7310    -6296    -6025    -6810    -7921    -8473 
   -8415    -8620    -9618   -10418    -9692    -7782    -6378    -6404 
   -7138    -7549    -7774    -8572    -9911   -10937   -10863    -9533 
   -7635    -6377    -6586    -8114   -10116   -11671   -12167   -11503 
  -10010    -7975    -5699    -3987    -3758    -5152    -7471    -9735 
  -10989   -10712    -9410    -8172    -7603    -7701    -8387    -9762 
  -11733   -13536   -14082   -12913   -10675    -8545    -7067    -5991 
   -5286    -5322    -6240    -7915    -9917   -11437   -11931   -11447 
  -10247    -8667    -7246    -6558    -6778    -7540    -8342    -8982 
   -9414    -9213    -7866    -5549    -3229    -2117    -2665    -4260 
   -6110    -7686    -8577    -8539    -7684    -6540    -5541    -5053 
   -5887    -8262   -11001   -12624   -12232   -10113    -7860    -6726 
   -6513    -6359    -5989    -6359    -8252   -10405   -10987    -9946 
   -8447    -7417    -7158    -7442    -7790    -7891    -7925    -8277 
   -8962    -9697   -10173   -10113    -9466    -8542    -7792    -7456 
   -7464    -7666    -8086    -8850    -9789   -10387   -10417   -10295 
  -10375   -10333    -9802    -9073    -8531    -7909    -6894    -5881 
   -5452    -5637    -5957    -6146    -6538    -7256    -7878    -8164 
   -8139    -7875    -7751    -8207    -9136    -9964   -10265   -10040 
   -9544    -8948    -8226    -7557    -7376    -7855    -8751    -9584 
   -9781    -9193    -8425    -8226    -8689    -9175    -9200    -9221 
   -9852   -10761   -11092   -10419    -9013    -7599    -6830    -6855 
   -7419    -8207    -9027    -9836   -10583   -10910   -10367    -9134 
   -7981    -7518    -7717    -7819    -7244    -6866    -8011   -10349 
  -12129   -12096   -10764    -9870   -10297   -11145   -11071    -9734 
   -8017    -7153    -7371    -7891    -8235    -8544    -8965    -9553 
  -10345   -11032   -11093   -10628   -10224    -9952    -9332    -8146 
   -6860    -6399    -7216    -8606    -9394    -9098    -8296    -7982 
   -8393    -8794    -8598    -8107    -8086    -8792    -9605    -9802 
   -9316    -8539    -7772    -7037    -6319    -5776    -5502    -5410 
   -5655    -6539    -7708    -8198    -7507    -6234    -5534    -5958 
   -7126    -8461    -9677   -10640   -11179   -10983    -9886    -8308 
   -7113    -7066    -8298   -10080   -11375   -11582   -10743    -9420 
   -8120    -6849    -5692    -5238    -6050    -8012   -10204   -11760 
  -12596   -12670   -11597    -9575    -7551    -6359    -6203    -6712 
   -7303    -7684    -7912    -8061    -8131    -8182    -8354    -8645 
   -8728    -8349    -7800    -7692    -8267    -9125    -9837   -10404 
  -10748   -10458    -9354    -7853    -6700    -6422    -6823    -7188 
   -7205    -7222    -7570    -8276    -9139    -9798   -10135   -10488 
  -11080   -11523   -11134    -9840    -8622    -8581    -9722   -10999 
  -11399   -10750    -9588    -8599    -8086    -7639    -6732    -5534 
   -4701    -4732    -5411    -5961    -6218    -6880    -8165    -9211 
   -9273    -8795    -8671    -9101    -9691    -9870    -9174    -7967 
   -7405    -8104    -9475   -10482   -10602    -9975    -8983    -8092 
   -7704    -7891    -8610    -9788   -11069   -11912   -11937   -11312 
  -10704   -10477   -10277    -9705    -9123    -9354   -10448   -11413 
  -11516   -11010   -10370    -9722    -9052    -8298    -7500    -6957 
   -6831    -6875    -6850    -6892    -7266    -7893    -8262    -7971 
   -7163    -6335    -6041    -6577    -7613    -8470    -8859    -9103 
   -9578   -10110   -10139    -9480    -8699    -8489    -8808    -9143 
   -9310    -9466    -9745    -9874    -9153    -7423    -5606    -4823 
   -5434    -6807    -8105    -9313   -10663   -11614   -11438   -10071 
   -8141    -6791    -7029    -8872   -11419   -13625   -14714   -14239 
  -12179    -9040    -5808    -3579    -3005    -4057    -6192    -8577 
  -10326   -10687    -9216    -6414    -3853    -2921    -3887    -6270 
   -9431   -12774   -15552   -16719   -15501   -12154    -7964    -4539 
   -3007    -3689    -6151    -9384   -12145   -13369   -12728   -10817 
   -8485    -6417    -5366    -5955    -8173   -11139   -13391   -13845 
  -12581   -10482    -8305    -6274    -4571    -3838    -4631    -6660 
   -8896   -10099    -9513    -7592    -5687    -4754    -4695    -5082 
   -6087    -8005   -10145   -11049    -9788    -6856    -4005    -2986 
   -4141    -6316    -8225    -9628   -10946   -12018   -11987   -10523 
   -8467    -7225    -7799    -9981   -12355   -13488   -13201   -12450 
  -11850   -10937    -9298    -7512    -6627    -7231    -8850   -10284 
  -10628    -9771    -8298    -6976    -6151    -5877    -6181    -6861 
   -7526    -7804    -7652    -7593    -7896    -7989    -7646    -7614 
   -8489   -10009   -11469   -12364   -12648   -12340   -11183    -9008 
   -6369    -4580    -4729    -6696    -9410   -11673   -12570   -11782 
   -9778    -7454    -5520    -4300    -4185    -5587    -8064   -10196 
  -10665    -9471    -7939    -7315    -7880    -9176   -10360   -10933 
  -11137   -11201   -10983   -10262    -8944    -7458    -6613    -6777 
   -7702    -8745    -9118    -8550    -7510    -6580    -6068    -6121 
   -6974    -8806   -11114   -12735   -12743   -11199    -9069    -7303 
   -6243    -6101    -7015    -8537    -9783    -9950    -8890    -7413 
   -6494    -6424    -7019    -7979    -8957    -9673    -9826    -9282 
   -8381    -7556    -7082    -7126    -7405    -7514    -7593    -7971 
   -8598    -9001    -8704    -7765    -6655    -5951    -6085    -6855 
   -7707    -8639   -10049   -11653   -12198   -10857    -8510    -6868 
   -6742    -7650    -8752    -9760   -10798   -11608   -11512   -10360 
   -8941    -8145    -8330    -9411   -10818   -11790   -12118   -11970 
  -11366   -10266    -8782    -7357    -6701    -7187    -8529    -9938 
  -10512    -9910    -8648    -7561    -7103    -7069    -7019    -6938 
   -7073    -7213    -6884    -6227    -6071    -6970    -8493    -9805 
  -10628   -11094   -11242   -11161   -11088   -11216   -11584   -11854 
  -11339    -9867    -8129    -6769    -5988    -5885    -6317    -6941 
   -7545    -7972    -8206    -8501    -8947    -9349    -9642    -9807 
   -9840    -9957   -10148   -10129    -9974    -9967   -10186   -10576 
  -10846   -10577    -9760    -8831    -8123    -7621    -7245    -7027 
   -6955    -7047    -7495    -8281    -8928    -9172    -9419   -10156 
  -11274   -12145   -12336   -11998   -11347   -10352    -9004    -7451 
   -6077    -5418    -5657    -6463    -7299    -7688    -7537    -7035 
   -6212    -5154    -4196    -3506    -3303    -4183    -6399    -9287 
  -11656   -12616   -12182   -10910    -9225    -7488    -6275    -6152 
   -7127    -8536    -9446    -9131    -7727    -6334    -5980    -6735 
   -7867    -8626    -8861    -8828    -8730    -8683    -8846    -9221 
   -9447    -9288    -8995    -8871    -8829    -8449    -7583    -6816 
   -6936    -7989    -9044    -9026    -7858    -6498    -5821    -5683 
   -5269    -4528    -4462    -5476    -6867    -8044    -9007    -9906 
  -10598   -10805   -10608    -9901    -8309    -6309    -4932    -4747 
   -5531    -6287    -6375    -6402    -7260    -8948   -10491   -10960 
  -10570   -10287   -10727   -11759   -12602   -12457   -11438   -10383 
   -9673    -8917    -7960    -7432    -7674    -8182    -8656    -9273 
   -9858    -9892    -9216    -8423    -8351    -9042    -9800   -10163 
  -10326   -10624   -10709    -9959    -8599    -7391    -6766    -6680 
   -6704    -6540    -6560    -7190    -8130    -8591    -8146    -7234 
   -6625    -6711    -7670    -9511   -11600   -12878   -12890   -12328 
  -12071   -11891   -10873    -8900    -7066    -6589    -7405    -8282 
   -8506    -8447    -8419    -8167    -7265    -5921    -5427    -6580 
   -8522   -10133   -11042   -11524   -12137   -12754   -12662   -11745 
  -10448    -9149    -8199    -7777    -7600    -7383    -7285    -7462 
   -7680    -7590    -7131    -6641    -6587    -7029    -7609    -8232 
   -9222   -10655   -12078   -12963   -12997   -11981   -10137    -8309 
   -7326    -7292    -7563    -7602    -7554    -7626    -7656    -7353 
   -6569    -5624    -5245    -5861    -7282    -9012   -10484   -11217 
  -11089   -10338    -9256    -8153    -7607    -8083    -9221   -10183 
  -10515   -10306    -9821    -9273    -8915    -8963    -9157    -9073 
   -8905    -9135    -9863   -10674   -10802    -9978    -8810    -8007 
   -7889    -8302    -8648    -8385    -7498    -6398    -5426    -4589 
   -3875    -3634    -4279    -5602    -6929    -7811    -8142    -8183 
   -8426    -8966    -9633   -10573   -11843   -12946   -13225   -12362 
  -10699    -9165    -8341    -7979    -7864    -8142    -8745    -9333 
   -9501    -8930    -7863    -7151    -7393    -8348    -9519   -10872 
  -12451   -13761   -14155   -13416   -11727    -9588    -7753    -6931 
   -7267    -8134    -8830    -8986    -8301    -6822    -5151    -3960 
   -3737    -4706    -6791    -9774   -12934   -14907   -14832   -13111 
  -10781    -8730    -7471    -7211    -7821    -8710    -9089    -8612 
   -7541    -6398    -5920    -6823    -8930   -11015   -11942   -11566 
  -10391    -8963    -7742    -7154    -7425    -8404    -9783   -11106 
  -11617   -11022    -9791    -8415    -7353    -6899    -6787    -6838 
   -7153    -7502    -7539    -7289    -7082    -7232    -7794    -8558 
   -9221    -9540    -9451    -9126    -8786    -8398    -7749    -6908 
   -6225    -5795    -5542    -5551    -6025    -7056    -8259    -9066 
   -9347    -9219    -8723    -8021    -7587    -7911    -8960   -10213 
  -10920   -10421    -8922    -7550    -7134    -7326    -7251    -6959 
   -7400    -8680    -9609    -9188    -7538    -5749    -5128    -5907 
   -7126    -7979    -8583    -9382   -10308   -10767   -10290    -9151 
