Origin Time       2011/03/11 14:46:00
Lat.              38.103
Long.             142.860
Depth. (km)       24
Mag.              9.0
Station Code      HKD004
Station Lat.      45.2149
Station Long.     142.2260
Station Height(m) 4
Record Time       2011/03/11 14:49:49
Sampling Freq(Hz) 100Hz
Duration Time(s)  250
Dir.              U-D
Scale Factor      3920(gal)/6182761
Max. Acc. (gal)   1.876
Last Correction   2011/03/11 14:49:34
Memo.             
[...]
    2889     2767     2644     2523     2405     2295     2193     2097 
    2007     1922     1841     1767     1701     1643     1595     1554 
    1522     1495     1472     1458     1450     1447     1459     1483 
    1516     1560     1615     1673     1736     1804     1873     1938 
    1999     2051     2100     2147     2198     2256     2322     2390 
    2458     2523     2579     2629     2666     2688     2700     2709 
    2710     2700     2687     2676     2660     2638     2613     2584 
    2547     2501     2450     2396     2340     2285     2235     2188 
    2142     2100     2057     2014     1971     1922     1866     1800 
    1723     1637     1549     1461     1377     1301     1240     1193 
    1158     1135     1126     1127     1130     1134     1139     1140 
    1138     1137     1140     1152     1176     1206     1237     1270 
    1309     1349     1388     1432     1481     1531     1586     1647 
    1710     1773     1834     1888     1930     1962     1980     1983 
    1975     1961     1940     1911     1875     1836     1794     1745 
    1695     1651     1614     1582     1559     1541     1525     1514 
    1508     1503     1495     1483     1470     1453     1434     1416 
    1406     1406     1413     1423     1435     1449     1463     1479 
    1502     1533     1574     1631     1696     1769     1853     1944 
    2038     2138     2236     2334     2434     2538     2648     2764 
    2883     3005     3125     3241     3352     3453     3546     3631 
    3711     3786     3864     3946     4031     4117     4207     4290 
    4359     4410     4439     4444     4427     4388     4335     4271 
    4202     4133     4065     4001     3938     3875     3810     3740 
    3666     3587     3505     3421     3338     3259     3188     3130 
    3080     3039     3009     2984     2957     2925     2892     2859 
    2828     2806     2800     2815     2850     2907     2985     3078 
    3181     3290     3405     3519     3630     3734     3828     3911 
    3986     4053     4119     4183     4245     4311     4378     4442 
    4505     4565     4621     4674     4720     4761     4800     4831 
    4852     4862     4863     4858     4844     4821     4792     4759 
    4722     4685     4644     4592     4528     4456     4377     4297 
    4216     4136     4065     4003     3949     3903     3866     3832 
    3795     3746     3686     3612     3529     3442     3352     3264 
    3188     3126     3078     3045     3023     3005     2987     2967 
    2944     2918     2894     2872     2850     2831     2818     2815 
    2819     2827     2836     2841     2838     2826     2804     2772 
    2733     2693     2653     2619     2591     2571     2561     2560 
    2563     2569     2577     2581     2582     2580     2568     2546 
    2513     2473     2426     2376     2328     2285     2248     2217 
    2193     2176     2156     2127     2093     2054     2013     1974 
    1939     1911     1890     1880     1881     1891     1911     1935 
    1958     1980     2004     2027     2054     2091     2134     2183 
    2241     2301     2358     2409     2448     2475     2495     2508 
    2516     2520     2520     2519     2523     2533     2550     2570 
    2593     2614     2630     2637     2638     2633     2622     2607 
    2589     2568     2548     2531     2517     2504     2489     2470 
    2451     2432     2413     2398     2386     2379     2377     2382 
    2392     2407     2423     2436     2442     2442     2438     2426 
    2406     2390     2377     2367     2368     2383     2406     2441 
    2482     2523     2563     2600     2625     2637     2641     2640 
    2635     2629     2625     2623     2622     2619     2611     2601 
    2589     2575     2564     2559     2559     2569     2583     2599 
    2617     2636     2649     2656     2654     2644     2629     2613 
    2600     2595     2603     2616     2637     2668     2704     2743 
    2784     2826     2868     2907     2943     2972     2991     3002 
    3008     3013     3020     3030     3046     3072     3097     3124 
    3158     3191     3221     3250     3276     3298     3318     3337 
    3359     3387     3413     3437     3454     3462     3458     3445 
    3419     3384     3348     3311     3274     3241     3214     3191 
    3172     3149     3122     3096     3065     3032     3005     2985 
    2972     2967     2971     2982     2998     3019     3043     3065 
    3086     3111     3135     3160     3188     3212     3230     3244 
    3253     3255     3255     3253     3250     3246     3237     3223 
    3207     3189     3169     3144     3115     3078     3032     2981 
    2922     2855     2783     2712     2643     2576     2510     2443 
    2371     2290     2202     2112     2020     1927     1836     1747 
    1662     1586     1514     1447     1385     1326     1271     1217 
    1165     1123     1086     1056     1037     1031     1028     1028 
    1033     1042     1056     1073     1094     1121     1154     1192 
    1238     1288     1339     1394     1452     1508     1566     1625 
    1682     1740     1800     1858     1917     1976     2028     2078 
    2122     2161     2199     2238     2281     2332     2386     2445 
    2514     2586     2654     2720     2785     2845     2896     2940 
    2977     3007     3036     3064     3092     3118     3144     3163 
    3174     3183     3191     3189     3177     3161     3141     3118 
    3097     3077     3059     3041     3020     2995     2965     2929 
    2887     2838     2786     2735     2686     2643     2612     2596 
    2587     2582     2584     2585     2577     2563     2542     2514 
    2482     2453     2428     2410     2397     2388     2382     2372 
    2355     2333     2306     2277     2249     2225     2208     2202 
    2205     2213     2225     2235     2243     2250     2256     2264 
    2277     2299     2331     2375     2431     2495     2563     2629 
    2690     2742     2786     2824     2857     2889     2925     2963 
    3003     3046     3091     3133     3170     3204     3232     3250 
    3265     3282     3302     3326     3354     3389     3427     3466 
    3502     3533     3555     3566     3570     3575     3580     3585 
    3599     3615     3627     3635     3636     3625     3598     3559 
    3510     3451     3383     3311     3237     3159     3082     3004 
    2923     2840     2754     2664     2576     2493     2412     2333 
    2261     2196     2138     2086     2041     2004     1970     1942 
    1924     1912     1901     1898     1901     1912     1930     1952 
    1977     2006     2033     2062     2096     2135     2181     2235 
    2292     2349     2407     2461     2508     2548     2581     2610 
    2638     2664     2690     2718     2746     2771     2794     2815 
    2831     2842     2848     2853     2859     2869     2881     2895 
    2913     2935     2963     2996     3032     3073     3116     3156 
    3194     3228     3257     3287     3318     3347     3377     3409 
    3445     3481     3517     3548     3575     3599     3616     3624 
    3624     3616     3603     3588     3571     3552     3534     3519 
    3503     3490     3479     3459     3435     3411     3386     3362 
    3341     3322     3307     3290     3267     3239     3206     3172 
    3137     3101     3065     3029     2991     2955     2921     2889 
    2857     2823     2787     2750     2712     2673     2632     2594 
    2560     2531     2507     2492     2484     2481     2482     2484 
    2483     2478     2470     2467     2474     2486     2501     2520 
    2540     2560     2574     2587     2607     2631     2654     2683 
    2719     2763     2815     2871     2928     2984     3035     3078 
    3111     3140     3165     3182     3193     3202     3214     3228 
    3245     3270     3302     3334     3370     3408     3447     3490 
    3533     3572     3606     3639     3668     3688     3703     3717 
    3729     3737     3742     3742     3735     3720     3696     3663 
    3623     3576     3522     3465     3410     3354     3292     3228 
    3161     3088     3012     2932     2845     2750     2648     2541 
    2435     2338     2249     2170     2105     2048     1998     1957 
    1917     1876     1835     1794     1754     1721     1693     1672 
    1662     1656     1656     1660     1664     1668     1675     1681 
    1686     1693     1706     1724     1745     1774     1807     1838 
    1865     1887     1904     1920     1934     1942     1950     1961 
    1973     1987     2002     2018     2034     2048     2062     2074 
    2086     2098     2108     2118     2130     2139     2148     2162 
    2180     2203     2230     2260     2292     2326     2367     2417 
    2474     2537     2607     2680     2752     2823     2887     2946 
    2997     3032     3057     3084     3109     3131     3155     3182 
    3210     3234     3257     3282     3303     3316     3323     3320 
    3311     3300     3286     3270     3255     3244     3235     3224 
    3212     3200     3187     3170     3151     3136     3125     3119 
    3121     3129     3141     3157     3167     3169     3164     3154 
    3140     3124     3108     3093     3078     3059     3039     3014 
    2984     2945     2898     2848     2797     2745     2694     2644 
    2588     2523     2452     2376     2295     2207     2115     2027 
    1940     1852     1760     1666     1569     1471     1370     1269 
    1170     1070      964      859      766      680      600      535 
     487      455      436      432      440      457      479      504 
     532      563      600      642      684      724      763      808 
     870      944     1021     1096     1171     1247     1318     1386 
    1464     1557     1657     1762     1879     2004     2130     2252 
    2369     2481     2579     2659     2725     2783     2837     2889 
    2935     2977     3016     3049     3072     3086     3087     3074 
    3054     3030     3005     2980     2961     2949     2943     2940 
    2940     2941     2937     2929     2917     2900     2885     2877 
    2876     2880     2888     2902     2918     2934     2948     2959 
    2966     2970     2965     2950     2923     2885     2837     2783 
    2725     2662     2597     2533     2465     2392     2318     2244 
    2167     2087     2007     1926     1848     1775     1710     1651 
    1596     1545     1499     1452     1402     1351     1298     1241 
    1184     1130     1082     1043     1016      999      994     1000 
    1018     1043     1072     1103     1135     1167     1197     1229 
    1262     1291     1314     1333     1352     1363     1367     1366 
    1355     1346     1349     1364     1379     1391     1404     1415 
    1409     1392     1382     1376     1368     1356     1344     1333 
    1322     1312     1304     1299     1298     1301     1305     1318 
    1343     1366     1376     1386     1396     1398     1394     1392 
    1389     1383     1376     1369     1363     1356     1353     1357 
    1363     1372     1383     1395     1408     1424     1443     1466 
    1495     1529     1565     1601     1640     1681     1722     1765 
    1809     1857     1914     1979     2051     2129     2213     2307 
    2409     2517     2628     2740     2851     2962     3072     3181 
    3288     3394     3497     3597     3695     3793     3889     3981 
    4069     4152     4229     4300     4365     4423     4471     4511 
    4542     4558     4559     4557     4551     4541     4527     4514 
    4504     4495     4485     4475     4465     4453     4438     4417 
    4395     4374     4353     4334     4315     4291     4266     4236 
    4200     4159     4113     4061     4006     3951     3898     3850 
    3810     3777     3752     3732     3709     3681     3649     3617 
    3591     3565     3536     3510     3488     3463     3429     3392 
    3361     3333     3303     3279     3264     3256     3253     3255 
    3267     3288     3310     3326     3334     3338     3338     3327 
    3305     3282     3262     3245     3235     3236     3243     3252 
    3264     3277     3293     3308     3324     3344     3368     3396 
    3423     3448     3475     3498     3514     3525     3524     3515 
    3501     3479     3455     3435     3417     3402     3395     3395 
    3402     3414     3429     3447     3459     3466     3465     3453 
    3431     3396     3349     3295     3228     3151     3068     2974 
    2872     2764     2656     2552     2455     2365     2283     2208 
    2133     2062     1999     1941     1885     1832     1779     1725 
    1667     1602     1534     1463     1386     1305     1225     1147 
    1073     1011      960      918      884      858      835      816 
     803      795      788      787      794      811      836      872 
     913      951      985     1013     1029     1036     1035     1026 
    1015     1006      998      997     1004     1017     1035     1061 
    1095     1139     1190     1250     1322     1403     1486     1573 
    1663     1747     1834     1930     2028     2124     2224     2328 
    2435     2545     2660     2786     2923     3063     3204     3349 
    3496     3644     3794     3943     4090     4234     4373     4500 
    4620     4736     4843     4938     5022     5097     5164     5225 
    5278     5326     5367     5399     5423     5442     5453     5455 
    5450     5437     5412     5377     5334     5281     5217     5146 
    5068     4978     4882     4782     4672     4558     4444     4330 
    4216     4103     3996     3894     3799     3709     3624     3538 
    3454     3370     3281     3185     3089     2994     2895     2794 
    2697     2601     2506     2415     2328     2248     2173     2104 
    2038     1977     1918     1858     1799     1744     1688     1632 
    1576     1525     1473     1419     1364     1311     1262     1213 
    1166     1122     1079     1037     1003      976      960      958 
     968      989     1023     1062     1102     1143     1182     1213 
    1241     1264     1277     1282     1280     1277     1275     1274 
    1277     1286     1299     1314     1332     1357     1383     1414 
    1451     1492     1534     1578     1619     1654     1683     1706 
    1722     1735     1748     1763     1776     1789     1806     1824 
    1839     1854     1867     1872     1872     1872     1871     1873 
    1880     1892     1915     1946     1980     2017     2049     2074 
    2093     2102     2102     2099     2092     2086     2079     2071 
    2063     2052     2036     2015     1985     1945     1894     1836 
    1779     1723     1668     1619     1581     1548     1527     1516 
    1509     1508     1513     1514     1513     1511     1507     1504 
    1502     1501     1502     1506     1516     1532     1549     1569 
    1590     1608     1624     1642     1665     1693     1727     1767 
    1812     1860     1907     1956     2005     2056     2115     2175 
    2233     2290     2338     2382     2431     2483     2535     2585 
    2638     2698     2755     2808     2864     2920     2968     3008 
    3040     3066     3088     3108     3126     3145     3163     3182 
    3206     3232     3263     3303     3346     3389     3430     3468 
    3503     3533     3557     3576     3591     3604     3611     3616 
    3624     3634     3645     3655     3660     3662     3666     3672 
    3675     3678     3681     3683     3680     3673     3661     3642 
    3618     3591     3558     3521     3479     3428     3375     3319 
    3263     3210     3159     3104     3046     2983     2916     2842 
    2764     2687     2610     2533     2455     2375     2289     2197 
    2096     1985     1869     1747     1626     1512     1409     1316 
    1231     1154     1087     1026      965      905      850      795 
     742      694      648      604      569      538      507      479 
     453      425      394      360      325      291      256      222 
     190      162      140      118       95       65       29      -14 
     -65     -123     -178     -231     -280     -327     -370     -404 
    -426     -442     -453     -453     -446     -434     -413     -380 
    -332     -273     -203     -125      -41       53      157      265 
     380      500      624      751      879     1003     1126     1253 
    1387     1528     1674     1826     1984     2142     2291     2435 
    2575     2710     2845     2978     3108     3238     3370     3505 
    3639     3773     3904     4028     4146     4260     4368     4471 
    4569     4660     4743     4818     4888     4956     5019     5074 
    5125     5170     5206     5231     5244     5248     5244     5231 
    5212     5188     5163     5138     5113     5083     5052     5017 
    4974     4923     4860     4791     4716     4632     4541     4447 
    4349     4250     4151     4052     3951     3852     3758     3667 
    3576     3487     3399     3318     3250     3192     3144     3112 
    3096     3086     3082     3080     3075     3067     3058     3046 
    3034     3021     3011     3009     3012     3019     3031     3044 
    3056     3072     3090     3105     3121     3137     3153     3168 
    3183     3197     3209     3217     3223     3224     3222     3214 
    3199     3180     3152     3121     3093     3068     3050     3038 
    3028     3016     3001     2981     2954     2920     2879     2831 
    2780     2729     2679     2628     2575     2523     2471     2418 
    2364     2308     2248     2185     2117     2043     1968     1897 
    1831     1767     1704     1641     1579     1514     1447     1378 
    1308     1237     1169     1104     1039      976      917      857 
     793      731      666      597      529      465      407      361 
     329      308      300      299      300      304      311      316 
     318      323      331      338      346      357      365      368 
     368      367      363      362      369      384      409      446 
     489      531      570      606      633      649      655      655 
     647      637      628      620      616      617      620      625 
     637      656      678      704      735      774      822      875 
     935      998     1063     1124     1178     1226     1264     1294 
    1320     1343     1363     1382     1404     1430     1462     1499 
    1538     1579     1624     1670     1716     1759     1794     1829 
    1861     1883     1898     1915     1932     1951     1977     2007 
    2041     2081     2124     2165     2205     2244     2274     2295 
    2307     2310     2307     2303     2297     2288     2282     2280 
    2279     2277     2277     2279     2280     2282     2284     2284 
    2287     2293     2299     2307     2318     2326     2331     2330 
    2322     2306     2287     2269     2248     2230     2221     2222 
    2238     2268     2305     2349     2397     2442     2477     2504 
    2523     2536     2547     2562     2584     2613     2650     2691 
    2731     2767     2799     2828     2846     2859     2878     2897 
    2916     2945     2978     3009     3048     3088     3127     3172 
