Origin Time       2011/03/11 14:46:00
Lat.              38.103
Long.             142.860
Depth. (km)       24
Mag.              9.0
Station Code      HKD073
Station Lat.      43.3327
Station Long.     145.6003
Station Height(m) 36
Record Time       2011/03/11 14:48:10
Sampling Freq(Hz) 100Hz
Duration Time(s)  285
Dir.              U-D
Scale Factor      3920(gal)/6182761
Max. Acc. (gal)   6.079
Last Correction   2011/03/11 14:47:55
Memo.             
[...]
  -16795   -15640   -14618   -14153   -14757   -16273   -17263   -17122 
  -16993   -17219   -16688   -15377   -14610   -14659   -14773   -15020 
  -15956   -17380   -18503   -18833   -18342   -17013   -15240   -14109 
  -14029   -14389   -14937   -15753   -16400   -16571   -16665   -16951 
  -16985   -16387   -15457   -14600   -14179   -14655   -15773   -16552 
  -16583   -16291   -16247   -16730   -17296   -17118   -16199   -15379 
  -15215   -15589   -16027   -16086   -15777   -15732   -16554   -17763 
  -18179   -17493   -16315   -15166   -14509   -14687   -15380   -16039 
  -16359   -16120   -15506   -15230   -15601   -16017   -16120   -16497 
  -17235   -17379   -16750   -16331   -16437   -16291   -15788   -15925 
  -16750   -17091   -16752   -16486   -16222   -15389   -14155   -13316 
  -13463   -14497   -15947   -17403   -18296   -18117   -17007   -15406 
  -13789   -12854   -12947   -13768   -15080   -16767   -18273   -18800 
  -17963   -16158   -14416   -13444   -13090   -13254   -14193   -15531 
  -16419   -16547   -15959   -14783   -13681   -13566   -14633   -16076 
  -16910   -16946   -16630   -16267   -15717   -14764   -13947   -14337 
  -15817   -16894   -16870   -16641   -16851   -16938   -16458   -15901 
  -15683   -15543   -15280   -15035   -14803   -14798   -15644   -17141 
  -18064   -17751   -16514   -14943   -13835   -13891   -15003   -16344 
  -17320   -17942   -18174   -17962   -17756   -17677   -17006   -15646 
  -14633   -14429   -14458   -14668   -15552   -16512   -16323   -15117 
  -14075   -13775   -14171   -15055   -15960   -16569   -16883   -16983 
  -16988   -16847   -16651   -16615   -16106   -14624   -13470   -13929 
  -15216   -16150   -16613   -16672   -16621   -17300   -18472   -18512 
  -16991   -15481   -14988   -14875   -15003   -16246   -18170   -19005 
  -18209   -16660   -15062   -14102   -14510   -15724   -16496   -16591 
  -16325   -15873   -15554   -15374   -14972   -14687   -15433   -17119 
  -18330   -18031   -16704   -15583   -15555   -16623   -17925   -18623 
  -18586   -17863   -16406   -14647   -13496   -13683   -15428   -18019 
  -19744   -19229   -16889   -14410   -13053   -13045   -13966   -15159 
  -16368   -17672   -18582   -18221   -16468   -14434   -13665   -14493 
  -15794   -16780   -17708   -18615   -18732   -17616   -16210   -15907 
  -16830   -17960   -18352   -17433   -15107   -12390   -11076   -11946 
  -13853   -15239   -15799   -15984   -16069   -16133   -15971   -15548 
  -15539   -16197   -16668   -16555   -16575   -16973   -16894   -15895 
  -14742   -14235   -14500   -15417   -16554   -17215   -17290   -17143 
  -16760   -16057   -15616   -16063   -16905   -16975   -16039   -14831 
  -13912   -13869   -15229   -17131   -18156   -18364   -18265   -17258 
  -15166   -13459   -13495   -14898   -16230   -16387   -15191   -13634 
  -13385   -14690   -15998   -16640   -17355   -17996   -17525   -15857 
  -14032   -13108   -13399   -14559   -16143   -17624   -18244   -17522 
  -15844   -14340   -13870   -14344   -15199   -15918   -16353   -16793 
  -16936   -15859   -14010   -13160   -13905   -15435   -17223   -18856 
  -19150   -17538   -15491   -14602   -14736   -15434   -16812   -18428 
  -19221   -18691   -17277   -15671   -14260   -13306   -12929   -13071 
  -13888   -15345   -16702   -17338   -17462   -17367   -16734   -15442 
  -14399   -14545   -15558   -16340   -16442   -16342   -16380   -16371 
  -16416   -16810   -17204   -17125   -16819   -16653   -16475   -16202 
  -16059   -15882   -15426   -15103   -15309   -15832   -16353   -16721 
  -16879   -16790   -16407   -16053   -16431   -17446   -18001   -17722 
  -17315   -17117   -16838   -16223   -15274   -14456   -14596   -15906 
  -17451   -18235   -18063   -16960   -15076   -13245   -12424   -12927 
  -14410   -16006   -17046   -17528   -17412   -16804   -16470   -16694 
  -16873   -16701   -16305   -15681   -14920   -14244   -13658   -13255 
  -13563   -15000   -17259   -19309   -19967   -19028   -17591   -16488 
  -15452   -14604   -14941   -16481   -17676   -17517   -16687   -15891 
  -15081   -14800   -15776   -17294   -18033   -17302   -14983   -12388 
  -11747   -13138   -14579   -15466   -16671   -17762   -17416   -15887 
  -14575   -14269   -15063   -16513   -17670   -18172   -18575   -18879 
  -18097   -15903   -13654   -13151   -14509   -15958   -16134   -15625 
  -15676   -16458   -17340   -17884   -17716   -16628   -15375   -14969 
  -15169   -14970   -14106   -13130   -12681   -13288   -14943   -16518 
  -16705   -15581   -14382   -14137   -15123   -16951   -18571   -18813 
  -17263   -14674   -12511   -11713   -12268   -13931   -16192   -18155 
  -19248   -19245   -17988   -16075   -14930   -15422   -16911   -17717 
  -16836   -15310   -14504   -14140   -14102   -15312   -17177   -17843 
  -17135   -16182   -15391   -14868   -15022   -15715   -16278   -16419 
  -16429   -16678   -16837   -16194   -15177   -14981   -15665   -16435 
  -16949   -17163   -17254   -17821   -18655   -18369   -16639   -14799 
  -13717   -13555   -14773   -17088   -18959   -19314   -18238   -16219 
  -14361   -14048   -15359   -17241   -18799   -19293   -18529   -17436 
  -16681   -15760   -14383   -13309   -13367   -14503   -15877   -16748 
  -17039   -16931   -16647   -16429   -15974   -14989   -14616   -16014 
  -17826   -17908   -16436   -14836   -13781   -13494   -13917   -14677 
  -15740   -16839   -16975   -16129   -15866   -17053   -18791   -19979 
  -20005   -18252   -14971   -11963   -10830   -11395   -12671   -14395 
  -16751   -18940   -19483   -18138   -15968   -14022   -13012   -13362 
  -15134   -17683   -19469   -19578   -18673   -17554   -16574   -16081 
  -15719   -14803   -13874   -13801   -14283   -14920   -15785   -16206 
  -15420   -14205   -13823   -14473   -15595   -16417   -16707   -16871 
  -16606   -15309   -13953   -14123   -15600   -16909   -17419   -17370 
  -16938   -16406   -16109   -15864   -15519   -15615   -16530   -17633 
  -18165   -18368   -18486   -17677   -15688   -14109   -14117   -14995 
  -15994   -17019   -17372   -16608   -15736   -15495   -15489   -15835 
  -16997   -18252   -18338   -17203   -15922   -14987   -13993   -13382 
  -14439   -16966   -19070   -19425   -18009   -15323   -12637   -11729 
  -12816   -14548   -16412   -18461   -19434   -17893   -14592   -11942 
  -11281   -12212   -14472   -17776   -20270   -20261   -18335   -15866 
  -13696   -12808   -13556   -14726   -15410   -16382   -17993   -18738 
  -17721   -16091   -14794   -13946   -14194   -15860   -17963   -19274 
  -19141   -17598   -15278   -13296   -13004   -14818   -17587   -19605 
  -19619   -17719   -15605   -14763   -15133   -16306   -18027   -19104 
  -18356   -16619   -15540   -15343   -15339   -14944   -13851   -12977 
  -13929   -16345   -18037   -17814   -16330   -14841   -14183   -14510 
  -15597   -17235   -18982   -19604   -18031   -15495   -14490   -15107 
  -15371   -14716   -14420   -15664   -17994   -19080   -17352   -14251 
  -12143   -11888   -13254   -15419   -16991   -17284   -17057   -16991 
  -16737   -16130   -15615   -15469   -15867   -16618   -16887   -16586 
  -16622   -17066   -16814   -15380   -14104   -14657   -16471   -17446 
  -17058   -16553   -16722   -17412   -18097   -18112   -17311   -16159 
  -15105   -14445   -14259   -14499   -15201   -16172   -16784   -16421 
  -15403   -15117   -16237   -17563   -17624   -16291   -14376   -13250 
  -14367   -17118   -18835   -18458   -17196   -15737   -14250   -13649 
  -14522   -16121   -17215   -17210   -16359   -15787   -16738   -18568 
  -19196   -18004   -16134   -14830   -14617   -14781   -14199   -13160 
  -13174   -15093   -17836   -19129   -18126   -16319   -15064   -14079 
  -13197   -13288   -14318   -15044   -15309   -15811   -16269   -16276 
  -16287   -16408   -15799   -14126   -12741   -13243   -15594   -18476 
  -20264   -19888   -17871   -15930   -15136   -14991   -15034   -15978 
  -17621   -18163   -16997   -15574   -15388   -16375   -17133   -16936 
  -16173   -14860   -13533   -13770   -15686   -17549   -18102   -17697 
  -17503   -17704   -17176   -15568   -14274   -14535   -15600   -15979 
  -15983   -17093   -18907   -19247   -17476   -15358   -14566   -15229 
  -16598   -17507   -16838   -15126   -14476   -15392   -15890   -15040 
  -14210   -14410   -15310   -16090   -16137   -15954   -16393   -16811 
  -16171   -15128   -14722   -14764   -15252   -16530   -17427   -17000 
  -16860   -17818   -17842   -16119   -14135   -12824   -12869   -14788 
  -16785   -16799   -15536   -14125   -12653   -12440   -14843   -18463 
  -21152   -22231   -21204   -17942   -14457   -13112   -13576   -14296 
  -15467   -17403   -18417   -17428   -15699   -14512   -14019   -14286 
  -15162   -15835   -15991   -16368   -17511   -19080   -20251   -20148 
  -18470   -16142   -14582   -14187   -14589   -15712   -17102   -17623 
  -17132   -16827   -17195   -17112   -15805   -14355   -14203   -15627 
  -17932   -19591   -19357   -17709   -15808   -14384   -14006   -14430 
  -14986   -16008   -17510   -18144   -17431   -16527   -16027   -15276 
  -14107   -13409   -13758   -14740   -15353   -14770   -13510   -13179 
  -14358   -15947   -16983   -17724   -18209   -17327   -14802   -12667 
  -12860   -14671   -16378   -17475   -17762   -16822   -15420   -14836 
  -15071   -15712   -16862   -17946   -17932   -17304   -17242   -17224 
  -16267   -15288   -15485   -16189   -16377   -16112   -15220   -13398 
  -12166   -13453   -16480   -18609   -18536   -17144   -15855   -15218 
  -15189   -15588   -15619   -14607   -13623   -14219   -15963   -17517 
  -18503   -18260   -15840   -12710   -11493   -12035   -12694   -13574 
  -15238   -16909   -17735   -17796   -17488   -16962   -16421   -16462 
  -17019   -16946   -15957   -15122   -14791   -14516   -14983   -16676 
  -17752   -17094   -16272   -16036   -15577   -14893   -14197   -13314 
  -13094   -14826   -17998   -20521   -21065   -19697   -17042   -14331 
  -13061   -13563   -14903   -16353   -17496   -17654   -17193   -17428 
  -17677   -15938   -13443   -13794   -16895   -19004   -18664   -17465 
  -16374   -15288   -14153   -12922   -12267   -13379   -15955   -18255 
  -19021   -18230   -16801   -15753   -15101   -14459   -14562   -16131 
  -18125   -19243   -19255   -18018   -15735   -13864   -13881   -15703 
  -17846   -19000   -19277   -19103   -17775   -14896   -11976   -10880 
  -12208   -15450   -18865   -20364   -19607   -17624   -15270   -13376 
  -12512   -12816   -14868   -18286   -20444   -19628   -17040   -14321 
  -12524   -12607   -13840   -14357   -14440   -15616   -17409   -18057 
  -17086   -15780   -15703   -16870   -17809   -17856   -17851   -18118 
  -17874   -16647   -14835   -13336   -12928   -13777   -15558   -17224 
  -17326   -16056   -15001   -14675   -15060   -16460   -17972   -18078 
  -16754   -15370   -15109   -15727   -16081   -15926   -15886   -15858 
  -15516   -15884   -17579   -18620   -17476   -16097   -16495   -17677 
  -18168   -17714   -16050   -13507   -11943   -12318   -13036   -12866 
  -13071   -14308   -14929   -14639   -15435   -17636   -19111   -18687 
  -17394   -16189   -14848   -13719   -13877   -14787   -14780   -14162 
  -14600   -16188   -17847   -18589   -17325   -14086   -11016   -10251 
  -11766   -14157   -16392   -18061   -18602   -17453   -15281   -13829 
  -14086   -15470   -16392   -15780   -14767   -15296   -17264   -18667 
  -17991   -16286   -16118   -18018   -20081   -20446   -18649   -15919 
  -14283   -14552   -15922   -17325   -17944   -17326   -16137   -15285 
  -14553   -14051   -14871   -16522   -17040   -16529   -16912   -18350 
  -19300   -18974   -17341   -14678   -12512   -12544   -14117   -15259 
  -15792   -16972   -18969   -20529   -20635   -19653   -18472   -17237 
  -16277   -16305   -16526   -15794   -14821   -14397   -14429   -15204 
  -16302   -16390   -15603   -15002   -14463   -13491   -12536   -12664 
  -14390   -16505   -17371   -17605   -18661   -19431   -17899   -14589 
  -11494   -10043   -11291   -14996   -18755   -20596   -20653   -19267 
  -16694   -14093   -12319   -11732   -13357   -17387   -21470   -22815 
  -20993   -17476   -13831   -11128    -9949   -10449   -12576   -15539 
  -17242   -16204   -14135   -13841   -15030   -15690   -15817   -16432 
  -17623   -19172   -20392   -19797   -17261   -15016   -14624   -15179 
  -15602   -15989   -16298   -15892   -14870   -14527   -15515   -16545 
  -16324   -15624   -15464   -15097   -14211   -14527   -16798   -19260 
  -20038   -18438   -15167   -12385   -11126   -10223    -9501   -10494 
  -13498   -17160   -20502   -22833   -22900   -20369   -16652   -13388 
  -11578   -11608   -13183   -15595   -17940   -19478   -20277   -20602 
  -20010   -18301   -16267   -14800   -14369   -14882   -15357   -15122 
  -14977   -15421   -15721   -15849   -16314   -16685   -16469   -15665 
  -14395   -13431   -13705   -14983   -16376   -17388   -17623   -16843 
  -15540   -14539   -14074   -13458   -12301   -11658   -12568   -14665 
  -17068   -18748   -18460   -16426   -14686   -14446   -15220   -16576 
  -18172   -18767   -17597   -15832   -15092   -15765   -16949   -16929 
  -14914   -12769   -13094   -15528   -17411   -17636   -16798   -15309 
  -14221   -14704   -15884   -16553   -17154   -17957   -18355   -18380 
  -18249   -17543   -16464   -15969   -16401   -17261   -17626   -16990 
  -16057   -15663   -15748   -16226   -17164   -17664   -16619   -14927 
  -14503   -15179   -15424   -15185   -15291   -15619   -15967   -17049 
  -18856   -19594   -17830   -14174   -10037    -6821    -6404    -9762 
  -14741   -17977   -18920   -19103   -19157   -19172   -19366   -19021 
  -17567   -16337   -16534   -17352   -18098   -19228   -20040   -18805 
  -16256   -15041   -15411   -15288   -13900   -12340   -11612   -11815 
  -12192   -11685   -10724   -11404   -14130   -16504   -17264   -17682 
  -18243   -18212   -17917   -17971   -17970   -17780   -17737   -17415 
  -16403   -15264   -14302   -13382   -13364   -15083   -17584   -19483 
  -20214   -19266   -16631   -13491   -11252   -10704   -12043   -14802 
  -17339   -17582   -15466   -13205   -12631   -14046   -16638   -18681 
  -19086   -18597   -18122   -17397   -16227   -15507   -15729   -15907 
  -15523   -15175   -15061   -15546   -17208   -18789   -18441   -16518 
  -14814   -14558   -15276   -15342   -14605   -14431   -14912   -15041 
  -14918   -15293   -15774   -15420   -14645   -14431   -14295   -13903 
  -14754   -17121   -18637   -18192   -17701   -18581   -19553   -19128 
  -17551   -15663   -14271   -14405   -16117   -17945   -18916   -19313 
  -19169   -18229   -16962   -16059   -15333   -14087   -12653   -12215 
  -12918   -14271   -16334   -18339   -18593   -16679   -13337    -9511 
   -6821    -6856    -9882   -14773   -19494   -22483   -23591   -22834 
  -19958   -16023   -13342   -13284   -15253   -17874   -20346   -22060 
  -22131   -20411   -17756   -15292   -14316   -15457   -17397   -18290 
  -18131   -18034   -17843   -16493   -14572   -13554   -12985   -12055 
  -12015   -13834   -16069   -16941   -16458   -15662   -15095   -14609 
  -13967   -13148   -12768   -13726   -15596   -16968   -17207   -16418 
  -15129   -14311   -14512   -15448   -16271   -16175   -15492   -15176 
  -15396   -15989   -16902   -17647   -17679   -17028   -16197   -15534 
  -14974   -14786   -15296   -15849   -15903   -16310   -17781   -19111 
  -18623   -16756   -15648   -16399   -17920   -18790   -19015   -19137 
  -19036   -18063   -15834   -13370   -12461   -13506   -15386   -16990 
  -17608   -16673   -14576   -12855   -12322   -12918   -14947   -17400 
  -17852   -16181   -14649   -14349   -14497   -14238   -13551   -12979 
  -13515   -15903   -19002   -20122   -17971   -14365   -12155   -12152 
  -13478   -15757   -18394   -19587   -18691   -17074   -15622   -14530 
  -14644   -15966   -17039   -17211   -16822   -16110   -15922   -17121 
  -18758   -19229   -18506   -17524   -16678   -16181   -16178   -15873 
  -14205   -11895   -11519   -14061   -17178   -18796   -19084   -17945 
  -15127   -12553   -12601   -15013   -17730   -19198   -18989   -17540 
  -15865   -15129   -15524   -15845   -15269   -14468   -14752   -16864 
  -19395   -19261   -15722   -11834   -10356   -10987   -12599   -15067 
  -17916   -19425   -18336   -15479   -12927   -12278   -13725   -16026 
  -17588   -17676   -17016   -17226   -18480   -18883   -17432   -15362 
  -13812   -12608   -12075   -13464   -16393   -18795   -19656   -18898 
  -16903   -15542   -15926   -16511   -16074   -15258   -14749   -14786 
  -15459   -16192   -15937   -14448   -13252   -14182   -16529   -17708 
  -16838   -15116   -13406   -12339   -12984   -14837   -15789   -15346 
  -14800   -14340   -13460   -13477   -15941   -19298   -20383   -18639 
  -16212   -14460   -13354   -13568   -15863   -19191   -21650   -22052 
  -19981   -16495   -14213   -14273   -15036   -14852   -13653   -12420 
  -12600   -14846   -18093   -20829   -22350   -22064   -19786   -16799 
  -14323   -12441   -11558   -12262   -13835   -15161   -16302   -17477 
  -17869   -17194   -16446   -16038   -15644   -15584   -16207   -17026 
  -17477   -17378   -16544   -15021   -13950   -14685   -16791   -18907 
  -20422   -20402   -17658   -13611   -11677   -12591   -14206   -15585 
  -17228   -18859   -19833   -20104   -19632   -18244   -16451   -15106 
  -14303   -13814   -14062   -15306   -16682   -17126   -16783   -16688 
  -17000   -16853   -16001   -14746   -13139   -11638   -11225   -12372 
  -14401   -15905   -16186   -15783   -15759   -17092   -19089   -18874 
  -15330   -11610   -10611   -11273   -12132   -13826   -16219   -18010 
  -18987   -18815   -16610   -13744   -12443   -12496   -13197   -14979 
  -17149   -18090   -18068   -18769   -20257   -20728   -19478   -17992 
  -17277   -16454   -14806   -13088   -12228   -12375   -13772   -16375 
  -18578   -19149   -18771   -17868   -16032   -13916   -12984   -13976 
  -16441   -18552   -18307   -16104   -14423   -14741   -16440   -17990 
  -17948   -16210   -14449   -13642   -13106   -12963   -13922   -15133 
  -15507   -15448   -15629   -15656   -14822   -13601   -13022   -12859 
  -13004   -14726   -17575   -18845   -17821   -16528   -16637   -18186 
  -20062   -20796   -19816   -17686   -14712   -11076    -8589    -9183 
  -11874   -14304   -16084   -18082   -20142   -21280   -20857   -19227 
  -17677   -17204   -17815   -19031   -20218   -20869   -20610   -19097 
  -16641   -14273   -12998   -13294   -14543   -15520   -16009   -16302 
  -15647   -13751   -12688   -14665   -19095   -23121   -23951   -21012 
  -16467   -13005   -11500   -11865   -14291   -17640   -19641   -19900 
  -19370   -18059   -16190   -15212   -15691   -16408   -16454   -15935 
  -14578   -12229   -10147    -9899   -11717   -14339   -15822   -15040 
  -12776   -11106   -11580   -13777   -16045   -17567   -18383   -18224 
  -17171   -16268   -16305   -16965   -17201   -16088   -14125   -12752 
  -12142   -11894   -12659   -14556   -16529   -17963   -18785   -18997 
  -18831   -18256   -17012   -15642   -15143   -15404   -15577   -15647 
  -15984   -16396   -16591   -16255   -15141   -14063   -14222   -15350 
  -16116   -15639   -13892   -11915   -11613   -13703   -16576   -18468 
  -18562   -16101   -11892    -9176   -10169   -13680   -17346   -19972 
  -20919   -19489   -16085   -12881   -12265   -14430   -17275   -19177 
