Origin Time       2011/03/11 14:46:00
Lat.              38.103
Long.             142.860
Depth. (km)       24
Mag.              9.0
Station Code      HKD069
Station Lat.      43.3941
Station Long.     145.1168
Station Height(m) 25
Record Time       2011/03/11 14:48:21
Sampling Freq(Hz) 100Hz
Duration Time(s)  300
Dir.              E-W
Scale Factor      3920(gal)/6182761
Max. Acc. (gal)   16.062
Last Correction   2011/03/11 14:48:06
Memo.             
[...]
   -1399    -1178    -1222    -1474    -1662    -1318     -120     1569 
    2812     3003     2569     2405     2659     2726     2311     1800 
    1702     2188     3113     4071     4430     3753     2198      272 
   -1588    -3095    -4010    -4185    -3821    -3461    -3550    -4209 
   -5332    -6507    -6993    -6307    -4817    -3411    -2724    -2863 
   -3444    -3724    -3137    -1863     -771     -622    -1295    -2113 
   -2713    -3166    -3576    -3929    -4237    -4496    -4479    -3961 
   -3010    -1907    -1046     -775    -1112    -1615    -1696    -1229 
    -664     -393     -225      254      826      704     -384    -1779 
   -2597    -2505    -1896    -1562    -1947    -2713    -3284    -3502 
   -3419    -3027    -2346    -1464     -457      623     1647     2275 
    2070      996     -368    -1388    -1793    -1632    -1426    -1805 
   -2601    -3063    -2976    -2788    -2779    -2810    -2717    -2332 
   -1486     -399      436      857     1083     1283     1531     1956 
    2418     2400     1546      104    -1189    -1564     -788      479 
    1201     1011      280     -523    -1040    -1145    -1058    -1134 
   -1456    -1652    -1442    -1084     -841     -579     -230      -10 
     -33     -215     -569    -1199    -2026    -2899    -3928    -5060 
   -5588    -4982    -3723    -2678    -2169    -1885    -1374     -541 
     280      584       87     -984    -2113    -3070    -4087    -5296 
   -6210    -6173    -5092    -3361    -1403      437     1898     2915 
    3527     3758     3849     4227     4766     4753     3865     2281 
      70    -2547    -4808    -6027    -6239    -5845    -5072    -4046 
   -2953    -2065    -1614    -1515    -1575    -1825    -2195    -2296 
   -1922    -1246     -462      305      808      871      594      182 
    -197     -392     -329     -210     -504    -1393    -2445    -3167 
   -3574    -3837    -3790    -3211    -2262    -1293     -368      590 
    1260     1158      424     -328     -937    -1636    -2238    -2463 
   -2566    -2837    -3201    -3583    -4021    -4387    -4401    -4184 
   -4396    -5390    -6542    -6811    -5888    -4415    -3023    -1752 
    -641     -124     -254     -308      161      637      513      -40 
    -365      -26      990     2422     3877     5058     5901     6377 
    6364     5868     5069     4010     2693     1582     1291     1719 
    2212     2401     2315     2091     1825     1383      448     -961 
   -2428    -3655    -4660    -5539    -6246    -6542    -6241    -5414 
   -4372    -3523    -3146    -3158    -3114    -2619    -1698     -653 
     302     1072     1540     1607     1350     1058     1154     1904 
    2932     3469     3319     2927     2724     2989     3637     3967 
    3504     2655     1874     1221      936     1235     1795     2211 
    2327     2045     1383      614      142       89       51     -484 
   -1589    -2811    -3564    -3611    -2986    -1739     -278      391 
    -419    -2026    -2957    -2435     -755     1415     3493     5194 
    6780     8611    10182    10451     9314     7605     5668     3246 
     404    -2480    -5055    -6840    -7405    -6977    -6250    -5588 
   -4966    -4409    -3984    -3711    -3724    -4263    -5408    -6750 
   -7496    -7268    -6372    -5095    -3416    -1387      695     2316 
    2826     1880       -3    -1797    -2945    -3453    -3365    -2691 
   -1622     -429      728     1635     2000     1844     1616     1775 
    2243     2507     2206     1374      509      183      217      -61 
    -690    -1205    -1636    -2419    -3542    -4609    -5379    -5433 
   -4174    -1930       77     1229     1896     2298     2057      985 
    -734    -2968    -5231    -6463    -6047    -4383    -2193       -6 
    1796     3046     3803     4211     4458     4649     4584     3867 
    2448      720    -1072    -2837    -4204    -4856    -5062    -5291 
   -5579    -5757    -5988    -6572    -7570    -8635    -9035    -8365 
   -7048    -5558    -3979    -2654    -2112    -2357    -3146    -4417 
   -5894    -6899    -6861    -5562    -2982      444     3602     5380 
    5429     4286     3050     2438     2079     1248      -62    -1317 
   -2028    -1845     -604     1424     3388     4192     3165      500 
   -2723    -5130    -6072    -5946    -5488    -4831    -3548    -1709 
    -123      722     1208     1828     2462     2710     2413     1755 
    1116      676      385      417     1037     2063     2877     2865 
    1721     -414    -2902    -5059    -6747    -8172    -9156    -8736 
   -6158    -2409      567     1884     1916     1386      845      657 
    1052     1887     2737     3303     3398     2901     1956      793 
    -501    -1723    -2666    -3475    -4034    -3677    -2322     -903 
    -236     -325    -1054    -2345    -3356    -3124    -1966     -751 
     493     2054     3584     4584     4872     4294     3158     2431 
    2582     3157     3697     4264     5153     6500     8032     9120 
    9466     9570     9968    10436    10308     9047     6576     3313 
    -134    -3205    -5383    -6438    -6965    -8016    -9644   -10586 
   -9533    -6307    -2128     1198     2737     2993     3056     3565 
    4357     4730     4237     3165     1939      451    -1577    -3870 
   -5875    -7369    -8146    -7887    -6907    -6175    -6497    -7950 
   -9813   -11116   -11496   -11250   -10654    -9758    -8593    -7001 
   -4705    -1952      368     1545     1730     1549     1349     1094 
     568     -591    -2608    -5055    -7148    -8643    -9741   -10350 
  -10028    -8249    -4798     -758     1843     2858     3937     5337 
    6576     7433     7174     6139     5680     6257     6793     6079 
    4933     3962     2094     -746    -3642    -6079    -7719    -8189 
   -7894    -8069    -8573    -8318    -7712    -7077    -5403    -2437 
    1059     4611     7827     9951    10356     8959     6111     2444 
   -1422    -5076    -8168   -10542   -12165   -12834   -12557   -11805 
  -11129   -10808   -10663   -10498   -10301    -9767    -8303    -5351 
   -1088     2901     4980     5231     4858     4741     5111     5484 
    4869     3335     2606     3870     6268     8192     8847     8154 
    6153     3175      -10    -2795    -5053    -6789    -7921    -8271 
   -7775    -6765    -5575    -4255    -3241    -2959    -2970    -2784 
   -2137     -722     1283     3398     5022     5348     4005     1214 
   -2276    -5289    -7138    -7750    -7156    -5797    -4357    -2990 
   -1642     -635     -111      238      604      972     1112      616 
    -662    -2317    -3409    -3206    -2108     -990       86     1669 
    3959     6537     8534     8796     6498     2092    -2623    -5781 
   -6734    -6122    -4766    -2920    -1092      -83      526     1456 
    2387     2924     2759     1977     1005     -465    -2287    -3701 
   -4512    -4815    -4955    -5276    -6082    -7242    -7876    -7602 
   -6495    -5053    -4473    -4849    -5225    -5455    -5837    -5995 
   -5229    -3662    -2012     -267     1433     1739      626      -90 
      75      380      665     1143     1816     2539     3471     3905 
    2889     1463      740      694     1046     1204     1068     1073 
    1784     3612     5816     7370     7967     7476     6270     5109 
    3942     2288      317    -1331    -2224    -2585    -3084    -4116 
   -5804    -8290   -10993   -12429   -11854   -10047    -8108    -6680 
   -5932    -5413    -4493    -3134    -1560      197     1659     1970 
     947     -870    -2993    -5379    -8189   -11304   -14109   -15809 
  -16314   -16241   -15872   -15204   -14168   -12204    -8966    -5166 
   -1913      274     1594     2317     2352     1627      554     -343 
   -1218    -2532    -3694    -3411    -1536      901     2980     4063 
    3870     2859     1523     -186    -2184    -3973    -5202    -5575 
   -4469    -1464     3102     8245    12389    13877    12285     8702 
    4567      877    -1713    -2822    -2654    -1950    -1338    -1031 
   -1154    -1783    -2609    -3243    -3866    -4726    -5288    -4873 
   -3549    -1834     -411      -66    -1158    -3324    -5760    -7726 
   -9069   -10284   -11855   -13715   -15665   -17760   -19991   -21877 
  -22273   -19873   -14234    -6346     1327     6190     7647     7173 
    6710     7340     8683     9703    10145    10601    11782    13973 
   15992    15818    13651    11612    10460     9159     6693     3271 
    -163    -2135    -1440      318      624     -965    -4240    -8400 
  -12015   -14741   -16510   -16785   -15612   -13939   -12828   -12426 
  -11833   -10135    -7357    -4415    -2344    -1599    -1612    -1497 
   -1380    -1898    -2841    -3499    -3638    -3418    -2800    -1399 
    1107     4465     7618     9033     7723     4063     -564    -4594 
   -7027    -7897    -7747    -6936    -5733    -4318    -2598     -473 
    1761     3434     4388     5365     6678     7567     7413     6290 
    4432     2166     -126    -2349    -4323    -5502    -5572    -4520 
   -2526     -346     1195     1990     2231     1756      572     -615 
   -1538    -2719    -4013    -4987    -5695    -6044    -5664    -3849 
    -406     3664     6911     7783     5795     1984    -2378    -6401 
  -10010   -13302   -15519   -16103   -15485   -14184   -12145    -9217 
   -5721    -2406      -48     1013      744     -751    -2854    -4597 
   -5286    -4747    -3127     -582     2298     4340     4952     4611 
    4089     3740     3278     2196      301    -2225    -4788    -6464 
   -6586    -5263    -3352    -2119    -2500    -4449    -7146    -9016 
   -8530    -6091    -2710     1766     6816    10943    13311    13865 
   12932    11032     8689     6743     6341     6982     6458     3968 
     496    -2727    -4987    -6668    -8240    -9432   -10104   -10550 
  -11101   -12274   -14237   -15771   -15503   -13348    -9962    -6385 
   -3547    -1334      945     3494     5963     7915     8996     9070 
    8560     8277     8599     9264     9721     9248     7572     5429 
    3837     3240     3162     2715     1517     -384    -2010    -1652 
    1122     5089     7886     7769     5398     2466      498     -310 
   -1062    -1714    -1795    -1500     -914     -597    -1273    -3074 
   -5669    -8204   -10280   -12422   -14639   -15961   -15670   -13901 
  -11381    -9381    -8857    -9498   -10542   -11352   -11199    -9856 
   -7961    -6574    -6185    -5950    -4682    -2116     1124     4071 
    6138     7329     7765     7716     7477     6708     5082     3374 
    2622     2710     2796     2422     1627      679     -128     -855 
   -1913    -3200    -3720    -2707     -421     2339     4617     5503 
    4613     2317     -492    -2947    -4624    -5583    -6096    -6129 
   -5349    -3837    -2404    -2120    -3477    -5787    -7559    -7908 
   -7520    -7606    -8267    -8492    -7056    -3225     2539     8457 
   12634    14541    15042    14901    13940    11803     8686     5270 
    2206     -672    -4119    -8174   -11993   -14711   -15752   -15087 
  -13433   -11525    -9412    -6656    -3024      824     3835     5605 
    6144     5630     4867     4865     6167     8496    10737    11734 
   11031     8930     6124     3327     1334      632      912     1668 
    2392     2163      505    -1856    -3808    -4660    -4280    -2950 
   -1086      666     1638     1723     1055     -184    -1403    -1936 
   -1604     -913     -620     -866    -1075     -651      365     1376 
    2085     2696     3103     2896     2235     1687     1253      455 
    -850    -2700    -5331    -8091    -9445    -8767    -6911    -5152 
   -4113    -3684    -3872    -4723    -5682    -6107    -5698    -4199 
   -1474     2117     5509     7660     8743     9809    11357    12654 
   12351     9823     5615      731    -3799    -6895    -8049    -8052 
   -7869    -7588    -7026    -5962    -4864    -4979    -6342    -7559 
   -7316    -5566    -3657    -2418    -1259      526     2670     4057 
    4017     3013     1988     1733     2658     4335     5283     4211 
    1262    -2309    -4872    -5080    -2915      138     2486     3471 
    3263     2443     1275     -262    -1675    -2348    -2215    -1770 
   -1732    -2195    -2543    -2198     -919      905     2437     3346 
    3591     2686      635    -1419    -2682    -3200    -2512      144 
    4416     8687    11314    11905    11209    10450    10535    11398 
   12664    13847    13910    12110     9238     6965     5405     3252 
     -49    -4172    -8326   -11620   -13690   -14762   -15730   -17088 
  -17678   -16584   -14847   -13628   -12862   -12292   -11755   -10726 
   -8949    -6829    -4892    -3513    -2874    -2460    -1468     -243 
     743     1939     2635     1824      524     -178      -67     1432 
    4461     7804    10366    12111    12408    10821     8213     4665 
     540    -2568    -3743    -2591     -101     1344     1205      633 
     417     1065     2605     4463     6326     7919     8535     7809 
    6245     4468     2670     1094      -86    -1256    -2747    -4374 
   -5749    -6598    -6852    -6673    -6072    -4877    -3742    -3472 
   -3466    -2615     -571     1714     2485     1530      433      297 
    1043     2147     3145     3568     2918     1376     -228    -1672 
   -3460    -5711    -7990    -9943   -11391   -12151   -12123   -11395 
   -9954    -7127    -2199     4156    10368    15592    19806    22897 
   24237    23642    21999    19621    15778    10876     6139     1476 
   -3014    -6187    -8364   -10398   -11037    -8955    -5428    -2294 
     196     1711     1991     1948     1387     -629    -3316    -5519 
   -7083    -8108    -8482    -7877    -6372    -4747    -3713    -3386 
   -3159    -1982      331     2429     2823     1877     1201     1008 
     715      967     2034     2893     3262     3776     4424     5060 
    5882     6111     5138     3909     3289     3642     4623     4788 
    3646     2203     1267      897      646      265      505     2212 
    5112     8219    10395    10831     9430     6392     2149    -2513 
   -6463    -8706    -9634   -10629   -12510   -15174   -17834   -19736 
  -20520   -19674   -16896   -12681    -7801    -2975      913     3225 
    4334     5523     7712    10204    11132     9381     5652     1905 
      -5      192     1299     2131     2129     1306       26    -1534 
   -3575    -6262    -9100   -11193   -12112   -11879   -10826    -9650 
   -8795    -8053    -6756    -4290    -1061     1380     1964     1943 
    3540     6602     9415    11321    12119    11770    10951    10052 
    8597     6411     4164     1973     -524    -2911    -4636    -5677 
   -6522    -7550    -8481    -9217    -9657    -9145    -7583    -5692 
   -4091    -3071    -2519    -1902    -1031     -306      -14      217 
    1119     2723     4308     5393     5772     5458     5111     5206 
    5205     4752     4595     5332     6479     7251     7327     6879 
    6577     7165     8370     8897     7896     5687     3090      532 
   -1940    -4308    -6885    -9908   -12788   -14823   -16066   -16769 
  -16647   -15838   -15439   -15707   -15797   -15208   -13819   -11726 
   -9082    -5976    -2749      319     2995     4765     5313     4908 
    4352     4343     4819     5397     6021     6904     7931     8399 
    7917     6918     5917     5052     4110     2473     -394    -4233 
   -8119   -11099   -12525   -12242   -10936    -9936   -10000   -10573 
  -10744   -10484   -10395   -10671   -10954   -10914   -10380    -9280 
   -7959    -6749    -5088    -2493      445     3232     5985     8625 
   10806    12305    12939    12482    11522    11331    11953    12131 
   10988     8273     3886    -1720    -7045   -10351   -11153   -10147 
   -8034    -5560    -3955    -3797    -4258    -4337    -3912    -3396 
   -3263    -4205    -6564    -9510   -12093   -13920   -14089   -11883 
   -8701    -6886    -6899    -7513    -7903    -8039    -7992    -7772 
   -7334    -6427    -5041    -3811    -2952    -1856     -290     1511 
    3494     5527     7241     8680    10169    11241    11216    10355 
    8914     6518     3176     -491    -3872    -6568    -8286    -8731 
   -7505    -4590    -1031     1807     3347     3751     3633     3377 
    2426      420    -1705    -3040    -3709    -4043    -4118    -3961 
   -3566    -2591     -557     2079     4188     5053     4316     2181 
    -430    -2864    -4970    -6522    -7234    -7123    -6723    -6565 
   -6490    -6097    -5266    -4071    -2823    -2033    -2088    -2462 
   -1867     -350      701      937      686     -172    -1430    -2614 
   -3678    -4780    -5705    -6029    -6042    -6415    -7225    -8137 
   -9020   -10133   -11402   -12155   -12076   -11240    -9930    -8847 
   -8294    -8036    -8079    -8383    -8472    -7842    -6299    -4085 
   -1927     -718     -936    -2409    -4503    -6339    -7081    -6175 
   -3598     -153     2758     4028     3647     2490     1053     -720 
   -2183    -2422    -1801    -1297    -1190    -1295    -1419    -1200 
    -254     1211     2627     3689     4056     3443     2178      747 
    -606    -1816    -2876    -3314    -2462     -323     2453     4827 
    5801     5020     2842      191    -1942    -3154    -3685    -4195 
   -5331    -7231    -9629   -12142   -14253   -15362   -14901   -12299 
   -7500    -1702     3117     5588     5759     4989     4882     5904 
    7257     7935     7528     6421     5278     3836     1415    -1184 
   -2774    -3542    -3811    -3331    -2349    -1773    -1787    -2031 
   -2807    -3526    -3109    -2367    -2366    -3048    -3886    -4106 
   -3618    -2913    -2238    -1893    -2188    -3162    -4527    -5608 
   -5894    -5445    -4317    -2259      667     3764     6035     6823 
    6235     4917     3706     3078     2675     1860      388    -1678 
   -4069    -6142    -7124    -6891    -6091    -5289    -4500    -3626 
   -2911    -2755    -3156    -3609    -3579    -2994    -2152    -1267 
    -373      454     1024     1246     1179      736      -35     -409 
     448     2516     4868     6434     6724     5902     4486     2964 
    1346     -726    -3444    -6573    -9468   -11350   -11714   -10326 
   -7186    -2922     1230     4143     5380     5262     4594     4035 
    3558     2818     1883     1171      928      925      644      103 
     -45      501     1403     2240     2528     1682     -182    -1765 
   -1722      -77     1920     2995     2781     2008     1876     2977 
    4672     5681     5401     4309     3099     1972      883      -99 
    -831    -1157    -1008     -591     -285     -508    -1635    -3587 
   -5617    -6927    -7361    -7317    -7331    -7703    -8038    -7727 
   -6780    -5694    -4785    -3470     -861     2984     7117    10238 
   11557    11583    11436    11496    10987     9022     6131     4340 
    4644     5408     4887     2905     -133    -3406    -5975    -7424 
   -7767    -7238    -6405    -6262    -6733    -6702    -6229    -5675 
   -4801    -3599    -1939      -69     1452     2692     3508     3418 
    2230      -28    -2883    -5475    -6913    -6709    -5328    -3446 
   -1033     1727     3751     4113     2820      636    -1376    -2559 
   -3107    -3640    -4492    -5778    -7614    -9750   -11770   -13372 
