Origin Time       2011/03/11 14:46:00
Lat.              38.103
Long.             142.860
Depth. (km)       24
Mag.              9.0
Station Code      HKD029
Station Lat.      44.3114
Station Long.     142.6421
Station Height(m) 158
Record Time       2011/03/11 14:49:31
Sampling Freq(Hz) 100Hz
Duration Time(s)  158
Dir.              N-S
Scale Factor      3920(gal)/6182761
Max. Acc. (gal)   2.959
Last Correction   2011/03/11 14:49:16
Memo.             
[...]
   23485    23507    23532    23569    23643    23737    23822    23910 
   24029    24164    24299    24442    24598    24750    24886    25000 
   25091    25165    25220    25262    25306    25364    25439    25531 
   25649    25795    25953    26112    26270    26436    26616    26805 
   26992    27161    27294    27396    27483    27545    27573    27587 
   27603    27622    27637    27646    27651    27651    27646    27641 
   27650    27692    27751    27806    27854    27893    27911    27907 
   27898    27897    27899    27911    27944    27999    28058    28102 
   28118    28097    28030    27921    27791    27655    27509    27358 
   27219    27093    26978    26888    26812    26737    26679    26646 
   26626    26611    26580    26505    26387    26252    26120    26007 
   25936    25921    25941    25965    25976    25971    25962    25954 
   25948    25943    25932    25910    25892    25892    25900    25908 
   25927    25972    26038    26110    26174    26224    26249    26244 
   26213    26169    26125    26094    26081    26084    26095    26095 
   26070    26028    25973    25915    25871    25858    25877    25900 
   25903    25895    25875    25831    25756    25654    25537    25410 
   25273    25140    25035    24967    24929    24914    24905    24877 
   24823    24753    24670    24569    24447    24323    24220    24156 
   24139    24164    24213    24261    24295    24320    24337    24341 
   24343    24346    24354    24380    24429    24506    24609    24717 
   24805    24853    24861    24846    24834    24843    24876    24905 
   24917    24919    24913    24889    24845    24795    24753    24737 
   24753    24792    24850    24911    24961    24998    25030    25069 
   25109    25129    25143    25164    25196    25251    25324    25401 
   25489    25586    25671    25739    25794    25833    25859    25894 
   25941    26000    26089    26189    26274    26358    26447    26539 
   26628    26704    26773    26847    26921    26986    27048    27120 
   27193    27254    27313    27366    27408    27458    27517    27564 
   27589    27591    27556    27484    27399    27317    27239    27177 
   27131    27101    27089    27075    27038    26984    26919    26838 
   26741    26640    26553    26489    26430    26362    26288    26214 
   26143    26063    25969    25872    25796    25754    25742    25751 
   25768    25764    25732    25673    25572    25443    25312    25188 
   25096    25056    25057    25088    25139    25197    25264    25346 
   25432    25499    25553    25618    25688    25745    25794    25839 
   25871    25895    25926    25980    26065    26174    26295    26428 
   26578    26744    26912    27063    27187    27280    27342    27373 
   27390    27418    27465    27520    27569    27602    27618    27631 
   27642    27649    27673    27724    27786    27853    27925    28001 
   28071    28114    28123    28110    28096    28091    28086    28083 
   28078    28060    28036    28027    28036    28055    28079    28104 
   28119    28114    28088    28035    27951    27853    27781    27743 
   27721    27718    27743    27774    27806    27846    27871    27871 
   27862    27851    27845    27857    27884    27921    27980    28071 
   28173    28247    28267    28237    28175    28113    28064    28021 
   27987    27973    27993    28049    28124    28189    28211    28176 
   28101    28010    27924    27864    27836    27825    27822    27833 
   27840    27823    27780    27707    27608    27501    27411    27344 
   27298    27272    27248    27204    27127    27016    26885    26737 
   26561    26376    26205    26055    25938    25852    25788    25748 
   25723    25701    25688    25684    25674    25658    25642    25636 
   25642    25659    25690    25739    25803    25856    25873    25864 
   25844    25800    25735    25672    25634    25628    25648    25689 
   25731    25753    25752    25734    25699    25655    25612    25576 
   25544    25509    25475    25443    25410    25368    25303    25217 
   25120    25011    24890    24775    24685    24624    24585    24554 
   24521    24481    24417    24330    24237    24165    24121    24089 
   24065    24060    24079    24114    24170    24249    24347    24444 
   24527    24606    24686    24762    24837    24915    24997    25093 
   25208    25328    25441    25547    25649    25743    25829    25915 
   26015    26131    26258    26382    26503    26624    26729    26804 
   26850    26866    26846    26792    26732    26699    26700    26740 
   26808    26870    26911    26928    26912    26867    26791    26677 
   26546    26421    26312    26242    26226    26238    26251    26247 
   26194    26085    25939    25780    25637    25545    25511    25519 
   25542    25562    25582    25595    25589    25562    25508    25418 
   25294    25161    25053    24992    24990    25047    25142    25257 
   25375    25471    25547    25619    25687    25760    25853    25955 
   26056    26155    26254    26353    26446    26524    26593    26650 
   26700    26751    26790    26802    26794    26772    26746    26733 
   26751    26806    26883    26976    27084    27185    27265    27322 
   27345    27348    27367    27416    27491    27597    27718    27822 
   27892    27941    27959    27925    27842    27740    27650    27579 
   27519    27453    27362    27233    27064    26861    26631    26394 
   26159    25914    25667    25448    25271    25133    25035    24967 
   24912    24841    24729    24566    24353    24113    23875    23663 
   23496    23388    23338    23332    23347    23358    23348    23300 
   23210    23095    22988    22917    22885    22882    22901    22928 
   22933    22899    22832    22743    22642    22534    22429    22362 
   22343    22351    22377    22421    22461    22483    22492    22494 
   22497    22500    22492    22473    22462    22486    22557    22666 
   22785    22890    22992    23107    23225    23335    23446    23562 
   23674    23782    23908    24048    24176    24292    24421    24582 
   24775    24984    25185    25369    25548    25736    25949    26186 
   26425    26669    26920    27154    27377    27597    27784    27940 
   28087    28219    28338    28438    28517    28605    28704    28820 
   28983    29183    29386    29576    29736    29859    29954    30008 
   30039    30076    30120    30178    30261    30341    30390    30403 
   30374    30300    30184    30032    29873    29734    29616    29524 
   29468    29447    29455    29471    29468    29440    29393    29331 
   29262    29213    29199    29218    29270    29349    29436    29514 
   29568    29594    29603    29610    29632    29671    29713    29756 
   29795    29820    29825    29794    29718    29623    29551    29502 
   29449    29386    29316    29227    29116    28994    28873    28764 
   28675    28609    28562    28527    28492    28447    28377    28273 
   28137    27979    27824    27693    27596    27543    27538    27563 
   27600    27636    27656    27645    27595    27520    27444    27380 
   27336    27322    27331    27335    27315    27275    27226    27175 
   27137    27131    27161    27222    27304    27379    27435    27466 
   27458    27411    27340    27270    27218    27182    27166    27185 
   27230    27279    27308    27303    27286    27276    27266    27259 
   27266    27277    27259    27186    27077    26960    26823    26669 
   26556    26504    26490    26509    26539    26532    26471    26379 
   26262    26137    26045    26001    25994    26024    26090    26170 
   26233    26265    26255    26190    26083    25964    25852    25756 
   25699    25694    25729    25783    25821    25797    25694    25533 
   25337    25131    24965    24872    24834    24820    24815    24810 
   24784    24728    24648    24560    24489    24444    24434    24475 
   24563    24664    24756    24839    24918    24984    25027    25054 
   25077    25089    25092    25102    25111    25118    25143    25180 
   25213    25248    25279    25282    25258    25238    25243    25277 
   25342    25437    25551    25658    25730    25770    25790    25791 
   25766    25727    25692    25660    25628    25615    25632    25653 
   25641    25602    25552    25497    25439    25381    25327    25284 
   25257    25256    25283    25327    25374    25415    25453    25501 
   25570    25665    25781    25900    25997    26060    26095    26107 
   26093    26074    26082    26118    26168    26240    26341    26447 
   26532    26588    26609    26593    26552    26492    26425    26373 
   26343    26342    26380    26455    26549    26624    26673    26707 
   26709    26684    26663    26661    26680    26730    26805    26886 
   26951    26997    27027    27050    27078    27125    27201    27304 
   27419    27527    27612    27669    27702    27707    27702    27720 
   27774    27862    27992    28157    28323    28462    28564    28621 
   28627    28589    28515    28428    28351    28290    28245    28215 
   28195    28169    28127    28070    28011    27945    27867    27792 
   27730    27675    27629    27599    27569    27534    27510    27507 
   27513    27521    27542    27582    27640    27698    27746    27794 
   27853    27908    27945    27979    28032    28102    28187    28274 
   28343    28383    28396    28384    28369    28383    28422    28469 
   28523    28591    28663    28717    28742    28741    28722    28698 
   28681    28679    28696    28724    28726    28684    28619    28546 
   28469    28392    28305    28203    28098    28003    27929    27885 
   27860    27834    27801    27763    27721    27679    27627    27556 
   27474    27392    27323    27276    27240    27213    27190    27148 
   27076    26979    26863    26734    26609    26498    26405    26333 
   26283    26250    26222    26194    26165    26130    26084    26044 
   26013    25979    25944    25908    25869    25832    25808    25797 
   25783    25766    25756    25750    25745    25741    25729    25711 
   25685    25640    25562    25457    25356    25263    25173    25096 
   25030    24961    24881    24794    24720    24669    24623    24572 
   24532    24508    24490    24487    24501    24529    24561    24579 
   24592    24620    24644    24638    24600    24528    24434    24345 
   24276    24217    24165    24110    24045    23988    23956    23930 
   23879    23800    23710    23621    23544    23499    23483    23470 
   23449    23426    23391    23334    23266    23197    23117    23018 
   22924    22856    22820    22814    22837    22895    22980    23066 
   23143    23214    23286    23363    23420    23459    23504    23561 
   23625    23694    23772    23865    23971    24077    24165    24218 
   24244    24257    24268    24283    24316    24373    24450    24535 
   24613    24687    24753    24787    24782    24761    24736    24704 
   24676    24671    24701    24765    24834    24889    24940    24985 
   25010    25025    25049    25092    25160    25274    25439    25634 
   25826    26002    26158    26294    26424    26557    26685    26787 
   26864    26929    26986    27040    27111    27197    27284    27371 
   27447    27499    27537    27567    27576    27565    27552    27556 
   27585    27640    27699    27723    27707    27662    27583    27486 
   27407    27351    27309    27288    27293    27314    27324    27311 
   27290    27276    27277    27287    27299    27304    27315    27351 
   27403    27455    27507    27552    27572    27584    27622    27689 
   27779    27887    28004    28138    28287    28418    28500    28529 
   28514    28464    28393    28329    28296    28283    28279    28276 
   28253    28195    28086    27912    27684    27419    27148    26900 
   26691    26547    26475    26446    26430    26412    26369    26281 
   26161    26037    25920    25820    25760    25758    25819    25933 
   26078    26218    26319    26366    26368    26345    26312    26283 
   26259    26257    26300    26383    26494    26623    26738    26814 
   26859    26879    26863    26819    26751    26668    26604    26570 
   26543    26517    26497    26476    26452    26429    26396    26340 
   26264    26175    26079    25984    25898    25819    25740    25643 
   25531    25417    25308    25209    25127    25064    25015    24977 
   24946    24922    24905    24896    24897    24903    24914    24939 
   24982    25038    25092    25148    25220    25301    25379    25457 
   25537    25589    25599    25584    25564    25540    25507    25475 
   25450    25446    25475    25530    25591    25651    25704    25738 
   25762    25779    25787    25783    25760    25712    25645    25565 
   25485    25418    25367    25338    25331    25322    25294    25252 
   25204    25146    25082    25020    24966    24929    24908    24892 
   24873    24862    24863    24858    24855    24870    24905    24959 
   25029    25112    25205    25306    25427    25582    25766    25960 
   26149    26322    26481    26632    26782    26935    27096    27274 
   27481    27711    27944    28165    28366    28547    28704    28828 
   28925    29007    29082    29166    29274    29406    29551    29702 
   29850    29979    30057    30071    30031    29958    29879    29828 
   29828    29893    30013    30161    30307    30428    30510    30547 
   30541    30508    30471    30451    30474    30545    30649    30760 
   30846    30899    30933    30947    30931    30897    30858    30820 
   30782    30748    30730    30711    30679    30647    30612    30562 
   30496    30404    30276    30124    29967    29819    29702    29634 
   29602    29582    29555    29508    29435    29338    29221    29089 
   28964    28873    28820    28809    28841    28896    28952    28992 
   28995    28948    28868    28764    28634    28491    28357    28232 
   28114    28002    27884    27741    27564    27371    27175    26971 
   26758    26555    26381    26237    26117    26025    25949    25873 
   25792    25689    25559    25429    25312    25194    25082    25008 
   24977    24959    24932    24888    24819    24736    24640    24524 
   24400    24283    24169    24064    23983    23934    23915    23922 
   23961    24017    24062    24093    24102    24089    24083    24087 
   24098    24140    24217    24314    24433    24563    24681    24772 
   24830    24877    24941    25034    25158    25301    25446    25577 
   25676    25736    25771    25785    25781    25769    25766    25781 
   25795    25786    25766    25756    25757    25774    25813    25858 
   25884    25875    25841    25802    25766    25737    25731    25756 
   25799    25844    25885    25910    25922    25932    25947    25966 
   25991    26023    26062    26109    26167    26238    26317    26405 
   26505    26609    26700    26770    26828    26887    26953    27032 
   27132    27253    27384    27504    27614    27731    27849    27956 
   28052    28131    28192    28240    28280    28307    28320    28327 
   28333    28338    28341    28339    28330    28304    28258    28196 
   28105    27973    27804    27610    27405    27203    27015    26839 
   26660    26483    26309    26119    25917    25721    25534    25350 
   25183    25036    24887    24741    24623    24534    24476    24445 
   24406    24338    24257    24183    24126    24100    24117    24171 
   24252    24356    24460    24537    24594    24639    24666    24696 
   24766    24878    25025    25205    25403    25596    25773    25919 
   26023    26097    26163    26236    26309    26388    26505    26668 
   26856    27045    27223    27380    27501    27579    27608    27589 
   27545    27497    27445    27405    27393    27408    27448    27510 
   27585    27653    27698    27712    27691    27649    27621    27612 
   27615    27641    27702    27789    27868    27900    27863    27753 
   27592    27403    27201    27015    26873    26768    26694    26648 
   26605    26534    26419    26274    26121    25971    25835    25739 
   25700    25714    25779    25888    26021    26156    26268    26336 
   26369    26384    26402    26451    26535    26635    26736    26847 
   26961    27055    27121    27154    27156    27145    27129    27111 
   27106    27113    27125    27139    27160    27193    27229    27248 
   27249    27239    27208    27151    27089    27043    27019    27025 
   27074    27145    27210    27254    27267    27250    27217    27173 
   27117    27049    26978    26914    26876    26884    26937    27023 
   27120    27195    27224    27213    27177    27113    27015    26904 
   26801    26724    26691    26701    26730    26757    26777    26784 
   26784    26781    26756    26704    26638    26554    26467    26407 
   26381    26374    26355    26307    26252    26195    26112    26020 
   25940    25855    25746    25630    25528    25429    25322    25229 
   25177    25171    25197    25226    25231    25202    25130    25011 
   24867    24730    24618    24546    24525    24545    24577    24601 
   24603    24566    24507    24461    24436    24438    24472    24528 
   24606    24705    24804    24880    24920    24929    24922    24905 
   24896    24914    24955    25018    25101    25198    25316    25450 
   25577    25695    25812    25923    26011    26071    26108    26122 
   26112    26082    26041    26019    26033    26070    26109    26123 
   26118    26121    26130    26154    26199    26251    26304    26356 
   26402    26445    26480    26497    26491    26460    26415    26371 
   26325    26274    26237    26227    26240    26273    26318    26360 
   26397    26420    26407    26360    26304    26241    26176    26140 
   26148    26185    26244    26321    26401    26465    26500    26503 
   26469    26398    26309    26232    26185    26177    26206    26259 
   26308    26334    26344    26342    26333    26327    26348    26424 
   26552    26710    26882    27040    27167    27263    27327    27378 
   27441    27507    27564    27621    27682    27754    27842    27932 
   28019    28111    28193    28253    28310    28363    28401    28439 
   28473    28504    28539    28559    28539    28478    28377    28250 
   28122    28003    27894    27796    27708    27619    27524    27434 
   27364    27310    27257    27201    27157    27127    27110    27093 
   27060    27022    26986    26955    26938    26940    26956    26976 
   26993    27004    27006    26985    26943    26899    26869    26854 
   26849    26849    26852    26854    26837    26782    26702    26607 
   26481    26338    26208    26104    26034    25997    25979    25963 
   25927    25881    25849    25833    25830    25840    25850    25848 
   25821    25766    25693    25625    25580    25556    25565    25640 
   25780    25934    26073    26202    26328    26442    26535    26622 
   26720    26827    26940    27055    27171    27289    27404    27509 
   27607    27691    27751    27787    27814    27850    27909    27990 
   28066    28104    28121    28142    28150    28137    28121    28116 
   28122    28139    28174    28230    28302    28369    28414    28433 
   28417    28376    28327    28273    28225    28202    28208    28243 
   28304    28374    28437    28483    28513    28524    28519    28497 
