Origin Time       2011/03/11 14:46:00
Lat.              38.103
Long.             142.860
Depth. (km)       24
Mag.              9.0
Station Code      HKD094
Station Lat.      43.1692
Station Long.     143.2410
Station Height(m) 204
Record Time       2011/03/11 14:48:12
Sampling Freq(Hz) 100Hz
Duration Time(s)  300
Dir.              N-S
Scale Factor      3920(gal)/6182761
Max. Acc. (gal)   19.499
Last Correction   2011/03/11 14:47:57
Memo.             
[...]
   -3588    -3206    -2866    -2624    -2594    -2899    -3365    -3437 
   -2776    -1906    -1464    -1465    -1898    -2624    -2849    -2210 
   -1341     -879    -1234    -2586    -4691    -7232    -9744   -11642 
  -12862   -13672   -14227   -14784   -15457   -16159   -17239   -19004 
  -21000   -22605   -23540   -23928   -24192   -24485   -24573   -24088 
  -22821   -21358   -20644   -20912   -21890   -22900   -22920   -21783 
  -20146   -18594   -17759   -17797   -18057   -18124   -17908   -17434 
  -17177   -17259   -17197   -16946   -16589   -15835   -14568   -12780 
  -10663    -9012    -8341    -8226    -8013    -7323    -6101    -4650 
   -3365    -2268    -1104       55      952     1592     2020     2084 
    1699     1011      129     -645     -690       -4      737      944 
     294     -928    -2035    -2883    -3761    -4894    -6428    -8100 
   -9451   -10576   -11731   -12769   -13644   -14729   -16066   -16979 
  -17155   -17003   -16559   -15588   -14464   -13720   -13512   -13766 
  -14063   -13824   -12968   -11964   -11272   -10971   -10884   -10590 
   -9595    -8134    -6935    -6162    -5555    -4956    -4306    -3556 
   -2733    -2077    -1556     -635      668     1556     1650     1128 
     202     -716    -1305    -1534    -1315    -1007    -1400    -2547 
   -3819    -4702    -4708    -3581    -2092    -1431    -1743    -2299 
   -2760    -3095    -2952    -2255    -1459     -824     -255      318 
     619      310     -226     -264      329     1239     2112     2584 
    2529     2160     1632      985      311     -233     -477     -546 
    -750    -1261    -2089    -2868    -3103    -2647    -1579     -469 
    -148     -636    -1354    -1887    -1882    -1066      394     1832 
    2373     1636      236     -866    -1122     -538      210      325 
    -146     -511     -552     -557     -271      684     2137     4039 
    6135     7411     7457     6935     6120     4932     3790     2871 
    1907      963      159     -632    -1374    -1959    -2482    -2971 
   -3224    -3036    -2420    -1578     -541      767     2118     3217 
    3813     3706     3292     3177     3466     4035     4543     4678 
    4678     4713     4544     4284     4383     4999     6159     7734 
    9036     9464     9350     9355     9602     9939    10288    10571 
   10794    10989    11011    10557     9333     7599     6248     5466 
    4383     2585      579     -984    -1918    -2701    -3793    -5213 
   -6935    -8793   -10255   -11061   -11636   -12177   -12236   -11630 
  -10807   -10329   -10286   -10228    -9700    -8668    -7674    -7391 
   -7821    -8398    -8732    -8715    -8204    -7251    -6401    -6425 
   -7789   -10120   -12445   -13823   -13710   -12605   -11788   -11841 
  -12371   -12794   -12717   -12241   -11909   -12099   -12665   -13148 
  -13319   -13216   -12750   -12072   -11803   -12066   -12256   -12222 
  -12134   -11556   -10269    -8903    -7946    -7431    -7508    -8275 
   -9344   -10263   -11002   -11543   -11670   -11425   -11001   -10375 
   -9682    -9216    -8789    -8056    -7226    -6615    -6247    -6206 
   -6424    -6504    -6300    -6082    -6160    -6626    -7363    -8217 
   -8994    -9367    -9071    -7900    -5883    -3840    -2868    -3233 
   -4366    -5317    -5329    -4633    -3999    -3637    -3296    -2897 
   -2693    -3001    -3874    -5201    -6720    -7858    -8387    -8796 
   -9202    -8987    -7852    -6079    -4086    -2426    -1656    -1775 
   -2063    -1977    -1745    -1435     -566      787     2029     3163 
    4226     4686     4706     5143     6124     7252     8234     8595 
    8078     7385     7364     7964     8961    10282    11231    11335 
   11210    11247    11219    11220    11202    10707     9813     8814 
    7685     6682     6191     6266     6749     7279     7762     8463 
    9235     9936    10925    12193    13397    14587    15650    16069 
   15715    14788    13512    12330    11554    11026    10397     9522 
    8646     8107     7946     8107     8540     9150     9961    10768 
   10879     9929     8530     7626     7585     8288     9262     9438 
    8252     6583     5437     4875     4594     4315     3564     1919 
    -297    -2202    -3279    -3402    -2823    -2406    -2628    -3069 
   -3386    -3469    -2966    -1832     -670      153      718      804 
     359      -81     -345     -581     -713     -928    -1362    -1750 
   -2215    -2813    -3120    -3544    -4733    -6087    -6965    -7535 
   -7791    -7642    -7406    -7368    -7722    -8717   -10368   -12346 
  -14075   -14916   -14819   -14414   -14096   -14066   -14624   -15574 
  -16461   -17234   -17962   -18489   -18536   -18127   -17746   -17751 
  -18024   -18348   -18499   -18224   -17553   -16791   -16177   -15704 
  -15282   -15053   -15063   -15035   -15014   -15229   -15299   -14759 
  -13839   -12972   -12244   -11584   -11002   -10450    -9762    -9044 
   -8477    -7738    -6576    -5167    -3732    -2768    -2724    -3274 
   -3843    -4406    -5260    -6377    -7508    -8748   -10251   -11650 
  -12735   -13868   -14937   -15458   -15889   -16896   -17958   -18440 
  -18514   -18145   -17237   -16531   -16594   -16879   -16725   -16010 
  -14727   -13300   -12641   -12932   -13363   -13356   -13087   -12695 
  -11887   -10552    -8933    -7324    -6134    -5604    -5495    -5508 
   -5495    -5169    -4310    -3074    -1667     -274      580      594 
     420      971     2301     3541     3744     2856     1875     1772 
    2659     4092     5131     4732     2952      914     -418     -763 
    -108     1530     3784     5815     6822     6662     5880     5156 
    4837     4884     5106     5222     5052     4587     3557     1798 
    -228    -2090    -3554    -4316    -4582    -4749    -4493    -3500 
   -2000     -287     1031     1557     1959     2843     4079     5600 
    7369     8888     9596     9556     9259     8787     7951     7092 
    6677     6473     6078     5605     5313     5235     5267     5282 
    5344     5713     6369     6887     6930     6670     6447     6094 
    5467     4952     4525     3662     2384      884     -936    -2708 
   -3933    -4868    -5695    -5970    -5553    -4804    -4133    -3930 
   -4297    -4838    -5030    -4586    -3684    -3080    -3355    -4348 
   -5751    -7112    -7908    -8436    -9247   -10224   -11075   -11649 
  -11913   -11866   -11252    -9955    -8217    -6505    -5456    -5268 
   -5633    -6109    -6007    -5008    -3557    -2284    -1932    -2984 
   -4631    -5543    -5626    -5581    -5737    -6230    -7214    -8422 
   -9183    -9238    -8746    -7802    -6883    -6718    -7151    -7222 
   -6388    -4856    -3214    -2246    -2484    -3634    -5004    -6505 
   -8036    -8723    -8327    -7616    -7200    -7657    -9327   -11240 
  -12086   -11930   -11567   -11361   -11695   -13028   -14949   -16495 
  -17443   -18216   -18916   -19527   -20286   -21049   -21382   -21387 
  -21511   -21916   -22572   -23291   -23553   -23133   -22394   -21408 
  -19985   -18305   -16689   -15491   -14992   -14985   -14857   -13950 
  -12199   -10524    -9723    -9560    -9501    -9222    -8487    -7335 
   -6091    -5035    -4332    -4090    -4243    -4636    -5209    -5875 
   -6464    -6876    -7254    -7810    -8383    -8682    -8856    -9026 
   -8762    -7924    -6936    -5976    -5102    -4471    -3922    -3315 
   -2841    -2469    -1990    -1553    -1351    -1419    -1897    -2723 
   -3609    -4339    -4582    -4202    -3678    -3369    -3183    -3293 
   -3808    -4196    -4074    -3524    -2688    -1877    -1432    -1462 
   -2061    -3164    -4393    -5465    -6272    -6863    -7500    -8280 
   -8964    -9314    -9366    -9251    -8858    -8117    -7247    -6338 
   -5193    -3580    -1549      410     1777     2233     1666      649 
      75      129      647     1754     3403     4970     5738     5778 
    5875     6554     7862     9590    11101    11615    11014     9978 
    9216     9148     9959    11188    12234    13094    13687    13758 
   13559    13484    13883    15107    16811    18426    19804    20533 
   20531    20712    21286    21372    20836    20249    19757    19443 
   19213    18415    16896    15340    14116    12911    11333     9221 
    6716     4392     2694     1254     -536    -2574    -4251    -5290 
   -5862    -6268    -6639    -6750    -6358    -5432    -4113    -2536 
    -633     1468     3422     5044     5889     5548     4539     3670 
    3236     3204     3222     3026     2889     2955     3033     2903 
    2289     1174       -2     -640     -401      351      848      861 
     765      722      535      -38    -1280    -3268    -5601    -7812 
   -9613   -10653   -10701   -10044    -9202    -8383    -7682    -7400 
   -7707    -8253    -8287    -7488    -6336    -5295    -4502    -4120 
   -4194    -4572    -5300    -6527    -7745    -7949    -7060    -6098 
   -5898    -6701    -8131    -9300    -9950   -10444   -10749   -10876 
  -11196   -11629   -12083   -12972   -14144   -14908   -15039   -14715 
  -14383   -14649   -15680   -16851   -17334   -16952   -16086   -15364 
  -15514   -16690   -18318   -19803   -20660   -20557   -19844   -19209 
  -18860   -18827   -19191   -19574   -19711   -19975   -20413   -20524 
  -20088   -19382   -18900   -19054   -19833   -20475   -20014   -18450 
  -16717   -15572   -15100   -15082   -15046   -14511   -13789   -13382 
  -13141   -12786   -12087   -11070   -10187    -9654    -9611   -10212 
  -10886   -11003   -10852   -10813   -10647   -10151    -9376    -8358 
   -7287    -6355    -5572    -5189    -5437    -5999    -6518    -6614 
   -5796    -4353    -3085    -2372    -2286    -2555    -2518    -1934 
   -1249     -827     -531       95     1303     2693     3770     4341 
    4281     3822     3344     2833     2348     2180     2351     2845 
    3810     5098     6299     7135     7530     7573     7553     7760 
    8163     8496     8612     8721     8999     9017     8228     6597 
    4539     2691     1532     1098     1135     1477     1944     2107 
    1835     1586     1823     2682     3893     4959     5645     5783 
    5371     5053     5195     5510     5937     6356     6384     6096 
    5878     5837     5930     6257     6954     8012     9219    10194 
   10630    10618    10629    11083    11892    12614    12846    12288 
   11131    10144     9741     9739     9978    10433    11114    11952 
   12700    13224    13384    12970    12328    11928    11685    11463 
   11132    10410     9135     7223     4772     2196      -45    -1782 
   -3230    -4510    -5492    -6154    -6545    -6842    -7425    -8469 
   -9638   -10272   -10101    -9682    -9600    -9749    -9995   -10312 
  -10178    -9503    -9196    -9645   -10215   -10391   -10071    -9337 
   -8505    -7840    -7380    -7033    -6627    -6291    -6208    -5925 
   -5131    -4226    -3586    -3351    -3301    -2962    -2261    -1379 
    -713     -719    -1018     -995     -801     -684     -530     -182 
     262      367     -307    -1859    -3789    -5032    -4835    -3521 
   -2246    -1958    -2448    -2851    -2791    -2312    -1656    -1402 
   -1938    -3187    -4882    -6518    -7455    -7422    -6643    -5473 
   -4419    -4275    -5028    -5352    -4588    -3466    -2551    -2177 
   -2830    -4117    -4747    -4079    -2713    -1428     -541     -169 
    -179     -407     -859    -1187     -900      -30      914     1013 
    -140    -1593    -2444    -2640    -2493    -2974    -4653    -6678 
   -8267    -9442   -10315   -10940   -11355   -11628   -11934   -12407 
  -13095   -13612   -13262   -12467   -12514   -13582   -14950   -16034 
  -16137   -14948   -13447   -12720   -12806   -13661   -15157   -16518 
  -17172   -16872   -15517   -13724   -12384   -11666   -11207   -10864 
  -10597   -10183    -9640    -9136    -8554    -7801    -7097    -6629 
   -6212    -5697    -5455    -5937    -6970    -8103    -9399   -10890 
  -12068   -12884   -13771   -14796   -16076   -17753   -19249   -19862 
  -19585   -18858   -18247   -18403   -19548   -21152   -22496   -23178 
  -23367   -23612   -24244   -25394   -27154   -29083   -30409   -31176 
  -31912   -32416   -32228   -31456   -30595   -29907   -29269   -28861 
  -28995   -29529   -30352   -31368   -31942   -31446   -30148   -28781 
  -27644   -26705   -25774   -24293   -22064   -19941   -18602   -17682 
  -16723   -15581   -14194   -12668   -11247   -10288    -9969    -9871 
   -9437    -8523    -7443    -6680    -6334    -6207    -6115    -5952 
   -5850    -5895    -6079    -6615    -7326    -7626    -7556    -7315 
   -6614    -5700    -4969    -4152    -3455    -3245    -2998    -2541 
   -2380    -2324    -1793    -1092     -916    -1352    -2305    -3572 
   -4414    -4390    -4012    -4058    -4883    -6187    -7135    -7274 
   -7021    -6871    -6889    -6870    -6511    -5808    -5109    -4721 
   -4948    -5734    -6376    -6561    -6754    -7027    -6646    -5172 
   -3170    -1469     -473     -233     -405     -431       25      831 
    1468     1759     2045     2520     3371     4997     7213     9136 
   10200    10472    10395    10753    12046    14024    16176    17930 
   18754    18447    17213    15658    14404    13729    13712    14296 
   15197    16200    17447    18945    20365    21519    22290    22675 
   23089    23752    24314    24593    24874    25187    25246    25226 
   25205    24737    24101    24014    24385    25018    25967    26747 
   26871    26533    25937    25176    24650    24371    23676    22564 
   21838    21637    21245    20021    17817    15092    12946    12159 
   12227    12095    11247    10005     9191     9161     9396     9207 
    8798     9069    10269    11668    12310    11816    10700     9776 
    9445     9384     8876     7513     5514     3446     1605     -103 
   -1786    -3336    -4373    -4719    -4581    -4141    -3666    -3269 
   -2545    -1471     -783     -870    -1414    -2072    -2500    -2306 
   -1698    -1463    -2106    -3368    -4585    -5430    -6114    -6905 
   -7614    -7675    -6918    -6047    -6119    -7565    -9680   -11329 
  -12022   -12004   -11822   -11790   -11762   -11545   -11205   -11206 
  -12101   -13531   -14447   -14624   -14596   -14587   -14720   -15085 
  -15210   -14678   -13878   -13472   -13655   -14231   -14770   -14793 
  -14303   -13852   -13772   -13631   -12974   -12011   -11106   -10409 
  -10024    -9821    -9489    -9113    -9038    -9289    -9792   -10528 
  -11285   -11847   -12277   -12915   -14019   -15313   -16084   -16037 
  -15829   -16320   -17915   -20385   -22718   -23905   -23872   -23227 
  -22548   -22256   -22655   -23475   -24168   -24635   -24742   -24358 
  -24110   -24565   -25300   -25606   -25340   -24733   -23992   -23524 
  -23688   -24091   -23928   -22961   -21682   -20774   -20728   -21405 
  -22144   -22609   -22748   -22425   -21816   -21367   -21383   -21854 
  -22505   -23309   -24486   -25805   -26793   -27362   -27609   -27655 
  -27844   -28179   -28029   -27193   -25987   -24637   -23658   -23488 
  -23802   -24143   -24295   -23965   -23179   -22444   -22014   -21629 
  -20852   -19632   -18586   -18208   -18076   -17583   -16880   -16129 
  -14816   -12919   -11451   -10944   -11049   -11728   -12813   -13333 
  -12784   -11622   -10380    -9299    -8241    -6930    -5351    -3587 
   -1811     -362      804     2030     3129     3791     4211     4472 
    4672     5466     7069     8626     9172     8582     7463     6259 
    5156     4689     5287     6609     7965     8747     8682     8079 
    7411     7143     7594     8312     8660     8419     7306     5496 
    3903     2899     2341     2358     2665     2650     2385     2092 
    1658     1157      915     1180     1943     2933     3713     3837 
    3121     1844      484     -651    -1353    -1457     -892      327 
    1663     2188     1705      927      574      873     1437     1670 
    1656     1981     2732     3454     3869     4028     3977     3848 
    4126     5073     6204     6922     7133     7042     6973     7327 
    8118     8752     8803     8490     8211     8115     8033     7788 
    7633     7912     8599     9492    10205    10445    10563    10902 
   11346    11818    12350    12907    13399    13754    13819    13289 
   12297    11585    11599    12075    12354    11972    11318    11047 
   11028    10738     9980     8814     7487     6444     5974     5964 
    6173     6407     6483     6322     5925     5318     4656     4160 
    3864     3637     3404     2992     2189     1089      -93    -1221 
   -2096    -2489    -2467    -2426    -2649    -3332    -4696    -6382 
   -7607    -8302    -9070   -10123   -11244   -12397   -13407   -13842 
  -13883   -14006   -14284   -14626   -14670   -14186   -13635   -13454 
  -13702   -14196   -14371   -13780   -12850   -12484   -12889   -13187 
  -12483   -11043    -9777    -9299   -10127   -12354   -15076   -17218 
  -18129   -17500   -15921   -14685   -14539   -15380   -16613   -17345 
  -17199   -16708   -16323   -16142   -16307   -16587   -16695   -16821 
  -17002   -17213   -17758   -18661   -19725   -20784   -21343   -21301 
  -21376   -21850   -22226   -22174   -21701   -20910   -19994   -18961 
  -17737   -16622   -15815   -15109   -14383   -13359   -11676    -9567 
   -7458    -5662    -4444    -3559    -2658    -2026    -1877    -1974 
   -2356    -3111    -3893    -4497    -5032    -5665    -6739    -8420 
  -10129   -11130   -11298   -10896   -10482   -10746   -11551   -11991 
  -11592   -10503    -9124    -8126    -7901    -8106    -8263    -8188 
   -7991    -7876    -7829    -7813    -7819    -7664    -7477    -7683 
   -7968    -7661    -6917    -6088    -5247    -4813    -4663    -3764 
   -1933      -76     1023      990       53     -991    -1481    -1369 
   -1121    -1068    -1028    -1098    -1717    -2690    -3463    -4030 
   -4725    -5516    -6114    -6478    -6563    -6275    -6036    -6447 
   -7530    -8972   -10377   -11218   -11424   -11371   -11036   -10285 
   -9605    -9494    -9749    -9923    -9712    -8819    -7335    -6070 
   -5721    -6095    -6678    -7147    -7068    -6494    -6496    -7696 
   -9460   -11123   -12411   -13068   -13027   -12401   -11526   -10983 
  -11004   -11260   -11146   -10146    -8456    -6855    -5872    -5576 
   -5678    -5639    -5154    -4318    -3315    -2333    -1591    -1175 
   -1113    -1461    -1971    -2274    -2298    -2119    -1887    -1820 
   -2038    -2489    -2811    -2622    -2132    -1828    -1630    -1264 
   -1023    -1031     -587      543     1476     2031     2643     2578 
    1763     1348     1274     1178     1050      572       98       51 
      61     -216     -759    -1177     -957     -170      637     1083 
    1089     1039     1580     2651     3690     4585     5293     5621 
    5831     6437     7510     8605     9443     9965     9737     8901 
    8468     8675     9086     9594     9834     9438     8901     8697 
    8964    10083    11666    12660    13175    13884    14663    15258 
   15631    15442    14632    13989    13980    14117    14077    13976 
   13908    14251    15234    16115    15998    14968    13822    13115 
   12839    12771    12537    11733    10399     8914     7352     5699 
    4309     3368     2708     2129     1273      -90    -1597    -2693 
