Origin Time       2011/03/11 14:46:00
Lat.              38.103
Long.             142.860
Depth. (km)       24
Mag.              9.0
Station Code      HKD068
Station Lat.      43.4108
Station Long.     144.7704
Station Height(m) 105
Record Time       2011/03/11 14:48:08
Sampling Freq(Hz) 100Hz
Duration Time(s)  300
Dir.              E-W
Scale Factor      3920(gal)/6182761
Max. Acc. (gal)   23.833
Last Correction   2011/03/11 14:47:53
Memo.             
[...]
  -27989   -28035   -25764   -21413   -16161   -11670    -9124    -8590 
   -9545   -11152   -12503   -13356   -13827   -13766   -12881   -10915 
   -8025    -5042    -3149    -3068    -4425    -6719    -9852   -12967 
  -15098   -16664   -18266   -19564   -20187   -20099   -19592   -19391 
  -19570   -19078   -17207   -14305   -10854    -7316    -4790    -4048 
   -4713    -6643   -10076   -14276   -18409   -22676   -26812   -29528 
  -30654   -31355   -32028   -32327   -32370   -32250   -31556   -30243 
  -28749   -26999   -24657   -21996   -19382   -17085   -15756   -15485 
  -15384   -15188   -15440   -15933   -15958   -15736   -15938   -16455 
  -16996   -17639   -18223   -18763   -19835   -21286   -22280   -22900 
  -23772   -24663   -24934   -24653   -24228   -23489   -21844   -18970 
  -15346   -12113    -9931    -8564    -7495    -6272    -4922    -4084 
   -4363    -6017    -8848   -12044   -14858   -17102   -18587   -19209 
  -19370   -19709   -20748   -22368   -23788   -24297   -23490   -21050 
  -16878   -11583    -6442    -2428      242     1556     1583      822 
    -174    -1159    -1849    -2075    -2278    -2931    -3898    -5304 
   -7738   -10944   -14138   -17205   -20104   -22273   -23385   -23765 
  -24035   -24811   -26253   -27927   -29551   -31092   -32244   -32640 
  -32017   -30141   -26907   -22475   -17433   -12647    -8908    -6764 
   -6179    -6440    -6919    -7539    -8307    -9077    -9756   -10444 
  -11203   -11819   -12261   -13045   -14472   -16221   -17998   -19341 
  -19491   -18352   -16607   -15311   -15403   -16828   -18917   -21295 
  -23722   -26043   -28357   -30434   -31353   -30340   -27340   -22617 
  -16904   -11632    -7982    -6300    -6555    -8522   -11649   -15210 
  -18650   -21599   -23647   -24450   -23997   -22742   -21770   -22435 
  -24936   -28212   -31638   -34837   -36852   -37268   -36347   -33986 
  -30275   -26192   -22636   -19867   -17999   -16986   -16647   -17010 
  -17663   -17458   -15978   -14083   -12282   -10288    -8536    -8109 
   -9091   -10774   -12892   -15261   -17186   -18013   -17794   -17428 
  -18021   -19807   -22132   -24532   -27062   -29571   -31592   -32822 
  -32920   -31631   -29490   -27126   -24462   -21521   -18749   -16344 
  -14306   -12851   -12025   -11424   -11201   -12138   -14206   -16685 
  -19174   -21111   -21715   -20973   -19264   -16867   -14524   -12675 
  -10908    -9400    -8923    -9702   -11867   -15479   -19411   -22030 
  -22717   -21611   -19415   -17471   -16312   -15443   -14685   -13890 
  -12467   -10454    -8886    -8310    -7905    -7022    -6312    -6393 
   -7516   -10493   -15178   -19431   -21610   -22076   -21979   -22075 
  -22590   -23685   -25344   -27024   -28323   -29701   -31852   -34519 
  -36799   -38431   -39513   -39700   -38920   -37557   -35638   -32877 
  -28961   -23840   -18260   -13346    -9740    -7567    -6704    -6798 
   -7434    -8273    -8713    -8035    -6409    -4752    -3531    -2957 
   -3605    -5548    -7880    -9919   -11539   -12198   -11342    -9311 
   -6886    -4878    -4270    -5743    -9150   -13747   -18456   -22137 
  -24171   -24659   -24062   -23017   -22262   -22129   -22388   -23030 
  -24462   -26563   -28558   -29915   -30429   -29711   -27354   -23745 
  -20214   -17875   -16817   -16515   -16264   -15501   -14296   -13131 
  -12332   -12065   -12172   -12160   -11975   -12344   -13967   -16658 
  -19680   -22511   -24614   -25353   -24653   -22873   -20417   -17635 
  -14539   -11305    -8776    -7504    -7212    -7653    -8857   -10307 
  -11071   -11085   -10925   -10303    -8720    -6996    -6140    -5990 
   -6028    -6050    -5904    -5430    -4729    -4205    -4253    -5125 
   -6862    -8997   -10881   -12129   -12452   -11891   -11060   -10519 
  -10539   -11505   -13786   -17235   -21201   -24937   -27866   -29830 
  -31225   -32293   -32563   -31671   -29998   -28218   -26982   -26635 
  -26687   -26258   -24781   -22018   -18701   -16568   -16426   -17390 
  -18377   -18700   -17653   -15280   -12908   -11431    -9911    -7258 
   -4009    -1298      110     -526    -3211    -6495    -8353    -7658 
   -5320    -3410    -2635    -2432    -2797    -3725    -4625    -5575 
   -7013    -8358    -8715    -8076    -6952    -5882    -5589    -6780 
   -9362   -12374   -14956   -16786   -17752   -17930   -17755   -17777 
  -18186   -18874   -19842   -21256   -23135   -25124   -26585   -27044 
  -26426   -24903   -23000   -21386   -20206   -19324   -18799   -18547 
  -18368   -18364   -18805   -19600   -20172   -20228   -19871   -18499 
  -15307   -10646    -5154      902     6386     9358     8995     6186 
    2212    -2121    -6164    -9587   -12901   -16531   -19860   -22114 
  -23103   -22976   -21945   -20034   -17617   -15874   -15321   -15132 
  -15057   -15861   -17369   -18739   -20029   -21393   -22334   -22630 
  -22356   -21227   -19246   -17312   -16168   -15626   -15363   -15570 
  -16631   -18628   -21240   -23877   -25856   -26802   -27111   -27726 
  -29181   -31124   -32961   -34238   -34398   -32914   -29954   -26297 
  -22004   -16690   -11285    -7129    -4380    -2925    -2808    -3638 
   -4715    -5449    -6031    -7311    -9422   -11678   -13339   -13839 
  -13392   -12641   -11980   -12347   -14566   -18101   -21880   -25023 
  -27196   -28832   -30267   -31325   -31541   -30606   -28913   -26967 
  -24955   -22892   -20152   -16101   -11083    -5943    -1794      219 
     -96    -2091    -5289    -9770   -15541   -21481   -26051   -28678 
  -29027   -26880   -23467   -20509   -18716   -18465   -19847   -21924 
  -23573   -24314   -23850   -22150   -19957   -18245   -17446   -17668 
  -19009   -20983   -22581   -22916   -21017   -16600   -11095    -5856 
   -1004     3102     5601     5832     3352    -1607    -7889   -14051 
  -18929   -21911   -23074   -23030   -22346   -21262   -20319   -20024 
  -20189   -20722   -21517   -22012   -22060   -21659   -20713   -20009 
  -20456   -21886   -23458   -24180   -23177   -20044   -15396   -10612 
   -6457    -3118    -1050     -521    -1160    -1955    -1926    -1283 
    -845     -951    -2336    -6308   -12863   -20124   -26232   -30595 
  -32882   -32472   -29590   -24972   -18731   -11527    -5527    -2919 
   -4444    -9082   -14978   -21275   -27747   -33518   -37823   -40027 
  -39324   -36052   -31677   -27264   -22897   -18571   -15017   -12308 
   -9349    -5994    -3059    -1271    -1958    -5991   -11972   -17795 
  -22601   -26136   -28355   -29573   -29744   -28645   -26725   -24663 
  -22416   -19438   -15867   -12310    -8988    -6519    -5917    -7225 
   -9828   -13411   -17347   -20620   -22884   -24219   -24401   -23299 
  -21139   -18120   -14578   -11219    -8446    -6400    -5689    -6585 
   -8470   -10858   -13672   -16754   -19577   -21521   -22778   -23826 
  -24460   -24499   -23917   -22347   -19903   -17335   -15003   -13169 
  -12504   -13350   -15107   -16629   -17191   -16785   -15477   -13030 
   -9514    -6175    -4598    -5231    -8026   -12764   -18032   -22156 
  -24759   -26429   -27734   -28720   -29335   -29863   -30356   -30502 
  -30358   -30328   -30319   -29572   -27648   -25042   -22402   -19680 
  -16596   -13504   -11228   -10460   -11485   -13946   -17057   -19858 
  -21292   -21292   -20884   -20388   -19402   -18069   -16582   -14774 
  -12891   -11488   -10683   -10378   -10562   -10613    -9654    -8315 
   -8133    -9340   -11555   -14987   -19040   -22318   -24895   -27965 
  -31241   -33144   -32599   -29219   -23445   -16708   -10429    -5571 
   -2907    -2618    -4241    -7675   -12958   -19062   -24215   -27120 
  -27258   -24772   -20861   -17331   -15321   -15139   -16634   -19313 
  -22433   -25245   -27300   -28081   -27026   -24360   -20834   -16984 
  -13517   -11090    -9461    -8162    -7244    -7015    -7593    -8815 
  -10786   -13263   -15062   -15676   -15477   -14285   -12037    -9556 
   -8065    -9217   -13914   -20799   -27645   -33038   -36276   -36893 
  -34145   -27576   -18496    -9841    -3904     -698      367    -1013 
   -4389    -8402   -12228   -15086   -16452   -16935   -17471   -18867 
  -21744   -25704   -29221   -30752   -29495   -25385   -19490   -13913 
  -10054    -7768    -6528    -6119    -6063    -5830    -5896    -7046 
   -8673    -9436    -9265    -9257    -9934   -10581   -10408    -9801 
   -9392    -9267   -10193   -13097   -17682   -23544   -30467   -37153 
  -41730   -42896   -40065   -33512   -24884   -16847   -11243    -8467 
   -8620   -11487   -16400   -22363   -27890   -32217   -35268   -36117 
  -34325   -31246   -27953   -23891   -18513   -13085    -9518    -8079 
   -8179    -9721   -12065   -14397   -16955   -19732   -21891   -22877 
  -22442   -20436   -17099   -13088    -9035    -5212    -1900      587 
    2202     2621     1189    -1632    -4166    -5609    -6604    -7869 
   -9443   -10706   -10929   -10226    -9473    -9416   -10906   -14635 
  -19573   -24206   -28702   -33090   -36207   -38061   -39232   -38815 
  -36199   -32303   -28340   -25649   -25316   -27122   -30003   -32757 
  -33955   -32523   -28475   -22728   -16779   -11875    -8236    -6010 
   -5716    -7145    -9729   -13376   -17660   -21445   -24008   -25668 
  -26887   -27760   -28703   -30068   -30988   -29962   -26239   -20289 
  -13643    -7930    -4082    -2720    -4090    -7359   -11055   -14477 
  -17653   -19855   -20344   -19846   -19167   -18202   -17288   -17657 
  -19998   -23394   -26052   -26421   -23555   -17995   -12022    -7675 
   -5503    -5190    -5974    -7121    -8345    -9259    -9347    -8558 
   -7130    -5201    -2981    -1127     -586    -2266    -6665   -13074 
  -19609   -24222   -25841   -25339   -24553   -24533   -25730   -28160 
  -30920   -32990   -33968   -33833   -32900   -31504   -29406   -26301 
  -22927   -20394   -18908   -18438   -18889   -19116   -17750   -14330 
   -9016    -2769     2970     7316     9577     9204     6686     3235 
    -185    -3312    -6406    -9644   -12890   -16074   -19312   -22416 
  -25011   -27247   -29281   -30259   -28893   -24941   -19405   -13726 
   -9505    -8099    -9551   -12322   -14525   -15217   -14460   -12930 
  -11415   -10131    -9009    -8072    -7320    -7224    -8479   -10966 
  -13789   -15628   -14974   -11507    -7035    -3742    -2318    -2698 
   -5125    -9312   -13794   -17527   -20897   -24282   -27374   -29879 
  -31563   -32171   -31359   -28569   -23882   -18446   -13498   -10102 
   -9199   -10700   -13799   -18290   -23868   -29115   -32962   -35862 
  -38188   -38958   -37191   -33225   -28277   -23719   -20609   -19325 
  -19772   -21688   -24378   -26888   -28681   -29361   -28322   -25210 
  -20201   -14442    -9967    -7822    -7291    -7385    -7463    -7142 
   -6536    -6011    -5886    -5878    -5081    -3563    -2714    -3786 
   -7455   -13379   -19272   -22743   -23729   -23089   -21052   -18135 
  -15360   -13539   -12837   -12892   -13503   -14513   -15431   -15821 
  -15494   -14478   -13182   -12258   -12029   -12410   -13894   -17502 
  -23166   -29315   -33672   -34694   -33115   -30804   -28764   -27503 
  -27420   -28110   -28415   -27898   -27724   -28863   -30340   -30686 
  -29497   -26726   -22653   -18515   -15367   -13018   -10780    -8330 
   -5921    -4465    -5017    -7746   -11796   -15880   -18806   -19848 
  -18770   -15673   -11123    -6448    -3054    -1347    -1430    -3756 
   -7861   -12283   -16178   -19337   -21277   -22001   -22560   -23778 
  -25489   -27056   -28042   -28297   -27591   -25870   -23508   -20949 
  -18521   -16612   -15822   -16230   -16976   -17509   -18273   -19701 
  -21444   -22977   -24238   -24796   -23712   -21675   -20650   -20827 
  -21316   -22126   -22553   -20551   -15743   -10455    -6681    -4845 
   -4937    -6015    -6692    -6945    -7547    -9061   -11783   -14986 
  -17124   -17494   -16670   -15617   -15261   -16009   -16760   -16099 
  -14817   -14626   -15815   -18254   -21625   -24599   -25956   -25568 
  -24263   -22852   -21176   -18558   -14279    -8268    -1676     4002 
    7328     7382     5088     2192     -903    -4349    -7495    -9792 
  -11421   -12805   -14597   -17571   -21533   -24835   -26289   -26613 
  -26872   -27200   -27238   -26425   -24266   -20724   -16486   -13239 
  -12581   -13876   -14906   -14861   -14485   -14061   -13722   -14482 
  -16829   -19561   -21234   -21256   -19465   -16364   -13200   -10902 
   -9557    -8728    -7956    -7424    -7866    -9719   -12630   -15518 
  -17014   -16477   -14725   -13290   -13164   -14408   -16453   -18331 
  -19262   -19648   -20449   -21513   -21863   -21005   -18807   -14902 
   -9488    -4205     -986     -101     -335     -854    -1360    -1153 
     -46      860      676     -419    -1927    -3286    -4213    -5308 
   -7694   -11921   -17026   -21251   -23635   -23984   -22642   -20993 
  -20360   -20370   -19588   -17422   -14843   -13282   -13135   -13979 
  -15651   -17852   -19492   -19918   -20027   -20639   -21348   -22165 
  -23234   -23358   -22027   -20792   -20837   -21529   -21742   -21073 
  -19308   -16036   -12020    -9267    -8907   -10571   -13019   -14578 
  -14257   -12296    -9541    -7159    -6235    -6740    -7815    -9193 
  -11142   -13663   -16793   -20522   -23914   -25832   -26273   -25642 
  -24132   -22567   -21851   -21488   -20086   -17138   -13407    -9684 
   -6309    -3570    -1732    -1116    -2065    -4605    -8009   -10786 
  -12424   -14382   -17774   -21976   -26443   -31457   -36858   -41945 
  -46416   -50334   -53283   -54235   -52544   -48796   -44253   -39362 
  -33835   -28152   -22934   -17857   -13013    -9267    -7174    -7243 
   -9703   -13536   -17147   -19597   -20668   -20500   -19660   -18602 
  -16949   -14366   -11777   -11040   -13078   -16780   -20857   -25187 
  -29423   -32597   -34187   -34083   -32189   -28677   -24126   -19533 
  -15942   -13584   -11962   -10831   -10400   -10893   -12329   -14238 
  -15738   -16281   -16069   -15708   -15604   -15742   -16006   -16087 
  -15270   -13242   -10792    -8574    -6125    -3679    -2959    -4718 
   -8116   -12709   -18322   -23777   -28044   -31204   -33117   -33399 
  -32779   -32598   -33516   -35412   -37979   -40885   -43383   -44343 
  -42945   -39190   -33634   -26992   -20550   -15796   -12699   -10148 
   -7950    -6216    -4292    -2296    -1666    -3157    -6437   -11262 
  -16886   -21599   -24175   -24479   -22824   -19537   -14818    -9305 
   -4513    -1702     -907    -1585    -3234    -5183    -7082    -9582 
  -12971   -16095   -18156   -19428   -19898   -19374   -18205   -16899 
  -15851   -15318   -15038   -14633   -14274   -13898   -12977   -11913 
  -12111   -14077   -16891   -19799   -22530   -24540   -25618   -26060 
  -25746   -24470   -23025   -22342   -22051   -21634   -21401   -21299 
  -20946   -20485   -20355   -20617   -20343   -18463   -15259   -12144 
  -10330    -9823   -10302   -12512   -17026   -22897   -28708   -33288 
  -35586   -35196   -32618   -28819   -24649   -20811   -18046   -16410 
  -15233   -14133   -12980   -11500    -9307    -6323    -3392    -1772 
   -2296    -5166    -9593   -14034   -17663   -20979   -24504   -27944 
  -30809   -32673   -32965   -31423   -28341   -24208   -19818   -16227 
  -14168   -13720   -14163   -14481   -14683   -16054   -19075   -22304 
  -25031   -28313   -32041   -34826   -36299   -36453   -34951   -32153 
  -28488   -23379   -16542    -9014    -1985     3744     7263     8102 
    6589     2936    -2763    -9491   -15675   -20209   -22375   -22103 
  -20593   -19316   -18919   -19983   -22765   -25652   -26744   -26239 
  -24880   -22395   -19336   -17388   -16683   -15797   -14279   -13003 
  -12623   -12787   -12848   -12569   -11908   -10564    -8086    -4798 
   -1598     1562     5112     8205     9523     8746     5981     1082 
   -5502   -12190   -17588   -21659   -24490   -25348   -23855   -20410 
  -15604   -10306    -5822    -3498    -3605    -4944    -6339    -7690 
   -9152   -10789   -13204   -16819   -20738   -23644   -24910   -24058 
  -20588   -15150    -9664    -5504    -2723    -1245    -1262    -3025 
   -6990   -12931   -19235   -23940   -26098   -26316   -25885   -25267 
  -24038   -21949   -19439   -17288   -15769   -14670   -13955   -13395 
  -12593   -11929   -12262   -14241   -18049   -22639   -26269   -28352 
  -29529   -30336   -30648   -30069   -28620   -26717   -24566   -22130 
  -19237   -15623   -11537    -7771    -4782    -2858    -2670    -4423 
   -7223   -10156   -13194   -16457   -19592   -22344   -24707   -26643 
  -28094   -28874   -29091   -29402   -29711   -29084   -27442   -25246 
  -22291   -18830   -16432   -16086   -16988   -18182   -19607   -21358 
  -23468   -25908   -28038   -28691   -27292   -24525   -21688   -19839 
  -18963   -17673   -14608    -9525    -2782     4807    11678    16207 
   17607    15707    10441     2450    -6219   -13127   -17228   -18840 
  -18148   -15287   -11292    -7271    -3966    -2319    -3020    -6414 
  -12298   -18974   -24507   -28508   -31362   -33069   -33473   -32632 
  -29945   -24412   -17186   -11256    -8145    -7334    -8072    -9805 
  -11553   -12782   -14419   -17269   -20388   -22548   -23789   -24503 
  -24966   -25552   -25907   -24980   -22318   -18721   -15539   -13462 
  -12569   -12764   -13454   -14129   -15084   -16670   -18853   -21407 
  -23563   -24070   -22258   -18735   -14761   -11240    -8389    -5940 
   -3776    -2238    -1510    -1679    -3166    -5904    -9161   -12418 
  -15293   -16980   -16585   -14598   -12742   -11702   -11090   -10964 
  -11700   -13375   -15597   -17642   -18741   -18224   -16264   -14107 
  -12802   -12658   -13602   -15101   -16605   -17953   -19025   -19810 
  -20453   -20778   -20189   -18336   -15848   -13768   -12486   -11903 
  -11746   -11265   -10172    -9399    -9501   -10193   -11525   -13461 
  -15559   -17647   -19248   -19252   -17285   -14342   -12015   -11645 
  -13581   -16898   -19963   -21296   -20008   -16037   -10485    -5468 
   -2796    -2481    -3555    -5910    -9603   -13541   -16418   -17907 
  -18473   -18632   -18857   -19884   -22147   -25308   -28650   -31425 
  -33101   -33532   -32792   -31018   -28540   -25824   -23055   -20184 
  -17495   -15692   -15232   -15700   -16321   -16675   -16488   -15881 
  -15830   -17225   -19909   -22836   -24562   -23860   -20600   -16316 
  -13253   -12637   -14295   -17406   -21141   -24958   -28455   -31253 
  -33188   -33979   -33227   -31183   -28609   -26057   -23757   -21477 
  -18901   -16405   -14194   -11965   -10517   -10985   -12926   -15323 
  -17460   -18408   -17800   -16617   -15896   -15473   -14839   -14092 
  -13627   -13959   -15737   -18820   -21534   -22301   -21286   -19107 
  -16166   -13637   -12620   -13155   -14740   -16335   -17083   -17352 
  -17538   -17195   -15981   -14306   -13383   -14245   -16860   -20944 
  -25802   -29740   -31832   -32676   -32790   -31858   -29134   -24199 
  -17719   -11276    -6015    -1934      757     1058     -992    -4039 
   -7746   -12795   -18336   -22562   -25156   -26237   -24953   -21342 
  -16850   -12094    -7031    -2597      573     2753     3434     1924 
   -1155    -4615    -7917   -10784   -12352   -12352   -11857   -11867 
  -12940   -14994   -16894   -18062   -18856   -19027   -18398   -18115 
  -19031   -20197   -20659   -20794   -20569   -19485   -18460   -18301 
