Origin Time       2011/03/11 14:46:00
Lat.              38.103
Long.             142.860
Depth. (km)       24
Mag.              9.0
Station Code      HKD077
Station Lat.      42.9845
Station Long.     144.3824
Station Height(m) 3
Record Time       2011/03/11 14:48:13
Sampling Freq(Hz) 100Hz
Duration Time(s)  259
Dir.              N-S
Scale Factor      3920(gal)/6182761
Max. Acc. (gal)   21.659
Last Correction   2011/03/11 14:47:58
Memo.             
[...]
   -1717    -1884    -1192     -292      597     1720     3110     4576 
    5835     6368     5692     3958     2044      880      739     1267 
    1950     2494     2980     3585     4358     5348     6458     7271 
    7535     7534     7708     8018     7909     6977     5400     3690 
    2218      965     -393    -2310    -5070    -8472   -11833   -14339 
  -15681   -16240   -16591   -17086   -17706   -18216   -18390   -18034 
  -17129   -15861   -14347   -12456   -10003    -7169    -4474    -2202 
    -130     2077     4425     6738     8996    11228    13256    14801 
   15858    16637    17284    17981    18565    18053    15674    11990 
    8323     5604     4016     3289     3004     2895     3002     3190 
    2882     1822      591      -19       11     -111    -1058    -2969 
   -5782    -9269   -12827   -15572   -16952   -17316   -17462   -17706 
  -17827   -17551   -16707   -15233   -13180   -10621    -7702    -4729 
   -2051      115     1699     2797     3759     4856     5987     7040 
    8036     8848     9370     9792    10289    10701    10959    11370 
   12008    12369    12078    11288    10136     8478     6260     3656 
     878    -2055    -5196    -8352   -11267   -13895   -16152   -17724 
  -18219   -17435   -15509   -12967   -10645    -9021    -7833    -6774 
   -5780    -4590    -3062    -1551     -284      856     1630     1446 
     105    -1879    -3626    -4480    -4262    -3056    -1032     1371 
    3518     5039     5856     5933     5365     4390     3284     2399 
    2125     2618     3626     4730     5566     5917     5908     5773 
    5341     4414     3319     2388     1431       75    -1738    -3589 
   -4895    -5335    -4955    -4150    -3525    -3530    -4159    -5153 
   -6449    -8033    -9460    -9911    -8878    -6790    -4591    -2974 
   -2264    -2415    -3054    -3635    -3615    -2935    -2106    -1619 
   -1648    -2233    -3406    -5053    -6742    -8033    -8867    -9277 
   -9093    -8205    -6688    -4713    -2463       62     2992     6033 
    8274     8882     7858     5965     3989     2157      384    -1055 
   -1593    -1076       60     1206     2021     2414     2171     1070 
    -690    -2516    -3744    -4050    -3590    -2658    -1536     -748 
    -912    -2143    -3875    -5383    -6270    -6497    -6129    -5143 
   -3569    -1828     -648     -501    -1249    -2371    -3433    -4233 
   -4470    -3782    -2272     -382     1778     4292     6675     7956 
    7556     5763     3540     1734      298    -1217    -2635    -3265 
   -2818    -1792    -1051    -1102    -1889    -3216    -4815    -6062 
   -6192    -4857    -2378      379     2477     3452     3470     3075 
    2700     2414     2176     2016     1938     1935     2158     2978 
    4587     6491     7695     7602     6686     5902     5497     5000 
    4099     2896     1698      863      395     -226    -1441    -3183 
   -5314    -7798   -10235   -12050   -13020   -13006   -11836    -9755 
   -7363    -5291    -4106    -3943    -4449    -5312    -6335    -7233 
   -7877    -8373    -8590    -8029    -6360    -3844    -1145     1168 
    2911     4150     4816     4684     3812     2688     1823     1470 
    1614     1894     1833     1273      306     -906    -2034    -2706 
   -2804    -2499    -1940    -1101     -175      429      662      854 
    1186     1399     1014     -136    -1566    -2478    -2464    -1795 
   -1054     -786    -1479    -3345    -5912    -8142    -9149    -8575 
   -6635    -4198    -2353    -1585    -1680    -2190    -2584    -2432 
   -1873    -1474    -1539    -2008    -2804    -3842    -4846    -5442 
   -5436    -4985    -4360    -3757    -3549    -3986    -4481    -4120 
   -2724     -720     1360     3068     4316     5247     5897     6283 
    6452     6375     5861     4661     2894     1003     -695    -1990 
   -2729    -2772    -1966     -719      -39     -568    -2105    -4030 
   -5790    -7004    -7580    -7915    -8550    -9591   -10824   -12064 
  -13083   -13559   -13191   -11873   -10080    -8628    -7798    -7370 
   -7157    -6948    -6567    -5903    -4676    -2752     -446     1763 
    3427     4252     4248     3603     2792     2613     3294     4062 
    4192     3696     2805     1626      410     -504    -1117    -1616 
   -1899    -1807    -1550    -1445    -1551    -1709    -1616    -1044 
    -145      684     1175     1269      963      392     -187     -691 
   -1134    -1252     -710      498     2083     3550     4397     4659 
    4808     5058     5165     4835     4121     3244     2315     1551 
    1200     1063      541     -720    -2387    -3834    -4831    -5447 
   -5553    -4942    -3838    -2864    -2601    -3363    -5118    -7393 
   -9455   -10746   -10966   -10054    -8466    -6940    -5817    -5121 
   -4960    -5359    -5950    -6156    -5710    -4890    -4115    -3425 
   -2577    -1555     -504      769     2615     4913     7099     8578 
    8925     8154     6823     5656     5142     5430     6277     7034 
    7044     6118     4332     1712    -1481    -4387    -5885    -5586 
   -4282    -3144    -2757    -2981    -3335    -3354    -2945    -2558 
   -2753    -3498    -4057    -3713    -2572    -1289     -248      487 
     979     1334     1505     1465     1373     1515     2342     4101 
    6557     9251    11583    13070    13746    13821    13159    11482 
    8953     6149     3461      917    -1478    -3495    -4861    -5597 
   -6140    -7087    -8653   -10452   -11902   -12701   -12927   -12791 
  -12278   -11112    -9048    -6183    -3157     -879      104     -147 
   -1190    -2474    -3540    -4138    -4242    -3894    -3065    -1717 
     -33     1503     2499     2904     2928     3115     3947     5266 
    6580     7501     7723     7079     5661     3862     2128      480 
   -1315    -3201    -4877    -6117    -6871    -7134    -6849    -6028 
   -4869    -3711    -2730    -1777     -656      678     1967     2765 
    2939     2758     2471     1923      673    -1398    -3966    -6713 
   -9389   -11675   -13316   -14211   -14387   -14126   -13885   -13858 
  -13786   -13470   -13100   -12622   -11444    -9304    -6692    -4284 
   -2448    -1132       -7     1066     1823     2091     2248     2832 
    3888     5006     6051     7343     9044    10945    12653    13841 
   14543    14851    14634    13884    12821    11802    11182    10863 
   10283     8974     6795     3785       81    -3991    -7917   -11125 
  -13110   -13826   -13942   -14163   -14378   -13921   -12612   -11130 
  -10249   -10159   -10518   -10955   -11513   -12488   -13929   -15430 
  -16486   -16995   -16960   -16039   -14108   -11680    -9358    -7234 
   -4997    -2395      625     3982     7516    11214    14940    17938 
   19394    19239    17860    15734    13592    12018    10892     9910 
    9109     8647     8579     8745     8787     8407     7515     6041 
    3826      918    -2251    -5254    -8032   -10654   -13008   -14974 
  -16606   -17989   -19048   -19540   -19236   -18101   -16236   -13824 
  -11211    -8813    -6795    -4986    -3089     -910     1395     3315 
    4458     4883     5080     5453     5718     5424     4719     3980 
    3324     2733     2169     1655     1304     1098      862      605 
     644     1198     2090     2983     3659     4131     4758     5913 
    7376     8637     9578    10454    11536    12874    14164    15084 
   15573    15623    15378    15244    15377    15457    15008    13547 
   10832     7222     3424       19    -2702    -4779    -6439    -7784 
   -8753    -9366   -10090   -11613   -13974   -16511   -18707   -20314 
  -21030   -20703   -19473   -17592   -15506   -13916   -13321   -13436 
  -13196   -11538    -8088    -3318     1642     5759     8846    11318 
   13312    14367    14079    12693    10716     8335     5460     2227 
    -633    -2306    -2578    -1736     -364     1011     2357     3846 
    5520     7173     8427     9190     9661    10020    10329    10443 
   10136     9192     7429     5035     2631      832     -186     -831 
   -1599    -2392    -2787    -2892    -3512    -5254    -7700    -9738 
  -10619   -10338    -9124    -7172    -4964    -3205    -2186    -1668 
   -1462    -1471    -1421    -1214    -1018    -1018    -1721    -3741 
   -6875   -10096   -12376   -12974   -11416    -7881    -3249     1433 
    5159     7066     7003     5574     3502     1528      449      422 
     759      716       29     -978    -1585    -1254       94     2093 
    4075     5569     6659     7670     8512     8579     7417     5142 
    2432      116    -1682    -3571    -5842    -7746    -8185    -7025 
   -5060    -2829     -433     1762     3202     3493     2420      297 
   -2126    -4465    -6754    -8886   -10534   -11514   -11899   -11830 
  -11524   -11407   -12060   -13658   -15446   -16292   -15600   -13426 
  -10192    -6293    -1855     2874     7191    10554    13147    15566 
   18158    20411    21284    20323    17893    14696    11406     8377 
    5748     3788     2794     2664     2764     2484     1788      920 
     -41    -1156    -2573    -4388    -6315    -7834    -8537    -8299 
   -7532    -6890    -6637    -6605    -6502    -6353    -6444    -6589 
   -6262    -5397    -4473    -4009    -4199    -4949    -6026    -7077 
   -7946    -8813    -9690   -10211   -10068    -9200    -7679    -5670 
   -3361     -915     1397     3292     4667     5359     5096     3989 
    2688     2026     2500     3852     5308     6290     6701     6602 
    6037     5251     4421     3088      759    -2089    -4472    -5966 
   -6774    -7362    -8124    -8915    -9304    -9101    -8190    -6569 
   -4838    -3676    -3016    -2612    -2619    -3051    -3573    -3933 
   -3906    -3174    -1756     -101     1411     2554     3254     3858 
    4704     5611     6185     6190     5656     4899     4285     3942 
    3531     2432      522    -1555    -3020    -3449    -3044    -2582 
   -2582    -2872    -3134    -3155    -2820    -2436    -2529    -3200 
   -4153    -4998    -5289    -4851    -4044    -3166    -2055     -574 
    1111     2740     4025     4667     4459     3456     2075      907 
     463     1015     2442     4269     6018     7464     8539     9197 
    9342     8660     6733     3492     -389    -3658    -5447    -5989 
   -6008    -5683    -4815    -3573    -2371    -1375     -593     -189 
    -404    -1123    -1744    -1744    -1150     -343      357      905 
    1349     1427      617    -1306    -3777    -5677    -6310    -5850 
   -4768    -3302    -1467      552     2092     2445     1613      265 
    -878    -1446    -1532    -1576    -1933    -2559    -3344    -4452 
   -5871    -7137    -7843    -7924    -7395    -6131    -4000    -1150 
    2035     5070     7416     8782     9065     7894     5111     1746 
    -398     -312     1524     3991     6152     7363     7272     5636 
    2361    -2012    -6362    -9736   -11910   -13200   -13698   -12914 
  -10437    -6817    -3491    -1732    -1778    -2934    -4196    -4822 
   -4390    -2660       44     2873     5245     6848     7360     6745 
    5160     2843      417    -1504    -2898    -3948    -4514    -4346 
   -3442    -2057     -709      -59     -512    -2059    -4217    -6130 
   -7106    -7052    -6441    -5792    -5190    -4605    -4238    -4279 
   -4705    -5111    -4732    -3074     -350     2749     5264     6406 
    6324     5912     5743     5696     5366     4532     3373     2231 
    1262      354     -715    -2056    -3665    -5511    -7425    -9172 
  -10557   -11237   -10881    -9600    -7841    -6107    -4986    -4877 
   -5608    -6799    -8343   -10304   -12811   -15719   -18065   -18711 
  -17544   -15503   -13670   -12399   -11095    -8991    -6049    -2767 
     607     4078     7512    10709    13400    15403    16979    18357 
   19240    19317    18558    17003    14894    12656    10544     8855 
    7948     7564     6833     5175     2778      249    -1816    -3006 
   -3431    -3803    -4833    -6831    -9837   -13671   -17803   -21457 
  -24082   -25801   -27121   -28158   -28501   -27843   -26387   -24536 
  -22252   -18996   -14554    -9445    -4531     -499     2719     5806 
    9098    12204    14609    16137    16652    16015    14675    13510 
   12938    12717    12334    11273     9363     6907     4317     1986 
     127    -1614    -3772    -6290    -8660   -10786   -13230   -16271 
  -19070   -20240   -19222   -16666   -13528   -10399    -7447    -4601 
   -2060     -229     1045     2434     4188     5948     7346     8230 
    8640     8830     8989     9051     8969     8867     8737     8315 
    7443     6248     5117     4459     3848     2281     -286    -3126 
   -5848    -8283   -10304   -11955   -13193   -13899   -14268   -14630 
  -14821   -14253   -12746   -10716    -8425    -5927    -3710    -2304 
   -1496     -497     1440     4396     7484     9635    10535    10437 
    9718     8846     7954     6569     4522     2470     1165      888 
    1298     1639     1409      658     -209     -727     -834     -978 
   -1718    -3432    -6114    -9294   -12244   -14238   -15070   -15135 
  -14660   -13670   -12556   -11776   -11217   -10420    -9253    -7894 
   -6510    -5244    -3989    -2342     -163     2195     4372     6308 
    7984     9385    10656    11933    13308    14808    16251    17478 
   18484    19266    19967    20690    20932    19905    17281    13213 
    8258     3419     -495    -3611    -6591    -9840   -13435   -17283 
  -21205   -25023   -28496   -31326   -33384   -34747   -35210   -34111 
  -31098   -26607   -21445   -16340   -11847    -8427    -6201    -4587 
   -2771     -508     1890     4195     6550     9262    12612    16488 
   20109    22746    24566    26170    27580    28306    28221    27635 
   26545    24552    21530    17807    13732     9456     5160     1105 
   -2690    -6350    -9701   -12329   -13859   -14014   -12786   -10529 
   -7801    -5500    -4857    -6602   -10165   -13926   -16213   -16376 
  -15226   -14253   -14283   -14985   -15551   -15439   -14709   -14027 
  -13975   -14304   -14236   -13168   -10954    -7825    -4194     -376 
    3570     7554    11267    14363    16385    16826    15673    13599 
   11542    10137     9334     8381     6504     3968     1934     1044 
     988     1333     2004     3130     4642     6063     6947     7088 
    6281     4512     2230       97    -1416    -2298    -2926    -3664 
   -4666    -6019    -7573    -8818    -9413    -9332    -8584    -7369 
   -5965    -4435    -2921    -1723     -999     -773     -978    -1584 
   -2653    -3871    -4583    -4706    -4823    -5385    -6360    -7530 
   -8725    -9577    -9422    -7796    -4769     -819     3462     7544 
   10877    13021    14014    14214    13868    13217    12767    12838 
   13074    12954    12212    10616     8317     6237     5238     5127 
    4878     3526      897    -2249    -4902    -6594    -7405    -7576 
   -7390    -7211    -7481    -8553   -10301   -12150   -13659   -14626 
  -14896   -14700   -14703   -15313   -16261   -16778   -16191   -14552 
  -12369    -9957    -7356    -4618    -2127     -281     1114     2540 
    4263     6282     8315    10194    11986    13314    13622    12991 
   11889    10690     9509     8310     7385     7167     7493     7622 
    6905     5289     3253     1260     -634    -2584    -4649    -6717 
   -8396    -9191    -9175    -9094    -9560   -10480   -11383   -12054 
  -12668   -13483   -14463   -15122   -14821   -13160   -10221    -6850 
   -4282    -2981    -2488    -2255    -1849     -866      797     2797 
    4505     5315     5081     4443     4304     4926     6084     7513 
    8757     9301     8858     7558     6090     5267     5548     6860 
    8493     9603     9846     9231     7761     5547     3110     1228 
     212     -333     -639     -493       16      512      871     1227 
    1512     1126     -322    -2284    -3871    -4560    -4289    -3452 
   -2640    -2162    -1829    -1366     -904     -639     -504     -563 
    -851     -881       36     2149     4740     6461     6593     5349 
    3266      921    -1398    -3755    -6131    -8195    -9403    -9254 
   -7587    -4941    -2414     -890     -784    -2053    -4013    -5768 
   -6750    -6731    -5687    -3662     -907     1789     3457     3855 
    3628     3670     4454     5520     5853     5066     3730     2496 
    1353     -130    -2010    -3775    -4849    -5119    -5247    -6036 
   -7320    -8256    -8327    -7428    -5754    -3977    -2792    -2324 
   -2380    -2938    -4151    -5994    -7978    -9518   -10448   -10906 
  -11073   -10887   -10056    -8468    -6134    -3205     -450     1230 
    1836     2103     2551     3159     3810     4688     5888     6977 
    7464     7486     7569     7744     7509     6607     5336     4311 
    4060     4567     5452     6578     8102     9883    11077    10855 
    9463     7771     6365     5586     5349     4908     3688     1847 
    -293    -2659    -5210    -7521    -8765    -8598    -7666    -6748 
   -6046    -5368    -4404    -2996    -1487     -424      132      497 
     813      894      483     -534    -1997    -3380    -4172    -4274 
   -3671    -2248     -203     1988     4118     6211     8157     9866 
   11340    12539    13494    14044    13469    11093     7099     2459 
   -1846    -5632    -9253   -12590   -14999   -15907   -15219   -13566 
  -11879   -10582    -9470    -8197    -6818    -5725    -5257    -5570 
   -6411    -7247    -7709    -7590    -7117    -6891    -7066    -7385 
   -7650    -7606    -7052    -5946    -4285    -2142      481     3521 
    6529     8972    10535    11135    11038    10623    10087     9464 
    8705     7854     7010     6048     4709     2821      405    -2290 
   -4958    -7197    -8352    -8104    -6889    -5286    -3582    -1857 
    -228      950     1352     1024      100    -1672    -4393    -7326 
   -9571   -10778   -11051   -10635    -9714    -8500    -7082    -5492 
   -3993    -2426       22     3844     8660    13440    17062    18801 
   18545    16803    14122    10716     6860     2937     -917    -4964 
   -9491   -14157   -18079   -20648   -21851   -21785   -20361   -17646 
  -14154   -10448    -6641    -2750      942     3869     5535     6344 
    7031     7421     7009     5812     4387     3604     4002     5336 
    6718     7568     8369     9548    10586    10861    10091     8214 
    5713     3374     1471     -280    -2101    -3878    -5525    -7325 
   -9685   -12800   -16391   -19786   -22519   -24406   -25230   -24875 
  -23490   -21531   -19578   -17809   -15927   -13596   -10751    -7619 
   -4489    -1450     1469     4141     6553     8908    11393    13899 
   16016    17507    18483    18906    18420    17031    15668    15438 
   16364    17599    18414    18299    16795    13924    10496     7436 
    4883     2266     -793    -3750    -5667    -6319    -6270    -6243 
   -6696    -7552    -8449    -9198    -9668    -9720    -9524    -9330 
   -9105    -8751    -8264    -7960    -8644   -10752   -13739   -16957 
  -20306   -23414   -24943   -23534   -19017   -12377    -5110     1605 
    7322    11948    15458    17671    18275    17590    16680    16406 
   16897    17725    18249    17884    16209    13325     9998     6859 
    3934     1136    -1455    -3501    -4447    -4091    -2933    -2063 
