Origin Time       2011/03/11 14:46:00
Lat.              38.103
Long.             142.860
Depth. (km)       24
Mag.              9.0
Station Code      HKD087
Station Lat.      43.1502
Station Long.     143.8916
Station Height(m) 170
Record Time       2011/03/11 14:48:07
Sampling Freq(Hz) 100Hz
Duration Time(s)  300
Dir.              N-S
Scale Factor      3920(gal)/6182761
Max. Acc. (gal)   9.486
Last Correction   2011/03/11 14:47:52
Memo.             
[...]
    1331     2242     3258     4644     5925     6580     6521     5889 
    4959     4207     4191     4997     5732     5321     3740     1667 
    -273    -1401    -1313     -533      -12      -45     -210     -142 
     134      369      225     -554    -1994    -3690    -4816    -4897 
   -4169    -2965    -1562     -432       53      -32     -184      -86 
    -252    -1090    -1737    -1048      934     3244     4860     5156 
    4320     3240     2772     3366     4857     6532     7754     8152 
    7405     5584     3503     2316     2571     3699     4849     5662 
    6021     5962     5735     5363     4484     2768      192    -2763 
   -4978    -5738    -5433    -4345    -2307       51     1549     1815 
    1307      707      850     2317     4725     6946     7926     7222 
    5248     3045     1485      668      428      822     1650     2325 
    2221      961    -1036    -2851    -4091    -4617    -3994    -2367 
    -750      208      611      578      175     -376     -969    -1742 
   -2542    -2769    -2300    -1705    -1298    -1087    -1135    -1139 
    -654      276     1411     2579     3451     3618     2895     1378 
    -564    -2326    -3442    -3740    -3023    -1291      647     1737 
    1855     1528      920       16     -819    -1157     -858      -95 
     654     1084     1393     1745     2079     2529     3106     3203 
    2278      927      492     1354     2550     3228     3458     3532 
    3358     2858     2431     2511     3065     3672     3781     3115 
    1983     1183     1517     2784     3645     3431     2981     3040 
    3329     3385     3106     2783     3043     4214     5902     7519 
    8693     9157     8922     8475     8387     8955    10163    11600 
   12670    12993    12388    11043     9719     9109     9301     9980 
   10462     9833     7671     4474     1338     -750    -1824    -2764 
   -3675    -3475    -1330     2424     6502     9352    10007     8571 
    5911     3168     1484     1465     2946     5334     7421     7676 
    5766     2833      406     -414      299     1527     2575     3288 
    3550     3388     2959     2376     1828     1507     1544     2155 
    3208     4133     4745     5252     5802     6638     7785     8594 
    8442     7388     5959     4823     4332     4153     3714     2767 
    1316     -292    -1051     -133     1962     3904     4709     4407 
    4007     4306     5006     5557     5895     5998     5778     5276 
    4374     2953     1266     -653    -3095    -5818    -8153    -9484 
   -9277    -7701    -5695    -3858    -2239    -1010     -469     -470 
    -308      450     1331     1710     1737     1887     2037     1628 
     528     -813    -1887    -2463    -2553    -2322    -1989    -1645 
   -1109     -109     1468     3525     5635     7244     8082     7983 
    6845     4948     2850     1285      813     1176     1486     1021 
    -225    -1613    -2659    -3235    -2927    -1307     1090     3063 
    4058     4464     4753     5030     5226     5321     5482     5840 
    6162     6076     5476     4621     3795     2968     1953      659 
    -669    -1483    -1612    -1311     -697      239     1430     2581 
    3401     4188     5320     6381     6721     6254     5093     3348 
    1615      799     1434     3211     4961     5484     4549     3068 
    2271     2637     3695     4727     5399     5565     4929     3410 
    1343     -694    -2115    -2841    -3067    -2733    -2050    -1473 
    -871       25      806      985      662      253      338     1310 
    2658     3563     3968     4186     4236     4073     3698     3072 
    2435     2017     1512      795      151     -409     -835     -890 
    -867    -1054    -1014     -559     -170      -27       37      -14 
    -201     -360     -376     -284     -170     -158     -424    -1075 
   -2189    -3681    -4919    -5219    -4700    -3927    -3152    -2310 
   -1293     -163      856     1546     1818     1774     1502      960 
     276     -184      -45      848     2113     2921     2801     1980 
     871      -38     -230      254      889     1232     1046      579 
     442      710      914      763      327     -167     -748    -1618 
   -2472    -2724    -2265    -1353     -206      831     1310     1128 
     592      382     1103     2256     2744     2290     1230      -60 
   -1083    -1591    -1825    -1770     -920      874     3007     4686 
    5449     5275     4537     3824     3587     3920     4497     4627 
    3975     3117     2701     2746     3092     3639     4378     5260 
    5775     5419     4439     3452     2819     2578     2613     2826 
    3288     3994     4546     4582     4142     3324     2303     1632 
    1867     3119     5103     7272     9047    10175    10522    10000 
    9050     8361     8006     7455     6313     4675     2858     1138 
    -267    -1141    -1279     -837     -561     -967    -1510    -1404 
    -729      -61      219       53     -209       45     1191     2959 
    4450     4890     4602     4685     5625     6849     7535     7380 
    6690     5996     5655     5735     6157     6847     7659     8359 
    8678     8366     7506     6757     7025     8761    11299    13029 
   12834    11139     9112     7496     6399     5625     5124     4767 
    3990     2502      708     -649     -807      347     1933     3072 
    3674     4062     4590     5490     6488     6949     6616     5693 
    4478     3256     2383     2458     3873     5901     7183     7209 
    6456     5397     4288     3392     2783     2524     2747     3028 
    2628     1469      128     -705     -509      911     3417     6366 
    8639     9385     8616     6988     5448     4745     4853     5201 
    5168     4185     2397      937      544      734      752      432 
     112      277     1172     2579     3933     4734     4678     3433 
    1007    -1905    -4384    -5700    -5683    -4858    -3813    -2896 
   -2445    -2703    -3517    -4198    -3939    -2684    -1287     -556 
    -667    -1471    -2643    -3700    -4162    -3777    -2676    -1205 
     292     1532     2307     2515     2463     2760     3701     5171 
    6675     7398     6920     5540     3883     2631     2237     2570 
    3090     3363     3289     2938     2302     1399      481     -394 
   -1488    -2694    -3440    -3262    -2363    -1603    -1492    -1664 
   -1526     -804      249      973      999      692      651      916 
    1114     1076      765      208     -344     -655     -608     -209 
     272      538      434     -104     -837    -1302    -1251     -627 
     660     2452     4164     5510     6674     7434     7400     6721 
    5556     3857     1708     -564    -2031    -1641      360     2661 
    4319     5074     4959     4182     3017     1789      945      736 
     834      722      250     -579    -1802    -3253    -4366    -4266 
   -2601     -150     1993     3318     3804     3535     2650     1701 
    1467     2067     2843     3152     2756     1861     1121     1063 
    1447     1834     2218     2537     2594     2531     2391     1804 
     885      473     1052     2306     3644     4481     4396     3442 
    1823     -303    -2333    -3602    -3971    -3428    -2246    -1264 
    -979    -1268    -1874    -2188    -1606     -351     1162     2723 
    3681     3494     2568     1655     1092      930     1214     1873 
    2410     2163     1226      405       74       82      351      793 
    1305     1866     2230     2006     1102      -41     -735     -858 
    -980    -1452    -1951    -2017    -1600     -976     -549     -751 
   -1720    -3038    -4023    -4307    -4059    -3639    -3231    -2810 
   -2231    -1436     -584       71      314      237      253      488 
     617      375      -37     -234     -349     -961    -2216    -3493 
   -3948    -3277    -1815      -37     1480     2005     1329      130 
    -708     -905     -806     -681     -304      549     1523     1976 
    1672      927      291      124      343      780     1388     1813 
    1547      698      -38     -292     -351     -495     -660     -708 
    -653     -677     -797     -659       46     1212     2408     3341 
    4132     4902     5475     5743     5963     6436     6934     6889 
    6120     4843     3311     1908     1232     1749     3392     5570 
    7505     8517     8434     7741     7085     6809     6879     7048 
    7165     7258     7293     6983     6040     4611     3132     2039 
    1686     1935     2262     2635     3437     4513     5269     5415 
    5008     4274     3605     3291     3460     4247     5486     6683 
    7698     8708     9572    10041    10062     9588     8835     8301 
    8125     8127     8270     8620     9341    10628    12219    13441 
   13837    13538    13045    12669    12378    11922    11026     9914 
    9123     8755     8703     8959     9396     9968    10777    11672 
   12256    12346    12067    11670    11402    11189    10753    10290 
   10221    10414    10437    10102     9367     8291     7175     6372 
    6038     6177     6613     6942     6889     6500     5923     5417 
    5378     5920     6674     7171     7136     6500     5483     4505 
    3917     3908     4347     4860     5242     5549     5828     5696 
    4635     3032     1864     1377     1254     1521     2315     3284 
    3801     3629     3019     2297     1723     1481     1597     1839 
    1781     1338      985     1088     1406     1470     1050      199 
    -714    -1181    -1044     -618     -434     -791    -1406    -1652 
   -1105      145     1458     1930     1153     -418    -1954    -2745 
   -2567    -1748     -636      411      678     -288    -1975    -3379 
   -3860    -3508    -3007    -2807    -2584    -1994    -1208     -444 
      64     -129    -1192    -2622    -3540    -3316    -2110     -762 
     -50     -169     -878    -1802    -2604    -3145    -3378    -3322 
   -3284    -3495    -3743    -3826    -3860    -4080    -4604    -5336 
   -6128    -6858    -7247    -7023    -6236    -5200    -4190    -3281 
   -2535    -2194    -2377    -2861    -3226    -2986    -1914     -389 
     853     1327     1087      594      150     -374     -851     -606 
     657     2273     3217     2970     1764      272     -893    -1382 
    -986      112     1242     1933     2089     1718      987      149 
    -452     -296      870     2610     4078     4745     4762     4577 
    4470     4431     4350     4225     4020     3619     3118     2748 
    2557     2547     2781     3137     3579     4397     5387     5710 
    5101     4170     3550     3436     3631     3763     3672     3320 
    2539     1420      451       16      113      484      967     1638 
    2395     2856     2828     2495     2164     1884     1467      967 
     745      991     1414     1508     1077      310     -306     -223 
     606     1715     2645     3301     3872     4415     4928     5574 
    6366     7107     7571     7569     7083     6157     4989     4094 
    3829     4153     4853     5537     5939     6188     6342     6346 
    6440     6857     7440     7880     7890     7371     6636     6109 
    5975     6280     6947     7775     8622     9391     9813     9584 
    8774     7781     6924     6356     6239     6545     6849     6791 
    6451     6101     5876     5605     5201     5088     5551     6274 
    6849     7082     7024     6863     6537     5803     4812     4089 
    3835     3781     3703     3551     3421     3530     3941     4595 
    5464     6393     7097     7316     6902     5963     4870     4019 
    3631     3669     3900     4173     4422     4391     3858     3029 
    2276     1741     1472     1430     1313     1005      920     1426 
    2452     3716     4835     5402     5246     4497     3509     2758 
    2527     2732     3136     3411     3288     2884     2428     1871 
    1217      760      718      875      751      185     -464     -723 
    -302      826     2279     3453     3942     3587     2474      952 
    -493    -1261     -972       37     1085     1822     2108     1793 
     963       76     -293       80      856     1531     1882     1827 
    1176       99     -607     -428      287      996     1326      941 
    -230    -1821    -3289    -4288    -4682    -4372    -3453    -2286 
   -1262     -639     -527     -957    -1808    -2672    -3224    -3468 
   -3394    -2976    -2503    -2383    -2808    -3577    -4140    -4197 
   -4016    -3738    -3082    -1966     -839     -192      -78     -233 
    -383     -277      259     1090     1754     1866     1430      636 
    -271     -814     -637      -61      289      234       19     -112 
      17      536     1340     2142     2722     2890     2599     2316 
    2480     2733     2615     2289     2067     2035     2106     2070 
    1860     1630     1467     1350     1368     1585     1883     2127 
    2174     2005     1892     2014     2356     2918     3618     4365 
    5047     5377     5318     5301     5664     6331     6939     7066 
    6795     6694     6966     7359     7780     8253     8643     8891 
    9243     9854    10550    11105    11277    10867     9937     8687 
    7443     6756     6954     7820     8851     9424     9094     8098 
    7188     6796     6745     6801     6936     7084     7251     7590 
    8168     8942     9750    10378    10897    11554    12244    12607 
   12614    12550    12552    12599    12850    13499    14367    15226 
   16182    17127    17416    16570    14820    12944    11679    11122 
   10948    11096    11593    12125    12307    12003    11289    10271 
    8977     7645     6721     6380     6465     6641     6501     6028 
    5640     5457     5089     4203     2874     1548      741      513 
     635     1160     1928     2274     2059     1807     1689     1504 
    1282     1211     1382     1782     2339     2865     3103     3070 
    3024     3084     3202     3320     3457     3730     4150     4481 
    4456     3906     2758     1292       74     -658    -1085    -1407 
   -1772    -2389    -3389    -4644    -5821    -6508    -6413    -5656 
   -4740    -4136    -3902    -3836    -3926    -4267    -4812    -5491 
   -6147    -6466    -6328    -5877    -5348    -5101    -5293    -5533 
   -5373    -4871    -4292    -3692    -3047    -2470    -2219    -2430 
   -2878    -3260    -3455    -3367    -2882    -2024     -967       72 
     898     1185      636     -566    -1849    -2729    -2941    -2387 
   -1124      582     2198     3229     3585     3377     2665     1681 
     976     1110     2067     3158     3805     4103     4394     4753 
    5036     5199     5401     5637     5475     4525     3003     1555 
     726      703     1255     1983     2645     2987     2636     1607 
     425     -477    -1094    -1585    -1904    -1757    -1000      -43 
     553      688      463       52      -43      482     1300     2004 
    2503     2896     3297     3661     3805     3774     3837     4196 
    5034     6252     7128     7123     6489     5550     4511     3861 
    3907     4413     5086     5631     5600     4924     4080     3568 
    3694     4394     5102     5360     5296     5195     5133     5134 
    5190     5172     5074     4940     4593     4098     3942     4304 
    4960     5778     6542     6799     6317     5271     4004     2937 
    2357     2114     1896     1729     1797     1987     2034     1896 
    1671     1547     1887     2785     3781     4359     4273     3527 
    2518     1882     1885     2329     2964     3558     3929     4115 
    4159     4046     3976     4144     4374     4362     4017     3478 
    2967     2447     1716      959      615      879     1616     2548 
    3540     4490     5025     4884     4313     3705     3200     2811 
    2756     3250     4086     4842     5236     4918     3607     1770 
     373      -29      673     2374     4418     5829     6203     5797 
    4993     4100     3289     2539     1843     1430     1799     3242 
    5305     7074     7952     7962     7380     6408     5309     4437 
    3951     3869     4285     5094     5669     5298     4014     2624 
    2012     2532     3874     5517     7079     8173     8599     8439 
    7732     6662     5656     4898     4405     4294     4448     4369 
    3675     2581     1832     1926     2508     2989     3395     3953 
    4361     4063     2893     1280      -79     -748     -674     -131 
     306      194     -470    -1450    -2328    -2599    -2114    -1271 
    -773    -1082    -1994    -2931    -3547    -3762    -3423    -2462 
   -1369     -814     -874    -1241    -1711    -2083    -2047    -1409 
    -444      255      480      365      -65     -655    -1017     -948 
    -552        3      611     1104     1413     1691     1910     1824 
    1428     1054     1102     1602     2187     2503     2239     1194 
    -224    -1153    -1059      -65     1193     2031     2392     2636 
    2682     2223     1402      570      -27     -167      257     1059 
    1752     1870     1454      966      700      711     1109     1981 
    3270     4700     5765     6227     6384     6530     6660     6702 
    6618     6391     6018     5611     5503     5927     6684     7337 
    7523     7070     6125     5176     4577     4293     4279     4457 
    4462     3966     3079     2173     1487     1070      947     1061 
    1173     1154     1210     1497     1847     2010     1828     1304 
     607      -97     -619     -734     -408      273     1210     2010 
    2144     1536      489     -656    -1348    -1033      178     1679 
    3000     3944     4502     4691     4440     3924     3720     4200 
    5146     6192     7095     7613     7706     7621     7459     7108 
    6465     5478     4331     3396     2766     2336     2271     2806 
    3731     4574     5079     5297     5473     5705     5718     5379 
    5178     5511     5900     5760     5323     5252     5862     6782 
    7334     7240     6579     5542     4478     3765     3642     4010 
    4444     4775     5129     5355     5080     4207     3123     2359 
    2085     2111     2171     2045     1527      444     -975    -2163 
   -2863    -3045    -2673    -2059    -1608    -1331    -1067     -638 
     151     1204     2151     2654     2461     1687     1006      879 
    1093     1379     1707     2098     2627     3272     3772     3896 
    3756     3700     3987     4599     5232     5547     5514     5300 
    4882     4138     3146     2217     1728     1865     2475     3205 
    3678     3754     3751     4067     4687     5320     5779     6029 
    6039     5805     5452     5266     5658     6768     8191     9295 
    9461     8379     6487     4702     3564     2907     2266     1335 
     269     -388     -270      538     1652     2554     3013     3373 
    4042     4985     5947     6792     7431     7750     7660     7175 
    6470     5837     5528     5618     6178     7273     8527     9380 
    9765     9863     9778     9677     9580     9225     8491     7597 
    6876     6449     6170     6003     5973     5865     5667     5705 
    5997     6189     5968     5294     4507     4010     3805     3671 
    3473     3057     2327     1613     1487     1970     2522     2727 
    2459     1956     1831     2441     3581     4781     5416     5119 
