Origin Time       2011/03/11 14:46:00
Lat.              38.103
Long.             142.860
Depth. (km)       24
Mag.              9.0
Station Code      HKD068
Station Lat.      43.4108
Station Long.     144.7704
Station Height(m) 105
Record Time       2011/03/11 14:48:08
Sampling Freq(Hz) 100Hz
Duration Time(s)  300
Dir.              N-S
Scale Factor      3920(gal)/6182761
Max. Acc. (gal)   26.337
Last Correction   2011/03/11 14:47:53
Memo.             
[...]
   23756    22632    22249    22938    24437    26272    28220    30011 
   31380    32436    33367    33892    33653    32926    32194    31473 
   30506    29268    27943    26561    25211    24210    23636    23305 
   23002    22569    22263    22400    22739    23069    23410    23595 
   23770    24568    26234    28160    29471    29873    29738    29387 
   28932    28772    29261    30154    31127    32050    32510    32143 
   31168    29875    28275    26483    24682    22722    20615    19063 
   18784    19843    21749    23758    25155    25641    25650    26086 
   27424    29112    30134    30019    29083    27963    27031    26324 
   25872    25840    26279    27081    28364    30303    32429    33764 
   33977    33570    32627    30898    28687    26454    24507    23153 
   22538    22682    23385    24126    24518    24731    25297    26403 
   27614    28480    28927    29131    29325    29398    28852    27579 
   26249    25364    24601    23989    24347    25662    26725    26717 
   25824    24469    22943    21702    21192    21444    22401    24046 
   26078    28094    29770    30782    31117    31341    31898    32380 
   32074    30931    29504    27979    25959    23596    22013    22042 
   23449    25732    28254    29846    30084    29749    29252    28525 
   28050    28278    28579    28079    27189    26844    27116    27625 
   28085    28173    27990    28303    29208    29831    29968    29926 
   29422    28307    26912    25401    24049    23522    24136    25293 
   26138    26634    27121    27010    25384    22748    20902    20820 
   21768    23032    24653    26132    26801    27225    28100    28677 
   28159    27393    27490    28130    28370    28098    28012    28395 
   28798    29054    29244    29169    28946    29238    30343    31767 
   32895    33371    32995    31854    30207    28379    26764    25516 
   24595    24019    23819    23956    24303    24890    25898    27172 
   28484    30029    31679    32519    32161    31454    30965    30060 
   28368    26763    26015    25956    26491    27538    28204    27636 
   26093    24497    23425    23064    23648    24960    26130    26594 
   26451    26042    25601    25168    24714    24032    22850    21571 
   21200    22116    23844    26038    28379    30135    31017    31478 
   31927    32511    33281    34052    34270    33604    32662    32181 
   31830    30947    29553    27969    26652    26314    27197    28677 
   29855    30160    29622    28663    27487    25982    24074    21955 
   20045    18622    18025    18810    20769    22914    24700    26102 
   27185    28144    28949    29350    29458    29437    29107    28326 
   27279    26384    25937    26017    26679    27762    28792    29126 
   28342    26841    25273    23672    22160    21436    22031    23908 
   26713    29723    31652    31632    30062    27842    25848    24658 
   24114    24020    24616    25865    27059    27560    27556    27522 
   27768    28427    29108    29274    28918    28441    28213    28177 
   27965    27589    27452    27439    26984    26092    25321    24917 
   24537    23936    23255    22336    21149    20666    21643    23518 
   25482    27317    28854    29751    30040    29908    29053    27342 
   25359    23664    22456    21768    21665    22557    24681    27289 
   29353    30849    32252    33313    33490    32814    31491    29646 
   27977    27252    27059    26695    26368    26095    25279    24074 
   23234    22799    22428    22156    21920    21521    21432    22486 
   24653    26883    28327    28963    29042    28764    28408    28230 
   28277    28433    28580    28740    28959    29064    28827    28330 
   27840    27337    26592    25914    26024    26971    27906    28048 
   27596    27274    27299    27410    27295    26814    26055    24934 
   23421    22165    21730    22009    22976    24552    26134    27427 
   28648    29645    29959    29623    29216    29354    30328    31809 
   32879    32890    32281    32079    32522    32920    32829    32405 
   31944    31274    29448    26216    22963    20969    20278    20425 
   20984    21841    23190    24933    26407    27023    26655    25240 
   22889    20584    19524    19741    20590    21698    22596    23114 
   23669    24144    24097    23871    24080    24681    25420    26563 
   28162    29579    30695    32192    34087    35252    34916    33720 
   32888    32938    33168    32547    31031    29336    28208    28045 
   28471    28794    28806    28697    28567    28352    28180    28253 
   28493    28673    28352    26922    24035    20025    16165    13691 
   12761    13225    15012    17721    21148    25110    28733    31289 
   32619    32411    30637    28309    26644    25821    25465    25553 
   25831    25728    25092    24229    23860    24792    26937    29142 
   30273    30149    29548    29425    29962    30634    30913    30619 
   30101    29871    30008    30326    30613    30658    30480    30210 
   29772    29210    28610    27785    26987    26761    27070    27738 
   28575    28885    27839    25249    21995    19311    17661    16915 
   16674    16463    16605    17862    20004    21982    23270    24173 
   24881    25327    26009    27629    30165    32850    34670    35087 
   34362    32960    31205    29700    28901    28570    28801    30061 
   31852    33351    34495    35261    35105    33421    30174    26138 
   22579    20627    20333    20661    21126    22116    23648    25571 
   27835    29617    30036    29736    29927    30369    30168    29555 
   28986    28095    26913    26252    26250    26162    25822    25900 
   26631    27462    27814    27625    27500    28096    29256    30272 
   30749    30733    30446    30226    30161    29822    28755    26890 
   24635    22860    21976    21402    20835    20760    21290    22191 
   23682    25894    28329    30680    33039    34997    35767    35189 
   33896    32705    31961    31386    30589    29491    28088    26350 
   24659    23659    23637    24594    26283    27862    28532    28448 
   27952    26796    24921    22887    21302    20514    20706    22077 
   24438    26757    28108    28583    28637    28362    27776    27433 
   27760    28072    27720    26953    25898    24703    23914    23438 
   22779    22659    24557    28395    32435    35484    37135    36743 
   34497    32095    30818    30108    28721    26565    24467    22834 
   21832    21761    22556    23831    25173    26068    26183    25842 
   25651    25753    25796    25133    23445    21428    20026    19541 
   19809    20430    21250    22706    25170    28202    30766    32357 
   33253    33391    32527    31290    30707    31194    32465    33988 
   35198    35567    34834    32927    29868    26024    22361    20123 
   19744    20504    21510    22306    22418    21310    19430    18250 
   18368    18583    17985    17637    18906    21716    25382    29440 
   33107    35349    35987    35632    34564    32953    31551    30882 
   30458    29703    28830    28428    28917    30283    31955    33082 
   33173    32350    30784    28446    25588    22729    20440    19189 
   18733    18334    17893    17858    18510    19794    21190    22358 
   23588    24891    26060    27421    29100    30527    31275    31770 
   32756    34002    34624    34582    34419    34158    33355    31909 
   30192    28321    26043    23413    21008    19366    18680    19145 
   20626    22074    22474    21791    20540    19459    19579    21528 
   24746    28255    31671    34647    36479    36774    35650    33361 
   30199    27020    25132    25065    26285    28139    30353    32725 
   34671    35486    35099    34210    33190    31298    28114    24571 
   21776    20238    20078    20983    22400    23857    25100    26253 
   27618    29150    30265    30414    29716    28385    26610    25365 
   25155    24849    23742    22533    21752    21413    21430    21561 
   21886    22976    24671    25694    25009    22531    19005    15690 
   13783    14333    17875    23719    30345    36375    41129    44377 
   45807    45156    42577    38505    33554    28772    25211    23219 
   22134    20266    16923    13948    12960    13426    14502    15913 
   17349    19102    22365    27269    31749    33731    33212    31830 
   31102    31135    31551    32276    32872    33269    34309    36383 
   38523    39124    37518    34119    29553    25103    22239    20809 
   19561    18046    16871    16522    16849    17710    19020    20407 
   21297    21365    20980    20382    19645    19693    21104    23241 
   25469    27769    30420    33085    34758    35150    34781    34147 
   33408    32152    29877    26716    23202    19875    17511    17128 
   19124    22748    26824    30635    33944    36499    37707    37123 
   35023    31651    26866    21325    16335    12473     9689     8107 
    8040     9705    13021    17827    23766    29557    33610    35673 
   36767    37576    37773    36797    34499    31167    27524    24329 
   21751    19597    17904    16982    17157    18177    19137    19729 
   20686    22399    24201    25400    25931    25901    25637    25437 
   24687    22943    20924    19185    17879    17775    19674    23634 
   28773    32976    34404    33111    29986    25631    20378    14706 
   10317     9394    12429    18410    26013    33634    39736    43728 
   46076    47378    47575    46426    43912    39865    34729    30074 
   27225    26484    27656    30209    32880    33931    32381    28584 
   23423    17621    12060     7826     5690     5961     8422    12463 
   17557    23077    28155    32604    36678    39916    42280    44881 
   48058    50712    51335    48920    43527    36145    28438    22008 
   17092    12921     9597     8606    10844    14954    18663    20418 
   19756    18152    18345    21695    26943    31635    34736    36869 
   38147    37923    36010    32347    26968    21089    16878    15872 
   17918    21910    27095    32356    35733    36747    36738    36187 
   34814    33250    32341    31934    31127    29581    27759    26008 
   24541    23393    22146    20500    18742    17601    17546    18595 
   20894    24225    27607    30308    32369    34101    35547    36527 
   37061    37306    37286    37136    37465    38748    40266    40710 
   39702    37642    34530    30001    24490    19485    16005    13822 
   12686    12613    13084    13695    14714    15980    16571    16147 
   15461    15217    15537    16779    19572    23954    29609    36230 
   42537    46510    47461    46132    42930    37889    32103    27782 
   26080    25645    24718    23393    22719    23067    23651    23368 
   22177    20961    20531    21171    22356    22727    21101    18142 
   15924    15871    18620    24073    30552    36320    41402    46045 
   49344    50517    49091    44481    37469    30069    23603    18735 
   15922    14791    14552    15187    17086    19785    22791    27193 
   33769    40404    44223    44701    42487    37362    29230    19601 
   10664     4100     1077     2034     6656    13615    20437    25828 
   30265    33097    33572    33433    33846    33034    29027    22140 
   14789     9620     8239    10961    16088    21372    26943    33824 
   40809    45791    48249    48628    47070    43635    38752    33113 
   27238    21728    17935    17078    18795    21584    24495    27278 
   29575    31747    34565    36797    36278    32842    27607    21995 
   18115    16789    16046    13804    10324     7119     5516     6352 
    9270    12606    14892    16367    18994    24542    32346    39606 
   43734    43999    41505    38360    36829    38161    41325    43897 
   44759    44507    43482    41461    38732    35650    31966    27590 
   22914    18570    15197    12354     9006     5648     3400     2227 
    2341     4856    10031    16806    23664    29124    32575    35171 
   38469    41966    44206    45319    45928    45737    44227    40813 
   34804    26512    18395    13380    11704    12197    15354    21643 
   29404    36968    44156    50110    52218    49490    44036    37792 
   31776    27405    25398    25051    25286    25438    24924    22910 
   18911    13771     9175     6029     4479     4676     6604     9566 
   12129    13456    14430    16487    20059    24635    29274    32917 
   35108    36463    37937    39210    38623    35266    30161    25748 
   24293    25780    28192    30211    32271    35072    38200    40445 
   41447    42098    42749    43204    44229    46369    48412    48315 
   44929    38683    31192    24784    20819    18003    14712    11770 
   10022     8376     6410     5083     5154     6925    10228    14823 
   20789    27984    35696    42486    46681    47818    46981    45055 
   41468    35649    28818    23048    19264    16817    14696    12726 
   11216    10271    10140    11502    14708    18819    22352    25185 
   28064    30831    33052    34914    36550    37933    39618    42802 
   47959    53681    57684    58838    57562    54260    48360    39134 
   27015    14508     5051      434      904     6799    17594    30522 
   41502    47599    49094    47915    44723    39468    32622    24933 
   17006     9500     4443     3482     4978     6957    10133    15068 
   20132    23551    24539    22504    17384    10493     3811     -867 
   -2129      199     4704     9828    15943    24421    33880    41046 
   45454    49126    52949    56688    60742    65111    68172    68466 
   65751    59459    49021    36381    25405    17887    12693     8844 
    6379     5433     6519     9845    14373    18328    20016    19440 
   19068    21356    26194    30908    32209    28943    22670    15881 
   10691     7841     6854     7950    12059    18857    27019    35552 
   42827    46409    44991    39082    30945    23720    19277    17668 
   17949    19009    20525    22693    25215    27452    28673    28298 
   26892    25819    25709    26297    27535    29922    33605    37822 
   41216    42722    42367    41005    39555    38456    37418    35651 
   32673    29321    27114    26385    26319    25942    24306    21012 
   16617    12469    10115     9966    11051    12531    14420    16823 
   19610    22689    25536    27172    27738    28707    31271    35681 
   41098    45412    46310    43203    37978    33360    30800    30275 
   31319    33326    35534    37578    38804    37336    32379    25969 
   20650    17342    15438    14052    13341    13843    15616    18472 
   21700    24352    25580    24681    22459    21428    23779    29844 
   37656    44106    47543    48286    46596    42238    35517    27354 
   19344    13473    10701    10667    12823    16833    21644    25386 
   26826    25913    23153    19477    16240    14548    14264    14612 
   16288    20890    27482    32415    33112    29983    25248    21358 
   20101    22179    26891    32733    38292    42433    44846    45836 
   45280    43016    39415    34954    30019    25614    23473    24055 
   26069    28567    30695    31347    31145    31685    32890    33439 
   33256    34059    36525    38795    38836    35825    30107    23355 
   17172    12201     8855     7286     7183     8402    11290    15572 
   19829    23302    26190    27945    28024    27134    26103    25028 
   23504    21178    18600    17257    18442    21905    25680    27924 
   28656    29292    30886    32905    34112    34262    33619    31827 
   28707    25031    21782    19701    19134    19413    19611    19638 
   19999    21608    24750    27901    29684    30543    31013    30698 
   29537    28300    27620    27789    29166    31316    32687    32141 
   29782    26229    22035    18057    15151    13331    12653    13730 
   16659    20920    25703    30280    35246    41937    49478    54633 
   55409    52006    44829    34978    25249    18071    13361     9653 
    6814     5816     6421     7386     8261     9752    12356    14987 
   16359    16981    17580    17370    16057    15171    16789    22324 
   31559    42841    53899    62020    65673    65579    63019    59094 
   55007    50927    45966    39875    33622    28722    26065    24707 
   22622    19163    15634    13727    14281    16428    18139    18730 
   19576    21797    24653    26553    26779    25781    24538    24268 
   25884    29180    32901    35680    36807    35917    32737    28341 
   25202    24479    24804    24496    23473    22342    20912    18806 
   16737    15887    16699    18983    22038    24645    25996    26443 
   27031    28187    29235    29573    29565    29843    30370    30802 
   31252    31784    31854    31293    30916    31186    31146    29448 
   25945    21914    18816    17107    16320    15892    15514    14890 
   13778    12861    14279    19632    27280    33645    37270    39512 
   41480    42697    42934    43051    43656    44382    44477    43253 
   40011    34560    28027    21941    16693    11907     7781     5241 
    5051     7318    11422    16352    21644    27089    31917    35588 
   37994    38650    37211    34089    30215    26742    24239    22588 
   21852    21892    21822    20871    19377    18724    20023    22989 
   26477    29827    33018    35770    37632    38652    38816    37024 
   32291    25809    19612    14358    10264     8000     8007    10124 
   13287    16314    19512    24003    29800    35352    38734    38981 
   36413    32186    27131    21178    14728     9420     6579     6211 
    8184    12937    20052    27470    33257    36947    38934    40264 
   42077    43918    44711    44955    45529    46291    46670    45755 
   42515    36969    30335    23516    16884    11485     8328     7300 
    7694     8868    10381    11697    12456    13029    13938    15453 
   17956    21695    26265    30652    33854    35696    36815    37567 
   37522    36616    35767    35383    35129    35576    37479    40049 
   42315    44729    47488    48897    47036    41795    34708    27649 
   21276    15284    10458     8438    10147    15780    24373    33058 
   38656    39797    36821    31075    24730    19639    16230    14138 
   13296    13745    14726    15390    15641    15228    13970    12700 
   12361    13156    15262    19187    24282    28736    31964    34526 
   36696    38850    41152    43131    44718    46070    47025    47797 
   48401    47544    43994    38592    33368    29379    26922    26373 
   27229    28117    28303    27826    26759    24845    21646    17357 
   13104    10274     9869    12260    17688    26297    36436    44722 
   49310    51161    51413    49639    45791    41145    36082    30358 
   25012    20800    17009    13379    10671     9037     7786     6774 
    6711     8311    11581    15746    20504    26237    31537    33824 
   33507    33088    32978    32399    31785    31693    32353    34164 
   36482    37511    36148    32885    29281    26591    24673    23022 
   21892    20990    19247    17031    16297    18721    24726    32895 
   40440    45360    47798    49218    50269    49671    45754    37908 
   26547    13769     2790    -4761    -9542   -12691   -14382   -14267 
  -12503    -9420    -5336     -856     3952     9839    17221    25156 
   32161    38137    44031    50437    57069    62333    64818    64994 
