Origin Time       2011/03/11 14:46:00
Lat.              38.103
Long.             142.860
Depth. (km)       24
Mag.              9.0
Station Code      HKD080
Station Lat.      43.5077
Station Long.     144.4485
Station Height(m) 140
Record Time       2011/03/11 14:48:05
Sampling Freq(Hz) 100Hz
Duration Time(s)  300
Dir.              E-W
Scale Factor      3920(gal)/6182761
Max. Acc. (gal)   17.447
Last Correction   2011/03/11 14:47:50
Memo.             
[...]
   -7130    -7929    -7945    -8870    -8440    -6620    -6872    -8029 
   -7649    -6871    -5730    -4674    -5758    -7644    -8944    -9969 
   -8892    -6213    -4890    -3704    -1859    -2264    -4339    -5103 
   -5037    -5382    -5717    -5680    -5260    -4540    -3822    -3603 
   -4068    -4617    -5131    -5793    -5307    -3326    -1894    -1999 
   -3680    -6816    -9384   -10027    -9255    -7646    -6656    -6349 
   -4581    -1532     1016     2432     2175      -41    -2885    -4903 
   -6334    -6967    -6297    -6089    -6959    -7690    -8784    -9777 
   -9104    -7676    -6026    -3269     -349     1520     2907     3821 
    3245     1444     -619    -2165    -2354    -2265    -3715    -6688 
  -10777   -13669   -12021    -8700    -8918   -10935   -11085   -10036 
   -8262    -4952    -2252    -2761    -5167    -6592    -5798    -3642 
   -1812     -893    -1641    -4633    -6740    -4629      260     3878 
    3180    -1130    -5304    -7158    -6716    -4395    -2053    -2252 
   -4477    -5954    -6064    -5571    -3944    -1736    -1354    -3008 
   -4633    -5553    -6814    -9047   -11161   -12186   -13347   -14896 
  -14854   -13407   -12423   -11409    -8951    -6250    -6619    -9777 
  -10489    -7772    -6245    -6880    -7879    -9520   -11128   -10306 
   -6004      144     4239     4370     2810      639    -2808    -4832 
   -3196     -523      901      986     -432    -2456    -4017    -4905 
   -4366    -2571     -312     2810     5256     4186      932    -1177 
   -1773    -2140    -2734    -3149    -3312    -4104    -6034    -8812 
  -12114   -14607   -14777   -12843    -9240    -5100    -2881    -2582 
   -2732    -3310    -2736     1549     7806    10335     6240     -533 
   -5313    -7515    -7404    -6748    -8037   -10105   -11332   -10607 
   -6602    -2559    -1754    -2108    -2846    -5298    -7766    -8129 
   -6865    -5024    -3259    -2917    -5010    -8641   -12180   -14027 
  -13120   -10484    -8061    -6942    -7128    -7275    -6593    -5943 
   -5959    -6793    -7878    -8167    -8646   -10366   -11398   -10270 
   -7831    -4027     1299     5667     6813     4891     1195    -2039 
   -3169    -2209      913     5440     8280     7040     2667    -2643 
   -6773    -7580    -6198    -7006   -11643   -16864   -18587   -16735 
  -14014   -11157    -8280    -6397    -4695    -2094       10     -338 
   -3112    -6043    -7534    -7877    -6650    -4014    -1747     -958 
   -1667    -1781     -219      207     -775     -959    -1579    -3503 
   -4996    -5942    -6698    -6534    -5875    -5877    -7466   -10635 
  -13400   -14231   -13168    -9964    -5233     -907     1965     3183 
    3545     4247     4061     1525    -1862    -4187    -5402    -6673 
   -8306    -9180    -9577   -10197    -9668    -7925    -6812    -6642 
   -7472    -9687   -12327   -14819   -15685   -12080    -5859    -1456 
     295     -276    -2552    -4468    -4886    -4168    -3554    -4366 
   -5135    -2823      898     1311    -1449    -4109    -5502    -5143 
   -3370    -2887    -5064    -7711    -8082    -4908      164     3092 
    3321     3146     1828     -257      -78      752     -293    -1190 
   -2244    -5519    -8860   -10908   -12320   -11765   -10106   -10354 
  -12113   -14407   -17135   -17604   -14593   -11476   -10403    -9958 
   -8485    -5607    -1858     1578     2895     1474    -1037    -2927 
   -3199    -1391     2202     6870    10264     9774     5826      452 
   -4088    -6466    -7976    -8700    -7788    -7910    -9865    -9973 
   -7650    -5919    -5366    -4375    -3411    -4393    -6145    -5068 
    -150     5817     9426     9491     5738     -711    -4361    -2098 
     923     -363    -4685    -7658    -7176    -6633    -9015   -12268 
  -15609   -17993   -13965    -4557     1386      799    -3605    -9958 
  -15248   -15334    -9573    -1770     3665     5483     5334     5414 
    6727     8378     8903     7098     2359    -3202    -6561    -7808 
   -8406    -9164   -11614   -16179   -19618   -18948   -16065   -14708 
  -15152   -14930   -12094    -5948     1624     5915     4921     1939 
    -400    -2475    -3606    -2862    -1762    -2017    -3321    -3772 
   -2999    -3675    -5833    -5844    -4711    -6714    -9884    -9798 
   -7933    -6209    -2250     2977     3345    -2999   -10773   -14374 
  -13458   -12062   -12682   -13791   -13601   -12036    -9752    -7994 
   -7225    -5725    -2211     1564     2726      688    -2129    -3412 
   -3529    -3156    -2250    -2555    -5108    -7897    -9703   -10567 
   -9208    -4973     -277     1697     1241      324    -2268    -6827 
   -9372    -8865    -8362    -7960    -5591    -3094    -4965   -10598 
  -13480   -11027    -7039    -3198      809     2592      594    -2845 
   -3372     -626       83    -1768     -966     1632     1246     -997 
   -1440    -1549    -3840    -6451    -7627    -7670    -7414    -7746 
   -7128    -4859    -3330    -2809    -2552    -3468    -4738    -3989 
   -1140     1282      890    -2360    -5455    -6284    -7379    -9911 
  -11585   -13221   -15030   -12869    -6911    -1984     -318    -1568 
   -3332    -3472    -3062    -1759      811      885    -1644    -2023 
     250     2379     3915     4475     1644    -3720    -7349    -8893 
  -10029   -10046    -9876   -11776   -15857   -20567   -21249   -14259 
   -3617     5594    11515    11742     7338     2272    -2482    -5145 
   -4191    -2481    -1087      752      998     -778    -3069    -6162 
   -8974   -10344   -12185   -14209   -14227   -12741   -11029    -9322 
   -7181    -6042    -7847    -8887    -6148    -4404    -6350    -7809 
   -6364    -3309      398     3753     6076     6600     4026      848 
   -1586    -7140   -14316   -17398   -16293   -13661   -11146    -8978 
   -5963    -2816     -807     1835     5072     5136     2388      475 
   -1459    -4478    -5721    -5163    -6162    -9384   -12806   -14299 
  -13160   -10255    -6760    -5898   -10597   -16592   -17021   -11245 
   -2108     8370    16943    20155    18240    13101     6939     2576 
   -1439    -6607    -8450    -8189   -11302   -13410   -11511    -9590 
   -5759      744     4868     5700     3273    -1420    -3554    -3871 
   -4618    -2926    -1860    -6429   -11184   -11533   -10357    -7948 
   -4602    -3824    -5854   -10821   -19390   -26981   -29824   -28296 
  -22492   -15914   -13610   -14214   -14898   -14564   -10542    -3933 
    1175     6149    11336    11108     5805     1498    -1175    -2122 
    1374     5694     4102    -3294   -10937   -14286   -13606   -11858 
  -10664   -11424   -13967   -15054   -14397   -13686   -11562    -8987 
   -9508   -11748   -11508    -7860    -3453    -1018     -608    -1809 
   -4012    -4261    -1553     1458     2344      174    -2849    -3431 
   -1883      197     1038    -1698    -7503   -14266   -19427   -19371 
  -14916   -11503   -10642    -9394    -7765    -7375    -5325      116 
    4759     7546    10648    11184     7600     3310     -976    -5826 
  -10841   -16306   -19796   -18908   -16095   -13917   -10351    -1650 
    9690    15818    15052    12146     9291     5769     2357      878 
     957      465    -1290    -3340    -5283    -6970    -6188    -1599 
    3248     4348     1882     -416     1495     6496    10574    11419 
    5565    -6890   -18364   -23622   -22950   -18378   -14627   -15928 
  -20478   -22280   -17590    -9081    -2453      254      779     1125 
    2230     3840     4416      584    -7224   -10719    -6616    -2108 
   -1039     -875     -293      407      477      -89      238     1283 
    2921     6536     8106     2027    -7067    -9382    -3004     5103 
    7385     1871    -8069   -15733   -15288    -8567    -3093    -2356 
   -3878    -4673    -3238      720     4953     5841     2622    -1519 
   -2663       35     3151     3474      846    -4811   -11535   -14790 
  -14639   -15288   -18267   -21767   -24106   -24212   -20243   -13275 
   -7935    -5376    -4049    -4647    -7223    -9050    -8339    -5874 
   -2428      726     1987     3282     5710     6454     6006     5937 
    3371    -2934   -11537   -21069   -26179   -21697   -11504    -4233 
   -4603   -10459   -15130   -15811   -16597   -19486   -20884   -18931 
  -14338    -6075     4979    14001    18770    19528    15347     9050 
    6054     6787     7329     3788    -3887   -11171   -13648   -10575 
   -4427      419    -1281   -10622   -21259   -27487   -29264   -26724 
  -21027   -16876   -16447   -18697   -21975   -21749   -15488    -7983 
   -5149    -7999   -12105   -12229    -8430    -2643     4504     8995 
    6693      880    -2915    -3582    -1507     1608     1566    -3408 
  -10565   -13845    -8558      480     4495     2354    -3361   -10817 
  -16388   -18421   -19063   -19448   -18481   -14511    -6671     3464 
   11120    12001     7393     1171    -4316    -6219    -3610       21 
    2054     1725    -1884    -6265    -7521    -6927    -7280    -8687 
  -11252   -14195   -16061   -17299   -17042   -13670    -8755    -3092 
    3719     8413     9613    10546    11148    10680    11066     9759 
    3818    -3188    -7998   -10449    -9376    -5430    -3904    -7917 
  -13611   -16519   -16066   -12464    -6823    -1697     2646     6163 
    6261     3387     1975     2561      434    -6167   -13917   -19409 
  -19679   -13633    -4554     3732     8366     7460     4029     1681 
   -1374    -5325    -8431   -14246   -22831   -27934   -29032   -27490 
  -21336   -12453    -4620      217      869     -425       14     2535 
    5596     7827     7141     2254    -3749    -6489    -4975      608 
    7676     9424     4241    -2442    -7952   -10910    -9165    -5839 
   -5193    -6991   -10099   -12259   -10879    -9506   -12104   -15063 
  -15487   -14368   -10350    -3485     2314     4960     5451     5935 
    8177    11233    11379     6782       56    -5494    -7567    -5774 
   -3072    -1071     1230     2660      939    -4219   -10697   -14198 
  -12615    -8420    -5106    -5455    -7854    -7293    -6447   -10179 
  -14409   -17183   -19838   -17850   -12301    -9729    -9199    -9096 
   -7556      680    11599    16411    15477    11705     4893    -2708 
   -8709   -15246   -21684   -22684   -17778   -10873    -6681   -10095 
  -17120   -18840   -15470    -8965     2083    12637    16152    13002 
    6720     2647     3951     6068     5075     2338    -3040    -9753 
   -9549    -1867     3554     3314     1792     2061     4391     6102 
    4786     2354     -224    -4942   -10505   -14306   -17885   -22007 
  -24110   -24397   -25253   -26548   -26359   -22903   -16525   -10128 
   -6777    -7059    -8549    -9672   -10348    -9034    -5327    -1669 
    -318     -767     -911    -1225    -2030     -857      693    -1754 
   -7528   -13206   -16088   -13879    -6729     2931    12285    17195 
   15772    12102    10147    10243    11919    12629     8515     -422 
  -10837   -19682   -24843   -25762   -24120   -22924   -24183   -26106 
  -24770   -17950    -6395     4494     8334     5078    -1452    -6996 
   -6423      574     7777     9343     5047      925     1809     5724 
    9957    12527    10142     4410      977     -304    -4266   -10230 
  -13063   -12611   -10788    -7939    -8723   -15655   -22433   -25078 
  -25058   -23388   -22105   -21413   -17896   -11502    -3719     5478 
   12278    13282    10992     8167     6826     7319     5163     -333 
   -4196    -5745    -6841    -6728    -5431    -4873    -4953    -4438 
   -4813    -6920    -9982   -14299   -17222   -15235   -10037    -4531 
    -142     2938     5932     6389     1858    -2799    -4537    -5371 
   -3839      668     3887     3666      811    -2831    -4165    -3375 
   -3891    -6108    -9146   -14114   -20056   -23628   -22835   -18322 
  -13225    -9431    -6433    -6135   -10222   -14631   -15092   -13244 
  -12699   -13436   -13511   -13308   -13307   -11761    -8706    -6138 
   -3793     -495     3089     5423     4538      215    -3540    -3329 
     577     6730    11502    12232    11923    11529     7643     1550 
   -4463   -11831   -17452   -16384   -10398    -3505     1022      849 
   -1600    -2995    -3863    -4554    -4789    -6115    -7254    -5295 
   -2239      560     3729     3610     -187    -3413    -6159    -8108 
   -8165    -9481   -12181   -13212   -11275    -4417     5945    12840 
   11997     4751    -4769   -11717   -13164    -8770    -1759     1617 
    -653    -5820   -13285   -20661   -21236   -15120   -10694   -12001 
  -15895   -19232   -19576   -14224    -6223    -2567    -3251    -3322 
   -1133     2597     5679     5798     3116    -1424    -5324    -5710 
   -3465     -472     1328     -383    -3404    -3726    -1459     1383 
    2737     1898      426    -1189    -2595    -3122    -5420   -10980 
  -15673   -17244   -19583   -24608   -28010   -25884   -19330   -10854 
   -2198     3244     3545     1073    -1900    -2942     -176     2476 
    1624     -870    -5574   -12719   -17352   -18913   -20358   -18464 
  -10019     1673    11225    13816     8397      484    -4724    -6532 
   -3467     4072     9279     7685     2135    -3099    -5847    -6538 
   -7659   -11696   -18697   -24738   -24807   -17168    -4970     5400 
   10312    10580     6693      -51    -4990    -4461      809     6959 
    9998     8726     4944     1046    -1035      534     5548     9931 
    9303     4381     -914    -4739    -5966    -4555    -5186   -11108 
  -19540   -27418   -32384   -31186   -24227   -16393   -10467    -5036 
    -140     2124     2389     2686     3556     5670     9152    11336 
    9694     4988     -468    -5164    -7976    -7633    -4940    -1456 
    2726     4663     1897    -1289    -1890    -1062     1371     3814 
    3368      102    -5447   -10985   -12628   -12094   -13297   -14518 
  -12654    -8158    -3426    -1871    -5885   -13303   -19548   -21325 
  -17089   -10642    -9113   -12154   -14638   -15189   -13201    -8843 
   -4915    -3999    -7299   -11989   -13366   -12087   -11238   -11356 
  -12638   -14111   -12490    -7760    -4098    -2777    -2081    -1695 
    -480     2684     5368     6372     7220     6653     3547     -176 
   -5132   -11064   -13293   -12094   -11453   -10644    -9313    -9777 
  -10799    -9368    -5568    -1435      757      -27    -1994    -3632 
   -6423   -10309   -12081   -11696   -11718   -11586   -10518    -9612 
   -8382    -6346    -4835    -4416    -5010    -6490    -7085    -4634 
     429     5260     7837     7996     5608     1331    -1729     -995 
    1095      872      -51     -284    -1548    -1778       25      -86 
   -2224    -4355    -6305    -6256    -5297    -6989    -9344   -10550 
  -11644    -9540    -4455    -3883    -9398   -15427   -17549   -13167 
   -3321     6776    12376    10679     2823    -4588    -6955    -5925 
   -3459     -558      384     -783       74     4282     6196     3137 
     161     -276     -207      692     2246     1524    -1641    -5199 
   -7518    -6585    -3944    -3700    -6075   -10468   -16627   -20549 
  -19786   -16334   -11743    -8208    -7559    -7106    -5450    -4964 
   -5316    -5007    -5158    -5955    -5575    -3038      642     3837 
    6573     8839     8658     5592     2493     1991     3312     3933 
    3996     4709     4723     3543     2585     1737     1564     3222 
    3510     -777    -6830   -10664   -11177    -9600    -9407   -12191 
  -15445   -17362   -17828   -16323   -13679   -11299    -8416    -5328 
   -4047    -3194     -485     3347     7298    10009    10437    10217 
    9106     4731    -1712    -9059   -17751   -23040   -20543   -14177 
   -8991    -6904    -8410   -11025   -11516    -8223    -1627     2841 
      35    -7167   -13414   -16665   -15250    -9870    -4449      344 
    5554    10243    13480    12868     7357     1901     -417    -2052 
   -2852     -730     2285     3300     2569     1064     -821    -1615 
    -770     -625    -2228    -3626    -4241    -5719    -7784    -8691 
   -9772   -12488   -14118   -13538   -13086   -12205    -9774    -7748 
   -6329    -5168    -6587   -10079   -12780   -15735   -19015   -17893 
  -11796    -5594    -1028     2149     2173     -838    -3854    -5181 
   -5317    -5005    -3698      347     6181     9005     6370     1067 
   -2855    -3128       98     4069     4087    -2162   -10478   -14569 
  -12895    -8513    -5284    -6148   -10920   -14593   -13832   -10877 
   -7568    -5379    -6409    -8303    -9602   -13278   -17572   -19196 
  -19982   -19353   -15228   -11643   -12122   -13471   -12576    -9533 
   -3993     2079     2958    -2476    -8135    -9371    -7394    -5296 
   -5138    -7720   -12032   -15890   -17194   -15634   -13956   -13011 
   -9670    -5367    -5015    -6820    -7332    -8260   -10268   -11149 
   -8743    -2410     3496     4966     5308     6071     4548     3271 
    4769     7160     9906    10204     5439      252    -3420    -8321 
  -11752   -11157    -8974    -6379    -5254    -8173   -11266    -9639 
   -4896      563     5662     7138     4224      678    -1872    -3497 
   -2221      100    -2646   -10521   -18530   -23375   -22245   -15891 
  -10086    -8117    -9563   -12814   -14088   -10685    -5092    -1576 
   -1413    -3207    -5640    -8641   -11151   -11222    -9819    -8284 
   -5215    -1687    -1397    -3904    -5976    -6462    -4738     -615 
    3488     6132     7706     6980     4308     2567     2273     2688 
    4227     6515     7996     7755     5957     3384      940    -1673 
   -4221    -4596    -3866    -4645    -4896    -4067    -5189    -6412 
   -5232    -5281    -8157    -9933    -9593   -10405   -13150   -14902 
  -14393   -13599   -12022    -7463    -3223    -3010    -4658    -6090 
   -6920    -6225    -4524    -2666    -1029     -220      787     3339 
    6743     9831    11854    11481     7948     3182      -30     -725 
    1124     4778     7545     7173     5365     5548     7865    10209 
   11906    12181     8886     1800    -6346   -12350   -14854   -15706 
  -17357   -19184   -20102   -20795   -20520   -17659   -13305   -10372 
  -11039   -14485   -16354   -14189   -11275   -10651   -10606    -9936 
  -10363   -11184    -9647    -6756    -4753    -2957    -1420    -1565 
   -2603    -2730    -1207     1089     2086     1695      259    -4237 
  -10132   -12946   -13400   -12972   -10840    -8513    -6272    -2543 
    1123     3745     6593     8868     9015     7237     5124     4633 
    5011     3784     1776      333    -2922    -7841    -9186    -6166 
   -4030    -4818    -6364    -7611    -9350   -12550   -15809   -15783 
  -13230   -12021   -11463   -10173   -11305   -14112   -13173    -8672 
   -4847    -3752    -5637    -8416    -8655    -5335      -25     4854 
    7539     7223     3822     -529    -3404    -5398    -7324    -8634 
   -9266    -9015    -8028    -7141    -6191    -5118    -4822    -5133 
   -4994    -5830    -9255   -11519    -9572    -6778    -5168    -3732 
   -3178    -3061    -1945     -217     1892     2818     1066     -869 
   -2090    -3677    -4183    -4871    -8670   -13138   -15102   -15199 
  -13963   -10953    -7485    -5636    -5309    -4537    -2131      807 
    2045      714    -3032    -8956   -13878   -13341    -8347    -3193 
     -53       43    -1612    -1272     2131     6092     6550     1315 
