Origin Time       2011/03/11 14:46:00
Lat.              38.103
Long.             142.860
Depth. (km)       24
Mag.              9.0
Station Code      HKD066
Station Lat.      43.6619
Station Long.     145.1307
Station Height(m) 3
Record Time       2011/03/11 14:48:13
Sampling Freq(Hz) 100Hz
Duration Time(s)  300
Dir.              E-W
Scale Factor      3920(gal)/6182761
Max. Acc. (gal)   34.118
Last Correction   2011/03/11 14:47:58
Memo.             
[...]
   10520    11645    12361    12710    12672    12357    11952    11538 
   11060    10347     9371     8335     7464     6874     6474     6122 
    5737     5250     4788     4432     3975     3345     2750     2561 
    3240     4847     6800     8392     9306     9632     9652     9611 
    9667    10023    10829    11905    12841    13276    12953    11861 
   10397     8945     7503     6104     5078     4559     4380     4495 
    4840     5149     5455     5992     6663     7464     8646    10056 
   11251    12112    12682    12893    12759    12353    11683    10855 
    9971     8896     7624     6454     5464     4464     3541     2949 
    2885     3615     5078     6745     8202     9150     9375     9059 
    8450     7569     6536     5648     5050     4503     3756     3007 
    2493     2223     2265     2728     3669     4972     6341     7601 
    8699     9576    10148    10339    10245    10034     9855     9873 
   10022    10072     9982     9774     9416     8874     8052     6981 
    5986     5314     4886     4557     4369     4514     5133     6201 
    7612     9196    10683    11952    13189    14495    15691    16580 
   17104    17263    16932    15879    14190    12298    10503     8845 
    7371     6174     5178     4166     3146     2451     2277     2399 
    2591     2927     3535     4431     5605     7092     8893    10797 
   12411    13475    13979    13959    13374    12226    10600     8614 
    6532     4802     3786     3509     3745     4236     4762     5281 
    5921     6688     7468     8233     8938     9525    10012    10413 
   10590    10368     9765     8951     8120     7498     7382     7913 
    8747     9392     9615     9242     8168     6612     5043     3855 
    3120     2714     2559     2611     2652     2432     2043     1668 
    1380     1430     1986     2867     3967     5424     7242     9201 
   11185    13227    15117    16482    17172    17195    16672    15862 
   14835    13654    12682    12053    11496    10807     9945     9021 
    8232     7614     7197     7072     7161     7351     7591     7716 
    7644     7620     7879     8317     8710     8944     8889     8517 
    8037     7483     6716     5918     5315     4767     4217     3914 
    3825     3670     3676     4206     5017     5952     7304     8984 
   10382    11038    10994    10528     9819     9095     8565     8116 
    7599     7160     7022     7175     7422     7721     8300     9202 
    9981    10288    10273    10029     9294     7864     5895     3939 
    2701     2505     3167     4414     6102     7997     9731    11237 
   12867    14710    16440    17742    18236    17676    16321    14450 
   12088     9398     6672     3977     1115    -1981    -4905    -7068 
   -8219    -8314    -7250    -5304    -3079     -772     1608     3918 
    6178     8453    10769    13237    15683    17612    18779    19191 
   18657    16858    13894    10490     7404     4996     3369     2390 
    1949     2170     2971     4034     5200     6626     8538    10684 
   12450    13411    13567    13436    13607    14230    15101    15909 
   16561    17064    17105    16470    15285    13499    11165     8872 
    7090     5797     4889     4321     3958     3566     3022     2423 
    1976     1915     2380     3411     5009     7103     9441    11577 
   13221    14389    14887    14307    12803    11039     9492     8351 
    7600     7027     6480     5817     4784     3399     2044     1034 
     507      548     1089     1912     2997     4464     6220     8094 
    9916    11525    12939    14170    15037    15469    15646    15634 
   15248    14400    13064    11096     8476     5425     2447       88 
   -1420    -1859    -1085      396     1870     3155     4391     5608 
    6672     7385     7751     8176     8883     9425     9477     9283 
    8972     8517     8130     7980     7912     7810     7759     7522 
    6610     5055     3413     2078     1111      710     1183     2341 
    3640     4743     5547     6251     7299     8593     9411     9440 
    8969     8158     7110     6343     6214     6361     6593     7271 
    8162     8533     8337     8027     7745     7262     6375     5207 
    4067     3191     2667     2469     2738     3641     4956     6333 
    7613     8613     9107     9061     8806     8741     8794     8685 
    8472     8318     8054     7399     6529     5932     5760     5713 
    5311     4298     3002     1940     1300     1191     1726     2742 
    4122     5787     7234     8147     8839     9513    10009    10238 
   10441    10907    11540    12026    12135    11758    11133    10845 
   11314    12376    13405    13707    12934    11254     8922     6225 
    3932     2710     2550     3259     4517     5841     7110     8476 
    9867    11019    11866    12693    13974    16023    18559    20983 
   23021    24476    25003    24375    22466    19368    15646    12056 
    9058     6814     5369     4462     3607     2637     1689      850 
     352      428      909     1673     2729     3789     4780     6043 
    7579     9100    10520    11633    11998    11451    10083     8057 
    5811     3751     1857      249     -567     -494      -35      342 
     449      272       53      252     1101     2541     4559     6899 
    8841     9719     9402     8395     7356     6505     5889     5869 
    6809     8486    10113    11068    11371    11290    10985    10590 
   10197     9857     9672     9726    10043    10604    11347    12241 
   13405    14777    15822    16064    15380    13770    11285     8144 
    5047     2872     1767     1210      740      140     -689    -1880 
   -3429    -4838    -5378    -4626    -2647      118     3065     5529 
    7017     7505     7463     7694     8890    11174    14107    17018 
   19381    20905    21471    21238    20689    20385    20466    20446 
   19741    18080    15563    12626     9551     6661     4926     4958 
    6083     7195     7743     7735     7201     6074     4651     3574 
    3371     4193     5761     7549     9003     9735     9402     7668 
    5067     2765     1224      531      858     1801     2721     3379 
    3762     4104     4786     5836     7067     8566    10322    11880 
   13090    14362    15939    17742    19636    21302    22202    22014 
   20594    17735    13759     9534     5632     2437      286     -883 
   -1103     -196     1528     3229     4401     5219     5936     6469 
    6578     6227     5797     5600     5355     4781     3989     3007 
    1980     1403     1463     2013     3094     4786     6976     9613 
   12735    16089    19214    21779    23464    24095    23976    23394 
   22103    19964    17446    15076    13115    11559     9926     7714 
    5209     3099     1724     1137     1210     1639     2206     2792 
    3339     4094     5595     8153    11555    15265    18759    21629 
   23507    24358    24497    23946    22505    20197    17182    13679 
    9807     5656     1511    -2513    -6453    -9967   -12522   -13961 
  -14663   -14982   -14442   -12244    -8435    -3739     1330     6519 
   11355    15232    17980    19804    20940    21771    22602    23243 
   23264    22313    20335    17726    14791    11248     6963     2588 
   -1164    -3942    -5515    -6031    -5746    -4612    -2860     -806 
    1869     5471     9639    13819    17490    20046    21233    21409 
   20947    19743    17594    14643    11277     7997     5155     2725 
     838      -29      171      856     1530     2113     2784     3720 
    4827     5980     7326     8909    10244    10757    10530     9990 
    9371     9110     9725    11238    13414    15703    17122    17092 
   15735    13355    10467     7729     5338     3100     1017     -689 
   -1944    -2741    -2870    -2161     -756     1116     3365     6053 
    9133    12134    14335    15434    15827    15807    15188    14175 
   13519    13475    13454    12741    10885     7770     3835     -160 
   -3481    -5389    -5556    -4220    -1598     1965     5680     8916 
   11479    13392    14931    16260    17186    17810    18557    19430 
   20081    20146    19256    17509    15610    14020    12673    11340 
    9647     7175     3747     -398    -4592    -8008    -9956   -10143 
   -8897    -6952    -4931    -3256    -2069     -905      888     3404 
    6445     9878    13173    15430    15914    14297    11043     7510 
    5212     5119     7329    10969    14800    18046    20328    21376 
   21269    20416    19338    18513    17961    17446    17082    16983 
   17080    17361    17423    16729    15627    14753    13886    12539 
   10768     8776     6513     3928     1199    -1313    -3248    -4471 
   -5111    -5449    -5708    -5760    -5275    -4214    -2840    -1428 
    -205      736     1583     2476     3415     4823     7190    10134 
   12852    15005    16579    17495    17721    17442    16961    16493 
   15952    14896    12871     9792     5872     1492    -2899    -7068 
  -10661   -12939   -13599   -12903   -10790    -7164    -2521     2716 
    8535    14609    20393    25775    30560    34190    36381    36952 
   35517    31849    25973    18286     9785     1697    -5012    -9799 
  -12623   -13713   -13213   -11305    -8407    -5004    -1465     2003 
    5343     8475    11159    13175    14626    15646    15988    15388 
   14088    12616    11170     9598     7783     5599     3001      326 
   -1817    -3064    -3584    -3439    -2266       10     3014     6334 
    9525    11993    13169    12824    11048     8199     4960     2028 
    -212    -1725    -2866    -3955    -4754    -4864    -4086    -2295 
     337     3345     6284     8871    11351    14177    17309    20593 
   23829    26554    28682    30343    31125    30402    28130    24954 
   21621    18646    16415    15080    14564    14684    15036    15111 
   14765    14335    14336    15159    16825    18968    20928    21809 
   21053    18751    15141    10529     5384      119    -4884    -9300 
  -12925   -15678   -17804   -19632   -20962   -21228   -20249   -18341 
  -15784   -12442    -7972    -2466     3426     9093    14357    19286 
   23716    27160    29258    29998    29638    28408    26354    23635 
   20571    17388    14356    11906    10321     9488     9153     9272 
    9748    10235    10697    11333    12010    12695    13614    14473 
   14381    12669     9402     5123      547    -3566    -6840    -9310 
  -11023   -12190   -13253   -14516   -16063   -17670   -18717   -18508 
  -16871   -14204   -10768    -6660    -2354     1549     4616     6553 
    7449     7806     8137     8820    10140    11962    13561    14342 
   14337    13678    12368    10591     8667     6972     5789     5048 
    4460     3805     3093     2514     2284     2750     4301     6964 
   10504    14474    17960    20184    21128    21038    20097    18826 
   17843    17055    15981    14630    13296    12132    11366    11212 
   11507    11785    11609    10759     9266     7283     4971     2645 
     686     -735    -1701    -2567    -3456    -3815    -3319    -2289 
    -827     1142     3286     5106     6267     6484     5525     3496 
     953    -1232    -2202    -1761     -494     1083     2849     4629 
    6237     7871    10020    13014    16757    20838    24756    28007 
   29980    30118    28341    25063    20829    16132    11410     7061 
    3322      136    -2574    -4508    -5410    -5406    -4388    -2045 
    1343     5478    10681    16768    22629    27423    30744    32073 
   31295    28915    25201    20153    14279     8135     1632    -5049 
  -10934   -15116   -17022   -16303   -13195    -8572    -3330     1890 
    6322     9444    11438    12471    12598    12074    10833     8790 
    6390     3878      882    -2819    -6814   -10332   -12595   -13207 
  -12251    -9937    -6467    -2084     2824     7660    12080    16156 
   19816    22732    24630    25436    25335    24524    22982    20743 
   18039    15046    11869     8795     6211     4218     2773     1940 
    1582     1411     1485     1901     2336     2425     2189     1914 
    1751     1444      789       83     -369     -456       78     1403 
    3527     6605    10595    14911    18896    22265    24879    26823 
   28570    30262    31528    32056    31423    29137    25269    20313 
   14722     8860     3216    -1411    -4310    -5231    -4076    -1094 
    2857     7184    11834    16609    21243    25532    28998    31197 
   32015    31290    28965    25490    21455    17113    12329     6683 
     -68    -7379   -14086   -19293   -22671   -23977   -22889   -19398 
  -14230    -8755    -4323    -1800    -1548    -3267    -5786    -7573 
   -7698    -6049    -2816     1484     5779     8998    10898    11967 
   12709    13357    14119    15561    18194    21710    25466    29202 
   32673    35407    37032    37381    36222    33243    28597    22929 
   16605     9821     3132    -2916    -7950   -11609   -13733   -14421 
  -13940   -12550   -10299    -7178    -3426      604     4707     8670 
   12141    14740    15924    15004    11691     6384       -3    -6234 
  -10958   -13185   -12930   -10921    -7511    -2799     2719     8527 
   14402    19964    24651    28090    29930    29960    28455    25556 
   21041    15229     8956     2575    -4054   -11196   -18830   -25850 
  -31116   -34970   -37701   -38178   -35352   -29507   -21599   -12328 
   -2170     8288    18366    27433    35259    42028    47790    52636 
   56865    60199    61751    61117    58595    54304    48274    41343 
   34593    28271    22259    16784    12193     8735     6531     5507 
    5541     6480     7891     9103     9609     9199     7811     5788 
    3803     2052      122    -2352    -5338    -8544   -11767   -14960 
  -17905   -19920   -20180   -18423   -14861    -9836    -4030     1842 
    7313    11840    14999    16661    16879    16326    16116    16634 
   17448    18387    19531    20438    20334    18651    15301    10773 
    5741      802    -3498    -6840    -9090   -10167    -9995    -8542 
   -6170    -3861    -2656    -2709    -3284    -3638    -3307    -2097 
     -12     3318     8175    13782    19186    24129    28321    31366 
   33032    32769    30030    25022    18479    11279     4185    -2523 
   -8770   -14263   -18565   -21276   -22334   -22137   -21263   -20140 
  -18390   -14933    -9478    -2746     4871    13347    22122    30429 
   37803    43682    47646    49802    50127    48454    45080    40340 
   34321    27423    20074    12154     3538    -5442   -14154   -21907 
  -28180   -32521   -34424   -33434   -29282   -22319   -13550    -4052 
    5367    14114    21712    27957    32993    37053    40225    42304 
   42923    41877    39141    34744    28909    22086    14932     8462 
    3615      513    -1205    -1750    -1610    -1605    -1927    -2272 
   -2575    -2741    -2641    -2516    -2657    -3106    -3792    -4700 
   -5716    -6365    -6208    -5207    -3454    -1083     1733     4970 
    8455    11629    14025    15396    15501    14341    12283     9789 
    7341     5424     4313     3928     4126     4978     6532     8672 
   11295    14291    17569    21047    24500    27739    30806    33562 
   35551    36531    36420    34900    31728    27093    21378    15249 
    9664     4919      525    -3862    -8192   -12210   -15534   -17475 
  -17217   -14662   -10294    -4446     2395     9308    15471    20340 
   23570    25157    25384    24588    23019    20974    18877    16851 
   14548    11708     8564     5584     2938      662     -806    -1157 
    -713      155     1122     1763     2102     2442     2790     3163 
    3584     3749     3476     2881     2125     1698     2221     3746 
    5902     8277    10454    12175    13469    14301    14298    13316 
   11714     9583     6674     3167     -427    -3817    -6831    -9000 
   -9689    -8670    -6266    -3080      173     2810     4182     3967 
    2548      690     -869    -1697    -1666     -530     1859     4883 
    7774    10494    13023    14870    15850    16371    17199    19097 
   22156    25839    29498    32439    34180    34743    34265    32897 
   30919    28363    25016    20761    15587     9808     4251     -299 
   -3759    -6653    -9314   -11537   -12934   -12986   -11162    -7627 
   -3393      558     3898     6436     7802     8102     7808     7158 
    6358     5394     3891     1874     -169    -1894    -3215    -4002 
   -3976    -3224    -2229    -1185      -70     1009     2101     3555 
    5646     8310    11303    14345    17231    19788    21740    22960 
   23569    23779    23856    23953    24113    24409    24749    25003 
   25303    25628    25680    25317    24618    23879    23360    22904 
   22457    22164    21601    20140    17625    14145     9955     5359 
     380    -5012   -10676   -16400   -21943   -27089   -31513   -34740 
  -36410   -36358   -34643   -31494   -27085   -21587   -15310    -8721 
   -2253     4020     9938    14798    17918    19128    18768    17603 
   16389    15571    15354    15603    15923    16195    16526    16842 
   17219    17952    18918    19801    20479    20733    20441    19969 
   19689    19358    18712    18206    18221    18380    18071    16712 
   13836     9531     4256    -1684    -7800   -13112   -16787   -18680 
  -19165   -18584   -16981   -14485   -11624    -9070    -7104    -5436 
   -3472     -510     3807     9132    14739    19784    23677    26470 
   28359    29431    29888    29691    28644    26923    24731    22169 
   19620    17368    15206    12834    10375     8064     5794     3698 
    2144     1104      625      906     1963     4051     7476    11792 
   15951    19141    21062    21586    20648    18366    15091    11468 
    8148     5349     3029     1188      -88     -724     -806     -244 
    1381     4295     8463    13458    18309    22415    25656    27524 
   27640    26333    24035    21010    17522    13709     9664     5812 
    2490     -829    -4541    -7896   -10099   -10913   -10101    -7563 
   -3358     2246     8211    13239    16689    18661    19782    20720 
   21728    22650    22972    22057    19447    14802     8223      767 
   -6047   -11094   -13939   -14881   -14637   -13677   -12181   -10380 
   -8414    -6195    -3690     -985     1829     4523     6923     9224 
   11395    12950    13890    14638    15355    16364    18040    20074 
   21803    22950    23565    23515    22725    21725    21134    21161 
   21753    22467    22623    21822    20096    17873    15522    12958 
   10184     7566     5299     3188      987    -1249    -3284    -5033 
   -6248    -6287    -4964    -2821     -525     1163     1642     1083 
      11    -1141    -1958    -2289    -2392    -2609    -3180    -4271 
   -5764    -7216    -8250    -8633    -8259    -7428    -6646    -6229 
   -6262    -6386    -5892    -4389    -1838     1793     6270    11035 
   15653    19769    22927    24831    25466    25080    24162    23177 
   22485    22205    22126    22086    21828    20643    18186    15015 
   11784     8775     6315     4965     5080     6470     8677    11368 
   14229    16752    18480    19090    18410    16728    14546    12016 
    9106     5943     2781      -38    -2182    -3395    -3511    -2599 
    -653     2633     7183    12506    18185    23604    28083    31265 
