Origin Time       2011/03/11 14:46:00
Lat.              38.103
Long.             142.860
Depth. (km)       24
Mag.              9.0
Station Code      HKD091
Station Lat.      42.8088
Station Long.     143.6590
Station Height(m) 16
Record Time       2011/03/11 14:48:01
Sampling Freq(Hz) 100Hz
Duration Time(s)  300
Dir.              U-D
Scale Factor      3920(gal)/6182761
Max. Acc. (gal)   19.579
Last Correction   2011/03/11 14:47:46
Memo.             
[...]
  -11703   -10781   -10931   -12177   -13696   -15099   -16784   -19007 
  -21270   -22715   -22998   -22546   -22186   -22407   -22644   -22182 
  -21466   -21039   -20455   -19671   -19547   -20145   -20554   -20499 
  -20405   -20521   -21177   -22628   -24109   -24748   -24869   -24813 
  -24249   -23452   -22875   -21828   -19750   -17502   -16288   -16463 
  -17349   -17729   -17196   -16907   -18020   -19814   -20626   -20470 
  -20919   -22154   -22624   -21686   -20085   -18488   -17342   -17256 
  -18325   -19761   -20929   -22048   -23319   -24356   -25029   -25682 
  -26153   -25744   -24326   -22667   -21585   -21154   -20810   -20006 
  -18616   -17095   -16382   -17022   -18248   -18841   -18798   -18801 
  -18673   -17857   -16480   -15372   -15567   -17150   -18755   -19212 
  -18877   -18931   -20214   -22606   -25085   -26541   -26626   -25988 
  -25554   -25364   -24661   -23181   -21453   -19824   -18280   -17141 
  -16842   -17264   -18199   -19536   -20427   -19926   -18839   -19129 
  -21178   -23299   -24070   -23443   -21953   -20370   -19431   -19206 
  -19401   -19871   -20387   -20648   -20566   -20435   -20986   -22376 
  -23341   -22778   -21421   -20641   -20751   -21254   -21360   -20215 
  -17979   -15942   -14957   -15149   -16645   -18819   -20043   -19673 
  -18797   -18575   -19310   -20637   -21428   -20722   -19491   -19552 
  -20592   -20761   -19749   -19013   -19519   -20640   -21280   -21268 
  -21194   -21593   -22615   -23767   -24177   -23599   -22640   -22059 
  -22272   -22981   -23010   -21529   -19557   -18911   -19749   -20783 
  -21385   -21704   -21675   -21275   -20722   -20150   -19884   -20310 
  -21081   -21624   -22100   -22679   -22840   -22390   -21966   -21866 
  -21621   -20846   -19737   -19039   -19485   -20765   -21813   -22172 
  -22100   -21922   -22049   -22788   -23763   -24182   -23826   -23419 
  -23525   -23322   -21787   -19730   -18711   -18600   -18199   -17282 
  -16324   -15420   -14720   -14680   -15239   -15778   -15844   -15354 
  -14831   -15420   -17566   -20139   -21765   -22240   -22443   -23358 
  -24711   -25031   -23840   -22147   -20441   -18474   -16479   -14890 
  -13937   -14029   -15298   -16760   -17205   -17061   -17843   -19884 
  -22306   -24246   -24811   -23478   -21209   -19719   -19394   -19138 
  -18327   -17491   -17128   -17158   -17429   -17974   -18880   -20228 
  -22005   -23917   -25521   -26600   -27276   -27969   -28906   -29243 
  -27821   -24991   -22053   -19669   -18177   -17626   -17076   -15799 
  -14582   -14560   -15685   -17144   -18372   -18944   -18480   -17255 
  -16108   -15934   -17231   -19034   -19487   -18462   -17582   -17843 
  -19264   -21679   -24333   -25903   -25860   -24877   -23558   -22071 
  -20821   -20147   -20061   -20664   -21861   -23157   -24046   -24171 
  -23550   -22762   -22236   -21532   -20107   -18321   -16865   -15954 
  -15782   -16654   -18080   -19157   -19976   -21131   -22407   -23128 
  -22898   -21819   -20688   -20345   -20575   -20410   -19502   -18610 
  -18517   -19025   -19544   -19764   -19561   -19262   -19385   -19624 
  -19384   -18935   -18802   -18871   -18888   -18928   -19106   -19560 
  -20609   -22352   -24223   -25229   -24704   -22838   -20733   -19738 
  -19982   -20150   -19466   -18401   -17087   -15316   -14161   -15073 
  -17671   -20358   -22166   -23010   -23369   -23703   -23800   -23362 
  -22550   -21382   -19654   -17619   -15896   -14781   -14329   -14907 
  -16801   -19484   -21732   -22334   -21043   -19091   -18113   -18566 
  -19627   -19955   -18610   -16335   -15105   -15634   -16935   -18233 
  -19439   -20447   -21089   -21221   -21054   -21387   -22603   -24091 
  -25081   -24982   -23630   -22202   -22191   -23134   -23430   -22783 
  -21821   -20664   -19513   -19203   -19992   -20773   -20138   -18135 
  -16409   -16091   -16785   -17985   -19067   -18728   -17287   -17076 
  -18783   -20869   -22549   -23997   -25035   -25725   -26369   -26780 
  -27063   -27552   -27401   -25825   -23884   -22466   -20962   -19416 
  -18597   -18047   -16943   -15641   -15154   -16512   -20077   -24220 
  -26260   -25811   -25210   -26042   -27304   -27246   -25385   -22436 
  -19241   -16444   -14685   -13985   -13505   -12848   -12648   -13634 
  -15885   -18629   -20775   -22125   -23451   -25089   -26141   -25843 
  -25054   -24955   -25323   -25184   -23963   -21725   -19133   -17052 
  -15893   -15528   -15658   -15909   -16061   -16247   -16333   -15922 
  -15579   -16617   -19170   -21759   -22840   -21911   -19901   -19065 
  -20617   -22661   -23162   -23355   -24902   -26454   -26388   -25701 
  -25580   -25201   -23595   -21277   -19246   -18037   -17813   -18398 
  -19442   -20683   -21722   -22108   -22105   -22503   -23388   -23837 
  -23029   -20927   -17841   -14316   -11350    -9912   -10158   -11113 
  -11598   -11721   -12383   -13632   -15069   -17164   -20575   -24495 
  -26979   -27158   -26024   -25032   -25150   -26361   -27138   -25951 
  -23340   -21087   -20308   -20895   -21830   -22134   -21629   -20708 
  -20080   -20351   -21207   -21973   -22714   -23346   -23104   -22248 
  -22154   -23179   -24278   -24228   -22262   -18656   -15083   -13312 
  -13079   -12214    -9830    -7809    -7709    -8968   -11237   -14756 
  -18612   -22195   -26286   -30406   -32523   -32146   -30574   -28707 
  -26847   -25398   -24114   -22181   -19967   -18533   -17444   -15816 
  -14553   -15104   -17231   -19671   -21808   -23800   -25946   -28259 
  -30218   -31044   -30461   -29011   -27461   -26143   -24808   -22666 
  -19145   -15032   -11654    -9000    -6659    -5710    -7142    -9777 
  -11984   -13930   -16755   -20566   -23928   -25607   -26364   -27349 
  -27819   -26656   -24381   -22203   -20808   -20276   -20108   -19981 
  -20432   -21849   -23541   -24357   -23748   -22471   -21968   -22627 
  -23598   -23973   -23250   -21740   -20765   -21145   -21987   -22045 
  -21324   -20617   -20324   -20219   -20060   -19918   -19537   -18354 
  -16618   -15414   -15499   -16544   -17294   -16704   -14952   -13160 
  -12598   -14052   -17232   -20847   -23895   -26535   -29141   -31445 
  -32967   -33533   -33275   -32189   -30089   -27300   -24622   -22546 
  -20819   -18927   -17370   -17187   -18026   -18716   -19033   -19163 
  -18848   -18192   -18050   -18879   -19955   -20093   -18943   -17569 
  -17259   -17988   -18985   -19971   -20780   -20965   -20532   -20076 
  -19919   -20058   -20662   -21662   -22628   -23605   -24894   -25894 
  -25705   -24711   -23918   -23468   -23264   -23328   -22730   -20861 
  -19307   -19490   -20570   -21305   -20890   -18465   -14532   -11213 
   -9964   -10355   -11163   -11735   -11769   -10980   -10270   -11396 
  -14747   -19346   -24070   -27566   -29055   -29459   -30127   -31256 
  -32367   -33193   -33479   -32393   -29107   -24455   -20986   -20195 
  -20589   -19916   -18258   -17253   -17568   -18609   -19674   -20490 
  -20922   -20599   -19635   -19188   -19876   -20575   -19623   -16415 
  -12197    -9172    -8155    -8406    -9353   -10702   -11941   -12996 
  -14824   -18457   -23296   -27694   -30737   -31908   -30919   -28754 
  -26590   -24316   -21682   -19101   -16865   -15328   -15079   -15963 
  -17288   -18852   -20559   -21903   -22554   -22540   -22076   -22180 
  -24022   -26532   -27082   -25325   -23370   -22467   -22394   -22662 
  -22197   -19787   -15870   -12164    -9778    -9041   -10152   -12826 
  -16041   -18806   -20984   -23281   -26316   -29624   -31810   -31636 
  -29028   -25425   -22656   -20968   -19071   -16292   -13524   -12112 
  -12493   -13830   -14859   -15237   -15957   -18098   -21146   -23347 
  -23955   -23943   -24186   -24307   -23751   -22717   -21908   -21979 
  -22694   -23056   -23130   -23963   -25287   -26034   -26533   -27515 
  -28222   -27255   -24407   -20761   -17205   -13933   -11444   -10391 
  -10659   -11856   -13879   -16373   -18663   -20742   -23343   -26225 
  -27736   -27092   -25349   -23506   -21264   -18471   -16623   -17279 
  -19539   -20926   -20443   -19661   -20662   -23462   -26205   -27467 
  -27342   -26598   -25736   -25211   -25626   -26773   -27561   -27497 
  -26968   -26184   -25040   -23694   -22238   -20273   -18055   -16878 
  -16852   -16525   -15267   -13638   -12464   -12908   -15301   -18059 
  -19715   -20611   -21496   -22398   -23366   -24616   -25385   -24114 
  -20945   -18004   -16019   -13998   -12140   -11013   -10066    -9763 
  -11348   -14211   -17093   -19943   -22670   -24713   -25895   -25776 
  -23842   -21230   -19775   -19578   -19765   -20251   -20742   -19978 
  -17927   -16913   -18707   -21869   -23691   -23703   -23507   -24015 
  -24850   -25684   -26068   -25340   -24365   -24742   -25994   -26791 
  -26872   -25332   -21221   -16462   -13791   -13218   -13196   -12933 
  -12651   -13162   -14976   -17723   -20985   -24606   -27841   -29876 
  -30962   -31368   -30338   -27528   -23928   -20487   -17147   -13674 
  -10708    -9454   -10547   -13400   -16263   -17218   -16081   -14907 
  -15396   -16611   -16856   -16382   -16184   -16228   -16739   -18390 
  -20248   -20958   -21298   -22422   -23900   -25331   -26619   -26904 
  -26318   -26310   -26519   -25175   -22561   -20800   -21220   -23182 
  -24955   -25884   -26703   -27765   -29061   -30952   -32942   -33341 
  -31205   -27406   -23311   -19677   -17366   -17078   -17662   -17126 
  -15488   -14400   -14658   -16287   -19356   -22685   -24336   -24588 
  -24967   -24874   -22841   -19226   -15366   -12330   -10910   -11268 
  -12988   -15556   -18291   -20782   -23518   -26762   -29429   -30247 
  -29109   -27051   -25501   -24960   -24429   -22738   -19695   -16168 
  -13987   -14536   -16672   -17615   -16263   -14401   -14312   -16308 
  -19238   -22046   -23866   -24102   -23137   -22202   -22319   -23238 
  -23472   -21996   -19565   -17341   -15163   -12964   -12225   -13785 
  -16326   -18611   -21019   -24301   -28571   -33266   -37029   -38317 
  -36876   -33961   -31021   -28852   -27479   -26116   -23897   -21033 
  -18377   -16181   -14723   -14808   -15869   -16196   -16279   -18223 
  -21530   -23499   -23545   -23375   -23541   -22909   -20746   -17377 
  -13653   -10544    -8538    -7700    -8458   -10949   -13962   -16412 
  -19136   -23273   -27564   -29743   -30130   -30475   -30198   -27853 
  -24562   -22432   -21772   -21650   -21132   -19659   -17622   -16489 
  -17421   -19539   -20528   -19203   -16273   -12958   -10375    -9460 
  -10047   -10922   -11489   -12159   -13341   -15424   -18497   -21636 
  -24314   -26971   -28941   -29109   -28626   -29399   -30863   -30992 
  -29022   -25615   -21871   -19077   -18121   -18176   -17136   -14526 
  -12568   -13077   -15003   -16450   -17120   -17371   -17220   -17196 
  -17987   -19310   -20457   -21125   -21354   -21456   -21695   -21645 
  -20731   -19746   -20210   -21930   -23307   -23742   -23357   -21629 
  -18753   -16305   -14811   -13411   -12141   -11571   -11465   -11857 
  -13376   -15893   -18886   -22412   -26226   -29628   -32558   -34510 
  -33700   -30149   -26841   -25495   -24426   -21798   -17908   -13713 
   -9964    -8002    -8572   -10255   -11653   -13275   -15537   -18187 
  -21956   -27028   -31123   -32345   -31862   -31386   -30525   -28751 
  -27144   -26052   -23966   -20369   -16946   -15055   -14251   -13823 
  -14224   -16077   -18826   -21634   -24693   -28628   -33105   -36328 
  -36444   -33770   -30210   -26573   -22299   -16810    -9966    -2990 
    1325     1485     -685    -2808    -5030    -8421   -12725   -17522 
  -22872   -27983   -31628   -33549   -34029   -33009   -30672   -28141 
  -26272   -24114   -20278   -15626   -12670   -12314   -12750   -11731 
   -9356    -8270   -10418   -14193   -16792   -18305   -20692   -24451 
  -28716   -32265   -33362   -31116   -26834   -22639   -19526   -16924 
  -13750   -10222    -7890    -7395    -7725    -8334    -9969   -12598 
  -15195   -17836   -21094   -24575   -27747   -29683   -29008   -26915 
  -26612   -28059   -28278   -26691   -25173   -24451   -24113   -24400 
  -26161   -29512   -32778   -33586   -31459   -28263   -25965   -24788 
  -23496   -20882   -17062   -13572   -12038   -12708   -14337   -15983 
  -18266   -21499   -24209   -25179   -25094   -24972   -24572   -23416 
  -21919   -20614   -19499   -18375   -17118   -15863   -15107   -15365 
  -16387   -17055   -17103   -17974   -20523   -23631   -25953   -27006 
  -27069   -26922   -26673   -25851   -25024   -25092   -25554   -25367 
  -24198   -22156   -19874   -18346   -17534   -16215   -13714   -10625 
   -7887    -6580    -7831   -11035   -13490   -13386   -11643   -10341 
  -10960   -13806   -17428   -19488   -19215   -17610   -15573   -13864 
  -14011   -17315   -23036   -28512   -31556   -32065   -31174   -29992 
  -29131   -28483   -27430   -25497   -22539   -18709   -15126   -13690 
  -15053   -17409   -18165   -16741   -14956   -14378   -14912   -15994 
  -16925   -17005   -16978   -18282   -20180   -20627   -20136   -21159 
  -23655   -25028   -23974   -21233   -18124   -16447   -17361   -19624 
  -21173   -21909   -23172   -25572   -28930   -32874   -36423   -38894 
  -40767   -41741   -40420   -37528   -35487   -33757   -29430   -22530 
  -15589    -9276    -3475      132      970     1088     1323      440 
   -2185    -6776   -13357   -19647   -22517   -21937   -20131   -17856 
  -14596   -10869    -7882    -6512    -7433   -10468   -14668   -20046 
  -27035   -34304   -40005   -44362   -48313   -51094   -51377   -49047 
  -44439   -38025   -31713   -27828   -26231   -24960   -23184   -21048 
  -18299   -15013   -11786    -8785    -6422    -5694    -6111    -5865 
   -5156    -5759    -7017    -6643    -5066    -4616    -5906    -8473 
  -12325   -16568   -19552   -21375   -23312   -25019   -25427   -25305 
  -26123   -27585   -28316   -28115   -27734   -27208   -26601   -26893 
  -27928   -27879   -26137   -23968   -22357   -21628   -21723   -21515 
  -20031   -18023   -16424   -15149   -14515   -15146   -16003   -15243 
  -12774   -10095    -8679    -9241   -11602   -14949   -17852   -18792 
  -18142   -18112   -19394   -20187   -19548   -19077   -20255   -22207 
  -23362   -24019   -25415   -27212   -28210   -28400   -28543   -29077 
  -29864   -29722   -27421   -23817   -20842   -18873   -17093   -15250 
  -13546   -11782   -10175    -9923   -11229   -12454   -12445   -11676 
  -11200   -12195   -15433   -20354   -25503   -29267   -30373   -29280 
  -28128   -28287   -29392   -30309   -29714   -27405   -25408   -25250 
  -25303   -24138   -23642   -25212   -26768   -26486   -25456   -24824 
  -23917   -22095   -19560   -16188   -11881    -7882    -6036    -6762 
   -8784   -10686   -11873   -12286   -12307   -12871   -14625   -17372 
  -20666   -23873   -25947   -26574   -26999   -28289   -29670   -30096 
  -29794   -28624   -25257   -19422   -12811    -6887    -1678     2602 
    4308     2278    -2138    -6912   -11850   -17650   -23646   -27722 
  -28716   -27947   -27117   -26382   -25983   -26784   -27865   -27287 
  -25278   -23340   -21901   -21352   -23089   -27278   -31674   -34259 
  -34897   -34121   -32839   -32025   -30847   -27337   -21642   -16178 
  -12659   -10993   -10647   -11075   -11276   -10849   -10958   -12722 
  -15536   -18137   -19958   -20514   -19614   -18604   -18993   -20424 
  -21883   -23489   -25535   -26967   -26470   -24478   -22718   -22103 
  -22030   -21353   -19478   -17061   -15807   -16676   -18583   -19940 
  -20614   -21204   -21534   -20892   -19256   -17558   -16410   -15423 
  -14436   -13804   -13041   -11393    -9462    -8427    -8640    -9823 
  -11419   -12933   -14499   -16583   -19319   -22389   -25351   -27968 
  -29949   -30690   -30007   -28898   -28589   -28784   -27965   -25495 
  -22506   -20366   -19229   -18830   -19170   -19689   -19434   -18314 
  -17079   -16319   -16089   -15925   -15115   -13946   -14238   -17356 
  -22578   -28137   -32409   -34097   -33034   -30910   -29650   -28791 
  -26052   -20546   -13834    -8028    -4041    -1666     -943    -2563 
   -6262   -10438   -14160   -17736   -21215   -24208   -26903   -29656 
  -31659   -31349   -28551   -24987   -22326   -20823   -19715   -17866 
  -14609   -11022    -9297    -9969   -11755   -14110   -17102   -19492 
  -19969   -19224   -18492   -17325   -14811   -11536    -8761    -7286 
   -7659    -9734   -12219   -13774   -14258   -14725   -16433   -19695 
  -23745   -27471   -29716   -29832   -28857   -28959   -31132   -34389 
  -37046   -38319   -38808   -39164   -39197   -38972   -38673   -37452 
  -34833   -31968   -29893   -28456   -27560   -27081   -25600   -22002 
  -17696   -14736   -13357   -12935   -13207   -13953   -15151   -16893 
  -18445   -18995   -19077   -19589   -20210   -20206   -19766   -19090 
  -17753   -16256   -15895   -16453   -16555   -16081   -16261   -17791 
  -19800   -20748   -20396   -19873   -19709   -19747   -20297   -20955 
  -19992   -17071   -14491   -14040   -14479   -13768   -12249   -12023 
  -14314   -18227   -21591   -23235   -23966   -24804   -25792   -26415 
  -25609   -22765   -19320   -17193   -16242   -15329   -14779   -16123 
  -19876   -24569   -28454   -31417   -34283   -36889   -37767   -35827 
  -31908   -27861   -24611   -22073   -19986   -17942   -15869   -14725 
  -14934   -14965   -13804   -13121   -14531   -16806   -17585   -16107 
  -13656   -12179   -12843   -15892   -20658   -25304   -27985   -28507 
  -28171   -28210   -28912   -29987   -30895   -30566   -28292   -25537 
  -24649   -25679   -26749   -26833   -26340   -25562   -24144   -22274 
  -20901   -20348   -19856   -18478   -15946   -12876   -10315    -8908 
   -8212    -7319    -6213    -5537    -5462    -5995    -7441    -9858 
  -13107   -17061   -21278   -25450   -29925   -34793   -39021   -41597 
  -42814   -43340   -43039   -41504   -38940   -36196   -34215   -33235 
  -32279   -30072   -26802   -24039   -22856   -23074   -23670   -23028 
  -19846   -14777   -10256    -7495    -5086    -2392    -1372    -2862 
   -4796    -5734    -6925   -10117   -15008   -19278   -21018   -20705 
  -20435   -21641   -23970   -26244   -27756   -28283   -27980   -27636 
  -28094   -29430   -30780   -30768   -29114   -27579   -27403   -27043 
  -24711   -21250   -18370   -16031   -13349   -10432    -7899    -5747 
   -3827    -2431    -1516     -694     -477    -1942    -5179    -9237 
  -13068   -15816   -17187   -17995   -19253   -20570   -20717   -19477 
  -17736   -16567   -17248   -20622   -25328   -28358   -28505   -27758 
  -28434   -30611   -32960   -33866   -31886   -27801   -24913   -25110 
  -27031   -28876   -30025   -30116   -29135   -28078   -27989   -28757 
  -29718   -30418   -30451   -29853   -29241   -28651   -27468   -25905 
  -24734   -23496   -21151   -18293   -16393   -15366   -14059   -12284 
  -10546    -9154    -8762    -9962   -11926   -13109   -13359   -14039 
  -15884   -17570   -17341   -16100   -16800   -19934   -22368   -21514 
  -18410   -15839   -15113   -15818   -17251   -18798   -19577   -19064 
  -18377   -19398   -22118   -24377   -24579   -23592   -23200   -23241 
  -21868   -18351   -13756    -9470    -6573    -5698    -6635    -8952 
  -12920   -18518   -23918   -27026   -27967   -27882   -26963   -25492 
  -23980   -21393   -16680   -11695    -9112    -8982    -9845   -10900 
