Origin Time       2011/03/11 14:46:00
Lat.              38.103
Long.             142.860
Depth. (km)       24
Mag.              9.0
Station Code      HKD053
Station Lat.      43.7849
Station Long.     143.6072
Station Height(m) 208
Record Time       2011/03/11 14:48:31
Sampling Freq(Hz) 100Hz
Duration Time(s)  272
Dir.              E-W
Scale Factor      3920(gal)/6182761
Max. Acc. (gal)   8.925
Last Correction   2011/03/11 14:48:16
Memo.             
[...]
    -437      231      640      713      631      578      548      516 
     716     1320     2034     2504     2711     2736     2649     2616 
    2685     2806     3094     3658     4237     4340     3884     3319 
    3007     2890     2787     2583     2120     1419      878      670 
     656      988     1598     1727     1113      458      215      107 
      20      178      454      667     1001     1498     2055     2563 
    2749     2591     2288     1705      879      493      861     1353 
    1605     1953     2245     1999     1603     1740     2212     2401 
    2187     1713     1036      453      215       38     -229     -307 
    -231     -191       -4      400      983     1856     2877     3627 
    3719     3109     2303     1762     1490     1552     2034     2506 
    2446     1914     1374     1198     1298     1183      701      387 
     677     1297     1669     1547     1341     1672     2314     2464 
    2241     2493     3206     3579     3347     2986     2972     3224 
    3069     2044      646     -351     -966    -1560    -1968    -1877 
   -1389     -689      287     1377     1955     1797     1430     1341 
    1626     2293     3227     3915     3814     3188     2797     2654 
    2201     1403      598       59       68      610     1327     2066 
    2737     2954     2600     2153     1946     1930     2039     2073 
    1852     1540     1388     1520     1942     2435     2541     2048 
    1350      898      713      674      687      662      642      738 
     893      877      503     -130     -656     -721     -227      552 
    1251     1797     2264     2542     2449     2106     1878     1860 
    1754     1442     1195     1097     1025     1092     1218     1018 
     669      750     1232     1606     1783     2053     2396     2534 
    2343     1826     1201      973     1256     1396      825      -36 
    -271      353     1355     2270     2722     2456     1811     1368 
    1157     1041     1240     1752     2324     3080     3943     4283 
    3931     3296     2493     1512      756      599      808      880 
     669      397      245      274      721     1629     2367     2477 
    2425     2720     3198     3619     3869     3528     2444     1348 
     911      880      819      819     1100     1691     2369     2726 
    2715     2682     2690     2428     1826     1302     1149     1015 
     506     -124     -430     -349      -32      267      318      379 
     873     1678     2508     3325     3910     3848     3096     2104 
    1352      993      831      540      177      164      552      939 
    1183     1526     1949     2050     1861     2016     2669     3266 
    3482     3263     2448     1289      571      566      707      618 
     558      732      987     1155     1258     1419     1550     1332 
     796      489      688      963      878      595      389      229 
     161      339      628      762      633      267     -168     -329 
     111     1059     1854     2059     2208     2794     3221     3021 
    2726     2585     2328     2149     2110     1703      978      546 
     492      519      624      911     1328     1869     2439     2680 
    2555     2505     2630     2567     2236     1971     1909     1878 
    1728     1324      651      186      542     1620     2775     3641 
    4067     3870     3328     3020     3009     3016     3088     3341 
    3504     3229     2505     1465      254     -734    -1070     -768 
    -156      491      978     1221     1259     1036      455     -207 
    -426     -111      409     1002     1681     2268     2678     2921 
    2717     2028     1493     1489     1620     1645     1768     2008 
    2278     2548     2629     2395     2003     1611     1272     1037 
     997     1226     1653     1947     1826     1422     1040      895 
    1238     2108     2960     3184     2786     2168     1652     1316 
    1114     1073     1062      779      291     -185     -569     -429 
     575     1885     2828     3355     3459     3164     2956     3153 
    3354     3231     3049     3002     3005     3098     3160     2683 
    1433     -196    -1599    -2260    -1908     -761      539     1389 
    1678     1827     2140     2473     2765     3133     3462     3462 
    2972     2170     1431      847      194     -601    -1110     -713 
     599     2023     2708     2586     2257     2184     2393     2741 
    3134     3497     3604     3286     2757     2299     1933     1563 
    1039      292     -254     -111      433      869     1254     1721 
    2082     2155     1926     1504     1083      904     1224     2013 
    2736     3000     3011     2960     2588     1738      777      125 
     -40      378     1092     1501     1454     1264     1071      824 
     709      954     1291     1445     1709     2124     2154     1726 
    1274      897      541      394      515      830     1394     1998 
    2207     2080     2033     2113     2183     2394     2802     3206 
    3500     3512     2933     1823      763      391      749     1214 
    1340     1353     1562     1899     2152     2137     1798     1384 
    1168     1053      727      188      -74      271      756      796 
     603      661      871      917      891     1046     1403     1816 
    2184     2473     2561     2338     2000     1807     1771     1988 
    2688     3579     3923     3479     2640     1819     1300     1190 
    1209     1138     1190     1373     1234      626       63       13 
     346      745     1156     1526     1677     1675     1771     1959 
    1996     1707     1161      667      380      106      -57      372 
    1331     2053     2006     1459     1011      967     1233     1509 
    1565     1476     1451     1547     1710     1717     1326      885 
    1122     2213     3570     4414     4374     3691     2862     2223 
    2035     2501     3315     3703     3295     2489     1758     1179 
     680      253       22      173      578      769      476     -129 
    -677     -918     -894     -685     -135      831     1882     2534 
    2613     2347     2050     1839     1603     1298     1112     1186 
    1550     2139     2499     2214     1638     1314     1169      963 
     772      711      797     1108     1617     2003     1984     1597 
    1003      501      477      888     1438     2209     3180     3665 
    3156     2168     1607     1578     1362      772      573      976 
    1123      817     1009     1878     2427     2140     1342      648 
     749     1711     2797     3529     4071     4359     3887     2629 
    1292      517      477     1077     1996     2717     2775     2174 
    1441      999      893     1184     1744     1949     1425      553 
    -138     -312      186      899     1144     1086     1239     1448 
    1516     1797     2420     2824     2556     1933     1438     1212 
    1302     1569     1550      962      161     -195       22      335 
     386      239      162      363      728     1083     1553     2141 
    2650     3038     3148     2726     2012     1532     1319     1142 
    1272     1907     2501     2497     1876      847     -248    -1093 
   -1659    -1928    -1830    -1670    -1732    -1677    -1163     -566 
    -403     -500     -273      502     1474     2196     2688     3260 
    3848     4023     3670     3174     2831     2324     1300      273 
     -40      156      301      349      473      630      754     1040 
    1568     2017     2234     2386     2337     1876     1277      841 
     423     -109     -556     -757     -702     -375        1      199 
     535     1282     2153     3004     3951     4606     4494     4056 
    3979     3962     3344     2285     1366      881      826      752 
     207     -363     -206      586     1560     2623     3588     3913 
    3423     2629     2049     1817     1999     2504     2816     2536 
    1929     1421     1024      613      254       20       44      448 
     801      595      178       88      196      329      723     1468 
    2346     3089     3371     3056     2520     2146     1805     1356 
    1045     1039     1193     1393     1540     1412     1011      527 
     -99     -775     -946     -384      456     1212     1893     2386 
    2520     2344     1981     1539     1145     1052     1578     2497 
    3027     2801     2168     1552     1092      845      754      421 
    -260     -731     -739     -600     -334      211      743     1026 
    1332     1855     2411     2827     2926     2509     1839     1443 
    1367     1260      984      741      634      482      195      -69 
       9      729     1780     2420     2556     2605     2634     2649 
    2867     3194     3304     3122     2755     2287     1806     1312 
     710       85     -378     -546     -190      828     2188     3205 
    3393     2912     2252     1666     1164      768      495      205 
    -174     -484     -694     -954    -1290    -1801    -2652    -3456 
   -3516    -2868    -2053    -1085      203     1334     1837     2015 
    2277     2504     2439     2090     1728     1702     2063     2543 
    2925     3194     3388     3518     3601     3546     3245     2895 
    2753     2740     2639     2416     2076     1504      844      629 
     957     1213     1098      980     1106     1455     1986     2353 
    2207     1881     1729     1418      800      511     1009     1870 
    2285     1975     1413     1136     1258     1492     1353      721 
      78     -214     -256      -23      573     1157     1398     1604 
    2170     2843     3127     3031     2788     2363     1803     1496 
    1637     1873     1823     1643     1598     1651     1868     2277 
    2458     2160     1801     1811     2040     2247     2466     2650 
    2802     3061     3242     3123     2844     2518     2120     1674 
    1213      774      338     -206     -934    -1769    -2353    -2241 
   -1436     -409      397      846     1045     1219     1627     2354 
    3213     3909     4204     4009     3456     2955     2935     3165 
    2929     2083     1178      550       61     -483    -1057    -1377 
   -1143     -543     -168     -122      130      662      839      598 
     718     1608     2916     3948     4095     3548     3233     3454 
    3515     3067     2433     1588      273    -1353    -2870    -3734 
   -3520    -2510    -1549    -1194    -1127     -647      289     1185 
    1952     2731     3321     3505     3259     2634     2026     1965 
    2440     3045     3464     3636     3802     4120     4388     4454 
    4367     3990     3073     1719      314     -864    -1715    -2143 
   -2083    -1693    -1141     -401      482     1301     1889     2073 
    1628      606     -440     -831     -396      443     1317     2157 
    2793     3003     2791     2229     1656     1758     2675     3724 
    4227     3906     2853     1573      572     -172     -977    -1881 
   -2611    -2907    -2502    -1137      704     1830     1766      997 
     -41     -985    -1209     -297     1394     2998     4006     4481 
    4403     3524     1941      396     -212      228     1112     2178 
    3569     4884     5149     4073     2611     1840     2006     2862 
    4059     5179     5978     6353     6034     4952     3692     2873 
    2431     2005     1634     1641     2034     2393     2391     2068 
    1544      896      418      502     1015     1343     1048      -20 
   -1586    -2905    -3607    -3846    -3634    -3052    -2353    -1487 
    -422      570     1382     2039     2537     3090     3800     4401 
    4864     5308     5297     4532     3587     2878     2208     1815 
    2229     2973     3228     3219     3216     2639     1430      435 
      73      227      777     1331     1622     2089     2958     3516 
    3147     2253     1389      523     -123      181     1486     2969 
    4151     5036     5285     4531     3010     1117     -943    -2765 
   -3789    -3870    -3301    -2379    -1399     -667     -183      229 
     714     1347     1959     2446     3049     3714     3887     3413 
    2721     1937      826     -451    -1451    -2053    -2257    -1932 
   -1200     -312      913     2658     4390     5402     5753     5874 
    5722     4993     3795     2646     1743      745     -268     -429 
     597     1924     2732     3160     3524     3771     3845     3817 
    3716     3523     3179     2652     2057     1489      834       84 
    -460     -559     -182      691     1992     3345     4322     4874 
    5130     5045     4629     4170     3880     3590     3121     2757 
    2893     3308     3263     2348      982      -68     -553     -806 
   -1114    -1264     -754      448     1691     2411     2827     3541 
    4626     5562     5997     6045     5871     5227     3631     1382 
    -418    -1439    -2382    -3501    -4282    -4277    -3534    -2484 
   -1594    -1066     -767     -411      242     1274     2548     3773 
    4698     5138     5005     4643     4646     4832     4217     2556 
     917      292      737     1904     3048     3033     1564     -557 
   -2577    -4170    -5212    -5794    -6093    -6173    -6189    -6451 
   -6774    -6368    -4815    -2401      512     3646     6555     8753 
    9947    10080     9542     9010     8448     7112     4840     2179 
    -464    -2895    -4884    -6229    -6859    -6850    -6303    -5185 
   -3405    -1243      675     2307     4269     6721     9245    11551 
   13487    14883    15589    15330    13927    11836     9752     7710 
    5234     2148    -1129    -3897    -5804    -7024    -7718    -7831 
   -7441    -6671    -5375    -3354     -617     2416     4756     5521 
    4950     4056     3259     2390     1921     2469     3461     4032 
    4243     4482     4860     5345     5738     5859     5934     6299 
    6644     6119     4497     2553     1025       14     -625    -1048 
   -1368    -1498    -1332     -919      -38     1604     3374     4265 
    4473     4903     5483     5351     4300     2983     1920      958 
    -329    -1945    -3427    -4501    -5315    -5712    -5131    -3646 
   -2008     -551      860     2078     2745     2864     2835     3114 
    3830     4710     5460     6002     6350     6505     6317     5484 
    3734     1094    -1844    -4126    -5285    -5676    -5726    -5592 
   -5608    -5896    -5945    -5325    -3920    -1598     1493     4783 
    7504     8841     8623     7715     6989     6363     5563     4946 
    4774     4783     4746     4228     2506     -233    -2852    -4674 
   -5631    -5466    -4034    -1976     -121     1250     2123     2661 
    3317     4174     4823     5193     5404     5177     4477     3951 
    4030     4320     4322     4189     4244     4144     3179     1261 
    -965    -2872    -4148    -4534    -3953    -2771    -1289      748 
    3370     5737     6990     7112     6711     6380     6337     6534 
    6831     6921     6494     5528     4027     1986        1    -1094 
   -1257    -1113    -1152    -1299     -989       65     1502     3035 
    4640     5945     6579     6947     7642     8509     8893     8240 
    6322     3492      664    -1248    -1895    -1674    -1290    -1150 
   -1331    -1840    -2720    -3990    -5241    -5609    -4808    -3679 
   -2878    -1966     -549      903     1978     2968     4196     5422 
    6278     6698     6609     5932     4980     4207     3799     3825 
    4246     4590     4085     2279     -491    -3336    -5415    -6200 
   -5458    -3488    -1325      -54      276      490     1025     1476 
    1586     1739     2069     2350     2695     3298     4071     4760 
    4894     4072     2493      839     -257     -529     -178      395 
     998     1476     1334      342     -871    -1767    -2469    -2780 
   -2248    -1265     -579     -336     -479    -1021    -1506    -1382 
    -974     -992    -1412    -1755    -1942    -2081    -1827     -703 
    1184     3290     5037     6017     6384     6775     7455     8152 
    8712     8983     8582     7481     5968     4010     1609     -725 
   -2505    -3697    -4464    -4867    -4520    -2791       57     2796 
    4838     6517     7665     7672     6878     6238     6063     6146 
    6344     6383     5674     3858     1386     -846    -2294    -2890 
   -2844    -2629    -2633    -2990    -3651    -4110    -3589    -1949 
     155     2143     3794     4998     5958     6916     7516     7372 
    6619     5270     3230     1093     -352    -1157    -1763    -2144 
   -2115    -1707     -932      154     1332     2572     4010     5483 
    6497     6765     6320     5049     3132     1518      652     -107 
   -1050    -1816    -2550    -3521    -4077    -3691    -2956    -2426 
   -1958    -1580    -1488    -1355     -743      263     1426     2752 
    4208     5594     6730     7484     7806     7690     6934     5271 
    2828      258    -1860    -3647    -5364    -6585    -6500    -4797 
   -2240       25     1732     3195     4370     5204     5964     6602 
    6655     5969     4910     3757     2454     1117      227       86 
     643     1864     3625     5335     6379     6618     5815     3557 
     351    -2596    -4658    -5520    -4867    -3426    -2718    -3355 
   -4583    -5145    -4150    -1709     1269     4185     6856     8679 
    9099     8526     7668     6822     6176     5601     4524     2933 
    1567      921      997     1641     2358     2480     1970     1440 
    1453     2016     2534     2456     1799      894       71     -564 
   -1288    -2313    -3380    -4184    -4822    -5413    -5656    -5094 
   -3608    -1493      797     2864     4572     6016     6985     7090 
    6818     7187     8160     8809     8613     7534     5582     2900 
     -56    -2593    -4082    -4376    -3940    -3275    -2451    -1457 
    -523       91      282      115     -107       67      789     1858 
    3156     4360     4609     3511     1766      107    -1296    -2210 
   -2407    -2306    -2356    -2195    -1426     -636     -606     -894 
    -421      792     1902     2718     3454     3800     3380     2303 
     845     -572    -1333    -1229     -423     1119     3157     4904 
    5939     6444     6386     5491     4061     2871     2329     2459 
    3145     3927     4099     3113      924    -1752    -3903    -5101 
   -5621    -5811    -5690    -5297    -4828    -4077    -2757    -1356 
    -484      -45      101      -38      128     1044     2019     2281 
    2052     1685      959     -164    -1070    -1156     -336     1365 
    3871     6582     8705     9859    10271    10764    11784    12559 
   12237    11016     9301     7071     4644     2741     1563      877 
     524      -59    -1621    -3830    -5678    -6943    -7934    -8508 
   -8188    -6834    -4972    -3287    -1947     -730      600     2185 
    4126     6294     8250     9700    10351     9575     7324     4480 
    1655    -1209    -3722    -4801    -4083    -2423     -589     1177 
    2514     3155     3345     3511     3865     4556     5645     6711 
    7187     6849     5705     4243     3504     4091     5496     6698 
    7038     6494     5372     3793     1746     -432    -2246    -3741 
   -5497    -7730    -9774   -10906   -11275   -11418   -11371   -10596 
   -8378    -4662     -412     3427     6451     8091     7878     6342 
