Origin Time       2011/03/11 14:46:00
Lat.              38.103
Long.             142.860
Depth. (km)       24
Mag.              9.0
Station Code      HKD130
Station Lat.      42.5626
Station Long.     141.3502
Station Height(m) 17
Record Time       2011/03/11 14:48:10
Sampling Freq(Hz) 100Hz
Duration Time(s)  300
Dir.              N-S
Scale Factor      3920(gal)/6182761
Max. Acc. (gal)   12.830
Last Correction   2011/03/11 14:47:55
Memo.             
[...]
  -10216    -9998   -10034   -10442   -11102   -11491   -11351   -10922 
  -10550   -10456   -10655   -10885   -10740   -10178    -9672    -9429 
   -9078    -8477    -7953    -7681    -7455    -7047    -6440    -5564 
   -4301    -3007    -2296    -2295    -2742    -3377    -4011    -4626 
   -5155    -5351    -5348    -5530    -5818    -6046    -6296    -6534 
   -6651    -6631    -6484    -6168    -5563    -4772    -4192    -4084 
   -4435    -5070    -5808    -6630    -7561    -8453    -8982    -8971 
   -8582    -8057    -7569    -7131    -6462    -5382    -4267    -3651 
   -3592    -3844    -4346    -5013    -5526    -5764    -5881    -6043 
   -6399    -6987    -7714    -8598    -9524    -9937    -9548    -8804 
   -8185    -7772    -7525    -7474    -7605    -7806    -8074    -8375 
   -8443    -8242    -8087    -8088    -8069    -7967    -7866    -7700 
   -7339    -6978    -6893    -6959    -6922    -6718    -6294    -5573 
   -4593    -3590    -2792    -2145    -1472     -787     -304     -185 
    -281     -221      210      883     1513     1900     2016     2007 
    2091     2339     2681     3032     3356     3757     4235     4624 
    4939     5280     5784     6589     7427     7921     8067     7902 
    7325     6373     5321     4457     3773     3078     2410     1885 
    1401      860      210     -534    -1130    -1414    -1509    -1613 
   -1955    -2667    -3427    -3795    -3790    -3393    -2341    -1361 
   -1824    -3178    -4062    -5009    -6014    -6194    -6354    -6618 
   -6111    -5617    -5758    -5667    -5349    -5576    -5865    -5992 
   -6024    -5382    -5028    -5234    -4610    -4055    -4650    -5083 
   -4527    -3750    -3375    -3188    -3221    -3847    -4617    -5041 
   -5538    -6232    -6944    -7970    -9118    -9750    -9846    -9494 
   -8636    -7692    -6996    -6225    -5105    -3848    -2601    -1260 
     -14      932     1856     2907     3881     4617     5231     6062 
    7073     7834     8299     8602     8469     7627     6081     3990 
    1789     -103    -1621    -2741    -3518    -4272    -5134    -5889 
   -6404    -6724    -6790    -6545    -6136    -5672    -5134    -4515 
   -3832    -3175    -2593    -1969    -1203     -351      342      582 
     293     -431    -1445    -2473    -3347    -4296    -5534    -6865 
   -7972    -8740    -9297    -9896   -10623   -11390   -12267   -13324 
  -14426   -15463   -16366   -17118   -17793   -18371   -18799   -19008 
  -18904   -18668   -18740   -19405   -20591   -21858   -22752   -23225 
  -23406   -23323   -23050   -22871   -23108   -23619   -23968   -24039 
  -23892   -23500   -22859   -21944   -20789   -19654   -18676   -17775 
  -17091   -16834   -16862   -16927   -16989   -17008   -16832   -16450 
  -15998   -15583   -15258   -14999   -14807   -14764   -14877   -15037 
  -15226   -15588   -16001   -16168   -16240   -16450   -16600   -16566 
  -16598   -16963   -17658   -18494   -19324   -20119   -20796   -21027 
  -20575   -19664   -18549   -17229   -15822   -14488   -13148   -11832 
  -10680    -9710    -8974    -8514    -8376    -8634    -9143    -9712 
  -10374   -11211   -12249   -13539   -14979   -16196   -17044   -17740 
  -18362   -18981   -19779   -20651   -21352   -21749   -21839   -21812 
  -21681   -21183   -20305   -19295   -18279   -17223   -16136   -15113 
  -14198   -13328   -12472   -11706   -10998   -10160    -9229    -8417 
   -7782    -7385    -7400    -7864    -8623    -9485   -10283   -10919 
  -11485   -12132   -12934   -13927   -14986   -15959   -16899   -17732 
  -18179   -18365   -18719   -19195   -19417   -19466   -19626   -19741 
  -19643   -19571   -19684   -19835   -19727   -19116   -18165   -17227 
  -16288   -15244   -14144   -12960   -11778   -10920   -10585   -10743 
  -11186   -11552   -11701   -11923   -12327   -12478   -12154   -11712 
  -11442   -11293   -11067   -10603    -9999    -9445    -8925    -8440 
   -8107    -7896    -7705    -7521    -7211    -6638    -5922    -5251 
   -4703    -4319    -4113    -4112    -4401    -4964    -5469    -5664 
   -5830    -6189    -6589    -7129    -7963    -8805    -9354    -9540 
   -9267    -8624    -7951    -7251    -6335    -5460    -4954    -4767 
   -4923    -5566    -6575    -7702    -8765    -9538    -9792    -9502 
   -8909    -8445    -8479    -8927    -9388    -9699    -9967   -10192 
  -10275   -10233   -10238   -10441   -10785   -11052   -11172   -11214 
  -11072   -10678   -10215    -9786    -9372    -9060    -8990    -9204 
   -9625   -10130   -10648   -11158   -11680   -12059   -11953   -11342 
  -10533    -9593    -8402    -7145    -6243    -5781    -5448    -5036 
   -4597    -4259    -4020    -3789    -3608    -3553    -3632    -3936 
   -4604    -5560    -6396    -6701    -6475    -5927    -5112    -4081 
   -3051    -2233    -1640    -1084     -377      438     1175     1830 
    2500     3071     3438     3777     4110     4207     4140     4106 
    4005     3775     3472     2973     2254     1583     1104      760 
     524      282     -197     -924    -1794    -2863    -3967    -4752 
   -5269    -5708    -5852    -5405    -4721    -4689    -5472    -6254 
   -6524    -6374    -5805    -4752    -3325    -1689       56     1798 
    3327     4489     5277     5725     5846     5785     5914     6394 
    6916     7156     7114     6918     6620     6284     6038     5830 
    5501     5126     4867     4711     4652     4770     4993     5053 
    4793     4312     3844     3567     3471     3581     3933     4288 
    4539     4723     4548     3855     2939     2108     1559     1426 
    1648     2018     2394     2850     3457     3969     4150     4209 
    4377     4442     4177     3709     3161     2473     1683     1030 
     637      342      104       66      122       77      -47     -183 
    -304     -324     -178       79      321      538      879     1401 
    1986     2485     2766     2809     2670     2313     1717     1033 
     442      -45     -469     -869    -1549    -2862    -4688    -6580 
   -8199    -9344    -9883   -10024   -10267   -10615   -10580   -10095 
   -9368    -8470    -7700    -7336    -7238    -7225    -7193    -6993 
   -6534    -5842    -5041    -4245    -3498    -2844    -2295    -1768 
   -1156     -495     -112     -201     -424     -390        7      553 
     753      539      325      312      480      767     1129     1523 
    1743     1671     1395      871      120     -402     -240      334 
     667      718      865     1042      764     -338    -2141    -4154 
   -6020    -7460    -8177    -8240    -8001    -7792    -7845    -8106 
   -8350    -8302    -7773    -7096    -6783    -6924    -7404    -8016 
   -8523    -8935    -9318    -9487    -9282    -8897    -8590    -8302 
   -7855    -7210    -6561    -6235    -6279    -6521    -6851    -7155 
   -7544    -8274    -9217    -9975   -10275   -10199   -10137   -10363 
  -10856   -11485   -12145   -12812   -13342   -13551   -13642   -13886 
  -14172   -14376   -14580   -14902   -15462   -16378   -17519   -18485 
  -19063   -19286   -19207   -18928   -18435   -17687   -16886   -16080 
  -15144   -14285   -13763   -13553   -13569   -13690   -13818   -14009 
  -14197   -14260   -14397   -14879   -15663   -16587   -17529   -18352 
  -18991   -19497   -19887   -20009   -19681   -18962   -17993   -16762 
  -15484   -14502   -13664   -12733   -11865   -11088   -10233    -9268 
   -8198    -7060    -6051    -5332    -4896    -4772    -4946    -5154 
   -5152    -4892    -4385    -3717    -2993    -2373    -2145    -2414 
   -3049    -3884    -4667    -5215    -5620    -6137    -6807    -7299 
   -7360    -7031    -6485    -6025    -5736    -5378    -4886    -4435 
   -4240    -4328    -4455    -4548    -4705    -4842    -4895    -4881 
   -4865    -5115    -5710    -6365    -7014    -7814    -8759    -9955 
  -11644   -13608   -15292   -16494   -17391   -18132   -18742   -19218 
  -19621   -20026   -20294   -20256   -19956   -19514   -19227   -19378 
  -19643   -19476   -18884   -18254   -17805   -17499   -17293   -17279 
  -17494   -17929   -18692   -19729   -20707   -21338   -21520   -21308 
  -20783   -19994   -19243   -18886   -18703   -18290   -17815   -17512 
  -17157   -16527   -15613   -14345   -12871   -11773   -11409   -11630 
  -12145   -12486   -12277   -11705   -11124   -10744   -10706   -10923 
  -11274   -11738   -12026   -11872   -11522   -11270   -11238   -11486 
  -11699   -11535   -11236   -11105   -11194   -11615   -12290   -12880 
  -13262   -13589   -14048   -14646   -15113   -15124   -14600   -13828 
  -13117   -12437   -11690   -10976   -10444   -10079    -9697    -9303 
   -9056    -8939    -8959    -9155    -9424    -9708    -9899    -9847 
   -9705    -9714    -9871   -10127   -10566   -11219   -11874   -12381 
  -12880   -13387   -13700   -13771   -13672   -13611   -13883   -14366 
  -14633   -14533   -14222   -13899   -13664   -13527   -13538   -13740 
  -13898   -13632   -12889   -11874   -10668    -9291    -7974    -7088 
   -6599    -6023    -5215    -4416    -3618    -2764    -2032    -1475 
    -914     -332       19      132      340      713      989     1102 
    1207     1298     1326     1513     1906     2188     2239     2159 
    2023     1931     1867     1799     1864     2010     1914     1382 
     429     -863    -2440    -4232    -5954    -7335    -8491    -9558 
  -10392   -11025   -11852   -13000   -14120   -14954   -15557   -15987 
  -16136   -15858   -15110   -13928   -12499   -11169   -10200    -9686 
   -9660   -10095   -10759   -11293   -11592   -11792   -11870   -11665 
  -11180   -10507    -9720    -8956    -8249    -7485    -6656    -5734 
   -4663    -3586    -2657    -1810     -928     -114      404      655 
     856      984      813      261     -443    -1022    -1642    -2524 
   -3347    -3883    -4220    -4360    -4526    -4941    -5419    -5964 
   -6696    -7369    -7742    -7868    -7893    -7767    -7417    -7197 
   -7465    -8028    -8491    -8708    -8779    -8738    -8414    -7857 
   -7381    -7096    -6927    -6864    -6973    -7314    -7719    -7909 
   -7958    -8042    -8049    -8054    -8347    -8797    -9089    -9180 
   -9104    -8937    -8922    -9133    -9278    -9218    -9306    -9808 
  -10435   -10758   -10672   -10275    -9565    -8428    -7012    -5803 
   -5111    -4810    -4647    -4483    -4215    -3863    -3655    -3612 
   -3479    -3293    -3254    -3314    -3459    -3774    -4136    -4383 
   -4470    -4396    -4211    -3796    -2975    -2073    -1546    -1310 
   -1165    -1180    -1335    -1506    -1588    -1452    -1247    -1195 
   -1084     -685     -129      453      901      995      905      889 
     819      694      671      596      378      221      224      259 
      96     -364     -971    -1621    -2331    -3074    -3756    -4087 
   -3817    -3214    -2703    -2340    -2094    -1922    -1642    -1269 
    -947     -685     -646    -1034    -1737    -2475    -3001    -3320 
   -3733    -4338    -4911    -5494    -6437    -7700    -8890    -9864 
  -10594   -10947   -11039   -11205   -11611   -12104   -12435   -12695 
  -13025   -13181   -13030   -12679   -12009   -11041   -10159    -9588 
   -9279    -9098    -8992    -9002    -9102    -9321    -9681    -9896 
   -9654    -8987    -8225    -7798    -7735    -7617    -7247    -6756 
   -6211    -5670    -5304    -5220    -5525    -6281    -7117    -7577 
   -7822    -8194    -8644    -9043    -9370    -9591    -9773   -10075 
  -10442   -10560   -10256    -9723    -9309    -9238    -9380    -9408 
   -9332    -9369    -9368    -9069    -8497    -7785    -7224    -7180 
   -7643    -8361    -9250   -10241   -11207   -12190   -13196   -13954 
  -14288   -14333   -14226   -13958   -13500   -12885   -12337   -12137 
  -12220   -12285   -12284   -12425   -12693   -12775   -12471   -11869 
  -11265   -10837   -10313    -9444    -8396    -7330    -6212    -4983 
   -3559    -1940     -467      485     1013     1374     1486     1217 
     660       27     -398     -429     -206       21      159      119 
    -227     -659     -718     -391      -53      224      590      928 
     987      781      576      490      334       10     -313     -597 
    -940    -1240    -1451    -1723    -2082    -2421    -2687    -2851 
   -2863    -2896    -3277    -3939    -4511    -4803    -4815    -4642 
   -4354    -3944    -3451    -2929    -2460    -2161    -2066    -2215 
   -2613    -3029    -3286    -3576    -4065    -4621    -5205    -5924 
   -6505    -6685    -6777    -6851    -6469    -5589    -4489    -3297 
   -2070     -841      238     1098     2027     3010     3494     3294 
    2697     1764      573     -394     -850     -936     -883    -1058 
   -1764    -2765    -3645    -4419    -5191    -5687    -5676    -5312 
   -4823    -4373    -4109    -4155    -4655    -5449    -5818    -5287 
   -4379    -3899    -3906    -3929    -3736    -3420    -3073    -2729 
   -2425    -2102    -1611    -1025     -621     -492     -578     -698 
    -520     -150     -155     -724    -1538    -2359    -3255    -4211 
   -4924    -5221    -5290    -5294    -5183    -4937    -4600    -4192 
   -3833    -3638    -3577    -3714    -4227    -5081    -6108    -7333 
   -8803   -10306   -11629   -12729   -13581   -14286   -15154   -16399 
  -17971   -19715   -21420   -22746   -23483   -23781   -23816   -23635 
  -23412   -23361   -23438   -23475   -23266   -22587   -21563   -20681 
  -20303   -20474   -21010   -21677   -22373   -23061   -23735   -24545 
  -25617   -26749   -27575   -27957   -27983   -27718   -27227   -26640 
  -26026   -25393   -24747   -24064   -23389   -22817   -22293   -21787 
  -21427   -21234   -21053   -20866   -20829   -20992   -21183   -21152 
  -20849   -20459   -20024   -19348   -18351   -17194   -16022   -14883 
  -13871   -13035   -12250   -11400   -10574    -9944    -9505    -9111 
   -8773    -8671    -8995    -9816   -10891   -11786   -12292   -12488 
  -12525   -12558   -12749   -13164   -13614   -13805   -13727   -13536 
  -13288   -13114   -13105   -13161   -13323   -13656   -13883   -13701 
  -13207   -12699   -12244   -11848   -11677   -11652   -11438   -10929 
  -10188    -9270    -8357    -7721    -7405    -7212    -7124    -7375 
   -8043    -8882    -9629   -10286   -10885   -11316   -11530   -11570 
  -11540   -11699   -12104   -12389   -12288   -11824   -10973    -9821 
   -8705    -7846    -7211    -6689    -6244    -6029    -6207    -6734 
   -7479    -8376    -9405   -10451   -11279   -11816   -12280   -12844 
  -13433   -13908   -14169   -14292   -14499   -14688   -14604   -14387 
  -14178   -13875   -13624   -13649   -13768   -13743   -13630   -13561 
  -13602   -13839   -14365   -15088   -15746   -16137   -16098   -15579 
  -14948   -14674   -14783   -15052   -15374   -15540   -15295   -14794 
  -14400   -14203   -14151   -14241   -14376   -14430   -14354   -14048 
  -13489   -12887   -12411   -12032   -11643   -11152   -10524    -9805 
   -9070    -8373    -7758    -7346    -7224    -7252    -7329    -7559 
   -7819    -7846    -7693    -7590    -7654    -7843    -8081    -8286 
   -8368    -8396    -8434    -8316    -7913    -7233    -6385    -5639 
   -5107    -4530    -3791    -3171    -2802    -2484    -2207    -2168 
   -2337    -2576    -2850    -3074    -3176    -3202    -3165    -3102 
   -3199    -3557    -4052    -4709    -5730    -6880    -7629    -7918 
   -8060    -8210    -8216    -7776    -6877    -5907    -5157    -4580 
   -4091    -3767    -3731    -4005    -4432    -4720    -4582    -4006 
   -3305    -2667    -1920     -961      -72      365      170     -545 
   -1379    -1918    -2044    -1930    -1838    -1850    -1901    -1940 
   -1791    -1338     -802     -359       60      365      388      269 
     188       72     -163     -476     -806    -1197    -1670    -2020 
   -1951    -1359     -462      485     1537     2701     3781     4652 
    5214     5460     5584     5843     6421     7152     7617     7650 
    7357     6865     6270     5708     5261     4764     4173     3817 
    3833     4011     4191     4407     4833     5298     5362     5243 
    5187     4885     4535     4351     4083     3978     4100     3812 
    3153     2888     3020     3082     2966     2569     2226     2341 
    2519     2654     2943     2945     2316     1310      176    -1072 
   -2281    -3186    -3793    -4206    -4409    -4556    -4918    -5363 
   -5615    -5835    -6167    -6427    -6542    -6527    -6387    -6252 
   -6124    -6047    -6345    -7012    -7543    -7506    -6965    -6404 
   -6179    -6332    -6851    -7587    -8314    -9119   -10148   -11102 
  -11584   -11609   -11396   -11047   -10696   -10465   -10197    -9813 
   -9452    -8947    -8161    -7467    -7099    -6827    -6534    -6379 
   -6456    -6789    -7488    -8508    -9566   -10416   -10885   -11026 
  -11156   -11374   -11497   -11472   -11402   -11324   -11191   -11030 
  -10997   -11076   -11041   -10858   -10656   -10539   -10738   -11427 
  -12389   -13232   -13689   -13704   -13436   -13033   -12541   -12050 
  -11650   -11354   -11081   -10685   -10263   -10011    -9806    -9582 
   -9623   -10100   -10931   -11922   -12752   -13270   -13692   -14139 
  -14438   -14640   -15148   -16000   -16708   -16991   -17070   -17236 
  -17474   -17555   -17472   -17440   -17520   -17589   -17596   -17652 
  -17750   -17621   -17227   -16888   -16669   -16298   -15690   -15063 
  -14649   -14521   -14641   -14940   -15432   -16106   -16725   -17046 
  -17031   -16677   -15977   -15046   -14175   -13673   -13469   -13157 
  -12624   -12151   -11932   -11866   -11701   -11304   -10785   -10185 
   -9422    -8667    -8223    -8075    -8043    -8095    -8253    -8521 
   -8958    -9634   -10481   -11305   -11868   -12061   -11981   -11687 
  -11268   -11082   -11253   -11518   -11841   -12394   -13108   -13675 
  -13893   -13868   -13780   -13586   -13176   -12691   -12269   -11707 
  -10865    -9827    -8636    -7449    -6454    -5580    -4836    -4446 
   -4382    -4383    -4353    -4317    -4202    -3939    -3500    -2827 
   -2070    -1476     -859      -50      542      540       76     -584 
   -1301    -2037    -2865    -3849    -4815    -5545    -6117    -6674 
   -7191    -7656    -8087    -8475    -8794    -8897    -8667    -8253 
   -7864    -7610    -7623    -7974    -8553    -9157    -9604    -9862 
  -10076   -10304   -10379   -10237   -10057    -9945    -9834    -9564 
   -9067    -8554    -8159    -7751    -7339    -7148    -7375    -7896 
   -8317    -8549    -8756    -8907    -9016    -9234    -9451    -9459 
   -9220    -8667    -7706    -6599    -5820    -5526    -5695    -6402 
   -7424    -8268    -8779    -9068    -9106    -8850    -8370    -7707 
   -6944    -6280    -5703    -5079    -4674    -4784    -5112    -5311 
   -5498    -5786    -6080    -6368    -6738    -7238    -7815    -8328 
   -8783    -9400   -10183   -10710   -10678   -10282    -9863    -9482 
   -9168    -9199    -9658   -10216   -10606   -10792   -10771   -10589 
  -10330   -10004    -9579    -9054    -8459    -7835    -7171    -6340 
   -5276    -4121    -3049    -2215    -1748    -1544    -1475    -1690 
   -2331    -3245    -4127    -4813    -5446    -6168    -6772    -7015 
   -7060    -7326    -7958    -8709    -9265    -9557    -9758    -9882 
   -9695    -9139    -8368    -7441    -6402    -5274    -3949    -2568 
