Origin Time       2011/03/11 14:46:00
Lat.              38.103
Long.             142.860
Depth. (km)       24
Mag.              9.0
Station Code      HKD133
Station Lat.      42.4727
Station Long.     140.8657
Station Height(m) 11
Record Time       2011/03/11 14:48:49
Sampling Freq(Hz) 100Hz
Duration Time(s)  140
Dir.              E-W
Scale Factor      3920(gal)/6182761
Max. Acc. (gal)   14.577
Last Correction   2011/03/11 14:48:34
Memo.             
[...]
   -8296    -8080    -8304    -9289   -10816   -12340   -13535   -14343 
  -14870   -15345   -15845   -16168   -16200   -16166   -16385   -16939 
  -17551   -17879   -17920   -17831   -17795   -18064   -18588   -18946 
  -18796   -18122   -17201   -16412   -15995   -15954   -16122   -16332 
  -16611   -17159   -18018   -18926   -19530   -19616   -19219   -18540 
  -17755   -17017   -16497   -16349   -16615   -17181   -17855   -18413 
  -18609   -18272   -17469   -16530   -15770   -15244   -14869   -14533 
  -14002   -13033   -11740   -10548    -9783    -9558    -9869   -10545 
  -11149   -11192   -10583    -9626    -8752    -8401    -8877   -10108 
  -11556   -12592   -12870   -12286   -10927    -9143    -7484    -6411 
   -6112    -6657    -7994    -9737   -11292   -12230   -12483   -12248 
  -11731   -11045   -10388   -10083   -10388   -11322   -12676   -14281 
  -16050   -17797   -19259   -20210   -20476   -20009   -19053   -18147 
  -17731   -17721   -17625   -16995   -15672   -13879   -12152   -11039 
  -10733   -10977   -11430   -11873   -12120   -12161   -12175   -12320 
  -12631   -13007   -13289   -13394   -13398   -13468   -13750   -14219 
  -14624   -14774   -14656   -14266   -13604   -12702   -11607   -10448 
   -9351    -8262    -7028    -5642    -4277    -3079    -2040    -1073 
    -202      367      461      121     -460    -1088    -1665    -2156 
   -2658    -3362    -4201    -4854    -5177    -5334    -5553    -5936 
   -6418    -6803    -6942    -6817    -6421    -5830    -5314    -5151 
   -5465    -6239    -7232    -8018    -8404    -8621    -8956    -9456 
  -10050   -10655   -11151   -11349   -11177   -10924   -11063   -11840 
  -13175   -14800   -16298   -17171   -17301   -17092   -16860   -16522 
  -15986   -15421   -15132   -15354   -16032   -16885   -17748   -18666 
  -19682   -20675   -21373   -21426   -20634   -19255   -17972   -17345 
  -17300   -17249   -16724   -15715   -14467   -13323   -12584   -12289 
  -12375   -12874   -13669   -14422   -14794   -14647   -14197   -13956 
  -14458   -15874   -17695   -19043   -19520   -19432   -19316   -19604 
  -20489   -21713   -22716   -23192   -23330   -23399   -23419   -23315 
  -23123   -23035   -23353   -24275   -25559   -26486   -26384   -25183 
  -23421   -21818   -20791   -20311   -20219   -20288   -20094   -19285 
  -17870   -16189   -14611   -13254   -12043   -10831    -9599    -8539 
   -7823    -7490    -7516    -7859    -8434    -9061    -9497    -9533 
   -9100    -8392    -7817    -7709    -8028    -8335    -8230    -7847 
   -7691    -8123    -9110   -10258   -11083   -11304   -10983   -10371 
   -9575    -8582    -7460    -6344    -5372    -4570    -3853    -3308 
   -3195    -3615    -4445    -5468    -6427    -7108    -7540    -8104 
   -9128   -10510   -11947   -13351   -14910   -16784   -18710   -20138 
  -20832   -21103   -21305   -21449   -21412   -21144   -20740   -20502 
  -20839   -22037   -23833   -25406   -26025   -25492   -24135   -22459 
  -20704   -18904   -17219   -15931   -15219   -14913   -14567   -13898 
  -12942   -11804   -10564    -9304    -8058    -6839    -5707    -4847 
   -4462    -4425    -4362    -4088    -3667    -3350    -3426    -4016 
   -5041    -6200    -7129    -7825    -8586    -9625   -10799   -11561 
  -11414   -10352    -8748    -7237    -6569    -6963    -7950    -9043 
  -10055   -10878   -11395   -11588   -11636   -11836   -12369   -13176 
  -13932   -14053   -13040   -11033    -8832    -7288    -6771    -7218 
   -8343    -9699   -10928   -11890   -12402   -12238   -11466   -10428 
   -9466    -8842    -8693    -8956    -9412    -9821   -10139   -10477 
  -10878   -11281   -11622   -11951   -12477   -13339   -14315   -14904 
  -14785   -14181   -13609   -13420   -13697   -14296   -14955   -15490 
  -15893   -16311   -16847   -17325   -17265   -16272   -14482   -12515 
  -11039   -10379   -10510   -11249   -12331   -13539   -14708   -15638 
  -16169   -16252   -15960   -15417   -14623   -13506   -12281   -11477 
  -11428   -12021   -12980   -14084   -15142   -15958   -16371   -16371 
  -16028   -15345   -14394   -13423   -12670   -12181   -11836   -11410 
  -10698    -9713    -8795    -8385    -8688    -9533   -10460   -11041 
  -11113   -10722   -10099    -9584    -9339    -9258    -9187    -9075 
   -8907    -8607    -8082    -7333    -6426    -5387    -4239    -3079 
   -2017    -1217     -979    -1531    -2683    -3896    -4736    -5084 
   -5026    -4790    -4740    -5173    -6119    -7448    -8989   -10441 
  -11425   -11653   -11111   -10170    -9338    -8895    -8910    -9333 
   -9887   -10125    -9776    -8991    -8152    -7550    -7435    -8002 
   -9110   -10328   -11334   -12049   -12427   -12447   -12252   -12076 
  -12111   -12436   -13030   -13855   -14820   -15836   -16995   -18350 
  -19724   -20985   -21987   -22416   -22220   -21785   -21469   -21362 
  -21441   -21657   -21884   -22077   -22435   -23154   -24185   -25327 
  -26369   -27111   -27326   -26793   -25430   -23292   -20546   -17675 
  -15420   -14137   -13600   -13458   -13457   -13456   -13429   -13303 
  -12856   -11795   -10120    -8347    -7049    -6379    -6174    -6198 
   -6326    -6610    -7078    -7625    -8097    -8359    -8436    -8486 
   -8607    -8800    -8949    -8846    -8388    -7758    -7304    -7229 
   -7426    -7683    -7917    -8141    -8409    -8791    -9267    -9760 
  -10285   -10946   -11742   -12500   -13117   -13694   -14492   -15774 
  -17558   -19541   -21271   -22454   -23108   -23388   -23415   -23254 
  -22993   -22867   -23128   -23815   -24652   -25156   -25144   -24966 
  -24938   -24918   -24600   -23900   -22974   -22001   -21009   -19959 
  -18866   -17785   -16827   -16139   -15706   -15234   -14466   -13503 
  -12608   -11856   -11157   -10369    -9320    -7957    -6480    -5221 
   -4384    -4014    -4071    -4295    -4264    -3700    -2674    -1459 
    -237      874     1749     2350     2697     2845     2847     2723 
    2547     2411     2408     2679     3231     3859     4384     4795 
    5150     5448     5540     5230     4469     3386     2183      995 
    -147    -1296    -2574    -4102    -5930    -8047   -10375   -12685 
  -14590   -15735   -16002   -15627   -15012   -14406   -13912   -13590 
  -13479   -13579   -13654   -13352   -12607   -11634   -10748   -10193 
  -10010   -10138   -10513   -11065   -11740   -12439   -12996   -13301 
  -13365   -13285   -13157   -12947   -12620   -12269   -11928   -11586 
  -11252   -10695    -9654    -8366    -7388    -7088    -7430    -8088 
   -8771    -9331    -9582    -9245    -8185    -6563    -4650    -2668 
    -852      498     1116      931       23    -1501    -3384    -5245 
   -6764    -7732    -8207    -8471    -8695    -8865    -8925    -8903 
   -8874    -8859    -8989    -9461   -10260   -11197   -12100   -13009 
  -14136   -15607   -17433   -19584   -21776   -23441   -24210   -24176 
  -23583   -22617   -21411   -20045   -18663   -17419   -16321   -15334 
  -14463   -13678   -13023   -12631   -12551   -12757   -13188   -13686 
  -14159   -14652   -15025   -15014   -14643   -14218   -14162   -14753 
  -15798   -16827   -17438   -17424   -16953   -16445   -16147   -16078 
  -16226   -16521   -16793   -16908   -16938   -16997   -17001   -16810 
  -16337   -15550   -14563   -13598   -12718   -11719   -10457    -9128 
   -8059    -7513    -7657    -8362    -9212    -9808    -9807    -9045 
   -7834    -6768    -6250    -6392    -7147    -8331    -9675   -11044 
  -12402   -13650   -14675   -15447   -16080   -16805   -17728   -18674 
  -19373   -19742   -19903   -19896   -19506   -18525   -17062   -15443 
  -14009   -12963   -12205   -11542   -10987   -10565   -10064    -9179 
   -7775    -5942    -3925    -2127    -1031     -847    -1297    -1944 
   -2514    -2843    -2785    -2306    -1646    -1270    -1411    -1936 
   -2615    -3116    -3223    -3032    -2596    -2016    -1739    -2195 
   -3443    -5316    -7582    -9982   -12259   -14131   -15415   -16325 
  -17337   -18709   -20319   -21767   -22532   -22324   -21300   -19955 
  -18874   -18433   -18661   -19389   -20343   -21168   -21532   -21172 
  -20066   -18517   -16933   -15797   -15498   -15926   -16717   -17762 
  -19212   -21069   -22904   -24117   -24430   -24051   -23445   -23040 
  -23018   -23229   -23406   -23431   -23275   -22877   -22197   -21294 
  -20369   -19561   -18790   -18066   -17544   -17253   -17196   -17365 
  -17543   -17440   -17005   -16457   -16041   -15929   -16178   -16655 
  -17176   -17602   -17739   -17485   -17039   -16804   -17047   -17746 
  -18795   -20095   -21437   -22574   -23398   -23843   -23691   -22745 
  -21203   -19692   -18765   -18532   -18931   -19932   -21305   -22537 
  -23044   -22572   -21417   -20110   -19111   -18698   -18885   -19462 
  -20049   -20229   -19820   -18852   -17417   -15677   -13817   -11958 
  -10207    -8628    -7228    -6041    -5134    -4480    -3894    -3134 
   -2058     -721      688     2006     3211     4368     5381     5971 
    5985     5609     5200     4921     4770     4870     5343     5961 
    6188     5650     4413     2687      590    -1687    -3835    -5666 
   -7184    -8438    -9486   -10427   -11383   -12374   -13292   -14027 
  -14492   -14692   -14830   -15039   -15177   -15045   -14594   -13974 
  -13418   -13051   -12845   -12651   -12317   -11888   -11557   -11472 
  -11794   -12621   -13701   -14644   -15316   -15713   -15758   -15551 
  -15471   -15829   -16637   -17721   -18812   -19500   -19432   -18634 
  -17399   -16067   -14980   -14419   -14569   -15352   -16277   -16725 
  -16304   -15007   -13227   -11559   -10467   -10010    -9845    -9610 
   -9381    -9497   -10051   -10872   -11666   -12254   -12866   -13758 
  -14780   -15593   -15947   -15863   -15631   -15587   -15808   -15940 
  -15588   -14816   -13923   -13109   -12443   -11742   -10618    -8888 
   -6847    -5155    -4379    -4471    -4751    -4608    -4159    -3911 
   -4056    -4442    -4908    -5421    -6014    -6667    -7271    -7677 
   -7736    -7356    -6686    -6231    -6442    -7243    -8185    -8776 
   -8630    -7754    -6692    -6181    -6672    -8157   -10294   -12571 
  -14352   -15080   -14734   -13842   -12952   -12381   -12295   -12701 
  -13417   -14181   -14788   -15049   -14755   -13871   -12621   -11392 
  -10710   -10940   -11841   -12788   -13347   -13496   -13522   -13600 
  -13486   -12799   -11397    -9580    -8013    -7168    -6939    -6857 
   -6629    -6390    -6317    -6243    -5817    -4895    -3876    -3500 
   -4138    -5538    -7133    -8404    -9199    -9682   -10009   -10217 
  -10361   -10532   -10788   -11188   -11773   -12450   -13072   -13659 
  -14363   -15085   -15533   -15689   -15749   -15794   -15885   -16083 
  -16231   -15997   -15214   -14060   -12879   -11900   -11188   -10764 
  -10684   -11021   -11805   -12815   -13486   -13297   -12280   -10964 
  -10032   -10014   -10960   -12434   -13856   -14885   -15564   -15989 
  -16199   -16347   -16526   -16678   -16817   -17033   -17334   -17608 
  -17662   -17364   -16832   -16358   -16075   -15756   -15102   -14147 
  -13106   -12052   -11067   -10258    -9479    -8502    -7365    -6225 
   -5078    -3807    -2519    -1553    -1023     -784     -751     -831 
    -883     -884     -928    -1077    -1255    -1433    -1753    -2187 
   -2543    -2746    -2717    -2400    -2034    -1950    -2174    -2501 
   -2858    -3402    -4262    -5389    -6701    -8151    -9531   -10512 
  -11127   -11916   -13265   -14988   -16664   -17910   -18461   -18349 
  -17967   -17847   -18238   -18910   -19576   -20327   -21276   -22121 
  -22404   -21934   -20898   -19726   -18802   -18190   -17690   -17164 
  -16568   -15802   -14811   -13601   -12165   -10593    -9177    -8229 
   -7803    -7693    -7681    -7688    -7590    -7120    -6188    -5079 
   -4222    -3889    -4017    -4374    -4783    -5011    -4882    -4504 
   -4042    -3503    -2928    -2502    -2317    -2224    -2041    -1757 
   -1437    -1003     -433      -71     -355    -1365    -2832    -4549 
   -6436    -8222    -9534   -10166   -10101    -9629    -9350    -9805 
  -11198   -13312   -15655   -17861   -19823   -21534   -23008   -24233 
  -25117   -25508   -25440   -25256   -25180   -25042   -24578   -23795 
  -23023   -22400   -21558   -20220   -18619   -17080   -15791   -14884 
  -14223   -13381   -12088   -10609    -9464    -8693    -7832    -6731 
   -5716    -4951    -4336    -3734    -3020    -2289    -1875    -1844 
   -1801    -1355     -566      180      551      359     -412    -1474 
   -2363    -2717    -2472    -1994    -1822    -2266    -3260    -4364 
   -5195    -5764    -6093    -6183    -6138    -5812    -4974    -3924 
   -3381    -3722    -4768    -6235    -7785    -8903    -9198    -8810 
   -8324    -7990    -7738    -7869    -8583    -9545   -10345   -10739 
  -10883   -11221   -11851   -12695   -13669   -14348   -14388   -14070 
  -13947   -14275   -14867   -15521   -16502   -18188   -20302   -22091 
  -23208   -23775   -24073   -24483   -25074   -25474   -25331   -24562 
  -23456   -22519   -21967   -21762   -21838   -21822   -21312   -20563 
  -19987   -19550   -19096   -18475   -17662   -16990   -16563   -15933 
  -14668   -12784   -10864    -9665    -9169    -8647    -7831    -7222 
   -7083    -6819    -5801    -4295    -3079    -2546    -2445    -2179 
   -1383     -319      447      588      106     -661    -1073     -675 
     300     1293     2136     3140     4594     6303     7748     8739 
    9563    10461    11195    11336    10845     9966     8851     7636 
    6544     5718     4933     3782     2222      480    -1277    -2908 
   -4102    -4716    -5444    -7047    -9197   -11404   -13684   -15610 
  -16706   -17480   -18208   -17962   -16467   -15221   -15510   -16922 
  -18098   -17873   -16336   -14555   -13162   -12518   -12529   -11905 
  -10205    -8645    -7885    -8137    -9678   -11087   -10633    -9333 
   -9115   -10208   -11720   -12449   -12164   -12016   -12694   -13752 
  -14495   -14590   -14250   -14022   -14491   -15751   -16996   -17461 
  -17403   -17528   -18035   -18542   -18900   -19284   -19535   -19710 
  -20327   -21263   -21844   -21977   -22326   -23381   -24656   -25466 
  -25726   -25317   -24281   -23200   -22280   -21176   -19705   -18128 
  -16874   -16353   -16738   -17438   -17596   -17112   -16347   -15551 
  -14997   -14954   -15302   -15581   -15634   -15437   -14854   -14395 
  -14395   -14443   -14897   -15817   -15981   -15263   -14694   -14384 
  -14011   -13600   -12939   -12210   -11948   -11837   -11595   -11433 
  -11287   -11131   -11039   -10913   -10673   -10345   -10129   -10444 
  -11559   -13249   -14827   -15839   -16698   -17719   -19050   -20762 
  -21763   -21714   -21671   -21616   -21156   -20300   -18873   -17172 
  -15847   -15286   -15532   -16466   -17854   -18998   -19296   -18937 
  -18363   -17792   -17214   -16557   -15998   -15617   -15142   -14246 
  -12646   -10683    -9251    -8603    -8593    -9028    -9342    -9251 
   -8856    -8184    -7338    -6520    -6032    -5931    -5902    -5846 
   -5592    -4764    -3555    -2754    -2791    -3117    -3265    -3350 
   -2787    -1509     -868     -716      -77      197     -254     -671 
   -1533    -3434    -5702    -7408    -8020    -7674    -7271    -7606 
   -8661   -10086   -11506   -12395   -12669   -12515   -11822   -11014 
  -10680   -10250    -9616    -9688    -9957    -9733    -9982   -10560 
  -10396   -10124    -9926    -8941    -8226    -9200   -11157   -12824 
  -13395   -12521   -11231   -11143   -12348   -13767   -14683   -14826 
  -14328   -13840   -13779   -13845   -13456   -12281   -10852   -10181 
  -10475   -11389   -12774   -14360   -15686   -16469   -16701   -16435 
  -15815   -15365   -15582   -16270   -16870   -17011   -16569   -15696 
  -14779   -14231   -14203   -14483   -14784   -14930   -14812   -14446 
  -13921   -13184   -12336   -12012   -12491   -12842   -11915    -9789 
   -7754    -6659    -5900    -4816    -3597    -2379    -1276     -654 
    -361       73      720     1353     1429      579     -507     -983 
    -952     -802     -733     -990    -1551    -2346    -3626    -5299 
   -6971    -8614   -10262   -11667   -12573   -12886   -12698   -12272 
  -11809   -11294   -10754   -10482   -10747   -11414   -12182   -12928 
  -13490   -13659   -13617   -13717   -13823   -13608   -13260   -13212 
  -13773   -15105   -16830   -18146   -18769   -19063   -19435   -20133 
  -21072   -21717   -21645   -20863   -19669   -18513   -17646   -17038 
  -16685   -16655   -16885   -17061   -16847   -16222   -15374   -14486 
  -13717   -13077   -12456   -11762   -10987   -10245    -9669    -9381 
   -9465    -9853   -10447   -11331   -12435   -13312   -13713   -13817 
  -13817   -13801   -13839   -13957   -14085   -14158   -14312   -14659 
  -15095   -15577   -16047   -16132   -15578   -14596   -13414   -12140 
  -11017   -10193    -9536    -8874    -8179    -7528    -6969    -6487 
   -6078    -5759    -5594    -5553    -5322    -4465    -2835     -780 
    1071     2187     2307     1422     -137    -1798    -3103    -3822 
   -3878    -3487    -3224    -3600    -4581    -5701    -6461    -6600 
   -6127    -5218    -4271    -3760    -3791    -4191    -4881    -5781 
   -6731    -7534    -8185    -8958    -9843   -10404   -10360    -9903 
   -9484    -9376    -9579   -10030   -10648   -11327   -12026   -12783 
  -13552   -14173   -14528   -14674   -14874   -15307   -15768   -15952 
  -15918   -16080   -16783   -17962   -19190   -20072   -20475   -20417 
  -20074   -19749   -19575   -19441   -19313   -19386   -19759   -20205 
  -20441   -20381   -20082   -19770   -19760   -19999   -20142   -20074 
  -19897   -19722   -19550   -19272   -18811   -18194   -17639   -17443 
  -17676   -18166   -18617   -18776   -18731   -18673   -18361   -17423 
  -15949   -14471   -13634   -13762   -14628   -15614   -16004   -15509 
  -14526   -13616   -13004   -12678   -12595   -12699   -12885   -13098 
  -13365   -13707   -14107   -14526   -14820   -14760   -14277   -13504 
  -12577   -11621   -10782   -10149    -9649    -9111    -8477    -7777 
   -6960    -6115    -5576    -5445    -5538    -5726    -5895    -5999 
   -6090    -6038    -5509    -4311    -2761    -1674    -1723    -2926 
   -4827    -6805    -8305    -9081    -9149    -8602    -7607    -6456 
   -5587    -5290    -5353    -5227    -4572    -3520    -2473    -1721 
   -1311    -1173    -1199    -1227    -1054     -440      729     2250 
    3722     4663     4616     3547     1971      476     -727    -1742 
   -2651    -3412    -3974    -4322    -4476    -4494    -4476    -4604 
   -5019    -5671    -6487    -7534    -8816   -10151   -11360   -12375 
  -13229   -13991   -14643   -15118   -15357   -15291   -14980   -14675 
  -14652   -15003   -15580   -16183   -16697   -16991   -16885   -16318 
  -15404   -14277   -13096   -12140   -11683   -11889   -12826   -14372 
  -16122   -17601   -18563   -19035   -19073   -18669   -17914   -16962 
  -15947   -14928   -13888   -12957   -12453   -12516   -12995   -13725 
  -14596   -15395   -15865   -15939   -15847   -15939   -16377   -17107 
  -17978   -18665   -18760   -18274   -17700   -17380   -17230   -17175 
  -17313   -17679   -18176   -18580   -18655   -18418   -18260   -18697 
  -19848   -21254   -22227   -22366   -21912   -21511   -21559   -21883 
