Origin Time       2011/03/11 14:46:00
Lat.              38.103
Long.             142.860
Depth. (km)       24
Mag.              9.0
Station Code      HKD100
Station Lat.      42.2864
Station Long.     143.3120
Station Height(m) 36
Record Time       2011/03/11 14:48:40
Sampling Freq(Hz) 100Hz
Duration Time(s)  89
Dir.              U-D
Scale Factor      3920(gal)/6182761
Max. Acc. (gal)   8.718
Last Correction   2011/03/11 14:48:25
Memo.             
[...]
    6946     6054     3844     2186     1554     1115      616      779 
    2027     3678     4654     4497     3757     3441     3510     2915 
    1631      957     1741     3255     4181     4467     4813     4824 
    3887     2669     2330     3526     5514     6562     6722     7450 
    8657     9258     8406     6044     4345     5410     7821     9188 
    9492     9858    10253     9282     6332     2963     1006      756 
    1437     2320     3723     6438     9667    11231    10567     9796 
   10685    12318    12812    11613     9516     7075     4295     2039 
    1038      455      -31      373     1509     2927     4798     6347 
    6344     5129     3955     3450     3716     4671     5556     5248 
    3718     2112     1245      900      727     1152     2368     3153 
    2312      557     -180      904     2506     2877     1502     -861 
   -2646    -2783    -2096    -2121    -2930    -3273    -2328     -759 
     287      945     1768     1932      609    -1342    -2326    -1279 
    1550     4466     5736     5128     3624     1847     -342    -2345 
   -2341      267     3312     4741     4980     4875     4502     4134 
    3620     2665     2157     2887     4328     5426     5501     4991 
    5101     6104     7125     7706     8139     8546     8542     7700 
    6559     6143     6140     5860     5883     6832     8720    11323 
   13590    14282    13080    10335     7029     4635     4091     5001 
    6093     6853     7775     8722     8717     7299     5205     3840 
    3780     4259     4721     5482     6615     7967     9507    10326 
    9189     6474     4243     4297     6064     7246     6840     5831 
    5316     5204     4503     3239     3065     4756     7125     8616 
    8623     7856     7136     6186     4962     4353     4463     4316 
    3680     3403     3921     4810     5354     4695     2699      883 
     715     1686     2794     4340     6830     9270     9752     7832 
    5179     3415     2487     1477      445      845     3453     6497 
    7374     6034     4626     4222     4103     3150      984    -1249 
   -2053    -1514     -797     -423      218     1616     2687     2280 
    1674     2499     3617     3224     1697      289     -581     -763 
    -227      341      902     2649     5197     6294     5385     4442 
    5439     7943     9107     7342     4810     4511     6356     7341 
    5734     3667     3757     5217     5449     3802     2311     2894 
    4897     6161     5251     2823     1541     2616     3808     3468 
    2806     2608     2143     1528     1510     1441      362     -943 
   -1251     -609      563     2204     4046     5606     6311     5622 
    3818     1781       59     -901     -809     -307       -4      933 
    3262     5567     5922     4959     4874     5994     7077     7723 
    7486     5176     1780      737     3000     5231     4904     3663 
    3696     4215     3406     1133    -1109    -1209     1606     4988 
    5956     4990     4573     5062     5142     4297     2800     1113 
    -316    -1432    -1978    -1368     -148      617     1669     4075 
    5986     4756     1410     -623     -125     1515     3152     4536 
    5516     6086     5985     4716     2631      983      872     2128 
    3502     4416     5182     5706     5924     6053     5210     2487 
    -651    -1669      203     3997     8181    11173    12232    11775 
   10424     8510     6532     5196     4406     3411     2595     2932 
    3991     4892     5576     6033     6634     8207    10264    11332 
   10701     8621     6120     4096     2786     2924     4705     6096 
    5487     4222     4507     6797     9770    11672    11624     9934 
    7781     6517     6039     5021     3782     3991     5561     7280 
    8764     9546     9000     7910     7650     8126     8350     8119 
    7864     7858     8200     8786     8892     7659     5766     5242 
    6794     8835     9678     9547     9449     8977     7254     4896 
    2836     1315      919     1873     3221     4464     5987     7168 
    6079     2282    -1511    -2431     -462     2842     5917     7357 
    7048     6411     6374     6023     4118     1416     -184     -266 
     482     1893     3638     4576     4080     2932     2212     1960 
    1622     1116      679      707     1906     4101     5531     5161 
    4214     3890     4100     5060     7271     9729    10196     7898 
    4868     3442     3358     2898     1755     1151     1989     4113 
    6906     9502    10680     9783     7585     5431     4099     4084 
    5457     6690     6031     4524     4833     7716    11597    14041 
   13582    11259     9274     8456     7818     6561     6085     7666 
    9656    10667    11674    12500    11553     9356     7736     6835 
    5861     5310     6361     8727    11022    12382    12096     9642 
    6139     3874     3865     4378     3353     2311     3975     7268 
    9462    10250    10558    10739    10840    10616     9877     9340 
    9842    10915    11536    11392    10507     9372     8963     8965 
    8023     6323     5698     7230     9851    11618    11890    11141 
    9804     8391     6969     4996     2791     1366      904      772 
     559      426      411      154     -438     -972    -1045     -593 
      60      371      -13     -599     -375      428      364     -415 
     114     2205     3712     3783     3664     3874     3647     2551 
     693    -1448    -2274     -366     3011     5272     5772     5577 
    5478     5665     5935     5694     4861     4502     5558     7175 
    7385     5683     3711     2692     1888      694      289     1930 
    5149     8273     9856     9833     9285     8550     6502     2568 
   -1611    -3412    -1602     2148     4402     3862     2760     3387 
    4897     4540     1799     -518     -190     1925     3461     3113 
    2292     3233     5545     7400     8564     9383     9444     8964 
    8544     7912     7037     6636     6881     7072     6908     7636 
   10072    12114    11733    10355     9803     9316     7889     6216 
    5442     5895     7135     8506     9479    10118    11196    12479 
   12048     9163     5782     4068     4338     5351     5691     5403 
    5877     7431     8166     6488     3447     1090      344      900 
    1506     1416     1537     2252     2218     1169      868     2294 
    4479     5757     4845     2063     -301     -329     1122     1783 
    1191     1053     2464     4024     3548     1134     -806     -731 
     146       44     -472      353     2454     4428     5647     5877 
    4462     1551     -843     -801      919     2247     2585     2595 
    3108     4426     5229     3606      193    -1717     -596     1343 
    2424     3892     6341     8290     8867     8161     6244     4173 
    3307     3305     3163     3140     4335     6853     9045     9332 
    7919     5951     4629     5014     6914     8732     9269     8919 
    8574     8069     7052     6452     6816     6793     5642     4923 
    5448     5545     4272     3061     3001     3424     3340     2539 
    1899     2838     5102     6158     4690     2709     2258     2651 
    2634     2742     3756     4731     4497     3656     3505     4356 
    5584     6250     5998     5725     6168     6180     4418     2121 
    1887     3794     5032     4054     2679     3122     4998     6302 
    6455     7101     9316    11049     9515     5734     3657     5045 
    8046    10314    10944     9914     7889     6017     4830     4119 
    3780     4193     5670     7698     9355     9871     8789     6718 
    4871     3635     3043     3638     5698     8389    10101     9950 
    9131     9385    10078     9063     6365     4394     4181     4295 
    3973     4196     5517     7027     7346     5923     3998     3986 
    6225     7939     7822     7990     9499    10714    10471     9139 
    7635     7045     7672     8357     7890     6474     5192     4814 
    5325     6088     6626     7035     7250     7020     6617     6152 
    5316     4584     4626     4708     3871     2896     2946     3684 
    4455     5274     5827     5599     4823     4314     4649     5306 
    5495     5899     7385     9108    10123    10647    10628     9586 
    7954     7031     7634     8740     8307     6128     4195     4004 
    5126     6286     6835     6995     7179     7454     7490     6906 
    5788     4909     4799     4837     4318     3374     2497     2325 
    2746     2548     1416      245     -491     -529      393     1672 
    2594     3005     2335      187    -2285    -3506    -3441    -3384 
   -3655    -2831     -333     2130     2787     1864      963      996 
     913     -702    -2825    -2629      682     4317     5397     4969 
    5853     7467     6809     3508      232     -715     1000     4005 
    6220     6998     7484     7726     6071     2597      145      772 
    3263     5183     5877     6318     6547     4818      651    -3126 
   -3943    -2553     -728      870     2250     3850     5534     5742 
    3521      337    -1351     -976     -402     -470      546     3109 
    5110     5269     3890     1779     1029     3410     6971     8262 
    7420     7084     7788     7895     6392     4105     3155     4277 
    5319     4724     4264     6258    10081    12587    11845     9825 
    9959    12339    13488    11296     7901     6279     6540     7442 
    8574     9742    10718    11623    12284    12091    11087     9854 
    8143     5305     2152     1026     3620     8930    13633    14962 
   13493    12074    11657    10670     8695     7081     6531     7397 
    9828    11960    11570     9186     7030     6054     5402     4833 
    5414     6949     8070     8477     8307     7332     6021     5508 
    6378     8037     9505    10531    11038    10659     9522     7895 
    5552     2885     1873     4086     7902    10344    10889    10608 
    9669     7974     6018     4321     3564     4737     7614    10061 
   10402     8906     6222     3108     1266     1697     3283     4484 
    5529     7345     8829     8093     5576     2972     1202      723 
    1150     1333     1403     2372     3543     3544     2905     2657 
    2408     1671     1107     1516     2972     5043     6819     7287 
    6180     4301     3098     3221     3909     4291     4250     4342 
    5102     5954     6309     7000     8341     8870     7959     7132 
    7492     8224     8753    10014    12054    12677    10554     7889 
    7812    10172    11850    10854     8469     7159     7335     7315 
    6760     7682    10598    12816    11630     7113     2253      453 
    1615     2630     2215     2017     3247     4938     5394     4151 
    2159      451     -755    -1503    -1104      953     3511     4944 
    5051     4761     4651     3913     1373    -1982    -3305    -1354 
    2227     5097     6220     6078     5758     5663     5262     4490 
    4456     5489     6161     6063     6843     9072    11091    11369 
   10352     9757    10322    11202    11665    11998    12562    12825 
   11719     9138     6942     7122     9168    11402    13535    15222 
   14784    12086     9096     6651     4791     4596     6037     6991 
    6379     5748     6576     7745     7557     6749     6972     8050 
    8796     8617     7627     6660     6742     7775     8366     7220 
    4610     2331     1773     2513     3514     4623     6188     8046 
    9134     8433     6454     4627     3701     3559     3443     2598 
    1232       64     -369      240     1562     2849     3928     5021 
    5794     5731     5364     5871     7166     7665     6507     4532 
    3124     3500     5506     6901     6356     5334     5149     5072 
    4169     2978     2838     4334     7003     9527    10041     8096 
    5595     4327     3862     2908     1654     1347     2339     3999 
    5602     6543     6457     5173     2835      435    -1103    -1883 
   -1681      266     3305     5548     5909     4657     2718     1192 
     704      765      858     1417     2686     4106     5003     5022 
    4366     3452     2581     2232     2379     2278     2167     3170 
    5159     6663     6497     4733     2662     1789     2399     2939 
    1689     -759    -2039    -1141      572     1845     2789     3238 
    2959     3007     3844     3788     1787     -304     -460      418 
     570      122     -493    -1343    -1346      148     1416     1339 
    1312     2008     1951      713     -332     -656     -723     -661 
    -316      351      894     1047     1347     1778     1612      782 
    -231     -775     -387      367      938     1898     3313     4058 
    3678     3069     3250     4134     4610     3928     2506     1228 
     424     -110      -66     1272     3371     4605     4312     3192 
    2111     1096     -841    -4100    -6667    -5992    -2897     -772 
    -845    -1167     -233      733     -156    -2718    -5111    -5782 
   -4724    -3410    -2789    -1891      -13      899    -1143    -4197 
   -4686    -2518     -410      254      272      620     1176     1427 
    1609     2409     3911     5090     4684     3387     3423     5039 
    6220     5786     4201     2403     1195      787     1035     2506 
    5621     8534     8324     4830     1234       37      259       24 
     100     2396     6441     9729    10406     8430     5059     1471 
   -1988    -4778    -5783    -4641    -2310       -9     2184     4724 
    6465     5537     2119    -2046    -5731    -8341    -9338    -8368 
   -5800    -3046    -1618    -1618    -1972    -2141    -2160    -1531 
    -236      396     -417    -1846    -2359    -1086      893     2032 
    2635     3385     3879     3841     3428     2849     2516     2444 
    2093     1505     1392     1866     2524     3428     4533     5230 
    5365     5491     5672     5371     4917     5358     6297     5932 
    4023     2718     3414     5070     6294     6933     7372     7446 
    6519     4553     2275      672      518     1281     1679     1856 
    2838     4397     5371     5170     4299     3971     4734     5560 
    5226     4327     4688     6103     5905     3502     1947     3034 
    4473     3783     2049     1595     2370     3123     4166     6589 
    9675    11105     9950     7737     5980     4512     2816     1203 
     490     1587     4515     7667     9523    10056     9304     6759 
    3234     1098     1549     3235     4438     5249     6460     7639 
    7878     7070     5718     4987     5661     6314     5336     3913 
    4359     7015     9484     8679     5039     2711     3580     4988 
    4683     3868     4523     6207     6692     5457     4739     6298 
    9189    11149    10614     8122     6199     6491     7928     8208 
    6592     5318     6515     8929    10585    11330    11285    10481 
    9356     8014     6698     6540     8337    10999    12038    10366 
    8030     7568     8530     8687     7383     5615     4331     3890 
    3857     3622     3768     5031     6613     7419     7555     7686 
    7700     6606     3974     1082      230     2374     5606     7053 
    6144     4832     4603     5244     6298     7121     6552     4325 
    1920     1258     2416     3613     3757     3139     2339     2187 
    3354     4971     5331     4700     5057     6889     8839     9519 
    8549     7241     7246     7820     6486     2941      130      162 
    1601     2480     3227     5101     7617     8841     7812     5890 
    5415     6771     7644     6373     4176     2860     2407     1734 
     665      185      946     2453     3428     2952     2015     2270 
    2970     2342     1198     1755     3833     4936     3862     2172 
    1817     2860     3764     3605     3436     4303     5271     4988 
    3709     3058     4033     5667     6748     7488     8338     8911 
    8687     7811     6803     6180     6500     7501     8092     8210 
    8693     9373     9382     8489     7312     6829     7134     7241 
    7068     7812     9573    10719    10002     7903     5798     4596 
    4343     4540     4870     5839     7556     8910     9224     8731 
    7868     7408     7766     8146     7700     7049     7394     8633 
    9652     9888     9627     9221     8704     8087     7417     6490 
    5243     4434     4895     6416     8227     9317     8740     7146 
    6043     5606     5305     5007     4891     5090     4890     3740 
    2878     3369     4226     4376     4206     4284     4443     4494 
    4652     5066     5222     4482     3594     3753     4131     3209 
    1556      608      783     2026     3741     4706     4776     4967 
    5558     5723     4960     4045     3571     2442       85    -1751 
   -1457      304     1343      277    -1335     -970      931     2041 
    1437     -392    -2626    -4556    -5693    -5511    -4005    -2048 
    -323      983     1344      286    -1468    -2624    -2617    -1757 
    -893     -617     -698     -573        9      475      -27    -1017 
   -1167     -719    -1215    -2452    -2249     -180     1443     1648 
    2250     4180     5793     5563     4069     2748     2347     2429 
    1639      -52     -520     1157     3046     3232     2015     1108 
    1581     2518     2403     1341      591      664      790      271 
    -142      355      695     -332    -1725    -1692     -500       -1 
    -574     -798      -32      680      112    -1646    -3313    -3437 
   -1300     2053     4441     5195     5492     5961     6091     5520 
    4299     2533      789      287     1456     2880     3221     3071 
    3413     3687     2722      250    -2688    -3706    -1338     2404 
    4526     4865     5123     5933     6488     5911     4028     1770 
     764      924       95    -2027    -2924    -1698     -519     -529 
    -218     1345     3184     4443     5046     5030     4993     5909 
    7396     7636     6038     4674     5315     6544     6362     5312 
    4553     3926     3282     2950     3026     3880     5915     8047 
    8405     7178     6639     7612     8350     7789     6886     6355 
    6072     5775     4764     3171     2478     2611     1762      -22 
    -320     2623     7208     9205     6871     3038      394    -1057 
   -1996    -2652    -2313      -61     2974     4259     2963      652 
    -970    -1722    -1940    -1425     -104     1511     2513     2149 
     840     -178     -638    -1314    -2107    -1842     -181     2073 
    4007     4641     3595     2074     1493     1743     1749      774 
    -965    -2340    -2295    -1034      342     1241     1869     2432 
    2504     1536       35     -858     -924     -660     -287      145 
     756     1757     2497     1707     -530    -2299    -2072     -276 
    1885     4051     6227     7332     5944     2573      -73      145 
    1986     2298      589     -234     1718     4683     6038     5329 
    3874     3495     4986     6459     5377     2447      654     1177 
    2772     4183     5490     7071     8025     7194     4988     2580 
     958     1055     3090     5887     7276     6113     3922     2872 
    3140     3211     1641     -779    -1223      809     2139      922 
    -590      341     3140     4977     4284     1894     -448    -1638 
   -1722     -948      946     3358     4648     4611     4539     4450 
