Origin Time       2011/03/11 14:46:00
Lat.              38.103
Long.             142.860
Depth. (km)       24
Mag.              9.0
Station Code      HKD117
Station Lat.      43.7241
Station Long.     142.0527
Station Height(m) 51
Record Time       2011/03/11 14:48:52
Sampling Freq(Hz) 100Hz
Duration Time(s)  300
Dir.              N-S
Scale Factor      3920(gal)/6182761
Max. Acc. (gal)   11.893
Last Correction   2011/03/11 14:48:37
Memo.             
[...]
    3479     3695     3900     4067     4189     4276     4361     4456 
    4523     4547     4566     4594     4610     4627     4674     4750 
    4824     4877     4914     4971     5058     5145     5208     5256 
    5295     5319     5342     5386     5442     5490     5532     5572 
    5600     5614     5636     5690     5771     5876     6023     6202 
    6370     6518     6658     6795     6948     7123     7284     7401 
    7489     7567     7618     7620     7582     7523     7458     7367 
    7229     7071     6936     6831     6733     6624     6510     6374 
    6170     5914     5668     5435     5182     4907     4625     4349 
    4080     3809     3526     3247     3020     2846     2676     2492 
    2330     2215     2120     2000     1862     1762     1727     1713 
    1685     1651     1625     1596     1547     1495     1463     1467 
    1514     1596     1690     1790     1911     2050     2177     2294 
    2433     2603     2802     3024     3260     3502     3733     3939 
    4132     4329     4512     4641     4717     4770     4828     4912 
    5033     5167     5290     5411     5534     5638     5711     5759 
    5786     5786     5752     5706     5675     5659     5660     5683 
    5715     5739     5739     5711     5663     5606     5552     5503 
    5451     5399     5355     5319     5266     5174     5044     4891 
    4728     4579     4461     4370     4289     4221     4173     4125 
    4055     3981     3923     3866     3795     3722     3666     3631 
    3630     3663     3689     3685     3658     3589     3433     3144 
    2713     2235     1813     1429      998      580      329      212 
      85      -26      -23       52      128      181      167      118 
     114      122      102       59      -36     -188     -331     -369 
    -281     -148      -23      150      455      852     1234     1595 
    1969     2346     2724     3085     3461     4017     4749     5426 
    6020     6675     7366     7978     8558     9227     9872    10302 
   10679    11197    11693    12047    12377    12720    13030    13323 
   13606    13859    14080    14231    14267    14206    14068    13876 
   13689    13538    13368    13148    12905    12634    12318    11979 
   11625    11248    10869    10509    10172     9834     9470     9120 
    8825     8558     8291     8053     7862     7702     7540     7360 
    7165     6946     6692     6414     6144     5899     5681     5479 
    5289     5121     4978     4862     4787     4752     4744     4760 
    4800     4843     4876     4909     4939     4961     4977     4988 
    4998     5001     4997     4995     5015     5084     5217     5399 
    5610     5826     6048     6287     6530     6749     6932     7072 
    7175     7257     7312     7328     7335     7333     7272     7127 
    6943     6738     6468     6119     5729     5317     4870     4395 
    3925     3456     2973     2501     2100     1802     1579     1396 
    1244     1123     1036      992      991     1007     1008     1000 
     991      982      976      963      944      930      911      890 
     898      946     1034     1160     1311     1468     1634     1816 
    1996     2183     2418     2709     3045     3427     3834     4232 
    4591     4894     5133     5294     5377     5427     5478     5542 
    5636     5760     5893     6026     6156     6281     6392     6477 
    6558     6679     6812     6916     7033     7184     7325     7418 
    7457     7459     7438     7383     7297     7200     7139     7120 
    7034     6820     6548     6255     5930     5622     5380     5177 
    4958     4736     4533     4256     3810     3276     2781     2299 
    1763     1236      794      415       55     -292     -586     -828 
   -1044    -1212    -1327    -1445    -1614    -1794    -1891    -1902 
   -1884    -1840    -1761    -1638    -1463    -1254    -1018     -755 
    -458     -118      222      552      929     1316     1639     1946 
    2317     2736     3118     3433     3750     4103     4402     4594 
    4743     4884     4955     4927     4886     4900     4909     4849 
    4777     4747     4694     4592     4505     4456     4425     4379 
    4309     4254     4234     4229     4205     4141     4086     4071 
    4014     3864     3722     3635     3519     3351     3205     3094 
    2961     2792     2606     2401     2200     2037     1899     1767 
    1681     1681     1752     1869     2054     2292     2544     2807 
    3068     3304     3549     3842     4154     4473     4847     5242 
    5564     5815     6048     6259     6442     6598     6680     6670 
    6623     6541     6375     6178     6008     5815     5583     5351 
    5158     5049     5007     4980     4997     5149     5420     5662 
    5837     6049     6309     6532     6623     6621     6735     6944 
    6964     6827     6806     6848     6762     6631     6577     6524 
    6455     6440     6421     6357     6331     6382     6450     6451 
    6379     6327     6360     6408     6362     6261     6208     6178 
    6109     6054     6066     6105     6175     6356     6645     6970 
    7324     7697     8055     8421     8805     9160     9484     9798 
   10118    10471    10823    11127    11398    11665    11947    12233 
   12505    12748    12938    13065    13138    13148    13111    13066 
   13010    12930    12855    12803    12760    12689    12582    12451 
   12284    12098    11933    11755    11512    11221    10890    10500 
   10074     9639     9203     8776     8353     7930     7538     7210 
    6952     6756     6607     6486     6386     6286     6149     5976 
    5787     5592     5390     5169     4937     4721     4539     4415 
    4379     4429     4525     4633     4748     4875     4999     5120 
    5274     5488     5739     5987     6205     6411     6614     6782 
    6898     6985     7081     7213     7364     7513     7694     7933 
    8199     8453     8684     8913     9138     9318     9441     9548 
    9666     9755     9753     9656     9512     9337     9113     8812 
    8442     8030     7592     7137     6662     6180     5743     5350 
    4956     4569     4226     3913     3568     3178     2780     2398 
    2070     1807     1570     1371     1237     1156     1101     1051 
    1011     1028     1108     1198     1275     1350     1392     1374 
    1347     1382     1496     1681     1911     2152     2400     2666 
    2944     3214     3486     3772     4056     4349     4660     4941 
    5144     5267     5354     5446     5547     5655     5782     5966 
    6237     6582     6976     7403     7852     8315     8753     9121 
    9407     9622     9779     9912    10063    10252    10460    10691 
   10957    11216    11434    11627    11787    11896    11961    11983 
   11947    11852    11725    11577    11398    11191    10962    10697 
   10396    10071     9744     9462     9255     9110     9010     8956 
    8961     9033     9118     9155     9197     9320     9406     9257 
    8965     8775     8613     8298     7936     7661     7453     7265 
    7013     6717     6536     6406     6136     5797     5483     5133 
    4729     4318     3952     3646     3347     3045     2825     2714 
    2622     2480     2338     2265     2215     2089     1923     1814 
    1740     1637     1489     1356     1363     1529     1764     2017 
    2262     2502     2754     2995     3211     3408     3579     3732 
    3877     4011     4131     4230     4287     4289     4247     4189 
    4149     4154     4187     4202     4201     4207     4191     4109 
    3956     3754     3525     3289     3049     2791     2506     2179 
    1812     1415      982      525       89     -296     -633     -931 
   -1174    -1356    -1502    -1611    -1691    -1801    -1973    -2202 
   -2486    -2800    -3137    -3526    -3947    -4354    -4775    -5237 
   -5701    -6132    -6541    -6941    -7322    -7667    -7975    -8264 
   -8548    -8812    -9031    -9211    -9367    -9479    -9533    -9544 
   -9524    -9486    -9431    -9340    -9216    -9071    -8890    -8650 
   -8333    -7935    -7462    -6906    -6263    -5572    -4878    -4198 
   -3524    -2852    -2192    -1570     -994     -446       56      499 
     907     1281     1608     1914     2221     2544     2892     3246 
    3585     3891     4146     4364     4549     4679     4758     4814 
    4851     4879     4926     5003     5086     5160     5228     5284 
    5330     5372     5394     5391     5367     5307     5202     5061 
    4895     4714     4532     4372     4237     4110     3995     3885 
    3751     3598     3440     3289     3161     3062     2986     2934 
    2908     2911     2931     2949     2942     2884     2800     2717 
    2611     2472     2348     2273     2251     2278     2344     2439 
    2569     2756     2982     3214     3465     3746     4043     4349 
    4668     4998     5344     5717     6116     6521     6941     7389 
    7833     8218     8529     8787     9001     9164     9286     9388 
    9510     9683     9912    10210    10570    10966    11423    11942 
   12448    12906    13334    13738    14128    14480    14770    15043 
   15333    15604    15825    15995    16136    16267    16369    16452 
   16534    16585    16605    16609    16531    16393    16342    16351 
   16286    16166    16063    15976    15892    15844    15820    15716 
   15517    15302    15178    15234    15298    15216    15179    15239 
   15299    15456    15781    16214    16604    16922    17213    17329 
   17472    17854    17985    17855    17978    18126    18034    17954 
   17940    17903    17818    17725    17724    17661    17457    17295 
   17192    17103    16961    16658    16363    16222    16042    15781 
   15585    15427    15244    15037    14823    14574    14200    13722 
   13242    12772    12281    11721    11089    10451     9809     9118 
    8411     7726     7058     6422     5784     5056     4284     3615 
    3018     2358     1689     1167      796      466      141     -115 
    -292     -457     -620     -748     -859     -994    -1177    -1430 
   -1728    -2008    -2253    -2495    -2749    -2988    -3190    -3352 
   -3487    -3590    -3656    -3699    -3737    -3781    -3834    -3893 
   -3945    -3971    -3959    -3910    -3842    -3759    -3646    -3514 
   -3377    -3206    -2980    -2740    -2523    -2312    -2091    -1879 
   -1709    -1588    -1500    -1431    -1395    -1395    -1393    -1367 
   -1336    -1300    -1236    -1139    -1019     -870     -688     -483 
    -256      -15      216      428      609      731      809      875 
     934      987     1041     1106     1205     1344     1509     1696 
    1914     2146     2367     2586     2810     3028     3274     3587 
    3951     4320     4664     5001     5369     5750     6091     6394 
    6680     6932     7123     7242     7301     7319     7294     7226 
    7142     7051     6943     6840     6760     6705     6681     6691 
    6709     6694     6643     6566     6453     6287     6071     5822 
    5546     5243     4939     4660     4392     4107     3831     3589 
    3339     3057     2788     2555     2325     2083     1846     1612 
    1351     1050      725      382       29     -323     -671    -1005 
   -1316    -1609    -1881    -2121    -2324    -2500    -2659    -2797 
   -2927    -3054    -3159    -3252    -3358    -3463    -3554    -3650 
   -3743    -3805    -3838    -3854    -3862    -3869    -3866    -3824 
   -3715    -3554    -3370    -3173    -2951    -2704    -2462    -2231 
   -1976    -1704    -1515    -1411    -1269    -1151    -1175    -1209 
   -1158    -1157    -1217    -1201    -1182    -1241    -1331    -1465 
   -1458    -1246    -1319    -1559    -1467    -1465    -1650    -1658 
   -1727    -1902    -2052    -2244    -2453    -2652    -2823    -2975 
   -3085    -3113    -3100    -3067    -2998    -2886    -2746    -2591 
   -2420    -2252    -2099    -1948    -1798    -1674    -1591    -1543 
   -1515    -1498    -1474    -1434    -1366    -1250    -1096     -936 
    -767     -571     -350     -114      132      379      628      894 
    1198     1559     1972     2424     2923     3462     4032     4629 
    5236     5841     6429     6975     7470     7937     8376     8757 
    9093     9421     9756    10091    10414    10717    11001    11251 
   11447    11584    11665    11671    11572    11390    11162    10888 
   10573    10240     9903     9578     9276     8994     8728     8476 
    8226     7992     7805     7655     7503     7339     7172     6987 
    6776     6557     6325     6049     5742     5453     5202     4968 
    4737     4520     4332     4187     4086     4012     3972     3977 
    3995     4024     4096     4200     4302     4388     4463     4517 
    4537     4559     4607     4660     4707     4740     4743     4734 
    4724     4687     4631     4619     4653     4659     4644     4698 
    4803     4868     4919     5028     5190     5370     5563     5768 
    5979     6197     6434     6687     6939     7186     7436     7705 
    7998     8277     8532     8795     9069     9353     9674    10040 
   10434    10839    11238    11626    12017    12402    12774    13161 
   13577    14011    14451    14891    15341    15808    16274    16741 
   17209    17659    18082    18489    18881    19271    19674    20089 
   20509    20922    21303    21642    21958    22254    22521    22771 
   23008    23207    23361    23497    23632    23726    23743    23702 
   23641    23573    23486    23380    23282    23192    23077    22934 
   22787    22635    22455    22215    21903    21544    21164    20769 
   20373    19988    19616    19261    18905    18546    18215    17917 
   17625    17316    16973    16596    16202    15790    15361    14931 
   14525    14146    13784    13436    13104    12781    12468    12188 
   11959    11788    11668    11600    11594    11647    11732    11835 
   11947    12061    12179    12313    12453    12580    12697    12832 
   12977    13110    13233    13335    13436    13537    13597    13623 
   13649    13682    13711    13736    13767    13800    13812    13779 
   13691    13565    13420    13256    13064    12814    12502    12178 
   11869    11567    11287    11037    10816    10631    10431    10185 
    9947     9707     9406     9039     8615     8155     7688     7222 
    6769     6331     5913     5518     5147     4799     4434     4014 
    3559     3091     2606     2109     1591     1071      596      169 
    -234     -627    -1004    -1371    -1745    -2127    -2510    -2912 
   -3350    -3765    -4110    -4416    -4701    -4958    -5180    -5358 
   -5496    -5593    -5645    -5663    -5637    -5572    -5505    -5451 
   -5404    -5371    -5354    -5345    -5338    -5330    -5311    -5270 
   -5215    -5144    -5044    -4934    -4842    -4756    -4650    -4525 
   -4410    -4324    -4261    -4201    -4138    -4086    -4043    -3992 
   -3943    -3933    -3966    -4014    -4080    -4187    -4349    -4564 
   -4806    -5038    -5261    -5479    -5671    -5822    -5943    -6044 
   -6125    -6185    -6227    -6256    -6276    -6297    -6307    -6282 
   -6233    -6168    -6086    -5993    -5883    -5758    -5637    -5530 
   -5426    -5313    -5214    -5134    -5031    -4912    -4818    -4712 
   -4584    -4480    -4371    -4221    -4036    -3824    -3629    -3407 
   -3087    -2797    -2589    -2340    -2081    -1879    -1675    -1457 
   -1269    -1128    -1017     -914     -830     -764     -656     -470 
    -280     -132       18      200      401      599      782      908 
     985     1124     1301     1441     1627     1852     2012     2122 
    2274     2452     2508     2511     2648     2824     2995     3206 
    3394     3578     3747     3902     4144     4353     4320     4137 
    4082     4162     4062     3684     3311     3156     3078     2865 
    2560     2304     2103     1885     1666     1504     1325     1112 
     924      712      553      504      406      279      219      170 
     192      363      531      585      644      785      942     1075 
    1209     1339     1452     1569     1683     1786     1922     2048 
    2098     2157     2253     2289     2265     2233     2209     2210 
    2215     2164     2064     1985     1952     1926     1886     1865 
    1874     1893     1902     1886     1837     1762     1685     1616 
    1555     1502     1435     1361     1309     1259     1205     1192 
    1198     1168     1116     1097     1084      984      850      762 
     660      534      395      222       42     -142     -323     -462 
    -570     -697     -833     -943    -1130    -1409    -1558    -1570 
   -1647    -1699    -1627    -1554    -1429    -1179     -916     -666 
    -364      -28      290      604      905     1157     1375     1555 
    1693     1818     1950     2108     2281     2436     2595     2775 
    2955     3109     3226     3312     3390     3466     3538     3602 
    3670     3761     3883     4048     4255     4499     4784     5090 
    5408     5736     6050     6338     6609     6859     7087     7281 
    7439     7568     7656     7699     7732     7776     7825     7880 
    7944     8006     8066     8121     8159     8184     8212     8245 
    8270     8292     8345     8410     8457     8523     8648     8811 
    8979     9151     9346     9596     9887    10132    10312    10478 
   10672    10891    11080    11257    11482    11707    11883    12004 
   12109    12242    12332    12371    12446    12546    12662    12789 
   12893    13019    13201    13373    13488    13599    13753    13920 
   14085    14301    14568    14827    15081    15356    15634    15919 
   16213    16500    16792    17099    17402    17694    17993    18318 
   18648    18963    19285    19611    19900    20128    20300    20422 
   20498    20525    20501    20429    20321    20199    20049    19861 
   19656    19442    19206    18936    18640    18336    18025    17692 
   17330    16942    16550    16160    15759    15352    14978    14652 
   14336    14013    13710    13430    13155    12877    12597    12328 
   12071    11822    11592    11390    11201    11008    10811    10631 
   10469    10301    10124     9953     9764     9535     9290     9030 
    8745     8462     8186     7913     7661     7437     7247     7125 
    7099     7156     7247     7361     7502     7647     7783     7887 
    7929     7950     7972     7926     7804     7650     7463     7229 
    6955     6642     6302     5948     5599     5275     4968     4679 
    4374     4006     3639     3331     3002     2606     2188     1783 
    1379      942      475       27     -387     -776    -1141    -1486 
   -1805    -2088    -2339    -2577    -2821    -3054    -3258    -3462 
   -3691    -3940    -4197    -4439    -4659    -4858    -5026    -5160 
   -5274    -5363    -5408    -5418    -5411    -5385    -5333    -5260 
   -5185    -5112    -5021    -4877    -4670    -4433    -4164    -3877 
   -3601    -3296    -2966    -2667    -2396    -2125    -1835    -1582 
   -1391    -1204    -1041     -934     -849     -772     -636     -421 
    -254     -135       40      221      339      397      455      569 
     633      582      512      516      595      653      658      695 
