Origin Time       2011/03/11 14:46:00
Lat.              38.103
Long.             142.860
Depth. (km)       24
Mag.              9.0
Station Code      HKD135
Station Lat.      42.5533
Station Long.     140.8864
Station Height(m) 63
Record Time       2011/03/11 14:47:57
Sampling Freq(Hz) 100Hz
Duration Time(s)  300
Dir.              U-D
Scale Factor      3920(gal)/6182761
Max. Acc. (gal)   9.199
Last Correction   2011/03/11 14:47:42
Memo.             
[...]
  -13609   -13471   -13290   -12983   -13120   -13918   -14946   -15871 
  -16673   -17233   -17402   -17375   -17412   -17576   -18098   -19257 
  -20883   -22468   -23483   -23689   -23163   -22073   -20726   -19411 
  -18233   -17322   -16617   -15753   -14658   -13737   -13165   -12687 
  -12356   -12619   -13554   -14808   -15889   -16365   -16416   -16665 
  -17314   -18202   -19169   -19825   -19724   -18959   -18015   -17248 
  -16728   -16395   -16407   -16965   -17746   -18303   -18628   -18727 
  -18425   -17766   -17070   -16647   -16587   -16661   -16419   -15616 
  -14473   -13395   -12787   -12844   -13146   -13086   -12593   -11905 
  -11165   -10628   -10779   -12028   -14307   -16933   -18920   -19705 
  -19390   -18266   -16833   -15826   -15420   -15292   -15550   -16308 
  -16999   -17277   -17385   -17461   -17838   -18907   -20236   -21235 
  -21796   -21868   -21563   -21103   -20474   -19777   -19316   -19252 
  -19580   -20139   -20463   -20077   -19040   -17917   -17190   -16854 
  -16748   -16949   -17272   -17286   -17165   -17221   -17101   -16585 
  -16011   -15438   -14559   -13375   -12266   -11507   -11186   -11422 
  -12150   -12887   -13294   -13604   -14111   -14831   -15852   -17394 
  -19346   -21144   -22285   -22591   -22100   -21187   -20514   -20392 
  -20517   -20483   -20217   -19750   -18920   -17742   -16611   -15816 
  -15487   -15794   -16565   -17278   -17483   -17047   -16229   -15366 
  -14765   -14824   -15558   -16577   -17641   -18393   -18407   -17916 
  -17559   -17667   -18051   -18277   -18340   -18563   -18831   -18767 
  -18216   -17199   -16109   -15507   -15434   -15656   -16113   -16668 
  -17179   -17635   -17920   -18008   -18048   -18248   -18923   -20001 
  -20889   -21462   -22110   -22767   -23078   -23118   -23068   -22807 
  -22414   -22250   -22251   -22088   -21771   -21262   -20330   -19186 
  -18197   -17312   -16732   -16798   -16978   -16632   -15959   -15263 
  -14552   -14060   -14174   -14795   -15447   -15859   -15770   -14832 
  -13419   -12424   -12027   -11843   -11806   -11935   -12029   -12054 
  -12206   -12508   -12771   -12985   -13297   -13592   -13649   -13598 
  -13469   -12954   -12312   -12084   -12094   -12316   -13275   -14647 
  -15657   -16586   -17604   -17749   -16929   -16327   -16106   -15749 
  -15787   -16504   -16810   -16055   -14707   -13024   -11276   -10313 
  -10441   -11232   -12511   -14140   -15648   -16705   -17324   -17705 
  -18054   -18519   -19122   -19479   -19203   -18648   -18120   -17248 
  -16149   -15474   -15304   -15602   -16432   -17289   -17794   -18308 
  -18992   -19474   -19666   -19971   -20555   -21180   -21807   -22540 
  -23162   -23526   -23731   -23677   -23412   -23337   -23519   -23893 
  -24577   -25298   -25588   -25392   -24883   -24247   -23720   -23531 
  -23765   -24122   -24121   -23488   -22080   -20047   -17933   -16021 
  -14437   -13548   -13369   -13561   -14031   -14729   -15485   -16118 
  -16343   -16114   -15779   -15387   -14646   -13771   -13334   -13261 
  -13098   -12940   -12839   -12385   -11842   -12068   -13070   -14079 
  -14694   -15082   -15362   -15494   -15782   -16537   -17383   -17870 
  -18061   -17795   -16668   -15162   -14279   -14031   -13867   -13992 
  -14697   -15490   -16051   -16542   -16696   -16187   -15303   -14331 
  -13334   -12612   -12529   -13092   -13987   -14872   -15665   -16484 
  -17271   -17889   -18535   -19435   -20382   -21146   -21805   -22324 
  -22503   -22316   -21797   -21028   -20237   -19476   -18612   -17695 
  -16882   -16230   -15775   -15632   -15828   -16193   -16566   -16829 
  -16801   -16465   -16018   -15571   -15239   -15386   -16199   -17299 
  -18315   -19203   -19715   -19534   -18857   -18040   -17235   -16692 
  -16679   -17118   -17605   -17789   -17696   -17495   -17354   -17573 
  -18142   -18650   -18941   -18991   -18662   -18136   -17656   -17154 
  -16826   -17060   -17655   -18145   -18352   -18174   -17798   -17619 
  -17402   -16830   -16521   -16989   -17777   -18469   -19189   -19956 
  -20507   -20725   -20850   -21087   -21207   -21052   -20774   -20187 
  -19048   -17763   -16868   -16537   -16615   -16688   -16463   -15854 
  -14950   -14146   -13543   -12838   -12272   -12220   -12372   -12593 
  -13006   -13197   -13045   -13015   -13039   -12958   -13295   -14400 
  -15974   -17538   -18661   -19201   -19496   -19888   -20294   -20599 
  -20943   -21278   -21272   -20865   -20450   -20369   -20581   -20937 
  -21264   -21260   -20913   -20576   -20364   -20205   -20268   -20677 
  -21143   -21437   -21769   -22210   -22392   -22164   -21619   -20651 
  -19313   -18014   -17008   -16246   -15593   -15025   -14603   -14278 
  -14208   -14653   -15311   -15900   -16615   -17319   -17820   -18279 
  -18465   -18300   -18265   -18097   -17445   -17166   -17531   -17402 
  -16511   -15679   -14963   -14137   -13776   -14183   -14779   -15399 
  -16483   -17815   -18869   -19860   -20962   -21711   -21883   -21851 
  -22026   -22307   -22180   -21539   -20843   -20341   -20110   -20456 
  -21273   -21960   -22422   -22910   -23319   -23496   -23335   -22743 
  -22010   -21397   -20826   -20460   -20419   -20350   -20060   -19613 
  -18974   -18220   -17580   -17172   -16940   -16655   -16071   -14961 
  -13130   -10975    -9543    -9418   -10285   -11605   -12921   -13785 
  -13921   -13511   -13169   -13246   -13401   -13389   -13464   -13654 
  -13784   -14069   -14504   -14433   -13634   -12622   -11764   -11252 
  -11260   -11477   -11439   -11106   -10599   -10085    -9828    -9885 
  -10193   -10857   -11789   -12602   -13255   -13954   -14569   -15053 
  -15711   -16585   -17352   -17759   -17886   -18074   -18291   -18102 
  -17733   -18009   -19045   -20268   -21442   -22475   -22870   -22498 
  -22054   -21988   -22222   -22813   -23669   -24208   -23980   -23114 
  -22062   -21247   -20954   -21151   -21382   -21235   -20804   -20313 
  -19720   -19009   -18416   -18326   -18941   -19944   -20792   -21058 
  -20423   -18956   -17140   -15462   -14148   -13148   -12491   -12235 
  -12008   -11608   -11493   -11859   -12363   -12786   -13111   -13437 
  -13963   -14653   -15419   -16380   -17387   -18048   -18298   -18262 
  -18101   -18107   -18349   -18636   -18787   -18529   -17903   -17444 
  -17313   -17397   -17918   -18809   -19626   -20165   -20255   -19812 
  -19111   -18354   -17737   -17607   -17798   -17768   -17552   -17455 
  -17337   -17110   -17038   -17145   -17235   -17579   -18477   -19300 
  -19397   -19089   -18646   -18131   -18136   -18884   -19869   -20764 
  -21294   -21085   -20208   -18888   -17146   -15261   -13785   -13157 
  -13526   -14562   -15719   -16622   -16900   -16492   -16060   -16292 
  -17221   -18608   -20280   -21918   -23179   -23979   -24241   -23832 
  -23001   -22253   -21568   -20516   -19045   -17260   -15093   -12911 
  -11235   -10016    -9267    -9160    -9341    -9590   -10017   -10240 
  -10112   -10112   -10190   -10138   -10493   -11472   -12466   -13280 
  -14115   -14358   -13418   -12124   -11408   -11193   -11448   -12259 
  -13157   -13707   -13847   -13692   -13633   -14077   -15055   -16354 
  -17835   -19467   -21001   -21955   -22185   -21969   -21569   -21350 
  -21517   -21690   -21749   -21838   -21359   -20077   -18993   -18606 
  -18600   -19245   -20570   -21493   -21438   -20938   -20283   -19511 
  -19193   -19783   -20870   -21827   -22553   -22847   -22195   -21102 
  -20792   -21236   -21662   -22188   -22971   -23320   -22875   -22068 
  -21061   -19910   -19254   -19313   -19529   -19704   -19751   -19045 
  -17350   -15291   -13604   -12642   -12527   -13254   -14343   -14963 
  -14862   -14603   -14527   -14358   -14135   -14287   -14767   -15391 
  -16224   -16859   -16839   -16642   -16897   -17452   -17890   -18066 
  -18108   -18214   -18286   -18193   -18148   -17991   -17096   -15477 
  -13597   -11577    -9775    -8911    -9209   -10413   -12033   -13348 
  -13951   -14025   -14092   -14724   -16000   -17554   -19134   -20410 
  -20853   -20350   -19169   -17681   -16846   -17584   -19402   -21265 
  -22855   -23806   -23512   -22099   -20223   -18401   -17177   -16942 
  -17444   -18217   -18972   -19319   -18912   -17897   -17079   -17375 
  -18666   -19922   -20511   -20316   -19154   -17222   -15416   -14401 
  -14097   -14394   -15288   -16258   -16631   -16433   -16127   -16018 
  -16292   -16721   -16896   -17296   -18492   -19912   -20853   -21249 
  -21096   -20429   -19564   -18851   -18546   -18847   -19620   -20330 
  -20588   -20343   -19551   -18267   -16853   -15720   -14961   -14435 
  -14075   -13951   -14176   -14784   -15657   -16671   -17626   -18067 
  -17869   -17513   -17302   -17206   -17192   -16970   -16264   -15414 
  -15032   -15252   -15736   -16314   -16952   -17128   -16380   -15091 
  -13743   -12264   -10767    -9933   -10101   -10951   -12349   -14084 
  -15200   -15291   -15019   -14477   -13537   -13145   -13937   -15318 
  -16646   -17471   -17334   -16402   -15296   -14416   -14163   -14677 
  -15207   -15252   -15347   -15647   -15615   -14995   -13953   -13138 
  -13140   -13719   -14597   -15616   -16098   -15719   -14874   -13937 
  -13473   -13887   -14838   -16163   -17722   -18676   -18854   -19032 
  -19530   -20467   -21928   -23022   -22812   -21524   -19579   -17151 
  -15053   -14271   -14645   -15362   -16216   -16949   -16727   -15704 
  -15001   -14907   -15208   -16029   -17127   -17814   -17790   -17463 
  -17508   -18150   -19314   -20980   -22633   -23611   -24016   -23785 
  -22503   -21024   -20570   -20781   -20964   -21257   -21529   -21262 
  -20588   -20197   -20361   -20881   -21648   -22144   -21453   -19776 
  -18218   -17193   -16695   -16816   -17246   -17719   -18180   -18038 
  -16871   -15242   -13846   -13088   -13245   -14227   -15547   -16454 
  -16458   -15831   -14641   -12634   -10778   -10377   -11160   -12471 
  -14248   -15727   -16011   -15695   -15608   -15426   -14885   -14456 
  -14416   -14681   -15300   -16428   -17943   -19301   -20197   -21143 
  -22602   -24244   -25792   -27266   -28048   -27506   -26128   -24629 
  -23273   -22227   -21108   -19425   -17656   -16168   -14491   -12704 
  -11492   -10991   -11023   -11537   -12340   -13214   -14156   -15192 
  -16084   -16582   -16973   -17653   -18562   -19676   -20845   -21334 
  -20947   -20336   -19656   -18730   -17763   -16801   -15892   -15549 
  -15870   -16207   -16242   -16252   -16116   -15384   -14508   -14292 
  -14536   -14971   -15820   -16712   -17214   -17497   -17503   -17234 
  -17142   -17408   -18032   -18732   -18718   -17898   -16815   -15467 
  -14048   -13241   -12981   -12911   -13339   -14323   -15343   -16335 
  -17437   -18225   -18614   -19195   -20007   -20868   -22003   -23059 
  -23435   -23120   -22195   -21004   -20106   -19560   -19335   -19453 
  -19489   -18907   -17669   -16196   -14821   -13664   -13147   -13553 
  -14260   -14784   -15466   -16010   -15813   -15545   -15733   -15943 
  -16499   -17999   -19996   -21824   -23045   -23260   -22655   -21930 
  -21641   -21973   -22616   -22969   -22652   -21528   -19848   -18362 
  -17531   -17266   -17237   -16930   -16266   -15596   -14819   -13908 
  -13357   -13228   -13168   -13127   -13143   -13094   -12970   -12936 
  -12924   -12749   -12773   -13281   -13654   -13631   -13831   -14044 
  -13510   -12564   -11878   -11654   -12077   -12937   -13649   -14036 
  -14407   -15137   -16060   -16814   -17733   -18757   -19114   -19033 
  -19041   -18821   -18533   -18542   -18465   -18257   -18060   -17619 
  -17189   -17062   -16974   -16967   -17084   -16956   -16674   -16628 
  -16847   -17428   -18444   -19278   -19300   -18808   -18403   -18220 
  -18236   -18368   -18283   -17912   -17669   -17927   -18734   -19582 
  -19691   -19136   -18577   -18081   -17659   -17687   -18031   -18209 
  -18120   -17842   -17446   -16933   -16202   -15492   -15241   -15296 
  -15240   -15177   -15278   -15338   -15386   -15602   -15803   -16085 
  -16685   -17009   -16599   -16020   -15756   -15752   -16037   -16809 
  -18022   -19329   -20544   -21520   -21984   -22163   -22568   -23166 
  -23767   -24421   -24952   -25113   -25063   -24977   -24798   -24387 
  -23390   -21605   -19501   -17775   -16766   -16324   -16158   -16279 
  -16741   -17376   -18146   -19129   -20072   -20521   -20379   -20099 
  -20175   -20629   -21343   -22372   -23469   -24221   -24542   -24240 
  -23231   -22038   -21063   -20398   -20154   -20061   -19671   -18801 
  -17385   -15689   -14204   -13066   -12227   -11649   -11141   -10614 
  -10184    -9972    -9969    -9777    -8956    -7737    -6777    -6557 
   -6945    -7301    -7414    -7515    -7530    -7428    -7483    -7768 
   -8264    -9076   -10065   -10929   -11661   -12470   -13377   -14186 
  -14868   -15559   -16102   -16209   -16127   -16378   -16978   -17595 
  -17973   -17753   -16747   -15507   -14749   -14608   -14943   -15628 
  -16277   -16455   -16213   -15822   -15373   -15129   -15557   -16893 
  -19011   -21435   -23606   -25200   -26114   -26513   -26719   -26991 
  -27556   -28300   -28662   -28424   -27917   -27356   -26746   -26141 
  -25533   -24923   -24386   -23901   -23510   -23234   -22941   -22716 
  -22539   -22015   -21120   -20319   -20013   -20316   -20904   -21230 
  -20991   -20266   -19403   -18670   -18164   -17939   -17859   -17655 
  -17249   -16645   -15655   -14145   -12426   -10901    -9519    -8055 
   -6613    -5432    -4578    -4018    -3667    -3358    -2983    -2711 
   -2748    -2939    -3053    -3169    -3422    -3840    -4509    -5566 
   -7134    -9254   -11745   -14292   -16443   -17645   -17888   -17758 
  -17616   -17593   -17909   -18499   -19016   -19400   -19869   -20296 
  -20234   -19741   -19397   -19326   -19130   -18873   -18959   -19161 
  -19122   -19173   -19454   -19447   -19033   -18576   -18096   -17530 
  -17187   -17261   -17692   -18464   -19419   -20203   -20675   -21024 
  -21559   -22413   -23297   -23827   -24080   -24368   -24715   -25022 
  -25218   -24986   -24125   -22990   -21905   -20909   -20149   -19640 
  -19077   -18254   -17071   -15715   -14961   -15239   -16062   -17134 
  -18425   -19232   -19052   -18375   -17642   -17013   -16878   -17172 
  -17138   -16482   -15754   -15276   -14835   -14541   -14536   -14309 
  -13675   -13190   -13002   -12899   -13039   -13408   -13586   -13466 
  -13221   -13023   -13177   -13750   -14486   -15268   -15946   -16353 
  -16823   -17595   -18144   -18283   -18726   -19606   -20282   -20871 
  -21765   -22525   -22980   -23565   -24189   -24632   -25141   -25806 
  -26369   -26529   -26167   -25499   -24739   -23967   -23546   -23668 
  -23790   -23463   -22825   -21984   -20956   -20026   -19503   -19279 
  -18983   -18451   -17766   -17014   -16236   -15318   -14056   -12621 
  -11499   -10847   -10376    -9844    -9327    -9073    -9292    -9896 
  -10564   -11149   -11606   -11823   -11978   -12231   -12301   -12332 
  -12909   -13759   -14243   -14488   -14630   -14422   -13963   -13702 
  -13948   -14561   -15152   -15655   -15977   -15782   -15493   -15985 
  -17099   -18122   -18998   -19923   -20834   -21606   -22064   -22050 
  -21669   -21188   -20710   -20077   -19143   -18065   -17068   -16218 
  -15746   -15889   -16295   -16618   -17094   -17751   -18235   -18480 
  -18554   -18431   -18122   -17695   -17427   -17464   -17462   -17450 
  -17865   -18447   -18837   -19286   -19585   -19145   -18240   -17486 
  -16853   -16310   -16328   -16948   -17562   -18047   -18649   -18989 
  -18778   -18524   -18563   -18795   -19253   -19695   -19583   -18941 
  -18039   -16777   -15309   -14075   -13078   -12260   -11750   -11222 
  -10427    -9870    -9709    -9396    -8916    -8645    -8437    -8149 
   -8173    -8724    -9390    -9808   -10091   -10273   -10289   -10478 
  -11102   -11846   -12499   -13287   -14269   -15186   -15874   -16353 
  -16722   -17163   -17786   -18427   -18878   -19265   -19813   -20358 
  -20675   -20908   -21222   -21581   -21927   -22175   -22357   -22633 
  -22855   -22848   -22953   -23279   -23402   -23422   -23675   -23835 
  -23631   -23256   -22741   -21992   -21012   -19977   -19203   -18613 
  -17896   -17165   -16469   -15594   -14772   -14335   -14193   -14171 
  -14089   -13861   -13786   -14014   -14283   -14620   -15198   -15787 
  -16383   -17297   -18262   -18897   -19413   -19943   -20339   -20659 
  -20975   -21115   -20901   -20384   -19777   -19152   -18491   -17899 
  -17377   -16815   -16291   -16015   -16045   -16211   -16349   -16586 
  -17243   -18257   -18985   -19050   -18819   -18577   -18264   -18032 
  -17897   -17488   -16745   -15880   -14883   -14020   -13772   -13972 
  -14240   -14651   -15176   -15545   -15744   -15945   -16156   -16196 
  -16096   -16229   -16713   -17382   -18322   -19493   -20434   -20918 
  -21092   -21068   -21058   -21354   -21852   -22116   -21874   -21093 
  -19982   -18996   -18401   -18119   -18128   -18289   -18177   -17698 
  -17100   -16478   -15965   -15723   -15676   -15779   -15976   -16105 
  -16094   -15888   -15558   -15346   -15186   -14929   -14806   -14958 
  -15197   -15332   -15203   -14730   -14139   -13704   -13365   -13086 
  -13065   -13136   -13001   -12995   -13320   -13561   -13884   -14855 
  -16094   -17060   -18087   -19343   -20373   -21081   -21665   -21865 
  -21564   -21314   -21351   -21209   -20655   -19967   -19420   -19110 
  -18957   -18712   -18336   -18093   -17949   -17712   -17581   -17659 
  -17757   -17954   -18373   -18805   -19018   -18911   -18494   -17965 
  -17474   -16953   -16457   -16224   -16198   -16149   -16144   -16274 
  -16392   -16438   -16459   -16378   -16249   -16263   -16288   -16217 
  -16481   -17298   -18103   -18488   -18742   -19059   -19330   -19660 
  -20152   -20677   -21191   -21612   -21740   -21664   -21592   -21481 
  -21211   -20662   -19736   -18692   -17977   -17652   -17501   -17523 
  -17855   -18438   -19067   -19424   -19182   -18443   -17542   -16688 
  -16356   -16864   -17649   -18278   -19015   -19803   -20425   -21328 
  -22622   -23528   -23928   -24480   -25062   -25088   -24647   -24007 
  -23120   -22280   -22038   -22228   -22284   -22216   -22095   -21423 
  -20092   -18887   -18208   -17715   -17503   -17741   -17935   -18056 
  -18576   -19201   -19611   -20209   -20995   -21595   -22147   -22630 
  -22578   -21966   -21025   -19805   -18644   -17927   -17448   -16983 
  -16606   -16020   -14841   -13347   -12161   -11665   -11625   -11517 
  -11461   -11640   -11601   -11621   -12574   -13991   -14904   -15355 
  -15354   -14723   -14098   -13983   -13991   -14011   -14400   -14989 
  -15434   -15808   -16060   -16116   -16365   -16827   -16990   -17008 
  -17299   -17540   -17675   -18201   -18954   -19455   -19682   -19728 
  -19768   -19983   -20206   -20319   -20530   -20901   -21350   -21871 
  -22240   -22154   -21702   -21228   -20987   -20846   -20567   -20350 
  -20316   -20110   -19550   -18897   -18528   -18693   -19290   -19744 
  -19598   -19181   -18875   -18470   -17984   -17823   -18019   -18440 
  -19199   -20216   -21022   -21188   -20676   -19858   -19241   -19241 
  -19891   -20673   -21265   -21790   -22015   -21641   -21018   -20593 
  -20328   -19993   -19591   -19218   -18736   -17966   -16966   -15913 
