Origin Time       2011/03/11 14:46:00
Lat.              38.103
Long.             142.860
Depth. (km)       24
Mag.              9.0
Station Code      HKD115
Station Lat.      44.0070
Station Long.     142.1485
Station Height(m) 157
Record Time       2011/03/11 14:49:23
Sampling Freq(Hz) 100Hz
Duration Time(s)  157
Dir.              N-S
Scale Factor      3920(gal)/6182761
Max. Acc. (gal)   2.940
Last Correction   2011/03/11 14:49:08
Memo.             
[...]
   -8586    -8626    -8636    -8652    -8674    -8671    -8644    -8610 
   -8587    -8585    -8601    -8650    -8756    -8894    -9017    -9146 
   -9311    -9476    -9613    -9760    -9941   -10123   -10275   -10411 
  -10537   -10615   -10632   -10626   -10626   -10619   -10602   -10599 
  -10632   -10691   -10748   -10812   -10909   -11016   -11090   -11148 
  -11228   -11305   -11344   -11376   -11422   -11460   -11474   -11483 
  -11517   -11572   -11622   -11667   -11735   -11831   -11926   -12012 
  -12122   -12246   -12335   -12390   -12433   -12437   -12365   -12238 
  -12102   -11962   -11801   -11639   -11509   -11414   -11334   -11266 
  -11229   -11232   -11242   -11238   -11256   -11298   -11311   -11286 
  -11271   -11287   -11311   -11351   -11434   -11530   -11587   -11592 
  -11548   -11451   -11290   -11064   -10806   -10560   -10321   -10083 
   -9885    -9752    -9647    -9553    -9508    -9528    -9570    -9619 
   -9692    -9780    -9845    -9870    -9877    -9885    -9880    -9850 
   -9823    -9833    -9860    -9866    -9865    -9873    -9846    -9745 
   -9602    -9455    -9292    -9121    -8993    -8937    -8941    -8986 
   -9065    -9184    -9324    -9453    -9582    -9752    -9966   -10186 
  -10411   -10664   -10920   -11124   -11285   -11432   -11548   -11615 
  -11662   -11715   -11756   -11753   -11715   -11664   -11602   -11510 
  -11387   -11269   -11179   -11092   -11009   -10969   -10973   -10984 
  -11012   -11090   -11190   -11265   -11325   -11396   -11469   -11518 
  -11542   -11561   -11585   -11597   -11583   -11563   -11552   -11519 
  -11445   -11371   -11316   -11237   -11128   -11028   -10946   -10845 
  -10721   -10608   -10508   -10399   -10282   -10185   -10123   -10080 
  -10029    -9983    -9965    -9944    -9880    -9795    -9712    -9607 
   -9467    -9342    -9258    -9190    -9126    -9080    -9055    -9025 
   -8959    -8871    -8787    -8698    -8595    -8502    -8453    -8431 
   -8404    -8388    -8422    -8481    -8526    -8593    -8703    -8821 
   -8923    -9023    -9130    -9225    -9300    -9374    -9467    -9570 
   -9652    -9705    -9767    -9836    -9865    -9867    -9886    -9904 
   -9890    -9871    -9876    -9892    -9901    -9919    -9958   -10006 
  -10046   -10077   -10118   -10179   -10230   -10253   -10273   -10292 
  -10276   -10239   -10231   -10247   -10235   -10200   -10176   -10144 
  -10080   -10000    -9928    -9868    -9819    -9779    -9756    -9756 
   -9741    -9680    -9605    -9552    -9498    -9435    -9406    -9409 
   -9394    -9357    -9334    -9325    -9315    -9313    -9338    -9392 
   -9451    -9498    -9544    -9611    -9685    -9746    -9817    -9929 
  -10052   -10154   -10261   -10395   -10516   -10599   -10671   -10735 
  -10767   -10768   -10762   -10771   -10796   -10820   -10843   -10889 
  -10945   -10972   -10995   -11066   -11166   -11261   -11376   -11528 
  -11678   -11793   -11889   -11978   -12043   -12070   -12072   -12078 
  -12095   -12097   -12085   -12087   -12094   -12071   -12028   -12007 
  -12000   -11972   -11922   -11873   -11812   -11710   -11582   -11459 
  -11344   -11230   -11132   -11081   -11082   -11099   -11102   -11101 
  -11090   -11019   -10886   -10734   -10574   -10381   -10173    -9996 
   -9857    -9729    -9611    -9526    -9467    -9411    -9354    -9308 
   -9281    -9250    -9193    -9140    -9118    -9089    -9034    -8986 
   -8954    -8903    -8833    -8779    -8738    -8688    -8628    -8581 
   -8560    -8553    -8550    -8580    -8675    -8803    -8911    -9000 
   -9081    -9113    -9072    -9006    -8950    -8883    -8804    -8753 
   -8739    -8725    -8688    -8638    -8583    -8511    -8408    -8291 
   -8200    -8151    -8129    -8150    -8241    -8371    -8490    -8597 
   -8707    -8793    -8828    -8831    -8829    -8811    -8759    -8686 
   -8612    -8540    -8459    -8367    -8288    -8228    -8158    -8085 
   -8048    -8043    -8038    -8048    -8114    -8234    -8383    -8562 
   -8773    -8991    -9184    -9351    -9514    -9676    -9812    -9924 
  -10054   -10210   -10345   -10436   -10514   -10583   -10608   -10598 
  -10595   -10593   -10569   -10534   -10513   -10500   -10480   -10450 
  -10429   -10436   -10444   -10418   -10384   -10371   -10354   -10324 
  -10313   -10321   -10318   -10304   -10323   -10384   -10460   -10538 
  -10630   -10733   -10823   -10886   -10946   -11021   -11085   -11114 
  -11126   -11137   -11118   -11037   -10933   -10842   -10732   -10583 
  -10429   -10282   -10116    -9923    -9731    -9567    -9422    -9283 
   -9162    -9074    -8995    -8884    -8748    -8627    -8511    -8389 
   -8307    -8302    -8342    -8386    -8428    -8468    -8481    -8456 
   -8417    -8388    -8377    -8358    -8315    -8272    -8234    -8161 
   -8056    -7970    -7904    -7820    -7735    -7683    -7642    -7579 
   -7514    -7467    -7419    -7343    -7244    -7146    -7072    -7023 
   -7003    -7042    -7152    -7290    -7430    -7599    -7782    -7921 
   -8017    -8108    -8195    -8259    -8312    -8387    -8470    -8522 
   -8536    -8524    -8490    -8417    -8294    -8153    -8023    -7877 
   -7706    -7551    -7426    -7299    -7173    -7074    -7003    -6938 
   -6884    -6870    -6909    -6991    -7098    -7229    -7392    -7558 
   -7692    -7803    -7910    -7994    -8039    -8084    -8162    -8244 
   -8303    -8350    -8395    -8406    -8365    -8296    -8227    -8167 
   -8120    -8106    -8158    -8273    -8407    -8558    -8753    -8963 
   -9140    -9303    -9493    -9686    -9855   -10024   -10205   -10378 
  -10523   -10638   -10730   -10793   -10816   -10802   -10779   -10767 
  -10742   -10690   -10646   -10616   -10554   -10459   -10373   -10292 
  -10192   -10101   -10048   -10018    -9981    -9936    -9898    -9864 
   -9795    -9677    -9555    -9460    -9362    -9253    -9175    -9122 
   -9045    -8946    -8868    -8801    -8715    -8624    -8569    -8554 
   -8561    -8583    -8627    -8705    -8802    -8899    -9019    -9171 
   -9310    -9407    -9494    -9583    -9632    -9630    -9618    -9615 
   -9594    -9548    -9504    -9468    -9419    -9350    -9282    -9238 
   -9213    -9183    -9161    -9173    -9195    -9184    -9168    -9185 
   -9188    -9151    -9117    -9107    -9091    -9062    -9037    -9020 
   -8993    -8945    -8879    -8809    -8725    -8603    -8462    -8343 
   -8231    -8086    -7924    -7780    -7624    -7433    -7246    -7094 
   -6960    -6844    -6772    -6761    -6805    -6881    -6986    -7135 
   -7315    -7495    -7667    -7853    -8058    -8254    -8449    -8678 
   -8924    -9141    -9330    -9516    -9695    -9846    -9980   -10116 
  -10243   -10345   -10416   -10462   -10489   -10481   -10435   -10404 
  -10414   -10418   -10409   -10429   -10472   -10502   -10534   -10592 
  -10669   -10742   -10808   -10878   -10954   -11010   -11024   -11020 
  -11016   -10976   -10878   -10765   -10664   -10558   -10440   -10353 
  -10308   -10273   -10233   -10206   -10185   -10139   -10055    -9961 
   -9879    -9799    -9722    -9676    -9678    -9691    -9665    -9606 
   -9533    -9403    -9201    -8989    -8814    -8650    -8488    -8356 
   -8259    -8166    -8068    -7978    -7910    -7851    -7778    -7701 
   -7655    -7627    -7573    -7507    -7468    -7431    -7361    -7282 
   -7225    -7156    -7049    -6939    -6847    -6749    -6628    -6497 
   -6374    -6255    -6134    -6030    -5988    -6028    -6128    -6287 
   -6528    -6816    -7078    -7314    -7553    -7784    -7985    -8182 
   -8410    -8658    -8894    -9114    -9332    -9547    -9740    -9905 
  -10062   -10217   -10322   -10343   -10308   -10229   -10070    -9844 
   -9631    -9453    -9279    -9120    -9008    -8919    -8819    -8706 
   -8602    -8530    -8494    -8497    -8567    -8717    -8903    -9080 
   -9262    -9457    -9621    -9744    -9868   -10010   -10132   -10230 
  -10330   -10414   -10446   -10426   -10377   -10327   -10273   -10197 
  -10117   -10055    -9980    -9872    -9769    -9696    -9629    -9549 
   -9475    -9423    -9362    -9273    -9189    -9144    -9129    -9128 
   -9157    -9229    -9322    -9399    -9457    -9518    -9560    -9553 
   -9525    -9518    -9511    -9463    -9399    -9350    -9299    -9224 
   -9146    -9086    -9031    -8962    -8877    -8795    -8709    -8593 
   -8465    -8376    -8315    -8237    -8158    -8123    -8113    -8103 
   -8123    -8202    -8320    -8454    -8602    -8772    -8961    -9145 
   -9319    -9514    -9738    -9942   -10107   -10265   -10415   -10523 
  -10594   -10664   -10730   -10761   -10758   -10747   -10721   -10661 
  -10574   -10474   -10357   -10197    -9978    -9726    -9482    -9238 
   -8996    -8808    -8699    -8637    -8603    -8614    -8660    -8694 
   -8698    -8699    -8699    -8684    -8657    -8632    -8616    -8594 
   -8543    -8486    -8448    -8402    -8315    -8214    -8131    -8028 
   -7875    -7716    -7579    -7443    -7317    -7225    -7166    -7127 
   -7093    -7065    -7071    -7116    -7167    -7219    -7293    -7363 
   -7382    -7371    -7371    -7369    -7359    -7394    -7503    -7655 
   -7820    -7999    -8191    -8368    -8495    -8580    -8663    -8748 
   -8810    -8851    -8900    -8957    -8987    -8995    -9028    -9081 
   -9119    -9166    -9250    -9336    -9396    -9443    -9481    -9506 
   -9508    -9484    -9467    -9477    -9486    -9494    -9539    -9609 
   -9650    -9652    -9647    -9629    -9567    -9478    -9408    -9365 
   -9335    -9316    -9320    -9337    -9336    -9300    -9256    -9223 
   -9177    -9102    -9033    -8997    -8956    -8893    -8846    -8819 
   -8773    -8711    -8665    -8642    -8621    -8600    -8608    -8668 
   -8764    -8879    -9029    -9227    -9435    -9614    -9767    -9907 
  -10008   -10057   -10101   -10171   -10245   -10314   -10393   -10469 
  -10502   -10470   -10382   -10261   -10110    -9932    -9756    -9615 
   -9507    -9408    -9338    -9326    -9339    -9338    -9345    -9381 
   -9406    -9397    -9394    -9418    -9453    -9485    -9522    -9580 
   -9654    -9715    -9759    -9821    -9898    -9951    -9996   -10070 
  -10153   -10206   -10247   -10303   -10351   -10370   -10383   -10417 
  -10475   -10549   -10634   -10737   -10853   -10947   -11007   -11071 
  -11144   -11182   -11187   -11190   -11180   -11127   -11035   -10926 
  -10803   -10649   -10474   -10312   -10172   -10045    -9931    -9850 
   -9813    -9793    -9758    -9726    -9705    -9651    -9562    -9496 
   -9468    -9440    -9407    -9400    -9416    -9421    -9414    -9412 
   -9414    -9402    -9355    -9289    -9226    -9141    -9011    -8868 
   -8740    -8591    -8403    -8209    -8027    -7839    -7660    -7527 
   -7452    -7421    -7423    -7471    -7576    -7713    -7857    -8028 
   -8252    -8510    -8775    -9054    -9358    -9649    -9878   -10063 
  -10222   -10320   -10344   -10327   -10285   -10205   -10074    -9903 
   -9726    -9552    -9363    -9170    -9011    -8883    -8749    -8624 
   -8540    -8478    -8410    -8368    -8396    -8475    -8576    -8722 
   -8932    -9179    -9435    -9693    -9947   -10182   -10370   -10509 
  -10637   -10773   -10892   -11007   -11155   -11318   -11455   -11576 
  -11708   -11838   -11931   -11988   -12021   -12019   -11967   -11877 
  -11784   -11717   -11662   -11613   -11596   -11602   -11579   -11504 
  -11402   -11284   -11123   -10930   -10755   -10611   -10468   -10326 
  -10212   -10131   -10073   -10035   -10028   -10048   -10056   -10014 
   -9942    -9862    -9749    -9594    -9450    -9350    -9266    -9181 
   -9117    -9074    -9021    -8957    -8902    -8854    -8798    -8721 
   -8636    -8565    -8493    -8393    -8287    -8209    -8141    -8059 
   -7990    -7943    -7887    -7801    -7714    -7651    -7604    -7551 
   -7501    -7467    -7438    -7390    -7321    -7253    -7186    -7093 
   -6988    -6917    -6870    -6817    -6784    -6811    -6877    -6951 
   -7037    -7145    -7251    -7342    -7433    -7547    -7687    -7839 
   -8010    -8237    -8523    -8828    -9142    -9487    -9841   -10145 
  -10397   -10631   -10834   -10980   -11101   -11231   -11357   -11467 
  -11563   -11653   -11746   -11825   -11866   -11889   -11914   -11899 
  -11825   -11739   -11664   -11575   -11491   -11457   -11465   -11454 
  -11393   -11293   -11147   -10934   -10677   -10428   -10219   -10051 
   -9922    -9847    -9828    -9818    -9781    -9745    -9719    -9674 
   -9605    -9541    -9478    -9379    -9240    -9082    -8913    -8732 
   -8549    -8383    -8255    -8160    -8071    -7993    -7944    -7907 
   -7845    -7781    -7755    -7732    -7680    -7642    -7639    -7642 
   -7639    -7645    -7672    -7716    -7757    -7795    -7847    -7914 
   -7974    -8033    -8118    -8216    -8288    -8341    -8409    -8474 
   -8512    -8554    -8632    -8722    -8805    -8899    -9009    -9107 
   -9171    -9207    -9240    -9278    -9308    -9344    -9422    -9531 
   -9617    -9671    -9713    -9721    -9666    -9563    -9442    -9294 
   -9106    -8908    -8738    -8591    -8446    -8305    -8191    -8126 
   -8098    -8090    -8117    -8184    -8253    -8327    -8446    -8607 
   -8773    -8943    -9145    -9358    -9537    -9674    -9773    -9825 
   -9823    -9782    -9737    -9708    -9679    -9622    -9554    -9490 
   -9389    -9228    -9047    -8870    -8670    -8441    -8223    -8020 
   -7791    -7524    -7240    -6948    -6639    -6317    -6009    -5745 
   -5525    -5322    -5153    -5057    -5022    -5027    -5097    -5247 
   -5437    -5641    -5880    -6157    -6443    -6722    -7005    -7306 
   -7627    -7949    -8259    -8573    -8887    -9162    -9404    -9643 
   -9862   -10033   -10179   -10340   -10508   -10664   -10834   -11047 
  -11283   -11515   -11745   -11978   -12196   -12378   -12517   -12636 
  -12733   -12782   -12786   -12775   -12756   -12698   -12603   -12515 
  -12431   -12311   -12167   -12025   -11882   -11731   -11572   -11422 
  -11289   -11147   -10990   -10850   -10744   -10651   -10566   -10517 
  -10500   -10470   -10412   -10354   -10283   -10156    -9977    -9783 
   -9586    -9381    -9171    -8969    -8777    -8582    -8372    -8167 
   -7992    -7826    -7651    -7510    -7430    -7369    -7308    -7282 
   -7305    -7360    -7447    -7584    -7770    -7975    -8168    -8346 
   -8507    -8627    -8686    -8701    -8709    -8700    -8651    -8590 
   -8547    -8489    -8396    -8303    -8226    -8148    -8061    -7988 
   -7944    -7916    -7899    -7913    -7972    -8077    -8206    -8355 
   -8554    -8787    -9006    -9211    -9428    -9629    -9790    -9946 
  -10116   -10272   -10403   -10517   -10617   -10695   -10728   -10717 
  -10699   -10687   -10665   -10640   -10653   -10700   -10737   -10778 
  -10867   -10980   -11075   -11164   -11268   -11370   -11449   -11507 
  -11557   -11611   -11659   -11706   -11782   -11892   -11993   -12066 
  -12130   -12179   -12165   -12083   -11985   -11883   -11753   -11612 
  -11489   -11370   -11223   -11053   -10880   -10705   -10507   -10287 
  -10074    -9886    -9698    -9486    -9277    -9093    -8902    -8693 
   -8519    -8392    -8275    -8167    -8091    -8035    -7971    -7894 
   -7818    -7751    -7693    -7639    -7600    -7596    -7601    -7573 
   -7533    -7504    -7457    -7384    -7334    -7334    -7348    -7363 
   -7403    -7469    -7529    -7567    -7602    -7655    -7728    -7808 
   -7894    -8015    -8165    -8306    -8452    -8637    -8826    -8982 
   -9135    -9302    -9450    -9556    -9635    -9701    -9746    -9751 
   -9717    -9670    -9631    -9578    -9520    -9511    -9561    -9619 
   -9694    -9837   -10032   -10233   -10456   -10711   -10956   -11168 
  -11365   -11569   -11778   -11977   -12177   -12395   -12620   -12811 
  -12952   -13075   -13196   -13290   -13358   -13436   -13510   -13535 
  -13516   -13486   -13447   -13391   -13342   -13333   -13368   -13423 
  -13477   -13531   -13584   -13607   -13578   -13524   -13463   -13366 
  -13228   -13081   -12926   -12734   -12505   -12275   -12050   -11803 
  -11520   -11217   -10903   -10575   -10231    -9894    -9602    -9350 
   -9112    -8914    -8777    -8648    -8488    -8331    -8190    -8032 
   -7858    -7710    -7608    -7530    -7461    -7419    -7415    -7427 
   -7430    -7433    -7463    -7511    -7552    -7595    -7664    -7741 
   -7805    -7884    -7994    -8102    -8184    -8251    -8303    -8320 
   -8302    -8264    -8223    -8184    -8137    -8084    -8062    -8079 
   -8092    -8102    -8156    -8241    -8311    -8384    -8493    -8612 
   -8715    -8821    -8947    -9088    -9229    -9370    -9524    -9692 
   -9837    -9947   -10051   -10148   -10197   -10209   -10226   -10236 
  -10210   -10177   -10179   -10211   -10254   -10312   -10397   -10499 
  -10588   -10657   -10728   -10813   -10892   -10952   -11020   -11106 
  -11167   -11192   -11225   -11268   -11291   -11302   -11323   -11336 
  -11309   -11236   -11132   -11010   -10859   -10671   -10477   -10301 
  -10121    -9923    -9744    -9602    -9470    -9345    -9270    -9259 
   -9278    -9317    -9406    -9543    -9685    -9823    -9978   -10157 
  -10341   -10508   -10674   -10862   -11049   -11201   -11335   -11466 
  -11558   -11592   -11616   -11662   -11713   -11768   -11863   -12008 
  -12172   -12329   -12473   -12600   -12702   -12766   -12801   -12841 
  -12881   -12890   -12888   -12908   -12924   -12891   -12810   -12702 
  -12545   -12314   -12035   -11743   -11435   -11120   -10842   -10627 
  -10463   -10314   -10169   -10053    -9968    -9883    -9812    -9793 
   -9816    -9831    -9835    -9857    -9886    -9897    -9921    -9990 
  -10091   -10197   -10285   -10354   -10405   -10421   -10405   -10398 
  -10424   -10467   -10518   -10605   -10724   -10821   -10887   -10949 
  -10993   -10996   -10971   -10941   -10907   -10850   -10766   -10676 
  -10586   -10481   -10348   -10206   -10080    -9956    -9812    -9696 
   -9648    -9635    -9632    -9674    -9756    -9813    -9824    -9822 
   -9817    -9788    -9743    -9725    -9749    -9792    -9825    -9842 
   -9843    -9808    -9708    -9575    -9459    -9357    -9258    -9192 
   -9162    -9130    -9083    -9037    -9005    -8985    -8974    -8983 
   -9031    -9098    -9143    -9170    -9222    -9293    -9350    -9420 
   -9545    -9693    -9812    -9921   -10040   -10135   -10185   -10220 
  -10264   -10313   -10346   -10360   -10377   -10396   -10381   -10334 
  -10297   -10274   -10217   -10133   -10063    -9993    -9892    -9775 
   -9676    -9596    -9515    -9431    -9360    -9310    -9263    -9206 
   -9167    -9178    -9224    -9295    -9414    -9574    -9729    -9860 
   -9984   -10093   -10142   -10138   -10125   -10113   -10097   -10106 
  -10154   -10225   -10297   -10355   -10407   -10470   -10520   -10540 
  -10565   -10620   -10668   -10675   -10670   -10666   -10625   -10545 
  -10469   -10404   -10327   -10235   -10141   -10055    -9962    -9849 
   -9730    -9627    -9535    -9442    -9369    -9335    -9314    -9283 
   -9276    -9303    -9315    -9283    -9243    -9208    -9145    -9058 
   -8974    -8898    -8817    -8719    -8619    -8538    -8468    -8379 
   -8293    -8240    -8200    -8143    -8092    -8079    -8079    -8062 
   -8040    -8027    -8002    -7940    -7865    -7812    -7782    -7759 
