Origin Time       2011/03/11 14:46:00
Lat.              38.103
Long.             142.860
Depth. (km)       24
Mag.              9.0
Station Code      HKD121
Station Lat.      43.3332
Station Long.     141.8553
Station Height(m) 28
Record Time       2011/03/11 14:48:30
Sampling Freq(Hz) 100Hz
Duration Time(s)  300
Dir.              U-D
Scale Factor      3920(gal)/6182761
Max. Acc. (gal)   4.676
Last Correction   2011/03/11 14:48:15
Memo.             
[...]
  -16368   -16235   -16144   -16060   -15997   -15999   -16046   -16080 
  -16099   -16106   -16087   -16128   -16313   -16482   -16450   -16330 
  -16293   -16270   -16165   -16064   -16023   -15978   -15917   -15872 
  -15849   -15876   -16005   -16181   -16246   -16098   -15821   -15629 
  -15601   -15547   -15319   -15082   -15050   -15151   -15201   -15139 
  -14969   -14721   -14494   -14345   -14224   -14050   -13728   -13244 
  -12801   -12636   -12714   -12838   -12929   -12958   -12805   -12439 
  -12024   -11680   -11380   -11167   -11173   -11375   -11600   -11777 
  -11955   -12141   -12241   -12181   -12048   -11942   -11791   -11539 
  -11336   -11295   -11337   -11393   -11498   -11646   -11792   -11950 
  -12182   -12523   -12888   -13064   -12987   -12898   -12993   -13145 
  -13216   -13359   -13757   -14240   -14456   -14347   -14210   -14246 
  -14388   -14577   -14841   -15113   -15229   -15095   -14800   -14580 
  -14587   -14728   -14829   -14888   -14976   -15012   -14895   -14715 
  -14657   -14818   -15112   -15313   -15296   -15184   -15165   -15285 
  -15489   -15786   -16223   -16684   -16954   -17018   -17086   -17270 
  -17432   -17475   -17511   -17604   -17638   -17507   -17202   -16792 
  -16429   -16208   -16057   -15890   -15773   -15786   -15819   -15719 
  -15518   -15323   -15142   -14957   -14817   -14740   -14681   -14708 
  -14911   -15181   -15353   -15468   -15693   -16083   -16490   -16736 
  -16846   -16984   -17144   -17172   -17111   -17159   -17384   -17760 
  -18176   -18412   -18373   -18193   -18007   -17854   -17709   -17543 
  -17442   -17525   -17698   -17727   -17549   -17381   -17456   -17714 
  -17876   -17786   -17567   -17435   -17462   -17615   -17871   -18126 
  -18268   -18353   -18419   -18352   -18096   -17702   -17246   -16833 
  -16471   -16041   -15474   -14815   -14177   -13693   -13403   -13261 
  -13244   -13280   -13265   -13231   -13267   -13349   -13449   -13575 
  -13633   -13562   -13502   -13607   -13861   -14115   -14246   -14352 
  -14610   -14972   -15225   -15268   -15152   -14950   -14740   -14722 
  -15090   -15696   -16170   -16399   -16567   -16798   -17070   -17339 
  -17532   -17598   -17587   -17602   -17708   -17791   -17657   -17429 
  -17458   -17748   -18011   -18166   -18328   -18503   -18610   -18684 
  -18844   -19081   -19241   -19308   -19484   -19794   -19962   -19855 
  -19643   -19456   -19280   -19122   -18942   -18628   -18230   -17924 
  -17723   -17523   -17324   -17208   -17143   -16945   -16478   -15770 
  -14955   -14221   -13684   -13236   -12683   -12023   -11456   -11130 
  -11014   -11023   -11079   -11062   -10904   -10683   -10425    -9965 
   -9279    -8672    -8423    -8489    -8656    -8806    -8958    -9160 
   -9405    -9654    -9883   -10085   -10214   -10239   -10251   -10378 
  -10639   -10978   -11328   -11656   -12056   -12623   -13243   -13746 
  -14177   -14672   -15215   -15673   -15963   -16157   -16417   -16840 
  -17410   -18124   -18983   -19855   -20566   -21050   -21285   -21262 
  -21093   -20967   -20956   -20949   -20809   -20514   -20195   -20003 
  -19927   -19856   -19751   -19631   -19491   -19334   -19192   -19060 
  -18903   -18765   -18775   -18942   -19051   -18952   -18783   -18714 
  -18685   -18555   -18304   -17988   -17654   -17365   -17212   -17213 
  -17213   -17018   -16654   -16316   -16052   -15727   -15302   -14970 
  -14848   -14753   -14522   -14273   -14135   -14051   -13954   -13850 
  -13680   -13285   -12648   -12045   -11731   -11630   -11539   -11442 
  -11450   -11531   -11508   -11370   -11364   -11618   -11893   -11909 
  -11704   -11482   -11324   -11187   -11076   -11110   -11380   -11845 
  -12439   -13064   -13478   -13503   -13304   -13215   -13369   -13645 
  -13906   -14108   -14180   -14061   -13919   -14010   -14328   -14681 
  -14996   -15280   -15510   -15712   -15940   -16187   -16422   -16568 
  -16574   -16564   -16691   -16899   -17040   -17188   -17560   -18149 
  -18706   -19071   -19248   -19231   -18985   -18621   -18386   -18305 
  -18062   -17463   -16702   -16012   -15491   -15191   -14986   -14606 
  -14015   -13531   -13440   -13546   -13414   -13030   -12767   -12755 
  -12745   -12511   -12125   -11822   -11728   -11806   -12009   -12325 
  -12702   -13083   -13455   -13773   -13992   -14192   -14409   -14486 
  -14321   -14060   -13932   -14006   -14185   -14425   -14785   -15326 
  -15981   -16492   -16740   -16956   -17276   -17503   -17495   -17344 
  -17156   -16929   -16633   -16295   -16050   -16050   -16324   -16779 
  -17284   -17670   -17807   -17769   -17712   -17623   -17413   -17127 
  -16862   -16606   -16284   -15953   -15772   -15759   -15793   -15880 
  -16100   -16411   -16690   -16848   -16904   -16955   -16973   -16786 
  -16382   -15972   -15709   -15553   -15393   -15188   -14996   -14952 
  -15074   -15174   -15202   -15403   -15872   -16334   -16558   -16658 
  -16823   -16996   -17018   -16946   -16960   -17077   -17191   -17278 
  -17355   -17320   -17059   -16719   -16560   -16555   -16505   -16387 
  -16267   -16120   -15878   -15527   -15168   -14986   -15020   -15116 
  -15228   -15409   -15528   -15450   -15262   -15022   -14651   -14118 
  -13509   -12981   -12667   -12535   -12396   -12173   -11968   -11788 
  -11554   -11358   -11360   -11511   -11622   -11644   -11635   -11584 
  -11486   -11387   -11329   -11322   -11280   -11148   -11086   -11234 
  -11439   -11451   -11246   -10985   -10820   -10785   -10779   -10679 
  -10508   -10378   -10334   -10313   -10210   -10006    -9836    -9926 
  -10372   -10950   -11308   -11422   -11601   -11976   -12322   -12523 
  -12796   -13260   -13743   -14132   -14494   -14851   -15089   -15165 
  -15226   -15356   -15486   -15599   -15693   -15648   -15386   -15020 
  -14769   -14799   -15073   -15358   -15539   -15691   -15841   -15964 
  -16085   -16210   -16298   -16348   -16398   -16500   -16684   -16875 
  -16949   -16891   -16753   -16589   -16498   -16456   -16317   -16121 
  -16016   -15947   -15833   -15711   -15532   -15273   -15165   -15369 
  -15665   -15767   -15643   -15417   -15251   -15254   -15366   -15431 
  -15337   -15082   -14810   -14672   -14600   -14510   -14510   -14640 
  -14787   -14936   -15151   -15391   -15560   -15600   -15521   -15457 
  -15490   -15431   -15137   -14893   -15003   -15308   -15560   -15776 
  -16001   -16199   -16372   -16508   -16616   -16788   -17061   -17355 
  -17564   -17590   -17492   -17500   -17666   -17896   -18164   -18299 
  -18151   -17973   -17995   -18020   -17876   -17686   -17579   -17581 
  -17701   -17853   -17912   -17837   -17603   -17303   -17212   -17325 
  -17297   -17023   -16754   -16660   -16655   -16619   -16581   -16594 
  -16599   -16503   -16291   -16001   -15688   -15410   -15238   -15201 
  -15211   -15188   -15163   -15138   -14984   -14708   -14578   -14699 
  -14829   -14797   -14696   -14613   -14493   -14353   -14317   -14362 
  -14299   -14064   -13802   -13667   -13625   -13527   -13350   -13217 
  -13200   -13285   -13452   -13681   -13947   -14200   -14356   -14382 
  -14346   -14326   -14351   -14440   -14563   -14668   -14754   -14796 
  -14779   -14765   -14733   -14579   -14376   -14286   -14334   -14479 
  -14633   -14675   -14688   -14823   -14948   -14903   -14814   -14825 
  -14793   -14515   -14056   -13674   -13487   -13384   -13228   -13051 
  -13012   -13117   -13201   -13274   -13521   -13972   -14520   -15057 
  -15506   -15911   -16274   -16395   -16264   -16149   -16104   -15965 
  -15732   -15513   -15341   -15190   -15036   -14888   -14760   -14598 
  -14303   -13912   -13558   -13215   -12747   -12207   -11819   -11718 
  -11829   -11918   -11817   -11649   -11618   -11704   -11772   -11766 
  -11713   -11672   -11614   -11452   -11282   -11335   -11582   -11691 
  -11526   -11368   -11387   -11439   -11589   -12039   -12560   -12741 
  -12575   -12296   -12019   -11787   -11671   -11705   -11810   -11883 
  -12004   -12274   -12449   -12299   -12116   -12267   -12627   -12838 
  -12802   -12736   -12862   -13128   -13312   -13290   -13212   -13362 
  -13733   -14004   -14023   -14003   -14262   -14832   -15422   -15774 
  -15904   -16047   -16289   -16338   -16068   -15876   -16009   -16178 
  -16159   -16102   -16074   -15912   -15613   -15466   -15645   -15899 
  -15887   -15801   -16098   -16653   -16904   -16741   -16557   -16529 
  -16428   -16112   -15802   -15791   -16120   -16543   -16855   -17144 
  -17481   -17728   -17873   -18003   -17992   -17761   -17466   -17194 
  -16936   -16752   -16608   -16357   -16060   -15920   -16012   -16323 
  -16705   -16827   -16604   -16317   -16151   -16037   -15862   -15557 
  -15201   -14998   -14949   -14812   -14567   -14481   -14565   -14522 
  -14249   -14033   -14170   -14567   -14903   -15082   -15228   -15377 
  -15434   -15413   -15519   -15866   -16279   -16493   -16437   -16307 
  -16418   -16900   -17565   -18178   -18680   -19072   -19318   -19429 
  -19496   -19621   -19771   -19819   -19815   -19944   -20224   -20517 
  -20753   -20973   -21169   -21195   -20954   -20568   -20297   -20286 
  -20346   -20194   -19864   -19567   -19368   -19239   -19057   -18669 
  -18159   -17684   -17205   -16716   -16340   -16052   -15725   -15367 
  -15049   -14778   -14499   -14212   -14016   -13864   -13614   -13381 
  -13361   -13482   -13630   -13796   -13915   -13979   -14051   -14057 
  -13939   -13808   -13780   -13915   -14236   -14614   -14880   -15057 
  -15293   -15642   -15960   -16085   -16067   -16026   -15978   -15956 
  -16000   -15950   -15604   -15116   -14849   -14912   -15157   -15445 
  -15729   -15951   -16015   -15989   -16046   -16126   -16015   -15748 
  -15615   -15734   -15898   -15977   -16117   -16322   -16321   -16039 
  -15702   -15462   -15269   -15046   -14841   -14724   -14555   -14087 
  -13428   -13013   -12939   -12885   -12689   -12426   -12086   -11599 
  -11052   -10628   -10367   -10161   -10002   -10050   -10348   -10667 
  -10833   -10919   -11018   -11130   -11222   -11223   -11108   -10968 
  -10893   -10998   -11414   -12027   -12561   -13015   -13481   -13806 
  -13906   -13998   -14229   -14524   -14846   -15218   -15552   -15705 
  -15675   -15598   -15611   -15770   -15955   -16017   -16037   -16128 
  -16203   -16267   -16470   -16728   -16833   -16861   -17016   -17295 
  -17561   -17727   -17830   -18043   -18388   -18595   -18585   -18667 
  -18958   -19219   -19392   -19665   -19967   -20000   -19699   -19305 
  -19097   -19102   -19053   -18782   -18448   -18244   -18087   -17726 
  -17154   -16679   -16453   -16285   -15995   -15659   -15392   -15084 
  -14589   -14068   -13797   -13705   -13522   -13249   -13089   -13047 
  -12913   -12624   -12369   -12303   -12320   -12197   -11913   -11632 
  -11469   -11444   -11510   -11532   -11380   -11181   -11231   -11551 
  -11873   -11979   -11877   -11845   -12166   -12726   -13095   -13084 
  -12996   -13126   -13372   -13478   -13359   -13163   -12963   -12582 
  -12040   -11687   -11584   -11433   -11223   -11266   -11622   -11977 
  -12047   -11959   -12082   -12450   -12805   -13073   -13323   -13580 
  -13874   -14170   -14434   -14663   -14763   -14694   -14552   -14435 
  -14353   -14203   -14043   -14134   -14583   -15194   -15688   -16000 
  -16184   -16206   -16110   -16086   -16240   -16352   -16157   -15865 
  -15847   -16067   -16325   -16643   -17056   -17384   -17499   -17366 
  -16983   -16517   -16130   -15868   -15807   -15946   -16169   -16386 
  -16580   -16761   -16891   -16910   -16767   -16451   -16118   -15955 
  -15882   -15813   -15899   -16107   -16096   -15831   -15690   -15812 
  -15961   -15932   -15726   -15471   -15299   -15272   -15345   -15411 
  -15489   -15752   -16166   -16499   -16734   -16942   -17047   -17004 
  -16851   -16648   -16530   -16557   -16540   -16375   -16272   -16341 
  -16327   -16009   -15577   -15378   -15435   -15498   -15465   -15408 
  -15324   -15202   -15161   -15207   -15221   -15162   -15054   -14962 
  -14950   -14974   -14893   -14643   -14375   -14304   -14437   -14471 
  -14073   -13440   -13128   -13146   -12987   -12512   -12057   -11862 
  -11944   -12171   -12322   -12335   -12357   -12566   -13042   -13624 
  -13961   -13926   -13762   -13723   -13758   -13625   -13331   -13144 
  -13049   -12853   -12678   -12662   -12686   -12630   -12548   -12544 
  -12527   -12321   -12057   -12057   -12301   -12505   -12595   -12665 
  -12775   -12990   -13308   -13594   -13734   -13732   -13714   -13815 
  -14016   -14189   -14284   -14378   -14503   -14526   -14335   -14070 
  -13913   -13853   -13859   -13983   -14198   -14392   -14517   -14569 
  -14559   -14510   -14374   -14177   -14193   -14488   -14663   -14549 
  -14428   -14389   -14311   -14298   -14424   -14426   -14107   -13661 
  -13403   -13410   -13524   -13573   -13548   -13588   -13749   -13921 
  -14073   -14322   -14668   -14903   -14960   -15085   -15409   -15750 
  -16006   -16253   -16565   -17028   -17637   -18194   -18632   -19080 
  -19516   -19764   -19810   -19841   -19995   -20170   -20142   -19875 
  -19562   -19292   -18960   -18566   -18224   -17928   -17662   -17522 
  -17548   -17645   -17700   -17686   -17617   -17480   -17273   -17033 
  -16754   -16366   -15859   -15356   -15037   -15010   -15184   -15277 
  -15147   -14976   -14882   -14698   -14335   -13937   -13569   -13085 
  -12412   -11732   -11291   -11092   -10920   -10665   -10401   -10145 
   -9810    -9440    -9193    -9007    -8669    -8224    -7918    -7822 
   -7847    -7994    -8339    -8815    -9238    -9499    -9605    -9682 
   -9915   -10285   -10601   -10858   -11172   -11450   -11530   -11511 
  -11603   -11783   -11917   -11994   -12063   -12223   -12538   -12838 
  -13015   -13307   -13860   -14466   -14924   -15187   -15211   -14968 
  -14556   -14200   -14090   -14231   -14522   -14925   -15405   -15774 
  -15856   -15744   -15625   -15559   -15566   -15659   -15793   -15900 
  -15980   -16143   -16446   -16728   -16834   -16864   -16940   -16948 
  -16777   -16570   -16426   -16199   -15846   -15566   -15447   -15374 
  -15343   -15483   -15750   -15936   -15952   -15874   -15766   -15682 
  -15717   -15888   -16089   -16162   -16031   -15789   -15597   -15533 
  -15596   -15721   -15772   -15694   -15619   -15747   -16085   -16390 
  -16429   -16202   -15871   -15563   -15302   -15153   -15226   -15453 
  -15627   -15677   -15685   -15683   -15627   -15570   -15635   -15788 
  -15910   -16020   -16122   -16047   -15755   -15491   -15395   -15262 
  -14912   -14531   -14347   -14291   -14203   -14072   -13903   -13656 
  -13357   -13072   -12823   -12609   -12416   -12234   -12109   -12122 
  -12271   -12495   -12762   -13047   -13279   -13392   -13406   -13373 
  -13312   -13237   -13206   -13296   -13515   -13818   -14216   -14741 
  -15314   -15752   -15940   -15925   -15797   -15561   -15277   -15143 
  -15299   -15695   -16103   -16282   -16283   -16311   -16365   -16375 
  -16418   -16573   -16763   -16848   -16745   -16536   -16415   -16461 
  -16595   -16800   -17143   -17592   -18016   -18380   -18661   -18665 
  -18332   -18062   -18197   -18531   -18783   -19014   -19393   -19927 
  -20463   -20875   -21223   -21504   -21478   -21098   -20657   -20273 
  -19806   -19261   -18771   -18394   -18144   -17956   -17701   -17403 
  -17194   -17088   -17049   -17107   -17213   -17255   -17289   -17467 
  -17735   -17870   -17806   -17718   -17770   -17924   -18030   -18042 
  -18022   -17975   -17848   -17706   -17683   -17785   -17910   -17985 
  -17994   -17970   -17958   -17891   -17626   -17220   -16949   -16928 
  -16968   -16911   -16849   -16909   -17065   -17183   -17147   -16907 
  -16432   -15796   -15247   -14943   -14788   -14607   -14296   -13879 
  -13544   -13421   -13387   -13288   -13179   -13165   -13207   -13205 
  -13112   -12932   -12716   -12532   -12470   -12642   -12983   -13181 
  -13086   -12941   -12948   -13001   -13018   -13120   -13359   -13651 
  -13932   -14186   -14447   -14761   -15102   -15388   -15615   -15857 
  -16173   -16488   -16623   -16630   -16767   -17039   -17243   -17384 
  -17565   -17715   -17709   -17580   -17488   -17447   -17237   -16780 
  -16356   -16196   -16195   -16183   -16146   -16143   -16162   -16133 
  -16039   -15865   -15566   -15223   -15039   -15085   -15277   -15553 
  -15857   -16085   -16258   -16513   -16846   -17111   -17217   -17182 
  -17066   -16926   -16814   -16764   -16761   -16769   -16732   -16594 
  -16408   -16309   -16335   -16400   -16383   -16245   -16092   -15994 
  -15898   -15837   -15901   -15927   -15662   -15176   -14742   -14483 
  -14404   -14455   -14555   -14736   -15055   -15370   -15548   -15720 
  -16063   -16539   -17006   -17397   -17700   -17858   -17817   -17642 
  -17504   -17540   -17746   -18038   -18366   -18684   -18910   -19001 
  -18967   -18819   -18615   -18491   -18468   -18457   -18420   -18315 
  -18137   -18048   -18161   -18318   -18306   -18145   -17997   -17943 
  -17996   -18120   -18181   -18094   -17993   -18033   -18160   -18219 
  -18203   -18233   -18305   -18251   -17978   -17607   -17343   -17293 
  -17362   -17311   -17013   -16596   -16260   -16074   -15982   -15861 
  -15610   -15227   -14756   -14241   -13805   -13587   -13618   -13855 
  -14215   -14535   -14759   -15017   -15345   -15597   -15719   -15747 
  -15639   -15429   -15335   -15442   -15587   -15696   -15854   -16092 
  -16385   -16682   -16842   -16835   -16802   -16763   -16623   -16381 
  -16069   -15706   -15367   -15170   -15163   -15245   -15242   -15159 
  -15176   -15351   -15588   -15901   -16328   -16710   -16901   -16973 
  -16990   -16872   -16599   -16294   -16011   -15693   -15373   -15183 
  -15142   -15122   -15034   -14919   -14780   -14546   -14196   -13770 
  -13280   -12741   -12279   -12067   -12122   -12273   -12357   -12352 
  -12319   -12308   -12332   -12384   -12428   -12425   -12405   -12414 
  -12380   -12163   -11764   -11370   -11147   -11096   -11148   -11230 
  -11245   -11220   -11342   -11666   -11994   -12148   -12145   -12055 
  -11927   -11803   -11668   -11495   -11381   -11458   -11699   -11927 
  -12033   -12082   -12167   -12294   -12383   -12303   -12070   -11898 
  -11856   -11810   -11784   -11921   -12152   -12317   -12460   -12782 
  -13360   -14006   -14458   -14650   -14690   -14681   -14670   -14695 
  -14747   -14737   -14568   -14258   -13988   -13909   -13880   -13626 
  -13209   -12978   -13095   -13350   -13456   -13387   -13288   -13217 
  -13234   -13454   -13862   -14290   -14590   -14764   -14913   -15084 
  -15232   -15338   -15435   -15520   -15628   -15812   -15967   -15965 
  -15919   -16010   -16154   -16151   -16038   -15971   -15934   -15842 
  -15731   -15704   -15811   -16043   -16329   -16540   -16561   -16363 
  -16054   -15777   -15546   -15351   -15279   -15356   -15498   -15676 
  -15857   -15926   -15882   -15867   -15891   -15812   -15563   -15252 
  -15050   -15002   -15013   -15073   -15287   -15576   -15720   -15722 
  -15749   -15850   -15947   -15976   -15929   -15789   -15524   -15180 
  -14933   -14911   -14975   -14937   -14833   -14757   -14641   -14371 
  -13996   -13716   -13642   -13665   -13723   -13960   -14375   -14651 
  -14650   -14633   -14760   -14835   -14688   -14409   -14179   -14019 
