Origin Time       2011/03/11 14:46:00
Lat.              38.103
Long.             142.860
Depth. (km)       24
Mag.              9.0
Station Code      HKD129
Station Lat.      42.6347
Station Long.     141.6057
Station Height(m) 6
Record Time       2011/03/11 14:48:02
Sampling Freq(Hz) 100Hz
Duration Time(s)  300
Dir.              N-S
Scale Factor      3920(gal)/6182761
Max. Acc. (gal)   24.665
Last Correction   2011/03/11 14:47:47
Memo.             
[...]
   15789    16462    16694    16718    16761    16600    15900    14758 
   13565    12484    11374    10142     8850     7743     7274     7718 
    8905    10444    12103    13914    15846    17568    18595    18678 
   18131    17621    17623    18088    18357    17636    15807    13364 
   10671     7856     5139     2843     1158       59     -592     -902 
    -962     -979    -1040     -819     -131      655     1216     1640 
    2256     3243     4168     4327     3608     2479     1232      -87 
   -1288    -2196    -2652    -2538    -2167    -1848    -1269      -26 
    1843     4236     7252    10842    14519    17660    19945    21242 
   21504    20919    19907    18975    18494    18549    18825    18669 
   17781    16475    15193    14272    13924    14214    15016    15799 
   16025    15881    15849    15947    15993    15916    15672    15267 
   14742    14191    13778    13668    14045    14908    16015    17107 
   17916    18534    19545    21046    22433    23316    23662    23346 
   22267    20550    18345    15935    13812    12189    11068    10457 
   10145    10066    10340    10811    11456    12486    13790    15208 
   16887    18874    21014    23196    25095    26243    26670    26687 
   26453    26124    25501    23958    21383    18310    15337    12920 
   11300    10599    10875    12036    13850    15971    18179    20397 
   22334    23574    24117    24425    24844    25369    25827    25780 
   24610    21987    18166    13920    10000     6619     3668     1254 
    -290     -827     -739     -803    -1532    -2860    -4555    -6424 
   -8221    -9638   -10538   -11225   -12017   -12735   -13184   -13546 
  -13899   -13929   -13283   -11835    -9721    -7429    -5575    -4427 
   -4020    -4513    -5937    -7828    -9320    -9709    -8852    -6858 
   -4095    -1341      801     2327     3590     4871     6175     7287 
    8051     8612     9047     9091     8500     7373     6211     5459 
    4978     4397     3632     3001     2850     3095     3552     4194 
    5069     6457     8377    10371    12226    14048    15820    17206 
   17891    18104    18268    18453    18593    18860    19393    19978 
   20362    20317    19704    18717    17548    16282    15027    13771 
   12546    11551    10896    10626    10807    11309    11856    12447 
   13304    14409    15366    15630    14958    13696    12407    11525 
   11323    11761    12400    12690    12477    11979    11165     9748 
    7726     5433     3301     1796     1101      783      256     -588 
   -1508    -2352    -3186    -4250    -5820    -7854    -9978   -11844 
  -13259   -14218   -14890   -15379   -15574   -15321   -14556   -13146 
  -10952    -8287    -5821    -4014    -2954    -2546    -2616    -2812 
   -2705    -2085     -869     1019     3508     6361     9136    11331 
   12846    14029    15266    16862    19005    21566    24303    27157 
   29901    32002    33153    33552    33474    33005    32301    31604 
   30965    30304    29563    28675    27691    26779    25931    25081 
   24394    24157    24509    25218    25811    25921    25291    23922 
   22375    21283    20933    21573    23248    25345    27109    28255 
   28635    28178    27151    25765    24126    22570    21306    20327 
   20020    20962    23023    25423    27467    28802    29490    29849 
   29902    29318    28108    26777    25733    25074    24752    24585 
   24234    23320    21728    19719    17501    14986    12169     9195 
    6243     3742     2145     1522     1680     2192     2578     2738 
    2695     2285     1341     -213    -2181    -4020    -5399    -6462 
   -7432    -8436    -9539   -10458   -10674   -10166    -9435    -8909 
   -8865    -9357   -10081   -10776   -11470   -12169   -12511   -11960 
  -10290    -7679    -4754    -2467    -1430    -1537    -2232    -3056 
   -3976    -5084    -6223    -7068    -7453    -7573    -7697    -7774 
   -7667    -7383    -6941    -6283    -5212    -3565    -1369     1363 
    4585     8031    11425    14614    17465    19896    22041    24146 
   26197    27941    29332    30486    31398    32092    32670    33081 
   33029    32327    31103    29604    28181    26977    25705    24224 
   22572    20603    18310    16143    14726    14336    14884    16205 
   18046    20068    21974    23403    24001    23820    23274    22591 
   21747    20737    19548    18202    16929    16024    15492    14990 
   14116    12810    11512    10659    10238    10163    10431    10861 
   11186    11096    10282     8869     7333     6079     5387     5298 
    5664     6371     7357     8599    10102    11729    12982    13400 
   13000    11884    10085     7821     5495     3612     2418     1863 
    1893     2287     2808     3559     4629     5886     7187     8425 
    9614    11003    12779    14836    16893    18728    20326    21691 
   22480    22234    20985    19165    17235    15626    14547    13878 
   13591    13780    14307    14974    15664    16168    16451    16852 
   17652    19011    21227    24238    27448    30340    32449    33400 
   33459    33375    33806    34887    36226    37609    39111    40411 
   41011    40931    40487    40007    39909    40386    41234    42181 
   42962    43319    43195    42595    41398    39606    37509    35525 
   33927    32837    32377    32437    32693    33041    33411    33435 
   32922    31978    30495    28548    26672    25018    23219    21186 
   19228    17539    16183    15341    15034    15007    15033    14964 
   14697    14250    13644    12740    11449    10181     9709    10407 
   12087    14497    17333    20102    22335    23579    23480    22077 
   19651    16653    13789    11639    10441    10200    10750    11901 
   13415    14994    16388    17296    17378    16566    15274    14057 
   13142    12575    12358    12380    12498    12563    12464    12147 
   11676    11294    11169    11308    11467    11057     9722     7661 
    5297     3154     1728     1214     1575     2802     4754     6899 
    8728     9987    10392     9783     8383     6604     4751     2935 
    1168     -641    -2480    -3878    -4460    -4458    -4133    -3596 
   -3148    -2978    -2957    -3003    -3216    -3762    -4731    -5886 
   -6823    -7423    -7796    -8088    -8491    -9024    -9486    -9705 
   -9639    -9321    -8619    -7279    -5432    -3736    -2736    -2379 
   -2280    -2022    -1355     -421      608     1754     2945     4067 
    5151     6157     6839     7082     7089     7152     7498     8229 
    9234    10349    11447    12359    12897    12953    12697    12475 
   12316    11976    11259    10128     8798     7426     5900     4232 
    2654     1385      552      164      140      369      842     1643 
    2809     4313     5965     7451     8599     9445    10055    10372 
   10317     9966     9529     9240     9110     8959     8780     8880 
    9616    11030    12828    14530    15649    16155    16538    17246 
   18268    19392    20587    21788    22698    23017    22686    22005 
   21328    20933    21186    22123    23264    24164    24655    24600 
   23767    22037    19624    17105    15167    14125    13860    14314 
   15533    17280    19097    20547    21487    22333    23640    25454 
   27269    28493    28988    29021    28914    28993    29465    30243 
   30977    31382    31560    31699    31784    31818    31978    32500 
   33425    34484    35334    35612    34860    32788    29501    25407 
   20980    16645    12943    10465     9512    10010    11513    13371 
   15091    16292    16683    16334    15450    14061    12201    10132 
    8250     6671     4985     2709     -100    -2841    -4771    -5468 
   -4934    -3451    -1540      293     1823     2895     3322     3230 
    3038     2999     3317     4313     6055     8191    10339    12502 
   14681    16531    17920    19006    19905    20710    21413    21951 
   22395    22972    23858    24861    25696    26250    26423    26233 
   25737    24868    23624    22125    20550    18990    17407    15843 
   14351    13085    12406    12394    12817    13525    14357    15062 
   15434    15285    14477    13183    11815    10558     9244     7671 
    5987     4738     4157     3912     3790     3842     4135     4734 
    5511     6203     6671     6787     6513     6153     6051     6318 
    7062     8284     9794    11586    13615    15378    16348    16467 
   16064    15663    15745    16353    17223    18267    19421    20378 
   20709    20233    19284    18189    16950    15517    13683    11293 
    8635     6067     3838     2190     1215      855     1006     1640 
    2751     4010     4877     5255     5593     6263     7131     8040 
    9285    10952    12488    13309    13317    13187    13874    15540 
   17546    19208    20277    20875    21309    22030    23103    24144 
   24933    25349    25281    24776    23640    21613    19178    17060 
   15311    13742    12459    11694    11538    11713    11726    11369 
   10820    10235     9337     7680     5196     2354     -160    -1916 
   -2872    -3247    -3232    -2741    -1560      358     2767     5010 
    6390     6875     7034     7337     7839     8386     9003    10016 
   11706    14108    17102    20186    22574    24014    24881    25323 
   25246    24939    24794    24963    25564    26368    26887    27088 
   27034    26379    25063    23718    22991    23108    24017    25190 
   25699    25126    23791    21976    19730    17413    15491    13879 
   12317    10770     8931     6465     3745     1447       23     -450 
    -359      -36      591     1606     2795     3850     4545     4620 
    4057     3327     2866     2697     2653     2594     2504     2422 
    2315     2079     1621     1211     1399     2283     3385     4158 
    4472     4712     5037     5261     5575     6183     6850     7525 
    8393     9261     9704     9612     8981     7752     6415     5936 
    6929     9347    12777    16619    19877    21800    22626    22779 
   22426    21881    21409    21158    21230    21482    21651    21481 
   20822    19959    19480    19632    20074    20453    20716    20827 
   20817    20915    21351    21975    22421    22884    23603    24095 
   24219    24531    25187    25781    26110    26339    26418    26231 
   26138    26363    26695    26956    26895    26425    25903    25433 
   24901    24549    24646    25299    26402    27364    27761    27791 
   27719    27706    27634    27222    26672    26117    25287    24309 
   23448    22679    21980    21317    20591    19880    19346    18776 
   17883    16891    16153    15850    16077    16613    17175    17794 
   18274    18225    17875    17651    17604    17822    18429    19416 
   20595    21750    22939    24115    25150    26093    26741    26751 
   26260    25948    26235    26864    27451    27793    27949    28097 
   28168    28005    27585    26949    26149    25232    24217    23028 
   21562    19817    17840    15844    14164    12710    11091     9229 
    7254     5229     3287     1678      518     -255     -623     -571 
    -277      177      898     1807     2830     4042     5142     5649 
    5434     4576     3443     2692     2694     3491     4898     6138 
    6320     5113     2566     -870    -4544    -8035   -10889   -12739 
  -13592   -13546   -12903   -12292   -12114   -12164   -12108   -11874 
  -11226    -9937    -8398    -7239    -6683    -6343    -5708    -4797 
   -3781    -2535     -957      823     2654     4415     5793     6471 
    6469     5947     5126     4152     2789      771    -1668    -3872 
   -5277    -5672    -5068    -3614    -1580      791     3317     5737 
    7831     9621    11151    12491    13966    15767    17521    18509 
   18221    16719    14360    11512     8754     6645     5332     4735 
    4717     4954     5018     4652     3822     2764     2007     1882 
    2199     2682     3108     3058     2324     1257      293     -359 
    -474       94     1022     1789     2150     2046     1544      807 
    -124    -1238    -2318    -3082    -3276    -2723    -1606     -196 
    1527     3463     5263     6787     8131     9200     9661     9450 
    9040     9070     9825    11028    12155    12811    12809    12281 
   11585    10784     9498     7638     5897     4906     4536     4501 
    4879     5911     7417     8570     8731     8144     7304     6147 
    4466     2471      434    -1329    -2418    -2761    -2364     -864 
    1909     5439     9051    12216    14599    16214    17039    16943 
   16110    14878    13339    11507     9776     8762     8981    10634 
   13207    15979    18692    21150    23031    23992    23753    22442 
   20557    18637    16755    14422    11776     9696     8153     6398 
    4615     3636     3425     3156     2586     2252     2229     1984 
    1507     1144      770      -80    -1530    -2725    -2759    -2026 
   -1519    -1654    -2183    -3203    -5134    -7183    -8275    -8822 
   -9375    -9614    -9239    -8156    -6492    -4846    -3806    -3391 
   -3151    -2887    -2870    -2939    -2705    -2379    -2009    -1191 
       2     1030     1673     2270     3150     4211     5129     5903 
    7122     9201    11923    14923    17873    20710    23662    26540 
   28783    30220    30959    30934    30155    28912    27596    26517 
   26034    26682    28477    30632    32589    34513    36462    38015 
   38880    38996    39023    39971    41300    42370    43757    45385 
   47240    49410    50805    51272    51555    51459    51164    50570 
   48657    46322    44809    43500    42043    40365    38746    37778 
   36471    34108    31362    28570    26001    23827    21907    20589 
   20256    20575    20772    20316    19247    17938    16555    15025 
   13596    12513    11500    10480     9746     9158     8259     6840 
    4815     2455      628     -257     -558     -356      529     2022 
    3901     5679     6860     7485     7854     8127     8318     8599 
    9319    10402    11541    12706    14050    15775    17843    20037 
   22178    24063    25435    25953    25707    25498    25963    27081 
   28412    29662    31021    32497    33568    33794    33261    32381 
   31369    30300    29255    28080    26920    26123    25410    24570 
   23804    23017    22115    21329    20781    20488    20555    20552 
   19806    18742    17801    16626    15493    14655    13763    12970 
   12522    12130    11308    10317    10142    10429    10047     9396 
    9036     8250     6365     3470      237    -2490    -4484    -6216 
   -7581    -7689    -6891    -6479    -6728    -7081    -6963    -6682 
   -6605    -5897    -4379    -3086    -2473    -2017    -1176     -236 
     448     1284     2647     4345     5769     6629     7430     8510 
    9483     9848     9732     9676     9649     9037     7635     6108 
    5332     5365     5818     6936     8870    10994    12877    14434 
   15578    16261    16638    17432    19241    21764    24311    26186 
   27096    27411    27457    27274    26948    26707    26739    26870 
   26740    26095    24885    23355    21916    21095    21302    22371 
   23625    24540    25258    25873    26089    26030    25933    25844 
   26048    26548    26994    27361    27734    27989    27980    27749 
   27549    27689    28320    29323    30529    31848    33043    33826 
   34075    33864    33379    32590    31459    30289    29437    29085 
   29119    29401    30100    31181    32216    32921    33372    33871 
   34395    34423    33752    32698    31644    30867    30307    29768 
   29260    28772    28109    26983    25327    23334    21059    18481 
   15746    13017    10325     7503     4454     1531     -737    -2134 
   -2733    -2597    -1779     -462      954     1688     1096     -631 
   -2978    -5604    -8133   -10198   -11474   -11818   -11490   -10822 
   -9909    -8881    -8033    -7379    -6521    -5252    -3654    -1665 
     654     2878     4524     5293     5248     4822     4518     4566 
    4849     5123     5066     4461     3549     2720     2098     1654 
    1378     1220     1038      694       24    -1051    -2353    -3702 
   -4965    -5931    -6412    -6311    -5705    -4575    -2633      125 
    3115     5541     6868     7100     6714     6224     5816     5468 
    5155     4763     4125     3313     2596     2008     1284      317 
    -564     -916     -539      449     1674     2876     4158     5671 
    7399     9215    10952    12590    14223    15787    17103    18063 
   18542    18437    17931    17231    16364    15462    14757    14494 
   14758    15215    15386    15015    14140    12946    11516     9902 
    8333     7102     6289     5781     5567     5793     6548     7733 
    9135    10614    12036    13125    13605    13519    13216    12914 
   12531    11928    11176    10557    10096     9556     9041     8828 
    8919     9295    10032    11048    12184    13268    14016    14366 
   14666    15181    15846    16405    16617    16600    16715    17126 
   17862    18967    20302    21630    22872    23888    24324    23993 
   23024    21709    20395    19345    18723    18663    19118    19743 
   20240    20601    20735    20332    19302    17856    16101    14038 
   11811     9519     7109     4688     2597     1063     -105    -1310 
   -2694    -4133    -5589    -7128    -8723   -10343   -12198   -14452 
  -16698   -18368   -19374   -19793   -19392   -17923   -15613   -12949 
  -10329    -8045    -6071    -4189    -2498    -1212     -199      786 
    1603     1935     1824     1499     1162     1062     1185     1196 
    1018      952     1128     1471     2126     3233     4647     6279 
    8150    10181    12311    14626    17214    20000    22680    24840 
   26352    27563    28907    30486    31997    33088    33799    34402 
   35090    35934    36831    37655    38431    39157    39868    40644 
   41294    41526    41279    40686    39883    38888    37723    36469 
   35159    33807    32353    30658    28799    27126    25877    24980 
   24322    23951    23902    24126    24571    25083    25372    25134 
   24170    22531    20354    17742    15023    12645    10861     9812 
    9587     9997    10533    10645    10051     8998     8057     7545 
    7540     8038     8911    10231    12250    14730    16754    17408 
   16480    14344    11534     8796     6896     6069     6192     7041 
    8045     8548     8273     7292     5895     4504     3522     3087 
    2972     2775     2194     1125     -380    -2087    -3682    -4929 
   -5577    -5426    -4376    -2383      162     2454     3998     4781 
    5004     5176     6013     7800    10153    12449    14241    15393 
   15997    16072    15718    15368    15330    15585    15975    16064 
   15472    14408    13186    11793    10395     9390     8934     8865 
    8840     8663     8598     9111    10416    12347    14524    16686 
   18628    19897    20021    18935    16980    14627    12259    10281 
    9122     8872     9354    10457    12098    13999    15676    16857 
   17678    18284    18673    18780    18668    18784    19638    21304 
   23481    25731    27554    28664    29160    29181    28786    28141 
   27564    27507    28041    28549    28544    28048    27173    25959 
   24327    22282    20215    18430    16850    15506    14613    14271 
