Origin Time       2011/03/11 14:46:00
Lat.              38.103
Long.             142.860
Depth. (km)       24
Mag.              9.0
Station Code      HKD150
Station Lat.      42.7010
Station Long.     140.0619
Station Height(m) 6
Record Time       2011/03/11 14:48:10
Sampling Freq(Hz) 100Hz
Duration Time(s)  213
Dir.              E-W
Scale Factor      3920(gal)/6182761
Max. Acc. (gal)   3.200
Last Correction   2011/03/11 14:47:55
Memo.             
[...]
   -7158    -7323    -7494    -7649    -7771    -7864    -7938    -7975 
   -7976    -7957    -7909    -7834    -7766    -7712    -7652    -7579 
   -7489    -7380    -7277    -7178    -7049    -6902    -6774    -6644 
   -6491    -6344    -6231    -6144    -6071    -6018    -5986    -5988 
   -6034    -6100    -6174    -6271    -6382    -6477    -6552    -6636 
   -6746    -6853    -6923    -6955    -6967    -6959    -6932    -6911 
   -6927    -6970    -7012    -7072    -7171    -7302    -7465    -7657 
   -7858    -8058    -8250    -8428    -8590    -8741    -8873    -8955 
   -8961    -8911    -8838    -8742    -8608    -8455    -8318    -8182 
   -8022    -7867    -7739    -7608    -7460    -7317    -7168    -6996 
   -6819    -6656    -6505    -6362    -6244    -6150    -6071    -6013 
   -5985    -5986    -6020    -6085    -6165    -6244    -6323    -6423 
   -6562    -6731    -6919    -7149    -7417    -7683    -7945    -8207 
   -8445    -8644    -8816    -8982    -9156    -9343    -9532    -9708 
   -9872   -10014   -10119   -10188   -10228   -10238   -10223   -10180 
  -10095    -9992    -9914    -9854    -9780    -9687    -9578    -9451 
   -9308    -9151    -8982    -8811    -8651    -8497    -8345    -8213 
   -8107    -8031    -8003    -8021    -8065    -8139    -8252    -8390 
   -8526    -8639    -8732    -8819    -8901    -8968    -9028    -9094 
   -9171    -9269    -9391    -9514    -9615    -9695    -9736    -9725 
   -9705    -9695    -9656    -9586    -9524    -9474    -9423    -9380 
   -9360    -9357    -9349    -9324    -9310    -9318    -9325    -9320 
   -9321    -9344    -9366    -9369    -9383    -9440    -9534    -9656 
   -9811    -9997   -10199   -10415   -10632   -10832   -11031   -11224 
  -11380   -11497   -11587   -11642   -11656   -11625   -11550   -11453 
  -11346   -11221   -11095   -10999   -10913   -10816   -10734   -10671 
  -10610   -10557   -10509   -10450   -10390   -10353   -10337   -10324 
  -10324   -10350   -10401   -10474   -10562   -10653   -10745   -10847 
  -10969   -11079   -11129   -11124   -11104   -11057   -10951   -10805 
  -10664   -10525   -10368   -10213   -10067    -9918    -9764    -9600 
   -9434    -9296    -9182    -9076    -8989    -8939    -8921    -8924 
   -8957    -9030    -9128    -9234    -9338    -9429    -9520    -9621 
   -9694    -9713    -9697    -9660    -9608    -9559    -9522    -9490 
   -9465    -9448    -9433    -9422    -9422    -9410    -9365    -9302 
   -9235    -9156    -9072    -9011    -8977    -8957    -8951    -8949 
   -8937    -8911    -8867    -8811    -8746    -8662    -8574    -8513 
   -8472    -8451    -8473    -8539    -8634    -8757    -8912    -9095 
   -9305    -9548    -9822   -10089   -10314   -10495   -10634   -10720 
  -10756   -10744   -10678   -10562   -10397   -10184    -9947    -9694 
   -9417    -9123    -8827    -8543    -8276    -8016    -7783    -7614 
   -7492    -7384    -7307    -7297    -7352    -7439    -7543    -7674 
   -7839    -8013    -8161    -8277    -8380    -8471    -8528    -8543 
   -8525    -8459    -8335    -8174    -8001    -7825    -7654    -7490 
   -7341    -7213    -7107    -7018    -6951    -6911    -6894    -6893 
   -6903    -6917    -6946    -7020    -7140    -7272    -7400    -7541 
   -7712    -7907    -8099    -8260    -8387    -8486    -8567    -8634 
   -8673    -8682    -8669    -8619    -8522    -8393    -8250    -8102 
   -7948    -7794    -7661    -7554    -7470    -7409    -7356    -7302 
   -7248    -7193    -7135    -7108    -7131    -7158    -7166    -7194 
   -7250    -7304    -7357    -7426    -7518    -7622    -7727    -7826 
   -7926    -8041    -8159    -8271    -8398    -8530    -8659    -8809 
   -8966    -9110    -9243    -9337    -9367    -9370    -9363    -9321 
   -9243    -9154    -9061    -8950    -8812    -8647    -8471    -8292 
   -8100    -7920    -7777    -7647    -7507    -7378    -7275    -7194 
   -7141    -7122    -7125    -7152    -7217    -7294    -7365    -7454 
   -7557    -7647    -7736    -7845    -7965    -8085    -8211    -8346 
   -8471    -8572    -8645    -8683    -8703    -8702    -8653    -8573 
   -8502    -8439    -8367    -8288    -8219    -8175    -8157    -8150 
   -8145    -8145    -8149    -8149    -8142    -8137    -8141    -8154 
   -8161    -8150    -8153    -8190    -8239    -8305    -8420    -8581 
   -8749    -8912    -9073    -9224    -9374    -9527    -9664    -9782 
   -9900   -10019   -10113   -10170   -10199   -10201   -10181   -10153 
  -10122   -10094   -10090   -10109   -10129   -10144   -10154   -10160 
  -10166   -10148   -10080    -9976    -9854    -9706    -9528    -9327 
   -9111    -8892    -8673    -8449    -8235    -8054    -7892    -7739 
   -7616    -7537    -7481    -7416    -7351    -7310    -7275    -7237 
   -7211    -7202    -7219    -7255    -7288    -7334    -7404    -7481 
   -7571    -7679    -7805    -7961    -8142    -8318    -8468    -8598 
   -8704    -8771    -8806    -8820    -8803    -8749    -8671    -8592 
   -8521    -8435    -8327    -8218    -8108    -7988    -7882    -7797 
   -7719    -7640    -7564    -7495    -7440    -7418    -7438    -7480 
   -7534    -7614    -7713    -7826    -7977    -8162    -8333    -8478 
   -8625    -8768    -8882    -8967    -9019    -9029    -9016    -8977 
   -8906    -8820    -8718    -8584    -8422    -8240    -8032    -7812 
   -7597    -7379    -7158    -6956    -6761    -6585    -6485    -6454 
   -6454    -6496    -6581    -6688    -6820    -6964    -7110    -7274 
   -7442    -7596    -7763    -7950    -8128    -8274    -8392    -8492 
   -8567    -8615    -8649    -8685    -8728    -8774    -8813    -8835 
   -8848    -8854    -8838    -8808    -8790    -8772    -8736    -8706 
   -8684    -8644    -8600    -8561    -8530    -8508    -8471    -8405 
   -8344    -8301    -8250    -8194    -8143    -8082    -8000    -7904 
   -7807    -7733    -7706    -7711    -7728    -7773    -7853    -7931 
   -7982    -8033    -8106    -8189    -8271    -8352    -8442    -8555 
   -8662    -8738    -8802    -8855    -8885    -8883    -8853    -8814 
   -8767    -8689    -8582    -8481    -8402    -8320    -8228    -8145 
   -8049    -7925    -7802    -7683    -7548    -7390    -7208    -7023 
   -6859    -6713    -6566    -6423    -6299    -6191    -6096    -6031 
   -6012    -6043    -6113    -6210    -6327    -6467    -6632    -6811 
   -6986    -7152    -7302    -7419    -7504    -7554    -7555    -7510 
   -7430    -7319    -7207    -7104    -6982    -6845    -6724    -6627 
   -6558    -6525    -6522    -6527    -6538    -6566    -6610    -6670 
   -6758    -6880    -7039    -7236    -7454    -7677    -7917    -8173 
   -8420    -8645    -8850    -9025    -9153    -9221    -9232    -9204 
   -9142    -9046    -8927    -8800    -8680    -8563    -8459    -8386 
   -8341    -8312    -8300    -8298    -8304    -8320    -8333    -8338 
   -8329    -8292    -8232    -8177    -8128    -8072    -8016    -7954 
   -7874    -7804    -7758    -7712    -7671    -7667    -7699    -7749 
   -7825    -7932    -8074    -8243    -8409    -8555    -8686    -8803 
   -8900    -8959    -8976    -8971    -8953    -8917    -8864    -8808 
   -8778    -8773    -8771    -8773    -8780    -8783    -8786    -8784 
   -8765    -8715    -8631    -8521    -8397    -8268    -8133    -7995 
   -7885    -7815    -7761    -7716    -7701    -7715    -7737    -7765 
   -7803    -7836    -7869    -7926    -7997    -8050    -8082    -8108 
   -8121    -8122    -8127    -8135    -8149    -8192    -8271    -8368 
   -8482    -8627    -8806    -9012    -9233    -9457    -9667    -9854 
  -10023   -10160   -10251   -10304   -10324   -10316   -10281   -10213 
  -10108    -9970    -9805    -9622    -9427    -9228    -9035    -8859 
   -8707    -8580    -8464    -8355    -8258    -8165    -8070    -7975 
   -7895    -7831    -7761    -7685    -7623    -7586    -7568    -7556 
   -7561    -7599    -7660    -7717    -7752    -7766    -7764    -7737 
   -7682    -7597    -7484    -7367    -7260    -7152    -7049    -6958 
   -6877    -6826    -6801    -6779    -6772    -6803    -6852    -6903 
   -6975    -7077    -7184    -7291    -7404    -7509    -7601    -7691 
   -7785    -7871    -7936    -7978    -8008    -8038    -8074    -8099 
   -8121    -8170    -8250    -8350    -8466    -8595    -8734    -8882 
   -9047    -9227    -9409    -9580    -9739    -9883    -9997   -10078 
  -10144   -10204   -10231   -10215   -10179   -10132   -10067    -9996 
   -9932    -9871    -9810    -9755    -9714    -9692    -9685    -9671 
   -9636    -9604    -9596    -9617    -9668    -9746    -9866   -10052 
  -10286   -10522   -10745   -10954   -11137   -11287   -11408   -11482 
  -11500   -11471   -11407   -11312   -11187   -11021   -10811   -10570 
  -10303   -10014    -9724    -9435    -9145    -8880    -8655    -8443 
   -8244    -8087    -7961    -7860    -7806    -7782    -7755    -7729 
   -7722    -7720    -7707    -7693    -7675    -7639    -7590    -7545 
   -7502    -7466    -7432    -7385    -7333    -7279    -7207    -7143 
   -7134    -7178    -7263    -7368    -7477    -7597    -7735    -7862 
   -7950    -8026    -8115    -8188    -8238    -8283    -8300    -8273 
   -8219    -8134    -8003    -7846    -7678    -7483    -7257    -7010 
   -6748    -6493    -6258    -6029    -5804    -5598    -5406    -5226 
   -5083    -4984    -4913    -4879    -4898    -4967    -5080    -5235 
   -5433    -5676    -5957    -6264    -6566    -6847    -7113    -7355 
   -7576    -7777    -7930    -8043    -8146    -8217    -8227    -8192 
   -8126    -8031    -7938    -7862    -7763    -7651    -7568    -7501 
   -7433    -7372    -7312    -7247    -7183    -7128    -7065    -6983 
   -6899    -6839    -6812    -6820    -6872    -6967    -7085    -7222 
   -7387    -7571    -7756    -7938    -8106    -8234    -8323    -8396 
   -8462    -8523    -8590    -8656    -8709    -8751    -8795    -8844 
   -8900    -8967    -9029    -9072    -9097    -9103    -9086    -9054 
   -9013    -8957    -8897    -8854    -8824    -8777    -8731    -8718 
   -8741    -8782    -8833    -8893    -8954    -9013    -9067    -9114 
   -9165    -9216    -9250    -9253    -9221    -9167    -9099    -9010 
   -8899    -8808    -8749    -8682    -8625    -8634    -8685    -8734 
   -8802    -8908    -9048    -9221    -9405    -9590    -9791   -10007 
  -10201   -10347   -10447   -10524   -10596   -10642   -10631   -10557 
  -10435   -10280   -10084    -9830    -9534    -9216    -8884    -8549 
   -8205    -7856    -7531    -7242    -6996    -6803    -6649    -6535 
   -6477    -6455    -6453    -6485    -6544    -6620    -6721    -6852 
   -6996    -7152    -7324    -7489    -7629    -7774    -7940    -8091 
   -8207    -8301    -8378    -8428    -8450    -8454    -8443    -8409 
   -8348    -8271    -8205    -8168    -8134    -8084    -8034    -7981 
   -7924    -7866    -7806    -7754    -7712    -7660    -7595    -7525 
   -7455    -7394    -7328    -7235    -7118    -6988    -6848    -6711 
   -6599    -6520    -6451    -6384    -6355    -6361    -6379    -6433 
   -6530    -6627    -6720    -6822    -6914    -6997    -7075    -7132 
   -7171    -7199    -7195    -7151    -7086    -7015    -6934    -6824 
   -6671    -6501    -6359    -6256    -6155    -6033    -5916    -5811 
   -5692    -5551    -5400    -5255    -5123    -4997    -4875    -4766 
   -4656    -4533    -4422    -4349    -4319    -4335    -4383    -4434 
   -4477    -4510    -4518    -4503    -4482    -4461    -4447    -4455 
   -4489    -4536    -4589    -4663    -4758    -4865    -4981    -5105 
   -5241    -5384    -5505    -5589    -5648    -5695    -5727    -5753 
   -5793    -5847    -5899    -5954    -6025    -6108    -6195    -6274 
   -6330    -6367    -6406    -6444    -6475    -6508    -6545    -6566 
   -6571    -6580    -6585    -6572    -6526    -6427    -6289    -6138 
   -5966    -5764    -5544    -5334    -5164    -5043    -4954    -4900 
   -4905    -4969    -5067    -5206    -5396    -5616    -5860    -6129 
   -6416    -6710    -6988    -7237    -7470    -7695    -7923    -8150 
   -8365    -8582    -8801    -8995    -9163    -9320    -9448    -9529 
   -9560    -9538    -9479    -9392    -9251    -9058    -8831    -8572 
   -8299    -8029    -7758    -7489    -7246    -7047    -6893    -6782 
   -6713    -6684    -6704    -6760    -6826    -6905    -7009    -7125 
   -7267    -7461    -7678    -7882    -8086    -8293    -8477    -8633 
   -8758    -8841    -8896    -8945    -8985    -9014    -9029    -9006 
   -8941    -8851    -8730    -8571    -8403    -8249    -8099    -7961 
   -7854    -7768    -7695    -7648    -7625    -7598    -7549    -7490 
   -7446    -7426    -7409    -7386    -7370    -7352    -7337    -7357 
   -7400    -7434    -7474    -7537    -7596    -7640    -7683    -7730 
   -7766    -7793    -7826    -7836    -7802    -7747    -7687    -7614 
   -7530    -7431    -7305    -7163    -7016    -6865    -6717    -6581 
   -6457    -6351    -6272    -6222    -6210    -6233    -6279    -6335 
   -6389    -6430    -6453    -6463    -6465    -6446    -6405    -6349 
   -6282    -6225    -6177    -6107    -6017    -5922    -5804    -5667 
   -5538    -5421    -5290    -5157    -5068    -5013    -4967    -4954 
   -4987    -5052    -5133    -5206    -5261    -5322    -5399    -5458 
   -5486    -5507    -5520    -5506    -5469    -5402    -5299    -5176 
   -5032    -4847    -4630    -4395    -4152    -3907    -3664    -3442 
   -3260    -3115    -3009    -2957    -2954    -2967    -2989    -3042 
   -3128    -3242    -3393    -3567    -3747    -3934    -4130    -4317 
   -4502    -4700    -4887    -5042    -5195    -5351    -5484    -5603 
   -5718    -5797    -5830    -5830    -5802    -5767    -5728    -5672 
   -5610    -5558    -5501    -5434    -5366    -5283    -5182    -5078 
   -4946    -4789    -4653    -4532    -4399    -4278    -4190    -4106 
   -4022    -3971    -3955    -3951    -3955    -3968    -3982    -3983 
   -3978    -3977    -3981    -3993    -4023    -4073    -4159    -4292 
   -4456    -4644    -4861    -5088    -5309    -5529    -5743    -5944 
   -6133    -6294    -6404    -6474    -6516    -6536    -6535    -6504 
   -6437    -6349    -6251    -6155    -6095    -6069    -6047    -6041 
   -6077    -6139    -6202    -6260    -6318    -6386    -6475    -6575 
   -6671    -6767    -6858    -6920    -6955    -6981    -7001    -7007 
   -6991    -6957    -6932    -6929    -6932    -6920    -6876    -6806 
   -6729    -6669    -6644    -6638    -6623    -6611    -6612    -6629 
   -6686    -6771    -6849    -6923    -7003    -7079    -7154    -7239 
   -7323    -7385    -7414    -7407    -7368    -7322    -7273    -7198 
   -7097    -6988    -6876    -6762    -6661    -6588    -6531    -6481 
   -6447    -6426    -6404    -6371    -6336    -6318    -6322    -6321 
   -6293    -6252    -6218    -6199    -6201    -6218    -6247    -6286 
   -6310    -6315    -6338    -6386    -6425    -6449    -6463    -6465 
   -6473    -6507    -6552    -6593    -6641    -6695    -6752    -6819 
   -6893    -6956    -6975    -6945    -6899    -6844    -6767    -6666 
   -6545    -6416    -6279    -6134    -5998    -5889    -5791    -5691 
   -5605    -5545    -5492    -5440    -5411    -5416    -5443    -5478 
   -5526    -5589    -5649    -5718    -5824    -5974    -6154    -6332 
   -6506    -6700    -6924    -7163    -7385    -7557    -7698    -7832 
   -7945    -8045    -8135    -8170    -8142    -8114    -8123    -8134 
   -8124    -8114    -8109    -8093    -8066    -8013    -7921    -7810 
   -7676    -7513    -7346    -7173    -6977    -6782    -6609    -6456 
   -6311    -6149    -5972    -5825    -5732    -5682    -5662    -5659 
   -5665    -5681    -5709    -5771    -5880    -6011    -6113    -6166 
   -6207    -6272    -6340    -6381    -6392    -6384    -6355    -6318 
   -6300    -6287    -6251    -6198    -6146    -6096    -6052    -6019 
   -5990    -5971    -5978    -6000    -6012    -6012    -6013    -6030 
   -6055    -6052    -6006    -5951    -5921    -5905    -5886    -5867 
   -5849    -5856    -5910    -5984    -6071    -6177    -6278    -6378 
   -6506    -6639    -6762    -6882    -6976    -7049    -7154    -7281 
   -7374    -7446    -7527    -7612    -7709    -7815    -7890    -7947 
   -8029    -8111    -8139    -8107    -8041    -7962    -7878    -7775 
   -7629    -7432    -7201    -6980    -6818    -6713    -6614    -6486 
   -6362    -6294    -6262    -6212    -6136    -6085    -6098    -6151 
   -6203    -6259    -6360    -6522    -6714    -6898    -7076    -7252 
   -7408    -7527    -7617    -7694    -7762    -7795    -7798    -7809 
   -7808    -7758    -7694    -7670    -7682    -7709    -7736    -7744 
   -7735    -7761    -7829    -7885    -7918    -7955    -7990    -8027 
   -8089    -8146    -8160    -8154    -8147    -8112    -8033    -7925 
   -7834    -7788    -7732    -7626    -7524    -7456    -7384    -7298 
   -7218    -7132    -7041    -6973    -6937    -6922    -6909    -6883 
   -6843    -6812    -6795    -6782    -6765    -6767    -6810    -6875 
   -6939    -7001    -7070    -7164    -7272    -7364    -7463    -7583 
   -7697    -7798    -7897    -8000    -8107    -8202    -8288    -8381 
   -8453    -8481    -8495    -8512    -8521    -8523    -8529    -8552 
   -8589    -8608    -8591    -8557    -8510    -8437    -8338    -8221 
   -8106    -7998    -7882    -7764    -7674    -7601    -7524    -7468 
   -7449    -7454    -7469    -7478    -7481    -7492    -7508    -7526 
   -7577    -7665    -7762    -7862    -7968    -8078    -8200    -8338 
   -8464    -8562    -8649    -8729    -8795    -8854    -8907    -8944 
   -8965    -8969    -8955    -8937    -8929    -8923    -8893    -8841 
   -8788    -8718    -8620    -8518    -8436    -8371    -8304    -8229 
   -8174    -8170    -8195    -8208    -8204    -8191    -8173    -8156 
   -8119    -8042    -7935    -7830    -7742    -7640    -7515    -7384 
   -7253    -7113    -6951    -6773    -6625    -6523    -6438    -6361 
   -6312    -6292    -6288    -6295    -6302    -6310    -6335    -6387 
   -6444    -6491    -6546    -6631    -6724    -6795    -6845    -6889 
   -6945    -7005    -7037    -7060    -7103    -7138    -7143    -7138 
   -7142    -7162    -7206    -7281    -7395    -7508    -7578    -7648 
   -7772    -7912    -8009    -8072    -8139    -8206    -8263    -8314 
   -8365    -8417    -8457    -8465    -8455    -8457    -8469    -8478 
   -8491    -8520    -8560    -8605    -8669    -8762    -8880    -9031 
   -9203    -9358    -9497    -9660    -9853   -10040   -10212   -10364 
  -10482   -10589   -10699   -10779   -10825   -10857   -10872   -10852 
  -10800   -10735   -10664   -10587   -10507   -10421   -10334   -10250 
  -10167   -10083   -10010    -9962    -9943    -9947    -9976   -10021 
  -10090   -10179   -10257   -10315   -10370   -10423   -10467   -10501 
  -10520   -10546   -10591   -10631   -10638   -10642   -10662   -10670 
  -10668   -10684   -10702   -10681   -10627   -10573   -10528   -10481 
  -10414   -10312   -10196   -10098   -10017    -9937    -9858    -9767 
   -9665    -9578    -9514    -9460    -9408    -9344    -9267    -9206 
   -9168    -9136    -9111    -9113    -9140    -9177    -9223    -9282 
   -9346    -9402    -9446    -9484    -9517    -9529    -9514    -9503 
