Origin Time       2011/03/11 14:46:00
Lat.              38.103
Long.             142.860
Depth. (km)       24
Mag.              9.0
Station Code      HKD134
Station Lat.      42.6713
Station Long.     141.0790
Station Height(m) 392
Record Time       2011/03/11 14:48:01
Sampling Freq(Hz) 100Hz
Duration Time(s)  276
Dir.              E-W
Scale Factor      3920(gal)/6182761
Max. Acc. (gal)   8.959
Last Correction   2011/03/11 14:47:46
Memo.             
[...]
     932      166     -481     -971    -1279    -1421    -1362    -1038 
    -544      -58      298      472      498      465      378      214 
      93      239      774     1528     2095     2230     2100     2026 
    2178     2453     2520     2198     1717     1485     1739     2336 
    2875     3195     3541     4142     4904     5535     5808     5726 
    5516     5392     5410     5518     5659     5850     6035     5933 
    5374     4609     3971     3513     3177     3013     3072     3306 
    3586     3712     3534     3136     2695     2226     1657     1046 
     547      229       43       -4      167      479      660      566 
     364      316      388      273     -152     -609     -814     -817 
    -853    -1066    -1391    -1587    -1469    -1125     -787     -602 
    -582     -576     -366       46      413      596      779     1132 
    1516     1802     2073     2416     2848     3284     3552     3655 
    3704     3552     2977     2143     1572     1690     2489     3569 
    4464     4984     5314     5649     5793     5424     4626     3791 
    3161     2755     2578     2677     3052     3579     4025     4249 
    4215     3796     2955     1978     1251      994     1208     1620 
    1876     1898     1819     1666     1346      796       21     -825 
   -1433    -1532    -1042      -50     1216     2412     3303     3934 
    4430     4806     5053     5142     5051     4893     4763     4544 
    4100     3463     2713     1928     1316     1046      974      876 
     884     1301     2068     2859     3520     4026     4298     4260 
    3901     3412     3230     3554     4088     4490     4666     4598 
    4261     3631     2712     1710     1023      870     1083     1466 
    1995     2478     2531     2045     1331      707      205     -228 
    -472     -296      260      724      700      278     -235     -612 
    -761     -674     -292      466     1510     2578     3376     3616 
    3124     2031      731     -249     -457       95      969     1801 
    2529     3177     3593     3591     3234     2735     2265     1928 
    1751     1651     1501     1263     1016      815      607      313 
      -8     -159       17      499     1114     1735     2420     3182 
    3847     4290     4441     4222     3702     2997     2102     1014 
    -195    -1277    -1788    -1508     -660      387     1326     1976 
    2370     2609     2678     2511     2099     1567     1206     1326 
    1967     2856     3702     4374     4841     5087     5078     4810 
    4446     4211     4087     3852     3501     3347     3620     4307 
    5302     6300     6742     6286     5199     4006     2958     1993 
     896     -434    -1639    -2234    -2226    -1963    -1658    -1303 
    -805      -68      926     2055     3080     3745     3979     3961 
    3872     3723     3432     2924     2188     1275      331     -437 
    -949    -1308    -1610    -1821    -1852    -1640    -1207     -687 
    -193      261      705     1200     1740     2139     2269     2321 
    2556     2884     2988     2737     2272     1802     1420     1111 
     882      735      612      480      333      193      151      330 
     815     1583     2430     3128     3587     3701     3320     2493 
    1490      679      405      746     1485     2391     3266     3831 
    3874     3466     2805     1978     1130      651      750     1118 
    1469     1946     2655     3360     3869     4315     4873     5488 
    5945     5999     5531     4748     4036     3563     3175     2672 
    2083     1617     1386     1198      763      101     -470     -734 
    -717     -514     -131      454     1217     2133     3145     4114 
    4879     5293     5305     5028     4571     3890     3036     2346 
    2041     1915     1759     1692     1824     2042     2222     2349 
    2542     2992     3647     4194     4416     4310     4050     3951 
    4257     4927     5629     6025     6090     5896     5345     4449 
    3466     2568     1747     1025      428     -125     -710    -1305 
   -1826    -2156    -2183    -1861    -1174     -101     1184     2228 
    2781     3063     3285     3303     2900     2152     1458     1225 
    1468     1734     1524      736     -306    -1150    -1632    -2039 
   -2802    -3965    -5108    -5869    -6266    -6344    -5887    -4667 
   -2764     -576     1423     2974     3998     4508     4787     5237 
    5892     6440     6654     6541     6121     5354     4296     3179 
    2403     2281     2712     3386     4211     5253     6421     7362 
    7694     7295     6300     5036     3958     3269     2714     1997 
    1150      386     -176     -554     -871    -1201    -1266     -706 
     355     1522     2514     3195     3612     3916     4209     4604 
    5139     5602     5622     5051     4151     3278     2656     2385 
    2373     2374     2138     1520      630     -207     -730     -960 
   -1112    -1319    -1437    -1180     -483      432     1292     1810 
    1818     1545     1418     1605     1941     2231     2448     2585 
    2479     1903      797     -638    -2049    -3169    -3951    -4483 
   -4801    -4728    -3992    -2614     -916      875     2698     4400 
    5741     6593     6952     6981     7103     7666     8563     9462 
   10117    10366    10031     8976     7288     5282     3299     1617 
     465       12      256      874     1488     2125     2995     3965 
    4752     5292     5503     5144     4202     3038     2089     1574 
    1415     1389     1311     1169     1170     1464     1962     2513 
    2965     3205     3283     3236     2867     2011      910       -4 
    -570     -889    -1037    -1047    -1021    -1069    -1155    -1079 
    -674       16      875     1985     3504     5197     6553     7354 
    7616     7322     6600     5724     4750     3520     2026      499 
    -865    -1965    -2723    -3186    -3445    -3433    -3103    -2537 
   -1840    -1247     -990     -956     -926     -854     -667     -195 
     628     1692     2683     3242     3380     3458     3697     4047 
    4324     4325     3992     3442     2800     2100     1294      332 
    -687    -1571    -2093    -1942    -1063      171     1454     2823 
    4255     5445     6150     6356     6090     5496     4822     4146 
    3509     3137     3241     3757     4507     5470     6571     7518 
    8205     8765     9167     9159     8707     8248     8103     7898 
    7128     5928     4954     4730     5121     5563     5661     5229 
    4136     2613     1299      628      566     1043     2175     3970 
    6029     7736     8666     8716     8023     6805     5186     3321 
    1589      374     -281     -649     -968    -1285    -1643    -2142 
   -2665    -2836    -2392    -1481     -495      335      937     1247 
    1258      997      505      -34     -444     -711     -835     -829 
    -839     -915     -831     -451      -32      132      127      283 
     715     1146     1305     1261     1091      681        0     -764 
   -1312    -1395     -942      -13     1283     2682     3810     4575 
    5171     5534     5287     4280     2794     1306      136     -715 
   -1320    -1575    -1390     -905     -284      528     1643     2875 
    3866     4426     4456     3919     3065     2222     1373      364 
    -599    -1139    -1253    -1259    -1379    -1574    -1697    -1636 
   -1306     -613      558     2244     4204     5994     7210     7619 
    7294     6517     5385     3740     1629     -495    -2209    -3440 
   -4219    -4501    -4234    -3390    -2005     -195     1839     3774 
    5286     6285     6998     7756     8514     8807     8316     7196 
    5851     4550     3243     1794      355     -663    -1129    -1447 
   -2008    -2649    -2919    -2543    -1528      -93     1525     3243 
    4936     6227     6711     6298     5276     4093     3100     2374 
    1835     1559     1757     2344     2900     3249     3624     4099 
    4463     4699     5040     5601     6189     6498     6361     5644 
    4262     2418      549     -867    -1575    -1800    -1848    -1571 
    -733      419     1469     2356     3133     3500     3083     2004 
     824       72      -72      235      779     1480     2324     3155 
    3608     3563     3428     3597     4095     4849     5750     6559 
    7050     7071     6521     5477     4248     3088     2030     1106 
     405      -77     -482     -950    -1456    -1855    -2029    -1847 
   -1145       90     1615     3099     4285     4991     5174     4943 
    4430     3889     3738     4173     5005     5980     6878     7361 
    7117     6100     4475     2429      102    -2318    -4531    -6280 
   -7469    -8110    -8183    -7605    -6480    -5144    -3772    -2345 
    -955      221     1198     2192     3287     4338     5140     5533 
    5523     5215     4651     3868     2925     1948     1177      666 
     209     -293     -701     -790     -427      272      935     1174 
     930      435     -187     -970    -1829    -2555    -2949    -2756 
   -1850     -562      573     1227     1331     1148     1180     1770 
    2955     4566     6300     7845     8917     9302     8880     7608 
    5599     3145      644    -1454    -2884    -3752    -4224    -4189 
   -3476    -2257    -1051     -333     -135       21      713     2031 
    3554     4795     5444     5420     4977     4589     4514     4639 
    4746     4767     4839     5143     5656     6142     6392     6403 
    6360     6432     6491     6186     5340     4108     2666     1063 
    -534    -1836    -2681    -2889    -2231     -846      703     1921 
    2664     3056     3365     3808     4343     4773     5049     5327 
    5753     6299     6805     7146     7323     7439     7562     7538 
    7129     6417     5693     4929     3911     2913     2517     2835 
    3547     4422     5276     5843     6025     5881     5325     4073 
    2044     -240    -1918    -2502    -2174    -1486     -909     -569 
    -442     -714    -1612    -3001    -4511    -5801    -6547    -6553 
   -5930    -4936    -3822    -2926    -2628    -3067    -4000    -5041 
   -5883    -6264    -5992    -5044    -3665    -2281    -1246     -752 
    -805    -1253    -1941    -2760    -3521    -3872    -3461    -2299 
    -863      351     1267     2027     2657     3196     3707     4090 
    4201     4073     3896     3914     4183     4414     4364     4209 
    4203     4290     4224     3878     3345     2767     2271     2053 
    2254     2739     3259     3812     4562     5438     6097     6255 
    5986     5643     5401     5142     4820     4520     4244     3866 
    3257     2434     1589      889      360       80      197      666 
    1263     1749     1907     1641     1058      488      195      -65 
    -789    -2038    -3404    -4537    -5383    -5915    -6000    -5601 
   -4799    -3638    -2096     -240     1628     3073     3831     3961 
    3702     3300     2925     2546     2003     1339      878      885 
    1260     1637     1720     1388      667     -146     -597     -406 
     463     1953     3879     5826     7336     8160     8288     7871 
    7008     5631     3836     2029      562     -521    -1358    -2052 
   -2636    -3184    -3720    -4143    -4359    -4238    -3544    -2209 
    -526     1044     2137     2632     2626     2190     1246     -133 
   -1482    -2271    -2357    -1930    -1312     -843     -586     -235 
     442     1372     2352     3186     3824     4266     4305     3756 
    2816     1789      733     -288    -1037    -1400    -1487    -1354 
    -931     -268      467     1246     2038     2631     2905     2958 
    2883     2685     2427     2355     2737     3547     4518     5469 
    6370     7168     7682     7742     7385     6770     5986     5109 
    4217     3280     2250     1150       36     -983    -1822    -2521 
   -3079    -3333    -3015    -1987     -557      645     1192     1089 
     543     -258    -1122    -1777    -1896    -1274      -62     1301 
    2483     3373     3818     3751     3390     2935     2425     1959 
    1717     1704     1635     1099     -111    -1791    -3426    -4470 
   -4672    -4184    -3318    -2299    -1248     -252      721     1832 
    3099     4300     5290     6068     6534     6542     6113     5442 
    4784     4427     4633     5390     6336     7074     7325     6894 
    5831     4384     2664      720    -1067    -2198    -2612    -2566 
   -2137    -1354     -558      -71      208      528      967     1528 
    2138     2611     2835     2768     2424     2008     1713     1485 
    1223      895      498      102     -210     -407     -467     -397 
    -232        4      337      884     1750     2817     3763     4281 
    4326     4130     3867     3560     3241     2939     2740     2846 
    3287     3872     4453     4901     5101     5145     5278     5610 
    6008     6331     6706     7341     8173     8916     9219     8880 
    7968     6625     5065     3690     2801     2397     2401     2729 
    3210     3675     4158     4854     5763     6666     7497     8329 
    9059     9443     9317     8640     7492     6093     4648     3153 
    1522     -139    -1569    -2645    -3473    -4211    -4885    -5349 
   -5479    -5338    -5014    -4593    -4309    -4268    -4199    -3812 
   -3179    -2583    -2233    -2224    -2539    -2955    -3148    -2978 
   -2527    -2054    -1932    -2381    -3369    -4846    -6740    -8790 
  -10616   -11858   -12298   -12003   -11150    -9694    -7554    -5035 
   -2648     -621     1156     2864     4606     6404     8244    10102 
   11819    13096    13786    13939    13553    12581    11127     9542 
    8237     7355     6754     6259     5786     5381     5179     5332 
    5957     7025     8331     9576    10473    10881    10825    10320 
    9289     7698     5775     4007     2846     2459     2690     3287 
    4177     5355     6678     7894     8775     9236     9282     8912 
    8155     7113     5875     4496     3060     1722      655     -123 
    -722    -1178    -1481    -1690    -1868    -2041    -2218    -2435 
   -2750    -3126    -3419    -3480    -3254    -2839    -2432    -2211 
   -2196    -2282    -2431    -2639    -2731    -2400    -1540     -399 
     738     1788     2642     3044     2777     1846      542     -754 
   -1906    -2975    -3834    -4138    -3731    -2804    -1622     -428 
     500     1019     1259     1486     1868     2272     2403     2191 
    1805     1408     1083      773      422      144      -79     -497 
   -1155    -1729    -1768    -1006      454     2237     3950     5397 
    6538     7283     7546     7352     6736     5747     4427     2748 
     852     -854    -2016    -2558    -2574    -2122    -1211       87 
    1611     3055     4081     4725     5387     6284     7226     7866 
    7905     7221     6019     4751     3788     3240     2994     2893 
    2990     3485     4282     4907     5046     4715     3976     2984 
    2035     1205      326     -626    -1504    -2255    -2935    -3642 
   -4528    -5590    -6420    -6491    -5708    -4388    -2846    -1240 
     369     1930     3218     3984     4277     4251     3789     2706 
    1194     -265    -1439    -2467    -3421    -4154    -4561    -4641 
   -4386    -3750    -2660    -1175      399     1695     2469     2514 
    1665       73    -1806    -3524    -4805    -5604    -6003    -5952 
   -5194    -3574    -1520      107      801      698      245     -286 
    -939    -1700    -2197    -1895     -599     1255     2999     4131 
    4271     3330     1696        6    -1143    -1444     -853      624 
    2807     5164     7019     8035     8409     8430     8113     7463 
    6764     6461     6729     7247     7614     7764     7816     7819 
    7767     7707     7679     7638     7542     7343     6977     6443 
    5706     4754     3771     2879     2026     1237      631      294 
     194      172      117      141      494     1307     2420     3603 
    4815     6034     7069     7681     7705     7069     5847     4233 
    2530     1121      229     -265     -587     -803     -776     -332 
     451     1201     1555     1417      886       72     -813    -1453 
   -1773    -1964    -2083    -1957    -1485     -876     -523     -618 
    -994    -1393    -1654    -1631    -1141      -64     1521     3303 
    4841     5739     5854     5292     4131     2405      325    -1743 
   -3461    -4607    -5184    -5409    -5445    -5327    -5030    -4409 
   -3368    -2144    -1137     -497       -2      595     1147     1261 
     756     -200    -1327    -2496    -3714    -4981    -6245    -7287 
   -7763    -7571    -6911    -6024    -5129    -4356    -3567    -2573 
   -1442     -324      822     2037     3196     4298     5425     6324 
    6687     6674     6612     6614     6724     6931     6970     6493 
    5414     4004     2743     1932     1513     1428     1844     2863 
    4295     5807     7142     8240     9151     9814    10100    10037 
    9759     9292     8560     7603     6763     6536     7097     8106 
    9065     9681     9845     9522     8856     8030     7006     5775 
    4630     3925     3737     3771     3546     2802     1681      399 
   -1047    -2696    -4389    -5824    -6739    -7014    -6668    -5809 
   -4658    -3524    -2568    -1715     -907     -198      390      865 
    1212     1513     1944     2343     2235     1455      165    -1491 
   -3327    -5071    -6455    -7300    -7644    -7583    -7067    -6072 
   -4819    -3662    -2785    -2133    -1597    -1066     -399      403 
    1102     1571     1967     2343     2499     2290     1707      834 
     -65     -784    -1365    -1855    -2291    -2793    -3317    -3596 
   -3535    -3324    -3101    -2815    -2347    -1589     -552      577 
    1582     2378     3038     3695     4433     5251     5955     6295 
    6286     6152     5985     5605     4811     3601     2117      619 
    -483     -903     -687       11     1175     2822     4849     6999 
    8914    10304    11102    11344    11051    10317     9298     8115 
    6966     6062     5341     4648     3989     3431     3033     2837 
    2842     3044     3372     3647     3724     3608     3358     2987 
    2485     1815     1005      263     -154     -151      156      538 
     842     1141     1623     2259     2784     3021     3003     2848 
    2588     2164     1616     1143     1004     1293     1732     1900 
    1617      971      173     -593    -1214    -1536    -1460    -1087 
    -580      -64      409      875     1319     1630     1753     1726 
    1541     1174      723      377      324      625     1122     1567 
    1823     1815     1520     1010      380     -316     -978    -1372 
   -1331     -983     -527       55      845     1721     2415     2728 
    2665     2467     2431     2563     2618     2541     2550     2864 
    3541     4350     4900     5043     4887     4528     4096     3799 
    3688     3596     3448     3423     3727     4306     4876     5134 
    4917     4270     3322     2107      658     -855    -2232    -3360 
   -4196    -4720    -4916    -4789    -4394    -3810    -3139    -2483 
   -1966    -1765    -1861    -1978    -2035    -2122    -2160    -2097 
   -1958    -1642    -1149     -696     -342       91      675     1275 
