Origin Time       2011/03/11 14:46:00
Lat.              38.103
Long.             142.860
Depth. (km)       24
Mag.              9.0
Station Code      HKD147
Station Lat.      42.8056
Station Long.     140.5305
Station Height(m) 33
Record Time       2011/03/11 14:48:21
Sampling Freq(Hz) 100Hz
Duration Time(s)  255
Dir.              N-S
Scale Factor      3920(gal)/6182761
Max. Acc. (gal)   4.926
Last Correction   2011/03/11 14:48:06
Memo.             
[...]
   -1661    -1647    -1538    -1322    -1037     -716     -408     -160 
      12       99      119      126      156      226      368      571 
     797     1031     1230     1348     1408     1415     1328     1173 
    1011      847      698      630      647      682      714      725 
     641      431      148     -127     -341     -503     -629     -695 
    -688     -647     -637     -728     -938    -1217    -1512    -1799 
   -2038    -2183    -2208    -2128    -2000    -1872    -1755    -1645 
   -1555    -1488    -1401    -1281    -1177    -1102    -1040     -989 
    -907     -770     -602     -454     -398     -434     -499     -573 
    -627     -587     -432     -217       10      254      509      713 
     809      826      859      964     1085     1123     1107     1164 
    1319     1487     1667     1949     2326     2692     3006     3312 
    3629     3935     4217     4468     4696     4918     5087     5136 
    5068     4940     4743     4432     4049     3698     3411     3157 
    2895     2590     2225     1769     1195      562      -74     -719 
   -1331    -1821    -2182    -2457    -2651    -2782    -2916    -3075 
   -3221    -3307    -3329    -3323    -3321    -3306    -3234    -3100 
   -2929    -2720    -2512    -2375    -2288    -2160    -2001    -1900 
   -1859    -1802    -1688    -1536    -1380    -1238    -1125    -1038 
    -945     -845     -752     -660     -588     -560     -548     -507 
    -432     -281        2      367      724     1044     1316     1552 
    1804     2078     2333     2559     2750     2889     3002     3107 
    3127     3013     2818     2582     2316     2038     1718     1368 
    1058      792      548      334      155        7     -154     -321 
    -404     -419     -450     -456     -376     -235      -67       93 
     212      288      342      389      441      496      551      625 
     729      838      919      946      908      829      745      671 
     623      642      749      858      907      985     1140     1311 
    1496     1691     1838     1935     2018     2082     2109     2131 
    2188     2264     2328     2399     2501     2615     2706     2730 
    2692     2635     2557     2443     2327     2253     2225     2188 
    2139     2139     2194     2258     2328     2420     2487     2474 
    2431     2443     2483     2494     2487     2465     2382     2206 
    1963     1723     1499     1246     1001      824      681      520 
     344      159      -49     -265     -469     -714    -1059    -1464 
   -1852    -2177    -2433    -2652    -2890    -3136    -3323    -3435 
   -3529    -3654    -3814    -3975    -4079    -4090    -4007    -3853 
   -3641    -3357    -3001    -2616    -2250    -1914    -1616    -1355 
   -1095     -804     -520     -303     -151      -14      118      209 
     259      295      282      176       38      -76     -187     -288 
    -340     -346     -316     -251     -167     -104     -103     -171 
    -268     -378     -496     -550     -493     -390     -294     -201 
    -150     -184     -294     -461     -660     -829     -906     -901 
    -868     -820     -787     -853    -1040    -1293    -1570    -1852 
   -2127    -2403    -2666    -2874    -3029    -3198    -3429    -3698 
   -3931    -4068    -4089    -4015    -3898    -3786    -3688    -3592 
   -3500    -3378    -3150    -2829    -2523    -2263    -1957    -1549 
   -1072     -568      -73      359      716     1046     1363     1620 
    1789     1882     1895     1840     1772     1716     1640     1541 
    1442     1315     1151      991      848      742      754      895 
    1030     1084     1134     1186     1151     1072     1040      993 
     842      640      508      442      357      281      227      133 
      13      -91     -164     -180     -153      -97      -21        8 
     -55     -190     -326     -390     -383     -382     -435     -524 
    -605     -650     -662     -687     -764     -870     -955     -972 
    -926     -903     -974    -1097    -1192    -1265    -1332    -1345 
   -1281    -1171    -1021     -830     -650     -526     -419     -285 
    -170     -111      -52       46      152      233      286      338 
     389      377      271      165      160      201      199      181 
     178      161      136      105       26     -104     -252     -398 
    -531     -619     -631     -599     -601     -655     -722     -803 
    -904     -997    -1083    -1175    -1253    -1302    -1357    -1455 
   -1583    -1735    -1983    -2321    -2607    -2796    -2977    -3162 
   -3303    -3402    -3454    -3442    -3406    -3369    -3303    -3218 
   -3165    -3142    -3122    -3101    -3066    -2998    -2930    -2881 
   -2824    -2764    -2723    -2682    -2613    -2500    -2328    -2094 
   -1841    -1605    -1371    -1163    -1024     -920     -798     -654 
    -497     -318      -92      164      377      531      635      640 
     539      422      365      352      318      259      250      289 
     295      283      335      415      393      267      200      263 
     309      235      168      227      365      497      567      550 
     464      347      195        7     -143     -260     -428     -610 
    -726     -799     -878     -943     -903     -750     -593     -451 
    -288     -143       35      356      748     1088     1390     1691 
    1970     2178     2336     2566     2893     3212     3503     3815 
    4125     4377     4571     4754     4910     4977     5007     5083 
    5152     5192     5260     5311     5296     5277     5306     5345 
    5366     5431     5535     5546     5365     5008     4571     4143 
    3725     3323     3011     2809     2652     2506     2359     2205 
    2101     2022     1841     1540     1227     1001      892      858 
     835      773      630      445      331      302      258      180 
      97       11      -66     -146     -303     -595     -958    -1257 
   -1445    -1559    -1634    -1713    -1771    -1688    -1447    -1159 
    -890     -631     -405     -244      -98       92      317      536 
     714      850      961     1043     1063     1000      903      813 
     747      762      827      864      924     1017     1037      974 
     906      834      742      703      769      914     1114     1341 
    1572     1811     2031     2204     2348     2471     2571     2687 
    2830     2950     3011     2998     2913     2812     2750     2730 
    2763     2846     2915     2907     2780     2535     2256     2042 
    1954     2021     2214     2487     2801     3073     3220     3260 
    3234     3142     3018     2905     2825     2824     2926     3077 
    3186     3209     3137     2929     2588     2218     1913     1639 
    1299      890      531      260      -16     -305     -519     -667 
    -897    -1293    -1772    -2209    -2512    -2674    -2821    -3063 
   -3398    -3740    -3976    -4113    -4224    -4229    -4096    -3958 
   -3803    -3538    -3280    -3127    -2992    -2885    -2905    -2956 
   -2868    -2678    -2443    -2068    -1551    -1005     -516     -177 
     -29       23       84      146      127       39      -14      -19 
     -29      -18       40      102      198      400      672      971 
    1314     1683     2051     2440     2860     3255     3519     3680 
    3927     4278     4575     4798     5035     5281     5440     5492 
    5542     5573     5507     5432     5367     5122     4638     4104 
    3676     3295     2894     2529     2217     1986     1908     1897 
    1781     1576     1380     1170      899      585      314      186 
     163      111        5      -92     -109        4      201      353 
     357      200       -1      -73      -17      -11     -117     -187 
    -160     -167     -277     -456     -670     -864    -1019    -1187 
   -1375    -1532    -1649    -1791    -2016    -2299    -2628    -3028 
   -3408    -3652    -3790    -3873    -3922    -3942    -3829    -3525 
   -3199    -2995    -2889    -2869    -2956    -3103    -3231    -3339 
   -3455    -3518    -3508    -3532    -3612    -3667    -3635    -3468 
   -3219    -3021    -2909    -2811    -2669    -2447    -2124    -1749 
   -1427    -1145     -785     -354       16      250      405      542 
     631      668      727      820      898      993     1132     1228 
    1196     1036      798      542      302       80     -117     -282 
    -422     -531     -555     -477     -376     -358     -478     -714 
    -990    -1257    -1518    -1752    -1914    -1965    -1905    -1795 
   -1665    -1470    -1209     -974     -842     -799     -779     -767 
    -806     -855     -803     -666     -581     -619     -725     -847 
   -1019    -1288    -1612    -1878    -2031    -2117    -2200    -2290 
   -2364    -2416    -2468    -2550    -2675    -2817    -2929    -2992 
   -2999    -2935    -2816    -2662    -2486    -2348    -2312    -2359 
   -2427    -2468    -2450    -2380    -2262    -2077    -1864    -1669 
   -1461    -1236    -1051     -919     -783     -610     -442     -322 
    -263     -300     -436     -592     -689     -726     -722     -693 
    -681     -699     -671     -539     -366     -229     -113       24 
     175      299      379      439      519      643      807      986 
    1155     1316     1510     1738     1972     2229     2528     2840 
    3111     3322     3518     3702     3828     3910     3995     4080 
    4130     4104     3987     3820     3662     3509     3308     3032 
    2719     2394     2046     1688     1350     1020      660      257 
    -168     -602    -1012    -1344    -1614    -1894    -2178    -2393 
   -2522    -2614    -2743    -2947    -3187    -3427    -3692    -3987 
   -4275    -4502    -4660    -4811    -4957    -4972    -4826    -4654 
   -4531    -4427    -4358    -4402    -4626    -4987    -5335    -5562 
   -5674    -5733    -5742    -5636    -5410    -5159    -4986    -4969 
   -5131    -5380    -5602    -5731    -5723    -5567    -5290    -4904 
   -4404    -3830    -3283    -2809    -2376    -1959    -1564    -1194 
    -818     -404       48      511      936     1310     1694     2117 
    2547     2960     3346     3673     3886     3968     3952     3847 
    3632     3311     2959     2705     2604     2596     2616     2624 
    2586     2478     2322     2168     1993     1723     1401     1182 
    1116     1098     1071     1082     1104     1054      900      631 
     269     -103     -429     -691     -881    -1039    -1219    -1411 
   -1615    -1828    -2016    -2191    -2336    -2345    -2197    -1994 
   -1822    -1721    -1661    -1556    -1402    -1259    -1141    -1028 
    -910     -831     -880    -1067    -1316    -1575    -1844    -2117 
   -2342    -2468    -2492    -2433    -2306    -2148    -2048    -2074 
   -2185    -2298    -2385    -2433    -2394    -2215    -1916    -1594 
   -1325    -1069     -754     -435     -201      -37      109      235 
     335      383      346      263      173       48     -105     -243 
    -357     -446     -479     -396     -209      -19       95      141 
     183      230      235      176       83       -2      -77     -184 
    -316     -431     -502     -541     -597     -684     -807     -967 
   -1104    -1160    -1153    -1082     -923     -725     -614     -664 
    -814     -975    -1125    -1238    -1234    -1081     -849     -591 
    -285       88      488      839     1135     1414     1617     1664 
    1594     1499     1432     1440     1523     1587     1582     1576 
    1624     1698     1724     1640     1442     1167      848      575 
     451      420      342      174      -19     -194     -385     -572 
    -649     -624     -630     -707     -773     -812     -922    -1132 
   -1369    -1576    -1749    -1881    -1949    -1949    -1926    -1928 
   -1966    -2061    -2213    -2367    -2506    -2658    -2851    -3083 
   -3273    -3359    -3375    -3374    -3391    -3443    -3503    -3536 
   -3486    -3283    -2934    -2514    -2076    -1648    -1255     -905 
    -590     -334     -158      -49       20       82      176      328 
     546      804     1029     1169     1244     1288     1351     1469 
    1597     1700     1839     2076     2378     2657     2869     3000 
    3013     2854     2561     2273     2090     2017     2022     2095 
    2242     2402     2521     2626     2711     2718     2644     2522 
    2388     2299     2251     2193     2162     2208     2253     2197 
    2036     1797     1500     1179      888      611      238     -238 
    -712    -1183    -1698    -2218    -2697    -3131    -3499    -3763 
   -3922    -4039    -4168    -4272    -4301    -4323    -4420    -4517 
   -4515    -4430    -4333    -4249    -4161    -4068    -3951    -3799 
   -3659    -3525    -3327    -3084    -2855    -2642    -2433    -2250 
   -2093    -1900    -1624    -1281     -929     -661     -538     -506 
    -486     -472     -475     -462     -364     -152      115      407 
     794     1292     1780     2120     2279     2312     2295     2263 
    2208     2122     2033     1982     1972     2005     2083     2162 
    2201     2222     2231     2190     2112     2090     2161     2254 
    2309     2325     2293     2176     1986     1819     1733     1655 
    1506     1292     1022      630      100     -456     -927    -1302 
   -1636    -1982    -2311    -2546    -2707    -2901    -3182    -3533 
   -3937    -4381    -4842    -5297    -5704    -6048    -6384    -6750 
   -7102    -7395    -7644    -7849    -7974    -7999    -7923    -7775 
   -7605    -7413    -7155    -6802    -6362    -5877    -5378    -4881 
   -4402    -3910    -3377    -2860    -2395    -1943    -1479    -1012 
    -597     -308     -171     -158     -218     -323     -478     -653 
    -793     -865     -883     -898     -951    -1024    -1080    -1092 
   -1023     -883     -731     -564     -331      -46      263      615 
    1006     1452     1963     2436     2782     3038     3219     3301 
    3316     3294     3233     3148     3040     2897     2752     2618 
    2460     2251     1974     1642     1290      918      522      158 
    -123     -314     -410     -441     -469     -508     -561     -663 
    -820     -989    -1125    -1240    -1388    -1542    -1624    -1641 
   -1634    -1607    -1573    -1536    -1497    -1486    -1498    -1484 
   -1444    -1416    -1395    -1338    -1221    -1074     -970     -942 
    -960     -977     -964     -903     -755     -493     -151      235 
     650     1052     1395     1640     1763     1777     1710     1588 
    1431     1235     1020      840      688      515      315      116 
     -45     -157     -249     -297     -281     -286     -385     -504 
    -542     -502     -448     -414     -377     -302     -205     -122 
     -89     -134     -222     -262     -241     -207     -132       40 
     270      473      621      732      827      854      768      676 
     723      880     1019     1098     1171     1277     1378     1444 
    1524     1641     1744     1800     1791     1735     1688     1635 
    1522     1311      979      594      264       -7     -274     -568 
    -863    -1079    -1188    -1255    -1325    -1367    -1377    -1419 
   -1552    -1755    -1956    -2124    -2303    -2529    -2761    -2953 
   -3154    -3434    -3750    -3989    -4098    -4117    -4064    -3902 
   -3649    -3409    -3268    -3214    -3189    -3168    -3171    -3177 
   -3099    -2861    -2476    -2012    -1521    -1046     -660     -430 
    -359     -386     -407     -377     -358     -346     -230       23 
     337      638      867     1016     1156     1298     1395     1442 
    1476     1504     1470     1349     1199     1042      845      614 
     371      148      -13     -120     -218     -311     -390     -465 
    -546     -636     -709     -717     -639     -481     -247       43 
     365      707     1067     1463     1934     2481     3046     3544 
    3939     4269     4559     4742     4760     4657     4500     4305 
    4046     3729     3432     3221     3082     2972     2893     2873 
    2877     2817     2663     2447     2232     2077     1948     1786 
    1605     1477     1436     1414     1372     1376     1471     1611 
    1726     1801     1853     1874     1823     1656     1388     1094 
     805      501      172     -165     -462     -696     -919    -1152 
   -1342    -1473    -1610    -1783    -1933    -1989    -1946    -1864 
   -1799    -1716    -1568    -1392    -1276    -1243    -1216    -1139 
   -1043     -960     -872     -750     -572     -363     -168       17 
     226      410      484      470      427      345      212       45 
    -141     -301     -408     -471     -516     -544     -505     -385 
    -252     -175     -167     -193     -217     -235     -256     -264 
    -223     -131      -22       85      195      298      349      303 
     184       45     -104     -257     -401     -509     -539     -482 
    -408     -417     -553     -756     -977    -1242    -1520    -1692 
   -1711    -1637    -1560    -1538    -1553    -1563    -1570    -1596 
   -1627    -1635    -1605    -1537    -1424    -1251    -1004     -701 
    -390     -100      160      367      481      484      412      303 
     155      -41     -261     -450     -557     -582     -563     -527 
    -500     -490     -492     -558     -746     -998    -1227    -1441 
   -1682    -1936    -2157    -2318    -2420    -2463    -2440    -2384 
   -2341    -2321    -2319    -2309    -2261    -2199    -2155    -2091 
   -1941    -1704    -1421    -1123     -824     -519     -210       79 
     376      744     1161     1527     1796     2014     2182     2239 
    2180     2087     2017     1959     1894     1806     1668     1517 
    1414     1367     1359     1379     1437     1547     1662     1744 
    1821     1917     2025     2139     2233     2264     2225     2145 
    2015     1827     1641     1504     1371     1184      977      811 
     645      387       37     -364     -791    -1183    -1498    -1767 
   -1993    -2135    -2189    -2200    -2225    -2274    -2314    -2335 
   -2330    -2290    -2204    -2084    -1975    -1885    -1786    -1662 
   -1534    -1456    -1462    -1516    -1563    -1568    -1555    -1571 
   -1584    -1543    -1461    -1345    -1172     -949     -715     -492 
    -295     -155      -56       71      229      359      438      511 
     646      843     1016     1092     1122     1183     1214     1146 
    1037      954      889      809      684      521      361      183 
     -34     -217     -354     -538     -791    -1046    -1254    -1446 
   -1665    -1852    -1919    -1876    -1775    -1630    -1453    -1286 
   -1186    -1164    -1185    -1227    -1276    -1305    -1291    -1218 
   -1062     -844     -626     -440     -268      -87       90      235 
     332      405      501      630      786      972     1173     1360 
    1511     1613     1655     1610     1456     1212      947      702 
     441      133     -179     -459     -740    -1022    -1233    -1359 
   -1474    -1614    -1735    -1809    -1857    -1924    -2028    -2123 
   -2159    -2138    -2057    -1885    -1622    -1315    -1016     -703 
    -327      122      604     1037     1377     1663     1949     2248 
    2532     2781     3028     3298     3557     3748     3863     3965 
