Origin Time       2011/03/11 14:46:00
Lat.              38.103
Long.             142.860
Depth. (km)       24
Mag.              9.0
Station Code      HKD133
Station Lat.      42.4727
Station Long.     140.8657
Station Height(m) 11
Record Time       2011/03/11 14:48:49
Sampling Freq(Hz) 100Hz
Duration Time(s)  140
Dir.              N-S
Scale Factor      3920(gal)/6182761
Max. Acc. (gal)   12.821
Last Correction   2011/03/11 14:48:34
Memo.             
[...]
     149      599     1404     2451     3539     4367     4540     3854 
    2512     1053      -89     -903    -1500    -1938    -2331    -2770 
   -3262    -3808    -4468    -5346    -6511    -7911    -9335   -10459 
  -11045   -11115   -10941   -10761   -10584   -10422   -10359   -10345 
  -10189    -9654    -8583    -7004    -5067    -2986    -1095      145 
     388     -269    -1289    -2027    -2098    -1486     -327     1224 
    2920     4486     5630     6136     6018     5439     4678     4095 
    3943     4255     4894     5675     6341     6551     6021     4750 
    3064     1322     -217    -1245    -1577    -1392    -1133    -1276 
   -2077    -3421    -4994    -6547    -8006    -9299   -10174   -10429 
  -10189    -9841    -9772   -10142   -10845   -11462   -11441   -10592 
   -9087    -7191    -5267    -3770    -3072    -3080    -3214    -3053 
   -2691    -2366    -2087    -1743    -1330     -997     -953    -1229 
   -1645    -2006    -2169    -2009    -1487     -729      141     1083 
    1930     2626     3367     4157     4842     5356     5662     5856 
    6131     6538     6968     7291     7471     7509     7368     6999 
    6419     5833     5534     5606     5892     6178     6333     6350 
    6191     5794     5292     5015     5203     5813     6568     7260 
    7982     8962    10288    11810    13211    14262    14950    15330 
   15415    15206    14832    14529    14439    14576    14864    15149 
   15337    15343    15051    14429    13475    12194    10714     9371 
    8520     8179     8074     7838     7153     5982     4513     2971 
    1653      721      104     -166      -44      320      824     1433 
    2053     2660     3430     4589     6071     7549     8703     9324 
    9411     9124     8636     8230     8192     8458     8707     8644 
    8116     7265     6449     5907     5644     5471     5210     4986 
    4990     5028     4784     4290     3757     3325     3031     2820 
    2624     2288     1576      416    -1032    -2437    -3456    -3943 
   -3896    -3465    -2981    -2733    -2971    -3906    -5394    -6892 
   -7760    -7596    -6405    -4562    -2652    -1200     -529     -810 
   -1932    -3406    -4653    -5300    -5133    -3998    -2045       78 
    1584     1892      775    -1427    -3953    -6031    -7155    -7190 
   -6293    -4823    -3267    -2007    -1142     -618     -359     -268 
    -216      -27      441     1259     2494     3995     5173     5407 
    4625     3138     1245     -629    -1948    -2540    -2665    -2657 
   -2696    -2883    -3438    -4565    -6108    -7576    -8436    -8343 
   -7289    -5671    -4127    -3238    -3436    -4836    -7088    -9586 
  -11716   -12978   -13129   -12327   -10985    -9412    -7871    -6733 
   -6133    -5985    -6220    -6556    -6676    -6718    -7011    -7619 
   -8410    -9249   -10009   -10472   -10416    -9874    -9052    -8137 
   -7359    -6856    -6551    -6340    -6133    -5799    -5212    -4354 
   -3427    -2689    -2220    -1916    -1507     -777      205     1153 
    1773     2009     1933     1554     1061      713      568      657 
    1025     1694     2689     3837     4787     5240     5102     4631 
    4317     4532     5310     6350     7261     7825     7941     7693 
    7481     7542     7766     8093     8401     8404     7935     6953 
    5521     3934     2555     1568      945      534      126     -487 
   -1450    -2764    -4277    -5785    -7042    -7817    -8118    -8193 
   -8277    -8565    -9152    -9741   -10003   -10102   -10099    -9712 
   -9071    -8693    -8775    -9121    -9554    -9838    -9582    -8761 
   -7720    -6601    -5434    -4489    -4016    -3971    -4276    -4966 
   -5979    -7006    -7574    -7404    -6614    -5508    -4271    -3007 
   -1913    -1179     -820     -698     -663     -802    -1291    -1863 
   -2011    -1798    -1854    -2608    -3792    -4718    -5210    -5760 
   -6488    -6889    -6796    -6333    -5421    -4283    -3363    -2868 
   -2588    -2082    -1547    -1244     -907     -693     -812    -1136 
   -1990    -3542    -4872    -5268    -5534    -6201    -6457    -5995 
   -5226    -4670    -4830    -5062    -4524    -3630    -2816    -2061 
   -1536    -1387    -1419    -1209     -527      477     1544     2468 
    3244     4106     5124     6073     6813     7471     8244     9180 
   10084    10640    10670    10219     9533     8873     8326     7973 
    8031     8592     9556    10684    11424    11300    10364     8917 
    7410     6286     5687     5626     5927     6136     5821     4730 
    3073     1352     -192    -1367    -1866    -1602     -854     -123 
     249      230     -118     -684    -1237    -1402     -842      335 
    1621     2624     3150     3022     2280     1223      191     -478 
    -608     -214      727     2243     4228     6348     8190     9529 
   10266    10363     9992     9521     9306     9487     9975    10540 
   10956    11143    11073    10728    10246     9800     9415     9142 
    9089     9129     8912     8201     6974     5291     3369     1726 
    1028     1521     2712     3883     4577     4673     4287     3450 
    2303     1312      763      618      800     1275     1983     2726 
    3196     2982     1848      140    -1455    -2383    -2407    -1656 
    -522      446      703       35    -1406    -3285    -5203    -6875 
   -8153    -8906    -9091    -8860    -8499    -8341    -8696    -9593 
  -10695   -11649   -12279   -12585   -12669   -12541   -12208   -11716 
  -10956    -9684    -7824    -5616    -3299     -885     1556     3681 
    5189     6174     6868     7301     7509     7721     8174     8928 
    9881    10918    11907    12522    12526    11984    10984     9716 
    8614     8009     7949     8306     8880     9437     9778     9982 
   10334    10927    11695    12515    13262    14093    15098    15881 
   16104    15852    15236    14238    12957    11634    10498     9878 
   10059    10883    11905    12643    12679    11920    10681     9532 
    8906     8883     9365    10058    10514    10316     9171     7211 
    4972     3063     1962     1766     2318     3405     4656     5721 
    6338     6410     6191     5901     5702     5930     6703     7850 
    9145    10255    10914    10993    10435     9454     8419     7567 
    6965     6596     6492     6582     6643     6575     6424     6283 
    6192     6039     5736     5218     4345     3093     1670      426 
    -368     -748     -999    -1404    -2014    -2702    -3306    -3512 
   -3097    -2232    -1138       15      912     1309     1268     1140 
    1272     1761     2608     3667     4444     4511     3861     2711 
    1468      589      140     -207     -828    -1907    -3345    -4903 
   -6407    -7709    -8734    -9642   -10489   -10964   -10888   -10531 
  -10195    -9987    -9985   -10194   -10480   -10689   -10790   -10883 
  -11039   -11320   -11780   -12267   -12532   -12501   -12338   -12246 
  -12225   -12134   -11742   -10858    -9728    -8850    -8315    -7791 
   -7073    -6213    -5175    -3833    -2288     -729      800     2286 
    3607     4433     4501     3949     2968     1775      890      676 
    1085     1929     2826     3261     2939     1842       99    -2045 
   -4156    -5733    -6416    -6094    -5097    -4062    -3498    -3755 
   -4982    -6921    -9018   -10541   -10894   -10140    -8879    -7649 
   -6799    -6660    -7316    -8430    -9395    -9627    -9044    -7949 
   -6524    -4951    -3492    -2204    -1023      -39      670     1283 
    1958     2619     3122     3338     3304     3275     3382     3497 
    3466     3256     2835     2214     1638     1462     1860     2755 
    3877     4907     5535     5611     5254     4632     3909     3347 
    3223     3634     4447     5437     6361     7005     7173     6813 
    6162     5539     5239     5564     6495     7624     8560     9024 
    8852     8140     7136     6129     5388     4891     4386     3791 
    3246     2809     2383     1907     1322      542     -382    -1393 
   -2535    -3809    -5131    -6329    -7168    -7510    -7438    -7145 
   -6746    -6306    -5923    -5648    -5455    -5315    -5129    -4673 
   -3748    -2376     -838      461     1183     1190      595     -376 
   -1473    -2409    -3040    -3363    -3344    -3021    -2503    -1975 
   -1717    -1917    -2600    -3546    -4239    -4192    -3289    -1902 
    -673       -5       66     -355    -1057    -1675    -1746    -1005 
     288     1626     2660     3129     2825     1851      624     -469 
   -1279    -1802    -1981    -1653     -786      397     1647     2876 
    4061     5057     5736     6132     6382     6828     7684     8757 
    9931    11172    12221    12790    12786    12468    12187    11934 
   11565    11031    10254     9144     7688     5991     4316     2937 
    1964     1364     1058      917      757      361     -500    -2000 
   -3946    -5738    -6950    -7638    -8022    -8276    -8515    -8775 
   -9018    -9131    -9050    -8860    -8700    -8722    -9023    -9523 
  -10051   -10517   -10941   -11333   -11595   -11690   -11796   -12035 
  -12316   -12604   -12960   -13280   -13349   -13148   -12847   -12556 
  -12225   -11762   -11272   -10898   -10469    -9771    -8912    -7989 
   -6866    -5439    -3853    -2474    -1590    -1242    -1320    -1559 
   -1579    -1016      313     2175     3949     4959     4877     3939 
    2664     1413      374     -246     -296       57      447      729 
     857      630      -58    -1066    -2101    -2974    -3698    -4224 
   -4443    -4334    -3852    -2987    -1850     -646      279      525 
     -14    -1089    -2386    -3512    -4007    -3700    -2678    -1185 
     319     1504     2378     2993     3314     3337     3131     2883 
    2851     3101     3430     3591     3506     3289     3134     3162 
    3423     3993     4929     6208     7788     9515    11096    12320 
   13107    13427    13198    12388    11324    10518    10174    10181 
   10292    10285     9994     9326     8463     7829     7818     8587 
    9961    11409    12197    11934    10847     9307     7600     6051 
    4887     4214     4127     4647     5658     6963     8291     9265 
    9692     9803     9861     9975    10279    10828    11527    12261 
   12919    13526    14254    15064    15640    15722    15345    14799 
   14416    14421    14837    15471    15996    16171    16077    15894 
   15669    15398    14936    14112    12933    11483     9911     8374 
    6899     5451     4026     2604     1169     -226    -1482    -2457 
   -3112    -3659    -4317    -5082    -5879    -6654    -7283    -7623 
   -7741    -8021    -8794    -9978   -11264   -12372   -13086   -13272 
  -12883   -11927   -10507    -8980    -7821    -7250    -7216    -7559 
   -8034    -8367    -8286    -7706    -6835    -5997    -5463    -5329 
   -5460    -5647    -5731    -5444    -4533    -3050    -1202      695 
    2236     3297     3998     4431     4718     5028     5484     6104 
    6759     7307     7740     8118     8614     9458    10566    11591 
   12261    12458    12317    12264    12682    13631    14943    16442 
   17936    19059    19475    19196    18460    17427    16152    14791 
   13567    12418    11162     9860     8609     7510     6710     6062 
    5256     4265     3299     2520     1855     1084      126     -848 
   -1531    -1738    -1531    -1100     -714     -680    -1194    -2234 
   -3510    -4566    -5063    -5071    -4870    -4551    -4185    -3964 
   -3975    -4235    -4727    -5280    -5742    -6080    -6295    -6417 
   -6434    -6407    -6578    -7091    -7891    -8869    -9792   -10281 
  -10065    -9232    -8117    -7008    -6014    -5140    -4301    -3328 
   -2161     -894      497     2120     3902     5673     7251     8410 
    9138     9718    10248    10549    10625    10753    11199    12059 
   13344    15038    16915    18492    19316    19302    18773    18155 
   17734    17542    17471    17537    17750    17899    17690    16986 
   15814    14313    12805    11751    11501    12098    13290    14574 
   15320    15208    14358    12990    11364     9724     8055     6327 
    4683     3231     2083     1414     1216     1199     1075      754 
     160     -669    -1504    -2282    -3028    -3661    -4225    -4797 
   -5377    -6126    -7127    -8169    -9055    -9636    -9824    -9835 
   -9994   -10441   -11054   -11463   -11411   -10952   -10204    -9372 
   -8701    -8281    -8183    -8477    -9097    -9866   -10514   -10756 
  -10379    -9332    -7833    -6189    -4645    -3438    -2608    -1993 
   -1587    -1495    -1716    -2199    -2792    -3276    -3493    -3393 
   -3140    -2983    -3013    -3271    -3829    -4641    -5488    -6020 
   -5872    -4803    -2882     -542     1697     3418     4310     4298 
    3603     2623     1740     1194     1147     1678     2507     3021 
    2826     1977      771     -424    -1321    -1732    -1509     -661 
     592     1927     2926     3257     2936     2355     2036     2157 
    2642     3499     4409     4677     3988     2618     1027     -440 
   -1554    -2195    -2512    -2766    -3083    -3522    -4124    -4948 
   -5948    -6881    -7636    -8176    -8279    -8012    -7885    -8166 
   -8665    -9136    -9562    -9965   -10154    -9929    -9294    -8477 
   -7897    -7965    -8839   -10271   -11639   -12402   -12559   -12446 
  -12458   -12988   -14082   -15392   -16577   -17466   -18118   -18683 
  -19140   -19396   -19414   -19175   -18744   -18281   -17888   -17598 
  -17400   -17176   -16756   -16000   -14984   -14024   -13268   -12739 
  -12562   -12685   -12845   -12694   -11866   -10326    -8372    -6300 
   -4321    -2595    -1234     -242      580     1486     2575     3852 
    5314     6903     8468     9716    10413    10579    10251     9398 
    8162     6794     5533     4612     4042     3643     3370     3214 
    3026     2699     2209     1617     1058      585      189     -117 
    -367     -669    -1139    -1906    -3036    -4317    -5407    -6156 
   -6537    -6603    -6629    -6818    -7031    -7078    -6998    -6905 
   -6760    -6405    -5798    -5058    -4291    -3489    -2653    -1895 
   -1299     -875     -666     -698    -1009    -1684    -2649    -3594 
   -4211    -4421    -4389    -4351    -4410    -4476    -4366    -3978 
   -3356    -2600    -1809    -1142     -845    -1003    -1411    -1815 
   -2078    -2134    -1858    -1046      265     1615     2478     2666 
    2347     1868     1594     1748     2315     3023     3479     3356 
    2441      913     -492    -1093     -711      588     2522     4602 
    6402     7624     8241     8559     8767     8876     8947     8995 
    9013     9061     9122     9031     8615     7859     6884     5777 
    4605     3453     2381     1444      601     -295    -1238    -2037 
   -2610    -3068    -3508    -3900    -4167    -4274    -4257    -4215 
   -4207    -4197    -4137    -4003    -3813    -3745    -3973    -4383 
   -4707    -4684    -4176    -3401    -2644    -1916    -1204     -518 
     159      722     1110     1406     1740     2244     2918     3580 
    3987     3970     3591     3112     2827     2943     3498     4369 
    5431     6628     7853     9040    10297    11617    12738    13415 
   13577    13356    12956    12491    12072    11803    11702    11642 
   11302    10397     8899     7019     5205     3901     3237     3183 
    3621     4192     4481     4260     3442     2085      439    -1207 
   -2622    -3643    -4140    -4067    -3601    -3057    -2727    -2874 
   -3623    -4880    -6361    -7608    -8186    -7916    -6997    -5839 
   -4710    -3665    -2715    -1959    -1504    -1296    -1231    -1369 
   -1706    -1938    -1695     -766      792     2525     3923     4731 
    4706     3835     2675     1884     1761     2245     3097     4106 
    5039     5642     5760     5330     4422     3345     2571     2454 
    2913     3519     3905     3863     3354     2499     1393      140 
   -1061    -1992    -2351    -1983    -1179     -276      613     1364 
    1796     1870     1697     1485     1414     1515     1813     2399 
    3194     3980     4694     5403     6141     6993     8085     9368 
   10611    11546    12059    12384    12758    13099    13354    13597 
   13800    13860    13597    12837    11673    10449     9501     8983 
    8882     9150     9675    10172    10300     9906     9127     8318 
    7724     7296     6990     6902     7048     7390     7870     8326 
    8635     8732     8527     7983     7120     6075     5166     4686 
    4717     5181     5973     6977     7855     8138     7601     6311 
    4504     2541      856     -183     -535     -506     -454     -668 
   -1404    -2705    -4333    -5894    -7025    -7548    -7508    -7102 
   -6505    -5913    -5740    -6416    -8046   -10338   -12733   -14632 
  -15602   -15544   -14624   -13110   -11429   -10110    -9561    -9930 
  -10970   -12160   -13044   -13340   -12920   -11921   -10607    -9160 
   -7732    -6482    -5571    -5125    -5095    -5246    -5268    -4890 
   -3918    -2285     -121     2296     4581     6435     7855     8920 
    9567     9748     9645     9587     9685     9796     9832     9847 
    9976    10336    10921    11743    12855    14144    15333    16189 
   16637    16688    16494    16345    16493    17061    18008    19092 
   19963    20422    20467    20078    19271    18179    16827    15145 
   13198    11135     9084     7148     5246     3145      743    -1854 
   -4357    -6399    -7886    -8936    -9559    -9770    -9736    -9649 
   -9711   -10013   -10420   -10760   -10955   -10966   -10708   -10079 
   -9068    -7628    -5726    -3581    -1375      908     3121     4966 
    6304     7251     8067     8903     9741    10570    11326    11906 
   12342    12675    12826    12822    12796    12737    12506    12099 
   11631    11053    10162     9021     8025     7415     7166     7257 
    7643     8186     8633     8586     7833     6523     4998     3801 
    3403     3764     4489     5095     5076     4166     2617      954 
    -457    -1368    -1542    -1024     -150      745     1410     1634 
    1292      502     -341     -877     -979     -532      505     1794 
    2873     3529     3652     3154     2201     1136      145     -718 
   -1403    -1995    -2656    -3470    -4390    -5219    -5813    -6223 
   -6477    -6441    -5993    -5231    -4449    -3954    -3959    -4509 
   -5441    -6414    -7093    -7367    -7413    -7471    -7621    -7870 
   -8079    -7953    -7506    -7027    -6677    -6538    -6720    -7227 
   -7877    -8469    -8917    -9156    -9172    -9028    -8750    -8421 
   -8243    -8245    -8136    -7574    -6481    -5048    -3577    -2379 
   -1699    -1582    -1773    -1905    -1791    -1392     -699      186 
     970     1333     1256     1018      956     1422     2630     4425 
    6410     8172     9414    10049    10186    10113    10160    10467 
   11036    11878    12882    13771    14439    14985    15432    15763 
   15988    16064    15905    15458    14803    13980    12926    11801 
   10939    10465    10225     9973     9559     8841     7680     6151 
    4453     2740     1245      304       96      397      693      560 
    -119    -1261    -2627    -3869    -4813    -5484    -5886    -6148 
