Origin Time       2011/03/11 14:46:00
Lat.              38.103
Long.             142.860
Depth. (km)       24
Mag.              9.0
Station Code      HKD153
Station Lat.      42.1245
Station Long.     140.3755
Station Height(m) 69
Record Time       2011/03/11 14:48:48
Sampling Freq(Hz) 100Hz
Duration Time(s)  133
Dir.              N-S
Scale Factor      3920(gal)/6182761
Max. Acc. (gal)   4.279
Last Correction   2011/03/11 14:48:33
Memo.             
[...]
    6628     7023     7420     7807     8158     8429     8568     8540 
    8337     7988     7562     7147     6801     6551     6403     6355 
    6399     6519     6682     6851     6987     7070     7122     7188 
    7280     7366     7437     7511     7602     7719     7873     8060 
    8270     8490     8707     8922     9171     9492     9886    10316 
   10735    11111    11441    11735    11977    12122    12121    11961 
   11668    11293    10901    10534    10191     9850     9503     9132 
    8712     8265     7873     7615     7524     7572     7715     7917 
    8137     8308     8365     8276     8065     7806     7560     7336 
    7132     6985     6945     7017     7156     7306     7443     7593 
    7799     8064     8358     8630     8835     8943     8932     8798 
    8593     8410     8348     8468     8746     9092     9416     9647 
    9749     9717     9562     9297     8938     8526     8127     7790 
    7540     7411     7424     7555     7748     7963     8210     8504 
    8814     9093     9300     9407     9398     9255     8966     8551 
    8069     7616     7259     6992     6783     6617     6485     6372 
    6287     6239     6215     6217     6278     6435     6700     7024 
    7334     7614     7907     8252     8637     9037     9439     9846 
   10255    10623    10878    10983    10954    10837    10684    10514 
   10313    10080     9851     9642     9428     9205     9018     8927 
    8974     9136     9336     9497     9570     9545     9441     9281 
    9060     8756     8390     8039     7779     7636     7583     7576 
    7592     7608     7584     7499     7369     7206     7021     6827 
    6637     6455     6296     6200     6192     6244     6301     6344 
    6387     6450     6542     6662     6785     6878     6938     6976 
    6983     6924     6772     6554     6344     6218     6226     6383 
    6668     7031     7389     7651     7768     7760     7672     7554 
    7472     7452     7462     7480     7512     7534     7481     7280 
    6926     6503     6136     5915     5858     5919     6036     6179 
    6346     6546     6771     6998     7198     7363     7500     7613 
    7678     7669     7599     7501     7404     7331     7307     7370 
    7548     7816     8115     8410     8680     8920     9132     9287 
    9353     9302     9099     8760     8374     8050     7871     7844 
    7927     8077     8270     8493     8732     8970     9197     9406 
    9577     9676     9653     9465     9107     8614     8059     7515 
    7039     6672     6442     6370     6466     6700     7003     7299 
    7526     7662     7744     7851     8039     8307     8613     8937 
    9290     9652     9945    10079     9995     9721     9351     8966 
    8630     8387     8233     8146     8106     8068     7983     7847 
    7681     7508     7365     7322     7456     7801     8315     8874 
    9328     9568     9577     9410     9132     8778     8374     7967 
    7636     7465     7494     7673     7890     8036     8040     7903 
    7713     7580     7541     7577     7649     7705     7711     7668 
    7590     7490     7382     7276     7187     7139     7166     7314 
    7605     7990     8385     8725     8970     9094     9082     8924 
    8623     8211     7755     7334     7004     6786     6683     6713 
    6895     7190     7508     7776     7970     8096     8160     8109 
    7854     7383     6761     6102     5560     5251     5202     5379 
    5755     6300     6940     7580     8134     8565     8881     9079 
    9131     9018     8754     8390     8011     7712     7557     7546 
    7624     7699     7710     7695     7751     7928     8207     8523 
    8787     8919     8914     8840     8749     8632     8469     8293 
    8188     8216     8367     8559     8707     8775     8769     8709 
    8648     8633     8654     8671     8630     8490     8258     8000 
    7800     7710     7711     7734     7752     7820     8038     8436 
    8935     9415     9781     9988    10045     9986     9821     9556 
    9241     8977     8864     8945     9208     9621    10125    10642 
   11107    11482    11747    11899    11952    11924    11805    11575 
   11240    10852    10467    10105     9770     9487     9300     9242 
    9305     9450     9611     9712     9703     9569     9312     8963 
    8591     8291     8148     8188     8359     8564     8724     8825 
    8890     8910     8824     8584     8230     7865     7582     7403 
    7295     7213     7130     7046     6965     6893     6860     6902 
    6981     6987     6837     6522     6092     5619     5176     4812 
    4537     4358     4282     4307     4429     4631     4869     5100 
    5294     5419     5469     5479     5492     5542     5648     5814 
    6013     6205     6361     6506     6698     6969     7274     7506 
    7576     7479     7282     7064     6863     6694     6583     6568 
    6653     6811     7015     7270     7598     7982     8346     8602 
    8676     8535     8215     7828     7487     7234     7054     6928 
    6855     6841     6898     7028     7229     7518     7901     8338 
    8773     9149     9438     9648     9791     9870     9899     9872 
    9743     9460     9046     8613     8258     8003     7819     7669 
    7516     7333     7133     6972     6888     6881     6932     7026 
    7136     7239     7353     7503     7701     7962     8278     8600 
    8864     9026     9102     9155     9253     9430     9677     9961 
   10252    10523    10759    10987    11239    11502    11739    11917 
   11995    11939    11752    11460    11086    10669    10277     9979 
    9826     9811     9882     9976    10044    10089    10128    10158 
   10189    10236    10287    10297    10222    10080     9947     9900 
    9961    10098    10301    10582    10915    11222    11432    11513 
   11454    11245    10872    10352     9765     9221     8800     8546 
    8460     8492     8582     8674     8713     8670     8541     8349 
    8154     8019     7954     7907     7822     7695     7574     7543 
    7669     7911     8134     8244     8252     8223     8199     8197 
    8219     8240     8220     8176     8175     8267     8455     8714 
    9037     9429     9883    10348    10764    11096    11314    11388 
   11292    11034    10666    10240     9781     9325     8931     8657 
    8539     8571     8714     8906     9090     9251     9372     9424 
    9412     9381     9350     9293     9169     8961     8686     8393 
    8110     7822     7496     7133     6765     6445     6235     6154 
    6174     6287     6484     6697     6845     6877     6794     6650 
    6485     6308     6142     6020     5927     5837     5755     5731 
    5870     6273     6930     7716     8470     9056     9443     9678 
    9774     9688     9394     8909     8277     7560     6850     6257 
    5872     5744     5870     6195     6655     7202     7804     8448 
    9103     9693    10147    10437    10584    10629    10613    10568 
   10518    10500    10552    10682    10861    11047    11208    11317 
   11344    11274    11120    10913    10680    10421    10109     9755 
    9429     9205     9134     9228     9429     9632     9787     9939 
   10147    10421    10723    11008    11255    11429    11452    11240 
   10768    10103     9364     8664     8059     7556     7181     7024 
    7161     7580     8172     8782     9276     9602     9804     9948 
   10057    10109    10060     9878     9588     9264     8936     8583 
    8173     7692     7191     6767     6498     6403     6431     6479 
    6479     6438     6400     6406     6509     6774     7236     7856 
    8530     9139     9623    10012    10335    10545    10563    10331 
    9841     9190     8527     7924     7363     6807     6244     5714 
    5287     5011     4878     4843     4879     5012     5289     5709 
    6191     6653     7066     7448     7840     8264     8720     9192 
    9605     9829     9757     9394     8851     8266     7751     7391 
    7232     7284     7540     7951     8441     8951     9428     9819 
   10098    10278    10384    10425    10406    10340    10252    10149 
   10015     9846     9676     9559     9521     9552     9631     9710 
    9727     9672     9575     9471     9416     9473     9664     9971 
   10342    10684    10897    10948    10889    10775    10612    10394 
   10153     9941     9790     9704     9698     9824    10129    10615 
   11213    11799    12258    12524    12589    12495    12309    12064 
   11750    11360    10902    10391     9863     9389     9066     8946 
    8995     9131     9269     9338     9308     9187     8976     8662 
    8253     7787     7316     6898     6572     6374     6357     6566 
    6988     7543     8136     8695     9181     9555     9786     9843 
    9710     9408     8990     8526     8085     7718     7441     7239 
    7096     7019     7045     7213     7504     7814     8011     8012 
    7814     7465     7023     6521     5966     5393     4884     4512 
    4317     4314     4502     4868     5364     5909     6432     6907 
    7321     7653     7859     7907     7820     7670     7529     7437 
    7400     7373     7294     7128     6893     6654     6478     6363 
    6254     6141     6080     6143     6375     6754     7197     7635 
    8041     8380     8639     8825     8921     8899     8762     8535 
    8254     7951     7670     7471     7385     7371     7345     7257 
    7143     7072     7083     7143     7173     7142     7086     7046 
    7017     6966     6876     6755     6616     6476     6373     6367 
    6494     6727     6992     7228     7432     7650     7939     8335 
    8810     9269     9626     9878    10091    10342    10638    10897 
   11036    11026    10892    10701    10532    10447    10478    10596 
   10749    10924    11127    11343    11509    11522    11333    10962 
   10461     9900     9332     8743     8088     7358     6596     5878 
    5273     4809     4480     4258     4118     4071     4167     4454 
    4957     5643     6434     7243     7973     8527     8860     8990 
    8964     8838     8655     8451     8292     8235     8277     8359 
    8427     8448     8400     8255     7973     7561     7127     6814 
    6685     6686     6708     6677     6607     6594     6736     7057 
    7534     8129     8773     9356     9769     9963     9957     9840 
    9759     9826    10033    10273    10441    10517    10571    10664 
   10789    10910    11015    11101    11138    11087    10973    10871 
   10830    10851    10919    11011    11094    11121    11049    10859 
   10581    10283    10033     9874     9825     9888    10065    10359 
   10738    11154    11564    11911    12110    12092    11840    11401 
   10884    10401    10011     9734     9584     9554     9627     9799 
   10089    10506    11025    11570    12028    12320    12461    12511 
   12482    12341    12055    11619    11058    10420     9759     9154 
    8693     8429     8346     8372     8409     8382     8270     8130 
    8045     8018     7959     7778     7473     7127     6844     6673 
    6611     6650     6780     6955     7112     7192     7179     7119 
    7108     7241     7543     7970     8473     9008     9516     9939 
   10226    10353    10347    10295    10297    10382    10471    10446 
   10228     9818     9286     8712     8174     7750     7507     7468 
    7616     7900     8245     8598     8943     9275     9555     9708 
    9687     9516     9256     8964     8689     8448     8229     8035 
    7887     7807     7830     7979     8251     8598     8922     9151 
    9297     9425     9590     9773     9874     9805     9546     9124 
    8616     8093     7563     7010     6440     5896     5439     5108 
    4937     4984     5293     5861     6644     7558     8468     9226 
    9743    10040    10192    10244    10196    10031     9735     9332 
    8893     8498     8192     7968     7778     7584     7397     7250 
    7175     7198     7319     7489     7601     7534     7224     6738 
    6217     5775     5453     5224     5018     4770     4457     4096 
    3745     3486     3361     3338     3330     3249     3073     2871 
    2749     2781     3003     3402     3920     4486     5053     5590 
    6050     6401     6647     6774     6712     6411     5913     5348 
    4861     4517     4279     4083     3935     3903     4042     4360 
    4834     5423     6071     6691     7163     7361     7214     6759 
    6146     5563     5160     5003     5081     5327     5643     5943 
    6194     6399     6564     6688     6759     6759     6688     6568 
    6435     6323     6252     6196     6076     5819     5455     5131 
    5000     5072     5223     5341     5397     5428     5474     5535 
    5582     5598     5596     5601     5639     5741     5955     6336 
    6902     7588     8269     8848     9315     9724    10100    10408 
   10608    10722    10816    10934    11049    11090    11023    10867 
   10653    10389    10081     9771     9498     9266     9068     8887 
    8696     8491     8267     8007     7714     7430     7190     7021 
    6958     7007     7138     7353     7710     8241     8865     9439 
    9854    10095    10220    10263    10213    10081     9953     9938 
   10093    10389    10753    11133    11532    11967    12408    12793 
   13075    13260    13402    13567    13788    14058    14344    14601 
   14782    14831    14708    14427    14052    13656    13300    13005 
   12723    12385    11973    11532    11109    10698    10290     9900 
    9565     9327     9208     9162     9101     8968     8772     8548 
    8311     8045     7740     7414     7086     6752     6402     6058 
    5775     5622     5656     5872     6179     6483     6773     7096 
    7468     7845     8170     8393     8505     8551     8599     8681 
    8776     8860     8944     9060     9226     9415     9589     9758 
    9960    10212    10486    10724    10862    10883    10851    10878 
   11016    11198    11295    11195    10866    10376     9850     9395 
    9078     8922     8916     9035     9239     9473     9706     9919 
   10073    10121    10070     9966     9868     9820     9845     9917 
    9972     9978     9974    10042    10224    10469    10673    10768 
   10746    10643    10508    10378    10268    10199    10204    10301 
   10476    10704    10953    11171    11317    11370    11319    11196 
   11088    11045    11034    10987    10867    10673    10432    10195 
   10017     9926     9893     9854     9773     9655     9510     9339 
    9134     8903     8682     8504     8352     8157     7821     7281 
    6560     5756     4989     4369     3997     3906     4024     4228 
    4437     4661     4934     5242     5530     5754     5898     5973 
    6016     6063     6118     6152     6132     6049     5934     5832 
    5783     5837     6049     6409     6799     7053     7095     6979 
    6837     6795     6870     6950     6896     6633     6199     5709 
    5291     5038     4996     5141     5404     5711     5987     6184 
    6287     6306     6278     6250     6243     6260     6289     6296 
    6235     6094     5921     5790     5711     5622     5471     5268 
    5047     4834     4637     4479     4408     4448     4587     4816 
    5155     5674     6434     7394     8405     9300     9965    10382 
   10599    10672    10648    10552    10373    10126     9859     9616 
    9435     9371     9442     9619     9863    10121    10330    10446 
   10450    10337    10115     9812     9457     9050     8609     8188 
    7853     7651     7600     7678     7834     8022     8211     8388 
    8547     8648     8620     8418     8047     7571     7074     6595 
    6138     5710     5338     5091     5055     5270     5700     6268 
    6907     7562     8177     8675     8949     8922     8594     8018 
    7262     6409     5548     4770     4148     3731     3526     3529 
    3719     4057     4477     4892     5236     5490     5672     5809 
    5917     5978     5946     5802     5578     5345     5192     5188 
    5331     5562     5831     6123     6447     6808     7183     7527 
    7793     7955     8025     8014     7926     7786     7629     7498 
    7424     7439     7574     7819     8126     8457     8819     9232 
    9702    10208    10699    11100    11344    11403    11300    11097 
   10841    10558    10262     9979     9764     9671     9711     9869 
   10097    10327    10491    10532    10427    10197     9862     9412 
    8825     8107     7317     6545     5884     5380     5023     4793 
    4710     4805     5034     5268     5383     5334     5158     4950 
    4844     4952     5300     5820     6378     6855     7234     7567 
    7904     8252     8601     8955     9334     9750    10179    10578 
   10942    11305    11683    12050    12362    12551    12541    12316 
   11915    11403    10859    10350     9898     9494     9143     8890 
    8807     8944     9280     9696    10046    10261    10345    10297 
   10151     9973     9812     9675     9508     9226     8797     8271 
    7742     7295     6963     6747     6662     6713     6892     7192 
    7569     7930     8206     8393     8503     8535     8488     8373 
    8230     8125     8111     8196     8345     8512     8659     8775 
    8857     8885     8818     8638     8374     8092     7863     7717 
    7629     7561     7521     7533     7592     7678     7784     7912 
    8069     8281     8566     8912     9299     9696    10033    10213 
   10190    10000     9738     9477     9240     9023     8805     8566 
    8322     8087     7848     7598     7367     7187     7048     6926 
    6818     6748     6751     6833     6972     7139     7302     7451 
    7623     7882     8250     8669     9056     9339     9481     9509 
    9529     9659     9967    10422    10906    11308    11612    11863 
   12085    12266    12397    12496    12599    12738    12925    13135 
   13318    13442    13470    13333    12970    12392    11695    11010 
   10402     9848     9303     8764     8264     7842     7512     7246 
    7019     6865     6864     7073     7457     7900     8291     8569 
    8737     8832     8862     8801     8636     8389     8109     7851 
    7665     7569     7535     7521     7511     7504     7508     7534 
    7583     7630     7605     7416     7040     6578     6213     6079 
    6151     6271     6285     6169     6001     5833     5656     5451 
    5201     4892     4550     4236     3985     3797     3666     3600 
    3602     3659     3743     3835     3936     4072     4256     4467 
    4660     4769     4729     4507     4115     3635     3185     2829 
    2549     2290     2028     1802     1684     1718     1892     2182 
    2578     3076     3637     4188     4663     5031     5302     5488 
    5583     5582     5510     5412     5344     5347     5424     5544 
    5675     5825     6036     6340     6724     7123     7474     7747 
    7945     8075     8125     8071     7910     7676     7399     7086 
    6747     6423     6161     5993     5945     6019     6176     6354 
    6490     6535     6472     6308     6080     5868     5756     5772 
    5888     6061     6279     6552     6865     7176     7461     7737 
