Origin Time       2011/03/11 14:46:00
Lat.              38.103
Long.             142.860
Depth. (km)       24
Mag.              9.0
Station Code      HKD118
Station Lat.      43.5524
Station Long.     141.9175
Station Height(m) 29
Record Time       2011/03/11 14:48:42
Sampling Freq(Hz) 100Hz
Duration Time(s)  300
Dir.              U-D
Scale Factor      3920(gal)/6182761
Max. Acc. (gal)   7.181
Last Correction   2011/03/11 14:48:27
Memo.             
[...]
  -17944   -17616   -17291   -16996   -16783   -16665   -16603   -16568 
  -16564   -16583   -16590   -16551   -16449   -16307   -16174   -16098 
  -16103   -16168   -16224   -16200   -16094   -15964   -15862   -15814 
  -15824   -15882   -15966   -16057   -16140   -16214   -16305   -16426 
  -16568   -16720   -16832   -16849   -16791   -16746   -16786   -16899 
  -17034   -17180   -17340   -17462   -17520   -17556   -17618   -17743 
  -17942   -18152   -18332   -18555   -18856   -19141   -19361   -19567 
  -19792   -20046   -20302   -20480   -20563   -20625   -20707   -20808 
  -20905   -20964   -21009   -21093   -21221   -21375   -21528   -21656 
  -21762   -21864   -21924   -21884   -21768   -21653   -21571   -21494 
  -21406   -21329   -21277   -21261   -21275   -21269   -21185   -21000 
  -20733   -20424   -20121   -19876   -19708   -19567   -19402   -19221 
  -19040   -18844   -18604   -18325   -18069   -17925   -17914   -17955 
  -17947   -17862   -17740   -17639   -17579   -17526   -17445   -17338 
  -17217   -17068   -16889   -16720   -16596   -16533   -16541   -16594 
  -16656   -16723   -16769   -16790   -16820   -16837   -16827   -16829 
  -16852   -16862   -16823   -16759   -16729   -16747   -16796   -16868 
  -16925   -16930   -16909   -16906   -16933   -16995   -17091   -17175 
  -17212   -17243   -17313   -17413   -17536   -17676   -17794   -17862 
  -17885   -17855   -17739   -17516   -17228   -16971   -16825   -16794 
  -16793   -16724   -16562   -16345   -16122   -15923   -15745   -15576 
  -15411   -15233   -15018   -14763   -14492   -14241   -14062   -13996 
  -14021   -14067   -14082   -14059   -14039   -14063   -14107   -14138 
  -14178   -14288   -14519   -14852   -15237   -15595   -15852   -16031 
  -16186   -16322   -16428   -16499   -16544   -16581   -16593   -16565 
  -16511   -16447   -16401   -16397   -16392   -16307   -16150   -16004 
  -15889   -15765   -15621   -15462   -15265   -15029   -14771   -14502 
  -14227   -13910   -13610   -13431   -13268   -13016   -12788   -12626 
  -12482   -12421   -12519   -12739   -12977   -13148   -13246   -13294 
  -13319   -13350   -13379   -13384   -13350   -13290   -13266   -13289 
  -13296   -13263   -13236   -13223   -13192   -13150   -13096   -13011 
  -12935   -12928   -12982   -13050   -13127   -13248   -13426   -13655 
  -13908   -14124   -14247   -14334   -14472   -14643   -14787   -14888 
  -14945   -14979   -15054   -15187   -15336   -15453   -15534   -15638 
  -15813   -16026   -16236   -16456   -16704   -16974   -17260   -17568 
  -17882   -18175   -18442   -18662   -18805   -18904   -19001   -19121 
  -19281   -19471   -19651   -19761   -19782   -19766   -19752   -19715 
  -19636   -19537   -19458   -19465   -19585   -19749   -19878   -19932 
  -19879   -19728   -19533   -19331   -19131   -18957   -18843   -18811 
  -18838   -18859   -18812   -18697   -18576   -18494   -18445   -18389 
  -18289   -18138   -17971   -17847   -17776   -17695   -17555   -17374 
  -17206   -17075   -16961   -16839   -16712   -16567   -16368   -16117 
  -15866   -15708   -15714   -15864   -16076   -16282   -16444   -16546 
  -16612   -16693   -16774   -16788   -16741   -16688   -16644   -16649 
  -16732   -16821   -16857   -16883   -16924   -16957   -16983   -17001 
  -16983   -16934   -16889   -16869   -16896   -16974   -17052   -17106 
  -17166   -17236   -17313   -17417   -17550   -17687   -17818   -17925 
  -17979   -17996   -18023   -18055   -18056   -18019   -17951   -17869 
  -17811   -17782   -17735   -17640   -17528   -17433   -17358   -17287 
  -17219   -17180   -17196   -17228   -17195   -17092   -16957   -16811 
  -16688   -16616   -16552   -16465   -16398   -16395   -16461   -16606 
  -16837   -17127   -17465   -17854   -18261   -18643   -18985   -19288 
  -19571   -19887   -20240   -20577   -20888   -21173   -21420   -21662 
  -21910   -22157   -22428   -22735   -23060   -23385   -23693   -23965 
  -24179   -24319   -24388   -24416   -24432   -24435   -24433   -24449 
  -24487   -24535   -24603   -24687   -24752   -24793   -24834   -24880 
  -24901   -24864   -24776   -24689   -24650   -24680   -24776   -24938 
  -25161   -25424   -25705   -25961   -26148   -26298   -26466   -26646 
  -26788   -26862   -26872   -26848   -26827   -26834   -26868   -26922 
  -26987   -27040   -27075   -27108   -27152   -27203   -27264   -27335 
  -27395   -27421   -27395   -27308   -27197   -27103   -27015   -26920 
  -26852   -26835   -26851   -26863   -26829   -26720   -26551   -26384 
  -26271   -26225   -26224   -26212   -26152   -26040   -25872   -25659 
  -25415   -25131   -24809   -24475   -24127   -23751   -23352   -22946 
  -22534   -22102   -21637   -21151   -20671   -20207   -19757   -19331 
  -18931   -18555   -18218   -17921   -17622   -17282   -16940   -16672 
  -16499   -16385   -16264   -16046   -15733   -15411   -15127   -14866 
  -14604   -14379   -14248   -14222   -14263   -14311   -14312   -14293 
  -14321   -14419   -14561   -14705   -14806   -14864   -14937   -15055 
  -15213   -15413   -15652   -15900   -16137   -16384   -16660   -16936 
  -17142   -17235   -17223   -17159   -17114   -17132   -17198   -17224 
  -17148   -17060   -17052   -17040   -17001   -17049   -17147   -17179 
  -17158   -17110   -17028   -16910   -16770   -16640   -16531   -16422 
  -16299   -16168   -16042   -15918   -15764   -15573   -15373   -15193 
  -15044   -14920   -14797   -14646   -14502   -14397   -14323   -14287 
  -14267   -14228   -14198   -14211   -14224   -14237   -14319   -14459 
  -14593   -14708   -14793   -14837   -14856   -14854   -14866   -14937 
  -15015   -15038   -15031   -14999   -14944   -14915   -14954   -15064 
  -15212   -15346   -15421   -15430   -15444   -15533   -15686   -15839 
  -15953   -16018   -16072   -16196   -16378   -16527   -16652   -16807 
  -16997   -17233   -17473   -17627   -17715   -17805   -17907   -18003 
  -18053   -18044   -18050   -18113   -18187   -18218   -18204   -18194 
  -18226   -18267   -18257   -18207   -18177   -18201   -18258   -18309 
  -18319   -18277   -18216   -18177   -18145   -18105   -18069   -18049 
  -18078   -18184   -18330   -18458   -18544   -18612   -18695   -18817 
  -18970   -19125   -19261   -19378   -19501   -19651   -19807   -19944 
  -20074   -20204   -20333   -20432   -20479   -20525   -20629   -20780 
  -20977   -21223   -21448   -21600   -21701   -21764   -21770   -21705 
  -21578   -21420   -21253   -21083   -20915   -20748   -20583   -20425 
  -20277   -20125   -19960   -19787   -19602   -19410   -19243   -19130 
  -19074   -19046   -19003   -18927   -18820   -18676   -18473   -18218 
  -17962   -17749   -17590   -17472   -17394   -17362   -17361   -17359 
  -17341   -17301   -17255   -17245   -17284   -17341   -17401   -17467 
  -17503   -17487   -17444   -17376   -17282   -17177   -17045   -16885 
  -16783   -16811   -16943   -17091   -17160   -17118   -16999   -16844 
  -16669   -16468   -16252   -16051   -15883   -15738   -15616   -15508 
  -15394   -15279   -15163   -15031   -14908   -14837   -14788   -14695 
  -14531   -14343   -14201   -14121   -14069   -14025   -13986   -13963 
  -13979   -14032   -14109   -14219   -14348   -14470   -14578   -14670 
  -14740   -14805   -14873   -14939   -15023   -15137   -15249   -15334 
  -15398   -15469   -15582   -15715   -15827   -15928   -16034   -16162 
  -16312   -16443   -16538   -16614   -16666   -16661   -16607   -16574 
  -16573   -16535   -16421   -16230   -15977   -15724   -15519   -15356 
  -15209   -15070   -14959   -14904   -14908   -14936   -14960   -14981 
  -15016   -15077   -15151   -15213   -15257   -15286   -15310   -15337 
  -15356   -15358   -15354   -15367   -15432   -15556   -15716   -15893 
  -16057   -16192   -16329   -16482   -16622   -16714   -16756   -16781 
  -16788   -16753   -16709   -16692   -16701   -16732   -16774   -16777 
  -16720   -16669   -16650   -16610   -16550   -16515   -16493   -16443 
  -16357   -16262   -16196   -16173   -16202   -16304   -16435   -16532 
  -16605   -16701   -16851   -17051   -17284   -17547   -17812   -18069 
  -18343   -18617   -18842   -19009   -19129   -19220   -19336   -19498 
  -19650   -19736   -19778   -19815   -19862   -19929   -20015   -20104 
  -20180   -20254   -20352   -20479   -20623   -20770   -20900   -20988 
  -21033   -21056   -21061   -21046   -20990   -20883   -20787   -20758 
  -20778   -20810   -20831   -20824   -20799   -20782   -20797   -20849 
  -20937   -21026   -21058   -21026   -20986   -20987   -21031   -21076 
  -21080   -21021   -20892   -20714   -20527   -20332   -20086   -19774 
  -19434   -19118   -18864   -18641   -18385   -18098   -17822   -17597 
  -17447   -17343   -17230   -17092   -16932   -16772   -16655   -16589 
  -16550   -16490   -16360   -16172   -15991   -15856   -15753   -15664 
  -15587   -15540   -15546   -15608   -15695   -15782   -15876   -15988 
  -16119   -16263   -16389   -16465   -16516   -16583   -16660   -16711 
  -16713   -16694   -16704   -16767   -16857   -16909   -16912   -16890 
  -16845   -16797   -16774   -16778   -16798   -16813   -16792   -16730 
  -16667   -16643   -16676   -16771   -16902   -17032   -17142   -17214 
  -17232   -17224   -17220   -17190   -17105   -16966   -16795   -16662 
  -16623   -16664   -16739   -16809   -16834   -16803   -16762   -16732 
  -16692   -16662   -16674   -16710   -16749   -16814   -16932   -17094 
  -17272   -17464   -17650   -17823   -18008   -18198   -18348   -18435 
  -18466   -18461   -18446   -18441   -18468   -18550   -18696   -18890 
  -19099   -19316   -19563   -19875   -20259   -20674   -21067   -21431 
  -21777   -22079   -22305   -22467   -22600   -22742   -22906   -23077 
  -23223   -23339   -23439   -23532   -23633   -23756   -23874   -23946 
  -23973   -23994   -24039   -24099   -24146   -24169   -24167   -24145 
  -24108   -24062   -24010   -23969   -23921   -23812   -23639   -23474 
  -23359   -23287   -23240   -23201   -23146   -23068   -22956   -22805 
  -22668   -22583   -22522   -22434   -22320   -22233   -22224   -22317 
  -22483   -22632   -22719   -22790   -22906   -23052   -23177   -23282 
  -23392   -23488   -23530   -23504   -23454   -23440   -23479   -23552 
  -23626   -23676   -23702   -23711   -23701   -23669   -23610   -23498 
  -23323   -23128   -22973   -22871   -22767   -22609   -22414   -22233 
  -22099   -22004   -21921   -21840   -21782   -21761   -21775   -21808 
  -21831   -21820   -21771   -21688   -21569   -21407   -21202   -20988 
  -20800   -20633   -20465   -20301   -20148   -20001   -19853   -19700 
  -19534   -19363   -19183   -18982   -18756   -18506   -18213   -17874 
  -17540   -17257   -17013   -16778   -16512   -16200   -15890   -15628 
  -15394   -15147   -14867   -14554   -14218   -13862   -13484   -13073 
  -12643   -12232   -11865   -11558   -11306   -11096   -10930   -10783 
  -10613   -10421   -10243   -10115   -10047   -10017   -10017   -10067 
  -10166   -10288   -10406   -10498   -10571   -10653   -10748   -10812 
  -10850   -10916   -11011   -11093   -11150   -11172   -11152   -11133 
  -11155   -11198   -11241   -11326   -11481   -11659   -11822   -11980 
  -12133   -12271   -12391   -12481   -12536   -12572   -12595   -12605 
  -12626   -12693   -12802   -12934   -13093   -13253   -13362   -13439 
  -13524   -13607   -13671   -13703   -13681   -13627   -13589   -13572 
  -13559   -13547   -13530   -13515   -13540   -13631   -13773   -13926 
  -14045   -14090   -14084   -14098   -14162   -14249   -14328   -14374 
  -14393   -14429   -14516   -14632   -14736   -14826   -14927   -15054 
  -15179   -15259   -15284   -15290   -15305   -15347   -15417   -15495 
  -15577   -15668   -15763   -15842   -15893   -15943   -16022   -16110 
  -16197   -16300   -16432   -16608   -16800   -16959   -17080   -17183 
  -17275   -17331   -17341   -17338   -17334   -17348   -17422   -17555 
  -17721   -17906   -18111   -18293   -18417   -18629   -18942   -19157 
  -19405   -19715   -19896   -20110   -20330   -20414   -20510   -20602 
  -20689   -20855   -21022   -21133   -21196   -21239   -21299   -21366 
  -21414   -21456   -21509   -21564   -21610   -21628   -21630   -21633 
  -21628   -21633   -21677   -21739   -21790   -21812   -21806   -21796 
  -21767   -21701   -21616   -21520   -21439   -21383   -21313   -21254 
  -21225   -21170   -21052   -20844   -20568   -20294   -20059   -19860 
  -19675   -19493   -19305   -19107   -18922   -18794   -18745   -18757 
  -18795   -18815   -18785   -18723   -18650   -18563   -18482   -18422 
  -18395   -18409   -18434   -18432   -18413   -18418   -18468   -18549 
  -18630   -18686   -18738   -18853   -19066   -19295   -19446   -19526 
  -19588   -19677   -19822   -19989   -20130   -20251   -20363   -20463 
  -20579   -20740   -20952   -21216   -21488   -21716   -21894   -22046 
  -22202   -22379   -22551   -22695   -22796   -22853   -22910   -23014 
  -23171   -23347   -23488   -23578   -23631   -23662   -23689   -23710 
  -23699   -23651   -23598   -23548   -23493   -23438   -23364   -23245 
  -23099   -22953   -22816   -22703   -22609   -22495   -22337   -22137 
  -21893   -21612   -21315   -21020   -20742   -20483   -20225   -19922 
  -19547   -19139   -18729   -18324   -17936   -17568   -17201   -16830 
  -16461   -16084   -15692   -15282   -14854   -14426   -14017   -13627 
  -13258   -12908   -12558   -12200   -11846   -11488   -11117   -10762 
  -10443   -10130    -9794    -9413    -8974    -8530    -8139    -7826 
   -7598    -7403    -7204    -7049    -6946    -6886    -6907    -6970 
   -6980    -6955    -6946    -6936    -6902    -6861    -6853    -6904 
   -7017    -7192    -7409    -7655    -7910    -8153    -8417    -8757 
   -9173    -9642   -10139   -10653   -11189   -11713   -12184   -12625 
  -13078   -13541   -13994   -14433   -14853   -15253   -15647   -16054 
  -16466   -16855   -17232   -17636   -18083   -18556   -19039   -19543 
  -20082   -20637   -21166   -21623   -21985   -22280   -22507   -22626 
  -22642   -22607   -22579   -22577   -22555   -22451   -22252   -22013 
  -21801   -21625   -21435   -21178   -20841   -20466   -20113   -19783 
  -19417   -18989   -18516   -18029   -17568   -17137   -16702   -16270 
  -15890   -15608   -15411   -15231   -15026   -14786   -14515   -14235 
  -13970   -13736   -13573   -13492   -13428   -13324   -13186   -13054 
  -13011   -13114   -13304   -13489   -13632   -13734   -13839   -13995 
  -14221   -14507   -14806   -15068   -15294   -15531   -15811   -16144 
  -16488   -16760   -16920   -17004   -17060   -17134   -17269   -17450 
  -17643   -17848   -18069   -18297   -18537   -18806   -19094   -19364 
  -19586   -19745   -19846   -19935   -20055   -20165   -20195   -20156 
  -20108   -20098   -20152   -20247   -20338   -20432   -20547   -20650 
  -20697   -20672   -20588   -20486   -20378   -20247   -20099   -19951 
  -19804   -19686   -19647   -19695   -19807   -19938   -20023   -20056 
  -20114   -20205   -20271   -20335   -20448   -20561   -20616   -20649 
  -20729   -20846   -20945   -21025   -21119   -21237   -21377   -21556 
  -21775   -21956   -22046   -22092   -22141   -22184   -22219   -22243 
  -22224   -22153   -22052   -21971   -21957   -21981   -21965   -21891 
  -21812   -21796   -21858   -21914   -21884   -21802   -21756   -21769 
  -21795   -21786   -21720   -21614   -21522   -21466   -21418   -21358 
  -21303   -21261   -21233   -21238   -21276   -21306   -21300   -21279 
  -21279   -21305   -21336   -21360   -21362   -21327   -21279   -21282 
  -21355   -21381   -21226   -20987   -20902   -21013   -21118   -21057 
  -20886   -20751   -20723   -20728   -20627   -20401   -20168   -19999 
  -19846   -19684   -19557   -19466   -19340   -19159   -19012   -18966 
  -18954   -18838   -18570   -18253   -18038   -17943   -17843   -17664 
  -17456   -17291   -17173   -17074   -17007   -16980   -16953   -16906 
  -16836   -16725   -16628   -16602   -16595   -16548   -16474   -16424 
  -16449   -16549   -16657   -16713   -16713   -16747   -16885   -17061 
  -17163   -17194   -17253   -17391   -17570   -17770   -17972   -18121 
  -18201   -18248   -18318   -18463   -18689   -18934   -19093   -19125 
  -19109   -19156   -19299   -19483   -19648   -19787   -19908   -20023 
  -20143   -20253   -20351   -20457   -20560   -20647   -20733   -20810 
  -20873   -20948   -21035   -21119   -21193   -21246   -21288   -21338 
  -21411   -21506   -21598   -21666   -21684   -21646   -21583   -21550 
  -21561   -21568   -21524   -21424   -21276   -21110   -20991   -20935 
  -20862   -20717   -20562   -20470   -20398   -20238   -19948   -19626 
  -19403   -19263   -19088   -18834   -18584   -18419   -18324   -18228 
  -18093   -17910   -17658   -17380   -17189   -17128   -17115   -17001 
  -16726   -16398   -16169   -16108   -16168   -16207   -16137   -16001 
  -15873   -15824   -15902   -16069   -16223   -16283   -16217   -16070 
  -15938   -15897   -15925   -15923   -15838   -15760   -15822   -16040 
  -16305   -16500   -16616   -16721   -16881   -17169   -17573   -17985 
  -18366   -18725   -19035   -19293   -19508   -19685   -19850   -20002 
  -20139   -20277   -20395   -20477   -20521   -20513   -20450   -20370 
  -20286   -20170   -20033   -19926   -19888   -19931   -19984   -19955 
  -19908   -19947   -20062   -20182   -20270   -20319   -20341   -20346 
  -20319   -20246   -20136   -20000   -19847   -19655   -19423   -19228 
  -19095   -18933   -18683   -18377   -18078   -17846   -17678   -17491 
  -17246   -17000   -16828   -16722   -16602   -16408   -16192   -16075 
  -16083   -16111   -16089   -16043   -16016   -16066   -16205   -16322 
  -16305   -16177   -16023   -15904   -15875   -15957   -16072   -16134 
  -16147   -16200   -16403   -16786   -17211   -17431   -17383   -17303 
  -17423   -17733   -18079   -18317   -18388   -18405   -18559   -18844 
  -19084   -19227   -19352   -19505   -19726   -20054   -20419   -20673 
  -20785   -20933   -21286   -21806   -22301   -22594   -22681   -22767 
  -23052   -23507   -23946   -24174   -24158   -24109   -24236   -24555 
  -24964   -25250   -25246   -25078   -25042   -25298   -25723   -26029 
  -26081   -25979   -25899   -26027   -26397   -26786   -26980   -26922 
  -26675   -26474   -26532   -26744   -26829   -26620   -26146   -25594 
  -25214   -25147   -25237   -25116   -24583   -23843   -23252   -22966 
  -22890   -22799   -22533   -22122   -21629   -21089   -20668   -20528 
  -20574   -20511   -20108   -19454   -18856   -18537   -18518   -18558 
  -18336   -17825   -17249   -16789   -16524   -16383   -16191   -15921 
  -15674   -15526   -15498   -15495   -15420   -15319   -15272   -15307 
  -15392   -15391   -15234   -15057   -14953   -14887   -14925   -15100 
  -15219   -15159   -15031   -14944   -14923   -14977   -15054   -15017 
  -14822   -14627   -14526   -14457   -14422   -14394   -14281   -14140 
  -14081   -14074   -14029   -13907   -13750   -13618   -13559   -13667 
  -13967   -14296   -14459   -14485   -14528   -14631   -14828   -15131 
  -15369   -15426   -15417   -15461   -15567   -15711   -15889   -16084 
  -16203   -16197   -16161   -16149   -16122   -16160   -16343   -16520 
  -16579   -16628   -16809   -17135   -17407   -17437   -17365   -17459 
  -17761   -18058   -18127   -17974   -17799   -17797   -17981   -18296 
  -18650   -18829   -18876   -18923   -18845   -18867   -19238   -19467 
  -19392   -19549   -20028   -20304   -20146   -20126   -20591   -20971 
