Origin Time       2011/03/11 14:46:00
Lat.              38.103
Long.             142.860
Depth. (km)       24
Mag.              9.0
Station Code      HKD127
Station Lat.      42.8743
Station Long.     141.8204
Station Height(m) 61
Record Time       2011/03/11 14:48:03
Sampling Freq(Hz) 100Hz
Duration Time(s)  300
Dir.              U-D
Scale Factor      3920(gal)/6182761
Max. Acc. (gal)   6.356
Last Correction   2011/03/11 14:47:48
Memo.             
[...]
   -8621    -7454    -6868    -6908    -6701    -5590    -4197    -3622 
   -3904    -4159    -4010    -3862    -3924    -4020    -4173    -4405 
   -4390    -3912    -3167    -2477    -2107    -2091    -2258    -2556 
   -3000    -3286    -2875    -1696     -528     -105     -234     -462 
    -765    -1146    -1539    -2029    -2485    -2636    -2742    -3174 
   -3732    -4322    -5153    -5700    -5098    -3724    -3052    -3925 
   -5666    -7032    -7630    -7685    -7117    -5953    -4948    -4999 
   -6106    -7120    -7091    -6569    -6391    -6444    -6854    -8096 
   -9413    -9529    -8718    -8438    -9313   -10386   -10501    -9875 
   -9650   -10296   -11268   -12041   -12658   -13148   -13192   -12675 
  -11956   -11444   -11168   -10827   -10188    -9393    -8778    -8507 
   -8348    -7865    -7059    -6486    -6356    -6024    -4883    -3437 
   -2939    -3655    -4218    -3672    -2925    -3038    -3747    -4313 
   -4368    -4144    -4436    -5592    -6893    -7534    -7518    -7458 
   -7951    -8809    -9223    -9151    -9485   -10505   -11377   -11250 
  -10186    -9223    -9354   -10215   -10657   -10595   -10757   -10872 
  -10078    -8842    -8550    -9506   -10639   -10993   -10853   -11086 
  -11509   -10976    -9399    -8200    -8123    -8268    -8080    -8460 
   -9892   -11058   -10538    -8963    -8128    -8595    -9670   -10936 
  -12382   -13687   -14204   -13621   -12564   -12094   -12507   -13241 
  -13815   -14159   -14141   -13581   -12766   -12183   -11876   -11659 
  -11483   -11258   -10965   -10892   -11222   -11579   -11241    -9979 
   -8823    -8975    -9797    -9696    -8691    -8074    -8360    -9190 
  -10145   -10644   -10098    -8591    -6811    -5502    -4982    -4811 
   -4443    -4230    -4669    -5168    -5076    -4818    -4730    -4554 
   -4701    -5801    -7125    -7404    -6589    -5537    -4674    -3745 
   -2753    -2517    -3387    -4206    -3901    -2888    -1977    -1320 
    -946    -1283    -2601    -4118    -4658    -4396    -4449    -4807 
   -4578    -3837    -3445    -3588    -3775    -3820    -3968    -4258 
   -4342    -4234    -4542    -5394    -6024    -5803    -4899    -3974 
   -3757    -4503    -5405    -5202    -3867    -2801    -2764    -2880 
   -2391    -2099    -3016    -4536    -5192    -4748    -4442    -5256 
   -6528    -6908    -6483    -6523    -7279    -7784    -7601    -7278 
   -7329    -7597    -7580    -7201    -6810    -6472    -6029    -5472 
   -4758    -3965    -3485    -3586    -4208    -5090    -5910    -6655 
   -7658    -8882    -9697    -9770    -9503    -9150    -8415    -7492 
   -7400    -8621   -10221   -10835   -10242    -9501    -9442    -9698 
   -9578    -9202    -9183    -9602    -9942    -9717    -8803    -7526 
   -6552    -6371    -6860    -7467    -7755    -7879    -8360    -9072 
   -9288    -8995    -8728    -8332    -7344    -5911    -4615    -4073 
   -4443    -5089    -5447    -5666    -5965    -6355    -6747    -6793 
   -6338    -5914    -6084    -6768    -7356    -7316    -6881    -6688 
   -6702    -6538    -6480    -7088    -8223    -9073    -8918    -7866 
   -6903    -6910    -7532    -7535    -6523    -5401    -4727    -3853 
   -2355    -1043     -846    -1430    -1671    -1368    -1485    -2394 
   -3111    -2820    -2068    -1788    -1993    -2220    -2412    -2526 
   -2190    -1472    -1263    -2074    -2915    -2608    -1851    -2248 
   -3784    -4971    -5054    -4766    -4818    -4777    -4152    -3655 
   -4407    -6189    -7460    -7259    -6224    -5562    -5732    -6403 
   -7263    -8254    -9048    -9083    -8390    -7642    -7116    -6371 
   -5093    -3714    -3183    -3969    -5232    -5686    -5183    -4641 
   -4676    -4900    -4721    -4382    -4465    -4680    -4207    -3101 
   -2376    -2576    -3090    -3206    -3033    -3031    -3506    -4539 
   -5816    -6735    -6813    -6124    -5395    -5137    -5120    -5204 
   -5734    -6696    -7247    -6663    -5387    -4473    -4199    -3904 
   -3319    -3226    -4071    -4977    -5193    -5242    -5866    -7019 
   -8041    -8268    -7917    -8072    -9157   -10381   -10954   -10867 
  -10650   -10812   -11154   -11103   -10826   -10928   -11152   -10779 
  -10019    -9742   -10085   -10442   -10657   -11143   -11878   -12324 
  -12399   -12577   -12897   -12758   -11971   -11433   -12135   -13414 
  -13406   -11778   -10181    -9728   -10009   -10284   -10334   -10528 
  -11007   -11010   -10030    -8839    -8308    -8188    -7851    -7402 
   -7291    -7331    -6816    -5514    -4183    -3735    -4170    -4828 
   -5261    -5424    -5472    -5510    -5497    -5406    -5170    -4618 
   -3902    -3502    -3364    -2834    -1795    -1011    -1194    -2229 
   -3416    -4194    -4320    -3618    -2249     -970     -519     -977 
   -1856    -2639    -3187    -3553    -3562    -3052    -2337    -1931 
   -2072    -2800    -4044    -5449    -6481    -6790    -6397    -5753 
   -5503    -5925    -6772    -7662    -8173    -7973    -7314    -6789 
   -6567    -6482    -6479    -6534    -6556    -6483    -6353    -6473 
   -7062    -7620    -7421    -6546    -5727    -5403    -5406    -5420 
   -5461    -5807    -6553    -7400    -8023    -8475    -8888    -9068 
   -8948    -8820    -8730    -8539    -8505    -8764    -8837    -8344 
   -7640    -7576    -8590    -9836    -9870    -8323    -6285    -5141 
   -5196    -5703    -6082    -6197    -5808    -4891    -4063    -4046 
   -4800    -5430    -5326    -5076    -5544    -6466    -6734    -5957 
   -5062    -4945    -5340    -5575    -5431    -4938    -4178    -3344 
   -2705    -2579    -3157    -4242    -5380    -6259    -6778    -6963 
   -6961    -6832    -6378    -5385    -4118    -3458    -4022    -5210 
   -5763    -5251    -4439    -4037    -3882    -3831    -4324    -5411 
   -6303    -6429    -6121    -5957    -6123    -6546    -7151    -7844 
   -8237    -7749    -6461    -5496    -5886    -7264    -8336    -8486 
   -8155    -7884    -7755    -7689    -7849    -8425    -9082    -9387 
   -9684   -10592   -11795   -12170   -11190    -9912    -9861   -10711 
  -10624    -9304    -8368    -8608    -9324    -9852   -10066    -9979 
   -9589    -9058    -8888    -9410   -10195   -10603   -10656   -10740 
  -10724   -10205    -9416    -8968    -8809    -8394    -7727    -7330 
   -7240    -6748    -5383    -3850    -3473    -4440    -5470    -5777 
   -5975    -6473    -6632    -6078    -5389    -5121    -5145    -5076 
   -4837    -4729    -4888    -5046    -5234    -5831    -6609    -7051 
   -7420    -8076    -8396    -7529    -5699    -4048    -3240    -2899 
   -2749    -3280    -4651    -5831    -5709    -4702    -4187    -4522 
   -4879    -4792    -4547    -4303    -3841    -3051    -2179    -1480 
    -758      165      743      581      442     1135     2158     2421 
    1803     1195     1087      902       92    -1006    -1772    -1950 
   -1806    -2114    -3297    -4753    -5670    -5900    -5703    -5305 
   -4920    -4862    -5310    -5979    -6258    -5744    -4706    -3934 
   -3989    -4812    -6042    -7139    -7539    -7355    -7365    -8088 
   -9458   -11025   -12158   -12388   -11556    -9968    -8640    -8463 
   -8995    -9052    -8306    -7406    -6749    -6051    -5170    -4415 
   -3985    -3871    -3898    -3606    -2897    -2406    -2467    -2395 
   -1482     -252      -25    -1333    -3313    -4695    -4928    -4162 
   -2735    -1273     -545     -626     -950    -1339    -2100    -3084 
   -3487    -2871    -1723     -698     -150     -553    -2235    -4512 
   -6088    -6571    -6859    -7634    -8481    -8910    -8967    -8616 
   -7671    -6404    -5623    -5900    -6754    -7251    -7426    -7760 
   -7614    -6178    -4410    -4069    -5297    -6699    -7509    -8173 
   -8687    -8226    -6979    -6370    -6866    -7416    -7416    -7475 
   -7990    -8504    -8621    -8511    -8222    -7289    -5905    -5490 
   -6601    -7498    -6409    -4202    -3229    -4008    -4699    -4132 
   -3413    -3598    -3929    -3535    -2905    -2839    -3347    -3953 
   -4392    -4565    -4091    -2839    -1616    -1314    -1954    -3137 
   -4447    -5352    -5614    -5471    -5136    -4796    -4807    -5396 
   -6475    -7516    -7816    -7613    -7833    -8157    -7360    -5687 
   -4663    -4757    -5011    -4838    -4937    -5752    -6010    -4601 
   -2964    -3187    -4755    -5389    -4268    -2777    -2372    -2758 
   -2785    -2373    -2148    -1911    -1068      115      829      723 
     -77    -1302    -2526    -3391    -3801    -3789    -3480    -3077 
   -2826    -3002    -3479    -3602    -3215    -3067    -3441    -3555 
   -2927    -2292    -2670    -3922    -4724    -4227    -3092    -2373 
   -2125    -1835    -1578    -1880    -2690    -3257    -3179    -2924 
   -3155    -4018    -4965    -5134    -4373    -3465    -2978    -2916 
   -3289    -3938    -4454    -4786    -5084    -4976    -3937    -2298 
   -1054     -755    -1177    -1949    -3028    -4308    -5282    -5629 
   -5616    -5594    -5502    -5062    -4516    -4653    -5510    -5957 
   -5381    -4605    -4462    -4682    -4626    -4230    -3965    -4142 
   -4438    -4294    -3763    -3535    -3876    -4162    -3941    -3783 
   -4494    -5937    -7080    -7303    -7177    -7345    -7450    -7019 
   -6405    -6204    -6601    -7356    -8023    -8365    -8488    -8552 
   -8638    -8648    -8332    -7822    -7721    -8201    -8570    -8156 
   -7195    -6463    -6353    -6659    -6984    -7125    -7269    -7773 
   -8509    -8750    -8148    -7535    -7938    -8984    -9403    -8894 
   -8203    -7734    -7218    -6507    -6129    -6729    -7975    -8770 
   -8624    -7907    -7072    -6453    -6182    -5963    -5696    -6066 
   -7418    -8525    -7967    -6457    -6089    -7152    -7694    -6804 
   -5996    -6464    -7188    -6756    -5549    -4980    -5173    -4915 
   -3994    -3550    -3827    -3819    -3348    -3419    -4362    -5261 
   -5465    -5365    -5558    -6267    -7283    -7954    -7791    -7166 
   -6916    -7339    -7925    -8148    -7992    -7384    -6000    -4087 
   -2911    -3770    -6322    -8654    -9559    -9528    -9174    -8472 
   -7769    -8122   -10132   -12778   -14115   -13408   -11645   -10083 
   -9405    -9862   -11236   -12697   -13143   -12310   -11340   -11294 
  -11585   -11145   -10288    -9994   -10317   -10628   -10456    -9714 
   -8766    -8051    -7573    -7159    -6786    -6585    -6880    -7790 
   -8714    -8787    -7871    -6853    -6668    -7168    -7514    -7276 
   -6548    -5562    -4686    -4411    -4843    -5373    -5414    -5246 
   -5497    -6155    -6831    -7428    -7881    -7966    -7642    -7142 
   -6872    -7076    -7481    -7695    -7646    -7383    -7078    -7014 
   -7181    -7387    -7579    -7656    -7512    -7213    -6724    -5981 
   -5236    -4765    -4598    -4796    -5489    -6445    -7050    -6945 
   -6433    -5994    -5685    -5449    -5442    -5643    -5946    -6464 
   -7017    -7088    -6690    -6148    -5210    -3843    -3178    -4155 
   -6164    -7658    -7571    -6480    -5965    -6383    -6767    -6896 
   -7399    -8089    -8030    -7098    -6211    -5963    -5963    -5819 
   -6055    -7336    -9182   -10455   -10780   -10438    -9426    -7832 
   -6487    -6045    -5950    -5378    -4650    -4644    -5085    -4867 
   -4146    -4172    -4854    -4799    -3866    -3435    -4027    -4593 
   -4361    -3904    -3884    -3810    -3000    -1945    -1533    -1670 
   -1723    -1829    -2752    -4393    -5510    -5427    -4871    -4662 
   -4618    -4189    -3677    -4121    -5475    -6027    -4842    -3262 
   -2766    -3081    -3338    -3626    -4494    -5580    -5766    -4931 
   -4533    -5614    -7220    -7838    -7413    -7022    -7233    -7604 
   -7751    -7918    -8048    -7472    -6102    -5021    -5064    -5479 
   -5226    -4659    -4471    -4356    -3895    -3418    -3443    -3995 
   -4356    -3712    -2442    -1752    -2018    -2749    -3600    -4255 
   -4271    -3912    -4089    -5135    -6659    -8301    -9703   -10257 
   -9634    -8404    -7638    -7687    -7868    -7766    -7834    -8326 
   -8755    -8681    -8381    -8504    -9078    -9395    -9213    -9055 
   -9068    -8858    -8480    -8384    -8480    -8197    -7389    -6570 
   -6268    -6533    -6870    -6552    -5439    -4294    -3979    -4629 
   -5534    -5782    -5260    -4553    -3828    -2913    -2258    -2570 
   -3670    -4561    -4626    -4521    -5470    -7502    -9169    -9435 
   -8838    -8374    -8363    -8655    -8793    -8175    -7004    -6437 
   -7196    -8691    -9830   -10295   -10532   -10565    -9785    -8273 
   -7171    -7358    -8533    -9595    -9695    -8887    -7668    -6354 
   -5231    -4718    -4982    -5654    -6104    -5948    -5239    -4552 
   -4736    -5889    -6956    -7181    -7213    -8048    -9431   -10135 
   -9809    -9570   -10355   -11637   -12270   -11870   -10998   -10435 
  -10342   -10112    -9356    -8720    -9069   -10243   -11118   -10787 
   -9747    -9335    -9718    -9838    -9468    -9445    -9906    -9954 
   -8917    -7327    -6622    -7415    -8605    -9186    -9690   -10674 
  -11307   -10697    -9444    -8846    -9187    -9446    -8613    -6996 
   -5672    -4982    -4433    -3598    -2634    -2139    -2182    -1925 
    -882      439     1468     1853     1246       52     -621     -456 
    -184     -307     -621     -792     -534      160      445     -507 
   -1952    -2412    -1515       12     1249     1678     1602     1621 
    1868     2354     3169     3834     3634     2678     1619      678 
    -114     -315      466     1869     2756     2038     -110    -2387 
   -3806    -4203    -3806    -3196    -2983    -3112    -3130    -2923 
   -2780    -3190    -4278    -5261    -5300    -4511    -3566    -3056 
   -3178    -3580    -3820    -3835    -3705    -3433    -3033    -2714 
   -2974    -3901    -4608    -4255    -2961    -1392     -418     -782 
   -2387    -4377    -5874    -6308    -5620    -4588    -4389    -5430 
   -6992    -8117    -8434    -8263    -8119    -8139    -8256    -8492 
   -8644    -8421    -7979    -7811    -8355    -9522   -10389   -10383 
  -10340   -11009   -11691   -11544   -10853   -10341   -10184   -10155 
  -10371   -11327   -12872   -13902   -13843   -13410   -13178   -12794 
  -12149   -11952   -12653   -13504   -13253   -11789   -10270    -9334 
   -8420    -7202    -6287    -6193    -6534    -6600    -6444    -6804 
   -7744    -8164    -7292    -5885    -5220    -5558    -6192    -6676 
   -7094    -6994    -5650    -3803    -3270    -4493    -5973    -6182 
   -5117    -3905    -3223    -2719    -2226    -2324    -3204    -4266 
   -5040    -5572    -5906    -5630    -4418    -2979    -2576    -3618 
   -5249    -6060    -5274    -3501    -2189    -2302    -3584    -5130 
   -6418    -7350    -7635    -7065    -6245    -6025    -6424    -6881 
   -7081    -7087    -7089    -7170    -7218    -7024    -6533    -6120 
   -6402    -7458    -8651    -9407    -9586    -9214    -8545    -8296 
   -9081   -10564   -11712   -11997   -11861   -11770   -11435   -10552 
   -9724    -9742   -10469   -11144   -11203   -10527    -9444    -8564 
   -8424    -9034    -9624    -9385    -8527    -7818    -7371    -6790 
   -6042    -5525    -5582    -6182    -6937    -7359    -6996    -5646 
   -3855    -2747    -2980    -4129    -5305    -6046    -6160    -5179 
   -2998     -789     -252    -1769    -3720    -4157    -3156    -2419 
   -2553    -2642    -2547    -3243    -4619    -5020    -3627    -1835 
   -1259    -1451    -1007     -125     -315    -1714    -2494    -1696 
    -864    -1456    -2490    -2486    -2127    -3077    -4951    -5714 
   -5057    -4790    -5718    -6636    -6584    -6230    -6680    -7737 
   -8079    -7242    -6336    -6364    -7028    -7654    -8129    -8562 
   -8866    -8852    -8164    -6646    -5370    -5928    -8085    -9866 
  -10247   -10005   -10082   -10651   -11572   -12712   -13766   -14235 
  -13831   -12913   -12148   -11687   -11280   -11101   -11554   -12315 
  -12498   -11636   -10093    -8759    -8121    -7706    -7058    -6493 
   -6116    -5380    -4282    -3590    -3628    -3938    -3980    -3656 
   -3394    -3626    -4234    -4979    -5887    -6725    -7177    -7519 
   -7992    -8129    -7502    -6654    -6725    -7845    -8618    -8119 
   -7294    -7325    -7764    -7546    -7002    -7276    -8272    -8724 
   -7973    -6786    -6514    -7602    -9228   -10615   -11725   -12474 
  -12525   -12146   -12311   -13219   -13615   -12745   -11718   -11680 
  -12120   -11978   -11349   -11093   -11181   -10710    -9518    -8618 
   -8851    -9609    -9381    -7796    -6164    -5662    -6094    -6572 
   -6478    -5819    -5182    -5062    -5193    -5133    -5073    -5271 
   -5394    -5188    -4923    -4654    -4034    -3035    -2007    -1328 
   -1272    -1775    -2660    -3872    -4954    -5416    -5686    -6303 
   -6889    -6969    -6756    -6654    -6777    -6948    -7048    -7422 
   -8220    -8777    -8677    -8303    -7804    -7059    -6355    -5880 
   -5527    -5510    -5989    -6608    -6970    -6911    -6592    -6356 
   -5991    -5068    -4140    -4040    -4429    -4443    -4030    -3863 
   -4299    -4705    -4428    -4161    -5014    -6730    -8001    -8137 
   -7677    -7443    -7651    -8103    -8643    -9157    -9447    -9434 
   -9367    -9519    -9858   -10064    -9686    -8672    -7752    -7632 
   -8027    -8114    -7473    -6250    -4965    -4159    -3902    -3931 
   -4192    -4690    -5203    -5478    -5277    -4553    -3963    -4207 
   -4811    -4792    -4190    -3706    -3476    -3307    -3495    -4505 
   -5938    -6527    -5657    -4333    -3988    -4806    -5793    -6104 
   -5755    -5185    -4766    -4810    -5428    -6243    -6743    -6849 
   -6732    -6461    -6296    -6741    -7696    -8328    -8396    -8790 
  -10126   -11544   -11667   -10543    -9593    -9474    -9568    -9645 
  -10125   -10786   -10798    -9952    -9140    -9309   -10076   -10345 
  -10056    -9631    -8612    -6767    -5331    -5560    -6976    -8045 
   -7933    -7029    -6183    -5621    -4980    -4475    -4821    -5899 
   -6773    -6924    -6418    -5109    -2974    -1023     -390     -886 
   -1596    -2170    -2628    -2731    -2335    -1843    -1908    -2858 
   -4252    -5033    -4544    -3244    -2205    -2024    -2319    -2371 
   -2101    -2096    -2607    -2902    -2312    -1501    -1613    -2641 
   -3522    -3412    -2565    -2135    -2926    -4406    -5304    -5101 
   -4833    -5863    -7671    -8184    -6713    -4812    -3867    -3605 
   -3290    -2976    -3068    -3291    -2937    -2123    -1673    -1695 
   -1623    -1518    -1881    -2480    -2651    -2483    -2754    -3779 
   -4836    -5067    -4747    -4851    -5459    -5625    -4980    -4389 
   -4474    -4650    -4342    -4058    -4465    -5267    -5629    -5447 
   -5599    -6551    -7553    -7950    -8085    -8258    -8089    -7460 
   -7083    -7570    -8377    -8495    -8038    -7947    -8147    -7595 
   -6421    -6216    -7521    -8840    -8950    -8523    -8692    -9227 
   -9004    -8016    -7765    -8961   -10327   -10762   -10924   -11500 
  -11678   -10450    -8353    -6980    -7043    -7753    -8283    -8841 
   -9616    -9769    -8642    -6997    -5869    -5256    -4873    -5029 
   -5993    -7087    -6973    -5213    -3063    -1864    -1415     -991 
