Origin Time       2011/03/11 14:46:00
Lat.              38.103
Long.             142.860
Depth. (km)       24
Mag.              9.0
Station Code      HKD137
Station Lat.      43.3236
Station Long.     140.3791
Station Height(m) 15
Record Time       2011/03/11 14:49:09
Sampling Freq(Hz) 100Hz
Duration Time(s)  173
Dir.              N-S
Scale Factor      3920(gal)/6182761
Max. Acc. (gal)   2.319
Last Correction   2011/03/11 14:48:54
Memo.             
[...]
   -5013    -4891    -4770    -4653    -4549    -4461    -4382    -4307 
   -4222    -4129    -4036    -3952    -3878    -3804    -3728    -3659 
   -3608    -3574    -3551    -3535    -3524    -3515    -3510    -3524 
   -3560    -3610    -3686    -3784    -3893    -4008    -4126    -4230 
   -4321    -4417    -4526    -4647    -4779    -4909    -5029    -5143 
   -5249    -5345    -5431    -5510    -5585    -5656    -5725    -5791 
   -5847    -5889    -5924    -5957    -5985    -6009    -6032    -6050 
   -6059    -6060    -6056    -6054    -6056    -6058    -6054    -6045 
   -6036    -6027    -6019    -6006    -5982    -5952    -5932    -5923 
   -5912    -5889    -5862    -5830    -5795    -5764    -5741    -5727 
   -5723    -5726    -5728    -5718    -5686    -5630    -5553    -5466 
   -5386    -5316    -5241    -5163    -5091    -5031    -4976    -4923 
   -4876    -4840    -4824    -4822    -4817    -4803    -4778    -4733 
   -4669    -4600    -4534    -4470    -4407    -4344    -4284    -4225 
   -4161    -4095    -4038    -3995    -3968    -3968    -3994    -4033 
   -4073    -4106    -4135    -4171    -4217    -4270    -4325    -4379 
   -4427    -4460    -4486    -4519    -4566    -4630    -4705    -4780 
   -4850    -4910    -4956    -5000    -5050    -5100    -5151    -5209 
   -5268    -5325    -5382    -5438    -5492    -5541    -5586    -5631 
   -5679    -5729    -5783    -5835    -5884    -5936    -5996    -6071 
   -6154    -6233    -6304    -6363    -6416    -6475    -6536    -6590 
   -6640    -6695    -6754    -6817    -6885    -6951    -7014    -7074 
   -7126    -7173    -7215    -7249    -7275    -7289    -7293    -7282 
   -7264    -7260    -7276    -7309    -7354    -7401    -7443    -7480 
   -7515    -7547    -7571    -7587    -7604    -7618    -7614    -7590 
   -7551    -7502    -7454    -7410    -7361    -7298    -7219    -7136 
   -7066    -7016    -6987    -6962    -6917    -6858    -6806    -6758 
   -6705    -6647    -6581    -6511    -6444    -6373    -6290    -6203 
   -6127    -6066    -6019    -5978    -5931    -5875    -5805    -5724 
   -5642    -5565    -5496    -5433    -5372    -5311    -5252    -5203 
   -5167    -5132    -5099    -5076    -5065    -5050    -5027    -4996 
   -4956    -4917    -4896    -4904    -4927    -4955    -4985    -5017 
   -5042    -5064    -5078    -5081    -5080    -5078    -5080    -5098 
   -5121    -5135    -5139    -5135    -5135    -5146    -5155    -5163 
   -5172    -5173    -5165    -5150    -5122    -5089    -5066    -5056 
   -5056    -5064    -5074    -5080    -5087    -5099    -5116    -5146 
   -5185    -5224    -5264    -5311    -5363    -5423    -5497    -5579 
   -5666    -5751    -5827    -5895    -5968    -6053    -6152    -6260 
   -6372    -6472    -6543    -6594    -6639    -6677    -6711    -6742 
   -6755    -6738    -6697    -6638    -6571    -6508    -6456    -6418 
   -6393    -6374    -6353    -6329    -6306    -6286    -6272    -6269 
   -6274    -6284    -6290    -6284    -6255    -6203    -6144    -6086 
   -6028    -5984    -5951    -5916    -5879    -5843    -5810    -5790 
   -5787    -5791    -5804    -5832    -5876    -5932    -5989    -6037 
   -6071    -6096    -6116    -6134    -6156    -6166    -6151    -6114 
   -6057    -5988    -5928    -5872    -5817    -5767    -5715    -5654 
   -5589    -5525    -5466    -5420    -5386    -5352    -5321    -5289 
   -5252    -5213    -5181    -5157    -5140    -5130    -5119    -5093 
   -5050    -4997    -4937    -4874    -4822    -4789    -4764    -4753 
   -4749    -4727    -4693    -4666    -4647    -4641    -4643    -4647 
   -4652    -4663    -4673    -4683    -4688    -4678    -4655    -4635 
   -4629    -4639    -4661    -4687    -4710    -4735    -4767    -4808 
   -4857    -4921    -4999    -5081    -5162    -5239    -5313    -5378 
   -5427    -5459    -5471    -5475    -5490    -5516    -5550    -5600 
   -5651    -5699    -5746    -5778    -5793    -5801    -5798    -5792 
   -5791    -5795    -5809    -5837    -5867    -5893    -5917    -5941 
   -5967    -6007    -6061    -6127    -6195    -6257    -6310    -6358 
   -6399    -6434    -6461    -6474    -6467    -6442    -6410    -6380 
   -6353    -6324    -6292    -6259    -6221    -6187    -6155    -6118 
   -6071    -6020    -5969    -5912    -5863    -5826    -5786    -5740 
   -5687    -5620    -5539    -5447    -5345    -5233    -5129    -5043 
   -4972    -4914    -4864    -4817    -4775    -4738    -4706    -4692 
   -4696    -4710    -4730    -4751    -4764    -4772    -4770    -4758 
   -4738    -4710    -4671    -4629    -4591    -4562    -4562    -4577 
   -4557    -4523    -4526    -4515    -4467    -4429    -4380    -4295 
   -4229    -4196    -4170    -4172    -4206    -4240    -4279    -4329 
   -4386    -4458    -4540    -4623    -4706    -4789    -4869    -4942 
   -5007    -5075    -5147    -5218    -5302    -5409    -5529    -5655 
   -5785    -5916    -6046    -6170    -6274    -6348    -6404    -6454 
   -6500    -6537    -6569    -6606    -6648    -6682    -6695    -6690 
   -6673    -6648    -6623    -6611    -6607    -6611    -6628    -6661 
   -6706    -6754    -6807    -6878    -6970    -7076    -7186    -7285 
   -7361    -7415    -7449    -7467    -7482    -7495    -7507    -7516 
   -7521    -7523    -7521    -7522    -7527    -7532    -7541    -7559 
   -7579    -7602    -7622    -7635    -7652    -7682    -7720    -7766 
   -7813    -7854    -7895    -7932    -7961    -7985    -7996    -7987 
   -7968    -7945    -7916    -7888    -7867    -7852    -7840    -7832 
   -7830    -7834    -7843    -7856    -7877    -7906    -7934    -7952 
   -7956    -7950    -7939    -7925    -7913    -7902    -7889    -7877 
   -7855    -7820    -7783    -7750    -7719    -7687    -7656    -7629 
   -7607    -7577    -7533    -7474    -7395    -7302    -7201    -7094 
   -6986    -6890    -6805    -6723    -6634    -6536    -6434    -6344 
   -6277    -6225    -6176    -6123    -6065    -6013    -5975    -5948 
   -5923    -5900    -5888    -5893    -5916    -5943    -5963    -5979 
   -5986    -5995    -6017    -6041    -6063    -6087    -6105    -6120 
   -6133    -6136    -6134    -6135    -6135    -6135    -6135    -6128 
   -6120    -6122    -6141    -6178    -6216    -6236    -6238    -6240 
   -6261    -6306    -6366    -6422    -6464    -6499    -6532    -6564 
   -6604    -6645    -6684    -6722    -6745    -6747    -6742    -6735 
   -6720    -6693    -6659    -6615    -6559    -6513    -6489    -6475 
   -6463    -6450    -6430    -6401    -6361    -6306    -6247    -6194 
   -6146    -6094    -6041    -5993    -5950    -5916    -5891    -5869 
   -5839    -5788    -5721    -5646    -5568    -5493    -5420    -5347 
   -5278    -5219    -5175    -5149    -5135    -5126    -5120    -5120 
   -5125    -5128    -5132    -5138    -5135    -5124    -5105    -5075 
   -5042    -5015    -4993    -4972    -4948    -4921    -4898    -4880 
   -4869    -4860    -4841    -4804    -4764    -4730    -4698    -4671 
   -4648    -4632    -4625    -4619    -4602    -4569    -4525    -4489 
   -4465    -4437    -4393    -4339    -4276    -4205    -4139    -4079 
   -4020    -3957    -3889    -3821    -3759    -3698    -3634    -3567 
   -3509    -3472    -3453    -3451    -3460    -3466    -3467    -3474 
   -3493    -3533    -3592    -3657    -3720    -3767    -3799    -3827 
   -3856    -3876    -3893    -3913    -3933    -3948    -3956    -3952 
   -3947    -3954    -3972    -4007    -4063    -4128    -4195    -4259 
   -4320    -4377    -4421    -4442    -4450    -4451    -4439    -4424 
   -4411    -4395    -4383    -4379    -4374    -4362    -4350    -4341 
   -4343    -4362    -4385    -4401    -4411    -4419    -4427    -4440 
   -4460    -4488    -4530    -4588    -4665    -4755    -4849    -4940 
   -5026    -5116    -5215    -5323    -5438    -5548    -5643    -5733 
   -5823    -5918    -6032    -6163    -6291    -6400    -6487    -6562 
   -6631    -6701    -6766    -6817    -6849    -6864    -6869    -6877 
   -6892    -6910    -6918    -6906    -6877    -6845    -6821    -6801 
   -6775    -6742    -6702    -6654    -6611    -6580    -6557    -6546 
   -6549    -6560    -6573    -6583    -6580    -6563    -6544    -6527 
   -6509    -6488    -6461    -6430    -6399    -6372    -6354    -6344 
   -6335    -6325    -6318    -6307    -6292    -6280    -6266    -6246 
   -6220    -6185    -6148    -6118    -6094    -6067    -6041    -6023 
   -6019    -6023    -6028    -6026    -6021    -6019    -6015    -6017 
   -6036    -6070    -6107    -6146    -6190    -6242    -6305    -6371 
   -6433    -6499    -6575    -6657    -6737    -6807    -6869    -6932 
   -6988    -7038    -7086    -7125    -7150    -7164    -7174    -7188 
   -7198    -7192    -7171    -7151    -7142    -7141    -7141    -7141 
   -7136    -7126    -7108    -7083    -7053    -7016    -6973    -6929 
   -6892    -6865    -6847    -6839    -6840    -6841    -6841    -6847 
   -6854    -6864    -6883    -6907    -6928    -6938    -6941    -6941 
   -6945    -6949    -6954    -6957    -6953    -6954    -6972    -7006 
   -7046    -7093    -7140    -7180    -7224    -7273    -7317    -7357 
   -7391    -7412    -7421    -7424    -7417    -7405    -7391    -7377 
   -7365    -7352    -7335    -7325    -7329    -7340    -7349    -7356 
   -7359    -7357    -7353    -7343    -7327    -7308    -7281    -7251 
   -7222    -7189    -7150    -7103    -7038    -6965    -6907    -6862 
   -6828    -6806    -6785    -6752    -6707    -6657    -6614    -6586 
   -6570    -6558    -6542    -6521    -6496    -6476    -6471    -6482 
   -6500    -6512    -6513    -6503    -6484    -6462    -6454    -6462 
   -6477    -6495    -6510    -6531    -6567    -6608    -6647    -6699 
   -6769    -6846    -6931    -7019    -7098    -7160    -7203    -7237 
   -7279    -7334    -7396    -7466    -7538    -7607    -7677    -7746 
   -7814    -7884    -7946    -7990    -8014    -8026    -8042    -8062 
   -8085    -8113    -8137    -8154    -8166    -8166    -8147    -8125 
   -8108    -8096    -8091    -8086    -8070    -8040    -8000    -7962 
   -7932    -7905    -7874    -7841    -7804    -7759    -7707    -7651 
   -7597    -7555    -7531    -7525    -7536    -7553    -7570    -7593 
   -7624    -7652    -7675    -7702    -7735    -7775    -7822    -7866 
   -7902    -7934    -7951    -7950    -7934    -7900    -7855    -7817 
   -7787    -7756    -7720    -7668    -7601    -7529    -7452    -7369 
   -7293    -7227    -7170    -7125    -7079    -7028    -6978    -6935 
   -6906    -6884    -6852    -6807    -6755    -6709    -6685    -6675 
   -6666    -6654    -6637    -6616    -6599    -6588    -6582    -6584 
   -6592    -6597    -6601    -6614    -6638    -6668    -6699    -6729 
   -6758    -6790    -6822    -6857    -6899    -6933    -6950    -6961 
   -6973    -6990    -7014    -7030    -7033    -7026    -7010    -6985 
   -6961    -6951    -6958    -6974    -6992    -6999    -6993    -6983 
   -6976    -6970    -6967    -6971    -6978    -6981    -6973    -6956 
   -6928    -6890    -6844    -6798    -6758    -6726    -6699    -6678 
   -6669    -6669    -6664    -6641    -6600    -6549    -6490    -6428 
   -6367    -6310    -6263    -6225    -6193    -6166    -6133    -6097 
   -6061    -6031    -6010    -5996    -5989    -5998    -6031    -6076 
   -6114    -6139    -6154    -6169    -6193    -6229    -6267    -6302 
   -6328    -6342    -6354    -6371    -6394    -6427    -6475    -6528 
   -6577    -6611    -6635    -6663    -6691    -6713    -6729    -6737 
   -6736    -6732    -6731    -6737    -6756    -6776    -6794    -6811 
   -6817    -6805    -6776    -6739    -6704    -6674    -6646    -6618 
   -6588    -6555    -6524    -6492    -6451    -6403    -6351    -6301 
   -6261    -6230    -6201    -6166    -6127    -6085    -6047    -6018 
   -6000    -5994    -5999    -6003    -6002    -5996    -5986    -5976 
   -5966    -5952    -5938    -5930    -5931    -5937    -5953    -5981 
   -6014    -6051    -6099    -6157    -6219    -6274    -6313    -6338 
   -6355    -6377    -6402    -6420    -6430    -6439    -6444    -6441 
   -6437    -6427    -6411    -6399    -6392    -6380    -6360    -6336 
   -6304    -6266    -6232    -6202    -6184    -6186    -6200    -6217 
   -6235    -6252    -6275    -6303    -6333    -6368    -6415    -6466 
   -6510    -6543    -6573    -6600    -6619    -6628    -6628    -6625 
   -6623    -6618    -6604    -6587    -6573    -6560    -6547    -6532 
   -6511    -6482    -6445    -6409    -6385    -6373    -6361    -6338 
   -6297    -6233    -6147    -6046    -5943    -5842    -5744    -5652 
   -5566    -5481    -5400    -5326    -5261    -5210    -5172    -5139 
   -5108    -5073    -5028    -4970    -4899    -4811    -4701    -4578 
   -4459    -4345    -4240    -4151    -4076    -4004    -3930    -3863 
   -3811    -3781    -3773    -3781    -3793    -3805    -3816    -3828 
   -3858    -3913    -3987    -4062    -4123    -4159    -4177    -4183 
   -4187    -4202    -4225    -4250    -4283    -4325    -4370    -4417 
   -4454    -4471    -4477    -4482    -4486    -4490    -4502    -4518 
   -4530    -4534    -4527    -4510    -4485    -4454    -4415    -4362 
   -4297    -4232    -4174    -4126    -4082    -4025    -3948    -3856 
   -3759    -3662    -3564    -3468    -3378    -3289    -3197    -3101 
   -2995    -2885    -2779    -2682    -2601    -2529    -2458    -2388 
   -2325    -2277    -2248    -2233    -2225    -2224    -2227    -2238 
   -2254    -2272    -2291    -2309    -2329    -2365    -2431    -2522 
   -2632    -2750    -2858    -2951    -3037    -3121    -3197    -3268 
   -3334    -3393    -3446    -3499    -3557    -3628    -3705    -3777 
   -3835    -3877    -3899    -3901    -3885    -3863    -3849    -3841 
   -3835    -3838    -3846    -3851    -3856    -3859    -3869    -3897 
   -3936    -3965    -3983    -3996    -3999    -4001    -4013    -4037 
   -4071    -4108    -4148    -4188    -4224    -4261    -4304    -4357 
   -4425    -4504    -4580    -4649    -4709    -4765    -4829    -4906 
   -4993    -5085    -5181    -5280    -5382    -5491    -5600    -5695 
   -5780    -5871    -5975    -6085    -6187    -6267    -6326    -6373 
   -6414    -6454    -6493    -6530    -6565    -6593    -6606    -6608 
   -6598    -6584    -6579    -6592    -6619    -6646    -6662    -6668 
   -6666    -6649    -6625    -6608    -6598    -6586    -6573    -6567 
   -6575    -6591    -6609    -6640    -6689    -6746    -6808    -6871 
   -6931    -6993    -7057    -7119    -7187    -7268    -7351    -7429 
   -7506    -7590    -7679    -7763    -7844    -7937    -8044    -8154 
   -8256    -8348    -8431    -8509    -8575    -8631    -8690    -8748 
   -8793    -8826    -8850    -8866    -8871    -8866    -8853    -8830 
   -8793    -8740    -8675    -8608    -8545    -8489    -8437    -8389 
   -8330    -8243    -8135    -8031    -7939    -7847    -7751    -7661 
   -7582    -7515    -7456    -7388    -7308    -7232    -7164    -7113 
   -7085    -7060    -7010    -6950    -6907    -6878    -6860    -6857 
   -6864    -6882    -6913    -6939    -6956    -6981    -7021    -7061 
   -7086    -7099    -7106    -7110    -7110    -7102    -7080    -7050 
   -7025    -7012    -7015    -7024    -7024    -7007    -6986    -6969 
   -6949    -6926    -6910    -6893    -6873    -6855    -6828    -6787 
   -6739    -6679    -6604    -6525    -6452    -6376    -6303    -6242 
   -6185    -6124    -6060    -5996    -5942    -5908    -5893    -5891 
   -5900    -5910    -5915    -5912    -5905    -5903    -5908    -5915 
   -5923    -5930    -5938    -5948    -5950    -5938    -5917    -5894 
   -5873    -5859    -5856    -5856    -5858    -5864    -5871    -5875 
   -5872    -5852    -5815    -5769    -5724    -5687    -5658    -5635 
   -5614    -5591    -5571    -5561    -5557    -5559    -5560    -5552 
   -5536    -5514    -5492    -5470    -5443    -5417    -5402    -5397 
   -5405    -5432    -5472    -5516    -5560    -5605    -5651    -5699 
   -5749    -5806    -5875    -5952    -6035    -6115    -6190    -6274 
   -6372    -6469    -6556    -6625    -6672    -6709    -6739    -6758 
   -6770    -6779    -6781    -6782    -6784    -6780    -6766    -6742 
   -6710    -6674    -6638    -6604    -6570    -6532    -6486    -6434 
   -6374    -6308    -6240    -6170    -6096    -6014    -5927    -5834 
   -5740    -5657    -5583    -5512    -5446    -5385    -5327    -5275 
   -5237    -5213    -5199    -5193    -5188    -5178    -5161    -5147 
   -5140    -5139    -5143    -5147    -5148    -5144    -5136    -5130 
   -5134    -5147    -5168    -5196    -5222    -5243    -5257    -5258 
   -5252    -5250    -5261    -5284    -5310    -5330    -5338    -5328 
   -5305    -5279    -5247    -5206    -5163    -5122    -5087    -5065 
   -5055    -5051    -5049    -5046    -5035    -5006    -4960    -4909 
   -4858    -4810    -4772    -4742    -4709    -4663    -4608    -4547 
   -4484    -4438    -4409    -4378    -4340    -4295    -4249    -4218 
   -4208    -4211    -4218    -4225    -4231    -4238    -4252    -4263 
   -4263    -4257    -4245    -4227    -4213    -4213    -4228    -4254 
   -4282    -4313    -4351    -4396    -4444    -4487    -4519    -4540 
   -4554    -4566    -4583    -4612    -4642    -4660    -4674    -4689 
   -4701    -4709    -4710    -4700    -4680    -4651    -4618    -4591 
   -4578    -4586    -4614    -4650    -4682    -4709    -4733    -4748 
   -4754    -4753    -4745    -4738    -4739    -4742    -4741    -4729 
   -4711    -4694    -4678    -4661    -4657    -4671    -4689    -4701 
   -4703    -4689    -4666    -4639    -4619    -4621    -4645    -4677 
   -4712    -4746    -4771    -4783    -4787    -4794    -4817    -4854 
   -4892    -4926    -4956    -4982    -5010    -5036    -5058    -5073 
   -5080    -5085    -5093    -5105    -5123    -5145    -5163    -5172 
   -5178    -5189    -5203    -5213    -5219    -5221    -5211    -5185 
   -5149    -5117    -5095    -5075    -5047    -5011    -4964    -4908 
   -4855    -4816    -4795    -4788    -4784    -4771    -4745    -4713 
   -4691    -4674    -4658    -4644    -4633    -4617    -4602    -4597 
   -4604    -4623    -4655    -4690    -4725    -4764    -4806    -4857 
   -4918    -4978    -5035    -5090    -5140    -5193    -5263    -5352 
   -5448    -5538    -5613    -5678    -5747    -5825    -5910    -5997 
   -6085    -6176    -6273    -6372    -6469    -6562    -6644    -6716 
   -6784    -6850    -6915    -6979    -7049    -7125    -7200    -7266 
   -7319    -7353    -7367    -7374    -7384    -7402    -7427    -7456 
   -7480    -7494    -7490    -7467    -7433    -7391    -7341    -7286 
   -7231    -7182    -7135    -7092    -7055    -7022    -6988    -6953 
   -6913    -6866    -6824    -6794    -6772    -6755    -6736    -6708 
   -6680    -6659    -6649    -6649    -6643    -6624    -6607    -6611 
   -6635    -6666    -6693    -6710    -6715    -6712    -6701    -6687 
   -6680    -6673    -6664    -6661    -6658    -6649    -6635    -6612 
   -6576    -6533    -6485    -6434    -6382    -6332    -6279    -6227 
   -6171    -6111    -6055    -6005    -5959    -5914    -5869    -5824 
   -5787    -5760    -5743    -5734    -5729    -5728    -5729    -5740 
