Origin Time       2011/03/11 14:46:00
Lat.              38.103
Long.             142.860
Depth. (km)       24
Mag.              9.0
Station Code      HKD100
Station Lat.      42.2864
Station Long.     143.3120
Station Height(m) 36
Record Time       2011/03/11 14:48:40
Sampling Freq(Hz) 100Hz
Duration Time(s)  89
Dir.              N-S
Scale Factor      3920(gal)/6182761
Max. Acc. (gal)   18.202
Last Correction   2011/03/11 14:48:25
Memo.             
[...]
    6001     5566     4981     4472     4208     4228     4498     4932 
    5425     5855     6258     6854     7531     7849     7804     7667 
    7380     6905     6454     5944     4960     3476     2007     1088 
    1158     2107     3042     3504     3895     4587     5734     7360 
    9107    10405    11026    11174    11129    11075    10925    10378 
    9413     8357     7560     7014     6260     5007     3562     2449 
    1954     1842     1650     1399     1548     2342     3659     5168 
    6480     7421     8022     8368     8694     9039     9070     8781 
    8623     8886     9253     8942     7642     5894     4508     4129 
    4762     5689     6331     6669     6937     7265     7401     6917 
    5742     4324     3324     3036     3133     3123     2852     2385 
    1845     1602     1954     2728     3723     4860     5811     6332 
    6501     6408     6255     6333     6571     6696     6614     6391 
    6111     5772     5365     4856     4257     3913     4109     4589 
    5043     5394     5604     5862     6380     6891     7003     6751 
    6382     5969     5607     5544     5741     5772     5363     4721 
    4318     4521     5376     6520     7388     7735     7730     7539 
    7259     7002     6845     6898     7087     7107     6754     5989 
    5047     4310     3811     3340     2801     2364     2449     3120 
    3940     4807     6006     7438     8530     8776     8260     7605 
    7256     7124     6833     6029     4661     3054     1699     1041 
    1163     1870     3156     4943     6766     8255     9326    10039 
   10492    10499     9745     8475     7384     6747     6149     5164 
    4010     3411     3755     4526     4887     4650     4257     4175 
    4511     4947     5117     5106     5409     6238     7254     8088 
    8533     8685     9004     9546     9858     9700     9245     8796 
    8319     7482     6407     5610     5286     5286     5279     4977 
    4591     4488     4746     5407     6406     7361     7961     8189 
    8098     7813     7455     6932     6122     5094     4072     3441 
    3353     3449     3585     4176     5492     7138     8230     8172 
    7240     6235     5695     5401     4802     3930     3257     3069 
    3429     4181     4996     5662     6261     7002     7809     8329 
    8357     7944     7210     6289     5475     5022     4850     4824 
    4940     5275     5964     6750     6983     6379     5220     4044 
    3288     2954     2956     3356     3995     4603     5049     5292 
    5357     5199     4778     4253     3984     4437     5723     7280 
    8362     8811     9161     9784    10270     9766     7843     5260 
    3449     3061     3410     3461     3167     3296     4188     5316 
    5838     5499     4966     5107     6085     7229     7821     7844 
    7726     7647     7551     7455     7384     7242     6756     5590 
    3939     2647     2311     2816     3704     4475     5051     5834 
    6949     8116     9059     9626     9976    10256    10124     9273 
    7965     6668     5643     4918     4400     4078     4143     4740 
    5605     6248     6450     6394     6436     6672     6793     6592 
    6178     5662     5150     4892     5069     5548     6018     6281 
    6298     6221     6263     6396     6645     7351     8519     9519 
    9863     9700     9311     8618     7512     6147     4788     3790 
    3373     3340     3524     4144     5377     6906     8083     8405 
    7905     7132     6463     5696     4726     3939     3602     3683 
    4167     4939     5868     6967     8065     8808     9086     9131 
    9178     9196     9110     9066     9162     9148     8593     7216 
    5204     3297     2308     2358     2720     2660     2297     2235 
    2699     3523     4551     5648     6735     7721     8210     7913 
    7169     6534     6228     6104     5905     5663     5695     6106 
    6565     6631     6305     6099     6306     6524     6040     4656 
    3128     2445     2815     3690     4421     4764     5016     5702 
    6927     8000     8153     7473     6650     6303     6639     7135 
    6922     5941     5098     5046     5698     6717     7853     9102 
   10289    10837    10522     9631     8562     7687     6975     6114 
    5306     5143     5646     6051     5684     4767     3960     3515 
    3397     3602     4171     5280     6967     8782     9997    10006 
    8779     7026     5538     4533     3737     2860     2004     1617 
    2095     3493     5500     7561     9103     9790     9690     9264 
    8909     8506     7886     7298     6999     6976     7084     7037 
    6577     5782     4944     4287     3969     3893     3701     3366 
    3235     3491     4139     5236     6854     8808    10555    11459 
   11085     9530     7494     5677     4105     2418      731     -310 
    -230      931     2727     4638     6432     8028     9200     9700 
    9503     8919     8407     8041     7597     6979     6089     4864 
    3594     2709     2545     3317     4773     6304     7497     8173 
    8296     7993     7427     6788     6439     6793     7731     8527 
    8724     8514     8296     8327     8346     7753     6627     5808 
    5645     5572     5024     4052     3173     3024     3784     4730 
    5002     4737     4649     4941     5257     5156     4578     4173 
    4715     6105     7498     8288     8386     7992     7410     6655 
    5595     4553     3958     3693     3467     3409     3927     5120 
    6435     7088     6846     6261     6039     6077     5735     4980 
    4302     4206     5140     6943     8759     9936    10505    10816 
   11113    11255    10701     9196     7300     5689     4425     3321 
    2370     1715     1903     3493     5869     7728     8502     8382 
    7836     7382     7172     7061     7204     7953     9156    10023 
    9711     8212     6357     4645     2891     1053     -390     -833 
     -81     1433     3148     5023     7176     9171    10330    10477 
   10052     9571     9142     8597     7616     6041     4452     3499 
    3064     2814     2366     1381      414      440     1668     3690 
    5951     7909     9316    10196    10617    10630    10218     9317 
    7969     6394     4962     4036     3629     3403     3212     3225 
    3514     4094     4945     5784     6227     6106     5887     6203 
    6771     7066     7043     6512     5452     4393     3669     3347 
    3593     4293     5061     5896     6957     7970     8587     8721 
    8576     8551     8783     9040     8945     8281     7315     6433 
    5705     5064     4429     3819     3552     3945     4780     5412 
    5491     5356     5576     6365     7406     8114     8206     7840 
    7207     6423     5711     5196     4736     4209     3788     3814 
    4300     4873     5278     5553     5885     6294     6469     6178 
    5634     5255     5138     5023     4816     4813     5385     6420 
    7196     7260     7069     7383     8414     9642    10329    10347 
   10310    10619    10857    10365     8955     7121     5745     5316 
    5407     5097     4183     3518     3752     4680     5807     6721 
    7363     7926     8365     8480     8255     7876     7420     6552 
    4953     2846      782     -752    -1363     -789      880     3206 
    5814     8415    10569    12167    13472    14499    15097    15148 
   14508    13178    11464     9855     8570     7437     6337     5507 
    5273     5766     7012     8727    10312    11316    11330    10154 
    7938     4867     1489    -1288    -2903    -3347    -2989    -2121 
    -629     1696     4748     7816    10012    11233    11982    12480 
   12644    12422    11685    10441     9156     8158     7325     6662 
    6255     5949     5702     5659     5619     5074     4051     3341 
    3420     4025     4950     6175     7546     8804     9687    10139 
   10083     9291     7920     6400     4933     3644     2803     2715 
    3313     3964     3987     3344     2723     2832     3610     4454 
    4959     5176     5535     6395     7381     7713     7372     7176 
    7601     8331     8790     8612     7960     7502     7626     7917 
    7875     7465     6819     6176     5751     5513     5444     5483 
    5511     5529     5390     5067     4846     4949     5546     6531 
    7541     8399     8922     8966     8625     7963     7055     6088 
    5222     4637     4763     5941     7679     9179    10331    11419 
   12578    13554    13808    13173    11999    10704     9560     8550 
    7464     6060     4224     2419     1207      519      276      738 
    1871     3197     4271     5023     5652     6518     7688     8498 
    8538     8348     8299     7773     5904     2869       56    -1293 
   -1016      223     1642     3228     5545     8322    10519    11480 
   10953     9175     6992     5100     3957     3939     5019     6970 
    9342    11424    12915    14046    14942    15198    14311    12375 
   10068     8221     6948     5366     3058      952       28       79 
     244      319      828     2293     4809     7692    10009    11603 
   12658    12906    12047    10195     7655     4816     2037     -614 
   -2990    -4371    -4017    -2228     -201     1342     2626     4113 
    6148     8722    11316    13454    15011    15839    15697    14406 
   11984     8792     5421     2464      481     -210      190     1242 
    2725     4530     6456     8350    10072    11378    12258    13025 
   13730    14052    13774    12752    10764     8029     5340     3300 
    2156     2065     2602     2733     2026     1155      942     1470 
    2171     2658     3229     4294     5665     6779     7639     8801 
   10228    11422    12260    12832    13240    13380    12646    10552 
    7425     4159     1453     -514    -1544    -1273      260     2790 
    6086     9443    11879    12959    12954    12587    12454    12425 
   12057    11272    10143     8656     6970     5249     3298      878 
   -1879    -4530    -6448    -7135    -6592    -5037    -2397     1360 
    5705     9830    13101    15165    15848    15120    13228    10784 
    8715     7777     7744     7900     8295     9257    10431    11377 
   12031    12050    10787     8203     5084     2402      628     -507 
   -1402    -2106    -2367    -1529      877     4387     7988    10605 
   11618    11387    10744    10310    10197    10026     9599     9117 
    8682     8124     6956     4825     2319      416     -769    -1721 
   -2521    -2947    -2727    -1351     1436     5100     8748    11832 
   14121    15251    14776    12671     9608     6463     3676     1370 
    -436    -1651    -1897    -1287     -745     -760    -1078    -1371 
   -1248     -449      874     2751     5431     8398    10500    11323 
   11352    11002    10360     9327     7702     5670     3912     2844 
    2254     1882     1819     2244     3279     4961     6943     8606 
    9465     9290     8065     6103     3999     2114      676      122 
     452     1387     2960     4832     6452     7857     9030     9589 
    9628     9753    10409    11371    11628    10353     7885     5441 
    4032     3327     2139      115    -2004    -3153    -2755    -1386 
    -136      618     1305     2484     4417     6928     9374    11344 
   13106    15003    16853    17773    16754    13660     9155     4153 
    -447    -4059    -6435    -7463    -7170    -5673    -2923      845 
    4404     6357     6576     6215     6640     8356    10674    12346 
   12705    12221    11640    10982     9765     7836     5691     4120 
    3759     4618     5931     6891     7152     6799     6535     7345 
    9296    10965    10694     8294     5116     2815     2066     2177 
    1939      849     -539    -1351    -1247     -540      332     1288 
    2413     3697     5179     6724     8014     8975     9715    10433 
   11176    11620    11716    11773    12203    13555    15735    17946 
   19373    19319    17905    15989    13906    11378     8193     4747 
    2068      727       86     -764    -1758    -2196    -1832     -965 
      79     1500     3966     7355    10416    12190    12681    12529 
   12459    12245    10975     8733     6618     5193     3981     2336 
     298    -1508    -2562    -2785    -2198     -786     1224     3446 
    5454     6729     7171     7451     8458    10516    12891    14543 
   15350    15725    16250    17404    18338    17892    16017    12682 
    7950     2840    -1546    -4667    -6468    -7175    -6867    -5612 
   -3804    -1787      309     1936     2245     1162     -371    -1121 
    -479     1113     2995     5035     7277     9552    11163    11098 
    9226     6597     4434     3350     3051     2837     2693     3093 
    4153     5685     7179     8059     8433     8832     9351     9474 
    8821     7699     6585     5861     5844     6355     6882     7150 
    7131     6564     4958     2953     2263     3656     6574     9795 
   11998    12910    13191    13018    11563     7841     2129    -3604 
   -7165    -7902    -6925    -5734    -4827    -3808    -2263      -49 
    2625     5250     7647    10195    12952    14945    14879    12486 
    8604     4132     -339    -4285    -7041    -7792    -5939    -1635 
    3895     9253    14165    18943    23147    25588    25475    23007 
   18689    12962     6631      384    -5954   -12485   -18146   -21625 
  -22731   -22009   -19764   -16129   -11259    -5160     2028     9753 
   17517    24996    31272    34683    34076    29687    22138    12247 
    1972    -6882   -13578   -17217   -17146   -13597    -6933     1960 
   11205    19137    24962    28076    28343    26358    22358    16447 
    9672     3392    -1638    -5090    -6691    -6531    -5325    -3516 
   -1114     1285     3278     5370     7548     9273    10506    11290 
   11405    10768     9798     8618     6391     3169      271    -1802 
   -3354    -4945    -7154    -9090    -8983    -6471    -2450     2485 
    8232    14159    19163    23003    26219    28648    29122    26669 
   21575    15183     8691     2256    -4352   -10351   -13816   -12948 
   -7606      425     8675    15052    18833    20780    20957    18325 
   12813     5534    -1422    -5346    -5207    -2338     1316     4469 
    6624     7413     6389     3758      493    -2295    -4148    -5312 
   -5788    -4905    -1612     4490    11768    17586    20876    22354 
   22662    21237    17101    10467     2977    -3244    -6567    -6882 
   -5350    -3305    -1821    -1105     -827     -953     -941      -25 
    1657     4041     7092     9719    11097    11810    12904    14801 
   16819    17812    17298    15352    12154     8036     3412    -1123 
   -4766    -7073    -8161    -8167    -6874    -4158     -547     3155 
    6278     8090     8327     7834     7490     6772     4542      967 
   -2448    -4379    -4587    -3786    -2751    -1616      -92     2152 
    5146     8265    10683    12348    13834    15379    16583    16746 
   15680    14404    14486    16323    18546    19620    19185    17459 
   14790    11867     9117     6470     3855     1129    -1305    -2115 
    -774     1523     3303     4202     4905     6228     8148     9259 
    7898     4307      671     -900      100     2502     4474     4973 
    4526     4400     5145     6325     7224     7275     6398     5234 
    4497     4307     4184     3019      129    -3357    -5499    -5354 
   -3208     -126     2738     4957     6914     9206    11956    14315 
   14884    13110     9604     4912     -964    -7768   -14292   -18767 
  -19996   -18025   -13920    -8707    -2722     3574     9312    14052 
   17654    19842    21400    24138    28269    32096    33854    32375 
   27614    20782    13211     5392    -2679   -10384   -16546   -20199 
  -20679   -18086   -13406    -7566    -1274     4703    10088    14952 
   19053    21967    23122    22186    19763    16776    13659    10262 
    6221     2045     -912    -1934    -1508     -592      328     1523 
    3739     7579    12515    16846    19098    19215    18361    17509 
   16449    14359    10812     6182     1443    -2324    -4412    -4785 
   -3629    -1175     1609     3549     4655     5994     8085     9879 
    9877     8002     6153     6591     9220    11479    11196     8565 
    5473     3115      769    -2615    -6717   -10014   -10719    -7797 
   -1786     5242    10862    14071    15557    16108    16010    15340 
   14008    12208    10187     7996     5892     3659      788    -2466 
   -5117    -5565    -3061     1089     5451     9534    13191    16488 
   18961    19512    17462    13013     7314     1935    -2018    -3912 
   -3691    -1986      869     4857     9025    12050    13773    14626 
   14537    13704    13212    13893    15348    16240    15223    12054 
    7883     3980      607    -2501    -5224    -7126    -7793    -6575 
   -2930     2499     8167    12766    15612    16778    16845    16284 
   15378    14241    12792    10844     8314     5605     3405     2048 
    1356     1044      924      498     -837    -2950    -4669    -4711 
   -3178     -930     1708     4303     6550     8863    11165    12997 
   14536    15800    16187    15086    12346     8826     5760     3368 
    1136    -1216    -3579    -5384    -6086    -6051    -6153    -6938 
   -8079    -8275    -6914    -4478     -988     3523     8389    13084 
   16865    18982    19784    19954    19467    18021    15749    13510 
   11971    10695     8838     6039     2615     -551    -2557    -3204 
   -2905    -1715      825     4752     9355    13503    16110    16682 
   15288    12039     7014     1172    -3234    -4260    -2063     1333 
    3844     5106     6400     8544    10599    11171    10119     8709 
    8474     9711    11232    11901    11763    11627    12085    12570 
   11888     9678     6440     3175      897     -483    -2005    -4493 
   -7805   -11067   -13448   -14502   -14082   -11794    -6984      276 
    8913    17155    23442    27516    29662    29869    28110    24322 
   18627    11705     4669    -1300    -5675    -8741   -11003   -12729 
  -13521   -12361    -8731    -3502     1649     5630     8839    12503 
   16871    20680    22532    21933    19214    15632    12638    10143 
    6710     1552    -4427    -9353   -12041   -12668   -11821    -9743 
   -6097     -403     6635    13451    18836    21766    22101    21013 
   19192    16349    12160     6763     1271    -2809    -4457    -3402 
    -816     1323     2327     3000     4216     6479     9991    14177 
   17816    20111    21244    21838    21851    20492    17533    13695 
    9660     5741     2091    -1324    -4293    -5954    -5455    -2834 
     924     4375     6555     7509     7595     7227     7166     7538 
    7253     5609     3154      590    -1662    -3125    -3399    -2353 
     -39     3148     6489     9736    13139    16616    19377    20142 
   18124    13785     8821     5220     3004      492    -2711    -5366 
   -6066    -3969      322     4908     8008     9104     9120     9384 
   10491    11950    12562    11726    10251     9554    10370    12001 
   13090    12997    11840    10056     8021     5707     2986     -124 
   -3278    -5548    -5916    -4220    -1336     1397     2950     3437 
    3962     5241     7158     9124    10206     9987     9047     8234 
