Origin Time       2011/03/11 14:46:00
Lat.              38.103
Long.             142.860
Depth. (km)       24
Mag.              9.0
Station Code      HKD117
Station Lat.      43.7241
Station Long.     142.0527
Station Height(m) 51
Record Time       2011/03/11 14:48:52
Sampling Freq(Hz) 100Hz
Duration Time(s)  300
Dir.              E-W
Scale Factor      3920(gal)/6182761
Max. Acc. (gal)   10.887
Last Correction   2011/03/11 14:48:37
Memo.             
[...]
  -15645   -15630   -15593   -15534   -15459   -15378   -15286   -15175 
  -15061   -14948   -14807   -14618   -14407   -14205   -14028   -13890 
  -13809   -13794   -13861   -14018   -14242   -14524   -14879   -15304 
  -15775   -16276   -16807   -17352   -17870   -18340   -18747   -19070 
  -19313   -19483   -19580   -19587   -19494   -19346   -19197   -19052 
  -18908   -18769   -18616   -18433   -18239   -18064   -17926   -17830 
  -17756   -17687   -17632   -17592   -17560   -17546   -17545   -17529 
  -17484   -17433   -17410   -17440   -17518   -17630   -17756   -17880 
  -17996   -18099   -18194   -18303   -18431   -18562   -18701   -18857 
  -19018   -19190   -19392   -19636   -19901   -20158   -20392   -20592 
  -20750   -20880   -20987   -21054   -21080   -21069   -21019   -20942 
  -20865   -20806   -20767   -20743   -20737   -20755   -20777   -20776 
  -20743   -20684   -20595   -20478   -20340   -20185   -20016   -19823 
  -19595   -19339   -19050   -18714   -18353   -17984   -17596   -17206 
  -16837   -16470   -16088   -15681   -15239   -14773   -14314   -13896 
  -13543   -13235   -12980   -12814   -12736   -12734   -12801   -12904 
  -13020   -13128   -13201   -13229   -13195   -13086   -12933   -12751 
  -12513   -12218   -11918   -11642   -11365   -11075   -10772   -10441 
  -10143    -9977    -9861    -9684    -9531    -9468    -9420    -9355 
   -9298    -9265    -9254    -9229    -9210    -9236    -9245    -9228 
   -9263    -9364    -9495    -9629    -9749    -9848    -9925   -10023 
  -10181   -10380   -10590   -10797   -11004   -11230   -11473   -11727 
  -11991   -12259   -12522   -12751   -12909   -13012   -13090   -13133 
  -13107   -12988   -12777   -12491   -12128   -11706   -11280   -10884 
  -10522   -10212    -9946    -9671    -9369    -9062    -8767    -8480 
   -8205    -7940    -7672    -7410    -7196    -7031    -6890    -6774 
   -6684    -6608    -6548    -6531    -6576    -6667    -6774    -6878 
   -6936    -6903    -6795    -6645    -6475    -6316    -6179    -6093 
   -6098    -6120    -6143    -6302    -6565    -6800    -6972    -7096 
   -7267    -7516    -7710    -7790    -7874    -7991    -8006    -7952 
   -7971    -8008    -7999    -8028    -8159    -8332    -8466    -8592 
   -8762    -8938    -9076    -9205    -9353    -9510    -9655    -9752 
   -9805    -9880    -9999   -10136   -10274   -10355   -10330   -10240 
  -10097    -9892    -9705    -9560    -9383    -9147    -8942    -8832 
   -8748    -8645    -8536    -8414    -8340    -8347    -8359    -8342 
   -8291    -8175    -8026    -7851    -7602    -7304    -6982    -6620 
   -6252    -5892    -5528    -5224    -4994    -4789    -4596    -4424 
   -4249    -4051    -3851    -3687    -3572    -3513    -3527    -3606 
   -3707    -3813    -3932    -4046    -4135    -4211    -4274    -4321 
   -4378    -4464    -4590    -4770    -4989    -5224    -5476    -5748 
   -6033    -6334    -6649    -6979    -7332    -7697    -8067    -8453 
   -8840    -9207    -9576    -9958   -10320   -10624   -10859   -11029 
  -11142   -11205   -11229   -11222   -11171   -11053   -10875   -10673 
  -10481   -10330   -10241   -10193   -10154   -10128   -10127   -10149 
  -10222   -10373   -10587   -10847   -11141   -11443   -11728   -11983 
  -12222   -12466   -12709   -12956   -13222   -13493   -13754   -14021 
  -14277   -14490   -14682   -14863   -15016   -15153   -15294   -15446 
  -15621   -15822   -16037   -16253   -16466   -16668   -16850   -16998 
  -17101   -17149   -17127   -17039   -16897   -16706   -16481   -16236 
  -15964   -15657   -15318   -14964   -14627   -14317   -14025   -13734 
  -13433   -13149   -12894   -12636   -12363   -12077   -11776   -11464 
  -11114   -10697   -10231    -9751    -9294    -8876    -8469    -8050 
   -7644    -7284    -6986    -6748    -6569    -6435    -6309    -6171 
   -6031    -5881    -5726    -5615    -5541    -5458    -5386    -5383 
   -5445    -5499    -5495    -5452    -5403    -5330    -5169    -4931 
   -4724    -4591    -4434    -4219    -4053    -3995    -4009    -4102 
   -4302    -4567    -4875    -5228    -5536    -5778    -6092    -6510 
   -6881    -7209    -7654    -8201    -8661    -8982    -9296    -9673 
  -10017   -10236   -10412   -10701   -11058   -11315   -11524   -11857 
  -12276   -12663   -13020   -13361   -13716   -14142   -14557   -14855 
  -15100   -15325   -15410   -15363   -15330   -15302   -15158   -14961 
  -14864   -14836   -14788   -14766   -14812   -14872   -14901   -14889 
  -14884   -14952   -14990   -14889   -14762   -14665   -14479   -14193 
  -13913   -13678   -13446   -13214   -13049   -12954   -12854   -12730 
  -12623   -12556   -12506   -12451   -12397   -12335   -12229   -12073 
  -11906   -11743   -11582   -11444   -11358   -11329   -11363   -11487 
  -11692   -11920   -12111   -12244   -12326   -12364   -12360   -12320 
  -12254   -12156   -12014   -11866   -11745   -11651   -11589   -11574 
  -11589   -11598   -11589   -11588   -11648   -11807   -12038   -12309 
  -12617   -12933   -13264   -13652   -14069   -14504   -14989   -15501 
  -16008   -16569   -17230   -17837   -18260   -18619   -18976   -19279 
  -19632   -20059   -20408   -20713   -21064   -21392   -21701   -21999 
  -22232   -22483   -22794   -23055   -23229   -23347   -23411   -23412 
  -23362   -23295   -23205   -23058   -22840   -22576   -22309   -22049 
  -21781   -21505   -21247   -21028   -20855   -20758   -20757   -20825 
  -20944   -21099   -21242   -21317   -21301   -21208   -21064   -20868 
  -20619   -20332   -20024   -19696   -19332   -18942   -18578   -18261 
  -17949   -17610   -17263   -16942   -16680   -16496   -16377   -16290 
  -16205   -16106   -15979   -15828   -15666   -15495   -15315   -15115 
  -14889   -14663   -14459   -14261   -14036   -13782   -13527   -13281 
  -13025   -12772   -12547   -12358   -12205   -12068   -11937   -11845 
  -11825   -11878   -11977   -12082   -12171   -12242   -12282   -12302 
  -12326   -12342   -12320   -12277   -12252   -12266   -12319   -12385 
  -12434   -12485   -12562   -12657   -12751   -12821   -12842   -12838 
  -12845   -12831   -12742   -12579   -12369   -12135   -11889   -11632 
  -11359   -11065   -10758   -10467   -10211    -9989    -9773    -9532 
   -9285    -9065    -8876    -8698    -8510    -8299    -8075    -7857 
   -7639    -7410    -7165    -6906    -6660    -6440    -6216    -5990 
   -5779    -5578    -5390    -5251    -5180    -5164    -5183    -5234 
   -5319    -5422    -5519    -5607    -5676    -5702    -5707    -5742 
   -5831    -5953    -6071    -6161    -6222    -6258    -6287    -6346 
   -6460    -6622    -6814    -7023    -7225    -7408    -7595    -7786 
   -7954    -8099    -8217    -8299    -8361    -8408    -8416    -8381 
   -8319    -8238    -8137    -8025    -7931    -7878    -7845    -7797 
   -7722    -7605    -7445    -7281    -7134    -6984    -6841    -6712 
   -6575    -6434    -6311    -6201    -6075    -5938    -5845    -5801 
   -5718    -5538    -5276    -4991    -4756    -4528    -4156    -3659 
   -3179    -2693    -2113    -1519    -1064     -783     -578     -352 
    -114      120      358      516      536      510      536      631 
     764      851      777      622      568      522      331      132 
      33      -93     -294     -484     -662     -866     -995     -980 
   -1003    -1226    -1500    -1663    -1818    -2093    -2393    -2587 
   -2764    -3065    -3451    -3823    -4140    -4438    -4733    -4941 
   -5017    -5019    -4994    -4957    -4950    -4985    -5029    -5098 
   -5244    -5424    -5556    -5715    -5997    -6338    -6664    -7003 
   -7379    -7792    -8215    -8615    -9000    -9365    -9635    -9795 
   -9924   -10054   -10150   -10184   -10182   -10209   -10300   -10423 
  -10553   -10692   -10833   -10975   -11147   -11345   -11540   -11761 
  -12026   -12286   -12526   -12788   -13083   -13391   -13694   -13961 
  -14149   -14249   -14305   -14340   -14345   -14331   -14304   -14253 
  -14187   -14122   -14094   -14152   -14260   -14361   -14471   -14597 
  -14722   -14858   -14995   -15101   -15159   -15164   -15119   -15021 
  -14857   -14653   -14465   -14312   -14175   -14061   -13980   -13904 
  -13804   -13687   -13562   -13441   -13331   -13218   -13081   -12935 
  -12837   -12819   -12865   -12956   -13081   -13229   -13367   -13471 
  -13564   -13662   -13752   -13842   -13931   -14016   -14115   -14220 
  -14319   -14435   -14595   -14816   -15085   -15373   -15664   -15953 
  -16226   -16461   -16657   -16832   -16986   -17095   -17143   -17129 
  -17073   -17001   -16913   -16810   -16731   -16724   -16782   -16856 
  -16927   -17002   -17077   -17139   -17157   -17112   -17018   -16898 
  -16775   -16625   -16424   -16239   -16089   -15886   -15605   -15285 
  -14960   -14675   -14436   -14204   -13984   -13826   -13697   -13551 
  -13441   -13417   -13430   -13418   -13373   -13311   -13260   -13228 
  -13179   -13072   -12912   -12736   -12536   -12238   -11824   -11363 
  -10915   -10453    -9931    -9400    -8947    -8558    -8195    -7891 
   -7695    -7587    -7476    -7349    -7316    -7459    -7702    -7905 
   -8085    -8349    -8687    -9007    -9282    -9574    -9901   -10239 
  -10609   -11015   -11428   -11852   -12306   -12781   -13256   -13735 
  -14220   -14674   -15066   -15407   -15693   -15889   -16026   -16185 
  -16351   -16424   -16401   -16344   -16261   -16134   -15974   -15840 
  -15793   -15806   -15833   -15896   -16015   -16125   -16144   -16099 
  -16048   -15976   -15854   -15692   -15517   -15369   -15288   -15247 
  -15170   -15014   -14808   -14581   -14290   -13911   -13502   -13132 
  -12799   -12426   -11986   -11563   -11183   -10797   -10420   -10094 
   -9823    -9565    -9300    -9065    -8904    -8810    -8744    -8676 
   -8600    -8537    -8499    -8456    -8409    -8388    -8362    -8281 
   -8123    -7906    -7677    -7430    -7123    -6752    -6336    -5910 
   -5535    -5215    -4893    -4616    -4495    -4527    -4645    -4783 
   -4912    -5056    -5199    -5297    -5358    -5415    -5465    -5467 
   -5458    -5517    -5666    -5839    -5912    -5931    -6129    -6529 
   -6904    -7194    -7574    -8075    -8474    -8747    -9149    -9673 
  -10092   -10431   -10822   -11218   -11574   -11912   -12229   -12532 
  -12796   -12998   -13198   -13416   -13618   -13779   -13861   -13845 
  -13748   -13657   -13636   -13581   -13426   -13303   -13261   -13202 
  -13114   -13045   -12959   -12810   -12638   -12476   -12296   -12086 
  -11865   -11633   -11400   -11205   -11042   -10858   -10685   -10587 
  -10535   -10485   -10449   -10444   -10445   -10362   -10169    -9916 
   -9645    -9426    -9299    -9217    -9161    -9160    -9208    -9274 
   -9370    -9528    -9717    -9879   -10029   -10178   -10305   -10450 
  -10653   -10864   -11040   -11189   -11335   -11474   -11593   -11702 
  -11812   -11931   -12070   -12232   -12428   -12653   -12883   -13137 
  -13443   -13779   -14131   -14501   -14848   -15139   -15392   -15605 
  -15745   -15820   -15845   -15792   -15651   -15444   -15214   -15001 
  -14808   -14632   -14482   -14351   -14218   -14069   -13904   -13743 
  -13578   -13351   -13036   -12682   -12328   -11983   -11654   -11353 
  -11089   -10854   -10638   -10465   -10350   -10284   -10244   -10197 
  -10132   -10061    -9970    -9836    -9660    -9447    -9214    -8988 
   -8776    -8572    -8378    -8203    -8038    -7864    -7685    -7534 
   -7417    -7293    -7159    -7036    -6925    -6808    -6677    -6546 
   -6423    -6293    -6153    -6039    -5962    -5895    -5811    -5675 
   -5481    -5264    -5021    -4743    -4459    -4191    -3950    -3742 
   -3549    -3368    -3222    -3138    -3113    -3129    -3170    -3209 
   -3220    -3213    -3198    -3170    -3119    -3062    -3019    -2958 
   -2858    -2765    -2693    -2608    -2505    -2410    -2336    -2295 
   -2276    -2245    -2199    -2145    -2084    -2027    -1977    -1932 
   -1939    -2027    -2173    -2359    -2573    -2778    -2942    -3055 
   -3115    -3142    -3165    -3177    -3157    -3115    -3033    -2880 
   -2679    -2472    -2286    -2137    -2006    -1876    -1757    -1664 
   -1590    -1507    -1406    -1295    -1174    -1056     -972     -922 
    -915     -962    -1039    -1117    -1209    -1345    -1541    -1769 
   -1993    -2249    -2586    -2914    -3124    -3316    -3665    -4130 
   -4527    -4821    -5189    -5721    -6228    -6556    -6897    -7441 
   -8069    -8605    -9038    -9488    -9999   -10474   -10841   -11124 
  -11402   -11697   -11938   -12106   -12243   -12366   -12455   -12511 
  -12619   -12817   -12982   -13061   -13207   -13483   -13730   -13847 
  -13937   -14110   -14371   -14658   -14887   -15047   -15184   -15332 
  -15463   -15558   -15660   -15772   -15833   -15823   -15760   -15695 
  -15656   -15605   -15523   -15422   -15314   -15229   -15186   -15187 
  -15241   -15367   -15589   -15903   -16266   -16641   -17025   -17402 
  -17751   -18055   -18298   -18488   -18650   -18792   -18918   -19037 
  -19159   -19300   -19458   -19631   -19827   -20029   -20210   -20366 
  -20505   -20632   -20762   -20926   -21139   -21357   -21553   -21770 
  -22003   -22212   -22409   -22596   -22759   -22895   -22999   -23071 
  -23104   -23104   -23078   -23018   -22928   -22839   -22793   -22818 
  -22911   -23063   -23267   -23510   -23784   -24069   -24348   -24635 
  -24954   -25308   -25692   -26099   -26511   -26906   -27271   -27595 
  -27865   -28072   -28207   -28272   -28275   -28215   -28114   -27979 
  -27802   -27605   -27416   -27240   -27107   -27050   -27049   -27088 
  -27158   -27208   -27225   -27208   -27105   -26913   -26678   -26389 
  -26043   -25653   -25187   -24648   -24084   -23508   -22906   -22273 
  -21612   -20918   -20199   -19480   -18783   -18140   -17550   -16977 
  -16421   -15873   -15282   -14669   -14084   -13517   -12954   -12419 
  -11921   -11439   -10972   -10536   -10115    -9714    -9361    -9037 
   -8759    -8553    -8367    -8188    -8044    -7915    -7790    -7679 
   -7584    -7510    -7454    -7445    -7495    -7558    -7616    -7679 
   -7721    -7723    -7691    -7617    -7466    -7233    -6966    -6703 
   -6465    -6269    -6100    -5935    -5791    -5681    -5592    -5540 
   -5550    -5602    -5672    -5737    -5777    -5772    -5711    -5589 
   -5399    -5150    -4871    -4576    -4273    -3961    -3621    -3230 
   -2761    -2212    -1624    -1017     -399      185      690     1133 
    1547     1915     2235     2536     2776     2936     3084     3200 
    3229     3233     3237     3219     3186     3146     3135     3158 
    3166     3156     3138     3132     3170     3221     3228     3215 
    3250     3331     3371     3358     3369     3388     3333     3220 
    3096     2972     2989     3124     2959     2404     1938     1803 
    1868     2024     2063     1743     1265     1055      965      500 
     -75     -230     -297     -659    -1068    -1412    -1731    -1953 
   -2226    -2517    -2591    -2663    -2903    -3082    -3103    -3016 
   -2883    -2773    -2689    -2599    -2446    -2218    -2004    -1805 
   -1581    -1359    -1128     -905     -714     -516     -313     -134 
      10      104      139      125      100       78       19     -112 
    -272     -416     -623     -946    -1293    -1592    -1865    -2126 
   -2389    -2678    -2970    -3223    -3448    -3684    -3932    -4177 
   -4438    -4741    -5069    -5388    -5699    -6005    -6307    -6638 
   -7012    -7401    -7791    -8208    -8650    -9068    -9472    -9911 
  -10359   -10803   -11282   -11783   -12256   -12673   -13082   -13534 
  -13979   -14366   -14724   -15066   -15384   -15679   -15948   -16199 
  -16441   -16681   -16923   -17141   -17294   -17390   -17463   -17524 
  -17569   -17599   -17614   -17639   -17697   -17772   -17859   -17966 
  -18080   -18195   -18308   -18402   -18474   -18522   -18544   -18541 
  -18502   -18408   -18268   -18099   -17900   -17659   -17376   -17064 
  -16726   -16364   -15989   -15610   -15222   -14812   -14383   -13957 
  -13540   -13131   -12745   -12384   -12046   -11743   -11445   -11132 
  -10846   -10591   -10347   -10146    -9980    -9795    -9607    -9455 
   -9342    -9277    -9281    -9366    -9528    -9732    -9936   -10168 
  -10475   -10834   -11215   -11639   -12100   -12568   -13052   -13538 
  -13998   -14439   -14853   -15210   -15495   -15720   -15906   -16080 
  -16248   -16393   -16505   -16594   -16647   -16652   -16637   -16636 
  -16652   -16674   -16703   -16754   -16822   -16870   -16880   -16850 
  -16773   -16660   -16530   -16390   -16243   -16093   -15922   -15715 
  -15488   -15247   -14981   -14682   -14347   -13987   -13619   -13260 
  -12928   -12639   -12391   -12161   -11924   -11676   -11427   -11172 
  -10903   -10624   -10359   -10129    -9939    -9775    -9619    -9475 
   -9363    -9299    -9292    -9320    -9351    -9398    -9485    -9595 
   -9734    -9923   -10110   -10248   -10360   -10414   -10398   -10398 
  -10425   -10421   -10425   -10494   -10547   -10541   -10518   -10463 
  -10478   -10574   -10533   -10479   -10587   -10642   -10693   -10818 
  -10885   -11013   -11174   -11234   -11279   -11314   -11320   -11342 
  -11397   -11483   -11618   -11819   -12071   -12350   -12638   -12905 
  -13104   -13216   -13271   -13283   -13226   -13092   -12912   -12720 
  -12514   -12280   -12021   -11723   -11370   -10984   -10572   -10120 
   -9645    -9176    -8731    -8335    -7986    -7666    -7378    -7141 
   -6953    -6794    -6668    -6582    -6510    -6432    -6361    -6303 
   -6242    -6194    -6178    -6188    -6211    -6237    -6260    -6296 
   -6360    -6452    -6573    -6712    -6852    -6997    -7176    -7385 
   -7601    -7818    -8040    -8256    -8447    -8613    -8767    -8923 
   -9102    -9302    -9501    -9693    -9890   -10111   -10374   -10663 
  -10962   -11280   -11621   -11979   -12351   -12724   -13075   -13407 
  -13734   -14029   -14280   -14514   -14740   -14954   -15156   -15345 
  -15530   -15711   -15878   -16037   -16192   -16328   -16432   -16500 
  -16542   -16574   -16609   -16633   -16627   -16618   -16643   -16690 
  -16720   -16707   -16648   -16604   -16622   -16647   -16641   -16649 
  -16680   -16688   -16660   -16621   -16586   -16535   -16470   -16432 
  -16405   -16362   -16337   -16342   -16368   -16420   -16465   -16476 
  -16488   -16531   -16592   -16642   -16673   -16692   -16698   -16700 
  -16698   -16689   -16703   -16753   -16792   -16801   -16808   -16829 
  -16855   -16865   -16854   -16845   -16829   -16786   -16728   -16645 
  -16521   -16373   -16203   -16025   -15868   -15725   -15582   -15434 
  -15262   -15063   -14871   -14697   -14530   -14368   -14202   -14026 
  -13848   -13659   -13443   -13219   -12985   -12728   -12475   -12236 
  -12008   -11798   -11597   -11400   -11232   -11094   -10947   -10763 
  -10545   -10320   -10090    -9814    -9487    -9162    -8861    -8573 
   -8307    -8080    -7890    -7717    -7543    -7376    -7241    -7164 
   -7138    -7136    -7163    -7229    -7323    -7446    -7593    -7752 
   -7933    -8124    -8309    -8522    -8784    -9049    -9284    -9493 
   -9683    -9864   -10041   -10210   -10366   -10520   -10690   -10884 
  -11099   -11327   -11549   -11738   -11889   -12023   -12165   -12316 
