Origin Time       2011/03/11 14:46:00
Lat.              38.103
Long.             142.860
Depth. (km)       24
Mag.              9.0
Station Code      HKD161
Station Lat.      41.6795
Station Long.     140.4334
Station Height(m) 4
Record Time       2011/03/11 14:48:02
Sampling Freq(Hz) 100Hz
Duration Time(s)  258
Dir.              N-S
Scale Factor      3920(gal)/6182761
Max. Acc. (gal)   21.278
Last Correction   2011/03/11 14:47:47
Memo.             
[...]
   10810    10970    11113    11154    11046    10870    10731    10604 
   10359     9925     9379     8851     8376     7935     7574     7372 
    7274     7127     6899     6716     6659     6636     6501     6270 
    6109     6129     6286     6440     6466     6385     6321     6367 
    6556     6882     7258     7602     7978     8473     9031     9545 
    9957    10247    10481    10816    11329    11899    12339    12567 
   12588    12386    11929    11304    10708    10278    10026     9841 
    9551     9089     8507     7891     7354     6963     6698     6510 
    6332     6080     5773     5592     5648     5792     5831     5786 
    5856     6189     6715     7267     7783     8249     8616     8923 
    9334     9940    10679    11491    12414    13503    14698    15858 
   16914    17889    18780    19523    20162    20804    21294    21462 
   21398    21241    21087    20935    20673    20350    20190    20313 
   20636    21025    21413    21817    22271    22724    23108    23468 
   23866    24217    24322    24057    23467    22654    21612    20347 
   18987    17632    16292    14946    13498    11927    10410     9058 
    7809     6593     5441     4478     3765     3238     2784     2289 
    1716     1105      482      -98     -543     -853    -1114    -1364 
   -1536    -1473    -1071     -390      445     1360     2357     3487 
    4735     6032     7368     8736    10046    11276    12535    13906 
   15306    16501    17309    17784    18122    18401    18584    18714 
   18877    19039    19156    19308    19588    20005    20457    20710 
   20559    19991    19167    18358    17783    17453    17271    17193 
   17213    17234    17072    16595    15821    14903    13964    12945 
   11722    10352     9075     8040     7200     6613     6421     6596 
    7018     7536     7915     7978     7746     7414     7159     7001 
    6850     6638     6397     6219     6182     6296     6526     6818 
    7145     7597     8238     8970     9687    10382    11116    11948 
   12873    13811    14642    15324    15969    16718    17545    18198 
   18412    18204    17805    17394    16971    16405    15661    14933 
   14421    14093    13765    13380    13060    12905    12843    12643 
   12160    11520    10916    10395     9901     9345     8628     7690 
    6600     5562     4757     4186     3784     3554     3443     3315 
    3056     2689     2425     2398     2557     2851     3262     3798 
    4437     5077     5618     5999     6268     6600     7098     7634 
    8028     8240     8327     8317     8179     7895     7514     7106 
    6695     6250     5731     5203     4788     4467     4166     3877 
    3587     3263     2883     2428     1903     1376      928      524 
      70     -392     -729     -836     -628      -75      727     1674 
    2756     4000     5449     7084     8793    10488    12176    13863 
   15488    17003    18441    19862    21251    22545    23698    24664 
   25428    26054    26610    27094    27472    27675    27639    27385 
   26986    26470    25784    24902    23805    22447    20960    19572 
   18315    17078    15757    14392    13166    12127    11141    10127 
    9131     8234     7512     6988     6644     6406     6133     5756 
    5398     5221     5249     5436     5777     6237     6808     7548 
    8441     9434    10522    11757    13181    14728    16240    17520 
   18428    19007    19343    19440    19322    19015    18481    17704 
   16732    15649    14515    13311    12007    10636     9258     7898 
    6540     5224     4119     3362     2886     2568     2413     2431 
    2522     2626     2788     3041     3347     3631     3882     4204 
    4694     5369     6197     7102     7998     8872     9808    10883 
   12050    13114    13944    14679    15529    16480    17438    18366 
   19197    19944    20697    21420    22091    22772    23441    24049 
   24523    24758    24740    24486    24010    23424    22886    22455 
   22038    21535    20933    20246    19506    18773    18053    17268 
   16334    15153    13655    11959    10320     8925     7798     6799 
    5764     4681     3652     2792     2197     1912     1890     2023 
    2202     2358     2498     2741     3226     3902     4535     5004 
    5430     5935     6489     7003     7425     7802     8252     8774 
    9219     9558     9873    10128    10279    10450    10697    10861 
   10886    10923    11029    11171    11426    11874    12522    13350 
   14274    15251    16220    16984    17508    17994    18578    19242 
   19880    20404    20813    21171    21550    21961    22417    22893 
   23179    23005    22354    21460    20496    19423    18197    16939 
   15834    14902    13983    12962    11871    10809     9857     9018 
    8147     7031     5616     4118     2827     1857     1127      484 
    -165     -795    -1324    -1651    -1719    -1642    -1623    -1753 
   -1997    -2273    -2482    -2583    -2614    -2551    -2315    -1932 
   -1522    -1164     -859     -576     -236      278      988     1794 
    2590     3327     4011     4723     5593     6636     7736     8813 
    9856    10849    11788    12784    13902    14945    15764    16427 
   16853    16977    17023    17232    17704    18428    19284    20086 
   20701    21177    21628    22075    22489    22815    22974    22902 
   22605    22151    21570    20859    20005    18960    17685    16217 
   14697    13261    11885    10436     8899     7404     6066     4931 
    4009     3254     2557     1870     1266      834      617      564 
     553      546      635      970     1592     2276     2725     2959 
    3257     3701     4153     4547     4870     5122     5398     5795 
    6243     6589     6839     7195     7801     8598     9480    10428 
   11476    12675    14038    15403    16603    17731    18908    20176 
   21601    23072    24431    25694    26827    27803    28682    29375 
   29717    29667    29258    28582    27823    27107    26388    25574 
   24626    23531    22315    21044    19738    18353    16863    15237 
   13398    11294     8955     6461     3961     1675     -285    -2007 
   -3574    -4970    -6209    -7397    -8610    -9766   -10770   -11581 
  -12129   -12431   -12611   -12746   -12821   -12821   -12805   -12816 
  -12782   -12571   -12068   -11257   -10213    -8953    -7438    -5731 
   -4005    -2397     -918      542     2151     3971     5942     8035 
   10225    12380    14374    16213    17952    19690    21497    23246 
   24728    25794    26453    27061    27889    28820    29672    30290 
   30647    30862    30942    30888    30814    30816    30879    30814 
   30447    29872    29296    28809    28356    27788    27030    26160 
   25293    24493    23805    23261    22822    22391    21870    21194 
   20376    19497    18625    17766    16906    16087    15414    14961 
   14703    14546    14372    14022    13397    12565    11651    10682 
    9621     8484     7355     6319     5431     4746     4329     4205 
    4360     4687     5034     5341     5619     5894     6229     6695 
    7293     7940     8583     9290    10136    11087    12055    13016 
   14045    15204    16452    17712    18910    19898    20563    20940 
   21073    21035    20994    21061    21237    21373    21302    21105 
   20863    20457    19794    18862    17788    16847    16121    15415 
   14636    13982    13678    13720    13952    14202    14382    14564 
   14877    15337    15792    16033    16015    15821    15525    15215 
   14961    14721    14449    14178    13896    13504    12941    12283 
   11696    11273    10964    10672    10330     9878     9293     8659 
    8110     7689     7320     6923     6501     6127     5859     5685 
    5523     5303     5080     4995     5109     5359     5633     5914 
    6241     6560     6811     7051     7307     7498     7604     7652 
    7580     7334     6980     6579     6162     5798     5489     5156 
    4853     4707     4632     4494     4386     4453     4701     5053 
    5421     5764     6105     6442     6677     6689     6498     6338 
    6455     6848     7314     7697     8038     8505     9177    10010 
   10954    11964    13029    14088    14927    15421    15695    15927 
   16159    16300    16287    16162    16007    15883    15827    15860 
   15989    16212    16550    17015    17485    17777    17866    17864 
   17848    17883    18019    18198    18270    18077    17513    16612 
   15525    14416    13369    12367    11357    10315     9249     8183 
    7181     6324     5615     4988     4420     3904     3401     2923 
    2518     2193     1910     1637     1397     1214     1077      986 
     950      987     1134     1401     1757     2201     2791     3561 
    4496     5572     6665     7617     8390     9052     9696    10411 
   11177    11832    12229    12344    12219    11879    11294    10481 
    9583     8668     7636     6491     5358     4224     3035     1847 
     757     -180    -1031    -1854    -2601    -3227    -3725    -4110 
   -4416    -4644    -4764    -4747    -4592    -4362    -4089    -3714 
   -3232    -2755    -2384    -2067    -1610     -871       84     1066 
    1981     2884     3844     4838     5794     6655     7474     8449 
    9696    11048    12229    13129    13829    14468    15107    15668 
   16068    16306    16345    16131    15699    15121    14503    13976 
   13623    13409    13203    12931    12652    12449    12336    12311 
   12393    12575    12861    13283    13846    14510    15215    15916 
   16602    17309    18166    19337    20850    22532    24185    25752 
   27245    28656    29988    31242    32370    33305    34028    34530 
   34717    34572    34239    33749    33081    32300    31322    29989 
   28373    26674    24982    23274    21557    19958    18609    17548 
   16729    16051    15458    14982    14621    14323    14033    13676 
   13215    12714    12286    11972    11695    11367    10959    10492 
   10035     9649     9333     9055     8793     8498     8127     7708 
    7336     7099     6972     6839     6666     6553     6628     6888 
    7104     7054     6827     6723     6866     7186     7629     8163 
    8804     9602    10546    11543    12458    13235    13947    14694 
   15507    16342    17098    17626    17818    17728    17511    17239 
   16895    16507    16158    15869    15579    15226    14780    14266 
   13767    13308    12850    12338    11708    10964    10213     9554 
    8996     8518     8141     7929     7931     8102     8341     8597 
    8868     9177     9554     9985    10475    11065    11749    12480 
   13240    13976    14568    14977    15296    15607    15871    16003 
   15977    15841    15688    15562    15437    15294    15128    14928 
   14718    14566    14519    14535    14499    14321    14023    13707 
   13446    13180    12804    12377    12089    11971    11825    11452 
   10802     9954     9024     8132     7383     6769     6178     5504 
    4733     3937     3168     2435     1769     1156      546      -92 
    -793    -1592    -2456    -3306    -4074    -4704    -5163    -5459 
   -5636    -5712    -5628    -5356    -5000    -4643    -4268    -3903 
   -3579    -3255    -2935    -2644    -2291    -1771    -1122     -446 
     257     1027     1810     2502     3065     3590     4199     4911 
    5657     6345     6894     7253     7435     7557     7731     7893 
    7848     7508     6999     6504     6077     5632     5082     4392 
    3519     2463     1326      236     -752    -1659    -2569    -3539 
   -4440    -5007    -5147    -4918    -4371    -3672    -3035    -2493 
   -1942    -1238     -264      975     2350     3726     5028     6249 
    7493     8910    10540    12269    13920    15368    16607    17705 
   18678    19442    19922    20178    20385    20674    21000    21285 
   21588    21981    22373    22639    22784    22841    22778    22524 
   21974    21113    20150    19277    18468    17651    16782    15816 
   14819    13862    12885    11865    10857     9875     8905     7971 
    7187     6648     6317     6091     5929     5874     5981     6248 
    6627     7064     7541     8079     8687     9306     9809    10115 
   10311    10559    10898    11225    11460    11612    11680    11665 
   11607    11518    11412    11312    11156    10842    10427    10092 
    9874     9635     9266     8795     8322     7893     7531     7301 
    7265     7391     7571     7762     7990     8208     8305     8205 
    7881     7318     6556     5727     5053     4761     4861     5078 
    5142     4990     4687     4348     4088     3934     3877     3971 
    4238     4623     5153     5921     6968     8259     9708    11273 
   12932    14571    16129    17624    19033    20409    21845    23339 
   24895    26503    28023    29302    30309    31087    31636    31965 
   32163    32327    32518    32755    32998    33173    33252    33255 
   33191    33055    32884    32718    32587    32496    32362    32066 
   31544    30798    29883    28858    27704    26329    24620    22535 
   20124    17506    14889    12481    10321     8346     6567     4992 
    3553     2200      985        3     -681    -1067    -1185    -1002 
    -445      465     1630     2984     4487     6128     7966    10096 
   12586    15394    18346    21263    24062    26723    29260    31657 
   33798    35563    37023    38406    39798    41108    42302    43348 
   44108    44514    44628    44472    43988    43119    41872    40387 
   38873    37354    35701    33931    32158    30387    28593    26783 
   24869    22665    20078    17219    14265    11342     8522     5795 
    3098      415    -2189    -4566    -6546    -8090    -9314   -10375 
  -11297   -11971   -12382   -12566   -12449   -12020   -11424   -10738 
   -9946    -9132    -8400    -7699    -6884    -5802    -4397    -2772 
   -1106      427     1810     3170     4575     6058     7640     9217 
   10627    11779    12660    13320    13788    14046    14086    13912 
   13575    13202    12896    12625    12304    11886    11315    10657 
   10064     9535     9105     8935     9001     9170     9407     9731 
   10143    10597    10997    11274    11478    11703    11966    12249 
   12562    12867    13074    13159    13157    13058    12883    12731 
   12626    12456    12134    11674    11073    10324     9465     8490 
    7404     6278     5156     4022     2844     1584      248    -1046 
   -2097    -2751    -2973    -2825    -2424    -1922    -1447    -1053 
    -746     -496     -261      -16      281      692     1216     1749 
    2171     2479     2761     3089     3498     3934     4306     4616 
    4914     5169     5299     5313     5327     5439     5635     5889 
    6230     6656     7123     7577     7936     8128     8139     8049 
    7971     7932     7878     7761     7567     7297     6942     6479 
    5905     5277     4709     4282     3983     3737     3503     3318 
    3192     3148     3274     3567     3948     4364     4701     4888 
    5062     5355     5752     6252     6903     7754     8803     9977 
   11296    12817    14414    15848    16959    17798    18529    19236 
   19960    20712    21414    21990    22390    22547    22477    22297 
   22115    21970    21780    21369    20608    19508    18251    17065 
   16051    15194    14470    13864    13326    12756    12056    11221 
   10324     9393     8415     7410     6334     5161     3992     2811 
    1451      -72    -1612    -3116    -4557    -5916    -7191    -8303 
   -9145    -9680    -9927    -9887    -9512    -8809    -7853    -6719 
   -5475    -4117    -2538     -696     1367     3636     6075     8571 
   10995    13335    15699    18141    20596    22984    25216    27215 
   29007    30649    32090    33304    34308    34985    35179    34863 
   34129    33172    32198    31228    30076    28627    27037    25550 
   24214    22913    21593    20292    19045    17822    16544    15222 
   13956    12754    11535    10232     8856     7546     6403     5323 
    4268     3330     2457     1579      693     -274    -1337    -2439 
   -3556    -4583    -5429    -6151    -6829    -7482    -8062    -8476 
   -8693    -8773    -8745    -8537    -8059    -7268    -6170    -4827 
   -3287    -1527      448     2510     4489     6337     8113     9872 
   11646    13430    15158    16800    18421    20072    21745    23481 
   25335    27128    28660    30011    31171    31997    32487    32626 
   32484    32273    32024    31622    31010    30219    29329    28418 
   27532    26642    25630    24387    22906    21251    19515    17799 
   16132    14456    12772    11199     9852     8735     7748     6779 
    5788     4771     3777     2917     2238     1741     1436     1241 
    1094     1063     1231     1649     2268     2907     3456     3909 
    4280     4625     5012     5459     5983     6599     7258     7849 
    8311     8704     9174     9841    10685    11591    12525    13512 
   14530    15431    16077    16590    17111    17559    17873    18120 
   18344    18455    18263    17749    17135    16644    16310    15982 
   15465    14738    13984    13339    12796    12363    12076    11921 
   11832    11690    11455    11296    11394    11708    12069    12404 
   12808    13412    14191    14988    15686    16263    16723    17069 
   17285    17357    17320    17312    17481    17815    18206    18607 
   18975    19220    19279    19144    18805    18295    17707    17122 
   16569    15997    15326    14552    13747    12992    12334    11801 
   11414    11150    11005    11068    11358    11771    12267    12890 
   13569    14144    14569    14899    15212    15629    16264    17159 
   18294    19604    21023    22459    23836    25121    26238    27100 
   27707    28110    28369    28482    28357    27892    27047    25876 
   24503    23020    21461    19816    18033    16030    13804    11496 
    9290     7297     5523     3902     2355      852     -530    -1641 
   -2412    -2943    -3437    -4019    -4677    -5386    -6131    -6855 
   -7578    -8355    -9065    -9528    -9660    -9389    -8667    -7580 
   -6250    -4727    -3085    -1490      -61     1218     2403     3592 
    4908     6398     8105     9988    11832    13524    15160    16824 
   18506    20142    21693    23215    24736    26149    27373    28489 
   29562    30517    31292    31836    32062    32046    31844    31292 
   30304    28972    27400    25714    24025    22356    20693    19063 
   17516    16030    14476    12795    11096     9483     7951     6492 
    5068     3567     1929      233    -1325    -2511    -3253    -3680 
   -3941    -4098    -4157    -4178    -4269    -4387    -4385    -4159 
   -3644    -2875    -1941     -855      344     1560     2756     3923 
    5039     6110     7140     8183     9377    10762    12262    13867 
   15585    17313    18899    20222    21258    22098    22918    23780 
   24464    24708    24566    24368    24361    24500    24565    24341 
   23753    22873    21842    20750    19510    17982    16181    14258 
   12443    10900     9539     8140     6639     5155     3786     2530 
    1386      393     -434    -1122    -1672    -2029    -2177    -2174 
   -2046    -1733    -1216     -566      175     1007     1878     2744 
