Origin Time       2011/03/11 14:46:00
Lat.              38.103
Long.             142.860
Depth. (km)       24
Mag.              9.0
Station Code      HKD118
Station Lat.      43.5524
Station Long.     141.9175
Station Height(m) 29
Record Time       2011/03/11 14:48:42
Sampling Freq(Hz) 100Hz
Duration Time(s)  300
Dir.              N-S
Scale Factor      3920(gal)/6182761
Max. Acc. (gal)   13.838
Last Correction   2011/03/11 14:48:27
Memo.             
[...]
   10040    10464    10805    11050    11235    11384    11508    11642 
   11828    12114    12494    12948    13500    14124    14741    15308 
   15799    16189    16516    16828    17096    17258    17315    17329 
   17394    17539    17710    17876    18032    18138    18162    18100 
   17918    17609    17249    16912    16591    16248    15868    15483 
   15103    14696    14255    13809    13342    12848    12361    11863 
   11292    10651     9983     9301     8647     8106     7728     7510 
    7458     7537     7671     7812     7951     8089     8207     8268 
    8257     8196     8145     8167     8274     8438     8633     8838 
    9050     9254     9418     9558     9746     9992    10262    10525 
   10720    10776    10668    10413    10060     9689     9360     9085 
    8847     8629     8428     8272     8179     8126     8103     8094 
    8053     7973     7867     7725     7590     7504     7433     7331 
    7169     6966     6780     6665     6680     6828     7017     7209 
    7445     7705     7943     8153     8344     8546     8806     9124 
    9442     9712     9920    10061    10134    10135    10095    10081 
   10110    10164    10266    10430    10612    10772    10900    11023 
   11179    11370    11573    11761    11909    12015    12087    12136 
   12199    12308    12434    12510    12522    12532    12612    12762 
   12923    13066    13200    13293    13274    13148    12980    12807 
   12656    12567    12555    12617    12762    12990    13273    13599 
   13975    14385    14773    15068    15227    15241    15136    14957 
   14739    14529    14376    14299    14289    14331    14379    14378 
   14331    14267    14193    14126    14082    14047    14020    14003 
   13972    13899    13771    13604    13433    13263    13075    12877 
   12694    12515    12319    12074    11736    11318    10900    10542 
   10250    10001     9808     9725     9745     9788     9793     9734 
    9604     9411     9184     8960     8793     8711     8647     8538 
    8441     8423     8476     8565     8672     8809     8993     9167 
    9250     9243     9174     9060     8969     8934     8896     8773 
    8556     8272     7873     7296     6594     5866     5133     4401 
    3698     3032     2442     1977     1563     1076      513      -42 
    -526     -881    -1075    -1125    -1047     -869     -645     -409 
    -161      118      458      859     1293     1748     2223     2696 
    3123     3491     3813     4087     4305     4450     4501     4446 
    4299     4104     3861     3534     3156     2799     2479     2199 
    1999     1895     1864     1895     2003     2159     2334     2578 
    2933     3353     3758     4105     4363     4491     4510     4478 
    4403     4299     4214     4171     4173     4198     4198     4167 
    4139     4146     4199     4232     4156     4018     3886     3720 
    3504     3292     3102     2932     2772     2598     2428     2310 
    2249     2213     2185     2181     2239     2382     2608     2939 
    3396     3919     4415     4830     5103     5212     5213     5164 
    5107     5116     5236     5425     5632     5824     5982     6098 
    6190     6289     6387     6464     6543     6635     6723     6797 
    6835     6815     6757     6716     6704     6679     6643     6640 
    6653     6600     6437     6214     6029     5906     5810     5722 
    5645     5570     5467     5285     5014     4688     4333     3967 
    3627     3338     3102     2914     2772     2674     2636     2679 
    2795     2974     3191     3409     3614     3815     4016     4195 
    4319     4393     4412     4354     4256     4157     4054     3974 
    3961     4010     4092     4190     4340     4592     4880     5091 
    5249     5488     5860     6279     6649     6947     7230     7572 
    7924     8208     8480     8763     9015     9271     9588     9990 
   10500    11106    11742    12356    12933    13462    13965    14515 
   15099    15590    15923    16144    16271    16312    16327    16399 
   16593    16879    17149    17357    17505    17565    17529    17453 
   17379    17299    17187    17060    16953    16812    16580    16289 
   15958    15578    15175    14771    14323    13805    13287    12865 
   12555    12328    12162    12032    11905    11746    11573    11453 
   11421    11460    11544    11650    11773    11963    12264    12645 
   13054    13454    13788    14048    14284    14519    14736    14946 
   15173    15420    15640    15789    15852    15844    15823    15845 
   15919    16026    16138    16242    16348    16435    16468    16469 
   16488    16554    16694    16930    17222    17492    17709    17886 
   18027    18121    18170    18203    18259    18326    18359    18351 
   18321    18266    18176    18058    17931    17823    17764    17786 
   17912    18134    18396    18624    18788    18912    19042    19198 
   19382    19584    19748    19802    19719    19532    19298    19061 
   18833    18615    18391    18134    17849    17567    17297    17062 
   16899    16816    16821    16914    17026    17050    16945    16740 
   16483    16236    16054    15947    15904    15918    15972    16034 
   16061    16016    15935    15900    15928    15955    15932    15853 
   15692    15402    15003    14579    14211    13980    13938    14077 
   14341    14630    14846    14965    15026    15056    15066    15098 
   15192    15344    15517    15661    15741    15773    15806    15844 
   15873    15899    15905    15869    15786    15633    15391    15079 
   14715    14324    13942    13576    13209    12819    12388    11929 
   11492    11119    10820    10587    10419    10315    10271    10294 
   10394    10559    10768    11007    11260    11519    11782    12031 
   12253    12462    12662    12835    12965    13048    13075    13063 
   13045    13034    13029    13042    13044    12976    12827    12611 
   12313    11935    11504    11045    10587    10172     9808     9465 
    9123     8780     8437     8085     7706     7301     6890     6486 
    6091     5716     5386     5126     4942     4804     4677     4539 
    4399     4286     4179     4025     3822     3616     3426     3252 
    3106     2996     2922     2874     2827     2762     2689     2639 
    2636     2682     2763     2841     2873     2851     2819     2824 
    2864     2910     2951     2979     2965     2898     2813     2750 
    2707     2646     2543     2407     2239     2025     1779     1540 
    1328     1138      970      828      723      636      515      349 
     152      -91     -375     -687    -1043    -1441    -1874    -2316 
   -2705    -3029    -3336    -3691    -4114    -4586    -5092    -5578 
   -5971    -6244    -6385    -6405    -6355    -6278    -6205    -6166 
   -6179    -6296    -6531    -6789    -6995    -7143    -7211    -7198 
   -7150    -7096    -7065    -7078    -7126    -7221    -7347    -7418 
   -7381    -7281    -7147    -6932    -6655    -6376    -6118    -5896 
   -5622    -5212    -4756    -4351    -4010    -3694    -3297    -2781 
   -2213    -1602     -900     -114      653     1323     1971     2706 
    3460     4068     4530     4963     5404     5839     6291     6776 
    7279     7785     8288     8794     9322     9867    10416    10936 
   11398    11802    12135    12402    12643    12902    13231    13633 
   14024    14351    14636    14905    15131    15252    15308    15359 
   15378    15344    15274    15214    15178    15112    14998    14844 
   14613    14307    13977    13638    13284    12941    12648    12400 
   12163    11960    11825    11747    11709    11684    11627    11542 
   11475    11455    11476    11523    11595    11670    11725    11777 
   11842    11910    11985    12083    12210    12347    12479    12620 
   12784    12961    13151    13348    13531    13727    13994    14321 
   14667    15018    15361    15684    15971    16198    16369    16545 
   16783    17063    17353    17664    18005    18360    18728    19114 
   19489    19841    20184    20515    20841    21165    21455    21695 
   21893    22044    22140    22171    22150    22105    22028    21894 
   21686    21411    21132    20911    20751    20652    20582    20495 
   20377    20221    20014    19758    19457    19114    18745    18346 
   17912    17476    17087    16726    16338    15909    15452    14956 
   14417    13859    13309    12784    12301    11852    11415    11001 
   10630    10295     9993     9738     9530     9363     9251     9203 
    9212     9277     9390     9519     9632     9728     9803     9831 
    9796     9690     9500     9255     9003     8750     8484     8212 
    7928     7611     7282     7003     6810     6716     6727     6799 
    6849     6834     6763     6650     6504     6342     6157     5938 
    5717     5551     5477     5496     5577     5671     5742     5795 
    5898     6105     6365     6596     6793     6997     7239     7512 
    7779     8014     8193     8272     8229     8089     7914     7757 
    7621     7511     7453     7458     7521     7613     7670     7649 
    7574     7467     7334     7207     7123     7100     7117     7115 
    7045     6878     6597     6263     5933     5599     5278     5011 
    4802     4623     4450     4299     4193     4123     4079     4077 
    4118     4176     4245     4331     4430     4523     4598     4651 
    4674     4658     4581     4406     4134     3800     3431     3067 
    2748     2463     2222     2092     2098     2219     2430     2737 
    3179     3741     4322     4876     5412     5915     6390     6861 
    7320     7760     8201     8632     9000     9318     9611     9845 
   10048    10263    10407    10433    10416    10384    10288    10133 
    9985     9881     9805     9725     9631     9555     9525     9536 
    9613     9774     9970    10164    10380    10646    10967    11344 
   11795    12279    12711    13069    13366    13591    13734    13817 
   13873    13926    13978    14036    14081    14084    14063    14035 
   13964    13832    13679    13540    13442    13403    13396    13367 
   13301    13216    13115    12998    12877    12776    12691    12602 
   12529    12506    12529    12579    12657    12767    12883    12954 
   12951    12877    12764    12636    12475    12262    11992    11660 
   11298    10929    10527    10080     9615     9152     8710     8301 
    7919     7575     7290     7042     6800     6608     6506     6431 
    6315     6153     5951     5719     5514     5416     5438     5520 
    5585     5569     5455     5283     5086     4862     4608     4322 
    4001     3670     3356     3075     2854     2712     2622     2572 
    2599     2733     2939     3141     3284     3369     3433     3511 
    3592     3653     3696     3722     3733     3727     3708     3712 
    3769     3845     3883     3853     3773     3694     3674     3737 
    3858     4001     4130     4238     4349     4507     4747     5045 
    5330     5562     5725     5803     5798     5723     5620     5584 
    5636     5730     5898     6173     6521     6925     7347     7730 
    8091     8483     8914     9370     9841    10308    10768    11228 
   11698    12182    12687    13205    13710    14182    14615    14997 
   15307    15567    15838    16132    16419    16708    17027    17373 
   17756    18178    18589    18952    19241    19430    19528    19560 
   19546    19517    19479    19425    19371    19312    19217    19074 
   18894    18696    18500    18325    18195    18122    18099    18119 
   18191    18335    18552    18791    18998    19172    19335    19498 
   19640    19741    19795    19794    19752    19716    19706    19700 
   19680    19627    19504    19307    19059    18786    18511    18228 
   17917    17590    17260    16910    16529    16115    15657    15179 
   14719    14266    13816    13383    12906    12308    11617    10900 
   10178     9473     8815     8214     7694     7273     6908     6547 
    6180     5798     5387     4948     4501     4078     3708     3378 
    3049     2713     2390     2093     1832     1589     1343     1079 
     766      392      -15     -418     -787    -1116    -1427    -1722 
   -1997    -2260    -2504    -2711    -2874    -2999    -3095    -3165 
   -3216    -3276    -3377    -3528    -3712    -3888    -4026    -4101 
   -4089    -3992    -3830    -3633    -3444    -3287    -3151    -3010 
   -2856    -2701    -2537    -2332    -2065    -1762    -1478    -1212 
    -923     -636     -419     -282     -178     -102      -97     -151 
    -215     -273     -305     -299     -294     -304     -315     -306 
    -256     -196     -192     -258     -366     -503     -639     -715 
    -684     -560     -441     -414     -473     -602     -769     -902 
    -954     -937     -883     -820     -759     -697     -616     -499 
    -338     -149       52      285      588      953     1341     1722 
    2061     2316     2479     2573     2639     2719     2822     2958 
    3148     3378     3615     3826     4020     4241     4518     4856 
    5211     5534     5853     6218     6639     7124     7652     8195 
    8767     9368    10002    10701    11474    12288    13098    13880 
   14617    15317    16035    16810    17640    18506    19368    20201 
   21025    21849    22647    23387    24058    24689    25308    25934 
   26578    27236    27885    28502    29084    29626    30086    30440 
   30702    30892    31011    31052    31013    30892    30691    30428 
   30125    29821    29545    29315    29121    28924    28677    28304 
   27719    27123    26843    26569    25854    25172    24866    24543 
   24171    23860    23507    23192    22916    22602    22250    21840 
   21411    20963    20471    19964    19466    19025    18620    18165 
   17682    17257    16906    16568    16194    15822    15495    15190 
   14922    14759    14719    14783    14944    15161    15373    15559 
   15750    15984    16248    16526    16837    17167    17488    17787 
   18035    18226    18396    18576    18794    19081    19431    19795 
   20153    20493    20752    20899    20972    21010    21020    20992 
   20911    20787    20658    20567    20516    20447    20315    20138 
   19935    19707    19453    19177    18877    18542    18132    17622 
   17038    16439    15895    15433    15026    14638    14246    13848 
   13460    13060    12618    12159    11716    11272    10790    10260 
    9705     9139     8551     7947     7341     6746     6173     5643 
    5163     4729     4348     4011     3701     3423     3176     2948 
    2738     2522     2261     1948     1594     1215      818      401 
     -23     -453     -916    -1434    -2000    -2586    -3186    -3804 
   -4424    -5000    -5493    -5905    -6266    -6597    -6916    -7239 
   -7579    -7937    -8292    -8623    -8937    -9259    -9592    -9920 
  -10233   -10544   -10867   -11186   -11453   -11636   -11748   -11810 
  -11813   -11769   -11703   -11599   -11434   -11217   -10959   -10680 
  -10394   -10111    -9879    -9717    -9557    -9349    -9076    -8727 
   -8322    -7833    -7212    -6512    -5808    -5099    -4399    -3753 
   -3175    -2639    -2101    -1520     -870     -210      360      840 
    1308     1866     2498     3058     3519     3934     4250     4415 
    4497     4608     4830     5158     5508     5847     6157     6369 
    6453     6463     6466     6518     6600     6590     6448     6273 
    6105     5913     5743     5650     5566     5361     5001     4558 
    4093     3621     3147     2665     2207     1819     1488     1236 
    1095      988      838      626      347       34     -246     -458 
    -597     -666     -708     -765     -822     -856     -882     -903 
    -910     -927     -988    -1080    -1157    -1212    -1256    -1290 
   -1325    -1386    -1446    -1441    -1352    -1189     -969     -719 
    -444     -144      172      519      920     1363     1822     2309 
    2845     3406     3942     4406     4759     5000     5162     5263 
    5324     5383     5462     5547     5633     5725     5805     5874 
    5972     6119     6293     6448     6553     6610     6621     6558 
    6395     6140     5838     5584     5442     5388     5396     5462 
    5540     5579     5598     5649     5729     5802     5917     6152 
    6513     6987     7530     8048     8533     9068     9657    10253 
   10865    11487    12050    12538    12988    13386    13766    14207 
   14674    15104    15553    16043    16515    16972    17463    17963 
   18425    18845    19251    19686    20186    20717    21219    21698 
   22167    22607    23031    23440    23823    24203    24556    24836 
   25047    25192    25261    25284    25308    25309    25255    25211 
   25209    25143    24962    24756    24573    24393    24258    24227 
   24283    24426    24681    24965    25140    25188    25145    25023 
   24898    24840    24798    24704    24551    24334    24043    23647 
   23130    22550    21966    21421    20932    20464    20059    19802 
   19634    19444    19178    18818    18407    17979    17515    17021 
   16554    16183    15853    15441    15019    14705    14448    14204 
   14006    13863    13746    13613    13448    13289    13186    13175 
   13227    13244    13187    13066    12885    12672    12438    12161 
   11846    11513    11195    10902    10588    10264    10008     9812 
    9616     9422     9260     9151     9101     9085     9074     9063 
    9086     9170     9251     9271     9280     9292     9241     9110 
    8947     8795     8679     8564     8394     8176     7961     7811 
    7735     7700     7719     7821     7962     8086     8216     8411 
    8677     8984     9340     9735    10085    10356    10614    10894 
   11149    11334    11453    11502    11467    11337    11121    10902 
   10722    10551    10420    10347    10268    10188    10164    10150 
   10068     9923     9768     9624     9502     9419     9347     9255 
    9182     9136     9044     8909     8796     8690     8594     8540 
    8428     8163     7837     7546     7235     6856     6490     6202 
    5906     5475     4893     4250     3647     3111     2615     2186 
    1905     1781     1735     1751     1880     2078     2262     2443 
    2660     2916     3217     3550     3856     4086     4248     4355 
    4409     4452     4496     4506     4540     4697     4961     5264 
    5593     5922     6180     6312     6344     6371     6429     6495 
    6559     6603     6595     6530     6411     6255     6120     6073 
    6102     6143     6206     6324     6454     6564     6672     6758 
    6780     6778     6824     6893     6902     6840     6746     6651 
    6588     6582     6644     6782     6967     7155     7367     7642 
    7968     8317     8638     8868     9023     9184     9388     9613 
    9852    10104    10341    10545    10708    10874    11118    11388 
   11585    11769    12051    12403    12767    13156    13559    13946 
   14340    14721    15018    15273    15568    15871    16112    16302 
   16490    16694    16906    17103    17233    17298    17365    17462 
   17596    17779    18016    18308    18622    18865    18964    18956 
   18918    18807    18536    18132    17693    17277    16933    16685 
