Origin Time       2011/03/11 14:46:00
Lat.              38.103
Long.             142.860
Depth. (km)       24
Mag.              9.0
Station Code      HKD175
Station Lat.      43.6015
Station Long.     141.3882
Station Height(m) 29
Record Time       2011/03/11 14:49:04
Sampling Freq(Hz) 100Hz
Duration Time(s)  222
Dir.              U-D
Scale Factor      3920(gal)/6182761
Max. Acc. (gal)   2.203
Last Correction   2011/03/11 14:48:49
Memo.             
[...]
    7081     7237     7374     7397     7349     7298     7261     7210 
    7131     7051     7012     7024     7043     7064     7136     7230 
    7274     7293     7337     7343     7226     7047     6936     6901 
    6848     6761     6678     6600     6564     6616     6712     6829 
    7004     7245     7516     7761     7947     8088     8196     8260 
    8246     8135     7978     7872     7860     7925     8026     8138 
    8240     8303     8327     8321     8273     8156     7990     7864 
    7815     7779     7714     7648     7619     7640     7694     7748 
    7788     7880     8098     8374     8572     8675     8764     8871 
    8957     8982     8936     8871     8860     8879     8842     8717 
    8534     8326     8133     7983     7864     7767     7675     7560 
    7434     7342     7303     7287     7277     7288     7336     7399 
    7459     7575     7827     8167     8468     8676     8830     8983 
    9150     9322     9489     9660     9853    10037    10163    10228 
   10222    10149    10057     9995     9976     9946     9818     9575 
    9253     8882     8504     8163     7862     7565     7272     7042 
    6915     6880     6915     7022     7191     7385     7589     7817 
    8040     8208     8326     8405     8413     8310     8093     7821 
    7570     7333     7068     6807     6593     6382     6112     5777 
    5421     5094     4812     4583     4422     4291     4138     3987 
    3918     3958     4066     4224     4421     4611     4788     5000 
    5258     5531     5787     5988     6087     6066     5939     5727 
    5461     5169     4851     4557     4395     4400     4497     4616 
    4743     4884     5018     5145     5326     5592     5896     6190 
    6440     6637     6778     6851     6844     6747     6589     6415 
    6244     6142     6170     6235     6227     6223     6379     6699 
    7027     7261     7429     7565     7675     7757     7771     7704 
    7641     7666     7752     7830     7901     7992     8050     8032 
    7992     7975     7945     7892     7861     7870     7870     7834 
    7814     7837     7863     7851     7794     7684     7534     7376 
    7228     7126     7088     7079     7088     7140     7207     7216 
    7150     7085     7077     7104     7121     7124     7131     7119 
    7067     7031     7051     7080     7088     7112     7159     7207 
    7293     7461     7661     7773     7741     7626     7496     7358 
    7211     7082     7012     6995     6981     6974     6994     7003 
    6990     6999     7015     6975     6904     6907     6973     6986 
    6938     6916     6938     6974     7056     7227     7455     7672 
    7842     7978     8098     8176     8169     8086     8001     7954 
    7868     7683     7463     7288     7165     7056     6936     6813 
    6724     6670     6613     6566     6560     6548     6497     6468 
    6530     6681     6883     7101     7270     7332     7333     7374 
    7456     7501     7493     7481     7472     7463     7525     7703 
    7926     8117     8265     8367     8410     8404     8356     8260 
    8122     7948     7740     7564     7504     7502     7452     7409 
    7488     7649     7777     7863     7933     7978     8013     8060 
    8119     8175     8200     8181     8154     8152     8177     8253 
    8416     8613     8765     8868     8939     8982     9037     9149 
    9292     9403     9472     9553     9668     9765     9814     9811 
    9733     9561     9318     9039     8776     8544     8329     8148 
    8013     7895     7797     7772     7831     7945     8096     8266 
    8413     8506     8552     8551     8435     8188     7910     7641 
    7374     7156     7002     6900     6883     6967     7095     7179 
    7198     7202     7227     7275     7350     7442     7508     7513 
    7477     7455     7453     7430     7371     7293     7188     7026 
    6830     6656     6510     6348     6161     5992     5869     5780 
    5722     5702     5726     5802     5915     6040     6186     6352 
    6471     6518     6552     6589     6610     6626     6634     6592 
    6481     6367     6337     6382     6442     6492     6529     6558 
    6629     6795     7007     7147     7196     7252     7364     7480 
    7553     7596     7656     7778     7927     8027     8055     8045 
    8047     8076     8121     8162     8163     8112     8026     7900 
    7732     7573     7468     7413     7391     7409     7445     7443 
    7431     7522     7713     7878     7969     8023     8055     8064 
    8076     8154     8310     8443     8497     8556     8699     8865 
    8968     9022     9079     9156     9220     9209     9106     8944 
    8733     8454     8106     7739     7430     7210     7064     6959 
    6885     6861     6890     6947     7008     7063     7099     7103 
    7096     7116     7123     7020     6798     6551     6316     6046 
    5757     5524     5366     5252     5175     5126     5110     5148 
    5222     5293     5353     5404     5455     5523     5607     5670 
    5670     5627     5582     5531     5455     5358     5272     5243 
    5272     5344     5466     5603     5692     5716     5735     5805 
    5889     5949     6027     6144     6277     6433     6639     6853 
    7009     7126     7264     7411     7526     7596     7643     7698 
    7767     7841     7883     7879     7876     7896     7925     7969 
    8004     8000     8003     8050     8093     8091     8066     8064 
    8086     8077     8028     7995     7984     7952     7884     7793 
    7686     7561     7474     7470     7507     7531     7540     7557 
    7625     7724     7774     7756     7722     7701     7667     7602 
    7559     7560     7549     7496     7420     7360     7370     7448 
    7517     7527     7519     7541     7564     7556     7544     7606 
    7757     7933     8118     8287     8346     8286     8192     8120 
    8076     8040     7976     7858     7705     7599     7602     7694 
    7826     7956     8029     8008     7910     7789     7657     7472 
    7244     7058     6958     6911     6892     6880     6856     6839 
    6841     6793     6658     6497     6355     6234     6163     6188 
    6295     6407     6478     6521     6552     6591     6650     6718 
    6815     6951     7068     7138     7201     7242     7191     7057 
    6912     6773     6623     6478     6352     6226     6093     5949 
    5800     5720     5753     5834     5901     5973     6082     6222 
    6388     6567     6739     6902     7035     7110     7161     7233 
    7315     7394     7462     7512     7538     7542     7522     7459 
    7373     7316     7291     7284     7300     7316     7330     7379 
    7468     7553     7606     7641     7663     7681     7724     7774 
    7794     7784     7719     7573     7381     7193     7029     6909 
    6873     6939     7081     7240     7353     7416     7470     7523 
    7542     7520     7456     7308     7085     6872     6704     6551 
    6405     6274     6160     6068     6019     6040     6121     6234 
    6353     6430     6477     6537     6586     6610     6645     6720 
    6855     7015     7127     7197     7276     7343     7338     7272 
    7203     7136     7051     6970     6922     6914     6922     6901 
    6840     6788     6760     6722     6683     6702     6793     6900 
    6997     7119     7279     7439     7555     7612     7636     7687 
    7780     7863     7914     7962     8020     8076     8166     8344 
    8618     8946     9260     9500     9667     9815     9955    10013 
    9951     9835     9704     9503     9223     8964     8808     8730 
    8668     8602     8527     8453     8447     8569     8775     8961 
    9064     9121     9211     9329     9388     9343     9225     9065 
    8864     8647     8436     8185     7897     7656     7497     7392 
    7323     7268     7211     7199     7268     7389     7503     7575 
    7622     7677     7763     7874     7967     8014     8003     7935 
    7847     7772     7706     7667     7666     7659     7635     7630 
    7645     7655     7672     7717     7779     7845     7929     8024 
    8078     8075     8052     8002     7912     7835     7794     7749 
    7700     7687     7706     7721     7704     7648     7567     7482 
    7409     7375     7362     7317     7251     7189     7112     6998 
    6870     6794     6803     6861     6952     7089     7270     7483 
    7723     7966     8174     8332     8451     8528     8552     8537 
    8481     8383     8297     8244     8189     8114     8033     7968 
    7928     7903     7900     7935     7990     8043     8130     8276 
    8406     8439     8398     8334     8271     8214     8115     7944 
    7768     7660     7607     7551     7498     7508     7590     7735 
    7940     8184     8448     8672     8773     8734     8575     8309 
    7988     7706     7522     7414     7342     7289     7236     7208 
    7253     7354     7484     7629     7746     7802     7805     7794 
    7768     7678     7555     7467     7393     7279     7119     6933 
    6730     6533     6378     6237     6065     5895     5765     5673 
    5628     5643     5694     5736     5757     5781     5827     5898 
    5978     6048     6103     6121     6091     6048     6029     6067 
    6158     6252     6347     6472     6627     6794     6954     7093 
    7188     7221     7218     7218     7201     7140     7064     7022 
    7010     6988     6919     6812     6723     6684     6652     6566 
    6417     6245     6081     5937     5832     5751     5627     5434 
    5224     5005     4724     4408     4146     3967     3859     3827 
    3861     3911     3952     3996     4003     3947     3917     3965 
    4049     4174     4369     4595     4803     5004     5241     5503 
    5745     5964     6172     6366     6534     6651     6750     6881 
    7017     7120     7227     7373     7507     7559     7556     7555 
    7545     7491     7398     7318     7310     7363     7428     7509 
    7619     7720     7788     7861     7970     8088     8181     8253 
    8323     8401     8461     8475     8491     8583     8706     8750 
    8689     8562     8419     8313     8271     8289     8357     8441 
    8497     8539     8623     8724     8732     8644     8587     8612 
    8656     8680     8693     8704     8709     8675     8585     8482 
    8404     8336     8272     8245     8281     8351     8409     8438 
    8451     8442     8376     8256     8143     8071     8014     7933 
    7823     7755     7797     7901     7977     8007     8041     8104 
    8162     8192     8209     8215     8206     8211     8263     8340 
    8402     8439     8431     8364     8289     8281     8322     8329 
    8291     8248     8218     8219     8266     8348     8428     8472 
    8483     8473     8432     8359     8279     8199     8099     7982 
    7875     7784     7717     7695     7693     7670     7634     7603 
    7532     7384     7218     7084     6942     6759     6562     6365 
    6142     5877     5612     5434     5404     5485     5577     5616 
    5631     5683     5782     5915     6056     6165     6225     6251 
    6244     6163     5973     5723     5517     5416     5430     5524 
    5618     5660     5657     5615     5535     5441     5379     5384 
    5430     5466     5522     5641     5790     5911     5990     6056 
    6107     6104     6039     5955     5872     5782     5690     5610 
    5557     5530     5541     5662     5956     6377     6829     7248 
    7563     7768     7933     8066     8127     8121     8027     7852 
    7674     7515     7324     7094     6882     6719     6585     6459 
    6344     6270     6260     6308     6417     6591     6792     6999 
    7202     7346     7392     7346     7256     7202     7185     7105 
    6934     6743     6570     6432     6353     6325     6308     6287 
    6291     6324     6360     6388     6387     6329     6226     6077 
    5870     5668     5547     5497     5471     5447     5419     5424 
    5502     5633     5783     5969     6211     6488     6793     7137 
    7498     7818     8081     8313     8503     8582     8519     8376 
    8221     8065     7908     7752     7590     7421     7287     7225 
    7214     7176     7066     6919     6789     6681     6549     6386 
    6266     6233     6271     6382     6545     6671     6730     6768 
    6795     6779     6713     6635     6587     6585     6606     6593 
    6527     6444     6376     6349     6370     6405     6443     6490 
    6526     6536     6542     6566     6616     6688     6764     6793 
    6758     6710     6686     6673     6684     6732     6782     6800 
    6812     6849     6858     6782     6664     6590     6579     6609 
    6659     6713     6772     6839     6908     6976     7015     7005 
    7000     7081     7254     7436     7553     7619     7679     7734 
    7750     7737     7734     7748     7753     7742     7744     7760 
    7774     7788     7814     7886     8024     8209     8415     8591 
    8705     8775     8806     8790     8769     8765     8726     8601 
    8420     8254     8138     8076     8074     8106     8121     8134 
    8208     8360     8552     8736     8879     8985     9076     9141 
    9142     9052     8875     8637     8400     8253     8215     8186 
    8111     8067     8143     8337     8583     8836     9106     9403 
    9695     9955    10188    10403    10591    10716    10762    10730 
   10623    10449    10209     9907     9582     9261     8937     8623 
    8359     8154     7965     7754     7541     7356     7191     7058 
    7001     7040     7136     7221     7264     7287     7288     7260 
    7244     7274     7324     7357     7352     7295     7204     7134 
    7146     7241     7353     7425     7416     7306     7134     6961 
    6799     6682     6671     6757     6838     6849     6833     6810 
    6721     6528     6283     6052     5836     5620     5457     5419 
    5491     5581     5607     5562     5483     5399     5339     5321 
    5348     5427     5528     5586     5605     5633     5663     5662 
    5644     5612     5505     5337     5220     5203     5256     5358 
    5511     5714     5926     6085     6152     6140     6099     6091 
    6167     6345     6577     6779     6897     6944     6958     6945 
    6892     6804     6679     6557     6527     6592     6664     6723 
    6843     7034     7241     7460     7707     7954     8166     8339 
    8483     8582     8595     8493     8325     8175     8055     7942 
    7867     7865     7903     7948     8000     8028     8010     7977 
    7933     7842     7729     7641     7569     7503     7461     7452 
    7421     7311     7167     7063     6994     6922     6837     6759 
    6718     6725     6778     6884     7035     7178     7273     7343 
    7437     7567     7668     7672     7580     7423     7211     6943 
    6639     6362     6170     6073     6036     6034     6071     6151 
    6290     6510     6758     6959     7118     7275     7429     7532 
    7540     7485     7436     7424     7447     7499     7608     7774 
    7925     8029     8114     8183     8181     8071     7909     7756 
    7594     7420     7300     7292     7366     7450     7533     7628 
    7729     7833     7906     7916     7886     7854     7813     7733 
    7631     7565     7552     7587     7686     7845     8028     8204 
    8388     8622     8902     9174     9380     9503     9588     9675 
    9752     9796     9807     9782     9718     9593     9401     9193 
    8988     8783     8628     8549     8504     8452     8393     8336 
    8259     8153     8057     8000     7946     7873     7812     7794 
    7824     7872     7889     7880     7905     8006     8172     8337 
    8468     8624     8827     8988     9046     9025     8945     8805 
    8623     8447     8326     8257     8205     8160     8133     8130 
    8119     8098     8119     8180     8248     8324     8404     8491 
    8600     8707     8754     8713     8646     8616     8582     8501 
    8395     8271     8135     7999     7858     7719     7593     7487 
    7416     7365     7321     7321     7378     7444     7497     7531 
    7520     7458     7377     7297     7231     7179     7146     7149 
    7211     7320     7435     7540     7660     7780     7856     7894 
    7902     7861     7797     7773     7817     7889     7966     8056 
    8134     8177     8209     8245     8275     8295     8299     8264 
    8188     8111     8042     7938     7834     7815     7880     7979 
    8109     8255     8368     8427     8439     8397     8313     8246 
    8232     8257     8282     8287     8290     8339     8456     8614 
    8781     8945     9095     9208     9277     9319     9348     9353 
    9321     9277     9238     9172     9105     9115     9209     9323 
    9418     9493     9538     9532     9474     9372     9231     9043 
    8826     8643     8540     8518     8551     8600     8637     8675 
    8726     8748     8705     8612     8500     8380     8245     8105 
    8008     7962     7931     7889     7868     7929     8062     8193 
    8299     8414     8534     8651     8790     8943     9045     9063 
    9031     8966     8841     8657     8463     8294     8135     7969 
    7813     7688     7578     7431     7237     7058     6947     6896 
    6894     6949     7068     7262     7516     7756     7917     7975 
    7915     7737     7478     7208     7009     6905     6853     6834 
    6880     7005     7192     7426     7670     7857     7984     8104 
    8214     8273     8254     8152     8002     7874     7805     7779 
    7770     7755     7702     7624     7588     7630     7712     7789 
    7845     7885     7933     8001     8052     8072     8054     7970 
    7833     7684     7539     7393     7217     7035     6936     6944 
    7016     7099     7152     7160     7139     7124     7134     7145 
    7154     7191     7252     7298     7318     7306     7236     7099 
    6935     6804     6725     6682     6674     6683     6683     6680 
    6697     6756     6825     6849     6833     6809     6790     6809 
    6887     7004     7124     7256     7454     7710     7927     8051 
    8132     8207     8257     8267     8256     8236     8187     8079 
    7904     7699     7515     7339     7142     6936     6750     6591 
    6429     6246     6072     5937     5851     5798     5735     5653 
    5598     5595     5606     5592     5580     5615     5679     5747 
    5830     5908     5927     5863     5737     5606     5492     5349 
    5170     5016     4914     4838     4762     4681     4601     4543 
    4535     4562     4578     4600     4678     4792     4890     4983 
    5090     5190     5253     5260     5238     5223     5216     5209 
    5211     5224     5247     5266     5272     5280     5287     5283 
    5285     5312     5376     5480     5589     5681     5808     6018 
    6277     6504     6660     6775     6877     6946     6993     7079 
    7214     7347     7457     7564     7670     7734     7736     7713 
    7719     7762     7790     7764     7718     7684     7648     7610 
    7579     7551     7531     7516     7499     7483     7442     7353 
