Origin Time       2011/03/11 14:46:00
Lat.              38.103
Long.             142.860
Depth. (km)       24
Mag.              9.0
Station Code      HKD123
Station Lat.      42.9933
Station Long.     142.0085
Station Height(m) 194
Record Time       2011/03/11 14:48:38
Sampling Freq(Hz) 100Hz
Duration Time(s)  264
Dir.              U-D
Scale Factor      3920(gal)/6182761
Max. Acc. (gal)   4.316
Last Correction   2011/03/11 14:48:23
Memo.             
[...]
  -16075   -16224   -16349   -16456   -16533   -16585   -16603   -16557 
  -16478   -16426   -16390   -16313   -16190   -16118   -16191   -16368 
  -16558   -16756   -16984   -17146   -17095   -16885   -16715   -16668 
  -16693   -16717   -16725   -16817   -17046   -17312   -17505   -17589 
  -17587   -17553   -17490   -17381   -17284   -17244   -17221   -17228 
  -17302   -17385   -17439   -17528   -17648   -17712   -17638   -17415 
  -17146   -16946   -16808   -16687   -16598   -16545   -16509   -16524 
  -16653   -16938   -17348   -17744   -17987   -18060   -18059   -18092 
  -18194   -18314   -18431   -18606   -18848   -19056   -19171   -19210 
  -19208   -19212   -19249   -19303   -19358   -19416   -19473   -19530 
  -19619   -19785   -20051   -20391   -20726   -20978   -21131   -21185 
  -21132   -20984   -20764   -20524   -20349   -20270   -20230   -20103 
  -19784   -19323   -18866   -18492   -18215   -18055   -18026   -18080 
  -18144   -18207   -18265   -18219   -18025   -17826   -17791   -17956 
  -18284   -18722   -19161   -19477   -19665   -19800   -19899   -19911 
  -19833   -19785   -19855   -19928   -19863   -19747   -19752   -19877 
  -19971   -19938   -19815   -19666   -19514   -19402   -19370   -19400 
  -19446   -19460   -19409   -19326   -19308   -19419   -19644   -19957 
  -20304   -20597   -20792   -20861   -20790   -20653   -20515   -20314 
  -20000   -19645   -19307   -18925   -18474   -18086   -17876   -17764 
  -17601   -17359   -17099   -16835   -16538   -16215   -15925   -15707 
  -15535   -15399   -15386   -15556   -15844   -16166   -16486   -16751 
  -16914   -16982   -17025   -17122   -17245   -17290   -17215   -17067 
  -16918   -16829   -16818   -16850   -16872   -16866   -16857   -16865 
  -16900   -16949   -16972   -16919   -16791   -16674   -16638   -16621 
  -16521   -16317   -16086   -15919   -15825   -15764   -15749   -15786 
  -15829   -15841   -15798   -15668   -15465   -15232   -15026   -14924 
  -14954   -15069   -15183   -15211   -15140   -15053   -15029   -15119 
  -15345   -15638   -15868   -16043   -16311   -16731   -17178   -17499 
  -17700   -17946   -18337   -18795   -19224   -19589   -19855   -20018 
  -20127   -20154   -20014   -19771   -19626   -19674   -19812   -19920 
  -20036   -20222   -20374   -20392   -20328   -20255   -20200   -20207 
  -20327   -20550   -20821   -21115   -21443   -21787   -22063   -22221 
  -22305   -22385   -22478   -22566   -22586   -22480   -22289   -22105 
  -21961   -21865   -21800   -21656   -21315   -20795   -20227   -19727 
  -19293   -18856   -18475   -18291   -18270   -18229   -18088   -17939 
  -17890   -17894   -17815   -17665   -17633   -17882   -18438   -19198 
  -19946   -20472   -20704   -20692   -20556   -20407   -20285   -20229 
  -20296   -20433   -20499   -20412   -20181   -19843   -19438   -19058 
  -18831   -18785   -18790   -18737   -18640   -18464   -18131   -17690 
  -17297   -17028   -16830   -16657   -16565   -16588   -16633   -16611 
  -16522   -16382   -16197   -16035   -16033   -16215   -16447   -16638 
  -16829   -17076   -17348   -17565   -17729   -17924   -18216   -18595 
  -18992   -19332   -19573   -19699   -19705   -19619   -19526   -19505 
  -19576   -19701   -19789   -19776   -19692   -19593   -19528   -19551 
  -19635   -19675   -19637   -19554   -19433   -19257   -18994   -18624 
  -18182   -17742   -17381   -17133   -16984   -16965   -17116   -17357 
  -17545   -17580   -17401   -17063   -16772   -16671   -16692   -16684 
  -16610   -16545   -16473   -16293   -16068   -15987   -16050   -16072 
  -16035   -16084   -16205   -16219   -16055   -15846   -15756   -15758 
  -15706   -15581   -15456   -15289   -14982   -14577   -14226   -14018 
  -13970   -14063   -14260   -14555   -14925   -15267   -15503   -15647 
  -15693   -15603   -15409   -15208   -15085   -15101   -15327   -15766 
  -16276   -16672   -16861   -16861   -16757   -16634   -16556   -16594 
  -16761   -16997   -17278   -17588   -17864   -18075   -18228   -18309 
  -18370   -18527   -18808   -19156   -19520   -19862   -20161   -20382 
  -20461   -20404   -20289   -20155   -20024   -19949   -19940   -19920 
  -19818   -19680   -19595   -19523   -19364   -19150   -18993   -18925 
  -18876   -18792   -18660   -18452   -18164   -17882   -17711   -17680 
  -17741   -17832   -17953   -18168   -18465   -18729   -18898   -19010 
  -19110   -19242   -19448   -19711   -19973   -20165   -20253   -20295 
  -20323   -20247   -20060   -19894   -19793   -19660   -19387   -19028 
  -18809   -18856   -19042   -19171   -19146   -18964   -18710   -18474 
  -18285   -18165   -18160   -18248   -18345   -18404   -18442   -18507 
  -18601   -18660   -18666   -18675   -18707   -18722   -18639   -18398 
  -18076   -17819   -17675   -17598   -17529   -17422   -17287   -17182 
  -17143   -17171   -17211   -17174   -17080   -17039   -17072   -17134 
  -17223   -17349   -17523   -17773   -18065   -18313   -18471   -18538 
  -18574   -18684   -18827   -18851   -18755   -18673   -18708   -18876 
  -19085   -19217   -19255   -19272   -19331   -19425   -19473   -19461 
  -19489   -19617   -19798   -19974   -20087   -20106   -20091   -20121 
  -20206   -20316   -20404   -20433   -20422   -20430   -20494   -20567 
  -20519   -20258   -19834   -19385   -19000   -18664   -18328   -18019 
  -17840   -17824   -17854   -17773   -17549   -17316   -17201   -17162 
  -17102   -17006   -16883   -16736   -16602   -16505   -16461   -16493 
  -16534   -16510   -16483   -16493   -16486   -16463   -16481   -16602 
  -16847   -17075   -17158   -17231   -17449   -17721   -17912   -18013 
  -18049   -18026   -17973   -17924   -17875   -17805   -17720   -17626 
  -17494   -17298   -17076   -16853   -16546   -16136   -15799   -15629 
  -15473   -15169   -14793   -14516   -14360   -14250   -14229   -14405 
  -14725   -15039   -15304   -15566   -15825   -16014   -16079   -16055 
  -16068   -16235   -16533   -16802   -16903   -16838   -16696   -16558 
  -16469   -16434   -16431   -16469   -16611   -16902   -17323   -17791 
  -18185   -18406   -18470   -18495   -18576   -18680   -18710   -18696 
  -18785   -19007   -19196   -19219   -19118   -18959   -18792   -18692 
  -18666   -18638   -18581   -18554   -18616   -18747   -18879   -19038 
  -19312   -19686   -20069   -20463   -20927   -21436   -21870   -22137 
  -22286   -22450   -22679   -22883   -22961   -22910   -22810   -22669 
  -22392   -21967   -21520   -21131   -20771   -20412   -20082   -19816 
  -19612   -19458   -19368   -19336   -19318   -19332   -19437   -19598 
  -19754   -19920   -20096   -20232   -20304   -20316   -20281   -20213 
  -20108   -19974   -19886   -19914   -20035   -20145   -20121   -19921 
  -19685   -19571   -19516   -19388   -19189   -18982   -18804   -18700 
  -18687   -18730   -18767   -18732   -18587   -18358   -18080   -17796 
  -17587   -17476   -17381   -17244   -17061   -16810   -16466   -16059 
  -15674   -15431   -15392   -15542   -15868   -16315   -16717   -16947 
  -17041   -17130   -17298   -17470   -17537   -17600   -17834   -18178 
  -18418   -18437   -18321   -18230   -18190   -18141   -18102   -18099 
  -18088   -18095   -18227   -18446   -18606   -18654   -18657   -18703 
  -18808   -18931   -19104   -19383   -19731   -20089   -20418   -20656 
  -20776   -20792   -20751   -20716   -20694   -20662   -20666   -20731 
  -20784   -20788   -20795   -20862   -21024   -21224   -21336   -21311 
  -21211   -21104   -21018   -20900   -20663   -20342   -20071   -19920 
  -19883   -19895   -19857   -19730   -19556   -19406   -19319   -19298 
  -19330   -19443   -19651   -19850   -19947   -19988   -20042   -20084 
  -20049   -19956   -19912   -19976   -20067   -20098   -20104   -20148 
  -20211   -20238   -20204   -20142   -20083   -20026   -20023   -20132 
  -20247   -20189   -19941   -19642   -19411   -19265   -19162   -19098 
  -19097   -19138   -19179   -19195   -19150   -19019   -18882   -18860 
  -18908   -18863   -18656   -18363   -18098   -17900   -17761   -17715 
  -17743   -17720   -17598   -17466   -17362   -17219   -16978   -16677 
  -16438   -16321   -16290   -16342   -16509   -16717   -16802   -16750 
  -16723   -16827   -17046   -17340   -17687   -18082   -18514   -18961 
  -19387   -19740   -19979   -20096   -20128   -20120   -20086   -20044 
  -20036   -20119   -20317   -20587   -20896   -21204   -21382   -21371 
  -21254   -21108   -20954   -20825   -20773   -20828   -20954   -21079 
  -21147   -21118   -20957   -20647   -20219   -19750   -19323   -18982 
  -18713   -18470   -18203   -17876   -17499   -17122   -16786   -16472 
  -16146   -15860   -15696   -15656   -15684   -15757   -15891   -16077 
  -16263   -16372   -16353   -16199   -15959   -15731   -15573   -15461 
  -15368   -15287   -15186   -15033   -14829   -14631   -14525   -14536 
  -14623   -14746   -14869   -14981   -15120   -15325   -15584   -15796 
  -15837   -15725   -15606   -15576   -15595   -15593   -15616   -15779 
  -16090   -16449   -16820   -17222   -17584   -17812   -17947   -18069 
  -18155   -18135   -18006   -17868   -17839   -17903   -17951   -17933 
  -17862   -17752   -17626   -17500   -17410   -17446   -17616   -17818 
  -17989   -18151   -18322   -18504   -18682   -18808   -18857   -18887 
  -18965   -19069   -19112   -19064   -18979   -18903   -18829   -18782 
  -18839   -18975   -19046   -19038   -19125   -19376   -19627   -19706 
  -19654   -19635   -19684   -19717   -19734   -19812   -19967   -20154 
  -20341   -20531   -20730   -20939   -21157   -21348   -21422   -21333 
  -21184   -21099   -21036   -20887   -20638   -20343   -20082   -19939 
  -19939   -20026   -20142   -20274   -20439   -20585   -20571   -20374 
  -20186   -20183   -20334   -20511   -20646   -20739   -20787   -20783 
  -20724   -20646   -20592   -20550   -20491   -20426   -20365   -20259 
  -20072   -19892   -19829   -19842   -19808   -19708   -19614   -19531 
  -19404   -19273   -19223   -19222   -19153   -19013   -18908   -18891 
  -18934   -18999   -19085   -19219   -19390   -19554   -19717   -19890 
  -20015   -20034   -19969   -19881   -19789   -19646   -19452   -19316 
  -19292   -19290   -19244   -19188   -19164   -19153   -19127   -19082 
  -19007   -18864   -18635   -18387   -18229   -18170   -18111   -17977 
  -17754   -17478   -17231   -17053   -16905   -16752   -16572   -16350 
  -16152   -16070   -16147   -16404   -16813   -17301   -17839   -18367 
  -18742   -18914   -18999   -19132   -19362   -19655   -19945   -20221 
  -20508   -20747   -20854   -20838   -20778   -20759   -20757   -20649 
  -20451   -20326   -20331   -20389   -20437   -20472   -20498   -20523 
  -20552   -20573   -20573   -20526   -20418   -20283   -20167   -20103 
  -20085   -20038   -19898   -19715   -19580   -19511   -19427   -19228 
  -18932   -18694   -18615   -18643   -18716   -18829   -18975   -19091 
  -19079   -18899   -18630   -18381   -18202   -18098   -18059   -18052 
  -18045   -18000   -17895   -17783   -17736   -17754   -17800   -17838 
  -17860   -17892   -17921   -17900   -17828   -17720   -17572   -17417 
  -17303   -17245   -17252   -17336   -17475   -17621   -17752   -17902 
  -18116   -18378   -18661   -18979   -19289   -19466   -19480   -19434 
  -19433   -19523   -19697   -19909   -20145   -20371   -20472   -20437 
  -20402   -20468   -20624   -20796   -20954   -21175   -21491   -21744 
  -21780   -21681   -21633   -21685   -21763   -21823   -21900   -22047 
  -22217   -22320   -22336   -22283   -22195   -22092   -21923   -21668 
  -21436   -21293   -21188   -21080   -20990   -20932   -20894   -20873 
  -20894   -20960   -20992   -20917   -20781   -20667   -20609   -20647 
  -20772   -20865   -20863   -20828   -20783   -20673   -20503   -20374 
  -20380   -20491   -20608   -20733   -20909   -21064   -21123   -21128 
  -21127   -21111   -21076   -21063   -21063   -21013   -20951   -21016 
  -21237   -21467   -21546   -21457   -21335   -21314   -21392   -21463 
  -21460   -21392   -21280   -21081   -20721   -20228   -19772   -19464 
  -19202   -18878   -18562   -18329   -18132   -17912   -17681   -17500 
  -17410   -17394   -17437   -17508   -17507   -17386   -17253   -17228 
  -17295   -17327   -17258   -17187   -17256   -17424   -17505   -17410 
  -17212   -17041   -16969   -16973   -17010   -17083   -17182   -17297 
  -17481   -17744   -18000   -18227   -18494   -18802   -19075   -19272 
  -19375   -19397   -19385   -19372   -19376   -19373   -19338   -19337 
  -19446   -19626   -19795   -19879   -19833   -19736   -19688   -19632 
  -19489   -19332   -19266   -19318   -19445   -19546   -19560   -19491 
  -19337   -19143   -19032   -19020   -19014   -18972   -18887   -18750 
  -18600   -18496   -18446   -18368   -18139   -17769   -17386   -17052 
  -16795   -16685   -16692   -16668   -16553   -16400   -16229   -16018 
  -15770   -15511   -15297   -15182   -15165   -15206   -15238   -15201 
  -15093   -14931   -14739   -14592   -14545   -14565   -14605   -14655 
  -14697   -14701   -14643   -14547   -14488   -14509   -14578   -14686 
  -14859   -15077   -15300   -15504   -15676   -15855   -16035   -16094 
  -16018   -15986   -16119   -16376   -16669   -16921   -17124   -17327 
  -17494   -17552   -17535   -17530   -17605   -17790   -18046   -18322 
  -18619   -18936   -19206   -19330   -19266   -19075   -18866   -18713 
  -18658   -18699   -18745   -18709   -18622   -18527   -18362   -18083 
  -17729   -17371   -17061   -16767   -16449   -16178   -16023   -15922 
  -15785   -15597   -15359   -15040   -14620   -14173   -13858   -13725 
  -13609   -13351   -12996   -12680   -12433   -12179   -11911   -11757 
  -11796   -11946   -12118   -12339   -12659   -13059   -13460   -13807 
  -14114   -14396   -14648   -14878   -15082   -15208   -15245   -15270 
  -15344   -15448   -15534   -15540   -15481   -15472   -15550   -15668 
  -15840   -16092   -16417   -16792   -17126   -17325   -17393   -17411 
  -17483   -17665   -17839   -17845   -17695   -17515   -17410   -17405 
  -17434   -17440   -17425   -17395   -17349   -17296   -17232   -17130 
  -17011   -16930   -16935   -17057   -17255   -17467   -17716   -18011 
  -18285   -18506   -18673   -18808   -18943   -19078   -19248   -19504 
  -19813   -20107   -20362   -20567   -20719   -20877   -21104   -21352 
  -21553   -21701   -21823   -21960   -22130   -22298   -22426   -22471 
  -22371   -22130   -21826   -21519   -21251   -21017   -20809   -20692 
  -20680   -20692   -20728   -20871   -21132   -21428   -21655   -21800 
  -21948   -22116   -22192   -22122   -21993   -21909   -21884   -21884 
  -21899   -21947   -22015   -22037   -21977   -21868   -21700   -21459 
  -21210   -20998   -20818   -20675   -20558   -20486   -20517   -20615 
  -20669   -20648   -20558   -20417   -20279   -20145   -19995   -19918 
  -19984   -20121   -20234   -20230   -20062   -19848   -19721   -19676 
  -19654   -19588   -19462   -19379   -19374   -19353   -19311   -19323 
  -19372   -19408   -19437   -19447   -19417   -19372   -19310   -19201 
  -19074   -18973   -18893   -18821   -18750   -18692   -18637   -18520 
  -18312   -18070   -17854   -17687   -17607   -17679   -17894   -18164 
  -18425   -18632   -18751   -18775   -18725   -18653   -18586   -18491 
  -18401   -18385   -18395   -18329   -18201   -18125   -18176   -18300 
  -18383   -18396   -18371   -18284   -18100   -17875   -17725   -17718 
  -17813   -17911   -17990   -18092   -18201   -18250   -18193   -18044 
  -17884   -17782   -17786   -17929   -18148   -18330   -18441   -18486 
  -18467   -18391   -18229   -17965   -17652   -17333   -17029   -16762 
  -16482   -16139   -15789   -15537   -15416   -15368   -15344   -15324 
  -15277   -15217   -15193   -15190   -15146   -15033   -14867   -14691 
  -14546   -14511   -14656   -14907   -15137   -15345   -15581   -15799 
  -15916   -15881   -15686   -15375   -15011   -14652   -14373   -14220 
  -14200   -14334   -14568   -14754   -14813   -14797   -14776   -14816 
  -14967   -15212   -15497   -15758   -15968   -16198   -16534   -16974 
  -17459   -17906   -18258   -18518   -18734   -18931   -19086   -19208 
  -19325   -19440   -19529   -19580   -19607   -19644   -19670   -19602 
  -19449   -19322   -19315   -19446   -19633   -19761   -19810   -19843 
  -19897   -19943   -19941   -19892   -19842   -19830   -19871   -19969 
  -20079   -20119   -20101   -20131   -20258   -20445   -20625   -20751 
  -20837   -20937   -21060   -21179   -21299   -21453   -21636   -21811 
  -21957   -22065   -22113   -22095   -22038   -21982   -21915   -21781 
  -21621   -21554   -21606   -21695   -21804   -21987   -22216   -22366 
  -22369   -22282   -22189   -22115   -22060   -22079   -22227   -22434 
  -22567   -22620   -22669   -22692   -22590   -22319   -21942   -21585 
  -21307   -21069   -20869   -20740   -20632   -20486   -20315   -20167 
  -20079   -20016   -19903   -19749   -19629   -19570   -19562   -19570 
  -19514   -19375   -19271   -19290   -19371   -19401   -19311   -19100 
  -18817   -18477   -18076   -17662   -17285   -16974   -16769   -16673 
  -16626   -16621   -16742   -17008   -17294   -17448   -17453   -17475 
  -17653   -17896   -18042   -18101   -18200   -18390   -18604   -18797 
  -18980   -19133   -19188   -19155   -19122   -19114   -19046   -18879 
  -18740   -18772   -18954   -19149   -19258   -19308   -19381   -19481 
  -19566   -19629   -19683   -19719   -19732   -19749   -19804   -19901 
  -20004   -20070   -20111   -20166   -20223   -20258   -20314   -20472 
  -20729   -20979   -21150   -21254   -21291   -21220   -21053   -20872 
  -20695   -20470   -20212   -20011   -19898   -19845   -19827   -19811 
  -19746   -19592   -19369   -19182   -19112   -19148   -19227   -19296 
  -19353   -19434   -19561   -19743   -19942   -20045   -19981   -19805 
  -19619   -19483   -19399   -19335   -19271   -19190   -19079   -18919 
  -18714   -18487   -18243   -17987   -17744   -17526   -17307   -17058 
  -16800   -16593   -16475   -16452   -16486   -16513   -16518   -16520 
  -16537   -16577   -16603   -16558   -16462   -16431   -16516   -16607 
  -16556   -16343   -16062   -15816   -15632   -15511   -15457   -15436 
  -15415   -15431   -15504   -15565   -15534   -15414   -15294   -15257 
  -15282   -15317   -15371   -15450   -15522   -15566   -15582   -15619 
  -15725   -15880   -16033   -16147   -16185   -16115   -15935   -15718 
  -15565   -15510   -15483   -15412   -15334   -15307   -15293   -15244 
  -15153   -15001   -14816   -14688   -14634   -14578   -14444   -14237 
  -14055   -13964   -13914   -13864   -13841   -13836   -13796   -13698 
  -13568   -13457   -13398   -13325   -13147   -12902   -12741   -12743 
  -12805   -12784   -12699   -12691   -12803   -12927   -12970   -12934 
  -12806   -12577   -12345   -12229   -12272   -12453   -12713   -13003 
  -13302   -13564   -13738   -13834   -13926   -14094   -14382   -14775 
  -15197   -15542   -15730   -15781   -15835   -16019   -16296   -16560 
  -16825   -17173   -17604   -18033   -18402   -18700   -18937   -19113 
  -19197   -19175   -19110   -19075   -19096   -19184   -19331   -19446 
  -19403   -19180   -18878   -18601   -18371   -18158   -17961   -17796 
  -17655   -17558   -17574   -17758   -18098   -18500   -18839   -19028 
  -19058   -18989   -18924   -18977   -19185   -19507   -19892   -20258 
  -20536   -20744   -20878   -20889   -20810   -20740   -20739   -20803 
  -20910   -21081   -21326   -21541   -21613   -21566   -21440   -21214 
