Origin Time       2011/03/11 14:46:00
Lat.              38.103
Long.             142.860
Depth. (km)       24
Mag.              9.0
Station Code      HKD156
Station Lat.      41.8996
Station Long.     140.6960
Station Height(m) 84
Record Time       2011/03/11 14:47:50
Sampling Freq(Hz) 100Hz
Duration Time(s)  292
Dir.              E-W
Scale Factor      3920(gal)/6182761
Max. Acc. (gal)   10.114
Last Correction   2011/03/11 14:47:35
Memo.             
[...]
     698      928      703      249     -348    -1059    -1724    -2118 
   -2130    -1843    -1511    -1353    -1390    -1483    -1413    -1023 
    -343      472     1194     1594     1534      901     -383    -2144 
   -3863    -4903    -4880    -3928    -2532    -1137      -68      402 
     159     -658    -1689    -2541    -2971    -2999    -2867    -2751 
   -2663    -2571    -2396    -2116    -1895    -1955    -2461    -3456 
   -4794    -6261    -7670    -8897    -9897   -10590   -10871   -10740 
  -10143    -8984    -7518    -6328    -5875    -6218    -7125    -8357 
   -9675   -10779   -11538   -11957   -12013   -11729   -11134   -10154 
   -8744    -7054    -5502    -4601    -4631    -5550    -7097    -8894 
  -10588   -11880   -12501   -12297   -11293    -9747    -8077    -6636 
   -5613    -5042    -4866    -5046    -5533    -6149    -6613    -6735 
   -6538    -6147    -5640    -5070    -4484    -3882    -3251    -2598 
   -2054    -1826    -1964    -2385    -2915    -3261    -3317    -3254 
   -3210    -3191    -3043    -2578    -1913    -1348    -1057    -1073 
   -1284    -1520    -1752    -2070    -2515    -2996    -3223    -2842 
   -1870     -773      -72      -40     -557    -1145    -1382    -1229 
    -943     -886    -1326    -2222    -3305    -4262    -4834    -4983 
   -4899    -4813    -4883    -5086    -5303    -5530    -5865    -6262 
   -6372    -5821    -4576    -2896    -1233       25      783      950 
     316    -1085    -2913    -4812    -6545    -7934    -8773    -8912 
   -8521    -8026    -7768    -7888    -8318    -8849    -9384    -9961 
  -10572   -11026   -10964   -10197    -8834    -7108    -5388    -4113 
   -3546    -3632    -4020    -4381    -4568    -4463    -4046    -3420 
   -2661    -1816     -977     -353     -189     -609    -1632    -3162 
   -4896    -6252    -6654    -5940    -4379    -2576    -1272    -1005 
   -1969    -3985    -6541    -8937   -10466   -10660    -9524    -7567 
   -5543    -4091    -3568    -4006    -5097    -6351    -7452    -8416 
   -9278    -9835    -9832    -9241    -8255    -7114    -6153    -5819 
   -6256    -7184    -8268    -9332   -10246   -10761   -10644    -9935 
   -8884    -7747    -6605    -5474    -4534    -3959    -3696    -3533 
   -3329    -3121    -2890    -2477    -1754     -828      -47      339 
     278     -301    -1462    -3063    -4674    -5765    -6088    -5757 
   -4919    -3588    -1875     -120     1277     2031     1905      740 
   -1272    -3613    -5730    -7198    -7900    -8041    -7869    -7515 
   -7023    -6444    -5963    -5787    -6002    -6517    -7077    -7475 
   -7692    -7692    -7278    -6301    -4945    -3537    -2220    -1039 
    -140      337      493      646     1009     1535     2079     2458 
    2411     1706      327    -1469    -3318    -4850    -5598    -5244 
   -3879    -1828      529     2690     4092     4463     4027     3189 
    2126      783     -844    -2629    -4466    -6213    -7512    -7982 
   -7563    -6502    -5170    -3995    -3386    -3641    -4764    -6392 
   -8084    -9497   -10297   -10270    -9483    -8171    -6654    -5330 
   -4492    -4241    -4544    -5253    -6091    -6672    -6692    -6181 
   -5335    -4238    -2963    -1641     -496       74     -174    -1098 
   -2266    -3077    -3228    -2895    -2300    -1544     -769     -219 
     -88     -345     -896    -1752    -2877    -3993    -4731    -5048 
   -5175    -5257    -5358    -5502    -5617    -5671    -5677    -5644 
   -5654    -5897    -6560    -7513    -8333    -8833    -9169    -9502 
   -9841   -10084   -10097    -9820    -9229    -8322    -7243    -6188 
   -5252    -4589    -4504    -5265    -6806    -8598   -10017   -10736 
  -10717   -10079    -8947    -7457    -5802    -4161    -2800    -2134 
   -2373    -3280    -4371    -5275    -5991    -6813    -7948    -9093 
   -9589    -9145    -8063    -6735    -5379    -4276    -3873    -4462 
   -5927    -7839    -9631   -10795   -11113   -10647    -9501    -7815 
   -5996    -4674    -4199    -4382    -4813    -5221    -5472    -5419 
   -5030    -4556    -4284    -4322    -4711    -5393    -6178    -6967 
   -7687    -8068    -7786    -6704    -5015    -3194    -1634     -546 
     -61      -90     -324     -465     -355        0      428      619 
     397      -90     -590     -936    -1136    -1400    -1913    -2703 
   -3690    -4684    -5479    -5931    -5971    -5678    -5253    -4917 
   -4824    -4890    -4840    -4582    -4166    -3607    -2984    -2445 
   -2248    -2699    -3825    -5439    -7304    -9108   -10573   -11486 
  -11797   -11720   -11488   -11300   -11433   -12074   -13195   -14520 
  -15668   -16446   -16725   -16325   -15263   -13830   -12456   -11526 
  -11126   -11033   -10993   -10938   -10998   -11256   -11582   -11720 
  -11472   -10817    -9821    -8472    -6685    -4478    -2131      -75 
    1282     1640      991     -312    -1718    -2715    -3118    -3167 
   -3228    -3409    -3523    -3372    -2967    -2477    -2102    -1985 
   -2115    -2309    -2353    -2093    -1512     -776     -140      176 
     110     -227     -749    -1488    -2494    -3766    -5171    -6408 
   -7138    -7188    -6697    -6026    -5424    -4953    -4604    -4271 
   -3852    -3454    -3409    -4036    -5224    -6391    -6968    -6737 
   -5732    -4087    -1983      342     2434     3775     4208     3954 
    3417     2916     2454     2004     1690     1475     1117      483 
    -343    -1181    -1927    -2462    -2553    -2148    -1466     -662 
     248     1125     1659     1567      652    -1143    -3579    -6104 
   -8049    -8970    -8890    -8129    -7043    -5899    -4823    -3902 
   -3307    -3211    -3629    -4365    -5070    -5422    -5275    -4657 
   -3718    -2681    -1722     -874     -135      332      210     -809 
   -2798    -5456    -8221   -10438   -11681   -12009   -11670   -10795 
   -9497    -7954    -6317    -4699    -3269    -2248    -1700    -1481 
   -1549    -2072    -3051    -4137    -4938    -5305    -5270    -4860 
   -4052    -2986    -2089    -1795    -2303    -3560    -5149    -6518 
   -7553    -8497    -9448   -10219   -10450    -9921    -8682    -6904 
   -4961    -3403    -2525    -2315    -2626    -3121    -3425    -3433 
   -3336    -3514    -4248    -5415    -6573    -7234    -7024    -5958 
   -4574    -3540    -3237    -3698    -4712    -5911    -6958    -7650 
   -7902    -7695    -6952    -5652    -3968    -2219     -872     -398 
   -1071    -2822    -5113    -7175    -8503    -9053    -9019    -8559 
   -7872    -7294    -7119    -7354    -7810    -8322    -8757    -9124 
   -9630   -10327   -10933   -11067   -10607    -9791    -8954    -8346 
   -8027    -7880    -7775    -7586    -7332    -7166    -7069    -6906 
   -6524    -5756    -4687    -3638    -2844    -2288    -1810    -1411 
   -1258    -1383    -1567    -1542    -1247     -823     -503     -505 
    -921    -1745    -2890    -4129    -5185    -5944    -6356    -6295 
   -5746    -4961    -4337    -4261    -5005    -6590    -8666   -10616 
  -11916   -12321   -11767   -10289    -8111    -5760    -3949    -3206 
   -3603    -4799    -6270    -7524    -8169    -8051    -7393    -6618 
   -6065    -5892    -6065    -6372    -6577    -6690    -6924    -7292 
   -7531    -7471    -7090    -6364    -5356    -4229    -3148    -2209 
   -1405     -797     -511     -521     -841    -1684    -2988    -4320 
   -5337    -5870    -5793    -5005    -3518    -1634       91     1182 
    1369      544    -1162    -3462    -6053    -8587   -10664   -11865 
  -11908   -10865    -9079    -6971    -4914    -3072    -1483     -199 
     756     1250      911     -470    -2536    -4636    -6230    -6921 
   -6355    -4476    -1883      465     1865     1951      624    -1835 
   -4780    -7535    -9732   -11233   -11990   -12096   -11631   -10525 
   -8800    -6787    -4988    -3832    -3510    -3876    -4515    -4931 
   -4817    -4208    -3356    -2555    -2040    -1959    -2409    -3326 
   -4441    -5403    -5931    -5972    -5751    -5581    -5702    -6225 
   -7081    -8087    -9112   -10024   -10575   -10502    -9768    -8677 
   -7705    -7216    -7428    -8484   -10253   -12253   -13973   -15097 
  -15539   -15340   -14531   -13337   -12234   -11597   -11447   -11479 
  -11337   -11014   -10830   -11097   -11934   -13119   -14144   -14583 
  -14233   -13071   -11274    -9195    -7305    -6003    -5422    -5468 
   -5911    -6511    -7149    -7772    -8322    -8826    -9322    -9622 
   -9441    -8778    -7983    -7465    -7359    -7388    -7086    -6332 
   -5497    -5059    -5296    -6218    -7537    -8804    -9652    -9926 
   -9697    -9169    -8550    -8049    -7759    -7592    -7523    -7694 
   -8231    -9093   -10111   -11084   -11856   -12284   -12174   -11336 
   -9837    -8122    -6771    -6154    -6336    -7187    -8500   -10048 
  -11623   -13068   -14192   -14678   -14199   -12688   -10591    -8726 
   -7591    -7032    -6674    -6310    -5934    -5647    -5490    -5438 
   -5524    -5837    -6419    -7141    -7683    -7812    -7630    -7336 
   -6995    -6699    -6515    -6276    -5735    -4858    -3775    -2501 
    -960      677     2012     2805     3089     3027     2866     2826 
    2913     2937     2657     1971     1106      534      649     1476 
    2646     3696     4214     3945     2993     1704      391     -818 
   -1861    -2439    -2258    -1437     -312      816     1838     2859 
    3896     4745     5064     4391     2519      -84    -2595    -4367 
   -5093    -4818    -3865    -2702    -1758    -1263    -1390    -2344 
   -4033    -6072    -8095    -9803   -11116   -12190   -13100   -13756 
  -13980   -13646   -12985   -12428   -12229   -12601   -13766   -15519 
  -17116   -17853   -17560   -16503   -14982   -13112   -11047    -9181 
   -7953    -7559    -7894    -8688    -9669   -10686   -11670   -12503 
  -13069   -13297   -13089   -12431   -11553   -10865   -10729   -11384 
  -12844   -14676   -16132   -16558   -15679   -13732   -11255    -8677 
   -6175    -3891    -2186    -1404    -1508    -2255    -3383    -4568 
   -5483    -5902    -5797    -5280    -4382    -3128    -1771     -742 
    -412     -911    -2076    -3571    -5027    -6098    -6591    -6506 
   -5895    -4896    -3756    -2685    -1872    -1524    -1846    -3011 
   -4951    -7241    -9344   -10855   -11551   -11274    -9963    -7913 
   -5742    -4059    -3255    -3424    -4378    -5737    -7017    -7858 
   -8189    -8112    -7688    -6827    -5359    -3210     -695     1419 
    2444     2310     1507      612      -60     -476     -729     -852 
    -846     -797     -798     -864     -964    -1078    -1247    -1558 
   -2064    -2655    -3050    -2949    -2210    -1027      200     1128 
    1516     1312      744      140     -271     -450     -558     -912 
   -1942    -3885    -6388    -8744   -10457   -11417   -11778   -11786 
  -11555   -11109   -10635   -10384   -10467   -10837   -11255   -11402 
  -11069   -10230    -9113    -8117    -7522    -7347    -7475    -7802 
   -8240    -8732    -9278    -9932   -10819   -11940   -13064   -13975 
  -14627   -15050   -15246   -15194   -14949   -14579   -14084   -13462 
  -12802   -12296   -12183   -12560   -13190   -13634   -13547   -12834 
  -11693   -10446    -9288    -8258    -7302    -6317    -5211    -3962 
   -2705    -1734    -1264    -1275    -1626    -2039    -2098    -1459 
     -35     1922     4040     6033     7546     8239     8091     7485 
    6940     6693     6571     6258     5626     4881     4336     4012 
    3554     2562      994     -873    -2863    -4957    -6976    -8635 
   -9794   -10448   -10566   -10078    -9117    -8091    -7376    -7115 
   -7330    -7939    -8737    -9507   -10043   -10177    -9976    -9834 
  -10180   -11004   -11813   -12183   -12094   -11762   -11445   -11246 
  -11011   -10490    -9563    -8280    -6803    -5344    -4062    -3020 
   -2208    -1559     -994     -461       48      480      790      938 
     818      394     -151     -584     -848     -931     -636      219 
    1469     2689     3588     4161     4447     4397     3951     3130 
    2085     1002       70     -511     -705     -669     -654     -908 
   -1383    -1782    -2011    -2218    -2547    -3076    -3875    -5052 
   -6719    -8823   -11002   -12755   -13884   -14513   -14742   -14634 
  -14352   -14131   -14131   -14270   -14258   -13873   -13153   -12313 
  -11472   -10581    -9636    -8778    -8160    -7778    -7546    -7489 
   -7642    -7940    -8338    -8793    -9252    -9768   -10430   -11148 
  -11608   -11588   -11283   -11118   -11330   -11916   -12874   -14284 
  -16107   -17903   -18943   -18708   -17239   -15011   -12517    -9983 
   -7494    -5303    -3729    -2852    -2506    -2433    -2538    -3088 
   -4334    -6044    -7654    -8610    -8574    -7566    -5838    -3732 
   -1734     -406     -162     -950    -2102    -2754    -2432    -1201 
     568     2445     4072     5259     5984     6256     6066     5419 
    4460     3540     2925     2542     2100     1388      413     -769 
   -2194    -3914    -5923    -8098   -10162   -11683   -12267   -11850 
  -10606    -8726    -6588    -4959    -4568    -5545    -7597   -10276 
  -12918   -14807   -15458   -14737   -12865   -10325    -7826    -6003 
   -4961    -4491    -4514    -5038    -5883    -6631    -6960    -6824 
   -6203    -5154    -3862    -2479    -1080      382     1878     3168 
    4077     4618     5019     5623     6598     7915     9380    10531 
   10903    10362     9114     7558     6040     4656     3400     2275 
    1165     -102    -1618    -3300    -4878    -6117    -6924    -7318 
   -7570    -8170    -9532   -11731   -14368   -16754   -18224   -18419 
  -17493   -15943   -14307   -12994   -12172   -11873   -12092   -12787 
  -13912   -15332   -16754   -17689   -17599   -16340   -14219   -11655 
   -9025    -6582    -4473    -2851    -1762    -1099     -714     -395 
      58      676     1359     1942     2197     1997     1530     1119 
     915      816      559      147     -127      -51      468     1336 
    2193     2616     2213      712    -1741    -4460    -6582    -7659 
   -7854    -7565    -7091    -6685    -6588    -6920    -7731    -9125 
  -11121   -13432   -15550   -16979   -17437   -17034   -16131   -14933 
  -13467   -11815   -10242    -9098    -8493    -8221    -8082    -7912 
   -7448    -6581    -5474    -4450    -3741    -3221    -2656    -1929 
    -989      -39      567      780      893     1180     1676     2312 
    3029     3698     4144     4317     4254     3965     3490     2946 
    2533     2374     2280     1915     1223      469      -71     -298 
    -341     -459     -836    -1503    -2349    -3264    -4373    -5849 
   -7617    -9391   -10842   -11733   -11965   -11578   -10750    -9651 
   -8348    -7008    -5936    -5372    -5401    -5957    -6901    -8101 
   -9417   -10749   -11955   -12774   -12998   -12508   -11231    -9354 
   -7239    -5132    -3225    -1725     -904    -1082    -2182    -3728 
   -5279    -6441    -6961    -6875    -6381    -5714    -4980    -4157 
   -3280    -2396    -1518     -804     -640    -1349    -2827    -4615 
   -6223    -7279    -7577    -7173    -6442    -5855    -5607    -5647 
   -6003    -6743    -7763    -8802    -9582    -9990   -10145   -10242 
  -10318   -10224    -9901    -9615    -9711   -10212   -10852   -11349 
  -11524   -11360   -11023   -10749   -10680   -10658   -10289    -9417 
   -8212    -6856    -5521    -4383    -3554    -3176    -3407    -4142 
   -4864    -4895    -3844    -1850      526     2697     4184     4615 
    3965     2498      634    -1096    -2340    -2999    -3188    -3091 
   -2662    -1862    -1062     -751    -1122    -2023    -3138    -4192 
   -5030    -5657    -6254    -7078    -8250    -9590   -10741   -11414 
  -11477   -10942    -9863    -8252    -6198    -4084    -2506    -1803 
   -1863    -2407    -3174    -3959    -4611    -4973    -4835    -3981 
   -2415     -548      979     1693     1557      888      102     -542 
   -1094    -1656    -2086    -2192    -2046    -1905    -1934    -2176 
   -2588    -2981    -3134    -3003    -2721    -2533    -2608    -2809 
   -2905    -2891    -3000    -3409    -3882    -3972    -3528    -2761 
   -1945    -1175     -459      199      799     1229     1313     1005 
     413     -309     -963    -1276    -1103     -580      -10      334 
     274     -227     -980    -1694    -2237    -2637    -2932    -3148 
   -3333    -3452    -3408    -3219    -3019    -2874    -2685    -2399 
   -2192    -2302    -2741    -3272    -3595    -3483    -2999    -2587 
   -2703    -3464    -4639    -5903    -7023    -7914    -8671    -9482 
  -10459   -11548   -12558   -13374   -13985   -14275   -14089   -13495 
  -12714   -11867   -10960   -10063    -9283    -8648    -8141    -7774 
   -7645    -7771    -7967    -8064    -7946    -7468    -6630    -5669 
   -4986    -4934    -5523    -6455    -7417    -8118    -8259    -7753 
   -6740    -5428    -4054    -2810    -1853    -1299    -1077    -1035 
   -1173    -1538    -2005    -2350    -2478    -2473    -2457    -2443 
   -2342    -2066    -1688    -1472    -1609    -2052    -2589    -3021 
   -3375    -3854    -4659    -5850    -7193    -8270    -8910    -9358 
   -9959   -10768   -11565   -12170   -12477   -12344   -11741   -10899 
  -10176    -9798    -9798   -10076   -10418   -10671   -10790   -10687 
  -10285    -9675    -9072    -8664    -8636    -9134    -9957   -10647 
  -10944   -10794   -10216    -9437    -8802    -8460    -8243    -7893 
   -7339    -6550    -5358    -3720    -1885     -292      661      871 
     493     -281    -1319    -2551    -3846    -4939    -5613    -5843 
   -5705    -5272    -4663    -4017    -3371    -2738    -2237    -1939 
   -1795    -1765    -1807    -1815    -1663    -1380    -1220    -1323 
   -1443    -1269     -832     -367      -33        9     -311     -791 
   -1224    -1532    -1618    -1440    -1022     -450       81      391 
     294     -351    -1319    -2105    -2333    -1974    -1208     -217 
     721     1145      758     -301    -1637    -2825    -3499    -3429 
   -2564    -1149      315     1420     2106     2726     3699     4970 
    6110     6724     6543     5530     3967     2284      835     -216 
    -853    -1150    -1211    -1115    -1075    -1436    -2378    -3808 
   -5332    -6426    -6904    -7012    -7184    -7687    -8327    -8694 
   -8608    -8175    -7651    -7258    -6976    -6615    -6066    -5405 
   -4901    -4758    -4912    -5176    -5382    -5530    -5794    -6258 
   -6810    -7245    -7332    -6932    -6160    -5294    -4567    -4054 
   -3612    -3070    -2381    -1524     -579      224      789     1220 
    1537     1659     1539     1177      682      208     -198     -548 
    -895    -1266    -1546    -1685    -1870    -2254    -2833    -3580 
   -4453    -5367    -6188    -6756    -6975    -6833    -6370    -5741 
   -5187    -4850    -4710    -4680    -4721    -4909    -5296    -5780 
   -6226    -6562    -6795    -6958    -6972    -6744    -6336    -5973 
   -5937    -6337    -7045    -7833    -8412    -8634    -8619    -8441 
   -8002    -7227    -6126    -4861    -3698    -2858    -2443    -2314 
   -2171    -1875    -1466     -971     -348      453     1343     2094 
    2474     2307     1634      769       33     -469     -921    -1573 
