Origin Time       2011/03/11 14:46:00
Lat.              38.103
Long.             142.860
Depth. (km)       24
Mag.              9.0
Station Code      HKD164
Station Lat.      42.4502
Station Long.     139.8533
Station Height(m) 11
Record Time       2011/03/11 14:48:02
Sampling Freq(Hz) 100Hz
Duration Time(s)  265
Dir.              U-D
Scale Factor      3920(gal)/6182761
Max. Acc. (gal)   2.119
Last Correction   2011/03/11 14:47:47
Memo.             
[...]
  -29191   -29316   -29405   -29439   -29428   -29403   -29377   -29379 
  -29411   -29404   -29325   -29206   -29071   -28918   -28751   -28593 
  -28472   -28407   -28387   -28356   -28274   -28189   -28168   -28248 
  -28429   -28628   -28796   -28976   -29176   -29356   -29490   -29552 
  -29535   -29469   -29378   -29265   -29147   -29054   -29004   -29007 
  -29056   -29092   -29096   -29125   -29203   -29283   -29320   -29310 
  -29292   -29302   -29346   -29419   -29516   -29628   -29778   -30006 
  -30269   -30489   -30646   -30718   -30708   -30648   -30506   -30279 
  -30040   -29827   -29670   -29596   -29513   -29369   -29256   -29222 
  -29197   -29125   -29044   -29030   -29081   -29144   -29183   -29178 
  -29158   -29217   -29394   -29615   -29793   -29933   -30095   -30293 
  -30483   -30596   -30588   -30486   -30383   -30371   -30440   -30497 
  -30489   -30438   -30386   -30353   -30302   -30183   -29985   -29758 
  -29539   -29282   -28966   -28670   -28432   -28209   -27955   -27657 
  -27373   -27175   -27040   -26889   -26717   -26587   -26557   -26626 
  -26724   -26817   -26982   -27281   -27644   -27958   -28169   -28295 
  -28402   -28516   -28592   -28626   -28660   -28695   -28705   -28678 
  -28643   -28650   -28701   -28802   -28991   -29279   -29613   -29930 
  -30219   -30486   -30728   -30942   -31100   -31192   -31222   -31201 
  -31146   -31014   -30771   -30510   -30348   -30275   -30195   -30088 
  -29993   -29942   -29964   -30065   -30205   -30328   -30413   -30490 
  -30620   -30844   -31136   -31420   -31652   -31823   -31907   -31880 
  -31737   -31501   -31231   -30954   -30623   -30220   -29820   -29497 
  -29228   -28956   -28674   -28435   -28275   -28187   -28138   -28096 
  -28073   -28108   -28222   -28392   -28548   -28620   -28607   -28584 
  -28596   -28592   -28506   -28370   -28292   -28298   -28306   -28249 
  -28158   -28111   -28111   -28086   -27995   -27877   -27832   -27914 
  -28052   -28141   -28191   -28264   -28348   -28384   -28377   -28381 
  -28424   -28473   -28480   -28482   -28571   -28723   -28776   -28651 
  -28486   -28419   -28431   -28419   -28336   -28271   -28292   -28330 
  -28310   -28268   -28302   -28436   -28606   -28745   -28838   -28931 
  -29062   -29170   -29167   -29080   -29015   -29013   -29064   -29148 
  -29223   -29280   -29348   -29427   -29476   -29440   -29317   -29198 
  -29178   -29243   -29275   -29224   -29160   -29135   -29090   -28957 
  -28773   -28606   -28485   -28410   -28353   -28251   -28061   -27801 
  -27550   -27393   -27359   -27423   -27540   -27709   -27954   -28227 
  -28438   -28568   -28696   -28876   -29060   -29178   -29259   -29392 
  -29579   -29732   -29803   -29818   -29802   -29735   -29617   -29517 
  -29466   -29431   -29392   -29345   -29299   -29287   -29320   -29369 
  -29401   -29360   -29238   -29137   -29112   -29127   -29159   -29227 
  -29359   -29534   -29697   -29820   -29928   -30050   -30221   -30442 
  -30664   -30865   -31054   -31206   -31321   -31427   -31539   -31669 
  -31776   -31782   -31687   -31570   -31499   -31488   -31483   -31441 
  -31383   -31344   -31347   -31383   -31422   -31470   -31499   -31470 
  -31421   -31363   -31254   -31135   -31062   -31016   -30913   -30663 
  -30312   -30025   -29858   -29746   -29643   -29557   -29518   -29505 
  -29458   -29379   -29344   -29369   -29416   -29448   -29447   -29432 
  -29375   -29235   -29080   -29007   -29001   -28966   -28874   -28771 
  -28655   -28506   -28370   -28300   -28282   -28246   -28168   -28123 
  -28186   -28340   -28516   -28657   -28745   -28798   -28825   -28884 
  -29043   -29230   -29368   -29492   -29569   -29531   -29392   -29188 
  -28997   -28858   -28705   -28514   -28315   -28152   -28080   -28079 
  -28072   -27996   -27875   -27899   -28171   -28495   -28649   -28666 
  -28724   -28910   -29203   -29494   -29600   -29517   -29441   -29451 
  -29508   -29562   -29548   -29524   -29605   -29758   -29973   -30272 
  -30558   -30830   -31144   -31385   -31512   -31675   -31906   -32124 
  -32262   -32198   -31903   -31581   -31380   -31262   -31183   -30984 
  -30435   -29744   -29398   -29425   -29464   -29333   -29157   -29114 
  -29180   -29230   -29175   -29016   -28907   -28876   -28740   -28499 
  -28330   -28360   -28600   -28818   -28790   -28604   -28513   -28647 
  -28945   -29232   -29356   -29286   -29157   -29188   -29436   -29730 
  -29870   -29788   -29680   -29739   -29819   -29776   -29703   -29675 
  -29677   -29612   -29385   -29132   -28953   -28717   -28402   -28069 
  -27783   -27712   -27877   -28006   -27885   -27678   -27706   -27950 
  -28186   -28398   -28543   -28528   -28569   -28887   -29357   -29755 
  -30023   -30257   -30521   -30755   -30848   -30749   -30667   -30895 
  -31256   -31321   -31144   -31123   -31272   -31286   -31178   -31172 
  -31212   -31194   -31219   -31237   -31041   -30678   -30423   -30396 
  -30445   -30440   -30458   -30605   -30841   -31013   -31044   -30984 
  -30873   -30769   -30813   -30976   -31048   -30987   -30953   -30961 
  -30824   -30531   -30314   -30242   -30196   -30175   -30173   -30098 
  -29968   -29842   -29679   -29468   -29322   -29315   -29342   -29316 
  -29303   -29342   -29324   -29157   -28961   -28905   -28911   -28830 
  -28689   -28547   -28394   -28228   -28116   -28121   -28187   -28258 
  -28403   -28629   -28817   -28927   -29034   -29163   -29309   -29507 
  -29764   -30013   -30198   -30350   -30518   -30691   -30853   -30985 
  -31107   -31296   -31468   -31450   -31313   -31295   -31486   -31718 
  -31804   -31731   -31563   -31394   -31277   -31165   -31068   -30992 
  -30824   -30537   -30285   -30194   -30238   -30295   -30270   -30242 
  -30361   -30548   -30639   -30612   -30475   -30287   -30116   -29935 
  -29792   -29710   -29554   -29284   -29021   -28824   -28640   -28438 
  -28259   -28110   -28016   -28068   -28268   -28454   -28434   -28240 
  -28123   -28183   -28285   -28301   -28225   -28103   -28032   -28122 
  -28339   -28551   -28710   -28793   -28779   -28746   -28869   -29254 
  -29742   -30020   -30008   -29955   -30080   -30310   -30478   -30508 
  -30350   -30004   -29583   -29327   -29452   -29862   -30148   -30071 
  -29932   -30121   -30492   -30598   -30389   -30327   -30640   -30882 
  -30717   -30536   -30745   -31024   -30876   -30528   -30596   -31039 
  -31161   -30721   -30361   -30574   -30938   -30795   -30193   -29808 
  -29976   -30229   -30148   -29971   -29977   -29986   -29740   -29428 
  -29502   -29942   -30170   -29879   -29454   -29392   -29586   -29546 
  -29285   -29303   -29666   -29853   -29597   -29267   -29240   -29374 
  -29261   -28778   -28359   -28430   -28654   -28468   -28056   -27928 
  -28021   -27926   -27620   -27479   -27666   -27915   -27941   -27825 
  -27867   -28132   -28389   -28475   -28518   -28772   -29192   -29425 
  -29384   -29392   -29568   -29669   -29597   -29536   -29592   -29647 
  -29558   -29354   -29150   -28962   -28714   -28399   -28136   -28045 
  -28021   -27811   -27443   -27239   -27269   -27274   -27180   -27164 
  -27299   -27537   -27759   -27813   -27762   -27797   -27855   -27803 
  -27731   -27681   -27598   -27529   -27438   -27236   -27056   -27038 
  -27105   -27173   -27247   -27315   -27334   -27299   -27249   -27236 
  -27345   -27557   -27692   -27709   -27809   -28095   -28357   -28359 
  -28223   -28196   -28274   -28382   -28528   -28606   -28526   -28375 
  -28264   -28256   -28346   -28506   -28751   -29057   -29346   -29554 
  -29711   -29933   -30180   -30251   -30146   -30076   -30061   -29951 
  -29819   -29875   -30043   -30058   -29863   -29637   -29581   -29601 
  -29411   -29013   -28652   -28456   -28365   -28316   -28304   -28294 
  -28318   -28418   -28535   -28625   -28656   -28639   -28689   -28825 
  -28829   -28570   -28309   -28320   -28422   -28204   -27717   -27485 
  -27651   -27770   -27666   -27566   -27496   -27461   -27590   -27774 
  -27903   -28131   -28521   -28895   -29171   -29431   -29723   -29966 
  -29948   -29793   -29890   -30082   -30081   -30042   -30003   -29745 
  -29276   -28873   -28694   -28618   -28506   -28359   -28216   -28073 
  -27945   -27945   -28062   -28099   -28078   -28271   -28683   -29031 
  -29215   -29339   -29555   -29930   -30181   -30144   -30242   -30638 
  -30844   -30674   -30456   -30434   -30522   -30385   -30039   -29998 
  -30122   -29773   -29280   -29213   -29072   -28465   -27958   -27911 
  -27982   -27857   -27649   -27569   -27528   -27390   -27304   -27363 
  -27442   -27540   -27757   -27976   -28050   -28114   -28347   -28641 
  -28765   -28721   -28709   -28851   -29096   -29275   -29290   -29221 
  -29139   -29096   -29137   -29108   -28861   -28549   -28405   -28397 
  -28299   -28078   -27957   -28003   -28059   -28089   -28160   -28256 
  -28334   -28344   -28298   -28375   -28645   -28878   -28926   -28968 
  -29174   -29468   -29690   -29790   -29832   -29872   -29919   -29911 
  -29755   -29507   -29315   -29170   -28940   -28636   -28409   -28271 
  -28107   -27886   -27666   -27527   -27491   -27482   -27474   -27555 
  -27762   -27960   -28025   -28064   -28223   -28413   -28517   -28557 
  -28493   -28297   -28112   -28013   -27931   -27846   -27785   -27739 
  -27694   -27671   -27709   -27852   -28079   -28333   -28575   -28786 
  -29018   -29317   -29605   -29793   -29859   -29815   -29733   -29682 
  -29655   -29654   -29699   -29737   -29690   -29584   -29512   -29532 
  -29596   -29607   -29546   -29486   -29466   -29425   -29337   -29244 
  -29153   -29114   -29213   -29370   -29460   -29522   -29620   -29783 
  -30038   -30314   -30532   -30757   -31029   -31283   -31472   -31583 
  -31621   -31626   -31592   -31496   -31384   -31264   -31126   -31054 
  -31078   -31068   -30930   -30757   -30664   -30641   -30600   -30510 
  -30425   -30339   -30159   -29928   -29799   -29741   -29654   -29645 
  -29805   -30036   -30272   -30531   -30760   -30922   -31061   -31166 
  -31170   -31071   -30933   -30851   -30838   -30773   -30560   -30278 
  -30080   -29983   -29887   -29783   -29741   -29729   -29664   -29555 
  -29423   -29268   -29186   -29236   -29304   -29297   -29257   -29212 
  -29161   -29110   -29041   -28958   -28905   -28858   -28815   -28889 
  -29094   -29243   -29230   -29176   -29211   -29313   -29412   -29479 
  -29500   -29502   -29514   -29488   -29369   -29218   -29168   -29248 
  -29362   -29450   -29536   -29607   -29629   -29627   -29626   -29667 
  -29764   -29820   -29817   -29869   -29978   -30062   -30118   -30152 
  -30134   -30087   -30053   -29983   -29791   -29469   -29055   -28601 
  -28233   -27997   -27776   -27534   -27378   -27349   -27406   -27498 
  -27577   -27631   -27678   -27754   -27835   -27857   -27845   -27850 
  -27870   -27867   -27829   -27795   -27724   -27571   -27408   -27300 
  -27310   -27391   -27348   -27216   -27161   -27153   -27156   -27204 
  -27245   -27237   -27266   -27450   -27732   -27968   -28162   -28388 
  -28656   -28963   -29260   -29507   -29788   -30152   -30466   -30610 
  -30606   -30483   -30262   -30047   -29881   -29681   -29442   -29261 
  -29143   -29049   -29032   -29087   -29126   -29206   -29455   -29790 
  -30071   -30351   -30634   -30812   -30882   -30901   -30857   -30741 
  -30558   -30281   -29953   -29733   -29694   -29726   -29737   -29769 
  -29854   -29918   -29917   -29914   -29956   -30031   -30135   -30239 
  -30310   -30409   -30577   -30733   -30818   -30868   -30887   -30878 
  -30910   -31000   -31061   -31008   -30844   -30683   -30661   -30740 
  -30747   -30659   -30607   -30618   -30613   -30568   -30527   -30553 
  -30639   -30693   -30655   -30542   -30425   -30389   -30419   -30404 
  -30293   -30160   -30096   -30078   -30024   -29906   -29752   -29568 
  -29338   -29136   -29057   -29038   -28965   -28847   -28748   -28684 
  -28626   -28588   -28646   -28809   -28991   -29127   -29261   -29429 
  -29589   -29731   -29923   -30225   -30529   -30670   -30732   -30929 
  -31232   -31438   -31470   -31433   -31398   -31299   -31133   -31046 
  -31100   -31147   -31067   -30993   -31059   -31142   -31115   -31064 
  -31109   -31214   -31259   -31253   -31327   -31475   -31561   -31554 
  -31540   -31548   -31502   -31387   -31323   -31379   -31401   -31219 
  -30932   -30711   -30518   -30243   -29910   -29679   -29621   -29612 
  -29557   -29521   -29567   -29644   -29684   -29707   -29781   -29899 
  -29987   -30038   -30101   -30196   -30306   -30400   -30448   -30430 
  -30332   -30140   -29859   -29553   -29295   -29122   -29022   -28940 
  -28836   -28734   -28663   -28622   -28607   -28627   -28702   -28810 
  -28906   -28986   -29066   -29124   -29117   -29046   -28960   -28898 
  -28863   -28882   -28980   -29121   -29233   -29262   -29186   -29048 
  -28915   -28809   -28726   -28696   -28754   -28895   -29080   -29272 
  -29435   -29569   -29723   -29928   -30130   -30242   -30282   -30358 
  -30495   -30616   -30669   -30676   -30684   -30713   -30726   -30710 
  -30724   -30776   -30816   -30819   -30795   -30759   -30733   -30772 
  -30866   -30920   -30920   -30900   -30851   -30783   -30722   -30673 
  -30659   -30692   -30699   -30575   -30356   -30205   -30144   -30090 
  -30032   -30006   -30053   -30129   -30124   -30052   -30003   -29969 
  -29900   -29815   -29729   -29603   -29433   -29254   -29014   -28624 
  -28186   -27866   -27627   -27371   -27096   -26851   -26665   -26503 
  -26349   -26236   -26143   -26056   -26027   -26074   -26154   -26209 
  -26252   -26375   -26597   -26820   -27011   -27191   -27323   -27396 
  -27454   -27526   -27625   -27723   -27797   -27882   -27973   -28028 
  -28071   -28137   -28213   -28307   -28416   -28522   -28622   -28716 
  -28804   -28891   -28974   -29062   -29188   -29379   -29621   -29868 
  -30095   -30349   -30662   -30945   -31102   -31168   -31221   -31282 
  -31331   -31336   -31269   -31150   -31021   -30881   -30708   -30504 
  -30284   -30059   -29840   -29646   -29517   -29511   -29592   -29635 
  -29586   -29520   -29511   -29544   -29561   -29543   -29536   -29582 
  -29633   -29603   -29479   -29336   -29247   -29225   -29253   -29309 
  -29397   -29524   -29647   -29704   -29694   -29672   -29659   -29644 
  -29642   -29687   -29802   -29942   -30012   -29968   -29852   -29750 
  -29707   -29697   -29711   -29765   -29851   -29920   -29943   -29929 
  -29886   -29824   -29758   -29716   -29701   -29654   -29547   -29404 
  -29219   -28982   -28750   -28594   -28537   -28570   -28647   -28698 
  -28708   -28717   -28741   -28742   -28691   -28637   -28638   -28674 
  -28666   -28594   -28523   -28478   -28418   -28329   -28253   -28248 
  -28362   -28586   -28805   -28911   -28938   -28998   -29130   -29235 
  -29209   -29086   -28974   -28897   -28790   -28632   -28478   -28370 
  -28329   -28374   -28513   -28685   -28777   -28786   -28801   -28871 
  -28984   -29092   -29142   -29098   -29019   -29001   -29016   -28989 
  -28923   -28845   -28742   -28581   -28397   -28244   -28136   -28075 
  -28039   -28010   -27976   -27911   -27843   -27828   -27900   -28026 
  -28144   -28235   -28317   -28466   -28728   -29009   -29183   -29211 
  -29175   -29168   -29155   -29049   -28853   -28638   -28454   -28330 
  -28286   -28301   -28363   -28476   -28603   -28744   -28938   -29200 
  -29493   -29742   -29909   -29998   -30022   -30024   -30046   -30096 
  -30144   -30166   -30173   -30178   -30201   -30241   -30258   -30221 
  -30129   -30022   -29952   -29941   -29967   -29974   -29940   -29871 
  -29752   -29579   -29377   -29190   -29065   -29002   -28942   -28833 
  -28693   -28601   -28576   -28588   -28607   -28615   -28613   -28597 
  -28574   -28553   -28543   -28550   -28548   -28518   -28507   -28559 
  -28647   -28703   -28712   -28728   -28817   -29021   -29319   -29664 
  -30024   -30333   -30548   -30691   -30807   -30934   -31057   -31138 
  -31187   -31226   -31233   -31138   -30948   -30773   -30702   -30750 
  -30875   -31007   -31108   -31183   -31236   -31243   -31195   -31116 
  -31039   -30996   -30973   -30939   -30879   -30765   -30592   -30402 
  -30247   -30174   -30157   -30129   -30091   -30089   -30124   -30131 
  -30075   -29983   -29890   -29837   -29830   -29824   -29775   -29693 
  -29634   -29633   -29641   -29615   -29590   -29602   -29607   -29552 
  -29433   -29287   -29166   -29069   -28948   -28809   -28722   -28714 
  -28722   -28674   -28594   -28550   -28548   -28554   -28535   -28500 
  -28490   -28489   -28473   -28492   -28575   -28695   -28810   -28868 
  -28857   -28812   -28747   -28655   -28538   -28412   -28292   -28185 
  -28060   -27908   -27772   -27670   -27580   -27506   -27475   -27496 
  -27552   -27632   -27747   -27876   -27992   -28119   -28291   -28497 
  -28689   -28838   -28963   -29099   -29234   -29311   -29277   -29125 
  -28898   -28660   -28467   -28338   -28249   -28160   -28060   -27976 
  -27988   -28169   -28485   -28826   -29111   -29333   -29500   -29586 
  -29602   -29629   -29706   -29785   -29814   -29821   -29851   -29865 
  -29800   -29662   -29513   -29413   -29367   -29337   -29325   -29374 
  -29502   -29644   -29709   -29703   -29713   -29798   -29964   -30175 
  -30368   -30542   -30719   -30846   -30848   -30736   -30583   -30456 
  -30339   -30162   -29905   -29618   -29342   -29067   -28782   -28549 
  -28451   -28487   -28563   -28608   -28648   -28728   -28843   -28944 
  -28991   -29027   -29126   -29276   -29383   -29363   -29220   -29046 
  -28904   -28783   -28667   -28595   -28608   -28655   -28631   -28530 
  -28410   -28265   -28060   -27844   -27748   -27846   -28060   -28235 
  -28274   -28228   -28196   -28179   -28163   -28176   -28206   -28238 
  -28303   -28383   -28412   -28363   -28282   -28269   -28352   -28451 
  -28532   -28658   -28859   -29083   -29255   -29365   -29479   -29647 
  -29862   -30094   -30295   -30411   -30461   -30536   -30660   -30750 
  -30763   -30701   -30580   -30484   -30472   -30485   -30456   -30415 
  -30428   -30496   -30536   -30487   -30396   -30333   -30287   -30236 
  -30246   -30396   -30678   -30985   -31212   -31334   -31406   -31487 
  -31599   -31728   -31842   -31912   -31945   -31980   -32002   -31939 
  -31767   -31557   -31366   -31163   -30939   -30723   -30509   -30298 
  -30127   -29985   -29813   -29581   -29340   -29175   -29094   -29060 
  -29077   -29147   -29255   -29387   -29488   -29488   -29397   -29264 
  -29124   -29026   -28970   -28938   -28955   -29020   -29098   -29156 
  -29188   -29262   -29462   -29748   -29965   -30042   -30061   -30128 
  -30225   -30249   -30170   -30061   -29980   -29902   -29750   -29528 
  -29364   -29339   -29386   -29407   -29396   -29360   -29302   -29272 
  -29280   -29299   -29396   -29610   -29855   -30075   -30262   -30370 
  -30338   -30168   -29946   -29746   -29560   -29359   -29146   -28949 
  -28770   -28593   -28412   -28212   -27994   -27813   -27751   -27833 
  -27991   -28152   -28308   -28462   -28571   -28587   -28533   -28483 
  -28477   -28476   -28420   -28324   -28262   -28270   -28284   -28232 
  -28129   -28052   -28029   -28004   -27974   -28037   -28223   -28406 
  -28469   -28500   -28638   -28837   -28960   -28976   -28918   -28842 
  -28814   -28835   -28864   -28871   -28835   -28742   -28593   -28441 
