Origin Time       2011/03/11 14:46:00
Lat.              38.103
Long.             142.860
Depth. (km)       24
Mag.              9.0
Station Code      HKD166
Station Lat.      42.2286
Station Long.     139.8186
Station Height(m) 45
Record Time       2011/03/11 14:49:42
Sampling Freq(Hz) 100Hz
Duration Time(s)  66
Dir.              N-S
Scale Factor      3920(gal)/6182761
Max. Acc. (gal)   1.982
Last Correction   2011/03/11 14:49:27
Memo.             
[...]
   -5592    -5573    -5554    -5550    -5555    -5560    -5570    -5589 
   -5602    -5596    -5567    -5515    -5450    -5382    -5325    -5293 
   -5288    -5314    -5367    -5425    -5468    -5481    -5478    -5500 
   -5554    -5608    -5651    -5687    -5706    -5706    -5707    -5723 
   -5750    -5776    -5799    -5807    -5788    -5760    -5742    -5733 
   -5717    -5684    -5639    -5597    -5571    -5571    -5594    -5619 
   -5640    -5669    -5703    -5721    -5713    -5689    -5662    -5636 
   -5612    -5595    -5586    -5594    -5630    -5677    -5724    -5774 
   -5824    -5873    -5905    -5914    -5925    -5965    -6034    -6111 
   -6171    -6199    -6207    -6208    -6214    -6245    -6294    -6349 
   -6405    -6440    -6442    -6426    -6416    -6428    -6450    -6467 
   -6486    -6513    -6541    -6573    -6608    -6619    -6585    -6522 
   -6460    -6418    -6396    -6375    -6348    -6318    -6286    -6255 
   -6224    -6190    -6147    -6102    -6078    -6079    -6082    -6077 
   -6059    -6014    -5940    -5851    -5763    -5690    -5632    -5575 
   -5523    -5484    -5452    -5412    -5374    -5349    -5327    -5298 
   -5268    -5245    -5232    -5242    -5284    -5350    -5424    -5494 
   -5546    -5577    -5588    -5570    -5530    -5490    -5458    -5437 
   -5429    -5431    -5432    -5417    -5389    -5369    -5370    -5376 
   -5364    -5315    -5230    -5139    -5064    -5013    -4995    -4991 
   -4954    -4888    -4840    -4818    -4801    -4787    -4781    -4769 
   -4742    -4710    -4682    -4659    -4649    -4649    -4654    -4677 
   -4720    -4760    -4783    -4782    -4759    -4730    -4708    -4708 
   -4734    -4770    -4795    -4802    -4808    -4828    -4841    -4825 
   -4786    -4771    -4822    -4920    -5027    -5131    -5220    -5292 
   -5355    -5410    -5455    -5499    -5540    -5578    -5628    -5688 
   -5740    -5772    -5767    -5725    -5665    -5605    -5554    -5520 
   -5495    -5461    -5421    -5394    -5387    -5399    -5419    -5432 
   -5438    -5434    -5419    -5393    -5359    -5325    -5299    -5285 
   -5277    -5260    -5209    -5140    -5089    -5060    -5038    -5007 
   -4954    -4875    -4775    -4678    -4603    -4544    -4498    -4460 
   -4410    -4334    -4250    -4171    -4094    -4024    -3955    -3876 
   -3802    -3749    -3709    -3686    -3671    -3632    -3558    -3470 
   -3400    -3359    -3342    -3339    -3318    -3249    -3160    -3100 
   -3078    -3074    -3081    -3092    -3080    -3032    -2993    -3001 
   -3035    -3059    -3072    -3074    -3067    -3081    -3125    -3157 
   -3165    -3182    -3210    -3231    -3257    -3288    -3320    -3346 
   -3351    -3338    -3325    -3322    -3327    -3332    -3332    -3330 
   -3324    -3304    -3277    -3257    -3248    -3246    -3254    -3273 
   -3290    -3309    -3337    -3372    -3416    -3480    -3557    -3622 
   -3665    -3693    -3717    -3749    -3778    -3799    -3811    -3793 
   -3742    -3688    -3656    -3648    -3655    -3671    -3690    -3695 
   -3692    -3702    -3716    -3723    -3725    -3722    -3722    -3725 
   -3720    -3698    -3656    -3608    -3583    -3580    -3573    -3563 
   -3559    -3549    -3531    -3518    -3505    -3479    -3442    -3414 
   -3406    -3420    -3441    -3461    -3468    -3454    -3437    -3435 
   -3433    -3411    -3372    -3331    -3296    -3269    -3258    -3261 
   -3260    -3260    -3272    -3293    -3314    -3341    -3368    -3371 
   -3351    -3347    -3362    -3384    -3413    -3440    -3455    -3462 
   -3464    -3462    -3469    -3508    -3571    -3617    -3629    -3621 
   -3601    -3571    -3540    -3522    -3510    -3483    -3452    -3439 
   -3464    -3532    -3626    -3699    -3728    -3732    -3718    -3677 
   -3643    -3658    -3715    -3788    -3864    -3929    -3981    -4038 
   -4107    -4174    -4228    -4289    -4379    -4489    -4601    -4708 
   -4819    -4928    -5010    -5061    -5085    -5088    -5085    -5089 
   -5103    -5137    -5198    -5268    -5332    -5390    -5441    -5477 
   -5494    -5503    -5520    -5554    -5607    -5670    -5728    -5769 
   -5790    -5793    -5791    -5791    -5795    -5811    -5851    -5911 
   -5975    -6031    -6065    -6069    -6065    -6064    -6070    -6096 
   -6137    -6173    -6199    -6227    -6256    -6267    -6253    -6227 
   -6195    -6169    -6147    -6094    -6010    -5931    -5869    -5825 
   -5807    -5803    -5792    -5762    -5719    -5692    -5677    -5641 
   -5575    -5496    -5422    -5377    -5386    -5438    -5493    -5530 
   -5547    -5553    -5562    -5592    -5634    -5656    -5642    -5615 
   -5608    -5624    -5650    -5683    -5727    -5763    -5780    -5793 
   -5797    -5785    -5769    -5756    -5752    -5756    -5746    -5706 
   -5657    -5618    -5592    -5577    -5563    -5556    -5584    -5655 
   -5744    -5814    -5847    -5846    -5834    -5842    -5867    -5879 
   -5871    -5851    -5829    -5822    -5839    -5890    -5973    -6073 
   -6175    -6253    -6299    -6326    -6337    -6334    -6340    -6353 
   -6363    -6381    -6410    -6457    -6530    -6617    -6700    -6769 
   -6809    -6812    -6789    -6766    -6761    -6755    -6730    -6701 
   -6682    -6653    -6594    -6507    -6392    -6261    -6141    -6042 
   -5961    -5898    -5843    -5783    -5725    -5681    -5643    -5603 
   -5558    -5495    -5403    -5298    -5205    -5137    -5089    -5041 
   -4985    -4928    -4871    -4812    -4754    -4702    -4659    -4623 
   -4590    -4569    -4565    -4566    -4582    -4624    -4666    -4696 
   -4712    -4700    -4661    -4618    -4585    -4564    -4556    -4554 
   -4544    -4529    -4523    -4521    -4519    -4527    -4566    -4643 
   -4741    -4819    -4856    -4877    -4904    -4929    -4952    -4982 
   -5016    -5052    -5089    -5114    -5119    -5117    -5128    -5146 
   -5161    -5174    -5194    -5218    -5230    -5229    -5219    -5194 
   -5143    -5082    -5036    -4997    -4945    -4889    -4838    -4792 
   -4762    -4750    -4754    -4773    -4798    -4807    -4803    -4822 
   -4879    -4948    -5008    -5054    -5078    -5077    -5046    -5001 
   -4972    -4970    -4992    -5028    -5047    -5034    -5005    -4986 
   -4977    -4965    -4945    -4928    -4917    -4904    -4897    -4895 
   -4882    -4852    -4821    -4792    -4757    -4717    -4690    -4682 
   -4678    -4665    -4646    -4634    -4626    -4617    -4602    -4567 
   -4522    -4503    -4500    -4486    -4463    -4434    -4394    -4361 
   -4363    -4395    -4434    -4478    -4514    -4528    -4535    -4545 
   -4549    -4556    -4584    -4614    -4623    -4606    -4575    -4558 
   -4563    -4559    -4538    -4515    -4506    -4513    -4534    -4557 
   -4576    -4602    -4650    -4726    -4818    -4919    -5032    -5144 
   -5234    -5291    -5296    -5251    -5184    -5134    -5133    -5188 
   -5269    -5331    -5355    -5355    -5337    -5298    -5256    -5229 
   -5223    -5235    -5252    -5274    -5285    -5267    -5227    -5178 
   -5132    -5115    -5136    -5172    -5197    -5201    -5186    -5173 
   -5191    -5243    -5305    -5354    -5386    -5417    -5462    -5515 
   -5559    -5591    -5614    -5643    -5697    -5770    -5845    -5916 
   -5969    -6003    -6020    -6032    -6067    -6132    -6208    -6282 
   -6345    -6386    -6403    -6416    -6440    -6470    -6498    -6528 
   -6557    -6577    -6606    -6665    -6725    -6742    -6718    -6689 
   -6680    -6691    -6708    -6717    -6710    -6700    -6702    -6712 
   -6717    -6720    -6734    -6760    -6792    -6818    -6833    -6837 
   -6829    -6814    -6806    -6813    -6842    -6880    -6902    -6916 
   -6941    -6981    -7035    -7088    -7122    -7132    -7122    -7101 
   -7084    -7074    -7059    -7032    -6997    -6963    -6941    -6943 
   -6963    -6990    -7017    -7034    -7040    -7043    -7040    -7032 
   -7027    -7024    -7020    -7022    -7044    -7093    -7148    -7196 
   -7240    -7274    -7284    -7276    -7264    -7245    -7224    -7209 
   -7198    -7194    -7202    -7218    -7243    -7268    -7283    -7284 
   -7274    -7257    -7247    -7251    -7261    -7284    -7315    -7346 
   -7384    -7440    -7519    -7596    -7630    -7628    -7610    -7584 
   -7563    -7561    -7570    -7591    -7629    -7676    -7716    -7733 
   -7724    -7702    -7681    -7666    -7656    -7653    -7646    -7634 
   -7620    -7598    -7575    -7568    -7577    -7583    -7576    -7562 
   -7542    -7516    -7485    -7441    -7374    -7302    -7240    -7180 
   -7126    -7095    -7075    -7064    -7082    -7115    -7126    -7117 
   -7114    -7115    -7109    -7105    -7111    -7110    -7094    -7078 
   -7074    -7068    -7050    -7036    -7020    -6983    -6935    -6890 
   -6842    -6799    -6768    -6742    -6720    -6716    -6734    -6761 
   -6796    -6839    -6888    -6938    -6988    -7023    -7032    -7045 
   -7090    -7160    -7233    -7300    -7357    -7390    -7392    -7371 
   -7336    -7286    -7229    -7181    -7150    -7133    -7129    -7132 
   -7131    -7130    -7136    -7143    -7149    -7160    -7164    -7154 
   -7145    -7137    -7130    -7134    -7142    -7137    -7120    -7101 
   -7085    -7071    -7054    -7027    -6981    -6918    -6852    -6794 
   -6731    -6660    -6601    -6568    -6553    -6552    -6556    -6549 
   -6530    -6512    -6496    -6478    -6468    -6462    -6435    -6388 
   -6347    -6331    -6358    -6419    -6477    -6518    -6556    -6602 
   -6647    -6684    -6724    -6773    -6826    -6880    -6933    -6978 
   -7021    -7062    -7100    -7134    -7164    -7190    -7209    -7225 
   -7243    -7250    -7247    -7238    -7224    -7233    -7280    -7356 
   -7448    -7543    -7631    -7710    -7769    -7794    -7793    -7788 
   -7786    -7789    -7809    -7845    -7882    -7904    -7909    -7911 
   -7916    -7918    -7914    -7914    -7908    -7892    -7880    -7868 
   -7842    -7797    -7735    -7665    -7592    -7523    -7460    -7400 
   -7339    -7267    -7181    -7093    -7021    -6971    -6937    -6906 
   -6865    -6821    -6791    -6780    -6790    -6816    -6836    -6825 
   -6785    -6749    -6742    -6770    -6817    -6865    -6890    -6889 
   -6879    -6857    -6812    -6754    -6690    -6618    -6548    -6502 
   -6478    -6451    -6412    -6380    -6365    -6367    -6370    -6351 
   -6298    -6219    -6135    -6071    -6036    -6020    -6008    -5993 
   -5954    -5884    -5805    -5736    -5680    -5641    -5603    -5546 
   -5475    -5403    -5346    -5309    -5280    -5246    -5215    -5192 
   -5166    -5132    -5097    -5061    -5019    -4986    -4967    -4949 
   -4946    -4958    -4971    -4983    -4984    -4970    -4960    -4958 
   -4954    -4939    -4913    -4877    -4843    -4824    -4810    -4802 
   -4816    -4834    -4839    -4840    -4866    -4923    -4986    -5025 
   -5033    -5015    -4987    -4958    -4943    -4949    -4955    -4954 
   -4946    -4919    -4877    -4836    -4806    -4802    -4814    -4830 
   -4850    -4864    -4858    -4844    -4844    -4848    -4835    -4815 
   -4811    -4817    -4808    -4775    -4710    -4614    -4521    -4462 
   -4426    -4395    -4359    -4311    -4254    -4199    -4168    -4178 
   -4211    -4244    -4266    -4271    -4264    -4262    -4263    -4259 
   -4253    -4255    -4270    -4288    -4298    -4298    -4287    -4272 
   -4270    -4275    -4267    -4259    -4279    -4312    -4336    -4367 
   -4410    -4444    -4457    -4461    -4460    -4462    -4476    -4496 
   -4508    -4510    -4516    -4535    -4554    -4571    -4599    -4630 
   -4652    -4679    -4737    -4831    -4944    -5068    -5195    -5282 
   -5314    -5329    -5355    -5390    -5441    -5511    -5585    -5657 
   -5729    -5783    -5812    -5837    -5878    -5926    -5962    -5985 
   -6003    -6013    -6007    -5984    -5960    -5944    -5923    -5886 
   -5825    -5742    -5644    -5540    -5443    -5364    -5323    -5316 
   -5304    -5274    -5241    -5193    -5136    -5087    -5025    -4964 
   -4932    -4887    -4832    -4794    -4757    -4737    -4747    -4762 
   -4774    -4777    -4757    -4718    -4674    -4642    -4633    -4640 
   -4655    -4669    -4677    -4679    -4686    -4703    -4718    -4719 
   -4709    -4695    -4679    -4676    -4692    -4710    -4713    -4692 
   -4636    -4562    -4496    -4443    -4407    -4387    -4380    -4380 
   -4372    -4347    -4332    -4342    -4364    -4383    -4381    -4358 
   -4335    -4318    -4308    -4303    -4285    -4250    -4209    -4154 
   -4080    -4000    -3931    -3878    -3843    -3833    -3843    -3850 
   -3849    -3848    -3834    -3807    -3789    -3773    -3741    -3701 
   -3652    -3600    -3557    -3526    -3510    -3501    -3479    -3446 
   -3413    -3378    -3344    -3323    -3303    -3275    -3252    -3248 
   -3252    -3262    -3293    -3350    -3406    -3439    -3455    -3458 
   -3444    -3427    -3430    -3448    -3459    -3456    -3437    -3400 
   -3346    -3295    -3261    -3241    -3240    -3267    -3318    -3378 
   -3430    -3467    -3491    -3510    -3535    -3570    -3595    -3592 
   -3571    -3554    -3540    -3519    -3487    -3452    -3426    -3408 
   -3393    -3367    -3323    -3270    -3217    -3165    -3119    -3090 
   -3076    -3061    -3047    -3043    -3041    -3037    -3030    -3010 
   -2972    -2914    -2837    -2746    -2646    -2543    -2448    -2380 
   -2350    -2343    -2328    -2290    -2225    -2142    -2071    -2035 
   -2020    -2011    -1996    -1970    -1940    -1923    -1927    -1952 
   -1991    -2031    -2066    -2105    -2151    -2186    -2198    -2196 
   -2193    -2201    -2222    -2244    -2268    -2295    -2321    -2347 
   -2379    -2419    -2475    -2553    -2638    -2704    -2748    -2773 
   -2778    -2779    -2779    -2767    -2748    -2733    -2723    -2714 
   -2706    -2704    -2710    -2722    -2743    -2765    -2775    -2777 
   -2770    -2755    -2753    -2774    -2809    -2849    -2883    -2899 
   -2907    -2917    -2934    -2954    -2957    -2953    -2963    -2985 
   -3003    -3010    -3012    -3021    -3029    -3031    -3040    -3065 
   -3089    -3092    -3074    -3033    -2980    -2944    -2921    -2892 
   -2865    -2857    -2868    -2893    -2917    -2920    -2915    -2919 
   -2935    -2963    -2982    -2971    -2945    -2911    -2875    -2865 
   -2888    -2919    -2945    -2971    -2981    -2968    -2961    -2968 
   -2965    -2948    -2933    -2941    -2970    -2994    -2998    -2983 
   -2962    -2951    -2946    -2941    -2944    -2966    -3000    -3024 
   -3043    -3068    -3065    -3013    -2967    -2954    -2948    -2946 
   -2944    -2944    -2976    -3008    -3019    -3055    -3102    -3104 
   -3075    -3054    -3038    -3009    -2970    -2947    -2950    -2958 
   -2972    -3022    -3094    -3148    -3185    -3235    -3303    -3362 
   -3396    -3416    -3444    -3464    -3460    -3456    -3462    -3465 
   -3477    -3488    -3475    -3450    -3421    -3391    -3380    -3386 
   -3396    -3426    -3472    -3514    -3549    -3578    -3593    -3595 
   -3589    -3585    -3585    -3594    -3615    -3643    -3668    -3687 
   -3717    -3765    -3816    -3862    -3910    -3956    -3972    -3959 
   -3945    -3928    -3904    -3894    -3898    -3903    -3917    -3939 
   -3956    -3958    -3930    -3884    -3834    -3772    -3719    -3695 
   -3672    -3641    -3616    -3585    -3534    -3477    -3430    -3399 
   -3387    -3391    -3408    -3431    -3444    -3429    -3388    -3338 
   -3276    -3203    -3140    -3099    -3065    -3031    -3001    -2974 
   -2950    -2945    -2959    -2976    -2993    -3014    -3045    -3083 
   -3125    -3174    -3233    -3285    -3320    -3337    -3344    -3348 
   -3351    -3353    -3368    -3402    -3440    -3471    -3515    -3588 
   -3672    -3746    -3810    -3864    -3889    -3889    -3893    -3912 
   -3935    -3959    -3988    -4004    -4006    -4011    -4007    -3980 
   -3960    -3983    -4043    -4108    -4161    -4199    -4210    -4189 
   -4169    -4161    -4156    -4172    -4220    -4276    -4324    -4355 
   -4366    -4364    -4355    -4352    -4370    -4382    -4376    -4386 
   -4416    -4443    -4469    -4495    -4517    -4528    -4523    -4500 
   -4456    -4400    -4357    -4337    -4346    -4378    -4401    -4395 
   -4382    -4369    -4344    -4326    -4336    -4345    -4340    -4337 
   -4324    -4290    -4265    -4246    -4215    -4187    -4188    -4203 
   -4214    -4238    -4271    -4278    -4250    -4206    -4156    -4113 
   -4074    -4029    -3990    -3961    -3939    -3918    -3884    -3824 
   -3761    -3717    -3689    -3675    -3673    -3672    -3661    -3640 
   -3609    -3572    -3535    -3491    -3437    -3387    -3346    -3316 
   -3307    -3331    -3387    -3448    -3482    -3503    -3530    -3566 
   -3620    -3694    -3768    -3838    -3897    -3927    -3937    -3948 
   -3969    -4016    -4084    -4144    -4185    -4221    -4259    -4309 
   -4375    -4449    -4534    -4636    -4722    -4767    -4793    -4809 
   -4807    -4809    -4827    -4864    -4940    -5039    -5123    -5189 
   -5256    -5321    -5374    -5419    -5459    -5494    -5539    -5612 
   -5691    -5755    -5813    -5867    -5909    -5939    -5957    -5970 
   -5977    -5983    -6005    -6048    -6109    -6188    -6272    -6346 
   -6395    -6410    -6411    -6424    -6453    -6488    -6519    -6543 
   -6551    -6539    -6518    -6506    -6504    -6488    -6467    -6482 
   -6525    -6563    -6602    -6645    -6657    -6640    -6630    -6622 
   -6611    -6615    -6626    -6627    -6620    -6611    -6621    -6653 
   -6672    -6674    -6683    -6690    -6678    -6666    -6673    -6687 
   -6697    -6696    -6684    -6677    -6681    -6677    -6676    -6687 
   -6680    -6650    -6619    -6599    -6590    -6579    -6559    -6531 
   -6509    -6517    -6553    -6585    -6596    -6601    -6617    -6637 
   -6653    -6670    -6694    -6724    -6760    -6792    -6807    -6807 
   -6793    -6768    -6746    -6730    -6723    -6721    -6721    -6718 
   -6697    -6670    -6643    -6609    -6581    -6568    -6561    -6570 
   -6590    -6607    -6623    -6624    -6588    -6532    -6482    -6434 
   -6399    -6388    -6386    -6387    -6397    -6413    -6421    -6411 
   -6378    -6325    -6266    -6217    -6191    -6190    -6198    -6196 
   -6193    -6204    -6228    -6249    -6258    -6254    -6247    -6250 
   -6265    -6298    -6334    -6356    -6372    -6391    -6402    -6399 
   -6389    -6383    -6382    -6377    -6367    -6358    -6354    -6344 
   -6326    -6313    -6316    -6337    -6360    -6372    -6380    -6385 
   -6383    -6368    -6329    -6281    -6239    -6200    -6160    -6120 
   -6082    -6040    -5982    -5914    -5850    -5786    -5723    -5674 
   -5644    -5636    -5645    -5661    -5669    -5666    -5664    -5662 
   -5655    -5653    -5668    -5704    -5743    -5764    -5766    -5763 
   -5750    -5723    -5704    -5692    -5672    -5649    -5618    -5582 
   -5549    -5511    -5473    -5448    -5424    -5379    -5323    -5271 
   -5224    -5186    -5163    -5129    -5073    -5015    -4976    -4954 
   -4945    -4946    -4941    -4921    -4911    -4913    -4889    -4841 
   -4798    -4760    -4718    -4688    -4677    -4665    -4655    -4642 
   -4590    -4509    -4449    -4432    -4434    -4432    -4437    -4438 
