Origin Time       2011/03/11 14:46:00
Lat.              38.103
Long.             142.860
Depth. (km)       24
Mag.              9.0
Station Code      HKD178
Station Lat.      43.1720
Station Long.     141.3043
Station Height(m) 6
Record Time       2011/03/11 14:48:33
Sampling Freq(Hz) 100Hz
Duration Time(s)  300
Dir.              N-S
Scale Factor      3920(gal)/6182761
Max. Acc. (gal)   13.357
Last Correction   2011/03/11 14:48:18
Memo.             
[...]
  -16949   -16766   -16498   -16243   -16136   -16206   -16342   -16437 
  -16529   -16721   -16994   -17236   -17405   -17548   -17675   -17729 
  -17686   -17638   -17690   -17820   -17874   -17737   -17473   -17131 
  -16599   -15832   -14951   -14101   -13325   -12576   -11832   -11201 
  -10782   -10521   -10277    -9993    -9739    -9553    -9353    -9061 
   -8731    -8477    -8302    -8127    -7946    -7848    -7882    -7931 
   -7854    -7677    -7508    -7376    -7180    -6855    -6511    -6243 
   -6051    -5927    -5819    -5748    -5792    -5865    -5892    -5963 
   -6153    -6484    -6866    -7195    -7565    -8060    -8592    -9076 
   -9541   -10110   -10828   -11566   -12219   -12843   -13504   -14113 
  -14540   -14787   -14976   -15217   -15499   -15756   -16048   -16469 
  -16964   -17406   -17742   -18048   -18404   -18762   -19041   -19264 
  -19502   -19745   -19913   -19972   -19999   -20086   -20199   -20224 
  -20161   -20123   -20176   -20275   -20350   -20428   -20587   -20806 
  -20997   -21132   -21285   -21548   -21911   -22271   -22617   -23089 
  -23698   -24226   -24611   -24995   -25374   -25720   -25989   -26007 
  -25891   -25815   -25595   -25155   -24582   -24023   -23612   -23184 
  -22602   -22000   -21466   -20976   -20415   -19716   -19043   -18465 
  -17826   -17109   -16460   -15942   -15444   -14770   -13988   -13361 
  -12869   -12386   -11941   -11432   -10856   -10419   -10018    -9509 
   -9102    -8930    -8862    -8806    -8807    -8914    -9099    -9232 
   -9203    -9084    -9026    -9025    -8938    -8735    -8561    -8517 
   -8583    -8687    -8818    -9062    -9372    -9550    -9571    -9608 
   -9805   -10168   -10566   -10915   -11298   -11810   -12365   -12812 
  -13168   -13547   -13922   -14120   -14088   -14011   -14085   -14301 
  -14544   -14776   -15029   -15265   -15384   -15351   -15269   -15278 
  -15351   -15325   -15150   -14936   -14777   -14627   -14367   -14002 
  -13644   -13295   -12871   -12351   -11810   -11347   -10946   -10514 
  -10078    -9742    -9496    -9220    -8842    -8442    -8108    -7748 
   -7203    -6482    -5774    -5224    -4759    -4238    -3697    -3274 
   -2986    -2730    -2452    -2241    -2210    -2314    -2387    -2364 
   -2354    -2432    -2515    -2525    -2538    -2678    -2933    -3186 
   -3390    -3622    -3943    -4273    -4511    -4711    -5022    -5461 
   -5901    -6291    -6749    -7352    -7991    -8528    -8983    -9507 
  -10141   -10746   -11200   -11532   -11807   -12001   -12051   -11998 
  -11942   -11904   -11809   -11602   -11314   -11029   -10782   -10534 
  -10277   -10118   -10099   -10087    -9959    -9709    -9416    -9148 
   -8885    -8573    -8281    -8124    -8074    -8009    -7892    -7795 
   -7765    -7736    -7592    -7329    -7061    -6842    -6611    -6308 
   -5988    -5757    -5623    -5465    -5214    -4941    -4704    -4458 
   -4130    -3727    -3362    -3082    -2790    -2430    -2127    -1999 
   -2010    -2058    -2135    -2349    -2747    -3191    -3531    -3809 
   -4166    -4600    -4983    -5260    -5537    -5932    -6420    -6894 
   -7337    -7839    -8411    -8928    -9311    -9639   -10031   -10476 
  -10854   -11129   -11364   -11567   -11660   -11586   -11453   -11442 
  -11558   -11655   -11657   -11626   -11649   -11693   -11657   -11572 
  -11592   -11726   -11821   -11789   -11689   -11612   -11542   -11413 
  -11275   -11268   -11421   -11623   -11782   -11946   -12205   -12504 
  -12705   -12818   -12970   -13211   -13443   -13574   -13656   -13828 
  -14122   -14402   -14550   -14604   -14651   -14683   -14609   -14407 
  -14200   -14092   -14024   -13913   -13794   -13753   -13770   -13686 
  -13442   -13190   -13057   -12960   -12781   -12555   -12397   -12324 
  -12216   -11982   -11699   -11459   -11226   -10934   -10629   -10455 
  -10480   -10564   -10534   -10391   -10250   -10149   -10012    -9823 
   -9699    -9692    -9711    -9664    -9594    -9634    -9805    -9984 
  -10077   -10113   -10182   -10304   -10397   -10438   -10521   -10716 
  -10967   -11198   -11434   -11742   -12094   -12379   -12540   -12639 
  -12751   -12885   -12989   -13040   -13133   -13330   -13548   -13694 
  -13821   -14042   -14369   -14719   -15032   -15369   -15824   -16339 
  -16780   -17119   -17420   -17741   -18051   -18244   -18350   -18519 
  -18786   -19063   -19288   -19535   -19909   -20329   -20665   -20925 
  -21129   -21266   -21301   -21172   -21002   -20993   -21072   -21068 
  -21020   -21021   -21084   -21093   -20879   -20543   -20308   -20150 
  -19977   -19818   -19738   -19802   -19915   -19941   -19947   -19968 
  -19968   -19973   -19876   -19645   -19479   -19383   -19176   -18865 
  -18661   -18618   -18547   -18448   -18411   -18383   -18403   -18424 
  -18334   -18319   -18474   -18597   -18601   -18590   -18596   -18572 
  -18562   -18522   -18317   -18178   -18233   -18094   -17748   -17515 
  -17412   -17384   -17309   -17222   -17370   -17622   -17773   -17882 
  -17977   -18188   -18612   -18953   -19172   -19606   -20145   -20549 
  -20878   -21166   -21488   -21900   -22222   -22399   -22624   -22941 
  -23237   -23400   -23416   -23437   -23523   -23531   -23396   -23224 
  -23125   -23063   -22916   -22677   -22471   -22342   -22170   -21916 
  -21717   -21661   -21676   -21645   -21539   -21417   -21299   -21103 
  -20766   -20409   -20214   -20148   -20039   -19830   -19593   -19407 
  -19249   -18996   -18668   -18456   -18387   -18307   -18156   -18009 
  -17946   -17948   -17924   -17861   -17835   -17880   -17927   -17892 
  -17793   -17741   -17791   -17884   -17981   -18142   -18384   -18613 
  -18737   -18776   -18830   -18937   -19019   -19000   -18938   -18942 
  -18999   -18996   -18925   -18925   -19077   -19277   -19387   -19422 
  -19508   -19682   -19875   -20058   -20285   -20583   -20840   -20918 
  -20863   -20863   -20986   -21117   -21195   -21284   -21424   -21545 
  -21515   -21304   -21036   -20795   -20537   -20213   -19859   -19547 
  -19260   -18883   -18366   -17813   -17330   -16884   -16394   -15885 
  -15471   -15182   -14898   -14505   -14048   -13628   -13263   -12894 
  -12447   -11942   -11482   -11059   -10602   -10150    -9816    -9634 
   -9528    -9421    -9363    -9457    -9663    -9844    -9984   -10183 
  -10466   -10730   -10877   -10938   -11011   -11109   -11144   -11093 
  -11075   -11173   -11306   -11372   -11378   -11439   -11621   -11810 
  -11871   -11840   -11849   -11897   -11866   -11791   -11843   -12072 
  -12343   -12507   -12579   -12670   -12808   -12913   -12937   -12963 
  -13112   -13357   -13614   -13905   -14290   -14742   -15131   -15376 
  -15570   -15822   -16114   -16338   -16450   -16537   -16694   -16907 
  -17087   -17215   -17376   -17613   -17836   -17971   -18107   -18355 
  -18669   -18926   -19090   -19228   -19400   -19584   -19733   -19890 
  -20120   -20387   -20596   -20724   -20859   -21053   -21194   -21128 
  -20868   -20590   -20405   -20212   -19870   -19424   -19018   -18684 
  -18341   -17943   -17531   -17161   -16804   -16362   -15823   -15298 
  -14861   -14413   -13826   -13137   -12452   -11799   -11076   -10251 
   -9535    -8992    -8430    -7825    -7269    -6791    -6433    -6151 
   -5774    -5336    -5103    -4982    -4753    -4608    -4668    -4811 
   -4961    -5045    -5112    -5281    -5537    -5805    -6095    -6473 
   -6939    -7418    -7812    -8141    -8559    -9117    -9702   -10227 
  -10710   -11214   -11716   -12099   -12364   -12686   -13134   -13565 
  -13849   -14039   -14267   -14530   -14688   -14700   -14724   -14876 
  -15078   -15212   -15292   -15434   -15666   -15854   -15897   -15855 
  -15834   -15839   -15777   -15616   -15441   -15287   -15072   -14739 
  -14335   -13933   -13524   -13022   -12403   -11794   -11303   -10828 
  -10198    -9454    -8786    -8268    -7812    -7315    -6826    -6458 
   -6184    -5874    -5487    -5137    -4899    -4700    -4475    -4233 
   -4044    -3943    -3851    -3718    -3645    -3719    -3846    -3875 
   -3805    -3752    -3771    -3803    -3785    -3756    -3785    -3825 
   -3778    -3676    -3656    -3758    -3862    -3844    -3750    -3716 
   -3764    -3792    -3736    -3667    -3684    -3756    -3776    -3729 
   -3693    -3718    -3759    -3753    -3734    -3788    -3894    -3954 
   -3975    -4073    -4306    -4588    -4783    -4882    -4989    -5118 
   -5184    -5210    -5358    -5740    -6305    -6915    -7525    -8196 
   -8895    -9468    -9838   -10089   -10340   -10611   -10851   -11072 
  -11368   -11809   -12336   -12809   -13194   -13590   -14006   -14317 
  -14477   -14590   -14755   -14925   -15024   -15109   -15289   -15551 
  -15758   -15800   -15731   -15682   -15612   -15375   -14977   -14585 
  -14324   -14167   -14003   -13793   -13609   -13457   -13229   -12870 
  -12474   -12150   -11889   -11605   -11292   -11052   -10914   -10775 
  -10556   -10313   -10146   -10065    -9983    -9883    -9861    -9943 
  -10030   -10064   -10080   -10144   -10284   -10410   -10399   -10304 
  -10277   -10313   -10291   -10212   -10185   -10246   -10318   -10346 
  -10396   -10565   -10833   -11102   -11340   -11639   -12077   -12572 
  -13008   -13427   -13917   -14447   -14914   -15278   -15618   -16023 
  -16424   -16667   -16738   -16763   -16846   -16956   -17006   -17003 
  -17016   -17015   -16902   -16671   -16419   -16213   -16014   -15743 
  -15425   -15194   -15100   -15012   -14808   -14542   -14337   -14197 
  -14034   -13822   -13648   -13587   -13564   -13449   -13292   -13221 
  -13206   -13155   -13102   -13152   -13332   -13533   -13640   -13704 
  -13860   -14096   -14297   -14401   -14446   -14514   -14597   -14587 
  -14459   -14351   -14380   -14496   -14594   -14656   -14740   -14875 
  -15016   -15101   -15141   -15203   -15264   -15238   -15161   -15172 
  -15295   -15430   -15510   -15555   -15628   -15723   -15731   -15593 
  -15388   -15232   -15149   -15052   -14916   -14830   -14833   -14861 
  -14881   -14926   -15022   -15149   -15280   -15409   -15536   -15669 
  -15778   -15785   -15710   -15686   -15749   -15812   -15820   -15816 
  -15886   -16031   -16145   -16139   -16094   -16143   -16230   -16217 
  -16134   -16099   -16090   -15992   -15793   -15606   -15524   -15469 
  -15256   -14876   -14514   -14223   -13921   -13607   -13368   -13258 
  -13237   -13184   -13052   -12924   -12861   -12794   -12646   -12474 
  -12404   -12446   -12496   -12518   -12627   -12915   -13253   -13433 
  -13461   -13500   -13637   -13791   -13882   -14003   -14262   -14608 
  -14942   -15204   -15446   -15735   -15945   -15944   -15848   -15831 
  -15874   -15891   -15874   -15890   -16029   -16270   -16513   -16731 
  -16963   -17216   -17404   -17484   -17580   -17790   -18080   -18307 
  -18380   -18450   -18653   -18842   -18905   -18946   -19051   -19207 
  -19313   -19309   -19282   -19302   -19335   -19324   -19271   -19274 
  -19363   -19440   -19410   -19284   -19143   -18991   -18744   -18378 
  -17976   -17607   -17239   -16824   -16382   -15921   -15408   -14848 
  -14245   -13622   -13085   -12636   -12141   -11573   -11045   -10650 
  -10324    -9926    -9472    -9129    -8948    -8786    -8567    -8357 
   -8205    -8105    -7992    -7870    -7850    -7899    -7883    -7804 
   -7760    -7800    -7895    -7935    -7830    -7683    -7619    -7543 
   -7377    -7197    -7068    -7031    -7074    -7099    -7129    -7261 
   -7410    -7451    -7461    -7542    -7665    -7797    -7939    -8080 
   -8270    -8552    -8798    -8878    -8882    -8956    -9091    -9221 
   -9354    -9570    -9903   -10301   -10700   -11102   -11570   -12123 
  -12654   -13112   -13635   -14258   -14831   -15302   -15774   -16360 
  -17077   -17826   -18544   -19293   -20114   -20924   -21632   -22302 
  -23056   -23891   -24747   -25583   -26395   -27218   -28011   -28620 
  -29011   -29345   -29715   -30031   -30223   -30328   -30408   -30438 
  -30303   -30014   -29753   -29629   -29536   -29306   -28941   -28590 
  -28306   -28021   -27686   -27363   -27153   -27048   -26947   -26794 
  -26628   -26485   -26269   -25899   -25452   -25026   -24662   -24294 
  -23774   -23203   -22807   -22490   -22098   -21715   -21474   -21390 
  -21329   -21223   -21139   -21087   -21054   -20998   -20833   -20674 
  -20678   -20733   -20722   -20731   -20810   -20898   -20918   -20817 
  -20676   -20607   -20547   -20428   -20313   -20254   -20252   -20245 
  -20162   -20068   -20068   -20138   -20160   -20061   -19942   -19956 
  -20027   -19965   -19820   -19817   -19991   -20143   -20130   -19984 
  -19787   -19637   -19549   -19409   -19172   -18918   -18658   -18302 
  -17867   -17537   -17369   -17135   -16690   -16191   -15756   -15295 
  -14764   -14189   -13590   -13005   -12414   -11782   -11156   -10577 
  -10063    -9596    -9138    -8707    -8299    -7962    -7743    -7542 
   -7390    -7341    -7205    -6979    -6898    -6855    -6640    -6517 
   -6565    -6407    -6154    -6116    -6023    -5637    -5195    -4823 
   -4381    -3956    -3695    -3459    -3161    -2821    -2434    -2062 
   -1692    -1265     -914     -761     -655     -363       37      273 
     388      582      863     1227     1611     1945     2288     2600 
    2871     3212     3601     3972     4281     4553     4845     5083 
    5331     5661     5959     6148     6253     6450     6725     6829 
    6847     6911     7006     7195     7314     7263     7309     7483 
    7555     7503     7448     7462     7482     7479     7507     7440 
    7215     7045     6960     6738     6432     6309     6294     6155 
    5991     5959     5972     5905     5752     5610     5537     5456 
    5307     5084     4861     4771     4672     4342     3948     3713 
    3581     3426     3191     2974     2904     2880     2762     2565 
    2342     2132     1871     1437      938      558      180     -358 
    -925    -1347    -1686    -2084    -2569    -3064    -3493    -3879 
   -4313    -4824    -5310    -5673    -5989    -6361    -6751    -7056 
   -7267    -7530    -7913    -8271    -8537    -8837    -9215    -9612 
  -10031   -10476   -10964   -11534   -12086   -12505   -12864   -13273 
  -13693   -14022   -14262   -14508   -14780   -15015   -15199   -15395 
  -15647   -15940   -16239   -16494   -16719   -17008   -17344   -17593 
  -17757   -17966   -18215   -18401   -18550   -18725   -18922   -19197 
  -19549   -19798   -19945   -20168   -20395   -20450   -20395   -20358 
  -20380   -20471   -20568   -20644   -20807   -21056   -21265   -21405 
  -21515   -21611   -21658   -21582   -21385   -21186   -21047   -20917 
  -20773   -20655   -20571   -20479   -20324   -20096   -19889   -19807 
  -19766   -19630   -19452   -19347   -19305   -19256   -19214   -19245 
  -19340   -19420   -19400   -19288   -19206   -19188   -19110   -18959 
  -18885   -18960   -19106   -19228   -19306   -19411   -19590   -19742 
  -19756   -19695   -19679   -19711   -19734   -19744   -19818   -20022 
  -20295   -20507   -20641   -20810   -21008   -21112   -21103   -21116 
  -21280   -21563   -21869   -22162   -22510   -22942   -23291   -23508 
  -23770   -24125   -24470   -24757   -24992   -25183   -25390   -25626 
  -25775   -25823   -25934   -26152   -26323   -26371   -26370   -26377 
  -26379   -26317   -26169   -26028   -25964   -25917   -25801   -25613 
  -25428   -25242   -24926   -24448   -23932   -23450   -22957   -22387 
  -21777   -21278   -20944   -20639   -20246   -19824   -19484   -19227 
  -18946   -18589   -18262   -18049   -17863   -17614   -17363   -17225 
  -17226   -17247   -17165   -17000   -16807   -16554   -16205   -15820 
  -15541   -15426   -15352   -15206   -15027   -14898   -14812   -14666 
  -14425   -14208   -14099   -14033   -13926   -13803   -13762   -13820 
  -13884   -13869   -13816   -13840   -13925   -13956   -13958   -14068 
  -14330   -14606   -14726   -14723   -14739   -14820   -14946   -15102 
  -15317   -15632   -16002   -16307   -16521   -16751   -17053   -17314 
  -17465   -17599   -17804   -18049   -18256   -18386   -18502   -18686 
  -18843   -18796   -18587   -18401   -18263   -18070   -17803   -17552 
  -17429   -17421   -17389   -17292   -17232   -17218   -17132   -16915 
  -16638   -16387   -16142   -15853   -15547   -15322   -15260   -15286 
  -15220   -15093   -15081   -15179   -15277   -15352   -15471   -15699 
  -15971   -16159   -16244   -16306   -16407   -16514   -16556   -16547 
  -16593   -16726   -16852   -16887   -16866   -16861   -16858   -16791 
  -16674   -16617   -16683   -16797   -16856   -16885   -16988   -17163 
  -17291   -17306   -17262   -17250   -17291   -17335   -17371   -17460 
  -17621   -17778   -17869   -17965   -18154   -18382   -18549   -18643 
  -18744   -18900   -19054   -19135   -19176   -19256   -19363   -19418 
  -19424   -19485   -19649   -19815   -19866   -19823   -19790   -19784 
  -19737   -19634   -19577   -19659   -19822   -19934   -19960   -20000 
  -20125   -20255   -20270   -20187   -20158   -20252   -20345   -20374 
  -20452   -20611   -20757   -20847   -20903   -20985   -21125   -21242 
  -21250   -21226   -21271   -21342   -21348   -21273   -21194   -21186 
  -21187   -21070   -20834   -20606   -20427   -20173   -19753   -19270 
  -18867   -18533   -18178   -17813   -17542   -17384   -17193   -16848 
  -16435   -16108   -15879   -15602   -15163   -14649   -14190   -13746 
  -13224   -12648   -12119   -11692   -11309   -10892   -10473   -10097 
   -9708    -9232    -8710    -8297    -8045    -7810    -7511    -7230 
   -7054    -6960    -6856    -6696    -6543    -6459    -6385    -6226 
   -5988    -5769    -5631    -5520    -5360    -5190    -5081    -5012 
   -4923    -4818    -4770    -4828    -4928    -4967    -4957    -5016 
   -5191    -5391    -5552    -5737    -6018    -6361    -6671    -6912 
   -7130    -7354    -7554    -7686    -7772    -7893    -8052    -8152 
   -8182    -8258    -8433    -8617    -8724    -8808    -8960    -9163 
   -9312    -9348    -9345    -9403    -9492    -9519    -9501    -9536 
   -9656    -9793    -9891    -9991   -10156   -10317   -10353   -10280 
  -10200   -10132   -10012    -9830    -9685    -9690    -9808    -9870 
   -9803    -9707    -9682    -9680    -9609    -9470    -9359    -9343 
   -9357    -9338    -9365    -9502    -9631    -9623    -9581    -9617 
   -9592    -9422    -9209    -9005    -8868    -8825    -8757    -8630 
   -8568    -8588    -8554    -8397    -8181    -7999    -7919    -7897 
   -7794    -7617    -7469    -7338    -7149    -6903    -6700    -6604 
   -6523    -6392    -6295    -6302    -6344    -6268    -6041    -5816 
   -5688    -5580    -5417    -5228    -5120    -5128    -5124    -5000 
   -4829    -4765    -4808    -4794    -4670    -4582    -4623    -4710 
   -4750    -4758    -4782    -4828    -4814    -4690    -4572    -4534 
   -4475    -4343    -4196    -4108    -4141    -4249    -4309    -4343 
   -4452    -4598    -4679    -4711    -4796    -4977    -5194    -5368 
   -5492    -5644    -5876    -6127    -6337    -6572    -6921    -7336 
   -7685    -7945    -8218    -8569    -8948    -9265    -9523    -9829 
  -10217   -10577   -10857   -11139   -11460   -11742   -11905   -11987 
  -12115   -12321   -12495   -12531   -12477   -12469   -12507   -12489 
  -12426   -12403   -12418   -12386   -12254   -12085   -11991   -12003 
