Origin Time       2011/03/11 14:46:00
Lat.              38.103
Long.             142.860
Depth. (km)       24
Mag.              9.0
Station Code      HKD119
Station Lat.      43.5199
Station Long.     142.1914
Station Height(m) 90
Record Time       2011/03/11 14:49:07
Sampling Freq(Hz) 100Hz
Duration Time(s)  247
Dir.              U-D
Scale Factor      3920(gal)/6182761
Max. Acc. (gal)   4.290
Last Correction   2011/03/11 14:48:52
Memo.             
[...]
    3338     3073     2860     2695     2547     2380     2178     1942 
    1665     1344     1000      667      378      151       -7     -103 
    -163     -233     -345     -496     -651     -776     -848     -847 
    -778     -665     -536     -410     -294     -203     -151     -133 
    -133     -122      -68       44      199      357      497      644 
     812      978     1123     1254     1383     1527     1709     1932 
    2165     2388     2584     2748     2882     2984     3061     3132 
    3223     3336     3452     3563     3691     3856     4055     4269 
    4478     4669     4835     4970     5068     5113     5084     4980 
    4843     4707     4568     4410     4238     4071     3927     3818 
    3741     3687     3649     3631     3621     3581     3485     3335 
    3157     2965     2756     2505     2208     1893     1599     1358 
    1182     1071     1023     1018     1038     1076     1119     1168 
    1227     1301     1390     1497     1616     1735     1854     1999 
    2202     2457     2724     2949     3097     3161     3156     3103 
    3043     3022     3064     3162     3293     3440     3600     3765 
    3907     4017     4125     4262     4425     4600     4770     4927 
    5068     5193     5293     5364     5404     5422     5425     5413 
    5374     5278     5104     4878     4643     4425     4238     4092 
    3982     3882     3771     3638     3483     3319     3140     2929 
    2682     2416     2149     1907     1704     1528     1371     1235 
    1116      997      864      716      557      398      244      103 
      -7      -71      -86      -67      -33       24      123      276 
     468      665      845      997     1125     1257     1417     1608 
    1837     2112     2419     2718     2982     3228     3485     3763 
    4047     4313     4541     4711     4814     4863     4886     4901 
    4920     4957     5017     5089     5158     5200     5197     5143 
    5048     4934     4825     4736     4674     4640     4605     4528 
    4399     4250     4131     4065     4067     4134     4235     4333 
    4406     4449     4474     4489     4485     4461     4440     4440 
    4459     4497     4564     4670     4820     5017     5237     5450 
    5644     5825     5986     6103     6157     6171     6205     6307 
    6490     6741     7023     7284     7480     7589     7610     7564 
    7505     7471     7452     7412     7331     7215     7064     6872 
    6658     6465     6324     6234     6192     6176     6143     6070 
    5956     5802     5628     5447     5256     5061     4882     4725 
    4596     4500     4428     4362     4288     4206     4127     4051 
    3980     3916     3853     3788     3732     3692     3660     3615 
    3542     3451     3354     3246     3129     3032     2976     2970 
    3002     3055     3147     3304     3514     3739     3946     4125 
    4273     4378     4433     4436     4377     4266     4124     3968 
    3820     3721     3688     3718     3805     3937     4099     4275 
    4451     4607     4731     4826     4905     4960     4954     4861 
    4703     4520     4351     4208     4069     3914     3754     3598 
    3456     3342     3245     3141     3025     2905     2774     2643 
    2529     2430     2341     2241     2119     1986     1837     1653 
    1431     1183      929      692      489      330      211      108 
     -10     -169     -367     -571     -738     -843     -903     -949 
    -988    -1017    -1050    -1108    -1186    -1252    -1279    -1258 
   -1191    -1082     -928     -713     -437     -131      177      476 
     744      940     1050     1091     1113     1154     1236     1375 
    1553     1726     1858     1940     1979     1970     1902     1790 
    1680     1598     1541     1489     1437     1406     1419     1470 
    1528     1571     1585     1554     1480     1391     1325     1305 
    1329     1367     1378     1347     1285     1201     1100      995 
     886      772      677      619      582      535      465      380 
     295      224      157       77      -16     -109     -169     -177 
    -151     -109      -60      -13        9       -9      -62     -132 
    -195     -232     -242     -228     -175      -53      146      383 
     610      787      885      881      787      635      455      267 
      96      -35     -119     -172     -218     -278     -363     -477 
    -622     -800    -1015    -1271    -1557    -1849    -2132    -2397 
   -2619    -2772    -2846    -2849    -2791    -2696    -2602    -2529 
   -2464    -2380    -2269    -2143    -2037    -1977    -1944    -1906 
   -1852    -1801    -1754    -1678    -1549    -1370    -1162     -944 
    -731     -516     -279        1      318      654     1012     1404 
    1822     2249     2667     3056     3400     3704     3985     4229 
    4411     4538     4642     4765     4928     5129     5350     5567 
    5756     5909     6029     6123     6209     6287     6346     6399 
    6474     6567     6661     6753     6845     6931     6997     7033 
    7033     6991     6911     6802     6681     6572     6487     6431 
    6402     6374     6307     6189     6030     5843     5641     5441 
    5240     5023     4791     4545     4284     4023     3769     3524 
    3305     3132     3001     2900     2820     2754     2693     2638 
    2608     2604     2604     2583     2551     2543     2588     2697 
    2872     3114     3414     3758     4127     4501     4862     5185 
    5448     5647     5801     5921     6014     6098     6182     6264 
    6344     6430     6520     6617     6738     6881     7011     7106 
    7157     7164     7149     7132     7106     7066     7017     6959 
    6878     6763     6619     6484     6381     6291     6196     6088 
    5957     5820     5717     5666     5663     5696     5745     5786 
    5812     5841     5883     5930     5968     5986     5993     6020 
    6089     6194     6309     6414     6509     6594     6659     6675 
    6615     6476     6269     6017     5759     5523     5320     5158 
    5049     4993     4976     4992     5048     5129     5191     5201 
    5158     5069     4960     4863     4789     4732     4697     4696 
    4716     4727     4713     4659     4559     4428     4290     4163 
    4059     3966     3857     3728     3617     3563     3560     3579 
    3616     3676     3737     3761     3725     3629     3500     3371 
    3276     3223     3185     3131     3043     2920     2771     2624 
    2509     2444     2425     2432     2452     2465     2437     2372 
    2318     2310     2337     2374     2396     2372     2291     2181 
    2084     2010     1941     1861     1776     1686     1573     1439 
    1314     1219     1155     1146     1208     1307     1397     1458 
    1497     1530     1571     1623     1678     1733     1775     1798 
    1824     1872     1920     1940     1919     1888     1896     1954 
    2038     2116     2157     2171     2215     2331     2497     2666 
    2809     2924     3010     3071     3110     3126     3129     3141 
    3180     3249     3338     3423     3484     3515     3531     3565 
    3640     3755     3891     4028     4167     4333     4538     4748 
    4931     5088     5240     5397     5544     5672     5803     5945 
    6081     6202     6329     6480     6653     6824     6976     7115 
    7249     7384     7529     7678     7813     7917     7971     7973 
    7937     7883     7833     7784     7714     7607     7458     7281 
    7096     6923     6770     6614     6435     6225     5972     5675 
    5370     5084     4802     4493     4144     3766     3386     3022 
    2669     2322     1980     1652     1358     1104      888      701 
     529      359      188       29     -102     -207     -285     -338 
    -375     -411     -445     -461     -441     -374     -258     -117 
      10      103      171      232      294      358      407      411 
     370      309      247      190      141      108       99      107 
     113      106       86       61       47       66      115      166 
     196      219      273      383      523      662      774      830 
     826      805      810      861      956     1074     1168     1214 
    1241     1289     1368     1476     1614     1775     1954     2136 
    2303     2413     2422     2325     2178     2041     1945     1878 
    1807     1727     1657     1610     1599     1628     1672     1702 
    1705     1682     1645     1615     1619     1666     1743     1815 
    1846     1829     1796     1773     1782     1843     1954     2102 
    2273     2456     2647     2855     3098     3388     3726     4095 
    4455     4757     4999     5213     5411     5590     5747     5864 
    5916     5884     5777     5633     5501     5410     5359     5324 
    5283     5234     5191     5165     5147     5112     5033     4915 
    4781     4663     4590     4566     4573     4602     4648     4702 
    4762     4809     4820     4810     4805     4785     4718     4620 
    4527     4457     4416     4405     4419     4461     4532     4627 
    4732     4831     4898     4912     4870     4786     4669     4527 
    4385     4281     4238     4259     4327     4429     4558     4691 
    4815     4949     5102     5257     5382     5436     5395     5274 
    5104     4924     4789     4738     4772     4873     5012     5150 
    5268     5359     5416     5446     5466     5475     5455     5398 
    5321     5251     5203     5164     5120     5082     5071     5097 
    5158     5238     5323     5411     5517     5671     5876     6093 
    6285     6442     6562     6648     6705     6718     6671     6580 
    6485     6409     6364     6364     6414     6511     6647     6809 
    6971     7121     7257     7374     7460     7489     7447     7353 
    7239     7115     6985     6865     6770     6705     6659     6601 
    6520     6445     6391     6342     6273     6166     5997     5770 
    5514     5249     4995     4758     4535     4341     4200     4109 
    4067     4076     4100     4103     4098     4116     4163     4212 
    4235     4215     4166     4133     4155     4239     4376     4551 
    4741     4914     5044     5149     5250     5333     5379     5405 
    5433     5457     5459     5447     5436     5432     5440     5471 
    5529     5611     5710     5811     5905     5985     6031     6026 
    5981     5915     5827     5711     5566     5388     5169     4921 
    4660     4412     4199     4035     3923     3859     3822     3774 
    3688     3564     3431     3326     3261     3212     3174     3169 
    3217     3297     3363     3378     3339     3275     3211     3165 
    3141     3107     3042     2967     2921     2925     2979     3064 
    3153     3233     3289     3308     3299     3287     3282     3282 
    3291     3297     3271     3202     3103     2973     2804     2597 
    2366     2138     1935     1760     1605     1465     1341     1227 
    1119     1016      916      828      758      693      634      610 
     637      712      832      980     1134     1288     1454     1638 
    1850     2091     2341     2571     2766     2924     3073     3248 
    3467     3741     4062     4399     4721     5014     5264     5462 
    5626     5773     5893     5948     5919     5808     5623     5392 
    5150     4923     4732     4586     4474     4367     4251     4139 
    4051     4003     4006     4043     4072     4062     4008     3920 
    3802     3646     3459     3267     3099     2975     2897     2857 
    2834     2806     2767     2723     2693     2700     2742     2780 
    2782     2760     2744     2746     2766     2809     2876     2965 
    3080     3219     3376     3554     3767     4022     4311     4608 
    4879     5103     5276     5414     5526     5611     5666     5699 
    5726     5772     5848     5933     5995     6020     6006     5956 
    5893     5851     5850     5878     5898     5877     5817     5743 
    5682     5656     5656     5643     5582     5472     5342     5237 
    5159     5075     4970     4858     4752     4643     4515     4384 
    4291     4264     4317     4437     4573     4662     4668     4595 
    4469     4332     4217     4127     4055     3997     3963     3975 
    4039     4147     4293     4471     4656     4812     4921     4993 
    5044     5075     5093     5108     5102     5061     5006     4973 
    4987     5069     5210     5381     5550     5695     5799     5856 
    5878     5895     5941     6037     6175     6303     6375     6383 
    6327     6210     6051     5887     5741     5606     5470     5327 
    5186     5060     4946     4832     4713     4602     4524     4503 
    4529     4565     4579     4575     4584     4637     4738     4874 
    5020     5154     5271     5376     5467     5527     5558     5587 
    5645     5736     5836     5916     5963     5978     5967     5948 
    5958     6020     6113     6206     6286     6360     6435     6506 
    6552     6558     6523     6447     6338     6206     6060     5897 
    5721     5543     5365     5172     4949     4694     4423     4161 
    3937     3756     3592     3424     3262     3110     2953     2765 
    2529     2264     1999     1753     1535     1348     1180     1011 
     826      620      376       88     -224     -526     -776     -956 
   -1090    -1214    -1349    -1496    -1635    -1737    -1797    -1847 
   -1940    -2097    -2304    -2543    -2789    -3011    -3170    -3235 
   -3207    -3121    -3019    -2914    -2793    -2652    -2501    -2360 
   -2243    -2144    -2036    -1884    -1679    -1451    -1237    -1032 
    -824     -626     -470     -380     -368     -445     -599     -787 
    -973    -1139    -1274    -1373    -1436    -1466    -1473    -1464 
   -1444    -1427    -1418    -1394    -1347    -1283    -1193    -1072 
    -948     -847     -762     -673     -559     -432     -320     -247 
    -227     -257     -306     -345     -371     -385     -392     -403 
    -429     -479     -542     -601     -659     -721     -767     -776 
    -758     -735     -710     -671     -608     -520     -414     -298 
    -184      -85       -5       65      143      251      395      560 
     741      934     1125     1315     1519     1741     1975     2196 
    2388     2570     2768     2984     3204     3403     3568     3711 
    3848     3990     4135     4274     4415     4579     4789     5054 
    5363     5687     5990     6226     6371     6421     6379     6283 
    6198     6167     6183     6221     6270     6345     6463     6614 
    6759     6859     6891     6866     6823     6805     6828     6881 
    6957     7046     7123     7166     7201     7274     7394     7530 
    7649     7734     7773     7765     7733     7716     7725     7736 
    7735     7727     7729     7748     7777     7815     7873     7956 
    8055     8152     8233     8292     8338     8385     8434     8484 
    8524     8536     8520     8492     8464     8446     8436     8435 
    8449     8474     8486     8465     8398     8282     8127     7951 
    7756     7540     7311     7077     6835     6584     6337     6110 
    5928     5817     5778     5794     5834     5859     5855     5830 
    5783     5720     5661     5624     5613     5618     5633     5665 
    5720     5786     5851     5906     5960     6013     6048     6066 
    6083     6108     6142     6183     6221     6239     6232     6218 
    6209     6181     6114     6025     5941     5879     5835     5803 
    5774     5742     5715     5711     5739     5800     5887     5977 
    6054     6104     6122     6115     6093     6062     6032     5998 
    5947     5872     5776     5678     5584     5485     5384     5298 
    5248     5231     5228     5234     5256     5293     5327     5330 
    5286     5201     5101     5008     4924     4846     4786     4736 
    4662     4549     4415     4277     4142     4029     3943     3865 
    3778     3684     3594     3511     3432     3361     3308     3269 
    3242     3229     3225     3211     3166     3098     3034     2994 
    2969     2943     2898     2818     2711     2601     2504     2423 
    2362     2333     2356     2425     2497     2525     2501     2440 
    2367     2295     2237     2207     2221     2278     2359     2443 
    2521     2595     2678     2785     2914     3051     3185     3300 
    3376     3415     3435     3445     3442     3439     3449     3469 
    3479     3474     3474     3496     3536     3577     3589     3551 
    3465     3346     3218     3103     3018     2964     2942     2953 
    2999     3065     3125     3159     3159     3130     3079     3020 
    2978     2966     2979     3023     3121     3270     3435     3571 
    3658     3717     3763     3802     3854     3946     4088     4281 
    4502     4717     4904     5063     5201     5330     5449     5545 
    5620     5691     5780     5884     5980     6054     6118     6181 
    6252     6337     6441     6561     6679     6777     6851     6903 
    6933     6943     6944     6932     6885     6793     6666     6521 
    6381     6276     6216     6189     6179     6174     6161     6117 
    6038     5950     5882     5837     5805     5777     5737     5679 
    5617     5558     5490     5390     5254     5104     4967     4858 
    4781     4750     4781     4859     4946     5003     5023     5017 
    4993     4941     4857     4747     4630     4515     4387     4238 
    4096     3998     3953     3942     3946     3941     3893     3807 
    3707     3599     3488     3378     3280     3204     3148     3105 
    3069     3020     2937     2828     2714     2606     2496     2360 
    2180     1960     1720     1485     1263     1034      785      517 
     235      -54     -335     -593     -815     -997    -1145    -1271 
   -1396    -1546    -1741    -1976    -2217    -2425    -2581    -2685 
   -2754    -2820    -2889    -2926    -2896    -2795    -2645    -2461 
   -2250    -2033    -1840    -1681    -1543    -1418    -1316    -1256 
   -1250    -1280    -1306    -1298    -1231    -1113     -980     -853 
    -731     -618     -517     -426     -339     -266     -223     -215 
    -224     -219     -174      -92        2      101      219      367 
     522      661      761      802      773      681      546      389 
     212        9     -210     -417     -587     -718     -830     -927 
   -1001    -1053    -1090    -1105    -1084    -1014     -879     -663 
    -385      -84      204      461      682      876     1056     1223 
    1368     1476     1543     1590     1652     1739     1843     1958 
    2074     2158     2196     2206     2213     2226     2228     2206 
    2167     2117     2052     1977     1898     1818     1723     1598 
    1453     1311     1192     1108     1076     1089     1117     1137 
    1146     1146     1134     1108     1081     1074     1106     1181 
    1270     1342     1410     1498     1617     1764     1921     2074 
    2224     2370     2512     2655     2812     2981     3160     3333 
    3474     3567     3612     3618     3603     3592     3608     3653 
    3700     3733     3763     3803     3851     3899     3934     3946 
    3938     3928     3929     3948     3979     4006     4007     3973 
