Origin Time       2011/03/11 14:46:00
Lat.              38.103
Long.             142.860
Depth. (km)       24
Mag.              9.0
Station Code      HKD168
Station Lat.      41.8691
Station Long.     140.1266
Station Height(m) 2
Record Time       2011/03/11 14:47:55
Sampling Freq(Hz) 100Hz
Duration Time(s)  300
Dir.              N-S
Scale Factor      3920(gal)/6182761
Max. Acc. (gal)   7.636
Last Correction   2011/03/11 14:47:40
Memo.             
[...]
   11997    12376    12814    13293    13768    14181    14491    14704 
   14840    14877    14787    14593    14355    14135    13956    13791 
   13607    13397    13164    12944    12758    12592    12436    12259 
   12030    11784    11589    11477    11401    11286    11111    10903 
   10712    10582    10528    10527    10521    10464    10346    10176 
    9958     9686     9373     9044     8715     8392     8121     7995 
    8067     8307     8648     8978     9189     9259     9232     9161 
    9113     9143     9286     9544     9863    10197    10524    10822 
   11116    11459    11883    12399    12959    13433    13718    13752 
   13503    13041    12487    11924    11412    10992    10671    10432 
   10277    10239    10356    10640    11045    11488    11949    12420 
   12871    13302    13723    14137    14551    14950    15309    15587 
   15717    15650    15398    15053    14742    14522    14403    14403 
   14495    14596    14653    14685    14706    14702    14681    14658 
   14604    14478    14271    13997    13717    13493    13322    13201 
   13134    13089    13049    13047    13107    13203    13285    13334 
   13369    13464    13715    14127    14619    15140    15660    16131 
   16541    16902    17161    17282    17342    17412    17502    17658 
   17921    18257    18596    18863    19035    19164    19287    19392 
   19474    19511    19504    19513    19505    19384    19120    18712 
   18192    17624    17058    16550    16121    15748    15450    15260 
   15162    15114    15049    14936    14834    14823    14960    15263 
   15673    16103    16474    16725    16866    16945    16996    17026 
   17003    16889    16663    16304    15776    15103    14369    13639 
   12991    12501    12173    11983    11903    11886    11897    11880 
   11780    11604    11415    11323    11413    11665    12008    12353 
   12619    12778    12851    12894    12949    13018    13085    13144 
   13199    13234    13206    13063    12765    12364    11954    11577 
   11281    11099    11030    11081    11247    11507    11810    12042 
   12093    11945    11653    11283    10919    10627    10436    10317 
   10183     9989     9769     9575     9494     9617     9968    10485 
   11059    11603    12060    12386    12579    12659    12655    12624 
   12582    12522    12461    12391    12258    12011    11607    11029 
   10352     9693     9131     8714     8478     8418     8503     8685 
    8896     9061     9124     9102     9062     9060     9155     9372 
    9668     9992    10339    10722    11183    11735    12315    12848 
   13280    13584    13767    13828    13768    13654    13570    13549 
   13574    13600    13596    13557    13479    13336    13118    12851 
   12601    12427    12354    12367    12407    12398    12274    12008 
   11607    11114    10598    10141     9811     9630     9590     9684 
    9910    10244    10618    10987    11359    11708    11987    12193 
   12310    12324    12267    12174    12075    11982    11887    11771 
   11596    11361    11130    10965    10881    10876    10971    11162 
   11413    11705    11974    12129    12161    12125    12087    12125 
   12282    12553    12880    13160    13313    13308    13151    12881 
   12555    12231    11952    11734    11548    11301    10904    10342 
    9681     9015     8383     7819     7338     6931     6631     6445 
    6346     6343     6409     6524     6730     7014     7343     7715 
    8082     8427     8797     9218     9703    10288    10989    11775 
   12566    13279    13838    14203    14415    14571    14746    14944 
   15117    15266    15452    15730    16148    16740    17471    18254 
   18976    19535    19891    20034    19996    19865    19726    19609 
   19518    19450    19376    19250    19066    18842    18578    18321 
   18142    18042    18020    18070    18121    18130    18082    17962 
   17816    17707    17638    17601    17599    17588    17504    17345 
   17139    16937    16800    16742    16761    16880    17108    17398 
   17685    17933    18110    18196    18226    18231    18225    18206 
   18160    18093    18016    17906    17742    17538    17294    16978 
   16621    16265    15928    15630    15325    14952    14509    14021 
   13582    13282    13084    12916    12736    12507    12211    11843 
   11395    10873    10302     9737     9235     8823     8463     8120 
    7827     7610     7449     7347     7310     7335     7415     7508 
    7579     7667     7789     7891     7934     7923     7889     7862 
    7838     7789     7700     7581     7468     7400     7433     7620 
    7944     8377     8925     9545    10185    10834    11453    12020 
   12557    13048    13437    13690    13808    13810    13746    13680 
   13627    13547    13407    13224    13053    12927    12853    12826 
   12807    12733    12539    12193    11699    11090    10471     9918 
    9406     8961     8617     8328     8076     7892     7772     7694 
    7670     7738     7887     8059     8205     8307     8394     8505 
    8667     8911     9227     9585     9969    10368    10800    11287 
   11826    12439    13153    13982    14931    15981    17070    18113 
   19043    19808    20373    20722    20882    20929    20917    20882 
   20858    20839    20795    20708    20560    20339    20056    19755 
   19479    19234    19006    18789    18567    18334    18127    18013 
   18014    18073    18102    18046    17898    17658    17326    16921 
   16480    16040    15628    15273    14987    14724    14430    14120 
   13853    13680    13624    13646    13674    13654    13556    13366 
   13072    12693    12289    11895    11535    11244    11035    10912 
   10843    10760    10655    10580    10613    10797    11097    11455 
   11823    12178    12527    12906    13330    13740    14062    14274 
   14410    14528    14650    14764    14848    14842    14692    14432 
   14142    13892    13754    13711    13668    13607    13557    13516 
   13483    13448    13396    13310    13144    12865    12486    12049 
   11597    11148    10699    10239     9729     9151     8548     7970 
    7475     7152     7033     7072     7202     7352     7462     7536 
    7616     7701     7769     7816     7818     7737     7594     7461 
    7375     7331     7293     7221     7129     7056     7063     7205 
    7483     7870     8326     8813     9334     9887    10455    11041 
   11578    11956    12155    12233    12243    12220    12181    12139 
   12109    12088    12101    12197    12350    12524    12739    12995 
   13288    13639    14045    14473    14881    15207    15393    15453 
   15447    15417    15388    15357    15304    15217    15105    14985 
   14849    14684    14517    14363    14214    14088    14024    14023 
   14061    14120    14171    14182    14156    14122    14111    14150 
   14225    14267    14231    14132    14018    13938    13906    13883 
   13844    13800    13778    13779    13805    13912    14158    14474 
   14697    14693    14441    14030    13578    13175    12885    12744 
   12749    12859    13012    13155    13269    13351    13416    13510 
   13621    13714    13812    13907    13983    14049    14051    13957 
   13831    13712    13587    13429    13231    13026    12839    12694 
   12596    12495    12329    12086    11824    11600    11401    11179 
   10897    10547    10158     9769     9411     9116     8905     8785 
    8777     8860     8937     8941     8886     8817     8811     8921 
    9154     9486     9872    10279    10701    11142    11607    12055 
   12408    12663    12844    12936    12954    12924    12811    12581 
   12252    11865    11451    11063    10796    10709    10771    10939 
   11163    11385    11583    11800    12094    12514    13055    13637 
   14142    14497    14716    14869    15033    15231    15406    15504 
   15515    15426    15229    14971    14715    14485    14283    14097 
   13886    13625    13340    13052    12780    12555    12367    12153 
   11898    11619    11325    11048    10809    10582    10358    10145 
    9926     9707     9534     9448     9454     9479     9461     9411 
    9357     9383     9562     9833    10095    10281    10334    10273 
   10188    10142    10160    10235    10332    10422    10497    10571 
   10647    10674    10579    10341     9995     9616     9283     9060 
    8973     9009     9134     9272     9341     9341     9361     9483 
    9733    10102    10581    11140    11741    12364    12974    13512 
   13926    14179    14291    14345    14416    14499    14537    14504 
   14427    14369    14406    14588    14921    15378    15883    16327 
   16634    16760    16697    16486    16218    15996    15846    15769 
   15798    15889    15938    15937    15917    15849    15692    15416 
   15020    14541    14016    13464    12922    12435    12010    11630 
   11284    10966    10695    10517    10481    10590    10785    11006 
   11223    11412    11583    11766    11951    12107    12220    12301 
   12369    12452    12586    12761    12930    13054    13064    12891 
   12575    12191    11797    11468    11228    11022    10791    10516 
   10232    10018     9896     9803     9694     9554     9383     9201 
    9057     9000     9026     9111     9251     9418     9606     9874 
   10256    10734    11243    11626    11769    11702    11518    11315 
   11186    11175    11304    11576    11927    12262    12501    12580 
   12495    12323    12141    11993    11945    12060    12308    12617 
   12963    13346    13767    14212    14605    14891    15083    15189 
   15255    15332    15410    15483    15579    15726    15945    16225 
   16555    16942    17354    17753    18124    18464    18745    18921 
   19027    19158    19334    19523    19712    19862    19938    19959 
   19946    19903    19873    19888    19889    19788    19536    19127 
   18586    17971    17330    16688    16077    15560    15187    14980 
   14923    14967    15064    15158    15182    15125    15038    15003 
   15076    15248    15479    15704    15839    15826    15653    15375 
   15062    14753    14464    14192    13934    13743    13662    13683 
   13793    13942    14044    14081    14118    14237    14481    14834 
   15230    15585    15812    15877    15821    15671    15420    15104 
   14770    14470    14257    14136    14082    14072    14049    13968 
   13828    13646    13454    13302    13237    13280    13395    13513 
   13565    13521    13419    13317    13248    13247    13345    13504 
   13640    13706    13696    13610    13427    13143    12778    12358 
   11940    11589    11337    11176    11064    10964    10879    10814 
   10786    10834    10968    11171    11432    11720    11983    12184 
   12288    12270    12153    11992    11823    11668    11566    11548 
   11594    11644    11618    11501    11324    11086    10812    10562 
   10350    10184    10100    10112    10201    10311    10402    10519 
   10689    10869    11007    11066    11064    11089    11187    11348 
   11555    11791    12039    12276    12484    12663    12791    12817 
   12720    12530    12283    11986    11634    11237    10815    10386 
   10006     9765     9678     9683     9725     9758     9760     9762 
    9791     9852     9924     9939     9874     9753     9608     9487 
    9395     9299     9195     9081     8973     8936     9018     9240 
    9608    10104    10699    11332    11930    12472    12970    13445 
   13899    14305    14662    14978    15239    15447    15609    15715 
   15757    15747    15700    15632    15561    15500    15459    15416 
   15340    15219    15023    14702    14268    13786    13299    12817 
   12369    11986    11665    11396    11169    10956    10735    10518 
   10317    10152    10056    10011     9962     9924     9919     9936 
    9990    10067    10129    10167    10153    10100    10069    10063 
   10061    10061    10059    10087    10179    10312    10486    10724 
   10998    11296    11654    12051    12403    12641    12753    12767 
   12698    12572    12443    12329    12241    12212    12265    12382 
   12514    12621    12696    12712    12640    12509    12335    12085 
   11761    11446    11226    11128    11124    11139    11094    10978 
   10834    10701    10586    10499    10475    10535    10664    10850 
   11066    11273    11482    11738    12046    12398    12783    13193 
   13636    14092    14552    15044    15587    16188    16886    17712 
   18619    19536    20377    21045    21527    21872    22060    22097 
   22067    22000    21915    21871    21876    21860    21757    21540 
   21231    20900    20641    20501    20450    20460    20496    20469 
   20327    20116    19908    19757    19680    19648    19611    19530 
   19422    19332    19269    19238    19211    19105    18885    18598 
   18258    17847    17388    16889    16329    15732    15146    14607 
   14140    13741    13405    13191    13128    13146    13180    13209 
   13215    13199    13200    13232    13273    13314    13364    13421 
   13469    13478    13421    13299    13145    12985    12855    12798 
   12819    12884    12973    13070    13134    13154    13163    13173 
   13158    13090    12963    12765    12504    12227    11962    11700 
   11378    10923    10342     9649     8842     7989     7146     6329 
    5582     4906     4269     3687     3178     2738     2399     2181 
    2033     1909     1773     1588     1385     1215     1121     1160 
    1343     1619     1926     2229     2506     2744     3003     3339 
    3713     4086     4455     4801     5150     5561     6053     6614 
    7210     7829     8484     9172     9883    10596    11254    11831 
   12346    12838    13362    13942    14555    15154    15704    16200 
   16656    17065    17408    17720    18071    18455    18798    19061 
   19238    19332    19365    19354    19305    19219    19090    18917 
   18681    18363    17987    17614    17298    17021    16720    16387 
   16084    15878    15797    15819    15900    16009    16127    16245 
   16360    16463    16533    16564    16583    16636    16733    16795 
   16740    16563    16306    16040    15849    15767    15783    15863 
   15957    15997    15916    15697    15359    14926    14464    14048 
   13703    13392    13048    12665    12294    11965    11675    11426 
   11211    11017    10839    10688    10541    10349    10108     9863 
    9650     9467     9314     9204     9154     9204     9406     9771 
   10252    10773    11237    11596    11861    12065    12257    12441 
   12577    12673    12757    12829    12893    12938    12959    12984 
   13041    13149    13323    13541    13755    13946    14116    14262 
   14374    14452    14475    14389    14175    13879    13532    13164 
   12826    12524    12227    11924    11617    11309    10987    10635 
   10265     9913     9621     9451     9481     9741    10172    10660 
   11127    11557    11946    12278    12541    12710    12764    12721 
   12630    12521    12386    12219    12030    11839    11688    11596 
   11552    11562    11621    11701    11808    11971    12211    12519 
   12890    13327    13849    14463    15114    15727    16276    16720 
   17039    17285    17478    17599    17645    17608    17490    17345 
   17214    17092    16957    16781    16566    16354    16197    16144 
   16215    16396    16664    16975    17269    17519    17751    18009 
   18300    18608    18916    19186    19404    19595    19764    19914 
   20036    20089    20055    19923    19688    19384    19015    18573 
   18073    17548    17069    16676    16355    16126    16009    15990 
   16045    16149    16306    16550    16873    17221    17537    17780 
   17935    18026    18067    18054    17979    17823    17599    17361 
   17161    17025    16950    16952    17057    17238    17440    17628 
   17805    17990    18187    18369    18483    18464    18314    18111 
   17937    17796    17629    17379    17055    16719    16420    16152 
   15870    15513    15046    14483    13850    13188    12544    11932 
   11368    10865    10419    10012     9618     9219     8818     8421 
    8041     7708     7438     7194     6925     6628     6322     6011 
    5699     5411     5200     5091     5055     5052     5053     5049 
    5092     5210     5361     5523     5719     5963     6250     6547 
    6814     7053     7283     7494     7693     7937     8259     8644 
    9075     9526     9961    10350    10676    10935    11136    11265 
   11315    11314    11293    11264    11209    11117    11021    10930 
   10834    10777    10783    10813    10865    10957    11085    11245 
   11425    11632    11880    12117    12303    12439    12508    12521 
   12510    12497    12505    12538    12601    12678    12703    12650 
   12586    12565    12628    12798    13024    13231    13379    13425 
   13359    13229    13085    12943    12788    12624    12457    12282 
   12150    12123    12220    12429    12716    13044    13376    13653 
   13822    13852    13762    13592    13359    13119    12925    12776 
   12683    12667    12702    12749    12790    12828    12869    12891 
   12904    12968    13086    13228    13348    13365    13263    13098 
   12923    12785    12683    12569    12456    12377    12342    12378 
   12482    12609    12742    12867    12976    13082    13160    13186 
   13183    13203    13293    13439    13583    13705    13822    13965 
   14157    14376    14621    14901    15177    15394    15521    15558 
   15524    15423    15293    15193    15156    15189    15282    15390 
   15464    15491    15481    15482    15560    15724    15937    16172 
   16404    16583    16682    16716    16712    16684    16638    16584 
   16525    16433    16291    16116    15933    15770    15644    15551 
   15522    15601    15766    15970    16189    16380    16466    16411 
   16223    15920    15549    15185    14891    14701    14627    14660 
   14758    14877    15032    15248    15500    15759    15998    16176 
   16262    16248    16171    16069    15941    15791    15599    15334 
   15007    14610    14134    13602    13022    12457    12010    11711 
   11534    11424    11289    11076    10809    10502    10156     9807 
    9485     9200     8970     8805     8663     8482     8243     7937 
    7560     7148     6713     6281     5935     5724     5654     5707 
    5827     5972     6122     6259     6396     6577     6845     7189 
    7557     7891     8135     8287     8384     8474     8621     8816 
    8951     8983     8938     8819     8665     8557     8502     8459 
    8407     8376     8395     8438     8463     8491     8545     8618 
    8721     8882     9110     9377     9637     9892    10166    10462 
   10803    11203    11631    12061    12488    12925    13368    13784 
   14176    14565    14931    15259    15549    15839    16196    16640 
   17140    17669    18219    18799    19395    19976    20524    21015 
   21396    21650    21809    21905    21952    21964    21949    21919 
   21877    21812    21685    21443    21085    20681    20329    20091 
   19923    19708    19365    18899    18387    17903    17475    17090 
   16702    16284    15864    15480    15178    14982    14833    14698 
