Origin Time       2011/03/11 14:46:00
Lat.              38.103
Long.             142.860
Depth. (km)       24
Mag.              9.0
Station Code      HKD101
Station Lat.      43.3338
Station Long.     142.9473
Station Height(m) 370
Record Time       2011/03/11 14:49:03
Sampling Freq(Hz) 100Hz
Duration Time(s)  219
Dir.              N-S
Scale Factor      3920(gal)/6182761
Max. Acc. (gal)   4.429
Last Correction   2011/03/11 14:48:48
Memo.             
[...]
    9395     9372     9421     9588     9987    10498    10914    11320 
   11877    12445    12721    12608    12338    12187    12124    11988 
   11860    11848    11733    11318    10868    10728    10745    10570 
   10278    10117     9993     9714     9445     9524     9891    10140 
   10113     9911     9496     8827     8136     7675     7413     7200 
    7009     6858     6762     6736     6787     6982     7281     7480 
    7595     7854     8315     8746     8891     8736     8486     8429 
    8611     8763     8868     9105     9323     9324     9196     9118 
    9240     9665    10270    10704    10840    10952    11135    11127 
   10922    10870    11197    11725    12025    11953    11853    11960 
   12129    12170    12121    12169    12214    11962    11535    11268 
   11214    11258    11286    11175    10906    10622    10516    10670 
   10965    11118    10923    10450     9941     9662     9788    10142 
   10293    10219    10305    10648    11094    11614    12051    12146 
   12054    12081    12088    11789    11271    10861    10674    10515 
   10274    10125    10130    10101    10048    10219    10595    10860 
   10860    10717    10655    10808    11080    11251    11212    11069 
   11013    11169    11498    11714    11490    10992    10717    10732 
   10737    10654    10623    10755    10999    11149    11120    10991 
   10751    10448    10305    10369    10398    10312    10366    10706 
   11114    11318    11251    10993    10647    10260     9916     9794 
    9852     9797     9604     9550     9737    10051    10410    10838 
   11400    12061    12565    12736    12777    12892    13000    13054 
   13059    12959    12902    13185    13771    14248    14324    14167 
   14103    14070    13777    13322    13015    12864    12782    12768 
   12693    12418    12056    11861    11853    11809    11681    11567 
   11458    11374    11314    11070    10523     9995     9853     9834 
    9425     8849     8770     9138     9311     9116     8918     8962 
    9257     9715    10102    10231    10164    10078    10092    10179 
   10162    10001     9874     9777     9522     9056     8530     8129 
    7837     7553     7335     7194     7050     7047     7355     7778 
    7970     7869     7729     7851     8272     8748     9058     9205 
    9360     9569     9558     9206     8828     8708     8848     9033 
    9027     8984     9227     9701    10087    10230    10260    10288 
   10201    10017     9894     9763     9507     9189     8845     8437 
    7943     7449     7092     6859     6629     6369     6185     6181 
    6212     6081     5883     5819     5961     6292     6659     6842 
    6872     6987     7187     7262     7234     7349     7688     8048 
    8242     8340     8508     8772     8981     9027     8982     9003 
    9227     9529     9562     9253     8958     9033     9370     9598 
    9628     9591     9570     9682     9987    10337    10506    10406 
   10209    10104    10025     9950    10037    10128     9829     9231 
    8844     8871     9044     9115     9128     9152     9177     9377 
    9828    10191    10151     9776     9404     9353     9542     9603 
    9460     9361     9311     9059     8682     8574     8860     9287 
    9612     9742     9678     9594     9652     9788     9994    10286 
   10442    10312     9933     9348     8746     8476     8601     8719 
    8553     8343     8377     8584     8725     8683     8553     8456 
    8339     8116     7887     7825     7947     8217     8699     9268 
    9584     9632     9730    10023    10279    10248    10154    10394 
   10855    11101    11020    10878    10880    10970    11007    10894 
   10669    10511    10555    10759    10929    10893    10747    10756 
   10973    11242    11563    11953    12156    12033    11857    11876 
   12057    12255    12346    12414    12602    12695    12530    12403 
   12434    12357    12150    12136    12367    12420    12052    11460 
   10859    10373    10077     9923     9774     9484     9088     8881 
    9023     9282     9473     9724    10040    10176    10080    10038 
   10289    10675    10891    10927    10903    10803    10640    10560 
   10677    10877    10969    10949    10868    10687    10412    10047 
    9554     9005     8583     8388     8321     8220     8014     7718 
    7377     7082     6980     7124     7316     7373     7471     7807 
    8183     8326     8221     8029     7979     8216     8665     9070 
    9154     8899     8704     8954     9417     9563     9302     9024 
    9085     9422     9728     9846     9815     9754     9755     9826 
    9961    10130    10282    10435    10598    10686    10684    10706 
   10765    10770    10687    10520    10370    10425    10692    11010 
   11296    11565    11778    11863    11910    12079    12396    12743 
   12917    12853    12825    13060    13323    13251    12882    12475 
   12066    11620    11321    11254    11141    10832    10587    10563 
   10576    10514    10546    10817    11174    11452    11831    12466 
   13093    13493    13836    14185    14274    14033    13743    13569 
   13409    13227    13200    13378    13484    13292    12969    12824 
   12912    13002    12843    12399    11889    11591    11470    11190 
   10760    10561    10621    10643    10436     9999     9552     9318 
    9246     9139     8932     8801     8927     9234     9446     9312 
    8956     8832     9017     9053     8676     8262     8225     8315 
    8124     7860     7913     8212     8451     8491     8388     8407 
    8729     9159     9434     9416     9139     8969     9193     9589 
    9808     9835     9823     9771     9672     9701     9940    10102 
    9869     9392     9058     9035     9205     9251     8986     8651 
    8613     8878     9193     9373     9325     9093     8954     9123 
    9453     9656     9638     9448     9172     8991     8983     8984 
    8955     9037     9265     9580     9829     9915    10016    10215 
   10321    10234    10075    10034    10194    10550    11032    11336 
   11298    11305    11583    11705    11329    10719    10283    10131 
   10103    10041    10010    10151    10331    10235     9765     9192 
    8846     8758     8745     8695     8585     8398     8204     8141 
    8072     7759     7381     7261     7328     7291     7154     7327 
    8022     8827     9309     9546     9766    10019    10334    10708 
   11017    11201    11385    11609    11634    11477    11584    12039 
   12437    12588    12645    12704    12633    12410    12299    12380 
   12431    12332    12066    11668    11335    11222    11221    11181 
   11128    11186    11441    11753    11775    11425    10980    10597 
   10236     9981     9990    10214    10423    10437    10231     9999 
   10061    10458    10843    10940    10800    10620    10561    10679 
   10843    10896    10912    10954    10919    10853    10837    10854 
   11076    11604    12005    11803    11242    10895    10749    10425 
    9892     9410     9201     9285     9506     9704     9794     9660 
    9268     8884     8793     9004     9441    10028    10636    11124 
   11402    11463    11394    11378    11449    11385    11127    10824 
   10430     9904     9579     9653     9843     9892     9883    10085 
   10579    10959    10898    10762    11002    11463    11758    11778 
   11586    11291    11053    10880    10577    10140     9870     9919 
   10071    10059     9848     9581     9369     9278     9335     9436 
    9430     9230     8923     8775     8887     9061     9081     8940 
    8803     8707     8549     8423     8467     8578     8698     8933 
    9306     9714     9936     9799     9470     9226     9092     9030 
    9107     9225     9145     8908     8755     8663     8455     8142 
    7793     7457     7275     7263     7194     7021     6998     7278 
    7794     8435     9030     9430     9707    10024    10388    10645 
   10687    10589    10500    10453    10311     9866     9168     8642 
    8471     8314     7959     7598     7470     7610     7861     8059 
    8143     8263     8692     9347     9847    10078    10255    10518 
   10782    10917    10835    10610    10565    10861    11327    11811 
   12272    12646    12835    12878    13022    13293    13352    13064 
   12730    12569    12408    12083    11703    11384    11250    11467 
   11880    12024    11778    11516    11410    11230    10834    10392 
   10198    10212    10011     9549     9322     9603    10052    10155 
    9802     9335     9150     9305     9454     9391     9343     9443 
    9586     9798    10112    10379    10457    10308     9986     9678 
    9606     9802    10035    10151    10252    10322    10207     9945 
    9654     9370     9130     8967     8866     8840     8951     9163 
    9334     9414     9498     9700    10034    10356    10496    10476 
   10573    11038    11749    12369    12763    12964    12997    12987 
   13036    13063    13009    12946    12880    12699    12415    12212 
   12133    12049    11925    11879    11934    11920    11642    11106 
   10613    10445    10467    10383    10082     9653     9385     9487 
    9724     9837     9992    10316    10619    10780    10912    11045 
   10916    10464    10165    10239    10235     9887     9469     9207 
    9092     9130     9347     9728    10131    10247     9936     9430 
    9024     8872     8973     9107     8933     8362     7743     7425 
    7403     7509     7541     7282     6821     6452     6128     5733 
    5526     5570     5476     5128     4957     5237     5658     5834 
    5802     5788     5811     5742     5648     5723     5884     5873 
    5699     5619     5775     6076     6356     6460     6361     6338 
    6640     6961     6893     6596     6478     6645     6908     7018 
    6949     6924     7089     7386     7628     7648     7488     7291 
    7080     6852     6677     6558     6406     6235     6205     6373 
    6666     7077     7558     7904     7978     7879     7750     7637 
    7553     7545     7680     7875     7900     7774     7705     7617 
    7364     7139     7227     7567     7836     7874     7855     8000 
    8291     8549     8684     8746     8799     8898     9131     9404 
    9395     9024     8556     8176     7932     7876     7919     7972 
    8093     8191     8051     7728     7489     7476     7670     8031 
    8361     8371     8169     8131     8395     8891     9449     9880 
   10271    10784    11226    11337    11151    10874    10739    10860 
   11072    11167    11212    11323    11368    11216    11041    11116 
   11430    11821    12167    12367    12524    12908    13512    13979 
   14091    14098    14313    14597    14552    14122    13692    13537 
   13539    13429    13039    12466    11976    11757    11826    11970 
   11927    11760    11733    11846    11904    11935    12087    12309 
   12407    12310    12228    12391    12668    12706    12452    12228 
   12289    12547    12740    12691    12407    12114    12078    12225 
   12242    12104    12068    12226    12420    12472    12419    12468 
   12612    12568    12236    11799    11315    10691     9998     9422 
    9109     9156     9400     9515     9542     9742    10019    10099 
   10039    10100    10339    10604    10738    10722    10755    11036 
   11480    11826    11987    12119    12336    12614    12895    13149 
   13406    13686    13937    14097    14087    13844    13484    13259 
   13270    13328    13224    12962    12679    12531    12619    12868 
   13041    12976    12784    12705    12784    12813    12613    12254 
   11953    11778    11559    11150    10681    10458    10578    10795 
   10919    11031    11193    11268    11151    10932    10760    10662 
   10599    10593    10701    10939    11307    11764    12205    12536 
   12731    12779    12733    12748    12882    12989    12876    12501 
   12030    11591    11230    11078    11173    11319    11291    11076 
   10824    10473     9925     9451     9246     9148     8983     8659 
    8237     7944     7901     7993     7996     7828     7634     7550 
    7533     7468     7360     7277     7215     7164     7131     7138 
    7277     7591     7908     8046     8148     8441     8840     9101 
    9134     9058     9033     9046     9033     9074     9224     9311 
    9147     8820     8559     8373     8062     7556     7066     6837 
    6911     7154     7344     7381     7390     7400     7245     6909 
    6638     6633     6818     6933     6875     6859     7053     7334 
    7560     7665     7588     7385     7215     7127     7039     6949 
    6944     7034     7096     7052     7058     7300     7629     7799 
    7825     7768     7579     7448     7674     8082     8205     8000 
    7815     7831     7968     8223     8688     9248     9663     9946 
   10347    10846    11054    10892    10774    10862    10894    10836 
   10984    11338    11468    11205    10830    10593    10525    10600 
   10809    10984    10811    10385    10147    10105     9922     9515 
    9110     8955     9023     9147     9316     9465     9507     9566 
    9666     9635     9444     9175     8904     8774     8840     8982 
    9120     9200     9088     8796     8535     8444     8507     8627 
    8638     8445     8212     8204     8328     8175     7638     6988 
    6421     5926     5418     4888     4409     4004     3667     3336 
    2930     2596     2585     2816     3079     3425     3931     4419 
    4796     5272     5888     6360     6646     6982     7390     7725 
    7914     7946     7938     8087     8334     8433     8399     8452 
    8664     8870     8848     8625     8511     8685     8988     9185 
    9222     9139     9012     8999     9137     9266     9281     9267 
    9387     9545     9465     9289     9356     9572     9729     9944 
   10293    10612    10767    10716    10485    10224    10063    10026 
   10077    10131    10215    10435    10711    10807    10600    10304 
   10206    10143     9809     9380     9214     9309     9466     9508 
    9192     8563     8139     8199     8457     8596     8580     8548 
    8588     8620     8545     8438     8547     8989     9514     9800 
    9851     9909    10177    10635    10951    10804    10408    10230 
   10368    10589    10693    10712    10814    10985    11045    10884 
   10678    10801    11200    11422    11411    11500    11762    12047 
   12345    12589    12487    12044    11716    11778    12053    12128 
   11778    11304    11039    10882    10751    10762    10830    10757 
   10513    10133     9694     9341     9210     9301     9418     9462 
    9568     9722     9719     9572     9523     9648     9815    10025 
   10316    10473    10389    10353    10472    10395     9990     9716 
    9976    10483    10703    10683    10734    10733    10488    10181 
   10073    10198    10345    10374    10383    10416    10391    10250 
    9917     9426     9033     8901     8944     9056     9092     8907 
    8668     8552     8428     8282     8319     8500     8558     8402 
    8285     8506     8991     9346     9369     9265     9319     9562 
    9818     9948     9868     9563     9301     9300     9372     9350 
    9247     9150     9269     9672    10137    10448    10570    10542 
   10382    10216    10209    10175     9750     9070     8638     8617 
    8781     8829     8615     8341     8287     8374     8395     8342 
    8270     8218     8198     8138     8046     8047     8150     8235 
    8322     8557     8851     8939     8866     8877     8916     8747 
    8434     8268     8363     8637     9030     9486     9856    10067 
   10183    10200    10084     9887     9667     9591     9857    10249 
   10352    10236    10241    10384    10513    10665    10823    10730 
   10452    10481    10864    11078    10854    10454    10272    10325 
   10254     9883     9454     9355     9639     9882     9828     9694 
    9704     9840     9928     9799     9526     9391     9450     9382 
    8980     8462     8142     8070     8134     8250     8303     8284 
    8285     8218     8078     8041     8050     7972     7920     8008 
    8136     8241     8403     8592     8778     9032     9273     9382 
    9425     9482     9454     9203     8830     8520     8262     7993 
    7740     7600     7637     7779     7961     8162     8264     8213 
    8256     8625     9023     8992     8725     8814     9277     9645 
    9809     9957    10075    10147    10252    10325    10239    10046 
   10023    10331    10741    11001    11252    11660    11992    12079 
   12137    12319    12605    12977    13218    13040    12505    11940 
   11562    11374    11329    11414    11513    11333    10816    10415 
   10439    10536    10340    10140    10258    10372    10132     9738 
    9520     9540     9676     9755     9625     9272     8857     8439 
    7914     7326     6914     6871     7147     7468     7627     7661 
    7711     7876     8102     8179     7996     7691     7542     7709 
    8021     8190     8197     8168     8124     8091     8149     8309 
    8512     8665     8680     8579     8509     8594     8733     8746 
    8715     8775     8764     8531     8226     8048     8068     8230 
    8374     8390     8260     8024     7791     7720     7911     8213 
    8384     8420     8446     8572     8891     9322     9583     9586 
    9719    10175    10429    10162     9908    10089    10330    10206 
    9897     9704     9557     9363     9235     9209     9195     9204 
    9332     9568     9734     9605     9107     8490     8136     8087 
    8068     7932     7714     7498     7402     7398     7224     6785 
    6366     6164     6049     5885     5732     5665     5633     5601 
    5609     5617     5546     5414     5381     5559     5772     5856 
    6027     6450     6855     6949     6804     6726     6992     7582 
    8190     8651     8962     8982     8786     8703     8697     8605 
    8584     8685     8655     8371     8033     7883     7937     8093 
    8294     8469     8508     8398     8242     8159     8230     8444 
    8770     9174     9469     9547     9630     9898    10234    10367 
   10066     9454     8947     8695     8575     8570     8737     9066 
    9315     9191     8895     8811     8837     8675     8360     8087 
    7815     7447     7145     6998     6732     6179     5605     5348 
    5368     5421     5504     5713     5880     5836     5733     5805 
    6038     6269     6422     6533     6643     6816     7147     7557 
    7753     7651     7555     7737     8089     8258     8093     7843 
    7835     8086     8311     8312     8307     8592     9041     9293 
    9275     9212     9220     9215     9179     9249     9428     9522 
    9510     9625     9962    10377    10763    11131    11409    11334 
   10741     9891     9195     8814     8715     8734     8633     8362 
    8140     8086     7996     7803     7794     8100     8457     8591 
    8582     8659     8782     8771     8765     9008     9355     9570 
    9756    10080    10470    10757    10894    10869    10639    10383 
   10314    10356    10399    10359    10054     9605     9541    10022 
   10454    10336     9901     9591     9507     9531     9582     9558 
