Origin Time       2011/03/11 14:46:00
Lat.              38.103
Long.             142.860
Depth. (km)       24
Mag.              9.0
Station Code      HKD152
Station Lat.      42.2586
Station Long.     140.2638
Station Height(m) 5
Record Time       2011/03/11 14:48:01
Sampling Freq(Hz) 100Hz
Duration Time(s)  300
Dir.              E-W
Scale Factor      3920(gal)/6182761
Max. Acc. (gal)   6.333
Last Correction   2011/03/11 14:47:46
Memo.             
[...]
  -49576   -49562   -49517   -49444   -49365   -49305   -49277   -49288 
  -49332   -49408   -49523   -49666   -49823   -50001   -50207   -50441 
  -50701   -50944   -51118   -51209   -51240   -51238   -51214   -51164 
  -51101   -51041   -50991   -50956   -50926   -50880   -50807   -50718 
  -50639   -50590   -50582   -50616   -50669   -50701   -50696   -50645 
  -50548   -50419   -50292   -50191   -50129   -50104   -50110   -50120 
  -50097   -50031   -49947   -49871   -49816   -49802   -49838   -49918 
  -50037   -50187   -50345   -50494   -50619   -50719   -50791   -50823 
  -50805   -50752   -50687   -50633   -50611   -50615   -50625   -50631 
  -50626   -50604   -50581   -50560   -50536   -50504   -50449   -50397 
  -50401   -50476   -50599   -50748   -50885   -51000   -51123   -51265 
  -51421   -51583   -51726   -51841   -51932   -52004   -52064   -52112 
  -52141   -52162   -52185   -52180   -52125   -52045   -51968   -51905 
  -51870   -51863   -51877   -51910   -51943   -51967   -51995   -52055 
  -52151   -52270   -52401   -52521   -52598   -52610   -52561   -52499 
  -52456   -52431   -52433   -52493   -52623   -52821   -53068   -53330 
  -53589   -53836   -54058   -54251   -54427   -54591   -54735   -54861 
  -54961   -55015   -55026   -55009   -54964   -54901   -54848   -54827 
  -54838   -54867   -54902   -54926   -54930   -54927   -54935   -54961 
  -54997   -55034   -55070   -55111   -55165   -55224   -55270   -55292 
  -55281   -55243   -55192   -55133   -55078   -55051   -55056   -55088 
  -55156   -55251   -55351   -55442   -55498   -55502   -55472   -55421 
  -55333   -55196   -55003   -54769   -54522   -54281   -54057   -53856 
  -53663   -53456   -53239   -53026   -52824   -52647   -52501   -52373 
  -52256   -52153   -52064   -51985   -51900   -51808   -51732   -51678 
  -51615   -51516   -51387   -51240   -51093   -50964   -50859   -50769 
  -50666   -50546   -50438   -50351   -50276   -50217   -50178   -50153 
  -50148   -50162   -50164   -50138   -50086   -50029   -49999   -49998 
  -49994   -49970   -49934   -49910   -49924   -49973   -50036   -50096 
  -50142   -50175   -50217   -50290   -50404   -50561   -50758   -50988 
  -51230   -51455   -51634   -51757   -51836   -51880   -51902   -51928 
  -51949   -51931   -51875   -51792   -51689   -51582   -51496   -51445 
  -51437   -51479   -51559   -51642   -51710   -51764   -51817   -51884 
  -51967   -52053   -52139   -52245   -52397   -52591   -52801   -53004 
  -53183   -53328   -53437   -53516   -53571   -53613   -53668   -53765 
  -53900   -54044   -54173   -54278   -54365   -54437   -54494   -54535 
  -54554   -54542   -54504   -54443   -54374   -54326   -54318   -54339 
  -54372   -54403   -54444   -54512   -54596   -54672   -54751   -54866 
  -55019   -55181   -55321   -55420   -55489   -55556   -55634   -55717 
  -55794   -55847   -55856   -55817   -55734   -55623   -55523   -55473 
  -55491   -55579   -55715   -55870   -56027   -56176   -56300   -56408 
  -56516   -56623   -56726   -56817   -56888   -56942   -56974   -56975 
  -56940   -56868   -56765   -56648   -56521   -56381   -56230   -56064 
  -55874   -55668   -55450   -55199   -54915   -54614   -54308   -54006 
  -53718   -53450   -53224   -53052   -52913   -52788   -52674   -52564 
  -52452   -52325   -52186   -52055   -51935   -51828   -51751   -51701 
  -51654   -51599   -51526   -51408   -51239   -51031   -50808   -50581 
  -50332   -50065   -49808   -49563   -49321   -49094   -48878   -48678 
  -48523   -48408   -48310   -48232   -48173   -48116   -48055   -47982 
  -47895   -47812   -47747   -47688   -47633   -47595   -47605   -47683 
  -47805   -47942   -48073   -48172   -48223   -48245   -48274   -48337 
  -48440   -48589   -48795   -49047   -49299   -49513   -49666   -49760 
  -49821   -49876   -49922   -49955   -49970   -49953   -49902   -49821 
  -49724   -49631   -49540   -49442   -49347   -49262   -49152   -48978 
  -48746   -48489   -48231   -47989   -47764   -47530   -47270   -46990 
  -46699   -46408   -46143   -45927   -45771   -45676   -45634   -45627 
  -45648   -45698   -45799   -45972   -46214   -46502   -46818   -47150 
  -47494   -47849   -48214   -48587   -48961   -49315   -49631   -49910 
  -50157   -50366   -50547   -50729   -50930   -51174   -51468   -51780 
  -52082   -52359   -52600   -52809   -52985   -53122   -53261   -53427 
  -53607   -53809   -54038   -54259   -54465   -54676   -54883   -55099 
  -55344   -55589   -55822   -56053   -56252   -56426   -56589   -56702 
  -56770   -56814   -56799   -56737   -56639   -56453   -56202   -55923 
  -55599   -55265   -54957   -54652   -54366   -54108   -53848   -53580 
  -53305   -53006   -52690   -52364   -52037   -51728   -51455   -51219 
  -51026   -50868   -50736   -50629   -50531   -50419   -50307   -50205 
  -50105   -50013   -49918   -49800   -49654   -49482   -49296   -49123 
  -48975   -48850   -48762   -48729   -48739   -48758   -48762   -48758 
  -48781   -48850   -48937   -49029   -49159   -49309   -49406   -49449 
  -49503   -49562   -49627   -49742   -49916   -50147   -50408   -50623 
  -50805   -50998   -51153   -51282   -51453   -51654   -51891   -52157 
  -52377   -52582   -52836   -53104   -53398   -53745   -54094   -54436 
  -54789   -55125   -55450   -55761   -56003   -56181   -56330   -56450 
  -56552   -56634   -56659   -56620   -56529   -56393   -56244   -56095 
  -55944   -55785   -55587   -55383   -55287   -55264   -55165   -55012 
  -54874   -54680   -54410   -54106   -53760   -53416   -53071   -52693 
  -52407   -52238   -52056   -51885   -51758   -51604   -51433   -51236 
  -50995   -50818   -50717   -50605   -50527   -50503   -50464   -50408 
  -50329   -50212   -50105   -50017   -49951   -49964   -50055   -50186 
  -50368   -50594   -50820   -51001   -51155   -51364   -51600   -51762 
  -51914   -52148   -52403   -52672   -52979   -53275   -53578   -53869 
  -54085   -54304   -54551   -54733   -54882   -55041   -55160   -55262 
  -55327   -55304   -55277   -55275   -55240   -55202   -55154   -55063 
  -54968   -54859   -54715   -54583   -54454   -54301   -54147   -53968 
  -53737   -53479   -53191   -52879   -52585   -52287   -51924   -51526 
  -51192   -50958   -50773   -50610   -50506   -50459   -50398   -50292 
  -50180   -50086   -49990   -49890   -49843   -49853   -49852   -49812 
  -49770   -49761   -49797   -49858   -49919   -49999   -50092   -50149 
  -50156   -50140   -50124   -50107   -50086   -50085   -50123   -50174 
  -50213   -50245   -50266   -50276   -50304   -50377   -50502   -50655 
  -50819   -51000   -51178   -51323   -51441   -51528   -51570   -51571 
  -51535   -51474   -51378   -51215   -50985   -50707   -50379   -50030 
  -49704   -49404   -49118   -48864   -48636   -48412   -48195   -48001 
  -47836   -47703   -47583   -47465   -47358   -47251   -47106   -46918 
  -46716   -46516   -46324   -46143   -45991   -45897   -45873   -45919 
  -46024   -46165   -46332   -46522   -46719   -46916   -47130   -47354 
  -47568   -47778   -47974   -48159   -48374   -48610   -48843   -49081 
  -49313   -49510   -49654   -49765   -49864   -49952   -50029   -50083 
  -50100   -50120   -50186   -50286   -50391   -50493   -50594   -50690 
  -50791   -50903   -51022   -51140   -51232   -51281   -51295   -51283 
  -51240   -51168   -51079   -50987   -50883   -50728   -50506   -50248 
  -49995   -49780   -49594   -49390   -49179   -48985   -48763   -48523 
  -48313   -48101   -47886   -47731   -47622   -47520   -47426   -47316 
  -47167   -47009   -46865   -46719   -46578   -46450   -46316   -46197 
  -46122   -46059   -45988   -45936   -45923   -45951   -46039   -46191 
  -46384   -46610   -46870   -47150   -47427   -47693   -47925   -48103 
  -48253   -48408   -48585   -48801   -49038   -49262   -49479   -49667 
  -49784   -49901   -50105   -50348   -50616   -50943   -51253   -51499 
  -51727   -51940   -52124   -52306   -52490   -52653   -52796   -52916 
  -53006   -53086   -53161   -53207   -53237   -53285   -53354   -53449 
  -53573   -53691   -53761   -53802   -53837   -53842   -53817   -53799 
  -53791   -53785   -53767   -53712   -53634   -53575   -53526   -53477 
  -53473   -53502   -53526   -53568   -53619   -53642   -53660   -53711 
  -53817   -53994   -54216   -54432   -54621   -54777   -54897   -54991 
  -55066   -55116   -55131   -55123   -55112   -55078   -54984   -54814 
  -54553   -54213   -53860   -53547   -53281   -53064   -52900   -52778 
  -52679   -52593   -52523   -52488   -52471   -52430   -52416   -52480 
  -52518   -52506   -52545   -52588   -52567   -52569   -52604   -52605 
  -52613   -52656   -52706   -52782   -52873   -52958   -53070   -53182 
  -53253   -53321   -53398   -53459   -53510   -53547   -53543   -53518 
  -53509   -53534   -53618   -53781   -54001   -54233   -54435   -54565 
  -54621   -54643   -54644   -54610   -54541   -54432   -54343   -54316 
  -54257   -54132   -53989   -53794   -53577   -53409   -53249   -53076 
  -52905   -52694   -52473   -52304   -52146   -51989   -51870   -51746 
  -51601   -51467   -51328   -51185   -51091   -51068   -51096   -51143 
  -51171   -51172   -51172   -51185   -51211   -51245   -51258   -51235 
  -51198   -51164   -51136   -51112   -51058   -50977   -50946   -50949 
  -50933   -50939   -50985   -51033   -51094   -51160   -51175   -51130 
  -51055   -50969   -50897   -50849   -50791   -50713   -50629   -50545 
  -50468   -50393   -50281   -50101   -49880   -49649   -49414   -49183 
  -48956   -48722   -48507   -48362   -48305   -48314   -48346   -48362 
  -48350   -48313   -48239   -48115   -47976   -47884   -47834   -47808 
  -47815   -47811   -47786   -47799   -47860   -47940   -48035   -48142 
  -48259   -48419   -48623   -48835   -49035   -49198   -49304   -49368 
  -49412   -49449   -49499   -49559   -49619   -49682   -49755   -49842 
  -49946   -50049   -50122   -50155   -50164   -50169   -50188   -50250 
  -50354   -50456   -50530   -50577   -50600   -50608   -50611   -50612 
  -50599   -50569   -50548   -50531   -50483   -50420   -50361   -50291 
  -50214   -50132   -50026   -49907   -49806   -49713   -49608   -49505 
  -49409   -49307   -49186   -49035   -48838   -48601   -48351   -48108 
  -47880   -47670   -47490   -47353   -47244   -47152   -47105   -47122 
  -47187   -47267   -47330   -47354   -47342   -47318   -47293   -47265 
  -47211   -47137   -47071   -47010   -46944   -46892   -46873   -46900 
  -46969   -47076   -47205   -47313   -47399   -47500   -47609   -47730 
  -47869   -48010   -48129   -48195   -48227   -48283   -48359   -48440 
  -48526   -48599   -48656   -48736   -48829   -48891   -48933   -48992 
  -49065   -49154   -49266   -49375   -49469   -49562   -49639   -49677 
  -49689   -49690   -49673   -49641   -49634   -49673   -49730   -49767 
  -49784   -49774   -49720   -49635   -49552   -49479   -49418   -49395 
  -49420   -49460   -49506   -49569   -49620   -49639   -49653   -49697 
  -49780   -49886   -49997   -50102   -50157   -50149   -50097   -50010 
  -49912   -49852   -49835   -49837   -49887   -50015   -50180   -50360 
  -50568   -50776   -50956   -51133   -51320   -51508   -51690   -51841 
  -51937   -51985   -52017   -52079   -52180   -52279   -52382   -52524 
  -52716   -52945   -53199   -53457   -53706   -53955   -54227   -54526 
  -54799   -55013   -55172   -55289   -55390   -55481   -55541   -55569 
  -55552   -55496   -55426   -55342   -55240   -55130   -55021   -54936 
  -54888   -54854   -54815   -54787   -54776   -54783   -54826   -54907 
  -55017   -55144   -55266   -55356   -55412   -55457   -55498   -55523 
  -55526   -55501   -55431   -55317   -55164   -54990   -54820   -54660 
  -54503   -54345   -54171   -53980   -53780   -53551   -53289   -53002 
  -52689   -52378   -52101   -51855   -51618   -51382   -51137   -50853 
  -50552   -50299   -50099   -49942   -49855   -49821   -49792   -49756 
  -49706   -49615   -49494   -49391   -49319   -49278   -49285   -49336 
  -49395   -49435   -49472   -49529   -49598   -49668   -49736   -49792 
  -49842   -49888   -49911   -49924   -49947   -49973   -50005   -50052 
  -50088   -50100   -50084   -50052   -50037   -50040   -50065   -50111 
  -50143   -50154   -50164   -50181   -50203   -50257   -50361   -50467 
  -50558   -50664   -50759   -50818   -50883   -50956   -51001   -51028 
  -51046   -51041   -51005   -50954   -50909   -50874   -50845   -50829 
  -50839   -50893   -50988   -51111   -51251   -51402   -51558   -51721 
  -51887   -52042   -52194   -52363   -52549   -52760   -53004   -53260 
  -53509   -53723   -53874   -53995   -54077   -54099   -54113   -54128 
  -54119   -54088   -54019   -53897   -53771   -53692   -53631   -53529 
  -53409   -53279   -53107   -52926   -52759   -52569   -52359   -52169 
  -52009   -51877   -51779   -51704   -51614   -51510   -51424   -51329 
  -51171   -50970   -50765   -50565   -50372   -50181   -49983   -49769 
  -49523   -49236   -48918   -48597   -48306   -48069   -47901   -47809 
  -47770   -47758   -47762   -47776   -47805   -47863   -47947   -48024 
  -48068   -48099   -48152   -48226   -48295   -48348   -48398   -48470 
  -48573   -48687   -48791   -48882   -48964   -49047   -49142   -49246 
  -49333   -49377   -49376   -49336   -49256   -49147   -49029   -48911 
  -48802   -48707   -48620   -48545   -48492   -48448   -48402   -48346 
  -48248   -48084   -47859   -47597   -47318   -47018   -46690   -46326 
  -45923   -45513   -45145   -44824   -44525   -44227   -43926   -43632 
  -43353   -43083   -42807   -42538   -42307   -42121   -41974   -41851 
  -41747   -41672   -41624   -41604   -41619   -41652   -41688   -41733 
  -41792   -41858   -41910   -41932   -41938   -41954   -41998   -42089 
  -42245   -42449   -42675   -42923   -43183   -43436   -43682   -43926 
  -44168   -44409   -44663   -44938   -45239   -45569   -45924   -46293 
  -46647   -46969   -47274   -47564   -47823   -48064   -48307   -48559 
  -48822   -49091   -49365   -49653   -49958   -50275   -50600   -50947 
  -51335   -51765   -52199   -52600   -52974   -53346   -53714   -54069 
  -54416   -54750   -55063   -55362   -55642   -55877   -56057   -56207 
  -56362   -56521   -56673   -56813   -56939   -57051   -57155   -57249 
  -57328   -57398   -57476   -57565   -57663   -57762   -57850   -57908 
  -57914   -57864   -57771   -57657   -57538   -57422   -57320   -57253 
  -57237   -57258   -57284   -57298   -57306   -57304   -57267   -57191 
  -57096   -57009   -56937   -56874   -56801   -56707   -56601   -56480 
  -56331   -56161   -55989   -55832   -55697   -55580   -55464   -55337 
  -55200   -55076   -54989   -54935   -54910   -54900   -54876   -54817 
  -54725   -54607   -54467   -54309   -54165   -54058   -53978   -53914 
  -53863   -53806   -53724   -53610   -53466   -53309   -53163   -53034 
  -52911   -52782   -52634   -52463   -52294   -52155   -52055   -51981 
  -51916   -51861   -51816   -51762   -51664   -51508   -51314   -51107 
  -50909   -50736   -50579   -50411   -50228   -50039   -49852   -49673 
  -49503   -49368   -49287   -49239   -49203   -49165   -49109   -49029 
  -48921   -48788   -48645   -48504   -48385   -48328   -48352   -48437 
  -48559   -48709   -48891   -49101   -49315   -49521   -49714   -49892 
  -50066   -50235   -50371   -50462   -50503   -50495   -50461   -50428 
  -50403   -50399   -50403   -50384   -50344   -50311   -50309   -50339 
  -50385   -50432   -50461   -50452   -50401   -50312   -50197   -50078 
  -49972   -49891   -49836   -49794   -49746   -49681   -49600   -49514 
  -49452   -49435   -49473   -49583   -49759   -49964   -50167   -50359 
  -50542   -50737   -50932   -51103   -51238   -51332   -51396   -51429 
  -51402   -51304   -51147   -50953   -50756   -50570   -50384   -50203 
  -50044   -49917   -49830   -49773   -49720   -49652   -49555   -49427 
  -49293   -49158   -49030   -48930   -48848   -48761   -48666   -48566 
  -48456   -48331   -48175   -47995   -47828   -47699   -47596   -47510 
  -47436   -47362   -47284   -47206   -47139   -47107   -47125   -47183 
  -47270   -47382   -47508   -47638   -47766   -47877   -47960   -48023 
  -48069   -48098   -48127   -48181   -48268   -48387   -48523   -48664 
  -48815   -48974   -49126   -49269   -49418   -49585   -49777   -49993 
  -50227   -50475   -50733   -50992   -51237   -51456   -51619   -51713 
  -51781   -51859   -51945   -52037   -52119   -52163   -52178   -52183 
  -52182   -52186   -52199   -52216   -52250   -52315   -52397   -52473 
  -52530   -52567   -52593   -52624   -52672   -52725   -52772   -52820 
  -52865   -52897   -52912   -52909   -52890   -52871   -52861   -52855 
  -52841   -52805   -52733   -52637   -52532   -52424   -52323   -52233 
  -52145   -52056   -51971   -51885   -51803   -51731   -51675   -51634 
  -51600   -51560   -51504   -51446   -51396   -51363   -51338   -51302 
  -51255   -51215   -51194   -51204   -51248   -51323   -51420   -51533 
  -51663   -51792   -51897   -51967   -51987   -51972   -51948   -51906 
  -51852   -51802   -51730   -51638   -51560   -51507   -51463   -51407 
  -51333   -51257   -51184   -51108   -51019   -50920   -50809   -50677 
  -50515   -50336   -50157   -49976   -49797   -49619   -49433   -49251 
  -49075   -48900   -48763   -48669   -48570   -48466   -48374   -48266 
  -48152   -48087   -48075   -48080   -48084   -48101   -48161   -48250 
  -48356   -48516   -48711   -48909   -49130   -49361   -49594   -49831 
  -50039   -50223   -50425   -50653   -50886   -51107   -51306   -51475 
  -51610   -51707   -51781   -51862   -51966   -52088   -52230   -52408 
  -52628   -52857   -53073   -53291   -53498   -53681   -53854   -54021 
  -54177   -54337   -54512   -54707   -54917   -55131   -55331   -55493 
  -55596   -55648   -55681   -55729   -55810   -55899   -55960   -55972 
  -55920   -55799   -55629   -55441   -55248   -55050   -54853   -54666 
  -54487   -54319   -54159   -54005   -53860   -53726   -53598   -53480 
  -53353   -53203   -53045   -52894   -52749   -52611   -52481   -52352 
  -52201   -52031   -51874   -51742   -51622   -51501   -51365   -51194 
  -50993   -50769   -50535   -50317   -50142   -50012   -49911   -49821 
  -49746   -49680   -49610   -49541   -49491   -49476   -49504   -49581 
  -49708   -49869   -50054   -50249   -50437   -50598   -50723   -50817 
  -50880   -50927   -50989   -51085   -51217   -51378   -51547   -51708 
  -51850   -51972   -52081   -52179   -52267   -52356   -52446   -52530 
  -52615   -52687   -52749   -52821   -52904   -52989   -53082   -53185 
  -53305   -53448   -53607   -53768   -53904   -54000   -54057   -54080 
  -54072   -54044   -54008   -53957   -53873   -53759   -53643   -53532 
  -53412   -53278   -53136   -52990   -52855   -52747   -52672   -52632 
  -52627   -52650   -52678   -52686   -52661   -52615   -52568   -52534 
  -52530   -52562   -52609   -52645   -52672   -52697   -52703   -52698 
  -52709   -52742   -52767   -52754   -52700   -52618   -52521   -52423 
  -52321   -52211   -52100   -51983   -51865   -51762   -51673   -51588 
  -51501   -51414   -51321   -51197   -51034   -50861   -50701   -50565 
  -50468   -50413   -50380   -50344   -50300   -50262   -50218   -50159 
  -50103   -50069   -50067   -50086   -50095   -50071   -50027   -49976 
  -49920   -49884   -49882   -49895   -49913   -49926   -49906   -49857 
  -49798   -49743   -49710   -49709   -49738   -49797   -49867   -49941 
  -50032   -50133   -50248   -50399   -50579   -50759   -50927   -51081 
