Origin Time       2011/03/11 14:46:00
Lat.              38.103
Long.             142.860
Depth. (km)       24
Mag.              9.0
Station Code      HKD122
Station Lat.      43.1968
Station Long.     141.7754
Station Height(m) 32
Record Time       2011/03/11 14:48:27
Sampling Freq(Hz) 100Hz
Duration Time(s)  300
Dir.              E-W
Scale Factor      3920(gal)/6182761
Max. Acc. (gal)   14.375
Last Correction   2011/03/11 14:48:12
Memo.             
[...]
     764     -506    -1798    -3146    -4488    -5647    -6501    -7064 
   -7456    -7827    -8265    -8750    -9197    -9516    -9697    -9774 
   -9744    -9620    -9479    -9375    -9331    -9376    -9488    -9583 
   -9594    -9532    -9441    -9318    -9132    -8896    -8670    -8507 
   -8369    -8168    -7874    -7490    -7031    -6559    -6133    -5746 
   -5363    -5013    -4726    -4402    -3859    -2987    -1842     -601 
     553     1516     2244     2748     3084     3308     3463     3571 
    3627     3638     3626     3593     3523     3369     3103     2816 
    2631     2583     2633     2703     2702     2589     2410     2267 
    2215     2220     2203     2135     2057     2007     1999     2113 
    2444     2969     3571     4163     4694     5070     5262     5404 
    5600     5786     5880     5832     5592     5121     4407     3521 
    2623     1803     1037      286     -485    -1305    -2162    -3045 
   -3937    -4811    -5677    -6527    -7293    -7954    -8562    -9090 
   -9409    -9420    -9113    -8541    -7805    -6965    -6001    -4860 
   -3518    -2019     -471      973     2117     2789     2973     2856 
    2676     2559     2483     2402     2337     2306     2251     2107 
    1813     1304      605     -167     -916    -1635    -2393    -3194 
   -3955    -4672    -5413    -6195    -7013    -7855    -8657    -9370 
  -10008   -10567   -10997   -11272   -11440   -11575   -11673   -11671 
  -11560   -11393   -11228   -11106   -10987   -10773   -10396    -9837 
   -9110    -8265    -7385    -6568    -5892    -5333    -4738    -3972 
   -3040    -2056    -1134     -326      399     1164     2076     3076 
    3999     4735     5262     5622     5923     6215     6399     6361 
    6112     5730     5266     4738     4205     3735     3297     2827 
    2377     2057     1862     1636     1221      568     -310    -1347 
   -2325    -2996    -3322    -3444    -3488    -3535    -3666    -3894 
   -4129    -4251    -4205    -4011    -3704    -3276    -2680    -1919 
   -1092     -280      514     1275     1932     2429     2787     3117 
    3531     4067     4732     5537     6446     7355     8179     8931 
    9715    10593    11503    12322    12949    13365    13664    13916 
   14071    14093    14008    13860    13712    13609    13466    13154 
   12717    12301    11938    11601    11293    11025    10824    10696 
   10608    10490    10246     9871     9440     8967     8418     7805 
    7185     6614     6121     5700     5318     4964     4669     4437 
    4160     3670     2945     2148     1420      813      317     -108 
    -473     -767    -1010    -1243    -1470    -1612    -1616    -1518 
   -1409    -1425    -1667    -2129    -2783    -3614    -4606    -5739 
   -6911    -7992    -8902    -9574   -10017   -10331   -10507   -10517 
  -10470   -10463   -10589   -10923   -11357   -11696   -11885   -12074 
  -12418   -12876   -13289   -13565   -13753   -13981   -14294   -14630 
  -14894   -15040   -15102   -15134   -15125   -14997   -14675   -14130 
  -13388   -12505   -11558   -10636    -9784    -8962    -8129    -7314 
   -6563    -5869    -5190    -4529    -3979    -3611    -3410    -3377 
   -3555    -3924    -4398    -4904    -5398    -5864    -6329    -6800 
   -7244    -7656    -8058    -8450    -8784    -8994    -9017    -8808 
   -8396    -7881    -7354    -6869    -6407    -5826    -4970    -3858 
   -2677    -1581     -650       52      498      742      870      960 
    1091     1264     1397     1508     1713     2046     2496     3080 
    3778     4499     5143     5623     5887     5973     5962     5871 
    5671     5393     5127     4913     4711     4444     4023     3378 
    2522     1579      711       -1     -612    -1223    -1841    -2417 
   -2961    -3521    -4098    -4638    -5082    -5384    -5591    -5852 
   -6292    -6943    -7755    -8610    -9442   -10319   -11255   -12128 
  -12883   -13534   -14038   -14360   -14550   -14635   -14554   -14162 
  -13336   -12120   -10682    -9178    -7791    -6660    -5739    -4928 
   -4237    -3711    -3297    -2908    -2549    -2257    -2061    -1999 
   -2021    -1970    -1712    -1159     -227     1108     2718     4368 
    5890     7285     8624     9900    11035    11993    12784    13434 
   13959    14367    14683    14909    14976    14822    14479    14026 
   13526    13008    12471    11926    11409    10899    10323     9691 
    9100     8588     8088     7517     6840     6060     5179     4235 
    3294     2366     1430      497     -409    -1228    -1867    -2290 
   -2568    -2835    -3178    -3587    -4058    -4586    -5068    -5384 
   -5530    -5571    -5489    -5191    -4687    -4113    -3573    -3094 
   -2676    -2294    -1907    -1525    -1179     -847     -492     -131 
     212      559      960     1420     1857     2216     2568     3027 
    3608     4202     4653     4901     4976     4931     4850     4854 
    5045     5439     5983     6599     7209     7736     8074     8154 
    8019     7786     7553     7300     6931     6434     5924     5514 
    5239     5071     4956     4811     4580     4311     4117     4055 
    4075     4116     4137     4036     3719     3262     2799     2335 
    1799     1126      331     -474    -1207    -1891    -2563    -3245 
   -3921    -4496    -4882    -5059    -5068    -4981    -4861    -4804 
   -4944    -5313    -5812    -6341    -6880    -7480    -8205    -9022 
   -9761   -10173   -10088    -9586    -8971    -8550    -8466    -8682 
   -9044    -9358    -9485    -9429    -9296    -9175    -9104    -9106 
   -9223    -9446    -9685    -9924   -10187   -10358   -10296   -10029 
   -9652    -9192    -8638    -8001    -7299    -6558    -5838    -5189 
   -4644    -4236    -4012    -3981    -4074    -4185    -4223    -4092 
   -3720    -3134    -2460    -1823    -1287     -885     -627     -525 
    -563     -704     -957    -1363    -1924    -2625    -3484    -4524 
   -5716    -6950    -8070    -8980    -9671   -10158   -10516   -10868 
  -11238   -11551   -11777   -11954   -12067   -12048   -11882   -11618 
  -11304   -10945   -10512   -10009    -9490    -9032    -8700    -8496 
   -8331    -8073    -7668    -7143    -6543    -5916    -5290    -4624 
   -3859    -2988    -2068    -1185     -405      215      622      847 
    1020     1266     1631     2018     2236     2157     1743     1068 
     326     -304     -809    -1348    -2044    -2845    -3718    -4729 
   -5863    -6970    -7908    -8669    -9319    -9833   -10101   -10087 
   -9878    -9589    -9330    -9154    -9006    -8782    -8362    -7627 
   -6587    -5385    -4170    -3045    -2058    -1221     -517      143 
     885     1710     2474     3056     3485     3858     4209     4514 
    4761     4905     4894     4786     4713     4741     4858     5010 
    5132     5153     5002     4689     4366     4245     4420     4774 
    5146     5462     5657     5651     5446     5127     4794     4515 
    4304     4155     4068     4027     3978     3860     3650     3386 
    3111     2798     2368     1780     1084      383     -218     -618 
    -723     -539     -171      284      726     1050     1199     1189 
    1105     1049     1049     1107     1285     1609     2015     2419 
    2749     2942     2964     2794     2449     1990     1448      843 
     218     -384     -937    -1443    -1907    -2265    -2435    -2413 
   -2234    -1967    -1712    -1556    -1557    -1713    -1960    -2282 
   -2723    -3265    -3817    -4294    -4655    -4901    -5050    -5161 
   -5352    -5686    -6107    -6501    -6722    -6630    -6223    -5625 
   -4955    -4335    -3878    -3575    -3334    -3150    -3072    -3098 
   -3179    -3205    -3055    -2735    -2363    -2038    -1803    -1642 
   -1496    -1309    -1136    -1171    -1518    -2005    -2317    -2253 
   -1829    -1225     -644     -209       86      302      474      616 
     747      895     1118     1433     1734     1835     1607     1094 
     488      -11     -267     -218      104      608     1218     1860 
    2458     2975     3412     3783     4093     4317     4425     4437 
    4414     4346     4201     4035     3948     4013     4208     4384 
    4400     4235     3923     3474     2887     2203     1482      714 
    -161    -1152    -2241    -3413    -4620    -5763    -6780    -7761 
   -8871   -10109   -11282   -12245   -13016   -13690   -14350   -14989 
  -15542   -15993   -16397   -16822   -17285   -17689   -17900   -17882 
  -17727   -17583   -17534   -17569   -17662   -17800   -17956   -18053 
  -17942   -17556   -16990   -16355   -15692   -15005   -14287   -13530 
  -12711   -11827   -10923   -10028    -9158    -8358    -7662    -7073 
   -6568    -6040    -5395    -4703    -4116    -3729    -3494    -3248 
   -2860    -2265    -1486     -641      188     1039     1952     2899 
    3803     4576     5161     5563     5831     5992     6053     6098 
    6274     6641     7088     7443     7649     7717     7654     7548 
    7503     7473     7352     7112     6771     6365     5942     5578 
    5349     5253     5179     4993     4648     4204     3757     3376 
    3068     2783     2463     2080     1665     1300     1033      823 
     608      376      193      142      218      327      402      454 
     485      458      421      495      744     1190     1890     2849 
    3961     5117     6281     7393     8325     9010     9511     9929 
   10309    10626    10865    11063    11248    11428    11602    11727 
   11768    11699    11458    11036    10506     9930     9320     8674 
    7968     7183     6350     5572     4939     4446     4051     3707 
    3322     2803     2130     1316      418     -398     -966    -1265 
   -1374    -1344    -1213    -1111    -1205    -1524    -1946    -2314 
   -2542    -2651    -2733    -2875    -3137    -3531    -3979    -4391 
   -4775    -5189    -5613    -5976    -6245    -6420    -6479    -6398 
   -6175    -5843    -5457    -5027    -4545    -4076    -3665    -3257 
   -2807    -2373    -2101    -2142    -2549    -3208    -3885    -4371 
   -4537    -4333    -3840    -3239    -2677    -2241    -2001    -1990 
   -2191    -2545    -2969    -3389    -3766    -4141    -4620    -5242 
   -5931    -6578    -7065    -7317    -7384    -7442    -7669    -8065 
   -8461    -8742    -8933    -9092    -9250    -9428    -9645    -9945 
  -10343   -10747   -11023   -11117   -11040   -10819   -10508   -10139 
   -9699    -9194    -8654    -8120    -7723    -7620    -7892    -8540 
   -9381   -10040   -10297   -10294   -10328   -10629   -11275   -12165 
  -13090   -13875   -14447   -14824   -15046   -15108   -15007   -14834 
  -14752   -14799   -14831   -14685   -14307   -13792   -13306   -12938 
  -12588   -12056   -11268   -10359    -9506    -8752    -7991    -7082 
   -5979    -4799    -3749    -2950    -2323    -1728    -1144     -618 
    -109      525     1354     2277     3170     4027     4906     5813 
    6693     7470     8082     8487     8657     8573     8231     7642 
    6867     6012     5151     4318     3530     2746     1914     1108 
     504      215      213      375      577      752      850      811 
     653      521      591      919     1358     1671     1766     1739 
    1699     1644     1514     1363     1337     1439     1528     1543 
    1527     1483     1342     1049      616       47     -695    -1617 
   -2664    -3772    -4889    -5929    -6783    -7434    -7985    -8523 
   -9022    -9398    -9629    -9787    -9983   -10336   -10909   -11635 
  -12349   -12920   -13337   -13665   -13940   -14140   -14244   -14283 
  -14261   -14132   -13909   -13657   -13379   -13039   -12657   -12273 
  -11943   -11734   -11648   -11617   -11613   -11661   -11731   -11678 
  -11341   -10723    -9971    -9174    -8327    -7476    -6704    -6002 
   -5231    -4247    -3060    -1784     -492      748     1816     2588 
    3075     3422     3749     4079     4385     4605     4705     4679 
    4473     4054     3525     3027     2621     2299     2034     1769 
    1423      974      501       84     -283     -652    -1079    -1580 
   -2122    -2692    -3335    -4060    -4787    -5403    -5846    -6133 
   -6313    -6375    -6252    -5875    -5215    -4349    -3449    -2650 
   -1991    -1461    -1072     -873     -834     -816     -741     -704 
    -822    -1088    -1417    -1685    -1764    -1658    -1459    -1161 
    -689      -97      433      831     1186     1552     1940     2409 
    3014     3732     4482     5165     5700     6052     6218     6214 
    6103     5979     5923     5963     6081     6305     6706     7321 
    8123     9024     9906    10682    11319    11849    12309    12671 
   12884    12918    12741    12392    12044    11767    11350    10567 
    9442     8227     7137     5999     4756     3712     2752     1650 
     613     -271    -1092    -1845    -2498    -2990    -3225    -3253 
   -3289    -3467    -3759    -4107    -4456    -4735    -4894    -4973 
   -4971    -4829    -4692    -4658    -4610    -4546    -4481    -4373 
   -4273    -4150    -3869    -3421    -2879    -2255    -1557     -856 
    -258      169      532     1030     1635     2098     2296     2321 
    2313     2345     2392     2358     2171     1822     1292      533 
    -465    -1628    -2902    -4332    -5897    -7463    -9022   -10612 
  -12142   -13493   -14589   -15433   -16146   -16880   -17757   -18786 
  -19865   -20894   -21834   -22657   -23318   -23811   -24166   -24392 
  -24492   -24506   -24452   -24317   -24137   -24004   -24000   -24086 
  -24055   -23690   -22945   -21917   -20751   -19601   -18539   -17539 
  -16598   -15740   -14931   -14086   -13139   -12098   -11075   -10156 
   -9272    -8296    -7186    -5968    -4687    -3430    -2305    -1364 
    -553      241     1050     1821     2553     3337     4259     5346 
    6567     7811     8921     9770    10264    10362    10177     9896 
    9617     9332     8991     8588     8187     7847     7591     7443 
    7368     7236     6903     6305     5459     4405     3231     2084 
    1067      178     -645    -1467    -2291    -3092    -3871    -4602 
   -5237    -5732    -6027    -6093    -5945    -5644    -5296    -5003 
   -4828    -4800    -4958    -5346    -5940    -6593    -7156    -7629 
   -8080    -8476    -8709    -8724    -8545    -8225    -7848    -7565 
   -7502    -7684    -8078    -8606    -9154    -9602    -9808    -9663 
   -9200    -8584    -7996    -7548    -7274    -7141    -7013    -6708 
   -6088    -5145    -4040    -2986    -2050    -1084      115     1621 
    3337     5081     6702     8069     9068     9664     9873     9745 
    9376     8852     8228     7564     6974     6641     6698     7107 
    7728     8442     9130     9667     9934     9850     9421     8680 
    7644     6401     5097     3816     2599     1490      527     -260 
    -887    -1429    -1915    -2277    -2478    -2586    -2654    -2634 
   -2431    -1948    -1146     -112      961     1899     2648     3249 
    3723     3988     3981     3813     3652     3525     3397     3259 
    3087     2866     2673     2584     2543     2426     2182     1883 
    1625     1414     1198      967      706      325     -251    -1013 
   -1931    -3002    -4188    -5406    -6573    -7591    -8329    -8693 
   -8701    -8418    -7890    -7210    -6530    -5964    -5557    -5299 
   -5143    -5110    -5290    -5690    -6230    -6795    -7258    -7531 
   -7585    -7456    -7223    -6894    -6424    -5863    -5340    -4984 
   -4892    -5054    -5348    -5626    -5823    -6011    -6278    -6604 
   -6913    -7147    -7308    -7442    -7538    -7585    -7639    -7711 
   -7707    -7527    -7124    -6574    -6043    -5648    -5404    -5264 
   -5160    -5045    -4898    -4716    -4498    -4161    -3592    -2881 
   -2245    -1647     -983     -435      -34      348      580      648 
     703      747      803      858      843      759      619      487 
     415      366      334      323      303      253      150       18 
      12      286      781     1284     1596     1663     1608     1605 
    1708     1812     1747     1406      838      206     -349     -787 
   -1159    -1506    -1763    -1825    -1663    -1321     -913     -590 
    -416     -351     -315     -231      -27      366      981     1732 
    2441     2977     3341     3649     4026     4510     5072     5655 
    6187     6593     6804     6808     6640     6302     5767     5031 
    4118     3051     1803      345    -1263    -2909    -4492    -5923 
   -7136    -8093    -8776    -9261    -9685   -10129   -10630   -11194 
  -11743   -12175   -12421   -12481   -12458   -12545   -12870   -13394 
  -14021   -14696   -15283   -15595   -15603   -15377   -14962   -14404 
  -13756   -13057   -12319   -11511   -10593    -9536    -8327    -7011 
   -5684    -4441    -3355    -2473    -1791    -1243     -771     -304 
     295     1128     2162     3305     4497     5679     6772     7689 
    8372     8789     8959     8993     9054     9207     9386     9532 
    9623     9603     9411     9007     8366     7525     6537     5403 
    4156     2896     1722      741       13     -507     -848    -1009 
   -1111    -1338    -1809    -2583    -3645    -4865    -6107    -7345 
   -8629    -9983   -11335   -12513   -13358   -13849   -14123   -14338 
  -14554   -14741   -14793   -14594   -14125   -13445   -12618   -11719 
  -10810    -9912    -9030    -8172    -7340    -6490    -5568    -4581 
   -3572    -2562    -1573     -654      176     1002     1929     2983 
    4119     5235     6203     6961     7515     7892     8159     8358 
    8502     8714     9128     9669    10127    10324    10187     9755 
    9121     8398     7693     7069     6519     6020     5638     5475 
    5477     5430     5181     4737     4211     3724     3273     2728 
    2006     1186      411     -202     -582     -800    -1089    -1619 
   -2374    -3242    -4105    -4886    -5566    -6138    -6598    -6986 
   -7286    -7382    -7175    -6657    -5849    -4781    -3535    -2292 
   -1196     -239      643     1525     2513     3636     4801     5923 
    6943     7811     8516     9072     9477     9725     9833     9864 
    9921    10079    10366    10765    11215    11669    12137    12610 
   13015    13302    13486    13618    13721    13784    13846    13982 
   14176    14316    14324    14198    13968    13623    13081    12291 
   11368    10512     9790     9079     8230     7228     6158     5079 
    4034     3060     2104     1092       56     -935    -1848    -2675 
   -3417    -4050    -4517    -4807    -5040    -5362    -5761    -6064 
   -6122    -5970    -5804    -5818    -6114    -6645    -7248    -7835 
   -8454    -9120    -9723   -10130   -10277   -10167    -9860    -9472 
   -9081    -8630    -8025    -7292    -6508    -5752    -5111    -4585 
   -4103    -3657    -3299    -3051    -2889    -2809    -2852    -3059 
   -3415    -3819    -4168    -4458    -4728    -4983    -5248    -5595 
   -6062    -6630    -7237    -7739    -8090    -8389    -8622    -8803 
   -9075    -9427    -9715    -9809    -9652    -9317    -8921    -8600 
   -8504    -8700    -9155    -9792   -10497   -11100   -11490   -11709 
  -11849   -11900   -11752   -11348   -10760   -10095    -9476    -9048 
   -8851    -8815    -8929    -9192    -9511    -9811   -10068   -10319 
