Origin Time       2011/03/11 14:46:00
Lat.              38.103
Long.             142.860
Depth. (km)       24
Mag.              9.0
Station Code      HKD166
Station Lat.      42.2286
Station Long.     139.8186
Station Height(m) 45
Record Time       2011/03/11 14:49:42
Sampling Freq(Hz) 100Hz
Duration Time(s)  66
Dir.              E-W
Scale Factor      3920(gal)/6182761
Max. Acc. (gal)   2.057
Last Correction   2011/03/11 14:49:27
Memo.             
[...]
    6005     6044     6113     6200     6263     6284     6260     6204 
    6154     6137     6147     6166     6170     6148     6114     6087 
    6048     5974     5878     5782     5687     5600     5544     5533 
    5549     5570     5585     5581     5555     5520     5501     5523 
    5591     5684     5765     5810     5821     5819     5817     5801 
    5765     5712     5655     5630     5658     5716     5767     5788 
    5774     5749     5727     5706     5707     5743     5796     5858 
    5927     5975     5986     5977     5960     5937     5925     5926 
    5931     5949     5988     6041     6086     6100     6088     6070 
    6058     6059     6067     6065     6045     6021     6007     6000 
    5999     6009     6021     6024     6024     6036     6054     6076 
    6092     6082     6044     5986     5928     5892     5877     5881 
    5912     5952     5976     5975     5949     5910     5882     5874 
    5876     5880     5893     5927     5977     6023     6051     6062 
    6066     6083     6130     6198     6263     6320     6367     6401 
    6428     6445     6437     6423     6435     6471     6506     6527 
    6523     6479     6409     6349     6298     6256     6229     6217 
    6205     6192     6188     6202     6231     6271     6308     6329 
    6335     6333     6328     6333     6369     6445     6532     6591 
    6621     6640     6656     6691     6754     6815     6846     6858 
    6872     6899     6926     6939     6930     6892     6833     6777 
    6724     6677     6647     6646     6674     6712     6738     6750 
    6753     6760     6783     6822     6868     6908     6929     6927 
    6929     6950     6974     6986     6988     6974     6943     6908 
    6896     6916     6953     6981     6977     6955     6931     6897 
    6856     6839     6854     6872     6867     6823     6738     6637 
    6565     6534     6527     6532     6548     6555     6518     6438 
    6338     6223     6091     5963     5842     5731     5645     5588 
    5543     5492     5431     5351     5240     5128     5053     5018 
    5021     5053     5084     5109     5131     5127     5101     5081 
    5078     5089     5096     5077     5038     4994     4959     4944 
    4945     4946     4942     4937     4936     4949     5000     5083 
    5164     5218     5242     5242     5222     5203     5215     5252 
    5278     5273     5244     5191     5122     5071     5062     5077 
    5099     5122     5135     5143     5164     5199     5232     5240 
    5216     5177     5146     5161     5236     5336     5434     5526 
    5601     5644     5654     5649     5661     5706     5788     5885 
    5967     6036     6097     6148     6209     6293     6382     6454 
    6492     6498     6492     6491     6491     6479     6451     6411 
    6357     6317     6311     6317     6319     6318     6304     6275 
    6228     6166     6104     6042     5964     5875     5804     5771 
    5768     5784     5806     5819     5816     5805     5799     5805 
    5836     5881     5909     5921     5934     5937     5924     5908 
    5890     5862     5832     5830     5861     5924     6018     6108 
    6169     6213     6245     6264     6291     6351     6447     6558 
    6668     6761     6822     6865     6918     6968     7006     7043 
    7078     7098     7082     7029     6974     6950     6964     7028 
    7146     7279     7368     7404     7411     7399     7391     7420 
    7476     7541     7612     7669     7697     7705     7694     7671 
    7657     7652     7649     7654     7669     7689     7703     7702 
    7703     7716     7732     7763     7805     7829     7832     7810 
    7746     7656     7573     7513     7476     7450     7433     7414 
    7370     7307     7247     7194     7168     7184     7214     7217 
    7184     7136     7089     7042     6994     6944     6899     6863 
    6840     6836     6838     6830     6813     6775     6706     6641 
    6622     6640     6667     6695     6711     6704     6685     6664 
    6631     6580     6542     6513     6467     6440     6466     6527 
    6607     6685     6718     6682     6613     6570     6579     6634 
    6720     6814     6887     6926     6949     6979     7011     7031 
    7038     7029     7033     7089     7172     7256     7352     7462 
    7558     7613     7629     7626     7613     7616     7645     7674 
    7703     7725     7703     7637     7553     7478     7430     7392 
    7365     7366     7348     7283     7223     7189     7167     7182 
    7216     7214     7173     7095     6998     6919     6875     6879 
    6906     6913     6889     6848     6823     6819     6823     6842 
    6879     6921     6951     6963     6974     6991     7013     7054 
    7120     7201     7295     7392     7461     7491     7502     7527 
    7585     7668     7752     7823     7869     7892     7908     7913 
    7888     7855     7848     7867     7895     7931     7977     8035 
    8095     8140     8160     8159     8149     8160     8201     8246 
    8274     8284     8281     8258     8220     8184     8141     8086 
    8047     8032     8024     8026     8032     8018     7983     7944 
    7902     7853     7810     7802     7838     7903     7972     8011 
    7993     7937     7873     7829     7830     7880     7956     8014 
    8021     7979     7908     7835     7792     7798     7843     7908 
    7973     8033     8098     8156     8197     8237     8273     8300 
    8327     8372     8442     8527     8598     8637     8665     8686 
    8691     8690     8690     8680     8668     8672     8686     8708 
    8740     8767     8777     8768     8737     8691     8648     8620 
    8616     8634     8662     8693     8719     8737     8754     8775 
    8792     8790     8771     8738     8685     8632     8593     8554 
    8507     8469     8448     8426     8401     8373     8344     8337 
    8359     8386     8407     8438     8486     8533     8568     8573 
    8524     8444     8369     8303     8253     8224     8219     8241 
    8290     8335     8336     8300     8249     8186     8119     8077 
    8062     8050     8037     8021     7998     7985     7991     8002 
    8013     8018     8009     7983     7942     7888     7835     7793 
    7756     7730     7703     7655     7602     7583     7590     7588 
    7569     7543     7515     7489     7474     7471     7475     7480 
    7464     7423     7377     7335     7294     7264     7241     7224 
    7238     7293     7357     7404     7434     7462     7504     7551 
    7580     7597     7610     7606     7576     7528     7485     7447 
    7398     7354     7334     7327     7343     7393     7449     7479 
    7485     7473     7442     7408     7387     7375     7385     7433 
    7496     7549     7599     7649     7687     7718     7752     7786 
    7823     7875     7929     7966     7969     7951     7950     7968 
    8000     8063     8146     8208     8248     8267     8247     8205 
    8176     8157     8141     8139     8140     8122     8069     7977 
    7876     7799     7736     7696     7714     7748     7747     7739 
    7728     7706     7705     7694     7643     7605     7579     7509 
    7431     7387     7341     7301     7288     7267     7250     7261 
    7268     7269     7267     7227     7170     7135     7115     7107 
    7115     7133     7152     7153     7136     7116     7097     7079 
    7069     7047     7015     6994     6972     6937     6914     6912 
    6918     6935     6952     6948     6931     6911     6882     6855 
    6851     6874     6928     7020     7132     7235     7337     7449 
    7559     7654     7718     7747     7771     7813     7867     7944 
    8058     8167     8224     8259     8280     8269     8269     8313 
    8361     8387     8408     8440     8477     8508     8541     8583 
    8606     8598     8589     8597     8632     8706     8794     8854 
    8866     8841     8803     8789     8812     8849     8875     8884 
    8861     8801     8739     8695     8646     8595     8548     8483 
    8401     8335     8272     8183     8096     8030     7965     7903 
    7847     7792     7756     7748     7756     7758     7729     7676 
    7632     7620     7655     7735     7812     7824     7774     7704 
    7630     7563     7541     7560     7570     7557     7540     7501 
    7447     7430     7444     7435     7404     7367     7323     7301 
    7321     7354     7370     7357     7306     7227     7145     7092 
    7098     7155     7221     7284     7349     7380     7358     7314 
    7281     7256     7241     7253     7290     7318     7301     7245 
    7177     7114     7069     7054     7067     7089     7102     7105 
    7095     7074     7064     7079     7111     7169     7257     7365 
    7478     7566     7603     7594     7559     7511     7478     7489 
    7534     7593     7668     7726     7744     7739     7701     7630 
    7571     7553     7570     7597     7619     7625     7629     7660 
    7711     7760     7817     7879     7930     7982     8043     8102 
    8159     8214     8256     8295     8349     8390     8376     8331 
    8286     8246     8229     8241     8262     8271     8266     8240 
    8178     8112     8088     8094     8106     8137     8176     8197 
    8212     8231     8252     8289     8325     8350     8387     8443 
    8502     8558     8615     8671     8714     8766     8842     8905 
    8952     9008     9052     9077     9095     9098     9088     9085 
    9085     9077     9077     9090     9109     9116     9095     9062 
    9043     9053     9082     9128     9201     9287     9363     9423 
    9468     9507     9550     9580     9588     9591     9596     9602 
    9613     9614     9595     9564     9533     9502     9473     9436 
    9369     9295     9256     9248     9265     9303     9339     9346 
    9314     9256     9203     9166     9141     9132     9135     9143 
    9144     9135     9144     9168     9183     9195     9220     9258 
    9308     9361     9404     9436     9466     9494     9523     9549 
    9561     9565     9587     9604     9595     9576     9551     9511 
    9476     9474     9511     9557     9573     9568     9575     9588 
    9579     9527     9441     9353     9272     9186     9103     9032 
    8974     8932     8893     8838     8776     8722     8662     8598 
    8550     8505     8445     8374     8303     8231     8154     8090 
    8052     8032     8015     7979     7928     7883     7840     7814 
    7820     7844     7864     7876     7888     7899     7917     7945 
    7948     7922     7902     7868     7832     7844     7870     7860 
    7831     7782     7710     7640     7586     7567     7580     7604 
    7636     7665     7668     7642     7605     7576     7546     7498 
    7433     7377     7350     7349     7343     7324     7301     7253 
    7190     7147     7126     7123     7137     7132     7078     7006 
    6950     6912     6895     6892     6871     6835     6798     6762 
    6744     6756     6777     6791     6798     6807     6814     6814 
    6839     6909     6999     7077     7124     7137     7128     7102 
    7069     7061     7073     7080     7100     7140     7176     7214 
    7264     7302     7338     7404     7484     7555     7620     7685 
    7744     7796     7852     7896     7913     7918     7930     7955 
    7988     8027     8065     8085     8101     8131     8167     8204 
    8243     8274     8289     8299     8341     8419     8494     8536 
    8548     8542     8531     8529     8538     8549     8571     8583 
    8554     8507     8474     8474     8515     8575     8628     8669 
    8707     8733     8722     8689     8675     8682     8693     8694 
    8684     8663     8639     8621     8594     8560     8531     8497 
    8458     8443     8432     8397     8365     8334     8286     8244 
    8216     8191     8184     8201     8217     8214     8194     8168 
    8157     8162     8177     8200     8209     8194     8172     8148 
    8147     8199     8267     8298     8322     8360     8374     8366 
    8368     8381     8406     8465     8531     8557     8540     8536 
    8585     8670     8761     8823     8851     8902     8994     9107 
    9226     9341     9437     9502     9536     9552     9574     9630 
    9711     9781     9834     9872     9897     9910     9910     9923 
    9970    10040    10120    10190    10225    10235    10241    10248 
   10270    10301    10347    10407    10463    10529    10585    10589 
   10553    10495    10420    10344    10296    10291    10298    10290 
   10283    10265    10208    10123    10020     9914     9834     9786 
    9777     9787     9787     9768     9720     9653     9610     9602 
    9615     9646     9678     9684     9670     9655     9647     9657 
    9692     9738     9776     9811     9843     9875     9921     9966 
   10002    10045    10096    10140    10173    10188    10186    10183 
   10195    10222    10231    10209    10190    10163    10114    10087 
   10069    10037    10030    10037    10014     9966     9909     9841 
    9770     9716     9673     9654     9658     9666     9698     9739 
    9749     9745     9743     9740     9758     9824     9916     9999 
   10068    10116    10140    10186    10254    10309    10361    10407 
   10432    10453    10475    10498    10533    10562    10564    10555 
   10548    10547    10572    10616    10651    10676    10681    10659 
   10640    10638    10622    10599    10591    10569    10529    10501 
   10472    10435    10405    10364    10308    10226    10123    10037 
    9976     9942     9945     9963     9979     9990     9979     9943 
    9901     9859     9820     9791     9774     9768     9765     9754 
    9734     9692     9633     9578     9536     9507     9504     9529 
    9560     9573     9573     9564     9528     9479     9447     9423 
    9404     9383     9332     9277     9254     9255     9269     9287 
    9307     9329     9343     9333     9295     9255     9225     9212 
    9224     9227     9211     9204     9202     9189     9169     9156 
    9164     9199     9233     9242     9236     9231     9214     9172 
    9146     9159     9187     9229     9237     9176     9101     9032 
    8954     8878     8803     8741     8693     8666     8673     8658 
    8603     8551     8493     8418     8359     8325     8303     8286 
    8281     8287     8294     8294     8287     8279     8298     8337 
    8365     8386     8399     8398     8421     8473     8503     8502 
    8497     8480     8435     8391     8376     8375     8389     8413 
    8414     8399     8396     8404     8403     8368     8306     8238 
    8170     8107     8056     8021     8019     8038     8039     8031 
    8011     7971     7958     7981     7986     7999     8068     8143 
    8210     8296     8371     8421     8447     8450     8455     8457 
    8470     8513     8554     8586     8622     8639     8658     8690 
    8716     8736     8755     8770     8779     8795     8820     8838 
    8861     8892     8921     8974     9023     9037     9061     9092 
    9103     9126     9156     9152     9115     9062     9009     8981 
    8984     9024     9080     9111     9115     9094     9048     9009 
    9010     9015     8993     8993     9000     8962     8931     8931 
    8905     8878     8877     8864     8857     8875     8874     8877 
    8918     8933     8912     8900     8872     8837     8815     8772 
    8737     8735     8704     8641     8581     8507     8413     8344 
    8307     8248     8169     8117     8072     8011     7957     7900 
    7836     7780     7717     7673     7659     7627     7594     7584 
    7562     7537     7531     7523     7500     7480     7456     7423 
    7413     7425     7434     7450     7474     7473     7448     7419 
    7371     7303     7244     7212     7213     7230     7244     7242 
    7188     7099     7023     6944     6874     6842     6821     6815 
    6848     6873     6868     6870     6854     6795     6737     6687 
    6620     6559     6526     6504     6471     6429     6379     6297 
    6211     6174     6171     6167     6168     6191     6229     6272 
    6310     6325     6315     6278     6227     6199     6180     6149 
    6152     6199     6252     6289     6315     6330     6325     6339 
    6394     6446     6498     6557     6607     6646     6678     6717 
    6749     6768     6796     6840     6899     6969     7039     7066 
    7024     6957     6906     6889     6893     6888     6893     6921 
    6925     6899     6878     6879     6911     6959     7009     7044 
    7033     6995     6971     6941     6910     6921     6955     7015 
    7113     7184     7199     7201     7193     7178     7154     7108 
    7084     7105     7144     7209     7261     7241     7174     7101 
    7012     6939     6936     6954     6963     6981     6960     6910 
    6911     6951     6987     7016     7026     6992     6916     6837 
    6757     6668     6608     6592     6594     6585     6544     6485 
    6420     6364     6325     6294     6288     6304     6319     6343 
    6364     6337     6287     6252     6223     6217     6249     6268 
    6248     6237     6253     6268     6265     6251     6229     6200 
    6162     6133     6115     6092     6083     6076     6046     6052 
    6104     6131     6132     6124     6071     5998     5975     5988 
    5975     5944     5923     5884     5836     5828     5829     5788 
    5722     5657     5583     5530     5557     5604     5606     5612 
    5624     5617     5597     5578     5589     5602     5581     5567 
    5555     5515     5492     5505     5498     5479     5485     5445 
    5357     5316     5293     5278     5341     5418     5450     5483 
    5511     5498     5478     5479     5483     5482     5476     5445 
    5411     5404     5391     5347     5288     5216     5155     5132 
    5138     5166     5184     5163     5132     5094     5025     4975 
    4974     4990     5004     5009     4969     4880     4834     4855 
    4849     4836     4878     4910     4936     5019     5064     5018 
    4980     4947     4870     4843     4886     4915     4940     4968 
    4942     4901     4887     4865     4834     4806     4773     4765 
    4778     4784     4797     4799     4776     4782     4815     4848 
    4909     4987     5032     5058     5092     5107     5090     5087 
    5102     5080     5067     5120     5163     5140     5099     5090 
    5109     5119     5134     5168     5173     5165     5208     5267 
    5310     5362     5394     5383     5384     5409     5449     5526 
    5600     5643     5674     5661     5658     5738     5797     5819 
    5894     5969     6009     6059     6087     6058     6027     6037 
    6061     6096     6175     6248     6264     6276     6316     6343 
    6349     6360     6361     6346     6366     6423     6456     6461 
    6486     6510     6491     6443     6386     6345     6323     6303 
    6306     6341     6349     6302     6238     6176     6141     6138 
    6135     6126     6115     6111     6115     6126     6159     6177 
    6141     6113     6116     6105     6092     6103     6116     6115 
