Origin Time       2011/03/11 14:46:00
Lat.              38.103
Long.             142.860
Depth. (km)       24
Mag.              9.0
Station Code      HKD133
Station Lat.      42.4727
Station Long.     140.8657
Station Height(m) 11
Record Time       2011/03/11 14:48:49
Sampling Freq(Hz) 100Hz
Duration Time(s)  140
Dir.              U-D
Scale Factor      3920(gal)/6182761
Max. Acc. (gal)   9.168
Last Correction   2011/03/11 14:48:34
Memo.             
[...]
  -24406   -23406   -22616   -22230   -22349   -22850   -23347   -23510 
  -23441   -23539   -23871   -24074   -23984   -23784   -23509   -22982 
  -22297   -21866   -21842   -21832   -21327   -20111   -18349   -16671 
  -15793   -15759   -15974   -15992   -15865   -15778   -15778   -15993 
  -16673   -17739   -18734   -19421   -19941   -20374   -20553   -20309 
  -19702   -18994   -18401   -18024   -18016   -18416   -18764   -18442 
  -17459   -16453   -15919   -15835   -16092   -16545   -16679   -16171 
  -15524   -15313   -15383   -15339   -15355   -15928   -17008   -17871 
  -17963   -17588   -17464   -17849   -18390   -18683   -18804   -19287 
  -20384   -21629   -22438   -22655   -22501   -22507   -23141   -24209 
  -25135   -25551   -25464   -25246   -25323   -25741   -26001   -25481 
  -24272   -23184   -22835   -23204   -23967   -24608   -24467   -23564 
  -22948   -23456   -24688   -25545   -25355   -24427   -23832   -24501 
  -26207   -27668   -27959   -27529   -27369   -27676   -28018   -28152 
  -27999   -27460   -26721   -26312   -26534   -26955   -26829   -26060 
  -25300   -24991   -24829   -24308   -23541   -23180   -23510   -24089 
  -24380   -24347   -24315   -24420   -24469   -24243   -23841   -23526 
  -23160   -22336   -21177   -20378   -20383   -20831   -21002   -20692 
  -20269   -20022   -20058   -20442   -20895   -20884   -20284   -19509 
  -19139   -19568   -20529   -21131   -20794   -19919   -19455   -19887 
  -20746   -21194   -20936   -20411   -20238   -20605   -21259   -21930 
  -22457   -22735   -22795   -22768   -22740   -22679   -22505   -22325 
  -22468   -23034   -23609   -23813   -23907   -24394   -25213   -25661 
  -25240   -24444   -24235   -24863   -25703   -25844   -24687   -22627 
  -20897   -20309   -20613   -20909   -20368   -19035   -17892   -17765 
  -18505   -19410   -20060   -20592   -21398   -22562   -23693   -24496 
  -25061   -25592   -26291   -27337   -28679   -29961   -30837   -31430 
  -32093   -32736   -32914   -32387   -31346   -30280   -29628   -29523 
  -29784   -30012   -29838   -29297   -28691   -27978   -26865   -25476 
  -24277   -23476   -22977   -22565   -21935   -20883   -19542   -18417 
  -18075   -18473   -18832   -18508   -17517   -16241   -15190   -14758 
  -14807   -14911   -14900   -14830   -14837   -15162   -15910   -16742 
  -17006   -16458   -15840   -16113   -17190   -18251   -18803   -18843 
  -18652   -18632   -19032   -19710   -20273   -20514   -20362   -19669 
  -18565   -17506   -16691   -15875   -15021   -14645   -15081   -15943 
  -16710   -17329   -17996   -18770   -19514   -19975   -19965   -19669 
  -19613   -20039   -20632   -20975   -20915   -20619   -20533   -21088 
  -22260   -23455   -23926   -23541   -22973   -22943   -23603   -24576 
  -25308   -25673   -26185   -27326   -28812   -29881   -30224   -30159 
  -29984   -29615   -28970   -28215   -27498   -26857   -26394   -26194 
  -26130   -26025   -25916   -25827   -25484   -24611   -23438   -22481 
  -21810   -21079   -20195   -19430   -18845   -18102   -17070   -16100 
  -15500   -15196   -15067   -15204   -15517   -15614   -15400   -15276 
  -15510   -15878   -16134   -16346   -16654   -17103   -17738   -18510 
  -19196   -19702   -20258   -21057   -21940   -22671   -23285   -23866 
  -24199   -24069   -23817   -24044   -24794   -25668   -26499   -27327 
  -28055   -28471   -28575   -28616   -28631   -28462   -28296   -28510 
  -29078   -29709   -30282   -30718   -30684   -29888   -28554   -27330 
  -26726   -26797   -27402   -28262   -28754   -28431   -27531   -26401 
  -25229   -24353   -23843   -23254   -22393   -21609   -21168   -20987 
  -20917   -20867   -20727   -20414   -20008   -19732   -19686   -19733 
  -19752   -19635   -19167   -18542   -18319   -18466   -18415   -18017 
  -17649   -17557   -17721   -18145   -18622   -18586   -17915   -17338 
  -17618   -18652   -19687   -20227   -20296   -20132   -20094   -20425 
  -20892   -21151   -21272   -21424   -21492   -21362   -21144   -20894 
  -20517   -20051   -19711   -19493   -19079   -18409   -17953   -18186 
  -19232   -20854   -22476   -23597   -24193   -24603   -25208   -26140 
  -27206   -28114   -28772   -29348   -29979   -30523   -30689   -30443 
  -30185   -30215   -30275   -29846   -28714   -27148   -25636   -24559 
  -23942   -23539   -23152   -22660   -21968   -21225   -20679   -20255 
  -19684   -18992   -18512   -18362   -18164   -17582   -16941   -16889 
  -17506   -18205   -18486   -18409   -18342   -18455   -18577   -18422 
  -17864   -17132   -16661   -16631   -16894   -17247   -17513   -17547 
  -17337   -17202   -17617   -18637   -19840   -20913   -21990   -23257 
  -24404   -25045   -25311   -25400   -25255   -24966   -24783   -24727 
  -24502   -23937   -23450   -23564   -24204   -24904   -25373   -25694 
  -26157   -26840   -27323   -27054   -26163   -25465   -25511   -26091 
  -26660   -26905   -26796   -26308   -25499   -24595   -23771   -23110 
  -22729   -22729   -23099   -23610   -23924   -23872   -23434   -22738 
  -22157   -21952   -22016   -22113   -22102   -21905   -21376   -20603 
  -20134   -20349   -20906   -21162   -20915   -20611   -20774   -21429 
  -22189   -22734   -23117   -23673   -24601   -25613   -26256   -26580 
  -26899   -27147   -27110   -26898   -26776   -26851   -26991   -27064 
  -27187   -27453   -27573   -27212   -26486   -25816   -25457   -25313 
  -25082   -24605   -23991   -23430   -23011   -22726   -22578   -22481 
  -22207   -21658   -20970   -20370   -19968   -19681   -19356   -18876 
  -18267   -17674   -17069   -16413   -15981   -16059   -16613   -17204 
  -17303   -16902   -16515   -16511   -16754   -17008   -17351   -17967 
  -18797   -19452   -19660   -19669   -19834   -20207   -20611   -20827 
  -20813   -20735   -20682   -20597   -20584   -20984   -21839   -22543 
  -22491   -21893   -21466   -21557   -21959   -22382   -22820   -23506 
  -24616   -25968   -27085   -27643   -27673   -27412   -27061   -26799 
  -26843   -27107   -27260   -27319   -27571   -27977   -28216   -28127 
  -27751   -27202   -26745   -26597   -26667   -26760   -26868   -27204 
  -27875   -28703   -29517   -30141   -30238   -29617   -28472   -27301 
  -26546   -26114   -25595   -24947   -24408   -24042   -23822   -23834 
  -24127   -24517   -24662   -24323   -23501   -22382   -21276   -20528 
  -20270   -20269   -20215   -20095   -20069   -20115   -20080   -19873 
  -19473   -19106   -19102   -19351   -19372   -18777   -17620   -16547 
  -16343   -17023   -17692   -17651   -17134   -16653   -16271   -15893 
  -15667   -15682   -15654   -15340   -14956   -14786   -14778   -14845 
  -15016   -15222   -15430   -15751   -16188   -16552   -16759   -16931 
  -17110   -17255   -17557   -18353   -19656   -21086   -22325   -23358 
  -24209   -24792   -25123   -25487   -26171   -27177   -28205   -28887 
  -29274   -29737   -30314   -30718   -30785   -30714   -30902   -31476 
  -32156   -32541   -32451   -32103   -31879   -31823   -31589   -30951 
  -30025   -29075   -28373   -27959   -27537   -26738   -25468   -24057 
  -22984   -22310   -21558   -20370   -18898   -17565   -16886   -17132 
  -18042   -19173   -20221   -20959   -21171   -20811   -20279   -20132 
  -20461   -20989   -21510   -21870   -21882   -21523   -21054   -20855 
  -21164   -21845   -22455   -22701   -22637   -22453   -22379   -22632 
  -23241   -23928   -24265   -24233   -24370   -25015   -25808   -26226 
  -26340   -26651   -27111   -27131   -26618   -26125   -25980   -25832 
  -25193   -24055   -22848   -22069   -21816   -21652   -21287   -21022 
  -21088   -21191   -21048   -20758   -20580   -20620   -20821   -21357 
  -22546   -24178   -25621   -26535   -27007   -27288   -27514   -27571 
  -27466   -27548   -28018   -28520   -28511   -27934   -27334   -27211 
  -27408   -27376   -26943   -26448   -26098   -25632   -24812   -23930 
  -23359   -22899   -22158   -21358   -21035   -21108   -21063   -20819 
  -20542   -20082   -19220   -18066   -16982   -16325   -16299   -16778 
  -17255   -17428   -17590   -18024   -18526   -18693   -18390   -17855 
  -17337   -16895   -16619   -16596   -16712   -16798   -16776   -16670 
  -16610   -16708   -16914   -17159   -17487   -17951   -18572   -19343 
  -20141   -20727   -21065   -21509   -22315   -23200   -23704   -23795 
  -23795   -23801   -23678   -23563   -23718   -24041   -24317   -24664 
  -25252   -25826   -25839   -25139   -24209   -23574   -23306   -23063 
  -22563   -21994   -21765   -21963   -22224   -22030   -21236   -20180 
  -19198   -18474   -18082   -17851   -17587   -17245   -16908   -16935 
  -17596   -18493   -18770   -18055   -17144   -17187   -18279   -19475 
  -19970   -19828   -19765   -20484   -22150   -24250   -25938   -26727 
  -26927   -27309   -28316   -29577   -30231   -29931   -29310   -29139 
  -29346   -29174   -28198   -26814   -25652   -25066   -25092   -25369 
  -25399   -25014   -24437   -23909   -23359   -22619   -21745   -20883 
  -20083   -19435   -19169   -19360   -19707   -20007   -20450   -21112 
  -21716   -22083   -22290   -22467   -22733   -23133   -23497   -23543 
  -23325   -23341   -23946   -24993   -26066   -26675   -26519   -25838 
  -25303   -25398   -25848   -25912   -25383   -24815   -24683   -24684 
  -24014   -22298   -20166   -18818   -18951   -20074   -21004   -20953 
  -19989   -18764   -17962   -17815   -17944   -17630   -16636   -15615 
  -15309   -15717   -16297   -16562   -16424   -16012   -15474   -15209 
  -15556   -16259   -16912   -17451   -17895   -18105   -18050   -18069 
  -18463   -19107   -19700   -19999   -19900   -19603   -19616   -20236 
  -20964   -20988   -20258   -19543   -19530   -20200   -20975   -21257 
  -20867   -20202   -19985   -20668   -22014   -23344   -24174   -24414 
  -24273   -24247   -24700   -25320   -25638   -25871   -26545   -27598 
  -28373   -28350   -27721   -27133   -27011   -27372   -28067   -28852 
  -29283   -29043   -28481   -28323   -28782   -29477   -30097   -30648 
  -31212   -31632   -31477   -30530   -29095   -27821   -27215   -27092 
  -26941   -26702   -26631   -26729   -26685   -26399   -26132   -25958 
  -25710   -25278   -24588   -23718   -23040   -22915   -23262   -23697 
  -23980   -23921   -23258   -22075   -20841   -19936   -19290   -18544 
  -17682   -17074   -16778   -16595   -16638   -17073   -17709   -18132 
  -18134   -18040   -18362   -19080   -19671   -19784   -19548   -19353 
  -19558   -20158   -20733   -20890   -20604   -20128   -19816   -19974 
  -20574   -21337   -22201   -23186   -24001   -24373   -24528   -24927 
  -25533   -25808   -25563   -25200   -25138   -25651   -26778   -28012 
  -28623   -28387   -27899   -27951   -28605   -29386   -29945   -29937 
  -29000   -27447   -26332   -26321   -26872   -26927   -26299   -25717 
  -25597   -25817   -26273   -26635   -26252   -24945   -23479   -22890 
  -23341   -24042   -24197   -23582   -22469   -21372   -20780   -20849 
  -21311   -21902   -22671   -23446   -23471   -22386   -21133   -20894 
  -21557   -22089   -22046   -21806   -21567   -21137   -20423   -19403 
  -18093   -16861   -16332   -16623   -16872   -16144   -14621   -13366 
  -13186   -14041   -15246   -15990   -15824   -14985   -14253   -14279 
  -15032   -15965   -16636   -16926   -16749   -16152   -15630   -15644 
  -16098   -16640   -17130   -17582   -17868   -17907   -18013   -18516 
  -19194   -19516   -19330   -18963   -18827   -19176   -19966   -20856 
  -21526   -21850   -21882   -21977   -22490   -23070   -23067   -22548 
  -21991   -21534   -21182   -21232   -21845   -22502   -22805   -23229 
  -24050   -24569   -24402   -24262   -24743   -25655   -26777   -27924 
  -28486   -28123   -27455   -27281   -27738   -28447   -28821   -28523 
  -27860   -27271   -26774   -26332   -26020   -25589   -24610   -23212 
  -21819   -20470   -19419   -19146   -19478   -19978   -20327   -20296 
  -20067   -19798   -19494   -19534   -19933   -20039   -19739   -19574 
  -19949   -20819   -21613   -21785   -21216   -20064   -19291   -20195 
  -22290   -23531   -22985   -21254   -19367   -18660   -19516   -20745 
  -21747   -22680   -22951   -22169   -20973   -19996   -19505   -19722 
  -20643   -21858   -22778   -23090   -23071   -23106   -23100   -22952 
  -22996   -23666   -24815   -25569   -25668   -25818   -25861   -25087 
  -23998   -23463   -23577   -24013   -24076   -23355   -22751   -23235 
  -24355   -25038   -24738   -24031   -24066   -24818   -25349   -25306 
  -24884   -24364   -23883   -23659   -24068   -24684   -24791   -24515 
  -23915   -22897   -22078   -21873   -22103   -22828   -23753   -23960 
  -23249   -22193   -21466   -21835   -22720   -22290   -20905   -20209 
  -20062   -21028   -23797   -25249   -22967   -19928   -19670   -22011 
  -25104   -26665   -24504   -20585   -19535   -22169   -25939   -27614 
  -25355   -21888   -21281   -23223   -25227   -26469   -26081   -24215 
  -24258   -26782   -27700   -25815   -23359   -21739   -22131   -24160 
  -24773   -22963   -20631   -19151   -19144   -19981   -19755   -18059 
  -16031   -14726   -15042   -16492   -16955   -15652   -14018   -13282 
  -13428   -13991   -14565   -14840   -14876   -15077   -15396   -15342 
  -14921   -14962   -15801   -16237   -15627   -15148   -15354   -15719 
  -16303   -17217   -18262   -19198   -19693   -20053   -20779   -21729 
  -22518   -22849   -22750   -22924   -24147   -25910   -27043   -27481 
  -27797   -28371   -29413   -30509   -31038   -30891   -30416   -30380 
  -31239   -32678   -34136   -34827   -34328   -33633   -34284   -36017 
  -36959   -36588   -35760   -34747   -33583   -32478   -31630   -31489 
  -31968   -32115   -31493   -30473   -29580   -29324   -29662   -29892 
  -29767   -30039   -30740   -30675   -29790   -28871   -27926   -26841 
  -25479   -24131   -23615   -23374   -22123   -20259   -19401   -20011 
  -20765   -20539   -19588   -18711   -18522   -18947   -19370   -19752 
  -20467   -21302   -21556   -21047   -20640   -20779   -20912   -21016 
  -21423   -22016   -22405   -22269   -21940   -22015   -22519   -22950 
  -23023   -23287   -24126   -25029   -25382   -24639   -23096   -22232 
  -22316   -21820   -20152   -18560   -17910   -18158   -19517   -20189 
  -17665   -14984   -15360   -16163   -17054   -19147   -19570   -18121 
  -16916   -16661   -17887   -18431   -16893   -16186   -17524   -19102 
  -19786   -19528   -18935   -18990   -19665   -19779   -18938   -18114 
  -17966   -18591   -20516   -21958   -19427   -16164   -17555   -20234 
  -21199   -22164   -21730   -19885   -19177   -20173   -22512   -23855 
  -22971   -22326   -23139   -24652   -26133   -26827   -26503   -25751 
  -25472   -25958   -26337   -25797   -24975   -25057   -26083   -27110 
  -27320   -26706   -25989   -25575   -25411   -25576   -25909   -26215 
  -26683   -27154   -27225   -27097   -27201   -27361   -26995   -26066 
  -25304   -25133   -25135   -24685   -23736   -22910   -22526   -22204 
  -21722   -21079   -20241   -19521   -19219   -19107   -19099   -19405 
  -19667   -19444   -19260   -19713   -20535   -21277   -21678   -21707 
  -21879   -22514   -22961   -22491   -21510   -21230   -22015   -23106 
  -24007   -24608   -24764   -24769   -25352   -26576   -27315   -26884 
  -25974   -25318   -25276   -25911   -26270   -25439   -24011   -22945 
  -22743   -23701   -24748   -24303   -22864   -21995   -22138   -22558 
  -22513   -22162   -21839   -21601   -21698   -22167   -22426   -21926 
  -21028   -20563   -20803   -21646   -22714   -23324   -23429   -23483 
  -23489   -23387   -23287   -23074   -22917   -23153   -23359   -23042 
  -22502   -22114   -21844   -21531   -20999   -20140   -19128   -18414 
  -18372   -18988   -19806   -20224   -20115   -19709   -19120   -18555 
  -18158   -17717   -17145   -16693   -16657   -17167   -17891   -18182 
  -17869   -17335   -16946   -16994   -17557   -18282   -18846   -19155 
  -19120   -18801   -18682   -19354   -20604   -21434   -21427   -21122 
  -20993   -20987   -20876   -20552   -20032   -19536   -19324   -19294 
  -19235   -19115   -18911   -18581   -18074   -17586   -17628   -18190 
  -18556   -18298   -17917   -18258   -19358   -20467   -21196   -21713 
  -22019   -21992   -21872   -22067   -22582   -22964   -22821   -22240 
  -21789   -21993   -22630   -22992   -22899   -22814   -23039   -23374 
  -23519   -23372   -23043   -22765   -22697   -22819   -22941   -22916 
  -22991   -23494   -24228   -24718   -24735   -24339   -23831   -23728 
  -24367   -25527   -26627   -27239   -27420   -27543   -27798   -28144 
  -28519   -28661   -28291   -27710   -27499   -27809   -28244   -28357 
  -28255   -28283   -28316   -28050   -27584   -27169   -26850   -26672 
  -26584   -26229   -25359   -24183   -23343   -23242   -23351   -22854 
  -21596   -20107   -19113   -19001   -19533   -19899   -19302   -17863 
  -16501   -15695   -15092   -14303   -13532   -13438   -14373   -15908 
  -17182   -17595   -17214   -16492   -15830   -15591   -15918   -16493 
  -16896   -17042   -17144   -17458   -18112   -18901   -19311   -19188 
  -19067   -19409   -20085   -20734   -21169   -21533   -22029   -22620 
  -23249   -23866   -24096   -23847   -23886   -24841   -26324   -27548 
  -28125   -28200   -28269   -28701   -29285   -29528   -29179   -28422 
  -27780   -27602   -27744   -27985   -28294   -28582   -28624   -28278 
  -27641   -27052   -26813   -26882   -27038   -27283   -27659   -27769 
  -27187   -26275   -25775   -25844   -26044   -25919   -25286   -24280 
  -23247   -22489   -22084   -21866   -21651   -21588   -21929   -22532 
  -22955   -22972   -22838   -22911   -23155   -23250   -23004   -22559 
  -22213   -22130   -22361   -22908   -23644   -24338   -24753   -24860 
  -24867   -24816   -24564   -24187   -23912   -23860   -24074   -24404 
  -24521   -24437   -24572   -25180   -26035   -26607   -26682   -26594 
  -26545   -26371   -26009   -25647   -25471   -25313   -24839   -24154 
  -23528   -22841   -21977   -21163   -20523   -19772   -18597   -17273 
  -16508   -16560   -17026   -17536   -17966   -18155   -18200   -18548 
  -19241   -19807   -19964   -19853   -19642   -19381   -19161   -19087 
  -19184   -19488   -20009   -20535   -20658   -20230   -19713   -19823 
  -20679   -21600   -21963   -21895   -21977   -22471   -23009   -23243 
  -23316   -23364   -23381   -23608   -24266   -24959   -24870   -23895 
  -22951   -22782   -23274   -23861   -23995   -23548   -22983   -22972 
  -23643   -24320   -24353   -23857   -23387   -23237   -23299   -23441 
  -23493   -23138   -22435   -22007   -22137   -22184   -21479   -20401 
  -19871   -20083   -20338   -20045   -19418   -19012   -19013   -19279 
  -19598   -19741   -19658   -19546   -19617   -19878   -20141   -20248 
  -20132   -19800   -19453   -19312   -19337   -19341   -19287   -19365 
  -19694   -20050   -20161   -20009   -19707   -19478   -19616   -20164 
  -20758   -20995   -20849   -20532   -20216   -19984   -19738   -19322 
  -18868   -18737   -19094   -19634   -19852   -19698   -19661   -20084 
  -20806   -21513   -22153   -22781   -23259   -23613   -24182   -24913 
  -25177   -24680   -23983   -23759   -24091   -24728   -25386   -25819 
  -26022   -26100   -26043   -25946   -26061   -26489   -26989   -27156 
  -26958   -26842   -26985   -27055   -27010   -27387   -28436   -29505 
  -29870   -29695   -29556   -29506   -29252   -28855   -28638   -28623 
  -28549   -28274   -27814   -27263   -26813   -26447   -25862   -25037 
