Origin Time       2011/03/11 14:46:00
Lat.              38.103
Long.             142.860
Depth. (km)       24
Mag.              9.0
Station Code      HKD111
Station Lat.      42.0170
Station Long.     143.1487
Station Height(m) 22
Record Time       2011/03/11 14:48:28
Sampling Freq(Hz) 100Hz
Duration Time(s)  231
Dir.              E-W
Scale Factor      3920(gal)/6182761
Max. Acc. (gal)   6.811
Last Correction   2011/03/11 14:48:13
Memo.             
[...]
    9907    10299    10879    11196    11190    11099    11111    11118 
   11179    11399    11503    11497    11792    12397    12931    13230 
   13585    14163    14364    13682    12716    12197    12076    11965 
   11660    11377    11327    11297    11126    11003    11019    10956 
   10752    10632    10697    10882    11184    11626    11938    11823 
   11783    12277    12641    12437    12063    11699    11348    11000 
   10661    10564    10506    10241    10385    11195    11786    11563 
   10958    10580    10665    11130    11574    11685    11615    11552 
   11675    12107    12574    12914    13061    12683    11934    11455 
   11443    11707    12129    12373    12010    11417    11344    11831 
   12516    12937    12670    11964    11459    11497    11964    12397 
   12526    12374    11905    11257    10822    10756    10879    10956 
   10705    10227    10325    11082    11549    11482    11345    11374 
   11405    10918    10051     9803    10465    11281    11806    12164 
   12218    11816    11184    10436     9784     9700    10149    10669 
   11148    11824    12501    12446    11738    11127    10638    10259 
   10240    10031     9457     9421    10077    10652    10745    10507 
   10231    10132    10394    11209    12422    13354    13562    13296 
   12847    12489    12553    12808    13067    13731    14460    14454 
   14263    14660    15275    15762    15846    15271    14850    15398 
   16646    17671    17552    16693    16259    16168    15976    15927 
   15897    15584    15486    16075    16797    16941    16619    16340 
   16366    16608    16993    17684    18414    18654    18828    19571 
   20376    20656    20589    20419    20294    20137    19796    19617 
   19738    19814    19834    19875    19770    19488    19076    18476 
   17735    17125    16824    16577    15938    14837    13717    12938 
   12141    11132    10606    10591    10436    10457    11076    11885 
   12527    12813    12660    12245    11674    11177    11079    11302 
   11701    12270    12811    12916    12442    11969    11996    12064 
   11575    10818    10580    10979    11632    12482    13234    13398 
   13245    13079    12751    12362    12136    12161    12372    12541 
   12850    13674    14777    15611    15931    16027    16368    16870 
   17177    17228    16966    16537    16518    16920    16898    16217 
   15538    15172    15066    15084    14935    14694    14397    13691 
   12889    12787    13315    13651    13253    12469    12082    12142 
   12236    12366    12604    12826    12760    12384    12235    12400 
   12433    12200    11574    10764    10372    10131     9586     9078 
    8793     8558     8262     7768     7145     6691     6604     6806 
    7000     7139     7261     7138     6969     7218     7787     8517 
    9279     9588     9259     8786     8750     9098     9395     9656 
   10001    10333    10625    10743    10751    10994    11556    12424 
   13117    12953    12367    12062    12088    12414    12778    12897 
   12851    12638    12250    11797    11086    10355    10628    11611 
   11772    11142    10656    10420    10415    10396     9979     9541 
    9156     8574     8489     9286    10119    10315     9981     9532 
    9463     9709     9725     9650     9905    10264    10480    10601 
   10544    10226     9667     8979     8553     8774     9682    10904 
   11822    12271    12593    12870    12908    12741    12663    12921 
   13348    13590    13703    13942    14226    14246    13910    13239 
   12316    11682    11794    12506    13525    14270    14398    14578 
   15269    16060    16433    16161    15569    14960    14258    13917 
   14190    14461    14570    14627    14478    14347    14372    14291 
   14078    13909    14034    14815    16051    16919    17043    16673 
   15891    14803    14017    13622    13048    12556    12702    13002 
   13002    12978    13100    13351    13479    13097    12646    12832 
   13146    12638    11628    11153    11340    11543    11502    11431 
   11575    12052    12543    12526    12151    12007    12161    12018 
   11162    10220    10002    10420    11046    11571    11969    12483 
   12794    12559    12236    12091    11998    11840    11361    10980 
   11542    12854    14207    15238    15501    14718    13563    13065 
   13223    13349    13441    13917    14677    15411    16055    16573 
   16883    16849    16186    14930    13720    13069    12989    13322 
   13641    13535    13231    12963    12425    11689    11411    11480 
   11206    10853    10976    11335    11529    11240    10790    11216 
   12398    13372    13976    14263    14187    13956    13679    13316 
   12756    12084    11874    12563    13953    15272    15675    15338 
   15084    15085    15097    14989    14891    14896    14533    13761 
   13252    13152    13414    13964    14103    13572    13101    13288 
   14055    14852    15273    15422    15513    15656    15845    15838 
   15338    14575    14398    15111    15810    15641    15021    14806 
   14938    14902    14822    15211    16032    16671    16731    16387 
   16214    16552    16929    16819    16304    15715    15662    16420 
   16977    16312    14820    13418    12494    11961    11497    10860 
   10317    10497    11584    13069    14361    14984    14726    14156 
   13897    13903    13988    14023    13969    13989    14153    14401 
   14580    14554    14633    15117    15600    15690    15636    15712 
   15836    15958    16097    16140    16100    16132    16419    16956 
   17148    16458    15378    14776    14656    14449    14271    14682 
   15501    16182    16601    16719    16502    16162    15748    15143 
   14639    14727    15349    15815    15760    15659    15949    16392 
   16315    15411    14379    13958    13846    13539    13377    13800 
   14441    14815    14814    14483    14096    13941    14279    15198 
   16064    16411    16422    16141    15930    16177    16214    15484 
   14503    13927    13856    13979    14102    14293    14471    14635 
   14965    15299    15453    15548    15475    15009    14312    13814 
   13974    14828    15532    15420    15067    15115    15162    14718 
   14028    13369    12790    12429    12156    11910    12112    12847 
   13631    13868    13357    12653    12346    12489    12746    12582 
   11985    11421    10981    10640    10381     9961     9539     9451 
    9598     9917    10341    10556    10711    11122    11469    11407 
   11013    10521    10272    10486    11043    11579    11871    11992 
   11865    11494    11501    12201    12921    13096    13111    13484 
   13886    13777    13406    13184    13076    13057    13054    13021 
   13217    13777    14531    15041    15001    14772    14427    13481 
   12206    11331    10938    10756    10675    10609    10381    10008 
    9761     9754     9944    10423    11209    11790    11755    11628 
   11872    12079    11891    11549    11579    12187    12944    13407 
   13494    13288    12991    12735    12467    12152    12086    12512 
   12829    12482    12200    12600    12997    12975    12900    12746 
   12295    11644    11154    11221    11611    11800    11637    11293 
   11194    11414    11605    11653    11479    11120    10961    10895 
   10432     9743     9343     9365     9660    10170    10870    11263 
   11058    11071    11699    12280    12511    12244    11425    10869 
   11091    11453    11554    11577    11230    10468    10041    10164 
   10437    10633    10579    10268    10162    10702    11663    12542 
   13221    13704    13993    14232    14475    14646    14566    14016 
   12933    11890    11826    12759    13908    14439    13943    13055 
   12777    13260    13841    13939    13612    13322    13488    14057 
   14515    14481    14127    13864    13581    13086    12987    13518 
   13977    13940    13419    12720    12456    12735    12940    12687 
   12142    11488    10873    10400    10299    10796    11290    11185 
   11153    11849    12910    13843    14213    13567    12374    11670 
   11717    12098    12178    11728    11418    11571    11678    11768 
   12199    12564    12473    12079    11674    11636    11874    11992 
   12064    12137    12023    11941    12251    12815    13059    12568 
   11659    10914    10446    10089     9776     9471     9154     9121 
    9598    10144    10404    10632    10873    10700    10220    10057 
   10166    10225    10364    10508    10581    10962    11561    11727 
   11267    10849    11158    11868    12432    12851    12989    12535 
   11584    10849    10840    11149    11334    11495    11825    12409 
   13160    13675    13593    13100    12614    12224    11845    11540 
   11408    11420    11638    12031    12112    11931    12027    12266 
   12627    13268    13717    13762    13413    12655    12158    12304 
   12680    13032    13361    13852    14602    15343    15724    15404 
   14443    13459    12921    12759    12632    12668    13303    14333 
   15342    16148    16511    16147    14979    13555    12564    11947 
   11406    11111    11149    11155    11039    11218    11884    12698 
   13290    13539    13646    14068    14879    15560    15880    16112 
   16290    16299    16166    15857    15444    15028    14675    14622 
   14733    14682    14638    14422    13571    12450    11579    11167 
   11515    12453    13238    13562    13809    14337    15008    15264 
   14682    13542    12406    11612    11376    11626    12163    12993 
   13813    14049    13730    13578    14134    14911    15228    15504 
   16027    16165    16023    16285    16685    16511    15725    15058 
   14840    14296    13318    12934    13268    13596    13643    13593 
   13897    14754    15988    17520    18846    19200    18837    18550 
   18339    17658    16538    15632    14991    14201    13645    13795 
   14355    14938    15259    15085    14478    13995    14234    14852 
   15036    14741    14421    14242    14030    13559    13075    13321 
   14403    15502    16044    16122    15984    15812    15643    15225 
   14502    14020    14192    14754    15378    15829    15777    15322 
   14847    14388    13793    13060    12441    12111    11987    12096 
   12347    12336    12059    11991    12208    12285    12167    12288 
   12695    12986    13243    14046    15521    16902    17300    16896 
   16499    16430    16820    17599    18027    17687    17088    16672 
   16577    16782    16740    16186    15535    14943    14606    14889 
   15295    15216    14902    14625    14549    14865    15177    15135 
   14979    14875    14949    15267    15401    15054    14517    14034 
   13592    13199    12829    12583    12634    12880    13174    13451 
   13780    14213    14167    13096    11517    10247     9523     9350 
    9762    10346    10376     9908     9601     9786    10364    10747 
   10450     9653     8706     8283     8915     9776     9909     9484 
    8895     8700     9183     9561     9604     9774     9645     8980 
    8526     8498     8497     8519     8784     9354    10117    11058 
   12262    13320    13761    13932    14233    14315    13911    13244 
   12378    11520    11312    11875    12689    13300    13557    13801 
   14350    14901    15166    15338    15521    15521    15332    15218 
   15393    15758    15927    15784    15539    15348    15131    14452 
   13439    13132    13776    14706    15606    16185    16388    16569 
   16405    15633    14809    14042    13076    12318    12121    12132 
   12063    12066    12358    12856    13289    13587    13748    13820 
   14145    14733    14858    14329    13979    14022    13758    13060 
   12363    11731    11202    11044    11069    10863    10527    10312 
   10210    10367    11063    12084    12848    13068    12888    12665 
   12743    13138    13457    13383    13031    12696    12610    12666 
   12569    12449    12552    12647    12574    12581    12791    13014 
   13019    12803    12528    12181    11648    11133    10931    10982 
   11126    11314    11530    11864    12326    12793    13271    13759 
   14176    14520    14685    14429    13657    12698    12116    11848 
   11451    11064    10581     9558     8607     8543     9195    10069 
   10618    10623    10636    11090    11832    12522    12778    12632 
   12465    12342    12383    12892    13556    13766    13448    12787 
   12114    12077    12635    12842    12521    12349    12454    12586 
   12604    12501    12481    12434    12036    11547    11316    11080 
   10678    10607    11046    11356    11478    12121    13261    14264 
   14695    14547    14296    14055    13510    12980    12899    12959 
   12884    12907    13084    13028    12542    11973    11673    11504 
   11247    10851    10163     9421     9342    10095    10915    11041 
   10781    10883    11427    12330    13434    14157    14541    15226 
   16043    16334    15874    14933    14284    14346    14512    14238 
   13657    13111    12664    12202    12126    12638    12898    12566 
   12467    13000    13567    13538    12991    12410    11843    11071 
   10331     9857     9463     9087     8776     8317     7667     7119 
    6807     6715     6771     6695     6597     6971     7442     7323 
    6940     6738     6634     6320     5355     4135     3620     3663 
    3696     3732     3701     3508     3208     2818     2643     2898 
    3155     3132     2955     2544     2160     2377     3124     4084 
    4956     5331     5261     5006     4666     4455     4336     4099 
    3947     4166     4581     4730     4714     5034     5608     6172 
    6531     6448     6360     6527     6284     5681     5488     5693 
    5729     5303     4682     4425     4792     5628     6552     7204 
    7510     7569     7587     7918     8641     9416     9993    10501 
   11160    11873    12359    12384    11856    11061    10449    10316 
   10423     9935     8961     8818     9636    10248    10296    10242 
   10378    10723    11134    11403    11495    11688    12189    12764 
   13109    13131    12887    12600    12509    12554    12350    11699 
   10972    10507    10169     9819     9463     9318     9724    10366 
   10706    10911    11224    11525    11638    11531    11551    11875 
   12076    12021    11829    11270    10511    10264    10667    11161 
   11381    11449    11646    12074    12669    13315    13756    13768 
   13465    13212    13126    12867    12457    12346    12276    11753 
   11071    10694    10678    10803    10707    10458    10727    11625 
   12456    12777    12640    12409    12393    12369    12230    12322 
   12736    13330    14019    14498    14450    14023    13612    13331 
   12903    12201    11640    11712    12288    12767    12836    12563 
   12288    12461    12789    12634    12193    11911    11714    11557 
   11683    12065    12287    12245    12204    12008    11457    10977 
   10813    10583     9904     8898     8159     7923     7761     7431 
    7198     7479     8299     9156     9832    10398    10688    10772 
   11023    11608    12300    12787    13102    13294    13229    13135 
   13407    13888    14100    14012    13924    13911    14108    14615 
   15051    15253    15489    15743    15891    16136    16752    17564 
   18080    18198    18113    17879    17649    17663    17679    17178 
   16261    15424    14752    14223    13799    13221    12732    12729 
   12794    12693    12750    12951    13345    14003    14459    14546 
   14660    14967    15432    16084    16627    16608    16211    15932 
   15823    15644    15014    13992    13446    13607    13772    13748 
   13667    13503    13560    14024    14628    15206    15681    15993 
   16143    16052    15826    15838    16245    16810    17208    17442 
   17722    18242    19167    20039    19991    18920    17431    16325 
   16025    16138    16279    16367    16360    16491    16681    16703 
   16814    16934    16857    16819    16672    16199    15777    15620 
   15472    15088    14432    13648    13064    12968    13430    14407 
   15630    16557    16869    16715    16293    15642    14970    14612 
   14593    14711    14834    14853    14950    15372    15772    15870 
   15862    15850    16008    16393    16502    16101    15625    15370 
   15053    14381    13563    12916    12653    12927    13378    13563 
   13688    13884    13908    13821    13728    13468    13273    13664 
   14546    15355    15703    15522    15037    14578    14308    14216 
   14276    14556    14980    15251    15259    15257    15448    15643 
   15648    15698    16017    16530    17337    18393    19035    18915 
   18415    17806    17013    16210    15806    15515    14854    14155 
   13502    12800    12673    13045    12999    12444    11897    11730 
   11914    11903    11505    11154    11039    11012    10892    10702 
   10788    11047    10942    10458     9831     9053     8165     7336 
    6912     7282     8190     8941     9214     9335     9836    10664 
   11195    11008    10549    10545    10789    10790    10720    10743 
   10660    10527    10726    11087    11048    10742    10478    10253 
   10273    10467    10648    11058    11509    11647    11719    11847 
   11790    11443    11090    11274    11957    12555    13032    13707 
   14500    15117    15391    15307    14955    14665    14838    15263 
   15467    15546    15688    15691    15469    15077    14409    13715 
   13518    13682    13658    13202    12491    11827    11084    10133 
    9624    10093    11025    11739    12286    12665    12409    11761 
   11292    10637     9699     9077     8855     9158    10016    10361 
    9595     8647     8238     8114     7986     7952     8059     8180 
    8467     9020     9622    10344    11195    11685    11619    11326 
   11093    11000    11019    11141    11389    11662    11782    11740 
   11710    11826    12143    12673    13269    13638    13553    13119 
   12871    13253    13993    14346    13978    13410    13434    14117 
   14749    14823    14575    14387    14129    13460    12691    12479 
   12635    12547    12407    12673    13051    13122    13259    13639 
   13581    12981    12327    11670    11144    11025    11441    12178 
   12313    11597    11073    11322    11936    12416    12396    11843 
   11365    11368    11403    11149    10876    10806    10889    10945 
   11087    11543    11802    11480    11254    11684    12680    13897 
   14661    14808    15146    15922    16451    16513    16311    15994 
   16001    16358    16615    16989    17498    17561    17425    17416 
   17155    16660    15955    14793    13851    13793    13835    13316 
   12804    12785    12900    12733    12488    12388    12325    12347 
   12223    11563    10879    10745    10915    11154    11327    11329 
   11676    12767    14072    14984    15349    15146    14570    13868 
   12992    11973    11345    11557    12125    12274    11940    11418 
   10988    11099    11887    12692    12753    12089    11431    11407 
   11892    12452    12773    12569    11989    11471    11159    11123 
   11046    10287     9133     8428     8447     9034     9720     9915 
    9725     9886    10692    11741    12692    13467    13702    13045 
