Origin Time       2011/03/11 14:46:00
Lat.              38.103
Long.             142.860
Depth. (km)       24
Mag.              9.0
Station Code      HKD173
Station Lat.      42.0662
Station Long.     139.4515
Station Height(m) 11
Record Time       2011/03/11 14:47:56
Sampling Freq(Hz) 100Hz
Duration Time(s)  300
Dir.              N-S
Scale Factor      3920(gal)/6182761
Max. Acc. (gal)   7.994
Last Correction   2011/03/11 14:47:41
Memo.             
[...]
  -10079    -9771    -9495    -9263    -9057    -8896    -8753    -8633 
   -8565    -8490    -8408    -8395    -8465    -8570    -8658    -8725 
   -8857    -9060    -9253    -9478    -9808   -10194   -10611   -11046 
  -11403   -11652   -11833   -11932   -11954   -11969   -11984   -11988 
  -12039   -12102   -12085   -12002   -11828   -11533   -11188   -10767 
  -10260    -9802    -9425    -9096    -8798    -8449    -8045    -7643 
   -7193    -6675    -6185    -5758    -5374    -5071    -4883    -4815 
   -4891    -5077    -5304    -5582    -5900    -6179    -6405    -6624 
   -6819    -6956    -7063    -7136    -7132    -7075    -6990    -6858 
   -6694    -6527    -6370    -6240    -6124    -5979    -5828    -5736 
   -5724    -5772    -5841    -5874    -5891    -5973    -6126    -6303 
   -6489    -6688    -6927    -7220    -7534    -7880    -8326    -8855 
   -9373    -9887   -10453   -11029   -11578   -12103   -12592   -13084 
  -13605   -14116   -14620   -15153   -15661   -15999   -16140   -16207 
  -16263   -16296   -16315   -16333   -16358   -16419   -16520   -16613 
  -16646   -16661   -16733   -16804   -16806   -16756   -16626   -16443 
  -16272   -15996   -15592   -15199   -14791   -14399   -14164   -14036 
  -13912   -13730   -13455   -13133   -12775   -12355   -11833   -11244 
  -10704   -10219    -9786    -9462    -9210    -8966    -8709    -8435 
   -8108    -7709    -7304    -6872    -6355    -5899    -5560    -5242 
   -5068    -5040    -4966    -4977    -5137    -5244    -5484    -5982 
   -6478    -6969    -7415    -7702    -8104    -8575    -8836    -9047 
   -9310    -9648   -10178   -10787   -11388   -12058   -12814   -13579 
  -14282   -14981   -15680   -16282   -16825   -17375   -17807   -18025 
  -18216   -18524   -18712   -18550   -18262   -18059   -17910   -17877 
  -17705   -17288   -17249   -17451   -17253   -16957   -16766   -16460 
  -16147   -15741   -15177   -14752   -14403   -13848   -13112   -12356 
  -11657   -10913   -10036    -9174    -8425    -7728    -7024    -6296 
   -5606    -4931    -4116    -3242    -2601    -2173    -1744    -1513 
   -1662    -1814    -1902    -2244    -2654    -3008    -3487    -3935 
   -4388    -5143    -5917    -6435    -7093    -7947    -8613    -9283 
  -10026   -10558   -11257   -12219   -12976   -13801   -14854   -15737 
  -16521   -17288   -17868   -18384   -18903   -19225   -19374   -19507 
  -19509   -19349   -19200   -19036   -18822   -18605   -18292   -17888 
  -17528   -17146   -16682   -16276   -15887   -15409   -14966   -14542 
  -14037   -13591   -13230   -12852   -12538   -12362   -12282   -12270 
  -12282   -12270   -12228   -12155   -12044   -11871   -11660   -11458 
  -11217   -10966   -10737   -10415   -10062    -9790    -9474    -9120 
   -8866    -8648    -8456    -8341    -8138    -7808    -7494    -7143 
   -6749    -6447    -6125    -5725    -5384    -5032    -4691    -4482 
   -4272    -4086    -4048    -4019    -3922    -3791    -3564    -3210 
   -2799    -2370    -1967    -1642    -1362    -1104     -872     -656 
    -517     -477     -515     -629     -744     -820     -972    -1226 
   -1519    -1938    -2475    -3038    -3727    -4496    -5202    -5900 
   -6527    -7028    -7530    -8038    -8551    -9169    -9893   -10680 
  -11478   -12263   -13069   -13858   -14567   -15190   -15734   -16185 
  -16506   -16661   -16667   -16609   -16545   -16472   -16403   -16334 
  -16252   -16183   -16083   -15902   -15698   -15504   -15349   -15284 
  -15246   -15167   -15048   -14881   -14669   -14386   -14000   -13544 
  -13080   -12658   -12306   -12049   -11917   -11910   -12002   -12160 
  -12376   -12669   -13022   -13384   -13741   -14102   -14464   -14828 
  -15180   -15499   -15814   -16126   -16369   -16514   -16551   -16438 
  -16208   -15938   -15652   -15371   -15132   -14932   -14761   -14608 
  -14419   -14162   -13847   -13496   -13159   -12890   -12701   -12598 
  -12577   -12577   -12540   -12457   -12337   -12187   -12002   -11813 
  -11688   -11673   -11799   -12046   -12322   -12560   -12728   -12806 
  -12807   -12766   -12713   -12674   -12622   -12512   -12334   -12082 
  -11754   -11396   -11061   -10743   -10415   -10107    -9852    -9674 
   -9630    -9706    -9834   -10012   -10245   -10513   -10820   -11169 
  -11538   -11924   -12338   -12791   -13281   -13767   -14222   -14650 
  -15046   -15399   -15716   -16006   -16275   -16544   -16835   -17123 
  -17357   -17537   -17682   -17771   -17788   -17746   -17648   -17513 
  -17384   -17246   -17036   -16732   -16330   -15825   -15267   -14717 
  -14184   -13685   -13232   -12786   -12329   -11871   -11404   -10916 
  -10409    -9889    -9356    -8818    -8294    -7794    -7314    -6845 
   -6391    -5963    -5565    -5204    -4902    -4673    -4509    -4397 
   -4299    -4185    -4074    -3981    -3905    -3863    -3848    -3844 
   -3865    -3900    -3897    -3837    -3753    -3704    -3737    -3862 
   -4058    -4300    -4565    -4831    -5108    -5427    -5766    -6059 
   -6302    -6530    -6742    -6931    -7107    -7245    -7327    -7374 
   -7408    -7448    -7507    -7588    -7691    -7803    -7919    -8060 
   -8249    -8504    -8834    -9219    -9610    -9954   -10209   -10334 
  -10330   -10240   -10107    -9980    -9886    -9829    -9805    -9797 
   -9801    -9836    -9948   -10194   -10553   -10922   -11233   -11494 
  -11733   -11975   -12233   -12488   -12732   -12994   -13290   -13600 
  -13904   -14195   -14462   -14696   -14887   -15022   -15084   -15078 
  -15028   -14961   -14891   -14809   -14713   -14614   -14492   -14322 
  -14142   -13989   -13857   -13741   -13630   -13500   -13330   -13099 
  -12785   -12385   -11924   -11446   -11003   -10615   -10289   -10049 
   -9897    -9786    -9702    -9696    -9788    -9958   -10159   -10335 
  -10465   -10552   -10580   -10539   -10441   -10304   -10157   -10028 
   -9919    -9849    -9878   -10039   -10290   -10556   -10789   -10979 
  -11143   -11286   -11381   -11429   -11481   -11594   -11791   -12019 
  -12221   -12427   -12684   -12974   -13261   -13518   -13718   -13882 
  -14056   -14245   -14400   -14464   -14424   -14299   -14093   -13818 
  -13506   -13185   -12884   -12619   -12379   -12174   -12005   -11867 
  -11764   -11664   -11536   -11392   -11243   -11096   -10951   -10783 
  -10597   -10427   -10257   -10075    -9904    -9750    -9590    -9399 
   -9193    -8992    -8803    -8649    -8552    -8515    -8536    -8596 
   -8659    -8703    -8708    -8670    -8605    -8529    -8467    -8453 
   -8488    -8549    -8620    -8677    -8701    -8720    -8757    -8781 
   -8752    -8670    -8551    -8427    -8324    -8250    -8239    -8350 
   -8600    -8936    -9290    -9617    -9870   -10038   -10175   -10325 
  -10475   -10622   -10784   -10957   -11136   -11316   -11472   -11583 
  -11659   -11720   -11771   -11782   -11724   -11582   -11372   -11143 
  -10934   -10736   -10512   -10246    -9967    -9709    -9478    -9278 
   -9100    -8927    -8762    -8598    -8411    -8209    -8009    -7831 
   -7685    -7557    -7446    -7399    -7451    -7565    -7691    -7810 
   -7923    -8050    -8210    -8391    -8570    -8754    -8951    -9162 
   -9392    -9629    -9828    -9970   -10095   -10244   -10427   -10622 
  -10773   -10847   -10857   -10827   -10816   -10873   -11003   -11227 
  -11554   -11956   -12425   -12980   -13627   -14354   -15134   -15951 
  -16793   -17628   -18420   -19134   -19732   -20209   -20575   -20831 
  -20983   -21057   -21087   -21095   -21076   -21010   -20887   -20719 
  -20524   -20291   -20000   -19656   -19269   -18812   -18265   -17645 
  -16975   -16263   -15523   -14753   -13938   -13086   -12224   -11376 
  -10537    -9714    -8948    -8255    -7631    -7080    -6586    -6149 
   -5797    -5509    -5242    -4989    -4752    -4540    -4362    -4193 
   -4034    -3917    -3852    -3840    -3870    -3941    -4067    -4282 
   -4616    -5033    -5462    -5873    -6231    -6498    -6680    -6810 
   -6920    -7062    -7280    -7589    -7992    -8462    -8952    -9451 
   -9976   -10515   -11037   -11554   -12065   -12514   -12846   -13063 
  -13172   -13176   -13109   -13033   -12999   -13049   -13184   -13348 
  -13491   -13622   -13780   -13983   -14228   -14494   -14738   -14909 
  -14975   -14924   -14793   -14670   -14586   -14506   -14420   -14332 
  -14217   -14057   -13881   -13730   -13628   -13589   -13622   -13729 
  -13891   -14089   -14309   -14547   -14813   -15110   -15426   -15745 
  -16045   -16336   -16629   -16900   -17115   -17243   -17264   -17200 
  -17078   -16899   -16668   -16414   -16164   -15936   -15743   -15584 
  -15459   -15388   -15365   -15344   -15267   -15085   -14783   -14387 
  -13961   -13554   -13174   -12808   -12466   -12169   -11925   -11745 
  -11613   -11479   -11305   -11085   -10828   -10546   -10249    -9954 
   -9686    -9448    -9228    -9007    -8749    -8439    -8094    -7745 
   -7426    -7172    -7013    -6962    -6972    -6967    -6900    -6762 
   -6580    -6399    -6268    -6212    -6228    -6315    -6478    -6690 
   -6902    -7068    -7165    -7226    -7288    -7353    -7414    -7449 
   -7427    -7353    -7276    -7214    -7145    -7061    -6976    -6886 
   -6793    -6738    -6752    -6822    -6934    -7071    -7215    -7349 
   -7447    -7506    -7556    -7636    -7781    -8016    -8342    -8714 
   -9071    -9397    -9690    -9934   -10100   -10173   -10177   -10172 
  -10214   -10330   -10512   -10733   -10975   -11223   -11455   -11655 
  -11817   -11949   -12062   -12169   -12274   -12368   -12427   -12416 
  -12305   -12080   -11761   -11382   -10974   -10573   -10229    -9962 
   -9738    -9530    -9330    -9123    -8913    -8690    -8451    -8231 
   -8057    -7939    -7877    -7843    -7830    -7854    -7914    -7997 
   -8104    -8220    -8326    -8425    -8505    -8579    -8684    -8801 
   -8908    -9030    -9194    -9407    -9636    -9879   -10186   -10551 
  -10927   -11298   -11650   -11954   -12205   -12407   -12554   -12633 
  -12668   -12712   -12803   -12941   -13086   -13209   -13314   -13429 
  -13604   -13891   -14297   -14777   -15273   -15756   -16217   -16641 
  -17004   -17300   -17547   -17766   -17955   -18072   -18065   -17930 
  -17699   -17413   -17123   -16854   -16588   -16304   -15979   -15580 
  -15091   -14537   -13966   -13429   -12980   -12640   -12384   -12165 
  -11943   -11714   -11504   -11323   -11153   -10981   -10816   -10682 
  -10587   -10519   -10463   -10417   -10380   -10363   -10408   -10532 
  -10696   -10869   -11057   -11271   -11515   -11783   -12063   -12344 
  -12594   -12792   -12933   -13013   -13063   -13112   -13124   -13100 
  -13077   -13066   -13095   -13204   -13373   -13576   -13795   -13992 
  -14136   -14233   -14273   -14242   -14168   -14076   -13955   -13771 
  -13477   -13060   -12556   -12012   -11485   -11004   -10554   -10124 
   -9714    -9325    -8955    -8571    -8152    -7731    -7344    -7023 
   -6786    -6631    -6554    -6539    -6539    -6510    -6422    -6265 
   -6073    -5891    -5766    -5737    -5789    -5912    -6129    -6424 
   -6784    -7218    -7723    -8298    -8916    -9529   -10100   -10622 
  -11135   -11657   -12159   -12604   -12957   -13225   -13429   -13509 
  -13467   -13382   -13248   -13111   -13053   -12991   -13003   -13215 
  -13425   -13522   -13632   -13699   -13624   -13477   -13246   -12921 
  -12674   -12462   -12166   -11942   -11809   -11646   -11492   -11354 
  -11150   -10884   -10588   -10229    -9828    -9462    -9117    -8787 
   -8493    -8219    -7947    -7734    -7645    -7644    -7689    -7798 
   -7930    -7995    -7939    -7725    -7330    -6823    -6290    -5790 
   -5397    -5114    -4872    -4660    -4504    -4393    -4327    -4355 
   -4495    -4739    -5095    -5546    -6036    -6503    -6878    -7130 
   -7319    -7494    -7644    -7796    -7961    -8112    -8261    -8392 
   -8466    -8512    -8587    -8724    -8950    -9273    -9649   -10030 
  -10381   -10639   -10760   -10763   -10669   -10479   -10226    -9944 
   -9645    -9345    -9069    -8846    -8713    -8679    -8689    -8690 
   -8695    -8741    -8820    -8890    -8949    -9021    -9107    -9200 
   -9310    -9433    -9544    -9644    -9745    -9835    -9905    -9951 
   -9961    -9941    -9952   -10075   -10345   -10723   -11135   -11500 
  -11763   -11913   -11971   -11955   -11882   -11757   -11575   -11336 
  -11066   -10789   -10532   -10340   -10231   -10163   -10084    -9957 
   -9758    -9491    -9159    -8779    -8388    -8020    -7713    -7484 
   -7288    -7088    -6911    -6803    -6806    -6965    -7298    -7766 
   -8308    -8853    -9328    -9711   -10008   -10244   -10465   -10700 
  -10968   -11263   -11570   -11888   -12200   -12478   -12740   -13018 
  -13317   -13606   -13856   -14088   -14271   -14334   -14240   -13963 
  -13535   -13045   -12523   -11973   -11447   -10985   -10553   -10100 
   -9637    -9197    -8793    -8446    -8167    -7926    -7703    -7495 
   -7296    -7098    -6886    -6658    -6437    -6231    -6036    -5845 
   -5637    -5396    -5122    -4812    -4460    -4073    -3649    -3190 
   -2722    -2276    -1860    -1468    -1148     -971     -951    -1076 
   -1309    -1598    -1926    -2299    -2683    -3054    -3416    -3758 
   -4081    -4412    -4770    -5182    -5682    -6289    -7006    -7823 
   -8718    -9644   -10565   -11489   -12426   -13349   -14238   -15080 
  -15883   -16678   -17467   -18215   -18912   -19557   -20162   -20753 
  -21332   -21854   -22293   -22657   -22947   -23161   -23318   -23406 
  -23378   -23216   -22941   -22588   -22204   -21813   -21412   -20992 
  -20543   -20040   -19486   -18917   -18350   -17771   -17197   -16658 
  -16154   -15651   -15091   -14446   -13752   -13033   -12279   -11497 
  -10691    -9875    -9087    -8367    -7746    -7226    -6821    -6551 
   -6359    -6172    -5971    -5764    -5604    -5540    -5530    -5541 
   -5614    -5811    -6157    -6622    -7152    -7689    -8207    -8742 
   -9334    -9952   -10510   -10955   -11299   -11576   -11800   -11981 
  -12114   -12199   -12254   -12266   -12226   -12166   -12099   -12029 
  -11979   -11953   -11930   -11884   -11784   -11624   -11427   -11214 
  -11003   -10834   -10749   -10762   -10866   -11016   -11143   -11228 
  -11286   -11320   -11325   -11304   -11273   -11253   -11245   -11227 
  -11175   -11089   -10979   -10860   -10767   -10706   -10643   -10573 
  -10504   -10433   -10378   -10346   -10304   -10231   -10133   -10031 
   -9937    -9848    -9730    -9536    -9277    -9007    -8769    -8593 
   -8512    -8529    -8635    -8834    -9089    -9322    -9481    -9534 
   -9461    -9278    -9058    -8887    -8791    -8738    -8691    -8658 
   -8667    -8715    -8786    -8872    -8959    -9046    -9142    -9263 
   -9438    -9649    -9824    -9913    -9901    -9803    -9660    -9508 
   -9357    -9214    -9109    -9062    -9056    -9065    -9053    -9000 
   -8943    -8912    -8911    -8967    -9082    -9214    -9326    -9383 
   -9388    -9400    -9475    -9627    -9845   -10096   -10363   -10660 
  -11000   -11383   -11788   -12176   -12511   -12770   -12942   -13019 
  -13015   -12973   -12944   -12946   -12975   -13015   -13042   -13065 
  -13132   -13265   -13460   -13693   -13933   -14157   -14373   -14600 
  -14845   -15109   -15405   -15715   -16027   -16376   -16774   -17192 
  -17607   -18000   -18340   -18614   -18817   -18938   -18992   -18997 
  -18966   -18927   -18885   -18805   -18648   -18371   -17942   -17364 
  -16661   -15847   -14953   -14049   -13173   -12352   -11616   -10951 
  -10323    -9718    -9116    -8510    -7936    -7407    -6913    -6448 
   -6007    -5587    -5198    -4842    -4492    -4122    -3750    -3422 
   -3172    -3005    -2902    -2859    -2901    -3061    -3351    -3753 
   -4220    -4695    -5135    -5509    -5791    -5958    -6011    -5991 
   -5962    -6002    -6151    -6407    -6754    -7137    -7485    -7776 
   -8015    -8227    -8458    -8749    -9109    -9499    -9861   -10144 
  -10327   -10436   -10502   -10547   -10615   -10729   -10880   -11052 
  -11225   -11358   -11400   -11322   -11159   -10953   -10725   -10504 
  -10327   -10215   -10180   -10224   -10344   -10527   -10717   -10860 
  -10917   -10860   -10706   -10486   -10217    -9937    -9686    -9456 
   -9216    -8957    -8717    -8525    -8349    -8169    -7992    -7798 
   -7582    -7364    -7145    -6908    -6674    -6474    -6328    -6248 
   -6230    -6236    -6243    -6261    -6293    -6325    -6342    -6328 
   -6296    -6263    -6231    -6207    -6213    -6251    -6300    -6337 
   -6329    -6240    -6063    -5816    -5548    -5311    -5154    -5115 
   -5193    -5373    -5638    -5950    -6270    -6576    -6861    -7143 
   -7453    -7816    -8254    -8804    -9479   -10224   -10974   -11682 
  -12328   -12919   -13462   -13955   -14407   -14818   -15177   -15482 
  -15722   -15878   -15973   -16051   -16138   -16225   -16303   -16388 
  -16471   -16524   -16546   -16533   -16478   -16400   -16314   -16245 
  -16225   -16246   -16305   -16430   -16604   -16773   -16916   -17037 
  -17133   -17196   -17220   -17221   -17214   -17211   -17245   -17330 
  -17445   -17554   -17641   -17695   -17726   -17759   -17788   -17796 
  -17818   -17887   -17993   -18113   -18206   -18250   -18259   -18242 
  -18207   -18170   -18130   -18065   -17989   -17937   -17928   -17966 
  -18048   -18148   -18232   -18276   -18271   -18209   -18088   -17914 
  -17706   -17484   -17250   -16992   -16678   -16293   -15883   -15542 
  -15317   -15176   -15043   -14880   -14712   -14524   -14268   -13954 
  -13613   -13249   -12886   -12585   -12356   -12151   -11957   -11763 
  -11590   -11510   -11522   -11568   -11626   -11655   -11615   -11519 
  -11394   -11269   -11185   -11170   -11185   -11175   -11178   -11205 
  -11196   -11146   -11075   -11034   -11094   -11276   -11597   -12003 
  -12419   -12835   -13170   -13409   -13643   -13830   -13944   -14089 
  -14303   -14539   -14769   -14979   -15173   -15401   -15630   -15779 
  -15879   -15955   -16000   -16012   -15944   -15788   -15575   -15327 
  -15072   -14862   -14778   -14806   -14872   -14965   -15033   -15014 
  -14900   -14679   -14345   -13885   -13279   -12562   -11802   -11043 
  -10308    -9678    -9230    -8908    -8649    -8457    -8296    -8107 
   -7860    -7530    -7104    -6588    -5994    -5365    -4743    -4138 
   -3592    -3193    -2963    -2868    -2890    -3007    -3196    -3476 
   -3837    -4226    -4630    -5032    -5362    -5543    -5606    -5657 
   -5722    -5837    -6076    -6359    -6620    -6915    -7219    -7507 
   -7829    -8154    -8443    -8689    -8828    -8871    -8878    -8852 
   -8798    -8734    -8698    -8747    -8870    -9006    -9126    -9236 
   -9334    -9416    -9501    -9577    -9621    -9637    -9606    -9519 
   -9414    -9352    -9360    -9422    -9538    -9733   -10020   -10404 
  -10898   -11463   -12004   -12451   -12760   -12933   -13019   -13049 
  -13048   -13055   -13093   -13196   -13408   -13742   -14136   -14517 
  -14884   -15251   -15599   -15901   -16147   -16314   -16370   -16288 
  -16049   -15687   -15241   -14712   -14190   -13777   -13445   -13173 
  -12955   -12767   -12614   -12474   -12337   -12199   -12039   -11865 
  -11693   -11511   -11329   -11152   -10964   -10794   -10707   -10669 
