Origin Time       2011/03/11 14:46:00
Lat.              38.103
Long.             142.860
Depth. (km)       24
Mag.              9.0
Station Code      HKD111
Station Lat.      42.0170
Station Long.     143.1487
Station Height(m) 22
Record Time       2011/03/11 14:48:28
Sampling Freq(Hz) 100Hz
Duration Time(s)  231
Dir.              N-S
Scale Factor      3920(gal)/6182761
Max. Acc. (gal)   5.962
Last Correction   2011/03/11 14:48:13
Memo.             
[...]
   20510    20802    21252    21500    21665    22037    22264    21960 
   21439    21204    21343    21481    21367    21225    21280    21377 
   21421    21611    21902    21854    21057    19754    18728    18262 
   18187    18519    19141    19609    19529    19073    18789    18821 
   19085    19361    19180    18609    18039    17490    17155    17187 
   17197    17095    17254    17665    17895    17672    17132    16518 
   15952    15723    16022    16579    17069    17179    16847    16538 
   16448    16353    16327    16480    16633    16712    16891    17387 
   18055    18467    18518    18325    18135    18207    18260    17835 
   17007    16428    16656    17304    17874    18638    19469    19671 
   19326    19242    19793    20641    21350    21597    21409    21319 
   21504    21536    21276    21011    20912    20945    21021    21019 
   20783    20165    19233    18279    17563    17213    17292    17788 
   18435    18820    18861    18748    18424    17816    17201    16874 
   16986    17383    17635    17723    17986    18382    18545    18407 
   18263    18399    18812    19113    19025    18688    18345    18337 
   18728    19075    19254    19512    19700    19542    19254    19210 
   19464    19886    20386    20860    21008    20771    20577    20467 
   20200    19909    19721    19603    19461    19134    18781    18573 
   18206    17592    17104    17158    17949    18998    19507    19340 
   19028    18981    19075    19124    19088    18845    18407    17904 
   17484    17351    17505    17918    18755    19946    21114    21819 
   21955    21878    21585    20919    20343    20277    20741    21430 
   21714    21364    20876    20727    20687    20227    19418    18940 
   19073    19198    18764    18026    17397    17049    17160    17697 
   18164    18214    18051    17948    17932    17928    17944    17884 
   17511    16964    16518    16135    15860    15684    15423    15226 
   15167    14946    14542    14151    13875    13793    13700    13304 
   12741    12500    13030    14140    15071    15501    15637    15587 
   15546    15798    16100    15999    15610    15440    15721    16158 
   16419    16570    16767    16902    16850    16760    16775    16564 
   15833    15148    15167    15810    16875    18164    19103    19458 
   19731    20172    20435    20466    20493    20149    19277    18786 
   19142    19583    19408    18906    18787    19004    18927    18417 
   17915    17876    18296    18728    19060    19656    20517    21217 
   21475    21329    21051    20872    20827    20733    20349    19883 
   19769    19951    20119    20266    20727    21575    22164    22028 
   21550    21183    20962    20763    20536    20378    20362    20496 
   20763    21022    21213    21270    20894    20002    19177    19362 
   20644    22030    22672    22367    21403    20503    20388    20995 
   21373    20970    20279    19876    20158    21183    22024    21906 
   21451    21425    21564    21317    20790    20469    20355    20092 
   19660    19262    18904    18596    18548    18672    18492    17884 
   17260    16908    16630    16206    15904    15913    15986    15957 
   15857    15759    15617    15281    15007    15314    16174    16937 
   16974    16320    15602    15178    15032    15291    15860    16333 
   16621    16738    16533    16068    15472    14808    14484    14805 
   15320    15607    15836    16059    16122    16210    16467    16568 
   16198    15558    15223    15470    15935    16149    16075    15936 
   15867    15698    15171    14573    14348    14353    14400    14485 
   14477    14504    14805    15474    16524    17591    18218    18332 
   18115    17820    17663    17579    17345    17098    17349    18085 
   18602    18435    17627    16425    15177    14214    13716    13621 
   13741    13945    14117    14150    14065    14041    14381    15117 
   15776    16140    16425    16665    16792    16753    16476    16240 
   16361    16646    16830    16960    17100    17160    17157    17300 
   17415    16825    15577    14748    14760    14919    14864    14851 
   14975    15166    15480    15928    16255    16288    16269    16493 
   16921    17337    17589    17525    17134    16809    16792    16881 
   17114    17715    18553    19271    19539    19292    18882    18636 
   18581    18610    18663    18865    19323    19818    20001    19791 
   19331    18703    18059    17619    17385    17287    17334    17463 
   17590    17661    17637    17572    17588    17756    18073    18553 
   19161    19610    19844    20137    20437    20771    21208    21242 
   20648    19780    18901    18363    18287    18250    18231    18658 
   19471    20093    20074    19631    19365    19409    19641    19983 
   20020    19634    19281    19008    18648    18404    18526    18995 
   19502    19825    20001    20023    19944    19936    19955    19758 
   19306    18833    18558    18430    18268    18172    18462    19134 
   19757    20101    20305    20273    19879    19430    19366    19917 
   20728    21066    20712    20107    19765    19706    19593    19413 
   19519    20244    21603    23090    24025    24177    23936    23806 
   23810    23705    23509    23264    22957    22810    22940    23305 
   23834    24216    24223    23972    23654    23501    23858    24903 
   26346    27511    27900    27469    26584    25938    25848    26000 
   26189    26441    26651    26744    26567    25840    24620    23242 
   22211    22016    22489    23014    23277    23394    23558    23645 
   23519    23484    23710    23900    23782    23497    23394    23463 
   23539    23684    23764    23481    23026    22797    22766    22903 
   23531    24483    24905    24460    23714    23400    23685    24179 
   24534    24459    23891    23369    23272    23335    23229    22983 
   22804    22814    23054    23257    23177    23303    23911    24450 
   24656    24927    25546    26063    26154    26327    26710    26993 
   27372    27708    27449    26756    26147    25716    25229    24626 
   24308    24579    25347    26298    26918    26871    26405    25985 
   25735    25533    25417    25425    25318    24999    24813    24926 
   24963    24632    24074    23514    23183    23270    23563    23700 
   23584    23256    22876    22659    22722    22986    23161    23096 
   22879    22615    22573    23018    23603    23648    23125    22697 
   22749    22843    22448    21850    21729    22000    22052    21852 
   21727    21665    21433    20891    20163    19627    19568    19708 
   19439    18751    18189    17911    17602    17195    16863    16671 
   16874    17812    19092    19739    19270    18035    16792    16106 
   16073    16484    16964    17350    17824    18463    19148    19642 
   19658    19360    19164    18829    18074    17454    17365    17333 
   17007    16832    17293    18083    18473    18135    17447    17121 
   17358    17677    17829    18008    18128    17911    17586    17601 
   17934    18370    18804    19091    19092    18938    18958    19138 
   19164    19099    19180    19182    18962    19024    19656    20560 
   21469    22033    21985    21674    21507    21434    21328    21273 
   21335    21222    20720    20188    19854    19559    19174    18618 
   18009    17616    17463    17251    16821    16484    16600    17015 
   17141    16868    16763    17005    17253    17315    17314    17411 
   17326    16844    16474    16543    16699    16693    16598    16501 
   16516    16806    17220    17269    16935    16778    17084    17473 
   17469    17242    17274    17699    18306    18610    18290    17791 
   17646    17493    16913    16301    15978    15726    15418    15236 
   15247    15294    15356    15539    15736    15747    15563    15175 
   14451    13530    12719    12146    11967    12292    12959    13644 
   14028    14031    13695    13163    12832    12748    12589    12380 
   12325    12350    12272    12066    11780    11423    11180    11252 
   11514    11916    12547    13145    13475    13750    14068    14200 
   14209    14296    14364    14331    14364    14743    15519    16307 
   16959    17855    19032    19852    19769    18987    18301    18167 
   18290    18331    18418    18763    19319    19895    20308    20686 
   21301    22008    22576    22842    22659    22351    22284    22380 
   22666    23068    23150    22821    22349    22052    22175    22643 
   23183    23504    23494    23264    22896    22604    22718    22953 
   22613    21781    21236    21312    21491    21247    20982    21329 
   22060    22564    22717    22767    22795    22496    21658    20617 
   19763    19261    19070    18857    18522    18411    18726    19196 
   19407    19173    18579    17869    17230    16781    16716    17044 
   17459    17779    18150    18641    19005    19056    18997    19275 
   19946    20414    20228    19698    19505    19982    20751    21258 
   21395    21385    21338    21169    20950    20734    20373    19973 
   19867    20063    20355    20869    21563    21951    21923    21716 
   21487    21211    20762    20348    20311    20621    21025    21334 
   21539    21835    22254    22480    22327    21824    20981    19946 
   19107    18737    18653    18648    18798    19037    19235    19468 
   19802    20060    20089    20159    20426    20497    20200    19954 
   20266    21290    22470    22928    22633    22285    22162    22034 
   21587    20732    19965    19775    20161    21063    22235    23105 
   23631    24312    25105    25537    25588    25527    25342    24952 
   24526    24160    23767    23308    22911    22729    22602    22357 
   22142    21990    21794    21600    21330    20752    19907    19085 
   18550    18387    18396    18303    18157    18171    18258    18317 
   18528    18868    19008    18892    18764    18602    18289    18007 
   17819    17516    17034    16677    16813    17240    17348    17085 
   16847    16669    16463    16325    16278    16423    16863    17131 
   16819    16409    16463    16965    17448    17391    16988    16871 
   17159    17639    18181    18605    18872    19117    19232    18989 
   18491    18124    17978    17813    17756    18060    18467    18783 
   19134    19416    19622    19913    19997    19636    19218    19162 
   19395    19515    19374    19340    19671    20184    20773    21454 
   22029    22306    22296    22069    21726    21450    21284    21029 
   20695    20668    21216    21959    22123    21593    21006    20749 
   20759    20800    20647    20449    20474    20607    20528    20254 
   20124    20217    20339    20369    20265    20188    20473    21140 
   21859    22323    22412    22269    22125    22023    21858    21604 
   21305    21020    20986    21318    21837    22364    22639    22459 
   21968    21411    21003    20878    20976    21209    21469    21687 
   21976    22224    22202    22156    22281    22284    22139    22121 
   22104    21894    21769    21984    22209    21982    21458    21148 
   21239    21552    21772    21613    21189    21075    21538    22145 
   22355    22098    21826    21871    21874    21405    20605    19878 
   19492    19437    19440    19374    19285    19149    18976    18735 
   18504    18550    18901    19367    19796    20028    20094    20175 
   20323    20531    20592    20305    19956    19820    19788    19705 
   19577    19428    19159    18858    18920    19354    19655    19610 
   19456    19281    19064    19008    19144    19256    19219    19040 
   18907    18998    19325    19750    20039    20261    20621    20991 
   21236    21626    22403    23237    23620    23566    23442    23371 
   23248    23146    23257    23582    23922    24120    24251    24269 
   23941    23432    23283    23653    24039    24086    23924    23596 
   23201    23066    23198    23185    22725    22146    21986    22190 
   22466    22750    22902    22743    22503    22516    22609    22429 
   21935    21241    20583    20320    20458    20557    20242    19664 
   19292    19166    18929    18461    17880    17387    17236    17343 
   17308    17049    16805    16825    17170    17495    17405    17057 
   16872    16919    17056    17220    17296    17141    16957    17025 
   17106    16971    16788    16513    16018    15603    15552    15620 
   15491    15308    15265    15274    15445    15979    16624    16986 
   16926    16519    16040    15689    15439    15262    14969    14500 
   14316    14619    15068    15426    15669    15767    15711    15662 
   15799    15971    16024    16103    16202    16139    16052    16233 
   16667    17028    17033    16878    16890    16928    16731    16370 
   16067    15781    15278    14723    14491    14461    14402    14504 
   14892    15391    15906    16413    16747    16866    17004    17172 
   17155    17021    16869    16555    16071    15694    15678    15841 
   15940    16165    16429    16289    15917    15762    15826    16005 
   16267    16465    16491    16472    16517    16524    16367    15941 
   15329    14904    14845    14881    14687    14273    13915    13743 
   13674    13591    13295    12612    11846    11572    11870    12276 
   12444    12450    12503    12667    12847    12892    12782    12694 
   12751    12895    13021    13020    12912    12927    13104    13283 
   13418    13536    13695    13770    13465    12841    12293    11916 
   11427    10709     9977     9569     9576     9731     9854     9974 
   10160    10443    10760    11093    11389    11444    11245    11102 
   11316    11898    12628    13249    13571    13675    13838    14151 
   14569    15118    15778    16333    16631    16858    17206    17493 
   17369    16849    16335    16050    15949    15991    16172    16533 
   17124    17938    18881    19663    19938    19699    19306    19058 
   19009    19111    19315    19561    19823    20139    20464    20676 
   20786    20884    20869    20579    20048    19496    19191    19182 
   19352    19632    19910    20062    20149    20335    20608    20783 
   20864    21066    21393    21573    21453    21226    21188    21212 
   20982    20614    20408    20491    20783    21007    20991    20723 
   20235    19711    19393    19401    19649    19904    19996    20050 
   20297    20641    20811    20858    20986    21192    21406    21566 
   21689    21935    22357    22751    22903    22911    22965    22987 
   22817    22398    21827    21394    21327    21570    21903    22080 
   22086    22103    22214    22534    23013    23307    23379    23380 
   23156    22638    22100    21830    21815    21771    21694    21919 
   22390    22730    22875    22883    22774    22745    22787    22635 
   22310    21955    21472    20788    20134    19862    20034    20357 
   20519    20437    20228    20071    20016    19903    19600    19168 
   18818    18838    19289    19803    19913    19592    19367    19528 
   19762    19871    19927    19979    20104    20202    20075    19820 
   19543    19171    18748    18424    18285    18173    17824    17438 
   17417    17644    17755    17737    17850    18203    18607    18840 
   18868    18785    18722    18804    18913    18795    18567    18627 
   19001    19363    19617    19856    20049    20180    20284    20239 
   19897    19475    19360    19578    19822    19910    19957    20084 
   20234    20250    19972    19413    18840    18569    18621    18747 
   18795    18759    18669    18640    18738    18740    18412    17889 
   17538    17645    18109    18530    18730    18809    18859    18992 
   19310    19654    19754    19645    19631    19823    20028    20026 
   19771    19559    19690    19960    20048    19935    19695    19409 
   19209    19165    19261    19337    19237    19033    18916    19028 
   19270    19419    19485    19591    19666    19495    19014    18508 
   18262    18133    17927    17798    17930    18132    18049    17851 
   17861    17776    17344    16833    16392    15918    15485    15293 
   15261    15185    15084    15080    15205    15328    15279    15147 
   15078    14954    14723    14571    14621    14877    15198    15369 
   15413    15434    15378    15364    15658    16144    16431    16418 
   16222    15922    15677    15598    15614    15617    15594    15678 
   15819    15701    15298    14934    14843    15037    15394    15837 
   16364    16766    16851    16886    17083    17228    17170    16953 
   16648    16368    16242    16268    16328    16405    16493    16492 
   16393    16229    16051    15965    15933    15894    15878    15839 
   15719    15548    15472    15613    15799    15845    15847    15915 
   16035    16095    15952    15604    15166    14766    14454    14185 
   13979    14018    14327    14711    15180    15756    16240    16544 
   16694    16668    16453    16273    16449    16917    17388    17732 
   17869    17821    17846    18075    18295    18359    18429    18692 
   19069    19368    19446    19317    19324    19713    20209    20449 
   20353    20132    20118    20252    20155    19818    19565    19535 
   19528    19329    19104    19050    19038    18991    19006    19083 
   19140    19195    19320    19446    19382    19187    19186    19511 
   19966    20274    20360    20296    20107    19873    19692    19557 
   19480    19477    19549    19718    19927    20086    20082    19802 
   19441    19238    19016    18636    18313    18147    18043    18007 
   18026    18010    17915    17682    17318    17025    17050    17358 
   17564    17466    17415    17689    18029    18134    17996    17811 
   17770    17809    17861    18022    18255    18511    18769    18896 
   18873    18798    18654    18408    18221    18319    18630    18809 
   18658    18363    18176    18152    18405    18950    19334    19227 
   18871    18548    18398    18545    18796    18945    19149    19458 
   19641    19605    19478    19387    19452    19710    19967    20076 
   20160    20279    20258    20055    19846    19705    19570    19448 
   19392    19394    19422    19390    19122    18647    18440    18753 
   19091    19053    18868    18830    18919    18930    18839    18836 
   18915    18880    18661    18413    18285    18190    18030    17879 
   17853    17991    18238    18392    18374    18561    19230    20014 
   20458    20569    20715    21140    21609    21817    21830    21834 
   21879    21896    21833    21786    21769    21613    21456    21507 
   21477    21150    20766    20418    20035    19787    19831    20023 
   20071    19839    19561    19469    19500    19564    19463    19019 
   18477    18131    17922    17758    17743    17957    18265    18360 
   18041    17495    17156    17190    17365    17447    17400    17298 
   17273    17353    17488    17791    18227    18430    18272    18060 
   18097    18233    18127    17864    17679    17466    17093    16727 
   16642    16892    17235    17337    17122    16860    16792    16826 
   16714    16459    16241    16032    15802    15638    15434    15036 
   14568    14245    14022    13736    13470    13495    13876    14420 
   14989    15467    15768    16007    16186    16094    15802    15690 
   15944    16338    16552    16746    17233    17769    18120    18434 
