Origin Time       2011/03/11 14:46:00
Lat.              38.103
Long.             142.860
Depth. (km)       24
Mag.              9.0
Station Code      HKD183
Station Lat.      42.9724
Station Long.     141.1656
Station Height(m) 285
Record Time       2011/03/11 14:49:05
Sampling Freq(Hz) 100Hz
Duration Time(s)  114
Dir.              E-W
Scale Factor      3920(gal)/6182761
Max. Acc. (gal)   2.321
Last Correction   2011/03/11 14:48:50
Memo.             
[...]
    7599     7506     7435     7405     7394     7370     7342     7362 
    7419     7463     7454     7332     7130     6985     6937     6941 
    6974     6983     6884     6681     6472     6345     6355     6475 
    6559     6531     6498     6533     6548     6482     6416     6428 
    6440     6329     6126     5969     5930     5980     6045     6028 
    5901     5797     5837     5953     5995     5900     5755     5718 
    5815     5949     6040     6086     6120     6143     6160     6204 
    6229     6132     5919     5736     5759     5997     6257     6398 
    6461     6497     6482     6410     6339     6318     6345     6440 
    6618     6772     6743     6570     6533     6791     7144     7320 
    7274     7168     7132     7127     7114     7186     7403     7650 
    7748     7678     7618     7720     7911     8008     7935     7802 
    7829     8123     8523     8738     8627     8314     8034     7917 
    7942     8013     8064     8088     8062     7959     7838     7807 
    7894     7988     7935     7650     7202     6797     6656     6853 
    7228     7471     7416     7224     7175     7344     7572     7646 
    7450     7024     6582     6378     6418     6507     6507     6360 
    6123     5991     6080     6286     6368     6178     5829     5507 
    5292     5212     5280     5461     5663     5789     5854     5893 
    5868     5784     5701     5637     5588     5573     5619     5720 
    5825     5898     5906     5839     5786     5867     6090     6304 
    6343     6268     6276     6408     6575     6725     6862     6955 
    6948     6850     6747     6728     6810     6938     7071     7165 
    7117     6886     6564     6298     6187     6236     6411     6643 
    6772     6685     6439     6206     6117     6148     6230     6353 
    6488     6582     6638     6737     6963     7254     7433     7465 
    7467     7464     7376     7234     7165     7210     7306     7380 
    7425     7454     7450     7394     7289     7133     6920     6662 
    6423     6324     6455     6780     7138     7377     7469     7460 
    7356     7160     6968     6881     6956     7206     7550     7842 
    7988     8021     8036     8083     8166     8224     8115     7805 
    7459     7200     6976     6713     6408     6087     5790     5599 
    5608     5813     6098     6331     6407     6286     6065     5868 
    5727     5678     5786     6056     6424     6751     6891     6809 
    6604     6436     6383     6384     6365     6325     6307     6360 
    6478     6569     6565     6460     6335     6306     6378     6448 
    6478     6527     6638     6745     6760     6709     6739     6920 
    7106     7147     7109     7114     7154     7119     6953     6782 
    6772     6934     7183     7431     7571     7532     7331     7119 
    7094     7189     7134     6872     6600     6562     6846     7265 
    7572     7685     7692     7742     7854     7935     7959     7946 
    7916     7881     7838     7827     7896     8005     8096     8173 
    8214     8178     8107     8125     8258     8330     8203     7968 
    7737     7510     7313     7211     7180     7129     6985     6756 
    6559     6503     6573     6693     6787     6824     6825     6777 
    6666     6575     6579     6627     6645     6638     6614     6548 
    6484     6489     6515     6511     6518     6558     6641     6812 
    7061     7270     7331     7285     7221     7162     7129     7150 
    7196     7249     7377     7597     7808     7942     8062     8260 
    8490     8595     8534     8398     8295     8332     8546     8868 
    9128     9146     8957     8796     8778     8843     8980     9174 
    9276     9228     9162     9203     9377     9597     9731     9695 
    9503     9244     8966     8683     8473     8355     8238     8112 
    8065     8098     8118     8088     8036     7944     7765     7535 
    7341     7182     7018     6889     6874     7010     7280     7616 
    7901     8007     7943     7857     7857     7933     8030     8096 
    8140     8223     8351     8437     8370     8150     7948     7944 
    8136     8377     8471     8338     8116     8006     8063     8160 
    8180     8207     8308     8410     8461     8413     8263     8120 
    8060     8105     8225     8319     8333     8305     8288     8290 
    8272     8193     8039     7825     7680     7729     7917     8054 
    7993     7745     7443     7187     7002     6914     6939     7053 
    7190     7228     7092     6894     6783     6796     6874     6867 
    6664     6397     6316     6505     6820     7079     7235     7289 
    7271     7288     7370     7424     7377     7262     7150     7053 
    6976     7010     7192     7414     7518     7405     7147     6961 
    6961     7077     7164     7119     6990     6897     6883     6997 
    7222     7351     7221     6896     6591     6531     6759     7102 
    7391     7490     7339     7085     6943     7032     7290     7490 
    7450     7161     6784     6570     6636     6861     7065     7144 
    7113     7053     7027     7048     7064     7008     6884     6742 
    6614     6533     6554     6689     6855     6991     7110     7204 
    7211     7095     6934     6820     6729     6648     6613     6644 
    6739     6882     7067     7282     7473     7577     7547     7400 
    7255     7179     7147     7139     7148     7136     7049     6859 
    6559     6207     5998     6091     6414     6740     6830     6664 
    6528     6590     6686     6653     6521     6413     6423     6581 
    6799     6870     6711     6509     6439     6505     6668     6877 
    7018     7008     6910     6923     7132     7404     7587     7651 
    7658     7690     7818     8063     8304     8379     8319     8274 
    8335     8473     8577     8566     8443     8276     8205     8288 
    8380     8343     8207     8041     7898     7850     7943     8120 
    8256     8298     8273     8210     8186     8253     8330     8327 
    8272     8274     8381     8516     8595     8622     8590     8494 
    8367     8249     8225     8378     8610     8725     8643     8491 
    8497     8717     8971     9098     9088     8972     8786     8574 
    8396     8356     8485     8682     8835     8882     8866     8929 
    9130     9374     9492     9359     9071     8869     8869     9036 
    9298     9555     9694     9650     9436     9139     8897     8810 
    8831     8854     8908     9058     9196     9207     9136     9064 
    9030     9051     9078     9014     8801     8475     8159     7964 
    7911     8005     8210     8382     8374     8176     7931     7821 
    7954     8281     8599     8712     8573     8275     7981     7821 
    7822     7920     8028     8089     8080     8016     7956     7971 
    8051     8073     7971     7818     7719     7738     7874     8053 
    8241     8485     8791     9062     9210     9261     9266     9250 
    9248     9272     9244     9099     8915     8817     8827     8908 
    9044     9197     9300     9340     9361     9452     9661     9844 
    9801     9514     9139     8890     8833     8832     8759     8574 
    8314     8138     8193     8471     8822     9053     9034     8794 
    8461     8174     8048     8128     8346     8585     8747     8749 
    8579     8351     8190     8071     7919     7792     7829     8054 
    8337     8532     8570     8430     8169     7959     7933     8068 
    8198     8132     7888     7690     7684     7779     7777     7647 
    7527     7472     7444     7434     7470     7582     7696     7664 
    7456     7173     6938     6841     6900     7076     7286     7419 
    7433     7392     7356     7339     7392     7561     7825     8127 
    8348     8404     8362     8298     8251     8272     8362     8486 
    8600     8639     8603     8551     8519     8471     8385     8331 
    8330     8289     8140     7920     7728     7636     7600     7519 
    7403     7320     7263     7233     7271     7406     7625     7821 
    7866     7773     7653     7609     7676     7795     7892     7929 
    7905     7881     7876     7827     7725     7583     7375     7116 
    6852     6613     6454     6420     6513     6664     6787     6902 
    7015     6997     6829     6695     6791     7129     7478     7605 
    7536     7465     7531     7701     7877     8034     8143     8153 
    8088     8050     8113     8224     8264     8152     7866     7511 
    7338     7513     7910     8225     8239     7982     7671     7488 
    7507     7673     7778     7679     7437     7230     7234     7515 
    7969     8387     8558     8389     8002     7691     7672     7874 
    8068     8167     8254     8378     8487     8516     8458     8384 
    8384     8472     8583     8640     8627     8564     8496     8519 
    8691     8961     9215     9328     9229     8978     8729     8605 
    8601     8612     8561     8458     8362     8340     8408     8552 
    8773     9006     9111     9006     8753     8515     8429     8519 
    8709     8875     8920     8849     8770     8770     8854     8979 
    9088     9159     9247     9416     9624     9740     9664     9405 
    9069     8799     8691     8772     9013     9291     9374     9137 
    8708     8301     8047     7981     8026     8043     7960     7810 
    7668     7585     7575     7621     7707     7816     7893     7868 
    7745     7617     7528     7412     7204     6924     6682     6605 
    6718     6916     7064     7098     7062     7035     7080     7240 
    7454     7632     7825     8076     8314     8471     8512     8447 
    8380     8449     8694     8997     9168     9117     8903     8674 
    8606     8783     9091     9290     9208     8884     8514     8245 
    8118     8137     8264     8398     8411     8243     7945     7624 
    7368     7217     7158     7152     7191     7273     7358     7376 
    7328     7290     7277     7207     7015     6729     6479     6425 
    6603     6874     7105     7258     7269     7129     6953     6787 
    6577     6321     6092     5991     6034     6095     6039     5836 
    5597     5495     5572     5734     5884     5942     5883     5769 
    5692     5711     5826     5996     6187     6319     6303     6186 
    6141     6247     6347     6264     6073     5955     5978     6090 
    6255     6471     6675     6806     6863     6859     6879     7028 
    7259     7451     7536     7500     7417     7416     7568     7871 
    8227     8457     8452     8297     8177     8176     8260     8362 
    8454     8547     8620     8599     8481     8387     8408     8540 
    8728     8879     8945     8949     8952     9014     9134     9256 
    9350     9421     9517     9691     9924    10137    10223    10139 
    9982     9888     9913     9980     9919     9720     9538     9436 
    9387     9387     9466     9582     9558     9303     8955     8788 
    9025     9575    10075    10288    10280    10243    10263    10286 
   10243    10148    10089    10121    10218    10346    10461    10496 
   10430    10322    10235    10146    10027     9897     9751     9604 
    9511     9453     9411     9414     9454     9500     9569     9641 
    9649     9600     9608     9748     9963    10111    10076     9867 
    9613     9459     9444     9488     9513     9499     9459     9430 
    9421     9398     9321     9182     9035     8946     8929     8967 
    9050     9163     9248     9243     9187     9174     9232     9301 
    9287     9163     9004     8876     8756     8631     8565     8607 
    8704     8724     8546     8187     7824     7666     7788     8062 
    8272     8253     7993     7638     7348     7179     7130     7200 
    7378     7620     7887     8158     8366     8442     8414     8355 
    8292     8201     8041     7826     7662     7690     7963     8367 
    8710     8903     8979     8971     8886     8805     8834     8992 
    9245     9488     9597     9577     9525     9540     9663     9831 
    9957    10007    10034    10111    10215    10271    10271    10199 
   10011     9750     9537     9451     9487     9584     9693     9760 
    9737     9692     9744     9885     9979     9958     9882     9824 
    9757     9619     9440     9341     9359     9405     9434     9524 
    9706     9822     9689     9400     9178     9117     9244     9564 
    9915     9996     9661     9161     8897     8983     9205     9297 
    9204     9053     8933     8858     8821     8815     8849     8887 
    8886     8871     8853     8813     8746     8689     8706     8805 
    8920     8968     8896     8755     8659     8669     8739     8750 
    8619     8426     8323     8354     8449     8494     8418     8259 
    8104     7977     7885     7879     7998     8228     8531     8862 
    9174     9404     9477     9421     9413     9580     9859    10097 
   10170    10055     9868     9767     9833    10011    10160    10181 
   10053     9822     9569     9369     9267     9249     9271     9311 
    9362     9440     9574     9721     9787     9763     9745     9821 
    9995    10182    10260    10201    10100    10078    10179    10336 
   10486    10630    10751    10829    10866    10831    10729    10602 
   10459    10347    10339    10405    10391    10167     9828     9632 
    9736    10073    10440    10671    10712    10592    10463    10504 
   10703    10907    10998    10946    10788    10601    10456    10359 
   10263    10193    10241    10466    10836    11180    11302    11219 
   11101    11080    11164    11229    11198    11133    11108    11142 
   11196    11146    10916    10539    10154     9950     9994    10190 
   10380    10406    10215     9922     9699     9606     9609     9715 
    9878     9910     9708     9383     9132     9053     9072     9109 
    9105     8958     8675     8419     8330     8417     8552     8599 
    8538     8409     8246     8103     8042     8080     8163     8194 
    8103     7931     7822     7864     7982     8067     8133     8207 
    8216     8087     7900     7836     8006     8362     8744     8984 
    9017     8915     8775     8625     8446     8204     7897     7584 
    7332     7208     7261     7394     7443     7395     7373     7475 
    7667     7826     7862     7771     7628     7547     7575     7691 
    7846     8018     8283     8689     9075     9253     9188     8967 
    8757     8683     8694     8636     8440     8256     8301     8563 
    8843     8993     8998     8930     8845     8738     8604     8477 
    8385     8291     8182     8163     8314     8524     8623     8611 
    8609     8696     8865     9061     9152     8978     8559     8155 
    7995     8100     8357     8572     8581     8378     8082     7868 
    7845     7948     8049     8076     8060     8077     8110     8109 
    8151     8320     8544     8691     8717     8651     8550     8470 
    8410     8377     8406     8424     8317     8105     7905     7834 
    7918     8060     8171     8222     8228     8264     8411     8692 
    9005     9134     8966     8612     8330     8327     8538     8744 
    8853     8903     8965     9107     9320     9502     9541     9414 
    9211     9043     8974     8979     8950     8799     8565     8396 
    8368     8393     8388     8391     8428     8453     8470     8510 
    8531     8472     8313     8117     8005     8028     8148     8304 
    8464     8617     8730     8723     8532     8223     7942     7795 
    7819     8001     8300     8646     8935     9103     9163     9139 
    9063     8993     8940     8867     8725     8528     8417     8490 
    8671     8847     8933     8916     8874     8819     8672     8421 
    8183     8077     8122     8273     8447     8522     8454     8315 
    8170     7986     7733     7514     7478     7652     7874     7919 
    7750     7502     7273     7121     7129     7323     7581     7715 
    7676     7593     7604     7767     8039     8265     8293     8096 
    7781     7497     7326     7258     7298     7476     7733     7938 
    8030     8019     7905     7705     7516     7439     7469     7524 
    7575     7640     7705     7738     7732     7718     7767     7880 
    8008     8139     8256     8323     8301     8193     8056     7927 
    7811     7712     7671     7727     7844     7984     8121     8187 
    8188     8235     8368     8498     8524     8461     8386     8341 
    8365     8471     8632     8832     9007     9038     8844     8491 
    8183     8085     8230     8498     8651     8556     8344     8255 
    8386     8604     8715     8687     8567     8383     8200     8078 
    8031     8073     8139     8130     8094     8123     8173     8178 
    8141     8056     7901     7677     7445     7312     7355     7501 
    7573     7522     7464     7476     7527     7560     7581     7646 
    7744     7845     7961     8058     8156     8361     8647     8840 
    8781     8465     8087     7848     7787     7814     7783     7657 
    7560     7591     7738     7907     7961     7828     7556     7259 
    7035     6908     6820     6713     6613     6580     6621     6695 
    6738     6727     6681     6596     6515     6553     6746     7021 
    7254     7343     7289     7166     7088     7149     7325     7538 
    7740     7860     7829     7674     7501     7402     7388     7411 
    7400     7303     7132     6947     6808     6765     6815     6856 
    6763     6570     6458     6555     6789     6985     7057     7028 
    6935     6828     6761     6744     6754     6740     6655     6540 
    6513     6660     6955     7268     7402     7245     6901     6570 
    6401     6438     6613     6815     6977     7093     7190     7257 
    7268     7244     7164     6981     6756     6621     6670     6866 
    7033     7015     6855     6707     6678     6776     6873     6827 
    6652     6417     6199     6150     6310     6514     6593     6507 
    6314     6149     6153     6344     6575     6662     6523     6247 
    6025     6007     6219     6531     6678     6495     6092     5767 
    5755     5999     6242     6308     6172     5907     5689     5660 
    5814     6041     6192     6173     6011     5805     5654     5613 
    5654     5709     5741     5757     5802     5941     6145     6249 
    6107     5795     5573     5652     6005     6427     6721     6778 
    6600     6304     6075     6049     6175     6281     6279     6227 
    6230     6317     6438     6558     6653     6673     6597     6477 
    6374     6284     6210     6153     6041     5878     5803     5868 
    5977     6068     6153     6249     6332     6370     6360     6288 
    6167     6075     6043     6061     6161     6323     6429     6394 
    6232     6000     5782     5663     5653     5697     5757     5813 
    5831     5804     5772     5750     5689     5541     5340     5133 
    4958     4909     5079     5438     5792     5914     5774     5544 
    5367     5264     5218     5220     5241     5214     5087     4889 
    4767     4872     5141     5370     5455     5399     5259     5137 
    5126     5238     5351     5362     5284     5162     5052     5008 
    5050     5200     5436     5687     5856     5861     5735     5612 
    5583     5638     5707     5710     5643     5580     5535     5459 
