Origin Time       2011/03/11 14:46:00
Lat.              38.103
Long.             142.860
Depth. (km)       24
Mag.              9.0
Station Code      HKD129
Station Lat.      42.6347
Station Long.     141.6057
Station Height(m) 6
Record Time       2011/03/11 14:48:02
Sampling Freq(Hz) 100Hz
Duration Time(s)  300
Dir.              E-W
Scale Factor      3920(gal)/6182761
Max. Acc. (gal)   22.058
Last Correction   2011/03/11 14:47:47
Memo.             
[...]
   -9910   -10162    -9367    -7388    -4692    -1674     1462     4329 
    6499     7841     8553     8886     8960     9090     9692    10636 
   11344    11277    10343     9152     8302     7759     7374     7276 
    7765     8965    10599    12435    14406    16324    17998    19224 
   19700    19252    17877    15714    13063    10237     7510     5202 
    3561     2462     1667     1312     1476     1872     2269     2592 
    2929     3506     4368     5597     7400     9581    11694    13545 
   15202    16834    18496    20094    21579    22951    24284    25723 
   27338    29106    30932    32641    33905    34350    34012    33378 
   32922    32860    33077    33152    32761    32034    31367    31068 
   31319    32157    33279    34295    35234    36220    37001    37312 
   37045    36092    34490    32502    30505    28757    27110    25326 
   23545    21843    19613    16109    11449     6512     1917    -2434 
   -6786   -10876   -14100   -16312   -17912   -19210   -20346   -21539 
  -22882   -24053   -24446   -23709   -22198   -20639   -19334   -18136 
  -17035   -16269   -15981   -16071   -16451   -17239   -18396   -19384 
  -19544   -18522   -16373   -13749   -11580   -10217    -9258    -8359 
   -7787    -7687    -7518    -6931    -6230    -5837    -5939    -6421 
   -7153    -8224    -9504   -10424   -10516    -9976    -9431    -9165 
   -9129    -9557   -10696   -12302   -13928   -15414   -16777   -17754 
  -18112   -18215   -18644   -19484   -20220   -20515   -20630   -20693 
  -20567   -20286   -19811   -18823   -16930   -14222   -11662   -10051 
   -9145    -8480    -7932    -7338    -6445    -5000    -2835     -220 
    2291     4259     5443     5908     5943     5810     5807     6240 
    7205     8571    10050    11373    12430    13056    13028    12427 
   11599    10776     9974     9150     8459     8209     8480     8991 
    9352     9328     8914     8189     7310     6665     6576     6983 
    7623     8141     8175     7480     5999     4117     2562     1671 
    1195      914      717      325     -331    -1022    -1649    -2299 
   -3293    -4815    -6398    -7602    -8462    -9043    -9449    -9813 
  -10279   -11083   -12056   -12731   -12959   -12677   -11662    -9920 
   -7800    -5755    -4182    -3246    -2819    -2564    -1942     -604 
    1220     3092     4731     6022     7014     7702     8178     8849 
    9772    10554    11135    11725    12282    12577    12745    13583 
   15603    17963    19331    19454    19150    19356    20452    22097 
   23757    25071    25786    25918    25769    25590    25477    25474 
   25480    25170    24353    23211    21878    20210    18070    15603 
   13294    11562    10318     9255     8347     7786     7554     7181 
    6100     4328     2497     1067      -53     -977    -1564    -1887 
   -2392    -3234    -4023    -4465    -4716    -5081    -5732    -6499 
   -6971    -6876    -6077    -4525    -2506     -431     1467     3089 
    4446     5454     6061     6561     7147     7655     8092     8670 
    9460    10369    11073    11248    10986    10456     9700     8911 
    8341     8222     8672     9441    10007     9909     9058     7785 
    6503     5423     4644     4188     3804     3206     2392     1504 
     705      113     -226     -220      126      674     1341     1870 
    2002     1956     1972     1972     1862     1727     1879     2450 
    3152     3865     4939     6682     8934    11346    13729    15874 
   17369    17953    17890    17606    17188    16615    16135    16101 
   16481    16858    16962    16877    16788    16672    16339    15883 
   15707    15869    15985    15842    15594    15334    14860    14106 
   13430    13145    13177    13210    12915    12153    11037     9879 
    8996     8556     8586     8993     9808    11123    12594    13511 
   13379    12279    10689     8964     7279     5835     4636     3408 
    2064      951      411      241      -35     -365     -181      790 
    2193     3572     4814     5878     6668     7247     7664     7797 
    7644     7513     7773     8448     9086     9291     9190     8884 
    8147     7101     6218     5881     6508     8342    11115    14126 
   16483    17622    17460    16073    13970    12042    10796    10346 
   10796    12015    13458    14550    15001    14826    14365    14084 
   14301    15086    16158    17034    17351    16922    15661    13750 
   11758    10162     9020     8163     7203     5793     3984     1984 
      21    -1623    -2795    -3361    -3174    -2453    -1772    -1669 
   -2373    -3613    -4924    -6200    -7430    -8470    -9493   -10749 
  -12024   -12998   -13433   -13166   -12430   -11530   -10543    -9642 
   -8946    -8294    -7276    -5565    -3507    -1720     -460      109 
    -121     -952    -1902    -2365    -1954     -650     1341     3497 
    4866     4717     3110      450    -2772    -5963    -8780   -11181 
  -13234   -15007   -16579   -18011   -19173   -19911   -20229   -19933 
  -18876   -17361   -15669   -13971   -12435   -10902    -9333    -8070 
   -7263    -6966    -7313    -8264    -9526   -10560   -10873   -10308 
   -8847    -6611    -3921    -1210     1008     2405     3114     3521 
    3914     4312     4504     4376     4089     3877     3922     4260 
    4851     5819     7185     8520     9310     9245     8111     6022 
    3276      -47    -3494    -6284    -8335    -9841   -10604   -10697 
  -10631   -10921   -11785   -12727   -13024   -12522   -11442   -10214 
   -9349    -8978    -9026    -9423    -9945   -10478   -11037   -11576 
  -12183   -12939   -13653   -14170   -14494   -14531   -14067   -12938 
  -11224    -9314    -7481    -5553    -3368    -1049     1389     4139 
    7182    10154    12612    14200    14815    14795    14685    14806 
   15150    15540    15823    15916    15679    15074    14545    14721 
   15831    17660    19836    22112    24250    25813    26532    26546 
   26159    25801    25995    27033    28706    30377    31305    30937 
   29064    25931    22143    18289    14811    12144    10543     9932 
   10044    10616    11593    12900    14057    14391    13609    11948 
    9849     7594     5223     2879     1113      589     1453     3049 
    4407     5030     4960     4339     3317     2228     1491     1287 
    1653     2732     4508     6451     7821     8206     7687     6687 
    5765     5468     6233     8164    10876    13912    17024    19798 
   21557    21749    20203    17330    14046    11271     9532     8849 
    8954     9587    10464    11345    12278    13470    14983    16803 
   18882    20803    21943    22232    22048    21470    20350    18827 
   17216    15694    14244    12789    11363     9987     8655     7523 
    6730     6257     6024     5810     5321     4268     2497      169 
   -2643    -5999    -9547   -12668   -14945   -16285   -16646   -15786 
  -13783   -11419    -9627    -8800    -8572    -8345    -7992    -7758 
   -7700    -7546    -7007    -5995    -4549    -2940    -1597     -598 
     307     1313     2507     3862     5230     6475     7463     8026 
    8202     8322     8669     9185     9658    10226    11409    13340 
   15517    17365    18380    18229    17061    15258    13272    11746 
   11082    11001    10886    10438     9756     8841     7479     5685 
    3914     2682     2059     1797     1773     1953     2150     2142 
    1995     1957     2050     2111     2120     2147     1868      588 
   -1863    -4897    -7622    -9162    -9192    -8078    -6334    -4348 
   -2401     -650      657     1215     1267     1563     2677     4704 
    7204     9466    11009    11839    12297    12361    11545     9884 
    8082     6656     5630     4919     4600     4636     4601     4136 
    3471     2866     1862      -85    -2820    -5697    -8032    -9571 
  -10375   -10320    -9509    -8544    -7987    -8032    -8298    -8191 
   -7994    -8486    -9678   -11079   -12393   -13455   -14069   -14109 
  -13767   -13312   -12690   -11918   -11358   -11262   -11645   -12509 
  -13776   -15224   -16535   -17301   -17214   -16373   -15138   -13688 
  -12060   -10509    -9567    -9692   -10672   -11582   -11798   -11517 
  -11129   -10785   -10545   -10571   -10977   -11626   -12336   -13081 
  -13801   -14157   -13854   -13200   -12695   -12238   -11411   -10293 
   -9427    -9079    -8929    -8681    -8471    -8446    -8551    -8744 
   -9126    -9862   -10685   -11039   -10946   -10714   -10276    -9418 
   -7915    -5748    -3562    -2188    -1789    -1883    -2095    -2402 
   -2706    -3014    -3533    -4235    -5075    -6073    -7283    -8921 
  -10624   -11518   -11261   -10015    -8042    -5801    -4007    -3371 
   -4028    -5324    -6510    -7353    -7817    -7770    -7328    -6853 
   -6554    -6595    -7042    -7543    -7639    -7021    -5458    -3116 
    -505     2020     4110     5462     6267     6864     7542     8727 
   10403    12021    13244    13993    14094    13434    12477    12032 
   12353    13164    14329    16009    18227    20354    21764    22782 
   23922    25144    26446    28031    30013    32208    33870    34279 
   33393    31537    29200    26857    24734    22907    21264    19529 
   17418    14757    11490     7413     2711    -1590    -4854    -7278 
   -8954    -9916   -10513   -11065   -11481   -11401   -10928   -10764 
  -11309   -12313   -13548   -15006   -16509   -17768   -18341   -17682 
  -15834   -13489   -11331    -9728    -8599    -7531    -6212    -4514 
   -2291      539     3721     6793     9389    11181    12042    12245 
   12219    12531    13604    15097    16398    17357    17990    18242 
   18216    18191    18474    19206    20170    20822    20624    19411 
   17390    14920    12568    10870     9838     9330     9421    10068 
   11029    11968    12491    12389    11700    10564     9228     8035 
    7254     7003     7264     7794     8313     8847     9456    10076 
   10843    11828    12677    12920    12408    11453    10501     9758 
    9413     9695    10584    11919    13564    15224    16390    16558 
   15639    14080    12505    11339    10731    10665    11032    11539 
   11739    11339    10357     9014     7627     6540     6111     6384 
    6836     7081     7328     7905     9042    10685    12490    14229 
   15479    15543    14323    12270     9830     7536     5873     5178 
    5595     6641     7668     8651     9565     9911     9232     7534 
    5487     3810     2571     1709     1194      650     -192    -1113 
   -1637    -1288      -65     1474     2740     3209     2546     1062 
    -688    -2477    -4059    -4891    -4582    -3411    -2183    -1646 
   -2135    -3502    -5477    -7867   -10170   -11886   -13067   -13692 
  -13445   -12530   -11449   -10297    -9088    -7947    -6954    -6387 
   -6465    -7005    -7861    -8923    -9771    -9917    -9127    -7649 
   -5974    -4343    -2883    -1804    -1276    -1309    -1634    -1833 
   -1372      245     2860     5792     8563    10827    12264    12883 
   12946    12652    12013    11097    10131     9175     8214     7596 
    7677     8242     8749     8919     8912     9027     9222     9271 
    9327     9427     9103     8398     7928     7721     7239     6157 
    4673     3215     1655     -624    -3666    -6804    -9340   -11059 
  -12261   -13088   -13165   -12446   -11522   -10515    -8871    -6644 
   -4617    -3074    -1567      267     2322     4212     5720     6895 
    7601     7692     7580     7877     8695     9726    10874    12308 
   13885    15205    16172    17049    17824    17807    16526    14427 
   12054     9625     7387     5530     4165     3444     3456     4108 
    5119     6124     6642     6172     4734     2817      860     -785 
   -1974    -2826    -3570    -4582    -6101    -7999    -9968   -11714 
  -13107   -14056   -14307   -13620   -12288   -11185   -11008   -11743 
  -13005   -14449   -15678   -16276   -16121   -15424   -14535   -13783 
  -13272   -12848   -12234   -11429   -10953   -11095   -11610   -12332 
  -13175   -13985   -14500   -14240   -13187   -11929   -10897   -10126 
   -9395    -8745    -8514    -8446    -8002    -7253    -6406    -5240 
   -3602    -1773      -82     1350     2566     3548     4151     4522 
    4843     4898     4594     4000     3023     1975     1417     1239 
    1256     1624     2031     1886      949     -487    -1681    -2131 
   -1800     -678     1125     3003     4192     4431     3852     2695 
    1280     -164    -1483    -2604    -3625    -4664    -5645    -6285 
   -6579    -6940    -7371    -7490    -7424    -7228    -6452    -5402 
   -4788    -4538    -4561    -4773    -4869    -5018    -5141    -4912 
   -4596    -4269    -3681    -2785    -1556     -178     1054     2314 
    3591     4339     4452     4342     4400     4495     4003     3061 
    2376     1988     1442      371    -1064    -2381    -3405    -4047 
   -4197    -3912    -3166    -2007     -838      -93      -48     -753 
   -1959    -3323    -4535    -5366    -5683    -5442    -4839    -3982 
   -2757    -1484     -659     -304     -278     -467     -862    -1484 
   -2007    -2145    -1991    -1633    -1245    -1167    -1411    -1678 
   -1756    -1519     -826      625     3042     6065     9162    12099 
   14831    17239    18853    19335    19009    18383    17725    17240 
   17249    17949    18901    19483    19969    21110    22932    24963 
   27055    29162    30880    31964    32813    33749    34462    34695 
   34834    35448    36543    37612    38249    38387    38146    37499 
   36417    35334    34453    33321    31826    30304    28911    27398 
   25387    23342    22105    21223    19670    17761    16437    15468 
   14209    13029    12416    11969    11106     9602     7632     5708 
    3885     1872       -3     -889     -545      -42      -87      -45 
     406      957     1468     2357     3888     4876     4239     2541 
     544    -1590    -3684    -5212    -5643    -5219    -4719    -4447 
   -4038    -3262    -2669    -2763    -3054    -2814    -2079    -1412 
    -971     -315      594     1224     1507     1923     2738     3787 
    4871     5938     6829     7237     7200     7444     8705    10831 
   13074    14831    15724    15493    14207    12573    11520    11472 
   12572    14808    17704    20688    23086    24204    24193    23701 
   22961    22092    21289    20435    19352    18171    17067    16155 
   15596    15402    15399    15410    15458    15710    16080    16446 
   16948    17473    17780    17971    17975    17459    16418    15174 
   14140    13601    13467    13620    14207    15190    15982    16087 
   15707    15164    14421    13578    13024    12964    13091    12900 
   12155    10942     9564     8048     6245     4570     3502     2976 
    2662     2156     1361      534     -164     -712    -1280    -2100 
   -3036    -3889    -4707    -5394    -5775    -6034    -6624    -7861 
   -9707   -11862   -14073   -16268   -18074   -18749   -18010   -16340 
  -14581   -13545   -13667   -14839   -16601   -18515   -20210   -21235 
  -21354   -20779   -19864   -18757   -17519   -16387   -15559   -15060 
  -14919   -15116   -15605   -16352   -17273   -18266   -19153   -19793 
  -20168   -20069   -19232   -17854   -16497   -15619   -15263   -14960 
  -14202   -13089   -12009   -10991    -9819    -8350    -6622    -4851 
   -3122    -1366      252     1428     1950     1636      363    -1822 
   -4542    -7061    -8655    -9077    -8787    -8561    -8733    -9095 
   -9327    -9219    -8716    -8041    -7372    -6342    -4533    -2025 
     725     2958     4017     3930     3146     2096     1260      921 
     873      929     1166     1540     1938     2389     3097     4442 
    6578     9179    11691    13437    13764    12530    10354     8226 
    6878     6580     7272     8768    10887    13368    15915    18309 
   20299    21677    22557    23173    23392    22826    21501    19884 
   18328    16947    15633    14298    13304    12892    12571    11801 
   10576     9141     7602     5837     4005     2637     1879     1465 
    1182      844      229     -914    -2723    -4890    -6942    -8800 
  -10565   -12092   -13116   -13552   -13474   -12875   -11871   -10974 
  -10558   -10524   -10932   -12133   -14173   -16628   -18933   -20673 
  -21598   -21541   -20618   -19233   -17807   -16751   -16329   -16378 
  -16396   -15954   -14806   -12692    -9635    -6319    -3652    -1927 
    -672      582     1645     2118     2122     2123     2281     2550 
    3126     4079     5089     5956     6783     7808     9284    11305 
   13790    16495    18907    20459    20880    20207    18776    17189 
   15904    14962    14230    13824    14159    15473    17546    19844 
   21831    23335    24390    24910    24929    24628    24101    23477 
   22805    21939    20869    19722    18699    18003    17547    17190 
   16954    16700    16236    15583    14731    13558    12098    10573 
    9181     7898     6575     5321     4537     4449     4862     5321 
    5425     5118     4670     4318     4148     4181     4351     4685 
    5357     6394     7621     8845     9987    11072    11914    12318 
   12583    13150    14146    15446    16649    17334    17516    17426 
   17210    16930    16584    16283    16213    16362    16691    17304 
   18179    19011    19471    19417    18735    17305    15241    13000 
   11144    10001     9704    10366    11923    13843    15268    15639 
   15017    13772    12186    10385     8461     6526     4744     3320 
    2351     1695     1076      487      194      255      520      944 
    1593     2627     4181     6017     7761     9438    11160    12639 
   13599    14258    15124    16445    17983    19422    20633    21528 
   21959    21880    21579    21407    21463    21849    22672    23750 
   24665    24943    24326    22911    20951    18854    17162    16196 
   15894    16079    16656    17310    17388    16477    14845    13147 
   11908    11397    11742    12913    14641    16421    17678    18154 
   18002    17259    15692    13341    10630     7960     5410     3008 
    1116       57     -225      131      850     1276      844     -504 
   -2665    -5486    -8466   -10969   -12587   -13175   -12900   -12174 
  -11505   -11258   -11364   -11491   -11353   -10838   -10208   -10025 
  -10584   -11680   -13006   -14337   -15316   -15424   -14284   -12076 
   -9613    -7771    -6898    -6828    -7251    -7892    -8498    -8750 
   -8217    -6837    -5074    -3117     -666     2331     5344     7694 
    9019     9361     8879     7617     5718     3624     1823      596 
      46      153      659     1003      827      520      858     2129 
    3916     5627     6936     7809     8163     7770     6708     5428 
    4251     3174     2115     1101      250     -437    -1195    -2263 
   -3615    -5004    -6116    -6723    -6839    -6628    -6304    -6113 
   -6083    -6253    -6905    -7883    -8528    -8542    -8142    -7600 
   -6917    -6050    -5397    -5599    -6818    -8410    -9580   -10320 
  -10976   -11286   -10849    -9961    -9360    -9402    -9761    -9992 
  -10069   -10241   -10544   -10639   -10254    -9535    -8809    -8345 
   -8352    -8852    -9662   -10581   -11447   -12143   -12667   -13014 
  -13075   -12840   -12503   -12405   -12736   -13253   -13625   -13761 
