Origin Time       2011/03/11 14:46:00
Lat.              38.103
Long.             142.860
Depth. (km)       24
Mag.              9.0
Station Code      HKD163
Station Lat.      41.4338
Station Long.     140.1117
Station Height(m) 13
Record Time       2011/03/11 14:47:50
Sampling Freq(Hz) 100Hz
Duration Time(s)  245
Dir.              U-D
Scale Factor      3920(gal)/6182761
Max. Acc. (gal)   4.200
Last Correction   2011/03/11 14:47:35
Memo.             
[...]
   -5684    -5910    -6073    -6270    -6551    -6823    -7044    -7218 
   -7272    -7164    -6927    -6640    -6401    -6204    -6006    -5849 
   -5778    -5773    -5818    -5946    -6104    -6171    -6085    -5836 
   -5508    -5287    -5240    -5293    -5433    -5634    -5755    -5804 
   -5912    -6003    -5991    -5988    -6024    -5978    -5787    -5514 
   -5315    -5330    -5496    -5636    -5703    -5764    -5846    -5891 
   -5870    -5774    -5535    -5229    -5057    -5008    -4951    -4872 
   -4790    -4704    -4616    -4494    -4271    -3931    -3548    -3165 
   -2751    -2325    -2012    -1902    -1991    -2273    -2712    -3173 
   -3551    -3805    -3849    -3658    -3365    -3107    -2938    -2920 
   -3146    -3567    -3974    -4281    -4548    -4770    -4896    -4919 
   -4867    -4771    -4642    -4470    -4234    -3971    -3800    -3746 
   -3740    -3681    -3531    -3433    -3467    -3573    -3690    -3786 
   -3934    -4174    -4453    -4685    -4758    -4721    -4713    -4686 
   -4568    -4446    -4415    -4488    -4671    -4911    -5141    -5401 
   -5688    -5893    -6015    -6165    -6397    -6702    -7007    -7158 
   -7060    -6727    -6270    -5829    -5367    -4925    -4705    -4627 
   -4504    -4324    -4142    -4090    -4190    -4285    -4355    -4492 
   -4659    -4751    -4762    -4752    -4723    -4657    -4554    -4422 
   -4298    -4177    -4073    -4060    -4128    -4279    -4562    -4880 
   -5107    -5197    -5132    -4946    -4692    -4448    -4296    -4204 
   -4136    -4140    -4184    -4205    -4221    -4163    -3957    -3716 
   -3536    -3403    -3360    -3438    -3627    -4015    -4586    -5091 
   -5490    -5927    -6308    -6508    -6584    -6579    -6514    -6457 
   -6426    -6352    -6184    -5956    -5708    -5472    -5304    -5225 
   -5240    -5370    -5572    -5759    -5893    -5893    -5689    -5409 
   -5228    -5100    -4879    -4650    -4601    -4678    -4757    -4870 
   -5005    -5066    -5052    -4989    -4878    -4797    -4792    -4792 
   -4778    -4835    -4992    -5165    -5264    -5302    -5412    -5692 
   -6083    -6451    -6715    -6800    -6629    -6290    -5997    -5841 
   -5786    -5817    -5943    -6128    -6367    -6728    -7144    -7418 
   -7523    -7597    -7735    -7898    -7967    -7903    -7834    -7913 
   -8147    -8451    -8744    -8954    -8947    -8604    -7994    -7295 
   -6627    -6120    -5910    -5970    -6144    -6381    -6697    -6980 
   -7091    -7000    -6742    -6393    -6045    -5783    -5639    -5570 
   -5586    -5737    -5966    -6208    -6497    -6843    -7217    -7614 
   -8011    -8386    -8722    -8984    -9134    -9099    -8823    -8400 
   -8049    -7932    -7986    -8074    -8190    -8301    -8228    -7916 
   -7483    -6957    -6303    -5664    -5220    -4922    -4604    -4235 
   -3900    -3632    -3411    -3261    -3209    -3213    -3251    -3339 
   -3500    -3736    -3969    -4137    -4239    -4299    -4420    -4647 
   -4916    -5200    -5448    -5613    -5759    -5907    -5993    -6043 
   -6123    -6185    -6150    -5991    -5795    -5713    -5749    -5785 
   -5791    -5798    -5824    -5905    -6032    -6120    -6160    -6237 
   -6341    -6349    -6234    -6068    -5904    -5809    -5791    -5792 
   -5841    -5979    -6160    -6296    -6360    -6510    -6884    -7375 
   -7835    -8214    -8445    -8515    -8486    -8361    -8128    -7839 
   -7551    -7285    -7048    -6821    -6582    -6363    -6255    -6335 
   -6545    -6764    -7002    -7304    -7577    -7728    -7747    -7621 
   -7365    -7024    -6649    -6289    -5995    -5840    -5803    -5773 
   -5744    -5776    -5856    -5919    -5872    -5695    -5451    -5222 
   -5128    -5226    -5423    -5642    -5826    -5857    -5730    -5578 
   -5440    -5219    -4894    -4598    -4430    -4376    -4389    -4432 
   -4495    -4575    -4670    -4772    -4807    -4756    -4705    -4644 
   -4526    -4430    -4446    -4534    -4582    -4617    -4762    -4949 
   -5061    -5184    -5364    -5517    -5672    -5867    -6001    -6028 
   -6057    -6227    -6560    -6931    -7256    -7536    -7686    -7629 
   -7424    -7164    -6916    -6723    -6665    -6803    -7008    -7065 
   -6924    -6649    -6327    -6050    -5830    -5607    -5383    -5200 
   -5044    -4877    -4683    -4487    -4408    -4473    -4556    -4636 
   -4767    -4944    -5098    -5118    -4981    -4808    -4752    -4856 
   -5051    -5291    -5541    -5753    -5956    -6215    -6490    -6641 
   -6621    -6443    -6153    -5905    -5759    -5642    -5568    -5546 
   -5537    -5599    -5727    -5830    -5903    -5916    -5791    -5548 
   -5255    -4987    -4797    -4650    -4514    -4424    -4400    -4401 
   -4393    -4423    -4549    -4727    -4858    -4936    -5033    -5126 
   -5144    -5186    -5382    -5694    -5981    -6138    -6184    -6132 
   -5961    -5771    -5592    -5291    -4896    -4556    -4324    -4219 
   -4267    -4401    -4494    -4483    -4414    -4370    -4336    -4217 
   -3973    -3693    -3495    -3374    -3272    -3213    -3193    -3127 
   -3018    -2946    -2934    -2997    -3155    -3387    -3692    -4112 
   -4628    -5096    -5396    -5607    -5820    -5970    -5986    -5834 
   -5560    -5305    -5159    -5110    -5155    -5344    -5688    -6050 
   -6306    -6468    -6576    -6624    -6578    -6450    -6330    -6257 
   -6155    -5926    -5594    -5335    -5301    -5435    -5570    -5625 
   -5593    -5485    -5362    -5268    -5156    -4975    -4821    -4852 
   -5034    -5264    -5502    -5676    -5767    -5809    -5768    -5641 
   -5485    -5334    -5205    -5124    -5146    -5284    -5477    -5690 
   -5900    -6060    -6196    -6342    -6484    -6640    -6782    -6866 
   -7002    -7253    -7510    -7679    -7760    -7845    -7958    -7979 
   -7890    -7802    -7733    -7682    -7701    -7798    -7921    -8043 
   -8137    -8097    -7853    -7530    -7256    -6994    -6734    -6533 
   -6379    -6221    -6009    -5737    -5492    -5375    -5392    -5476 
   -5553    -5564    -5514    -5487    -5543    -5651    -5765    -5852 
   -5867    -5820    -5775    -5785    -5892    -6110    -6364    -6567 
   -6754    -7013    -7318    -7595    -7821    -7961    -7978    -7934 
   -7917    -7941    -7985    -8046    -8137    -8235    -8271    -8236 
   -8178    -8095    -7962    -7827    -7723    -7649    -7663    -7786 
   -7954    -8141    -8319    -8423    -8459    -8499    -8574    -8629 
   -8592    -8452    -8226    -7953    -7697    -7466    -7274    -7232 
   -7355    -7501    -7575    -7591    -7557    -7457    -7336    -7288 
   -7315    -7353    -7438    -7581    -7661    -7672    -7740    -7881 
   -8000    -8021    -7999    -8074    -8284    -8552    -8817    -9078 
   -9345    -9624    -9944   -10265   -10480   -10571   -10582   -10542 
  -10480   -10393   -10303   -10280   -10320   -10342   -10305   -10224 
  -10120    -9983    -9812    -9673    -9608    -9569    -9541    -9552 
   -9573    -9581    -9521    -9317    -9046    -8810    -8562    -8284 
   -8044    -7860    -7679    -7462    -7236    -7079    -7052    -7130 
   -7216    -7201    -7066    -6916    -6882    -6998    -7146    -7204 
   -7191    -7175    -7158    -7069    -6864    -6644    -6536    -6512 
   -6487    -6485    -6567    -6735    -6926    -7057    -7144    -7297 
   -7583    -7969    -8338    -8609    -8790    -8868    -8813    -8634 
   -8357    -8087    -7890    -7719    -7580    -7497    -7435    -7346 
   -7183    -6979    -6816    -6684    -6556    -6436    -6321    -6253 
   -6238    -6200    -6151    -6173    -6322    -6665    -7185    -7749 
   -8240    -8595    -8775    -8760    -8594    -8425    -8357    -8354 
   -8348    -8271    -8087    -7862    -7666    -7532    -7464    -7376 
   -7190    -6964    -6812    -6769    -6792    -6811    -6741    -6575 
   -6463    -6506    -6591    -6623    -6716    -6931    -7142    -7261 
   -7321    -7368    -7444    -7595    -7845    -8142    -8388    -8575 
   -8733    -8781    -8678    -8517    -8344    -8125    -7861    -7655 
   -7639    -7771    -7900    -8006    -8127    -8207    -8213    -8189 
   -8125    -7969    -7750    -7562    -7435    -7322    -7230    -7154 
   -6962    -6611    -6244    -5969    -5788    -5700    -5746    -5956 
   -6274    -6552    -6655    -6569    -6376    -6140    -5931    -5844 
   -5882    -5991    -6142    -6318    -6531    -6854    -7327    -7828 
   -8209    -8495    -8797    -9136    -9414    -9486    -9325    -9079 
   -8922    -8951    -9134    -9352    -9530    -9624    -9601    -9505 
   -9445    -9482    -9531    -9462    -9226    -8856    -8440    -8016 
   -7596    -7259    -7075    -7044    -7029    -6905    -6759    -6698 
   -6719    -6791    -6875    -7015    -7299    -7677    -8030    -8299 
   -8471    -8576    -8645    -8659    -8627    -8597    -8601    -8632 
   -8627    -8575    -8601    -8773    -8989    -9167    -9332    -9450 
   -9429    -9322    -9277    -9278    -9171    -8898    -8522    -8139 
   -7881    -7810    -7858    -7977    -8219    -8558    -8874    -9130 
   -9340    -9512    -9637    -9658    -9587    -9514    -9462    -9428 
   -9418    -9407    -9398    -9453    -9638    -9924   -10170   -10283 
  -10284   -10227   -10203   -10242   -10258   -10229   -10197   -10123 
   -9949    -9691    -9393    -9025    -8585    -8183    -7890    -7682 
   -7567    -7567    -7624    -7684    -7782    -7930    -8052    -8129 
   -8230    -8374    -8458    -8388    -8186    -7920    -7639    -7385 
   -7211    -7203    -7402    -7685    -7895    -8027    -8090    -8056 
   -7988    -7944    -7900    -7851    -7805    -7778    -7775    -7810 
   -7913    -8034    -8064    -8001    -7963    -8009    -8107    -8256 
   -8458    -8688    -8893    -8969    -8929    -8919    -8973    -9019 
   -9080    -9313    -9752   -10201   -10501   -10604   -10542   -10416 
  -10267   -10078    -9888    -9715    -9528    -9319    -9056    -8695 
   -8309    -8007    -7800    -7667    -7608    -7661    -7836    -8032 
   -8166    -8268    -8339    -8342    -8266    -8139    -8035    -7986 
   -7944    -7834    -7625    -7399    -7192    -6931    -6660    -6485 
   -6403    -6368    -6339    -6287    -6233    -6198    -6186    -6219 
   -6307    -6395    -6430    -6463    -6574    -6786    -7120    -7502 
   -7783    -8045    -8405    -8710    -8805    -8709    -8553    -8433 
   -8295    -8094    -7880    -7646    -7346    -6992    -6670    -6468 
   -6370    -6315    -6313    -6385    -6509    -6664    -6815    -6901 
   -6937    -6947    -6886    -6777    -6692    -6613    -6485    -6334 
   -6285    -6388    -6529    -6592    -6556    -6435    -6245    -6055 
   -5985    -6082    -6262    -6421    -6546    -6643    -6719    -6810 
   -6927    -7052    -7112    -7043    -6901    -6753    -6576    -6391 
   -6252    -6171    -6201    -6372    -6545    -6661    -6856    -7129 
   -7322    -7362    -7322    -7315    -7371    -7448    -7475    -7381 
   -7217    -7101    -7000    -6848    -6752    -6790    -6881    -6958 
   -7019    -7008    -6889    -6725    -6574    -6408    -6213    -6026 
   -5896    -5858    -5847    -5773    -5683    -5662    -5720    -5767 
   -5652    -5377    -5105    -4932    -4844    -4801    -4783    -4801 
   -4841    -4845    -4806    -4749    -4662    -4546    -4417    -4319 
   -4354    -4462    -4499    -4518    -4573    -4610    -4644    -4752 
   -4918    -5004    -4928    -4762    -4579    -4417    -4341    -4353 
   -4401    -4472    -4552    -4687    -4931    -5195    -5387    -5483 
   -5509    -5541    -5569    -5598    -5706    -5838    -5924    -6020 
   -6105    -6082    -5935    -5736    -5559    -5403    -5244    -5110 
   -5048    -5066    -5110    -5166    -5239    -5268    -5243    -5184 
   -5102    -5025    -4934    -4807    -4644    -4467    -4306    -4175 
   -4100    -4078    -4101    -4198    -4365    -4518    -4613    -4692 
   -4741    -4729    -4773    -4944    -5066    -5051    -5043    -5079 
   -5027    -4913    -4896    -4959    -5012    -5025    -5015    -5021 
   -4996    -4899    -4757    -4589    -4435    -4350    -4353    -4398 
   -4439    -4517    -4685    -4961    -5327    -5688    -5958    -6145 
   -6278    -6371    -6438    -6462    -6420    -6345    -6306    -6293 
   -6195    -5955    -5629    -5342    -5197    -5156    -5165    -5246 
   -5377    -5511    -5646    -5795    -5949    -6019    -5935    -5782 
   -5644    -5459    -5145    -4772    -4459    -4212    -4002    -3881 
   -3913    -4044    -4202    -4378    -4489    -4492    -4487    -4482 
   -4431    -4355    -4271    -4291    -4484    -4692    -4796    -4825 
   -4767    -4628    -4482    -4358    -4205    -3935    -3574    -3281 
   -3123    -3073    -3100    -3149    -3150    -3047    -2860    -2626 
   -2330    -1977    -1601    -1288    -1093     -931     -745     -585 
    -472     -354     -231     -214     -338     -514     -682     -793 
    -831     -915    -1122    -1372    -1545    -1581    -1549    -1543 
   -1530    -1458    -1383    -1386    -1496    -1737    -2085    -2416 
   -2657    -2896    -3207    -3540    -3836    -4074    -4239    -4301 
   -4268    -4183    -4026    -3765    -3451    -3167    -3004    -2993 
   -3110    -3304    -3462    -3543    -3607    -3647    -3592    -3383 
   -3079    -2821    -2633    -2442    -2198    -1937    -1734    -1573 
   -1392    -1191    -1038     -979     -933     -811     -674     -570 
    -472     -399     -380     -423     -575     -835    -1071    -1093 
    -829     -447     -145      103      312      309       77     -214 
    -495     -798    -1146    -1526    -1877    -2126    -2301    -2514 
   -2792    -3028    -3107    -3028    -2859    -2680    -2552    -2373 
   -2087    -1899    -1870    -1790    -1643    -1569    -1579    -1606 
   -1609    -1631    -1748    -1877    -1918    -1902    -1820    -1659 
   -1458    -1225    -1014     -930     -963     -967     -880     -777 
    -731     -758     -775     -687     -551     -462     -423     -438 
    -566     -769     -944    -1051    -1058     -968     -860     -782 
    -776     -874    -1024    -1175    -1368    -1589    -1767    -1868 
   -1859    -1755    -1662    -1640    -1708    -1898    -2140    -2329 
   -2477    -2594    -2667    -2691    -2680    -2704    -2762    -2749 
   -2677    -2628    -2592    -2527    -2428    -2391    -2455    -2466 
   -2370    -2218    -1978    -1712    -1531    -1404    -1298    -1203 
   -1106    -1067    -1107    -1205    -1356    -1527    -1706    -1913 
   -2169    -2476    -2749    -2925    -3055    -3185    -3337    -3559 
   -3832    -4104    -4325    -4440    -4450    -4340    -4157    -4077 
   -4141    -4263    -4376    -4444    -4487    -4514    -4532    -4588 
   -4596    -4494    -4373    -4278    -4248    -4323    -4442    -4529 
   -4558    -4625    -4816    -5036    -5193    -5272    -5232    -5094 
   -4898    -4663    -4494    -4426    -4358    -4268    -4217    -4214 
   -4127    -3836    -3463    -3161    -2946    -2806    -2742    -2789 
   -2924    -3073    -3246    -3419    -3539    -3666    -3867    -4067 
   -4145    -4059    -3843    -3599    -3452    -3456    -3528    -3537 
   -3511    -3533    -3511    -3430    -3405    -3370    -3253    -3156 
   -3110    -3051    -2979    -2896    -2788    -2685    -2661    -2785 
   -3003    -3255    -3584    -3918    -4059    -3992    -3929    -4019 
   -4243    -4553    -4933    -5308    -5541    -5653    -5731    -5711 
   -5609    -5537    -5442    -5284    -5148    -5020    -4860    -4699 
   -4530    -4392    -4332    -4256    -4166    -4149    -4181    -4250 
   -4348    -4467    -4648    -4804    -4895    -5026    -5183    -5320 
   -5449    -5519    -5506    -5433    -5305    -5102    -4818    -4530 
   -4342    -4283    -4250    -4184    -4126    -4047    -3913    -3745 
   -3574    -3427    -3332    -3307    -3268    -3216    -3242    -3319 
   -3442    -3585    -3633    -3605    -3602    -3651    -3736    -3742 
   -3558    -3313    -3196    -3176    -3154    -3155    -3209    -3337 
   -3593    -3963    -4336    -4616    -4866    -5171    -5405    -5494 
   -5508    -5518    -5632    -5846    -6073    -6267    -6327    -6246 
   -6171    -6126    -6006    -5822    -5723    -5800    -5994    -6193 
   -6330    -6343    -6201    -5964    -5715    -5514    -5439    -5540 
   -5708    -5793    -5825    -5860    -5858    -5874    -5969    -6081 
   -6211    -6404    -6650    -6854    -6846    -6656    -6440    -6130 
   -5644    -5132    -4719    -4450    -4349    -4367    -4536    -4836 
   -5088    -5204    -5136    -4921    -4694    -4459    -4221    -4071 
   -4060    -4178    -4371    -4608    -4833    -4954    -4981    -5033 
   -5175    -5344    -5491    -5618    -5642    -5496    -5302    -5175 
   -5095    -5062    -5038    -4965    -4937    -5034    -5214    -5412 
   -5574    -5682    -5710    -5645    -5606    -5690    -5788    -5767 
   -5622    -5353    -5030    -4794    -4643    -4537    -4479    -4436 
   -4399    -4387    -4395    -4378    -4321    -4282    -4294    -4384 
   -4614    -4898    -5033    -4964    -4857    -4844    -4880    -4946 
   -5080    -5216    -5274    -5265    -5193    -5073    -5013    -5117 
   -5343    -5561    -5742    -5921    -6036    -6093    -6214    -6383 
   -6566    -6784    -6897    -6812    -6652    -6523    -6448    -6432 
   -6445    -6477    -6528    -6570    -6596    -6593    -6556    -6518 
   -6533    -6618    -6767    -6971    -7128    -7142    -7031    -6864 
   -6725    -6643    -6555    -6384    -6191    -6049    -5902    -5760 
   -5649    -5515    -5414    -5377    -5329    -5289    -5318    -5391 
   -5447    -5474    -5520    -5619    -5766    -5962    -6178    -6367 
   -6564    -6852    -7181    -7389    -7437    -7441    -7486    -7503 
   -7454    -7438    -7497    -7582    -7656    -7640    -7464    -7221 
   -7069    -7034    -7044    -7033    -6967    -6867    -6768    -6677 
   -6568    -6420    -6255    -6098    -5982    -5983    -6130    -6326 
   -6464    -6502    -6401    -6192    -6031    -6002    -6018    -6011 
   -6076    -6311    -6609    -6826    -6933    -6921    -6839    -6760 
   -6719    -6711    -6676    -6649    -6693    -6751    -6830    -6962 
   -7063    -7119    -7183    -7256    -7399    -7621    -7765    -7755 
   -7649    -7520    -7409    -7299    -7158    -6927    -6601    -6329 
   -6176    -6109    -6139    -6242    -6389    -6603    -6870    -7102 
   -7215    -7261    -7327    -7378    -7428    -7573    -7807    -8073 
   -8287    -8382    -8365    -8272    -8200    -8189    -8163    -8157 
   -8247    -8405    -8526    -8516    -8430    -8356    -8264    -8137 
   -8035    -8026    -8117    -8196    -8155    -8033    -7945    -7958 
   -8016    -8023    -8017    -8061    -8109    -8104    -8093    -8156 
   -8227    -8201    -8154    -8135    -8100    -8100    -8176    -8280 
   -8439    -8731    -9101    -9388    -9547    -9641    -9683    -9638 
   -9563    -9526    -9491    -9486    -9560    -9652    -9748    -9893 
  -10063   -10183   -10225   -10229   -10219   -10188   -10187   -10250 
  -10281   -10223   -10182   -10164   -10060    -9885    -9725    -9614 
   -9576    -9629    -9726    -9800    -9828    -9806    -9741    -9650 
   -9579    -9577    -9663    -9821    -9957    -9987    -9891    -9653 
   -9348    -9120    -8977    -8857    -8771    -8752    -8780    -8778 
