Origin Time       2011/03/11 14:46:00
Lat.              38.103
Long.             142.860
Depth. (km)       24
Mag.              9.0
Station Code      HKD179
Station Lat.      43.2236
Station Long.     141.5175
Station Height(m) 15
Record Time       2011/03/11 14:48:22
Sampling Freq(Hz) 100Hz
Duration Time(s)  300
Dir.              N-S
Scale Factor      3920(gal)/6182761
Max. Acc. (gal)   12.908
Last Correction   2011/03/11 14:48:07
Memo.             
[...]
  -23861   -24172   -24404   -24505   -24477   -24417   -24371   -24241 
  -23942   -23472   -22815   -21963   -20989   -19991   -19019   -18092 
  -17221   -16403   -15651   -14991   -14451   -14040   -13779   -13694 
  -13744   -13829   -13848   -13732   -13483   -13167   -12845   -12550 
  -12312   -12139   -12031   -11966   -11885   -11782   -11737   -11798 
  -11927   -12077   -12226   -12402   -12678   -13079   -13566   -14094 
  -14609   -15064   -15436   -15682   -15757   -15709   -15629   -15522 
  -15328   -15030   -14678   -14326   -13985   -13642   -13295   -12972 
  -12760   -12741   -12910   -13204   -13569   -14001   -14487   -14974 
  -15456   -16003   -16636   -17300   -17971   -18654   -19337   -20024 
  -20727   -21422   -22101   -22802   -23501   -24113   -24607   -25015 
  -25394   -25804   -26243   -26629   -26864   -26867   -26654   -26345 
  -26024   -25688   -25327   -24936   -24520   -24096   -23651   -23168 
  -22639   -22037   -21326   -20499   -19574   -18548   -17400   -16162 
  -14907   -13702   -12621   -11707   -10967   -10435   -10140   -10054 
  -10088   -10141   -10204   -10327   -10489   -10627   -10751   -10933 
  -11214   -11580   -12009   -12448   -12862   -13276   -13658   -13845 
  -13730   -13368   -12857   -12252   -11606   -11009   -10556   -10292 
  -10198   -10214   -10261   -10285   -10319   -10406   -10470   -10400 
  -10188    -9851    -9420    -8996    -8670    -8469    -8385    -8366 
   -8358    -8313    -8209    -8101    -8084    -8206    -8458    -8834 
   -9328    -9911   -10567   -11302   -12121   -13030   -14006   -15022 
  -16089   -17215   -18393   -19641   -20936   -22202   -23345   -24313 
  -25142   -25907   -26616   -27195   -27576   -27768   -27818   -27763 
  -27651   -27575   -27587   -27611   -27517   -27237   -26756   -26071 
  -25248   -24404   -23620   -22898   -22190   -21482   -20808   -20193 
  -19653   -19185   -18755   -18342   -17935   -17493   -16984   -16446 
  -15988   -15708   -15616   -15670   -15832   -16036   -16279   -16662 
  -17238   -17901   -18510   -18994   -19325   -19492   -19537   -19521 
  -19472   -19388   -19259   -19080   -18844   -18548   -18246   -18045 
  -17977   -17991   -18058   -18118   -18044   -17778   -17365   -16848 
  -16225   -15516   -14821   -14219   -13681   -13178   -12735   -12341 
  -11939   -11524   -11117   -10701   -10253    -9799    -9404    -9098 
   -8832    -8553    -8252    -7939    -7677    -7570    -7670    -7942 
   -8313    -8744    -9263    -9897   -10637   -11460   -12370   -13383 
  -14478   -15579   -16627   -17624   -18596   -19573   -20525   -21324 
  -21865   -22145   -22173   -21917   -21356   -20530   -19525   -18397 
  -17157   -15850   -14571   -13390   -12362   -11571   -11073   -10860 
  -10888   -11100   -11408   -11723   -12007   -12254   -12418   -12413 
  -12209   -11892   -11570   -11304   -11116   -10993   -10910   -10846 
  -10790   -10767   -10797   -10846   -10914   -11078   -11389   -11866 
  -12508   -13230   -13890   -14461   -15035   -15628   -16125   -16431 
  -16566   -16592   -16547   -16464   -16375   -16253   -16081   -15928 
  -15867   -15887   -15959   -16096   -16325   -16647   -17049   -17512 
  -18004   -18499   -18987   -19431   -19748   -19889   -19862   -19673 
  -19334   -18876   -18335   -17772   -17242   -16729   -16193   -15635 
  -15073   -14555   -14150   -13897   -13782   -13759   -13797   -13915 
  -14113   -14335   -14544   -14728   -14858   -14920   -14890   -14711 
  -14378   -13952   -13499   -13027   -12486   -11875   -11250   -10654 
  -10112    -9640    -9223    -8850    -8569    -8439    -8449    -8568 
   -8805    -9158    -9586   -10070   -10571   -11004   -11345   -11652 
  -11960   -12246   -12488   -12710   -12939   -13172   -13414   -13668 
  -13915   -14152   -14389   -14620   -14819   -14948   -14981   -14903 
  -14671   -14274   -13811   -13389   -13050   -12818   -12717   -12742 
  -12900   -13231   -13734   -14329   -14895   -15379   -15847   -16350 
  -16846   -17297   -17719   -18125   -18531   -18970   -19430   -19849 
  -20207   -20550   -20914   -21258   -21531   -21725   -21814   -21730 
  -21481   -21161   -20822   -20439   -20019   -19608   -19189   -18691 
  -18103   -17475   -16830   -16182   -15574   -15047   -14606   -14227 
  -13881   -13595   -13455   -13542   -13843   -14259   -14723   -15225 
  -15737   -16209   -16623   -16967   -17168   -17143   -16892   -16451 
  -15812   -14967   -13978   -12960   -11974   -10984    -9923    -8761 
   -7538    -6356    -5289    -4358    -3587    -3005    -2604    -2336 
   -2157    -2055    -2045    -2147    -2351    -2598    -2808    -2956 
   -3123    -3418    -3875    -4458    -5096    -5718    -6311    -6913 
   -7551    -8243    -8977    -9709   -10438   -11201   -12000   -12799 
  -13549   -14210   -14759   -15178   -15452   -15588   -15612   -15584 
  -15578   -15604   -15644   -15750   -15964   -16237   -16503   -16736 
  -16968   -17233   -17509   -17771   -18033   -18289   -18525   -18763 
  -19028   -19332   -19644   -19917   -20176   -20498   -20931   -21493 
  -22168   -22895   -23632   -24368   -25043   -25576   -25992   -26394 
  -26808   -27151   -27327   -27331   -27224   -27057   -26830   -26521 
  -26144   -25762   -25470   -25352   -25380   -25455   -25536   -25642 
  -25751   -25783   -25685   -25453   -25081   -24565   -23950   -23292 
  -22584   -21788   -20965   -20197   -19429   -18622   -17870   -17219 
  -16613   -16044   -15530   -15027   -14527   -14074   -13671   -13268 
  -12790   -12211   -11579   -10936   -10341    -9862    -9453    -9035 
   -8675    -8460    -8350    -8240    -8075    -7876    -7693    -7527 
   -7387    -7330    -7371    -7472    -7647    -7912    -8174    -8340 
   -8449    -8599    -8830    -9141    -9546   -10022   -10488   -10914 
  -11350   -11819   -12285   -12733   -13200   -13709   -14258   -14875 
  -15545   -16136   -16602   -17043   -17494   -17839   -17969   -17895 
  -17688   -17379   -16961   -16483   -15997   -15474   -14883   -14246 
  -13572   -12862   -12159   -11466   -10715    -9847    -8859    -7826 
   -6881    -6104    -5459    -4924    -4564    -4417    -4416    -4471 
   -4600    -4883    -5318    -5843    -6433    -7043    -7655    -8325 
   -9062    -9769   -10393   -10978   -11560   -12090   -12498   -12789 
  -13027   -13256   -13497   -13736   -13871   -13805   -13562   -13219 
  -12832   -12402   -11865   -11186   -10422    -9664    -9000    -8483 
   -8108    -7867    -7760    -7742    -7796    -7957    -8281    -8840 
   -9646   -10595   -11584   -12616   -13762   -15073   -16502   -17936 
  -19287   -20499   -21567   -22564   -23558   -24516   -25348   -25994 
  -26409   -26552   -26457   -26238   -25993   -25733   -25413   -25018 
  -24591   -24150   -23677   -23168   -22653   -22167   -21726   -21364 
  -21099   -20877   -20640   -20389   -20147   -19940   -19782   -19654 
  -19552   -19527   -19653   -19981   -20490   -21074   -21606   -22004 
  -22268   -22443   -22555   -22581   -22514   -22366   -22125   -21813 
  -21489   -21138   -20720   -20251   -19741   -19199   -18681   -18225 
  -17841   -17515   -17203   -16880   -16562   -16260   -15934   -15521 
  -14988   -14339   -13615   -12904   -12283   -11775   -11418   -11239 
  -11185   -11190   -11222   -11249   -11253   -11236   -11216   -11253 
  -11378   -11546   -11725   -11905   -12050   -12173   -12309   -12415 
  -12453   -12459   -12474   -12538   -12687   -12917   -13160   -13330 
  -13409   -13460   -13517   -13551   -13530   -13437   -13249   -12983 
  -12709   -12465   -12244   -12054   -11916   -11810   -11690   -11589 
  -11567   -11568   -11477   -11308   -11193   -11216   -11312   -11364 
  -11345   -11306   -11295   -11371   -11577   -11892   -12295   -12802 
  -13360   -13854   -14268   -14685   -15155   -15683   -16258   -16851 
  -17414   -17892   -18266   -18581   -18870   -19125   -19348   -19542 
  -19694   -19781   -19778   -19665   -19428   -19094   -18726   -18355 
  -17975   -17592   -17237   -16965   -16796   -16707   -16729   -16929 
  -17296   -17772   -18303   -18827   -19323   -19811   -20307   -20821 
  -21343   -21851   -22328   -22722   -22952   -23018   -23015   -23004 
  -22966   -22851   -22622   -22230   -21657   -20948   -20182   -19428 
  -18708   -18008   -17311   -16582   -15786   -14921   -14029   -13169 
  -12380   -11708   -11246   -11046   -11036   -11099   -11179   -11260 
  -11327   -11384   -11417   -11371   -11208   -10936   -10575   -10154 
   -9746    -9457    -9335    -9370    -9555    -9856   -10190   -10511 
  -10807   -11041   -11209   -11330   -11370   -11300   -11141   -10917 
  -10666   -10426   -10217   -10068    -9989    -9942    -9888    -9775 
   -9561    -9303    -9099    -8990    -8960    -8998    -9117    -9324 
   -9585    -9887   -10264   -10763   -11401   -12146   -12897   -13529 
  -13970   -14233   -14360   -14342   -14141   -13797   -13430   -13117 
  -12827   -12523   -12262   -12139   -12171   -12270   -12352   -12392 
  -12368   -12264   -12098   -11887   -11639   -11396   -11177   -10929 
  -10616   -10271    -9944    -9663    -9460    -9367    -9358    -9390 
   -9468    -9622    -9884   -10292   -10827   -11403   -11938   -12384 
  -12752   -13118   -13519   -13954   -14477   -15103   -15742   -16343 
  -16902   -17395   -17820   -18178   -18428   -18554   -18571   -18483 
  -18314   -18103   -17854   -17590   -17349   -17136   -16924   -16637 
  -16177   -15539   -14786   -13954   -13098   -12321   -11653   -11067 
  -10571   -10193    -9948    -9842    -9854    -9958   -10156   -10422 
  -10703   -11001   -11338   -11665   -11952   -12270   -12686   -13198 
  -13782   -14428   -15124   -15849   -16563   -17217   -17788   -18257 
  -18571   -18712   -18708   -18552   -18250   -17839   -17297   -16594 
  -15749   -14800   -13805   -12831   -11878   -10945   -10074    -9287 
   -8574    -7908    -7290    -6780    -6415    -6166    -6010    -5999 
   -6205    -6684    -7446    -8418    -9472   -10481   -11335   -11979 
  -12391   -12571   -12579   -12504   -12421   -12382   -12384   -12380 
  -12374   -12439   -12602   -12819   -13049   -13273   -13485   -13658 
  -13756   -13803   -13823   -13816   -13813   -13844   -13913   -14048 
  -14298   -14685   -15189   -15755   -16358   -17041   -17853   -18807 
  -19882   -21010   -22096   -23080   -23953   -24745   -25494   -26220 
  -26962   -27750   -28510   -29126   -29556   -29800   -29828   -29614 
  -29208   -28743   -28308   -27897   -27499   -27110   -26695   -26230 
  -25709   -25130   -24512   -23870   -23222   -22603   -22040   -21561 
  -21197   -20948   -20759   -20557   -20289   -19944   -19540   -19082 
  -18580   -18085   -17628   -17232   -16961   -16822   -16732   -16611 
  -16424   -16206   -16022   -15874   -15702   -15457   -15160   -14874 
  -14618   -14347   -14014   -13619   -13185   -12748   -12353   -12063 
  -11932   -11977   -12147   -12318   -12375   -12318   -12269   -12366 
  -12641   -13010   -13374   -13682   -13935   -14139   -14327   -14606 
  -15075   -15726   -16492   -17301   -18052   -18627   -18959   -19089 
  -19147   -19234   -19388   -19545   -19553   -19343   -18975   -18523 
  -18028   -17522   -16994   -16409   -15776   -15110   -14425   -13747 
  -13039   -12244   -11391   -10553    -9758    -9027    -8400    -7893 
   -7473    -7091    -6720    -6361    -6021    -5716    -5497    -5419 
   -5483    -5662    -5934    -6274    -6643    -7052    -7586    -8323 
   -9250   -10271   -11282   -12184   -12889   -13390   -13780   -14136 
  -14461   -14741   -14950   -15039   -14974   -14796   -14597   -14412 
  -14239   -14110   -14059   -14036   -13964   -13851   -13761   -13714 
  -13674   -13599   -13503   -13435   -13435   -13501   -13599   -13733 
  -13920   -14134   -14328   -14471   -14593   -14764   -14985   -15179 
  -15291   -15298   -15220   -15118   -15009   -14901   -14827   -14761 
  -14656   -14529   -14429   -14401   -14452   -14529   -14580   -14616 
  -14649   -14680   -14741   -14822   -14887   -14936   -14926   -14819 
  -14683   -14601   -14565   -14533   -14499   -14490   -14529   -14601 
  -14672   -14745   -14856   -15004   -15142   -15226   -15303   -15501 
  -15834   -16188   -16522   -16885   -17279   -17647   -17982   -18331 
  -18675   -18945   -19139   -19264   -19254   -19092   -18885   -18726 
  -18640   -18625   -18657   -18706   -18801   -19010   -19299   -19533 
  -19623   -19550   -19305   -18975   -18696   -18500   -18336   -18202 
  -18140   -18157   -18209   -18281   -18424   -18636   -18813   -18891 
  -18910   -18864   -18721   -18510   -18235   -17845   -17342   -16775 
  -16198   -15632   -15050   -14458   -13887   -13302   -12669   -12030 
  -11384   -10688    -9976    -9317    -8723    -8205    -7774    -7373 
   -6905    -6316    -5667    -5080    -4557    -4052    -3618    -3325 
   -3153    -3044    -2974    -2964    -3023    -3126    -3265    -3457 
   -3703    -3982    -4290    -4621    -4930    -5186    -5420    -5671 
   -5945    -6241    -6597    -7029    -7488    -7918    -8311    -8653 
   -8888    -8988    -8975    -8898    -8817    -8780    -8830    -9030 
   -9406    -9902   -10384   -10712   -10873   -10970   -11074   -11192 
  -11350   -11610   -11993   -12459   -12974   -13524   -14083   -14661 
  -15297   -15980   -16695   -17496   -18443   -19484   -20509   -21437 
  -22241   -22920   -23476   -23968   -24522   -25214   -26048   -27027 
  -28105   -29180   -30185   -31104   -31927   -32670   -33368   -34026 
  -34586   -34964   -35131   -35149   -35102   -34996   -34788   -34456 
  -33990   -33423   -32853   -32326   -31766   -31084   -30264   -29359 
  -28451   -27562   -26625   -25588   -24459   -23289   -22123   -20965 
  -19787   -18568   -17310   -16042   -14833   -13770   -12916   -12283 
  -11845   -11573   -11492   -11664   -12070   -12590   -13138   -13700 
  -14260   -14814   -15377   -15900   -16280   -16483   -16525   -16447 
  -16353   -16329   -16378   -16498   -16678   -16894   -17162   -17478 
  -17772   -18024   -18230   -18298   -18131   -17756   -17222   -16535 
  -15731   -14918   -14232   -13750   -13453   -13263   -13095   -12895 
  -12674   -12483   -12363   -12370   -12544   -12840   -13166   -13480 
  -13835   -14331   -14965   -15621   -16230   -16772   -17182   -17424 
  -17558   -17615   -17558   -17405   -17214   -16981   -16708   -16466 
  -16290   -16167   -16149   -16281   -16494   -16657   -16649   -16407 
  -15919   -15204   -14317   -13374   -12478   -11691   -11067   -10629 
  -10356   -10260   -10328   -10493   -10709   -10935   -11111   -11238 
  -11331   -11336   -11189   -10898   -10533   -10181    -9869    -9596 
   -9425    -9383    -9400    -9430    -9467    -9478    -9452    -9419 
   -9386    -9309    -9162    -8978    -8793    -8604    -8430    -8327 
   -8287    -8268    -8304    -8444    -8640    -8812    -8940    -9081 
   -9317    -9681   -10126   -10610   -11104   -11548   -11907   -12153 
  -12204   -12050   -11773   -11425   -11031   -10628   -10253    -9901 
   -9539    -9154    -8762    -8403    -8165    -8135    -8325    -8681 
   -9146    -9701   -10330   -10985   -11628   -12269   -12902   -13476 
  -13980   -14459   -14956   -15469   -15965   -16438   -16903   -17358 
  -17836   -18419   -19150   -19989   -20872   -21743   -22544   -23210 
  -23701   -24034   -24241   -24319   -24253   -24058   -23750   -23326 
  -22786   -22155   -21496   -20932   -20587   -20464   -20463   -20500 
  -20537   -20528   -20445   -20350   -20347   -20471   -20684   -20937 
  -21179   -21345   -21408   -21400   -21356   -21271   -21120   -20878 
  -20486   -19893   -19178   -18495   -17885   -17299   -16703   -16096 
  -15500   -14929   -14408   -14032   -13843   -13763   -13748   -13771 
  -13740   -13601   -13352   -12975   -12514   -12047   -11589   -11138 
  -10717   -10327    -9944    -9561    -9180    -8859    -8738    -8923 
   -9382    -9992   -10624   -11239   -11858   -12471   -13023   -13483 
  -13844   -14098   -14244   -14308   -14307   -14206   -13956   -13526 
  -12890   -12046   -11056   -10051    -9173    -8499    -8007    -7608 
   -7182    -6633    -5950    -5189    -4378    -3553    -2805    -2176 
   -1572     -885     -109      667     1374     2038     2692     3292 
    3802     4247     4651     5005     5272     5398     5375     5238 
    4989     4616     4113     3482     2742     1937     1117      334 
    -386    -1040    -1617    -2125    -2624    -3129    -3621    -4118 
   -4629    -5122    -5605    -6104    -6607    -7107    -7621    -8139 
   -8642    -9130    -9625   -10147   -10652   -11082   -11446   -11788 
  -12122   -12447   -12772   -13133   -13583   -14157   -14867   -15695 
  -16605   -17599   -18679   -19770   -20777   -21633   -22311   -22872 
  -23355   -23724   -24007   -24275   -24551   -24837   -25128   -25402 
  -25664   -25939   -26229   -26541   -26883   -27224   -27543   -27867 
  -28195   -28488   -28745   -28969   -29126   -29222   -29302   -29352 
  -29332   -29254   -29151   -29022   -28850   -28624   -28354   -28085 
  -27892   -27872   -28083   -28465   -28914   -29370   -29798   -30180 
  -30535   -30865   -31118   -31229   -31165   -30936   -30597   -30245 
  -29958   -29721   -29441   -29030   -28431   -27623   -26623   -25487 
  -24289   -23060   -21803   -20544   -19283   -17971   -16579   -15111 
  -13575   -11992   -10456    -9089    -7943    -7003    -6243    -5621 
   -5063    -4515    -3974    -3444    -2901    -2324    -1726    -1184 
    -807     -604     -481     -390     -339     -314     -292     -267 
    -257     -257     -238     -187     -121      -54        2        4 
    -101     -314     -619    -1039    -1612    -2330    -3149    -4050 
   -5027    -6056    -7108    -8191    -9331   -10526   -11753   -12973 
  -14139   -15232   -16244   -17154   -17989   -18781   -19491   -20075 
  -20524   -20862   -21133   -21390   -21704   -22126   -22621   -23122 
  -23578   -23922   -24109   -24187   -24261   -24416   -24661   -24911 
  -25046   -24983   -24712   -24307   -23873   -23458   -23089   -22824 
  -22692   -22645   -22603   -22530   -22432   -22313   -22178   -22052 
  -21950   -21866   -21804   -21777   -21781   -21771   -21668   -21416 
  -21039   -20601   -20163   -19791   -19503   -19199   -18805   -18385 
  -18010   -17724   -17622   -17750   -18039   -18421   -18817   -19120 
  -19266   -19245   -19070   -18790   -18471   -18165   -17913   -17715 
  -17522   -17313   -17106   -16921   -16780   -16703   -16678   -16660 
  -16605   -16498   -16313   -15981   -15489   -14886   -14255   -13688 
  -13208   -12765   -12342   -11926   -11490   -11020   -10494    -9903 
   -9268    -8602    -7932    -7310    -6758    -6302    -6023    -6003 
   -6281    -6860    -7679    -8616    -9590   -10585   -11594   -12576 
  -13447   -14165   -14782   -15300   -15655   -15866   -16023   -16191 
  -16411   -16696   -17025   -17361   -17659   -17854   -17885   -17719 
  -17320   -16690   -15920   -15129   -14417   -13873   -13527   -13369 
  -13363   -13452   -13605   -13826   -14118   -14463   -14814   -15117 
  -15332   -15470   -15611   -15823   -16056   -16210   -16233   -16120 
  -15917   -15713   -15567   -15487   -15476   -15551   -15711   -15921 
  -16160   -16433   -16681   -16793   -16737   -16599   -16443   -16291 
  -16170   -16076   -15962   -15792   -15559   -15273   -14909   -14419 
