Origin Time       2011/03/11 14:46:00
Lat.              38.103
Long.             142.860
Depth. (km)       24
Mag.              9.0
Station Code      HKD157
Station Lat.      41.9053
Station Long.     140.9698
Station Height(m) 37
Record Time       2011/03/11 14:47:47
Sampling Freq(Hz) 100Hz
Duration Time(s)  278
Dir.              E-W
Scale Factor      3920(gal)/6182761
Max. Acc. (gal)   11.207
Last Correction   2011/03/11 14:47:32
Memo.             
[...]
   -7036    -6980    -7827    -8973    -9922   -10595   -11054   -11246 
  -11075   -10521    -9686    -8795    -8025    -7416    -7085    -7144 
   -7448    -7835    -8324    -8872    -9397    -9880   -10211   -10310 
  -10165    -9537    -8364    -7221    -6613    -6436    -6408    -6404 
   -6573    -7225    -8252    -9080    -9348    -9194    -9121    -9615 
  -10483   -10971   -10724    -9982    -9114    -8355    -7630    -6837 
   -6311    -6372    -6838    -7433    -8200    -9376   -10966   -12499 
  -13437   -13706   -13515   -12908   -11886   -10689    -9655    -9000 
   -8813    -9063    -9518    -9799    -9658    -9189    -8655    -8141 
   -7548    -6861    -6268    -5971    -5926    -6040    -6587    -7948 
  -10082   -12455   -14290   -15016   -14621   -13490   -12056   -10531 
   -8817    -6961    -5481    -4809    -4870    -5434    -6301    -7329 
   -8511    -9600   -10092    -9953    -9720    -9738    -9831    -9625 
   -9069    -8629    -8737    -9277    -9897   -10455   -11015   -11697 
  -12440   -12924   -12938   -12703   -12690   -13187   -14026   -14786 
  -15171   -15089   -14458   -13147   -11329    -9532    -8103    -7085 
   -6490    -6326    -6769    -8102   -10146   -12180   -13459   -13701 
  -13210   -12425   -11513   -10500    -9443    -8418    -7362    -6115 
   -4818    -3867    -3536    -4050    -5491    -7656   -10347   -13204 
  -15429   -16335   -15836   -14383   -12576   -10644    -8597    -6677 
   -5257    -4612    -4810    -5623    -6708    -7815    -8845    -9872 
  -10905   -11723   -12067   -11847   -11337   -10964   -10667   -10039 
   -8954    -7566    -6335    -5922    -6390    -7185    -8003    -8897 
   -9882   -10747   -11021   -10492    -9596    -8737    -7810    -6829 
   -6202    -6138    -6292    -6152    -5768    -5739    -6285    -7001 
   -7488    -7688    -7852    -8285    -8965    -9481    -9397    -8818 
   -8408    -8648    -9501   -10774   -12364   -14304   -16541   -18569 
  -19733   -19851   -19200   -18129   -16703   -14826   -12821   -11254 
  -10366   -10231   -10751   -11418   -11753   -11631   -11033    -9876 
   -8181    -6375    -5179    -4957    -5411    -6055    -6771    -7807 
   -9148   -10176   -10329    -9677    -8612    -7464    -6343    -5300 
   -4619    -4497    -4781    -5495    -6876    -8643   -10042   -10681 
  -10803   -10742   -10525   -10152    -9736    -9208    -8404    -7404 
   -6539    -6234    -6616    -7228    -7529    -7440    -7094    -6539 
   -5877    -5364    -5365    -6066    -7108    -7981    -8632    -9114 
   -9077    -7955    -5527    -2417      183     1487     1373      -87 
   -2731    -6271   -10276   -13917   -16301   -17286   -17310   -16550 
  -14802   -12098    -9248    -7480    -7331    -8199    -9109    -9691 
  -10445   -11963   -14027   -16035   -17767   -19035   -19412   -18630 
  -16795   -14412   -12169   -10340    -8903    -8162    -8448    -9447 
  -10397   -10788   -10653   -10408   -10474   -10793   -10800   -10052 
   -8656    -7045    -5544    -4289    -3354    -2842    -2925    -3488 
   -3978    -4139    -4453    -5504    -7157    -8671    -9697   -10705 
  -12193   -13964   -15352   -15849   -15371   -14182   -12570   -10572 
   -8249    -6060    -4613    -4111    -4210    -4474    -4976    -6159 
   -8075   -10241   -12184   -13637   -14432   -14475   -13691   -12239 
  -10777    -9952    -9806   -10255   -11622   -13953   -16488   -18317 
  -18949   -18352   -16973   -15320   -13377   -10792    -7487    -4079 
   -1808    -1648    -3578    -6938   -10903   -14593   -17256   -18384 
  -17820   -15936   -13414   -10755    -8168    -5861    -4225    -3642 
   -4126    -5247    -6496    -7665    -8670    -9125    -8436    -6424 
   -3626    -1111      -39     -967    -3515    -6780    -9730   -11395 
  -11442   -10398    -8964    -7446    -5895    -4583    -4202    -5240 
   -7326    -9643   -11574   -12826   -13417   -13406   -12545   -10641 
   -8159    -6072    -5082    -5244    -6255    -7809    -9649   -11325 
  -12199   -12058   -11386   -10804   -10561   -10500   -10433   -10495 
  -10938   -11766   -12670   -13103   -12745   -11971   -11376   -10952 
  -10226    -9098    -8126    -7849    -8116    -8415    -8527    -8828 
  -10205   -13273   -17412   -21000   -22686   -22128   -19723   -16173 
  -12170    -8237    -4826    -2289     -825     -475    -1089    -2438 
   -4189    -5797    -6876    -7551    -8104    -8474    -8442    -7997 
   -7266    -6477    -5955    -5825    -5855    -5727    -5540    -5722 
   -6325    -7130    -8319   -10190   -12421   -14207   -14844   -14193 
  -12861   -11579   -10521    -9700    -9473   -10121   -11290   -12210 
  -12300   -11453    -9987    -8508    -7866    -8975   -12079   -16179 
  -19601   -21046   -20145   -17337   -13258    -8387    -3377      920 
    3758     4336     2040    -2684    -8376   -13494   -17067   -18941 
  -19410   -18581   -16608   -14189   -12107   -10646    -9602    -8579 
   -7641    -7460    -8276    -9381    -9937    -9661    -8917    -8338 
   -8194    -8416    -9001    -9852   -10693   -11391   -11983   -12610 
  -13360   -13784   -13099   -11171    -8564    -5712    -2585      783 
    3488     4115     2399     -169    -1867    -2357    -2519    -3225 
   -4612    -6123    -7091    -7367    -7276    -7079    -6814    -6531 
   -6302    -6114    -6031    -6323    -7219    -8657   -10364   -12000 
  -13178   -13588   -13231   -12368   -11232    -9918    -8411    -6700 
   -5129    -4431    -5136    -7247   -10451   -14181   -17640   -19993 
  -20604   -19557   -17642   -15372   -12675    -9704    -7319    -6541 
   -7643    -9950   -12313   -13598   -13253   -11628    -9462    -7281 
   -5498    -4345    -3580    -3076    -3333    -4829    -7403   -10213 
  -12102   -12595   -12359   -12142   -11821   -10959    -9602    -8173 
   -6899    -5451    -3446    -1302      -56     -325    -1803    -3728 
   -5646    -7566    -9448   -10881   -11433   -11152   -10419    -9371 
   -7855    -6037    -4554    -4024    -4512    -5334    -5721    -5832 
   -6613    -8667   -11598   -14360   -16094   -16545   -15841   -14297 
  -12254    -9985    -7989    -6902    -6881    -7606    -8626    -9400 
   -9577    -9388    -9343    -9712   -10394   -10924   -10780   -10074 
   -9624   -10120   -11316   -12189   -11940   -10619    -8901    -7473 
   -6409    -5314    -4099    -3030    -2200    -1631    -1675    -2788 
   -5129    -8245   -10956   -12212   -12039   -11205   -10545   -10633 
  -11358   -12110   -12548   -12712   -12754   -12886   -13113   -13086 
  -12403   -10857    -8672    -6426    -4441    -2629     -946      396 
    1041      809     -119    -1536    -3443    -5695    -7825    -9378 
  -10338   -11111   -11961   -12529   -12194   -10920    -9346    -8042 
   -7347    -7649    -9006   -10926   -12733   -13734   -13497   -12201 
  -10248    -7951    -5793    -4215    -3384    -3468    -4368    -5528 
   -6570    -7528    -8373    -8878    -8889    -8544    -8316    -8741 
   -9936   -11420   -12536   -12966   -12869   -12538   -11900   -10499 
   -8079    -5183    -3050    -2524    -3191    -3933    -4057    -3842 
   -4274    -5984    -8617   -11456   -13959   -15643   -16102   -15114 
  -12605    -8819    -4496     -765     1320     1449       67    -2224 
   -4757    -6851    -8260    -9167    -9859   -10614   -11428   -11810 
  -11344   -10235    -8875    -7479    -6396    -5941    -5911    -5892 
   -5779    -5759    -6114    -7055    -8554   -10348   -12158   -13693 
  -14567   -14559   -13601   -11569    -8737    -6043    -4433    -4334 
   -5559    -7393    -9204   -10931   -12678   -14240   -15181   -15003 
  -13360   -10503    -7249    -4448    -2591    -1635    -1274    -1439 
   -2229    -3625    -5453    -7285    -8607    -9279    -9620    -9930 
  -10173   -10101    -9385    -7812    -5537    -3056     -972      145 
    -172    -2047    -5104    -8739   -12286   -14823   -15448   -14098 
  -11607    -9040    -7318    -6849    -7266    -7913    -8349    -8585 
   -9263   -10989   -13329   -15226   -16153   -16327   -16248   -16107 
  -15540   -14416   -13326   -12579   -11710   -10372    -8715    -7343 
   -7170    -8358   -10077   -11701   -12968   -13771   -14526   -15505 
  -16159   -15664   -13402    -9543    -5588    -3194    -2674    -3351 
   -4596    -6245    -8534   -11540   -14772   -17460   -18869   -18567 
  -16695   -13669    -9988    -6607    -4462    -3748    -4381    -6088 
   -7996    -9222    -9449    -8820    -7927    -7521    -7737    -7948 
   -7601    -6533    -4695    -2530     -905     -282     -743    -2159 
   -4246    -6997   -10168   -12754   -14147   -14759   -14937   -14523 
  -13490   -12265   -11352   -10765   -10087    -9172    -8595    -9078 
  -10531   -12175   -13384   -14075   -14383   -14154   -13081   -11340 
   -9737    -8857    -8188    -6802    -4862    -3747    -4650    -7255 
   -9909   -11416   -12168   -12813   -12745   -10791    -6887    -2572 
     415     1774     2331     2608     2469     1836      984      165 
    -688    -2058    -4401    -7477   -10661   -13518   -15598   -16367 
  -15471   -12709    -8187    -2901     1247     2606      899    -2876 
   -7387   -11724   -15550   -18764   -20997   -21539   -19983   -16828 
  -13149    -9726    -6817    -4724    -4013    -5109    -7735   -10790 
  -13146   -14476   -15103   -15413   -15526   -15266   -14337   -12621 
  -10360    -8045    -6157    -4932    -4279    -3821    -3318    -3199 
   -4104    -5932    -8052   -10075   -11907   -13380   -14217   -14248 
  -13459   -12002   -10219    -8479    -7195    -6781    -7440    -9299 
  -12194   -15471   -18586   -21251   -23027   -23345   -21921   -19187 
  -15915   -12554    -9357    -6723    -5302    -5563    -6970    -8337 
   -9112    -9592   -10112   -10436    -9796    -7787    -5281    -3614 
   -3239    -3767    -4446    -4792    -5071    -5454    -5692    -5864 
   -6252    -7068    -8337    -9365    -9305    -8404    -7585    -7244 
   -7128    -7046    -7340    -8514   -10484   -12487   -13841   -14524 
  -14868   -15080   -15004   -14284   -13153   -12379   -12216   -12300 
  -12305   -12215   -12283   -12571   -12681   -12485   -12396   -12443 
  -12089   -11191   -10309    -9969   -10252   -10944   -11471   -11221 
  -10299    -9309    -8539    -7835    -6946    -5894    -5125    -5079 
   -5746    -6927    -8704   -11173   -13708   -15087   -14714   -13178 
  -11457   -10230    -9838   -10343   -11528   -12865   -13684   -13624 
  -12943   -12210   -11515   -10486    -9137    -7884    -6924    -6160 
   -5282    -3923    -2127     -445      504      501     -131    -1020 
   -2362    -4705    -8045   -11476   -13745   -14043   -12558   -10277 
   -8281    -7173    -6723    -6297    -6091    -7027    -9195   -11491 
  -12809   -12877   -12163   -11373   -10930   -10775   -10587    -9954 
   -8579    -6804    -5738    -6390    -8538   -10772   -12067   -12708 
  -13292   -13750   -13502   -12093    -9648    -6781    -4308    -3001 
   -3145    -4414    -6312    -8511   -10853   -13151   -14997   -15911 
  -15766   -14886   -13622   -12079   -10461    -9348    -9161    -9594 
  -10007   -10155   -10315   -10856   -11661   -12236   -12442   -12491 
  -12300   -11615   -10545    -9416    -8378    -7459    -6760    -6344 
   -6124    -6116    -6458    -7292    -9071   -12044   -15300   -17626 
  -18599   -18227   -16733   -14474   -11707    -8882    -6535    -4876 
   -4143    -4742    -6788    -9853   -13084   -15622   -16840   -16235 
  -13680    -9643    -5072    -1168     1255     1952      784    -2133 
   -6290   -10874   -14595   -16450   -16626   -16020   -15456   -15263 
  -15218   -15092   -14733   -13818   -12106    -9540    -6434    -3661 
   -1963    -1449    -1945    -3294    -5280    -7544    -9547   -10897 
  -11855   -12813   -13495   -13328   -12118   -10205    -8274    -7173 
   -7507    -8820    -9919   -10250   -10124   -10080   -10546   -11543 
  -12846   -14362   -15722   -16131   -15027   -12585    -9690    -7345 
   -6212    -6702    -8855   -12014   -15035   -17104   -18267   -19177 
  -20274   -21250   -21582   -21028   -19265   -16024   -11521    -6398 
   -1742     1347     2499     1909       51    -2165    -3984    -5651 
   -8039   -11503   -15216   -17831   -18717   -18154   -16844   -15540 
  -14671   -14222   -13995   -13858   -13550   -12588   -10853    -8895 
   -7452    -6940    -7191    -7634    -7901    -8064    -8272    -8422 
   -8571    -9296   -10876   -12708   -13946   -14130   -13323   -11858 
  -10183    -9009    -8933   -10027   -11788   -13076   -12936   -11387 
   -8864    -5971    -3329    -1215       69      357       87     -220 
    -435     -875    -2128    -4260    -6342    -7432    -7389    -6564 
   -5527    -4844    -4962    -6280    -8863   -12235   -15401   -17171 
  -17073   -15771   -14410   -13774   -14054   -15309   -17541   -20118 
  -22022   -22728   -22476   -22093   -22160   -22333   -22058   -21311 
  -20179   -18305   -15105   -10540    -5565    -1396     1543     3421 
    4078     2924     -214    -4659    -9295   -13036   -15274   -16236 
  -16630   -17025   -17439   -17290   -16113   -14341   -13140   -13375 
  -14556   -15259   -14812   -13898   -13581   -14244   -15290   -15684 
  -14870   -13106   -10974    -8886    -7180    -6345    -6510    -7049 
   -7468    -8028    -9078   -10727   -12883   -14841   -15691   -15278 
  -13914   -11771    -9002    -6011    -3508    -2009    -1414    -1443 
   -2088    -3482    -5697    -8542   -11531   -14407   -17572   -21358 
  -25011   -27103   -26789   -24307   -20906   -18273   -16964   -15791 
  -13554   -10620    -8500    -8294    -9468   -10477   -10690   -10854 
  -11676   -12829   -13305   -12385   -10219    -7263    -3816     -883 
      -2    -1477    -4270    -7524   -11132   -15295   -19797   -23458 
  -25044   -24672   -23559   -22646   -21786   -20082   -17273   -14482 
  -12817   -12082   -11739   -12036   -13428   -15656   -17767   -18905 
  -19127   -19099   -18842   -17538   -14973   -12056    -9550    -7422 
   -5336    -3098    -1046       84      -25    -1076    -2916    -5888 
   -9986   -14220   -17276   -18544   -18170   -16320   -13139    -9241 
   -5613    -3226    -2442    -2669    -3200    -4155    -6173    -9346 
  -12874   -15787   -17486   -17645   -16230   -13674   -10754    -8235 
   -6512    -5350    -4319    -3597    -3695    -4698    -6256    -7755 
   -8539    -8384    -7442    -5806    -3623    -1367      231      433 
    -882    -2956    -5078    -7121    -8983   -10507   -11790   -13035 
  -14375   -15695   -16630   -17112   -17223   -16451   -14264   -11082 
   -7770    -4820    -2438     -808     -254    -1221    -3855    -7669 
  -11523   -13955   -14134   -12575   -10391    -8052    -5427    -2592 
    -179      760     -449    -3455    -7509   -11957   -15748   -17791 
  -17994   -17154   -15942   -14416   -12474   -10465    -8881    -7857 
   -7398    -7463    -7829    -8486    -9718   -11412   -12881   -13452 
  -12982   -12043   -11407   -11183   -10987   -10781   -10945   -11592 
  -12085   -11694   -10712   -10292   -11129   -12637   -13594   -13493 
  -12798   -12084   -11434   -10602    -9495    -8270    -7159    -6431 
   -6197    -6293    -6567    -6840    -6903    -7036    -7755    -8999 
  -10411   -11878   -13115   -13626   -13168   -11749    -9811    -8282 
   -7662    -7520    -7207    -6678    -6368    -6398    -6489    -6664 
   -7319    -8633   -10401   -12269   -13813   -14630   -14558   -13596 
  -11839    -9773    -8075    -6975    -6394    -6376    -6863    -7615 
   -8591    -9753   -10761   -11296   -11110    -9792    -7131    -3568 
    -128     2075     2523     1446     -648    -3414    -6706   -10104 
  -12962   -15175   -16802   -17176   -15653   -12622    -9189    -6424 
   -4683    -3565    -2797    -2436    -2329    -2435    -2984    -3834 
   -4558    -5153    -6102    -7674    -9513   -11125   -12294   -12876 
  -12722   -11796   -10264    -8623    -7519    -7312    -7926    -8899 
   -9788   -10681   -11878   -13318   -14632   -15417   -15501   -14968 
  -13848   -12086    -9986    -8283    -7610    -8041    -9226   -10793 
  -12397   -13518   -13706   -13030   -11967   -10932   -10083    -9622 
   -9870   -10619   -11084   -10731    -9529    -7683    -5587    -3757 
   -2568    -1919    -1405    -1201    -2317    -5353    -9536   -13414 
  -16035   -17314   -17627   -17385   -16929   -16426   -15835   -15124 
  -14442   -14106   -14106   -13829   -12865   -11519   -10201    -9008 
   -7883    -6931    -6453    -6452    -6571    -6611    -6565    -6363 
   -6086    -6306    -7507    -9182   -10290   -10308    -9303    -7559 
   -5437    -3326    -1625     -508      304      987     1100      233 
   -1283    -2665    -3337    -3452    -3748    -4525    -5386    -6120 
   -6812    -7250    -7186    -6887    -6921    -7739    -9369   -11195 
  -12602   -13544   -14154   -14656   -15176   -15038   -13500   -11050 
   -8756    -6927    -5242    -3738    -3000    -3445    -5031    -7446 
  -10167   -12563   -14080   -14539   -14481   -14819   -15823   -16799 
  -17124   -16964   -16645   -16098   -15052   -13401   -11459    -9607 
   -7884    -6431    -5773    -6207    -7489    -9220   -11218   -13423 
  -15564   -17199   -18113   -18487   -18743   -19042   -18643   -16600 
  -13316   -10320    -8663    -8290    -8604    -9194   -10133   -11763 
  -14097   -16342   -17544   -17589   -16795   -15338   -13608   -11967 
  -10282    -8414    -6629    -5543    -5682    -6873    -8592   -10810 
  -13694   -16779   -19104   -20085   -19990   -19500   -18915   -18026 
  -16571   -14546   -12362   -10822   -10455   -10993   -11897   -12814 
  -13480   -13880   -14160   -14180   -13504   -11853    -9731    -8295 
   -8328    -9615   -11035   -11413   -10574    -9105    -7504    -5978 
   -4530    -3186    -2160    -1766    -2490    -4706    -7980   -11246 
  -13588   -14657   -14696   -14152   -13336   -12256   -10802    -9309 
   -8283    -7840    -7976    -8597    -9286    -9714    -9930   -10007 
   -9865    -9413    -8658    -7977    -8021    -8897   -10010   -10744 
  -10808   -10304    -9565    -8668    -7528    -6463    -6059    -6695 
   -8149    -9538   -10284   -10668   -10914   -10691    -9710    -8274 
   -7303    -7660    -9342   -11647   -13974   -16130   -18272   -20536 
  -22489   -23375   -22970   -21824   -20507   -18901   -16850   -15040 
  -14356   -14716   -14996   -13961   -11507    -8813    -6972    -6092 
   -5731    -5540    -5463    -5473    -5439    -5587    -6472    -8218 
  -10452   -12698   -14481   -15755   -16954   -18056   -18467   -17864 
  -16423   -14504   -12280    -9833    -7617    -6220    -5871    -6489 
   -7834    -9720   -11988   -14042   -14990   -14464   -12952   -11281 
   -9782    -8189    -6451    -4963    -4052    -4022    -5272    -7676 
  -10355   -12459   -13820   -14797   -15619   -15762   -14288   -10986 
   -6881    -3499    -1610     -864     -562     -450     -903    -2222 
   -3828    -4997    -5830    -6664    -7295    -7161    -5842    -3548 
   -1109      583      994      124    -1582    -3628    -5700    -7644 
   -9376   -10892   -12340   -13820   -15118   -15838   -15725   -14935 
  -14196   -14425   -15849   -17766   -19176   -19608   -19474   -19413 
  -19537   -19513   -18890   -17369   -15111   -12573   -10229    -8686 
   -8365    -8895    -9436    -9521    -9343    -9288    -9236    -8605 
