Origin Time       2011/03/11 14:46:00
Lat.              38.103
Long.             142.860
Depth. (km)       24
Mag.              9.0
Station Code      HKD154
Station Lat.      42.0965
Station Long.     140.5636
Station Height(m) 83
Record Time       2011/03/11 14:47:57
Sampling Freq(Hz) 100Hz
Duration Time(s)  300
Dir.              E-W
Scale Factor      3920(gal)/6182761
Max. Acc. (gal)   10.485
Last Correction   2011/03/11 14:47:42
Memo.             
[...]
   13946    14092    14283    14484    14606    14507    14074    13383 
   12647    12061    11734    11666    11757    11873    11931    11947 
   11958    11948    11936    12003    12142    12290    12454    12581 
   12498    12103    11473    10793    10267    10014     9956     9905 
    9750     9445     9086     8964     9231     9798    10590    11476 
   12237    12745    12968    12930    12689    12350    12049    11818 
   11596    11395    11340    11531    11956    12560    13312    14171 
   15040    15805    16458    17075    17765    18585    19392    19975 
   20267    20350    20333    20255    20140    20049    19984    19862 
   19607    19204    18635    17921    17185    16511    15962    15667 
   15641    15766    15963    16250    16631    17077    17596    18151 
   18647    19028    19263    19352    19295    19022    18473    17637 
   16611    15540    14490    13497    12610    11856    11222    10664 
   10159     9750     9553     9664    10066    10699    11474    12287 
   13074    13821    14516    15094    15461    15562    15381    14981 
   14483    14012    13643    13346    13073    12785    12407    11850 
   11049    10040     8902     7713     6660     6000     5856     6164 
    6797     7664     8659     9683    10677    11606    12461    13220 
   13887    14548    15234    15826    16059    15693    14752    13505 
   12304    11449    11089    11260    11929    12965    14157    15319 
   16339    17181    17853    18338    18660    18973    19415    19930 
   20348    20613    20806    20927    20834    20416    19653    18577 
   17284    15970    14889    14203    13895    13819    13872    14057 
   14435    15028    15737    16410    16927    17178    17096    16698 
   16044    15239    14399    13564    12746    12045    11630    11589 
   11839    12191    12453    12512    12338    11973    11510    11007 
   10482    10013     9705     9667    10014    10748    11666    12477 
   12996    13196    13138    12895    12523    12118    11818    11754 
   11999    12510    13197    13996    14790    15397    15687    15643 
   15251    14472    13413    12305    11354    10649    10163     9875 
    9776     9850    10184    10864    11801    12772    13553    13970 
   13924    13476    12852    12320    12025    11910    11847    11752 
   11555    11190    10644    10001     9403     8931     8633     8537 
    8636     8976     9606    10473    11453    12409    13253    13991 
   14685    15356    15958    16437    16744    16812    16569    16010 
   15258    14524    13970    13660    13603    13730    13908    14033 
   14085    14137    14315    14698    15246    15833    16348    16781 
   17195    17639    18059    18289    18144    17534    16487    15174 
   13941    13134    12860    12979    13213    13310    13183    12849 
   12344    11707    11013    10436    10186    10360    10877    11522 
   12074    12416    12526    12438    12232    12028    11918    11857 
   11705    11423    11096    10821    10651    10558    10506    10509 
   10559    10603    10539    10270     9814     9287     8818     8480 
    8285     8245     8370     8618     8887     9105     9280     9425 
    9562     9769    10172    10755    11299    11663    11852    11861 
   11734    11568    11460    11459    11512    11554    11592    11658 
   11798    12038    12325    12516    12500    12344    12251    12384 
   12815    13546    14439    15274    15993    16641    17174    17521 
   17688    17776    17906    18119    18370    18564    18635    18619 
   18575    18523    18456    18367    18246    18030    17628    17009 
   16237    15445    14757    14175    13574    12833    11995    11248 
   10784    10723    11131    11949    13012    14176    15350    16434 
   17312    17886    18132    18132    18016    17884    17795    17730 
   17592    17309    16888    16369    15780    15137    14494    13978 
   13696    13699    13966    14323    14545    14577    14556    14674 
   15057    15710    16536    17350    17919    18122    18069    17972 
   17940    17943    17895    17754    17514    17159    16693    16122 
   15459    14804    14328    14133    14210    14543    15108    15759 
   16317    16732    17095    17505    17959    18359    18604    18659 
   18563    18393    18180    17839    17204    16156    14717    13135 
   11774    10880    10503    10573    10962    11523    12109    12640 
   13181    13843    14582    15260    15813    16248    16570    16766 
   16817    16702    16411    15973    15450    14890    14280    13570 
   12737    11788    10770     9788     8933     8229     7688     7377 
    7407     7803     8422     9085     9715    10321    10947    11657 
   12496    13434    14373    15195    15791    16031    15752    14847 
   13402    11658     9926     8531     7731     7625     8096     8872 
    9679    10391    11064    11838    12775    13792    14769    15695 
   16647    17683    18794    19927    20960    21721    22082    22043 
   21657    20892    19742    18372    17013    15835    14961    14452 
   14315    14523    14988    15574    16193    16805    17348    17744 
   17944    17929    17749    17507    17265    17065    16935    16835 
   16710    16492    16090    15429    14478    13349    12249    11292 
   10543    10094     9996    10246    10761    11411    12092    12690 
   13124    13389    13516    13544    13548    13648    13865    14100 
   14333    14625    15013    15431    15690    15647    15331    14879 
   14421    13992    13585    13262    13124    13209    13471    13824 
   14122    14157    13769    13018    12220    11707    11608    11874 
   12348    12779    12970    12940    12869    12868    12912    12969 
   13032    13056    13002    12908    12830    12746    12549    12157 
   11559    10783     9875     8956     8206     7691     7328     7052 
    6857     6706     6556     6453     6485     6646     6828     6983 
    7176     7447     7700     7780     7604     7178     6577     5964 
    5534     5415     5663     6232     6927     7488     7784     7913 
    8085     8448     9070     9922    10816    11476    11757    11703 
   11448    11150    10901    10652    10306     9900     9619     9645 
   10049    10820    11925    13308    14853    16385    17676    18521 
   18811    18546    17785    16639    15277    13882    12626    11686 
   11149    10929    10876    10926    11096    11427    11943    12619 
   13388    14146    14773    15194    15388    15394    15286    15108 
   14860    14571    14333    14237    14278    14371    14446    14496 
   14607    14948    15669    16758    18019    19217    20179    20797 
   21090    21191    21264    21427    21703    21982    22093    21931 
   21507    20920    20274    19629    19063    18677    18528    18614 
   18924    19406    19911    20265    20384    20249    19865    19333 
   18807    18327    17827    17303    16890    16754    16963    17484 
   18243    19110    19900    20513    21020    21507    21993    22474 
   22926    23276    23401    23196    22671    21861    20790    19573 
   18421    17541    17032    16833    16818    16948    17280    17832 
   18520    19233    19848    20270    20515    20630    20590    20344 
   19837    18999    17850    16567    15339    14294    13540    13071 
   12772    12530    12297    12114    11990    11860    11712    11591 
   11543    11570    11653    11803    11967    12016    11839    11404 
   10754     9979     9213     8547     8028     7734     7645     7637 
    7585     7357     6930     6417     5936     5604     5464     5394 
    5212     4854     4365     3773     3152     2663     2435     2483 
    2696     2968     3326     3876     4691     5714     6751     7641 
    8384     9058     9695    10290    10847    11310    11535    11403 
   10968    10462    10148    10202    10643    11318    12043    12738 
   13370    13871    14184    14339    14435    14574    14806    15182 
   15749    16461    17169    17725    18011    17907    17335    16381 
   15255    14145    13198    12525    12165    12074    12163    12355 
   12587    12803    13014    13284    13648    14075    14467    14669 
   14560    14152    13557    12828    11914    10770     9436     8085 
    6991     6328     6084     6151     6329     6426     6360     6156 
    5948     5902     6094     6510     7109     7888     8824     9840 
   10857    11757    12393    12729    12907    13112    13436    13921 
   14587    15386    16244    17070    17787    18354    18755    19022 
   19194    19320    19475    19654    19775    19729    19448    19017 
   18634    18387    18195    17971    17692    17353    16958    16497 
   15955    15315    14577    13775    13006    12399    12010    11776 
   11594    11397    11202    11029    10811    10494    10108     9696 
    9340     9162     9154     9254     9489     9804    10097    10367 
   10597    10780    10975    11249    11632    12032    12298    12335 
   12209    12148    12315    12680    13126    13591    14156    14920 
   15937    17202    18584    19858    20810    21342    21499    21394 
   21110    20627    19875    18876    17790    16785    15892    15101 
   14458    13973    13666    13513    13354    13113    12876    12773 
   12913    13273    13682    13994    14228    14514    14919    15466 
   16110    16730    17270    17706    17998    18111    17942    17394 
   16458    15241    13997    12951    12187    11639    11132    10592 
   10130     9829     9645     9530     9493     9598     9946    10549 
   11283    12012    12555    12772    12743    12612    12407    12148 
   11886    11649    11491    11374    11131    10709    10178     9627 
    9199     9092     9488    10433    11806    13339    14731    15815 
   16531    16885    16978    16929    16828    16753    16745    16789 
   16819    16761    16510    15997    15277    14410    13451    12573 
   11960    11685    11718    11991    12456    13033    13616    14155 
   14679    15230    15815    16468    17212    17951    18531    18905 
   19111    19142    19026    18830    18555    18212    17827    17416 
   16978    16480    15970    15558    15315    15225    15133    14830 
   14211    13350    12344    11204     9968     8722     7596     6763 
    6306     6200     6363     6629     6781     6704     6478     6225 
    5956     5631     5290     5110     5218     5542     5857     5919 
    5726     5504     5392     5421     5556     5711     5837     5943 
    6052     6153     6281     6545     6927     7322     7664     7893 
    7966     7835     7513     7090     6645     6265     6008     5921 
    6066     6431     6964     7550     7926     7926     7626     7132 
    6489     5752     4997     4271     3485     2553     1605      871 
     508      604     1175     2151     3432     4936     6573     8226 
    9769    11087    12064    12579    12606    12274    11721    11016 
   10234     9470     8819     8366     8171     8271     8684     9372 
   10239    11187    12138    13016    13787    14473    15108    15705 
   16254    16715    17027    17172    17184    17119    17056    17061 
   17130    17194    17159    16932    16432    15720    15082    14826 
   15052    15665    16457    17139    17448    17312    16819    16100 
   15332    14701    14304    14161    14251    14534    14947    15371 
   15648    15654    15355    14835    14261    13743    13269    12806 
   12407    12198    12285    12661    13255    14007    14847    15681 
   16393    16865    17071    17153    17303    17621    18131    18839 
   19715    20655    21479    22031    22230    22091    21787    21564 
   21571    21802    22137    22421    22523    22389    22068    21656 
   21211    20754    20341    20047    19851    19683    19519    19368 
   19215    19011    18738    18480    18349    18375    18523    18744 
   18985    19205    19409    19584    19671    19666    19641    19680 
   19821    20008    20113    20000    19602    18974    18311    17853 
   17691    17768    18050    18548    19199    19812    20206    20369 
   20378    20347    20433    20764    21345    22051    22660    22947 
   22792    22206    21291    20202    19079    17990    16985    16164 
   15594    15234    15010    14904    14939    15118    15363    15574 
   15732    15931    16280    16775    17322    17752    17884    17675 
   17213    16561    15687    14566    13324    12233    11576    11523 
   12058    12940    13774    14278    14411    14271    14006    13741 
   13540    13472    13646    14135    14863    15595    16066    16107 
   15717    15058    14378    13893    13682    13671    13740    13792 
   13822    13938    14216    14583    14939    15281    15683    16195 
   16765    17267    17576    17622    17464    17264    17119    16963 
   16700    16366    16079    15905    15866    15999    16324    16750 
   17088    17169    16948    16557    16217    16029    15888    15643 
   15254    14792    14338    13948    13682    13552    13461    13339 
   13207    13040    12702    12116    11372    10562     9661     8656 
    7613     6585     5599     4705     3956     3347     2857     2501 
    2325     2358     2604     3046     3658     4358     5004     5462 
    5641     5531     5249     4955     4731     4544     4292     3877 
    3271     2479     1511      466     -499    -1292    -1848    -2089 
   -2023    -1742    -1332     -885     -515     -322     -379     -678 
   -1134    -1690    -2279    -2748    -2969    -2925    -2638    -2129 
   -1497     -878     -352       49      316      510      738     1037 
    1337     1554     1632     1567     1437     1349     1344     1421 
    1598     1905     2377     2987     3606     4047     4135     3832 
    3303     2800     2491     2424     2561     2780     2965     3099 
    3199     3266     3283     3183     2892     2405     1796     1253 
    1034     1301     2008     2950     3887     4631     5090     5267 
    5210     4965     4613     4296     4159     4247     4507     4882 
    5387     6066     6930     7933     8999    10030    10915    11563 
   11925    11995    11771    11328    10862    10566    10524    10734 
   11148    11685    12226    12646    12887    12965    12913    12779 
   12612    12433    12312    12357    12596    12951    13317    13639 
   13878    13959    13818    13474    13056    12684    12404    12254 
   12257    12361    12490    12568    12595    12670    12831    12973 
   12988    12835    12492    11976    11373    10818    10452    10332 
   10370    10531    10929    11662    12669    13776    14849    15787 
   16501    17035    17497    17903    18198    18332    18292    18095 
   17775    17303    16644    15895    15172    14557    14138    13843 
   13592    13505    13590    13643    13693    14000    14558    15218 
   16095    17306    18648    19806    20571    20776    20383    19536 
   18368    17187    16377    15874    15480    15330    15423    15416 
   15334    15494    15835    16235    16779    17301    17506    17413 
   17186    16981    16939    17026    17253    17683    18059    18161 
   18034    17607    16796    15689    14417    13193    12305    11868 
   11855    12297    13165    14252    15246    15858    15926    15505 
   14820    14106    13540    13227    13179    13335    13567    13704 
   13674    13518    13269    13010    12879    12972    13365    14044 
   14836    15521    15926    16035    16023    16105    16386    16793 
   17149    17328    17303    17141    16955    16828    16828    17023 
   17442    18041    18726    19353    19800    20031    20060    19926 
   19666    19274    18734    18116    17565    17235    17271    17762 
   18590    19467    20150    20555    20708    20653    20443    20199 
   20072    20147    20370    20581    20640    20507    20207    19789 
   19298    18768    18268    17871    17609    17445    17260    16947 
   16478    15852    15119    14434    13933    13586    13279    12960 
   12632    12295    11960    11665    11488    11484    11603    11734 
   11808    11796    11652    11356    10989    10666    10404    10148 
    9904     9801     9997    10485    11028    11349    11337    11033 
   10561    10139     9979    10121    10454    10837    11184    11447 
   11602    11685    11747    11755    11678    11592    11594    11719 
   11914    12039    11939    11584    11123    10792    10760    11034 
   11434    11748    11891    11882    11755    11543    11348    11310 
   11479    11780    12123    12405    12478    12209    11597    10781 
    9951     9197     8488     7771     7005     6139     5157     4143 
    3257     2644     2344     2292     2398     2617     2914     3252 
    3617     4002     4387     4781     5225     5709     6179     6631 
    7103     7618     8154     8677     9162     9604    10003    10355 
   10704    11156    11758    12451    13136    13718    14094    14218 
   14126    13886    13576    13279    13087    13039    13080    13160 
   13280    13430    13548    13566    13487    13392    13377    13507 
   13779    14100    14289    14214    13941    13648    13461    13417 
   13463    13557    13771    14149    14605    15036    15386    15654 
   15898    16169    16443    16632    16675    16585    16402    16192 
   16052    16020    16024    15973    15846    15704    15586    15416 
   15129    14782    14425    14029    13585    13167    12921    12968 
   13322    13907    14562    15120    15518    15763    15846    15690 
   15207    14483    13750    13186    12851    12706    12652    12607 
   12485    12172    11670    11106    10613    10327    10339    10603 
   11000    11392    11614    11564    11316    11103    11129    11396 
   11781    12213    12669    13072    13342    13441    13343    13103 
   12907    12981    13430    14204    15186    16204    17033    17518 
   17651    17477    17019    16345    15595    14944    14536    14417 
   14582    14994    15536    16083    16592    17062    17466    17770 
   18003    18240    18547    18962    19461    19921    20161    20084 
   19767    19360    18955    18607    18336    18119    17986    18010 
   18220    18603    19072    19467    19700    19818    19891    19887 
   19736    19450    19090    18704    18329    17997    17744    17602 
   17539    17458    17240    16800    16127    15310    14506    13871 
   13494    13426    13727    14326    14981    15477    15710    15640 
   15346    14986    14669    14427    14245    14128    14134    14331 
   14732    15269    15798    16168    16306    16217    15964    15660 
   15350    14974    14492    13978    13632    13681    14183    14982 
   15814    16403    16609    16514    16296    16059    15818    15591 
   15421    15299    15173    15039    14932    14877    14853    14798 
   14687    14563    14455    14331    14135    13856    13533    13194 
   12805    12326    11788    11268    10859    10687    10883    11459 
   12273    13122    13838    14377    14816    15250    15726    16247 
   16754    17138    17326    17317    17101    16644    15998    15313 
   14720    14297    14087    14049    14038    13924    13633    13146 
   12498    11769    11091    10645    10547    10771    11159    11488 
   11544    11261    10775    10247     9735     9283     8986     8933 
