Origin Time       2011/03/11 14:46:00
Lat.              38.103
Long.             142.860
Depth. (km)       24
Mag.              9.0
Station Code      HKD165
Station Lat.      42.4287
Station Long.     140.0178
Station Height(m) 19
Record Time       2011/03/11 14:49:08
Sampling Freq(Hz) 100Hz
Duration Time(s)  60
Dir.              U-D
Scale Factor      3920(gal)/6182761
Max. Acc. (gal)   1.897
Last Correction   2011/03/11 14:48:53
Memo.             
[...]
  -12140   -12161   -12211   -12281   -12373   -12453   -12471   -12426 
  -12358   -12304   -12262   -12208   -12151   -12111   -12082   -12068 
  -12097   -12181   -12308   -12430   -12499   -12534   -12580   -12636 
  -12670   -12634   -12494   -12291   -12102   -11972   -11919   -11942 
  -11998   -12037   -12052   -12043   -11995   -11927   -11868   -11811 
  -11753   -11720   -11708   -11692   -11692   -11752   -11862   -11960 
  -11985   -11920   -11780   -11600   -11442   -11366   -11375   -11401 
  -11402   -11388   -11377   -11417   -11554   -11761   -11977   -12176 
  -12340   -12420   -12382   -12267   -12142   -12030   -11964   -11971 
  -12016   -12081   -12224   -12427   -12593   -12677   -12691   -12680 
  -12695   -12700   -12630   -12493   -12324   -12146   -11996   -11881 
  -11776   -11662   -11543   -11451   -11398   -11355   -11324   -11347 
  -11449   -11623   -11818   -11940   -11963   -11936   -11875   -11756 
  -11621   -11555   -11577   -11668   -11815   -11972   -12089   -12157 
  -12210   -12271   -12298   -12268   -12233   -12223   -12216   -12217 
  -12260   -12361   -12524   -12746   -12978   -13168   -13294   -13362 
  -13427   -13526   -13612   -13646   -13624   -13527   -13356   -13132 
  -12870   -12588   -12337   -12171   -12095   -12077   -12082   -12092 
  -12101   -12128   -12183   -12223   -12195   -12119   -12066   -12107 
  -12279   -12535   -12801   -13086   -13404   -13674   -13865   -14035 
  -14177   -14237   -14240   -14235   -14198   -14115   -14033   -13970 
  -13888   -13773   -13680   -13655   -13662   -13642   -13602   -13585 
  -13595   -13592   -13523   -13340   -13050   -12726   -12442   -12234 
  -12117   -12068   -12025   -11952   -11876   -11834   -11817   -11803 
  -11805   -11841   -11923   -12036   -12151   -12292   -12489   -12698 
  -12858   -12966   -13060   -13172   -13317   -13479   -13601   -13644 
  -13624   -13572   -13517   -13478   -13410   -13258   -13060   -12867 
  -12663   -12460   -12336   -12315   -12352   -12412   -12473   -12523 
  -12545   -12521   -12490   -12532   -12672   -12854   -12999   -13030 
  -12920   -12721   -12524   -12385   -12297   -12249   -12270   -12373 
  -12520   -12654   -12739   -12791   -12800   -12704   -12490   -12184 
  -11760   -11242   -10752   -10376   -10156   -10129   -10254   -10441 
  -10669   -10963   -11326   -11740   -12180   -12610   -13002   -13303 
  -13438   -13406   -13282   -13114   -12934   -12795   -12675   -12522 
  -12403   -12450   -12655   -12876   -13015   -13065   -13035   -12927 
  -12765   -12591   -12458   -12414   -12477   -12616   -12790   -12976 
  -13141   -13238   -13248   -13202   -13149   -13118   -13111   -13113 
  -13110   -13108   -13114   -13115   -13090   -13003   -12845   -12686 
  -12589   -12510   -12398   -12278   -12161   -12020   -11875   -11768 
  -11671   -11536   -11381   -11252   -11166   -11139   -11192   -11308 
  -11464   -11653   -11859   -12054   -12239   -12445   -12702   -12978 
  -13199   -13325   -13376   -13412   -13486   -13591   -13674   -13699 
  -13636   -13447   -13150   -12855   -12667   -12619   -12710   -12893 
  -13054   -13097   -13026   -12906   -12803   -12782   -12865   -13006 
  -13156   -13294   -13388   -13462   -13551   -13568   -13405   -13116 
  -12796   -12476   -12200   -12034   -11964   -11930   -11922   -11970 
  -12052   -12109   -12117   -12108   -12108   -12103   -12121   -12221 
  -12357   -12423   -12449   -12518   -12606   -12652   -12644   -12589 
  -12514   -12488   -12543   -12625   -12698   -12787   -12872   -12895 
  -12836   -12697   -12489   -12297   -12210   -12239   -12364   -12586 
  -12867   -13134   -13362   -13553   -13656   -13645   -13577   -13488 
  -13372   -13256   -13178   -13150   -13151   -13175   -13235   -13310 
  -13342   -13327   -13316   -13330   -13371   -13445   -13513   -13543 
  -13571   -13633   -13703   -13742   -13714   -13585   -13392   -13244 
  -13219   -13305   -13431   -13547   -13654   -13773   -13914   -14072 
  -14203   -14273   -14296   -14279   -14201   -14092   -13999   -13905 
  -13783   -13664   -13556   -13422   -13302   -13295   -13404   -13531 
  -13611   -13653   -13661   -13620   -13558   -13496   -13390   -13221 
  -13033   -12847   -12686   -12573   -12480   -12393   -12318   -12228 
  -12120   -12047   -12014   -12001   -12030   -12115   -12260   -12467 
  -12721   -12993   -13260   -13490   -13663   -13778   -13825   -13826 
  -13853   -13947   -14097   -14294   -14520   -14725   -14863   -14915 
  -14903   -14839   -14691   -14459   -14188   -13920   -13712   -13621 
  -13597   -13530   -13379   -13183   -13017   -12944   -12947   -12981 
  -13040   -13131   -13266   -13465   -13675   -13814   -13899   -13988 
  -14078   -14163   -14270   -14410   -14539   -14624   -14669   -14669 
  -14597   -14477   -14378   -14324   -14308   -14365   -14501   -14636 
  -14714   -14774   -14834   -14833   -14735   -14600   -14486   -14384 
  -14296   -14239   -14169   -14063   -13972   -13892   -13780   -13672 
  -13613   -13593   -13621   -13681   -13699   -13656   -13606   -13606 
  -13690   -13862   -14076   -14289   -14511   -14775   -15038   -15159 
  -15064   -14818   -14515   -14233   -14024   -13842   -13609   -13344 
  -13095   -12863   -12687   -12635   -12694   -12797   -12930   -13101 
  -13295   -13532   -13835   -14169   -14493   -14801   -15076   -15274 
  -15342   -15261   -15066   -14793   -14453   -14110   -13832   -13607 
  -13433   -13357   -13363   -13341   -13171   -12814   -12350   -11933 
  -11667   -11532   -11445   -11342   -11192   -11000   -10834   -10754 
  -10761   -10846   -11022   -11315   -11727   -12221   -12707   -13076 
  -13261   -13274   -13203   -13135   -13082   -13041   -13021   -12995 
  -12942   -12878   -12790   -12655   -12514   -12434   -12440   -12497 
  -12576   -12699   -12860   -12994   -13094   -13197   -13291   -13349 
  -13379   -13355   -13248   -13073   -12830   -12515   -12160   -11779 
  -11386   -11057   -10847   -10758   -10785   -10905   -11061   -11211 
  -11322   -11362   -11340   -11326   -11405   -11584   -11748   -11754 
  -11583   -11348   -11143   -10964   -10791   -10628   -10464   -10307 
  -10216   -10207   -10237   -10274   -10318   -10371   -10445   -10585 
  -10843   -11212   -11609   -11956   -12247   -12491   -12673   -12802 
  -12911   -13018   -13141   -13304   -13469   -13544   -13499   -13375 
  -13197   -12974   -12724   -12465   -12187   -11887   -11615   -11385 
  -11121   -10792   -10472   -10225   -10052    -9947    -9929   -10029 
  -10247   -10552   -10888   -11196   -11474   -11790   -12151   -12476 
  -12716   -12860   -12897   -12878   -12869   -12857   -12852   -12917 
  -13031   -13109   -13120   -13079   -12992   -12888   -12822   -12826 
  -12905   -13037   -13145   -13147   -13024   -12817   -12562   -12264 
  -11949   -11703   -11607   -11680   -11894   -12163   -12349   -12402 
  -12391   -12338   -12211   -12057   -11984   -12019   -12110   -12202 
  -12257   -12258   -12234   -12238   -12284   -12342   -12384   -12424 
  -12516   -12681   -12859   -12973   -12997   -12967   -12957   -13013 
  -13121   -13263   -13429   -13568   -13594   -13483   -13306   -13154 
  -13059   -12996   -12945   -12901   -12848   -12749   -12596   -12420 
  -12275   -12201   -12210   -12259   -12286   -12300   -12357   -12456 
  -12557   -12663   -12776   -12859   -12909   -12967   -13042   -13072 
  -12958   -12660   -12263   -11924   -11723   -11615   -11538   -11475 
  -11455   -11572   -11871   -12236   -12511   -12667   -12759   -12837 
  -12903   -12910   -12825   -12691   -12568   -12473   -12394   -12330 
  -12300   -12350   -12502   -12721   -12951   -13157   -13329   -13474 
  -13598   -13709   -13800   -13856   -13904   -13990   -14076   -14099 
  -14086   -14085   -14059   -13981   -13878   -13745   -13568   -13412 
  -13340   -13319   -13302   -13258   -13143   -12953   -12772   -12660 
  -12599   -12576   -12640   -12800   -12973   -13081   -13134   -13166 
  -13212   -13291   -13330   -13244   -13058   -12853   -12672   -12534 
  -12426   -12295   -12116   -11943   -11845   -11835   -11888   -11969 
  -12057   -12144   -12228   -12304   -12350   -12330   -12247   -12137 
  -12013   -11924   -11970   -12163   -12389   -12568   -12729   -12882 
  -12969   -12989   -13003   -12998   -12906   -12767   -12689   -12681 
  -12686   -12678   -12639   -12562   -12496   -12507   -12584   -12656 
  -12701   -12745   -12767   -12740   -12707   -12705   -12721   -12760 
  -12838   -12896   -12865   -12791   -12745   -12746   -12841   -13052 
  -13298   -13512   -13683   -13766   -13723   -13574   -13343   -13070 
  -12839   -12682   -12576   -12522   -12506   -12501   -12524   -12584 
  -12664   -12793   -12984   -13181   -13333   -13429   -13465   -13461 
  -13469   -13532   -13651   -13746   -13734   -13616   -13462   -13378 
  -13404   -13469   -13543   -13661   -13792   -13901   -13990   -14011 
  -13922   -13752   -13525   -13248   -12962   -12726   -12552   -12419 
  -12333   -12284   -12210   -12108   -12062   -12098   -12190   -12329 
  -12487   -12634   -12797   -12992   -13159   -13248   -13268   -13255 
  -13237   -13215   -13155   -13027   -12865   -12743   -12692   -12714 
  -12800   -12916   -13013   -13081   -13138   -13185   -13232   -13303 
  -13348   -13267   -13067   -12850   -12651   -12432   -12182   -11934 
  -11711   -11546   -11478   -11523   -11686   -11946   -12233   -12481 
  -12703   -12944   -13220   -13507   -13776   -14022   -14222   -14340 
  -14379   -14383   -14377   -14353   -14286   -14158   -13951   -13670 
  -13381   -13161   -13020   -12916   -12811   -12689   -12609   -12691 
  -12976   -13360   -13711   -13976   -14161   -14282   -14348   -14349 
  -14247   -14023   -13693   -13326   -13031   -12875   -12818   -12764 
  -12626   -12405   -12185   -12027   -11914   -11815   -11716   -11615 
  -11564   -11615   -11755   -11925   -12060   -12113   -12104   -12069 
  -11995   -11889   -11820   -11843   -11963   -12154   -12357   -12523 
  -12715   -13055   -13522   -13935   -14171   -14260   -14266   -14216 
  -14145   -14050   -13867   -13606   -13377   -13230   -13113   -12995 
  -12871   -12721   -12538   -12350   -12196   -12105   -12095   -12184 
  -12333   -12452   -12504   -12558   -12668   -12793   -12882   -12940 
  -13000   -13087   -13215   -13379   -13528   -13637   -13770   -13958 
  -14091   -14051   -13843   -13593   -13440   -13395   -13361   -13281 
  -13170   -13075   -13025   -12995   -12953   -12896   -12858   -12875 
  -12911   -12909   -12875   -12834   -12803   -12848   -13006   -13179 
  -13323   -13576   -13965   -14286   -14447   -14637   -14960   -15211 
  -15192   -14962   -14687   -14487   -14395   -14328   -14199   -14030 
  -13858   -13719   -13651   -13595   -13483   -13363   -13248   -13065 
  -12854   -12737   -12691   -12593   -12398   -12173   -12008   -11932 
  -11867   -11732   -11562   -11470   -11585   -11964   -12477   -12900 
  -13144   -13306   -13497   -13690   -13747   -13615   -13375   -13076 
  -12708   -12335   -12018   -11759   -11573   -11463   -11378   -11299 
  -11296   -11415   -11580   -11691   -11791   -11951   -12101   -12130 
  -12037   -11889   -11779   -11791   -11892   -11965   -11958   -11921 
  -11911   -11936   -11960   -11945   -11854   -11701   -11565   -11487 
  -11440   -11414   -11418   -11429   -11390   -11294   -11206   -11194 
  -11292   -11500   -11742   -11927   -12046   -12125   -12191   -12296 
  -12463   -12642   -12779   -12867   -12952   -13083   -13210   -13229 
  -13146   -13063   -13026   -12985   -12895   -12790   -12720   -12671 
  -12603   -12494   -12352   -12222   -12176   -12265   -12468   -12708 
  -12911   -13054   -13163   -13243   -13278   -13305   -13337   -13269 
  -13033   -12719   -12451   -12241   -12042   -11830   -11615   -11400 
  -11191   -11022   -10904   -10771   -10597   -10456   -10423   -10511 
  -10712   -10985   -11218   -11287   -11202   -11096   -11038   -10985 
  -10898   -10767   -10603   -10489   -10516   -10646   -10767   -10838 
  -10908   -11063   -11304   -11542   -11713   -11824   -11912   -11986 
  -12011   -11961   -11885   -11849   -11841   -11813   -11765   -11740 
  -11773   -11842   -11882   -11871   -11830   -11761   -11679   -11636 
  -11638   -11633   -11612   -11590   -11578   -11604   -11704   -11858 
  -11977   -11986   -11907   -11860   -11903   -11964   -11989   -12037 
  -12163   -12378   -12693   -13038   -13311   -13478   -13552   -13588 
  -13635   -13708   -13758   -13698   -13529   -13319   -13075   -12782 
  -12486   -12208   -11913   -11648   -11516   -11509   -11584   -11767 
  -12039   -12291   -12493   -12694   -12893   -13029   -13060   -13004 
  -12937   -12929   -12916   -12803   -12634   -12520   -12511   -12614 
  -12763   -12861   -12909   -12967   -13015   -12959   -12750   -12472 
  -12290   -12272   -12284   -12210   -12140   -12204   -12398   -12648 
  -12908   -13148   -13339   -13473   -13569   -13640   -13674   -13669 
  -13684   -13783   -13918   -14030   -14146   -14304   -14459   -14514 
  -14435   -14259   -14048   -13910   -13921   -14007   -14039   -13955 
  -13808   -13732   -13798   -13955   -14141   -14379   -14675   -14929 
  -15087   -15228   -15367   -15419   -15399   -15398   -15435   -15451 
  -15381   -15197   -14916   -14585   -14261   -14002   -13835   -13761 
  -13761   -13798   -13832   -13836   -13801   -13791   -13886   -14054 
  -14210   -14363   -14555   -14779   -15022   -15270   -15470   -15610 
  -15738   -15832   -15779   -15536   -15186   -14823   -14469   -14095 
  -13689   -13282   -12934   -12741   -12767   -12926   -13067   -13144 
  -13165   -13104   -12962   -12801   -12707   -12764   -12954   -13144 
  -13273   -13383   -13452   -13437   -13398   -13396   -13419   -13455 
  -13515   -13550   -13450   -13207   -13011   -13000   -13063   -13041 
  -12965   -12891   -12735   -12552   -12548   -12669   -12699   -12682 
  -12722   -12755   -12784   -12923   -13160   -13377   -13544   -13684 
  -13804   -13841   -13661   -13291   -13010   -13014   -13177   -13242 
  -13093   -12748   -12292   -12024   -12230   -12707   -13112   -13399 
  -13518   -13443   -13458   -13770   -14196   -14501   -14549   -14321 
  -14038   -13838   -13591   -13216   -12763   -12342   -12152   -12202 
  -12131   -11707   -11160   -10845   -10871   -11105   -11332   -11364 
  -11142   -10829   -10634   -10620   -10803   -11132   -11443   -11667 
  -11852   -12065   -12350   -12615   -12701   -12584   -12361   -12143 
  -12048   -12145   -12366   -12577   -12722   -12835   -12955   -13092 
  -13239   -13394   -13536   -13602   -13534   -13355   -13138   -12947 
  -12808   -12730   -12695   -12670   -12618   -12528   -12461   -12506 
  -12662   -12833   -12950   -13029   -13104   -13172   -13242   -13318 
  -13368   -13409   -13484   -13537   -13484   -13333   -13098   -12778 
  -12438   -12160   -11948   -11768   -11626   -11566   -11599   -11684 
  -11798   -11944   -12066   -12111   -12084   -12000   -11927   -11966 
  -12098   -12228   -12313   -12372   -12439   -12503   -12534   -12533 
  -12507   -12471   -12443   -12422   -12395   -12351   -12309   -12305 
  -12326   -12333   -12332   -12350   -12401   -12463   -12490   -12474 
  -12429   -12368   -12314   -12269   -12210   -12107   -11938   -11754 
  -11624   -11561   -11559   -11572   -11534   -11478   -11491   -11622 
  -11852   -12060   -12150   -12165   -12188   -12286   -12469   -12663 
  -12822   -12966   -13094   -13200   -13289   -13370   -13442   -13482 
  -13501   -13549   -13639   -13768   -13920   -14031   -14033   -13880 
  -13578   -13222   -12878   -12535   -12211   -11932   -11707   -11561 
  -11485   -11433   -11395   -11378   -11385   -11392   -11360   -11282 
  -11154   -10959   -10754   -10596   -10445   -10329   -10362   -10531 
  -10723   -10896   -11065   -11228   -11370   -11514   -11717   -11994 
  -12313   -12640   -12918   -13090   -13180   -13214   -13185   -13133 
  -13080   -13012   -12972   -12983   -13014   -13031   -12984   -12823 
  -12566   -12254   -11932   -11654   -11435   -11257   -11138   -11108 
  -11164   -11255   -11342   -11465   -11664   -11908   -12139   -12327 
  -12473   -12591   -12689   -12772   -12835   -12853   -12831   -12788 
  -12702   -12566   -12446   -12406   -12466   -12622   -12838   -13036 
  -13170   -13245   -13280   -13283   -13242   -13134   -12964   -12770 
  -12597   -12498   -12484   -12451   -12331   -12181   -12055   -11920 
  -11732   -11506   -11312   -11198   -11154   -11173   -11291   -11508 
  -11783   -12087   -12354   -12484   -12485   -12453   -12419   -12370 
  -12318   -12273   -12259   -12290   -12321   -12307   -12254   -12197 
  -12189   -12248   -12329   -12407   -12461   -12483   -12526   -12631 
  -12760   -12853   -12863   -12785   -12703   -12720   -12868   -13112 
  -13367   -13568   -13725   -13848   -13923   -13970   -13968   -13843 
  -13626   -13419   -13255   -13135   -13068   -13020   -12944   -12838 
  -12747   -12730   -12801   -12902   -12930   -12822   -12616   -12404 
  -12225   -12080   -11991   -11961   -11974   -12046   -12194   -12402 
  -12647   -12913   -13180   -13388   -13483   -13490   -13472   -13448 
  -13418   -13374   -13278   -13098   -12850   -12567   -12282   -12053 
  -11958   -12008   -12123   -12228   -12331   -12471   -12635   -12757 
  -12792   -12735   -12608   -12517   -12572   -12754   -12970   -13141 
  -13229   -13283   -13396   -13591   -13808   -13961   -14007   -13995 
  -13963   -13900   -13859   -13880   -13860   -13717   -13516   -13308 
  -13108   -12962   -12883   -12848   -12828   -12787   -12712   -12632 
  -12546   -12429   -12297   -12178   -12070   -11982   -11935   -11940 
  -11996   -12096   -12253   -12482   -12750   -13003   -13220   -13430 
  -13653   -13845   -13916   -13838   -13675   -13510   -13391   -13314 
  -13202   -13006   -12791   -12660   -12676   -12865   -13149   -13378 
  -13495   -13550   -13585   -13634   -13696   -13715   -13660   -13549 
  -13381   -13179   -12985   -12830   -12768   -12840   -12991   -13155 
  -13318   -13475   -13620   -13750   -13829   -13831   -13772   -13685 
  -13633   -13676   -13799   -13964   -14170   -14389   -14597   -14838 
  -15133   -15418   -15609   -15653   -15567   -15434   -15295   -15127 
  -14908   -14631   -14335   -14094   -13955   -13938   -14045   -14243 
  -14494   -14745   -14936   -15061   -15137   -15152   -15146   -15166 
  -15138   -15002   -14801   -14588   -14385   -14214   -14049   -13819 
  -13522   -13238   -13029   -12924   -12938   -13030   -13140   -13236 
  -13306   -13378   -13513   -13720   -13908   -14012   -14115   -14310 
  -14555   -14797   -15043   -15257   -15376   -15420   -15427   -15379 
  -15269   -15126   -14944   -14722   -14475   -14190   -13894   -13670 
  -13525   -13421   -13342   -13266   -13197   -13197   -13304   -13477 
  -13647   -13791   -13937   -14102   -14271   -14429   -14539   -14533 
  -14429   -14320   -14213   -14069   -13910   -13748   -13540   -13261 
  -12958   -12703   -12504   -12334   -12223   -12246   -12414   -12669 
  -12970   -13272   -13489   -13633   -13807   -14035   -14261   -14451 
  -14591   -14651   -14630   -14569   -14482   -14330   -14092   -13785 
  -13437   -13091   -12786   -12556   -12438   -12436   -12529   -12706 
  -12950   -13204   -13399   -13504   -13530   -13472   -13355   -13272 
