Origin Time       2011/03/11 14:46:00
Lat.              38.103
Long.             142.860
Depth. (km)       24
Mag.              9.0
Station Code      HKD148
Station Lat.      42.6680
Station Long.     140.3050
Station Height(m) 25
Record Time       2011/03/11 14:48:14
Sampling Freq(Hz) 100Hz
Duration Time(s)  300
Dir.              N-S
Scale Factor      3920(gal)/6182761
Max. Acc. (gal)   6.342
Last Correction   2011/03/11 14:47:59
Memo.             
[...]
    6253     6514     6665     6718     6696     6623     6533     6453 
    6399     6372     6352     6319     6269     6194     6096     5969 
    5804     5600     5356     5066     4748     4427     4119     3845 
    3623     3469     3418     3494     3661     3846     3994     4102 
    4199     4310     4456     4661     4931     5232     5512     5741 
    5940     6148     6369     6568     6707     6774     6778     6752 
    6740     6768     6840     6947     7074     7186     7250     7254 
    7201     7104     6954     6725     6404     6009     5583     5184 
    4854     4602     4432     4334     4275     4238     4227     4252 
    4333     4485     4687     4888     5042     5136     5191     5245 
    5335     5480     5687     5935     6169     6333     6403     6387 
    6325     6259     6213     6209     6253     6329     6436     6573 
    6728     6904     7137     7435     7759     8050     8270     8413 
    8481     8453     8327     8132     7908     7685     7478     7266 
    7006     6678     6297     5898     5522     5194     4878     4528 
    4143     3740     3319     2879     2426     1990     1622     1358 
    1209     1164     1210     1344     1547     1796     2079     2387 
    2700     2986     3216     3401     3566     3724     3880     4027 
    4148     4245     4336     4431     4511     4548     4524     4432 
    4279     4083     3854     3588     3277     2910     2486     2028 
    1585     1229     1009      914      913      988     1099     1189 
    1235     1261     1321     1466     1715     2069     2475     2842 
    3090     3177     3136     3055     3008     3035     3119     3189 
    3182     3118     3098     3238     3610     4200     4910     5640 
    6317     6888     7342     7698     7991     8247     8448     8542 
    8512     8386     8200     8000     7855     7838     7988     8272 
    8597     8854     8982     8997     8960     8924     8915     8932 
    8958     8974     8963     8914     8836     8765     8733     8731 
    8727     8698     8641     8579     8578     8705     8971     9332 
    9718    10092    10486    10951    11516    12177    12860    13464 
   13952    14331    14606    14778    14857    14868    14828    14719 
   14503    14160    13721    13263    12864    12568    12381    12257 
   12113    11888    11572    11190    10782    10398    10063     9783 
    9545     9315     9076     8841     8636     8474     8340     8187 
    7953     7604     7137     6566     5919     5225     4522     3860 
    3294     2865     2578     2388     2219     2014     1764     1510 
    1304     1179     1129     1134     1170     1212     1269     1369 
    1541     1827     2261     2814     3416     3991     4465     4811 
    5059     5277     5529     5838     6179     6511     6796     7015 
    7165     7237     7218     7124     6976     6772     6509     6197 
    5853     5501     5161     4839     4548     4312     4140     4010 
    3898     3782     3645     3484     3313     3139     2967     2822 
    2723     2680     2688     2729     2770     2787     2766     2702 
    2597     2466     2344     2246     2170     2114     2063     2007 
    1976     2021     2174     2437     2772     3117     3421     3656 
    3814     3914     3999     4117     4293     4513     4734     4927 
    5087     5211     5302     5370     5421     5456     5470     5461 
    5438     5405     5364     5332     5327     5352     5393     5419 
    5387     5280     5118     4927     4722     4478     4133     3655 
    3068     2411     1735     1110      590      183     -148     -442 
    -710     -932    -1095    -1181    -1174    -1115    -1069    -1012 
    -916     -784     -553     -231      111      487      895     1300 
    1703     2082     2414     2692     2898     3028     3097     3130 
    3162     3212     3265     3300     3305     3270     3214     3170 
    3137     3097     3044     2982     2937     2929     2945     2964 
    3001     3075     3189     3351     3562     3784     3980     4136 
    4266     4407     4577     4745     4864     4917     4925     4933 
    4985     5107     5295     5518     5720     5859     5923     5906 
    5827     5728     5653     5630     5651     5703     5790     5901 
    6013     6116     6202     6269     6320     6377     6467     6615 
    6816     7038     7255     7462     7657     7843     8027     8212 
    8390     8538     8634     8679     8703     8742     8816     8905 
    8950     8899     8752     8554     8346     8143     7939     7729 
    7519     7322     7156     7045     7011     7058     7171     7322 
    7480     7612     7714     7806     7882     7913     7882     7786 
    7640     7464     7232     6928     6613     6366     6230     6198 
    6224     6254     6281     6336     6426     6508     6522     6429 
    6241     6010     5778     5551     5311     5040     4730     4371 
    3953     3490     3019     2581     2214     1930     1695     1487 
    1329     1250     1260     1344     1472     1610     1717     1765 
    1758     1707     1627     1558     1503     1430     1340     1263 
    1222     1236     1298     1379     1446     1471     1434     1348 
    1244     1150     1088     1073     1118     1238     1424     1653 
    1918     2216     2548     2914     3296     3671     4034     4373 
    4680     4961     5234     5499     5737     5907     5970     5952 
    5927     5954     6042     6152     6242     6314     6407     6545 
    6704     6850     6974     7085     7201     7326     7425     7470 
    7461     7386     7213     6938     6591     6218     5862     5546 
    5259     4970     4673     4378     4105     3874     3693     3567 
    3495     3456     3417     3372     3356     3420     3620     4005 
    4594     5360     6234     7141     8012     8778     9375     9766 
    9964    10019     9975     9859     9690     9476     9207     8871 
    8478     8060     7651     7258     6865     6464     6048     5587 
    5068     4532     4046     3672     3449     3397     3514     3760 
    4083     4454     4849     5252     5681     6147     6624     7082 
    7481     7780     7952     7978     7878     7709     7523     7347 
    7186     7018     6825     6608     6384     6169     5973     5808 
    5690     5620     5577     5532     5463     5365     5263     5187 
    5136     5065     4938     4774     4631     4551     4525     4517 
    4505     4496     4516     4598     4749     4940     5144     5341 
    5525     5702     5871     6037     6220     6434     6686     6991 
    7369     7818     8318     8833     9320     9767    10186    10577 
   10919    11198    11412    11562    11654    11708    11763    11857 
   12005    12198    12432    12691    12953    13195    13384    13503 
   13563    13566    13485    13305    13047    12759    12489    12246 
   12015    11771    11485    11143    10748    10313     9871     9463 
    9118     8834     8584     8335     8068     7793     7549     7368 
    7252     7198     7205     7258     7339     7436     7567     7773 
    8097     8550     9089     9625    10068    10357    10478    10453 
   10314    10103     9870     9648     9424     9180     8921     8662 
    8429     8254     8134     8013     7839     7593     7270     6856 
    6344     5758     5149     4586     4106     3679     3253     2823 
    2405     2013     1657     1351     1137     1053     1100     1237 
    1416     1613     1827     2061     2306     2530     2712     2851 
    2940     2982     2989     2974     2952     2956     3024     3179 
    3416     3694     3966     4195     4377     4533     4666     4758 
    4822     4900     4992     5052     5025     4925     4837     4831 
    4926     5078     5193     5198     5084     4884     4648     4421 
    4227     4054     3878     3672     3442     3216     2993     2762 
    2548     2377     2234     2093     1916     1672     1364     1028 
     690      361       68     -164     -334     -463     -595     -747 
    -895    -1011    -1057     -986     -802     -541     -237      100 
     489      940     1439     1995     2615     3265     3908     4520 
    5076     5553     5922     6175     6323     6391     6434     6511 
    6667     6920     7231     7541     7825     8062     8241     8399 
    8606     8913     9307     9718    10074    10354    10564    10704 
   10787    10843    10882    10902    10890    10826    10691    10498 
   10305    10163    10106    10137    10214    10278    10286    10224 
   10118    10003     9885     9779     9716     9707     9742     9800 
    9849     9851     9781     9644     9480     9328     9188     9037 
    8852     8592     8217     7728     7177     6633     6140     5732 
    5429     5239     5152     5134     5147     5159     5142     5082 
    4965     4790     4567     4285     3931     3531     3128     2758 
    2457     2240     2098     2019     2006     2044     2073     2023 
    1880     1700     1557     1490     1487     1524     1602     1734 
    1915     2121     2337     2549     2734     2864     2898     2815 
    2625     2371     2119     1930     1823     1770     1715     1599 
    1392     1112      808      540      347      224      159      150 
     169      178      172      168      179      189      172      111 
      20      -56      -64       27      221      491      812     1174 
    1556     1916     2225     2467     2611     2627     2504     2244 
    1882     1483     1135      906      808      814      886      977 
    1050     1091     1113     1146     1220     1356     1566     1835 
    2122     2392     2626     2807     2945     3086     3275     3511 
    3745     3940     4098     4239     4382     4538     4711     4923 
    5207     5573     6000     6461     6941     7442     7957     8447 
    8851     9143     9360     9535     9679     9792     9855     9859 
    9834     9809     9801     9814     9822     9793     9731     9661 
    9593     9498     9341     9140     8960     8858     8862     8972 
    9161     9383     9594     9758     9839     9811     9672     9439 
    9129     8742     8276     7758     7225     6684     6113     5502 
    4874     4293     3822     3481     3266     3173     3171     3220 
    3294     3401     3584     3866     4245     4694     5172     5638 
    6056     6400     6672     6890     7065     7206     7326     7422 
    7484     7506     7465     7343     7162     6959     6762     6578 
    6389     6174     5948     5738     5560     5422     5323     5246 
    5181     5114     5004     4822     4583     4318     4039     3759 
    3493     3262     3096     3008     2996     3048     3133     3216 
    3277     3318     3365     3454     3603     3802     4007     4185 
    4342     4500     4684     4919     5226     5604     6034     6469 
    6839     7113     7322     7511     7715     7950     8180     8347 
    8435     8476     8500     8510     8485     8404     8275     8129 
    7982     7824     7659     7503     7371     7268     7184     7118 
    7099     7167     7335     7591     7910     8274     8650     8988 
    9270     9540     9862    10280    10796    11378    11974    12526 
   12994    13351    13574    13662    13634    13503    13273    12947 
   12531    12052    11561    11108    10721    10412    10172     9984 
    9842     9757     9743     9826    10038    10369    10755    11108 
   11366    11511    11569    11594    11642    11734    11839    11898 
   11863    11732    11540    11319    11072    10800    10507    10182 
    9790     9303     8721     8066     7385     6729     6124     5560 
    5021     4513     4040     3598     3199     2863     2596     2395 
    2255     2160     2094     2037     1969     1901     1846     1796 
    1744     1696     1651     1592     1498     1371     1234     1109 
    1011      948      899      854      838      860      893      914 
     912      884      850      861      953     1127     1356     1611 
    1887     2183     2484     2788     3100     3391     3644     3869 
    4062     4214     4326     4374     4325     4177     3963     3730 
    3517     3343     3199     3054     2864     2603     2286     1935 
    1570     1230      960      771      645      551      466      382 
     306      277      360      590      943     1349     1722     2031 
    2304     2577     2881     3251     3695     4194     4722     5248 
    5737     6193     6660     7152     7642     8100     8517     8898 
    9240     9535     9785     9992    10146    10230    10229    10132 
    9945     9691     9398     9089     8780     8480     8191     7919 
    7666     7440     7241     7068     6931     6830     6732     6628 
    6540     6492     6517     6640     6835     7024     7134     7154 
    7118     7082     7099     7212     7429     7710     7989     8223 
    8409     8578     8775     9020     9280     9495     9641     9719 
    9748     9750     9716     9612     9425     9168     8866     8541 
    8198     7834     7470     7132     6832     6535     6194     5792 
    5356     4939     4573     4238     3889     3513     3135     2778 
    2443     2119     1800     1505     1254     1037      834      625 
     411      230      119       78       87      117      146      162 
     155      122       72       16      -38      -97     -183     -321 
    -544     -864    -1251    -1660    -2046    -2382    -2667    -2912 
   -3144    -3395    -3671    -3942    -4152    -4262    -4264    -4181 
   -4040    -3841    -3565    -3197    -2729    -2154    -1493     -796 
    -123      482      997     1440     1848     2252     2677     3138 
    3622     4120     4622     5124     5625     6103     6532     6916 
    7288     7681     8114     8567     9006     9415     9782    10101 
   10377    10605    10765    10845    10836    10737    10582    10418 
   10276    10161    10058     9938     9771     9552     9289     9001 
    8733     8537     8437     8437     8514     8638     8783     8919 
    9010     9031     8976     8850     8678     8482     8262     8014 
    7756     7516     7321     7185     7117     7107     7136     7204 
    7323     7487     7674     7860     8028     8190     8361     8532 
    8697     8891     9137     9409     9653     9823     9905     9910 
    9848     9723     9530     9256     8894     8464     8025     7633 
    7310     7050     6824     6587     6296     5944     5589     5309 
    5141     5067     5046     5045     5060     5097     5148     5205 
    5265     5324     5369     5356     5243     5025     4763     4554 
    4465     4477     4521     4522     4422     4220     3949     3642 
    3338     3073     2843     2629     2416     2201     2004     1856 
    1790     1828     1965     2158     2354     2529     2693     2858 
    3018     3148     3246     3354     3501     3683     3879     4066 
    4250     4441     4615     4729     4765     4740     4699     4700 
    4782     4929     5098     5247     5335     5346     5294     5204 
    5107     5021     4936     4819     4633     4349     3969     3547 
    3153     2808     2461     2054     1593     1132      717      366 
      64     -211     -456     -655     -821     -991    -1181    -1353 
   -1463    -1496    -1486    -1481    -1514    -1589    -1684    -1786 
   -1892    -1956    -1922    -1781    -1542    -1198     -764     -281 
     250      838     1469     2124     2768     3371     3931     4443 
    4894     5290     5644     5959     6231     6464     6676     6892 
    7126     7379     7631     7842     7970     7994     7915     7760 
    7558     7334     7125     6978     6929     6990     7143     7357 
    7601     7842     8045     8187     8251     8249     8226     8215 
    8207     8171     8088     7950     7765     7563     7380     7230 
    7117     7042     7007     7011     7021     7004     6958     6920 
    6916     6952     7021     7118     7224     7306     7354     7388 
    7426     7468     7513     7568     7658     7795     7962     8140 
    8328     8519     8708     8901     9103     9311     9520     9720 
    9881     9962     9942     9839     9710     9607     9556     9565 
    9614     9665     9691     9674     9617     9545     9480     9429 
    9372     9261     9071     8815     8509     8175     7845     7538 
    7240     6917     6534     6082     5596     5129     4724     4387 
    4093     3812     3544     3294     3035     2724     2356     1977 
    1638     1360     1128      904      669      424      196       30 
     -52      -63       -5      142      397      761     1208     1687 
    2156     2613     3076     3552     4029     4492     4944     5391 
    5827     6241     6615     6941     7248     7562     7875     8170 
    8439     8678     8874     9009     9068     9047     8954     8804 
    8618     8407     8156     7835     7435     6980     6526     6125 
    5784     5476     5159     4817     4464     4130     3841     3605 
    3420     3283     3187     3132     3120     3138     3155     3134 
    3055     2940     2835     2780     2798     2865     2912     2895 
    2839     2807     2854     2998     3203     3422     3642     3878 
    4150     4462     4797     5130     5450     5762     6080     6403 
    6712     6990     7251     7524     7830     8158     8469     8735 
    8970     9192     9397     9552     9628     9647     9655     9687 
    9762     9868     9965    10005     9964     9844     9677     9515 
    9399     9341     9323     9297     9226     9119     9028     9006 
    9056     9146     9229     9267     9256     9216     9155     9069 
    8952     8796     8608     8422     8263     8136     8050     7994 
    7944     7879     7802     7746     7749     7837     8002     8202 
    8406     8592     8731     8808     8833     8838     8851     8880 
    8891     8825     8652     8378     8038     7688     7390     7163 
    6995     6860     6724     6559     6353     6114     5887     5727 
    5639     5598     5573     5522     5418     5284     5157     5066 
    5039     5082     5170     5276     5377     5461     5529     5587 
    5633     5662     5676     5671     5640     5587     5511     5401 
    5262     5103     4938     4783     4645     4526     4433     4368 
    4330     4330     4393     4528     4707     4895     5085     5280 
    5481     5694     5950     6289     6732     7265     7831     8359 
    8829     9254     9653    10028    10357    10600    10725    10714 
   10579    10369    10145     9947     9794     9689     9631     9606 
    9588     9550     9481     9406     9360     9360     9404     9485 
    9590     9711     9843     9982    10114    10243    10365    10450 
   10469    10407    10263    10076     9896     9727     9545     9359 
    9198     9076     8981     8874     8727     8551     8368     8188 
    8020     7870     7743     7644     7563     7478     7368     7233 
    7098     7007     6983     7012     7051     7055     6979     6795 
    6515     6193     5889     5651     5492     5393     5322     5261 
    5215     5198     5214     5269     5343     5384     5346     5210 
    4964     4599     4123     3570     2999     2465     2003     1611 
    1273     1012      865      840      913     1046     1212     1412 
