Origin Time       2011/03/11 14:46:00
Lat.              38.103
Long.             142.860
Depth. (km)       24
Mag.              9.0
Station Code      HKD177
Station Lat.      43.4001
Station Long.     141.4346
Station Height(m) 6
Record Time       2011/03/11 14:48:43
Sampling Freq(Hz) 100Hz
Duration Time(s)  236
Dir.              U-D
Scale Factor      3920(gal)/6182761
Max. Acc. (gal)   2.585
Last Correction   2011/03/11 14:48:28
Memo.             
[...]
  -21582   -21548   -21373   -21071   -20732   -20453   -20265   -20169 
  -20175   -20219   -20246   -20336   -20512   -20610   -20519   -20343 
  -20238   -20236   -20262   -20293   -20382   -20506   -20566   -20556 
  -20497   -20361   -20192   -20047   -19872   -19631   -19416   -19362 
  -19481   -19667   -19853   -20066   -20297   -20475   -20582   -20633 
  -20599   -20489   -20404   -20365   -20296   -20190   -20113   -20113 
  -20140   -20105   -20039   -20092   -20296   -20481   -20528   -20527 
  -20569   -20600   -20555   -20413   -20151   -19851   -19651   -19516 
  -19314   -19037   -18727   -18365   -17974   -17617   -17322   -17107 
  -16925   -16670   -16393   -16286   -16400   -16594   -16751   -16887 
  -17061   -17268   -17466   -17611   -17738   -17951   -18255   -18564 
  -18832   -19049   -19169   -19165   -19112   -19033   -18877   -18712 
  -18665   -18720   -18790   -18864   -18941   -18911   -18682   -18356 
  -18130   -18099   -18221   -18368   -18452   -18501   -18559   -18633 
  -18750   -18891   -18998   -19113   -19259   -19321   -19271   -19255 
  -19349   -19485   -19650   -19904   -20208   -20524   -20873   -21194 
  -21401   -21501   -21549   -21586   -21641   -21732   -21850   -21927 
  -21868   -21624   -21262   -20948   -20782   -20729   -20720   -20727 
  -20697   -20500   -20059   -19470   -18871   -18323   -17873   -17520 
  -17260   -17144   -17131   -17097   -17014   -16894   -16735   -16569 
  -16439   -16366   -16393   -16575   -16884   -17191   -17424   -17644 
  -17895   -18133   -18323   -18451   -18508   -18566   -18751   -19066 
  -19386   -19580   -19610   -19565   -19540   -19524   -19466   -19368 
  -19286   -19231   -19148   -19015   -18804   -18498   -18227   -18137 
  -18155   -18151   -18144   -18178   -18203   -18183   -18121   -18025 
  -17941   -17910   -17902   -17910   -17985   -18121   -18300   -18527 
  -18723   -18816   -18849   -18856   -18830   -18829   -18919   -19042 
  -19067   -18968   -18831   -18693   -18542   -18432   -18428   -18488 
  -18516   -18489   -18443   -18350   -18191   -18059   -18037   -18086 
  -18134   -18248   -18552   -18954   -19202   -19260   -19302   -19413 
  -19567   -19709   -19802   -19885   -20026   -20169   -20200   -20141 
  -20130   -20256   -20497   -20773   -21046   -21318   -21536   -21659 
  -21682   -21548   -21214   -20774   -20390   -20126   -19934   -19767 
  -19627   -19502   -19354   -19136   -18845   -18573   -18387   -18271 
  -18274   -18455   -18730   -18963   -19112   -19198   -19260   -19342 
  -19485   -19695   -19888   -19976   -19993   -19998   -19989   -19962 
  -19934   -19914   -19944   -20079   -20264   -20358   -20295   -20128 
  -19888   -19559   -19169   -18814   -18552   -18326   -18069   -17823 
  -17632   -17473   -17357   -17328   -17386   -17516   -17747   -18064 
  -18346   -18521   -18687   -18914   -19133   -19294   -19409   -19465 
  -19468   -19434   -19329   -19113   -18839   -18645   -18597   -18604 
  -18593   -18600   -18621   -18609   -18584   -18583   -18591   -18604 
  -18625   -18629   -18644   -18698   -18705   -18578   -18336   -18039 
  -17812   -17800   -17940   -17986   -17861   -17725   -17697   -17763 
  -17842   -17884   -17973   -18197   -18424   -18457   -18324   -18186 
  -18077   -17945   -17836   -17837   -17912   -17967   -17952   -17856 
  -17708   -17577   -17523   -17498   -17437   -17419   -17489   -17488 
  -17307   -17077   -16987   -17073   -17225   -17369   -17560   -17832 
  -18092   -18265   -18438   -18733   -19110   -19472   -19832   -20199 
  -20507   -20667   -20616   -20407   -20169   -19964   -19788   -19611 
  -19386   -19112   -18809   -18494   -18254   -18197   -18276   -18324 
  -18285   -18191   -18042   -17915   -17943   -18068   -18132   -18171 
  -18244   -18239   -18122   -18025   -18024   -18096   -18193   -18246 
  -18248   -18276   -18358   -18410   -18357   -18180   -17953   -17861 
  -17957   -18052   -18039   -18031   -18141   -18305   -18342   -18252 
  -18238   -18361   -18500   -18640   -18853   -19129   -19410   -19630 
  -19698   -19601   -19468   -19417   -19419   -19404   -19426   -19553 
  -19707   -19784   -19814   -19849   -19890   -19960   -20071   -20189 
  -20274   -20246   -20021   -19595   -19080   -18625   -18235   -17807 
  -17345   -16980   -16798   -16767   -16801   -16854   -16928   -17043 
  -17184   -17275   -17300   -17366   -17526   -17702   -17852   -18042 
  -18259   -18371   -18344   -18276   -18238   -18281   -18460   -18738 
  -18991   -19179   -19341   -19492   -19594   -19582   -19515   -19565 
  -19742   -19874   -19868   -19788   -19708   -19592   -19338   -18981 
  -18693   -18582   -18620   -18723   -18829   -18907   -18867   -18654 
  -18385   -18192   -18078   -18017   -17995   -18043   -18254   -18642 
  -19055   -19333   -19494   -19660   -19869   -20060   -20186   -20246 
  -20259   -20253   -20277   -20375   -20548   -20734   -20789   -20613 
  -20289   -19942   -19625   -19370   -19161   -18961   -18747   -18476 
  -18179   -17935   -17712   -17474   -17258   -17049   -16833   -16687 
  -16683   -16807   -16986   -17151   -17312   -17485   -17640   -17819 
  -18090   -18359   -18543   -18734   -19011   -19345   -19706   -20062 
  -20402   -20745   -21062   -21308   -21494   -21624   -21672   -21619 
  -21450   -21233   -21116   -21136   -21192   -21203   -21163   -21052 
  -20834   -20514   -20129   -19770   -19567   -19533   -19493   -19344 
  -19177   -19073   -19001   -18919   -18832   -18774   -18773   -18787 
  -18731   -18583   -18368   -18084   -17792   -17616   -17582   -17629 
  -17725   -17818   -17828   -17821   -17937   -18138   -18317   -18504 
  -18716   -18833   -18811   -18793   -18830   -18792   -18627   -18437 
  -18295   -18220   -18193   -18145   -18078   -18101   -18245   -18361 
  -18326   -18240   -18234   -18270   -18304   -18375   -18483   -18590 
  -18674   -18699   -18646   -18542   -18456   -18470   -18585   -18756 
  -18981   -19227   -19383   -19378   -19232   -19031   -18840   -18628 
  -18401   -18284   -18344   -18485   -18578   -18571   -18483   -18328 
  -18082   -17764   -17494   -17362   -17303   -17255   -17265   -17365 
  -17532   -17721   -17887   -18023   -18171   -18393   -18703   -19022 
  -19302   -19585   -19853   -20013   -20035   -20037   -20170   -20402 
  -20554   -20592   -20620   -20645   -20635   -20626   -20632   -20629 
  -20635   -20677   -20722   -20718   -20708   -20756   -20823   -20868 
  -20920   -20988   -21080   -21212   -21326   -21336   -21260   -21126 
  -20875   -20525   -20245   -20141   -20134   -20124   -20115   -20140 
  -20152   -20073   -19923   -19801   -19739   -19711   -19751   -19903 
  -20101   -20263   -20365   -20417   -20452   -20522   -20656   -20813 
  -20929   -21008   -21069   -21073   -20996   -20860   -20707   -20550 
  -20371   -20181   -20003   -19779   -19453   -19125   -18946   -18904 
  -18874   -18808   -18748   -18709   -18656   -18558   -18408   -18280 
  -18268   -18330   -18387   -18492   -18700   -18943   -19125   -19241 
  -19342   -19439   -19500   -19520   -19541   -19553   -19501   -19384 
  -19248   -19129   -19059   -19057   -19077   -19043   -18952   -18864 
  -18788   -18705   -18625   -18530   -18401   -18316   -18358   -18477 
  -18562   -18570   -18531   -18489   -18474   -18489   -18507   -18520 
  -18528   -18449   -18249   -18056   -18018   -18112   -18204   -18268 
  -18391   -18584   -18769   -18886   -18908   -18852   -18769   -18643 
  -18466   -18354   -18353   -18368   -18409   -18575   -18806   -18968 
  -19065   -19162   -19268   -19419   -19649   -19908   -20148   -20355 
  -20505   -20609   -20689   -20712   -20675   -20647   -20681   -20760 
  -20857   -20959   -21018   -20986   -20871   -20700   -20494   -20321 
  -20208   -20087   -19910   -19719   -19572   -19491   -19468   -19462 
  -19441   -19441   -19482   -19537   -19617   -19705   -19698   -19579 
  -19469   -19422   -19383   -19323   -19280   -19220   -19046   -18776 
  -18509   -18303   -18161   -18055   -17965   -17880   -17791   -17696 
  -17589   -17479   -17449   -17572   -17769   -17899   -17956   -18047 
  -18185   -18301   -18422   -18658   -19011   -19345   -19619   -19914 
  -20232   -20507   -20745   -21005   -21315   -21648   -21943   -22142 
  -22264   -22357   -22374   -22266   -22073   -21835   -21597   -21400 
  -21160   -20787   -20347   -19928   -19526   -19123   -18762   -18529 
  -18446   -18400   -18266   -18086   -17996   -18030   -18129   -18279 
  -18491   -18752   -19046   -19339   -19568   -19713   -19811   -19894 
  -20001   -20182   -20369   -20438   -20430   -20475   -20569   -20630 
  -20645   -20641   -20606   -20500   -20345   -20195   -20093   -20101 
  -20215   -20293   -20252   -20170   -20093   -19949   -19700   -19443 
  -19302   -19313   -19409   -19459   -19387   -19275   -19242   -19270 
  -19270   -19279   -19433   -19754   -20117   -20400   -20584   -20723 
  -20834   -20891   -20887   -20828   -20729   -20645   -20573   -20459 
  -20351   -20330   -20362   -20371   -20346   -20319   -20337   -20434 
  -20564   -20627   -20628   -20640   -20670   -20697   -20743   -20833 
  -20967   -21119   -21236   -21267   -21224   -21170   -21123   -21020 
  -20832   -20620   -20450   -20325   -20226   -20166   -20200   -20315 
  -20382   -20306   -20136   -19956   -19770   -19565   -19365   -19161 
  -18935   -18746   -18624   -18487   -18286   -18069   -17902   -17820 
  -17823   -17907   -18075   -18290   -18463   -18501   -18390   -18233 
  -18112   -17984   -17815   -17722   -17813   -17999   -18116   -18137 
  -18174   -18305   -18505   -18751   -19101   -19604   -20163   -20622 
  -20958   -21217   -21389   -21453   -21479   -21547   -21620   -21613 
  -21536   -21465   -21450   -21507   -21620   -21701   -21666   -21549 
  -21434   -21351   -21297   -21238   -21185   -21216   -21319   -21379 
  -21343   -21221   -21049   -20923   -20898   -20889   -20805   -20644 
  -20446   -20260   -20106   -19947   -19751   -19555   -19414   -19340 
  -19324   -19340   -19373   -19431   -19490   -19490   -19421   -19331 
  -19213   -19032   -18799   -18556   -18368   -18342   -18540   -18849 
  -19054   -19044   -18857   -18563   -18196   -17797   -17455   -17306 
  -17383   -17520   -17600   -17691   -17867   -18090   -18266   -18355 
  -18452   -18654   -18907   -19125   -19315   -19489   -19585   -19523 
  -19314   -19077   -18897   -18755   -18671   -18706   -18846   -19046 
  -19254   -19359   -19287   -19096   -18895   -18716   -18560   -18444 
  -18382   -18386   -18455   -18520   -18489   -18344   -18144   -17990 
  -17954   -18037   -18185   -18351   -18549   -18815   -19088   -19274 
  -19386   -19462   -19485   -19484   -19520   -19610   -19746   -19899 
  -20041   -20162   -20211   -20159   -20076   -20020   -19942   -19777 
  -19566   -19383   -19237   -19094   -18942   -18819   -18762   -18725 
  -18652   -18610   -18642   -18651   -18593   -18523   -18472   -18431 
  -18348   -18157   -17881   -17600   -17347   -17117   -16915   -16764 
  -16680   -16664   -16670   -16673   -16724   -16844   -16967   -17037 
  -17089   -17216   -17408   -17547   -17619   -17713   -17870   -18124 
  -18496   -18890   -19224   -19552   -19895   -20163   -20282   -20266 
  -20171   -20041   -19901   -19761   -19616   -19452   -19257   -19042 
  -18857   -18761   -18795   -18928   -19056   -19132   -19216   -19368 
  -19535   -19585   -19473   -19295   -19158   -19076   -19019   -19008 
  -19086   -19254   -19453   -19579   -19592   -19552   -19467   -19291 
  -19089   -19019   -19129   -19300   -19417   -19472   -19489   -19462 
  -19386   -19294   -19243   -19234   -19220   -19207   -19253   -19335 
  -19353   -19257   -19079   -18855   -18593   -18323   -18125   -18053 
  -18077   -18128   -18177   -18214   -18213   -18199   -18241   -18321 
  -18365   -18388   -18401   -18375   -18370   -18456   -18577   -18645 
  -18630   -18576   -18576   -18671   -18793   -18865   -18900   -18961 
  -19063   -19143   -19201   -19346   -19595   -19814   -19903   -19925 
  -20014   -20167   -20262   -20271   -20270   -20282   -20268   -20225 
  -20189   -20174   -20145   -20053   -19904   -19763   -19698   -19697 
  -19695   -19691   -19744   -19847   -19930   -19979   -20042   -20155 
  -20323   -20536   -20785   -21033   -21204   -21223   -21095   -20913 
  -20742   -20569   -20418   -20292   -20090   -19774   -19433   -19118 
  -18830   -18606   -18512   -18579   -18762   -18940   -18998   -18916 
  -18752   -18574   -18432   -18334   -18254   -18201   -18213   -18257 
  -18289   -18343   -18415   -18415   -18363   -18376   -18420   -18365 
  -18226   -18110   -18029   -17942   -17863   -17802   -17730   -17636 
  -17551   -17486   -17463   -17553   -17770   -18003   -18193   -18381 
  -18555   -18663   -18690   -18683   -18768   -19006   -19274   -19445 
  -19547   -19663   -19763   -19750   -19618   -19454   -19336   -19285 
  -19275   -19319   -19491   -19797   -20114   -20302   -20343   -20339 
  -20352   -20310   -20148   -19957   -19880   -19915   -19961   -19983 
  -20001   -19999   -19952   -19841   -19666   -19496   -19431   -19490 
  -19623   -19793   -20003   -20220   -20383   -20500   -20629   -20781 
  -20886   -20935   -21029   -21192   -21328   -21371   -21320   -21165 
  -20930   -20705   -20531   -20415   -20376   -20351   -20249   -20068 
  -19838   -19565   -19226   -18805   -18402   -18125   -17876   -17546 
  -17165   -16782   -16443   -16195   -15973   -15691   -15394   -15187 
  -15146   -15291   -15529   -15750   -15986   -16322   -16730   -17090 
  -17352   -17577   -17797   -17980   -18144   -18359   -18642   -18941 
  -19201   -19380   -19470   -19545   -19672   -19812   -19912   -20017 
  -20183   -20362   -20468   -20543   -20681   -20843   -20922   -20880 
  -20734   -20545   -20420   -20396   -20430   -20489   -20539   -20527 
  -20448   -20351   -20268   -20184   -20095   -20062   -20120   -20257 
  -20439   -20605   -20685   -20664   -20603   -20563   -20555   -20585 
  -20670   -20781   -20894   -21038   -21232   -21426   -21533   -21505 
  -21391   -21278   -21192   -21109   -21007   -20887   -20743   -20564 
  -20353   -20148   -20011   -19965   -19953   -19923   -19898   -19945 
  -20065   -20142   -20090   -20001   -19921   -19730   -19440   -19206 
  -19060   -18966   -18910   -18824   -18659   -18485   -18366   -18280 
  -18217   -18210   -18233   -18243   -18226   -18162   -18047   -17869 
  -17609   -17342   -17169   -17065   -16976   -16948   -17026   -17175 
  -17352   -17541   -17688   -17748   -17737   -17700   -17696   -17807 
  -18070   -18404   -18661   -18784   -18841   -18876   -18823   -18660 
  -18463   -18296   -18180   -18133   -18161   -18231   -18312   -18387 
  -18399   -18314   -18205   -18143   -18116   -18078   -18014   -17998 
  -18125   -18369   -18587   -18712   -18832   -18995   -19137   -19208 
  -19252   -19321   -19399   -19465   -19515   -19538   -19540   -19520 
  -19467   -19429   -19433   -19424   -19410   -19447   -19495   -19515 
  -19505   -19457   -19429   -19509   -19688   -19881   -20040   -20158 
  -20231   -20277   -20338   -20393   -20380   -20316   -20269   -20255 
  -20277   -20376   -20517   -20551   -20414   -20207   -20020   -19879 
  -19805   -19796   -19801   -19804   -19842   -19876   -19810   -19630 
  -19423   -19265   -19190   -19220   -19330   -19437   -19483   -19472 
  -19431   -19387   -19341   -19288   -19242   -19222   -19247   -19299 
  -19336   -19356   -19402   -19529   -19696   -19804   -19860   -19946 
  -20034   -20064   -20064   -20080   -20109   -20163   -20264   -20387 
  -20522   -20709   -20929   -21122   -21285   -21424   -21529   -21613 
  -21699   -21774   -21759   -21604   -21412   -21263   -21082   -20841 
  -20595   -20294   -19851   -19328   -18838   -18408   -18037   -17742 
  -17527   -17397   -17363   -17388   -17411   -17422   -17482   -17614 
  -17729   -17793   -17894   -18079   -18341   -18696   -19099   -19469 
  -19805   -20138   -20406   -20553   -20644   -20763   -20917   -21086 
  -21272   -21461   -21632   -21795   -21929   -21971   -21958   -22019 
  -22165   -22243   -22153   -21930   -21643   -21330   -20984   -20581 
  -20152   -19774   -19464   -19189   -18938   -18721   -18565   -18482 
  -18414   -18315   -18241   -18300   -18488   -18656   -18684   -18600 
  -18512   -18528   -18696   -18960   -19221   -19442   -19606   -19652 
  -19587   -19555   -19651   -19834   -20053   -20261   -20413   -20563 
  -20756   -20940   -21053   -21088   -21090   -21082   -21031   -20938 
  -20854   -20786   -20698   -20581   -20492   -20476   -20490   -20469 
  -20419   -20335   -20191   -20037   -19950   -19944   -20010   -20164 
  -20366   -20500   -20517   -20457   -20338   -20156   -19980   -19878 
  -19807   -19708   -19616   -19579   -19563   -19511   -19397   -19213 
  -18960   -18667   -18394   -18183   -18052   -18017   -18013   -17950 
  -17874   -17878   -17927   -17916   -17786   -17581   -17416   -17368 
  -17400   -17449   -17493   -17537   -17605   -17718   -17890   -18137 
  -18442   -18709   -18833   -18847   -18805   -18671   -18479   -18337 
  -18258   -18197   -18174   -18217   -18294   -18411   -18648   -19011 
  -19423   -19813   -20138   -20403   -20565   -20513   -20290   -20078 
  -19911   -19745   -19652   -19640   -19598   -19495   -19369   -19204 
  -18970   -18701   -18495   -18407   -18390   -18389   -18382   -18341 
  -18264   -18190   -18092   -17940   -17808   -17778   -17834   -17961 
  -18204   -18567   -18954   -19244   -19385   -19373   -19256   -19106 
  -18911   -18642   -18378   -18213   -18185   -18295   -18460   -18545 
  -18556   -18629   -18804   -19001   -19140   -19233   -19325   -19387 
  -19409   -19493   -19713   -20015   -20296   -20501   -20649   -20812 
  -21034   -21254   -21367   -21343   -21215   -21033   -20866   -20742 
  -20651   -20577   -20461   -20250   -19996   -19787   -19623   -19443 
  -19240   -19079   -19001   -18976   -18993   -19098   -19275   -19431 
  -19528   -19593   -19639   -19680   -19723   -19741   -19716   -19681 
  -19667   -19629   -19530   -19439   -19444   -19541   -19661   -19766 
  -19876   -20011   -20136   -20208   -20240   -20232   -20158   -20058 
  -19980   -19895   -19779   -19652   -19518   -19379   -19232   -19059 
  -18859   -18629   -18398   -18262   -18256   -18286   -18285   -18312 
  -18393   -18435   -18406   -18431   -18603   -18897   -19266   -19655 
  -20035   -20399   -20646   -20692   -20615   -20512   -20410   -20321 
  -20205   -20020   -19842   -19745   -19669   -19574   -19557   -19685 
  -19852   -19880   -19731   -19560   -19479   -19444   -19404   -19312 
  -19139   -18964   -18805   -18563   -18271   -18089   -18035   -17977 
  -17906   -17909   -17934   -17911   -17863   -17792   -17718   -17739 
  -17897   -18129   -18387   -18701   -19058   -19368   -19555   -19556 
  -19370   -19131   -18996   -19035   -19218   -19456   -19677   -19851 
  -19969   -20052   -20118   -20175   -20262   -20412   -20612   -20838 
  -21104   -21419   -21734   -21964   -22060   -22059   -22033   -21960 
  -21808   -21665   -21616   -21640   -21706   -21798   -21898   -22025 
  -22148   -22153   -22002   -21786   -21562   -21312   -21019   -20729 
  -20517   -20392   -20273   -20091   -19879   -19707   -19575   -19477 
  -19418   -19355   -19260   -19150   -19042   -18960   -18903   -18849 
