Origin Time       2011/03/11 14:46:00
Lat.              38.103
Long.             142.860
Depth. (km)       24
Mag.              9.0
Station Code      HKD151
Station Lat.      42.4948
Station Long.     140.3539
Station Height(m) 10
Record Time       2011/03/11 14:48:04
Sampling Freq(Hz) 100Hz
Duration Time(s)  300
Dir.              E-W
Scale Factor      3920(gal)/6182761
Max. Acc. (gal)   11.633
Last Correction   2011/03/11 14:47:49
Memo.             
[...]
   16530    16429    16367    16263    16068    15801    15529    15326 
   15227    15225    15268    15306    15340    15386    15460    15631 
   15962    16415    16896    17295    17509    17517    17393    17216 
   17057    16988    17029    17144    17301    17475    17605    17633 
   17566    17456    17323    17159    16976    16768    16513    16259 
   16076    15951    15850    15779    15734    15708    15744    15879 
   16127    16509    16989    17417    17677    17783    17769    17652 
   17506    17429    17470    17643    17929    18271    18586    18809 
   18938    19023    19115    19253    19454    19698    19936    20111 
   20198    20216    20200    20150    20050    19923    19804    19694 
   19544    19276    18827    18202    17460    16669    15915    15252 
   14653    14091    13588    13152    12760    12421    12169    12009 
   11909    11848    11865    12066    12489    13042    13607    14110 
   14474    14647    14624    14405    14001    13480    12922    12370 
   11853    11401    10982    10549    10126     9755     9410     9059 
    8744     8526     8424     8457     8601     8754     8848     8899 
    8930     8924     8886     8899     9059     9381     9825    10361 
   10962    11574    12127    12565    12882    13143    13485    14004 
   14668    15378    16022    16489    16775    16979    17159    17318 
   17499    17722    17920    18010    17958    17783    17559    17374 
   17245    17136    17012    16821    16534    16219    15968    15841 
   15865    16013    16232    16459    16603    16635    16605    16512 
   16314    16027    15663    15172    14518    13730    12897    12123 
   11478    11024    10793    10742    10801    10931    11087    11233 
   11356    11453    11547    11693    11896    12105    12287    12456 
   12618    12757    12900    13087    13265    13334    13298    13260 
   13304    13482    13834    14333    14862    15278    15483    15483 
   15377    15278    15252    15303    15391    15472    15518    15490 
   15381    15238    15095    14998    15023    15190    15459    15803 
   16195    16536    16731    16775    16720    16628    16580    16626 
   16763    16961    17215    17554    17959    18360    18749    19154 
   19535    19827    19981    19936    19658    19161    18482    17696 
   16905    16167    15475    14816    14225    13735    13331    12998 
   12740    12511    12217    11835    11436    11113    10891    10735 
   10669    10780    11074    11515    12112    12853    13702    14607 
   15458    16140    16580    16734    16668    16567    16563    16680 
   16927    17267    17616    17919    18150    18293    18360    18355 
   18261    18090    17888    17699    17564    17525    17626    17883 
   18239    18621    18979    19227    19259    19071    18767    18436 
   18151    17973    17881    17796    17648    17401    17074    16736 
   16433    16185    16015    15851    15526    14937    14107    13130 
   12131    11229    10527    10129    10067    10245    10540    10893 
   11260    11596    11883    12132    12386    12721    13190    13805 
   14545    15342    16118    16822    17375    17686    17751    17628 
   17366    17025    16700    16477    16384    16428    16611    16898 
   17224    17534    17775    17900    17921    17874    17763    17621 
   17529    17485    17391    17205    16987    16748    16416    15998 
   15577    15186    14814    14464    14130    13782    13423    13069 
   12736    12467    12272    12117    11979    11851    11705    11530 
   11388    11341    11366    11425    11497    11550    11584    11634 
   11719    11836    11980    12141    12317    12529    12793    13055 
   13235    13323    13314    13153    12810    12335    11827    11374 
   11022    10786    10693    10770    11013    11361    11736    12095 
   12412    12657    12843    12986    13063    13082    13083    13080 
   13086    13127    13228    13422    13692    13965    14185    14307 
   14281    14146    14036    14064    14259    14597    15038    15521 
   15980    16350    16567    16572    16386    16114    15847    15653 
   15594    15653    15758    15836    15811    15613    15267    14899 
   14601    14344    14102    13947    13943    14082    14348    14707 
   15092    15483    15918    16420    16959    17472    17887    18161 
   18304    18334    18263    18125    17953    17728    17385    16878 
   16250    15580    14919    14324    13890    13706    13795    14142 
   14711    15395    16022    16470    16747    16913    16967    16856 
   16578    16200    15764    15289    14837    14479    14241    14106 
   14072    14156    14367    14707    15151    15650    16153    16591 
   16863    16931    16876    16828    16864    17008    17240    17472 
   17616    17634    17501    17200    16750    16207    15616    14985 
   14327    13697    13131    12630    12252    12091    12156    12366 
   12600    12761    12816    12774    12670    12548    12454    12454 
   12572    12787    13106    13553    14100    14666    15175    15603 
   15936    16155    16298    16431    16586    16738    16850    16938 
   17052    17210    17425    17688    17930    18111    18285    18531 
   18851    19205    19582    19959    20243    20374    20400    20387 
   20364    20354    20368    20385    20363    20243    20004    19690 
   19355    19017    18657    18272    17894    17552    17259    17042 
   16949    16996    17125    17289    17506    17789    18100    18399 
   18706    19086    19580    20175    20826    21448    21946    22290 
   22526    22709    22861    22946    22897    22704    22419    22032 
   21506    20874    20160    19356    18526    17762    17119    16616 
   16228    15890    15546    15197    14868    14587    14423    14450 
   14655    14983    15371    15723    15975    16121    16141    16041 
   15921    15870    15902    15991    16123    16318    16596    16923 
   17238    17528    17818    18084    18262    18319    18265    18134 
   17969    17811    17691    17624    17626    17713    17873    18070 
   18258    18360    18348    18269    18167    18102    18166    18367 
   18643    18956    19240    19354    19221    18877    18353    17663 
   16865    16028    15224    14487    13774    13070    12415    11814 
   11273    10816    10408     9967     9466     8949     8471     8065 
    7746     7539     7443     7387     7344     7325     7271     7130 
    6954     6812     6742     6806     7041     7358     7636     7901 
    8261     8743     9276     9814    10339    10810    11173    11399 
   11497    11493    11395    11239    11126    11135    11234    11384 
   11615    11925    12228    12421    12404    12176    11866    11610 
   11490    11569    11855    12271    12740    13227    13694    14088 
   14393    14651    14940    15293    15691    16118    16553    16934 
   17210    17395    17553    17729    17906    18045    18139    18178 
   18134    18033    17946    17891    17827    17765    17775    17877 
   18041    18264    18567    18949    19366    19710    19893    19946 
   19951    19947    19945    19941    19886    19722    19442    19058 
   18522    17801    16985    16232    15620    15145    14822    14642 
   14508    14315    14045    13731    13355    12870    12313    11792 
   11360    11013    10785    10745    10923    11317    11919    12666 
   13438    14118    14643    14990    15182    15284    15385    15575 
   15901    16316    16722    17058    17331    17552    17660    17567 
   17231    16661    15913    15118    14418    13885    13524    13290 
   13119    12966    12786    12543    12268    12027    11835    11661 
   11488    11290    11060    10841    10690    10630    10659    10763 
   10933    11157    11390    11578    11692    11760    11865    12136 
   12661    13419    14317    15233    16059    16771    17387    17870 
   18172    18323    18370    18323    18242    18214    18291    18506 
   18843    19199    19476    19618    19611    19488    19291    19079 
   18930    18922    19096    19392    19657    19760    19648    19354 
   19012    18807    18829    19019    19292    19580    19788    19847 
   19765    19588    19354    19089    18779    18364    17802    17134 
   16424    15718    15075    14551    14161    13911    13823    13876 
   14020    14232    14476    14680    14803    14880    14986    15162 
   15410    15737    16119    16482    16763    16915    16905    16745 
   16482    16166    15836    15530    15309    15203    15189    15294 
   15568    15942    16243    16358    16285    16027    15623    15234 
   14980    14810    14656    14527    14397    14209    13966    13708 
   13457    13216    12975    12763    12636    12592    12626    12772 
   12997    13164    13195    13117    12994    12918    12967    13168 
   13531    14062    14732    15488    16267    17014    17653    18122 
   18388    18472    18415    18205    17815    17329    16900    16612 
   16484    16525    16671    16776    16746    16628    16534    16507 
   16559    16760    17165    17732    18373    19045    19715    20336 
   20868    21297    21639    21928    22173    22362    22482    22517 
   22462    22366    22309    22331    22402    22463    22487    22491 
   22447    22279    21955    21512    21050    20652    20314    20016 
   19735    19419    19057    18699    18374    18051    17699    17344 
   16988    16560    16012    15375    14731    14207    13899    13817 
   13915    14115    14368    14686    15060    15447    15848    16284 
   16737    17161    17518    17809    18099    18431    18735    18949 
   19129    19317    19458    19527    19543    19458    19218    18889 
   18531    18123    17696    17322    17000    16706    16446    16187 
   15893    15613    15379    15160    14985    14933    15031    15231 
   15467    15683    15841    15900    15855    15775    15688    15534 
   15270    14966    14725    14542    14371    14285    14345    14452 
   14446    14214    13678    12839    11829    10845    10039     9528 
    9386     9615    10152    10855    11568    12217    12754    13152 
   13511    13943    14463    15104    15888    16717    17481    18145 
   18696    19133    19485    19769    19958    20036    20043    20044 
   20065    20075    20065    20049    19998    19878    19676    19357 
   18915    18409    17928    17559    17343    17256    17263    17375 
   17586    17842    18095    18287    18318    18163    17926    17713 
   17549    17414    17291    17147    16913    16523    15975    15341 
   14681    14023    13434    12988    12678    12414    12127    11797 
   11401    10947    10507    10139     9855     9684     9630     9661 
    9787    10030    10322    10623    10989    11424    11903    12464 
   13113    13778    14367    14803    15090    15300    15475    15652 
   15926    16341    16788    17105    17214    17122    16842    16386 
   15839    15308    14797    14312    13929    13631    13347    13130 
   13038    13040    13149    13402    13779    14225    14659    15011 
   15252    15379    15377    15239    15014    14809    14684    14625 
   14582    14523    14458    14372    14234    14080    13977    13892 
   13740    13515    13285    13085    12899    12736    12628    12589 
   12594    12566    12436    12204    11914    11586    11243    10953 
   10784    10767    10924    11259    11702    12158    12616    13164 
   13837    14536    15162    15672    15978    15986    15742    15444 
   15268    15261    15430    15793    16298    16801    17176    17340 
   17290    17160    17105    17210    17509    17967    18462    18816 
   18860    18527    17875    16992    15948    14848    13819    12939 
   12240    11684    11190    10752    10413    10167     9959     9757 
    9543     9301     9050     8835     8697     8669     8734     8843 
    8996     9234     9544     9840    10069    10255    10405    10508 
   10635    10835    11067    11291    11485    11590    11558    11433 
   11320    11260    11283    11454    11755    12071    12299    12409 
   12430    12437    12536    12744    12994    13252    13496    13698 
   13865    14022    14177    14316    14419    14496    14582    14696 
   14821    14988    15276    15718    16285    16979    17800    18664 
   19477    20216    20870    21370    21637    21619    21270    20574 
   19613    18531    17480    16576    15886    15450    15235    15120 
   15019    14917    14808    14708    14670    14705    14781    14960 
   15339    15863    16414    16955    17476    17936    18329    18715 
   19133    19559    19942    20220    20361    20406    20451    20613 
   20977    21548    22274    23091    23890    24520    24888    25003 
   24932    24755    24548    24368    24192    23954    23657    23334 
   23042    22861    22802    22819    22935    23168    23370    23323 
   22981    22411    21649    20765    19926    19268    18826    18609 
   18642    18927    19374    19817    20108    20182    20016    19590 
   18956    18226    17457    16712    16107    15654    15285    15009 
   14853    14758    14681    14631    14593    14580    14646    14774 
   14889    14990    15131    15281    15378    15492    15752    16176 
   16692    17219    17673    18002    18193    18261    18270    18324 
   18523    18929    19557    20376    21334    22371    23459    24627 
   25871    27102    28254    29378    30517    31620    32603    33396 
   33936    34204    34258    34195    34040    33758    33383    32971 
   32487    31884    31201    30452    29551    28456    27223    25924 
   24629    23389    22181    20935    19664    18434    17322    16425 
   15775    15324    15027    14848    14723    14601    14488    14423 
   14426    14521    14729    15031    15398    15836    16332    16853 
   17421    18064    18717    19290    19763    20146    20426    20615 
   20744    20781    20737    20707    20760    20960    21296    21631 
   21871    22017    22026    21816    21432    21012    20614    20229 
   19910    19722    19654    19700    19845    20008    20169    20381 
   20585    20695    20724    20667    20516    20350    20210    20060 
   19902    19777    19689    19609    19525    19465    19426    19329 
   19169    19004    18823    18565    18180    17644    17003    16378 
   15871    15569    15517    15620    15753    15879    15965    15960 
   15842    15618    15330    15058    14854    14763    14832    15037 
   15312    15639    15988    16301    16515    16568    16457    16241 
   15976    15708    15495    15373    15318    15287    15256    15210 
   15126    15007    14913    14911    14974    15010    14950    14771 
   14447    13957    13334    12694    12168    11842    11789    12032 
   12455    12921    13427    14000    14596    15146    15635    16119 
   16611    16986    17114    17033    16883    16778    16774    16886 
   17105    17342    17440    17338    17099    16820    16564    16308 
   16003    15652    15300    14983    14778    14749    14833    14957 
   15086    15161    15188    15265    15442    15665    15843    15928 
   15915    15832    15746    15725    15806    15972    16161    16300 
   16330    16246    16057    15753    15366    15020    14849    14896 
   15121    15435    15743    15981    16089    16052    15936    15806 
   15688    15622    15655    15744    15803    15824    15801    15686 
   15454    15104    14641    14106    13544    12974    12414    11856 
   11236    10525     9794     9121     8526     8053     7763     7630 
    7582     7624     7806     8128     8566     9104     9712    10344 
   10936    11430    11837    12233    12646    13030    13317    13452 
   13437    13303    13048    12682    12277    11877    11482    11122 
   10833    10602    10408    10230    10047     9874     9755     9720 
    9761     9866    10023    10231    10527    10950    11478    12067 
   12687    13272    13746    14109    14419    14680    14852    14911 
   14857    14664    14318    13870    13373    12878    12462    12164 
   11929    11693    11447    11175    10850    10492    10115     9713 
    9292     8829     8304     7772     7313     6948     6658     6429 
    6254     6105     5957     5840     5819     5927     6152     6485 
    6915     7425     7992     8574     9116     9615    10096    10540 
   10940    11394    11986    12686    13443    14247    15043    15720 
   16243    16678    17071    17442    17812    18192    18584    18976 
   19316    19547    19662    19668    19545    19316    19026    18650 
   18137    17483    16697    15803    14867    13955    13142    12494 
   11986    11557    11177    10791    10334     9865     9563     9533 
    9767    10209    10771    11382    12059    12818    13598    14356 
   15107    15853    16580    17285    17923    18424    18762    18949 
   19023    19026    18999    18992    19045    19156    19259    19297 
   19276    19220    19154    19134    19136    19029    18725    18206 
   17482    16639    15845    15235    14862    14695    14612    14494 
   14353    14259    14211    14207    14316    14602    15037    15550 
   16108    16653    17089    17373    17514    17536    17460    17281 
   16999    16642    16246    15868    15599    15496    15541    15678 
   15805    15832    15803    15799    15840    15959    16189    16457 
   16686    16878    17060    17257    17490    17732    17917    18016 
   18068    18089    18023    17827    17487    17041    16620    16324 
   16145    16052    16027    16033    16038    16061    16152    16388 
   16796    17277    17730    18131    18468    18783    19194    19801 
   20607    21526    22463    23337    24063    24611    25026    25365 
   25655    25913    26166    26432    26667    26824    26939    27048 
   27171    27357    27621    27930    28218    28399    28422    28282 
   28001    27633    27281    27031    26912    26935    27078    27286 
   27487    27543    27355    26980    26524    26040    25558    25121 
   24750    24406    24011    23507    22942    22401    21866    21324 
   20853    20496    20216    19984    19744    19407    18944    18368 
   17688    16949    16243    15658    15267    15100    15114    15263 
   15506    15755    15968    16183    16414    16672    17020    17484 
   18032    18663    19401    20212    21037    21830    22548    23162 
   23640    23956    24131    24220    24270    24315    24374    24400 
   24321    24146    23905    23594    23242    22910    22579    22188 
   21741    21256    20703    20100    19496    18879    18255    17662 
   17106    16569    16037    15470    14846    14174    13487    12844 
   12304    11912    11727    11796    12082    12523    13105    13751 
   14333    14841    15329    15818    16303    16803    17378    17987 
   18509    18924    19224    19400    19502    19549    19571    19650 
   19794    19911    19896    19725    19434    19074    18720    18438 
   18275    18239    18253    18246    18187    18024    17737    17394 
   17075    16790    16507    16205    15864    15499    15158    14854 
   14539    14159    13683    13078    12362    11612    10871    10165 
    9568     9132     8835     8655     8583     8603     8720     8924 
    9177     9464     9787    10109    10383    10606    10800    10963 
