Origin Time       2011/03/11 14:46:00
Lat.              38.103
Long.             142.860
Depth. (km)       24
Mag.              9.0
Station Code      HKD114
Station Lat.      44.2829
Station Long.     142.1619
Station Height(m) 255
Record Time       2011/03/11 14:49:34
Sampling Freq(Hz) 100Hz
Duration Time(s)  186
Dir.              E-W
Scale Factor      3920(gal)/6182761
Max. Acc. (gal)   6.278
Last Correction   2011/03/11 14:49:19
Memo.             
[...]
  -14936   -15032   -15116   -15187   -15243   -15289   -15328   -15359 
  -15382   -15399   -15411   -15413   -15406   -15391   -15369   -15336 
  -15294   -15249   -15198   -15142   -15086   -15027   -14963   -14897 
  -14830   -14758   -14682   -14603   -14522   -14440   -14358   -14278 
  -14197   -14118   -14041   -13965   -13891   -13816   -13741   -13663 
  -13583   -13500   -13416   -13331   -13246   -13160   -13079   -13004 
  -12936   -12878   -12830   -12792   -12761   -12733   -12707   -12681 
  -12645   -12595   -12532   -12453   -12363   -12266   -12164   -12057 
  -11946   -11835   -11728   -11622   -11518   -11418   -11324   -11240 
  -11167   -11102   -11049   -11011   -10983   -10967   -10967   -10979 
  -11004   -11044   -11093   -11149   -11212   -11274   -11330   -11382 
  -11427   -11462   -11487   -11504   -11513   -11510   -11499   -11481 
  -11455   -11426   -11402   -11377   -11352   -11333   -11319   -11311 
  -11315   -11328   -11345   -11369   -11400   -11435   -11475   -11517 
  -11559   -11596   -11626   -11645   -11647   -11630   -11599   -11556 
  -11503   -11444   -11379   -11310   -11238   -11166   -11096   -11029 
  -10970   -10923   -10886   -10859   -10847   -10846   -10851   -10863 
  -10883   -10908   -10936   -10968   -11000   -11032   -11064   -11093 
  -11120   -11148   -11174   -11202   -11230   -11260   -11297   -11347 
  -11411   -11486   -11574   -11678   -11792   -11915   -12050   -12195 
  -12350   -12513   -12679   -12845   -13010   -13170   -13320   -13460 
  -13594   -13723   -13843   -13958   -14074   -14189   -14304   -14424 
  -14550   -14677   -14810   -14952   -15101   -15256   -15415   -15575 
  -15734   -15895   -16054   -16208   -16351   -16479   -16593   -16691 
  -16770   -16837   -16894   -16940   -16978   -17006   -17029   -17052 
  -17072   -17091   -17116   -17144   -17173   -17202   -17231   -17261 
  -17291   -17313   -17324   -17327   -17316   -17285   -17235   -17166 
  -17075   -16963   -16836   -16696   -16546   -16393   -16241   -16093 
  -15957   -15833   -15719   -15621   -15541   -15481   -15440   -15416 
  -15404   -15397   -15390   -15380   -15363   -15334   -15294   -15250 
  -15197   -15133   -15066   -14997   -14921   -14840   -14759   -14678 
  -14596   -14518   -14445   -14377   -14317   -14266   -14225   -14197 
  -14176   -14160   -14149   -14135   -14118   -14100   -14076   -14041 
  -13998   -13944   -13881   -13813   -13740   -13660   -13582   -13510 
  -13447   -13395   -13356   -13327   -13304   -13285   -13269   -13255 
  -13240   -13218   -13189   -13151   -13103   -13047   -12984   -12913 
  -12838   -12764   -12695   -12635   -12582   -12535   -12499   -12474 
  -12458   -12453   -12456   -12466   -12484   -12506   -12531   -12561 
  -12592   -12617   -12638   -12655   -12664   -12670   -12675   -12674 
  -12666   -12652   -12633   -12612   -12588   -12564   -12540   -12516 
  -12494   -12481   -12475   -12476   -12487   -12507   -12535   -12567 
  -12597   -12621   -12638   -12641   -12625   -12590   -12537   -12464 
  -12372   -12266   -12148   -12016   -11876   -11736   -11597   -11459 
  -11325   -11199   -11086   -10989   -10906   -10838   -10785   -10745 
  -10715   -10689   -10669   -10653   -10636   -10611   -10573   -10519 
  -10450   -10366   -10268   -10160   -10047    -9933    -9824    -9724 
   -9638    -9569    -9517    -9482    -9469    -9475    -9494    -9527 
   -9574    -9628    -9684    -9743    -9802    -9857    -9907    -9946 
   -9971    -9987    -9992    -9987    -9974    -9956    -9937    -9917 
   -9898    -9880    -9869    -9866    -9876    -9899    -9938    -9989 
  -10057   -10140   -10232   -10325   -10426   -10534   -10645   -10761 
  -10880   -10997   -11112   -11222   -11322   -11409   -11477   -11523 
  -11544   -11542   -11518   -11478   -11433   -11387   -11343   -11307 
  -11284   -11275   -11283   -11313   -11364   -11433   -11521   -11621 
  -11730   -11841   -11947   -12047   -12140   -12223   -12287   -12328 
  -12350   -12358   -12349   -12323   -12287   -12245   -12198   -12148 
  -12099   -12054   -12010   -11967   -11929   -11898   -11876   -11864 
  -11859   -11856   -11854   -11849   -11838   -11823   -11805   -11780 
  -11748   -11707   -11664   -11620   -11574   -11527   -11484   -11445 
  -11414   -11389   -11374   -11369   -11373   -11383   -11398   -11417 
  -11438   -11460   -11485   -11512   -11541   -11571   -11600   -11625 
  -11645   -11657   -11663   -11669   -11669   -11662   -11647   -11627 
  -11604   -11577   -11543   -11509   -11482   -11460   -11446   -11438 
  -11433   -11428   -11428   -11430   -11431   -11430   -11430   -11426 
  -11421   -11413   -11402   -11389   -11373   -11353   -11332   -11309 
  -11283   -11254   -11221   -11189   -11160   -11132   -11108   -11090 
  -11079   -11078   -11086   -11100   -11120   -11143   -11168   -11198 
  -11228   -11256   -11284   -11309   -11332   -11355   -11375   -11395 
  -11417   -11440   -11465   -11493   -11527   -11566   -11604   -11642 
  -11687   -11740   -11799   -11867   -11942   -12020   -12098   -12169 
  -12235   -12295   -12347   -12397   -12444   -12484   -12521   -12554 
  -12578   -12597   -12614   -12628   -12636   -12634   -12623   -12602 
  -12570   -12531   -12483   -12426   -12368   -12307   -12243   -12181 
  -12117   -12056   -12005   -11965   -11934   -11916   -11908   -11906 
  -11914   -11926   -11938   -11955   -11969   -11979   -11985   -11976 
  -11949   -11909   -11855   -11791   -11722   -11653   -11584   -11514 
  -11444   -11380   -11324   -11277   -11243   -11221   -11214   -11214 
  -11214   -11219   -11233   -11246   -11261   -11284   -11303   -11309 
  -11313   -11316   -11310   -11295   -11278   -11256   -11224   -11186 
  -11142   -11095   -11046   -10995   -10947   -10911   -10890   -10885 
  -10895   -10920   -10961   -11017   -11083   -11154   -11228   -11300 
  -11366   -11425   -11469   -11500   -11516   -11515   -11492   -11448 
  -11387   -11319   -11242   -11161   -11088   -11028   -10981   -10953 
  -10950   -10971   -11016   -11085   -11178   -11289   -11413   -11546 
  -11682   -11816   -11944   -12064   -12171   -12262   -12330   -12374 
  -12402   -12415   -12419   -12413   -12392   -12370   -12354   -12335 
  -12319   -12321   -12338   -12367   -12414   -12478   -12559   -12658 
  -12776   -12907   -13046   -13190   -13331   -13461   -13569   -13652 
  -13712   -13748   -13762   -13756   -13730   -13684   -13625   -13561 
  -13493   -13424   -13360   -13305   -13260   -13225   -13205   -13200 
  -13207   -13224   -13255   -13307   -13374   -13448   -13524   -13611 
  -13699   -13775   -13838   -13888   -13911   -13910   -13889   -13846 
  -13790   -13722   -13640   -13553   -13475   -13404   -13339   -13287 
  -13249   -13217   -13191   -13177   -13174   -13174   -13174   -13175 
  -13178   -13178   -13169   -13158   -13148   -13128   -13096   -13060 
  -13023   -12977   -12919   -12860   -12803   -12742   -12679   -12621 
  -12569   -12518   -12466   -12420   -12379   -12340   -12302   -12264 
  -12223   -12180   -12130   -12071   -12009   -11945   -11877   -11808 
  -11731   -11651   -11573   -11497   -11419   -11344   -11273   -11201 
  -11130   -11061   -10996   -10930   -10863   -10799   -10743   -10690 
  -10636   -10579   -10522   -10460   -10389   -10317   -10251   -10192 
  -10141   -10095   -10055   -10015    -9973    -9934    -9906    -9894 
   -9901    -9924    -9957    -9997   -10041   -10086   -10141   -10205 
  -10273   -10348   -10428   -10500   -10563   -10625   -10680   -10733 
  -10794   -10859   -10925   -10997   -11070   -11138   -11202   -11266 
  -11330   -11398   -11474   -11557   -11649   -11749   -11852   -11963 
  -12084   -12207   -12332   -12466   -12603   -12737   -12871   -12998 
  -13114   -13225   -13332   -13433   -13522   -13602   -13675   -13740 
  -13798   -13850   -13897   -13941   -13986   -14033   -14081   -14130 
  -14181   -14230   -14279   -14337   -14403   -14470   -14537   -14600 
  -14659   -14713   -14760   -14797   -14822   -14829   -14820   -14797 
  -14764   -14718   -14656   -14576   -14484   -14388   -14296   -14212 
  -14141   -14084   -14041   -14010   -13988   -13980   -13982   -13993 
  -14016   -14049   -14081   -14105   -14121   -14127   -14120   -14101 
  -14067   -14015   -13945   -13855   -13754   -13656   -13562   -13473 
  -13395   -13333   -13283   -13249   -13236   -13243   -13269   -13310 
  -13365   -13427   -13489   -13544   -13586   -13619   -13638   -13637 
  -13618   -13584   -13538   -13483   -13422   -13349   -13268   -13182 
  -13089   -12994   -12907   -12833   -12773   -12725   -12685   -12648 
  -12610   -12574   -12542   -12514   -12484   -12446   -12390   -12313 
  -12222   -12121   -12014   -11906   -11806   -11716   -11636   -11560 
  -11486   -11414   -11346   -11284   -11230   -11181   -11137   -11095 
  -11052   -11006   -10961   -10916   -10862   -10800   -10728   -10649 
  -10568   -10484   -10393   -10295   -10198   -10101   -10002    -9908 
   -9822    -9743    -9673    -9618    -9581    -9569    -9579    -9608 
   -9648    -9689    -9726    -9756    -9775    -9784    -9790    -9797 
   -9802    -9803    -9803    -9799    -9789    -9780    -9774    -9772 
   -9778    -9791    -9809    -9837    -9876    -9925    -9978   -10034 
  -10090   -10144   -10199   -10255   -10314   -10370   -10419   -10457 
  -10483   -10500   -10511   -10522   -10533   -10547   -10564   -10579 
  -10590   -10606   -10629   -10660   -10698   -10742   -10795   -10856 
  -10925   -11002   -11082   -11162   -11241   -11311   -11369   -11411 
  -11439   -11459   -11471   -11468   -11455   -11431   -11394   -11350 
  -11307   -11266   -11230   -11200   -11176   -11151   -11127   -11113 
  -11114   -11130   -11159   -11192   -11218   -11228   -11223   -11207 
  -11186   -11166   -11140   -11095   -11029   -10944   -10844   -10745 
  -10655   -10574   -10502   -10440   -10386   -10338   -10300   -10275 
  -10272   -10290   -10319   -10352   -10394   -10444   -10497   -10548 
  -10598   -10643   -10681   -10719   -10764   -10822   -10889   -10959 
  -11032   -11104   -11171   -11233   -11294   -11363   -11441   -11519 
  -11596   -11668   -11731   -11789   -11849   -11912   -11980   -12046 
  -12108   -12168   -12227   -12288   -12349   -12408   -12463   -12512 
  -12550   -12579   -12601   -12612   -12611   -12600   -12579   -12556 
  -12529   -12493   -12449   -12397   -12339   -12277   -12209   -12137 
  -12065   -11995   -11925   -11857   -11792   -11726   -11660   -11598 
  -11535   -11477   -11429   -11390   -11361   -11337   -11318   -11304 
  -11296   -11291   -11285   -11280   -11276   -11274   -11270   -11263 
  -11251   -11233   -11207   -11177   -11145   -11108   -11068   -11030 
  -10995   -10962   -10937   -10924   -10919   -10920   -10928   -10942 
  -10966   -11002   -11046   -11101   -11167   -11233   -11299   -11369 
  -11433   -11491   -11547   -11600   -11652   -11707   -11762   -11810 
  -11852   -11890   -11924   -11956   -11984   -12010   -12036   -12062 
  -12089   -12122   -12163   -12205   -12247   -12290   -12334   -12379 
  -12423   -12465   -12510   -12563   -12622   -12686   -12761   -12843 
  -12921   -12993   -13064   -13136   -13214   -13300   -13388   -13481 
  -13582   -13682   -13783   -13889   -13996   -14105   -14214   -14316 
  -14410   -14496   -14572   -14636   -14689   -14734   -14771   -14803 
  -14832   -14855   -14878   -14905   -14929   -14955   -14990   -15034 
  -15083   -15136   -15195   -15255   -15311   -15363   -15414   -15465 
  -15513   -15555   -15592   -15622   -15640   -15648   -15649   -15645 
  -15642   -15638   -15635   -15635   -15636   -15639   -15651   -15668 
  -15688   -15714   -15747   -15781   -15814   -15851   -15893   -15936 
  -15979   -16023   -16065   -16100   -16128   -16148   -16154   -16145 
  -16123   -16091   -16053   -16014   -15975   -15932   -15886   -15836 
  -15781   -15722   -15658   -15589   -15517   -15439   -15354   -15267 
  -15182   -15100   -15021   -14951   -14890   -14837   -14794   -14758 
  -14726   -14703   -14679   -14654   -14627   -14599   -14565   -14529 
  -14485   -14432   -14374   -14308   -14229   -14141   -14044   -13938 
  -13825   -13706   -13583   -13457   -13333   -13215   -13106   -13011 
  -12932   -12864   -12810   -12773   -12748   -12732   -12729   -12740 
  -12755   -12775   -12802   -12830   -12850   -12859   -12857   -12845 
  -12821   -12786   -12740   -12685   -12619   -12540   -12447   -12346 
  -12238   -12128   -12021   -11918   -11823   -11736   -11660   -11596 
  -11540   -11493   -11459   -11432   -11409   -11390   -11372   -11352 
  -11324   -11283   -11230   -11165   -11083   -10983   -10864   -10729 
  -10579   -10419   -10258   -10101    -9952    -9814    -9687    -9564 
   -9447    -9338    -9244    -9165    -9096    -9035    -8984    -8936 
   -8891    -8850    -8813    -8778    -8743    -8704    -8658    -8600 
   -8531    -8457    -8377    -8294    -8206    -8113    -8017    -7918 
   -7819    -7728    -7645    -7565    -7492    -7427    -7368    -7309 
   -7253    -7200    -7146    -7087    -7022    -6948    -6863    -6769 
   -6659    -6533    -6386    -6220    -6038    -5843    -5639    -5428 
   -5217    -5013    -4814    -4621    -4441    -4278    -4131    -4005 
   -3895    -3795    -3706    -3627    -3557    -3493    -3433    -3374 
   -3315    -3253    -3186    -3117    -3045    -2972    -2899    -2824 
   -2748    -2676    -2606    -2541    -2483    -2431    -2384    -2341 
   -2303    -2276    -2262    -2262    -2276    -2301    -2330    -2362 
   -2404    -2451    -2502    -2561    -2620    -2678    -2738    -2800 
   -2865    -2930    -2997    -3068    -3142    -3223    -3312    -3410 
   -3520    -3638    -3762    -3894    -4035    -4176    -4316    -4457 
   -4594    -4722    -4843    -4956    -5060    -5155    -5241    -5316 
   -5382    -5440    -5493    -5546    -5601    -5662    -5734    -5817 
   -5911    -6016    -6130    -6252    -6383    -6520    -6661    -6807 
   -6958    -7108    -7257    -7402    -7539    -7667    -7790    -7907 
   -8016    -8122    -8229    -8335    -8439    -8544    -8647    -8752 
   -8861    -8973    -9089    -9211    -9336    -9461    -9589    -9720 
   -9852    -9987   -10125   -10265   -10404   -10538   -10671   -10801 
  -10928   -11051   -11171   -11285   -11393   -11495   -11587   -11668 
  -11741   -11806   -11865   -11922   -11977   -12031   -12086   -12141 
  -12196   -12252   -12308   -12363   -12422   -12483   -12544   -12602 
  -12659   -12712   -12755   -12789   -12813   -12826   -12831   -12829 
  -12820   -12805   -12781   -12746   -12704   -12659   -12613   -12569 
  -12528   -12487   -12447   -12408   -12372   -12339   -12308   -12282 
  -12258   -12235   -12210   -12185   -12160   -12138   -12117   -12098 
  -12084   -12072   -12060   -12049   -12042   -12043   -12053   -12070 
  -12097   -12132   -12172   -12218   -12266   -12317   -12371   -12422 
  -12470   -12514   -12549   -12575   -12593   -12600   -12599   -12596 
  -12587   -12573   -12559   -12544   -12531   -12526   -12528   -12542 
  -12570   -12612   -12664   -12728   -12803   -12888   -12977   -13070 
  -13162   -13248   -13326   -13391   -13442   -13478   -13497   -13501 
  -13494   -13479   -13463   -13447   -13433   -13428   -13436   -13457 
  -13491   -13540   -13604   -13683   -13776   -13880   -13992   -14111 
  -14232   -14351   -14466   -14579   -14684   -14788   -14889   -14979 
  -15058   -15125   -15177   -15219   -15254   -15282   -15306   -15328 
  -15348   -15367   -15387   -15413   -15443   -15480   -15531   -15594 
  -15667   -15749   -15840   -15939   -16043   -16152   -16267   -16383 
  -16494   -16599   -16697   -16783   -16860   -16928   -16984   -17029 
  -17066   -17094   -17116   -17135   -17148   -17155   -17158   -17156 
  -17150   -17147   -17144   -17142   -17141   -17143   -17148   -17157 
  -17167   -17180   -17195   -17208   -17215   -17216   -17210   -17197 
  -17173   -17136   -17088   -17029   -16955   -16868   -16774   -16674 
  -16575   -16482   -16397   -16321   -16254   -16195   -16140   -16091 
  -16054   -16022   -15987   -15955   -15923   -15886   -15843   -15796 
  -15740   -15675   -15607   -15536   -15458   -15375   -15286   -15194 
  -15101   -15008   -14915   -14829   -14750   -14678   -14609   -14544 
  -14485   -14429   -14375   -14324   -14276   -14227   -14182   -14138 
  -14091   -14049   -14012   -13976   -13948   -13923   -13896   -13867 
  -13832   -13789   -13736   -13671   -13597   -13515   -13425   -13329 
  -13225   -13116   -13003   -12886   -12774   -12668   -12570   -12484 
  -12406   -12336   -12273   -12217   -12169   -12130   -12097   -12070 
  -12051   -12034   -12018   -12003   -11987   -11969   -11953   -11937 
  -11921   -11899   -11877   -11859   -11841   -11822   -11809   -11799 
  -11792   -11792   -11800   -11812   -11831   -11859   -11890   -11927 
  -11969   -12013   -12057   -12100   -12133   -12161   -12187   -12202 
  -12207   -12210   -12205   -12195   -12184   -12172   -12159   -12147 
  -12136   -12124   -12114   -12105   -12095   -12087   -12082   -12074 
  -12064   -12056   -12044   -12029   -12010   -11985   -11955   -11922 
  -11888   -11854   -11820   -11787   -11758   -11734   -11715   -11700 
  -11693   -11693   -11697   -11710   -11732   -11756   -11782   -11806 
  -11826   -11839   -11848   -11851   -11845   -11831   -11811   -11780 
  -11741   -11697   -11648   -11592   -11535   -11478   -11424   -11373 
  -11331   -11299   -11277   -11269   -11273   -11291   -11323   -11363 
  -11411   -11467   -11522   -11575   -11623   -11664   -11695   -11713 
  -11719   -11719   -11707   -11684   -11653   -11614   -11569   -11524 
  -11479   -11438   -11401   -11370   -11349   -11341   -11344   -11356 
  -11380   -11413   -11452   -11492   -11538   -11585   -11629   -11666 
  -11693   -11703   -11692   -11663   -11620   -11561   -11484   -11398 
  -11305   -11203   -11095   -10992   -10895   -10803   -10724   -10657 
  -10600   -10556   -10527   -10505   -10490   -10481   -10469   -10456 
  -10443   -10429   -10409   -10383   -10349   -10309   -10263   -10212 
  -10160   -10112   -10069   -10032   -10002    -9982    -9972    -9973 
   -9988   -10017   -10053   -10091   -10130   -10169   -10205   -10234 
  -10254   -10270   -10278   -10275   -10263   -10240   -10206   -10168 
  -10128   -10088   -10049   -10017    -9992    -9975    -9969    -9974 
   -9989   -10011   -10039   -10069   -10100   -10134   -10170   -10202 
  -10231   -10257   -10282   -10303   -10319   -10333   -10341   -10346 
  -10347   -10345   -10344   -10339   -10331   -10325   -10317   -10306 
  -10301   -10298   -10298   -10306   -10317   -10337   -10363   -10387 
  -10413   -10443   -10473   -10503   -10532   -10562   -10588   -10609 
  -10631   -10653   -10675   -10695   -10713   -10730   -10746   -10756 
  -10764   -10773   -10781   -10787   -10791   -10790   -10786   -10779 
  -10768   -10756   -10744   -10732   -10720   -10704   -10686   -10666 
  -10639   -10606   -10567   -10522   -10473   -10419   -10358   -10297 
  -10238   -10181   -10129   -10083   -10044   -10012    -9986    -9964 
   -9947    -9938    -9928    -9917    -9910    -9908    -9907    -9911 
   -9923    -9941    -9963    -9986   -10012   -10038   -10061   -10079 
  -10096   -10109   -10120   -10128   -10131   -10130   -10125   -10117 
