Origin Time       2011/03/11 14:46:00
Lat.              38.103
Long.             142.860
Depth. (km)       24
Mag.              9.0
Station Code      HKD153
Station Lat.      42.1245
Station Long.     140.3755
Station Height(m) 69
Record Time       2011/03/11 14:48:48
Sampling Freq(Hz) 100Hz
Duration Time(s)  133
Dir.              E-W
Scale Factor      3920(gal)/6182761
Max. Acc. (gal)   4.832
Last Correction   2011/03/11 14:48:33
Memo.             
[...]
   10210     9946     9704     9440     9157     8948     8914     9083 
    9413     9812    10173    10451    10672    10883    11109    11368 
   11647    11882    11961    11827    11558    11290    11125    11103 
   11193    11306    11361    11333    11253    11138    10942    10604 
   10137     9625     9153     8775     8529     8427     8460     8613 
    8851     9157     9513     9887    10273    10717    11258    11860 
   12404    12742    12784    12541    12099    11562    11010    10502 
   10099     9863     9807     9902    10114    10420    10779    11139 
   11446    11615    11584    11421    11294    11306    11416    11500 
   11453    11254    10974    10732    10601    10559    10524    10419 
   10211     9946     9741     9685     9771     9931    10081    10153 
   10151    10145    10227    10450    10815    11292    11826    12334 
   12748    13021    13111    12997    12718    12384    12119    11971 
   11906    11844    11722    11541    11357    11204    11073    10961 
   10890    10891    11006    11269    11643    12033    12351    12527 
   12510    12297    11933    11495    11066    10701    10409    10185 
   10047    10041    10221    10588    11063    11531    11872    12013 
   11980    11871    11773    11743    11789    11864    11903    11886 
   11859    11884    11964    12043    12060    12000    11915    11887 
   11972    12155    12338    12411    12339    12163    11971    11846 
   11836    11951    12157    12375    12554    12711    12902    13145 
   13359    13406    13240    12965    12731    12625    12635    12690 
   12735    12766    12799    12812    12760    12645    12526    12470 
   12503    12588    12639    12598    12484    12353    12250    12194 
   12177    12170    12169    12220    12355    12555    12767    12906 
   12882    12687    12408    12138    11925    11771    11642    11486 
   11251    10905    10463     9992     9590     9336     9257     9324 
    9461     9608     9777    10007    10310    10648    10942    11140 
   11255    11321    11369    11399    11348    11138    10767    10312 
    9883     9552     9325     9164     9052     9032     9162     9473 
    9937    10439    10841    11109    11323    11576    11881    12148 
   12267    12182    11910    11529    11142    10842    10695    10766 
   11102    11638    12191    12598    12821    12918    12964    12964 
   12862    12630    12314    12009    11810    11756    11787    11788 
   11682    11478    11240    11026    10866    10752    10665    10584 
   10494    10400    10346    10392    10590    10928    11306    11576 
   11651    11581    11511    11574    11792    12049    12190    12169 
   12066    11988    11977    12010    12032    12007    11942    11849 
   11705    11496    11248    11007    10823    10728    10719    10769 
   10857    10974    11124    11309    11473    11523    11437    11283 
   11140    11016    10820    10471    10026     9646     9458     9446 
    9457     9340     9087     8828     8701     8718     8770     8745 
    8627     8499     8456     8525     8653     8772     8854     8905 
    8931     8935     8941     8990     9129     9375     9689    10006 
   10306    10617    10928    11161    11224    11094    10826    10498 
   10191     9990     9944    10017    10083    10020     9809     9527 
    9277     9117     9039     8997     8963     8996     9213     9661 
   10259    10848    11255    11329    11018    10420     9721     9075 
    8556     8180     7941     7854     7953     8229     8619     9051 
    9476     9861    10205    10546    10918    11332    11771    12167 
   12429    12513    12447    12320    12217    12178    12203    12277 
   12385    12532    12718    12916    13111    13315    13511    13647 
   13682    13628    13511    13322    13031    12658    12288    12043 
   12013    12217    12586    12995    13346    13630    13873    14042 
   14044    13813    13384    12858    12333    11864    11497    11285 
   11273    11490    11940    12557    13177    13612    13759    13634 
   13293    12779    12136    11423    10729    10166     9836     9796 
   10017    10389    10792    11144    11389    11525    11619    11757 
   11976    12220    12387    12413    12311    12131    11937    11792 
   11706    11599    11356    10958    10536    10281    10301    10559 
   10945    11362    11741    12062    12316    12449    12382    12095 
   11646    11099    10460     9723     8958     8300     7841     7603 
    7566     7682     7874     8077     8292     8549     8830     9068 
    9225     9334     9470     9670     9891    10068    10167    10180 
   10124    10052    10014    10039    10131    10266    10436    10654 
   10928    11254    11648    12126    12638    13087    13403    13562 
   13577    13483    13321    13129    12926    12704    12439    12112 
   11737    11359    11014    10705    10412    10108     9783     9434 
    9072     8746     8527     8410     8323     8222     8115     8051 
    8088     8224     8377     8453     8409     8251     8033     7843 
    7753     7783     7960     8319     8835     9420     9984    10471 
   10874    11223    11548    11852    12093    12229    12263    12223 
   12136    12009    11845    11658    11483    11352    11278    11235 
   11163    11007    10770    10496    10244    10064     9993    10064 
   10301    10699    11211    11755    12234    12566    12687    12573 
   12263    11868    11511    11249    11051    10810    10419     9873 
    9300     8903     8850     9150     9616    10032    10359    10721 
   11210    11812    12462    13092    13635    14044    14311    14427 
   14346    14038    13535    12874    12065    11158    10279     9613 
    9296     9343     9646    10017    10311    10515    10694    10893 
   11083    11194    11151    10926    10554    10083     9548     9004 
    8483     7962     7417     6866     6378     6039     5897     5936 
    6093     6324     6627     6994     7388     7756     8059     8272 
    8354     8266     8002     7629     7266     7012     6889     6859 
    6891     6997     7217     7615     8235     9050     9951    10800 
   11521    12110    12552    12786    12746    12408    11792    10964 
   10040     9176     8508     8083     7841     7677     7556     7536 
    7693     8038     8501     8946     9236     9311     9245     9187 
    9220     9305     9318     9156     8851     8579     8518     8709 
    9067     9493     9949    10445    10987    11556    12125    12667 
   13136    13487    13712    13830    13872    13874    13836    13723 
   13486    13121    12688    12276    11937    11683    11502    11374 
   11272    11191    11162    11205    11313    11463    11629    11784 
   11878    11850    11699    11491    11314    11241    11306    11469 
   11624    11678    11637    11547    11411    11210    10954    10691 
   10455    10262    10169    10253    10494    10798    11113    11441 
   11765    12030    12160    12069    11698    11053    10232     9407 
    8754     8357     8197     8240     8443     8745     9104     9511 
    9944    10374    10801    11238    11684    12117    12500    12765 
   12836    12676    12320    11848    11359    10940    10636    10439 
   10325    10309    10426    10686    11053    11445    11771    11984 
   12083    12085    12008    11852    11628    11401    11246    11211 
   11291    11406    11458    11398    11239    10996    10646    10149 
    9498     8761     8082     7617     7480     7716     8295     9077 
    9872    10601    11336    12170    13090    13951    14552    14781 
   14666    14286    13705    12974    12144    11276    10448     9744 
    9228     8913     8770     8783     8982     9391     9968    10627 
   11277    11840    12228    12341    12123    11592    10872    10169 
    9627     9194     8708     8069     7344     6735     6434     6474 
    6711     6951     7106     7208     7313     7432     7551     7689 
    7880     8110     8294     8354     8328     8343     8472     8672 
    8805     8743     8465     8066     7728     7624     7782     8081 
    8409     8738     9050     9298     9446     9483     9448     9410 
    9391     9364     9343     9385     9507     9658     9780     9871 
    9980    10154    10373    10546    10611    10591    10539    10479 
   10431    10421    10430    10376    10220    10038     9965    10090 
   10387    10715    10913    10920    10811    10713    10714    10849 
   11079    11289    11388    11364    11245    11059    10826    10566 
   10302    10039     9741     9369     8976     8691     8583     8595 
    8624     8635     8670     8832     9249     9972    10899    11850 
   12717    13506    14243    14855    15194    15132    14677    13983 
   13228    12500    11802    11117    10472     9939     9611     9524 
    9599     9701     9772     9835     9923    10027    10106    10158 
   10231    10348    10483    10582    10599    10508    10300     9985 
    9592     9163     8763     8484     8408     8559     8909     9424 
   10073    10787    11449    11937    12172    12145    11936    11699 
   11564    11555    11603    11638    11670    11793    12107    12609 
   13174    13663    14040    14335    14553    14652    14594    14403 
   14178    14054    14095    14240    14373    14426    14424    14482 
   14695    15032    15350    15503    15432    15171    14814    14494 
   14320    14302    14347    14303    14052    13626    13181    12855 
   12668    12547    12397    12162    11898    11722    11719    11907 
   12239    12620    12934    13101    13121    13056    12968    12905 
   12906    12949    12938    12808    12616    12488    12489    12571 
   12599    12461    12160    11805    11509    11324    11226    11150 
   11052    10953    10924    11019    11256    11610    12002    12341 
   12587    12773    12960    13168    13347    13421    13307    12957 
   12433    11891    11470    11201    11035    10935    10908    10980 
   11170    11468    11828    12171    12411    12493    12410    12191 
   11915    11699    11641    11749    11915    11995    11914    11699 
   11440    11248    11202    11284    11424    11581    11724    11792 
   11744    11578    11317    10999    10658    10298     9906     9479 
    9046     8666     8409     8301     8289     8259     8130     7940 
    7789     7752     7855     8072     8360     8687     9004     9243 
    9369     9433     9553     9801    10128    10409    10552    10541 
   10404    10205    10033     9950     9969    10068    10208    10341 
   10416    10390    10278    10172    10171    10314    10582    10951 
   11397    11908    12485    13140    13861    14564    15123    15454 
   15556    15476    15267    14985    14709    14518    14440    14415 
   14360    14254    14134    14068    14111    14221    14251    14075 
   13705    13299    13056    13090    13347    13653    13830    13793 
   13572    13243    12860    12440    11982    11490    11009    10616 
   10374    10304    10403    10643    10994    11420    11858    12247 
   12589    12922    13207    13328    13217    12911    12505    12106 
   11789    11563    11368    11190    11114    11276    11750    12439 
   13127    13633    13916    14058    14139    14173    14146    14044 
   13859    13607    13287    12870    12345    11765    11221    10776 
   10425    10123     9857     9685     9664     9785     9955    10047 
    9964     9720     9439     9240     9129     9012     8778     8387 
    7894     7392     6961     6653     6468     6371     6323     6261 
    6109     5858     5595     5418     5359     5386     5460     5571 
    5726     5920     6144     6404     6694     6994     7307     7682 
    8194     8882     9710    10580    11370    11986    12387    12583 
   12618    12523    12289    11900    11404    10927    10579    10382 
   10276    10186    10106    10121    10322    10716    11180    11529 
   11654    11599    11479    11373    11313    11282    11222    11083 
   10874    10645    10439    10261    10123    10076    10174    10407 
   10708    11024    11350    11709    12143    12663    13220    13723 
   14078    14255    14316    14362    14439    14481    14356    13995 
   13474    12963    12619    12499    12546    12609    12564    12425 
   12327    12371    12537    12727    12843    12831    12696    12484 
   12247    12039    11889    11737    11492    11114    10654    10249 
   10062    10164    10501    10959    11419    11784    12027    12222 
   12453    12695    12879    12991    13058    13108    13168    13260 
   13396    13575    13747    13813    13713    13462    13096    12597 
   11935    11134    10272     9432     8691     8111     7707     7450 
    7329     7362     7549     7858     8250     8704     9212     9772 
   10354    10895    11382    11863    12349    12778    13052    13077 
   12841    12446    12062    11822    11743    11757    11807    11881 
   11983    12111    12267    12456    12649    12771    12743    12522 
   12133    11658    11213    10926    10882    11072    11405    11764 
   12067    12303    12515    12753    13054    13433    13848    14199 
   14388    14409    14334    14283    14375    14659    15088    15577 
   16058    16499    16908    17330    17764    18117    18269    18177 
   17906    17595    17363    17233    17120    16917    16581    16159 
   15729    15338    15018    14844    14908    15238    15770    16386 
   16992    17559    18093    18579    18931    19013    18767    18300 
   17807    17428    17177    16988    16819    16668    16494    16199 
   15745    15233    14798    14496    14287    14092    13869    13656 
   13540    13581    13780    14089    14413    14670    14845    14938 
   14923    14772    14487    14122    13747    13391    13067    12804 
   12615    12497    12462    12514    12648    12861    13163    13555 
   14008    14458    14792    14907    14784    14465    13993    13413 
   12780    12160    11615    11195    10926    10790    10741    10755 
   10836    10970    11139    11350    11601    11863    12096    12255 
   12292    12150    11796    11262    10657    10115     9741     9572 
    9558     9600     9626     9619     9597     9605     9688     9869 
   10131    10420    10674    10799    10689    10310     9736     9083 
    8431     7823     7323     7032     7017     7242     7600     8001 
    8413     8860     9432    10194    11070    11874    12464    12825 
   12979    12909    12585    12049    11421    10857    10490    10388 
   10537    10875    11346    11889    12437    12928    13321    13582 
   13686    13658    13592    13579    13621    13641    13585    13475 
   13351    13229    13096    12905    12621    12287    11977    11707 
   11452    11203    10978    10814    10747    10771    10845    10928 
   11009    11103    11212    11285    11257    11101    10865    10646 
   10540    10572    10698    10881    11138    11500    11953    12431 
   12826    13031    13035    12981    13085    13462    14044    14674 
   15229    15662    16002    16301    16566    16737    16740    16548 
   16193    15725    15202    14690    14249    13924    13724    13616 
   13520    13351    13085    12787    12540    12350    12145    11881 
   11611    11457    11473    11570    11595    11469    11225    10977 
   10830    10800    10809    10783    10745    10777    10917    11092 
   11155    11031    10805    10607    10499    10493    10602    10817 
   11102    11414    11730    12051    12383    12675    12823    12741 
   12402    11852    11231    10727    10494    10576    10895    11313 
   11709    12032    12292    12507    12654    12665    12514    12271 
   12042    11871    11725    11566    11399    11262    11203    11279 
   11515    11877    12290    12673    12981    13235    13481    13732 
   13954    14078    14026    13742    13237    12597    11944    11391 
   11008    10801    10738    10784    10909    11127    11473    11938 
   12439    12879    13190    13340    13325    13186    12963    12677 
   12348    12024    11756    11546    11372    11294    11420    11754 
   12168    12521    12746    12821    12746    12562    12347    12146 
   11927    11660    11383    11199    11217    11483    11936    12379 
   12587    12505    12301    12179    12174    12158    12008    11757 
   11555    11497    11565    11688    11781    11797    11766    11788 
   11945    12214    12462    12550    12441    12210    11970    11806 
   11725    11663    11561    11432    11358    11406    11544    11646 
   11572    11267    10813    10394    10181    10218    10456    10830 
   11295    11841    12464    13140    13856    14588    15250    15744 
   16027    16085    15914    15596    15278    15038    14819    14535 
   14193    13883    13652    13445    13212    13008    12934    13018 
   13210    13442    13658    13820    13909    13924    13839    13620 
   13291    12949    12678    12457    12213    11937    11699    11586 
   11655    11885    12182    12449    12646    12775    12849    12872 
   12839    12779    12783    12937    13237    13581    13841    13952 
   13929    13790    13542    13216    12839    12449    12120    11908 
   11799    11700    11527    11282    11090    11098    11329    11659 
   11917    12007    11944    11776    11568    11398    11303    11248 
   11185    11118    11073    11065    11106    11221    11425    11699 
   11985    12220    12385    12487    12482    12285    11859    11302 
   10830    10649    10827    11254    11708    12035    12252    12471 
   12755    13062    13285    13362    13326    13253    13169    13044 
   12859    12653    12485    12392    12384    12430    12495    12601 
   12807    13158    13613    14034    14275    14289    14132    13871 
   13534    13136    12670    12103    11448    10802    10320    10110 
   10139    10272    10363    10315    10103     9769     9402     9118 
    9023     9173     9573    10161    10771    11215    11439    11537 
   11602    11652    11659    11596    11500    11501    11700    12041 
   12360    12518    12452    12194    11854    11558    11375    11286 
   11249    11294    11482    11825    12255    12659    12955    13118 
   13169    13182    13240    13378    13574    13753    13828    13778 
   13663    13580    13597    13678    13715    13629    13428    13209 
   13085    13094    13180    13265    13325    13399    13521    13662 
   13761    13774    13727    13690    13692    13694    13628    13447 
   13151    12803    12514    12357    12335    12425    12604    12811 
   12968    13036    13025    12961    12879    12850    12939    13152 
   13426    13686    13882    14000    14000    13806    13402    12920 
   12560    12453    12601    12939    13363    13742    13984    14071 
   14007    13791    13435    12971    12451    11920    11394    10884 
   10420    10063     9867     9829     9896     9988     9992     9783 
    9307     8638     7936     7331     6875     6562     6345     6171 
    6040     5992     6085     6364     6820     7375     7942     8453 
    8865     9142     9266     9271     9283     9494     9984    10595 
   11093    11435    11755    12112    12412    12503    12279    11772 
   11176    10706    10440    10347    10400    10603    10939    11308 
