Origin Time       2011/03/11 14:46:00
Lat.              38.103
Long.             142.860
Depth. (km)       24
Mag.              9.0
Station Code      HKD149
Station Lat.      42.7905
Station Long.     140.2305
Station Height(m) 24
Record Time       2011/03/11 14:49:14
Sampling Freq(Hz) 100Hz
Duration Time(s)  108
Dir.              U-D
Scale Factor      3920(gal)/6182761
Max. Acc. (gal)   1.413
Last Correction   2011/03/11 14:48:59
Memo.             
[...]
  -13038   -12957   -12861   -12798   -12781   -12752   -12676   -12590 
  -12500   -12386   -12289   -12250   -12231   -12191   -12141   -12101 
  -12068   -12042   -12028   -12002   -11924   -11802   -11667   -11555 
  -11499   -11487   -11493   -11525   -11589   -11669   -11750   -11808 
  -11834   -11828   -11796   -11760   -11746   -11762   -11793   -11824 
  -11840   -11812   -11727   -11610   -11509   -11458   -11426   -11369 
  -11296   -11212   -11121   -11071   -11056   -11014   -10941   -10881 
  -10851   -10870   -10956   -11071   -11166   -11260   -11382   -11502 
  -11604   -11720   -11854   -11952   -11982   -11991   -12013   -12028 
  -12031   -12048   -12073   -12106   -12162   -12227   -12276   -12314 
  -12355   -12401   -12450   -12502   -12551   -12581   -12599   -12645 
  -12731   -12809   -12848   -12852   -12817   -12743   -12664   -12628 
  -12630   -12621   -12585   -12538   -12481   -12423   -12381   -12329 
  -12225   -12081   -11932   -11773   -11598   -11432   -11310   -11247 
  -11238   -11269   -11324   -11395   -11504   -11656   -11794   -11868 
  -11894   -11894   -11874   -11858   -11858   -11879   -11933   -12024 
  -12143   -12253   -12334   -12420   -12569   -12787   -13011   -13177 
  -13271   -13303   -13313   -13339   -13360   -13345   -13302   -13249 
  -13194   -13131   -13050   -12962   -12898   -12878   -12902   -12963 
  -13060   -13161   -13222   -13230   -13188   -13108   -13008   -12892 
  -12752   -12597   -12440   -12294   -12180   -12103   -12039   -11974 
  -11920   -11885   -11881   -11881   -11811   -11648   -11464   -11325 
  -11238   -11198   -11190   -11172   -11129   -11094   -11079   -11084 
  -11124   -11200   -11266   -11291   -11307   -11324   -11316   -11299 
  -11300   -11309   -11305   -11304   -11322   -11338   -11324   -11271 
  -11212   -11175   -11137   -11099   -11104   -11170   -11281   -11401 
  -11485   -11523   -11540   -11557   -11583   -11622   -11670   -11697 
  -11673   -11603   -11522   -11460   -11408   -11365   -11363   -11416 
  -11492   -11531   -11509   -11459   -11393   -11299   -11219   -11179 
  -11122   -11037   -10962   -10884   -10769   -10645   -10567   -10539 
  -10547   -10589   -10651   -10700   -10703   -10653   -10598   -10593 
  -10615   -10604   -10579   -10583   -10581   -10530   -10455   -10387 
  -10314   -10219   -10120   -10029    -9928    -9823    -9758    -9741 
   -9762    -9819    -9885    -9945   -10019   -10117   -10221   -10315 
  -10420   -10571   -10746   -10880   -10962   -11044   -11156   -11297 
  -11459   -11608   -11688   -11694   -11678   -11674   -11687   -11708 
  -11709   -11681   -11646   -11609   -11582   -11574   -11546   -11494 
  -11464   -11480   -11508   -11542   -11629   -11772   -11903   -11989 
  -12059   -12132   -12216   -12317   -12422   -12510   -12577   -12637 
  -12671   -12667   -12668   -12699   -12735   -12750   -12751   -12743 
  -12741   -12756   -12785   -12811   -12815   -12795   -12781   -12773 
  -12742   -12692   -12648   -12618   -12597   -12582   -12575   -12563 
  -12547   -12561   -12626   -12715   -12807   -12913   -13032   -13127 
  -13166   -13177   -13183   -13156   -13087   -13001   -12918   -12843 
  -12779   -12739   -12714   -12674   -12647   -12682   -12743   -12766 
  -12752   -12716   -12649   -12563   -12511   -12495   -12449   -12363 
  -12299   -12264   -12204   -12113   -12032   -11972   -11923   -11890 
  -11864   -11835   -11804   -11781   -11776   -11791   -11803   -11780 
  -11704   -11592   -11476   -11378   -11311   -11263   -11217   -11155 
  -11073   -10988   -10928   -10915   -10937   -10960   -10981   -11005 
  -11012   -10997   -10970   -10927   -10855   -10753   -10646   -10574 
  -10538   -10514   -10515   -10561   -10614   -10627   -10611   -10600 
  -10591   -10558   -10509   -10484   -10483   -10459   -10396   -10316 
  -10247   -10220   -10242   -10284   -10352   -10465   -10597   -10716 
  -10840   -10988   -11137   -11288   -11464   -11643   -11756   -11781 
  -11761   -11734   -11708   -11700   -11710   -11706   -11687   -11692 
  -11738   -11794   -11829   -11848   -11861   -11859   -11850   -11850 
  -11844   -11807   -11717   -11567   -11381   -11203   -11059   -10933 
  -10801   -10688   -10627   -10612   -10631   -10678   -10729   -10756 
  -10767   -10792   -10857   -10963   -11093   -11237   -11397   -11564 
  -11728   -11874   -11987   -12079   -12176   -12265   -12323   -12370 
  -12420   -12446   -12453   -12485   -12543   -12590   -12630   -12692 
  -12796   -12945   -13107   -13254   -13388   -13495   -13540   -13533 
  -13513   -13486   -13449   -13404   -13342   -13249   -13125   -12983 
  -12848   -12705   -12549   -12409   -12303   -12223   -12157   -12067 
  -11937   -11786   -11649   -11546   -11460   -11350   -11213   -11092 
  -11043   -11085   -11188   -11334   -11516   -11715   -11913   -12097 
  -12257   -12384   -12483   -12578   -12682   -12764   -12801   -12790 
  -12730   -12655   -12604   -12574   -12558   -12583   -12651   -12724 
  -12781   -12833   -12889   -12937   -12966   -12983   -12995   -12989 
  -12967   -12946   -12924   -12886   -12855   -12864   -12905   -12919 
  -12859   -12752   -12654   -12594   -12572   -12574   -12552   -12449 
  -12288   -12170   -12135   -12132   -12130   -12144   -12163   -12172 
  -12195   -12265   -12356   -12420   -12464   -12538   -12655   -12774 
  -12855   -12905   -12946   -12969   -12983   -13025   -13064   -13056 
  -13026   -12986   -12910   -12842   -12842   -12884   -12915   -12930 
  -12943   -12964   -13008   -13084   -13160   -13175   -13127   -13082 
  -13077   -13084   -13083   -13098   -13148   -13215   -13278   -13343 
  -13391   -13382   -13333   -13302   -13307   -13324   -13325   -13276 
  -13185   -13102   -13042   -12988   -12951   -12945   -12935   -12892 
  -12845   -12842   -12874   -12890   -12876   -12845   -12810   -12793 
  -12801   -12813   -12814   -12812   -12826   -12882   -12964   -13005 
  -12970   -12896   -12819   -12746   -12701   -12697   -12710   -12722 
  -12741   -12778   -12833   -12901   -12979   -13069   -13164   -13245 
  -13301   -13340   -13371   -13391   -13390   -13387   -13398   -13390 
  -13340   -13262   -13155   -13022   -12896   -12812   -12766   -12743 
  -12756   -12818   -12885   -12919   -12945   -12977   -12991   -12986 
  -12974   -12945   -12897   -12844   -12788   -12725   -12668   -12637 
  -12619   -12594   -12569   -12547   -12526   -12521   -12528   -12526 
  -12529   -12540   -12545   -12553   -12568   -12573   -12562   -12528 
  -12455   -12350   -12242   -12152   -12101   -12108   -12155   -12192 
  -12196   -12224   -12312   -12401   -12439   -12456   -12455   -12384 
  -12291   -12277   -12338   -12398   -12428   -12439   -12434   -12413 
  -12373   -12316   -12248   -12168   -12076   -12003   -11945   -11863 
  -11772   -11722   -11711   -11723   -11756   -11792   -11811   -11828 
  -11859   -11889   -11903   -11915   -11941   -11953   -11919   -11853 
  -11773   -11683   -11621   -11608   -11604   -11596   -11628   -11704 
  -11786   -11854   -11889   -11892   -11910   -11963   -12013   -12033 
  -12029   -12001   -11953   -11903   -11860   -11828   -11810   -11790 
  -11752   -11709   -11670   -11628   -11585   -11533   -11469   -11415 
  -11409   -11460   -11527   -11571   -11601   -11617   -11599   -11578 
  -11612   -11673   -11699   -11711   -11773   -11864   -11910   -11901 
  -11881   -11878   -11887   -11900   -11928   -11960   -11954   -11908 
  -11874   -11893   -11958   -12027   -12057   -12035   -11975   -11902 
  -11847   -11809   -11778   -11771   -11804   -11876   -11974   -12078 
  -12167   -12229   -12274   -12321   -12385   -12459   -12512   -12532 
  -12555   -12590   -12612   -12646   -12708   -12757   -12782   -12800 
  -12794   -12765   -12753   -12754   -12733   -12713   -12723   -12740 
  -12737   -12713   -12682   -12664   -12651   -12630   -12596   -12543 
  -12492   -12474   -12491   -12521   -12537   -12532   -12526   -12513 
  -12491   -12473   -12458   -12457   -12483   -12522   -12549   -12550 
  -12517   -12427   -12300   -12200   -12130   -12051   -11992   -11986 
  -11976   -11928   -11889   -11879   -11880   -11899   -11947   -11995 
  -12014   -12010   -11981   -11908   -11804   -11692   -11563   -11431 
  -11339   -11281   -11222   -11142   -11031   -10924   -10877   -10878 
  -10888   -10895   -10876   -10811   -10723   -10647   -10594   -10570 
  -10578   -10623   -10716   -10831   -10910   -10937   -10942   -10931 
  -10886   -10819   -10774   -10764   -10751   -10731   -10748   -10784 
  -10770   -10709   -10648   -10602   -10570   -10553   -10544   -10545 
  -10577   -10641   -10727   -10834   -10947   -11046   -11128   -11183 
  -11192   -11153   -11068   -10946   -10817   -10708   -10639   -10605 
  -10585   -10594   -10640   -10675   -10663   -10622   -10585   -10563 
  -10557   -10570   -10601   -10648   -10693   -10731   -10795   -10880 
  -10933   -10940   -10933   -10926   -10920   -10940   -11016   -11121 
  -11211   -11303   -11411   -11514   -11591   -11633   -11657   -11711 
  -11798   -11869   -11906   -11906   -11856   -11772   -11695   -11602 
  -11441   -11238   -11055   -10902   -10768   -10651   -10537   -10418 
  -10312   -10220   -10124   -10026    -9934    -9836    -9740    -9687 
   -9692    -9726    -9777    -9864    -9979   -10084   -10174   -10260 
  -10353   -10450   -10528   -10595   -10666   -10720   -10779   -10882 
  -11006   -11111   -11207   -11313   -11410   -11459   -11465   -11461 
  -11450   -11431   -11410   -11374   -11307   -11210   -11117   -11057 
  -11019   -10993   -10972   -10935   -10891   -10852   -10801   -10760 
  -10758   -10750   -10692   -10617   -10557   -10507   -10475   -10477 
  -10491   -10476   -10431   -10406   -10426   -10458   -10459   -10407 
  -10308   -10194   -10115   -10108   -10151   -10181   -10175   -10167 
  -10182   -10211   -10229   -10222   -10200   -10199   -10248   -10344 
  -10462   -10579   -10704   -10857   -11001   -11102   -11189   -11271 
  -11326   -11364   -11425   -11499   -11549   -11591   -11645   -11668 
  -11633   -11582   -11556   -11543   -11507   -11441   -11349   -11248 
  -11186   -11173   -11185   -11219   -11274   -11344   -11406   -11433 
  -11444   -11446   -11415   -11380   -11385   -11409   -11413   -11403 
  -11424   -11500   -11605   -11705   -11770   -11767   -11712   -11642 
  -11566   -11492   -11419   -11319   -11206   -11152   -11185   -11255 
  -11305   -11326   -11339   -11351   -11374   -11433   -11514   -11556 
  -11548   -11540   -11564   -11599   -11612   -11605   -11599   -11600 
  -11606   -11616   -11596   -11518   -11424   -11353   -11284   -11219 
  -11186   -11164   -11125   -11084   -11074   -11121   -11225   -11368 
  -11532   -11713   -11900   -12065   -12197   -12322   -12434   -12504 
  -12553   -12621   -12690   -12722   -12726   -12715   -12686   -12648 
  -12607   -12562   -12515   -12450   -12359   -12268   -12213   -12190 
  -12176   -12155   -12123   -12062   -11955   -11836   -11741   -11646 
  -11534   -11434   -11358   -11311   -11297   -11302   -11305   -11285 
  -11250   -11241   -11266   -11297   -11319   -11331   -11352   -11393 
  -11417   -11405   -11380   -11351   -11327   -11340   -11381   -11412 
  -11428   -11433   -11427   -11429   -11450   -11480   -11530   -11603 
  -11671   -11717   -11742   -11760   -11787   -11820   -11855   -11888 
  -11907   -11915   -11926   -11945   -11971   -12004   -12038   -12056 
  -12037   -11964   -11848   -11718   -11600   -11505   -11430   -11363 
  -11308   -11279   -11268   -11247   -11213   -11171   -11127   -11103 
  -11103   -11097   -11064   -11022   -11006   -11026   -11070   -11131 
  -11191   -11229   -11255   -11291   -11329   -11346   -11349   -11363 
  -11390   -11432   -11488   -11526   -11542   -11587   -11648   -11668 
  -11652   -11639   -11622   -11570   -11513   -11486   -11450   -11360 
  -11248   -11150   -11067   -10977   -10876   -10771   -10646   -10505 
  -10411   -10376   -10353   -10324   -10292   -10242   -10202   -10210 
  -10249   -10285   -10301   -10297   -10289   -10292   -10307   -10333 
  -10360   -10388   -10424   -10464   -10512   -10575   -10625   -10634 
  -10605   -10548   -10477   -10423   -10412   -10443   -10490   -10537 
  -10591   -10651   -10700   -10720   -10708   -10663   -10611   -10599 
  -10655   -10768   -10885   -10944   -10960   -11009   -11114   -11235 
  -11350   -11471   -11588   -11687   -11776   -11846   -11886   -11902 
  -11883   -11831   -11767   -11681   -11571   -11478   -11426   -11411 
  -11430   -11466   -11506   -11561   -11633   -11723   -11800   -11814 
  -11760   -11690   -11629   -11565   -11485   -11412   -11362   -11325 
  -11292   -11263   -11244   -11244   -11251   -11245   -11244   -11250 
  -11232   -11189   -11157   -11150   -11144   -11130   -11129   -11132 
  -11089   -10978   -10828   -10682   -10564   -10473   -10394   -10324 
  -10268   -10255   -10315   -10414   -10482   -10514   -10537   -10551 
  -10567   -10615   -10689   -10748   -10761   -10732   -10670   -10601 
  -10565   -10569   -10585   -10583   -10546   -10499   -10496   -10537 
  -10563   -10554   -10532   -10507   -10486   -10468   -10418   -10318 
  -10202   -10105   -10023    -9964    -9939    -9924    -9888    -9827 
   -9754    -9684    -9620    -9563    -9527    -9530    -9566    -9612 
   -9656    -9696    -9737    -9774    -9790    -9779    -9747    -9673 
   -9552    -9431    -9357    -9320    -9332    -9395    -9441    -9423 
   -9379    -9345    -9322    -9329    -9388    -9466    -9522    -9581 
   -9661    -9739    -9821    -9917    -9995   -10037   -10053   -10073 
  -10139   -10238   -10320   -10381   -10428   -10437   -10398   -10336 
  -10286   -10240   -10142    -9997    -9892    -9844    -9784    -9696 
   -9615    -9549    -9497    -9464    -9437    -9415    -9423    -9467 
   -9526    -9600    -9696    -9782    -9850    -9939   -10052   -10136 
  -10172   -10195   -10224   -10248   -10284   -10341   -10368   -10330 
  -10259   -10188   -10131   -10097   -10064   -10028   -10004    -9990 
  -10007   -10071   -10143   -10181   -10186   -10169   -10167   -10221 
  -10314   -10383   -10423   -10473   -10548   -10662   -10825   -10995 
  -11120   -11199   -11249   -11276   -11297   -11331   -11345   -11290 
  -11200   -11150   -11143   -11144   -11154   -11177   -11171   -11103 
  -11004   -10912   -10819   -10709   -10594   -10483   -10368   -10261 
  -10188   -10145   -10111   -10082   -10073   -10090   -10116   -10125 
  -10138   -10171   -10192   -10181   -10167   -10173   -10190   -10211 
  -10240   -10295   -10354   -10395   -10439   -10500   -10551   -10590 
  -10638   -10715   -10826   -10960   -11105   -11240   -11347   -11435 
  -11515   -11578   -11632   -11687   -11720   -11710   -11657   -11592 
  -11566   -11584   -11613   -11647   -11685   -11718   -11742   -11748 
  -11740   -11767   -11827   -11874   -11911   -11958   -12016   -12094 
  -12187   -12270   -12317   -12315   -12275   -12239   -12232   -12235 
  -12245   -12267   -12280   -12278   -12275   -12253   -12210   -12183 
  -12178   -12175   -12179   -12185   -12182   -12163   -12128   -12085 
  -12046   -11993   -11924   -11867   -11819   -11766   -11719   -11680 
  -11658   -11672   -11716   -11784   -11872   -11962   -12044   -12113 
  -12152   -12158   -12151   -12161   -12224   -12326   -12422   -12509 
  -12614   -12720   -12795   -12849   -12898   -12919   -12897   -12863 
  -12827   -12759   -12675   -12618   -12546   -12414   -12283   -12208 
  -12142   -12050   -11970   -11935   -11919   -11881   -11816   -11745 
  -11691   -11674   -11698   -11734   -11763   -11787   -11780   -11748 
  -11731   -11738   -11757   -11797   -11853   -11903   -11936   -11959 
  -11965   -11947   -11940   -11958   -11973   -11975   -11965   -11934 
  -11902   -11890   -11876   -11848   -11832   -11833   -11836   -11870 
  -11941   -11996   -12007   -11999   -11991   -11980   -11965   -11940 
  -11904   -11874   -11881   -11946   -12048   -12149   -12252   -12349 
  -12416   -12463   -12512   -12568   -12626   -12690   -12756   -12799 
  -12800   -12765   -12705   -12641   -12576   -12510   -12441   -12351 
  -12242   -12148   -12080   -12016   -11955   -11920   -11921   -11934 
  -11913   -11831   -11713   -11581   -11440   -11317   -11227   -11140 
  -11038   -10947   -10880   -10817   -10754   -10728   -10739   -10738 
  -10708   -10668   -10630   -10601   -10563   -10490   -10405   -10326 
  -10224   -10102   -10012    -9976    -9964    -9948    -9927    -9898 
   -9854    -9808    -9790    -9802    -9829    -9856    -9878    -9904 
   -9952   -10013   -10061   -10108   -10173   -10239   -10290   -10334 
  -10375   -10405   -10411   -10399   -10395   -10397   -10394   -10410 
  -10444   -10464   -10471   -10472   -10456   -10439   -10442   -10466 
  -10506   -10531   -10503   -10437   -10376   -10349   -10372   -10431 
  -10485   -10517   -10542   -10583   -10654   -10748   -10851   -10942 
  -10985   -10978   -10964   -10976   -11010   -11028   -11008   -10979 
  -10950   -10904   -10879   -10923   -11004   -11072   -11134   -11185 
  -11196   -11176   -11163   -11161   -11157   -11161   -11181   -11203 
  -11227   -11254   -11263   -11225   -11148   -11079   -11062   -11081 
  -11096   -11110   -11148   -11223   -11335   -11469   -11581   -11658 
  -11735   -11825   -11920   -12010   -12054   -12029   -11975   -11923 
  -11875   -11843   -11830   -11827   -11844   -11879   -11890   -11860 
  -11831   -11814   -11783   -11738   -11704   -11688   -11673   -11657 
  -11639   -11604   -11561   -11547   -11565   -11598   -11645   -11691 
  -11723   -11772   -11850   -11917   -11963   -12023   -12122   -12251 
  -12368   -12437   -12475   -12517   -12541   -12532   -12511   -12461 
  -12374   -12291   -12235   -12172   -12099   -12062   -12099   -12177 
  -12248   -12311   -12366   -12400   -12425   -12452   -12464   -12444 
  -12405   -12376   -12379   -12401   -12403   -12364   -12321   -12295 
  -12255   -12195   -12149   -12113   -12039   -11927   -11843   -11815 
  -11805   -11794   -11787   -11756   -11707   -11703   -11759   -11813 
  -11829   -11828   -11798   -11721   -11654   -11653   -11692   -11747 
  -11837   -11960   -12086   -12187   -12247   -12265   -12265   -12273 
  -12302   -12348   -12400   -12444   -12478   -12488   -12467   -12432 
  -12403   -12367   -12323   -12291   -12270   -12236   -12183   -12139 
  -12131   -12152   -12180   -12191   -12166   -12108   -12039   -11990 
  -11978   -11981   -11961   -11930   -11941   -12013   -12108   -12187 
  -12229   -12224   -12177   -12105   -12020   -11906   -11759   -11614 
  -11524   -11527   -11606   -11691   -11737   -11786   -11870   -11962 
  -12052   -12152   -12219   -12220   -12194   -12179   -12173   -12163 
  -12131   -12078   -12039   -12033   -12035   -12035   -12050   -12087 
  -12131   -12177   -12235   -12298   -12350   -12388   -12414   -12399 
  -12341   -12283   -12260   -12269   -12310   -12379   -12443   -12474 
  -12468   -12439   -12417   -12420   -12422   -12387   -12319   -12220 
  -12096   -11997   -11976   -12017   -12066   -12111   -12165   -12217 
  -12262   -12307   -12340   -12355   -12381   -12444   -12518   -12558 
  -12558   -12553   -12558   -12539   -12480   -12420   -12393   -12386 
  -12387   -12417   -12471   -12490   -12468   -12454   -12450   -12415 
