Origin Time       2011/03/11 14:46:00
Lat.              38.103
Long.             142.860
Depth. (km)       24
Mag.              9.0
Station Code      HKD139
Station Lat.      43.1975
Station Long.     140.7819
Station Height(m) 32
Record Time       2011/03/11 14:49:23
Sampling Freq(Hz) 100Hz
Duration Time(s)  110
Dir.              E-W
Scale Factor      3920(gal)/6182761
Max. Acc. (gal)   4.291
Last Correction   2011/03/11 14:49:08
Memo.             
[...]
  -20899   -21235   -21480   -21511   -21317   -20893   -20304   -19736 
  -19259   -18914   -18799   -18891   -19137   -19512   -19896   -20169 
  -20232   -20031   -19639   -19135   -18679   -18469   -18519   -18793 
  -19272   -19847   -20347   -20549   -20310   -19696   -18976   -18479 
  -18315   -18408   -18676   -18980   -19220   -19402   -19472   -19449 
  -19444   -19435   -19374   -19251   -19094   -19039   -19205   -19635 
  -20354   -21257   -22153   -22924   -23413   -23487   -23208   -22725 
  -22214   -21795   -21461   -21224   -21014   -20718   -20380   -20056 
  -19816   -19799   -20035   -20457   -20943   -21306   -21560   -21837 
  -22108   -22360   -22585   -22718   -22822   -22928   -22951   -22847 
  -22624   -22403   -22310   -22334   -22494   -22781   -23111   -23493 
  -23853   -24002   -23885   -23521   -22927   -22167   -21359   -20720 
  -20369   -20211   -20156   -20082   -19856   -19464   -18911   -18266 
  -17648   -17127   -16791   -16685   -16756   -16945   -17157   -17342 
  -17576   -17898   -18241   -18593   -19007   -19517   -20068   -20404 
  -20327   -19887   -19160   -18328   -17602   -16967   -16493   -16306 
  -16398   -16794   -17402   -18004   -18474   -18711   -18762   -18803 
  -18872   -19029   -19311   -19599   -19888   -20185   -20387   -20531 
  -20601   -20507   -20381   -20335   -20394   -20558   -20726   -20812 
  -20752   -20524   -20226   -19926   -19677   -19544   -19544   -19690 
  -19942   -20202   -20420   -20557   -20593   -20623   -20711   -20798 
  -20880   -20911   -20766   -20508   -20274   -20144   -20230   -20547 
  -21012   -21551   -22068   -22482   -22681   -22551   -22207   -21897 
  -21759   -21834   -22007   -22078   -21965   -21662   -21205   -20693 
  -20218   -19915   -19877   -20082   -20459   -20896   -21353   -21820 
  -22189   -22444   -22601   -22616   -22583   -22571   -22519   -22420 
  -22222   -21856   -21384   -20865   -20387   -19987   -19559   -19119 
  -18816   -18750   -19023   -19597   -20278   -20894   -21301   -21429 
  -21280   -20899   -20482   -20264   -20263   -20429   -20749   -21104 
  -21364   -21464   -21390   -21265   -21160   -20971   -20675   -20269 
  -19760   -19368   -19235   -19300   -19547   -19955   -20499   -21142 
  -21685   -21876   -21614   -21014   -20321   -19750   -19389   -19197 
  -19106   -19118   -19301   -19615   -19899   -20048   -20021   -19889 
  -19833   -19946   -20222   -20548   -20800   -21006   -21157   -21159 
  -21100   -21167   -21415   -21771   -22116   -22329   -22290   -21929 
  -21323   -20614   -19910   -19336   -18956   -18753   -18749   -18933 
  -19189   -19382   -19381   -19183   -18907   -18663   -18571   -18623 
  -18676   -18691   -18711   -18761   -18887   -19131   -19508   -20026 
  -20647   -21288   -21815   -22119   -22263   -22301   -22203   -21997 
  -21660   -21250   -20960   -20851   -20925   -21118   -21264   -21351 
  -21434   -21555   -21783   -22021   -22097   -21945   -21551   -21049 
  -20705   -20597   -20695   -20998   -21380   -21785   -22255   -22715 
  -23087   -23220   -22921   -22246   -21349   -20376   -19494   -18779 
  -18307   -18111   -18156   -18478   -19043   -19630   -20003   -20051 
  -19850   -19608   -19434   -19305   -19201   -19127   -19169   -19388 
  -19626   -19732   -19764   -19885   -20229   -20738   -21141   -21183 
  -20778   -20087   -19451   -19080   -19043   -19427   -20081   -20719 
  -21268   -21635   -21753   -21759   -21662   -21451   -21265   -21157 
  -21101   -21034   -20867   -20668   -20610   -20756   -21026   -21267 
  -21353   -21308   -21152   -20827   -20431   -20157   -20159   -20540 
  -21198   -21974   -22756   -23362   -23720   -23863   -23757   -23371 
  -22713   -21947   -21358   -20988   -20690   -20376   -19991   -19569 
  -19163   -18691   -18181   -17741   -17392   -17243   -17354   -17659 
  -18143   -18616   -18861   -18867   -18600   -18158   -17787   -17541 
  -17435   -17505   -17600   -17592   -17534   -17550   -17797   -18276 
  -18839   -19439   -20016   -20506   -20918   -21179   -21243   -21092 
  -20678   -20163   -19815   -19738   -19901   -20187   -20434   -20578 
  -20670   -20791   -20995   -21238   -21415   -21490   -21524   -21603 
  -21683   -21694   -21773   -21984   -22207   -22405   -22554   -22676 
  -22826   -22904   -22804   -22523   -22090   -21599   -21144   -20811 
  -20692   -20754   -20915   -21141   -21352   -21457   -21421   -21199 
  -20763   -20182   -19633   -19318   -19215   -19140   -19058   -18963 
  -18803   -18624   -18427   -18189   -17986   -17834   -17731   -17708 
  -17689   -17630   -17602   -17690   -18044   -18724   -19625   -20603 
  -21454   -22072   -22456   -22571   -22541   -22405   -21958   -21207 
  -20343   -19529   -18928   -18588   -18501   -18611   -18797   -19042 
  -19296   -19451   -19565   -19733   -19948   -20213   -20532   -20908 
  -21343   -21725   -21960   -22121   -22255   -22365   -22449   -22463 
  -22449   -22488   -22568   -22600   -22459   -22090   -21566   -20994 
  -20474   -20107   -19899   -19827   -19930   -20151   -20409   -20636 
  -20709   -20604   -20328   -19874   -19336   -18772   -18322   -18188 
  -18296   -18500   -18728   -18893   -19015   -19141   -19275   -19412 
  -19467   -19354   -19073   -18712   -18435   -18401   -18616   -18939 
  -19244   -19514   -19794   -20081   -20342   -20549   -20643   -20628 
  -20540   -20314   -19952   -19587   -19304   -19108   -18952   -18881 
  -19062   -19535   -20173   -20837   -21377   -21685   -21788   -21757 
  -21609   -21407   -21290   -21370   -21671   -22138   -22706   -23287 
  -23779   -24151   -24305   -24044   -23319   -22272   -21120   -20115 
  -19455   -19131   -18978   -18887   -18882   -18911   -18817   -18526 
  -18059   -17527   -17064   -16656   -16295   -16039   -15905   -15945 
  -16168   -16609   -17368   -18306   -19227   -20120   -20947   -21701 
  -22407   -22993   -23384   -23482   -23232   -22813   -22427   -22196 
  -22215   -22385   -22560   -22730   -22812   -22761   -22632   -22292 
  -21660   -20871   -19971   -19061   -18341   -17845   -17550   -17391 
  -17232   -17032   -16780   -16474   -16192   -15960   -15786   -15733 
  -15766   -15781   -15796   -15922   -16222   -16641   -17057   -17400 
  -17662   -17861   -18041   -18224   -18387   -18500   -18575   -18673 
  -18762   -18738   -18589   -18320   -17989   -17745   -17627   -17654 
  -17897   -18289   -18710   -19065   -19281   -19389   -19413   -19366 
  -19404   -19584   -19795   -20045   -20382   -20812   -21361   -21957 
  -22472   -22779   -22824   -22741   -22635   -22551   -22583   -22604 
  -22483   -22347   -22219   -22040   -21825   -21467   -20912   -20252 
  -19523   -18803   -18168   -17645   -17348   -17272   -17280   -17333 
  -17416   -17609   -18062   -18763   -19629   -20513   -21126   -21372 
  -21401   -21363   -21360   -21393   -21392   -21378   -21366   -21351 
  -21371   -21358   -21255   -21068   -20739   -20273   -19744   -19212 
  -18796   -18587   -18584   -18709   -18802   -18827   -18925   -19134 
  -19463   -19910   -20347   -20725   -21091   -21441   -21780   -22124 
  -22462   -22778   -23032   -23225   -23379   -23448   -23440   -23425 
  -23393   -23309   -23161   -22928   -22639   -22332   -21999   -21626 
  -21164   -20578   -19968   -19477   -19173   -19043   -19122   -19509 
  -20153   -20871   -21475   -21786   -21802   -21665   -21458   -21245 
  -21076   -20942   -20868   -20901   -21105   -21448   -21708   -21761 
  -21683   -21548   -21434   -21364   -21198   -20874   -20442   -19943 
  -19534   -19364   -19435   -19768   -20300   -20876   -21407   -21767 
  -21911   -21902   -21714   -21414   -21147   -20955   -20962   -21262 
  -21766   -22394   -22992   -23419   -23773   -24064   -24174   -24097 
  -23815   -23338   -22729   -22021   -21359   -20832   -20385   -20022 
  -19707   -19432   -19327   -19427   -19657   -19911   -20063   -20094 
  -20074   -20044   -20040   -20005   -19775   -19341   -18856   -18472 
  -18334   -18453   -18745   -19150   -19545   -19870   -20179   -20467 
  -20685   -20711   -20419   -19888   -19316   -18849   -18599   -18586 
  -18689   -18787   -18834   -18810   -18717   -18578   -18391   -18199 
  -18082   -18087   -18214   -18438   -18758   -19164   -19580   -19945 
  -20198   -20297   -20329   -20387   -20487   -20607   -20686   -20696 
  -20632   -20550   -20616   -20905   -21386   -22007   -22702   -23391 
  -23966   -24333   -24503   -24502   -24366   -24135   -23789   -23364 
  -22968   -22647   -22441   -22353   -22309   -22279   -22192   -21958 
  -21620   -21220   -20780   -20340   -19835   -19304   -18910   -18640 
  -18484   -18518   -18688   -18945   -19249   -19509   -19718   -19816 
  -19740   -19595   -19468   -19445   -19601   -19850   -20145   -20494 
  -20806   -20991   -21019   -20895   -20691   -20472   -20220   -19875 
  -19429   -19026   -18813   -18781   -18873   -19000   -19046   -19024 
  -18990   -18998   -19159   -19440   -19728   -19963   -20103   -20257 
  -20573   -21002   -21445   -21853   -22196   -22481   -22654   -22639 
  -22446   -22041   -21375   -20565   -19739   -18980   -18379   -17921 
  -17589   -17436   -17452   -17617   -17852   -18038   -18167   -18194 
  -18063   -17860   -17663   -17500   -17368   -17168   -16831   -16426 
  -16074   -15923   -16034   -16346   -16830   -17372   -17881   -18423 
  -18931   -19349   -19720   -19959   -20104   -20284   -20457   -20597 
  -20636   -20526   -20411   -20360   -20399   -20545   -20661   -20739 
  -20865   -20919   -20858   -20760   -20613   -20465   -20365   -20332 
  -20404   -20494   -20565   -20710   -20911   -21143   -21384   -21523 
  -21609   -21746   -21907   -22084   -22176   -22069   -21874   -21635 
  -21302   -20940   -20569   -20216   -19985   -19909   -20003   -20213 
  -20406   -20560   -20665   -20687   -20654   -20608   -20627   -20801 
  -21159   -21632   -22064   -22377   -22578   -22665   -22659   -22571 
  -22388   -22130   -21896   -21748   -21638   -21520   -21405   -21310 
  -21218   -21142   -21156   -21224   -21217   -21113   -21015   -21040 
  -21189   -21343   -21403   -21345   -21226   -21176   -21275   -21516 
  -21920   -22457   -22971   -23322   -23403   -23254   -23038   -22765 
  -22437   -22118   -21808   -21570   -21409   -21250   -21137   -21091 
  -21120   -21304   -21607   -21968   -22363   -22664   -22813   -22836 
  -22703   -22495   -22318   -22130   -21941   -21710   -21358   -21017 
  -20810   -20760   -20874   -21033   -21139   -21196   -21181   -21104 
  -20922   -20525   -19950   -19289   -18615   -18052   -17674   -17487 
  -17458   -17434   -17333   -17256   -17241   -17276   -17341   -17304 
  -17055   -16641   -16188   -15786   -15487   -15365   -15449   -15673 
  -15993   -16413   -16932   -17571   -18302   -18949   -19314   -19326 
  -19043   -18591   -18102   -17648   -17235   -16876   -16684   -16730 
  -16915   -17128   -17287   -17343   -17330   -17236   -17047   -16796 
  -16460   -16068   -15706   -15453   -15394   -15550   -15916   -16461 
  -17017   -17383   -17458   -17270   -16928   -16608   -16465   -16476 
  -16524   -16541   -16509   -16474   -16548   -16819   -17257   -17775 
  -18322   -18859   -19353   -19783   -20112   -20326   -20473   -20555 
  -20522   -20370   -20110   -19853   -19776   -19887   -20128   -20456 
  -20775   -21029   -21226   -21398   -21545   -21678   -21804   -21872 
  -21928   -22047   -22208   -22426   -22667   -22762   -22619   -22247 
  -21722   -21236   -20875   -20529   -20159   -19825   -19593   -19512 
  -19536   -19579   -19590   -19539   -19474   -19402   -19263   -19083 
  -18924   -18797   -18714   -18706   -18832   -19122   -19517   -19892 
  -20133   -20224   -20197   -20081   -19932   -19773   -19596   -19461 
  -19453   -19575   -19823   -20218   -20669   -21083   -21371   -21383 
  -21124   -20656   -20013   -19355   -18823   -18562   -18747   -19303 
  -20051   -20852   -21502   -21961   -22304   -22469   -22404   -22097 
  -21610   -21149   -20806   -20641   -20699   -20826   -20980   -21186 
  -21381   -21569   -21688   -21670   -21581   -21410   -21224   -21166 
  -21249   -21459   -21741   -22006   -22222   -22311   -22232   -21998 
  -21571   -20984   -20302   -19527   -18744   -18037   -17483   -17198 
  -17172   -17335   -17547   -17626   -17633   -17625   -17570   -17567 
  -17574   -17473   -17302   -17104   -16981   -17052   -17290   -17693 
  -18278   -18956   -19653   -20271   -20632   -20670   -20525   -20392 
  -20342   -20333   -20347   -20417   -20627   -21020   -21465   -21846 
  -22175   -22428   -22582   -22613   -22409   -21898   -21122   -20172 
  -19254   -18580   -18146   -17857   -17692   -17607   -17601   -17712 
  -17880   -18009   -18023   -17919   -17749   -17497   -17220   -17051 
  -16977   -16975   -17040   -17129   -17268   -17504   -17789   -17994 
  -18073   -18081   -17990   -17790   -17561   -17361   -17226   -17130 
  -17027   -16971   -17042   -17274   -17714   -18343   -18978   -19426 
  -19590   -19502   -19347   -19330   -19556   -19994   -20538   -21123 
  -21626   -21876   -21827   -21507   -21033   -20560   -20185   -20052 
  -20222   -20511   -20744   -20801   -20560   -20121   -19649   -19160 
  -18737   -18439   -18227   -18118   -18059   -18012   -17991   -17930 
  -17929   -18078   -18225   -18315   -18357   -18321   -18230   -18013 
  -17691   -17435   -17274   -17238   -17420   -17801   -18345   -18988 
  -19591   -20104   -20540   -20927   -21338   -21801   -22349   -23023 
  -23773   -24552   -25328   -25996   -26484   -26790   -26928   -26918 
  -26794   -26602   -26370   -26103   -25803   -25429   -24935   -24385 
  -23873   -23416   -22967   -22423   -21814   -21288   -20838   -20451 
  -20168   -19969   -19853   -19792   -19766   -19808   -19857   -19886 
  -19926   -19886   -19695   -19364   -18917   -18477   -18206   -18131 
  -18207   -18381   -18552   -18629   -18551   -18303   -18004   -17770 
  -17607   -17455   -17251   -17014   -16739   -16431   -16239   -16247 
  -16415   -16748   -17182   -17553   -17806   -18001   -18206   -18416 
  -18558   -18642   -18711   -18760   -18909   -19215   -19541   -19790 
  -19900   -19881   -19814   -19711   -19611   -19558   -19566   -19672 
  -19817   -19936   -20055   -20133   -20151   -20152   -20122   -20141 
  -20309   -20551   -20798   -20934   -20813   -20466   -19909   -19213 
  -18597   -18120   -17832   -17802   -17914   -18153   -18532   -18951 
  -19417   -19898   -20295   -20592   -20715   -20665   -20612   -20628 
  -20717   -20875   -21019   -21137   -21239   -21261   -21214   -21129 
  -21035   -20971   -20904   -20815   -20699   -20508   -20248   -19924 
  -19587   -19388   -19378   -19495   -19638   -19672   -19590   -19464 
  -19315   -19217   -19224   -19270   -19266   -19157   -18926   -18636 
  -18355   -18130   -17963   -17790   -17639   -17575   -17608   -17820 
  -18211   -18661   -19131   -19591   -19970   -20239   -20403   -20504 
  -20544   -20507   -20494   -20630   -20899   -21206   -21486   -21699 
  -21804   -21778   -21658   -21471   -21204   -20919   -20681   -20511 
  -20448   -20449   -20469   -20592   -20822   -21096   -21412   -21696 
  -21946   -22308   -22782   -23218   -23499   -23574   -23558   -23630 
  -23832   -24132   -24381   -24412   -24245   -23923   -23513   -23123 
  -22724   -22286   -21824   -21324   -20918   -20791   -20911   -21118 
  -21341   -21626   -21989   -22295   -22427   -22354   -22057   -21620 
  -21144   -20625   -20106   -19629   -19209   -18951   -18911   -19028 
  -19223   -19347   -19252   -18923   -18474   -18021   -17638   -17405 
  -17306   -17252   -17246   -17278   -17302   -17358   -17476   -17634 
  -17848   -18157   -18546   -18943   -19288   -19613   -19976   -20350 
  -20692   -20972   -21173   -21311   -21322   -21160   -20925   -20717 
  -20605   -20597   -20646   -20794   -21041   -21273   -21455   -21615 
  -21752   -21890   -22028   -22094   -22035   -21829   -21494   -21114 
  -20722   -20332   -20007   -19805   -19877   -20297   -20935   -21652 
  -22294   -22751   -23087   -23306   -23305   -23067   -22607   -21951 
  -21202   -20424   -19663   -19022   -18522   -18135   -17885   -17789 
  -17855   -18026   -18165   -18250   -18321   -18369   -18352   -18192 
  -17855   -17448   -17140   -17034   -17163   -17547   -18212   -19104 
  -20065   -20934   -21554   -21832   -21810   -21555   -21195   -20846 
  -20503   -20224   -20095   -20126   -20327   -20625   -20887   -21028 
  -21026   -20934   -20835   -20725   -20576   -20427   -20287   -20132 
  -20007   -19910   -19830   -19773   -19696   -19663   -19748   -19885 
  -20054   -20266   -20454   -20588   -20655   -20625   -20507   -20292 
  -19960   -19559   -19168   -18888   -18849   -19075   -19503   -20094 
  -20744   -21320   -21742   -21956   -22011   -21988   -21881   -21710 
  -21503   -21240   -20954   -20667   -20404   -20225   -20080   -19963 
  -20002   -20167   -20283   -20258   -20068   -19769   -19477   -19247 
  -19082   -18933   -18776   -18682   -18714   -18866   -19067   -19239 
  -19393   -19576   -19834   -20206   -20621   -20928   -21036   -20929 
  -20658   -20308   -19924   -19513   -19089   -18710   -18428   -18189 
  -17950   -17812   -17876   -18168   -18656   -19226   -19706   -19954 
  -19943   -19691   -19195   -18497   -17698   -16932   -16346   -16009 
  -15907   -16007   -16227   -16480   -16730   -16936   -17069   -17085 
  -16966   -16808   -16702   -16668   -16744   -16977   -17355   -17848 
  -18381   -18858   -19274   -19614   -19886   -20168   -20404   -20495 
  -20416   -20128   -19663   -19135   -18676   -18394   -18281   -18289 
  -18422   -18641   -18898   -19214   -19594   -20036   -20511   -20888 
  -21099   -21184   -21161   -21094   -21054   -21018   -20947   -20881 
  -20878   -20893   -20891   -20898   -20863   -20734   -20546   -20337 
  -20099   -19806   -19528   -19358   -19300   -19353   -19477   -19599 
  -19745   -19975   -20287   -20625   -20929   -21174   -21306   -21250 
  -20996   -20578   -20057   -19561   -19161   -18851   -18671   -18690 
  -18909   -19259   -19615   -19810   -19741   -19406   -18824   -18083 
  -17416   -17004   -16866   -17001   -17373   -17862   -18348   -18727 
  -18942   -19033   -19117   -19322   -19696   -20185   -20686   -21112 
  -21425   -21614   -21680   -21603   -21399   -21181   -21027   -20964 
  -21037   -21241   -21490   -21695   -21839   -21994   -22207   -22457 
  -22769   -23166   -23542   -23796   -23940   -23992   -23955   -23873 
  -23787   -23712   -23666   -23595   -23384   -23020   -22502   -21823 
  -21142   -20621   -20329   -20278   -20375   -20525   -20599   -20501 
  -20355   -20281   -20196   -20027   -19802   -19555   -19307   -19077 
  -18869   -18700   -18606   -18617   -18677   -18685   -18624   -18488 
  -18264   -17993   -17688   -17402   -17236   -17209   -17279   -17373 
  -17482   -17619   -17770   -17993   -18260   -18476   -18645   -18700 
  -18548   -18196   -17689   -17150   -16736   -16542   -16569   -16698 
  -16803   -16905   -17052   -17209   -17342   -17439   -17457   -17380 
  -17242   -17102   -17013   -16960   -16878   -16790   -16754   -16778 
  -16924   -17175   -17389   -17563   -17720   -17852   -18052   -18346 
  -18710   -19161   -19653   -20187   -20749   -21237   -21593   -21783 
  -21790   -21613   -21227   -20713   -20225   -19846   -19608   -19516 
