Origin Time       2011/03/11 14:46:00
Lat.              38.103
Long.             142.860
Depth. (km)       24
Mag.              9.0
Station Code      HKD125
Station Lat.      42.7609
Station Long.     142.1344
Station Height(m) 69
Record Time       2011/03/11 14:48:03
Sampling Freq(Hz) 100Hz
Duration Time(s)  300
Dir.              N-S
Scale Factor      3920(gal)/6182761
Max. Acc. (gal)   27.186
Last Correction   2011/03/11 14:47:48
Memo.             
[...]
    -196      594      300    -1353    -4362    -8427   -13008   -17508 
  -21456   -24563   -26718   -27910   -28148   -27530   -26275   -24604 
  -22644   -20462   -18021   -15166   -11830    -8062    -3914      370 
    4430     8048    11051    13350    14942    15784    15955    15592 
   14800    13715    12396    10832     9089     7299     5569     3976 
    2632     1674     1184     1130     1383     1819     2342     2866 
    3303     3559     3616     3557     3466     3409     3423     3454 
    3377     3122     2757     2412     2189     2151     2316     2682 
    3262     4105     5311     6948     8965    11221    13511    15548 
   17021    17657    17256    15753    13291    10198     6893     3773 
    1097    -1062    -2774    -4138    -5162    -5757    -5861    -5491 
   -4687    -3463    -1836      141     2348     4583     6580     8162 
    9353    10275    11023    11652    12179    12615    12941    13123 
   13204    13243    13241    13226    13234    13236    13218    13187 
   13133    13073    13036    13051    13164    13408    13821    14424 
   15141    15805    16238    16315    16019    15456    14794    14176 
   13690    13349    13066    12700    12147    11386    10489     9613 
    8913     8466     8305     8441     8832     9365     9853    10088 
    9899     9189     7960     6382     4778     3460     2616     2301 
    2456     2928     3517     4061     4470     4710     4799     4798 
    4798     4942     5384     6193     7315     8566     9709    10570 
   11013    10968    10524     9875     9250     8890     8961     9471 
   10275    11101    11639    11630    10949     9683     8105     6546 
    5260     4326     3619     2914     2052     1011     -117    -1187 
   -2053    -2615    -2800    -2545    -1845     -761      571     1944 
    3118     3903     4222     4127     3735     3141     2420     1636 
     817      -28     -880    -1734    -2624    -3591    -4641    -5683 
   -6513    -6869    -6555    -5510    -3795    -1557      996     3643 
    6143     8239     9734    10528    10568     9902     8732     7303 
    5798     4340     2983     1757      692     -202     -892    -1290 
   -1320     -981     -351      451     1296     2069     2713     3283 
    3921     4773     5942     7445     9171    10882    12291    13195 
   13503    13193    12335    11079     9549     7838     5983     3945 
    1751     -448    -2432    -3922    -4655    -4516    -3586    -2087 
    -310     1444     2946     4070     4804     5276     5708     6273 
    7019     7866     8620     9038     8901     8079     6569     4516 
    2187      -96    -2043    -3461    -4260    -4444    -4148    -3620 
   -3114    -2820    -2836    -3131    -3544    -3863    -3934    -3705 
   -3207    -2516    -1699     -809       97      955     1760     2587 
    3538     4719     6220     8009     9893    11618    12971    13832 
   14213    14225    13991    13617    13143    12500    11603    10410 
    8948     7358     5785     4288     2947     1863     1045      451 
      47     -160     -128      211      905     1904     3102     4400 
    5713     6970     8142     9252    10327    11369    12341    13205 
   13969    14692    15420    16139    16781    17259    17514    17528 
   17319    16932    16413    15776    15029    14244    13580    13239 
   13379    14044    15129    16412    17638    18604    19157    19191 
   18691    17717    16339    14650    12795    10983     9477     8477 
    8008     7953     8121     8340     8493     8467     8153     7467 
    6339     4776     2871      707    -1655    -4143    -6637    -8983 
  -11028   -12610   -13583   -13905   -13624   -12808   -11496    -9637 
   -7090    -3729      461     5350    10690    16165    21426    26099 
   29843    32440    33831    34080    33355    31877    29832    27337 
   24457    21250    17812    14257    10681     7161     3801      758 
   -1791    -3712    -4973    -5644    -5810    -5501    -4720    -3419 
   -1493     1136     4412     8143    12034    15762    19076    21828 
   23910    25284    26062    26403    26365    25942    25129    23890 
   22179    20001    17454    14703    11902     9141     6454     3857 
    1367     -997    -3186    -5095    -6581    -7522    -7876    -7618 
   -6685    -5088    -3020     -814     1165     2634     3471     3724 
    3577     3282     3045     2892     2645     2096     1153     -114 
   -1513    -2853    -4013    -4914    -5505    -5785    -5790    -5552 
   -5070    -4312    -3222    -1704      290     2713     5462     8405 
   11352    14066    16312    17885    18651    18617    17948    16920 
   15842    14898    14035    13047    11739    10006     7899     5655 
    3596     1977      923      395      195       82     -132     -602 
   -1438    -2621    -3962    -5131    -5765    -5645    -4764    -3199 
   -1078     1328     3733     5941     7793     9219    10272    11029 
   11549    11842    11904    11760    11389    10711     9684     8377 
    6967     5669     4638     3914     3434     3051     2565     1800 
     646     -893    -2649    -4349    -5698    -6399    -6181    -4878 
   -2498      764     4574     8587    12542    16251    19583    22444 
   24766    26503    27576    27835    27140    25436    22737    19116 
   14709     9719     4427     -870    -5909   -10447   -14240   -17118 
  -19041   -20070   -20329   -19962   -19067   -17700   -15921   -13797 
  -11337    -8483    -5208    -1556     2375     6397    10207    13491 
   16023    17719    18676    19100    19131    18822    18200    17224 
   15746    13625    10849     7541     3959      394    -2893    -5611 
   -7432    -8098    -7497    -5671    -2852      575     4214     7788 
   11174    14332    17223    19803    21997    23673    24712    25099 
   24896    24182    23045    21511    19546    17154    14440    11630 
    9011     6826     5243     4298     3863     3724     3663     3564 
    3446     3368     3450     3855     4662     5842     7265     8663 
    9648     9823     8968     7126     4549     1614    -1326    -4067 
   -6502    -8598   -10412   -11996   -13313   -14278   -14808   -14844 
  -14371   -13340   -11693    -9453    -6684    -3496      -71     3403 
    6712     9625    11969    13622    14519    14691    14260    13439 
   12476    11515    10588     9651     8605     7348     5843     4157 
    2482     1109      313      236      856     2026     3603     5513 
    7644     9759    11603    13018    13914    14308    14312    14015 
   13464    12702    11789    10801     9776     8677     7432     5970 
    4243     2228      -51    -2473    -4822    -6871    -8433    -9361 
   -9538    -8927    -7627    -5897    -4056    -2382    -1021       57 
     987     1918     2976     4208     5550     6873     8055     9026 
    9734    10099    10034     9493     8451     6909     4939     2681 
     308    -2018    -4204    -6211    -7974    -9403   -10446   -11103 
  -11338   -11053   -10192    -8748    -6739    -4244    -1388     1735 
    5009     8243    11225    13755    15665    16899    17459    17329 
   16535    15182    13377    11219     8805     6175     3332      273 
   -3040    -6646   -10451   -14227   -17708   -20622   -22757   -24010 
  -24326   -23670   -22161   -20008   -17253   -13987   -10575    -7105 
   -3404      345     3929     7379    10659    13695    16422    18781 
   20832    22611    24062    25103    25553    25203    24065    22409 
   20478    18462    16696    15324    14218    13313    12500    11671 
   10842     9931     8792     7352     5617     3766     2099      899 
     327      380      950     1849     2910     4098     5366     6535 
    7444     8021     8226     8080     7687     7172     6627     6144 
    5816     5701     5829     6173     6614     6947     6921     6336 
    5133     3394     1284     -992    -3200    -5098    -6486    -7270 
   -7508    -7363    -7013    -6624    -6349    -6268    -6396    -6757 
   -7361    -8139    -8966    -9671   -10061   -10082    -9750    -9003 
   -7838    -6332    -4493    -2241      536     3944     8050    12818 
   18051    23422    28592    33262    37161    40179    42351    43682 
   44316    44542    44423    43800    42559    40692    38264    35394 
   32214    28829    25258    21410    17142    12364     7097     1467 
   -4295    -9860   -14850   -18907   -21768   -23370   -23851   -23429 
  -22373   -20922   -19244   -17565   -16002   -14449   -12865   -11250 
   -9531    -7714    -5844    -3946    -2083     -342     1186     2442 
    3474     4400     5347     6528     8153    10212    12503    14749 
   16633    17914    18481    18352    17691    16691    15503    14280 
   13131    12100    11204    10429     9743     9100     8475     7894 
    7401     7037     6809     6645     6422     6019     5346     4343 
    2965     1181     -994    -3477    -6124    -8798   -11414   -13940 
  -16375   -18709   -20841   -22585   -23749   -24192   -23846   -22757 
  -21049   -18861   -16328   -13550   -10555    -7375    -4078     -749 
    2496     5530     8247    10584    12517    14064    15281    16224 
   16894    17220    17111    16556    15691    14721    13807    13006 
   12259    11438    10467     9335     8081     6786     5523     4369 
    3410     2710     2265     1990     1744     1415      982      539 
     271      378     1001     2228     4060     6296     8619    10675 
   11953    11969    10596     7943     4245       47    -3953    -7178 
   -9266   -10103    -9782    -8516    -6619    -4449    -2321     -409 
    1293     2896     4502     6127     7767     9369    10706    11552 
   11817    11488    10704     9680     8550     7420     6397     5515 
    4717     3846     2686     1100     -861    -2984    -5011    -6743 
   -8126    -9171    -9841   -10049    -9702    -8730    -7101    -4818 
   -1909     1556     5518     9909    14524    19014    23089    26576 
   29371    31433    32781    33559    34001    34195    34132    33790 
   33065    31900    30338    28408    26180    23732    21091    18290 
   15383    12460     9621     6913     4339     1867     -561    -3004 
   -5495    -7973   -10252   -12107   -13342   -13837   -13606   -12753 
  -11375    -9580    -7519    -5319    -3031     -694     1618     3818 
    5783     7359     8447     9026     9121     8757     7937     6671 
    5006     3013      812    -1466    -3785    -6187    -8710   -11347 
  -14019   -16569   -18791   -20457   -21353   -21341   -20349   -18355 
  -15438   -11805    -7712    -3446      673     4396     7547     9968 
   11550    12289    12261    11576    10406     8999     7583     6308 
    5223     4264     3335     2434     1613      917      444      346 
     759     1822     3621     6089     9042    12212    15319    18102 
   20321    21837    22608    22645    22063    21060    19820    18481 
   17109    15653    13988    12001     9667     7070     4312     1442 
   -1479    -4302    -6835    -8949   -10606   -11825   -12635   -13009 
  -12847   -12037   -10528    -8368    -5709    -2773      236     3201 
    6078     8873    11594    14215    16636    18655    20044    20638 
   20332    19110    17104    14551    11724     8887     6233     3813 
    1553     -649    -2828    -4951    -6952    -8703   -10018   -10764 
  -10925   -10612    -9999    -9227    -8391    -7565    -6773    -5976 
   -5075    -3946    -2536     -855     1063     3155     5375     7699 
   10027    12132    13780    14838    15296    15236    14805    14143 
   13324    12404    11442    10483     9566     8762     8173     7885 
    7941     8298     8832     9390     9850    10154    10300    10354 
   10413    10543    10764    11064    11358    11524    11432    10990 
   10189     9101     7840     6511     5207     4006     2947     2042 
    1247      488     -296    -1160    -2116    -3070    -3851    -4271 
   -4185    -3510    -2203     -260     2244     5105     8057    10888 
   13414    15464    16961    17894    18263    18081    17377    16195 
   14617    12755    10755     8760     6869     5099     3386     1680 
     -22    -1689    -3213    -4405    -5068    -5074    -4412    -3194 
   -1606      159     1912     3493     4823     5914     6821     7582 
    8188     8630     8889     8929     8763     8431     7974     7462 
    6936     6318     5499     4442     3189     1872      707      -83 
    -393     -269      184      839     1568     2283     2869     3194 
    3173     2770     2012     1013      -45     -967    -1591    -1831 
   -1689    -1256     -695     -174      204      401      433      403 
     539     1103     2247     3959     6067     8304    10397    12114 
   13301    13925    14073    13914    13646    13459    13521    13949 
   14774    15925    17207    18355    19184    19670    19883    19861 
   19557    18897    17844    16423    14723    12846    10895     8960 
    7077     5242     3477     1884      590     -325     -844     -995 
    -863     -591     -353     -319     -579    -1097    -1729    -2252 
   -2435    -2121    -1252      128     1867     3782     5753     7668 
    9405    10901    12165    13281    14391    15605    16938    18261 
   19341    19967    20031    19530    18596    17462    16360    15429 
   14704    14166    13755    13370    12933    12406    11764    10989 
   10068     9035     7987     6981     5999     5010     3983     2819 
    1337     -661    -3317    -6638   -10496   -14694   -19003   -23173 
  -26977   -30250   -32885   -34873   -36324   -37305   -37717   -37425 
  -36455   -34900   -32715   -29878   -26540   -22818   -18737   -14339 
   -9640    -4629      672     6169    11677    16881    21366    24771 
   26907    27858    27958    27516    26712    25684    24504    23210 
   21852    20448    19015    17558    16049    14480    12846    11080 
    9111     6927     4592     2225       14    -1822    -3109    -3764 
   -3877    -3687    -3358    -2902    -2335    -1696    -1023     -406 
      35      207      110     -176     -554     -926    -1175    -1191 
    -875     -145      994     2439     4043     5679     7221     8565 
    9732    10840    11919    12852    13581    14127    14377    14295 
   14042    13704    13328    12934    12441    11875    11316    10774 
   10289     9866     9431     8938     8385     7828     7393     7156 
    7088     7119     7167     7130     6961     6666     6253     5714 
    5042     4251     3403     2577     1831     1203      746      558 
     721     1234     1999     2872     3705     4368     4777     4908 
    4789     4469     4012     3459     2827     2195     1699     1381 
    1155      906      544       22     -677    -1570    -2637    -3794 
   -4972    -6091    -7022    -7668    -7978    -7928    -7592    -7076 
   -6366    -5403    -4203    -2806    -1240      392     1932     3259 
    4305     5056     5600     6154     6977     8217     9832    11684 
   13589    15232    16362    17069    17424    17263    16633    15675 
   14368    12891    11456    10094     8894     7814     6708     5559 
    4310     2915     1429     -178    -1958    -3873    -5807    -7564 
   -8877    -9491    -9295    -8365    -6894    -5184    -3558    -2236 
   -1292     -652     -137      387      933     1439     1830     2054 
    2121     2100     2075     2127     2322     2677     3152     3686 
    4191     4556     4688     4576     4327     4111     4079     4280 
    4615     4882     4925     4734     4414     4093     3889     3939 
    4324     4981     5760     6506     7063     7274     7022     6292 
    5164     3778     2336     1055      110     -366     -323      125 
     770     1418     1903     2155     2248     2299     2410     2683 
    3169     3827     4599     5455     6356     7272     8202     9159 
   10136    11120    12098    13035    13880    14589    15140    15572 
   15979    16491    17227    18196    19287    20359    21305    22048 
   22528    22741    22745    22598    22311    21861    21176    20182 
   18890    17382    15773    14198    12742    11428    10271     9232 
    8224     7196     6097     4857     3447     1905      321    -1181 
   -2454    -3378    -3921    -4157    -4235    -4320    -4523    -4882 
   -5360    -5870    -6306    -6546    -6489    -6097    -5376    -4354 
   -3133    -1872     -654      544     1732     2880     3925     4737 
    5195     5293     5168     5078     5298     5985     7123     8518 
    9881    10943    11531    11605    11292    10852    10581    10694 
   11257    12207    13340    14334    14904    14917    14389    13460 
   12365    11391    10762    10560    10756    11258    11978    12868 
   13806    14610    15224    15650    15847    15806    15521    14946 
   14038    12762    11132     9261     7320     5459     3740     2161 
     709     -614    -1804    -2893    -3912    -4807    -5468    -5802 
   -5767    -5381    -4659    -3599    -2224     -570     1321     3403 
    5617     7819     9809    11456    12741    13712    14429    14931 
   15246    15404    15426    15282    14903    14213    13153    11702 
    9915     7924     5920     4088     2518     1181       -1    -1095 
   -2176    -3281    -4345    -5234    -5811    -5969    -5666    -4905 
   -3705    -2130     -344     1420     2956     4095     4735     4862 
    4544     3919     3139     2357     1686     1103      452     -438 
   -1632    -3050    -4531    -5899    -6999    -7726    -8018    -7802 
   -7015    -5662    -3802    -1531     1043     3839     6779     9741 
   12614    15326    17794    19952    21808    23426    24876    26190 
   27320    28121    28391    27946    26667    24508    21540    17971 
   14107    10266     6705     3557      807    -1631    -3780    -5593 
   -6978    -7819    -7988    -7363    -5887    -3604     -674     2642 
    6062     9368    12414    15086    17295    19011    20238    20990 
   21291    21161    20631    19764    18630    17279    15735    13980 
   11959     9600     6858     3819      751    -2029    -4280    -5863 
   -6762    -7095    -7055    -6868    -6727    -6669    -6610    -6446 
   -6063    -5381    -4416    -3215    -1826     -296     1322     2914 
    4319     5411     6107     6346     6110     5468     4555     3459 
    2183      792     -561    -1794    -2845    -3587    -3932    -3858 
   -3366    -2531    -1400       67     1895     4057     6449     8875 
   11096    12922    14277    15189    15741    16064    16274    16395 
   16413    16284    15883    15167    14254    13306    12458    11769 
   11212    10705    10139     9453     8686     7921     7255     6781 
    6532     6502     6684     7049     7539     8108     8754     9552 
   10608    11995    13694    15562    17385    18965    20116    20696 
   20749    20435    19878    19233    18638    18094    17580    17082 
   16501    15685    14477    12770    10562     7940     5036     2025 
    -863    -3392    -5391    -6778    -7553    -7753    -7409    -6538 
   -5177    -3443    -1495      504     2332     3799     4924     5774 
    6303     6547     6625     6561     6322     5906     5355     4737 
    4129     3614     3246     3015     2867     2766     2632     2333 
    1906     1510     1201     1036     1119     1503     2223     3245 
    4478     5879     7459     9272    11360    13670    16059    18355 
