Origin Time       2011/03/11 14:46:00
Lat.              38.103
Long.             142.860
Depth. (km)       24
Mag.              9.0
Station Code      HKD155
Station Lat.      42.0438
Station Long.     140.8064
Station Height(m) 4
Record Time       2011/03/11 14:47:56
Sampling Freq(Hz) 100Hz
Duration Time(s)  287
Dir.              U-D
Scale Factor      3920(gal)/6182761
Max. Acc. (gal)   4.064
Last Correction   2011/03/11 14:47:41
Memo.             
[...]
  -10250    -9954    -9998   -10251   -10521   -10709   -10641   -10062 
   -9044    -7953    -7074    -6576    -6499    -6644    -6737    -6630 
   -6336    -6142    -6445    -7234    -8103    -8685    -8818    -8680 
   -8688    -9007    -9508   -10115   -10721   -10980   -10556    -9553 
   -8424    -7415    -6436    -5494    -4737    -4217    -3971    -4024 
   -4321    -4914    -5789    -6605    -7102    -7372    -7591    -7870 
   -8237    -8599    -8911    -9243    -9605    -9877    -9899    -9585 
   -9077    -8677    -8491    -8358    -8119    -7803    -7570    -7418 
   -7148    -6808    -6635    -6679    -6931    -7339    -7686    -7944 
   -8282    -8651    -8960    -9284    -9626    -9919   -10049    -9839 
   -9404    -9078    -8964    -9055    -9501   -10318   -11176   -11718 
  -11841   -11704   -11531   -11369   -11230   -11325   -11737   -12224 
  -12578   -12784   -12921   -13052   -13138   -13103   -12881   -12381 
  -11661   -10932   -10304    -9805    -9465    -9296    -9366    -9645 
   -9929   -10182   -10514   -10761   -10642   -10191    -9665    -9287 
   -9165    -9129    -8862    -8327    -7792    -7458    -7359    -7443 
   -7553    -7521    -7340    -7096    -6745    -6165    -5456    -4998 
   -5131    -5749    -6303    -6337    -5893    -5332    -4924    -4676 
   -4527    -4601    -5104    -6004    -6994    -7760    -8132    -8120 
   -7959    -7932    -8145    -8570    -9068    -9356    -9277    -8987 
   -8689    -8472    -8370    -8309    -8253    -8253    -8193    -7965 
   -7750    -7782    -8077    -8413    -8537    -8554    -8752    -9036 
   -9175    -9289    -9551    -9882   -10123   -10170   -10135   -10271 
  -10319    -9716    -8646    -7802    -7479    -7638    -8186    -8995 
  -10059   -11268   -12149   -12377   -12141   -11786   -11647   -11994 
  -12707   -13365   -13667   -13543   -13114   -12558   -11882   -10994 
   -9978    -9112    -8590    -8364    -8355    -8593    -9036    -9598 
  -10254   -10824   -11014   -10738   -10168    -9587    -9283    -9306 
   -9504    -9865   -10402   -10947   -11448   -11991   -12490   -12859 
  -13160   -13479   -13928   -14476   -14748   -14513   -14081   -13765 
  -13501   -13231   -13066   -13086   -13414   -14139   -14993   -15509 
  -15479   -14982   -14248   -13534   -12835   -11974   -11117   -10664 
  -10617   -10643   -10549   -10240    -9709    -9121    -8534    -7950 
   -7556    -7313    -6877    -6190    -5434    -4644    -4000    -3866 
   -4301    -5022    -5727    -6146    -6108    -5779    -5560    -5526 
   -5325    -4850    -4488    -4563    -5096    -5942    -6865    -7741 
   -8554    -9213    -9684    -9902    -9599    -8800    -8015    -7510 
   -7094    -6619    -6054    -5431    -4996    -4893    -4938    -5010 
   -5161    -5385    -5744    -6350    -7188    -8264    -9416   -10050 
   -9756    -8753    -7511    -6550    -6318    -6769    -7478    -8130 
   -8569    -8668    -8371    -7763    -7040    -6458    -6222    -6352 
   -6700    -7091    -7428    -7755    -8205    -8739    -9060    -8999 
   -8724    -8499    -8555    -8982    -9558    -9866    -9558    -8609 
   -7492    -6766    -6489    -6442    -6611    -7083    -7826    -8712 
   -9565   -10311   -11051   -11849   -12606   -13124   -13142   -12586 
  -11905   -11775   -12379   -13254   -13895   -14182   -14202   -13924 
  -13266   -12375   -11548   -10951   -10606   -10512   -10575   -10573 
  -10425   -10353   -10569   -10881   -10935   -10733   -10563   -10635 
  -11027   -11648   -12248   -12708   -13004   -12913   -12222   -11084 
   -9895    -8999    -8513    -8392    -8672    -9294    -9913   -10291 
  -10482   -10542   -10499   -10420   -10341   -10309   -10333   -10221 
   -9776    -9159    -8741    -8642    -8693    -8750    -8868    -9181 
   -9637    -9877    -9539    -8640    -7540    -6627    -6072    -5781 
   -5514    -5245    -5284    -5829    -6709    -7689    -8621    -9286 
   -9357    -8682    -7585    -6683    -6381    -6576    -6828    -6846 
   -6652    -6298    -5877    -5703    -6006    -6736    -7831    -9109 
  -10077   -10402   -10198    -9631    -8857    -8201    -7865    -7912 
   -8393    -8948    -8994    -8591    -8299    -8435    -9080   -10200 
  -11495   -12660   -13608   -14243   -14438   -14227   -13666   -12803 
  -11953   -11545   -11589   -11854   -12419   -13383   -14364   -14946 
  -15104   -14910   -14362   -13495   -12447   -11558   -11194   -11268 
  -11348   -11237   -11003   -10649   -10248   -10016   -10014   -10159 
  -10409   -10711   -11028   -11248   -11103   -10584   -10163   -10249 
  -10737   -11305   -11848   -12408   -12785   -12541   -11591   -10457 
   -9711    -9472    -9530    -9626    -9668    -9809   -10189   -10710 
  -11187   -11556   -11796   -11792   -11386   -10554    -9513    -8531 
   -7649    -6820    -6193    -5962    -6003    -5977    -5766    -5569 
   -5687    -6291    -7136    -7697    -7811    -7806    -7986    -8344 
   -8568    -8270    -7512    -6893    -6899    -7438    -8099    -8566 
   -8787    -8899    -8952    -8860    -8708    -8721    -8994    -9475 
   -9952   -10196   -10240   -10150    -9804    -9199    -8569    -8178 
   -8190    -8586    -9108    -9398    -9218    -8650    -8117    -8071 
   -8587    -9280    -9698    -9825    -9927   -10112   -10316   -10367 
  -10157    -9946   -10073   -10509   -11039   -11469   -11667   -11837 
  -12361   -13087   -13443   -13204   -12548   -11824   -11403   -11236 
  -10920   -10373    -9858    -9506    -9305    -9277    -9436    -9797 
  -10282   -10662   -10836   -10840   -10661   -10462   -10536   -10854 
  -11048   -10737    -9883    -8892    -8129    -7636    -7397    -7305 
   -7176    -7033    -6896    -6606    -6286    -6319    -6793    -7541 
   -8369    -8990    -9216    -9072    -8554    -7750    -7009    -6548 
   -6159    -5538    -4714    -4013    -3665    -3632    -3757    -3925 
   -4131    -4379    -4596    -4819    -5235    -5884    -6571    -7219 
   -7909    -8542    -8926    -9047    -8963    -8779    -8690    -8764 
   -8877    -8918    -8915    -9021    -9345    -9809   -10232   -10472 
  -10549   -10625   -10798   -11081   -11508   -12047   -12576   -12982 
  -13178   -13020   -12365   -11261    -9972    -8843    -8074    -7520 
   -6948    -6401    -5929    -5383    -4841    -4651    -4899    -5394 
   -6009    -6697    -7439    -8187    -8705    -8763    -8479    -8189 
   -8055    -7957    -7780    -7555    -7401    -7407    -7408    -7198 
   -6904    -6670    -6365    -5900    -5470    -5350    -5609    -6134 
   -6793    -7429    -7944    -8441    -9064    -9788   -10414   -10661 
  -10401    -9811    -9251    -8965    -8940    -9063    -9194    -9251 
   -9377    -9672   -10025   -10406   -10877   -11370   -11804   -12126 
  -12269   -12277   -12271   -12209   -11992   -11749   -11760   -12135 
  -12711   -13181   -13276   -12864   -12063   -11256   -10778   -10589 
  -10533   -10691   -11064   -11256   -10849    -9828    -8525    -7235 
   -6059    -5175    -4821    -4914    -5086    -5026    -4713    -4467 
   -4577    -4913    -5202    -5447    -5815    -6358    -6937    -7273 
   -7199    -6841    -6413    -5996    -5708    -5787    -6347    -7279 
   -8321    -9130    -9571    -9834   -10048   -10087    -9820    -9323 
   -8797    -8419    -8293    -8419    -8709    -9101    -9601   -10234 
  -10861   -11108   -10697    -9771    -8806    -8238    -8107    -8137 
   -8211    -8474    -8906    -9186    -9094    -8755    -8487    -8581 
   -9029    -9493    -9682    -9684    -9733    -9808    -9631    -9018 
   -8225    -7808    -8012    -8567    -9108    -9535    -9976   -10495 
  -10935   -11122   -11083   -11013   -11102   -11420   -11833   -12062 
  -11911   -11429   -10929   -10747   -10891   -11149   -11415   -11619 
  -11660   -11534   -11256   -10878   -10613   -10624   -10724   -10599 
  -10200    -9741    -9452    -9369    -9267    -8975    -8614    -8282 
   -7797    -7007    -6098    -5402    -5019    -4767    -4489    -4299 
   -4514    -5313    -6442    -7494    -8303    -8888    -9246    -9241 
   -8711    -7845    -7109    -6687    -6364    -5972    -5548    -5185 
   -4970    -4872    -4855    -5123    -5810    -6755    -7748    -8461 
   -8472    -7842    -7143    -6883    -7221    -7965    -8737    -9293 
   -9583    -9609    -9478    -9430    -9625    -9999   -10335   -10440 
  -10378   -10399   -10630   -11005   -11362   -11521   -11420   -11070 
  -10429    -9512    -8433    -7404    -6741    -6500    -6415    -6445 
   -6766    -7376    -8063    -8449    -8289    -7906    -7866    -8389 
   -9401   -10588   -11475   -11875   -11897   -11619   -11240   -11093 
  -11295   -11740   -12293   -12805   -13145   -13286   -13237   -13052 
  -12835   -12619   -12450   -12417   -12463   -12497   -12507   -12446 
  -12260   -11987   -11698   -11457   -11330   -11253   -10986   -10390 
   -9620    -8991    -8719    -8733    -8808    -8900    -9131    -9555 
  -10189   -10960   -11586   -11903   -12106   -12374   -12504   -12154 
  -11270   -10080    -8884    -7934    -7232    -6582    -5960    -5586 
   -5611    -5938    -6306    -6501    -6520    -6459    -6344    -6284 
   -6490    -6886    -7114    -7042    -6896    -6936    -7185    -7434 
   -7514    -7582    -7969    -8691    -9351    -9616    -9615    -9710 
  -10035   -10467   -10807   -10925   -10901   -10993   -11350   -11839 
  -12251   -12526   -12723   -12878   -12864   -12543   -12046   -11649 
  -11482   -11423   -11220   -10787   -10325   -10115   -10183   -10229 
  -10017    -9698    -9551    -9625    -9800    -9864    -9500    -8680 
   -7865    -7439    -7359    -7401    -7303    -6908    -6431    -6208 
   -6321    -6708    -7289    -7911    -8424    -8755    -8868    -8855 
   -8913    -9076    -9257    -9482    -9731    -9783    -9505    -8996 
   -8394    -7836    -7556    -7693    -8079    -8444    -8670    -8753 
   -8797    -8887    -8879    -8642    -8336    -8169    -8231    -8489 
   -8691    -8631    -8451    -8224    -7826    -7486    -7551    -7853 
   -8037    -8031    -7981    -8055    -8146    -7934    -7562    -7565 
   -7971    -8296    -8390    -8547    -9031    -9827   -10602   -10996 
  -10966   -10673   -10300   -10094   -10208   -10522   -10836   -11094 
  -11247   -11180   -10894   -10471    -9961    -9502    -9322    -9393 
   -9376    -9087    -8671    -8307    -8047    -7906    -8013    -8578 
   -9535   -10396   -10742   -10618   -10319   -10045    -9808    -9507 
   -9114    -8636    -8048    -7541    -7397    -7605    -8020    -8446 
   -8508    -8070    -7433    -6835    -6367    -6217    -6460    -7037 
   -7942    -9003    -9828   -10170   -10118    -9917    -9670    -9343 
   -8981    -8727    -8689    -8930    -9415    -9928   -10239   -10294 
  -10179   -10195   -10743   -11716   -12490   -12684   -12403   -11893 
  -11321   -10705   -10001    -9269    -8639    -8194    -7971    -7961 
   -8129    -8509    -9136    -9866   -10424   -10563   -10302    -9967 
   -9782    -9671    -9559    -9492    -9546    -9698    -9709    -9363 
   -8755    -8203    -7970    -7901    -7540    -6797    -6086    -5736 
   -5738    -5950    -6206    -6401    -6564    -6707    -6784    -6824 
   -6885    -7037    -7325    -7576    -7577    -7436    -7448    -7770 
   -8279    -8651    -8778    -8937    -9313    -9754   -10015    -9868 
   -9251    -8481    -7934    -7599    -7298    -7096    -7279    -8015 
   -9005    -9698   -10018   -10374   -10804   -10797   -10199    -9539 
   -9232    -9155    -9071    -8927    -8764    -8643    -8573    -8512 
   -8439    -8340    -8205    -8070    -7976    -7781    -7227    -6426 
   -5902    -5947    -6392    -6998    -7671    -8326    -8905    -9466 
   -9986   -10337   -10573   -10761   -10753   -10592   -10529   -10537 
  -10525   -10624   -10821   -10968   -10973   -10609    -9766    -8859 
   -8377    -8391    -8819    -9535   -10262   -10713   -10722   -10326 
   -9828    -9539    -9544    -9778   -10106   -10350   -10424   -10393 
  -10360   -10384   -10420   -10371   -10267   -10196   -10104    -9837 
   -9296    -8667    -8407    -8675    -9140    -9586   -10125   -10772 
  -11344   -11697   -11922   -12228   -12600   -12776   -12717   -12661 
  -12591   -12306   -11818   -11230   -10726   -10520   -10515   -10533 
  -10555   -10431   -10083    -9914   -10162   -10360   -10128    -9753 
   -9626    -9814   -10106   -10124    -9743    -9330    -9177    -9167 
   -9205    -9411    -9836   -10405   -10972   -11269   -11133   -10850 
  -10817   -10981   -10993   -10691   -10194    -9703    -9349    -9210 
   -9348    -9746   -10315   -10942   -11491   -11794   -11653   -11054 
  -10304    -9653    -9011    -8208    -7313    -6586    -6211    -6161 
   -6235    -6195    -5951    -5555    -5066    -4592    -4398    -4753 
   -5638    -6696    -7564    -8140    -8420    -8322    -7903    -7557 
   -7607    -7853    -7947    -7879    -7807    -7814    -7837    -7708 
   -7460    -7339    -7495    -7923    -8501    -9003    -9228    -9196 
   -9179    -9322    -9399    -9196    -8854    -8612    -8531    -8583 
   -8685    -8732    -8655    -8309    -7730    -7250    -6857    -6325 
   -5935    -6082    -6751    -7812    -9047   -10009   -10466   -10534 
  -10279    -9823    -9503    -9521    -9911   -10693   -11738   -12762 
  -13427   -13504   -13098   -12505   -11871   -11248   -10767   -10527 
  -10463   -10391   -10196    -9939    -9719    -9505    -9247    -9034 
   -8946    -8938    -9083    -9724   -11114   -12925   -14459   -15362 
  -15685   -15521   -14960   -14076   -13026   -12271   -12182   -12555 
  -12946   -13060   -12705   -11938   -11084   -10290    -9501    -8844 
   -8488    -8365    -8359    -8440    -8610    -8818    -8903    -8872 
   -9004    -9291    -9427    -9498    -9786   -10167   -10388   -10375 
  -10118    -9706    -9216    -8544    -7806    -7540    -8062    -9140 
  -10313   -11125   -11438   -11583   -11852   -12128   -12185   -12061 
  -11960   -11983   -12078   -12037   -11685   -11135   -10551    -9964 
   -9511    -9309    -9209    -9122    -9160    -9257    -9109    -8596 
   -7941    -7467    -7349    -7528    -7883    -8346    -8750    -8984 
   -9211    -9475    -9577    -9546    -9624    -9842    -9967    -9813 
   -9541    -9559    -9916   -10174   -10206   -10319   -10526   -10638 
  -10748   -10959   -11144   -11112   -10716   -10002    -9247    -8663 
   -8291    -8251    -8605    -9090    -9433    -9748   -10253   -10761 
  -10869   -10417    -9457    -8255    -7260    -6776    -6943    -7740 
   -8801    -9734   -10397   -10655   -10529   -10528   -11060   -11815 
  -12246   -12115   -11447   -10505    -9594    -8794    -8224    -8119 
   -8371    -8583    -8657    -8888    -9533   -10482   -11299   -11579 
  -11164   -10184    -9075    -8281    -7930    -8036    -8614    -9462 
  -10255   -10814   -11094   -11236   -11583   -12247   -12939   -13407 
  -13540   -13161   -12293   -11272   -10403    -9981   -10336   -11409 
  -12641   -13379   -13201   -12291   -11382   -10812   -10207    -9325 
   -8399    -7757    -7618    -7907    -8160    -8099    -8040    -8342 
   -8989    -9775   -10517   -11182   -11704   -11683   -10821    -9606 
   -8858    -8691    -8608    -8348    -8181    -8569    -9535   -10533 
  -11245   -11863   -12491   -12891   -12663   -11628   -10237    -9179 
   -8749    -8944    -9489    -9753    -9419    -8807    -8279    -7924 
   -7746    -7786    -8116    -8692    -9255    -9440    -8998    -8060 
   -7149    -6674    -6544    -6570    -6846    -7457    -8149    -8467 
   -8267    -8097    -8554    -9321    -9764   -10004   -10480   -11150 
  -11687   -11840   -11514   -10872   -10216    -9696    -9309    -9106 
   -9240    -9823   -10788   -11826   -12477   -12469   -11998   -11387 
  -10668    -9849    -9177    -8894    -9017    -9297    -9355    -9062 
   -8672    -8485    -8588    -8994    -9699   -10517   -11130   -11283 
  -10876   -10125    -9431    -8933    -8464    -7988    -7709    -7781 
   -8179    -8856    -9607    -9903    -9480    -8871    -8826    -9465 
  -10152   -10177    -9639    -9322    -9640   -10366   -11220   -12108 
  -12875   -13178   -12761   -11905   -11354   -11489   -11895   -12061 
  -11977   -11857   -11692   -11283   -10729   -10477   -10660   -10986 
  -11285   -11666   -12209   -12710   -12857   -12606   -12245   -12050 
  -11955   -11791   -11632   -11588   -11651   -11803   -11942   -12001 
  -12099   -12178   -12072   -11958   -12108   -12404   -12502   -12272 
  -11891   -11611   -11475   -11256   -10720    -9941    -9206    -8703 
   -8416    -8273    -8229    -8192    -8159    -8329    -8811    -9379 
   -9617    -9327    -8949    -9120    -9708    -9993    -9763    -9452 
   -9361    -9394    -9373    -9292    -9363    -9653    -9887    -9893 
   -9785    -9686    -9806   -10345   -11118   -11780   -12246   -12479 
  -12323   -11807   -11023    -9986    -9051    -8650    -8620    -8649 
   -8749    -8910    -9038    -9163    -9326    -9538    -9769    -9860 
   -9758    -9720    -9938   -10236   -10281    -9944    -9382    -8920 
   -8826    -9125    -9609    -9958    -9897    -9402    -8684    -8070 
   -7875    -8078    -8314    -8399    -8410    -8315    -8111    -7976 
   -7977    -8035    -8168    -8368    -8476    -8441    -8370    -8454 
   -8891    -9585   -10162   -10387   -10283    -9981    -9666    -9595 
   -9916   -10374   -10483   -10067    -9418    -8910    -8643    -8508 
   -8399    -8363    -8551    -8944    -9239    -9170    -8818    -8535 
   -8614    -9026    -9424    -9537    -9492    -9491    -9520    -9610 
   -9909   -10346   -10635   -10659   -10551   -10497   -10537   -10371 
   -9861    -9615   -10071   -10642   -10691   -10429   -10356   -10740 
  -11559   -12375   -12691   -12393   -11597   -10647   -10075    -9926 
   -9686    -9141    -8620    -8370    -8290    -8168    -7966    -7976 
   -8395    -8846    -8894    -8668    -8607    -8943    -9499    -9905 
  -10022    -9971    -9893    -9885    -9877    -9701    -9438    -9343 
   -9462    -9590    -9429    -8882    -8303    -8193    -8630    -9292 
   -9792    -9785    -9237    -8665    -8526    -8597    -8475    -8232 
   -8182    -8511    -9174    -9812   -10125   -10343   -10725   -11020 
  -10989   -10787   -10587   -10373    -9989    -9316    -8636    -8449 
   -8854    -9492    -9956   -10076    -9986    -9858    -9636    -9272 
   -8872    -8432    -7943    -7626    -7581    -7686    -7894    -8145 
   -8312    -8472    -8796    -9224    -9481    -9392    -9176    -9204 
   -9474    -9703    -9760    -9627    -9319    -9043    -9037    -9307 
   -9637    -9756    -9666    -9679    -9934   -10250   -10459   -10555 
  -10668   -10928   -11259   -11478   -11571   -11698   -11918   -12033 
  -11872   -11558   -11234   -10855   -10485   -10298   -10344   -10637 
  -11145   -11687   -12138   -12453   -12473   -12043   -11265   -10397 
   -9616    -9045    -8908    -9506   -10878   -12457   -13574   -14217 
  -14695   -15055   -15273   -15354   -15198   -14746   -14078   -13310 
  -12609   -12140   -11854   -11503   -11006   -10551   -10263   -10043 
   -9842    -9874   -10363   -11203   -12022   -12430   -12327   -11964 
  -11528   -11082   -10896   -11144   -11469   -11521   -11427   -11412 
  -11478   -11406   -10996   -10430    -9967    -9473    -8854    -8510 
   -8896    -9947   -11144   -11900   -11932   -11473   -10978   -10725 
