Origin Time       2011/03/11 14:46:00
Lat.              38.103
Long.             142.860
Depth. (km)       24
Mag.              9.0
Station Code      HKD119
Station Lat.      43.5199
Station Long.     142.1914
Station Height(m) 90
Record Time       2011/03/11 14:49:07
Sampling Freq(Hz) 100Hz
Duration Time(s)  247
Dir.              N-S
Scale Factor      3920(gal)/6182761
Max. Acc. (gal)   6.436
Last Correction   2011/03/11 14:48:52
Memo.             
[...]
  -23681   -23659   -23690   -23734   -23769   -23804   -23860   -23963 
  -24125   -24342   -24609   -24920   -25260   -25605   -25929   -26214 
  -26450   -26630   -26761   -26861   -26944   -27000   -27011   -26960 
  -26847   -26703   -26569   -26468   -26389   -26302   -26183   -26032 
  -25857   -25670   -25479   -25289   -25089   -24869   -24631   -24371 
  -24096   -23825   -23566   -23327   -23113   -22924   -22765   -22648 
  -22582   -22582   -22655   -22798   -22994   -23220   -23451   -23650 
  -23784   -23850   -23867   -23875   -23913   -24006   -24154   -24343 
  -24563   -24825   -25134   -25483   -25833   -26131   -26338   -26457 
  -26518   -26570   -26662   -26810   -27001   -27203   -27376   -27494 
  -27564   -27617   -27685   -27781   -27888   -27984   -28064   -28132 
  -28206   -28307   -28441   -28592   -28731   -28841   -28916   -28967 
  -29015   -29071   -29112   -29104   -29025   -28885   -28713   -28554 
  -28441   -28382   -28364   -28360   -28356   -28362   -28404   -28504 
  -28673   -28885   -29101   -29304   -29498   -29696   -29905   -30126 
  -30351   -30570   -30784   -31001   -31231   -31479   -31735   -31974 
  -32186   -32375   -32543   -32682   -32767   -32771   -32683   -32519 
  -32320   -32126   -31932   -31704   -31403   -31013   -30562   -30113 
  -29728   -29431   -29209   -29026   -28829   -28579   -28264   -27902 
  -27542   -27245   -27053   -26959   -26910   -26845   -26724   -26528 
  -26272   -25987   -25708   -25465   -25268   -25111   -24978   -24856 
  -24742   -24645   -24577   -24550   -24557   -24575   -24578   -24538 
  -24432   -24249   -23999   -23712   -23430   -23190   -23016   -22912 
  -22841   -22755   -22623   -22434   -22195   -21945   -21726   -21558 
  -21443   -21357   -21263   -21142   -20996   -20844   -20707   -20604 
  -20547   -20547   -20610   -20734   -20914   -21133   -21373   -21621 
  -21879   -22158   -22466   -22801   -23161   -23539   -23913   -24263 
  -24562   -24795   -24975   -25129   -25278   -25439   -25623   -25838 
  -26079   -26323   -26532   -26680   -26774   -26836   -26897   -26980 
  -27092   -27228   -27376   -27523   -27653   -27759   -27854   -27957 
  -28074   -28189   -28264   -28249   -28139   -27966   -27764   -27566 
  -27383   -27204   -27017   -26815   -26596   -26371   -26147   -25927 
  -25713   -25504   -25297   -25113   -24985   -24945   -25005   -25162 
  -25387   -25647   -25916   -26178   -26429   -26661   -26859   -27019 
  -27158   -27315   -27501   -27692   -27848   -27928   -27898   -27760 
  -27557   -27338   -27143   -26996   -26888   -26789   -26671   -26521 
  -26350   -26192   -26060   -25939   -25797   -25603   -25351   -25068 
  -24793   -24543   -24313   -24094   -23863   -23608   -23350   -23116 
  -22934   -22825   -22783   -22777   -22783   -22797   -22836   -22924 
  -23059   -23219   -23394   -23595   -23847   -24170   -24554   -24973 
  -25398   -25809   -26198   -26574   -26955   -27344   -27730   -28099 
  -28428   -28691   -28884   -29020   -29115   -29182   -29225   -29249 
  -29266   -29274   -29258   -29210   -29135   -29045   -28947   -28842 
  -28731   -28606   -28464   -28310   -28168   -28066   -28031   -28079 
  -28210   -28402   -28626   -28866   -29120   -29382   -29642   -29890 
  -30122   -30332   -30516   -30686   -30864   -31073   -31313   -31544 
  -31718   -31815   -31850   -31863   -31881   -31908   -31926   -31897 
  -31782   -31571   -31282   -30947   -30601   -30258   -29908   -29527 
  -29101   -28640   -28162   -27683   -27205   -26726   -26256   -25812 
  -25409   -25053   -24735   -24438   -24152   -23893   -23699   -23597 
  -23599   -23693   -23838   -23990   -24119   -24219   -24308   -24411 
  -24548   -24724   -24934   -25180   -25467   -25792   -26143   -26519 
  -26909   -27289   -27644   -27969   -28271   -28580   -28925   -29314 
  -29730   -30143   -30514   -30816   -31042   -31202   -31311   -31389 
  -31462   -31545   -31626   -31679   -31687   -31645   -31552   -31417 
  -31264   -31110   -30966   -30831   -30688   -30522   -30332   -30116 
  -29884   -29652   -29425   -29195   -28954   -28694   -28410   -28104 
  -27783   -27455   -27130   -26819   -26537   -26290   -26070   -25858 
  -25639   -25402   -25158   -24930   -24732   -24570   -24447   -24354 
  -24277   -24207   -24127   -24025   -23905   -23784   -23679   -23611 
  -23596   -23637   -23721   -23818   -23902   -23953   -23969   -23974 
  -23987   -24008   -24023   -24012   -23962   -23878   -23771   -23660 
  -23554   -23447   -23330   -23202   -23067   -22924   -22778   -22634 
  -22500   -22378   -22265   -22160   -22061   -21977   -21920   -21894 
  -21902   -21963   -22092   -22290   -22541   -22810   -23053   -23244 
  -23387   -23510   -23631   -23754   -23862   -23928   -23929   -23865 
  -23761   -23645   -23549   -23496   -23498   -23541   -23597   -23631 
  -23626   -23569   -23459   -23310   -23151   -23011   -22906   -22819 
  -22713   -22551   -22324   -22055   -21785   -21559   -21400   -21308 
  -21270   -21267   -21283   -21313   -21353   -21406   -21475   -21564 
  -21676   -21831   -22047   -22319   -22635   -22965   -23269   -23532 
  -23770   -24011   -24279   -24577   -24885   -25179   -25439   -25659 
  -25861   -26082   -26344   -26634   -26922   -27173   -27370   -27518 
  -27631   -27732   -27843   -27971   -28114   -28266   -28419   -28565 
  -28690   -28784   -28853   -28912   -28965   -29015   -29067   -29118 
  -29153   -29162   -29138   -29075   -28974   -28838   -28673   -28493 
  -28316   -28152   -28003   -27863   -27725   -27587   -27451   -27325 
  -27220   -27142   -27099   -27084   -27082   -27086   -27098   -27121 
  -27159   -27202   -27227   -27210   -27143   -27025   -26865   -26694 
  -26539   -26406   -26295   -26204   -26124   -26053   -26007   -25993 
  -26009   -26043   -26083   -26132   -26208   -26309   -26414   -26504 
  -26570   -26621   -26682   -26779   -26920   -27095   -27275   -27432 
  -27563   -27666   -27734   -27770   -27777   -27766   -27746   -27730 
  -27726   -27734   -27740   -27739   -27729   -27708   -27688   -27701 
  -27775   -27919   -28137   -28420   -28741   -29074   -29401   -29706 
  -29981   -30226   -30427   -30554   -30596   -30568   -30498   -30426 
  -30397   -30436   -30541   -30685   -30824   -30929   -31002   -31063 
  -31152   -31283   -31443   -31608   -31753   -31861   -31930   -31960 
  -31948   -31889   -31789   -31658   -31507   -31353   -31212   -31089 
  -30979   -30875   -30775   -30691   -30647   -30652   -30713   -30828 
  -30962   -31068   -31120   -31111   -31055   -30985   -30928   -30897 
  -30894   -30905   -30899   -30849   -30746   -30590   -30399   -30201 
  -30002   -29792   -29560   -29299   -29014   -28730   -28463   -28210 
  -27968   -27729   -27488   -27250   -27027   -26824   -26633   -26446 
  -26267   -26116   -26011   -25957   -25936   -25924   -25919   -25943 
  -26032   -26209   -26480   -26825   -27205   -27563   -27845   -28030 
  -28133   -28187   -28229   -28283   -28356   -28439   -28508   -28541 
  -28533   -28485   -28399   -28288   -28168   -28050   -27967   -27958 
  -28037   -28197   -28415   -28653   -28874   -29055   -29191   -29296 
  -29405   -29541   -29704   -29894   -30089   -30258   -30378   -30427 
  -30393   -30295   -30164   -30013   -29840   -29637   -29383   -29071 
  -28716   -28347   -27993   -27662   -27342   -27013   -26666   -26306 
  -25951   -25627   -25358   -25141   -24965   -24816   -24675   -24522 
  -24353   -24171   -23982   -23795   -23607   -23413   -23206   -22982 
  -22760   -22581   -22486   -22507   -22643   -22861   -23113   -23342 
  -23505   -23579   -23568   -23501   -23425   -23381   -23385   -23417 
  -23439   -23416   -23341   -23238   -23142   -23078   -23058   -23058 
  -23054   -23031   -22985   -22930   -22899   -22926   -23033   -23222 
  -23468   -23732   -23986   -24202   -24354   -24434   -24464   -24472 
  -24492   -24544   -24630   -24738   -24852   -24960   -25054   -25129 
  -25189   -25246   -25313   -25408   -25547   -25737   -25989   -26318 
  -26729   -27195   -27667   -28102   -28476   -28797   -29088   -29363 
  -29620   -29827   -29950   -29976   -29919   -29815   -29715   -29655 
  -29637   -29626   -29571   -29433   -29205   -28926   -28642   -28389 
  -28181   -27995   -27799   -27576   -27324   -27052   -26784   -26545 
  -26344   -26170   -26003   -25817   -25592   -25327   -25036   -24746 
  -24481   -24252   -24050   -23866   -23694   -23522   -23349   -23183 
  -23039   -22933   -22875   -22855   -22845   -22814   -22749   -22660 
  -22565   -22481   -22419   -22377   -22351   -22335   -22323   -22309 
  -22289   -22266   -22239   -22201   -22142   -22066   -22003   -21991 
  -22060   -22220   -22451   -22721   -23005   -23286   -23558   -23822 
  -24081   -24332   -24579   -24829   -25087   -25360   -25657   -25977 
  -26310   -26636   -26933   -27194   -27434   -27680   -27950   -28229 
  -28485   -28691   -28832   -28917   -28970   -29009   -29037   -29052 
  -29043   -29006   -28956   -28906   -28868   -28846   -28836   -28822 
  -28799   -28769   -28736   -28705   -28682   -28664   -28644   -28615 
  -28589   -28579   -28589   -28621   -28670   -28725   -28784   -28853 
  -28948   -29097   -29320   -29606   -29926   -30246   -30534   -30770 
  -30956   -31108   -31235   -31344   -31443   -31551   -31691   -31870 
  -32071   -32267   -32433   -32547   -32608   -32616   -32573   -32495 
  -32403   -32319   -32249   -32193   -32145   -32089   -32020   -31935 
  -31819   -31675   -31515   -31359   -31226   -31110   -30990   -30857 
  -30725   -30611   -30530   -30484   -30464   -30449   -30415   -30339 
  -30216   -30053   -29858   -29648   -29442   -29238   -29018   -28774 
  -28513   -28261   -28042   -27866   -27730   -27647   -27625   -27652 
  -27723   -27837   -27982   -28144   -28313   -28473   -28616   -28734 
  -28825   -28884   -28916   -28947   -29006   -29102   -29219   -29323 
  -29377   -29361   -29283   -29157   -29002   -28829   -28628   -28380 
  -28076   -27716   -27315   -26904   -26524   -26210   -25973   -25795 
  -25654   -25535   -25427   -25332   -25255   -25193   -25146   -25104 
  -25044   -24939   -24770   -24538   -24273   -24020   -23815   -23679 
  -23624   -23632   -23667   -23696   -23687   -23631   -23537   -23429 
  -23339   -23286   -23263   -23258   -23255   -23233   -23179   -23082 
  -22938   -22752   -22546   -22336   -22138   -21962   -21802   -21649 
  -21506   -21384   -21299   -21266   -21284   -21335   -21387   -21402 
  -21353   -21249   -21122   -21009   -20920   -20855   -20797   -20735 
  -20670   -20604   -20544   -20507   -20513   -20579   -20720   -20939 
  -21234   -21588   -21963   -22313   -22623   -22899   -23149   -23390 
  -23635   -23875   -24093   -24271   -24389   -24444   -24452   -24441 
  -24444   -24490   -24585   -24714   -24860   -25005   -25131   -25233 
  -25319   -25394   -25462   -25515   -25539   -25528   -25493   -25457 
  -25443   -25472   -25540   -25621   -25687   -25740   -25806   -25908 
  -26062   -26265   -26497   -26736   -26962   -27164   -27344   -27501 
  -27625   -27702   -27709   -27625   -27455   -27227   -26989   -26793 
  -26677   -26651   -26688   -26743   -26785   -26807   -26824   -26859 
  -26928   -27027   -27134   -27228   -27294   -27309   -27241   -27066 
  -26783   -26409   -25977   -25519   -25059   -24616   -24212   -23868 
  -23597   -23405   -23285   -23221   -23192   -23178   -23182   -23219 
  -23296   -23413   -23559   -23715   -23863   -23990   -24098   -24202 
  -24318   -24454   -24604   -24751   -24876   -24973   -25056   -25143 
  -25258   -25413   -25594   -25771   -25920   -26027   -26098   -26153 
  -26213   -26291   -26381   -26470   -26557   -26646   -26738   -26827 
  -26906   -26973   -27043   -27124   -27210   -27296   -27380   -27447 
  -27479   -27461   -27385   -27252   -27086   -26926   -26790   -26679 
  -26585   -26487   -26364   -26213   -26042   -25862   -25693   -25552 
  -25448   -25379   -25331   -25292   -25267   -25270   -25302   -25340 
  -25345   -25285   -25158   -24994   -24839   -24730   -24678   -24674 
  -24696   -24728   -24768   -24817   -24876   -24953   -25036   -25095 
  -25103   -25052   -24963   -24876   -24818   -24797   -24822   -24889 
  -24984   -25085   -25160   -25181   -25137   -25039   -24901   -24727 
  -24511   -24255   -23974   -23693   -23437   -23213   -23020   -22863 
  -22737   -22622   -22505   -22388   -22283   -22212   -22193   -22222 
  -22281   -22346   -22388   -22381   -22321   -22224   -22119   -22028 
  -21949   -21864   -21752   -21602   -21436   -21296   -21218   -21214 
  -21277   -21388   -21525   -21678   -21844   -22038   -22276   -22557 
  -22864   -23178   -23482   -23783   -24106   -24479   -24905   -25357 
  -25795   -26187   -26502   -26723   -26861   -26949   -27031   -27146 
  -27306   -27495   -27686   -27849   -27976   -28072   -28143   -28198 
  -28258   -28349   -28493   -28694   -28939   -29205   -29471   -29714 
  -29925   -30112   -30288   -30467   -30662   -30861   -31037   -31175 
  -31270   -31331   -31382   -31437   -31490   -31538   -31589   -31651 
  -31727   -31822   -31942   -32092   -32258   -32417   -32547   -32632 
  -32655   -32619   -32552   -32491   -32464   -32488   -32558   -32658 
  -32789   -32957   -33170   -33428   -33714   -33994   -34251   -34490 
  -34734   -35003   -35291   -35573   -35811   -35977   -36060   -36076 
  -36056   -36026   -36002   -35993   -36006   -36053   -36139   -36252 
  -36367   -36459   -36504   -36493   -36432   -36331   -36209   -36083 
  -35960   -35849   -35755   -35670   -35589   -35509   -35434   -35371 
  -35325   -35312   -35342   -35409   -35486   -35537   -35543   -35498 
  -35416   -35326   -35238   -35141   -35005   -34807   -34541   -34222 
  -33879   -33536   -33192   -32828   -32428   -31982   -31490   -30949 
  -30387   -29863   -29405   -28993   -28597   -28198   -27784   -27356 
  -26929   -26504   -26095   -25729   -25418   -25153   -24919   -24702 
  -24483   -24244   -23989   -23732   -23475   -23212   -22936   -22630 
  -22282   -21898   -21506   -21144   -20828   -20546   -20283   -20034 
  -19798   -19566   -19331   -19093   -18860   -18650   -18485   -18382 
  -18344   -18372   -18457   -18574   -18705   -18849   -19019   -19235 
  -19494   -19778   -20067   -20341   -20581   -20779   -20920   -20986 
  -20968   -20873   -20725   -20553   -20381   -20235   -20139   -20112 
  -20161   -20287   -20482   -20721   -20982   -21240   -21479   -21703 
  -21912   -22115   -22329   -22567   -22836   -23136   -23430   -23676 
  -23853   -23954   -23986   -23981   -23978   -24002   -24050   -24100 
  -24137   -24152   -24137   -24096   -24043   -23993   -23950   -23905 
  -23851   -23776   -23660   -23497   -23297   -23088   -22902   -22751 
  -22621   -22490   -22343   -22169   -21970   -21755   -21538   -21348 
  -21214   -21136   -21081   -21004   -20872   -20673   -20408   -20100 
  -19791   -19505   -19249   -19024   -18831   -18669   -18541   -18461 
  -18451   -18529   -18687   -18893   -19107   -19292   -19420   -19501 
  -19584   -19737   -19995   -20345   -20742   -21140   -21496   -21792 
  -22044   -22280   -22524   -22787   -23060   -23323   -23564   -23776 
  -23958   -24112   -24234   -24308   -24313   -24254   -24148   -24012 
  -23857   -23687   -23487   -23249   -22975   -22681   -22404   -22183 
  -22036   -21945   -21877   -21805   -21716   -21617   -21530   -21455 
  -21365   -21253   -21125   -20996   -20897   -20865   -20920   -21056 
  -21244   -21450   -21653   -21840   -22006   -22142   -22245   -22309 
  -22320   -22279   -22201   -22101   -22002   -21924   -21869   -21837 
  -21830   -21859   -21936   -22068   -22242   -22430   -22611   -22769 
  -22902   -23032   -23183   -23368   -23584   -23803   -23981   -24092 
  -24136   -24142   -24134   -24127   -24129   -24143   -24178   -24243 
  -24346   -24486   -24648   -24801   -24925   -25017   -25080   -25136 
  -25221   -25362   -25575   -25855   -26173   -26497   -26813   -27114 
  -27386   -27634   -27864   -28072   -28267   -28459   -28656   -28874 
  -29119   -29374   -29625   -29866   -30097   -30321   -30541   -30757 
  -30965   -31156   -31319   -31445   -31527   -31567   -31580   -31581 
  -31579   -31574   -31564   -31552   -31543   -31540   -31546   -31555 
  -31559   -31548   -31502   -31409   -31282   -31149   -31033   -30932 
  -30812   -30639   -30397   -30094   -29765   -29448   -29171   -28940 
  -28738   -28542   -28333   -28092   -27815   -27533   -27274   -27056 
  -26886   -26739   -26579   -26381   -26132   -25844   -25554   -25314 
  -25169   -25144   -25240   -25435   -25701   -26010   -26328   -26617 
  -26836   -26957   -26971   -26897   -26766   -26607   -26442   -26271 
  -26077   -25839   -25549   -25207   -24838   -24482   -24186   -23974 
  -23846   -23798   -23812   -23863   -23944   -24041   -24127   -24182 
  -24189   -24149   -24087   -24028   -23988   -23988   -24043   -24159 
  -24323   -24513   -24713   -24927   -25165   -25427   -25704   -25968 
  -26194   -26379   -26539   -26713   -26943   -27252   -27629   -28049 
  -28478   -28895   -29302   -29711   -30135   -30584   -31054   -31524 
  -31971   -32366   -32680   -32903   -33031   -33067   -33032   -32960 
  -32884   -32831   -32801   -32781   -32775   -32790   -32828   -32892 
  -32980   -33077   -33165   -33227   -33243   -33196   -33087   -32919 
  -32696   -32432   -32160   -31911   -31699   -31524   -31355   -31149 
  -30878   -30539   -30143   -29720   -29303   -28914   -28568   -28262 
  -27994   -27747   -27497   -27207   -26851   -26424   -25933   -25393 
  -24825   -24239   -23640   -23054   -22500   -21995   -21555   -21184 
  -20879   -20643   -20475   -20363   -20294   -20267   -20286   -20361 
  -20507   -20729   -21017   -21349   -21701   -22050   -22359   -22594 
  -22734   -22783   -22776   -22740   -22700   -22684   -22713   -22794 
  -22929   -23111   -23320   -23534   -23733   -23902   -24030   -24111 
  -24153   -24182   -24223   -24289   -24390   -24517   -24649   -24771 
  -24883   -24996   -25123   -25270   -25450   -25664   -25909   -26170 
  -26434   -26701   -26958   -27185   -27372   -27512   -27586   -27586 
  -27524   -27422   -27306   -27209   -27157   -27165   -27226   -27316 
  -27410   -27486   -27523   -27508   -27451   -27363   -27252   -27136 
  -27028   -26948   -26921   -26963   -27064   -27207   -27361   -27492 
  -27588   -27654   -27700   -27739   -27787   -27847   -27902   -27938 
  -27945   -27917   -27854   -27765   -27658   -27542   -27422   -27305 
  -27196   -27095   -27006   -26941   -26911   -26911   -26913   -26879 
  -26783   -26617   -26400   -26162   -25935   -25745   -25609   -25529 
  -25502   -25516   -25541   -25550   -25532   -25492   -25448   -25422 
  -25427   -25459   -25491   -25483   -25399   -25220   -24958   -24647 
  -24334   -24048   -23797   -23569   -23350   -23129   -22914   -22732 
  -22608   -22556   -22588   -22705   -22901   -23165   -23471   -23798 
  -24126   -24430   -24686   -24886   -25035   -25145   -25235   -25316 
  -25384   -25432   -25453   -25447   -25425   -25400   -25379   -25371 
  -25383   -25417   -25465   -25518   -25577   -25643   -25709   -25775 
  -25828   -25849   -25828   -25774   -25700   -25625   -25567   -25534 
  -25529   -25546   -25576   -25602   -25608   -25583   -25524   -25437 
