Origin Time       2011/03/11 14:46:00
Lat.              38.103
Long.             142.860
Depth. (km)       24
Mag.              9.0
Station Code      HKD167
Station Lat.      42.1297
Station Long.     139.9813
Station Height(m) 21
Record Time       2011/03/11 14:47:58
Sampling Freq(Hz) 100Hz
Duration Time(s)  228
Dir.              N-S
Scale Factor      3920(gal)/6182761
Max. Acc. (gal)   5.070
Last Correction   2011/03/11 14:47:43
Memo.             
[...]
   -3680    -3586    -3501    -3388    -3032    -2516    -2203    -2223 
   -2414    -2745    -3344    -4165    -4908    -5342    -5571    -5772 
   -5877    -5788    -5599    -5415    -5186    -4824    -4381    -4024 
   -3840    -3813    -3944    -4182    -4330    -4199    -3794    -3293 
   -2851    -2524    -2342    -2337    -2558    -3056    -3838    -4855 
   -5956    -6884    -7362    -7187    -6369    -5183    -3920    -2681 
   -1536     -636      -52      292      496      550      383        1 
    -533    -1198    -1942    -2611    -3045    -3170    -3132    -3005 
   -2557    -2155    -2187    -2027    -1852    -2262    -2487    -2664 
   -3515    -4248    -4784    -5520    -5783    -5694    -5744    -5698 
   -5681    -5819    -5850    -5802    -5811    -5791    -5526    -4994 
   -4452    -4010    -3650    -3519    -3687    -4040    -4524    -5046 
   -5440    -5728    -5934    -5929    -5709    -5337    -4844    -4345 
   -3931    -3648    -3545    -3559    -3568    -3465    -3190    -2815 
   -2456    -2098    -1700    -1343    -1023     -519      259     1050 
    1555     1712     1585     1159      470     -196     -573     -718 
    -761     -706     -676     -944    -1637    -2625    -3730    -4866 
   -5903    -6638    -6919    -6692    -6027    -5072    -4007    -3078 
   -2515    -2370    -2557    -3024    -3767    -4672    -5478    -5995 
   -6220    -6209    -6053    -5900    -5794    -5617    -5283    -4792 
   -4209    -3739    -3643    -4019    -4766    -5659    -6435    -6863 
   -6776    -6166    -5229    -4189    -3215    -2450    -1943    -1641 
   -1485    -1418    -1323    -1030     -465      220      792     1149 
    1251     1003      374     -504    -1460    -2385    -3164    -3652 
   -3830    -3877    -3929    -3927    -3813    -3634    -3388    -3033 
   -2661    -2435    -2433    -2582    -2700    -2692    -2642    -2597 
   -2497    -2323    -2110    -1900    -1826    -2078    -2713    -3644 
   -4771    -5953    -6966    -7617    -7851    -7714    -7280    -6621 
   -5885    -5273    -4854    -4560    -4357    -4282    -4340    -4444 
   -4529    -4624    -4712    -4670    -4436    -4020    -3434    -2727 
   -1977    -1331     -972     -958    -1159    -1368    -1438    -1363 
   -1248    -1223    -1319    -1489    -1713    -2022    -2514    -3285 
   -4202    -4916    -5188    -5089    -4879    -4748    -4761    -4938 
   -5154    -5182    -5061    -5070    -5337    -5815    -6408    -6902 
   -7052    -6740    -6013    -5047    -3982    -2886    -1887    -1201 
   -1030    -1447    -2345    -3522    -4750    -5826    -6582    -6830 
   -6473    -5623    -4525    -3497    -2847    -2676    -2850    -3137 
   -3349    -3426    -3360    -3132    -2782    -2385    -1981    -1656 
   -1574    -1815    -2223    -2525    -2572    -2439    -2240    -2043 
   -1959    -2060    -2279    -2514    -2724    -2931    -3086    -3050 
   -2847    -2712    -2825    -3138    -3491    -3775    -3912    -3784 
   -3407    -3020    -2803    -2701    -2669    -2807    -3154    -3572 
   -3913    -4130    -4228    -4223    -4101    -3810    -3322    -2691 
   -2029    -1461    -1055     -792     -642     -577     -544     -531 
    -572     -718     -986    -1271    -1459    -1641    -2033    -2684 
   -3409    -4015    -4425    -4562    -4434    -4310    -4404    -4531 
   -4379    -3994    -3676    -3496    -3306    -3104    -3019    -3075 
   -3197    -3415    -3897    -4670    -5531    -6265    -6743    -6911 
   -6776    -6377    -5813    -5169    -4470    -3788    -3241    -2863 
   -2591    -2379    -2221    -2107    -2087    -2271    -2633    -2976 
   -3204    -3445    -3803    -4139    -4293    -4344    -4376    -4276 
   -4003    -3795    -3873    -4138    -4402    -4724    -5292    -6131 
   -7078    -7894    -8426    -8618    -8376    -7649    -6635    -5715 
   -5154    -4911    -4827    -4822    -4782    -4497    -3875    -3131 
   -2621    -2507    -2693    -3083    -3647    -4177    -4359    -4116 
   -3572    -2772    -1643     -271      964     1655     1668     1163 
     417     -328     -917    -1275    -1402    -1348    -1224    -1213 
   -1400    -1675    -1904    -2048    -2047    -1811    -1534    -1680 
   -2408    -3434    -4489    -5477    -6254    -6597    -6439    -6006 
   -5623    -5429    -5403    -5596    -6067    -6695    -7238    -7536 
   -7605    -7517    -7251    -6751    -6124    -5584    -5186    -4871 
   -4647    -4502    -4332    -4031    -3556    -2964    -2350    -1753 
   -1231     -912     -831     -857     -808     -575     -190      294 
     910     1627     2206     2378     2119     1612     1008      401 
     -67     -307     -417     -584     -887    -1288    -1704    -2044 
   -2286    -2483    -2683    -2946    -3383    -3981    -4480    -4696 
   -4819    -5127    -5569    -5913    -6172    -6502    -6796    -6826 
   -6684    -6614    -6595    -6476    -6362    -6552    -7114    -7776 
   -8278    -8596    -8715    -8481    -7816    -6846    -5745    -4633 
   -3615    -2887    -2646    -2855    -3307    -3873    -4508    -5018 
   -5065    -4559    -3791    -3089    -2593    -2313    -2196    -2124 
   -1981    -1755    -1512    -1258     -950     -584     -227        3 
      55       81      275      622      939     1045      908      569 
       8     -763    -1600    -2345    -2870    -3102    -3031    -2660 
   -2067    -1495    -1207    -1317    -1813    -2669    -3838    -5082 
   -5953    -6182    -5919    -5439    -4898    -4418    -4132    -4118 
   -4330    -4683    -5167    -5725    -6147    -6243    -6099    -5961 
   -5875    -5711    -5458    -5255    -5104    -4829    -4434    -4177 
   -4150    -4149    -4067    -4049    -4132    -4047    -3505    -2540 
   -1424     -427      274      622      707      690      610      326 
    -243     -941    -1557    -1992    -2218    -2299    -2382    -2492 
   -2513    -2422    -2417    -2753    -3396    -4039    -4443    -4528 
   -4247    -3580    -2612    -1542     -566      281     1006     1462 
    1545     1450     1478     1659     1726     1484     1024      464 
    -215     -965    -1613    -2148    -2810    -3692    -4455    -4750 
   -4662    -4454    -4156    -3622    -2891    -2236    -1846    -1713 
   -1862    -2401    -3268    -4129    -4718    -5165    -5707    -6244 
   -6477    -6341    -6043    -5730    -5314    -4728    -4108    -3576 
   -3079    -2556    -2148    -2089    -2374    -2739    -3023    -3270 
   -3466    -3396    -2873    -2024    -1185     -595     -318     -383 
    -802    -1435    -1975    -2183    -2118    -1987    -1866    -1670 
   -1332     -944     -642     -393     -118      112      244      332 
     291     -163    -1163    -2428    -3495    -4157    -4470    -4422 
   -3917    -3084    -2297    -1782    -1467    -1313    -1463    -1988 
   -2665    -3215    -3651    -4097    -4424    -4415    -4186    -4088 
   -4234    -4467    -4741    -5219    -5872    -6319    -6318    -5987 
   -5411    -4545    -3548    -2789    -2515    -2673    -3035    -3395 
   -3632    -3698    -3623    -3481    -3327    -3220    -3224    -3285 
   -3211    -2929    -2600    -2343    -2116    -1993    -2261    -2967 
   -3677    -4025    -4134    -4199    -4058    -3507    -2726    -2037 
   -1475     -960     -642     -723    -1075    -1325    -1342    -1418 
   -1847    -2494    -2966    -3141    -3256    -3480    -3708    -3824 
   -3846    -3700    -3171    -2253    -1264     -529     -104      191 
     514      751      605      -51    -1100    -2443    -3997    -5464 
   -6499    -7070    -7298    -7117    -6346    -4977    -3324    -1858 
    -857     -338     -227     -460     -943    -1474    -1863    -2154 
   -2521    -2897    -3057    -3038    -3100    -3296    -3423    -3386 
   -3351    -3369    -3184    -2669    -2047    -1494     -938     -360 
       1      -72     -446     -818    -1106    -1468    -1958    -2392 
   -2625    -2748    -2876    -2993    -3075    -3208    -3496    -3865 
   -4121    -4179    -4087    -3873    -3532    -3192    -3073    -3219 
   -3456    -3536    -3342    -2892    -2218    -1430     -694      -73 
     452      889     1220     1343     1138      576     -291    -1327 
   -2308    -3022    -3332    -3213    -2795    -2289    -1902    -1814 
   -2079    -2588    -3161    -3613    -3869    -4019    -4158    -4174 
   -3845    -3161    -2380    -1747    -1393    -1494    -2068    -2742 
   -3071    -2951    -2604    -2259    -1890    -1424    -1016     -867 
   -1053    -1656    -2737    -4127    -5417    -6238    -6549    -6501 
   -6135    -5422    -4452    -3414    -2511    -1939    -1787    -1914 
   -2049    -2006    -1817    -1650    -1602    -1584    -1394     -914 
    -203      521      962      889      257     -829    -2230    -3796 
   -5340    -6662    -7553    -7826    -7436    -6571    -5571    -4733 
   -4170    -3832    -3606    -3377    -3094    -2865    -2873    -3163 
   -3513    -3579    -3263    -2772    -2273    -1775    -1362    -1244 
   -1492    -1938    -2467    -3159    -4070    -5069    -5978    -6804 
   -7637    -8375    -8697    -8385    -7508    -6210    -4592    -2864 
   -1437     -670     -524     -694    -1038    -1595    -2201    -2477 
   -2234    -1692    -1252    -1091    -1073    -1030     -943     -838 
    -629     -241      217      628     1086     1688     2227     2309 
    1840     1189      739      541      558      906     1655     2536 
    3062     3019     2661     2274     1843     1325      948      933 
    1147     1292     1321     1318     1061      159    -1346    -2904 
   -4074    -4801    -4986    -4378    -3020    -1380       93     1308 
    2210     2490     1976     1051      317      -54     -330     -715 
   -1195    -1724    -2272    -2743    -2972    -2950    -2962    -3256 
   -3740    -4209    -4614    -4973    -5209    -5165    -4827    -4432 
   -4176    -4048    -4015    -4136    -4507    -5117    -5815    -6489 
   -7055    -7309    -7046    -6303    -5447    -4950    -4969    -5322 
   -5843    -6417    -6814    -6829    -6504    -6103    -5808    -5558 
   -5206    -4735    -4197    -3554    -2826    -2339    -2457    -3052 
   -3586    -3757    -3698    -3469    -2843    -1847    -1012     -818 
   -1215    -1882    -2718    -3696    -4446    -4435    -3599    -2556 
   -1880    -1494    -1178    -1059    -1273    -1578    -1559    -1121 
    -525      100      873     1730     2343     2485     2293     2088 
    2001     1929     1821     1734     1630     1283      522     -496 
   -1419    -2111    -2704    -3273    -3653    -3734    -3754    -4024 
   -4515    -4959    -5267    -5536    -5651    -5284    -4357    -3222 
   -2277    -1568    -1030     -835    -1136    -1715    -2199    -2510 
   -2789    -2999    -2959    -2705    -2478    -2349    -2129    -1782 
   -1665    -2079    -2840    -3535    -3970    -4136    -4004    -3578 
   -3027    -2522    -2084    -1681    -1395    -1459    -2029    -2939 
   -3857    -4586    -5152    -5673    -6089    -6115    -5561    -4548 
   -3388    -2283    -1255     -319      494     1218     1916     2551 
    2939     2950     2674     2224     1561      663     -286    -1062 
   -1688    -2318    -2935    -3397    -3654    -3776    -3838    -3807 
   -3653    -3507    -3427    -3263    -2997    -2856    -3106    -3855 
   -4923    -5982    -6767    -7112    -6985    -6535    -5962    -5332 
   -4703    -4269    -4185    -4392    -4693    -4897    -4892    -4665 
   -4251    -3701    -3070    -2414    -1845    -1531    -1497    -1530 
   -1389    -1056     -726     -551     -559     -787    -1242    -1784 
   -2282    -2699    -2979    -3037    -2805    -2300    -1661    -1023 
    -461     -162     -323     -904    -1716    -2577    -3314    -3757 
   -3769    -3345    -2641    -1795     -851       89      847     1310 
    1524     1601     1528     1221      751      326       42     -176 
    -372     -588    -1004    -1739    -2708    -3774    -4828    -5773 
   -6479    -6735    -6422    -5633    -4504    -3139    -1750     -651 
     -63      -79     -743    -1988    -3530    -4943    -5992    -6733 
   -7174    -7217    -6902    -6347    -5665    -5034    -4626    -4500 
   -4519    -4438    -4189    -3894    -3608    -3273    -2884    -2494 
   -2149    -1872    -1705    -1776    -2099    -2432    -2625    -2754 
   -2825    -2704    -2294    -1696    -1167     -818     -586     -431 
    -306     -138       51       66     -383    -1447    -2995    -4763 
   -6568    -8206    -9365    -9850    -9719    -9184    -8449    -7633 
   -6888    -6416    -6357    -6774    -7540    -8340    -8949    -9295 
   -9391    -9283    -8942    -8324    -7478    -6437    -5236    -4011 
   -3001    -2492    -2605    -3192    -4045    -4947    -5593    -5782 
   -5658    -5498    -5389    -5320    -5416    -5832    -6454    -6934 
   -7015    -6585    -5602    -4238    -2882    -1885    -1286     -867 
    -552     -474     -651     -952    -1365    -2026    -2891    -3640 
   -4053    -4152    -3960    -3405    -2464    -1275      -76      903 
    1479     1559     1293      986      817      790      855      935 
     932      767      427       23     -291     -605    -1161    -1973 
   -2819    -3565    -4286    -5044    -5726    -6208    -6416    -6197 
   -5427    -4224    -2885    -1715     -928     -665    -1018    -1841 
   -2709    -3249    -3336    -2994    -2361    -1711    -1333    -1306 
   -1537    -1961    -2450    -2660    -2237    -1117      429     2040 
    3422     4345     4726     4570     3862     2746     1588      754 
     412      477      712      874      840      657      380      -19 
    -495     -880    -1071    -1154    -1321    -1743    -2483    -3487 
   -4640    -5833    -6967    -7899    -8405    -8304    -7687    -6874 
   -6128    -5574    -5248    -5074    -4957    -4826    -4563    -4136 
   -3679    -3260    -2843    -2489    -2356    -2623    -3337    -4313 
   -5356    -6362    -7231    -7893    -8181    -7876    -7040    -5910 
   -4657    -3479    -2631    -2402    -2934    -3966    -5028    -5817 
   -6181    -5933    -4970    -3499    -1937     -597      399      909 
     797      191     -641    -1546    -2331    -2693    -2568    -2240 
   -2035    -2096    -2475    -3183    -3934    -4231    -3817    -2848 
   -1753     -904     -474     -562    -1101    -1799    -2368    -2614 
   -2386    -1587     -241     1339     2616     3207     3064     2357 
    1411      609      271      460      854     1104     1199     1264 
    1251     1050      712      404      197       31      -58       80 
     371      565      655      822     1055     1137      966      690 
     431      109     -401    -1138    -2051    -3012    -3832    -4331 
   -4462    -4376    -4155    -3617    -2654    -1518     -555       79 
     353      274      -28     -296     -352     -204      125      638 
    1212     1622     1704     1437      857       30     -805    -1351 
   -1515    -1416    -1200     -924     -708     -845    -1542    -2707 
   -4041    -5217    -5961    -6077    -5647    -5127    -4967    -5195 
   -5532    -5824    -6092    -6310    -6389    -6329    -6247    -6208 
   -6199    -6320    -6718    -7251    -7464    -7013    -5958    -4586 
   -3148    -1874     -992     -583     -552     -826    -1400    -2146 
   -2830    -3323    -3639    -3886    -4153    -4432    -4664    -4724 
   -4431    -3752    -2887    -2043    -1211     -309      549     1113 
    1282     1131      688      -20     -811    -1551    -2306    -3117 
   -3927    -4672    -5248    -5601    -5817    -5990    -6180    -6437 
   -6841    -7435    -8089    -8617    -8793    -8393    -7535    -6590 
   -5764    -5062    -4436    -3794    -2988    -1987     -986     -190 
     359      721      889      684      -51    -1180    -2390    -3482 
   -4378    -4995    -5290    -5406    -5522    -5628    -5643    -5531 
   -5225    -4657    -3870    -2933    -1854     -702      349     1036 
    1146      734       32     -790    -1649    -2374    -2701    -2531 
   -1972    -1133     -165      673     1108     1024      578      -20 
    -681    -1223    -1348     -954     -255      406      779      709 
     114     -850    -1735    -2179    -2170    -1862    -1410     -971 
    -721     -815    -1254    -1961    -2888    -3942    -4910    -5648 
   -6286    -7076    -8099    -9188   -10092   -10607   -10538    -9818 
   -8726    -7701    -6938    -6364    -5946    -5718    -5621    -5561 
   -5534    -5570    -5607    -5556    -5518    -5683    -5968    -6054 
   -5809    -5406    -5063    -4911    -5005    -5342    -5823    -6266 
   -6534    -6618    -6541    -6250    -5704    -4999    -4279    -3620 
   -3100    -2835    -2842    -2959    -3026    -3146    -3492    -3985 
   -4412    -4775    -5267    -5908    -6490    -6869    -6969    -6675 
   -5974    -5046    -4094    -3246    -2670    -2610    -3192    -4227 
   -5311    -6106    -6440    -6231    -5513    -4510    -3531    -2765 
   -2304    -2280    -2824    -3879    -5176    -6426    -7413    -7935 
   -7880    -7358    -6609    -5744    -4777    -3874    -3311    -3189 
   -3443    -4025    -4842    -5644    -6177    -6358    -6320    -6304 
   -6436    -6707    -7105    -7556    -7894    -8021    -7976    -7839 
   -7597    -7223    -6908    -6918    -7309    -7942    -8690    -9435 
   -9952   -10056    -9757    -9140    -8264    -7160    -5870    -4476 
   -3044    -1656     -503      264      715     1031     1301     1501 
    1566     1454     1134      521     -383    -1425    -2508    -3632 
   -4662    -5288    -5283    -4675    -3588    -2134     -538      838 
    1697     1977     1747     1069       41    -1140    -2209    -2969 
   -3327    -3163    -2458    -1483     -608      -56       10     -625 
   -2038    -3931    -5777    -7227    -8179    -8576    -8405    -7799 
   -6922    -5822    -4519    -3238    -2264    -1614    -1136     -771 
    -575     -545     -545     -484     -412     -419     -570     -880 
   -1342    -1909    -2432    -2827    -3206    -3647    -4029    -4287 
   -4580    -4963    -5250    -5299    -5176    -5030    -4967    -5050 
   -5335    -5841    -6436    -6899    -7134    -7167    -6948    -6410 
   -5691    -5013    -4359    -3562    -2690    -2021    -1701    -1754 
   -2185    -2891    -3625    -4171    -4567    -5004    -5433    -5594 
   -5445    -5215    -5129    -5289    -5630    -5940    -5987    -5661 
   -5128    -4689    -4449    -4363    -4448    -4808    -5476    -6255 
   -6930    -7506    -7993    -8240    -8149    -7809    -7328    -6725 
   -6011    -5302    -4752    -4333    -3962    -3742    -3846    -4272 
   -4806    -5239    -5544    -5694    -5550    -5117    -4611    -4135 
   -3647    -3238    -3051    -3096    -3275    -3452    -3532    -3360 
   -2805    -2034    -1296     -687     -250      -60     -273     -924 
   -1746    -2417    -2740    -2576    -1900     -900       77      781 
    1204     1378     1175      533     -340    -1176    -1819    -2146 
   -2057    -1520     -625      464     1662     2860     3771     4131 
    3951     3489     3020     2642     2356     2154     1939     1617 
    1268     1079     1135     1368     1756     2385     3174     3789 
    3989     3759     3090     1987      679     -472    -1205    -1432 
   -1230     -770     -318     -229     -704    -1582    -2534    -3358 
