Origin Time       2011/03/11 14:46:00
Lat.              38.103
Long.             142.860
Depth. (km)       24
Mag.              9.0
Station Code      HKD154
Station Lat.      42.0965
Station Long.     140.5636
Station Height(m) 83
Record Time       2011/03/11 14:47:57
Sampling Freq(Hz) 100Hz
Duration Time(s)  300
Dir.              N-S
Scale Factor      3920(gal)/6182761
Max. Acc. (gal)   9.512
Last Correction   2011/03/11 14:47:42
Memo.             
[...]
   -5231    -5381    -5352    -5238    -5041    -4729    -4359    -4051 
   -3891    -3938    -4203    -4622    -5116    -5621    -6098    -6524 
   -6857    -7104    -7376    -7785    -8343    -8969    -9523    -9871 
   -9963    -9851    -9657    -9497    -9454    -9598    -9929   -10408 
  -11040   -11826   -12704   -13580   -14341   -14868   -15080   -14976 
  -14635   -14128   -13499   -12823   -12227   -11785   -11485   -11303 
  -11193   -11069   -10894   -10664   -10377   -10067    -9766    -9450 
   -9094    -8702    -8283    -7888    -7629    -7583    -7738    -8031 
   -8348    -8601    -8786    -8901    -8907    -8776    -8550    -8354 
   -8315    -8443    -8661    -8836    -8825    -8601    -8311    -8116 
   -8080    -8205    -8470    -8822    -9146    -9274    -9059    -8452 
   -7562    -6641    -5900    -5398    -5079    -4814    -4456    -3913 
   -3191    -2413    -1788    -1447    -1322    -1229    -1032     -729 
    -412     -223     -312     -717    -1326    -2006    -2741    -3571 
   -4467    -5418    -6480    -7653    -8824    -9783   -10312   -10324 
   -9876    -9138    -8417    -8034    -8106    -8520    -9049    -9490 
   -9779    -9956   -10046   -10057   -10016    -9949    -9881    -9858 
   -9910   -10021   -10102   -10013    -9692    -9166    -8493    -7798 
   -7232    -6889    -6832    -7018    -7275    -7483    -7657    -7823 
   -7926    -7886    -7708    -7522    -7496    -7746    -8273    -8908 
   -9398    -9611    -9560    -9303    -8881    -8371    -7904    -7598 
   -7515    -7641    -7881    -8130    -8307    -8349    -8272    -8170 
   -8123    -8165    -8302    -8556    -8965    -9509   -10110   -10664 
  -11037   -11148   -11042   -10843   -10658   -10536   -10468   -10403 
  -10281   -10095    -9897    -9688    -9410    -9059    -8695    -8381 
   -8156    -8082    -8232    -8607    -9129    -9732   -10377   -11012 
  -11605   -12165   -12662   -13012   -13140   -13058   -12869   -12667 
  -12461   -12308   -12373   -12736   -13280   -13788   -14046   -13885 
  -13238   -12221   -11125   -10257    -9785    -9747   -10052   -10510 
  -10963   -11344   -11640   -11841   -11871   -11632   -11146   -10551 
  -10003    -9592    -9287    -8955    -8512    -7971    -7404    -6941 
   -6740    -6892    -7392    -8127    -8896    -9533    -9958   -10138 
  -10067    -9737    -9159    -8419    -7633    -6854    -6081    -5278 
   -4372    -3319    -2208    -1251     -678     -619    -1073    -1952 
   -3072    -4161    -4990    -5485    -5719    -5860    -6081    -6459 
   -6951    -7435    -7827    -8113    -8288    -8350    -8331    -8266 
   -8168    -8018    -7780    -7464    -7149    -6965    -7059    -7490 
   -8164    -8932    -9684   -10373   -11026   -11697   -12354   -12895 
  -13227   -13288   -13080   -12694   -12239   -11784   -11400   -11181 
  -11176   -11335   -11532   -11640   -11587   -11382   -11110   -10854 
  -10596   -10272    -9864    -9353    -8714    -8003    -7356    -6878 
   -6582    -6450    -6464    -6551    -6591    -6477    -6116    -5440 
   -4500    -3486    -2654    -2225    -2247    -2581    -3049    -3528 
   -3904    -4088    -4119    -4110    -4129    -4204    -4337    -4483 
   -4599    -4694    -4803    -4946    -5136    -5381    -5674    -5984 
   -6286    -6548    -6718    -6797    -6855    -6942    -7046    -7140 
   -7208    -7239    -7219    -7137    -7041    -6989    -6956    -6910 
   -6876    -6871    -6943    -7182    -7584    -7995    -8187    -7958 
   -7242    -6161    -4973    -3981    -3425    -3332    -3532    -3841 
   -4146    -4380    -4502    -4486    -4350    -4139    -3857    -3556 
   -3376    -3344    -3306    -3114    -2801    -2535    -2443    -2512 
   -2705    -3074    -3653    -4383    -5182    -5966    -6608    -6971 
   -7004    -6788    -6485    -6232    -6095    -6060    -6041    -5957 
   -5810    -5635    -5426    -5166    -4870    -4635    -4603    -4847 
   -5293    -5720    -5875    -5608    -4925    -3992    -3079    -2382 
   -1951    -1793    -1925    -2315    -2867    -3450    -3978    -4453 
   -4854    -5111    -5207    -5195    -5142    -5099    -5126    -5302 
   -5671    -6158    -6644    -7073    -7441    -7757    -8091    -8571 
   -9300   -10276   -11342   -12227   -12660   -12516   -11909   -11132 
  -10430    -9877    -9465    -9133    -8817    -8518    -8241    -7983 
   -7796    -7692    -7594    -7415    -7113    -6737    -6356    -5962 
   -5606    -5439    -5527    -5798    -6098    -6256    -6197    -5987 
   -5741    -5551    -5411    -5214    -4897    -4534    -4302    -4421 
   -5013    -5980    -7067    -7983    -8460    -8355    -7751    -6841 
   -5805    -4788    -3893    -3182    -2657    -2247    -1898    -1649 
   -1608    -1915    -2657    -3809    -5213    -6596    -7702    -8459 
   -8953    -9260    -9431    -9548    -9673    -9787    -9843    -9856 
   -9895   -10004   -10181   -10403   -10605   -10714   -10738   -10802 
  -11046   -11497   -12033   -12467   -12704   -12771   -12736   -12684 
  -12677   -12710   -12751   -12768   -12678   -12351   -11690   -10725 
   -9589    -8419    -7296    -6294    -5465    -4829    -4443    -4411 
   -4772    -5469    -6375    -7282    -7962    -8261    -8167    -7802 
   -7264    -6601    -5903    -5244    -4626    -4048    -3519    -3076 
   -2821    -2914    -3450    -4329    -5297    -6095    -6546    -6629 
   -6483    -6270    -6063    -5905    -5845    -5871    -5904    -5909 
   -5933    -6048    -6325    -6798    -7416    -8066    -8603    -8899 
   -8896    -8628    -8261    -8079    -8274    -8762    -9280    -9566 
   -9484    -9074    -8507    -8016    -7765    -7771    -7968    -8239 
   -8428    -8399    -8120    -7724    -7464    -7570    -8141    -9139 
  -10435   -11847   -13170   -14234   -14919   -15078   -14558   -13372 
  -11787   -10170    -8803    -7801    -7153    -6788    -6655    -6743 
   -7002    -7391    -8007    -8976   -10246   -11528   -12401   -12559 
  -12024   -11081   -10011    -8953    -7946    -6995    -6030    -4966 
   -3817    -2649    -1535     -591       37      264      101     -359 
    -964    -1532    -1914    -2073    -2078    -2004    -1909    -1858 
   -1907    -2160    -2724    -3554    -4472    -5335    -6079    -6662 
   -7052    -7306    -7560    -7912    -8357    -8816    -9229    -9580 
   -9854   -10053   -10202   -10345   -10577   -10997   -11579   -12145 
  -12444   -12286   -11691   -10925   -10334   -10112   -10258   -10707 
  -11399   -12221   -12966   -13411   -13437   -13064   -12436   -11781 
  -11336   -11225   -11398   -11674   -11899   -12036   -12105   -12110 
  -12044   -11896   -11663   -11373   -11065   -10801   -10653   -10613 
  -10607   -10609   -10699   -10941   -11314   -11758   -12184   -12455 
  -12492   -12366   -12199   -11983   -11613   -11032   -10226    -9155 
   -7844    -6501    -5340    -4372    -3516    -2769    -2160    -1686 
   -1417    -1535    -2154    -3207    -4496    -5830    -7040    -7924 
   -8374    -8472    -8333    -7969    -7369    -6608    -5833    -5184 
   -4759    -4553    -4459    -4364    -4207    -3971    -3690    -3454 
   -3390    -3624    -4176    -4880    -5548    -6138    -6631    -6947 
   -7055    -7015    -6912    -6769    -6575    -6400    -6334    -6378 
   -6492    -6680    -7014    -7567    -8320    -9199   -10119   -10938 
  -11462   -11544   -11134   -10280    -9135    -7960    -7057    -6580 
   -6394    -6228    -5896    -5310    -4512    -3703    -3086    -2720 
   -2584    -2620    -2735    -2898    -3136    -3402    -3531    -3399 
   -3064    -2680    -2383    -2313    -2555    -3019    -3525    -3975 
   -4377    -4708    -4847    -4714    -4359    -3884    -3355    -2795 
   -2210    -1617    -1085     -748     -750    -1118    -1713    -2342 
   -2888    -3343    -3726    -3978    -4075    -4117    -4198    -4332 
   -4543    -4892    -5434    -6217    -7205    -8202    -8975    -9395 
   -9426    -9158    -8826    -8672    -8794    -9164    -9705   -10332 
  -10975   -11530   -11899   -12095   -12219   -12390   -12705   -13148 
  -13554   -13732   -13614   -13292   -12926   -12577   -12216   -11832 
  -11444   -11100   -10860   -10735   -10719   -10829   -11114   -11668 
  -12588   -13842   -15260   -16644   -17785   -18429   -18436   -17930 
  -17189   -16449   -15867   -15600   -15777   -16314   -16904   -17210 
  -16960   -16009   -14473   -12740   -11301   -10548   -10597   -11251 
  -12184   -13055   -13544   -13501   -13048   -12484   -12164   -12303 
  -12879   -13722   -14611   -15383   -15965   -16312   -16435   -16434 
  -16418   -16459   -16625   -16906   -17101   -16912   -16131   -14818 
  -13299   -11891   -10752    -9964    -9577    -9614   -10061   -10803 
  -11594   -12175   -12432   -12430   -12328   -12258   -12246   -12289 
  -12400   -12505   -12470   -12237   -11796   -11144   -10349    -9511 
   -8726    -8136    -7908    -8123    -8714    -9514   -10350   -11056 
  -11483   -11551   -11307   -10894   -10498   -10303   -10387   -10671 
  -11028   -11345   -11538   -11557   -11393   -11117   -10841   -10665 
  -10676   -10923   -11357   -11859   -12334   -12697   -12833   -12696 
  -12362   -11928   -11436   -10912   -10397    -9864    -9240    -8518 
   -7742    -7006    -6446    -6164    -6173    -6406    -6761    -7105 
   -7324    -7423    -7521    -7700    -7863    -7801    -7447    -6939 
   -6500    -6326    -6491    -6895    -7417    -7942    -8292    -8351 
   -8111    -7552    -6700    -5692    -4699    -3838    -3136    -2557 
   -2071    -1651    -1196     -613       50      640     1025     1111 
     835      221     -611    -1540    -2474    -3267    -3690    -3554 
   -2839    -1681     -319      977     2059     2923     3646     4299 
    4846     5192     5329     5337     5268     5072     4670     4097 
    3502     2969     2477     2017     1520      844      -36     -982 
   -1787    -2258    -2290    -1909    -1300     -731     -381     -237 
    -244     -429     -816    -1391    -2116    -2900    -3580    -3953 
   -3909    -3521    -2940    -2285    -1616     -996     -495     -109 
     194      377      352       31     -645    -1683    -2975    -4281 
   -5337    -5986    -6225    -6204    -6160    -6270    -6597    -7131 
   -7804    -8484    -8994    -9181    -8962    -8417    -7836    -7511 
   -7509    -7717    -7998    -8303    -8644    -9072    -9699   -10560 
  -11578   -12719   -13919   -14941   -15480   -15315   -14420   -12968 
  -11246    -9620    -8461    -7986    -8141    -8689    -9352    -9892 
  -10239   -10489   -10785   -11214   -11681   -12029   -12231   -12301 
  -12217   -11946   -11446   -10703    -9850    -9167    -8924    -9225 
   -9904   -10685   -11443   -12140   -12713   -13121   -13295   -13163 
  -12783   -12393   -12236   -12383   -12763   -13169   -13354   -13200 
  -12755   -12210   -11787   -11647   -11906   -12509   -13187   -13619 
  -13624   -13237   -12652   -12092   -11677   -11420   -11318   -11358 
  -11489   -11651   -11820   -12040   -12369   -12827   -13388   -14047 
  -14855   -15778   -16615   -17082   -16974   -16288   -15178   -13877 
  -12661   -11756   -11279   -11276   -11721   -12415   -13105   -13706 
  -14236   -14747   -15226   -15559   -15657   -15492   -15115   -14638 
  -14118   -13529   -12853   -12148   -11460   -10778   -10163    -9753 
   -9629    -9735    -9849    -9763    -9463    -9085    -8802    -8748 
   -8954    -9314    -9588    -9538    -9067    -8209    -7066    -5776 
   -4506    -3397    -2568    -2111    -2051    -2346    -2915    -3664 
   -4474    -5124    -5376    -5194    -4803    -4519    -4553    -4930 
   -5541    -6280    -7049    -7708    -8138    -8271    -8113    -7761 
   -7360    -7020    -6735    -6447    -6204    -6068    -6045    -6169 
   -6441    -6778    -7113    -7488    -7998    -8651    -9321    -9798 
   -9916    -9646    -9123    -8577    -8151    -7836    -7561    -7260 
   -6903    -6471    -5907    -5199    -4467    -3920    -3717    -3946 
   -4655    -5786    -7109    -8288    -9047    -9292    -9038    -8369 
   -7496    -6678    -6064    -5704    -5605    -5663    -5681    -5511 
   -5162    -4756    -4436    -4357    -4639    -5171    -5639    -5753 
   -5353    -4434    -3178    -1913     -970     -560     -617     -810 
    -822     -520       -9      388      332     -281    -1229    -2186 
   -2923    -3335    -3482    -3587    -3847    -4278    -4776    -5298 
   -5847    -6334    -6667    -6899    -7131    -7334    -7383    -7171 
   -6624    -5752    -4732    -3843    -3356    -3447    -4100    -5071 
   -5976    -6524    -6723    -6777    -6845    -6965    -7151    -7423 
   -7710    -7878    -7826    -7511    -6960    -6287    -5660    -5194 
   -4924    -4883    -5097    -5533    -6116    -6746    -7321    -7770 
   -8053    -8096    -7756    -7026    -6142    -5423    -5089    -5201 
   -5711    -6488    -7406    -8418    -9432   -10273   -10808   -11048 
  -11131   -11201   -11338   -11529   -11682   -11767   -11809   -11774 
  -11573   -11123   -10418    -9523    -8521    -7543    -6698    -5898 
   -4962    -3922    -3013    -2398    -2114    -2179    -2631    -3448 
   -4460    -5430    -6142    -6426    -6303    -5995    -5728    -5594 
   -5530    -5388    -5010    -4338    -3506    -2757    -2276    -2081 
   -2042    -2012    -1917    -1719    -1419    -1119     -987    -1121 
   -1479    -1915    -2294    -2571    -2752    -2837    -2821    -2649 
   -2193    -1326       23     1801     3740     5419     6528     7063 
    7237     7242     7133     6871     6484     6114     5843     5616 
    5350     4988     4540     4113     3801     3558     3259     2828 
    2260     1591      857       85     -694    -1486    -2277    -3013 
   -3670    -4226    -4631    -4897    -5109    -5337    -5558    -5717 
   -5863    -6113    -6463    -6799    -7060    -7236    -7288    -7217 
   -7089    -6975    -6965    -7095    -7314    -7552    -7725    -7767 
   -7709    -7614    -7500    -7358    -7227    -7189    -7314    -7603 
   -7983    -8358    -8655    -8864    -9060    -9328    -9729   -10284 
  -10951   -11649   -12309   -12914   -13483   -14013   -14428   -14635 
  -14641   -14535   -14385   -14220   -14002   -13658   -13166   -12536 
  -11790   -10981   -10216    -9612    -9235    -9122    -9357   -10012 
  -11013   -12138   -13200   -14128   -14910   -15540   -16029   -16400 
  -16660   -16758   -16626   -16230   -15590   -14781   -13909   -13114 
  -12509   -12105   -11906   -11925   -12078   -12291   -12619   -13102 
  -13657   -14221   -14840   -15523   -16197   -16785   -17207   -17389 
  -17303   -16976   -16490   -15956   -15433   -14956   -14579   -14295 
  -14004   -13618   -13140   -12639   -12213   -11974   -11961   -12087 
  -12232   -12317   -12304   -12215   -12139   -12192   -12436   -12813 
  -13208   -13549   -13823   -14078   -14403   -14858   -15437   -16074 
  -16690   -17186   -17423   -17374   -17167   -16924   -16671   -16379 
  -16053   -15742   -15506   -15323   -15066   -14674   -14190   -13710 
  -13390   -13284   -13273   -13238   -13165   -13087   -12953   -12638 
  -12083   -11285   -10258    -9134    -8096    -7216    -6463    -5798 
   -5228    -4841    -4732    -4910    -5312    -5856    -6451    -6960 
   -7220    -7137    -6740    -6100    -5288    -4408    -3617    -3033 
   -2677    -2526    -2533    -2628    -2787    -3019    -3337    -3728 
   -4229    -4995    -6084    -7361    -8632    -9691   -10466   -11040 
  -11448   -11635   -11572   -11348   -11128   -11037   -11065   -11073 
  -10964   -10718   -10391   -10150   -10081   -10138   -10272   -10488 
  -10779   -11037   -11152   -11069   -10775   -10350    -9921    -9573 
   -9296    -8982    -8546    -8009    -7498    -7182    -7121    -7252 
   -7442    -7551    -7480    -7159    -6573    -5828    -5105    -4564 
   -4331    -4461    -4834    -5249    -5562    -5668    -5493    -4996 
   -4246    -3450    -2779    -2255    -1820    -1432    -1105     -895 
    -804     -715     -541     -344     -228     -286     -615    -1233 
   -2052    -2907    -3633    -4180    -4607    -5011    -5470    -6015 
   -6580    -6983    -7061    -6790    -6300    -5831    -5565    -5552 
   -5775    -6122    -6471    -6793    -7156    -7676    -8367    -9041 
   -9432    -9396    -9016    -8555    -8332    -8513    -9038    -9753 
  -10398   -10645   -10342    -9576    -8564    -7617    -7069    -7113 
   -7726    -8711    -9745   -10532   -10957   -11069   -11048   -11165 
  -11594   -12236   -12784   -12928   -12509   -11593   -10425    -9302 
   -8439    -7916    -7727    -7797    -7932    -7875    -7487    -6843 
   -6159    -5673    -5523    -5711    -6108    -6488    -6632    -6484 
   -6141    -5737    -5345    -4923    -4386    -3668    -2715    -1555 
    -340      723     1452     1758     1696     1432     1183     1123 
    1292     1586     1841     1938     1860     1677     1456     1235 
    1068      940      699      193     -566    -1397    -2144    -2776 
   -3304    -3760    -4180    -4587    -5052    -5608    -6119    -6418 
   -6480    -6398    -6329    -6441    -6785    -7301    -7922    -8577 
   -9194    -9670    -9921   -10021   -10108   -10198   -10242   -10199 
  -10015    -9670    -9272    -8965    -8849    -9051    -9653   -10582 
  -11676   -12726   -13493   -13798   -13569   -12826   -11700   -10453 
   -9378    -8684    -8449    -8653    -9231   -10050   -10881   -11473 
  -11660   -11430   -10921   -10388   -10034    -9815    -9514    -8947 
   -8093    -7080    -6029    -5023    -4120    -3308    -2553    -1845 
   -1127     -315      580     1456     2170     2592     2691     2593 
    2492     2510     2644     2780     2801     2690     2442     2007 
    1389      654     -106     -787    -1316    -1712    -2123    -2714 
   -3494    -4315    -5034    -5591    -5961    -6121    -6130    -6181 
   -6446    -6935    -7563    -8209    -8777    -9181    -9361    -9391 
   -9431    -9575    -9787    -9925    -9847    -9491    -8920    -8289 
   -7748    -7369    -7132    -6996    -6925    -6917    -6999    -7167 
   -7418    -7839    -8523    -9449   -10418   -11103   -11251   -10849 
  -10055    -9091    -8194    -7508    -7056    -6871    -7031    -7557 
   -8371    -9360   -10409   -11445   -12456   -13444   -14369   -15115 
  -15540   -15562   -15206   -14649   -14193   -14117   -14479   -15043 
  -15534   -15795   -15787   -15574   -15258   -14985   -14918   -15095 
  -15437   -15831   -16165   -16363   -16458   -16569   -16787   -17147 
  -17630   -18106   -18370   -18219   -17593   -16670   -15708   -14934 
  -14485   -14346   -14427   -14642   -14897   -15067   -15030   -14765 
  -14353   -13932   -13631   -13452   -13286   -13071   -12781   -12355 
  -11740   -10985   -10321   -10033   -10177   -10604   -11147   -11678 
  -12122   -12411   -12446   -12185   -11681   -11076   -10577   -10260 
  -10006    -9642    -9009    -8049    -6851    -5614    -4588    -3954 
   -3771    -4006    -4534    -5187    -5820    -6289    -6438    -6206 
   -5691    -5042    -4313    -3444    -2374    -1130      183     1453 
    2550     3302     3627     3631     3489     3365     3396     3571 
    3745     3818     3802     3705     3439     2877     2017     1000 
     -34     -987    -1770    -2343    -2734    -2997    -3174    -3336 
   -3605    -4077    -4753    -5519    -6153    -6449    -6348    -5949 
