Origin Time       2011/03/11 14:46:00
Lat.              38.103
Long.             142.860
Depth. (km)       24
Mag.              9.0
Station Code      HKD112
Station Lat.      41.9370
Station Long.     143.2403
Station Height(m) 15
Record Time       2011/03/11 14:47:50
Sampling Freq(Hz) 100Hz
Duration Time(s)  295
Dir.              U-D
Scale Factor      3920(gal)/6182761
Max. Acc. (gal)   6.597
Last Correction   2011/03/11 14:47:35
Memo.             
[...]
  -41707   -43478   -43037   -41049   -40480   -42666   -45304   -45634 
  -43619   -41866   -43034   -46424   -48305   -46738   -43957   -43026 
  -44296   -45927   -46020   -43704   -40086   -38337   -40448   -44179 
  -45533   -43339   -40017   -38574   -39362   -40590   -41443   -42102 
  -42158   -41832   -42330   -43341   -43044   -41312   -40399   -41899 
  -44394   -45027   -43399   -41951   -41856   -41886   -41610   -41720 
  -41694   -40577   -38869   -37743   -38093   -40053   -41976   -41956 
  -40522   -39592   -40237   -42024   -42940   -41654   -39887   -39847 
  -41016   -41742   -41454   -40291   -39301   -40101   -42103   -42881 
  -42114   -41497   -41480   -41272   -40928   -41143   -41635   -41602 
  -41405   -42095   -43817   -45488   -45793   -44637   -43104   -42012 
  -41449   -41233   -41201   -41262   -41606   -42718   -44463   -45715 
  -45620   -44486   -43535   -43999   -45643   -46410   -44721   -41893 
  -40841   -42382   -44243   -44034   -42059   -40397   -40058   -40506 
  -41182   -41462   -40514   -39238   -39720   -41674   -42816   -42496 
  -42003   -42265   -42782   -42312   -40636   -39329   -39806   -41587 
  -43160   -43730   -43861   -44340   -45146   -45976   -46540   -46546 
  -46113   -45572   -45175   -45130   -44976   -43714   -41625   -40484 
  -41340   -43336   -44681   -44310   -43045   -42739   -43735   -44100 
  -42292   -39427   -37942   -38888   -40883   -41452   -40124   -39618 
  -41935   -45061   -45911   -43845   -40606   -39395   -42006   -45676 
  -46384   -44289   -42452   -42294   -42647   -41998   -40487   -39466 
  -39342   -39268   -39307   -40409   -42045   -42859   -42824   -42673 
  -43068   -44312   -45088   -43456   -40031   -37722   -38537   -41783 
  -44518   -44263   -41710   -39690   -39933   -41582   -42131   -40273 
  -37933   -37940   -40505   -43318   -44132   -42995   -41868   -42234 
  -43985   -45294   -43885   -40622   -38917   -39331   -39787   -39798 
  -39769   -39762   -40678   -42659   -43857   -43394   -42770   -43312 
  -44441   -44780   -43753   -42139   -41411   -42164   -43647   -44962 
  -45431   -44605   -43273   -42436   -41388   -39747   -38997   -39283 
  -38913   -37995   -37884   -38440   -39430   -41368   -43346   -43893 
  -43741   -44322   -45156   -45313   -44922   -44126   -43043   -42092 
  -41137   -39910   -38822   -38212   -37952   -37845   -38088   -39569 
  -42222   -43945   -43493   -42161   -41044   -40033   -39606   -40077 
  -40303   -39499   -38575   -38649   -39672   -40689   -40814   -40369 
  -40755   -42267   -43349   -43140   -42794   -43341   -44311   -45103 
  -45519   -44893   -42838   -40319   -38793   -39091   -40891   -42551 
  -42243   -39881   -37674   -38175   -41160   -43301   -42143   -39274 
  -38128   -39870   -42876   -44555   -43240   -40425   -39803   -42233 
  -44466   -44024   -42101   -40970   -41475   -43131   -44534   -44302 
  -42714   -41597   -41970   -42470   -41522   -40217   -40522   -42027 
  -43180   -43816   -44250   -43844   -42367   -41170   -41331   -42002 
  -41785   -40618   -39883   -40886   -43258   -45524   -46703   -46296 
  -44371   -42389   -41978   -42931   -43414   -41754   -38765   -37883 
  -40490   -42992   -41842   -38656   -37341   -39246   -42595   -44234 
  -42516   -39927   -40576   -44550   -47804   -47740   -45709   -43904 
  -42894   -42201   -41101   -39693   -39503   -41169   -42908   -43221 
  -42982   -43692   -45554   -47238   -46956   -44798   -42973   -42592 
  -42466   -41801   -41618   -42714   -43978   -43927   -42980   -42720 
  -43395   -43992   -44230   -44444   -44606   -44709   -44623   -44019 
  -43442   -43593   -44031   -44574   -45531   -45593   -43477   -41369 
  -42333   -45284   -46310   -44079   -41200   -40436   -41841   -43819 
  -44540   -42800   -40026   -39544   -42251   -45444   -46350   -45321 
  -45005   -46119   -46154   -43713   -40936   -40061   -40406   -40249 
  -39470   -38831   -38782   -39727   -41271   -42021   -41786   -41800 
  -42449   -43075   -43162   -42544   -41431   -40406   -39987   -40293 
  -40969   -41466   -41500   -41364   -41668   -42595   -43713   -44443 
  -44524   -43982   -42848   -41444   -40295   -39504   -39112   -39432 
  -40375   -41365   -41860   -41584   -41202   -41973   -43690   -44984 
  -45593   -45954   -46065   -46141   -46264   -45779   -44665   -43668 
  -42605   -40925   -39041   -37707   -37490   -38164   -38386   -37814 
  -37789   -39062   -41235   -43459   -44300   -43078   -41460   -41703 
  -43779   -45390   -44351   -41242   -39618   -41736   -45093   -45924 
  -44056   -42131   -42034   -43177   -43867   -43627   -42873   -41634 
  -40279   -39796   -40538   -42175   -44210   -45374   -44506   -42745 
  -42188   -42597   -42184   -40632   -39114   -38612   -39326   -40400 
  -40459   -39462   -38855   -39448   -40491   -40838   -40111   -38901 
  -38363   -39246   -40914   -41976   -41735   -40341   -38704   -38272 
  -39239   -40177   -40281   -39854   -39151   -38761   -39437   -40305 
  -39715   -38428   -38878   -41265   -43653   -44724   -44099   -42343 
  -41148   -41596   -43265   -45052   -45640   -44382   -42304   -41293 
  -42358   -44487   -45417   -44470   -42855   -41357   -40658   -41478 
  -42459   -41746   -40325   -40043   -40418   -40235   -39880   -40222 
  -40751   -40357   -39507   -40140   -42471   -43662   -41975   -39758 
  -39701   -41392   -42946   -42947   -41398   -40352   -41499   -43570 
  -44190   -42965   -41724   -42004   -43007   -43239   -42693   -42225 
  -42640   -43986   -44736   -44077   -44021   -45562   -45880   -43258 
  -40649   -41082   -43419   -44654   -43546   -41577   -41249   -42829 
  -44083   -43753   -42825   -42289   -41991   -41493   -40542   -39199 
  -38039   -37547   -37470   -37388   -37453   -37673   -37202   -36163 
  -36639   -39265   -41746   -42869   -43695   -44295   -43851   -42968 
  -42860   -43520   -43683   -42341   -40212   -39056   -39585   -40767 
  -41574   -42482   -43712   -43810   -42417   -41499   -42137   -43417 
  -44239   -44259   -43989   -43705   -42634   -40763   -39615   -40195 
  -41940   -43218   -42545   -40956   -41303   -43740   -45408   -44951 
  -43499   -42076   -41342   -42000   -43326   -43653   -43197   -43920 
  -46102   -47614   -47146   -45626   -44311   -43524   -43021   -42377 
  -41211   -39946   -39805   -41008   -42204   -42590   -42789   -43093 
  -43098   -43119   -43535   -43614   -43042   -43031   -44361   -45587 
  -44917   -43368   -43469   -45049   -45462   -44181   -43867   -45581 
  -46557   -44899   -42398   -41433   -42847   -45355   -45218   -40720 
  -36284   -37166   -42123   -45366   -43851   -40006   -37976   -39007 
  -41485   -43550   -43722   -41392   -38570   -38383   -40612   -41963 
  -41030   -39424   -38792   -39679   -41454   -42250   -41333   -40192 
  -40012   -40789   -41800   -41466   -39588   -38367   -39210   -41469 
  -43623   -44059   -43224   -43266   -44003   -43580   -42408   -42128 
  -42546   -42345   -41108   -39649   -39604   -41728   -43757   -42914 
  -40698   -40549   -42029   -42222   -40456   -38568   -38474   -39941 
  -40552   -39018   -37012   -36537   -37391   -37905   -37202   -36307 
  -36649   -37830   -38304   -37857   -37359   -37172   -37847   -39989 
  -42205   -42228   -40299   -38893   -39229   -40067   -40087   -39419 
  -38601   -37924   -37959   -39217   -41029   -42070   -42241   -42443 
  -42454   -41212   -39062   -37652   -38044   -39775   -40915   -40104 
  -38908   -39620   -42086   -44724   -46061   -45469   -44193   -43835 
  -44252   -44607   -44489   -43866   -43278   -43097   -43020   -43288 
  -44334   -45039   -44122   -42520   -41967   -42612   -43485   -43698 
  -42692   -41010   -40438   -41680   -42984   -42681   -41752   -42243 
  -44065   -45105   -44360   -43221   -43082   -43489   -43438   -42599 
  -41062   -39899   -40700   -42708   -43177   -41920   -41760   -43578 
  -44971   -44226   -42197   -40473   -40072   -41023   -42044   -41928 
  -40860   -39371   -37706   -36894   -38225   -40845   -41785   -40131 
  -39174   -41404   -44320   -44888   -44035   -43795   -44319   -44823 
  -44356   -42760   -41523   -41381   -41101   -40203   -39707   -40050 
  -40676   -40946   -40641   -40082   -39547   -39063   -39089   -39933 
  -40797   -41044   -41316   -42433   -44314   -45807   -45497   -43785 
  -42986   -44014   -45081   -44727   -44009   -44730   -46945   -48840 
  -48389   -45421   -42478   -42499   -45278   -47401   -46169   -43030 
  -41931   -43898   -45524   -44173   -41704   -40991   -41862   -42563 
  -42458   -41765   -40943   -40805   -41471   -42077   -42213   -42119 
  -41787   -41232   -41158   -42233   -43930   -44869   -44174   -42571 
  -42155   -43570   -44322   -42722   -41003   -41186   -41957   -42127 
  -42406   -42787   -42149   -40513   -39402   -39716   -40307   -39926 
  -39507   -40075   -40494   -40128   -40183   -40706   -40750   -41282 
  -43301   -44707   -43315   -41153   -41717   -44230   -44858   -42627 
  -40109   -39307   -39878   -40400   -39808   -38123   -36382   -36021 
  -37728   -40176   -40915   -39192   -36872   -36355   -38016   -39774 
  -39579   -37945   -37163   -38446   -40566   -41458   -40801   -40291 
  -41341   -43246   -44102   -43350   -42326   -42445   -43813   -45092 
  -44698   -42927   -41769   -42174   -43046   -42792   -40882   -38765 
  -38981   -41907   -44500   -44036   -41871   -41465   -43637   -45797 
  -45498   -43222   -41278   -41093   -42218   -43135   -42685   -41200 
  -40222   -40758   -42176   -43094   -42763   -41866   -42259   -44466 
  -46153   -45609   -44531   -44684   -45279   -45520   -45704   -45486 
  -44429   -43023   -41841   -41585   -42923   -44802   -45217   -43907 
  -42246   -41582   -42534   -43891   -43357   -41287   -40681   -42388 
  -43630   -42086   -39317   -38784   -41302   -44082   -44025   -41278 
  -39431   -40946   -43346   -42969   -40412   -39137   -40745   -42983 
  -42267   -38792   -36718   -38296   -41783   -44545   -44616   -42184 
  -40439   -41161   -41988   -40784   -39019   -39231   -41023   -41563 
  -40402   -40385   -42418   -43906   -43375   -42253   -42087   -42806 
  -43220   -42399   -40703   -39330   -39185   -40120   -40875   -40236 
  -38785   -38789   -41262   -44115   -44688   -43104   -41739   -42128 
  -43326   -43321   -41931   -40811   -40403   -40271   -41250   -42769 
  -41924   -38896   -37366   -38462   -40458   -42145   -42253   -40193 
  -38639   -40626   -44742   -46653   -44818   -42258   -42392   -44936 
  -46888   -46442   -44680   -43595   -43722   -44464   -45028   -44522 
  -43143   -42514   -43729   -46235   -48078   -47587   -45990   -45902 
  -47263   -48250   -48356   -47834   -46676   -45510   -45335   -45910 
  -46054   -45489   -45006   -45083   -45454   -45750   -45628   -44756 
  -43724   -44069   -45780   -46508   -45018   -42900   -41975   -42510 
  -43786   -44954   -45601   -45745   -45376   -44434   -43317   -43096 
  -44170   -44627   -42646   -40034   -39680   -41120   -41804   -40859 
  -39622   -39752   -41429   -42877   -42167   -39679   -37734   -37760 
  -39315   -41470   -42806   -41426   -38177   -37098   -39311   -41099 
  -40458   -39202   -38347   -37750   -38260   -39902   -40880   -40079 
  -38575   -38131   -38634   -38528   -37983   -38285   -38709   -38249 
  -38532   -40965   -43471   -43550   -42186   -41837   -42698   -43146 
  -42503   -41863   -42235   -42936   -43024   -43241   -44477   -45447 
  -44595   -43170   -43403   -44829   -45341   -44507   -43462   -43228 
  -44102   -45035   -44433   -42417   -40824   -41091   -42571   -43246 
  -42852   -43167   -44406   -45049   -45050   -45464   -46204   -46471 
  -45869   -44598   -43551   -43731   -45042   -46303   -46646   -46244 
  -45590   -44926   -44448   -44279   -44253   -44267   -44490   -45003 
  -45318   -44365   -42185   -41148   -42968   -45624   -46117   -44735 
  -43996   -44977   -46758   -48116   -48109   -46580   -45130   -45459 
  -46681   -46741   -45512   -44401   -44350   -45545   -47347   -48013 
  -46686   -45063   -44596   -44601   -44839   -45647   -45653   -43828 
  -41885   -41668   -42667   -43261   -42365   -40269   -38801   -39365 
  -40937   -41624   -41338   -41125   -41160   -41119   -41159   -41070 
  -39893   -37900   -37296   -38929   -40319   -39450   -38173   -38969 
  -40773   -40977   -39606   -38909   -39839   -41049   -41245   -40926 
  -41482   -42965   -43736   -43015   -41978   -41664   -42105   -43318 
  -44760   -44876   -43420   -42393   -42971   -43912   -43839   -42600 
  -40927   -40489   -42203   -44127   -43962   -42570   -42286   -43716 
  -45813   -47064   -46501   -44893   -43944   -43991   -43938   -43108 
  -42056   -41822   -42806   -44322   -45458   -46181   -46711   -46654 
  -46059   -45713   -45909   -46144   -45366   -43006   -40755   -41131 
  -43475   -44411   -42718   -40880   -41707   -44836   -46995   -46135 
  -44019   -43499   -44774   -45454   -43922   -42016   -42568   -44638 
  -45203   -44437   -44279   -44701   -45266   -45958   -45941   -45306 
  -45319   -45606   -44861   -43541   -43166   -43821   -43741   -41989 
  -40164   -39741   -39879   -39280   -38389   -38613   -39619   -39442 
  -38200   -38222   -39859   -41189   -41000   -39014   -35971   -34710 
  -36981   -39957   -40153   -38463   -37865   -38969   -40360   -40907 
  -40560   -40311   -40725   -40902   -40385   -39973   -39987   -40321 
  -40964   -40721   -38445   -36016   -36251   -38290   -38619   -36024 
  -32833   -31803   -33680   -36973   -38977   -38428   -37253   -37966 
  -40189   -41756   -42009   -42019   -42340   -42550   -42691   -43010 
  -43161   -43349   -44109   -44649   -44311   -44158   -44915   -45883 
  -46559   -46926   -46837   -46646   -47094   -47791   -47480   -46160 
  -45181   -45075   -44911   -44056   -43074   -42727   -43322   -44601 
  -45401   -44734   -43326   -42724   -43476   -44848   -45736   -45800 
  -45272   -43923   -41929   -41021   -42170   -43200   -41961   -39945 
  -39475   -40529   -42134   -43515   -44368   -45277   -45963   -44973 
  -42904   -42253   -43271   -43638   -42285   -40818   -41091   -42820 
  -44135   -43978   -42784   -41138   -39860   -40584   -43459   -45406 
  -43734   -40416   -39659   -42042   -44351   -44641   -44110   -44193 
  -44882   -45946   -47235   -47951   -47608   -47070   -46989   -46444 
  -44668   -42495   -41247   -41771   -43733   -45163   -44861   -43981 
  -43540   -43429   -43775   -44435   -44743   -44512   -43913   -43431 
  -43755   -44674   -45482   -45878   -45524   -44633   -44107   -43701 
  -42430   -40898   -40667   -42047   -44070   -45321   -44556   -42076 
  -39864   -39386   -40344   -41606   -41880   -40455   -38813   -39393 
  -41766   -43114   -42429   -41215   -40938   -41673   -42569   -43169 
  -43524   -43068   -41879   -42049   -44218   -45046   -42021   -38140 
  -37891   -40877   -43377   -43763   -42936   -42177   -42413   -43567 
  -44646   -44810   -43846   -42354   -41436   -41550   -42008   -41860 
  -41357   -41610   -42290   -41797   -40159   -39303   -40057   -41082 
  -41343   -41247   -40844   -39782   -39113   -40118   -41764   -41965 
  -40402   -38591   -38454   -40631   -43214   -43667   -42301   -41616 
  -42480   -43574   -43808   -43073   -41604   -39960   -39061   -39706 
  -41556   -42959   -42886   -42050   -41328   -40950   -41173   -41744 
  -41668   -40811   -40109   -39996   -40403   -41247   -41349   -39645 
  -38049   -38933   -40890   -41088   -39489   -37957   -37521   -38036 
  -39011   -39867   -40014   -39390   -38745   -38714   -38829   -38316 
  -37748   -38574   -40724   -42234   -42040   -41839   -43476   -45593 
  -45536   -43393   -41499   -41385   -42839   -44231   -43444   -40794 
  -39842   -42468   -45656   -45891   -43782   -42213   -42298   -43174 
  -43994   -43932   -42260   -40245   -40341   -42616   -44550   -44599 
  -43768   -43446   -43676   -43728   -43100   -42216   -41992   -42153 
  -41810   -41491   -41804   -42009   -41819   -41878   -42654   -44232 
  -45697   -45606   -44169   -42944   -42770   -43466   -44015   -43367 
  -42447   -42914   -44026   -44192   -43918   -44419   -45614   -46697 
  -46576   -44848   -43542   -44740   -47198   -48567   -48402   -47376 
  -46588   -47313   -49050   -49442   -47617   -45475   -44816   -45485 
  -46341   -46293   -45493   -45011   -44492   -43347   -42833   -43379 
  -43355   -42054   -40452   -39781   -40820   -42649   -42896   -40979 
  -38977   -38807   -40440   -42043   -41324   -38407   -36368   -37244 
  -39493   -40673   -40200   -38836   -37921   -38718   -40668   -41578 
  -40377   -38564   -38482   -40085   -40864   -39844   -38697   -38608 
  -39530   -41266   -42447   -41304   -39158   -39113   -41004   -42062 
  -41682   -41402   -41349   -40568   -39794   -40221   -41140   -41562 
  -41627   -41559   -41505   -41650   -41704   -41639   -42068   -42987 
  -43725   -43982   -43572   -42777   -43086   -44905   -45838   -43722 
  -40012   -38729   -41558   -44980   -44723   -41628   -40001   -41938 
  -45453   -47340   -46932   -46113   -46072   -46379   -46664   -46695 
  -45955   -44833   -44578   -45632   -47239   -48113   -47425   -45997 
  -45611   -46800   -48357   -48566   -46820   -44710   -44212   -44807 
  -44721   -43821   -42841   -41895   -41049   -40297   -39794   -40371 
  -41589   -41468   -39815   -38457   -38218   -38868   -40186   -40736 
  -39353   -38148   -39215   -40619   -40134   -38920   -38615   -39209 
  -40512   -42094   -42682   -41608   -39894   -39319   -40402   -41633 
  -41382   -39874   -38408   -37861   -38587   -39912   -40175   -39239 
  -38857   -39541   -40218   -40494   -40518   -40206   -39839   -39718 
  -39594   -39394   -39286   -38860   -37581   -35927   -35134   -35832 
  -37247   -37718   -36647   -35944   -37641   -40412   -41477   -40783 
  -40128   -40167   -40416   -40528   -40663   -40833   -40764   -40912 
  -41600   -41845   -41436   -41731   -42873   -43709   -44396   -45462 
  -45753   -44604   -43881   -45083   -46633   -46376   -44614   -42947 
  -42390   -43350   -44956   -45229   -43963   -43115   -43662   -44607 
  -44595   -43539   -42575   -42268   -42748   -44792   -47555   -48083 
  -45856   -44133   -45292   -47468   -47135   -44172   -42025   -42347 
  -43326   -43799   -44342   -44681   -43989   -42594   -41382   -40837 
  -41002   -41170   -40200   -38324   -37452   -38427   -39792   -40145 
  -39567   -38870   -38803   -39322   -39774   -40053   -40464   -40908 
  -41209   -41425   -41467   -41240   -40925   -40653   -40310   -39721 
  -39101   -39394   -41249   -43377   -43507   -41581   -40081   -40809 
  -43005   -44431   -43663   -41849   -41719   -44234   -47090   -47441 
  -45423   -43676   -43765   -44847   -45392   -44518   -42677   -41613 
  -42295   -43367   -43044   -41826   -41679   -42589   -42311   -40282 
  -38579   -38525   -39532   -40492   -40413   -39147   -37839   -37695 
  -38592   -39271   -38790   -37601   -36923   -37206   -37879   -38389 
  -38628   -38748   -38883   -39063   -39441   -39907   -39810   -39189 
  -39294   -40771   -42373   -42594   -41630   -40725   -40444   -40420 
  -40445   -40857   -41471   -41516   -41226   -41792   -43270   -44297 
  -44031   -42677   -40949   -40173   -41027   -42435   -43138   -42783 
  -41798   -41854   -44032   -46264   -46231   -44924   -44153   -43944 
