Origin Time       2011/03/11 14:46:00
Lat.              38.103
Long.             142.860
Depth. (km)       24
Mag.              9.0
Station Code      HKD156
Station Lat.      41.8996
Station Long.     140.6960
Station Height(m) 84
Record Time       2011/03/11 14:47:50
Sampling Freq(Hz) 100Hz
Duration Time(s)  292
Dir.              U-D
Scale Factor      3920(gal)/6182761
Max. Acc. (gal)   5.432
Last Correction   2011/03/11 14:47:35
Memo.             
[...]
  -21018   -21014   -21235   -21235   -20801   -20198   -19624   -18963 
  -18292   -18066   -18496   -19209   -19904   -20717   -21617   -22283 
  -22694   -23327   -24509   -25687   -26077   -25871   -25898   -26463 
  -27045   -27070   -26598   -26057   -25862   -26171   -26586   -26620 
  -26207   -25537   -24924   -24662   -24911   -25648   -26290   -25916 
  -24664   -23908   -24335   -25035   -24858   -23938   -23522   -24112 
  -24718   -24399   -23375   -22522   -22439   -22971   -23587   -24091 
  -24410   -24232   -23832   -24097   -25057   -25671   -25280   -24538 
  -24408   -24757   -24855   -24459   -23810   -23306   -23146   -23187 
  -23388   -23769   -24010   -23951   -23897   -24039   -24271   -24528 
  -24899   -25268   -25313   -25067   -24747   -24355   -24021   -24002 
  -24234   -24296   -23883   -23286   -23083   -23403   -23834   -23980 
  -23951   -24127   -24527   -24862   -24972   -24910   -24813   -24637 
  -24200   -23649   -23321   -23176   -22857   -22203   -21640   -21894 
  -22899   -23546   -23219   -22603   -22488   -22749   -22761   -22342 
  -21904   -21621   -21291   -20959   -20800   -20813   -20911   -21037 
  -21358   -22039   -22747   -23055   -22981   -22780   -22724   -22973 
  -23417   -23840   -24079   -24232   -24437   -24508   -24476   -24547 
  -24518   -24392   -24484   -24766   -25042   -25258   -25538   -25965 
  -26405   -26832   -27148   -27065   -26697   -26281   -25775   -25268 
  -25043   -25155   -25132   -24560   -23831   -23447   -23301   -23093 
  -22714   -22379   -22243   -22086   -21906   -21851   -21775   -21614 
  -21525   -21661   -21972   -22121   -21993   -21801   -21536   -21202 
  -21167   -21559   -21871   -21649   -21211   -21181   -21588   -22035 
  -22378   -22626   -22764   -22941   -23405   -24138   -24619   -24325 
  -23541   -23196   -23780   -24695   -25093   -25011   -24998   -25122 
  -25194   -25320   -25490   -25483   -25385   -25363   -25223   -25007 
  -25253   -25760   -25667   -25160   -25107   -25555   -25874   -25872 
  -26058   -26546   -26747   -26429   -25894   -25458   -25370   -25558 
  -25696   -25753   -25924   -26328   -26832   -27040   -26882   -26738 
  -26821   -26883   -26453   -25561   -24974   -25100   -25525   -25884 
  -26060   -26002   -25895   -25886   -25936   -25933   -25761   -25516 
  -25295   -25195   -25451   -25711   -25275   -24349   -23647   -23471 
  -23819   -24440   -24918   -25167   -25487   -26019   -26384   -26197 
  -25850   -26029   -26496   -26473   -25879   -25056   -24111   -23178 
  -22479   -22132   -22091   -21978   -21512   -20947   -20615   -20633 
  -20930   -21218   -21270   -21150   -21107   -21269   -21458   -21553 
  -21755   -22060   -22086   -21815   -21705   -21958   -22311   -22341 
  -21916   -21371   -21204   -21599   -22071   -22048   -21624   -21273 
  -21270   -21524   -21769   -21850   -21803   -21644   -21455   -21604 
  -22172   -22610   -22409   -21785   -21449   -21575   -21715   -21712 
  -21790   -22118   -22638   -23093   -23331   -23395   -23255   -22940 
  -22740   -22831   -23120   -23443   -23585   -23404   -23000   -22671 
  -22709   -23043   -23343   -23494   -23570   -23664   -23990   -24546 
  -24917   -24812   -24450   -24314   -24603   -25144   -25745   -26284 
  -26715   -27056   -27243   -27260   -27189   -26956   -26436   -25880 
  -25791   -26196   -26413   -25913   -25136   -24797   -24811   -24619 
  -24121   -23830   -24141   -24630   -24606   -24165   -23814   -23596 
  -23434   -23560   -23981   -24198   -23890   -23417   -23217   -23066 
  -22574   -21922   -21527   -21678   -22399   -23241   -23756   -23835 
  -23625   -23513   -23608   -23558   -23192   -22704   -22351   -22235 
  -22257   -22319   -22355   -22263   -22155   -22386   -22921   -23246 
  -23089   -22671   -22381   -22321   -22332   -22429   -22677   -23153 
  -23951   -24756   -25222   -25400   -25439   -25398   -25150   -24631 
  -24033   -23523   -23140   -22778   -22289   -21890   -21877   -22045 
  -22081   -21994   -21751   -21149   -20209   -19350   -19024   -19219 
  -19588   -19882   -20059   -20252   -20455   -20493   -20407   -20368 
  -20488   -20823   -21260   -21556   -21533   -21327   -21260   -21399 
  -21581   -21702   -21879   -22251   -22640   -22839   -22866   -22847 
  -22910   -22958   -22925   -23160   -23851   -24542   -24814   -24930 
  -25227   -25533   -25705   -25871   -26008   -25818   -25144   -24425 
  -24206   -24355   -24349   -23943   -23447   -23376   -23631   -23572 
  -22858   -21792   -21016   -20758   -20586   -20157   -19717   -19656 
  -19916   -20152   -20260   -20413   -20596   -20687   -20948   -21659 
  -22554   -23121   -23216   -23252   -23616   -23993   -23925   -23651 
  -23644   -23850   -23934   -23828   -23854   -24184   -24533   -24732 
  -24831   -24804   -24805   -25155   -25877   -26541   -26788   -26710 
  -26431   -25933   -25354   -24823   -24339   -23970   -23885   -24109 
  -24326   -24186   -23852   -23789   -24265   -25170   -25921   -26099 
  -26014   -26034   -26163   -26214   -25970   -25583   -25443   -25551 
  -25565   -25300   -25000   -24928   -24749   -24076   -23210   -22510 
  -21673   -20314   -18811   -17963   -18042   -18448   -18415   -17990 
  -17723   -17835   -18239   -18707   -19016   -19256   -19830   -20911 
  -21988   -22508   -22644   -22754   -22819   -22895   -23295   -24006 
  -24590   -24793   -24717   -24626   -24830   -25367   -25980   -26598 
  -27296   -27784   -27634   -27002   -26452   -26097   -25565   -24642 
  -23605   -23000   -22990   -23131   -22943   -22524   -22300   -22187 
  -21937   -21842   -22150   -22584   -22786   -22697   -22436   -22117 
  -21878   -21793   -21824   -21966   -22229   -22437   -22468   -22475 
  -22449   -22342   -22376   -22572   -22694   -22720   -22648   -22361 
  -22078   -22125   -22454   -22820   -23001   -23043   -23178   -23329 
  -23191   -22645   -21929   -21469   -21390   -21575   -21998   -22396 
  -22314   -21767   -21191   -20911   -20889   -20827   -20617   -20519 
  -20754   -21314   -22080   -22836   -23429   -23873   -24194   -24470 
  -24767   -24941   -24888   -24734   -24536   -24256   -24049   -24198 
  -24744   -25364   -25711   -25819   -25854   -25696   -25310   -24989 
  -24891   -24861   -24685   -24373   -24111   -23892   -23543   -23041 
  -22548   -22252   -22200   -22240   -22140   -21745   -21161   -20718 
  -20358   -19795   -19449   -19882   -20803   -21662   -22312   -22804 
  -23125   -23177   -23039   -22984   -22990   -22851   -22634   -22460 
  -22438   -22713   -23108   -23314   -23374   -23637   -24305   -24949 
  -25056   -24819   -24680   -24767   -24899   -24935   -24941   -24817 
  -24560   -24541   -24731   -24607   -23937   -23103   -22797   -23193 
  -23641   -23556   -22999   -22408   -22172   -22320   -22599   -22710 
  -22414   -21769   -21097   -20644   -20446   -20424   -20467   -20579 
  -20923   -21471   -21790   -21565   -21123   -20964   -21088   -21305 
  -21508   -21486   -21149   -20614   -20022   -19611   -19579   -19949 
  -20595   -21128   -21310   -21412   -21653   -21924   -22145   -22334 
  -22500   -22720   -23203   -23987   -24546   -24373   -23816   -23526 
  -23639   -23884   -23919   -23560   -22884   -22179   -21741   -21458 
  -20922   -20137   -19548   -19454   -19739   -19997   -19978   -19841 
  -19852   -20120   -20609   -21077   -21209   -21063   -21111   -21566 
  -22029   -22114   -22030   -22141   -22362   -22346   -22029   -21715 
  -21607   -21517   -21174   -20588   -20100   -19975   -20006   -19890 
  -19745   -19816   -19983   -19970   -19764   -19495   -19118   -18615 
  -18302   -18402   -18683   -18875   -18809   -18475   -18180   -18132 
  -18296   -18569   -18692   -18618   -18775   -19355   -19937   -20182 
  -20429   -21194   -22224   -22822   -22989   -23261   -23709   -23891 
  -23627   -23242   -23095   -23197   -23327   -23389   -23391   -23197 
  -22701   -22174   -22088   -22487   -22893   -22946   -22658   -22105 
  -21382   -20811   -20651   -20716   -20716   -20607   -20560   -20906 
  -21699   -22409   -22618   -22677   -23162   -24102   -25016   -25439 
  -25300   -24870   -24492   -24482   -24924   -25476   -25713   -25474 
  -25028   -24947   -25291   -25476   -25218   -24760   -24506   -24831 
  -25604   -26071   -25787   -25074   -24411   -24119   -24176   -24187 
  -23899   -23261   -22416   -21823   -21834   -22295   -22597   -22284 
  -21662   -21371   -21578   -21938   -22036   -21633   -20912   -20516 
  -20775   -21245   -21328   -20967   -20607   -20584   -20876   -21472 
  -22294   -22907   -23002   -22839   -22860   -23066   -22980   -22426 
  -21867   -21578   -21346   -21106   -21020   -21142   -21408   -21834 
  -22470   -23190   -23792   -24202   -24316   -24232   -24503   -25310 
  -26053   -26259   -26204   -26301   -26329   -25952   -25324   -24614 
  -23909   -23529   -23782   -24571   -25319   -25558   -25408   -25147 
  -24858   -24444   -23901   -23540   -23449   -23234   -22756   -22417 
  -22433   -22384   -21776   -20705   -19720   -19196   -18994   -18727 
  -18307   -17998   -17893   -17706   -17208   -16585   -16245   -16266 
  -16223   -15800   -15328   -15319   -15701   -16045   -16198   -16178 
  -15957   -15604   -15346   -15368   -15719   -16333   -16903   -17235 
  -17656   -18395   -19128   -19477   -19414   -19272   -19363   -19646 
  -19838   -19679   -19250   -18895   -18758   -18763   -18879   -19203 
  -19724   -20157   -20340   -20514   -20994   -21721   -22261   -22416 
  -22587   -23030   -23408   -23425   -23315   -23443   -23705   -23825 
  -23785   -23510   -22941   -22245   -21546   -20964   -20713   -20898 
  -21283   -21518   -21709   -22055   -22282   -22224   -22089   -22068 
  -22167   -22203   -22099   -21958   -21761   -21611   -21744   -22058 
  -22211   -22030   -21715   -21564   -21518   -21362   -21271   -21606 
  -22239   -22788   -23286   -23943   -24639   -25050   -25154   -25260 
  -25440   -25425   -25098   -24727   -24624   -24785   -24994   -25132 
  -25269   -25433   -25449   -25052   -24245   -23531   -23334   -23350 
  -23115   -22777   -22657   -22559   -22119   -21368   -20574   -19932 
  -19542   -19404   -19231   -18596   -17647   -17072   -17134   -17514 
  -17864   -18083   -18231   -18246   -18224   -18593   -19464   -20477 
  -21284   -21862   -22424   -23004   -23537   -24104   -24736   -25283 
  -25582   -25626   -25523   -25384   -25236   -25048   -24996   -25405 
  -26251   -27080   -27453   -27353   -27083   -26915   -26926   -26962 
  -26757   -26234   -25653   -25255   -24994   -24784   -24568   -24320 
  -24142   -24070   -23961   -23681   -23273   -22893   -22636   -22610 
  -22809   -22920   -22748   -22418   -21982   -21371   -20641   -20072 
  -19917   -20003   -19983   -19883   -19996   -20343   -20608   -20704 
  -20934   -21513   -22239   -22772   -22982   -22928   -22881   -23104 
  -23478   -23700   -23717   -23636   -23322   -22648   -21939   -21623 
  -21694   -21712   -21443   -21373   -21984   -22907   -23467   -23527 
  -23344   -23177   -23088   -22957   -22859   -23151   -23913   -24613 
  -24713   -24338   -23926   -23610   -23294   -22965   -22607   -22134 
  -21705   -21734   -22202   -22520   -22316   -21851   -21640   -21888 
  -22272   -22376   -22090   -21510   -21004   -21125   -21934   -22760 
  -22909   -22504   -22299   -22499   -22549   -22145   -21515   -21027 
  -20976   -21423   -22102   -22525   -22306   -21598   -21018   -21025 
  -21554   -22254   -22832   -23290   -23835   -24414   -24756   -24748 
  -24450   -24100   -23980   -24136   -24348   -24326   -24085   -23815 
  -23559   -23432   -23613   -23928   -23981   -23740   -23476   -23256 
  -23137   -23273   -23537   -23769   -24026   -24205   -24143   -23989 
  -24003   -24105   -23924   -23329   -22660   -22270   -22129   -21878 
  -21324   -20790   -20515   -20232   -19875   -19928   -20648   -21547 
  -22075   -22455   -23249   -24321   -24989   -25081   -24959   -24774 
  -24361   -23749   -23374   -23381   -23291   -22900   -22595   -22711 
  -23257   -24030   -24707   -25087   -25343   -25746   -26128   -26088 
  -25642   -25143   -24728   -24327   -23933   -23503   -22842   -21935 
  -21195   -20892   -20691   -20248   -19738   -19501   -19552   -19589 
  -19350   -18752   -17907   -17201   -17044   -17330   -17580   -17581 
  -17629   -18150   -19045   -19738   -19920   -19881   -20000   -20177 
  -20268   -20453   -20746   -20969   -21033   -20960   -21042   -21580 
  -22369   -22942   -23179   -23383   -23690   -23745   -23311   -22748 
  -22367   -22120   -22053   -22218   -22445   -22460   -22111   -21778 
  -21999   -22632   -23138   -23350   -23566   -24117   -24912   -25597 
  -26040   -26272   -26379   -26500   -26545   -26336   -25852   -25049 
  -24022   -23158   -22757   -22793   -22957   -22942   -22804   -22803 
  -22881   -22803   -22629   -22521   -22444   -22276   -21943   -21527 
  -21192   -21029   -21083   -21382   -21937   -22422   -22172   -21178 
  -20215   -19777   -19650   -19394   -19010   -18883   -19098   -19396 
  -19700   -20193   -20890   -21421   -21521   -21540   -21938   -22526 
  -22787   -22697   -22652   -22963   -23816   -25055   -25995   -26109 
  -25681   -25490   -25908   -26459   -26643   -26654   -26753   -26771 
  -26424   -25691   -24834   -24057   -23335   -22641   -22047   -21625 
  -21261   -20683   -19868   -19200   -18945   -18941   -18943   -18978 
  -19176   -19316   -18970   -18067   -16915   -15817   -14913   -14372 
  -14242   -14241   -14250   -14587   -15533   -16837   -18012   -19152 
  -20599   -22098   -23176   -23780   -24118   -24221   -24028   -23870 
  -24193   -24845   -25246   -25255   -25256   -25407   -25475   -25242 
  -24727   -24211   -23956   -24024   -24262   -24322   -24095   -23761 
  -23350   -22850   -22413   -22196   -22095   -21849   -21505   -21275 
  -21189   -21191   -21268   -21431   -21617   -21829   -22149   -22482 
  -22644   -22567   -22399   -22367   -22396   -22322   -22217   -22180 
  -22078   -21662   -21015   -20452   -19949   -19334   -18734   -18390 
  -18414   -18669   -18967   -19393   -20070   -20869   -21570   -22023 
  -22225   -22320   -22503   -22893   -23436   -24041   -24693   -25306 
  -25724   -25982   -26167   -26195   -25983   -25645   -25478   -25464 
  -25197   -24808   -24796   -25059   -25161   -24969   -24700   -24558 
  -24424   -24297   -24345   -24275   -23832   -23403   -23325   -23464 
  -23545   -23527   -23622   -23818   -24027   -24403   -24783   -24856 
  -24740   -24613   -24410   -24007   -23540   -23457   -23717   -23735 
  -23435   -23116   -22844   -22816   -23347   -24239   -24950   -25278 
  -25445   -25766   -26267   -26688   -26927   -27028   -27058   -27104 
  -27137   -27235   -27531   -27805   -27750   -27430   -27227   -27346 
  -27377   -26824   -26010   -25749   -26171   -26538   -26318   -25877 
  -25686   -25575   -25315   -25005   -24673   -24296   -24078   -24196 
  -24448   -24478   -24144   -23478   -22710   -22240   -22154   -22116 
  -21790   -21209   -20846   -21124   -21889   -22678   -23249   -23645 
  -23961   -24329   -24859   -25212   -24928   -24233   -23861   -24164 
  -24767   -25188   -25296   -25147   -24850   -24502   -24203   -23922 
  -23400   -22569   -21793   -21500   -21636   -21720   -21598   -21626 
  -22045   -22687   -23267   -23718   -24153   -24647   -25150   -25503 
  -25728   -26029   -26269   -26097   -25633   -25318   -25248   -25107 
  -24608   -23821   -23094   -22646   -22321   -21946   -21657   -21603 
  -21578   -21260   -20783   -20636   -20878   -21058   -20884   -20522 
  -20380   -20691   -21220   -21518   -21481   -21348   -21291   -21346 
  -21624   -22264   -23023   -23379   -23253   -22993   -22729   -22401 
  -22006   -21511   -21001   -20735   -20757   -20824   -20739   -20553 
  -20493   -20581   -20703   -21002   -21556   -22133   -22426   -22251 
  -21782   -21356   -21049   -20842   -20772   -20792   -20954   -21462 
  -22271   -23058   -23524   -23717   -24035   -24601   -25167   -25649 
  -26011   -26089   -25838   -25409   -25224   -25594   -26174   -26519 
  -26526   -26194   -25720   -25450   -25488   -25547   -25182   -24329 
  -23416   -22833   -22539   -22255   -21965   -22065   -22892   -24134 
  -25073   -25406   -25342   -25167   -25019   -24887   -24747   -24553 
  -24222   -23796   -23417   -23184   -23081   -22937   -22703   -22551 
  -22437   -22049   -21317   -20669   -20495   -20582   -20566   -20462 
  -20516   -20812   -21108   -21177   -21123   -21211   -21670   -22576 
  -23595   -24202   -24256   -24055   -24036   -24340   -24667   -24827 
  -24922   -25031   -25139   -25075   -24711   -24222   -23927   -24049 
  -24393   -24470   -24073   -23382   -22793   -22627   -22697   -22571 
  -22093   -21415   -20840   -20600   -20635   -20625   -20279   -19707 
  -19429   -19787   -20526   -21151   -21482   -21796   -22371   -22924 
  -22992   -22554   -21946   -21573   -21688   -22322   -23267   -24125 
  -24806   -25529   -26149   -26266   -25945   -25621   -25345   -24911 
  -24492   -24324   -24246   -24032   -23819   -23982   -24517   -24907 
  -24770   -24204   -23595   -23220   -22876   -22252   -21474   -20855 
  -20547   -20486   -20501   -20450   -20215   -19831   -19546   -19751 
  -20665   -21865   -22661   -22883   -22942   -23286   -23746   -23796 
  -23554   -23495   -23568   -23622   -23832   -24197   -24378   -24055 
  -23381   -22895   -22839   -22897   -22706   -22385   -22329   -22598 
  -22850   -22742   -22281   -21798   -21653   -21940   -22371   -22635 
  -22675   -22509   -22163   -21847   -21814   -21929   -21767   -21317 
  -21121   -21473   -22004   -22351   -22606   -22860   -23031   -23191 
  -23477   -23788   -23905   -23918   -24255   -24904   -25207   -24833 
  -24210   -23844   -23739   -23560   -23072   -22467   -22114   -22015 
  -22058   -22387   -23118   -24042   -24688   -24840   -24835   -24905 
  -24807   -24369   -23844   -23586   -23510   -23289   -23093   -23263 
  -23583   -23687   -23547   -23407   -23516   -23752   -23865   -23971 
  -24295   -24772   -25169   -25417   -25563   -25576   -25465   -25322 
  -25199   -25080   -24866   -24481   -24019   -23692   -23667   -23813 
  -23837   -23740   -23688   -23739   -23883   -24088   -24281   -24192 
  -23693   -23305   -23460   -23762   -23669   -23241   -22944   -22981 
  -23117   -23182   -23210   -23228   -23307   -23497   -23728   -23873 
  -23742   -23323   -22916   -22802   -23013   -23321   -23437   -23386 
  -23504   -24004   -24704   -25164   -25185   -25100   -25265   -25523 
  -25619   -25639   -25737   -25909   -25986   -25846   -25775   -26179 
  -26946   -27471   -27377   -27028   -26995   -27238   -27318   -27076 
  -26731   -26467   -26263   -26093   -25873   -25475   -25069   -24874 
  -24737   -24458   -24171   -23905   -23206   -21930   -20876   -20771 
  -21338   -21806   -21923   -22077   -22369   -22419   -22139   -21758 
  -21429   -21299   -21442   -21717   -22066   -22488   -22763   -22779 
  -22707   -22713   -22872   -23071   -23139   -23169   -23264   -23296 
  -23183   -23196   -23752   -24719   -25435   -25576   -25362   -25055 
  -24745   -24405   -23973   -23375   -22684   -22332   -22518   -22846 
  -22929   -22732   -22561   -22693   -22993   -23300   -23583   -23746 
  -23731   -23608   -23570   -23726   -23815   -23559   -23127   -22758 
