Origin Time       2011/03/11 14:46:00
Lat.              38.103
Long.             142.860
Depth. (km)       24
Mag.              9.0
Station Code      HKD140
Station Lat.      43.1908
Station Long.     140.9933
Station Height(m) 51
Record Time       2011/03/11 14:48:58
Sampling Freq(Hz) 100Hz
Duration Time(s)  174
Dir.              N-S
Scale Factor      3920(gal)/6182761
Max. Acc. (gal)   3.167
Last Correction   2011/03/11 14:48:43
Memo.             
[...]
    1663     1682     1601     1544     1623     1854     2221     2694 
    3185     3632     4041     4399     4610     4535     4132     3571 
    3154     3045     3149     3273     3350     3431     3544     3601 
    3510     3320     3155     3081     3100     3169     3283     3484 
    3748     3988     4141     4194     4196     4198     4201     4193 
    4148     4042     3871     3688     3602     3596     3521     3378 
    3290     3284     3336     3432     3533     3607     3660     3736 
    3847     3902     3869     3840     3838     3798     3712     3609 
    3463     3242     2994     2765     2485     2152     1969     2056 
    2292     2526     2681     2708     2604     2401     2140     1882 
    1684     1557     1472     1445     1575     1860     2160     2402 
    2584     2693     2721     2647     2484     2338     2250     2156 
    2035     1918     1863     1952     2151     2322     2398     2379 
    2284     2223     2304     2535     2860     3180     3411     3598 
    3793     3895     3789     3536     3280     3049     2765     2418 
    2106     1883     1714     1589     1535     1541     1561     1547 
    1462     1343     1275     1245     1176     1062      903      709 
     569      535      560      600      654      767      998     1336 
    1710     1998     2063     1895     1578     1177      768      447 
     238      139      151      277      546      954     1413     1824 
    2125     2298     2416     2603     2899     3244     3554     3761 
    3863     3923     3994     4068     4156     4291     4424     4488 
    4487     4422     4251     3942     3561     3264     3124     3129 
    3300     3585     3802     3851     3776     3681     3663     3742 
    3875     4041     4210     4296     4234     4056     3818     3531 
    3175     2760     2402     2250     2311     2455     2565     2574 
    2481     2381     2350     2371     2409     2427     2381     2305 
    2290     2385     2593     2939     3349     3606     3587     3404 
    3224     3141     3159     3201     3170     2999     2716     2451 
    2299     2242     2245     2352     2644     3146     3808     4511 
    5082     5415     5501     5356     5023     4579     4080     3579 
    3135     2773     2511     2375     2338     2317     2255     2185 
    2172     2228     2307     2336     2246     1999     1635     1227 
     817      465      277      346      681     1187     1720     2149 
    2418     2575     2649     2539     2208     1816     1504     1315 
    1305     1476     1784     2252     2858     3453     3948     4361 
    4670     4836     4875     4796     4574     4201     3704     3159 
    2648     2215     1893     1702     1613     1605     1645     1629 
    1536     1487     1540     1635     1700     1684     1622     1586 
    1582     1602     1643     1679     1742     1877     2034     2139 
    2201     2300     2481     2625     2576     2345     2036     1745 
    1600     1679     1904     2102     2180     2166     2126     2089 
    2075     2108     2187     2313     2523     2775     2950     2997 
    2886     2578     2141     1691     1293     1013      885      866 
     936     1105     1339     1579     1773     1872     1845     1748 
    1720     1847     2120     2502     2893     3148     3219     3190 
    3091     2844     2443     2048     1796     1689     1667     1647 
    1561     1416     1245     1066      876      661      467      427 
     617      987     1450     1898     2183     2229     2075     1816 
    1584     1476     1497     1625     1864     2158     2429     2715 
    3053     3337     3495     3606     3728     3899     4157     4435 
    4671     4929     5228     5507     5704     5709     5489     5149 
    4762     4367     4053     3857     3759     3757     3796     3789 
    3721     3592     3417     3280     3218     3214     3285     3414 
    3500     3471     3350     3219     3164     3218     3382     3684 
    4114     4576     4936     5113     5126     5051     4946     4849 
    4758     4664     4583     4499     4389     4282     4229     4243 
    4254     4175     4033     3882     3696     3476     3251     3037 
    2852     2673     2465     2287     2190     2155     2210     2335 
    2387     2305     2175     2081     2052     2111     2267     2480 
    2674     2803     2877     2939     3028     3147     3303     3546 
    3870     4180     4356     4290     3966     3480     2912     2293 
    1672     1136      762      560      465      413      414      488 
     544      463      251        1     -171     -188      -84       45 
     144      186      153       48     -132     -407     -778    -1161 
   -1407    -1471    -1451    -1435    -1397    -1269    -1005     -588 
     -43      527      981     1311     1587     1791     1882     1894 
    1880     1910     2058     2302     2549     2732     2855     2980 
    3096     3064     2832     2521     2259     2123     2158     2317 
    2489     2593     2618     2616     2603     2517     2317     2029 
    1721     1496     1435     1535     1703     1817     1802     1649 
    1438     1348     1464     1705     1980     2240     2514     2907 
    3383     3771     3996     4050     3939     3768     3684     3755 
    3945     4143     4218     4092     3787     3390     2957     2494 
    2021     1594     1260      994      735      520      406      286 
      57     -211     -372     -346     -174       69      426      924 
    1456     1896     2204     2379     2412     2297     2066     1804 
    1626     1589     1660     1781     1922     2053     2123     2096 
    2028     1975     1880     1730     1632     1614     1624     1645 
    1655     1600     1421     1095      643      165     -145     -181 
     -51      115      293      495      699      812      716      445 
     175       17        5      121      289      432      456      291 
      24     -212     -406     -552     -597     -547     -424     -216 
      43      279      480      696      967     1307     1725     2234 
    2791     3302     3719     4053     4255     4244     4071     3870 
    3682     3459     3171     2826     2426     1993     1620     1399 
    1358     1429     1491     1539     1693     1957     2203     2378 
    2519     2692     2986     3411     3908     4442     4920     5208 
    5273     5141     4813     4347     3892     3518     3193     2946 
    2841     2846     2924     3074     3201     3197     3087     2932 
    2752     2528     2248     1978     1802     1708     1635     1550 
    1463     1386     1295     1139      924      727      603      597 
     811     1265     1820     2341     2758     3033     3176     3205 
    3152     3027     2776     2389     1948     1476      964      522 
     307      349      539      777     1082     1552     2188     2812 
    3175     3138     2714     2018     1195      332     -505    -1130 
   -1352    -1162     -647      100      949     1738     2300     2527 
    2410     2003     1406      772      230     -144     -291     -211 
      39      419      876     1287     1528     1571     1524     1554 
    1666     1725     1688     1614     1572     1580     1520     1283 
     982      822      880     1106     1387     1599     1625     1420 
    1113      914      847      746      500      195       45      187 
     632     1302     1968     2350     2425     2405     2434     2501 
    2559     2565     2483     2399     2463     2634     2769     2841 
    2866     2863     2879     2910     2959     3071     3214     3343 
    3421     3367     3177     2952     2770     2606     2390     2121 
    1830     1496     1201     1081     1091     1111     1154     1302 
    1583     1870     1952     1791     1498     1118      690      368 
     286      451      745     1036     1279     1458     1540     1524 
    1457     1407     1395     1405     1498     1711     1905     1886 
    1602     1202      916      810      776      771      877     1162 
    1605     2097     2458     2511     2196     1594      874      242 
    -221     -636    -1106    -1525    -1704    -1618    -1395    -1086 
    -624      -31      510      810      823      640      411      280 
     287      384      555      786      969     1092     1299     1604 
    1844     1906     1835     1778     1811     1859     1877     1919 
    1948     1880     1728     1505     1203      915      736      662 
     702      874     1065     1113     1016      893      829      914 
    1274     1890     2566     3175     3729     4187     4405     4370 
    4219     3996     3658     3279     3003     2823     2693     2749 
    3116     3644     4122     4502     4769     4902     4953     4975 
    4983     4933     4782     4612     4461     4216     3917     3667 
    3338     2895     2564     2458     2478     2530     2599     2613 
    2460     2194     2048     2140     2378     2666     2925     3033 
    2997     2973     3031     3103     3166     3268     3395     3477 
    3516     3574     3662     3721     3713     3622     3396     3092 
    2902     2854     2814     2776     2776     2755     2728     2839 
    3097     3300     3320     3236     3102     2874     2618     2484 
    2429     2270     1988     1711     1493     1375     1473     1779 
    2107     2363     2650     2990     3217     3310     3449     3720 
    4106     4617     5234     5813     6153     6200     6052     5697 
    5055     4253     3421     2495     1534      760      232     -108 
    -237     -153       51      311      583      806     1012     1288 
    1604     1819     1817     1606     1332     1152     1130     1292 
    1627     2048     2407     2574     2535     2431     2408     2504 
    2691     2865     2917     2916     3007     3174     3309     3327 
    3154     2835     2578     2531     2640     2792     2948     3105 
    3219     3247     3254     3351     3500     3528     3374     3186 
    3047     2873     2655     2465     2267     1988     1677     1504 
    1614     1970     2360     2603     2682     2692     2709     2715 
    2647     2501     2302     2067     1872     1837     1959     2112 
    2254     2451     2732     3062     3362     3558     3691     3836 
    3928     3913     3909     4016     4212     4424     4494     4305 
    3956     3588     3231     2912     2700     2643     2691     2737 
    2769     2842     2923     2990     3104     3295     3507     3628 
    3557     3285     2917     2606     2404     2262     2147     2040 
    1938     1902     1975     2165     2426     2523     2287     1864 
    1424     1032      821      822      933     1156     1507     1894 
    2211     2358     2333     2261     2173     2051     1999     2097 
    2316     2634     3002     3324     3494     3417     3146     2842 
    2568     2302     2024     1747     1592     1686     1945     2164 
    2248     2246     2240     2292     2436     2623     2757     2784 
    2705     2603     2582     2609     2587     2501     2391     2270 
    2129     2005     1974     2012     2039     2125     2381     2769 
    3181     3537     3784     3900     3846     3578     3087     2439 
    1800     1300      951      840     1077     1540     2025     2481 
    2896     3176     3268     3219     3087     2895     2657     2387 
    2121     1962     2004     2198     2393     2527     2642     2783 
    2991     3298     3725     4266     4836     5312     5579     5549 
    5261     4881     4488     4055     3586     3154     2835     2646 
    2562     2576     2636     2612     2509     2540     2779     3032 
    3172     3209     3123     2919     2682     2487     2335     2139 
    1815     1351      795      294      -15     -177     -255     -213 
     -98       11      156      433      895     1468     1974     2338 
    2613     2796     2864     2877     2868     2838     2814     2795 
    2782     2852     3052     3326     3588     3762     3804     3743 
    3596     3341     3005     2686     2426     2189     1963     1776 
    1664     1665     1817     2068     2276     2374     2470     2656 
    2890     3136     3425     3719     3913     3940     3791     3485 
    3059     2555     2022     1533     1147      898      792      775 
     794      869     1004     1102     1101     1026      921      865 
     916     1007     1063     1117     1204     1297     1351     1333 
    1266     1221     1243     1334     1455     1520     1492     1439 
    1434     1518     1720     1929     1922     1667     1364     1112 
     870      645      460      263       61      -46      -20      120 
     394      796     1237     1631     1942     2175     2360     2507 
    2579     2540     2446     2430     2528     2624     2605     2478 
    2342     2290     2342     2489     2706     2922     3072     3118 
    2999     2704     2251     1627      957      487      268      157 
      93      126      279      476      591      555      339      -39 
    -447     -764     -955     -937     -689     -406     -226     -115 
    -130     -388     -813    -1168    -1335    -1418    -1496    -1486 
   -1325    -1017     -564      -51      379      695      950     1179 
    1427     1727     2042     2333     2586     2764     2854     2900 
    2908     2840     2685     2421     2000     1487     1050      709 
     342      -66     -411     -605     -637     -656     -862    -1239 
   -1622    -1938    -2216    -2489    -2709    -2763    -2607    -2276 
   -1790    -1158     -461      131      519      779      973     1076 
    1163     1389     1788     2266     2713     3082     3418     3738 
    3937     3940     3796     3642     3616     3726     3919     4214 
    4579     4916     5177     5332     5356     5236     4921     4453 
    3936     3375     2769     2158     1565     1090      809      630 
     491      417      378      338      264      108      -42      -48 
      82      258      413      520      614      779     1058     1397 
    1712     1981     2220     2473     2781     3104     3351     3496 
    3539     3444     3223     2961     2706     2449     2211     2003 
    1810     1659     1608     1701     1967     2355     2746     3078 
    3372     3665     3941     4116     4138     4086     4119     4300 
    4518     4634     4647     4596     4415     4068     3722     3528 
    3426     3342     3311     3312     3267     3146     2933     2605 
    2198     1813     1491     1195      941      764      593      410 
     343      412      475      492      560      735      930     1049 
    1138     1266     1395     1514     1662     1813     1984     2320 
    2904     3603     4235     4740     5134     5433     5613     5631 
    5487     5200     4788     4322     3939     3722     3617     3498 
    3303     3117     3069     3159     3289     3379     3346     3133 
    2783     2420     2123     1904     1729     1539     1327     1140 
     934      615      218     -124     -317     -374     -337     -192 
       0      113      190      335      483      544      511      451 
     501      714      993     1223     1360     1483     1702     1943 
    2071     2112     2121     2099     2095     2181     2305     2329 
    2253     2201     2174     2097     2035     2085     2222     2396 
    2601     2797     2932     3026     3143     3256     3281     3199 
    3097     3036     2991     2958     3012     3175     3363     3468 
    3435     3283     3090     2908     2686     2402     2123     1883 
    1675     1517     1432     1396     1351     1286     1287     1389 
    1515     1656     1822     1899     1796     1562     1247      864 
     498      243      143      221      438      694      931     1129 
    1271     1370     1443     1493     1546     1598     1556     1397 
    1235     1118      998      863      715      598      626      789 
     950     1085     1266     1449     1512     1484     1489     1555 
    1670     1813     1905     1888     1732     1436     1112      857 
     688      683      856     1088     1401     1870     2363     2740 
    3012     3158     3143     3073     3062     3113     3226     3424 
    3660     3828     3879     3879     3927     4010     4008     3861 
    3658     3504     3443     3524     3757     4035     4266     4481 
    4670     4736     4692     4635     4559     4453     4399     4394 
    4339     4215     4082     3946     3774     3584     3403     3209 
    2960     2668     2450     2390     2419     2453     2448     2345 
    2206     2194     2324     2478     2625     2824     3086     3362 
    3626     3867     4041     4102     4049     3890     3616     3250 
    2846     2411     1928     1447     1051      741      490      368 
     424      575      744      925     1086     1205     1264     1187 
     952      652      377      228      279      440      578      656 
     629      508      479      705     1101     1489     1834     2162 
    2401     2495     2505     2519     2583     2667     2660     2540 
    2414     2322     2228     2156     2133     2155     2258     2451 
    2647     2798     2938     3065     3147     3191     3241     3339 
    3444     3479     3462     3441     3413     3413     3523     3709 
    3802     3714     3567     3562     3728     3884     3870     3654 
    3244     2704     2180     1780     1530     1425     1402     1362 
    1299     1266     1188      942      564      198      -52     -148 
     -78      199      660     1121     1433     1642     1867     2165 
    2469     2660     2783     2996     3333     3702     3968     4008 
    3786     3373     2902     2488     2161     1943     1850     1824 
    1874     2126     2588     3080     3450     3668     3743     3692 
    3616     3608     3617     3572     3513     3514     3605     3744 
    3844     3861     3793     3610     3334     3029     2732     2471 
    2254     2024     1764     1568     1522     1610     1761     1944 
    2136     2281     2383     2498     2608     2658     2646     2597 
    2545     2541     2574     2595     2584     2543     2474     2367 
    2202     2000     1794     1569     1308     1079      998     1100 
    1295     1439     1424     1244      988      746      584      544 
     575      557      470      407      414      467      543      601 
     594      538      450      309      230      364      665     1000 
    1324     1629     1916     2145     2203     2046     1762     1435 
    1107      871      823      930     1044     1056      951      783 
     635      541      476      418      363      329      353      463 
     687     1044     1558     2218     2875     3374     3741     4041 
    4245     4331     4271     4043     3733     3499     3438     3511 
    3568     3492     3272     2955     2652     2462     2318     2135 
    1996     1973     1984     1951     1881     1803     1716     1634 
    1664     1893     2189     2356     2385     2398     2426     2330 
    2017     1637     1359     1191     1142     1245     1490     1836 
    2185     2498     2864     3275     3620     3874     4034     4072 
    4010     3865     3627     3370     3216     3161     3108     3034 
    2996     3019     3083     3115     3001     2714     2345     1970 
