Origin Time       2011/03/11 14:46:00
Lat.              38.103
Long.             142.860
Depth. (km)       24
Mag.              9.0
Station Code      HKD170
Station Lat.      41.7495
Station Long.     140.2510
Station Height(m) 83
Record Time       2011/03/11 14:48:08
Sampling Freq(Hz) 100Hz
Duration Time(s)  175
Dir.              U-D
Scale Factor      3920(gal)/6182761
Max. Acc. (gal)   3.362
Last Correction   2011/03/11 14:47:53
Memo.             
[...]
  -19036   -19208   -19325   -19421   -19442   -19348   -19262   -19246 
  -19228   -19214   -19280   -19398   -19470   -19519   -19592   -19613 
  -19555   -19468   -19349   -19210   -19126   -19156   -19250   -19290 
  -19296   -19363   -19447   -19470   -19467   -19502   -19597   -19708 
  -19764   -19742   -19657   -19564   -19512   -19481   -19417   -19265 
  -19010   -18734   -18453   -18109   -17807   -17648   -17507   -17337 
  -17295   -17378   -17379   -17196   -16945   -16770   -16654   -16456 
  -16211   -16109   -16110   -16039   -15956   -15993   -16093   -16147 
  -16168   -16205   -16245   -16261   -16316   -16533   -16902   -17279 
  -17596   -17884   -18186   -18516   -18852   -19174   -19515   -19873 
  -20154   -20309   -20427   -20611   -20810   -20855   -20754   -20711 
  -20803   -20910   -20940   -20927   -20901   -20810   -20627   -20423 
  -20254   -20106   -19956   -19795   -19584   -19288   -18956   -18688 
  -18500   -18301   -18024   -17746   -17570   -17425   -17212   -16965 
  -16720   -16498   -16363   -16317   -16330   -16409   -16507   -16532 
  -16488   -16445   -16392   -16283   -16189   -16167   -16130   -16076 
  -16134   -16283   -16406   -16460   -16473   -16524   -16652   -16801 
  -16960   -17161   -17362   -17505   -17567   -17569   -17565   -17584 
  -17589   -17521   -17436   -17450   -17523   -17528   -17467   -17443 
  -17515   -17599   -17575   -17488   -17449   -17421   -17311   -17163 
  -17094   -17126   -17192   -17248   -17308   -17404   -17536   -17654 
  -17700   -17711   -17757   -17779   -17704   -17637   -17699   -17778 
  -17740   -17675   -17692   -17750   -17806   -17892   -18050   -18229 
  -18269   -18144   -17991   -17908   -17898   -17874   -17764   -17638 
  -17538   -17438   -17398   -17442   -17465   -17494   -17704   -18017 
  -18146   -18090   -18082   -18187   -18297   -18384   -18536   -18759 
  -18965   -19114   -19222   -19271   -19240   -19197   -19221   -19275 
  -19313   -19369   -19493   -19678   -19864   -20045   -20278   -20489 
  -20526   -20428   -20330   -20212   -19996   -19700   -19379   -19046 
  -18712   -18443   -18289   -18203   -18135   -18115   -18111   -17982 
  -17673   -17275   -16887   -16536   -16266   -16174   -16264   -16429 
  -16630   -16911   -17242   -17528   -17724   -17835   -17903   -17998 
  -18121   -18219   -18287   -18353   -18417   -18508   -18664   -18833 
  -18958   -19071   -19170   -19212   -19187   -19106   -19028   -19038 
  -19118   -19152   -19105   -19058   -19054   -19080   -19148   -19258 
  -19430   -19698   -20003   -20266   -20460   -20592   -20715   -20849 
  -20973   -21062   -21086   -21092   -21117   -21062   -20898   -20715 
  -20538   -20362   -20192   -19997   -19788   -19629   -19514   -19439 
  -19437   -19474   -19456   -19391   -19386   -19442   -19490   -19583 
  -19799   -20049   -20210   -20314   -20490   -20803   -21221   -21658 
  -22027   -22297   -22456   -22511   -22517   -22512   -22493   -22490 
  -22532   -22562   -22519   -22438   -22319   -22120   -21855   -21508 
  -21110   -20795   -20532   -20233   -19999   -19851   -19639   -19355 
  -19133   -19001   -18857   -18655   -18465   -18366   -18372   -18381 
  -18315   -18248   -18236   -18244   -18279   -18337   -18400   -18522 
  -18713   -18898   -19073   -19232   -19278   -19271   -19365   -19481 
  -19515   -19521   -19484   -19373   -19263   -19209   -19233   -19332 
  -19473   -19659   -19865   -19995   -20026   -20034   -20061   -20098 
  -20130   -20145   -20180   -20249   -20261   -20142   -19913   -19648 
  -19440   -19323   -19287   -19268   -19162   -19007   -18911   -18804 
  -18599   -18368   -18206   -18099   -17959   -17787   -17697   -17709 
  -17740   -17769   -17815   -17853   -17886   -17992   -18181   -18357 
  -18420   -18341   -18213   -18127   -18056   -17998   -18002   -18013 
  -17976   -17929   -17878   -17814   -17769   -17721   -17657   -17619 
  -17600   -17559   -17474   -17374   -17311   -17283   -17282   -17317 
  -17387   -17501   -17618   -17662   -17650   -17688   -17830   -18020 
  -18191   -18341   -18456   -18494   -18480   -18467   -18451   -18426 
  -18416   -18405   -18363   -18292   -18226   -18229   -18298   -18338 
  -18328   -18330   -18314   -18196   -18036   -17972   -17971   -17932 
  -17887   -17876   -17798   -17568   -17274   -17064   -16965   -16963 
  -17117   -17377   -17561   -17593   -17528   -17442   -17402   -17413 
  -17458   -17584   -17804   -18025   -18204   -18387   -18585   -18768 
  -18946   -19156   -19407   -19657   -19841   -19933   -19975   -20043 
  -20152   -20262   -20376   -20548   -20783   -20985   -21054   -21042 
  -21037   -21025   -21030   -21107   -21219   -21289   -21276   -21207 
  -21112   -20923   -20576   -20137   -19689   -19233   -18803   -18465 
  -18219   -18048   -17960   -17939   -17944   -17917   -17839   -17776 
  -17770   -17794   -17880   -18086   -18370   -18654   -18909   -19092 
  -19147   -19055   -18880   -18743   -18699   -18744   -18855   -18944 
  -18998   -19114   -19285   -19440   -19566   -19672   -19781   -19900 
  -20025   -20184   -20359   -20502   -20616   -20674   -20605   -20467 
  -20397   -20413   -20440   -20447   -20438   -20410   -20327   -20201 
  -20100   -20027   -19911   -19712   -19475   -19291   -19175   -19056 
  -18912   -18813   -18830   -18897   -18867   -18739   -18649   -18643 
  -18642   -18568   -18441   -18348   -18329   -18339   -18343   -18374 
  -18551   -18910   -19289   -19562   -19778   -20017   -20279   -20462 
  -20498   -20438   -20340   -20223   -20109   -20002   -19852   -19656 
  -19520   -19508   -19582   -19681   -19706   -19610   -19497   -19413 
  -19238   -18940   -18660   -18472   -18326   -18219   -18204   -18245 
  -18255   -18259   -18318   -18400   -18463   -18537   -18667   -18868 
  -19073   -19204   -19277   -19370   -19494   -19578   -19600   -19630 
  -19709   -19808   -19847   -19795   -19768   -19829   -19905   -19985 
  -20121   -20284   -20438   -20601   -20770   -20888   -20965   -21060 
  -21102   -20971   -20733   -20542   -20429   -20388   -20432   -20475 
  -20414   -20296   -20196   -20023   -19734   -19519   -19494   -19498 
  -19430   -19419   -19553   -19693   -19734   -19795   -19978   -20196 
  -20371   -20545   -20776   -21021   -21209   -21351   -21475   -21571 
  -21647   -21672   -21616   -21548   -21549   -21655   -21834   -21978 
  -22032   -22035   -21972   -21805   -21617   -21529   -21577   -21736 
  -21965   -22191   -22320   -22386   -22521   -22697   -22767   -22769 
  -22876   -23057   -23154   -23196   -23292   -23398   -23398   -23313 
  -23234   -23169   -23136   -23149   -23089   -22873   -22579   -22298 
  -22055   -21848   -21637   -21387   -21155   -20979   -20800   -20565 
  -20282   -19985   -19718   -19464   -19146   -18763   -18438   -18246 
  -18119   -17991   -17905   -17905   -17976   -18129   -18383   -18659 
  -18853   -18966   -19051   -19104   -19089   -19025   -18983   -18994 
  -19025   -19048   -19047   -19070   -19217   -19447   -19591   -19645 
  -19747   -19899   -20009   -20099   -20260   -20499   -20756   -21000 
  -21223   -21397   -21518   -21662   -21851   -21994   -22038   -22034 
  -22022   -21962   -21819   -21653   -21551   -21501   -21428   -21335 
  -21247   -21116   -20936   -20769   -20636   -20531   -20492   -20486 
  -20394   -20197   -20014   -19897   -19792   -19689   -19651   -19694 
  -19720   -19629   -19445   -19299   -19252   -19195   -19026   -18801 
  -18614   -18471   -18312   -18136   -18005   -17928   -17869   -17841 
  -17850   -17820   -17698   -17586   -17559   -17522   -17384   -17188 
  -17000   -16868   -16812   -16773   -16716   -16729   -16830   -16900 
  -16918   -16960   -17044   -17163   -17316   -17491   -17698   -17914 
  -18053   -18079   -18074   -18153   -18315   -18454   -18516   -18549 
  -18594   -18659   -18731   -18781   -18819   -18858   -18884   -18896 
  -18903   -18911   -18944   -19008   -19086   -19171   -19204   -19140 
  -19052   -18995   -18918   -18808   -18717   -18688   -18705   -18749 
  -18836   -18926   -18923   -18814   -18670   -18540   -18404   -18245 
  -18096   -17940   -17743   -17609   -17623   -17657   -17593   -17491 
  -17403   -17291   -17181   -17121   -17082   -17006   -16876   -16794 
  -16818   -16817   -16749   -16744   -16796   -16795   -16747   -16699 
  -16653   -16637   -16716   -16911   -17140   -17289   -17359   -17431 
  -17492   -17471   -17417   -17438   -17550   -17715   -17881   -17996 
  -18070   -18133   -18185   -18246   -18321   -18370   -18407   -18481 
  -18557   -18601   -18676   -18765   -18795   -18829   -18900   -18862 
  -18693   -18568   -18496   -18403   -18367   -18401   -18402   -18368 
  -18360   -18364   -18374   -18413   -18443   -18413   -18318   -18150 
  -17929   -17747   -17647   -17611   -17630   -17710   -17832   -17928 
  -17934   -17848   -17727   -17670   -17709   -17769   -17815   -17875 
  -17944   -17984   -17961   -17875   -17758   -17646   -17564   -17506 
  -17483   -17498   -17482   -17411   -17387   -17471   -17627   -17782 
  -17868   -17915   -18011   -18114   -18135   -18114   -18123   -18111 
  -18029   -17961   -17982   -18064   -18176   -18311   -18453   -18569 
  -18596   -18512   -18386   -18238   -18043   -17827   -17586   -17298 
  -17008   -16770   -16612   -16501   -16350   -16190   -16141   -16139 
  -16010   -15792   -15662   -15641   -15635   -15595   -15554   -15567 
  -15635   -15692   -15671   -15607   -15568   -15532   -15484   -15516 
  -15654   -15811   -15941   -16096   -16326   -16583   -16768   -16881 
  -17006   -17175   -17339   -17473   -17621   -17808   -17964   -18016 
  -18001   -17981   -17899   -17717   -17563   -17532   -17576   -17592 
  -17550   -17528   -17554   -17533   -17419   -17260   -17110   -17009 
  -16932   -16835   -16761   -16746   -16740   -16722   -16709   -16659 
  -16530   -16358   -16222   -16145   -16052   -15881   -15687   -15577 
  -15566   -15570   -15574   -15655   -15806   -15926   -15959   -15953 
  -15968   -15983   -15978   -16000   -16056   -16039   -15918   -15837 
  -15850   -15823   -15709   -15593   -15534   -15562   -15628   -15613 
  -15557   -15623   -15806   -15999   -16202   -16411   -16590   -16736 
  -16851   -16957   -17061   -17141   -17249   -17415   -17565   -17655 
  -17728   -17801   -17840   -17869   -17956   -18088   -18186   -18188 
  -18096   -17998   -17976   -18016   -18048   -18049   -18078   -18174 
  -18262   -18245   -18159   -18112   -18112   -18096   -18050   -18007 
  -17992   -17997   -17955   -17829   -17680   -17592   -17569   -17561 
  -17560   -17571   -17578   -17577   -17584   -17586   -17581   -17576 
  -17574   -17622   -17738   -17850   -17917   -17945   -17950   -17968 
  -17961   -17879   -17766   -17637   -17476   -17337   -17249   -17194 
  -17179   -17178   -17161   -17166   -17195   -17187   -17155   -17120 
  -17047   -16958   -16933   -16924   -16818   -16666   -16630   -16704 
  -16751   -16718   -16693   -16736   -16755   -16655   -16514   -16447 
  -16451   -16440   -16359   -16240   -16159   -16144   -16133   -16074 
  -16014   -15999   -16041   -16170   -16350   -16475   -16495   -16453 
  -16421   -16411   -16404   -16432   -16516   -16653   -16837   -16988 
  -17065   -17128   -17178   -17196   -17238   -17357   -17566   -17835 
  -18086   -18274   -18408   -18495   -18575   -18674   -18704   -18624 
  -18572   -18612   -18632   -18557   -18430   -18291   -18111   -17892 
  -17688   -17509   -17345   -17233   -17196   -17208   -17207   -17147 
  -17042   -16943   -16879   -16858   -16904   -17019   -17110   -17116 
  -17115   -17167   -17204   -17176   -17103   -16999   -16878   -16728 
  -16523   -16343   -16268   -16262   -16289   -16374   -16550   -16804 
  -17054   -17224   -17308   -17331   -17341   -17390   -17459   -17479 
  -17474   -17545   -17669   -17752   -17816   -17934   -18095   -18227 
  -18298   -18368   -18460   -18510   -18504   -18446   -18308   -18105 
  -17864   -17625   -17480   -17424   -17362   -17302   -17320   -17383 
  -17373   -17254   -17076   -16868   -16670   -16553   -16467   -16327 
  -16208   -16199   -16265   -16357   -16446   -16522   -16634   -16809 
  -16996   -17154   -17293   -17414   -17516   -17659   -17872   -18078 
  -18241   -18447   -18760   -19102   -19388   -19592   -19686   -19718 
  -19795   -19893   -19919   -19876   -19841   -19884   -19972   -20023 
  -20060   -20132   -20193   -20190   -20149   -20100   -20010   -19880 
  -19788   -19758   -19726   -19662   -19579   -19455   -19268   -19036 
  -18805   -18619   -18504   -18426   -18313   -18155   -17992   -17841 
  -17716   -17687   -17762   -17844   -17894   -17934   -17945   -17890 
  -17812   -17809   -17869   -17893   -17891   -17914   -17957   -18063 
  -18207   -18258   -18219   -18217   -18275   -18319   -18311   -18253 
  -18176   -18154   -18223   -18318   -18379   -18408   -18437   -18524 
  -18681   -18817   -18861   -18875   -18959   -19120   -19268   -19333 
  -19370   -19457   -19547   -19575   -19623   -19769   -19973   -20185 
  -20363   -20476   -20580   -20735   -20887   -20949   -20941   -20967 
  -21043   -21080   -21073   -21100   -21180   -21253   -21288   -21363 
  -21520   -21655   -21744   -21901   -22132   -22317   -22406   -22437 
  -22448   -22475   -22561   -22681   -22738   -22733   -22770   -22833 
  -22844   -22836   -22856   -22895   -22951   -23027   -23123   -23231 
  -23326   -23386   -23437   -23542   -23689   -23781   -23814   -23851 
  -23864   -23819   -23745   -23634   -23488   -23403   -23396   -23294 
  -23020   -22750   -22611   -22507   -22340   -22138   -21936   -21772 
  -21682   -21636   -21605   -21549   -21423   -21287   -21177   -21015 
  -20808   -20696   -20747   -20867   -20922   -20873   -20763   -20622 
  -20431   -20184   -19955   -19822   -19807   -19897   -20028   -20135 
  -20207   -20256   -20301   -20354   -20375   -20357   -20402   -20573 
  -20809   -21010   -21127   -21238   -21414   -21574   -21639   -21684 
  -21833   -22079   -22274   -22286   -22130   -21943   -21832   -21792 
  -21788   -21800   -21809   -21792   -21733   -21635   -21530   -21478 
  -21485   -21443   -21310   -21195   -21136   -21093   -21079   -21050 
  -20898   -20676   -20512   -20381   -20237   -20146   -20131   -20134 
  -20110   -20069   -20065   -20075   -20018   -19906   -19804   -19739 
  -19673   -19580   -19537   -19596   -19692   -19770   -19814   -19828 
  -19840   -19863   -19881   -19889   -19894   -19912   -19956   -19974 
  -19927   -19852   -19739   -19579   -19472   -19468   -19517   -19580 
  -19615   -19564   -19411   -19211   -19052   -18976   -18953   -18948 
  -18914   -18831   -18757   -18691   -18605   -18601   -18719   -18834 
  -18889   -18942   -19009   -19080   -19151   -19174   -19146   -19094 
  -19010   -18932   -18905   -18883   -18857   -18852   -18843   -18831 
  -18857   -18888   -18876   -18867   -18909   -18968   -18997   -18996 
  -18982   -18957   -18958   -19040   -19164   -19241   -19251   -19225 
  -19198   -19174   -19140   -19126   -19185   -19321   -19455   -19519 
  -19562   -19651   -19744   -19783   -19795   -19804   -19737   -19572 
  -19448   -19425   -19373   -19236   -19140   -19196   -19314   -19311 
  -19185   -19098   -19098   -19104   -19079   -19039   -19007   -19027 
  -19087   -19094   -19040   -18982   -18877   -18671   -18437   -18282 
  -18204   -18181   -18250   -18338   -18315   -18237   -18200   -18130 
  -17977   -17861   -17867   -17945   -18068   -18243   -18408   -18530 
  -18632   -18703   -18743   -18788   -18857   -18952   -19059   -19152 
  -19248   -19422   -19672   -19850   -19897   -19957   -20134   -20338 
  -20458   -20531   -20663   -20877   -21085   -21191   -21199   -21176 
  -21191   -21257   -21294   -21263   -21193   -21113   -21067   -21005 
  -20842   -20709   -20757   -20885   -20950   -20939   -20861   -20720 
  -20571   -20427   -20264   -20159   -20157   -20159   -20112   -20038 
  -19926   -19794   -19706   -19656   -19558   -19353   -19118   -18976 
  -18938   -18962   -19016   -19058   -19052   -18990   -18952   -18995 
  -19040   -19085   -19208   -19340   -19396   -19448   -19557   -19664 
  -19719   -19775   -19882   -19976   -20015   -20038   -20038   -20000 
  -19971   -19968   -19953   -19879   -19744   -19638   -19602   -19549 
  -19477   -19476   -19518   -19473   -19319   -19126   -18959   -18858 
  -18810   -18766   -18728   -18697   -18663   -18677   -18708   -18618 
  -18426   -18264   -18146   -18051   -18000   -17964   -17891   -17780 
  -17654   -17555   -17498   -17423   -17292   -17133   -16970   -16773 
  -16553   -16404   -16340   -16276   -16197   -16121   -16035   -15986 
  -16028   -16096   -16144   -16223   -16346   -16465   -16545   -16575 
  -16623   -16769   -16954   -17105   -17286   -17534   -17764   -17926 
  -18035   -18098   -18127   -18135   -18120   -18127   -18198   -18267 
  -18251   -18184   -18162   -18223   -18317   -18343   -18295   -18299 
  -18379   -18432   -18445   -18442   -18433   -18450   -18477   -18478 
  -18496   -18580   -18665   -18640   -18523   -18424   -18407   -18485 
  -18591   -18600   -18502   -18404   -18360   -18341   -18341   -18368 
  -18404   -18451   -18475   -18421   -18350   -18331   -18276   -18121 
  -17973   -17896   -17784   -17585   -17392   -17264   -17180   -17122 
  -17055   -16975   -16917   -16821   -16604   -16331   -16130   -16026 
  -15945   -15854   -15781   -15712   -15672   -15730   -15827   -15877 
  -15903   -15931   -15956   -15981   -16006   -16034   -16040   -16012 
  -16017   -16069   -16098   -16138   -16264   -16381   -16380   -16359 
  -16434   -16546   -16623   -16689   -16760   -16830   -16875   -16843 
  -16744   -16662   -16669   -16723   -16732   -16711   -16702   -16679 
  -16636   -16582   -16528   -16524   -16566   -16569   -16513   -16487 
  -16550   -16641   -16708   -16737   -16721   -16710   -16697   -16580 
  -16398   -16296   -16249   -16142   -16033   -16034   -16085   -16075 
  -16009   -15942   -15914   -15964   -16100   -16278   -16432   -16508 
  -16518   -16534   -16584   -16631   -16698   -16864   -17097   -17297 
  -17451   -17629   -17876   -18112   -18215   -18228   -18242   -18224 
  -18194   -18252   -18376   -18489   -18585   -18623   -18545   -18419 
  -18350   -18327   -18336   -18416   -18508   -18510   -18440   -18346 
  -18216   -18052   -17889   -17765   -17709   -17672   -17555   -17387 
  -17244   -17105   -16980   -16907   -16853   -16811   -16799   -16772 
  -16742   -16786   -16876   -16910   -16878   -16848   -16857   -16895 
  -16951   -17045   -17189   -17361   -17528   -17669   -17800   -17943 
  -18066   -18181   -18326   -18372   -18215   -18007   -17916   -17917 
  -17936   -17935   -17908   -17874   -17850   -17843   -17861   -17895 
  -17940   -17999   -18014   -17932   -17802   -17729   -17738   -17740 
  -17682   -17601   -17511   -17412   -17359   -17386   -17477   -17617 
  -17748   -17826   -17887   -17958   -18027   -18096   -18153   -18207 
  -18293   -18427   -18608   -18792   -18928   -19062   -19243   -19400 
  -19474   -19519   -19594   -19679   -19729   -19740   -19723   -19715 
  -19749   -19821   -19939   -20078   -20148   -20121   -20061   -19987 
  -19895   -19801   -19689   -19576   -19520   -19465   -19331   -19201 
  -19170   -19217   -19272   -19279   -19228   -19111   -18930   -18765 
