Origin Time       2011/03/11 14:46:00
Lat.              38.103
Long.             142.860
Depth. (km)       24
Mag.              9.0
Station Code      HKD175
Station Lat.      43.6015
Station Long.     141.3882
Station Height(m) 29
Record Time       2011/03/11 14:49:04
Sampling Freq(Hz) 100Hz
Duration Time(s)  222
Dir.              N-S
Scale Factor      3920(gal)/6182761
Max. Acc. (gal)   3.394
Last Correction   2011/03/11 14:48:49
Memo.             
[...]
  -10640   -10533   -10367   -10097    -9806    -9472    -9031    -8547 
   -8094    -7667    -7330    -7241    -7435    -7817    -8325    -8881 
   -9282    -9392    -9293    -9145    -9058    -9116    -9324    -9589 
   -9790    -9826    -9670    -9407    -9154    -9007    -8982    -8975 
   -8905    -8809    -8693    -8514    -8280    -8014    -7705    -7381 
   -7112    -6940    -6867    -6889    -7077    -7521    -8144    -8802 
   -9425    -9883   -10018    -9866    -9555    -9181    -8896    -8831 
   -8934    -9093    -9293    -9568    -9858   -10070   -10201   -10274 
  -10237   -10050    -9722    -9295    -8825    -8380    -8062    -7948 
   -8031    -8295    -8708    -9162    -9571    -9931   -10221   -10406 
  -10494   -10531   -10541   -10489   -10288    -9914    -9457    -9060 
   -8850    -8847    -8926    -8965    -8966    -8976    -9010    -9066 
   -9109    -9016    -8710    -8289    -7863    -7452    -7119    -6942 
   -6936    -7104    -7407    -7733    -7929    -7925    -7803    -7647 
   -7518    -7550    -7806    -8204    -8666    -9150    -9584    -9932 
  -10216   -10395   -10361   -10086    -9648    -9106    -8501    -7981 
   -7675    -7515    -7414    -7402    -7528    -7803    -8182    -8548 
   -8802    -8899    -8820    -8670    -8611    -8676    -8835    -9091 
   -9377    -9549    -9555    -9452    -9274    -9044    -8829    -8706 
   -8689    -8699    -8671    -8649    -8706    -8857    -9091    -9366 
   -9573    -9608    -9475    -9234    -8920    -8576    -8292    -8124 
   -8048    -8060    -8197    -8419    -8661    -8927    -9210    -9453 
   -9641    -9809    -9930    -9901    -9712    -9473    -9262    -9092 
   -8982    -8868    -8631    -8282    -7944    -7726    -7678    -7799 
   -8075    -8423    -8670    -8712    -8594    -8348    -7983    -7595 
   -7285    -7066    -6929    -6892    -6976    -7134    -7329    -7631 
   -8071    -8522    -8785    -8748    -8521    -8307    -8195    -8219 
   -8389    -8579    -8671    -8725    -8792    -8813    -8803    -8863 
   -9016    -9229    -9465    -9659    -9735    -9695    -9609    -9508 
   -9433    -9487    -9658    -9840   -10043   -10264   -10329   -10213 
  -10119   -10106   -10056    -9968    -9948    -9995   -10040   -10142 
  -10372   -10621   -10784   -10927   -11091   -11184   -11153   -10997 
  -10648   -10126    -9627    -9295    -9082    -8898    -8741    -8592 
   -8353    -8040    -7800    -7636    -7411    -7116    -6860    -6656 
   -6484    -6476    -6755    -7252    -7845    -8499    -9153    -9625 
   -9816    -9845    -9767    -9556    -9384    -9430    -9610    -9836 
  -10175   -10603   -10945   -11129   -11224   -11223   -11062   -10786 
  -10448   -10017    -9556    -9193    -8933    -8736    -8585    -8449 
   -8345    -8321    -8400    -8575    -8773    -8918    -9017    -9075 
   -9118    -9302    -9688   -10104   -10351   -10320    -9991    -9427 
   -8731    -8039    -7485    -7164    -7158    -7481    -7990    -8501 
   -8926    -9259    -9584    -9994   -10426   -10754   -10944   -10958 
  -10718   -10311    -9964    -9788    -9732    -9711    -9666    -9593 
   -9516    -9429    -9326    -9253    -9259    -9334    -9402    -9415 
   -9434    -9498    -9571    -9665    -9783    -9840    -9804    -9712 
   -9537    -9248    -8891    -8479    -8020    -7679    -7693    -8120 
   -8784    -9452    -9998   -10334   -10436   -10405   -10297   -10101 
   -9921    -9792    -9538    -9116    -8704    -8402    -8165    -7946 
   -7757    -7639    -7552    -7426    -7322    -7350    -7484    -7636 
   -7811    -8057    -8364    -8693    -9009    -9246    -9324    -9257 
   -9155    -9085    -9041    -8981    -8822    -8566    -8312    -8059 
   -7738    -7412    -7165    -6994    -6955    -7078    -7187    -7158 
   -7117    -7165    -7276    -7552    -8095    -8729    -9281    -9784 
  -10198   -10411   -10520   -10672   -10764   -10646   -10405   -10211 
  -10061    -9883    -9730    -9682    -9691    -9712    -9811   -10011 
  -10260   -10533   -10782   -10907   -10843   -10626   -10347   -10075 
   -9838    -9643    -9452    -9159    -8727    -8284    -7945    -7741 
   -7731    -7892    -8017    -7965    -7767    -7424    -6953    -6522 
   -6227    -6003    -5838    -5843    -6074    -6458    -6950    -7602 
   -8434    -9364   -10214   -10785   -11057   -11162   -11159   -11046 
  -10899   -10755   -10546   -10282   -10041    -9803    -9549    -9401 
   -9476    -9760   -10145   -10489   -10685   -10680   -10402    -9862 
   -9252    -8752    -8379    -8140    -8120    -8322    -8642    -9061 
   -9587   -10114   -10580   -10999   -11261   -11174   -10711    -9999 
   -9147    -8282    -7568    -7051    -6700    -6568    -6696    -7009 
   -7394    -7721    -7865    -7809    -7605    -7266    -6829    -6439 
   -6247    -6279    -6508    -6957    -7588    -8224    -8720    -9075 
   -9296    -9321    -9083    -8601    -8005    -7467    -7092    -6921 
   -7005    -7336    -7794    -8300    -8843    -9401    -9905   -10222 
  -10259   -10059    -9724    -9331    -8981    -8808    -8918    -9301 
   -9846   -10425   -10928   -11253   -11361   -11262   -10952   -10487 
   -9996    -9546    -9206    -9080    -9148    -9351    -9750   -10353 
  -10982   -11421   -11528   -11243   -10637    -9934    -9361    -8974 
   -8701    -8518    -8478    -8607    -8898    -9362    -9935   -10439 
  -10722   -10746   -10521   -10084    -9557    -9092    -8739    -8476 
   -8290    -8146    -8039    -8082    -8344    -8709    -9058    -9334 
   -9422    -9276    -9010    -8737    -8518    -8425    -8505    -8732 
   -9052    -9412    -9736    -9952   -10060   -10065    -9923    -9652 
   -9382    -9201    -9108    -9118    -9258    -9468    -9657    -9784 
   -9853    -9902    -9974   -10085   -10195   -10237   -10183   -10013 
   -9700    -9231    -8580    -7799    -7051    -6419    -5910    -5615 
   -5575    -5707    -5991    -6479    -7078    -7657    -8260    -8918 
   -9477    -9851   -10145   -10374   -10442   -10435   -10511   -10602 
  -10597   -10588   -10672   -10747   -10696   -10588   -10532   -10542 
  -10616   -10717   -10721   -10573   -10331   -10068    -9866    -9790 
   -9822    -9910    -9958    -9849    -9583    -9264    -8978    -8805 
   -8845    -9100    -9424    -9708    -9971   -10245   -10527   -10806 
  -11067   -11267   -11316   -11146   -10797   -10355    -9871    -9428 
   -9131    -8987    -8927    -8870    -8738    -8514    -8252    -8008 
   -7853    -7882    -8136    -8527    -8914    -9218    -9413    -9510 
   -9596    -9749    -9950   -10077   -10009    -9778    -9470    -9084 
   -8658    -8310    -8089    -7963    -7944    -8071    -8288    -8481 
   -8632    -8809    -9064    -9430    -9918   -10415   -10754   -10918 
  -11017   -11125   -11234   -11313   -11331   -11227   -10955   -10564 
  -10156    -9821    -9651    -9668    -9785    -9945   -10162   -10378 
  -10497   -10532   -10522   -10427   -10256   -10115   -10018    -9864 
   -9600    -9248    -8860    -8552    -8506    -8792    -9282    -9799 
  -10233   -10476   -10468   -10303   -10102    -9866    -9590    -9315 
   -9027    -8717    -8454    -8285    -8200    -8190    -8253    -8378 
   -8541    -8655    -8660    -8600    -8552    -8600    -8833    -9254 
   -9784   -10294   -10645   -10772   -10669   -10378   -10006    -9592 
   -9060    -8414    -7787    -7311    -7058    -7069    -7295    -7580 
   -7800    -7924    -7974    -8004    -8050    -8101    -8163    -8260 
   -8367    -8459    -8564    -8718    -8932    -9180    -9399    -9488 
   -9355    -9046    -8668    -8273    -7976    -7913    -8061    -8310 
   -8610    -8951    -9322    -9725   -10151   -10544   -10821   -10924 
  -10837   -10596   -10273    -9889    -9457    -9095    -8961    -9125 
   -9517    -9989   -10408   -10692   -10855   -10997   -11171   -11354 
  -11508   -11588   -11574   -11485   -11339   -11144   -10958   -10850 
  -10795   -10711   -10594   -10523   -10529   -10536   -10500   -10464 
  -10447   -10451   -10496   -10545   -10540   -10442   -10204    -9840 
   -9396    -8888    -8359    -7910    -7603    -7450    -7482    -7668 
   -7886    -8069    -8249    -8479    -8797    -9233    -9756   -10220 
  -10476   -10505   -10412   -10334   -10348   -10450   -10581   -10682 
  -10721   -10709   -10676   -10637   -10585   -10496   -10385   -10297 
  -10232   -10176   -10136   -10104   -10088   -10098   -10114   -10141 
  -10201   -10246   -10240   -10240   -10241   -10207   -10221   -10339 
  -10501   -10696   -10973   -11317   -11612   -11776   -11833   -11785 
  -11624   -11400   -11124   -10750   -10296    -9848    -9503    -9296 
   -9205    -9229    -9333    -9424    -9417    -9260    -8950    -8553 
   -8171    -7878    -7723    -7747    -7933    -8231    -8647    -9171 
   -9683   -10075   -10359   -10555   -10637   -10588   -10402   -10093 
   -9715    -9351    -9060    -8848    -8715    -8669    -8673    -8693 
   -8730    -8796    -8933    -9120    -9269    -9392    -9516    -9621 
   -9746    -9918   -10064   -10131   -10161   -10257   -10518   -10937 
  -11389   -11777   -12054   -12153   -12055   -11850   -11618   -11356 
  -11043   -10668   -10225    -9738    -9293    -8972    -8777    -8705 
   -8746    -8793    -8762    -8699    -8663    -8683    -8801    -9058 
   -9408    -9748   -10038   -10293   -10526   -10692   -10693   -10486 
  -10110    -9661    -9233    -8867    -8591    -8449    -8456    -8622 
   -8939    -9363    -9837   -10325   -10807   -11252   -11620   -11916 
  -12140   -12207   -12104   -11945   -11765   -11537   -11334   -11208 
  -11108   -10988   -10855   -10687   -10430   -10079    -9666    -9206 
   -8739    -8369    -8211    -8284    -8525    -8879    -9293    -9686 
  -10032   -10363   -10666   -10923   -11173   -11414   -11548   -11542 
  -11467   -11324   -11072   -10768   -10476   -10190    -9909    -9653 
   -9409    -9172    -8986    -8902    -8950    -9102    -9291    -9480 
   -9650    -9781    -9921   -10134   -10411   -10724   -11072   -11384 
  -11554   -11573   -11508   -11406   -11249   -11033   -10808   -10595 
  -10397   -10273   -10222   -10134    -9943    -9659    -9282    -8835 
   -8402    -8078    -7896    -7833    -7882    -8042    -8282    -8559 
   -8809    -8956    -8985    -8952    -8923    -8902    -8842    -8773 
   -8786    -8889    -9045    -9242    -9426    -9482    -9379    -9172 
   -8870    -8460    -7995    -7582    -7276    -7076    -7008    -7128 
   -7405    -7744    -8126    -8580    -9072    -9568   -10088   -10577 
  -10889   -10968   -10880   -10651   -10263    -9842    -9544    -9347 
   -9241    -9347    -9663    -9996   -10221   -10357   -10420   -10359 
  -10138    -9817    -9490    -9212    -9032    -9009    -9134    -9347 
   -9609    -9900   -10178   -10419   -10648   -10861   -11008   -11092 
  -11138   -11156   -11165   -11165   -11159   -11209   -11333   -11458 
  -11505   -11443   -11279   -11030   -10712   -10364   -10069    -9888 
   -9750    -9538    -9238    -8919    -8659    -8471    -8313    -8144 
   -7912    -7614    -7324    -7083    -6896    -6813    -6836    -6862 
   -6824    -6744    -6642    -6478    -6267    -6137    -6141    -6176 
   -6200    -6259    -6360    -6498    -6700    -6964    -7213    -7374 
   -7471    -7527    -7547    -7624    -7839    -8146    -8460    -8758 
   -9046    -9293    -9488    -9666    -9828    -9947    -9992    -9935 
   -9806    -9689    -9634    -9692    -9916   -10239   -10545   -10757 
  -10829   -10792   -10717   -10636   -10587   -10562   -10449   -10204 
   -9925    -9686    -9546    -9580    -9745    -9941   -10137   -10323 
  -10516   -10688   -10758   -10667   -10381    -9961    -9576    -9291 
   -9060    -8959    -9101    -9397    -9718   -10045   -10338   -10517 
  -10614   -10761   -11014   -11331   -11686   -12018   -12204   -12204 
  -12098   -11957   -11775   -11526   -11207   -10825   -10383    -9969 
   -9737    -9740    -9916   -10226   -10633   -10990   -11191   -11271 
  -11213   -10962   -10580   -10200    -9907    -9706    -9594    -9564 
   -9543    -9513    -9570    -9717    -9835    -9886    -9891    -9819 
   -9644    -9386    -9036    -8575    -8095    -7717    -7445    -7290 
   -7336    -7546    -7759    -7881    -7953    -8043    -8189    -8449 
   -8845    -9244    -9488    -9572    -9548    -9460    -9398    -9427 
   -9506    -9535    -9500    -9467    -9452    -9449    -9467    -9390 
   -9087    -8636    -8191    -7817    -7572    -7504    -7571    -7693 
   -7852    -8067    -8364    -8782    -9300    -9803   -10216   -10533 
  -10710   -10672   -10403    -9994    -9503    -8896    -8248    -7748 
   -7421    -7173    -7016    -7032    -7257    -7664    -8188    -8732 
   -9175    -9460    -9676    -9892   -10051   -10133   -10209   -10314 
  -10414   -10459   -10426   -10290   -10046    -9739    -9383    -8956 
   -8522    -8163    -7822    -7428    -7034    -6726    -6523    -6433 
   -6463    -6572    -6767    -7112    -7552    -7956    -8270    -8481 
   -8560    -8509    -8372    -8151    -7783    -7319    -6955    -6868 
   -7113    -7600    -8109    -8447    -8631    -8824    -9119    -9475 
   -9791    -9978    -9998    -9896    -9783    -9763    -9878   -10114 
  -10417   -10726   -10981   -11145   -11205   -11173   -11081   -10968 
  -10879   -10829   -10781   -10733   -10768   -10922   -11124   -11323 
  -11517   -11688   -11810   -11896   -11959   -11981   -11997   -12108 
  -12330   -12593   -12864   -13130   -13358   -13570   -13816   -14064 
  -14266   -14399   -14466   -14523   -14562   -14465   -14199   -13812 
  -13316   -12757   -12262   -11896   -11617   -11388   -11189   -10971 
  -10699   -10393   -10059    -9670    -9213    -8696    -8131    -7566 
   -7108    -6831    -6717    -6744    -6882    -7057    -7240    -7433 
   -7637    -7871    -8138    -8405    -8627    -8754    -8779    -8742 
   -8662    -8575    -8565    -8649    -8726    -8703    -8601    -8489 
   -8367    -8191    -7970    -7748    -7533    -7360    -7258    -7165 
   -7032    -6873    -6696    -6518    -6400    -6409    -6600    -6925 
   -7276    -7597    -7839    -7959    -8047    -8198    -8393    -8585 
   -8743    -8856    -8898    -8829    -8708    -8642    -8626    -8587 
   -8542    -8500    -8363    -8116    -7880    -7705    -7559    -7433 
   -7302    -7129    -6939    -6793    -6747    -6849    -7115    -7511 
   -7962    -8355    -8596    -8650    -8560    -8433    -8370    -8412 
   -8493    -8499    -8444    -8438    -8538    -8724    -8956    -9235 
   -9510    -9661    -9665    -9569    -9371    -9084    -8768    -8466 
   -8159    -7862    -7651    -7557    -7540    -7562    -7620    -7724 
   -7871    -8042    -8203    -8296    -8291    -8268    -8352    -8519 
   -8639    -8662    -8580    -8390    -8190    -8113    -8217    -8480 
   -8818    -9168    -9549    -9955   -10338   -10670   -10943   -11167 
  -11360   -11537   -11701   -11808   -11796   -11672   -11478   -11198 
  -10838   -10476   -10114    -9750    -9484    -9345    -9223    -9039 
   -8796    -8504    -8186    -7956    -7916    -7993    -8041    -8018 
   -7927    -7767    -7608    -7531    -7509    -7484    -7437    -7341 
   -7170    -6962    -6811    -6808    -6975    -7245    -7546    -7869 
   -8229    -8600    -8926    -9173    -9337    -9427    -9477    -9544 
   -9653    -9841   -10165   -10590   -11018   -11408   -11745   -11944 
  -11935   -11760   -11492   -11140   -10681   -10142    -9594    -9080 
   -8619    -8274    -8069    -7921    -7785    -7705    -7707    -7778 
   -7891    -7964    -7953    -7929    -7943    -7951    -7924    -7914 
   -7988    -8148    -8367    -8623    -8897    -9152    -9372    -9578 
   -9781    -9935   -10003   -10017    -9974    -9766    -9386    -8953 
   -8518    -8069    -7640    -7250    -6881    -6550    -6310    -6221 
   -6346    -6695    -7182    -7680    -8063    -8242    -8216    -8075 
   -7889    -7667    -7436    -7250    -7115    -7006    -6943    -6973 
   -7071    -7184    -7298    -7354    -7279    -7142    -7086    -7186 
   -7439    -7785    -8146    -8486    -8797    -9124    -9534    -9999 
  -10413   -10725   -10923   -10932   -10740   -10480   -10252   -10076 
  -10016   -10117   -10283   -10343   -10228    -9989    -9711    -9463 
   -9301    -9204    -9093    -8953    -8826    -8714    -8624    -8568 
   -8525    -8516    -8576    -8659    -8684    -8601    -8412    -8197 
   -8050    -8007    -8068    -8170    -8210    -8172    -8129    -8116 
   -8126    -8175    -8237    -8264    -8279    -8298    -8295    -8258 
   -8194    -8122    -8065    -8065    -8167    -8349    -8528    -8630 
   -8637    -8599    -8622    -8734    -8856    -8948    -9007    -8989 
   -8900    -8784    -8655    -8519    -8396    -8323    -8336    -8418 
   -8533    -8666    -8819    -8992    -9159    -9284    -9402    -9543 
   -9660    -9733    -9793    -9852    -9945   -10092   -10237   -10319 
  -10323   -10279   -10208   -10132   -10078   -10017    -9897    -9719 
   -9513    -9336    -9240    -9250    -9379    -9603    -9834   -10008 
  -10134   -10234   -10308   -10379   -10479   -10591   -10666   -10648 
  -10509   -10271    -9968    -9647    -9363    -9122    -8878    -8569 
   -8199    -7868    -7684    -7663    -7744    -7836    -7859    -7805 
   -7729    -7664    -7645    -7748    -7987    -8262    -8508    -8754 
   -9000    -9197    -9364    -9573    -9816   -10006   -10110   -10164 
  -10191   -10194   -10172   -10122   -10043    -9919    -9731    -9528 
   -9341    -9108    -8787    -8447    -8149    -7868    -7599    -7421 
   -7367    -7368    -7415    -7596    -7927    -8339    -8783    -9269 
   -9765   -10134   -10281   -10252   -10085    -9773    -9373    -8974 
   -8595    -8186    -7781    -7520    -7460    -7552    -7747    -7956 
   -8074    -8113    -8145    -8194    -8242    -8277    -8343    -8517 
   -8798    -9123    -9451    -9741    -9940   -10067   -10186   -10271 
  -10277   -10240   -10168    -9971    -9615    -9210    -8835    -8483 
   -8192    -8004    -7856    -7680    -7528    -7503    -7587    -7719 
   -7916    -8164    -8340    -8349    -8187    -7889    -7486    -7046 
   -6696    -6500    -6414    -6443    -6637    -6940    -7264    -7622 
   -8044    -8488    -8920    -9370    -9825   -10157   -10293   -10295 
  -10230   -10149   -10149   -10326   -10685   -11203   -11886   -12648 
  -13323   -13822   -14135   -14280   -14271   -14108   -13795   -13326 
  -12713   -12051   -11474   -11024   -10643   -10306   -10007    -9684 
   -9335    -9046    -8847    -8722    -8682    -8706    -8716    -8644 
   -8484    -8279    -8082    -7979    -8072    -8351    -8666    -8901 
   -9029    -9055    -9055    -9131    -9277    -9386    -9340    -9092 
   -8680    -8190    -7720    -7373    -7199    -7192    -7322    -7535 
   -7793    -8096    -8410    -8711    -9016    -9287    -9451    -9530 
   -9606    -9702    -9823    -9992   -10170   -10312   -10432   -10498 
  -10463   -10320   -10105    -9928    -9839    -9738    -9608    -9524 
   -9470    -9435    -9472    -9590    -9712    -9788    -9812    -9805 
   -9805    -9825    -9829    -9784    -9691    -9573    -9473    -9394 
   -9288    -9150    -9035    -8983    -9000    -9062    -9152    -9275 
   -9428    -9619    -9842   -10012   -10084   -10120   -10175   -10258 
  -10344   -10398   -10390   -10284   -10112    -9983    -9909    -9829 
