Origin Time       2011/03/11 14:46:00
Lat.              38.103
Long.             142.860
Depth. (km)       24
Mag.              9.0
Station Code      HKD158
Station Lat.      41.8349
Station Long.     141.1408
Station Height(m) 7
Record Time       2011/03/11 14:47:35
Sampling Freq(Hz) 100Hz
Duration Time(s)  300
Dir.              N-S
Scale Factor      3920(gal)/6182761
Max. Acc. (gal)   48.570
Last Correction   2011/03/11 14:47:20
Memo.             
[...]
  -11693   -15102   -18079   -20736   -23412   -26505   -29813   -32823 
  -35436   -37500   -38692   -39217   -39375   -38941   -37857   -36534 
  -35118   -33359   -31045   -28210   -25029   -21410   -17027   -12062 
   -7359    -3634    -1065      230      287     -388    -1185    -1833 
   -2696    -4168    -6016    -8081   -10317   -12282   -13830   -15329 
  -16876   -18062   -18331   -17485   -16067   -14883   -14124   -13392 
  -12150   -10061    -7433    -4833    -2385       -1     2524     5405 
    8429    11348    14218    17196    20471    23919    27030    29355 
   30518    30219    28492    25436    21385    17469    14499    12072 
    9921     8420     7633     7861     9763    12466    14213    14742 
   14566    13616    11989     9955     7162     3497     -418    -4538 
   -9286   -14421   -19575   -24662   -29279   -32891   -35239   -36206 
  -35923   -34889   -33643   -32608   -32172   -32326   -32446   -32027 
  -31165   -30089   -28693   -26616   -24017   -21577   -19411   -17209 
  -14856   -12225    -9219    -5932    -2620      313     2530     3824 
    4096     3452     2183      890      258      469     1296     2481 
    3933     5668     7296     8316     8914     9548    10589    12199 
   13980    15977    18838    22022    24490    26558    28836    31098 
   32836    33687    33807    33900    34195    33957    32392    29293 
   24863    19399    13236     6775       55    -6901   -13681   -20348 
  -26831   -32566   -37893   -42845   -46364   -48076   -48192   -47254 
  -46281   -45623   -44998   -44251   -43409   -42741   -42532   -42995 
  -44236   -45837   -47070   -47426   -46527   -44196   -40809   -36960 
  -33104   -29808   -27366   -25463   -23676   -21617   -19151   -16723 
  -14737   -12924   -10615    -7580    -4279    -1091     1967     4676 
    6731     8152     8879     8677     7716     6508     5357     4216 
    3138     2560     2694     3473     5137     7750    11092    15250 
   19778    23815    27615    31452    34405    36077    36847    36463 
   35161    33916    32402    29810    26245    22049    18121    15026 
   11684     7793     3926     -665    -6073   -11376   -16736   -22230 
  -26991   -30360   -32038   -31798   -29729   -26356   -22629   -19384 
  -16490   -13434   -10365    -7881    -6548    -6607    -8019   -10768 
  -14542   -18927   -23926   -29307   -34300   -38166   -40450   -40999 
  -40240   -38993   -37650   -36209   -34684   -33010   -31219   -29550 
  -28136   -26654   -24400   -21062   -17018   -12577    -7478    -1513 
    4772    10530    15363    19115    21547    22595    22170    19884 
   15660    10086     4141    -1401    -6496   -11179   -14834   -16872 
  -17485   -17464   -17274   -16691   -15331   -12380    -7585    -2889 
     456     3080     4555     5295     6780     7800     7638     7748 
    8247     8965    10335    12033    13521    14669    15429    15309 
   14029    12155    10058     7811     5693     3176     -116    -2839 
   -4376    -5492    -6268    -6510    -6139    -5321    -4485    -3426 
   -1923     -448      239     -466    -2564    -5610    -9382   -13799 
  -18347   -22324   -25223   -26668   -26893   -26791   -26745   -26132 
  -24111   -20507   -15911   -10987    -6009    -1176     2980     5890 
    7529     7997     7078     4988     2590      599     -784    -1674 
   -2081    -1862    -1068     -372     -991    -2691    -3453    -2355 
    -190     1650     2295     2420     2226     1154      -29    -1118 
   -2665    -4136    -5309    -6396    -7462    -8767   -10316   -12110 
  -14003   -15320   -15416   -14046   -11529    -8152    -3697     1605 
    6617     9959    10816     9475     6938     4019      740    -3322 
   -8004   -12476   -15938   -18187   -19719   -20918   -21651   -21779 
  -21278   -20248   -18866   -17184   -15410   -13956   -13246   -13454 
  -13910   -13930   -13976   -14578   -15465   -16038   -15879   -15242 
  -14614   -13929   -12868   -11324    -9440    -7288    -4612    -1408 
    1868     5156     8665    12060    15186    18317    21156    23788 
   26880    29365    29856    29343    29125    28733    26374    21109 
   14791     9225     3628    -2960   -10173   -16678   -20624   -22063 
  -23102   -24305   -24887   -24772   -23748   -21808   -19759   -18398 
  -18305   -19092   -19566   -19589   -20022   -21282   -22630   -22837 
  -21530   -18818   -14724   -10134    -6326    -3854    -2896    -3289 
   -4387    -5401    -5745    -5389    -4124    -1315     2485     5718 
    7642     8617     9241     9442     8831     7632     6276     5104 
    4546     4497     4282     3564     2456     1055     -633    -2560 
   -4654    -6751    -8504    -9746   -10506   -10888   -11319   -11745 
  -11368   -10225    -8912    -7369    -5813    -4802    -4610    -5606 
   -7127    -7659    -7069    -5925    -4672    -3828    -2878    -1180 
     400      812      490      358      288     -148     -960    -2342 
   -4385    -6781    -9312   -11844   -14237   -16597   -19168   -21822 
  -23902   -24842   -24804   -24007   -22111   -19073   -15325   -11378 
   -7903    -5263    -3364    -2124    -1404    -1088    -1435    -2815 
   -5169    -7818    -9824   -10719   -10771   -10387    -9503    -7615 
   -4363       -8     4913     9721    13452    15870    17348    17530 
   16567    15461    14094    12268    10526     8800     6943     5105 
    3180     1267     -229    -1121    -1472    -1318     -704      358 
    1970     3762     4889     5012     4191     2222     -980    -5139 
  -10065   -15549   -20743   -23956   -24468   -25007   -28610   -33388 
  -36102   -37444   -38401   -38134   -37226   -36017   -33195   -29160 
  -25490   -22505   -19752   -17091   -15159   -14219   -13463   -12346 
  -10753    -8511    -5912    -3500    -1556     -194      829     1796 
    2244     1487     -284    -1999    -2851    -3129    -3347    -3134 
   -1843      396     2742     4295     4638     3887     2357      666 
    -323     -636    -1136    -1287       31     1917     3622     5708 
    7598     8971    10348    10865    10004     8790     8115     8439 
    9614    10711    11090    11185    11597    12204    12767    13216 
   13244    12453    10758     8361     5600     2781      -58    -2718 
   -4800    -6537    -8355   -10231   -12219   -14276   -15877   -16755 
  -17216   -17446   -17378   -17175   -17009   -16869   -16959   -17549 
  -18535   -19390   -19437   -18418   -16712   -15042   -14056   -13648 
  -13236   -12813   -12551   -12317   -12189   -12483   -13529   -15364 
  -17744   -20782   -24701   -29282   -34140   -38972   -43438   -46952 
  -48795   -48659   -46754   -43333   -38694   -33410   -27871   -21906 
  -15153    -7495      562     7976    14226    19492    24074    28433 
   32379    34915    35826    35853    35618    35317    34759    33409 
   31037    28263    25606    22646    18762    13606     7145      -24 
   -7257   -14369   -21011   -26663   -31434   -36029   -40599   -44306 
  -46668   -47932   -47950   -46416   -43404   -38900   -32952   -25983 
  -18490   -10969    -3895     2464     8000    12498    15721    17745 
   18669    18548    17888    16970    15517    13991    13074    12012 
    9935     7434     4958     1830    -1808    -4919    -7197    -7948 
   -6572    -4912    -4672    -5602    -7894   -11132   -13684   -15601 
  -17627   -19440   -19603   -15816    -8987    -4044    -3160    -3789 
   -4318    -5200    -5755    -5363    -4636    -3606    -2104     -804 
    -384     -594     -699     -772    -1369    -2505    -4040    -5811 
   -7661    -9885   -12628   -15656   -18975   -22744   -27013   -31390 
  -35032   -37389   -38039   -36537   -33333   -29510   -25497   -21264 
  -17100   -13261    -9584    -5993    -2932     -871      287      944 
    1448     2100     3069     4627     7473    11896    17359    23443 
   29752    35417    39763    42819    44878    45957    46001    44931 
   42649    39860    37727    36634    35745    32731    26588    19840 
   13821     7509     1913    -1626    -4059    -6280    -8247   -10151 
  -12420   -15110   -17875   -20387   -22393   -23643   -24274   -24945 
  -26159   -27832   -29762   -31957   -34362   -36746   -38928   -40646 
  -41313   -40668   -39177   -37234   -34930   -32597   -30600   -29013 
  -27851   -27009   -26192   -25366   -24705   -24076   -23266   -22342 
  -21507   -21156   -21695   -23050   -24958   -27294   -29841   -32204 
  -33757   -33768   -31884   -28299   -23536   -18294   -12952    -7096 
    -473     6203    12425    18324    23718    28490    33009    37419 
   41562    45172    47653    48351    47095    44099    39903    35023 
   28974    22012    16072    11018     5451      665    -2532    -5525 
   -7674    -7523    -6056    -4372    -2254      568     3975     7430 
   10251    12137    13373    14267    14823    15214    15786    16617 
   17379    17590    16728    14219    10172     5416       50    -6680 
  -14804   -23390   -31771   -39890   -47463   -53928   -59431   -64276 
  -67864   -69594   -69196   -66516   -62253   -57332   -52277   -47788 
  -44037   -39748   -33788   -27226   -21303   -15088    -8522    -3221 
    1166     5853    10493    14482    17614    19973    22085    24490 
   27325    30362    33250    35430    36507    36795    36838    37020 
   37576    38170    38213    37859    37118    35014    31604    27696 
   22806    17249    12300     7541     2828     -800    -3491    -5584 
   -7126    -9111   -11926   -15002   -18105   -20583   -21745   -21870 
  -20705   -17810   -14492   -11936    -9755    -7478    -5007    -2573 
    -476     1184     1812      871    -1429    -4837    -9052   -13581 
  -18170   -22508   -26382   -30062   -33600   -36691   -39211   -41027 
  -41933   -42073   -41788   -41089   -39932   -38529   -36789   -34547 
  -32123   -29735   -27275   -24697   -22181   -20237   -19158   -18457 
  -17596   -16682   -16002   -15688   -15820   -15892   -14869   -12627 
   -9868    -6636    -2490     2672     8577    14909    21432    27856 
   34030    39447    43194    45814    48130    49153    48980    48754 
   47715    45823    44599    43822    42364    39864    35935    30487 
   23935    16705     9425     2496    -4290   -11068   -17349   -22494 
  -26403   -29213   -30809   -30694   -28099   -22817   -15875    -8948 
   -3296      561     2567     2928     1720    -1073    -5046    -9627 
  -14567   -19845   -25495   -31508   -37783   -44072   -49824   -54249 
  -56732   -57090   -55410   -52079   -48129   -44726   -42273   -40467 
  -38818   -36862   -34024   -29712   -23979   -17678   -11665    -6456 
   -2334      797     3113     4432     4769     4668     4631     4896 
    5274     4973     3305      227    -3653    -7316   -10178   -12257 
  -13725   -14929   -15729   -15473   -14368   -12741   -10115    -6790 
   -3373      622     5125     9288    12978    16157    18778    21213 
   23310    24552    24768    23901    21954    19185    16068    13021 
   10049     6829     3496      780     -823    -1193     -505      770 
    2548     5122     8300    11532    14742    17998    20678    22059 
   21774    19572    15621    10267     3827    -2769    -8391   -12711 
  -16107   -18911   -20965   -22295   -23739   -26026   -28958   -31864 
  -34033   -34853   -34247   -32613   -30101   -26581   -21981   -16267 
   -9958    -4218      519     4968     9605    13968    17332    19039 
   18456    15596    11405     7021     3193      206    -2030    -3734 
   -5001    -5939    -6957    -8450   -10499   -12849   -14799   -15726 
  -15605   -14596   -12747   -10583    -9494   -10509   -13162   -16456 
  -19585   -21545   -22041   -21809   -20997   -19751   -19444   -20633 
  -22381   -23949   -24866   -25007   -24775   -24362   -23711   -22855 
  -21734   -19747   -16222   -11288    -5219     1960     9769    17743 
   25685    32711    37678    40307    40964    40230    38874    37437 
   35904    33993    31281    27390    22646    17969    14048    10849 
    7828     4647     1313    -2254    -6180   -10408   -14714   -18827 
  -22442   -25314   -27401   -28655   -28959   -28350   -27080   -25493 
  -23787   -21989   -20047   -18032   -16354   -15241   -14510   -14087 
  -13986   -14229   -14765   -15239   -15246   -14520   -13191   -11884 
  -10944   -10323    -9845    -8650    -6234    -3730    -1778       50 
     818     -433    -3244    -7732   -13812   -20382   -26894   -32832 
  -37474   -40827   -43296   -45047   -45928   -45964   -45430   -44539 
  -43486   -42113   -39882   -36479   -31888   -26401   -20696   -15241 
  -10009    -4990     -267     4125     8141    12051    16212    20455 
   24563    28546    32285    35859    39308    41960    43358    43877 
   43674    42680    41590    41234    41343    41060    40106    38502 
   36049    32660    28220    22341    15033     6833    -1878   -10627 
  -18920   -27120   -34784   -39739   -41912   -43324   -43742   -42841 
  -42469   -42595   -42047   -41488   -40890   -39636   -38280   -37127 
  -36257   -35987   -36162   -36458   -36773   -36956   -36623   -35392 
  -33126   -29904   -26146   -22667   -20094   -18328   -17075   -16488 
  -16553   -16701   -16637   -16404   -15828   -15041   -14689   -14941 
  -15355   -15595   -15395   -14699   -14028   -13701   -13533   -13739 
  -14749   -16444   -18202   -19242   -19537   -19827   -20063   -19652 
  -18586   -16737   -13525    -9136    -4856    -1427     1628     4323 
    6359     9240    14754    21954    29212    36994    45021    51534 
   57080    62648    67125    70022    71228    70084    67007    62775 
   57338    50522    42880    35120    27124    18743    10395     2146 
   -6189   -14430   -22484   -30361   -37815   -44651   -50756   -55968 
  -60276   -63669   -66003   -67237   -67469   -66804   -65275   -62933 
  -60020   -56723   -53069   -49315   -45819   -42529   -39010   -34916 
  -30172   -24858   -19334   -14002    -8902    -4169     -305     2427 
    4293     5697     6861     8040     9622    11731    14114    16483 
   18686    20498    21446    21437    21527    22965    24929    24932 
   22629    20178    18202    15706    12682     9387     5864     2365 
   -1542    -6270   -11406   -16781   -21582   -23819   -23713   -23636 
  -23322   -21188   -18764   -17659   -16999   -16444   -16114   -15449 
  -14432   -13110   -11107    -8398    -5146    -1597     1709     4349 
    6217     7451     8296     8856     9211     9412     9269     8657 
    7597     6205     4793     3445     1827     -291    -2873    -5840 
   -8961   -11962   -15016   -18277   -21396   -24190   -26683   -28819 
  -30773   -32569   -33785   -34430   -34866   -34896   -34372   -33481 
  -31806   -28866   -24870   -20364   -16041   -12268    -8826    -5449 
   -1949     1647     4756     6832     7931     8364     8594     9333 
   10948    12890    14276    14739    14412    13809    13763    14103 
   13447    12072    11394    10619     9015     7503     5698     2888 
    -576    -4620    -8837   -12134   -13837   -14229   -13789   -12617 
  -11462   -11167   -11414   -11867   -12560   -13027   -12691   -11457 
   -9590    -7605    -6091    -5370    -5489    -6234    -6936    -6727 
   -4899    -1071     4534    11305    18554    25385    31026    35158 
   37627    38358    37350    34725    31128    27383    23765    20138 
   16118    11156     5116    -1734    -8974   -15866   -21699   -26340 
  -30156   -33331   -35609   -36916   -37337   -36949   -36535   -36896 
  -37588   -38078   -38499   -38367   -37252   -35912   -34822   -34103 
  -34323   -35373   -36496   -37161   -36937   -35731   -33729   -30625 
  -26121   -21011   -16531   -13111   -10318    -7557    -4570    -1134 
    3144     8416    14572    21194    27434    32598    36373    38462 
   38495    36310    32577    28522    24630    20838    17333    14041 
   10925     8575     7178     6376     6015     5803     5529     5350 
    5151     4831     4535     4087     3168     1699      -10    -1459 
   -2705    -4150    -5557    -6597    -7725    -9496   -11979   -14953 
  -18168   -21863   -26626   -32472   -38785   -44841   -50177   -54622 
  -57705   -58722   -57296   -53204   -46719   -38869   -30636   -22887 
  -16246   -10370    -4851       40     4234     7901    10924    13093 
   14173    14076    13190    12049    10947     9953     9019     8006 
    6782     5343     3493     1188     -490     -700     -536    -1034 
   -1436     -909      309     1725     3005     3992     4720     5144 
    5168     4875     4377     3585     2227       36    -2848    -5912 
   -9071   -12707   -16792   -20892   -24789   -28423   -31830   -35191 
  -37893   -38897   -38733   -38357   -37256   -34933   -31490   -26819 
  -21281   -15645   -10336    -5545    -1232     2548     5419     7127 
    7505     6504     4367     1401    -2116    -5843    -9311   -12077 
  -13949   -14793   -14606   -13528   -11395    -8035    -3830      474 
    4208     7098     9511    12001    14270    15470    15463    14616 
   13199    11575     9507     6180     1894    -2290    -5961    -9189 
  -12220   -14963   -16956   -18187   -18959   -19771   -20981   -22080 
  -22482   -22090   -20980   -19448   -17692   -15429   -12401    -9040 
   -5952    -3038      217     4316     8892    12855    16583    19994 
   20983    20027    18862    16696    13856    11496     9121     6685 
    4302     1645    -1250    -4285    -7152    -9741   -12423   -14961 
  -16783   -17933   -18381   -17795   -16236   -13860   -10924    -7943 
   -5053    -2279      108     1997     3241     3858     4539     5734 
    7093     8316     9384    10093    10130     9617     9211     8935 
    7828     5771     3550     1339     -652    -1882    -2500    -2782 
   -2496    -1709     -997     -776    -1145    -2016    -3068    -3966 
   -4764    -5805    -6968    -7498    -7053    -6284    -5862    -5735 
   -5747    -5944    -6385    -7282    -8739   -10516   -12337   -13985 
  -15182   -15372   -13938   -11508    -9183    -6474    -3409    -1201 
     532     1972     2185     1598      694     -983    -3547    -6669 
   -9877   -12864   -15424   -17415   -18880   -19670   -19614   -18887 
  -17727   -16227   -14467   -12684   -11390   -11062   -11760   -13407 
  -15779   -18119   -19784   -20600   -20447   -19585   -18333   -16479 
  -14184   -11777    -8781    -4762       31     5108     9803    13369 
   15272    15409    14318    12717    11113    10152    10183    10650 
   11032    11396    11438    10636     9494     8688     7832     7080 
    7220     7192     6029     5308     5084     3303      699    -1086 
   -2340    -3083    -3828    -6018    -9643   -13732   -17767   -21684 
  -25817   -30502   -35262   -38997   -41196   -42133   -42111   -41443 
  -40659   -39988   -39271   -38588   -38054   -37529   -37022   -36504 
  -35740   -34775   -33774   -32689   -31209   -28856   -25675   -22290 
  -18943   -15596   -12514    -9955    -8013    -6689    -5753    -5101 
   -4981    -5477    -6277    -6838    -6687    -5750    -4331    -2704 
    -927      894     2711     4796     7244     9701    11810    13517 
   14846    15608    15890    16144    16030    14694    12235     9046 
    5144     1804      768     1191     1553     2605     4511     5602 
    5976     6865     7993     9662    12775    16499    19773    22383 
   24125    25115    25645    25591    24741    23108    20883    18117 
