Origin Time       2011/03/11 14:46:00
Lat.              38.103
Long.             142.860
Depth. (km)       24
Mag.              9.0
Station Code      HKD143
Station Lat.      42.9793
Station Long.     140.5093
Station Height(m) 5
Record Time       2011/03/11 14:49:12
Sampling Freq(Hz) 100Hz
Duration Time(s)  131
Dir.              E-W
Scale Factor      3920(gal)/6182761
Max. Acc. (gal)   5.022
Last Correction   2011/03/11 14:48:57
Memo.             
[...]
    -518     -222        9      148      109      -98     -375     -675 
    -905    -1043    -1198    -1391    -1663    -2041    -2406    -2806 
   -3349    -3893    -4359    -4772    -5051    -5162    -5128    -5007 
   -4873    -4674    -4418    -4202    -3949    -3640    -3395    -3222 
   -3089    -2943    -2736    -2595    -2606    -2711    -2902    -3102 
   -3211    -3371    -3624    -3791    -3898    -4029    -4078    -4010 
   -3878    -3765    -3736    -3660    -3470    -3248    -2952    -2606 
   -2384    -2323    -2392    -2541    -2626    -2679    -2842    -3044 
   -3297    -3628    -3814    -3844    -3802    -3589    -3302    -3036 
   -2713    -2417    -2171    -1919    -1698    -1361     -887     -588 
    -452     -267     -217     -423     -708     -965    -1078    -1096 
   -1281    -1519    -1624    -1796    -2140    -2646    -3316    -3948 
   -4436    -4838    -5099    -5236    -5298    -5268    -5284    -5364 
   -5357    -5337    -5374    -5387    -5397    -5387    -5280    -5179 
   -5199    -5332    -5568    -5831    -6029    -6203    -6322    -6310 
   -6276    -6249    -6143    -6064    -6060    -6019    -5953    -5878 
   -5761    -5628    -5450    -5256    -5145    -5048    -4880    -4673 
   -4449    -4264    -4150    -3982    -3717    -3510    -3433    -3350 
   -3161    -2959    -2850    -2766    -2585    -2323    -2112    -2016 
   -2001    -1982    -1867    -1697    -1568    -1398    -1157     -999 
    -902     -812     -836     -937    -1027    -1156    -1330    -1531 
   -1778    -2051    -2303    -2473    -2515    -2480    -2457    -2387 
   -2140    -1828    -1639    -1463    -1127     -681     -290      -69 
      45      155      170       45     -110     -259     -405     -617 
    -945    -1212    -1284    -1282    -1274    -1226    -1146    -1058 
    -944     -766     -562     -383     -217      -76       82      270 
     380      425      426      298       93     -174     -558     -940 
   -1262    -1559    -1766    -1931    -2159    -2417    -2706    -3024 
   -3238    -3378    -3559    -3641    -3528    -3347    -3100    -2761 
   -2492    -2398    -2444    -2533    -2500    -2293    -1982    -1599 
   -1234     -951     -656     -343     -148      -69      -30      -58 
    -164     -350     -649     -964    -1183    -1412    -1743    -2051 
   -2292    -2614    -2964    -3163    -3280    -3402    -3490    -3580 
   -3678    -3730    -3739    -3700    -3683    -3792    -3946    -4052 
   -4153    -4206    -4112    -3964    -3940    -4006    -4014    -3998 
   -4070    -4188    -4303    -4443    -4583    -4710    -4877    -5126 
   -5451    -5766    -5985    -6153    -6321    -6452    -6510    -6439 
   -6216    -5963    -5719    -5400    -5054    -4702    -4290    -3948 
   -3749    -3548    -3318    -3175    -3140    -3127    -3085    -3033 
   -2976    -2882    -2771    -2699    -2637    -2592    -2675    -2812 
   -2793    -2627    -2440    -2284    -2200    -2189    -2197    -2220 
   -2333    -2479    -2563    -2749    -3055    -3220    -3329    -3543 
   -3689    -3777    -3858    -3793    -3732    -3839    -3938    -3969 
   -4065    -4268    -4490    -4632    -4720    -4795    -4868    -4971 
   -5011    -4954    -4920    -4839    -4611    -4353    -4077    -3735 
   -3440    -3278    -3239    -3292    -3358    -3373    -3361    -3369 
   -3421    -3471    -3385    -3195    -3099    -3041    -2918    -2822 
   -2766    -2787    -2986    -3250    -3474    -3644    -3696    -3706 
   -3769    -3807    -3811    -3838    -3839    -3724    -3576    -3600 
   -3726    -3767    -3822    -3917    -3959    -4190    -4683    -5086 
   -5375    -5770    -6174    -6428    -6547    -6620    -6673    -6567 
   -6276    -5973    -5640    -5247    -4873    -4409    -3883    -3500 
   -3212    -3031    -3066    -3126    -3071    -3041    -3088    -3156 
   -3277    -3399    -3266    -2800    -2334    -2142    -2088    -1950 
   -1659    -1287    -1045    -1000     -993    -1015    -1138    -1302 
   -1483    -1776    -2210    -2590    -2837    -3111    -3437    -3785 
   -4155    -4403    -4487    -4470    -4332    -4190    -4180    -4171 
   -4083    -3933    -3660    -3375    -3307    -3410    -3449    -3348 
   -3191    -3063    -2990    -2911    -2792    -2674    -2596    -2503 
   -2308    -2126    -2061    -1955    -1801    -1714    -1605    -1508 
   -1510    -1448    -1294    -1173    -1115    -1166    -1283    -1299 
   -1243    -1278    -1382    -1422    -1390    -1356    -1331    -1234 
   -1038     -773     -404      -19      224      467      835     1142 
    1341     1508     1630     1783     1941     1917     1767     1700 
    1699     1609     1452     1385     1426     1434     1365     1328 
    1346     1379     1387     1233      889      496      103     -222 
    -412     -587     -807    -1025    -1174    -1119     -887     -633 
    -363      -82      141      270      351      460      509      396 
     274      218       87     -142     -334     -477     -731    -1078 
   -1361    -1632    -1987    -2348    -2579    -2634    -2541    -2344 
   -2154    -2000    -1747    -1434    -1219    -1049     -828     -616 
    -469     -347     -202      -48       49       90      174      266 
     267      251      235      113      -42     -103     -143     -248 
    -362     -433     -470     -483     -516     -628     -766     -843 
    -877     -919     -963    -1001    -1111    -1354    -1597    -1815 
   -2235    -2901    -3627    -4265    -4770    -5230    -5652    -5958 
   -6186    -6271    -6159    -6010    -5874    -5746    -5639    -5452 
   -5255    -5159    -5034    -4866    -4777    -4740    -4645    -4471 
   -4317    -4231    -4162    -4149    -4237    -4333    -4318    -4184 
   -4016    -3822    -3547    -3197    -2817    -2484    -2241    -2024 
   -1846    -1775    -1801    -1883    -1983    -2113    -2222    -2231 
   -2228    -2224    -2165    -2143    -2155    -2140    -2105    -2010 
   -1923    -1922    -1891    -1807    -1779    -1819    -1871    -1979 
   -2276    -2696    -2992    -3203    -3493    -3820    -4169    -4581 
   -4970    -5235    -5390    -5449    -5398    -5281    -5096    -4820 
   -4478    -4049    -3520    -2967    -2471    -2083    -1823    -1653 
   -1511    -1346    -1171    -1096    -1116    -1151    -1292    -1544 
   -1765    -1983    -2195    -2311    -2462    -2687    -2857    -3047 
   -3279    -3454    -3659    -3886    -3995    -4011    -3984    -3936 
   -3878    -3735    -3581    -3461    -3225    -2983    -2888    -2774 
   -2676    -2726    -2731    -2682    -2754    -2794    -2784    -2944 
   -3160    -3338    -3604    -3894    -4163    -4493    -4862    -5313 
   -5845    -6279    -6576    -6715    -6709    -6741    -6740    -6568 
   -6335    -6028    -5587    -5068    -4446    -3799    -3323    -3043 
   -2863    -2739    -2658    -2630    -2669    -2725    -2815    -3110 
   -3536    -3777    -3776    -3697    -3626    -3561    -3462    -3329 
   -3170    -2986    -2858    -2756    -2576    -2419    -2352    -2216 
   -2003    -1906    -1979    -2089    -2126    -2049    -1915    -1853 
   -1859    -1901    -2023    -2137    -2196    -2331    -2581    -2883 
   -3152    -3313    -3457    -3689    -3972    -4295    -4636    -4820 
   -4841    -4946    -5175    -5376    -5491    -5546    -5615    -5685 
   -5663    -5610    -5575    -5479    -5385    -5364    -5341    -5338 
   -5348    -5305    -5356    -5545    -5674    -5732    -5847    -6024 
   -6250    -6465    -6544    -6522    -6492    -6421    -6224    -5829 
   -5399    -5168    -4988    -4707    -4490    -4383    -4313    -4292 
   -4289    -4316    -4328    -4198    -4088    -4153    -4264    -4414 
   -4605    -4695    -4714    -4759    -4827    -4885    -4848    -4735 
   -4745    -4867    -4894    -4899    -5041    -5266    -5505    -5695 
   -5862    -6134    -6311    -6206    -6094    -6024    -5737    -5250 
   -4654    -4027    -3550    -3148    -2665    -2251    -1948    -1672 
   -1497    -1322    -1051     -891     -819     -648     -495     -486 
    -549     -600     -539     -441     -550     -787     -919     -941 
    -865     -753     -747     -752     -682     -674     -668     -506 
    -253       29      332      553      644      665      610      486 
     389      348      264       63     -200     -497     -843    -1172 
   -1425    -1668    -1971    -2250    -2417    -2533    -2593    -2513 
   -2419    -2375    -2225    -2024    -1872    -1666    -1391    -1137 
    -925     -781     -699     -596     -460     -374     -351     -326 
    -291     -290     -330     -419     -574     -797    -1009    -1112 
   -1134    -1121    -1052    -1003    -1028     -986     -820     -639 
    -440     -209      -31       82      154      224      373      528 
     560      565      646      748      856      990     1120     1200 
    1153      956      715      456      110     -298     -745    -1291 
   -1895    -2428    -2841    -3152    -3405    -3606    -3641    -3466 
   -3213    -2933    -2575    -2191    -1816    -1396     -964     -624 
    -392     -234     -174     -235     -354     -491     -689     -934 
   -1125    -1237    -1347    -1531    -1758    -1962    -2138    -2279 
   -2351    -2394    -2480    -2595    -2660    -2646    -2626    -2669 
   -2733    -2786    -2916    -3191    -3536    -3839    -4108    -4423 
   -4812    -5221    -5601    -5957    -6269    -6501    -6690    -6858 
   -6950    -6982    -6973    -6867    -6663    -6401    -6106    -5798 
   -5442    -5036    -4694    -4464    -4282    -4103    -3929    -3779 
   -3685    -3641    -3633    -3661    -3704    -3774    -3851    -3861 
   -3814    -3769    -3726    -3696    -3701    -3709    -3714    -3734 
   -3739    -3729    -3752    -3799    -3839    -3864    -3859    -3862 
   -3938    -4054    -4119    -4119    -4123    -4129    -4042    -3834 
   -3571    -3294    -2993    -2634    -2239    -1903    -1663    -1472 
   -1265    -1009     -706     -358      -18      221      368      492 
     593      705      928     1233     1495     1685     1848     1977 
    2005     1884     1673     1498     1395     1306     1236     1244 
    1320     1379     1371     1333     1298     1261     1170      935 
     608      317       52     -235     -511     -771    -1037    -1338 
   -1720    -2136    -2463    -2686    -2909    -3198    -3526    -3801 
   -3980    -4128    -4334    -4580    -4770    -4885    -4994    -5116 
   -5240    -5407    -5650    -5970    -6331    -6651    -6881    -7062 
   -7225    -7355    -7450    -7503    -7507    -7539    -7648    -7742 
   -7741    -7630    -7413    -7118    -6768    -6368    -5931    -5454 
   -4944    -4452    -3991    -3564    -3204    -2900    -2636    -2425 
   -2300    -2290    -2342    -2347    -2267    -2206    -2257    -2348 
   -2365    -2344    -2395    -2511    -2629    -2734    -2837    -2965 
   -3103    -3190    -3196    -3120    -2962    -2683    -2279    -1827 
   -1391    -1037     -794     -581     -317      -25      203      324 
     381      422      430      417      435      427      326      191 
      69      -26      -51      -85     -268     -571     -907    -1253 
   -1549    -1773    -1967    -2083    -2080    -2030    -1969    -1863 
   -1740    -1660    -1614    -1561    -1456    -1266    -1034     -812 
    -591     -388     -239     -191     -262     -372     -460     -568 
    -734     -971    -1309    -1706    -2057    -2304    -2428    -2460 
   -2501    -2601    -2697    -2727    -2711    -2689    -2687    -2724 
   -2770    -2796    -2826    -2846    -2798    -2696    -2624    -2623 
   -2666    -2708    -2705    -2627    -2451    -2180    -1857    -1512 
   -1132     -752     -475     -340     -308     -379     -528     -697 
    -888    -1091    -1258    -1403    -1554    -1692    -1797    -1845 
   -1810    -1749    -1788    -1928    -2031    -2065    -2099    -2201 
   -2405    -2626    -2786    -2901    -2955    -2956    -2958    -2954 
   -2930    -2883    -2799    -2678    -2511    -2279    -1979    -1656 
   -1376    -1137     -914     -744     -679     -681     -750     -946 
   -1196    -1439    -1727    -2065    -2438    -2838    -3196    -3500 
   -3823    -4176    -4497    -4729    -4903    -5056    -5108    -5035 
   -4900    -4715    -4502    -4296    -4079    -3883    -3756    -3677 
   -3636    -3688    -3870    -4133    -4420    -4743    -5137    -5610 
   -6088    -6466    -6736    -6961    -7161    -7287    -7246    -7019 
   -6744    -6536    -6352    -6151    -5951    -5756    -5593    -5476 
   -5384    -5370    -5449    -5505    -5471    -5373    -5237    -5063 
   -4851    -4620    -4381    -4133    -3934    -3815    -3724    -3672 
   -3692    -3758    -3886    -4095    -4346    -4596    -4775    -4843 
   -4866    -4883    -4884    -4878    -4861    -4824    -4771    -4693 
   -4598    -4504    -4402    -4305    -4267    -4285    -4279    -4259 
   -4325    -4460    -4594    -4755    -4925    -5030    -5091    -5148 
   -5173    -5118    -4944    -4683    -4414    -4139    -3856    -3655 
   -3588    -3608    -3665    -3738    -3803    -3873    -3977    -4083 
   -4162    -4215    -4216    -4169    -4082    -3927    -3743    -3581 
   -3392    -3146    -2911    -2732    -2633    -2683    -2892    -3169 
   -3449    -3771    -4190    -4697    -5263    -5854    -6429    -6962 
   -7413    -7769    -8127    -8543    -8933    -9199    -9300    -9284 
   -9278    -9327    -9399    -9509    -9670    -9843   -10013   -10200 
  -10416   -10622   -10786   -10904   -10948   -10889   -10734   -10490 
  -10192    -9879    -9531    -9163    -8859    -8652    -8508    -8417 
   -8404    -8437    -8444    -8404    -8315    -8185    -8040    -7875 
   -7626    -7244    -6773    -6298    -5823    -5303    -4770    -4270 
   -3799    -3369    -3000    -2712    -2543    -2519    -2636    -2813 
   -2953    -3061    -3173    -3266    -3326    -3388    -3431    -3372 
   -3188    -2881    -2446    -1996    -1638    -1340    -1108     -980 
    -876     -740     -596     -453     -304     -162      -52       32 
      85      100      104      124      147      130       63        6 
     -34     -115     -225     -318     -425     -593     -775     -947 
   -1155    -1331    -1334    -1181     -985     -773     -511     -162 
     276      730     1123     1446     1718     1961     2202     2396 
    2455     2413     2365     2310     2226     2113     1968     1819 
    1701     1661     1759     1958     2185     2445     2684     2825 
    2942     3109     3258     3292     3200     3071     3000     2982 
    2974     2945     2846     2683     2541     2458     2442     2517 
    2600     2597     2552     2514     2455     2395     2402     2455 
    2461     2432     2425     2420     2395     2343     2175     1845 
    1455     1111      809      515      250      -21     -336     -567 
    -613     -618     -694     -740     -709     -677     -621     -504 
    -376     -247     -104      -20      -39     -132     -287     -496 
    -731    -1010    -1349    -1694    -2026    -2391    -2775    -3090 
   -3300    -3418    -3476    -3592    -3784    -3915    -3976    -4035 
   -4093    -4172    -4298    -4449    -4585    -4689    -4803    -4955 
   -5090    -5109    -4976    -4778    -4609    -4479    -4408    -4355 
   -4207    -3971    -3737    -3531    -3354    -3220    -3090    -2896 
   -2703    -2632    -2738    -3005    -3292    -3510    -3809    -4283 
   -4796    -5261    -5695    -6020    -6198    -6358    -6568    -6770 
   -6877    -6805    -6619    -6471    -6331    -6142    -5970    -5809 
   -5632    -5518    -5525    -5647    -5832    -5944    -5878    -5712 
   -5577    -5476    -5370    -5277    -5231    -5238    -5250    -5188 
   -5059    -4911    -4715    -4475    -4289    -4194    -4143    -4104 
   -4121    -4262    -4493    -4698    -4869    -5078    -5326    -5536 
   -5667    -5759    -5837    -5886    -5847    -5663    -5415    -5222 
   -5056    -4862    -4716    -4647    -4577    -4498    -4448    -4411 
   -4347    -4269    -4301    -4493    -4724    -4882    -4991    -5126 
   -5285    -5432    -5532    -5524    -5429    -5306    -5169    -5013 
   -4809    -4581    -4386    -4214    -3994    -3741    -3604    -3578 
   -3552    -3612    -3795    -4027    -4345    -4783    -5274    -5732 
   -6176    -6697    -7259    -7766    -8164    -8431    -8604    -8698 
   -8764    -8872    -8915    -8798    -8701    -8738    -8743    -8629 
   -8536    -8554    -8596    -8550    -8471    -8466    -8456    -8383 
   -8326    -8307    -8341    -8442    -8546    -8652    -8833    -9081 
   -9326    -9549    -9711    -9723    -9658    -9578    -9298    -8756 
   -8062    -7245    -6354    -5457    -4614    -3883    -3210    -2560 
   -1977    -1468    -1002     -581     -243       25      306      641 
    1023     1400     1744     2086     2422     2810     3230     3538 
    3769     3947     3969     3892     3797     3633     3383     3128 
    2869     2523     2165     1857     1552     1296     1100      908 
     678      399      140      -47     -136     -150     -238     -413 
    -548     -676     -828     -941    -1043    -1181    -1324    -1441 
   -1547    -1654    -1759    -1865    -1932    -1954    -2005    -2029 
   -1962    -1950    -2012    -1964    -1765    -1555    -1475    -1493 
   -1458    -1343    -1188    -1000     -798     -600     -436     -337 
    -248     -108       33       82        6     -164     -382     -626 
    -878    -1115    -1346    -1599    -1834    -2023    -2270    -2562 
   -2768    -2892    -2932    -2894    -2911    -3017    -3094    -3088 
   -3076    -3153    -3342    -3637    -4017    -4403    -4771    -5144 
   -5461    -5690    -5873    -6008    -6052    -5977    -5780    -5531 
   -5308    -5102    -4854    -4563    -4306    -4167    -4136    -4128 
   -4123    -4122    -4056    -3971    -4017    -4133    -4119    -3958 
   -3755    -3548    -3361    -3206    -2990    -2654    -2312    -2025 
   -1680    -1249     -840     -534     -378     -288     -121       41 
      79       40      -53     -193     -356     -566     -816    -1080 
   -1383    -1676    -1851    -1892    -1867    -1843    -1838    -1875 
   -1978    -2068    -2059    -2023    -1998    -1857    -1616    -1467 
   -1392    -1276    -1177    -1103     -947     -718     -495     -201 
     230      622      903     1245     1656     1974     2166     2275 
    2330     2328     2256     2205     2255     2327     2398     2536 
    2704     2803     2804     2762     2663     2376     1932     1481 
     961      325     -302     -931    -1623    -2299    -2923    -3506 
   -4030    -4461    -4835    -5188    -5363    -5309    -5237    -5196 
   -5101    -5011    -5036    -5193    -5389    -5615    -5947    -6334 
   -6716    -7086    -7390    -7610    -7766    -7844    -7841    -7796 
   -7751    -7631    -7351    -7010    -6733    -6493    -6292    -6211 
   -6155    -6044    -6035    -6146    -6217    -6237    -6261    -6276 
   -6247    -6116    -5850    -5552    -5291    -5010    -4717    -4400 
   -4007    -3698    -3616    -3693    -3880    -4102    -4300    -4593 
   -4934    -5135    -5227    -5271    -5234    -5126    -4988    -4845 
   -4698    -4526    -4302    -4106    -4027    -3947    -3811    -3692 
   -3574    -3489    -3485    -3479    -3428    -3353    -3277    -3198 
