Origin Time       2011/03/11 14:46:00
Lat.              38.103
Long.             142.860
Depth. (km)       24
Mag.              9.0
Station Code      HKD125
Station Lat.      42.7609
Station Long.     142.1344
Station Height(m) 69
Record Time       2011/03/11 14:48:03
Sampling Freq(Hz) 100Hz
Duration Time(s)  300
Dir.              E-W
Scale Factor      3920(gal)/6182761
Max. Acc. (gal)   21.480
Last Correction   2011/03/11 14:47:48
Memo.             
[...]
  -26973   -28936   -30821   -32513   -33979   -35262   -36165   -36455 
  -36075   -34913   -32881   -30104   -26815   -23319   -19988   -17110 
  -14730   -12788   -11365   -10540   -10272   -10515   -11175   -12080 
  -13072   -14025   -14799   -15304   -15507   -15365   -14913   -14255 
  -13446   -12536   -11539   -10406    -9182    -7944    -6674    -5349 
   -3973    -2573    -1317     -517     -490    -1408    -3302    -6085 
   -9502   -13187   -16829   -20187   -23041   -25226   -26653   -27304 
  -27287   -26777   -25924   -24867   -23672   -22331   -20863   -19309 
  -17681   -15999   -14357   -12897   -11670   -10640    -9779    -9090 
   -8566    -8224    -8136    -8301    -8585    -8808    -8856    -8760 
   -8708    -8928    -9559   -10637   -12180   -14157   -16410   -18691 
  -20772   -22505   -23801   -24656   -25170   -25489   -25728   -25942 
  -26111   -26130   -25855   -25207   -24162   -22670   -20703   -18323 
  -15629   -12756    -9893    -7207    -4837    -2917    -1532     -696 
    -382     -529    -1055    -1864    -2842    -3895    -4994    -6150 
   -7342    -8463    -9352    -9900   -10141   -10195   -10170   -10176 
  -10324   -10636   -11053   -11508   -11976   -12503   -13184   -14070 
  -15156   -16455   -17968   -19623   -21284   -22803   -24081   -25078 
  -25773   -26135   -26108   -25652   -24751   -23354   -21443   -19122 
  -16552   -13915   -11393    -9062    -6856    -4672    -2467     -297 
    1700     3327     4395     4841     4730     4173     3302     2237 
    1058     -203    -1577    -3117    -4841    -6657    -8357    -9693 
  -10432   -10424    -9695    -8423    -6869    -5345    -4092    -3188 
   -2600    -2247    -1963    -1523     -815       94     1103     2138 
    3100     3845     4192     4005     3288     2142      701     -825 
   -2198    -3270    -3966    -4274    -4305    -4237    -4174    -4156 
   -4230    -4461    -4892    -5516    -6317    -7312    -8479    -9689 
  -10791   -11672   -12272   -12610   -12754   -12811   -12907   -13144 
  -13545   -14032   -14466   -14685   -14503   -13793   -12611   -11153 
   -9618    -8180    -6969    -6074    -5564    -5452    -5763    -6585 
   -7857    -9362   -10967   -12436   -13470   -14085   -14360   -14386 
  -14469   -14806   -15464   -16494   -17804   -19278   -20862   -22473 
  -23995   -25280   -26174   -26575   -26432   -25713   -24339   -22146 
  -19099   -15359   -11133    -6688    -2332     1652     4976     7498 
    9255    10308    10764    10761    10341     9477     8186     6533 
    4546     2246     -308    -3078    -6063    -9254   -12602   -16012 
  -19402   -22664   -25609   -28049   -29844   -30935   -31361   -31181 
  -30476   -29350   -27858   -26098   -24271   -22481   -20672   -18745 
  -16623   -14269   -11702    -9018    -6377    -3963    -1959     -498 
     401      829      915      743      351     -193     -765    -1261 
   -1684    -2107    -2625    -3364    -4403    -5731    -7365    -9352 
  -11724   -14530   -17758   -21280   -24909   -28434   -31609   -34210 
  -36100   -37239   -37626   -37248   -36088   -34145   -31446   -28077 
  -24146   -19790   -15214   -10600    -6095    -1855     2002     5381 
    8181    10333    11823    12654    12865    12535    11771    10678 
    9317     7661     5635     3201      387    -2753    -6167    -9802 
  -13600   -17519   -21501   -25449   -29250   -32761   -35818   -38289 
  -40102   -41210   -41570   -41180   -40130   -38587   -36737   -34733 
  -32642   -30450   -28121   -25633   -23027   -20474   -18213   -16436 
  -15244   -14647   -14547   -14765   -15086   -15323   -15356   -15127 
  -14643   -14024   -13468   -13100   -12923   -12877   -12873   -12832 
  -12744   -12683   -12772   -13138   -13860   -14922   -16199   -17523 
  -18756   -19812   -20674   -21399   -22068   -22747   -23476   -24235 
  -24952   -25562   -26020   -26259   -26191   -25741   -24865   -23568 
  -21941   -20137   -18303   -16561   -15020   -13768   -12869   -12359 
  -12217   -12354   -12653   -13017   -13366   -13617   -13712   -13647 
  -13461   -13236   -13124   -13304   -13887   -14857   -16098   -17461 
  -18819   -20076   -21154   -22018   -22677   -23097   -23226   -23087 
  -22796   -22505   -22359   -22417   -22629   -22899   -23158   -23400 
  -23667   -23951   -24154   -24193   -24047   -23703   -23194   -22639 
  -22163   -21806   -21499   -21095   -20467   -19502   -18047   -16014 
  -13485   -10673    -7817    -5115    -2717     -701      928     2186 
    3084     3651     3919     3882     3515     2809     1773      391 
   -1402    -3650    -6315    -9281   -12393   -15520   -18569   -21442 
  -24008   -26119   -27650   -28524   -28721   -28314   -27473   -26382 
  -25242   -24272   -23595   -23191   -22915   -22552   -21927   -20962 
  -19679   -18182   -16602   -15077   -13726   -12618   -11758   -11082 
  -10455    -9785    -9077    -8325    -7485    -6557    -5629    -4883 
   -4535    -4755    -5610    -6985    -8633   -10307   -11877   -13343 
  -14780   -16239   -17692   -19045   -20128   -20774   -20937   -20689 
  -20146   -19478   -18883   -18525   -18458   -18628   -18897   -19046 
  -18853   -18203   -17103   -15650   -14003   -12339   -10783    -9389 
   -8192    -7217    -6423    -5678    -4816    -3699    -2247     -450 
    1623     3858     6126     8270    10098    11408    12023    11789 
   10630     8602     5866     2684     -627    -3812    -6756    -9480 
  -12103   -14756   -17503   -20316   -23120   -25880   -28558   -31021 
  -33058   -34475   -35190   -35261   -34805   -33905   -32586   -30878 
  -28871   -26687   -24452   -22252   -20125   -18078   -16054   -13938 
  -11615    -9039    -6282    -3557    -1153      665     1720     1949 
    1403      197    -1564    -3832    -6580    -9693   -12942   -16101 
  -19038   -21730   -24243   -26628   -28884   -31030   -33085   -35039 
  -36821   -38279   -39271   -39742   -39684   -39099   -37987   -36429 
  -34603   -32646   -30616   -28571   -26534   -24491   -22487   -20594 
  -18834   -17236   -15873   -14826   -14154   -13873   -13954   -14301 
  -14762   -15205   -15523   -15638   -15505   -15090   -14423   -13643 
  -12944   -12500   -12419   -12745   -13493   -14694   -16367   -18439 
  -20757   -23161   -25496   -27609   -29381   -30711   -31493   -31663 
  -31262   -30393   -29156   -27632   -25876   -23874   -21607   -19121 
  -16547   -14084   -11935   -10241    -9052    -8319    -7912    -7681 
   -7495    -7272    -7018    -6835    -6850    -7163    -7794    -8628 
   -9460   -10080   -10314   -10070    -9353    -8254    -6928    -5548 
   -4271    -3293    -2855    -3131    -4154    -5832    -7955   -10254 
  -12466   -14361   -15738   -16469   -16547   -16083   -15268   -14339 
  -13501   -12843   -12284   -11592   -10536    -9001    -7009    -4751 
   -2547     -684      650     1349     1409      902      -75    -1378 
   -2825    -4307    -5792    -7279    -8830   -10536   -12392   -14229 
  -15787   -16861   -17364   -17247   -16445   -14968   -12972   -10684 
   -8338    -6143    -4225    -2610    -1301     -304      388      757 
     753      300     -688    -2282    -4468    -7086    -9809   -12281 
  -14280   -15693   -16439   -16466   -15767   -14405   -12524   -10297 
   -7899    -5502    -3294    -1478     -243      313      224     -378 
   -1370    -2650    -4091    -5547    -6940    -8280    -9601   -10918 
  -12261   -13647   -15002   -16165   -16922   -17040   -16359   -14843 
  -12541    -9609    -6351    -3139     -314     1821     3035     3254 
    2547     1081     -833    -2825    -4664    -6311    -7825    -9271 
  -10689   -12057   -13233   -14002   -14176   -13638   -12382   -10536 
   -8345    -6110    -4099    -2558    -1729    -1748    -2588    -4155 
   -6273    -8637   -10893   -12750   -14052   -14765   -14958   -14789 
  -14389   -13840   -13237   -12680   -12241   -11944   -11706   -11312 
  -10565    -9456    -8153    -6862    -5725    -4837    -4288    -4130 
   -4334    -4871    -5749    -6941    -8350    -9834   -11210   -12251 
  -12764   -12694   -12060   -10872    -9244    -7385    -5474    -3698 
   -2263    -1282     -745     -528     -454     -383     -267     -141 
     -43       -9     -119     -469    -1102    -2029    -3223    -4581 
   -5951    -7215    -8288    -9124    -9731   -10168   -10498   -10745 
  -10887   -10885   -10770   -10643   -10600   -10687   -10899   -11172 
  -11406   -11476   -11240   -10587    -9515    -8160    -6717    -5393 
   -4401    -3889    -3862    -4178    -4621    -5008    -5239    -5294 
   -5226    -5152    -5247    -5670    -6482    -7667    -9205   -11050 
  -13091   -15153   -17040   -18579   -19673   -20320   -20607   -20654 
  -20537   -20278   -19891   -19356   -18635   -17703   -16541   -15120 
  -13488   -11814   -10327    -9265    -8789    -8886    -9388   -10033 
  -10549   -10747   -10548    -9977    -9163    -8256    -7356    -6515 
   -5717    -4858    -3818    -2551    -1110      368     1693     2674 
    3175     3166     2692     1794      492    -1140    -2966    -4871 
   -6805    -8790   -10892   -13152   -15513   -17795   -19837   -21601 
  -23097   -24365   -25488   -26513   -27426   -28176   -28689   -28878 
  -28675   -28052   -27019   -25653   -24113   -22580   -21233   -20223 
  -19558   -19039   -18391   -17390   -15876   -13775   -11157    -8286 
   -5565    -3379    -1980    -1466    -1799    -2838    -4359    -6154 
   -8044    -9815   -11249   -12253   -12890   -13291   -13596   -13955 
  -14507   -15328   -16411   -17656   -18938   -20193   -21406   -22530 
  -23505   -24324   -25037   -25660   -26135   -26326   -26029   -25056 
  -23348   -21020   -18279   -15311   -12250    -9216    -6324    -3671 
   -1342      582     2026     2940     3272     2879     1617     -539 
   -3506    -7058   -10841   -14540   -17922   -20792   -23077   -24867 
  -26270   -27309   -27948   -28130   -27782   -26837   -25193   -22712 
  -19369   -15374   -11114    -6967    -3228      -71     2425     4169 
    5054     5126     4610     3754     2719     1594      427     -807 
   -2233    -4010    -6226    -8858   -11767   -14675   -17215   -19104 
  -20228   -20499   -19799   -18219   -16164   -13957   -11729    -9728 
   -8155    -6997    -6277    -6040    -6238    -6808    -7676    -8767 
  -10069   -11622   -13442   -15479   -17661   -19966   -22369   -24784 
  -27063   -28985   -30354   -31158   -31392   -30967   -29943   -28505 
  -26846   -25177   -23658   -22363   -21303   -20386   -19523   -18746 
  -18170   -17885   -17939   -18346   -19090   -20139   -21402   -22711 
  -23940   -25049   -26059   -27000   -27842   -28488   -28853   -28912 
  -28687   -28265   -27786   -27371   -27090   -26949   -26904   -26871 
  -26739   -26380   -25641   -24451   -22924   -21230   -19506   -17954 
  -16788   -16074   -15726   -15615   -15649   -15729   -15719   -15556 
  -15323   -15162   -15196   -15505   -16112   -16984   -18080   -19361 
  -20741   -22075   -23183   -23876   -24024   -23601   -22662   -21336 
  -19818   -18318   -16999   -15901   -14927   -13962   -12921   -11702 
  -10215    -8479    -6630    -4848    -3275    -1982    -1003     -352 
      31      256      383      399      280       40     -299     -687 
   -1024    -1200    -1178    -1059    -1046    -1341    -2098    -3406 
   -5228    -7393    -9689   -11942   -14035   -15875   -17368   -18431 
  -19033   -19193   -18957   -18389   -17560   -16502   -15154   -13407 
  -11192    -8519    -5500    -2356      634     3201     5130     6280 
    6548     5865     4284     1996     -752    -3742    -6812    -9867 
  -12878   -15803   -18603   -21272   -23799   -26143   -28202   -29767 
  -30606   -30548   -29481   -27390   -24402   -20810   -16996   -13297 
   -9968    -7156    -4896    -3180    -1988    -1294    -1101    -1420 
   -2215    -3433    -5028    -6928    -9058   -11371   -13823   -16297 
  -18588   -20479   -21820   -22603   -22950   -23013   -22855   -22486 
  -21952   -21331   -20687   -20094   -19649   -19469   -19697   -20435 
  -21674   -23345   -25269   -27123   -28673   -29842   -30492   -30580 
  -30337   -29966   -29506   -28939   -28198   -27194   -25856   -24118 
  -21934   -19307   -16295   -13014    -9618    -6278    -3174     -428 
    1951     3991     5626     6702     7108     6794     5732     3936 
    1472    -1590    -5165    -9103   -13207   -17294   -21191   -24754 
  -27897   -30529   -32516   -33786   -34394   -34376   -33470   -31245 
  -27777   -23677   -19225   -14481    -9930    -5898    -2244      930 
    3356     5037     6029     6397     6316     5882     5026     3635 
    1632     -964    -4016    -7244   -10245   -12688   -14476   -15703 
  -16526   -17096   -17508   -17728   -17688   -17453   -17088   -16579 
  -15936   -15188   -14364   -13549   -12864   -12362   -11966   -11512 
  -10885   -10120    -9402    -8947    -8871    -9148    -9646   -10225 
  -10752   -11090   -11159   -10997   -10738   -10495   -10290   -10133 
  -10065   -10114   -10248   -10417   -10573   -10639   -10517   -10190 
   -9747    -9336    -9136    -9287    -9869   -10962   -12629   -14865 
  -17576   -20574   -23612   -26443   -28845   -30545   -31208   -30551 
  -28449   -25014   -20591   -15618   -10485    -5547    -1116     2617 
    5605     7917     9716    11169    12347    13189    13573    13411 
   12615    11154     9179     6868     4372     1989      -67    -1832 
   -3308    -4583    -6008    -7807   -10065   -12945   -16475   -20516 
  -24916   -29474   -33946   -38071   -41572   -44218   -45814   -46238 
  -45508   -43698   -40898   -37274   -32976   -28173   -23171   -18233 
  -13481    -9004    -4855    -1122     2030     4460     6054     6772 
    6710     5973     4500     2155    -1009    -4765    -8843   -12854 
  -16414   -19288   -21261   -22255   -22386   -21802   -20710   -19319 
  -17759   -16137   -14488   -12773   -11018    -9309    -7715    -6287 
   -5132    -4372    -4044    -4115    -4474    -4896    -5171    -5269 
   -5314    -5430    -5658    -5993    -6416    -6884    -7363    -7820 
   -8226    -8602    -9014    -9579   -10446   -11709   -13380   -15387 
  -17590   -19835   -21999   -23985   -25673   -26934   -27726   -28096 
  -28094   -27784   -27248   -26566   -25777   -24819   -23587   -22034 
  -20238   -18408   -16798   -15618   -15000   -15022   -15734   -17085 
  -18886   -20889   -22855   -24590   -25986   -27026   -27743   -28227 
  -28629   -29059   -29483   -29748   -29685   -29178   -28238   -27012 
  -25715   -24518   -23494   -22707   -22251   -22123   -22187   -22272 
  -22227   -21942   -21361   -20439   -19182   -17710   -16193   -14794 
  -13628   -12708   -11972   -11324   -10651    -9851    -8881    -7790 
   -6706    -5777    -5135    -4854    -4898    -5116    -5310    -5344 
   -5232    -5076    -4964    -4916    -4889    -4798    -4530    -4004 
   -3259    -2446    -1738    -1302    -1323    -1920    -3043    -4530 
   -6181    -7772    -9148   -10277   -11174   -11880   -12448   -12909 
  -13235   -13303   -12972   -12176   -10936    -9363    -7637    -5950 
   -4472    -3315    -2500    -1993    -1758    -1801    -2203    -3051 
   -4332    -5936    -7748    -9663   -11493   -12976   -13907   -14176 
  -13716   -12539   -10772    -8610    -6276    -4002    -1966     -261 
    1107     2169     2939     3397     3533     3420     3202     2945 
    2578     1983     1113        8    -1243    -2548    -3883    -5258 
   -6604    -7776    -8682    -9340    -9824   -10198   -10502   -10772 
  -10998   -11137   -11177   -11099   -10879   -10559   -10219    -9979 
   -9984   -10282   -10818   -11530   -12392   -13365   -14352   -15266 
  -16048   -16594   -16774   -16480   -15655   -14363   -12787   -11129 
   -9526    -8047    -6739    -5632    -4724    -4012    -3483    -3072 
   -2723    -2435    -2216    -2039    -1870    -1678    -1447    -1171 
    -897     -771     -983    -1656    -2832    -4510    -6641    -9074 
  -11554   -13801   -15603   -16846   -17502   -17645   -17415   -16930 
  -16269   -15507   -14703   -13847   -12832   -11516    -9817    -7776 
   -5570    -3439    -1555      -25     1044     1592     1640     1279 
     628     -222    -1227    -2347    -3547    -4826    -6239    -7856 
   -9672   -11566   -13368   -14915   -16121   -17008   -17646   -18100 
  -18406   -18540   -18461   -18164   -17648   -16891   -15901   -14790 
  -13739   -12875   -12234   -11776   -11426   -11111   -10748   -10232 
   -9468    -8438    -7230    -6024    -5013    -4311    -3891    -3633 
   -3393    -3056    -2575    -1943    -1177     -340      443     1019 
    1270     1118      507     -539    -1913    -3527    -5339    -7269 
   -9181   -10958   -12536   -13890   -15013   -15874   -16366   -16342 
  -15725   -14556   -12993   -11285    -9645    -8198    -7028    -6191 
   -5696    -5499    -5526    -5696    -5937    -6214    -6510    -6757 
   -6893    -6910    -6838    -6814    -7019    -7495    -8190    -9052 
   -9978   -10846   -11608   -12240   -12743   -13178   -13600   -14048 
  -14562   -15171   -15915   -16826   -17867   -18939   -19943   -20799 
  -21432   -21814   -21976   -21947   -21785   -21619   -21573   -21709 
  -22010   -22335   -22471   -22287   -21759   -20879   -19643   -18111 
  -16413   -14697   -13064   -11535   -10070    -8627    -7160    -5598 
   -3888    -2087     -364     1072     1980     2157     1504       54 
   -2002    -4394    -6898    -9237   -11096   -12383   -13172   -13602 
  -14001   -14546   -15187   -16037   -17178   -18490   -19890   -21399 
  -23025   -24699   -26332   -27837   -29133   -30190   -30954   -31331 
  -31305   -30890   -30034   -28776   -27255   -25522   -23631   -21704 
  -19802   -17967   -16285   -14806   -13502   -12296   -11088    -9807 
   -8462    -7117    -5857    -4787    -4019    -3618    -3610    -4019 
   -4863    -6107    -7653    -9372   -11137   -12834   -14376   -15697 
  -16699   -17258   -17304   -16845   -15955   -14790   -13558   -12429 
  -11468   -10658    -9979    -9436    -9019    -8712    -8476    -8188 
   -7737    -7130    -6447    -5791    -5284    -5008    -4937    -5013 
   -5211    -5548    -6098    -6957    -8124    -9482   -10890   -12224 
  -13410   -14487   -15474   -16295   -17007   -17825   -18815   -19947 
  -21213   -22500   -23701   -24803   -25679   -26129   -26062   -25510 
  -24546   -23203   -21485   -19374   -16833   -13931   -10827    -7654 
   -4579    -1773      730     2881     4602     5919     6818     7256 
    7314     7097     6673     6057     5162     3864     2080     -139 
   -2566    -4931    -7070    -8954   -10618   -12092   -13392   -14532 
  -15518   -16368   -17104   -17743   -18271   -18631   -18748   -18567 
  -18085   -17398   -16702   -16186   -15945   -15975   -16169   -16337 
  -16298   -15973   -15404   -14659   -13810   -12984   -12329   -11959 
  -11924   -12119   -12315   -12317   -12000   -11266   -10115    -8664 
   -7027    -5301    -3617    -2111     -887      -28      428      508 
     306      -43     -416     -758    -1087    -1426    -1782    -2176 
   -2616    -3094    -3622    -4235    -5006    -6061    -7513    -9388 
  -11653   -14252   -17080   -19962   -22711   -25169   -27226   -28855 
  -30131   -31167   -32005   -32624   -33017   -33170   -33050   -32643 
  -31926   -30889   -29546   -27921   -26027   -23858   -21442   -18815 
