Origin Time       2011/03/11 14:46:00
Lat.              38.103
Long.             142.860
Depth. (km)       24
Mag.              9.0
Station Code      HKD100
Station Lat.      42.2864
Station Long.     143.3120
Station Height(m) 36
Record Time       2011/03/11 14:48:40
Sampling Freq(Hz) 100Hz
Duration Time(s)  89
Dir.              E-W
Scale Factor      3920(gal)/6182761
Max. Acc. (gal)   22.112
Last Correction   2011/03/11 14:48:25
Memo.             
[...]
    1437     2749     3695     3637     2717     1717     1006       80 
   -1528    -3295    -4349    -4393    -3528    -2278    -1540    -1554 
   -1786    -1925    -1878    -1525    -1124     -698      542     2705 
    4510     5191     5266     5121     4607     3592     1930     -291 
   -2605    -4663    -6022    -6011    -4754    -3202    -1987    -1043 
     300     2491     4543     5100     4121     2309      538     -389 
    -845    -1834    -3159    -3874    -3546    -1886     1033     3828 
    5103     5042     4356     3059     1001    -1373    -3213    -4109 
   -4314    -4201    -3897    -3030    -1088     1525     3688     4612 
    4088     2487      538    -1154    -2354    -3596    -5459    -7199 
   -7624    -6451    -4015    -1159      905     1756     2074     2376 
    2469     2391     2265     1458     -391    -2432    -3674    -3925 
   -3212    -1278     1445     3685     4954     5599     5713     5240 
    3949     1484    -1715    -4545    -6214    -6292    -4722    -2284 
     -85     1399     2244     2659     2834     2796     2343     1117 
    -877    -2836    -3788    -3290    -1589      393     1867     2838 
    3579     4150     4537     4733     4598     3874     2532      897 
    -511    -1218    -1361    -1542    -1704    -1174      384     2581 
    4196     4061     2471      691     -544    -1329    -2041    -2877 
   -3677    -3948    -3359    -2228     -926      526     1686     1762 
     834     -179     -589     -222      490      463     -732    -2114 
   -2696    -2411    -1395      121     1405     2026     2501     3452 
    4897     6360     7106     6497     4527     2191      857      841 
    1294     1396      735     -818    -2748    -4207    -5065    -5769 
   -6395    -6826    -6947    -6083    -3689     -449     2533     4732 
    5730     5033     3105     1387      668      471     -183    -1938 
   -4169    -5230    -4209    -1735      769     2224     2571     2507 
    2623     2883     2787     1872      264    -1346    -2364    -2685 
   -2653    -2548    -2306    -1934    -1369     -287     1098     2171 
    2927     3836     5065     6087     6138     4856     2345     -551 
   -2742    -4380    -6143    -7487    -7586    -6638    -5090    -3097 
   -1096      345     1286     2143     2935     3449     3652     3585 
    3249     2668     1684        0    -2183    -4123    -5119    -4931 
   -3956    -2609     -853     1005     2150     2108      951     -711 
   -2086    -3158    -4274    -5051    -4836    -3553    -1528      863 
    2982     4231     4858     5110     4253     1958     -880    -3184 
   -4034    -3070    -1245      154      681      765     1405     3110 
    4864     4949     2788     -413    -2746    -3121    -2146    -1670 
   -2761    -4521    -5225    -3886    -1100     1394     2492     2726 
    3370     4724     5882     6250     5819     4578     2911     1321 
    -285    -2111    -3962    -5464    -6196    -5905    -4934    -3755 
   -1994      814     4032     6540     7495     6745     5262     4131 
    3378     2437     1016     -804    -2775    -3973    -2987      -27 
    2671     3241     1733     -332    -1437    -1392    -1166    -1379 
   -1455     -722      520     1735     2738     3141     2530     1269 
     220     -242     -243       97      330     -359    -1975    -3355 
   -3398    -2122     -715     -487    -1430    -2310    -1972     -356 
    1264     1697     1103      125     -603     -221     1115     1744 
     618    -1397    -2910    -3042    -1305     1509     3490     3789 
    2953     1687      592       16     -243     -512     -671     -463 
    -166      -60      255     1067     2053     2872     3181     2649 
    1757     1542     2154     2532     1875      589     -696    -1639 
   -1599     -306     1282     1933     1345      180     -880    -1767 
   -2431    -2599    -2371    -1864     -869      512     2084     3988 
    6065     7864     9264     9864     8780     6034     2753     -266 
   -2723    -4036    -3941    -3226    -2761    -2536    -2008     -574 
    1915     4300     4844     3172      635     -911     -402     1526 
    3050     2990     1623       51     -656     -322      197      -93 
   -1131    -1520     -418     1166     2292     3309     4525     5459 
    5377     3892     1233    -1912    -4604    -5947    -5590    -3985 
   -2048     -153     1977     3952     4786     4222     2730     1183 
     445      122     -809    -1896    -1952    -1029      122     1060 
    1318      679     -358    -1425    -2486    -2929    -2187     -841 
     463     2101     4174     5798     6651     7215     7139     5533 
    2625     -618    -3628    -5639    -5669    -4127    -2279     -448 
    1426     3029     4207     4973     5199     4645     3190     1324 
    -179    -1300    -2355    -2938    -2395     -729     1202     2138 
    1689      725      -21     -618    -1234    -1839    -2452    -2904 
   -2492     -923      818     1935     2953     4354     5772     6819 
    7300     7031     6235     5317     3982     1432    -2425    -6604 
  -10031   -12427   -14013   -14739   -14178   -12089    -8783    -4836 
    -643     3423     6597     8450     9680    10651    10533     9255 
    7502     4746      489    -4144    -7806    -9652    -9243    -7295 
   -4882    -2012     1513     5122     8109     9914     9801     7393 
    3364     -958    -4280    -5635    -4917    -3204    -1766     -839 
      27     1059     2114     2521     1287    -1758    -5305    -7415 
   -6784    -3451      972     4707     7724    10633    12988    14079 
   13230     9589     3453    -3595    -9990   -14310   -15636   -14473 
  -11970    -8651    -4571       55     4860     9452    12977    14254 
   12920     9871     6583     4055     2127      133    -1889    -3161 
   -2937    -1092     1694     4405     6362     7093     6424     5088 
    3925     2829     1496       41    -1412    -2479    -2506    -1840 
   -1607    -1821    -1577     -595      811     2195     3205     3973 
    4880     5958     6702     6433     5033     3091     1240     -362 
   -2029    -4187    -6768    -9027   -10068    -9173    -6017    -1222 
    3661     7123     9016    10497    11975    12311    10584     6942 
    1725    -4485   -10258   -14083   -15297   -13904   -10718    -7477 
   -5310    -3648    -1309     2215     6217     8636     7736     4475 
    1577      610     1065      976    -1322    -5043    -7464    -6419 
   -2044     3457     7793     9943    10186     9456     8225     6091 
    2080    -4224   -10704   -13590   -11158    -4973     1845     6752 
    9317    10564    10722     9102     5958     2491     -508    -2403 
   -2720    -2131    -1438     -527      629     1793     2718     2806 
    1910      711     -313     -912     -719      -44      313      503 
    1396     3259     6063     9598    12388    12792    10845     7475 
    3644      374    -1920    -3658    -5106    -5696    -5095    -3946 
   -2727    -1651     -902      181     2047     3902     5088     5597 
    5922     7183     9410    10580     8965     4909      -20    -4397 
   -7924   -11238   -14257   -15541   -13557    -7911      116     7917 
   13360    16215    17123    15954    12120     5755    -2159   -10244 
  -16829   -20668   -21881   -20963   -17395   -10530    -1181     8206 
   14983    18241    19023    18553    16787    12849     6666     -536 
   -7235   -11998   -13702   -12407    -9379    -6092    -3552    -2192 
   -1928    -2580    -4213    -6363    -7769    -7724    -6478    -4386 
   -1568     2080     6334    10227    13078    14666    14397    11990 
    7978     3094    -1533    -4951    -7825   -11212   -14231   -14939 
  -12651    -8028    -1997     4445    10123    13886    15261    14920 
   13676    11580     8726     5579     1911    -2906    -8202   -12208 
  -13702   -12206    -7849    -2007     3504     7755    10300    11097 
   10971    10446     8946     6117     2662     -327    -1917    -1695 
    -347      661      195    -1932    -4853    -7252    -8117    -6811 
   -3874     -629     2852     6709     9890    11770    12404    11373 
    8252     3513    -1663    -6012    -8869   -10751   -12526   -13588 
  -12493    -9545    -6183    -2476     2052     6647    10329    13158 
   15201    15599    14007    11390     8736     6478     4593     2765 
     770    -1621    -4848    -9184   -13623   -16015   -15552   -13125 
   -9278    -4223     1516     7072    10997    12493    12698    13195 
   13508    11837     7891     2664    -3351    -9664   -15143   -18708 
  -19794   -18302   -14265    -7614     1078    10031    17398    22455 
   25363    25953    22817    15405     6290    -1744    -8510   -14261 
  -18395   -20488   -20144   -17235   -12622    -7387    -2266     2016 
    4734     5539     5107     4840     5414     6645     8304     9788 
   10071     8651     5714     1758    -2362    -5908    -8795   -10819 
  -11003    -8918    -5647    -2623     -172     2974     8071    13631 
   16363    15114    11742     8613     6260     3285    -1457    -7307 
  -11934   -12672    -8881    -2476     3699     7382     7927     6626 
    5672     6099     6833     6282     4255     1524    -1401    -4149 
   -6395    -7989    -8304    -6453    -2565     1728     4349     4419 
    2630      239    -1934    -4022    -6898   -10620   -13151   -12163 
   -7613    -1408     4023     7105     8298     8649     8121     6199 
    2220    -4000   -10445   -13814   -12829    -9075    -4843    -1468 
    1033     3680     7203    11174    14588    15848    13150     6937 
     359    -3857    -5182    -4499    -3628    -3938    -4361    -3315 
   -1333      452     1391      966      108      450     1733     2749 
    3337     3847     4463     5285     6086     6468     6524     6500 
    5822     3608     -184    -4959   -10008   -14474   -17557   -18904 
  -18676   -17004   -13675    -8977    -4020      314     3851     7026 
   10688    15118    19275    21500    20832    17443    12107     5881 
    -150    -5418    -9847   -13247   -14698   -12974    -7908     -446 
    7989    15245    19398    20180    18028    13439     7515      885 
   -6425   -12767   -15364   -13596    -9513    -5517    -2729     -472 
    3074     8670    14993    19542    19827    15669    10266     6690 
    4633     1954    -2251    -6819    -9698    -9821    -8264    -7065 
   -7188    -8447   -10028   -10799   -10432    -9541    -8492    -6875 
   -3950      730     6744    12591    16586    17911    16663    13664 
    9988     6131     1963    -2754    -7586   -10694   -10189    -6164 
      67     7220    13405    16641    16503    14098    10943     7874 
    4352     -728    -7148   -13099   -16935   -18477   -18628   -17991 
  -15931   -11478    -4839     2499     8498    11413    10741     7576 
    3942     1178    -1044    -3705    -6994    -9903   -10741    -8586 
   -4194      657     4189     5689     5941     6324     7693     9592 
   10230     8310     4536      789    -1149     -755      863     2321 
    3034     3050     2711     2522     2365      801    -3205    -8390 
  -12674   -15313   -16460   -16069   -14350   -12054    -9461    -6083 
   -1363     4763    11312    16396    18846    19172    17952    14551 
    8752     2024    -3856    -8328   -11863   -14558   -15391   -13277 
   -8380    -2125     3825     8432    11332    12524    12158    10447 
    7331     2345    -4199   -10175   -13353   -13563   -11668    -8128 
   -3676      477     3433     4749     4258     2166     -911    -4355 
   -7553    -9429    -9321    -8128    -6971    -5279    -1856     2829 
    7437    11371    13669    12854     8904     3081    -3316    -8656 
  -11618   -12320   -11512   -10021    -8672    -7010    -3477     2282 
    8730    14244    18225    20098    19176    15713    10203     2966 
   -4782   -11738   -17233   -19991   -18865   -14498    -8226     -870 
    6216    11227    13542    13344    11116     8360     6384     4799 
    2708      166    -2033    -3056    -2423      -44     3681     7434 
    9673     9740     7667     4219      714    -2219    -4779    -7518 
  -10879   -14279   -16308   -15889   -13152    -9056    -4060     1485 
    6532    10348    12709    13296    12279    10365     7903     5106 
    2432      109    -1550    -1570      885     5220     9401    11393 
   10529     7775     4785     2503      956      -61     -631     -500 
     594     2311     3822     4270     3329     1591       -7    -1222 
   -2622    -4451    -5753    -5273    -2956       66     2421     3262 
    3043     3131     4260     5821     6303     4755     1771    -1424 
   -3898    -5399    -6519    -8127   -10920   -14423   -16481   -15583 
  -12351    -8379    -5304    -3882    -3194    -1604     1350     4405 
    6048     6066     5546     5683     6619     7470     7330     6127 
    4169     1249    -2612    -6677   -10641   -14379   -16914   -17314 
  -15339   -11026    -5312     -282     2900     4985     6645     7389 
    6513     4289     2115     1126     1585     3265     5106     5868 
    5590     5027     4513     4246     4248     4008     2865      710 
   -1412    -2122     -853     2382     6723    10538    12919    13672 
   12142     7780     1453    -5259   -11250   -15831   -19043   -21486 
  -23008   -22708   -19830   -14230    -6547     2259    11234    19251 
   25148    27575    25081    17548     6522    -6002   -17551   -25635 
  -29433   -28980   -23585   -12951     1145    15094    25456    30325 
   29313    23619    15095     4593    -7593   -19935   -29672   -34549 
  -33630   -27154   -16912    -5887     3392    10164    15490    20464 
   24335    25323    22556    16687     9402     2243    -3897    -8212 
  -10122    -9882    -8174    -5540    -2789    -1049     -656     -937 
   -1530    -2878    -5312    -8658   -12202   -14332   -13433    -9736 
   -5315    -2166     -904     -827     -427     1328     3822     5578 
    5495     3329      304    -1514    -1354     -295       40    -1481 
   -4701    -8190   -10506   -10942    -9612    -7036    -3415     1245 
    6936    13529    20004    24557    25746    23246    18015    11770 
    6031     1267    -3208    -7831   -11772   -14029   -14405   -13243 
  -11296    -9438    -8125    -7501    -7364    -6901    -5546    -3792 
   -2246     -628     1723     5053     8934    12035    12779    10991 
    8044     5278     2915       43    -4353    -9712   -13755   -14560 
  -12251    -8677    -5838    -4268    -2715      516     5810    11757 
   16634    19893    21531    21101    18546    14604     9688     4082 
   -1146    -5076    -7484    -8271    -7977    -7590    -7164    -6219 
   -4628    -2305      709     4258     8079    10958    11226     8404 
    3455    -2116    -7231   -11947   -17035   -22200   -25620   -25759 
  -22424   -16265    -8537     -694     6548    12888    17377    18824 
   16924    12531     6795      286    -6391   -11958   -15274   -16149 
  -15215   -13034    -9225    -3271     3844    10019    13814    15193 
   14974    13943    12352     9805     5667      317    -4236    -5807 
   -3998     -440     2407     3016     2008      970      122    -1436 
   -3823    -6508    -8888    -9707    -7676    -2765     3458     8620 
   11431    12298    11959    10438     7210     2365    -2859    -7004 
   -9522   -10988   -11512    -9805    -5459     -288     3688     5715 
    5794     4340     2345      213    -2987    -7234   -10703   -12175 
  -11287    -7697    -2766      798     2543     4209     6131     6913 
    5482     1594    -3877    -8947   -11975   -12661   -11853   -10671 
   -9330    -7000    -2900     2513     7657    11217    12736    12061 
    9357     5651     2508      552    -1111    -3192    -4916    -4995 
   -2958      440     3706     5834     6874     7144     6559     4872 
    1952    -1795    -5285    -7805    -9263    -9333    -7591    -4078 
     664     5811    10420    13579    15194    15841    15612    14495 
   12886    10992     8491     4675     -750    -6838   -11845   -14742 
  -15891   -15707   -14096   -11348    -7534    -2216     4102     9945 
   13977    15523    15006    13432    11288     8493     5224     2421 
     752       28      518     2415     4283     4392     2530     -276 
   -2944    -4933    -6209    -7213    -8141    -8166    -6210    -1895 
    3948     9119    11641    11236     8884     6162     4099     1958 
   -1458    -5680    -8967    -9983    -8315    -4439      357     5020 
    9227    12454    14022    13615    10577     4492    -3139    -9799 
  -13824   -15048   -14701   -13700   -11498    -7448    -2015     3510 
    7895    10488    11178    10144     7504     3387    -1981    -8237 
  -14048   -17263   -16729   -13170    -8445    -3944     1134     8662 
   18077    26057    29614    27905    22455    16415    12041     9151 
    6143     1465    -4474    -8854    -9419    -6718    -3435    -2163 
   -2667    -2158      894     4848     7213     7040     4696     1354 
   -1349    -2921    -4095    -4890    -5251    -5920    -6645    -6770 
   -6662    -6116    -4485    -2241      139     2985     6506    10554 
   14560    17311    17910    16518    13412     8338     1563    -5130 
   -9653   -11408   -11025    -9191    -6254    -2457     2130     7579 
   13003    16738    18177    17540    14953    11067     6830     2459 
   -2132    -6401    -9246    -9703    -7766    -4502    -1004     1875 
    3122     2308      114    -2349    -4520    -6528    -8189    -8943 
   -8435    -5915     -788     5762    11453    14772    15500    14383 
   12494    10299     7283     2973    -1939    -6336    -9489   -10614 
   -9240    -5610      -28     6751    12704    15857    16055    14026 
    9791     3492    -3717   -10357   -15058   -16825   -15486   -11530 
   -5748      963     7600    13067    16720    18526    18496    16590 
   13048     8436     3257    -2219    -7509   -11846   -14566   -15396 
  -14416   -11655    -7437    -2684     1745     5248     7829    10158 
   11874    11574     8748     3982    -1232    -4730    -5796    -5657 
   -5175    -4373    -3401    -1753     1822     7197    12650    16945 
   19379    19128    16495    12712     8085     2257    -4319   -10603 
  -15940   -19490   -19848   -16766   -11778    -6479    -1811     1270 
    2074     1031     -598    -1706    -2036    -2305    -2939    -2944 
   -1252     2011     6039     9647    11612    11475     9795     7564 
    5078     1730    -2736    -7574   -11434   -12425    -9275    -3359 
    2580     7207    10374    12245    13427    14304    14277    12268 
    7815     1787    -3810    -7509    -9726   -11177   -11258    -9537 
   -6947    -4429    -1831     1454     5721    10670    14918    16737 
   16059    14525    13487    12960    12076    10025     7005     4399 
    3415     3492     2906      791    -2171    -4130    -3311      -91 
    3259     5224     6348     8063    10979    14469    17035    16770 
   12854     6718      587    -4848   -10072   -14758   -18021   -19404 
  -18055   -13149    -5752     1862     8165    12627    15608    17835 
   18701    16597    11643     6324     2960     1474      -75    -3060 
   -6706    -9096    -9018    -6609    -3233     -657      225     -116 
    -427      263     1408     1025    -1763    -5313    -7712    -8432 
   -7349    -4623    -1711     -237      -51      131     1221     3166 
