Origin Time       2011/03/11 14:46:00
Lat.              38.103
Long.             142.860
Depth. (km)       24
Mag.              9.0
Station Code      HKD127
Station Lat.      42.8743
Station Long.     141.8204
Station Height(m) 61
Record Time       2011/03/11 14:48:03
Sampling Freq(Hz) 100Hz
Duration Time(s)  300
Dir.              E-W
Scale Factor      3920(gal)/6182761
Max. Acc. (gal)   18.374
Last Correction   2011/03/11 14:47:48
Memo.             
[...]
  -19338   -21474   -23543   -25085   -25986   -26565   -27150   -27729 
  -27919   -27289   -25749   -23595   -21333   -19520   -18641   -18920 
  -19983   -20845   -20626   -19253   -17296   -15390   -13858   -12605 
  -11365   -10166    -9296    -8841    -8691    -8989   -10175   -12627 
  -16246   -20172   -23216   -24761   -24981   -24322   -23065   -21330 
  -19265   -17125   -15192   -13584   -12213   -11047   -10260   -10017 
  -10317   -11144   -12592   -14707   -17228   -19605   -21454   -22880 
  -24092   -24738   -23939   -21208   -17191   -13203   -10159    -8364 
   -8147    -9832   -13044   -16583   -19130   -20313   -21044   -22493 
  -24804   -26941   -27721   -26819   -24852   -22937   -22181   -23070 
  -25137   -27164   -27825   -26453   -23286   -19158   -15254   -12780 
  -12359   -13745   -16113   -18488   -20078   -20497   -19749   -18038 
  -15806   -13814   -12805   -13116   -14581   -16624   -18550   -19872 
  -20433   -20356   -19827   -18912   -17702   -16457   -15419   -14550 
  -13730   -13182   -13323   -14132   -15017   -15138   -13720   -10519 
   -6068    -1263     3133     6548     8515     8560     6223     1609 
   -4219    -9836   -14358   -17615   -19789   -21186   -22095   -22681 
  -23025   -23008   -22137   -19945   -16624   -13093   -10384    -9064 
   -9169   -10222   -11378   -12171   -12924   -14084   -15631   -17217 
  -18424   -18977   -18948   -18653   -18366   -17978   -16993   -15237 
  -13354   -12240   -12323   -13563   -15722   -18444   -21305   -23931 
  -26083   -27654   -28514   -28361   -26979   -24742   -22738   -22091 
  -23013   -24590   -25600   -25318   -23584   -20684   -17311   -14306 
  -12265   -11298   -11049   -10996   -10809   -10475   -10246   -10449 
  -11125   -11934   -12533   -12941   -13425   -14010   -14226   -13517 
  -11900    -9968    -8215    -6707    -5284    -3657    -1529      917 
    2775     2955     1054    -2377    -6348   -10040   -12857   -14262 
  -13943   -12083    -9417    -6908    -5025    -3491    -1986     -784 
    -609    -2154    -5677   -10801   -16739   -22667   -27936   -32096 
  -34692   -35122   -32986   -28642   -23157   -17690   -13072    -9822 
   -8231    -8349    -9974   -12620   -15544   -17966   -19373   -19708 
  -19375   -19102   -19705   -21665   -24711   -27781   -29417   -28550 
  -25218   -20504   -15715   -11719    -8869    -7161    -6348    -6149 
   -6396    -6907    -7421    -7869    -8524    -9830   -11961   -14389 
  -16166   -16684   -16034   -14854   -13770   -12856   -11856   -10778 
   -9910    -9338    -8752    -7808    -6566    -5643    -6019    -8379 
  -12404   -16840   -20247   -21820   -21713   -20692   -19700   -19567 
  -20449   -21441   -21192   -18894   -14720    -9726    -5256    -2276 
   -1180    -1807    -3640    -6145    -8744   -10816   -12106   -12969 
  -14086   -15805   -17780   -19342   -20020   -19696   -18568   -17015 
  -15582   -14837   -14819   -14959   -14907   -14971   -15509   -16196 
  -16266   -15528   -14597   -14035   -13823   -13797   -14173   -15424 
  -17649   -20387   -23187   -25870   -28100   -29224   -28663   -26387 
  -23071   -19638   -16799   -15191   -15326   -17061   -19493   -21607 
  -22983   -23747   -23922   -23326   -22100   -20855   -20222   -20337 
  -20783   -21046   -20916   -20569   -20537   -21509   -23830   -27100 
  -30212   -32002   -32100   -31120   -30116   -29911   -30619   -31658 
  -32278   -31894   -29991   -26397   -21808   -17527   -14496   -12812 
  -11990   -11359   -10348    -8844    -7307    -6421    -6688    -8173 
  -10333   -12223   -13090   -12752   -11647   -10708   -10898   -12619 
  -15440   -18294   -20179   -20923   -21180   -21684   -22671   -23787 
  -24314   -23732   -22238   -20559   -19372   -19057   -19683   -20913 
  -22017   -22287   -21630   -20658   -20090   -20270   -21339   -23398 
  -26179   -28895   -30688   -31045   -29911   -27732   -25330   -23585 
  -23015   -23272   -23185   -21694   -18713   -15056   -11664    -9005 
   -7174    -6126    -5683    -5682    -6208    -7544    -9697   -12068 
  -13837   -14634   -14706   -14512   -14255   -13877   -13449   -13255 
  -13545   -14441   -15891   -17638   -19239   -20063   -19447   -17073 
  -13331    -9301    -6172    -4682    -5008    -6836    -9478   -12190 
  -14447   -16028   -17039   -17699   -18063   -18089   -17869   -17654 
  -17695   -18042   -18524   -19031   -19678   -20538   -21328   -21426 
  -20232   -17777   -14961   -12870   -11899   -11694   -11684   -11531 
  -11318   -11349   -11775   -12542   -13396   -13792   -13239   -11801 
  -10104    -9030    -9011    -9433    -9160    -7541    -4739    -1592 
     742     1468      696     -653    -1533    -1601    -1385    -1466 
   -1769    -1851    -1518     -993     -806    -1588    -3690    -6924 
  -10768   -14661   -18147   -20929   -22777   -23480   -23068   -21908 
  -20574   -19676   -19532   -19924   -20301   -20083   -18884   -16731 
  -14046   -11354    -9103    -7635    -7052    -7144    -7624    -8387 
   -9554   -11183   -12900   -14062   -14253   -13451   -11846    -9710 
   -7484    -5855    -5476    -6566    -8863   -11942   -15392   -18687 
  -21153   -22268   -21968   -20527   -18263   -15487   -12573   -10065 
   -8618    -8547    -9532   -10884   -12005   -12793   -13627   -14849 
  -16366   -17646   -17942   -16736   -14052   -10450    -6870    -4149 
   -2664    -2656    -4446    -7975   -12602   -17522   -22100   -25760 
  -27956   -28375   -27112   -24758   -22177   -19949   -18173   -16716 
  -15446   -14376   -13734   -13916   -15193   -17255   -19166   -20050 
  -19799   -18941   -18090   -17648   -17569   -17330   -16489   -15274 
  -14601   -15480   -18088   -21472   -24408   -26348   -27477   -28197 
  -28672   -28765   -28354   -27540   -26511   -25405   -24345   -23405 
  -22506   -21479   -20289   -19163   -18461   -18396   -18929   -20006 
  -21683   -23868   -26087   -27647   -27985   -26927   -24601   -21117 
  -16650   -11824    -7641    -5023    -4358    -5224    -6660    -7822 
   -8345    -8199    -7554    -6872    -6768    -7534    -8950   -10595 
  -12296   -14231   -16657   -19729   -23487   -27522   -30687   -31665 
  -29914   -26027   -21361   -17236   -14217   -12071   -10364    -9044 
   -8433    -8746    -9657   -10360   -10343   -10152   -10986   -13531 
  -17323   -21022   -23143   -22778   -19974   -15729   -11590    -8872 
   -8065    -8865   -10508   -12200   -13507   -14487   -15526   -17068 
  -19337   -22082   -24673   -26675   -27909   -27967   -26450   -23718 
  -20885   -19018   -18330   -18190   -17996   -17613   -16973   -15982 
  -14875   -14081   -13623   -12978   -11629    -9683    -7829    -6675 
   -6293    -6455    -6972    -7780    -8994   -10829   -13246   -15784 
  -17844   -19053   -19432   -19244   -18616   -17443   -15784   -14200 
  -13466   -13952   -15588   -18247   -21746   -25627   -29284   -32194 
  -33812   -33516   -30980   -26537   -21273   -16725   -14156   -14044 
  -16145   -19643   -23390   -26259   -27415   -26592   -24081   -20462 
  -16525   -13088   -10621    -9114    -8184    -7277    -5961    -4225 
   -2579    -1924    -3117    -6246   -10395   -14420   -17777   -20348 
  -21890   -21988   -20303   -16860   -12300    -7711    -4062    -1801 
    -854     -911    -1746    -3275    -5397    -7823    -9950   -11086 
  -10853    -9297    -6871    -4392    -2687    -2354    -3803    -7054 
  -11469   -15978   -19584   -21811   -22894   -23473   -24077   -24835 
  -25419   -25298   -24186   -22275   -20139   -18296   -16831   -15638 
  -14824   -14567   -14841   -15475   -16274   -16847   -16478   -14603 
  -11309    -7166    -2941      492     2447     2740     1636     -176 
   -1735    -2544    -2899    -3282    -3922    -4855    -5964    -7121 
   -8355    -9780   -11421   -13047   -14182   -14527   -14322   -14163 
  -14628   -16008   -18145   -20597   -23045   -25409   -27639   -29488 
  -30467   -30039   -27962   -24473   -20186   -15874   -12334   -10254 
   -9949   -11263   -13797   -17119   -20778   -24271   -27043   -28594 
  -28643   -27208   -24653   -21668   -18968   -16848   -15053   -13156 
  -11100    -9340    -8498    -8960   -10619   -12781   -14416   -14813 
  -13979   -12438   -10985   -10408   -10959   -12214   -13543   -14589 
  -15431   -16409   -17744   -19199   -20159   -20081   -18722   -16130 
  -12787    -9647    -7724    -7549    -8984   -11501   -14506   -17430 
  -19743   -20981   -20912   -19767   -18267   -17270   -17232   -18092 
  -19537   -21111   -22389   -23300   -24102   -25090   -26272   -27248 
  -27690   -27848   -28196   -28865   -29704   -30465   -30640   -29578 
  -27083   -23669   -20139   -17058   -14555   -12519   -10930    -9817 
   -9066    -8588    -8478    -8967   -10441   -13248   -17278   -21808 
  -25756   -27992   -27682   -24792   -20389   -16047   -12785   -10709 
   -9504    -8946    -9113   -10236   -12239   -14495   -16142   -16566 
  -15649   -13768   -11635    -9921    -8919    -8606    -8769    -9003 
   -8930    -8512    -8143    -8301    -9014    -9748    -9891    -9276 
   -8161    -6782    -5102    -2969     -400     2205     4214     5143 
    4940     3998     2826     1638      342    -1233    -3202    -5506 
   -7845    -9715   -10590   -10337    -9531    -9230   -10229   -12372 
  -14700   -16251   -16587   -15744   -14120   -12538   -11935   -12667 
  -14219   -15527   -15604   -14145   -11608    -8766    -6268    -4527 
   -3890    -4742    -7249   -11001   -14989   -18010   -19392   -19478 
  -19217   -19162   -19018   -18150   -16217   -13295    -9652    -5536 
   -1373     1866     2958     1299    -2477    -6797   -10314   -12742 
  -14380   -15289   -15157   -13657   -10827    -7207    -3536     -427 
    1600     2048      570    -2848    -7783   -13531   -19473   -25103 
  -29747   -32474   -32464   -29622   -24931   -20028   -16158   -13540 
  -11594    -9615    -7447    -5731    -5404    -6773    -9002   -10560 
  -10530    -9546    -9022    -9605   -10823   -11859   -12338   -12501 
  -12761   -13358   -14464   -16079   -17707   -18540   -18177   -17094 
  -16341   -16706   -17980   -19053   -18949   -17786   -16528   -15982 
  -16311   -17290   -18586   -19766   -20438   -20569   -20338   -19672 
  -18356   -16502   -14657   -13538   -13493   -14184   -14971   -15434 
  -15504   -15374   -15301   -15427   -15840   -16541   -17234   -17396 
  -16619   -14792   -12082    -8932    -6043    -4224    -3982    -5216 
   -7425   -10066   -12574   -14428   -15493   -16040   -16292   -16149 
  -15369   -13893   -11970    -9993    -8345    -7546    -8143   -10110 
  -12568   -14338   -14818   -14343   -13666   -13239   -13134   -13371 
  -13835   -13956   -13077   -11238    -9197    -7686    -7034    -7141 
   -7509    -7732    -8089    -9297   -11643   -14566   -17147   -18904 
  -19924   -20437   -20571   -20399   -20048   -19735   -19626   -19727 
  -19923   -19942   -19459   -18519   -17731   -17899   -19340   -21475 
  -23217   -23864   -23480   -22572   -21573   -20594   -19564   -18467 
  -17550   -17316   -18163   -20047   -22498   -24777   -26173   -26461 
  -26041   -25530   -25291   -25440   -26056   -27040   -27972   -28363 
  -28021   -27143   -26080   -25059   -24230   -23772   -23766   -23985 
  -23863   -22856   -20912   -18536   -16594   -16093   -17699   -21120 
  -25033   -27830   -28522   -27084   -24292   -21221   -18612   -16606 
  -15020   -13691   -12649   -12087   -12231   -13303   -15383   -18143 
  -20940   -23202   -24620   -25125   -24800   -23751   -22172   -20411 
  -18756   -17406   -16613   -16552   -17181   -18369   -20014   -22082 
  -24516   -26937   -28569   -28785   -27559   -25292   -22449   -19353 
  -16135   -12859    -9571    -6261    -2987       -8     2296     3642 
    3991     3517     2596     1748     1291     1049      470     -939 
   -3210    -5815    -7879    -8658    -8018    -6472    -4771    -3538 
   -3196    -4041    -6198    -9393   -12981   -16356   -19193   -21261 
  -22304   -22226   -21247   -19878   -18592   -17432   -16148   -14649 
  -13134   -11896   -11106   -10820   -11119   -12135   -13890   -16195 
  -18809   -21485   -23626   -24259   -22741   -19383   -15175   -11005 
   -7350    -4689    -3679    -4653    -7287   -10761   -14131   -16781 
  -18507   -19312   -19327   -18627   -17113   -14827   -12208    -9988 
   -8913    -9307   -10869   -13023   -15323   -17566   -19650   -21424 
  -22600   -22744   -21494   -18826   -15095   -10966    -7225    -4369 
   -2462    -1557    -1940    -3781    -6839   -10409   -13345   -14521 
  -13612   -11412    -9476    -9170   -10594   -12524   -13630   -13586 
  -12918   -12140   -11353   -10451    -9362    -8071    -6554    -4815 
   -3141    -2173    -2382    -3509    -4787    -5807    -6970    -8878 
  -11458   -13919   -15424   -15791   -15585   -15391   -15236   -14921 
  -14373   -13517   -12429   -11523   -11125   -11011   -10650    -9730 
   -8392    -7188    -6678    -6901    -7388    -7617    -7212    -6043 
   -4449    -3162    -2894    -3902    -5720    -7414    -8368    -8763 
   -9091    -9492    -9794    -9836    -9626    -9481    -9828   -10744 
  -11901   -12970   -14039   -15675   -18412   -22089   -25772   -28385 
  -29429   -29175   -28285   -27307   -26345   -25020   -22756   -19278 
  -15115   -11528    -9740   -10213   -12522   -15579   -18076   -19129 
  -18600   -16889   -14631   -12440   -10698    -9553    -9034    -9236 
  -10408   -12724   -16232   -21021   -26963   -33321   -38923   -42670 
  -43810   -42009   -37614   -31906   -26581   -22696   -20302   -18845 
  -17643   -16313   -14953   -13948   -13573   -13765   -14226   -14561 
  -14455   -14035   -13915   -14769   -16849   -19762   -22717   -25025 
  -26350   -26625   -25958   -24576   -22801   -20948   -19148   -17388 
  -15780   -14590   -14014   -13971   -14091   -14012   -13497   -12286 
  -10294    -7909    -5738    -4268    -3850    -4637    -6394    -8557 
  -10428   -11389   -11361   -11036   -11371   -13025   -16154   -20243 
  -24065   -26169   -25755   -23205   -19773   -16687   -14419   -12766 
  -11470   -10468    -9799    -9633   -10169   -11285   -12598   -13850 
  -15052   -16337   -17649   -18663   -19100   -18988   -18557   -17980 
  -17301   -16625   -16191   -16014   -15719   -15061   -14335   -13994 
  -14222   -14857   -15445   -15738   -16124   -17025   -18197   -18945 
  -18774   -17893   -17170   -17369   -18449   -19750   -20772   -21490 
  -21979   -22261   -22440   -22666   -23116   -23839   -24416   -24195 
  -22950   -21019   -18927   -16974   -15086   -13058   -10825    -8447 
   -6070    -3799    -1523      852     3036     4416     4400     2807 
     184    -2356    -3869    -4209    -4047    -4444    -6241    -9468 
  -13292   -16614   -18618   -19015   -18107   -16544   -15016   -14128 
  -14136   -14628   -14791   -14209   -13271   -12711   -12744   -12813 
  -12313   -11276   -10105    -8989    -7930    -7023    -6411    -6132 
   -6146    -6442    -7048    -7907    -8786    -9438    -9814   -10011 
  -10097   -10118   -10157   -10326   -10686   -11106   -11269   -11001 
  -10496   -10292   -10951   -12556   -14528   -16014   -16437   -15847 
  -14807   -13917   -13419   -13163   -12784   -11805    -9815    -6938 
   -4029    -2320    -2874    -6000   -10891   -16030   -20149   -22776 
  -23932   -23695   -22209   -19911   -17561   -15882   -15210   -15418 
  -15931   -15933   -14946   -13308   -12120   -12588   -15109   -18981 
  -22974   -26041   -27656   -27792   -26784   -25223   -23699   -22543 
  -21876   -21795   -22415   -23659   -24988   -25559   -24800   -22816 
  -20341   -18299   -17176   -16657   -15951   -14485   -12335   -10161 
   -8668    -8038    -7949    -8022    -8076    -8170    -8578    -9498 
  -10762   -11926   -12617   -12863   -13064   -13454   -13756   -13619 
  -13145   -12753   -12866   -13731   -15300   -17215   -18881   -19539 
  -18517   -15766   -12103    -8692    -6327    -5339    -5892    -8022 
  -11367   -15055   -18009   -19440   -19268   -18135   -16895   -16085 
  -15729   -15478   -14996   -14310   -13781   -13782   -14437   -15650 
  -17240   -19106   -21330   -23975   -26732   -28861   -29542   -28246 
  -24960   -20398   -15769   -11925    -8837    -6125    -3817    -2337 
   -1938    -2460    -3533    -4751    -5800    -6655    -7632    -9186 
  -11505   -14297   -17071   -19476   -21357   -22663   -23290   -22956 
  -21344   -18553   -15402   -13049   -12234   -12889   -14177   -14899 
  -14276   -12490   -10320    -8367    -6825    -5743    -5147    -4981 
   -5189    -5922    -7410    -9474   -11429   -12583   -12789   -12409 
  -11874   -11476   -11348   -11309   -10951   -10022    -8653    -7323 
   -6552    -6432    -6503    -6192    -5353    -4333    -3625    -3563 
   -4240    -5610    -7617   -10144   -12832   -15016   -15998   -15520 
  -14017   -12385   -11415   -11473   -12581   -14458   -16481   -17932 
  -18394   -17875   -16498   -14247   -11255    -8138    -5772    -4738 
   -4993    -6079    -7681    -9906   -12880   -16209   -19055   -20807 
  -21605   -22013   -22244   -22034   -21092   -19345   -17130   -15381 
  -15223   -17240   -21114   -25710   -29525   -31376   -30737   -27903 
  -24053   -20462   -17427   -14508   -11604    -9291    -8213    -8465 
   -9661   -11446   -13705   -16311   -18961   -21374   -23505   -25350 
  -26652   -27028   -26422   -25379   -24640   -24356   -23991   -23034 
  -21585   -20252   -19691   -20230   -21715   -23547   -24855   -24880 
  -23370   -20667   -17429   -14225   -11318    -8856    -7135    -6504 
   -7107    -8694   -10644   -12318   -13398   -13909   -14166   -14590 
  -15406   -16544   -17711   -18407   -18113   -16686   -14605   -12665 
  -11266   -10225    -9470    -9432   -10619   -13021   -15836   -17978 
  -18914   -18706   -17436   -15115   -11977    -8615    -5829    -4181 
   -3801    -4796    -7394   -11351   -15588   -18730   -19780   -18331 
  -14642    -9794    -5420    -2808    -2268    -3294    -5118    -7262 
   -9586   -11836   -13551   -14467   -14639   -14268   -13614   -12902 
  -12222   -11515   -10639    -9578    -8629    -8226    -8628    -9836 
  -11683   -13786   -15577   -16585   -16714   -16172   -15279   -14353 
  -13557   -12913   -12563   -12729   -13530   -15009   -16941   -18657 
  -19452   -19116   -18031   -16956   -16613   -17263   -18492   -19470 
  -19710   -19534   -19610   -20292   -21451   -22555   -22791   -21471 
  -18449   -14181    -9619    -6009    -4509    -5770    -9695   -15329 
  -21107   -25585   -28112   -28773   -27912   -25986   -23683   -21778 
  -20726   -20343   -19946   -18833   -16667   -13587   -10102    -6936 
   -4797    -4038    -4461    -5564    -7028    -8846   -10919   -12672 
  -13379   -12901   -11886   -11221   -11430   -12402   -13463   -13757 
  -12684   -10276    -7280    -4764    -3503    -3621    -4717    -6327 
   -8176   -10212   -12525   -15084   -17640   -19924   -21693   -22731 
  -23021   -22747   -22057   -21008   -19695   -18370   -17608   -18132 
  -20100   -22745   -24910   -25816   -25177   -22799   -18463   -12359 
   -5469      651     4533     5464     3774      631    -2513    -4783 
   -6255    -7387    -8356    -8972    -9011    -8638    -8468    -9200 
  -10999   -13283   -15323   -16902   -18312   -19888   -21468   -22279 
  -21499   -19016   -15587   -12029    -8543    -5191    -2475     -979 
