Origin Time       2011/03/11 14:46:00
Lat.              38.103
Long.             142.860
Depth. (km)       24
Mag.              9.0
Station Code      HKD134
Station Lat.      42.6713
Station Long.     141.0790
Station Height(m) 392
Record Time       2011/03/11 14:48:01
Sampling Freq(Hz) 100Hz
Duration Time(s)  276
Dir.              N-S
Scale Factor      3920(gal)/6182761
Max. Acc. (gal)   10.603
Last Correction   2011/03/11 14:47:46
Memo.             
[...]
  -24077   -23426   -23124   -23220   -23481   -23701   -23823   -23825 
  -23753   -23742   -23895   -24221   -24715   -25414   -26300   -27211 
  -27941   -28389   -28557   -28481   -28179   -27665   -27052   -26551 
  -26214   -25803   -25153   -24489   -24155   -24232   -24447   -24339 
  -23794   -23232   -23020   -23148   -23484   -23959   -24586   -25363 
  -26201   -27045   -27902   -28705   -29314   -29702   -29944   -29958 
  -29628   -29102   -28542   -27934   -27272   -26604   -25963   -25364 
  -24825   -24395   -24122   -24110   -24429   -24884   -25220   -25421 
  -25546   -25628   -25777   -26066   -26471   -26928   -27375   -27789 
  -28113   -28275   -28232   -27927   -27347   -26592   -25792   -24982 
  -24152   -23473   -23174   -23331   -23972   -25038   -26312   -27561 
  -28600   -29376   -29965   -30319   -30215   -29551   -28497   -27298 
  -26141   -25214   -24661   -24503   -24667   -25062   -25572   -25999 
  -26181   -26142   -25995   -25783   -25504   -25206   -24967   -24816 
  -24781   -24950   -25314   -25712   -26035   -26257   -26378   -26469 
  -26563   -26594   -26569   -26549   -26547   -26625   -26819   -26950 
  -26802   -26397   -25959   -25699   -25686   -25767   -25699   -25403 
  -24967   -24475   -24000   -23593   -23291   -23155   -23196   -23429 
  -23972   -24897   -26100   -27388   -28591   -29616   -30404   -30869 
  -30943   -30608   -29936   -29147   -28485   -28022   -27610   -27073 
  -26446   -25950   -25751   -25791   -25780   -25472   -24949   -24534 
  -24495   -24902   -25636   -26425   -27013   -27301   -27227   -26734 
  -25876   -24764   -23559   -22509   -21835   -21576   -21607   -21877 
  -22479   -23401   -24458   -25484   -26457   -27451   -28464   -29366 
  -30060   -30541   -30837   -30962   -30901   -30688   -30318   -29617 
  -28508   -27253   -26155   -25240   -24335   -23381   -22526   -21843 
  -21187   -20504   -20035   -20049   -20577   -21493   -22676   -24000 
  -25298   -26372   -27080   -27434   -27546   -27494   -27332   -27083 
  -26706   -26245   -25875   -25740   -25876   -26210   -26609   -26954 
  -27227   -27481   -27752   -28053   -28372   -28623   -28605   -28107 
  -27253   -26510   -26186   -26228   -26435   -26618   -26665   -26570 
  -26410   -26351   -26528   -26950   -27550   -28176   -28598   -28671 
  -28417   -27966   -27479   -27139   -27100   -27286   -27397   -27168 
  -26560   -25748   -24977   -24422   -24064   -23741   -23404   -23232 
  -23418   -23989   -24829   -25819   -26909   -27944   -28626   -28798 
  -28622   -28397   -28272   -28158   -27924   -27530   -26990   -26327 
  -25604   -24923   -24349   -23873   -23464   -23125   -22902   -22847 
  -22947   -23119   -23337   -23601   -23884   -24272   -24970   -26120 
  -27620   -29155   -30481   -31588   -32560   -33377   -33801   -33500 
  -32314   -30491   -28557   -26790   -25146   -23650   -22446   -21602 
  -21095   -20905   -21101   -21735   -22668   -23655   -24584   -25416 
  -26005   -26232   -26120   -25750   -25267   -24860   -24635   -24600 
  -24789   -25252   -25939   -26673   -27225   -27458   -27414   -27199 
  -26838   -26306   -25638   -24936   -24292   -23801   -23582   -23732 
  -24178   -24684   -25166   -25762   -26576   -27529   -28346   -28735 
  -28585   -28017   -27294   -26638   -26158   -25917   -25907   -25983 
  -25984   -26018   -26395   -27167   -28028   -28676   -29042   -29185 
  -29166   -29028   -28723   -28140   -27266   -26220   -25194   -24356 
  -23685   -22978   -22140   -21345   -20816   -20572   -20524   -20668 
  -21003   -21493   -22262   -23466   -24996   -26599   -28104   -29447 
  -30611   -31530   -32087   -32228   -31977   -31301   -30213   -28929 
  -27666   -26503   -25451   -24411   -23279   -22164   -21378   -21164 
  -21476   -22111   -22939   -23866   -24743   -25479   -26126   -26687 
  -26953   -26702   -26107   -25642   -25563   -25729   -25918   -26151 
  -26620   -27332   -28104   -28771   -29153   -29097   -28641   -27896 
  -26873   -25539   -23980   -22416   -21103   -20293   -20152   -20634 
  -21547   -22653   -23717   -24639   -25482   -26250   -26774   -26888 
  -26618   -26218   -26015   -26236   -26930   -27901   -28846   -29582 
  -30035   -30145   -29890   -29377   -28824   -28355   -27908   -27422 
  -26925   -26455   -26117   -26112   -26510   -27100   -27624   -27993 
  -28173   -28116   -27783   -27156   -26320   -25471   -24769   -24241 
  -23873   -23717   -23812   -24006   -24129   -24281   -24659   -25212 
  -25681   -25837   -25631   -25223   -24869   -24714   -24688   -24571 
  -24232   -23849   -23710   -23879   -24245   -24691   -25137   -25607 
  -26205   -26997   -27882   -28574   -28875   -28969   -29241   -29778 
  -30277   -30547   -30775   -31149   -31553   -31789   -31878   -32051 
  -32450   -32903   -33082   -32826   -32107   -30891   -29315   -27709 
  -26279   -24963   -23597   -22133   -20713   -19559   -18842   -18668 
  -19080   -19963   -20976   -21787   -22375   -22966   -23712   -24559 
  -25425   -26214   -26754   -27019   -27226   -27554   -27949   -28272 
  -28408   -28184   -27495   -26522   -25649   -25196   -25217   -25534 
  -25929   -26289   -26611   -26915   -27231   -27656   -28329   -29284 
  -30323   -31187   -31765   -32034   -32002   -31786   -31503   -31086 
  -30387   -29383   -28183   -26964   -25887   -24998   -24206   -23425 
  -22720   -22149   -21496   -20563   -19624   -19154   -19292   -19804 
  -20406   -20989   -21612   -22385   -23323   -24291   -25114   -25714 
  -26121   -26345   -26340   -26208   -26216   -26539   -27097   -27724 
  -28318   -28800   -29097   -29210   -29246   -29305   -29314   -29068 
  -28441   -27519   -26492   -25485   -24564   -23700   -22760   -21773 
  -20980   -20605   -20784   -21565   -22777   -23987   -24780   -25065 
  -25010   -24844   -24780   -25005   -25619   -26537   -27581   -28724 
  -30016   -31363   -32548   -33314   -33412   -32792   -31599   -29921 
  -27830   -25602   -23616   -22107   -21165   -20813   -20991   -21549 
  -22310   -23134   -23910   -24521   -24993   -25568   -26423   -27508 
  -28626   -29508   -30050   -30398   -30686   -30952   -31225   -31499 
  -31617   -31280   -30337   -28972   -27453   -25849   -24128   -22371 
  -20759   -19487   -18713   -18473   -18743   -19529   -20821   -22535 
  -24527   -26631   -28681   -30466   -31721   -32215   -31969   -31277 
  -30352   -29118   -27521   -25850   -24487   -23465   -22571   -21748 
  -21200   -21150   -21630   -22500   -23630   -25004   -26645   -28489 
  -30446   -32393   -34064   -35097   -35231   -34397   -32719   -30553 
  -28339   -26297   -24466   -22952   -21898   -21296   -21026   -20975 
  -21057   -21330   -22009   -23116   -24452   -25997   -27893   -30023 
  -31887   -33025   -33400   -33198   -32552   -31526   -30142   -28416 
  -26306   -23760   -21030   -18646   -16986   -16112   -15950   -16403 
  -17286   -18409   -19752   -21376   -23180   -24874   -26190   -26981 
  -27257   -27244   -27190   -27139   -27039   -26884   -26662   -26282 
  -25643   -24793   -23881   -23015   -22308   -21946   -21999   -22225 
  -22251   -21903   -21236   -20446   -19828   -19523   -19332   -19120 
  -19135   -19711   -20971   -22849   -25037   -27027   -28519   -29646 
  -30658   -31587   -32358   -32980   -33479   -33691   -33322   -32295 
  -30846   -29303   -27940   -26877   -26011   -25180   -24337   -23541 
  -22962   -22814   -23073   -23532   -24237   -25486   -27389   -29728 
  -32224   -34679   -36839   -38421   -39406   -39987   -40204   -39775 
  -38316   -35832   -32802   -29646   -26486   -23499   -21091   -19473 
  -18373   -17608   -17568   -18644   -20677   -23157   -25578   -27692 
  -29555   -31229   -32650   -33708   -34278   -34232   -33438   -31864 
  -29760   -27545   -25494   -23632   -21953   -20524   -19308   -18292 
  -17728   -17920   -18837   -20026   -21003   -21715   -22376   -23101 
  -23966   -25169   -26912   -29039   -30966   -32179   -32599   -32426 
  -31840   -30936   -29860   -28753   -27635   -26546   -25598   -24858 
  -24290   -23793   -23355   -22993   -22616   -22238   -21998   -21972 
  -22226   -22701   -23116   -23311   -23372   -23344   -23210   -23070 
  -23011   -22897   -22508   -21761   -20799   -19940   -19480   -19523 
  -19935   -20513   -21306   -22588   -24451   -26594   -28525   -29926 
  -30736   -30889   -30343   -29308   -28088   -26861   -25739   -24798 
  -24011   -23260   -22483   -21764   -21194   -20787   -20640   -20955 
  -21867   -23343   -25270   -27551   -30052   -32556   -34691   -36005 
  -36332   -35846   -34737   -33200   -31553   -30057   -28691   -27278 
  -25781   -24301   -22949   -21887   -21333   -21387   -21858   -22427 
  -23056   -23909   -25015   -26324   -27721   -28915   -29666   -29988 
  -30042   -29982   -29820   -29486   -28979   -28311   -27461   -26531 
  -25839   -25644   -25754   -25722   -25382   -24969   -24799   -24823 
  -24746   -24644   -24956   -25940   -27444   -29061   -30344   -30885 
  -30399   -28918   -26707   -24025   -21131   -18362   -16061   -14485 
  -13718   -13728   -14462   -15759   -17296   -18852   -20496   -22361 
  -24411   -26434   -28183   -29587   -30776   -31838   -32706   -33269 
  -33410   -33011   -32139   -31012   -29681   -28050   -26125   -24102 
  -22288   -20841   -19596   -18358   -17285   -16745   -16955   -17910 
  -19529   -21780   -24588   -27628   -30418   -32620   -34199   -35342 
  -36216   -36776   -36837   -36402   -35759   -35137   -34504   -33735 
  -32696   -31276   -29489   -27445   -25340   -23455   -21994   -20953 
  -20188   -19588   -19228   -19313   -20000   -21252   -22840   -24536 
  -26253   -27948   -29485   -30701   -31582   -32208   -32583   -32639 
  -32324   -31618   -30567   -29355   -28166   -27010   -25860   -24795 
  -23828   -22898   -22126   -21681   -21448   -21242   -21027   -20766 
  -20466   -20175   -19833   -19520   -19562   -20109   -20970   -21882 
  -22701   -23348   -23797   -24200   -24756   -25432   -25995   -26263 
  -26320   -26463   -26877   -27495   -28246   -29140   -29871   -29861 
  -28964   -27603   -26267   -25170   -24199   -23100   -21863   -20890 
  -20710   -21570   -23256   -25224   -26914   -27936   -28109   -27556 
  -26615   -25520   -24261   -22785   -21224   -19813   -18775   -18385 
  -18841   -20078   -21800   -23601   -25046   -25901   -26334   -26678 
  -27036   -27261   -27169   -26729   -26137   -25735   -25781   -26244 
  -26950   -27769   -28547   -29097   -29304   -29222   -29029   -28746 
  -28202   -27422   -26692   -26250   -26217   -26645   -27407   -28340 
  -29403   -30385   -30875   -30741   -30268   -29745   -29180   -28373 
  -27125   -25447   -23731   -22610   -22384   -22846   -23714   -24836 
  -26084   -27341   -28508   -29502   -30280   -30721   -30585   -29776 
  -28451   -26814   -25056   -23395   -21983   -20979   -20562   -20679 
  -21113   -21777   -22693   -23842   -25105   -26254   -27046   -27505 
  -28020   -28906   -30007   -30875   -31088   -30432   -28971   -26930 
  -24605   -22373   -20521   -19205   -18631   -18943   -19988   -21458 
  -23031   -24431   -25556   -26537   -27547   -28501   -29128   -29344 
  -29265   -28979   -28513   -27850   -27018   -26147   -25313   -24543 
  -23965   -23616   -23362   -23175   -23182   -23506   -24141   -24944 
  -25798   -26751   -27963   -29470   -31026   -32305   -33062   -33142 
  -32565   -31562   -30391   -29104   -27604   -25919   -24279   -23016 
  -22367   -22291   -22623   -23285   -24180   -25181   -26206   -27183 
  -27994   -28443   -28309   -27554   -26407   -25144   -23934   -22972 
  -22468   -22459   -22871   -23725   -25157   -27176   -29411   -31369 
  -32842   -33683   -33650   -32797   -31496   -30024   -28415   -26648 
  -24905   -23556   -22780   -22449   -22444   -22746   -23230   -23626 
  -23754   -23611   -23243   -22734   -22269   -22078   -22287   -22842 
  -23630   -24535   -25367   -26014   -26558   -27081   -27550   -27872 
  -27955   -27744   -27221   -26552   -26106   -26130   -26560   -27110 
  -27460   -27530   -27459   -27325   -27247   -27457   -27958   -28496 
  -28929   -29316   -29695   -30051   -30312   -30280   -29765   -28813 
  -27660   -26506   -25229   -23465   -21165   -18814   -16986   -15924 
  -15601   -15980   -17052   -18765   -20966   -23337   -25446   -26882 
  -27336   -26754   -25480   -24121   -23149   -22584   -22104   -21453 
  -20576   -19592   -18880   -18752   -19048   -19426   -19853   -20581 
  -21688   -22902   -24012   -25027   -25917   -26629   -27179   -27549 
  -27711   -27720   -27577   -27126   -26313   -25354   -24454   -23632 
  -22958   -22643   -22766   -23257   -24057   -25117   -26433   -27953 
  -29333   -30201   -30560   -30561   -30181   -29298   -27876   -26097 
  -24294   -22763   -21718   -21276   -21413   -21993   -22830   -23831 
  -25060   -26545   -28033   -29148   -29826   -30306   -30716   -30882 
  -30549   -29790   -29035   -28560   -28194   -27690   -27132   -26783 
  -26712   -26835   -27071   -27346   -27660   -28052   -28487   -28961 
  -29463   -29843   -29951   -29822   -29670   -29727   -30054   -30470 
  -30626   -30217   -29198   -27768   -26207   -24732   -23458   -22423 
  -21584   -20891   -20299   -19771   -19391   -19364   -19860   -20958 
  -22541   -24176   -25390   -25999   -26121   -26048   -26007   -26079 
  -26302   -26654   -27159   -27974   -29159   -30514   -31836   -33164 
  -34530   -35785   -36831   -37502   -37399   -36271   -34200   -31420 
  -28128   -24448   -20583   -16865   -13661   -11241    -9758    -9436 
  -10465   -12653   -15537   -18650   -21676   -24504   -27044   -29110 
  -30610   -31586   -32043   -31993   -31670   -31402   -31284   -31188 
  -30905   -30233   -29129   -27732   -26114   -24230   -22245   -20553 
  -19351   -18624   -18332   -18332   -18608   -19392   -20713   -22226 
  -23618   -24804   -25792   -26616   -27328   -27921   -28406   -28924 
  -29583   -30272   -30803   -31050   -31018   -30980   -31263   -31845 
  -32457   -32878   -32976   -32683   -32023   -31138   -30219   -29342 
  -28375   -27121   -25658   -24401   -23673   -23406   -23271   -23016 
  -22655   -22384   -22479   -23194   -24498   -26071   -27596   -28843 
  -29635   -29943   -29902   -29680   -29411   -29249   -29384   -29912 
  -30725   -31549   -32130   -32378   -32229   -31609   -30682   -29761 
  -28938   -28138   -27426   -27021   -26978   -27091   -27127   -26989 
  -26717   -26379   -25909   -25220   -24442   -23817   -23457   -23304 
  -23218   -23029   -22536   -21692   -20703   -19785   -19005   -18316 
  -17635   -17075   -16944   -17329   -17876   -18064   -17700   -17071 
  -16542   -16258   -16258   -16563   -17229   -18373   -20016   -21965 
  -23907   -25580   -26917   -28026   -29039   -29996   -30793   -31180 
  -30971   -30279   -29406   -28561   -27848   -27304   -26829   -26352 
  -26006   -25979   -26305   -26937   -27853   -28982   -30136   -31156 
  -32094   -33105   -34143   -35018   -35631   -35873   -35569   -34631 
  -33093   -31088   -28798   -26369   -23922   -21660   -19875   -18759 
  -18297   -18474   -19383   -21003   -23022   -25047   -26866   -28428 
  -29678   -30479   -30776   -30670   -30245   -29488   -28435   -27257 
  -26086   -24935   -23818   -22721   -21615   -20582   -19782   -19411 
  -19655   -20525   -21755   -22974   -24080   -25271   -26648   -27978 
  -28924   -29359   -29314   -28870   -28223   -27543   -26837   -26005 
  -24848   -23321   -21811   -20784   -20362   -20418   -20780   -21350 
  -22237   -23606   -25384   -27253   -28851   -29868   -30147   -29825 
  -29248   -28616   -27814   -26723   -25518   -24530   -23914   -23616 
  -23487   -23421   -23599   -24322   -25549   -26971   -28448   -30008 
  -31539   -32821   -33739   -34217   -34140   -33471   -32305   -30897 
  -29648   -28834   -28361   -27986   -27616   -27282   -26998   -26686 
  -26206   -25473   -24531   -23548   -22754   -22304   -22222   -22552 
  -23352   -24527   -25922   -27445   -29087   -30873   -32618   -33805 
  -33976   -33120   -31507   -29511   -27653   -26310   -25336   -24316 
  -23061   -21719   -20690   -20360   -20627   -20939   -20926   -20657 
  -20395   -20393   -20777   -21405   -21981   -22346   -22519   -22566 
  -22526   -22359   -22078   -21854   -21868   -22116   -22413   -22673 
  -22981   -23321   -23591   -23838   -24186   -24618   -24967   -25081 
  -24953   -24730   -24648   -24871   -25351   -25807   -25942   -25785 
  -25763   -26289   -27284   -28175   -28470   -28270   -28042   -28041 
  -28162   -28217   -28123   -27881   -27570   -27329   -27336   -27757 
  -28565   -29573   -30687   -31874   -32919   -33426   -33103   -32053 
  -30695   -29397   -28307   -27540   -27317   -27675   -28243   -28541 
  -28292   -27550   -26596   -25690   -25003   -24690   -24863   -25527 
  -26568   -27791   -28951   -29798   -30248   -30442   -30504   -30421 
  -30165   -29757   -29264   -28767   -28275   -27672   -26801   -25577 
  -24070   -22533   -21196   -20138   -19399   -18972   -18804   -18844 
  -18997   -19231   -19596   -20078   -20629   -21237   -21887   -22493 
  -22910   -23076   -23046   -22895   -22740   -22769   -23136   -23786 
  -24596   -25633   -26970   -28407   -29626   -30441   -30743   -30434 
  -29557   -28375   -27211   -26126   -24932   -23545   -22123   -20898 
  -20056   -19733   -20043   -20943   -22130   -23192   -23902   -24422 
  -25072   -25955   -26978   -28014   -28963   -29769   -30344   -30597 
  -30502   -30037   -29225   -28208   -27172   -26167   -25085   -23891 
  -22735   -21794   -21129   -20668   -20356   -20269   -20498   -21050 
  -21871   -22811   -23606   -24105   -24484   -24975   -25508   -25906 
  -26178   -26379   -26457   -26428   -26504   -26769   -26929   -26596 
  -25649   -24359   -23246   -22583   -22175   -21762   -21339   -21086 
  -21169   -21596   -22172   -22604   -22826   -23170   -23986   -25313 
  -27009   -28899   -30796   -32480   -33780   -34584   -34760   -34203 
  -32972   -31251   -29200   -26929   -24633   -22500   -20539   -18821 
  -17565   -16821   -16450   -16415   -16793   -17554   -18541   -19604 
  -20672   -21746   -22879   -24198   -25814   -27682   -29568   -31227 
  -32664   -34067   -35462   -36636   -37297   -37281   -36698   -35779 
  -34652   -33349   -31897   -30317   -28640   -27044   -25758   -24725 
  -23720   -22687   -21736   -21034   -20741   -20932   -21546   -22476 
  -23684   -25147   -26764   -28384   -29851   -31077   -32032   -32682 
  -33008   -33026   -32680   -31874   -30590   -28854   -26746   -24518 
  -22495   -20904   -19845   -19286   -19103   -19206   -19585   -20215 
  -21062   -22173   -23593   -25166   -26603   -27774   -28701   -29370 
  -29770   -29890   -29548   -28606   -27228   -25688   -24253   -23128 
  -22220   -21297   -20384   -19716   -19436   -19554   -20030   -20799 
  -21773   -22826   -23818   -24724   -25613   -26409   -26877   -26972 
  -26936   -26996   -27136   -27085   -26568   -25621   -24542   -23610 
  -22930   -22540   -22518   -22878   -23536   -24395   -25347   -26268 
  -27061   -27659   -28078   -28437   -28834   -29310   -29889   -30499 
  -31028   -31465   -31809   -31965   -31815   -31295   -30419   -29280 
  -28026   -26815   -25828   -25295   -25320   -25746   -26254   -26602 
  -26831   -27117   -27466   -27743   -27866   -27891   -27885   -27766 
