Origin Time       2011/03/11 14:46:00
Lat.              38.103
Long.             142.860
Depth. (km)       24
Mag.              9.0
Station Code      HKD102
Station Lat.      42.8778
Station Long.     142.4481
Station Height(m) 283
Record Time       2011/03/11 14:48:17
Sampling Freq(Hz) 100Hz
Duration Time(s)  278
Dir.              N-S
Scale Factor      3920(gal)/6182761
Max. Acc. (gal)   9.124
Last Correction   2011/03/11 14:48:02
Memo.             
[...]
    3510     4377     5462     6623     7662     8394     8743     8778 
    8673     8620     8746     9098     9666    10352    10987    11419 
   11570    11431    11041    10484     9879     9352     8989     8792 
    8678     8546     8336     8023     7579     6986     6285     5587 
    5014     4628     4420     4345     4349     4371     4360     4295 
    4178     4035     3893     3777     3704     3685     3721     3767 
    3749     3627     3433     3220     3020     2826     2632     2456 
    2320     2248     2272     2430     2724     3105     3491     3812 
    4032     4135     4116     3963     3703     3421     3210     3102 
    3052     2977     2822     2569     2226     1814     1381      988 
     688      499      402      368      354      302      138     -170 
    -578    -1003    -1382    -1687    -1891    -1936    -1760    -1349 
    -732       30      871     1725     2497     3092     3483     3697 
    3771     3759     3745     3816     4049     4459     4973     5491 
    5947     6331     6658     6941     7196     7457     7746     8050 
    8328     8555     8724     8832     8887     8903     8892     8869 
    8859     8862     8853     8796     8636     8322     7826     7137 
    6282     5370     4545     3927     3604     3607     3890     4363 
    4919     5440     5852     6169     6488     6905     7448     8068 
    8688     9225     9616     9820     9815     9619     9311     8977 
    8660     8390     8186     8046     7948     7865     7790     7741 
    7726     7742     7781     7830     7886     7960     8026     8031 
    7924     7684     7352     6999     6677     6401     6148     5882 
    5563     5154     4653     4095     3525     2987     2526     2159 
    1875     1644     1407     1123      804      523      385      485 
     861     1450     2114     2702     3093     3224     3121     2892 
    2670     2565     2658     2997     3571     4288     5003     5581 
    5937     6061     5992     5774     5472     5171     4953     4865 
    4916     5089     5337     5589     5768     5816     5719     5532 
    5349     5238     5219     5292     5441     5614     5716     5661 
    5415     5020     4597     4296     4215     4375     4719     5127 
    5463     5646     5677     5633     5624     5752     6065     6546 
    7103     7610     7967     8152     8212     8239     8329     8547 
    8901     9334     9726     9948     9907     9586     9055     8438 
    7864     7433     7167     7007     6866     6656     6316     5839 
    5268     4664     4092     3589     3145     2719     2249     1659 
     899       -8     -958    -1804    -2405    -2691    -2667    -2374 
   -1886    -1345     -907     -664     -645     -798    -1006    -1151 
   -1159     -997     -696     -357      -89       37        6     -149 
    -351     -491     -444     -141      366      949     1490     1898 
    2104     2091     1877     1509     1076      709      518      539 
     720      960     1163     1263     1238     1134     1040     1020 
    1093     1246     1442     1651     1866     2108     2403     2765 
    3199     3692     4207     4707     5143     5452     5595     5586 
    5485     5381     5350     5433     5621     5844     6013     6043 
    5859     5438     4837     4158     3522     3034     2752     2682 
    2778     2947     3101     3196     3224     3183     3104     3069 
    3150     3353     3622     3872     4033     4056     3869     3407 
    2675     1756      757     -222    -1098    -1823    -2387    -2819 
   -3181    -3525    -3822    -3960    -3821    -3358    -2619    -1714 
    -764      112      812     1274     1476     1422     1212     1028 
    1013     1229     1671     2266     2896     3456     3890     4184 
    4377     4559     4817     5207     5736     6347     6953     7488 
    7921     8250     8489     8660     8786     8904     9050     9259 
    9555     9939    10388    10869    11352    11798    12165    12429 
   12609    12776    13000    13304    13654    13984    14239    14385 
   14413    14353    14255    14184    14219    14407    14739    15170 
   15644    16098    16466    16699    16797    16814    16832    16909 
   17057    17242    17388    17427    17351    17167    16887    16543 
   16162    15759    15341    14877    14299    13524    12498    11239 
    9860     8524     7348     6375     5595     4966     4437     3991 
    3592     3183     2742     2296     1870     1470     1082      683 
     245     -250     -780    -1274    -1669    -1928    -2058    -2113 
   -2169    -2257    -2350    -2418    -2452    -2433    -2321    -2110 
   -1852    -1635    -1535    -1586    -1766    -2011    -2237    -2367 
   -2365    -2234    -2001    -1702    -1402    -1180    -1097    -1180 
   -1393    -1622    -1732    -1638    -1363    -1011     -707     -561 
    -680    -1124    -1845    -2698    -3502    -4128    -4523    -4680 
   -4630    -4467    -4301    -4185    -4090    -3916    -3541    -2901 
   -2025    -1004       26      907     1492     1725     1671     1471 
    1267     1191     1345     1742     2309     2925     3462     3830 
    4003     4020     3948     3884     3966     4306     4898     5646 
    6429     7143     7725     8158     8458     8672     8896     9215 
    9619     9998    10229    10243    10027     9628     9169     8796 
    8609     8628     8778     8909     8867     8577     8054     7392 
    6728     6202     5913     5912     6193     6694     7302     7891 
    8346     8585     8568     8327     7976     7642     7414     7362 
    7537     7933     8477     9047     9505     9752     9777     9642 
    9422     9220     9168     9365     9822    10457    11158    11829 
   12401    12842    13135    13267    13243    13084    12825    12524 
   12249    12063    11994    12013    12048    12016    11836    11448 
   10861    10158     9483     9013     8870     9044     9426     9882 
   10269    10441    10303     9841     9137     8353     7641     7076 
    6651     6287     5871     5313     4566     3643     2640     1708 
    1007      646      638      900     1275     1566     1612     1363 
     902      404       53      -24      211      674     1180     1501 
    1445      939       70     -980    -1997    -2778    -3194    -3222 
   -2970    -2666    -2543    -2719    -3185    -3838    -4527    -5087 
   -5369    -5296    -4917    -4390    -3889    -3556    -3458    -3556 
   -3762    -3983    -4123    -4121    -3975    -3747    -3541    -3442 
   -3478    -3633    -3849    -4058    -4207    -4268    -4270    -4283 
   -4366    -4531    -4743    -4952    -5110    -5170    -5107    -4929 
   -4682    -4415    -4165    -3959    -3798    -3648    -3446    -3121 
   -2634    -1994    -1265     -557       50      521      832      997 
    1077     1154     1304     1591     2025     2544     3055     3468 
    3707     3764     3699     3591     3510     3483     3493     3505 
    3504     3497     3486     3452     3375     3256     3117     2997 
    2930     2933     3015     3192     3465     3806     4186     4584 
    4976     5324     5630     5948     6351     6876     7483     8069 
    8532     8794     8798     8531     8052     7492     7021     6785 
    6839     7141     7597     8080     8437     8542     8334     7833 
    7104     6241     5359     4589     4053     3818     3854     4039 
    4229     4304     4156     3752     3175     2594     2195     2099 
    2294     2679     3142     3573     3857     3910     3748     3502 
    3351     3437     3814     4437     5210     6041     6815     7421 
    7808     8013     8135     8290     8564     9020     9679    10477 
   11285    11976    12482    12793    12948    13005    13049    13180 
   13475    13939    14464    14888    15100    15090    14887    14525 
   14085    13680    13391    13237    13180    13151    13078    12922 
   12687    12397    12106    11879    11751    11690    11634    11532 
   11367    11158    10951    10804    10766    10868    11115    11488 
   11948    12437    12896    13275    13549    13715    13792    13811 
   13812    13831    13872    13916    13934    13885    13717    13392 
   12892    12244    11517    10789    10130     9596     9217     8970 
    8797     8624     8389     8075     7695     7260     6805     6401 
    6102     5918     5843     5866     5975     6148     6354     6554 
    6703     6776     6775     6715     6615     6504     6406     6300 
    6138     5872     5445     4814     4005     3120     2272     1549 
    1005      670      532      536      602      661      678      643 
     570      503      505      621      838     1083     1263     1319 
    1249     1098      950      913     1090     1542     2247     3074 
    3846     4409     4668     4606     4306     3933     3676     3675 
    3988     4574     5303     6007     6535     6800     6791     6564 
    6247     5990     5886     5955     6154     6382     6531     6538 
    6397     6148     5858     5570     5272     4924     4513     4070 
    3634     3243     2951     2804     2817     2972     3208     3417 
    3503     3446     3289     3105     2970     2947     3072     3337 
    3680     3984     4110     3969     3572     3003     2380     1831 
    1457     1291     1306     1470     1754     2079     2320     2369 
    2190     1831     1387      956      620      434      422      561 
     764      891      816      465     -179    -1046    -1968    -2743 
   -3212    -3338    -3224    -3049    -2986    -3175    -3687    -4497 
   -5478    -6430    -7156    -7520    -7459    -7016    -6328    -5579 
   -4930    -4470    -4186    -3980    -3714    -3288    -2669    -1902 
   -1090     -364      147      358      265      -56     -481     -878 
   -1122    -1128     -876     -425      102      569      909     1152 
    1373     1645     2027     2570     3311     4249     5310     6367 
    7282     7946     8298     8348     8183     7924     7652     7421 
    7275     7203     7138     7001     6745     6370     5931     5513 
    5197     5053     5125     5427     5900     6412     6804     6937 
    6753     6295     5676     5039     4531     4285     4375     4785 
    5417     6108     6675     6972     6942     6639     6209     5834 
    5671     5791     6174     6756     7429     8063     8546     8804 
    8833     8711     8573     8534     8633     8835     9045     9154 
    9091     8875     8603     8387     8313     8451     8820     9361 
    9947    10410    10619    10545    10245     9824     9421     9158 
    9101     9251     9535     9811     9905     9680     9080     8130 
    6952     5774     4827     4264     4151     4469     5099     5849 
    6498     6872     6911     6677     6312     5985     5832     5932 
    6284     6796     7295     7604     7599     7240     6596     5814 
    5037     4363     3862     3575     3491     3525     3551     3467 
    3238     2887     2483     2117     1870     1794     1874     2019 
    2090     1952     1529      829      -59     -959    -1648    -1955 
   -1823    -1315     -586      169      775     1142     1266     1233 
    1196     1287     1528     1867     2254     2630     2930     3124 
    3246     3369     3588     3992     4602     5363     6190     7016 
    7807     8533     9170     9750    10347    11005    11719    12453 
   13120    13558    13613    13215    12396    11278    10046     8886 
    7937     7289     6965     6896     6924     6872     6627     6181 
    5654     5245     5114     5320     5838     6586     7410     8120 
    8557     8631     8363     7912     7518     7399     7681     8366 
    9342    10420    11384    12063    12388    12389    12168    11863 
   11611    11483    11465    11493    11510    11487    11427    11341 
   11209    11025    10823    10671    10638    10742    10934    11145 
   11320    11415    11404    11285    11072    10804    10563    10452 
   10550    10885    11408    12011    12564    12961    13155    13135 
   12924    12589    12230    11954    11819    11812    11892    12019 
   12136    12188    12147    11999    11741    11411    11098    10887 
   10801    10807    10825    10778    10670    10565    10502    10488 
   10507    10525    10508    10408    10161     9744     9188     8554 
    7934     7432     7112     6968     6919     6867     6740     6490 
    6097     5561     4922     4256     3635     3104     2678     2341 
    2065     1812     1527     1160      706      222     -195     -475 
    -599     -590     -512     -482     -610     -941    -1437    -2005 
   -2540    -2970    -3249    -3335    -3224    -2980    -2694    -2420 
   -2148    -1827    -1397     -844     -212      423     1004     1487 
    1858     2138     2355     2525     2657     2738     2722     2556 
    2211     1702     1083      458      -39     -317     -350     -148 
     241      745     1285     1763     2096     2260     2297     2262 
    2197     2125     2016     1790     1390      809       85     -696 
   -1416    -1983    -2323    -2375    -2129    -1659    -1122     -713 
    -582     -791    -1284    -1896    -2423    -2706    -2675    -2348 
   -1798    -1140     -521      -72      160      246      350      685 
    1421     2595     4112     5796     7437     8846     9906    10580 
   10910    11012    11051    11218    11650    12353    13222    14127 
   14966    15668    16199    16543    16732    16857    17024    17315 
   17754    18294    18808    19134    19144    18786    18108    17242 
   16340    15525    14890    14500    14366    14408    14477    14428 
   14156    13645    12979    12312    11786    11486    11419    11497 
   11561    11473    11156    10584     9778     8831     7876     7059 
    6528     6364     6533     6912     7311     7552     7565     7395 
    7152     6941     6816     6796     6897     7130     7449     7738 
    7886     7832     7560     7088     6464     5761     5046     4367 
    3751     3195     2698     2278     1936     1640     1366     1126 
     958      896      955     1144     1466     1911     2419     2863 
    3108     3085     2825     2413     1941     1476     1080      786 
     578      405      232       32     -245     -659    -1203    -1797 
   -2322    -2669    -2766    -2605    -2228    -1698    -1127     -679 
    -511     -674    -1095    -1638    -2131    -2409    -2382    -2062 
   -1529     -914     -357       29      165       34     -291     -652 
    -859     -747     -240      639     1807     3125     4403     5473 
    6270     6832     7255     7641     8084     8651     9346    10105 
   10833    11422    11771    11830    11618    11211    10695    10130 
    9573     9100     8777     8632     8640     8748     8928     9186 
    9554    10074    10756    11572    12475    13384    14166    14687 
   14852    14619    13998    13066    11949    10775     9664     8729 
    8050     7625     7382     7241     7147     7051     6943     6862 
    6844     6882     6926     6912     6799     6563     6210     5781 
    5326     4898     4567     4392     4351     4373     4387     4316 
    4100     3725     3218     2618     1946     1218      484     -195 
    -779    -1272    -1728    -2202    -2708    -3206    -3634    -3987 
   -4293    -4573    -4827    -5046    -5224    -5360    -5436    -5426 
   -5310    -5067    -4671    -4108    -3398    -2603    -1784     -998 
    -285      336      870     1327     1736     2129     2486     2735 
    2831     2764     2549     2248     1959     1775     1775     1999 
    2405     2906     3438     3947     4386     4752     5114     5558 
    6105     6689     7193     7499     7543     7329     6910     6384 
    5885     5527     5369     5412     5607     5878     6138     6290 
    6270     6089     5827     5583     5436     5456     5706     6205 
    6905     7720     8553     9300     9878    10246    10408    10400 
   10301    10198    10139    10125    10115    10035     9805     9402 
    8877     8324     7833     7473     7275     7214     7235     7266 
    7241     7127     6938     6708     6454     6170     5841     5456 
    4997     4458     3868     3281     2752     2325     2036     1882 
    1812     1788     1809     1876     1986     2124     2232     2255 
    2201     2119     2047     1974     1881     1787     1726     1734 
    1828     1962     2047     2022     1882     1669     1446     1252 
    1100     1008      980      976      914      715      351     -141 
    -687    -1184    -1546    -1721    -1710    -1550    -1290     -989 
    -721     -542     -472     -491     -556     -604     -593     -517 
    -399     -285     -249     -373     -704    -1226    -1857    -2480 
   -2969    -3218    -3167    -2821    -2274    -1698    -1273    -1104 
   -1224    -1594    -2099    -2577    -2886    -2954    -2809    -2535 
   -2245    -2027    -1908    -1873    -1875    -1825    -1645    -1309 
    -833     -287      226      611      824      884      862      842 
     883     1011     1229     1514     1812     2052     2162     2086 
    1837     1489     1141      898      859     1065     1492     2057 
    2642     3127     3428     3513     3403     3160     2905     2777 
    2863     3167     3633     4146     4574     4845     4967     5009 
    5062     5192     5447     5862     6423     7071     7713     8250 
    8611     8771     8772     8702     8665     8722     8855     8994 
    9069     9055     8940     8714     8381     7986     7612     7340 
    7191     7142     7167     7229     7290     7340     7405     7531 
    7751     8058     8409     8765     9120     9490     9872    10267 
   10696    11181    11714    12250    12717    13064    13286    13395 
   13373    13175    12796    12304    11789    11322    10950    10687 
   10521    10407    10269    10047     9716     9280     8775     8276 
    7881     7667     7647     7746     7835     7811     7634     7308 
    6891     6492     6239     6221     6449     6857     7340     7781 
    8073     8142     7977     7627     7204     6826     6540     6332 
    6145     5866     5342     4475     3323     2077      976      256 
      85      504     1404     2555     3676     4562     5160     5525 
    5745     5907     6105     6406     6791     7142     7324     7258 
    6949     6477     5945     5461     5133     5026     5135     5408 
    5768     6111     6335     6384     6266     6046     5812     5641 
    5556     5532     5551     5627     5764     5915     6034     6114 
    6163     6174     6126     6003     5823     5643     5524     5501 
    5578     5765     6079     6494     6911     7210     7306     7190 
    6933     6645     6447     6447     6695     7138     7652     8117 
    8451     8625     8665     8642     8635     8725     8958     9302 
    9642     9836     9789     9484     8969     8343     7720     7206 
    6853     6657     6584     6605     6686     6780     6854     6919 
    7014     7186     7448     7750     8014     8182     8209     8058 
    7713     7217     6652     6117     5707     5487     5463     5581 
    5751     5878     5905     5841     5726     5607     5527     5518 
    5592     5727     5849     5859     5690     5348     4915     4492 
    4155     3940     3868     3940     4130     4406     4741     5104 
