Origin Time       2011/03/11 14:46:00
Lat.              38.103
Long.             142.860
Depth. (km)       24
Mag.              9.0
Station Code      HKD139
Station Lat.      43.1975
Station Long.     140.7819
Station Height(m) 32
Record Time       2011/03/11 14:49:23
Sampling Freq(Hz) 100Hz
Duration Time(s)  110
Dir.              U-D
Scale Factor      3920(gal)/6182761
Max. Acc. (gal)   2.676
Last Correction   2011/03/11 14:49:08
Memo.             
[...]
  -30031   -30473   -30797   -30969   -31036   -31072   -31172   -31264 
  -31277   -31292   -31303   -31260   -31244   -31221   -31086   -30891 
  -30732   -30735   -30961   -31309   -31675   -31889   -31851   -31697 
  -31535   -31415   -31438   -31592   -31743   -31851   -31910   -31851 
  -31733   -31628   -31546   -31595   -31764   -31854   -31692   -31279 
  -30934   -30970   -31358   -31921   -32395   -32552   -32494   -32468 
  -32509   -32537   -32518   -32373   -32057   -31662   -31299   -31076 
  -31087   -31318   -31647   -32010   -32407   -32758   -33038   -33230 
  -33178   -32894   -32586   -32405   -32409   -32626   -33116   -33728 
  -34069   -34030   -33841   -33698   -33715   -33963   -34238   -34214 
  -33930   -33607   -33416   -33599   -34145   -34704   -35051   -35085 
  -34739   -34306   -34201   -34460   -34903   -35317   -35501   -35509 
  -35539   -35682   -35819   -35730   -35429   -35027   -34536   -34059 
  -33757   -33731   -33938   -34157   -34200   -34051   -33842   -33685 
  -33570   -33471   -33370   -33252   -33147   -33104   -33105   -33070 
  -32941   -32669   -32251   -31765   -31292   -30909   -30645   -30480 
  -30398   -30463   -30808   -31373   -31978   -32438   -32527   -32274 
  -31907   -31598   -31567   -31923   -32506   -32994   -33042   -32578 
  -31923   -31493   -31411   -31534   -31623   -31427   -30982   -30575 
  -30321   -30173   -30095   -30109   -30194   -30281   -30398   -30574 
  -30881   -31449   -32191   -32859   -33283   -33358   -33107   -32764 
  -32538   -32453   -32476   -32480   -32356   -32234   -32218   -32292 
  -32405   -32448   -32435   -32425   -32401   -32372   -32334   -32311 
  -32375   -32459   -32439   -32285   -32035   -31826   -31843   -32104 
  -32500   -32820   -32784   -32379   -31900   -31668   -31838   -32224 
  -32578   -32799   -32791   -32677   -32755   -33129   -33738   -34372 
  -34627   -34358   -33871   -33424   -33252   -33627   -34348   -35072 
  -35664   -35912   -35732   -35252   -34650   -34170   -33878   -33680 
  -33634   -33725   -33743   -33631   -33475   -33288   -33074   -32831 
  -32540   -32239   -32033   -32051   -32240   -32405   -32507   -32591 
  -32748   -33061   -33423   -33710   -33839   -33740   -33508   -33322 
  -33276   -33378   -33610   -33823   -33826   -33661   -33410   -33052 
  -32662   -32381   -32308   -32403   -32552   -32676   -32711   -32662 
  -32562   -32454   -32438   -32566   -32805   -33062   -33230   -33331 
  -33523   -33852   -34146   -34198   -33899   -33328   -32734   -32298 
  -32127   -32207   -32363   -32455   -32394   -32203   -32013   -31872 
  -31771   -31698   -31719   -31895   -32173   -32475   -32672   -32659 
  -32399   -31857   -31195   -30697   -30505   -30632   -30911   -31017 
  -30780   -30334   -29913   -29767   -30140   -30901   -31691   -32197 
  -32156   -31732   -31422   -31495   -31898   -32342   -32545   -32472 
  -32266   -32123   -32160   -32244   -32148   -31918   -31733   -31699 
  -31937   -32351   -32573   -32341   -31721   -31099   -30864   -31184 
  -31938   -32709   -33114   -33004   -32513   -32035   -31809   -31809 
  -31974   -32164   -32214   -32139   -32069   -32039   -32043   -32110 
  -32226   -32315   -32339   -32424   -32697   -33089   -33474   -33649 
  -33507   -33185   -32762   -32320   -32102   -32274   -32763   -33297 
  -33601   -33556   -33309   -33212   -33445   -33868   -34218   -34343 
  -34259   -34011   -33668   -33342   -33120   -33013   -32946   -32850 
  -32720   -32645   -32704   -32810   -32773   -32399   -31721   -31109 
  -30891   -31109   -31636   -32161   -32222   -31702   -30928   -30162 
  -29691   -29827   -30395   -30959   -31292   -31379   -31311   -31209 
  -31191   -31266   -31424   -31704   -31948   -31942   -31722   -31477 
  -31372   -31448   -31634   -31837   -32005   -32132   -32268   -32430 
  -32465   -32288   -31947   -31502   -31262   -31498   -32099   -32787 
  -33160   -32965   -32410   -31856   -31503   -31400   -31472   -31613 
  -31847   -32144   -32308   -32374   -32546   -32856   -33241   -33553 
  -33699   -33738   -33652   -33419   -33094   -32719   -32383   -32184 
  -32047   -31921   -31938   -32066   -32134   -31977   -31466   -30841 
  -30496   -30551   -30955   -31432   -31616   -31425   -31031   -30658 
  -30530   -30825   -31479   -32206   -32678   -32612   -32045   -31301 
  -30706   -30466   -30528   -30711   -30878   -30929   -30926   -31010 
  -31210   -31497   -31821   -32055   -32117   -32140   -32242   -32403 
  -32564   -32590   -32508   -32551   -32743   -32941   -33067   -33008 
  -32653   -32096   -31602   -31336   -31315   -31536   -31975   -32472 
  -32804   -32938   -32929   -32795   -32558   -32250   -32020   -32028 
  -32266   -32695   -33225   -33624   -33746   -33752   -33733   -33513 
  -33142   -32847   -32730   -32914   -33335   -33721   -33919   -33806 
  -33401   -32921   -32476   -32104   -31898   -31860   -31830   -31736 
  -31668   -31723   -31942   -32269   -32610   -32877   -32935   -32720 
  -32258   -31734   -31435   -31423   -31656   -32025   -32158   -31782 
  -30980   -30000   -29246   -29143   -29704   -30606   -31464   -31971 
  -32148   -32214   -32350   -32681   -33082   -33352   -33422   -33194 
  -32657   -31917   -31132   -30573   -30440   -30731   -31258   -31764 
  -32108   -32276   -32355   -32496   -32794   -33209   -33650   -34008 
  -34124   -33952   -33557   -33034   -32576   -32367   -32430   -32600 
  -32714   -32794   -32836   -32772   -32612   -32402   -32222   -32125 
  -32077   -32009   -31850   -31575   -31218   -30890   -30695   -30733 
  -31035   -31406   -31709   -31883   -31876   -31968   -32334   -32812 
  -33276   -33515   -33351   -32849   -32195   -31682   -31432   -31326 
  -31342   -31463   -31577   -31649   -31683   -31668   -31640   -31581 
  -31542   -31626   -31693   -31637   -31488   -31218   -30948   -30890 
  -31040   -31222   -31366   -31520   -31553   -31369   -31148   -31029 
  -31102   -31426   -31910   -32397   -32689   -32645   -32386   -32259 
  -32492   -33055   -33732   -34079   -33827   -33161   -32383   -31838 
  -31797   -32227   -32938   -33589   -33804   -33545   -33062   -32590 
  -32304   -32273   -32404   -32611   -32843   -32994   -33117   -33363 
  -33728   -34151   -34594   -34936   -34987   -34766   -34472   -34205 
  -34004   -33894   -33903   -33966   -33898   -33781   -33747   -33622 
  -33349   -33013   -32598   -32195   -32036   -32216   -32587   -32918 
  -33067   -32936   -32482   -31880   -31370   -31010   -30845   -30872 
  -31012   -31370   -31966   -32553   -32965   -33117   -32999   -32826 
  -32689   -32424   -32032   -31688   -31522   -31657   -31992   -32205 
  -32189   -31987   -31714   -31549   -31461   -31411   -31469   -31586 
  -31717   -31895   -32105   -32341   -32637   -32811   -32621   -32195 
  -31720   -31316   -31236   -31568   -32162   -32809   -33262   -33293 
  -32870   -32281   -31795   -31519   -31493   -31519   -31456   -31432 
  -31498   -31610   -31774   -31988   -32257   -32647   -33150   -33615 
  -33942   -34055   -33866   -33460   -33038   -32775   -32714   -32817 
  -33021   -33172   -33217   -33265   -33379   -33526   -33597   -33568 
  -33472   -33274   -32964   -32572   -32217   -32069   -32177   -32439 
  -32724   -32919   -32919   -32747   -32493   -32181   -31908   -31812 
  -31918   -32051   -31986   -31706   -31249   -30788   -30684   -30910 
  -31153   -31238   -31042   -30637   -30335   -30435   -31069   -32043 
  -32904   -33351   -33444   -33339   -33170   -33022   -32884   -32773 
  -32640   -32442   -32288   -32235   -32410   -32868   -33335   -33569 
  -33497   -33157   -32745   -32525   -32685   -33082   -33392   -33431 
  -33153   -32767   -32657   -32931   -33331   -33662   -33878   -33951 
  -34030   -34207   -34324   -34275   -34020   -33608   -33343   -33511 
  -34078   -34670   -34847   -34497   -33809   -33115   -32806   -32936 
  -33179   -33477   -33844   -33949   -33752   -33472   -33133   -32943 
  -33077   -33299   -33376   -33253   -32886   -32317   -31814   -31584 
  -31617   -31920   -32489   -33180   -33704   -33877   -33750   -33357 
  -32786   -32170   -31560   -31122   -30907   -30738   -30579   -30552 
  -30716   -30958   -31198   -31469   -31649   -31710   -31870   -32117 
  -32289   -32398   -32365   -32118   -31924   -31913   -31946   -31975 
  -31871   -31614   -31454   -31465   -31595   -31792   -31906   -31837 
  -31651   -31580   -31800   -32110   -32132   -31709   -30990   -30373 
  -30301   -30804   -31555   -32211   -32425   -32106   -31598   -31359 
  -31615   -32165   -32614   -32726   -32438   -31900   -31430   -31268 
  -31382   -31533   -31542   -31365   -31142   -31153   -31541   -32202 
  -32894   -33397   -33558   -33456   -33381   -33472   -33746   -34078 
  -34171   -33982   -33645   -33296   -33136   -33190   -33230   -33092 
  -32891   -32781   -32729   -32785   -33041   -33394   -33743   -34063 
  -34226   -34065   -33727   -33521   -33553   -33820   -34166   -34363 
  -34351   -34116   -33785   -33617   -33679   -33863   -33998   -33926 
  -33701   -33559   -33609   -33690   -33571   -33190   -32687   -32277 
  -32165   -32383   -32664   -32715   -32482   -32138   -31909   -31896 
  -32207   -32743   -33146   -33385   -33583   -33683   -33720   -33740 
  -33696   -33576   -33444   -33307   -32978   -32462   -32095   -32058 
  -32179   -32210   -31944   -31312   -30664   -30454   -30718   -31297 
  -31966   -32381   -32432   -32309   -32205   -32266   -32545   -32833 
  -32845   -32589   -32252   -31956   -31769   -31660   -31481   -31187 
  -30911   -30688   -30500   -30437   -30499   -30651   -30903   -31222 
  -31642   -32120   -32535   -32823   -32849   -32597   -32230   -31855 
  -31518   -31358   -31573   -32104   -32657   -32965   -32830   -32321 
  -31740   -31300   -31107   -31130   -31110   -30828   -30414   -30101 
  -29945   -30040   -30466   -31091   -31693   -32053   -32047   -31769 
  -31529   -31610   -31985   -32509   -33005   -33245   -33214   -33088 
  -32995   -33007   -33211   -33595   -33964   -34238   -34469   -34593 
  -34596   -34568   -34471   -34258   -34054   -33903   -33713   -33547 
  -33507   -33590   -33799   -34063   -34211   -34147   -33946   -33751 
  -33641   -33602   -33564   -33493   -33436   -33518   -33783   -34028 
  -34106   -33940   -33440   -32928   -32834   -33254   -34143   -35174 
  -35889   -36106   -35821   -35275   -34873   -34775   -34895   -35057 
  -35012   -34636   -34059   -33540   -33351   -33514   -33733   -33765 
  -33459   -32832   -32305   -32137   -32155   -32216   -32149   -31801 
  -31398   -31261   -31438   -31807   -32067   -31873   -31309   -30828 
  -30796   -31266   -31905   -32233   -32058   -31508   -30864   -30426 
  -30312   -30478   -30772   -30881   -30640   -30310   -30169   -30238 
  -30441   -30574   -30415   -30055   -29705   -29454   -29477   -29959 
  -30787   -31631   -32131   -32139   -31886   -31640   -31471   -31392 
  -31374   -31346   -31297   -31235   -31148   -31040   -31028   -31269 
  -31657   -31916   -31937   -31739   -31443   -31210   -31081   -31102 
  -31263   -31397   -31506   -31656   -31729   -31677   -31468   -31053 
  -30680   -30602   -30764   -30974   -30997   -30738   -30336   -29979 
  -29925   -30334   -31070   -31891   -32535   -32790   -32679   -32414 
  -32287   -32510   -32984   -33428   -33652   -33588   -33370   -33264 
  -33367   -33662   -34135   -34618   -34892   -34876   -34597   -34100 
  -33439   -32797   -32416   -32354   -32604   -33105   -33605   -33894 
  -33947   -33866   -33866   -34132   -34672   -35299   -35671   -35535 
  -35030   -34553   -34344   -34414   -34668   -34958   -35057   -34812 
  -34342   -33839   -33425   -33283   -33452   -33731   -33987   -34103 
  -33894   -33415   -32965   -32775   -32890   -33192   -33411   -33307 
  -32882   -32307   -31775   -31399   -31142   -30928   -30754   -30627 
  -30584   -30666   -30794   -30832   -30705   -30467   -30370   -30518 
  -30703   -30688   -30310   -29669   -29185   -29126   -29500   -30179 
  -30791   -30995   -30820   -30475   -30248   -30378   -30721   -31011 
  -31131   -31031   -30849   -30748   -30739   -30897   -31189   -31458 
  -31663   -31749   -31684   -31574   -31485   -31451   -31489   -31598 
  -31885   -32365   -32754   -32769   -32359   -31722   -31221   -31115 
  -31446   -32018   -32489   -32697   -32708   -32672   -32750   -33019 
  -33374   -33573   -33469   -33164   -32872   -32725   -32750   -32916 
  -33160   -33496   -33967   -34419   -34645   -34560   -34149   -33595 
  -33136   -32878   -32902   -33180   -33526   -33766   -33765   -33511 
  -33229   -33159   -33302   -33609   -34017   -34304   -34310   -34046 
  -33615   -33279   -33246   -33486   -33789   -33894   -33711   -33378 
  -33150   -33214   -33531   -33895   -34054   -33864   -33354   -32667 
  -32053   -31687   -31539   -31500   -31493   -31494   -31519   -31626 
  -31822   -31966   -31963   -31843   -31592   -31225   -30933   -30894 
  -31122   -31473   -31664   -31578   -31326   -30958   -30603   -30401 
  -30248   -30087   -29975   -29919   -30007   -30267   -30587   -30934 
  -31262   -31423   -31385   -31192   -30869   -30526   -30263   -30198 
  -30429   -30759   -31025   -31271   -31475   -31721   -32186   -32803 
  -33328   -33624   -33677   -33543   -33429   -33492   -33680   -33994 
  -34338   -34421   -34128   -33588   -33040   -32764   -32827   -32923 
  -32818   -32604   -32363   -32167   -32063   -31945   -31761   -31467 
  -31070   -30719   -30402   -29979   -29428   -28803   -28257   -28075 
  -28432   -29194   -30100   -30904   -31416   -31625   -31614   -31490 
  -31367   -31342   -31505   -31742   -31859   -31842   -31801   -31856 
  -31991   -32107   -32187   -32244   -32289   -32323   -32303   -32189 
  -31968   -31701   -31525   -31527   -31638   -31787   -31975   -32182 
  -32432   -32637   -32667   -32611   -32449   -32180   -31984   -31729 
  -31328   -30998   -30778   -30682   -30809   -31055   -31266   -31367 
  -31324   -31229   -31174   -31166   -31233   -31267   -31130   -30912 
  -30767   -30808   -31032   -31254   -31370   -31364   -31256   -31179 
  -31204   -31301   -31390   -31383   -31423   -31706   -32126   -32497 
  -32693   -32511   -31997   -31501   -31202   -31091   -31148   -31222 
  -31111   -30747   -30266   -29876   -29727   -29838   -30067   -30323 
  -30515   -30532   -30508   -30609   -30801   -30969   -31025   -30990 
  -30937   -31049   -31502   -32191   -32916   -33555   -33994   -34151 
  -34077   -33898   -33651   -33369   -33084   -32752   -32433   -32250 
  -32242   -32403   -32708   -33075   -33300   -33239   -32943   -32512 
  -32132   -31993   -31998   -31929   -31820   -31747   -31670   -31743 
  -32010   -32244   -32377   -32362   -32118   -31735   -31359   -31208 
  -31419   -31893   -32466   -32941   -33203   -33287   -33188   -32913 
  -32554   -32104   -31592   -31270   -31280   -31545   -31973   -32326 
  -32393   -32205   -31896   -31737   -31954   -32484   -33030   -33188 
  -32894   -32508   -32344   -32567   -33151   -33750   -33985   -33851 
  -33575   -33291   -33159   -33292   -33568   -33785   -33793   -33599 
  -33364   -33246   -33258   -33225   -32957   -32434   -31851   -31471 
  -31448   -31809   -32394   -32953   -33312   -33389   -33279   -33170 
  -33239   -33592   -34076   -34449   -34677   -34801   -34743   -34475 
  -34144   -33826   -33556   -33442   -33466   -33564   -33665   -33675 
  -33617   -33526   -33434   -33435   -33579   -33794   -33855   -33619 
  -33170   -32699   -32473   -32662   -33143   -33573   -33694   -33538 
  -33227   -32856   -32532   -32370   -32412   -32502   -32434   -32115 
  -31603   -31047   -30560   -30211   -29955   -29763   -29722   -29764 
  -29776   -29800   -29914   -30083   -30205   -30358   -30673   -31111 
  -31613   -32126   -32479   -32534   -32432   -32335   -32260   -32279 
  -32297   -32127   -31822   -31505   -31320   -31341   -31415   -31474 
  -31606   -31816   -32034   -32160   -32061   -31729   -31355   -31101 
  -31051   -31293   -31782   -32307   -32636   -32651   -32423   -32202 
  -32189   -32281   -32320   -32297   -32259   -32376   -32701   -33074 
  -33399   -33535   -33387   -33076   -32774   -32661   -32802   -33029 
  -33047   -32739   -32292   -31986   -31990   -32135   -32144   -32023 
  -31819   -31630   -31683   -31951   -32306   -32673   -32853   -32759 
  -32568   -32495   -32660   -33002   -33338   -33620   -33808   -33808 
  -33754   -33821   -34026   -34296   -34472   -34529   -34470   -34271 
  -34040   -33811   -33576   -33392   -33305   -33418   -33714   -34055 
  -34343   -34423   -34192   -33813   -33631   -33870   -34433   -35021 
  -35209   -34767   -33984   -33334   -33121   -33413   -33958   -34332 
  -34310   -33895   -33293   -32842   -32614   -32529   -32579   -32605 
  -32528   -32358   -31979   -31494   -31145   -31045   -31246   -31650 
  -31962   -32022   -31923   -31691   -31328   -31034   -30913   -30943 
  -31113   -31322   -31486   -31570   -31523   -31386   -31262   -31161 
  -31030   -30914   -30880   -30934   -31147   -31515   -31872   -32076 
  -32068   -31895   -31775   -31915   -32310   -32825   -33157   -32976 
  -32378   -31670   -31124   -31031   -31340   -31779   -32155   -32280 
  -32112   -31733   -31279   -30966   -30968   -31308   -31803   -32175 
  -32243   -32089   -31959   -31866   -31703   -31467   -31117   -30652 
  -30203   -29924   -29913   -30139   -30468   -30740   -30911   -30996 
  -31019   -31052   -31063   -31003   -30938   -30916   -30951   -31043 
  -31226   -31484   -31756   -32094   -32449   -32690   -32919   -33278 
  -33732   -34164   -34425   -34460   -34385   -34291   -34244   -34333 
  -34401   -34334   -34260   -34123   -33951   -33920   -33963   -34022 
  -34022   -33865   -33706   -33659   -33712   -33827   -33921   -33961 
  -33878   -33636   -33401   -33325   -33323   -33282   -33175   -32922 
  -32619   -32509   -32608   -32827   -33065   -33171   -33129   -33032 
  -32949   -32926   -32961   -32911   -32677   -32381   -32133   -31934 
  -31813   -31816   -31924   -31993   -31921   -31776   -31702   -31827 
  -32149   -32490   -32650   -32572   -32318   -32004   -31837   -31901 
  -32103   -32373   -32544   -32510   -32449   -32536   -32778   -33007 
  -33025   -32784   -32323   -31837   -31605   -31745   -32179   -32713 
  -33065   -32950   -32411   -31812   -31450   -31449   -31697   -31957 
  -32103   -32089   -32035   -32218   -32749   -33419   -33886   -33976 
  -33613   -32870   -32148   -31835   -32003   -32471   -32932   -33147 
  -32987   -32497   -31970   -31701   -31798   -32232   -32787   -33165 
  -33307   -33283   -33189   -33255   -33565   -34000   -34367   -34390 
  -34018   -33504   -33147   -33143   -33512   -34138   -34775   -35107 
  -35053   -34748   -34268   -33766   -33466   -33297   -33149   -33077 
  -33017   -32974   -32941   -32739   -32406   -32067   -31744   -31541 
  -31477   -31464   -31457   -31404   -31342   -31316   -31294   -31355 
  -31544   -31659   -31573   -31387   -31110   -30723   -30395   -30314 
  -30510   -30861   -31226   -31515   -31695   -31813   -31882   -31902 
  -31876   -31744   -31502   -31210   -31011   -31172   -31703   -32292 
  -32632   -32624   -32395   -32173   -32162   -32397   -32740   -32996 
  -32987   -32682   -32195   -31789   -31702   -31833   -31886   -31646 
