Origin Time       2011/03/11 14:46:00
Lat.              38.103
Long.             142.860
Depth. (km)       24
Mag.              9.0
Station Code      HKD182
Station Lat.      42.9923
Station Long.     141.5526
Station Height(m) 38
Record Time       2011/03/11 14:48:54
Sampling Freq(Hz) 100Hz
Duration Time(s)  213
Dir.              N-S
Scale Factor      3920(gal)/6182761
Max. Acc. (gal)   15.435
Last Correction   2011/03/11 14:48:39
Memo.             
[...]
   -8829    -9506   -10109   -10672   -11268   -11955   -12691   -13321 
  -13736   -13984   -14146   -14145   -13791   -13050   -12090   -11088 
  -10158    -9337    -8617    -8042    -7730    -7788    -8131    -8475 
   -8600    -8502    -8276    -7917    -7286    -6217    -4628    -2603 
    -369     1845     3822     5335     6183     6202     5383     3991 
    2482     1323      779      862     1467     2477     3760     5124 
    6372     7349     7922     8062     7831     7276     6447     5439 
    4361     3293     2222     1166      292     -300     -652     -805 
    -856     -976    -1286    -1795    -2414    -2975    -3322    -3499 
   -3769    -4371    -5279    -6169    -6765    -7050    -7078    -6888 
   -6468    -5728    -4727    -3644    -2455     -959      843     2658 
    4141     5115     5631     5814     5718     5328     4573     3445 
    2098      753     -316     -872     -929     -656     -161      476 
    1094     1489     1604     1608     1777     2325     3211     4162 
    4912     5369     5623     5757     5746     5601     5335     4893 
    4252     3512     2860     2473     2489     2946     3708     4643 
    5754     7011     8264     9416    10496    11453    12091    12311 
   12185    11768    10988     9832     8547     7438     6581     5868 
    5120     4207     3210     2366     1867     1729     1778     1799 
    1728     1657     1730     1959     2217     2427     2580     2636 
    2496     2097     1532      906      153     -776    -1686    -2206 
   -2098    -1487     -712      -41      429      732      999     1456 
    2259     3306     4404     5490     6555     7531     8319     8804 
    8918     8707     8186     7258     5977     4616     3422     2540 
    2083     2072     2354     2622     2726     2791     2844     2884 
    3031     3162     3122     2976     2740     2425     2140     2089 
    2534     3517     4747     5837     6719     7684     8925    10329 
   11695    12863    13704    14125    14109    13816    13531    13403 
   13317    13062    12526    11720    10707     9584     8499     7566 
    6712     5714     4451     3099     2011     1412     1331     1731 
    2581     3820     5274     6693     7984     9255    10492    11536 
   12371    13037    13432    13488    13323    13138    12958    12600 
   12013    11368    10872    10669    10706    10727    10543    10189 
    9807     9434     8997     8517     8174     8026     7884     7583 
    7152     6716     6349     6046     5774     5517     5230     4812 
    4175     3368     2589     1997     1578     1266     1046      909 
     805      693      561      394      182      -33     -211     -393 
    -658    -1030    -1468    -1867    -2010    -1679     -906       21 
     835     1387     1601     1496     1212      950      876      992 
    1145     1163      976      720      619      743     1044     1518 
    2255     3387     4880     6393     7519     8118     8361     8553 
    8931     9550    10285    10870    11002    10575     9845     9210 
    8848     8640     8344     7844     7191     6345     5154     3598 
    1869      269    -1039    -2166    -3305    -4436    -5328    -5805 
   -5814    -5419    -4852    -4297    -3757    -3193    -2573    -1857 
   -1046     -227      486     1092     1703     2363     2916     3162 
    3167     3230     3503     3879     4223     4497     4740     5057 
    5692     6873     8552    10417    12011    12926    13058    12613 
   11892    11115    10420     9907     9539     9113     8449     7631 
    7017     6931     7344     7865     8002     7486     6364     4884 
    3334     1930      841      291      424     1113     2097     3202 
    4345     5484     6658     7978     9400    10555    10983    10505 
    9313     7745     6041     4353     2812     1490      442     -296 
    -868    -1472    -2028    -2294    -2144    -1594     -763       90 
     634      708      431       14     -419     -856    -1302    -1629 
   -1720    -1612    -1351     -873     -111      858     1834     2713 
    3528     4324     5071     5629     5764     5329     4402     3137 
    1623      -50    -1750    -3327    -4687    -5841    -6868    -7827 
   -8698    -9386    -9833   -10224   -10869   -11834   -12906   -13892 
  -14719   -15287   -15369   -14874   -14057   -13283   -12737   -12357 
  -11935   -11319   -10469    -9436    -8363    -7452    -6876    -6656 
   -6719    -6991    -7362    -7716    -7924    -7753    -7069    -6000 
   -4757    -3552    -2517    -1428      -31     1507     3177     5222 
    7443     9523    11359    12755    13756    14734    15779    16757 
   17597    18223    18620    18893    19107    19232    19210    19062 
   18928    18877    18790    18578    18279    17931    17571    17312 
   17153    16820    16006    14646    12935    11214     9797     8819 
    8204     7789     7563     7699     8260     9065     9881    10537 
   10885    10888    10700    10548    10510    10480    10364    10154 
    9794     9234     8549     7838     7183     6819     6994     7652 
    8481     9259    10040    10975    12069    13144    13942    14317 
   14337    14110    13647    12927    12014    11054    10181     9497 
    9106     9037     9167     9250     9098     8705     8178     7631 
    7135     6748     6523     6495     6651     6935     7358     8004 
    8864     9826    10687    11271    11586    11724    11753    11745 
   11732    11717    11723    11718    11605    11301    10797    10220 
    9800     9709     9979    10580    11500    12646    13776    14615 
   15011    14952    14477    13651    12586    11296     9600     7368 
    4767     2157     -162    -2076    -3616    -4784    -5465    -5606 
   -5287    -4577    -3500    -2084     -376     1487     3186     4390 
    5064     5453     5782     6093     6254     6091     5587     4943 
    4448     4333     4663     5318     6194     7267     8395     9302 
    9800     9830     9416     8714     7948     7209     6387     5419 
    4480     3782     3332     3028     2770     2447     1966     1345 
     647     -238    -1582    -3501    -5834    -8370   -10949   -13317 
  -15195   -16553   -17511   -18062   -18186   -18052   -17839   -17604 
  -17450   -17473   -17617   -17805   -18052   -18388   -18803   -19168 
  -19246   -18976   -18525   -17980   -17288   -16322   -14916   -13066 
  -10969    -8892    -7107    -5706    -4547    -3476    -2452    -1551 
    -870     -449     -375     -722    -1311    -1698    -1680    -1513 
   -1232     -856     -832    -1264    -2023    -3041    -3929    -4504 
   -4958    -5320    -5543    -5681    -5806    -5970    -6250    -6713 
   -7312    -7989    -8737    -9523   -10254   -10752   -10844   -10525 
   -9921    -9188    -8484    -7894    -7392    -6952    -6576    -6335 
   -6379    -6710    -7073    -7291    -7406    -7525    -7724    -7879 
   -7794    -7619    -7583    -7613    -7605    -7623    -7730    -7968 
   -8403    -8962    -9467    -9886   -10271   -10668   -11127   -11595 
  -11904   -11960   -11821   -11586   -11223   -10607    -9737    -8757 
   -7786    -6824    -5763    -4466    -2876    -1099      642     2177 
    3548     4923     6319     7606     8765     9956    11317    12779 
   14144    15354    16445    17268    17583    17385    16880    16238 
   15523    14727    13750    12482    10863     8936     6892     4943 
    3221     1861     1033      768      848     1016     1212     1444 
    1553     1357      959      694      745     1002     1300     1616 
    1993     2385     2688     2908     3207     3666     4107     4285 
    4073     3435     2506     1636     1076      761      568      498 
     571      763      931      845      426     -239    -1101    -2184 
   -3481    -4878    -6186    -7350    -8507    -9767   -11020   -11978 
  -12394   -12226   -11605   -10711    -9667    -8588    -7640    -6890 
   -6228    -5532    -4776    -4031    -3359    -2709    -2055    -1456 
    -915     -367      214      760     1162     1422     1684     2135 
    2810     3566     4321     5118     6051     7246     8712    10319 
   11945    13447    14686    15612    16202    16501    16658    16748 
   16691    16386    15849    15252    14765    14355    13917    13439 
   12881    12164    11384    10767    10419    10215     9947     9503 
    8909     8227     7490     6720     5962     5336     5021     5106 
    5521     6100     6746     7528     8543     9809    11285    12909 
   14578    16115    17348    18212    18660    18635    18135    17227 
   16067    14819    13575    12479    11770    11591    11810    12088 
   12163    11995    11675    11258    10655     9751     8526     6985 
    5135     3071     1002     -816    -2202    -3204    -4107    -5118 
   -6132    -6980    -7643    -8101    -8302    -8239    -7933    -7403 
   -6622    -5542    -4196    -2648     -913      993     2968     4808 
    6283     7244     7662     7590     7110     6376     5624     5031 
    4561     3987     3107     1897      500     -846    -1959    -2813 
   -3467    -3940    -4188    -4181    -3999    -3759    -3515    -3310 
   -3199    -3175    -3157    -3098    -3037    -3019    -3008    -2919 
   -2743    -2529    -2311    -2144    -2037    -1984    -2119    -2651 
   -3664    -4984    -6182    -6780    -6597    -5840    -4802    -3603 
   -2205     -573     1206     2993     4655     6000     6840     7136 
    7009     6637     6140     5552     4905     4315     3870     3564 
    3433     3538     3819     4154     4505     4931     5433     5879 
    6137     6186     6102     5959     5825     5797     5884     5941 
    5814     5552     5388     5482     5777     6121     6396     6579 
    6718     6902     7222     7682     8283     9074     9991    10916 
   11821    12631    13173    13360    13219    12825    12287    11742 
   11374    11348    11664    12144    12565    12790    12852    12882 
   13014    13325    13752    14103    14217    14101    13904    13767 
   13768    13969    14390    14935    15449    15823    15992    15886 
   15428    14540    13256    11718    10032     8301     6593     4880 
    3239     1832      750       10     -549    -1197    -1976    -2707 
   -3262    -3664    -3999    -4315    -4542    -4545    -4264    -3791 
   -3354    -3164    -3198    -3298    -3405    -3525    -3634    -3776 
   -4042    -4426    -4790    -4966    -4928    -4811    -4729    -4673 
   -4554    -4262    -3799    -3251    -2560    -1582     -347      957 
    2139     3028     3509     3595     3366     2896     2311     1787 
    1450     1327     1336     1319     1179      961      824      902 
    1184     1587     2028     2389     2568     2552     2493     2643 
    3146     3923     4700     5120     4981     4344     3363     2251 
    1355      907      859     1031     1258     1524     1954     2677 
    3756     5050     6154     6631     6349     5575     4750     4190 
    3964     3959     4087     4333     4570     4546     4206     3862 
    3808     3974     4112     4112     3993     3882     4040     4671 
    5792     7287     8904    10411    11772    12993    13971    14578 
   14777    14755    14784    15036    15596    16178    16238    15969 
   16009    16133    15990    16090    16604    16970    16936    16445 
   15394    14025    12702    11665    11006    10570    10121     9529 
    8823     8204     7904     7926     8122     8455     8836     8999 
    8827     8488     8315     8644     9604    10901    12018    12735 
   13149    13374    13504    13550    13377    12872    12056    11063 
   10092     9337     8907     8787     8887     9086     9297     9579 
   10051    10731    11493    12046    12080    11609    10961    10390 
    9961     9701     9641     9797    10190    10793    11519    12283 
   13009    13584    13857    13715    13140    12281    11436    10777 
   10233     9735     9340     9100     9057     9286     9829    10592 
   11278    11556    11376    10944    10465    10032     9617     9225 
    9026     9125     9318     9253     8815     8270     8040     8306 
    8869     9388     9601     9405     8870     8163     7492     7000 
    6592     6065     5310     4286     3048     1745      513     -484 
   -1103    -1393    -1550    -1749    -2064    -2481    -2933    -3338 
   -3643    -3820    -3845    -3779    -3774    -3933    -4254    -4643 
   -4875    -4685    -4050    -3282    -2733    -2478    -2323    -2096 
   -1827    -1607    -1405    -1100     -645      -95      547     1391 
    2467     3559     4329     4636     4596     4368     4009     3533 
    2972     2356     1690      996      347     -176     -541     -760 
    -843     -824     -841    -1057    -1500    -2092    -2838    -3839 
   -5079    -6385    -7631    -8828    -9959   -10915   -11651   -12236 
  -12742   -13180   -13498   -13644   -13622   -13449   -13175   -12858 
  -12422   -11880   -11444   -11184   -10952   -10593   -10097    -9580 
   -9039    -8393    -7716    -7125    -6595    -5956    -5052    -3919 
   -2771    -1785     -965     -250      319      642      733      713 
     695      762      923     1103     1218     1247     1214     1072 
     615     -268    -1381    -2493    -3590    -4762    -6065    -7479 
   -8893   -10206   -11387   -12490   -13623   -14760   -15753   -16562 
  -17207   -17673   -18002   -18299   -18624   -18898   -18930   -18665 
  -18296   -18019   -17879   -17839   -17788   -17662   -17631   -17820 
  -18307   -19227   -20337   -21171   -21566   -21620   -21423   -20813 
  -19543   -17622   -15302   -12997   -11074    -9639    -8644    -7987 
   -7621    -7613    -7932    -8475    -9306   -10443   -11678   -12825 
  -13755   -14269   -14226   -13599   -12470   -11064    -9607    -8156 
   -6652    -5069    -3479    -1964     -553      690     1521     1640 
    1075      237     -379     -422       76      662      964      966 
     764      437       13     -521    -1103    -1672    -2184    -2528 
   -2686    -2787    -2943    -3206    -3569    -3940    -4203    -4335 
   -4432    -4598    -4827    -5041    -5157    -4990    -4294    -3141 
   -1972    -1154     -719     -492     -378     -463     -836    -1433 
   -2103    -2725    -3149    -3193    -2797    -2040     -996      281 
    1733     3234     4568     5627     6522     7320     7780     7602 
    6799     5626     4380     3328     2575     2120     1996     2167 
    2444     2603     2579     2538     2701     3155     3930     5054 
    6408     7726     8807     9611    10222    10777    11382    11983 
   12357    12269    11585    10350     8708     6764     4738     2984 
    1618      459     -599    -1416    -1787    -1613     -923      151 
    1445     2777     3955     4895     5658     6371     7108     7841 
    8548     9244     9848    10169    10089     9736     9392     9257 
    9320     9364     9173     8747     8233     7784     7611     7939 
    8796    10005    11340    12607    13637    14237    14351    14194 
   14022    13882    13598    12955    11903    10635     9472     8672 
    8385     8739     9767    11239    12785    14199    15502    16728 
   17758    18410    18680    18784    18908    19085    19278    19462 
   19627    19724    19666    19439    19122    18816    18600    18544 
   18722    19189    19886    20520    20798    20828    20879    20938 
   20917    20855    20739    20537    20280    19971    19582    19148 
   18766    18491    18346    18417    18678    18899    18919    18695 
   18261    17790    17480    17399    17478    17494    17100    16124 
   14772    13425    12264    11159     9974     8881     8170     7847 
    7641     7385     7092     6679     5965     4916     3655     2308 
     942     -437    -1874    -3361    -4705    -5616    -5917    -5646 
   -5015    -4322    -3896    -3958    -4415    -4949    -5359    -5682 
   -6069    -6591    -7120    -7381    -7137    -6435    -5583    -4860 
   -4371    -4038    -3687    -3270    -2905    -2673    -2587    -2695 
   -3075    -3703    -4362    -4767    -4788    -4532    -4208    -3930 
   -3656    -3350    -3135    -3166    -3430    -3828    -4305    -4774 
   -5082    -5062    -4654    -4036    -3506    -3175    -2980    -2832 
   -2620    -2312    -2053    -1942    -1846    -1758    -1880    -2095 
   -2048    -1680    -1240     -910     -668     -508     -438     -378 
    -228      109      564      915     1052      953      694      494 
     605     1206     2282     3675     5217     6688     7906     8858 
    9581    10089    10431    10672    10801    10749    10542    10332 
   10243    10308    10435    10415    10028     9150     7927     6644 
    5394     4184     3064     2006      959      -47     -914    -1450 
   -1477     -982     -179      547      834      513     -347    -1486 
   -2618    -3550    -4245    -4808    -5309    -5623    -5625    -5444 
   -5283    -5168    -5017    -4744    -4260    -3535    -2650    -1725 
    -840      -79      441      636      518      183     -297     -937 
   -1714    -2553    -3417    -4227    -4807    -5120    -5374    -5773 
   -6296    -6709    -6738    -6219    -5169    -3803    -2401    -1179 
    -256      364      795     1243     1904     2796     3787     4736 
    5566     6322     7095     7885     8640     9280     9761    10142 
   10456    10654    10768    10895    11065    11259    11388    11360 
   11245    11187    11188    11091    10755    10190     9515     8826 
    8072     7090     5793     4311     2903     1768      967      467 
     149      -80      -95      318     1194     2371     3565     4451 
    4818     4704     4355     3990     3697     3500     3359     3210 
    3071     3040     3187     3434     3608     3612     3428     3042 
    2512     2020     1817     2094     2785     3592     4271     4868 
    5607     6602     7688     8586     9166     9510     9722     9774 
    9619     9373     9257     9412     9822    10379    10971    11462 
   11695    11631    11362    10983    10548    10072     9537     8953 
    8400     7995     7766     7613     7466     7371     7379     7481 
    7633     7818     8074     8419     8781     9028     9101     9106 
    9203     9482     9961    10540    11061    11427    11532    11310 
   10930    10660    10656    10954    11403    11775    11935    11804 
   11396    10819    10186     9608     9135     8687     8123     7393 
    6611     5940     5530     5541     6011     6724     7367     7741 
    7816     7705     7500     7220     6948     6811     6849     7026 
    7244     7380     7401     7375     7366     7395     7434     7368 
    7109     6672     6084     5442     4944     4672     4606     4746 
    5040     5336     5419     5139     4663     4367     4395     4583 
    4720     4695     4541     4363     4176     3978     3900     4060 
    4409     4808     5100     5198     5169     5103     5009     4880 
    4661     4251     3724     3317     3224     3491     3996     4461 
    4614     4385     3847     3087     2194     1328      742      581 
     737     1036     1427     1938     2532     3086     3488     3632 
    3453     3064     2654     2288     1935     1633     1548     1833 
    2474     3316     4169     4845     5178     5128     4771     4184 
    3450     2644     1771      820     -168    -1049    -1640    -1954 
