Origin Time       2011/03/11 14:46:00
Lat.              38.103
Long.             142.860
Depth. (km)       24
Mag.              9.0
Station Code      HKD116
Station Lat.      43.8005
Station Long.     141.9343
Station Height(m) 48
Record Time       2011/03/11 14:49:11
Sampling Freq(Hz) 100Hz
Duration Time(s)  300
Dir.              N-S
Scale Factor      3920(gal)/6182761
Max. Acc. (gal)   13.095
Last Correction   2011/03/11 14:48:56
Memo.             
[...]
   -4507    -4480    -4417    -4340    -4266    -4215    -4204    -4250 
   -4363    -4523    -4703    -4890    -5065    -5214    -5333    -5429 
   -5521    -5622    -5718    -5799    -5884    -5979    -6057    -6116 
   -6179    -6250    -6316    -6396    -6514    -6645    -6740    -6809 
   -6879    -6876    -6754    -6578    -6327    -5989    -5646    -5316 
   -5003    -4731    -4516    -4341    -4170    -4043    -3971    -3868 
   -3746    -3674    -3598    -3507    -3504    -3510    -3451    -3473 
   -3520    -3471    -3473    -3521    -3473    -3440    -3465    -3445 
   -3403    -3365    -3317    -3267    -3206    -3146    -3097    -3039 
   -2994    -2997    -3055    -3169    -3328    -3519    -3737    -3979 
   -4242    -4524    -4820    -5135    -5473    -5821    -6173    -6518 
   -6842    -7144    -7417    -7656    -7871    -8080    -8294    -8508 
   -8726    -8978    -9277    -9602    -9935   -10275   -10624   -10976 
  -11334   -11715   -12113   -12503   -12858   -13167   -13429   -13651 
  -13859   -14080   -14323   -14594   -14886   -15188   -15474   -15709 
  -15883   -16023   -16116   -16102   -15997   -15903   -15833   -15743 
  -15666   -15651   -15693   -15712   -15649   -15548   -15432   -15273 
  -15117   -15012   -14953   -14962   -15054   -15175   -15273   -15345 
  -15399   -15414   -15399   -15405   -15463   -15572   -15717   -15884 
  -16070   -16262   -16420   -16516   -16552   -16519   -16402   -16216 
  -15984   -15719   -15429   -15134   -14847   -14544   -14227   -13915 
  -13595   -13258   -12922   -12599   -12283   -11964   -11644   -11348 
  -11068   -10782   -10491   -10191    -9878    -9571    -9267    -8963 
   -8699    -8479    -8290    -8166    -8122    -8139    -8209    -8315 
   -8438    -8540    -8592    -8621    -8625    -8589    -8561    -8571 
   -8613    -8719    -8904    -9145    -9442    -9783   -10155   -10551 
  -10970   -11423   -11922   -12464   -13037   -13625   -14197   -14718 
  -15147   -15456   -15649   -15742   -15742   -15673   -15572   -15474 
  -15415   -15405   -15436   -15506   -15605   -15694   -15732   -15720 
  -15675   -15594   -15491   -15386   -15296   -15242   -15219   -15197 
  -15162   -15097   -14990   -14855   -14696   -14507   -14295   -14066 
  -13816   -13554   -13294   -13049   -12838   -12692   -12628   -12609 
  -12607   -12681   -12857   -13080   -13332   -13624   -13937   -14221 
  -14441   -14624   -14803   -14957   -15079   -15188   -15296   -15407 
  -15521   -15629   -15712   -15754   -15762   -15740   -15680   -15595 
  -15516   -15450   -15394   -15346   -15312   -15298   -15287   -15248 
  -15177   -15089   -14989   -14887   -14801   -14751   -14743   -14763 
  -14805   -14864   -14912   -14924   -14895   -14836   -14763   -14696 
  -14645   -14607   -14568   -14525   -14467   -14378   -14262   -14126 
  -13965   -13791   -13618   -13432   -13232   -13038   -12852   -12677 
  -12525   -12398   -12295   -12196   -12071   -11898   -11661   -11356 
  -10990   -10565   -10101    -9625    -9158    -8733    -8370    -8056 
   -7782    -7541    -7300    -7024    -6696    -6315    -5900    -5476 
   -5063    -4685    -4351    -4047    -3765    -3500    -3242    -2990 
   -2740    -2495    -2279    -2123    -2065    -2134    -2325    -2619 
   -3003    -3448    -3923    -4407    -4875    -5305    -5694    -6042 
   -6362    -6670    -6974    -7274    -7562    -7832    -8072    -8265 
   -8394    -8454    -8445    -8365    -8229    -8073    -7930    -7826 
   -7774    -7780    -7829    -7890    -7931    -7930    -7873    -7764 
   -7626    -7486    -7374    -7312    -7305    -7356    -7464    -7611 
   -7780    -7945    -8077    -8157    -8178    -8150    -8091    -8027 
   -7983    -7985    -8054    -8192    -8369    -8547    -8691    -8757 
   -8715    -8574    -8354    -8077    -7781    -7503    -7260    -7046 
   -6841    -6617    -6343    -5998    -5585    -5133    -4680    -4254 
   -3886    -3606    -3422    -3327    -3314    -3382    -3515    -3691 
   -3908    -4170    -4477    -4850    -5291    -5780    -6305    -6851 
   -7385    -7883    -8340    -8746    -9102    -9424    -9732   -10046 
  -10378   -10738   -11123   -11519   -11918   -12312   -12673   -12984 
  -13248   -13458   -13609   -13706   -13750   -13757   -13760   -13779 
  -13827   -13931   -14100   -14325   -14601   -14898   -15182   -15441 
  -15674   -15884   -16080   -16287   -16519   -16772   -17035   -17314 
  -17611   -17914   -18210   -18494   -18775   -19064   -19363   -19677 
  -19996   -20291   -20549   -20767   -20917   -20982   -20980   -20925 
  -20821   -20702   -20606   -20540   -20502   -20493   -20506   -20549 
  -20628   -20710   -20787   -20863   -20912   -20917   -20885   -20822 
  -20740   -20644   -20532   -20432   -20360   -20316   -20319   -20364 
  -20427   -20499   -20564   -20577   -20512   -20362   -20120   -19776 
  -19337   -18823   -18271   -17722   -17192   -16683   -16209   -15787 
  -15422   -15120   -14894   -14749   -14679   -14667   -14685   -14703 
  -14704   -14679   -14608   -14478   -14307   -14120   -13913   -13696 
  -13485   -13268   -13015   -12693   -12299   -11856   -11367   -10852 
  -10340    -9835    -9354    -8922    -8540    -8214    -7959    -7763 
   -7607    -7485    -7395    -7340    -7325    -7342    -7365    -7377 
   -7375    -7352    -7298    -7220    -7139    -7080    -7055    -6981 
   -6775    -6543    -6378    -6194    -5963    -5772    -5657    -5555 
   -5380    -5179    -5036    -4899    -4729    -4562    -4393    -4233 
   -4108    -3990    -3858    -3723    -3608    -3525    -3432    -3297 
   -3147    -2992    -2801    -2555    -2279    -2023    -1799    -1582 
   -1401    -1308    -1291    -1322    -1410    -1556    -1735    -1915 
   -2091    -2251    -2366    -2447    -2516    -2559    -2586    -2634 
   -2722    -2837    -2981    -3183    -3450    -3736    -4015    -4281 
   -4505    -4691    -4857    -4980    -5074    -5182    -5308    -5434 
   -5575    -5762    -6005    -6280    -6574    -6888    -7203    -7509 
   -7796    -8048    -8272    -8484    -8684    -8863    -9022    -9176 
   -9334    -9478    -9594    -9686    -9757    -9823    -9909   -10029 
  -10194   -10426   -10698   -10956   -11177   -11347   -11438   -11446 
  -11381   -11241   -11040   -10812   -10588   -10393   -10247   -10171 
  -10168   -10229   -10350   -10533   -10775   -11051   -11344   -11652 
  -11955   -12235   -12485   -12695   -12860   -12984   -13058   -13087 
  -13097   -13111   -13149   -13229   -13356   -13551   -13827   -14165 
  -14538   -14915   -15263   -15565   -15808   -15977   -16075   -16120 
  -16125   -16105   -16076   -16049   -16036   -16060   -16133   -16256 
  -16434   -16670   -16957   -17291   -17663   -18043   -18409   -18746 
  -19039   -19290   -19518   -19731   -19936   -20145   -20355   -20561 
  -20753   -20926   -21083   -21216   -21311   -21364   -21384   -21374 
  -21344   -21316   -21298   -21283   -21259   -21208   -21125   -21002 
  -20833   -20623   -20371   -20075   -19754   -19425   -19084   -18741 
  -18415   -18095   -17761   -17416   -17059   -16680   -16286   -15892 
  -15513   -15171   -14875   -14626   -14425   -14266   -14139   -14038 
  -13958   -13909   -13890   -13902   -13973   -14114   -14278   -14440 
  -14626   -14809   -14951   -15072   -15174   -15238   -15279   -15309 
  -15312   -15271   -15193   -15078   -14915   -14700   -14428   -14103 
  -13742   -13357   -12972   -12623   -12334   -12118   -11993   -11962 
  -11997   -12068   -12147   -12198   -12200   -12153   -12054   -11909 
  -11741   -11553   -11361   -11198   -11068   -10965   -10912   -10912 
  -10954   -11033   -11152   -11304   -11481   -11671   -11851   -11993 
  -12080   -12099   -12052   -11935   -11753   -11543   -11342   -11167 
  -11029   -10926   -10866   -10850   -10846   -10840   -10840   -10840 
  -10833   -10822   -10795   -10717   -10574   -10374   -10101    -9756 
   -9369    -8958    -8539    -8125    -7728    -7377    -7070    -6780 
   -6508    -6250    -5989    -5741    -5518    -5321    -5166    -5062 
   -5006    -4986    -4981    -4980    -4964    -4913    -4815    -4667 
   -4481    -4283    -4085    -3898    -3743    -3618    -3509    -3407 
   -3305    -3195    -3077    -2954    -2841    -2743    -2643    -2534 
   -2419    -2306    -2202    -2111    -2036    -1991    -1984    -2010 
   -2066    -2172    -2343    -2533    -2727    -2999    -3340    -3682 
   -4032    -4406    -4783    -5134    -5442    -5748    -6077    -6393 
   -6698    -7006    -7286    -7528    -7748    -7926    -8032    -8065 
   -8045    -7979    -7870    -7742    -7633    -7568    -7548    -7565 
   -7614    -7694    -7771    -7813    -7826    -7816    -7770    -7704 
   -7646    -7602    -7566    -7548    -7565    -7606    -7651    -7713 
   -7794    -7877    -7968    -8091    -8246    -8423    -8627    -8865 
   -9127    -9400    -9682    -9969   -10258   -10541   -10798   -11008 
  -11175   -11321   -11441   -11522   -11577   -11616   -11618   -11580 
  -11509   -11389   -11200   -10966   -10716   -10446   -10173    -9933 
   -9750    -9621    -9537    -9511    -9545    -9601    -9654    -9690 
   -9687    -9644    -9582    -9518    -9462    -9431    -9442    -9499 
   -9601    -9748    -9927   -10134   -10360   -10582   -10791   -10998 
  -11213   -11443   -11705   -12008   -12347   -12712   -13099   -13501 
  -13905   -14299   -14670   -15005   -15294   -15528   -15694   -15780 
  -15798   -15761   -15683   -15584   -15469   -15327   -15163   -14976 
  -14770   -14571   -14381   -14200   -14049   -13933   -13836   -13749 
  -13667   -13593   -13541   -13515   -13511   -13526   -13570   -13664 
  -13773   -13849   -13931   -14054   -14184   -14307   -14442   -14596 
  -14770   -14932   -15078   -15262   -15503   -15773   -16063   -16351 
  -16600   -16788   -16901   -16924   -16863   -16747   -16594   -16416 
  -16231   -16042   -15847   -15642   -15403   -15116   -14805   -14487 
  -14144   -13777   -13419   -13069   -12715   -12379   -12083   -11817 
  -11557   -11287   -10999   -10662   -10276    -9867    -9433    -8976 
   -8534    -8137    -7789    -7497    -7265    -7079    -6911    -6740 
   -6560    -6376    -6201    -6047    -5927    -5856    -5860    -5936 
   -6055    -6198    -6350    -6490    -6602    -6687    -6757    -6818 
   -6882    -6970    -7077    -7198    -7334    -7472    -7583    -7660 
   -7710    -7735    -7744    -7758    -7799    -7872    -7973    -8095 
   -8226    -8347    -8439    -8490    -8506    -8501    -8484    -8474 
   -8483    -8514    -8566    -8634    -8715    -8806    -8898    -8994 
   -9085    -9169    -9253    -9342    -9440    -9559    -9711    -9895 
  -10089   -10288   -10498   -10692   -10852   -10981   -11080   -11149 
  -11201   -11248   -11290   -11328   -11364   -11403   -11445   -11495 
  -11554   -11620   -11675   -11727   -11805   -11909   -12022   -12164 
  -12337   -12513   -12684   -12851   -12999   -13119   -13216   -13295 
  -13363   -13417   -13445   -13446   -13415   -13334   -13211   -13069 
  -12926   -12797   -12686   -12591   -12522   -12484   -12460   -12442 
  -12420   -12370   -12275   -12133   -11948   -11715   -11438   -11133 
  -10808   -10482   -10170    -9874    -9585    -9298    -9012    -8722 
   -8415    -8095    -7776    -7463    -7167    -6908    -6692    -6524 
   -6406    -6311    -6212    -6107    -5978    -5801    -5584    -5335 
   -5069    -4820    -4611    -4433    -4280    -4155    -4072    -4038 
   -4060    -4152    -4310    -4506    -4719    -4927    -5103    -5238 
   -5336    -5416    -5515    -5672    -5897    -6193    -6548    -6924 
   -7288    -7620    -7912    -8168    -8393    -8595    -8786    -8975 
   -9174    -9395    -9642    -9905   -10162   -10389   -10564   -10667 
  -10698   -10670   -10582   -10441   -10257   -10043    -9812    -9562 
   -9300    -9037    -8764    -8473    -8168    -7845    -7493    -7107 
   -6696    -6284    -5896    -5543    -5231    -4961    -4720    -4488 
   -4259    -4029    -3779    -3510    -3238    -2972    -2723    -2520 
   -2381    -2310    -2311    -2381    -2504    -2655    -2807    -2946 
   -3069    -3181    -3293    -3429    -3621    -3883    -4211    -4592 
   -5006    -5438    -5880    -6319    -6749    -7175    -7600    -8030 
   -8467    -8909    -9360    -9820   -10275   -10721   -11161   -11598 
  -12035   -12473   -12905   -13323   -13723   -14092   -14407   -14654 
  -14833   -14939   -14974   -14955   -14904   -14828   -14733   -14639 
  -14557   -14485   -14417   -14336   -14218   -14056   -13853   -13593 
  -13268   -12894   -12491   -12081   -11712   -11409   -11149   -10949 
  -10841   -10757   -10626   -10450   -10234    -9963    -9634    -9299 
   -9025    -8819    -8671    -8584    -8543    -8522    -8510    -8487 
   -8444    -8402    -8380    -8388    -8448    -8562    -8724    -8935 
   -9175    -9415    -9640    -9845   -10014   -10132   -10209   -10271 
  -10327   -10377   -10436   -10517   -10623   -10760   -10932   -11135 
  -11365   -11638   -11971   -12358   -12797   -13292   -13846   -14460 
  -15122   -15821   -16545   -17263   -17948   -18589   -19173   -19710 
  -20210   -20674   -21128   -21596   -22069   -22522   -22940   -23306 
  -23614   -23873   -24090   -24276   -24454   -24654   -24883   -25139 
  -25431   -25751   -26081   -26416   -26755   -27085   -27401   -27704 
  -27988   -28254   -28513   -28767   -29019   -29274   -29544   -29830 
  -30119   -30389   -30633   -30851   -31042   -31201   -31322   -31405 
  -31439   -31406   -31304   -31140   -30919   -30654   -30366   -30080 
  -29812   -29564   -29337   -29118   -28884   -28627   -28336   -27991 
  -27583   -27112   -26574   -25968   -25314   -24619   -23888   -23133 
  -22356   -21549   -20712   -19836   -18910   -17945   -16956   -15952 
  -14952   -13975   -13022   -12110   -11255   -10450    -9682    -8946 
   -8240    -7570    -6957    -6414    -5948    -5573    -5296    -5102 
   -4971    -4872    -4763    -4618    -4428    -4190    -3918    -3635 
   -3381    -3183    -3053    -2996    -3006    -3061    -3147    -3260 
   -3399    -3565    -3749    -3943    -4155    -4391    -4641    -4900 
   -5181    -5476    -5773    -6087    -6419    -6762    -7126    -7509 
   -7892    -8264    -8624    -8968    -9290    -9577    -9816    -9996 
  -10107   -10149   -10140   -10094   -10031    -9975    -9941    -9923 
   -9909    -9889    -9846    -9757    -9602    -9379    -9101    -8785 
   -8457    -8137    -7844    -7589    -7374    -7207    -7099    -7045 
   -7032    -7051    -7097    -7166    -7250    -7356    -7493    -7651 
   -7818    -7995    -8190    -8400    -8621    -8858    -9123    -9408 
   -9701   -10014   -10350   -10693   -11036   -11382   -11725   -12065 
  -12418   -12798   -13206   -13649   -14144   -14692   -15286   -15932 
  -16602   -17250   -17870   -18457   -18970   -19395   -19733   -19982 
  -20159   -20283   -20344   -20337   -20269   -20150   -19981   -19762 
  -19504   -19205   -18861   -18487   -18084   -17644   -17173   -16665 
  -16130   -15579   -14999   -14387   -13764   -13134   -12491   -11843 
  -11193   -10541    -9895    -9266    -8659    -8074    -7524    -7019 
   -6556    -6129    -5736    -5377    -5041    -4713    -4396    -4096 
   -3813    -3545    -3290    -3049    -2824    -2612    -2411    -2212 
   -2013    -1818    -1619    -1407    -1185     -966     -747     -525 
    -300      -63      192      458      737     1048     1405     1808 
    2255     2741     3242     3747     4252     4746     5220     5681 
    6113     6505     6861     7172     7429     7650     7844     8007 
    8147     8279     8409     8538     8667     8789     8892     8977 
    9060     9150     9238     9320     9381     9407     9402     9364 
    9283     9170     9034     8877     8710     8520     8293     8036 
    7756     7449     7120     6771     6404     6033     5669     5329 
    5013     4717     4440     4177     3934     3716     3515     3332 
    3168     3009     2854     2711     2573     2433     2292     2134 
    1947     1736     1509     1272     1031      781      511      232 
     -49     -337     -634     -938    -1256    -1590    -1929    -2267 
   -2614    -2979    -3358    -3758    -4189    -4651    -5134    -5630 
   -6132    -6632    -7120    -7594    -8054    -8492    -8895    -9268 
   -9622    -9952   -10267   -10588   -10936   -11328   -11777   -12282 
  -12829   -13401   -13987   -14591   -15208   -15825   -16437   -17042 
  -17630   -18185   -18695   -19142   -19514   -19817   -20068   -20283 
  -20484   -20687   -20891   -21103   -21328   -21551   -21752   -21929 
  -22074   -22178   -22248   -22297   -22338   -22382   -22438   -22510 
  -22596   -22700   -22818   -22949   -23091   -23241   -23395   -23556 
  -23734   -23933   -24138   -24333   -24502   -24632   -24718   -24748 
  -24717   -24642   -24532   -24406   -24289   -24200   -24140   -24109 
  -24100   -24109   -24121   -24121   -24098   -24040   -23941   -23806 
  -23630   -23409   -23145   -22843   -22518   -22190   -21877   -21589 
  -21343   -21142   -20966   -20803   -20656   -20524   -20410   -20318 
  -20231   -20134   -20020   -19878   -19705   -19509   -19286   -19040 
  -18790   -18553   -18326   -18092   -17835   -17543   -17212   -16837 
  -16419   -15963   -15471   -14937   -14367   -13763   -13130   -12488 
  -11849   -11200   -10537    -9873    -9201    -8512    -7798    -7041 
   -6245    -5438    -4630    -3822    -3028    -2262    -1529     -836 
    -188      412      960     1444     1864     2217     2493     2682 
    2773     2759     2641     2422     2105     1725     1319      897 
     467       39     -393     -827    -1260    -1696    -2147    -2610 
   -3064    -3498    -3918    -4332    -4739    -5138    -5530    -5925 
   -6338    -6778    -7244    -7724    -8209    -8689    -9148    -9572 
   -9954   -10289   -10581   -10838   -11084   -11338   -11613   -11916 
  -12239   -12571   -12903   -13217   -13494   -13737   -13960   -14168 
  -14364   -14560   -14753   -14931   -15101   -15269   -15421   -15555 
  -15694   -15849   -16009   -16175   -16358   -16550   -16744   -16945 
  -17143   -17322   -17474   -17591   -17663   -17689   -17682   -17660 
  -17620   -17568   -17511   -17446   -17360   -17247   -17111   -16949 
  -16767   -16581   -16403   -16247   -16132   -16065   -16033   -16035 
  -16076   -16143   -16218   -16292   -16350   -16380   -16379   -16338 
  -16254   -16135   -15994   -15844   -15684   -15513   -15326   -15106 
  -14842   -14525   -14149   -13723   -13275   -12824   -12387   -11992 
  -11647   -11347   -11084   -10839   -10586   -10322   -10039    -9723 
   -9379    -9015    -8641    -8272    -7919    -7587    -7270    -6960 
   -6665    -6389    -6132    -5903    -5707    -5527    -5349    -5172 
   -4994    -4808    -4626    -4467    -4335    -4233    -4172    -4149 
   -4155    -4180    -4215    -4255    -4297    -4339    -4385    -4442 
   -4514    -4607    -4728    -4883    -5081    -5323    -5600    -5903 
   -6228    -6569    -6916    -7248    -7560    -7870    -8191    -8510 
   -8824    -9147    -9489    -9835   -10169   -10499   -10837   -11186 
  -11556   -11964   -12405   -12882   -13401   -13942   -14486   -15024 
  -15546   -16045   -16511   -16936   -17332   -17715   -18087   -18444 
  -18784   -19105   -19400   -19651   -19853   -20016   -20139   -20236 
