Origin Time       2011/03/11 14:46:00
Lat.              38.103
Long.             142.860
Depth. (km)       24
Mag.              9.0
Station Code      HKD184
Station Lat.      42.7898
Station Long.     141.6008
Station Height(m) 69
Record Time       2011/03/11 14:47:57
Sampling Freq(Hz) 100Hz
Duration Time(s)  300
Dir.              E-W
Scale Factor      3920(gal)/6182761
Max. Acc. (gal)   27.193
Last Correction   2011/03/11 14:47:42
Memo.             
[...]
   25925    26806    26718    26000    25469    25314    25430    25796 
   26448    27128    27144    26567    26329    26393    26038    25553 
   25709    26447    26880    26285    24956    23528    22087    21011 
   21089    21900    22263    22403    23180    24263    25355    26766 
   27848    27709    26552    24677    22351    20375    19090    18390 
   18613    19734    20792    21101    20894    20432    19682    19082 
   19201    19742    19911    19584    19712    21353    24511    28098 
   30639    31392    30922    30012    28672    26878    25189    23656 
   21494    18773    16497    14898    13922    14142    15499    17130 
   18700    20476    22728    25277    27297    28108    28014    27683 
   27139    26182    25067    23909    22412    20498    18299    15763 
   13036    10860     9970    10429    11714    13076    14132    15211 
   16833    19184    22168    25419    28222    29970    30790    31017 
   30441    29157    28084    27667    27399    26853    25933    24402 
   22157    19803    18309    18033    18394    18768    19170    19590 
   19943    20792    22404    23932    24705    24905    24840    24906 
   25649    27027    28292    28931    29048    28716    27817    26527 
   24954    23074    21536    20769    19911    18478    17404    17216 
   17528    18670    21046    23648    25379    26240    26510    26213 
   25504    25047    25269    25545    25264    24744    24304    23952 
   23987    24235    23447    21025    18083    15887    14916    15536 
   17714    20336    22133    23012    23795    25011    26495    27721 
   28183    27799    27001    26195    25382    24541    23883    23482 
   23178    23092    23464    23766    23246    22111    20871    19642 
   18683    18277    18356    18665    19041    19632    20469    21237 
   21636    21166    19692    18569    19117    20749    22412    24005 
   25457    26596    27937    29670    30448    29029    26160    23421 
   21598    20665    20028    19090    17836    16735    16592    18056 
   20794    23773    26353    28563    30526    31900    32199    31710 
   31040    29651    26759    23133    20078    18021    17022    16986 
   17485    18276    19584    21624    23899    25312    25364    24749 
   24212    23558    22426    20863    18964    17325    16793    17201 
   18006    19289    21101    23153    25062    26389    26825    26456 
   25677    24816    23957    23122    22446    21936    21346    20588 
   19997    20005    20570    21282    22020    22679    22856    22503 
   21887    20991    19929    19144    18586    17762    16653    15776 
   15719    16983    19358    21419    21938    21518    21464    21881 
   22361    22904    22896    21837    21089    22019    23679    24431 
   24153    23510    22671    21810    21379    21396    21558    21566 
   21135    20413    19813    19433    19071    18624    18453    19037 
   20617    23306    26512    28860    29756    30063    30470    30501 
   29826    28800    27595    26363    25521    24938    24069    23130 
   22744    22937    23558    24362    24721    24598    24751    25597 
   27010    28624    29574    29124    27599    25431    22608    19842 
   17886    16348    14920    14057    14235    15740    18429    21691 
   24896    27512    29293    30394    31105    31578    31651    30977 
   29471    27672    26303    25554    25205    25057    24971    24611 
   23462    21524    19366    17399    16008    15799    16954    19082 
   21636    23800    24913    25346    25869    26656    27663    28683 
   28873    27817    26410    25547    25390    25943    26733    26828 
   25975    24612    23079    21523    19786    17685    15545    13519 
   11642    10747    11475    13231    15414    18285    21621    24390 
   26555    28619    30012    30481    30861    31263    31102    30076 
   27831    24591    21579    19429    17687    15996    14438    13159 
   12604    13360    15113    16941    18713    20749    22712    24035 
   24803    25378    25828    26259    26875    27554    27878    27630 
   27172    27073    27283    27293    27078    26792    25919    24038 
   21750    19932    18634    17535    17064    17805    19742    22948 
   27218    31473    34566    35589    34174    30990    26751    21788 
   17098    13837    12041    11365    11945    13664    16048    18921 
   21934    24191    25279    25516    24865    23263    21748    21438 
   22197    23444    24804    25427    24512    22785    21816    22065 
   22924    23877    24602    25123    26137    27961    29747    30437 
   29676    28054    26715    26092    25718    25133    23903    21934 
   19919    18087    16103    14729    14949    16297    18172    20636 
   22964    24247    25047    26049    26756    26925    26943    26443 
   24820    22592    20733    19585    19099    19142    19354    19367 
   19409    20012    21044    21806    21936    21681    21399    21292 
   21467    21495    20728    19502    18582    17974    17911    19352 
   22162    24709    26096    27052    28066    28950    30106    31679 
   32707    32559    31588    30161    28228    25979    23975    22554 
   21824    21523    20708    18714    16272    14963    15569    17641 
   20469    23333    25706    27931    30358    32377    33289    32762 
   30568    26975    22772    18770    15621    13445    11855    10703 
   10105    10150    11140    13462    16778    19872    21737    22237 
   21966    22152    23806    26714    29810    32055    32800    32255 
   31500    31327    31705    32315    32512    31655    29800    27065 
   23211    18516    14002    10455     8041     6974     7566     9469 
   11838    14401    17460    20779    23780    26379    28252    28543 
   27084    24702    22543    21267    20468    19642    19261    20054 
   22252    25411    28235    29474    29085    27838    26214    24172 
   21514    18189    14575    11638    10543    11667    13989    16247 
   18287    20607    23698    27440    30418    31289    30050    27191 
   23538    20217    17375    14417    11511     9270     7961     8070 
   10297    14567    19946    25461    30550    34962    38391    40263 
   40446    39653    38414    36764    34752    31989    28024    23677 
   20514    19406    20143    21776    23437    24897    26264    27499 
   28342    28659    28367    26966    24089    20594    18294    18569 
   21570    26189    30568    33443    34775    35058    35188    36029 
   36596    34604    29904    24941    21542    19745    19181    19421 
   19886    20507    21568    23001    24506    25971    27489    29139 
   30615    31172    30229    27744    24191    20598    17885    15875 
   13393     9738     6255     5304     7496    11432    15633    19397 
   22261    23879    24476    24364    23395    21863    21159    22558 
   25636    28453    29385    28292    26046    23772    22223    20998 
   19062    16499    14593    13971    14171    14837    15990    17675 
   19910    22386    24786    27248    29539    31120    32276    33466 
   34459    34949    34781    33680    31457    28196    24656    22320 
   21775    21935    21930    22073    22536    22870    22725    21864 
   20286    18917    18897    20215    22301    25050    28223    31131 
   33374    34616    34270    32521    30345    28396    26738    24737 
   21648    17967    14873    13027    12786    14079    16285    19315 
   23492    28278    32928    37176    39986    39957    37323    33263 
   28320    23129    18818    15876    14105    13520    14245    15843 
   17627    19431    21249    22410    22361    21967    22320    23060 
   23717    24864    26802    29248    32116    35087    37317    38297 
   37833    35489    31392    26629    22205    18483    15420    12637 
    9895     8069     8205     9721    11401    12985    14553    16015 
   17606    19703    22035    23819    24648    25002    25560    26004 
   25767    25188    24515    23804    23994    25532    27051    27111 
   25566    22563    18372    14371    12057    11590    12630    14817 
   17001    18303    19420    21053    22782    24411    26026    27260 
   28358    30200    32845    35574    37700    38922    39347    38832 
   36792    32843    27011    20083    13880     9951     8488     9152 
   11376    13776    15136    15764    16692    18108    19634    21702 
   25087    29353    33369    36594    38829    39791    39214    37071 
   34116    31484    29298    27014    24909    23779    23587    23465 
   22992    22512    22238    22355    23499    25323    26008    25025 
   24110    24588    26223    28292    29894    30193    29167    27362 
   25209    22970    20785    18676    16831    15555    14766    14281 
   14457    15409    16346    16655    16577    16575    16691    16395 
   15317    13890    12764    12358    13027    14450    15618    16507 
   17993    19925    21401    22173    22516    22662    22720    22359 
   20714    17616    14142    11389     9986    10308    11962    13964 
   16145    19017    22252    25359    28434    30821    31720    31608 
   31035    29824    27856    25323    22481    19657    17529    17018 
   18290    20441    22585    24679    26943    29291    31865    34694 
   36836    37522    36941    35091    31851    28034    24895    23113 
   22675    23001    23420    24053    25313    26824    28029    28753 
   28761    28344    28821    30845    33441    35782    37898    39130 
   38313    35639    32288    28907    25852    23484    21424    19043 
   16775    15302    14077    12396    10546     8832     7501     7469 
    9367    12930    17975    24379    31058    36474    39847    40921 
   39600    36410    32099    26988    21563    16841    13489    11486 
   10615    10239     9571     9071     9968    12136    14065    14736 
   14409    13904    13917    14943    17002    19299    20830    21339 
   21138    20343    18938    17244    15995    15952    17347    20118 
   24139    28221    30759    31819    32291    32394    32432    32599 
   32146    30614    28541    26262    24003    22737    23033    24385 
   26401    28578    29774    29911    30100    30381    29854    28153 
   25175    21279    17960    16297    15910    16401    17542    18465 
   19072    20716    24083    28560    33843    39382    43271    44401 
   43740    42355    40457    38069    35166    31626    27658    24229 
   22463    22442    23306    24332    25153    25262    24197    22229 
   20171    19018    19853    22799    26676    30282    32748    33321 
   32348    31207    30501    30009    29993    30414    30064    28203 
   25488    22797    20586    19086    18484    19178    21482    25052 
   28762    30850    30034    26753    22635    19294    17501    16865 
   16673    16800    17704    20063    23973    28571    32744    35387 
   35498    33375    30547    27729    24566    21250    18329    15796 
   13824    13209    14277    16171    17738    18844    20333    22487 
   24370    25399    26104    26729    27112    27570    28147    28040 
   26662    24562    22961    22279    21976    22028    22741    23656 
   24450    25447    26563    27143    26560    24642    21902    18846 
   15678    13289    12617    13160    13784    13788    13022    12067 
   11396    10886    11057    12879    16316    20619    24899    28042 
   29517    29810    29575    29211    28923    28644    28287    27736 
   26498    23893    19585    13993     8273     3695      936     -301 
    -979    -1900    -3014    -3181    -1357     1900     5264     8064 
   10208    12042    14274    17315    20760    23400    23974    22192 
   18835    15134    12232    10757    10574    10915    11126    11442 
   12441    13931    15163    15524    14643    12780    11167    11293 
   13352    16028    18380    20369    21771    22652    23747    25039 
   25835    26609    28343    30623    32372    33143    32842    31308 
   28754    26226    24393    22747    21187    20323    20323    21681 
   25338    30660    35528    38427    39234    39008    38880    38688 
   37748    36135    34258    32433    31067    30402    30384    30959 
   32033    33530    35559    37666    38869    39246    39947    41410 
   43032    44206    44468    43646    42551    42031    41532    40068 
   37718    35320    33643    33118    33475    33547    32426    30788 
   29845    29715    30148    31200    32109    31628    29825    27926 
   26908    26933    27435    27548    26601    24221    20601    16827 
   13969    11808     9538     7211     5274     3886     3641     5106 
    7681    10486    13133    15479    17646    19642    21328    22695 
   23544    23499    22359    20226    17166    12977     8063     3640 
     351    -2118    -4093    -5427    -5634    -4369    -1696     2531 
    8383    14844    20898    26629    32212    37637    42862    46956 
   48883    48980    47753    44814    40030    33782    26453    18941 
   12467     7551     4239     2835     3619     6312    10384    15695 
   22011    28179    33121    37142    40875    43728    44789    44369 
   43203    41263    38418    34833    30738    26569    22778    19692 
   17515    16311    16291    17305    18443    19485    21329    23943 
   26296    28347    30298    31424    31610    31509    30945    29540 
   27548    24934    21668    18464    15644    12753     9626     6501 
    3903     3015     4752     8288    11972    15098    17297    18018 
   17488    16229    13969    10045     4306    -2485    -9030   -14324 
  -18028   -19992   -19712   -16855   -11658    -4398     4253    12857 
   20329    26221    30203    32438    33568    33775    32531    29392 
   24579    18595    11842     4834    -1537    -6194    -8562    -8893 
   -7504    -4164     1306     8553    17050    26035    34338    41028 
   45720    48327    48913    47326    43357    37485    30482    22603 
   14524     7999     3910     1446      273     1261     5052    11496 
   19811    28674    36451    41647    43908    44319    43948    42926 
   40957    37745    33505    29129    25387    22574    20482    18467 
   16475    15274    15165    15852    17249    19367    22000    24648 
   26985    29553    32599    34977    35687    34782    32594    29681 
   26833    24664    23433    22769    21894    20666    19653    19055 
   18695    18375    17622    16339    15417    15833    17642    20334 
   23543    26592    28459    28959    28578    27453    25727    23832 
   21849    19509    16792    14124    11971    10702    11055    13733 
   18342    23713    29140    34357    38511    40753    41678    42049 
   41153    38512    34947    30843    26098    21343    17237    13914 
   11443     9608     8229     7999     9812    13731    19331    25983 
   32419    37297    40141    41150    41048    40669    39713    37185 
   33245    29213    26186    24293    22988    21900    20988    20001 
   18580    16768    14935    13392    12454    12290    12610    13128 
   13785    14563    15684    17340    19390    21418    22492    21951 
   20436    19090    18689    19388    20193    19678    17716    15602 
   14507    14690    15786    16773    16435    14583    12070     9688 
    7531     5294     2888      634     -968    -1504     -946      359 
    2503     5912    10263    15044    20113    24717    27873    29663 
   30761    31180    30472    28872    27076    25165    22745    19465 
   14989     9738     5591     4160     4982     7072    10477    15211 
   20801    26551    31241    33956    35065    35466    35553    35167 
   33982    31880    29296    26930    24852    22788    21024    19934 
   19454    19594    20360    21267    21731    21469    20698    20296 
   20906    22204    23622    24551    24294    23226    22696    23306 
   24618    26029    27320    28873    30932    32903    34130    34428 
   33805    32659    31924    32239    33189    33823    33535    32212 
   30230    28421    27500    27465    27889    28783    30305    31926 
   33324    35191    37850    40818    43980    47057    48681    47642 
   44012    38689    33032    28312    24592    21174    18095    15991 
   15080    15307    16843    19577    22933    27018    32632    39366 
   45610    50566    54183    56217    56663    55765    53393    49053 
   42719    35386    28264    21972    16396    11051     6139     2442 
     200     -591      695     4615    10499    17210    24511    32394 
   40211    47351    53564    58078    59489    57295    52651    46947 
   40663    33866    26896    20415    15099    11280     8956     7967 
    8207     9982    13837    19645    26176    32015    36751    40690 
   43582    44641    43941    42195    39442    35825    32325    29452 
   26972    25004    23999    23668    22867    20796    17656    14219 
   11178     8794     7127     6104     5415     5092     5678     7379 
    9774    12237    14379    16185    17602    18215    17448    15211 
   12286     9528     7228     5390     3791     2254     1121      929 
    1869     3781     6273     8991    11942    14893    17096    18359 
   18915    18452    17010    15390    13836    12328    11305    10891 
   11022    11737    12413    12236    11324    10372     9948    10442 
   11875    13558    14690    15220    15313    14432    12271     9871 
    8389     7873     8167     9301    10614    11259    11501    12321 
   14324    17523    21326    24730    27427    30356    34503    39460 
   43698    46252    47268    46927    45066    41810    37697    33300 
   28956    24667    20315    16152    12925    11387    11708    13496 
   16299    19719    23413    27320    31289    34925    38332    41822 
   44944    46557    45700    42767    39200    35776    32545    29321 
   25545    21280    17492    14836    13515    13576    14781    17058 
   20638    25373    30583    35348    38816    40716    41122    40146 
   38586    37427    36555    35571    34767    34012    32553    30498 
   28555    26634    24205    21360    18962    17737    17453    17681 
   18465    19635    20979    22901    25637    28670    31581    34346 
   36449    36976    35744    33698    32305    32471    34004    36111 
   37799    38128    37221    36541    36936    37491    36971    35045 
   32057    28736    25989    23949    21590    18236    14513    11333 
    9226     8627     9433    10394    10360     9882    10331    12349 
   15912    20418    24641    28053    31211    34121    36046    36647 
   35956    34167    31666    28649    25098    21294    18242    17201 
   18154    19450    19708    18925    17579    16329    15985    16467 
   16852    16718    16420    16356    16655    17181    17704    18057 
   17816    16523    14647    13376    13449    14586    15747    15800 
   14190    11534     9142     7466     6025     4656     3849     3989 
    4830     6180     8364    11216    13548    14390    14101    13714 
   13730    13849    13412    11986     9802     7771     6889     7343 
    8209     8299     7459     6580     6382     6826     7615     8823 
   10848    13851    17415    20684    23030    24441    25377    26547 
   28046    28964    28506    26707    24220    21960    20305    18814 
   17349    16129    14670    13038    12852    14692    17204    19669 
   22170    23917    24362    24454    24878    24904    24102    23256 
   23111    23889    25606    27784    30032    32755    36329    40580 
