Origin Time       2011/03/11 14:46:00
Lat.              38.103
Long.             142.860
Depth. (km)       24
Mag.              9.0
Station Code      HKD157
Station Lat.      41.9053
Station Long.     140.9698
Station Height(m) 37
Record Time       2011/03/11 14:47:47
Sampling Freq(Hz) 100Hz
Duration Time(s)  278
Dir.              U-D
Scale Factor      3920(gal)/6182761
Max. Acc. (gal)   5.832
Last Correction   2011/03/11 14:47:32
Memo.             
[...]
  -12680   -12439   -12475   -12609   -12620   -12046   -10768    -9416 
   -8708    -8820    -9507   -10465   -11540   -12530   -12841   -11967 
  -10350    -9139    -9105   -10148   -11685   -13132   -14021   -14166 
  -13864   -13504   -13162   -12884   -12938   -13548   -14454   -14931 
  -14625   -13909   -13283   -13009   -13096   -13252   -13286   -13435 
  -13721   -13536   -12608   -11589   -11210   -11698   -12858   -14112 
  -14828   -14744   -13962   -12806   -11864   -11840   -13069   -15093 
  -16832   -17366   -16359   -14004   -11290    -9676   -10011   -12071 
  -14741   -16556   -16581   -14887   -12285    -9843    -8648    -9322 
  -11456   -13959   -15856   -16586   -16059   -14652   -12933   -11478 
  -10783   -10953   -11636   -12342   -12609   -12049   -10565    -8669 
   -7469    -7915    -9946   -12530   -14432   -14957   -14158   -12527 
  -10771    -9869   -10702   -13226   -16333   -18554   -18854   -17325 
  -15152   -13593   -13289   -14328   -16203   -17992   -18891   -18334 
  -16271   -13658   -11773   -11137   -11550   -12501   -13490   -14218 
  -14410   -13819   -12509   -10884    -9444    -8539    -8346    -8906 
   -9949   -10892   -11281   -11173   -10880   -10640   -10863   -11888 
  -13341   -14568   -15430   -16073   -16394   -16284   -15945   -15588 
  -15388   -15508   -15703   -15587   -15110   -14319   -13246   -12129 
  -11317   -11041   -11364   -12088   -12636   -12499   -11897   -11492 
  -11641   -12282   -13107   -13720   -13896   -13733   -13546   -13582 
  -13816   -13987   -13820   -13448   -13304   -13358   -13271   -13126 
  -13004   -12589   -11751   -10835   -10320   -10406   -10811   -11178 
  -11608   -12180   -12454   -12176   -11749   -11565   -11538   -11546 
  -11732   -12035   -12012   -11473   -10850   -10744   -11516   -13071 
  -14584   -15102   -14524   -13375   -12254   -11844   -12408   -13395 
  -14298   -14975   -15062   -14461   -13796   -13603   -13965   -14769 
  -15676   -16237   -16315   -16088   -15493   -14247   -12548   -11000 
  -10138   -10403   -11794   -13455   -14265   -13771   -12348   -10664 
   -9289    -8773    -9552   -11548   -14022   -15978   -16989   -17388 
  -17519   -17463   -17325   -17118   -16588   -15532   -14158   -13041 
  -12822   -13701   -15164   -16404   -16787   -16052   -14621   -13374 
  -12898   -13309   -14398   -15660   -16700   -17361   -17433   -16923 
  -16165   -15384   -14814   -14817   -15331   -15736   -15386   -14096 
  -12356   -11077   -10749   -11194   -12194   -13499   -14568   -14920 
  -14248   -12634   -11041   -10517   -11186   -12594   -14108   -15089 
  -15405   -15256   -14708   -14029   -13686   -13777   -14117   -14519 
  -14653   -14075   -12784   -11401   -10445    -9931    -9759    -9949 
  -10530   -11206   -11401   -11049   -10719   -10890   -11715   -12951 
  -14078   -14788   -14835   -14116   -13245   -12902   -13064   -13510 
  -14126   -14698   -15100   -15302   -15124   -14628   -14334   -14574 
  -15148   -15555   -15305   -14440   -13714   -13705   -14136   -14487 
  -14588   -14449   -14109   -13634   -13106   -12631   -12284   -12094 
  -12147   -12574   -13325   -13904   -13760   -12986   -12009   -10993 
  -10200   -10036   -10475   -11237   -12042   -12562   -12777   -12874 
  -12725   -12258   -11818   -11601   -11433   -11274   -11192   -11280 
  -12035   -13790   -15894   -17272   -17326   -16184   -14536   -13286 
  -12985   -13395   -13954   -14405   -14600   -14374   -13769   -12978 
  -12360   -12407   -13267   -14700   -16347   -17656   -18158   -17931 
  -17356   -16729   -16235   -15968   -16042   -16555   -17228   -17491 
  -16956   -15584   -13825   -12510   -12285   -13154   -14463   -15380 
  -15384   -14531   -13480   -12976   -13481   -15076   -17110   -18581 
  -19082   -18727   -17750   -16683   -16163   -16292   -16569   -16447 
  -15740   -14606   -13525   -13059   -13243   -13594   -13761   -13718 
  -13671   -13880   -14224   -14417   -14539   -14898   -15710   -16888 
  -17805   -17766   -16892   -15778   -14718   -14044   -14228   -15032 
  -15524   -15016   -13508   -11649   -10437   -10353   -11141   -12498 
  -14009   -15068   -15589   -15814   -15699   -15194   -14412   -13644 
  -13518   -14313   -15437   -16171   -16147   -15290   -14040   -12988 
  -12381   -12351   -12762   -13105   -13211   -13302   -13418   -13440 
  -13166   -12406   -11532   -11270   -11782   -12857   -14422   -16001 
  -16730   -16235   -14797   -13094   -11841   -11390   -11849   -13020 
  -14108   -14578   -14859   -15445   -16130   -16250   -15302   -13556 
  -12000   -11520   -12087   -13103   -14103   -14524   -13974   -12900 
  -12031   -11849   -12545   -13792   -15035   -15783   -15576   -14465 
  -13176   -12364   -12176   -12487   -13051   -13528   -13749   -13988 
  -14773   -16089   -17080   -16971   -15818   -14220   -12782   -11819 
  -11512   -12080   -13357   -14698   -15499   -15443   -14598   -13352 
  -12071   -10964   -10254   -10271   -11226   -12969   -14801   -15676 
  -15113   -13556   -11685   -10126    -9547   -10061   -10991   -11737 
  -12209   -12560   -13069   -13849   -14718   -15375   -15394   -14485 
  -13049   -12167   -12801   -14867   -17230   -18692   -18857   -18132 
  -17142   -16167   -15197   -14426   -14204   -14579   -15289   -15908 
  -15906   -14962   -13346   -11908   -11484   -12361   -14322   -16683 
  -18489   -18920   -17536   -14812   -12024   -10217    -9775   -10518 
  -12007   -13780   -15159   -15352   -14081   -11980   -10201    -9696 
  -10692   -12621   -14781   -16591   -17365   -16805   -15313   -13505 
  -11937   -11179   -11712   -13429   -15423   -16492   -16006   -14520 
  -13136   -12231   -11488   -10750   -10150    -9920   -10222   -11026 
  -12236   -13519   -14190   -13867   -12991   -12535   -13124   -14534 
  -16126   -17130   -16916   -15635   -14027   -12968   -13308   -15164 
  -17647   -19585   -19970   -18361   -15468   -12808   -11839   -13107 
  -15570   -17386   -17525   -16263   -14540   -13071   -12073   -11602 
  -11682   -12144   -12513   -12476   -12264   -12114   -12071   -12287 
  -12766   -13181   -13276   -13007   -12368   -11597   -11108   -11080 
  -11529   -12365   -13190   -13429   -12861   -11716   -10452    -9788 
  -10307   -11814   -13625   -15163   -16004   -15952   -15273   -14420 
  -13728   -13442   -13617   -14098   -14653   -14949   -14618   -13604 
  -12302   -11132   -10282   -10102   -11172   -13565   -16365   -18312 
  -18707   -17677   -15999   -14566   -13859   -13934   -14753   -15990 
  -16705   -16264   -15026   -13628   -12596   -12224   -12381   -12867 
  -13388   -13490   -13204   -12978   -13037   -13385   -13944   -14646 
  -15424   -15895   -15649   -14927   -14344   -14046   -13700   -13257 
  -13045   -12985   -12532   -11491   -10300    -9606    -9783   -10678 
  -11763   -12361   -11953   -10563    -8604    -6699    -5790    -6536 
   -8637   -11129   -12890   -13151   -11996   -10188    -8589    -7784 
   -8003    -9152   -10743   -12115   -12898   -13019   -12494   -11640 
  -11124   -11450   -12577   -14049   -15381   -16263   -16422   -15674 
  -14172   -12534   -11619   -11780   -12587   -13335   -13400   -12491 
  -11033    -9907    -9625   -10096   -10936   -11767   -12456   -12860 
  -12830   -12737   -13026   -13606   -14154   -14333   -13987   -13428 
  -12993   -12587   -12020   -11366   -10971   -11147   -11880   -12978 
  -13981   -14237   -13711   -12864   -12043   -11759   -12209   -12782 
  -13173   -13731   -14554   -15372   -15741   -15225   -13832   -12130 
  -10831   -10177   -10054   -10424   -11030   -11534   -11837   -11678 
  -11049   -10682   -11028   -11898   -12960   -13645   -13710   -13452 
  -12914   -12334   -12481   -13428   -14293   -14363   -13569   -12334 
  -11411   -11491   -12697   -14417   -15915   -16766   -16807   -16316 
  -15643   -14913   -14481   -14641   -14980   -14838   -14012   -12769 
  -11852   -12118   -13712   -15981   -17637   -17377   -15029   -11626 
   -8698    -7432    -7987    -9889   -12496   -14772   -15573   -14372 
  -11471    -8045    -5747    -5658    -7880   -11658   -15439   -17578 
  -17444   -15475   -12750   -11055   -11888   -14843   -17967   -19375 
  -18255   -15129   -11509    -9073    -8838   -10587   -12929   -14175 
  -13378   -10894    -8058    -6303    -6473    -8457   -11282   -13644 
  -14499   -13623   -11767    -9951    -8744    -8399    -9139   -10834 
  -12778   -14133   -14434   -13760   -12756   -12232   -12577   -13713 
  -15149   -16017   -15897   -15347   -15064   -15043   -14947   -14828 
  -15158   -16231   -17617   -18545   -18646   -17927   -16491   -14600 
  -12951   -12451   -13233   -14520   -15578   -15973   -15279   -13322 
  -10452    -7676    -6311    -6779    -8506   -10900   -13358   -15121 
  -15816   -15616   -14808   -13699   -12583   -11697   -11502   -12156 
  -12964   -13167   -12647   -11804   -11124   -10791   -10612   -10429 
  -10419   -10583   -10508    -9986    -9190    -8401    -7974    -8053 
   -8333    -8494    -8496    -8332    -7938    -7504    -7480    -8123 
   -9301   -10648   -11982   -13363   -14585   -15222   -15066   -14308 
  -13477   -13200   -13825   -15044   -16120   -16459   -15854   -14765 
  -14165   -14625   -15816   -16907   -17258   -16728   -15463   -13818 
  -12540   -12180   -12477   -12929   -13147   -12832   -12287   -12215 
  -12757   -13515   -14193   -14695   -14822   -14323   -13500   -13009 
  -12812   -12468   -11984   -11513   -11172   -11078   -11086   -11163 
  -11643   -12403   -12444   -11134    -9335    -8274    -8128    -8662 
   -9913   -11644   -13183   -13775   -13096   -11684   -10342    -9510 
   -9453   -10219   -11368   -12131   -11890   -10664    -9098    -7957 
   -7619    -8048    -9208   -10928   -12521   -13221   -12648   -10915 
   -8887    -7817    -8557   -11157   -14417   -16626   -17210   -16521 
  -14989   -13308   -12220   -12125   -13159   -15015   -16933   -18312 
  -19039   -19080   -18325   -17003   -15681   -14870   -14820   -15261 
  -15549   -15321   -14665   -13892   -13389   -13337   -13671   -14396 
  -15228   -15310   -14292   -12914   -12109   -12416   -13841   -15659 
  -16835   -16820   -15708   -13957   -12268   -11164   -10559   -10260 
  -10456   -11208   -11915   -11801   -10785    -9412    -8234    -7674 
   -8014    -9273   -11126   -12880   -13829   -13760   -12951   -11878 
  -11192   -11482   -12771   -14620   -16444   -17660   -17992   -17417 
  -16076   -14568   -13625   -13459   -13957   -14975   -15935   -15972 
  -14808   -12806   -10541    -8990    -9169   -11130   -13976   -16449 
  -17588   -17384   -16309   -14635   -12864   -11926   -12532   -14554 
  -16986   -18722   -19341   -18806   -17202   -15248   -14044   -14096 
  -15170   -16773   -18269   -18790   -17751   -15490   -13115   -11867 
  -12271   -13792   -15508   -16596   -16422   -14745   -11754    -8503 
   -6631    -6801    -8545   -11137   -13533   -14672   -14249   -12664 
  -10748    -9487    -9540   -10904   -12962   -14919   -16092   -16111 
  -15294   -14393   -13896   -13803   -13855   -13919   -13953   -13665 
  -12805   -11592   -10603   -10466   -11463   -13160   -14546   -14795 
  -13899   -12392   -10793    -9603    -9309   -10021   -11339   -12624 
  -13254   -12941   -12147   -11670   -11775   -12236   -12832   -13343 
  -13564   -13497   -13270   -13128   -13310   -13873   -14916   -16340 
  -17501   -17751   -17025   -15808   -14748   -14308   -14608   -15265 
  -15644   -15464   -14757   -13577   -12333   -11835   -12513   -13899 
  -15015   -15216   -14596   -13546   -12425   -11750   -12120   -13708 
  -15892   -17642   -18403   -18329   -17738   -16817   -15804   -14992 
  -14497   -14091   -13440   -12683   -12392   -12883   -13954   -15050 
  -15564   -15311   -14501   -13377   -12471   -12429   -13071   -13782 
  -14466   -15046   -15140   -14695   -13870   -12657   -11333   -10559 
  -10708   -11588   -12430   -12210   -10902    -9624    -9035    -9169 
  -10264   -12103   -13686   -14308   -13934   -12848   -11618   -10936 
  -11238   -12487   -14036   -14813   -14246   -12784   -11129    -9602 
   -8465    -8168    -8893   -10229   -11540   -12338   -12373   -11783 
  -10887   -10041    -9798   -10511   -11939   -13593   -14948   -15494 
  -15216   -14751   -14678   -15125   -16011   -17151   -18160   -18541 
  -18115   -17277   -16629   -16553   -17009   -17591   -17940   -17939 
  -17618   -17101   -16590   -16245   -15999   -15548   -14831   -14284 
  -14177   -14345   -14710   -15237   -15771   -16170   -16245   -16136 
  -16388   -17113   -17942   -18676   -19172   -19202   -18798   -18362 
  -18261   -18318   -18070   -17425   -16718   -16262   -15826   -14935 
  -13709   -12488   -11200   -10006    -9598   -10303   -11648   -12849 
  -13257   -12646   -11413   -10444   -10624   -12152   -14247   -15810 
  -16282   -15646   -14244   -12696   -11556   -11376   -12602   -14717 
  -16405   -16829   -16021   -14710   -13923   -13908   -14306   -15030 
  -15733   -15758   -15014   -13874   -12858   -12567   -13217   -14430 
  -15638   -16416   -16608   -16305   -15652   -14833   -14242   -14229 
  -14849   -15908   -16771   -16850   -16126   -14702   -13006   -12025 
  -12192   -12887   -13132   -12466   -11372   -10500    -9964    -9917 
  -10705   -12192   -13673   -14472   -14494   -14078   -13630   -13626 
  -14203   -14794   -14842   -14431   -13862   -13172   -12223   -11067 
  -10230   -10221   -10804   -11202   -10689    -9187    -7274    -5470 
   -4281    -4455    -6178    -8654   -10719   -11502   -10957    -9990 
   -9636   -10284   -11782   -13655   -15296   -16425   -16996   -16690 
  -15275   -13261   -11558   -10797   -11161   -12377   -13826   -14868 
  -15119   -14583   -13421   -11788    -9981    -8378    -7376    -7326 
   -8165    -9429   -10655   -11520   -11954   -12073   -11883   -11408 
  -10910   -10775   -11246   -12084   -12805   -13276   -13576   -13664 
  -13518   -13039   -12009   -10636    -9632    -9485   -10003   -10826 
  -11772   -12563   -13208   -13892   -14157   -13572   -12339   -10823 
   -9805   -10400   -12727   -15787   -18575   -20169   -19715   -17341 
  -14392   -12494   -12444   -13700   -14985   -15521   -15427   -15080 
  -14588   -13850   -12855   -11761   -10816   -10427   -10871   -11743 
  -12162   -11647   -10659   -10144   -10447   -11212   -12239   -13409 
  -14192   -14145   -13429   -12625   -12308   -12644   -13314   -13962 
  -14456   -14728   -14861   -14977   -14984   -14888   -14906   -15105 
  -15284   -15094   -14335   -13238   -12147   -11305   -11110   -11827 
  -13142   -14393   -15024   -15002   -14767   -14564   -14403   -14460 
  -14770   -15192   -15843   -16763   -17583   -18002   -17998   -17442 
  -16054   -14099   -12558   -12170   -12876   -14014   -14553   -13794 
  -12003   -10080    -8994    -9283   -10650   -12371   -13934   -15047 
  -15543   -15521   -15288   -15006   -14661   -14331   -13950   -13296 
  -12642   -12597   -13357   -14522   -15344   -15240   -14316   -13123 
  -12010   -11197   -10913   -11098   -11603   -12402   -13149   -13416 
  -13320   -13185   -13152   -13240   -13324   -13200   -12721   -11907 
  -10962   -10081    -9392    -9029    -9244   -10254   -11552   -11894 
  -10620    -8444    -6594    -5793    -6144    -7308    -8735    -9959 
  -10570   -10208    -8938    -7355    -6288    -6437    -7795    -9431 
  -10216    -9799    -8706    -7652    -7202    -7628    -8692   -10134 
  -11804   -13079   -13257   -12254   -10653    -9509    -9396    -9918 
  -10743   -11828   -12633   -12604   -12159   -12226   -13121   -14271 
  -14919   -14862   -14340   -13502   -12522   -12013   -12571   -13990 
  -15466   -16298   -16054   -14540   -12177   -10023    -9005    -9415 
  -11015   -13158   -15144   -16522   -16694   -15135   -12504   -10124 
   -8707    -8617    -9943   -12034   -14146   -15859   -16656   -16347 
  -15606   -15186   -15189   -15389   -15427   -14967   -14308   -14049 
  -14139   -14223   -14259   -14195   -13873   -13265   -12332   -11211 
  -10428   -10223   -10339   -10778   -11604   -12322   -12537   -12503 
  -12515   -12664   -12958   -13126   -12883   -12506   -12587   -13243 
  -13971   -14246   -13972   -13382   -12723   -12093   -11546   -11151 
  -10792   -10244    -9530    -9045    -9268   -10230   -11430   -12362 
  -12737   -12492   -12003   -11865   -12303   -13166   -14160   -14872 
  -15104   -15249   -15871   -16967   -17946   -18316   -18151   -17921 
  -17926   -17913   -17410   -16238   -14607   -13151   -12638   -13323 
  -14801   -16210   -16557   -15515   -13663   -11742   -10477   -10592 
  -12110   -14203   -15695   -15755   -14551   -12940   -11738   -11445 
  -12079   -13326   -14752   -15637   -15272   -13711   -11815   -10484 
  -10090   -10612   -11756   -12785   -12821   -11550    -9650    -8346 
   -8248    -9096   -10558   -12330   -13859   -14722   -14830   -14332 
  -13586   -12726   -11669   -10909   -11213   -12399   -13426   -13583 
  -12917   -11895   -11255   -11667   -13065   -14741   -15889   -16011 
  -15369   -14625   -13965   -13408   -13467   -14635   -16597   -18371 
  -19010   -18322   -17016   -15911   -15407   -15682   -16546   -17459 
  -17937   -17538   -16266   -14911   -14081   -13609   -13105   -12374 
  -11661   -11482   -11973   -12929   -14153   -15205   -15614   -15344 
  -14487   -13335   -12599   -12603   -13164   -14182   -15207   -15450 
  -14806   -13851   -13054   -12539   -12329   -12576   -13399   -14455 
  -15085   -14974   -14354   -13697   -13474   -13908   -14833   -15870 
  -16480   -16226   -15473   -15274   -16252   -17987   -19418   -19852 
  -19480   -18622   -17442   -16501   -16271   -16727   -17847   -19348 
  -20356   -20244   -19197   -17871   -17087   -17394   -18470   -19401 
  -19481   -18636   -17410   -16497   -16070   -15806   -15528   -15323 
  -15157   -14886   -14410   -13656   -12602   -11322   -10045    -9243 
   -9426   -10733   -12642   -14088   -14210   -13026   -11250    -9707 
   -8996    -9375   -10685   -12396   -13821   -14296   -13457   -11619 
   -9749    -8886    -9482   -11164   -13043   -14295   -14613   -14246 
  -13612   -12869   -12091   -11812   -12585   -13978   -14998   -15094 
  -14204   -12807   -11848   -11840   -12623   -13806   -14742   -14879 
  -14395   -13914   -13749   -13776   -13908   -14095   -14031   -13497 
  -12748   -12279   -12367   -12795   -13065   -13013   -12947   -13081 
  -13398   -13846   -14139   -13796   -12674   -11196   -10066    -9867 
  -10668   -11954   -12952   -13004   -11940   -10269    -8941    -8801 
   -9957   -11748   -13418   -14542   -14923   -14665   -14147   -13624 
  -13293   -13497   -14346   -15558   -16597   -16832   -16020   -14472 
  -12748   -11481   -11122   -11536   -12169   -12616   -12649   -11988 
  -10679    -9387    -8853    -9378   -10785   -12347   -13161   -12938 
  -12023   -11047   -10757   -11484   -12971   -14736   -16161   -16764 
  -16481   -15542   -14457   -13699   -13191   -12651   -12178   -12091 
  -12542   -13229   -13480   -13053   -12463   -12227   -12367   -12555 
  -12414   -11933   -11435   -11115   -10963   -11028   -11379   -11839 
  -12000   -11652   -10974   -10257    -9814   -10067   -11144   -12435 
  -13019   -12561   -11475   -10336    -9513    -9246    -9737   -11072 
  -12799   -13962   -14197   -13995   -13634   -13124   -12818   -13053 
