Origin Time       2011/03/11 14:46:00
Lat.              38.103
Long.             142.860
Depth. (km)       24
Mag.              9.0
Station Code      HKD113
Station Lat.      42.1287
Station Long.     143.3153
Station Height(m) 15
Record Time       2011/03/11 14:48:09
Sampling Freq(Hz) 100Hz
Duration Time(s)  266
Dir.              E-W
Scale Factor      3920(gal)/6182761
Max. Acc. (gal)   7.702
Last Correction   2011/03/11 14:47:54
Memo.             
[...]
   -2344    -2044    -1813    -1515    -1505    -2339    -3871    -5420 
   -6534    -6973    -6585    -5551    -4372    -3396    -2559    -1646 
    -712     -153     -295    -1158    -2529    -3953    -4909    -5235 
   -5167    -4922    -4567    -4142    -3665    -3223    -2976    -2855 
   -2638    -2362    -2110    -1712    -1155     -803     -973    -1694 
   -2790    -3861    -4323    -3814    -2606    -1335     -566     -661 
   -1471    -2393    -3044    -3372    -3367    -3135    -2878    -2779 
   -3034    -3732    -4675    -5561    -6213    -6381    -5892    -5102 
   -4508    -4365    -4839    -5752    -6527    -6827    -6556    -5632 
   -4334    -3279    -2979    -3477    -4157    -4259    -3649    -2712 
   -1842    -1313    -1360    -2038    -3095    -4161    -5040    -5705 
   -5991    -5731    -5241    -5042    -5386    -6411    -8029    -9549 
  -10099    -9397    -7893    -6389    -5520    -5542    -6474    -8106 
   -9912   -11341   -12070   -11926   -10906    -9364    -7891    -6918 
   -6551    -6664    -7006    -7315    -7428    -7308    -6962    -6525 
   -6217    -6150    -6478    -7303    -8236    -8859    -9290    -9722 
  -10042   -10080    -9880    -9584    -9125    -8531    -8117    -7810 
   -7342    -6998    -6973    -7012    -7091    -7226    -7147    -6866 
   -6704    -6669    -6649    -6722    -6733    -6365    -5670    -4812 
   -3773    -2575    -1348     -264      451      576       94     -691 
   -1452    -2015    -2130    -1690    -1037     -590     -641    -1360 
   -2587    -3895    -4791    -4844    -3967    -2581    -1269     -378 
    -136     -511     -874     -783     -564     -439     -273     -365 
   -1210    -2737    -4536    -6288    -7741    -8586    -8452    -7174 
   -5019    -2630     -960     -685    -1556    -2830    -3923    -4492 
   -4528    -4158    -3501    -3067    -3357    -4239    -5301    -6032 
   -5938    -5024    -3611    -2213    -1582    -2078    -3495    -5348 
   -6810    -7116    -6023    -3831    -1399      291      570     -720 
   -2824    -4573    -5427    -5488    -5207    -5115    -5375    -5888 
   -6641    -7564    -8376    -8742    -8485    -7642    -6438    -5241 
   -4512    -4723    -5927    -7507    -8747    -9296    -9185    -8713 
   -8085    -7386    -6822    -6433    -6097    -6025    -6410    -6918 
   -7104    -6880    -6410    -5722    -4725    -3626    -2790    -2316 
   -2209    -2491    -2989    -3452    -3723    -3701    -3433    -3075 
   -2769    -2735    -3125    -3768    -4303    -4399    -3914    -3122 
   -2507    -2292    -2469    -3022    -3703    -4046    -3802    -2982 
   -1812     -738     -126     -187     -976    -2154    -3158    -3486 
   -2842    -1437      131     1209     1217      145    -1399    -2836 
   -3684    -3570    -2692    -1582     -670     -352     -579     -796 
    -755     -423      373     1298     1776     1868     1785     1473 
     988      498      297      609     1295     2219     3143     3529 
    3239     2619     2050     1884     2135     2566     3154     3752 
    4019     3794     2956     1706      688      235      263      742 
    1646     2811     3947     4723     4844     4229     3401     3083 
    3401     4059     4641     4792     4552     4076     3435     2830 
    2322     1761     1165      656      245     -121     -451     -629 
    -548     -277       80      444      606      390     -103     -693 
   -1351    -2051    -2668    -3201    -3705    -4028    -4057    -3906 
   -3764    -3887    -4384    -5070    -5719    -6045    -5739    -4824 
   -3567    -2303    -1452    -1220    -1565    -2388    -3501    -4733 
   -5848    -6458    -6389    -5876    -5375    -5288    -5922    -7326 
   -8910   -10011   -10426   -10011    -8984    -8134    -7971    -8455 
   -9261    -9992   -10454   -10532   -10054    -9055    -7939    -7224 
   -7257    -8193    -9812   -11465   -12550   -12681   -11707   -10064 
   -8527    -7623    -7589    -8391    -9466    -9912    -9291    -7768 
   -5596    -3335    -1869    -1541    -2066    -3139    -4434    -5475 
   -5736    -4860    -3129    -1375     -268     -183    -1175    -2687 
   -3931    -4416    -3943    -2712    -1361     -581     -717    -1622 
   -2935    -4316    -5242    -5144    -3977    -2338    -1078     -889 
   -1978    -4061    -6588    -8871   -10195   -10102    -8535    -5925 
   -3351    -1972    -2077    -3137    -4476    -5574    -6130    -6133 
   -5871    -5655    -5629    -6061    -7247    -8886   -10112   -10099 
   -8640    -6398    -4431    -3492    -3772    -4841    -5990    -6883 
   -7534    -7927    -8204    -8653    -9211    -9506    -9374    -8875 
   -8002    -6768    -5445    -4490    -4192    -4453    -4952    -5396 
   -5622    -5661    -5592    -5367    -4967    -4589    -4490    -4807 
   -5567    -6627    -7650    -8272    -8216    -7409    -6128    -4827 
   -3947    -3832    -4444    -5397    -6159    -6269    -5935    -5773 
   -5999    -6688    -7922    -9323   -10482   -11245   -11317   -10573 
   -9308    -7859    -6615    -6005    -6201    -6993    -7741    -7873 
   -7390    -6519    -5567    -5067    -5280    -5949    -6803    -7686 
   -8298    -8465    -8322    -7914    -7197    -6362    -5579    -4881 
   -4479    -4462    -4523    -4431    -4089    -3317    -2348    -1854 
   -2274    -3664    -5711    -7601    -8347    -7489    -5493    -3379 
   -1886    -1232    -1494    -2547    -3946    -5249    -6017    -5789 
   -4582    -3003    -1768    -1357    -1876    -3043    -4338    -5170 
   -5096    -4111    -2625    -1189     -333     -338    -1059    -2249 
   -3691    -4925    -5490    -5291    -4528    -3549    -2677    -2139 
   -2106    -2621    -3602    -4719    -5391    -5353    -4790    -3964 
   -3226    -2869    -2880    -3220    -3845    -4524    -5031    -5272 
   -5252    -5080    -4929    -4959    -5238    -5708    -6294    -7019 
   -7764    -7985    -7311    -6118    -4957    -4340    -4821    -6215 
   -7650    -8595    -8995    -8966    -8729    -8516    -8540    -8899 
   -9474   -10160   -10917   -11466   -11384   -10632    -9745    -9329 
   -9529   -10181   -11026   -11551   -11321   -10467    -9410    -8579 
   -8369    -8871    -9762   -10455   -10380    -9383    -7832    -6324 
   -5233    -4540    -4192    -4078    -3846    -3387    -2959    -2779 
   -2945    -3466    -4242    -4924    -5061    -4723    -4312    -3884 
   -3353    -2918    -2914    -3357    -3907    -4394    -4829    -4992 
   -4797    -4429    -3904    -3269    -2721    -2279    -1839    -1272 
    -552       32      140     -228     -937    -1932    -2938    -3504 
   -3516    -3199    -2843    -2616    -2547    -2689    -2977    -3242 
   -3522    -3797    -3820    -3469    -2918    -2603    -2803    -3352 
   -4035    -4535    -4347    -3558    -2793    -2441    -2645    -3420 
   -4623    -5924    -6889    -7390    -7538    -7315    -6773    -6096 
   -5366    -4616    -3962    -3571    -3661    -4367    -5508    -6753 
   -7825    -8489    -8764    -8856    -8866    -8868    -8868    -8660 
   -8153    -7573    -7118    -6819    -6739    -6932    -7355    -7990 
   -8747    -9395    -9684    -9415    -8690    -7773    -6603    -5232 
   -4180    -3667    -3524    -3728    -4083    -4179    -3958    -3639 
   -3509    -3799    -4255    -4511    -4688    -4837    -4774    -4691 
   -4884    -5289    -5530    -5317    -4928    -4631    -4160    -3636 
   -3370    -2973    -2325    -2036    -2206    -2381    -2373    -2181 
   -1881    -1683    -1839    -2618    -3967    -5316    -6253    -6755 
   -6757    -6330    -5806    -5273    -4586    -3817    -3164    -2791 
   -2896    -3557    -4520    -5289    -5437    -4842    -3626    -2096 
    -830     -270     -295     -711    -1569    -2668    -3600    -4223 
   -4423    -4065    -3432    -2960    -2831    -3163    -4036    -5268 
   -6407    -7055    -7162    -6875    -6440    -6089    -5668    -5098 
   -4833    -5014    -5273    -5490    -5676    -5680    -5473    -5215 
   -4983    -4708    -4498    -4574    -4765    -4687    -4173    -3345 
   -2637    -2358    -2414    -2682    -3030    -3311    -3616    -3980 
   -4196    -4191    -4171    -4428    -5029    -5650    -5912    -5711 
   -5171    -4553    -4119    -3976    -4026    -4021    -3792    -3447 
   -3308    -3676    -4533    -5596    -6626    -7408    -7656    -7169 
   -5909    -4193    -2817    -2493    -3336    -5085    -7246    -9060 
   -9815    -9196    -7395    -5078    -3137    -2252    -2567    -3677 
   -4826    -5325    -4931    -3894    -2802    -2185    -2197    -2815 
   -3892    -5028    -5754    -5741    -4853    -3214    -1259      381 
    1236     1127      -27    -1911    -3752    -5012    -5422    -4849 
   -3596    -2119     -828     -182     -107     -143     -239     -368 
    -279     -108     -158     -343     -382     -176       64       55 
    -143     -263     -115      514     1591     2570     3080     3069 
    2398     1215     -128    -1513    -2636    -3084    -2816    -1893 
    -551      655     1433     1782     1614      894     -221    -1458 
   -2425    -2774    -2429    -1544     -430      508      960      805 
     147     -678    -1330    -1601    -1277     -264     1033     1885 
    1855      974     -508    -2141    -3181    -3023    -1768      -27 
    1450     1939     1258     -133    -1720    -2990    -3487    -3266 
   -2552    -1539     -767     -630    -1000    -1513    -1646    -1104 
      33     1614     3175     4132     4240     3396     1747     -166 
   -1878    -3166    -3840    -3872    -3499    -2986    -2619    -2783 
   -3516    -4312    -4705    -4585    -3987    -3174    -2575    -2420 
   -2746    -3370    -3866    -4038    -4050    -4168    -4560    -4973 
   -4967    -4430    -3395    -2183    -1571    -1827    -2482    -3219 
   -3727    -3472    -2451    -1289     -527     -365     -826    -1910 
   -3488    -5042    -5887    -5803    -5068    -4104    -3579    -4067 
   -5218    -6072    -5956    -4782    -3116    -1748    -1209    -1715 
   -2819    -3754    -4265    -4233    -3596    -2668    -1568     -417 
     334      562      296     -392    -1094    -1618    -1976    -2076 
   -2097    -2269    -2766    -3970    -5678    -7048    -7705    -7641 
   -6921    -6035    -5416    -5073    -5017    -5339    -6045    -6852 
   -7152    -6593    -5328    -3811    -2774    -2744    -3615    -5006 
   -6360    -7005    -6658    -5489    -4031    -3073    -3061    -3873 
   -5091    -6259    -7096    -7393    -6961    -5897    -4558    -3380 
   -2862    -3308    -4456    -5607    -6198    -6022    -5138    -4030 
   -3450    -3757    -4761    -5935    -6741    -7146    -7335    -7239 
   -6914    -6461    -5806    -5108    -4668    -4548    -4743    -5348 
   -6214    -6734    -6500    -5661    -4481    -3395    -2940    -2885 
   -2627    -2432    -2922    -4076    -5597    -7198    -8324    -8565 
   -8151    -7436    -6479    -5403    -4343    -3407    -3038    -3477 
   -4397    -5485    -6306    -6288    -5560    -4789    -4516    -5083 
   -6463    -8214    -9761   -10463    -9904    -8293    -6245    -4463 
   -3532    -3616    -4554    -6102    -7779    -9008    -9435    -8891 
   -7532    -6028    -5015    -4722    -5227    -6241    -7040    -7257 
   -7034    -6590    -6276    -6298    -6528    -7092    -8202    -9652 
  -11132   -12162   -12103   -10867    -8861    -6763    -5569    -5710 
   -6716    -8050    -9173    -9515    -8987    -7839    -6456    -5360 
   -4901    -5210    -6204    -7444    -8511    -9211    -9212    -8355 
   -7092    -5910    -5097    -5050    -5792    -6878    -8004    -8850 
   -9123    -9086    -9149    -9370    -9712   -10171   -10699   -11161 
  -11332   -11154   -10808   -10382    -9812    -9185    -8796    -8825 
   -9235    -9923   -10730   -11307   -11272   -10564    -9353    -7794 
   -6288    -5275    -4571    -3965    -3772    -4006    -4215    -4100 
   -3470    -2402    -1452    -1127    -1663    -3013    -4708    -6187 
   -7033    -7000    -6229    -5115    -4121    -3715    -4037    -4930 
   -6075    -6838    -6795    -6192    -5389    -4648    -4271    -4378 
   -5003    -5975    -6627    -6481    -5616    -4241    -2793    -1952 
   -2090    -3108    -4488    -5474    -5500    -4441    -2804    -1432 
    -752     -807    -1581    -2799    -4024    -4923    -5239    -4916 
   -4176    -3319    -2553    -1986    -1702    -1624    -1585    -1670 
   -1940    -2216    -2506    -2883    -3120    -3064    -2956    -3125 
   -3638    -4395    -5236    -5712    -5299    -3963    -2029       32 
    1534     1994     1459      207    -1435    -2971    -3796    -3683 
   -2994    -2121    -1336    -1000    -1259    -1901    -2707    -3556 
   -4234    -4368    -3756    -2637    -1381     -267      374      408 
      80     -335     -629     -667     -481     -155      154      295 
     214     -215     -935    -1561    -1876    -1769    -1081      -43 
     942     1678     1968     1754     1249      708      379      306 
     254      112        7       12      -16     -278     -754    -1213 
   -1391    -1229     -887     -376      283      824     1157     1351 
    1374     1313     1162      784      399      269      358      614 
     865      866      675      516      473      397       86     -405 
    -775     -776     -342      482     1415     1936     1826     1421 
    1221     1595     2580     3768     4672     5173     5387     5300 
    4944     4540     4070     3450     3102     3400     4096     4955 
    5998     7033     7753     8057     7992     7643     7034     6188 
    5261     4341     3509     3031     3063     3593     4506     5359 
    5695     5354     4470     3586     3215     3308     3570     3875 
    4278     4785     5216     5276     4740     3659     2170      483 
    -825    -1408    -1482    -1123     -375      364      814      947 
     733      227     -313     -641     -772     -733     -317      399 
     914      964      640       43     -746    -1495    -1826    -1532 
    -655      686     2125     3132     3518     3414     2886     1939 
     736     -418    -1166    -1182     -402      952     2491     3663 
    4079     3801     3061     2210     1618     1196      865      930 
    1355     1864     2278     2293     1857     1158      207     -798 
   -1492    -1690    -1298     -502      289      826      860      260 
    -628    -1465    -2140    -2454    -2405    -2283    -2109    -1845 
   -1876    -2424    -3194    -3806    -3784    -2837    -1373       11 
     859      725     -258    -1365    -2078    -2080    -1188      197 
    1357     1890     1709      908     -144     -941    -1278    -1347 
   -1431    -1644    -1908    -2099    -2121    -2006    -2037    -2296 
   -2435    -2407    -2440    -2335    -2006    -1918    -2313    -3024 
   -3707    -3858    -3293    -2398    -1749    -1720    -2329    -3295 
   -4137    -4481    -4336    -3900    -3406    -3123    -3174    -3483 
   -3869    -4137    -4224    -4068    -3491    -2577    -1768    -1560 
   -2304    -3940    -5937    -7520    -7893    -6916    -5279    -3713 
   -2781    -2926    -4081    -5679    -6943    -7296    -6795    -5845 
   -4833    -4304    -4738    -5973    -7344    -8242    -8255    -7179 
   -5273    -3292    -2083    -2210    -3764    -6222    -8521    -9640 
   -9261    -7665    -5409    -3407    -2509    -3001    -4822    -7416 
   -9642   -10700   -10567    -9540    -8180    -7231    -7071    -7536 
   -8206    -8668    -8643    -8042    -7108    -6257    -5690    -5538 
   -5958    -6769    -7648    -8322    -8367    -7563    -6069    -4165 
   -2385    -1273     -950    -1357    -2275    -3238    -3783    -3641 
   -2947    -2084    -1218     -473      -39      129      201      303 
     491      715      854      704      151     -798    -2252    -4178 
   -6193    -7745    -8375    -8127    -7299    -6005    -4700    -4090 
   -4330    -5192    -6235    -6743    -6388    -5419    -4274    -3517 
   -3442    -3895    -4821    -6092    -7115    -7466    -7153    -6205 
   -4953    -4172    -4429    -5718    -7539    -9140    -9894    -9436 
   -7764    -5640    -4244    -4126    -5214    -7289    -9673   -11434 
  -12141   -11858   -10938    -9823    -8667    -7688    -7260    -7175 
   -7060    -6983    -6810    -6331    -5775    -5268    -4787    -4421 
   -4178    -4156    -4434    -4882    -5403    -5769    -5637    -4904 
   -3628    -2209    -1262    -1017    -1523    -2663    -3792    -4461 
   -4747    -4700    -4456    -4314    -4385    -4443    -4114    -3442 
   -2933    -2828    -3082    -3774    -4812    -5649    -5816    -5476 
   -4971    -4312    -3632    -3406    -3841    -4667    -5622    -6485 
   -6748    -6108    -4974    -3934    -3424    -3835    -5135    -6772 
   -8165    -8892    -8734    -7922    -7108    -6719    -6469    -6006 
   -5538    -5399    -5781    -6622    -7520    -8236    -8736    -8906 
   -8869    -8735    -8261    -7522    -6999    -6937    -7331    -8052 
   -8843    -9440    -9502    -8896    -7906    -6777    -5738    -5046 
   -4585    -4169    -3762    -3183    -2497    -2157    -2258    -2497 
   -2686    -2766    -2725    -2598    -2366    -1966    -1393     -698 
      49      690     1056     1157     1148     1122     1087     1133 
    1367     1568     1367      870      529      567     1195     2720 
    4856     6714     7677     7661     6736     4982     2753      695 
    -719    -1231     -670      616     1867     2518     2341     1485 
     362     -713    -1412    -1280     -192     1469     3019     3628 
    2805      788    -1631    -3376    -3648    -2509     -536     1611 
    3134     3597     3183     2068      531     -750    -1355    -1305 
    -717      105      706      776      235     -756    -1873    -2755 
   -3099    -2910    -2376    -1576     -760     -171      389      881 
     900      433     -309    -1078    -1497    -1493    -1146     -432 
     343      787      778      254     -499     -931    -1031    -1159 
   -1449    -1723    -1647    -1246     -960     -980    -1254    -1769 
   -2213    -2135    -1606    -1059     -811    -1023    -1552    -2031 
   -2278    -2255    -2093    -2005    -1792    -1307     -916     -805 
    -845     -973    -1159    -1416    -1712    -1946    -2182    -2535 
   -2990    -3393    -3512    -3066    -1770       80     1539     2125 
    1928     1042       -2     -591     -717     -469     -119     -150 
    -465     -740    -1009    -1286    -1469    -1486    -1423    -1565 
   -1915    -2242    -2617    -2972    -2930    -2530    -1891     -780 
     486     1094      913      251     -691    -1526    -1999    -2193 
   -2221    -2236    -2200    -1968    -1661    -1337    -1061    -1219 
   -1883    -2622    -3122    -3278    -3110    -2877    -2829    -2976 
   -3166    -3264    -3358    -3661    -4098    -4368    -4254    -3601 
   -2544    -1565    -1009    -1173    -2173    -3460    -4408    -4640 
   -3906    -2689    -1800    -1522    -1908    -2743    -3535    -4035 
   -4064    -3653    -3289    -3244    -3492    -3970    -4484    -4969 
   -5305    -5068    -4194    -3091    -2155    -1809    -2417    -3805 
   -5364    -6587    -7153    -6811    -5577    -3862    -2164     -781 
       1     -178    -1207    -2476    -3489    -3804    -3087    -1570 
     316     2174     3350     3295     2114      477     -768     -990 
