Origin Time       2011/03/11 14:46:00
Lat.              38.103
Long.             142.860
Depth. (km)       24
Mag.              9.0
Station Code      HKD149
Station Lat.      42.7905
Station Long.     140.2305
Station Height(m) 24
Record Time       2011/03/11 14:49:14
Sampling Freq(Hz) 100Hz
Duration Time(s)  108
Dir.              E-W
Scale Factor      3920(gal)/6182761
Max. Acc. (gal)   1.855
Last Correction   2011/03/11 14:48:59
Memo.             
[...]
    1218     1340     1434     1502     1549     1584     1615     1634 
    1633     1615     1569     1488     1376     1250     1129     1034 
     982      988     1046     1123     1189     1234     1254     1248 
    1227     1201     1180     1175     1175     1160     1119     1054 
     981      907      840      802      812      869      953     1041 
    1119     1171     1198     1223     1255     1274     1261     1216 
    1172     1160     1177     1196     1209     1227     1262     1317 
    1370     1418     1473     1522     1548     1555     1551     1540 
    1527     1512     1481     1431     1377     1323     1242     1125 
    1002      911      877      884      884      837      739      619 
     517      449      394      322      223      106      -10     -114 
    -208     -295     -362     -411     -447     -472     -470     -413 
    -302     -169      -39       92      239      405      582      754 
     908     1044     1156     1239     1298     1346     1391     1433 
    1475     1530     1609     1715     1835     1946     2029     2067 
    2057     2016     1964     1902     1832     1754     1671     1593 
    1521     1460     1415     1386     1381     1419     1495     1587 
    1680     1770     1861     1936     1976     1979     1931     1819 
    1662     1505     1376     1273     1173     1062      953      874 
     836      817      789      738      662      560      436      287 
     111      -80     -264     -421     -541     -616     -616     -541 
    -430     -321     -226     -149      -96      -53       -7       35 
      61       65       57       54       58       60       51       37 
      26        9       -9       -9        9       36       54       51 
      45       57       79      111      165      246      354      469 
     546      551      495      406      308      231      194      182 
     174      167      158      146      156      208      295      404 
     514      596      625      612      592      594      607      596 
     540      448      350      278      246      250      285      349 
     442      558      681      800      921     1057     1216     1390 
    1557     1704     1833     1945     2051     2169     2299     2452 
    2633     2826     3004     3154     3269     3342     3370     3356 
    3318     3254     3160     3048     2927     2800     2667     2527 
    2380     2218     2020     1778     1519     1272     1057      906 
     846      874      959     1058     1142     1220     1301     1383 
    1458     1509     1514     1474     1416     1364     1329     1309 
    1295     1278     1249     1191     1115     1060     1047     1053 
    1034      963      842      713      624      585      559      488 
     351      194       73       16       21       69      143      236 
     332      412      499      618      760      909     1053     1165 
    1229     1258     1282     1314     1354     1387     1392     1353 
    1274     1176     1085     1022     1010     1051     1120     1200 
    1287     1363     1399     1384     1356     1373     1455     1600 
    1778     1930     2007     2006     1940     1830     1682     1494 
    1273     1050      852      694      609      617      688      765 
     815      849      906     1015     1177     1365     1535     1669 
    1778     1865     1921     1943     1937     1911     1856     1755 
    1617     1461     1327     1251     1241     1262     1261     1187 
    1036      859      714      632      624      676      760      836 
     884      918      955      980      978      949      887      804 
     738      719      745      805      888      985     1088     1193 
    1303     1423     1551     1678     1791     1862     1862     1785 
    1653     1488     1302     1098      887      690      528      421 
     357      294      211      130       66       29       29       59 
      88      100       99       94      105      153      239      351 
     474      597      716      839      970     1084     1156     1185 
    1178     1136     1052      927      786      657      569      537 
     548      567      573      579      590      589      581      572 
     537      456      349      261      213      184      156      126 
      91       49        6      -24      -26        3       21      -25 
    -135     -265     -376     -446     -463     -441     -404     -377 
    -375     -396     -412     -393     -319     -200      -75       28 
      83       60      -42     -208     -423     -654     -874    -1067 
   -1214    -1311    -1362    -1364    -1316    -1219    -1096     -985 
    -905     -853     -815     -780     -756     -758     -776     -780 
    -749     -689     -617     -551     -496     -454     -430     -421 
    -418     -417     -424     -449     -479     -487     -452     -374 
    -271     -168      -99      -83     -126     -212     -314     -412 
    -509     -596     -647     -625     -519     -353     -177      -23 
     106      207      268      279      239      172      116       83 
      68       67       72       71       73       98      164      274 
     394      486      544      585      623      661      697      723 
     729      699      631      560      527      544      569      559 
     513      460      415      379      353      340      346      378 
     437      510      575      614      627      618      592      564 
     535      500      464      443      443      463      495      536 
     593      671      762      838      868      863      864      908 
    1007     1134     1251     1342     1406     1452     1511     1606 
    1716     1786     1777     1692     1570     1452     1364     1304 
    1263     1235     1212     1183     1137     1057      938      793 
     632      468      312      181       89       53       74      116 
     139      134      116       96       91      102      109       89 
      37      -33     -105     -171     -236     -301     -370     -441 
    -490     -502     -481     -436     -360     -244     -102       44 
     168      241      246      192      115       48       -5      -56 
    -120     -205     -305     -400     -478     -543     -603     -660 
    -715     -762     -793     -807     -802     -764     -671     -532 
    -377     -240     -133      -53       10       74      151      242 
     330      395      439      475      510      541      546      510 
     466      466      525      616      711      806      922     1060 
    1204     1343     1472     1583     1673     1753     1832     1892 
    1913     1897     1875     1887     1943     2022     2105     2169 
    2176     2120     2022     1905     1785     1672     1573     1488 
    1416     1357     1299     1198     1026      819      646      550 
     541      612      743      911     1096     1278     1424     1513 
    1570     1629     1697     1775     1854     1913     1932     1917 
    1886     1853     1829     1830     1867     1935     2024     2127 
    2218     2249     2200     2092     1959     1820     1685     1556 
    1439     1349     1306     1313     1338     1335     1295     1248 
    1238     1272     1315     1338     1333     1295     1243     1205 
    1199     1210     1205     1167     1107     1059     1057     1099 
    1155     1209     1265     1329     1392     1442     1489     1543 
    1617     1727     1867     2012     2146     2260     2335     2355 
    2320     2253     2181     2112     2047     1969     1855     1696 
    1499     1287     1070      848      642      489      416      418 
     468      540      589      567      462      296      109      -52 
    -143     -153      -99       -7       99      207      312      410 
     492      552      583      578      550      524      515      504 
     475      430      352      224       81      -13      -34       -8 
      44      119      208      280      297      237      127       27 
     -25      -20       11       11      -42     -105     -133     -114 
     -62       -4       39       42       -8     -102     -211     -316 
    -398     -458     -505     -551     -602     -650     -686     -717 
    -769     -849     -927     -980    -1010    -1036    -1053    -1040 
    -997     -928     -822     -676     -507     -338     -178      -25 
     132      305      477      617      696      715      701      660 
     587      488      365      217       79       -8      -40      -43 
     -49      -59      -49      -11       33       68       89      106 
     126      137      120       43     -101     -268     -395     -441 
    -407     -330     -252     -197     -155     -109      -57       -2 
      55      105      138      147      117       54      -12      -46 
     -16       84      217      326      380      389      389      406 
     439      472      495      517      532      513      440      330 
     230      170      157      178      220      273      315      335 
     340      341      351      366      366      342      301      252 
     208      181      186      232      307      393      472      540 
     606      683      759      803      801      768      730      706 
     689      654      581      479      395      382      450      563 
     656      690      672      621      551      490      465      479 
     507      510      464      376      290      264      306      388 
     477      547      590      609      603      583      569      573 
     591      614      610      553      439      286      118      -45 
    -190     -304     -388     -453     -513     -577     -650     -730 
    -818     -903     -969    -1019    -1045    -1036    -1013    -1001 
    -987     -936     -836     -713     -614     -555     -509     -457 
    -406     -366     -341     -319     -289     -235     -143      -12 
     135      286      438      574      684      769      835      888 
     929      959      982      992      979      959      958      986 
    1042     1116     1201     1285     1342     1359     1335     1279 
    1220     1188     1178     1161     1121     1061      984      890 
     799      741      743      810      935     1076     1173     1197 
    1157     1090     1044     1055     1133     1269     1440     1628 
    1817     1977     2096     2189     2261     2295     2285     2242 
    2182     2112     2022     1911     1780     1643     1528     1451 
    1426     1472     1571     1679     1779     1858     1897     1902 
    1906     1925     1948     1943     1899     1823     1721     1604 
    1502     1439     1413     1426     1464     1489     1464     1379 
    1255     1118      978      851      762      704      650      576 
     461      298      114      -57     -195     -279     -302     -277 
    -228     -183     -163     -179     -230     -309     -403     -501 
    -590     -646     -652     -619     -567     -512     -461     -416 
    -367     -308     -233     -142      -41       63      166      266 
     375      495      601      673      700      688      651      610 
     594      623      686      753      795      784      716      603 
     463      330      230      159       94       28      -24      -53 
     -62      -62      -70     -105     -174     -266     -369     -466 
    -536     -569     -575     -562     -517     -436     -335     -239 
    -178     -172     -197     -194     -135      -46       23       32 
     -19     -105     -201     -285     -355     -435     -546     -686 
    -844     -992    -1085    -1101    -1051     -968     -894     -839 
    -787     -735     -692     -665     -642     -616     -589     -550 
    -495     -450     -443     -473     -518     -567     -624     -697 
    -777     -833     -831     -761     -654     -559     -512     -518 
    -571     -668     -801     -940    -1058    -1151    -1221    -1271 
   -1298    -1297    -1282    -1264    -1247    -1248    -1268    -1279 
   -1252    -1170    -1072    -1020    -1016    -1017     -987     -912 
    -802     -693     -617     -569     -533     -507     -501     -527 
    -576     -632     -698     -780     -865     -930     -970    -1010 
   -1055    -1076    -1040     -937     -783     -603     -414     -215 
      13      282      561      811     1018     1191     1339     1448 
    1502     1507     1485     1455     1423     1383     1307     1179 
    1011      826      656      510      379      280      235      223 
     209      168       94       -9     -119     -200     -216     -177 
    -117      -55       14       96      178      245      314      407 
     519      618      676      687      672      658      654      645 
     623      602      594      606      638      684      737      792 
     848      901      946      977      985      956      882      773 
     626      432      208       -9     -187     -322     -429     -507 
    -536     -509     -439     -350     -258     -198     -198     -241 
    -284     -314     -350     -409     -480     -535     -562     -563 
    -526     -443     -328     -193      -60       41       85       75 
      28      -62     -199     -365     -537     -714     -912    -1114 
   -1275    -1360    -1365    -1306    -1228    -1167    -1136    -1119 
   -1069     -967     -843     -743     -692     -698     -760     -862 
    -978    -1092    -1201    -1298    -1366    -1397    -1394    -1373 
   -1361    -1384    -1444    -1511    -1552    -1573    -1616    -1694 
   -1789    -1890    -1989    -2068    -2104    -2094    -2066    -2042 
   -2007    -1955    -1905    -1847    -1744    -1596    -1418    -1226 
   -1039     -861     -670     -469     -284     -131       -7      102 
     206      310      428      579      745      876      943      947 
     910      842      742      602      426      245       91      -17 
     -80     -119     -156     -204     -249     -270     -278     -300 
    -315     -276     -169      -20      136      279      398      481 
     521      531      523      515      523      533      514      454 
     381      336      328      333      332      329      334      354 
     382      396      389      376      377      392      412      430 
     448      476      527      609      725      889     1102     1326 
    1520     1674     1785     1858     1908     1950     1973     1963 
    1926     1880     1824     1744     1637     1521     1427     1361 
    1315     1312     1365     1466     1602     1746     1863     1935 
    1961     1949     1886     1758     1593     1422     1255     1093 
     943      820      733      683      667      672      689      728 
     795      877      953      994      993      951      846      660 
     412      155      -57     -205     -296     -341     -337     -276 
    -176      -82      -11       66      171      299      449      630 
     835     1038     1218     1355     1446     1506     1549     1572 
    1566     1531     1487     1452     1416     1375     1336     1294 
    1246     1205     1178     1156     1130     1108     1096     1082 
    1057     1010      913      760      592      441      308      212 
     167      156      149      128      102       88      100      150 
     253      418      619      817      973     1072     1145     1222 
    1292     1326     1309     1236     1106      932      739      548 
     373      226      108        4      -97     -185     -265     -352 
    -442     -514     -553     -549     -498     -398     -265     -144 
     -74      -55      -67      -81      -72      -39       -5        6 
      -2        3       57      170      325      479      599      686 
     774      878      986     1085     1157     1187     1175     1128 
    1070     1019      979      943      915      898      880      862 
     844      817      796      810      860      905      900      830 
     725      621      532      460      404      357      307      240 
     150       49      -46     -123     -187     -255     -318     -360 
    -374     -367     -348     -335     -351     -398     -455     -499 
    -507     -472     -398     -310     -239     -192     -148      -82 
      13      119      214      287      321      319      299      257 
     191      117       50      -19     -108     -211     -314     -410 
    -491     -552     -598     -634     -659     -670     -658     -620 
    -567     -524     -517     -545     -583     -606     -613     -606 
    -594     -602     -639     -702     -779     -847     -893     -915 
    -887     -791     -648     -482     -311     -158      -47       19 
      53       76      108      157      222      304      389      473 
     561      638      681      676      642      607      575      548 
     543      567      621      707      818      945     1071     1171 
    1235     1277     1310     1328     1312     1248     1134      974 
     786      595      415      241       70      -95     -259     -431 
    -594     -722     -820     -897     -945     -958     -942     -898 
    -814     -698     -579     -487     -434     -414     -410     -396 
    -350     -260     -136      -17       50       50        5      -57 
    -113     -154     -184     -209     -227     -222     -186     -140 
     -95      -42       24       97      162      208      239      267 
     290      296      287      271      257      248      251      267 
     267      226      165      129      153      253      393      506 
     555      551      524      497      473      443      410      398 
     419      467      537      597      627      638      643      653 
     661      649      620      566      473      351      228      126 
      44        4       50      187      384      601      780      886 
     931      952      976     1007     1035     1050     1042     1027 
    1035     1085     1175     1277     1353     1398     1429     1456 
    1478     1479     1454     1412     1354     1281     1202     1128 
    1068     1023      980      940      909      903      940     1009 
    1098     1202     1310     1410     1504     1591     1673     1754 
    1834     1907     1959     1967     1927     1845     1725     1591 
    1471     1399     1396     1437     1477     1491     1486     1484 
    1503     1559     1650     1764     1875     1953     1994     2015 
    2027     2037     2049     2046     2003     1907     1752     1556 
    1335     1101      898      772      722      726      749      765 
     765      770      806      864      920      979     1058     1151 
    1232     1283     1297     1276     1246     1230     1233     1247 
    1270     1311     1372     1447     1532     1615     1687     1751 
    1790     1790     1761     1729     1718     1724     1720     1683 
    1607     1515     1425     1336     1237     1136     1051      978 
     920      891      884      893      899      882      857      850 
     859      884      906      903      883      858      824      773 
     700      602      504      448      455      513      591      660 
     726      786      821      827      808      759      671      544 
     401      279      187      126       94       62       17      -14 
     -14        0       -2      -34      -64      -47       26      120 
     180      180      128       28     -106     -235     -356     -481 
