Origin Time       2011/03/11 14:46:00
Lat.              38.103
Long.             142.860
Depth. (km)       24
Mag.              9.0
Station Code      HKD126
Station Lat.      42.5748
Station Long.     141.9284
Station Height(m) 7
Record Time       2011/03/11 14:48:10
Sampling Freq(Hz) 100Hz
Duration Time(s)  300
Dir.              N-S
Scale Factor      3920(gal)/6182761
Max. Acc. (gal)   30.964
Last Correction   2011/03/11 14:47:55
Memo.             
[...]
  -13421   -15384   -17174   -18732   -20055   -21169   -21954   -22192 
  -21835   -20998   -19820   -18505   -17219   -15971   -14676   -13216 
  -11516    -9585    -7458    -5148    -2644       19     2746     5468 
    8135    10658    12933    14871    16399    17469    18121    18517 
   18859    19278    19782    20284    20666    20816    20654    20177 
   19441    18532    17526    16424    15168    13646    11707     9233 
    6206     2705    -1146    -5268    -9614   -14083   -18518   -22701 
  -26350   -29232   -31212   -32219   -32303   -31649   -30503   -29069 
  -27421   -25502   -23209   -20437   -17129   -13315    -9063    -4460 
     267     4794     8934    12649    15991    19089    21997    24576 
   26591    27873    28387    28136    27059    25073    22149    18329 
   13733     8530     2885    -3022    -8966   -14719   -20038   -24631 
  -28251   -30871   -32685   -33852   -34341   -34108   -33254   -31954 
  -30336   -28441   -26279   -23918   -21513   -19243   -17229   -15506 
  -14022   -12702   -11499   -10398    -9395    -8459    -7529    -6632 
   -5832    -5130    -4571    -4154    -3714    -3143    -2408    -1444 
    -278      956     2092     3011     3752     4439     5130     5822 
    6494     7125     7700     8177     8444     8398     8014     7221 
    5872     3942     1606     -898    -3305    -5355    -6903    -7939 
   -8533    -8783    -8751    -8431    -7716    -6454    -4710    -2752 
    -759     1097     2579     3646     4416     4989     5428     5802 
    6233     6753     7241     7582     7731     7689     7478     7115 
    6688     6363     6277     6519     7082     7824     8524     8965 
    9028     8721     8138     7397     6550     5586     4511     3330 
    2051      653     -942    -2754    -4710    -6766    -8938   -11178 
  -13240   -14912   -16270   -17495   -18703   -19981   -21276   -22460 
  -23501   -24374   -24942   -24992   -24320   -22849   -20681   -18024 
  -15114   -12212    -9579    -7417    -5849    -4888    -4346    -3871 
   -3132    -1964     -363     1592     3772     6058     8334    10368 
   11929    12948    13505    13818    14124    14506    15012    15759 
   16728    17736    18641    19335    19670    19583    19170    18595 
   17992    17449    17096    17096    17536    18415    19667    21189 
   22944    24887    26870    28758    30477    31951    33084    33767 
   33930    33584    32848    31922    30988    30105    29224    28261 
   27102    25586    23585    21079    18185    15119    12109     9325 
    6861     4717     2886     1402      177     -948    -1957    -2789 
   -3436    -3808    -3867    -3708    -3418    -3106    -2912    -2921 
   -3158    -3628    -4297    -5110    -6005    -6887    -7621    -8069 
   -8187    -8058    -7801    -7504    -7213    -6931    -6637    -6310 
   -5936    -5524    -5103    -4750    -4520    -4430    -4551    -4959 
   -5626    -6457    -7323    -8129    -8847    -9446    -9849    -9984 
   -9843    -9490    -8987    -8355    -7660    -7070    -6751    -6762 
   -7041    -7424    -7736    -7866    -7732    -7289    -6524    -5404 
   -3881    -1955      337     2961     5897     9125    12601    16212 
   19803    23295    26699    30045    33297    36328    38987    41150 
   42744    43669    43796    43112    41767    39989    38002    35971 
   33925    31716    29112    25940    22142    17788    13055     8164 
    3351    -1132    -5096    -8467   -11250   -13527   -15467   -17282 
  -19123   -21049   -23064   -25088   -26944   -28418   -29258   -29265 
  -28438   -26974   -25160   -23266   -21484   -19921   -18570   -17295 
  -15917   -14304   -12414   -10331    -8206    -6237    -4661    -3668 
   -3424    -4087    -5640    -7860   -10500   -13392   -16410   -19421 
  -22271   -24794   -26831   -28253   -28970   -29027   -28601   -27828 
  -26821   -25712   -24478   -22946   -20937   -18381   -15381   -12137 
   -8806    -5467    -2141     1129     4234     7036     9446    11495 
   13304    14957    16437    17703    18780    19735    20650    21565 
   22396    23010    23337    23322    22907    22086    20838    19156 
   17123    14852    12414     9847     7167     4457     1878     -472 
   -2617    -4666    -6724    -8840   -11055   -13379   -15770   -18222 
  -20749   -23322   -25857   -28226   -30300   -31992   -33257   -34036 
  -34280   -34052   -33548   -32983   -32482   -32064   -31634   -30976 
  -29834   -28009   -25430   -22219   -18651   -15026   -11608    -8592 
   -6093    -4203    -2963    -2243    -1745    -1130     -144     1263 
    2941     4651     6166     7301     7927     7944     7346     6213 
    4643     2799      904     -861    -2404    -3740    -4904    -5807 
   -6371    -6653    -6719    -6680    -6771    -7154    -7773    -8384 
   -8715    -8610    -8002    -6871    -5240    -3156     -768     1683 
    3993     6006     7620     8832     9738    10506    11229    11910 
   12614    13400    14183    14748    14781    13988    12226     9491 
    5919     1873    -2130    -5684    -8713   -11323   -13485   -15169 
  -16619   -18047   -19402   -20649   -21800   -22793   -23577   -24105 
  -24279   -23973   -23027   -21275   -18650   -15302   -11559    -7749 
   -4086     -654     2509     5361     7843     9905    11604    13016 
   14070    14684    14850    14535    13719    12402    10543     8177 
    5511     2762       61    -2502    -4853    -6909    -8545    -9635 
  -10120   -10034    -9471    -8532    -7259    -5673    -3901    -2146 
    -572      770     1901     2826     3547     4119     4584     4875 
    4867     4486     3747     2748     1586      331     -916    -2039 
   -2884    -3450    -3942    -4352    -4631    -4946    -5282    -5578 
   -5938    -6324    -6585    -6588    -6201    -5314    -3815    -1646 
    1129     4411     8014    11659    15154    18375    21180    23511 
   25444    27104    28553    29694    30356    30468    30046    29084 
   27530    25349    22594    19478    16308    13381    10993     9431 
    8831     9065     9879    11026    12213    13160    13789    14198 
   14505    14795    15150    15636    16283    17043    17773    18272 
   18363    17938    16989    15606    13863    11753     9273     6518 
    3646      745    -2220    -5347    -8662   -12104   -15587   -18970 
  -22056   -24666   -26667   -27996   -28602   -28397   -27395   -25754 
  -23645   -21142   -18248   -15052   -11861    -9069    -6910    -5389 
   -4358    -3653    -3182    -2874    -2658    -2470    -2223    -1843 
   -1289     -531      438     1619     3033     4648     6301     7810 
    9089    10094    10821    11351    11778    12137    12408    12515 
   12391    12054    11604    11147    10688    10118     9352     8418 
    7411     6421     5474     4573     3754     3063     2519     2094 
    1679     1141      413     -479    -1439    -2330    -3019    -3397 
   -3399    -2994    -2191    -1078      240     1717     3346     5128 
    6952     8563     9747    10425    10612    10412     9993     9527 
    9137     8867     8651     8391     8071     7760     7535     7496 
    7753     8312     9042     9756    10362    10931    11611    12498 
   13652    15072    16633    18166    19528    20634    21518    22234 
   22704    22740    22132    20764    18715    16218    13477    10597 
    7646     4669     1697    -1243    -4136    -6895    -9289   -11100 
  -12212   -12538   -12055   -10857    -9121    -7098    -5055    -3188 
   -1606     -336      640     1288     1513     1248      535     -500 
   -1710    -2978    -4234    -5482    -6798    -8232    -9724   -11162 
  -12428   -13366   -13806   -13674   -13028   -12013   -10801    -9555 
   -8355    -7160    -5889    -4527    -3103    -1628     -105     1437 
    2945     4344     5503     6242     6402     5950     4931     3342 
    1215    -1302    -3962    -6479    -8676   -10534   -12066   -13266 
  -14210   -15038   -15857   -16720   -17650   -18638   -19641   -20585 
  -21391   -21998   -22401   -22638   -22730   -22636   -22237   -21355 
  -19877   -17848   -15414   -12722    -9869    -6873    -3668     -201 
    3486     7246    10894    14266    17238    19723    21661    23001 
   23664    23560    22641    20925    18524    15647    12560     9528 
    6752     4327     2268      554     -845    -1912    -2575    -2772 
   -2486    -1764     -686      704     2386     4249     6105     7788 
    9192    10251    10927    11237    11262    11110    10891    10714 
   10613    10496    10231     9748     9063     8272     7481     6744 
    6095     5557     5068     4581     4164     3919     3871     3941 
    3987     3912     3703     3429     3235     3274     3621     4214 
    4860     5356     5606     5591     5303     4766     4093     3464 
    3033     2825     2721     2537     2170     1652     1088      620 
     367      319      355      349      263      170      179      352 
     686     1110     1493     1708     1698     1490     1219     1081 
    1262     1896     3044     4659     6557     8511    10388    12141 
   13707    15006    16008    16740    17215    17436    17531    17776 
   18421    19552    21087    22843    24592    26095    27122    27578 
   27607    27469    27372    27388    27528    27836    28361    29086 
   29955    30873    31705    32362    32833    33119    33194    33026 
   32628    32069    31427    30771    30130    29434    28569    27398 
   25752    23516    20726    17524    14063    10460     6795     3119 
    -506    -3963    -7086    -9793   -12115   -14146   -16007   -17778 
  -19470   -21087   -22669   -24243   -25791   -27307   -28797   -30219 
  -31461   -32409   -33039   -33444   -33736   -33968   -34149   -34288 
  -34360   -34306   -34071   -33615   -32869   -31752   -30197   -28159 
  -25651   -22750   -19548   -16155   -12729    -9477    -6596    -4242 
   -2482    -1224     -314      352      938     1611     2442     3488 
    4723     6017     7346     8787    10393    12213    14277    16545 
   18929    21290    23516    25629    27714    29769    31651    33151 
   34097    34406    34092    33197    31746    29778    27365    24602 
   21575    18325    14869    11304     7825     4622     1822     -496 
   -2293    -3583    -4500    -5288    -6139    -7133    -8263    -9419 
  -10457   -11245   -11670   -11693   -11314   -10508    -9286    -7708 
   -5849    -3818    -1761      197     1966     3508     4874     6189 
    7552     8988    10472    11960    13403    14721    15833    16710 
   17334    17682    17718    17386    16656    15563    14183    12573 
   10796     8951     7141     5468     4064     3006     2229     1598 
    1021      459     -111     -720    -1392    -2115    -2845    -3537 
   -4180    -4799    -5433    -6109    -6812    -7498    -8128    -8671 
   -9173    -9772   -10519   -11340   -12105   -12641   -12877   -12871 
  -12622   -12151   -11584   -11026   -10578   -10345   -10275   -10245 
  -10287   -10441   -10592   -10675   -10732   -10793   -10804   -10659 
  -10362    -9992    -9560    -9101    -8725    -8457    -8305    -8299 
   -8405    -8584    -8802    -8969    -8980    -8789    -8422    -7911 
   -7273    -6539    -5727    -4769    -3493    -1798      279     2712 
    5456     8325    11166    13952    16693    19408    22099    24702 
   27148    29396    31421    33191    34639    35624    36001    35716 
   34783    33210    31001    28208    24931    21261    17262    13016 
    8650     4286        6    -4107    -7987   -11633   -15086   -18369 
  -21460   -24312   -26855   -28950   -30435   -31236   -31385   -30948 
  -29975   -28581   -26996   -25417   -23930   -22559   -21307   -20198 
  -19269   -18469   -17680   -16764   -15576   -14022   -12127    -9955 
   -7546    -4998    -2446       37     2395     4567     6524     8235 
    9640    10647    11183    11222    10766     9812     8339     6333 
    3844      994    -2008    -4882    -7389    -9449   -11136   -12563 
  -13788   -14768   -15414   -15677   -15537   -14974   -13951   -12421 
  -10464    -8339    -6364    -4797    -3750    -3181    -3021    -3245 
   -3812    -4679    -5830    -7261    -8935   -10747   -12518   -14082 
  -15371   -16409   -17250   -17935   -18514   -19023   -19398   -19490 
  -19183   -18417   -17185   -15546   -13568   -11308    -8814    -6118 
   -3312     -607     1738     3585     4960     5920     6485     6745 
    6870     6947     6929     6767     6459     6031     5495     4813 
    3958     2978     1948      933       19     -680    -1077    -1123 
    -714      272     1838     3850     6065     8187    10002    11429 
   12446    13110    13575    13946    14239    14496    14760    15002 
   15225    15483    15741    15892    15799    15331    14432    13151 
   11647    10124     8746     7652     6929     6547     6394     6351 
    6289     6118     5850     5558     5311     5170     5187     5388 
    5800     6449     7337     8427     9625    10804    11862    12707 
   13248    13471    13486    13488    13730    14443    15724    17503 
   19590    21748    23792    25639    27260    28600    29629    30432 
   31155    31869    32607    33430    34390    35515    36762    38001 
   39080    39891    40390    40566    40416    39935    39156    38136 
   36847    35212    33210    30847    28150    25151    21841    18257 
   14500    10687     6927     3294     -147    -3369    -6483    -9660 
  -12974   -16406   -19884   -23292   -26545   -29571   -32344   -34934 
  -37388   -39706   -41876   -43829   -45484   -46791   -47662   -47999 
  -47758   -46885   -45330   -43140   -40456   -37448   -34286   -31111 
  -28075   -25344   -22999   -21036   -19442   -18146   -16999   -15828 
  -14526   -13101   -11623   -10138    -8692    -7351    -6181    -5245 
   -4576    -4147    -3830    -3441    -2830    -1885     -532     1181 
    3131     5225     7364     9362    11035    12296    13139    13651 
   13996    14357    14905    15741    16857    18165    19531    20828 
   21949    22735    23013    22705    21794    20283    18261    15891 
   13325    10680     8029     5373     2672     -112    -3021    -6048 
   -9125   -12257   -15464   -18597   -21535   -24302   -26820   -28896 
  -30425   -31425   -31970   -32178   -32151   -31910   -31451   -30794 
  -29963   -29040   -28178   -27465   -26887   -26411   -25978   -25521 
  -25026   -24515   -24038   -23668   -23429   -23282   -23170   -22940 
  -22352   -21279   -19747   -17805   -15533   -13088   -10567    -7976 
   -5333    -2672      -87     2251     4234     5798     6851     7336 
    7241     6590     5420     3764     1757     -351    -2332    -4033 
   -5370    -6299    -6813    -6955    -6814    -6489    -6057    -5563 
   -5031    -4420    -3616    -2564    -1374     -153     1116     2393 
    3571     4632     5520     6140     6484     6492     6085     5281 
    4148     2825     1451      116    -1094    -2155    -3163    -4276 
   -5588    -7069    -8598    -9978   -10990   -11444   -11216   -10342 
   -8929    -6987    -4575    -1929      667     2988     4940     6579 
    7941     9014     9806    10309    10543    10641    10720    10690 
   10307     9389     7936     6010     3671     1041    -1719    -4480 
   -7152    -9669   -11957   -13868   -15222   -15931   -15974   -15303 
  -13910   -11856    -9170    -5859    -2019     2199     6680    11326 
   16027    20649    25051    29093    32616    35472    37579    38946 
   39665    39865    39663    39151    38416    37541    36562    35421 
   34005    32267    30236    27944    25428    22774    20129    17709 
   15714    14252    13335    12898    12828    13005    13320    13658 
   13826    13581    12781    11416     9557     7370     5112     2998 
    1122     -475    -1778    -2832    -3690    -4424    -5109    -5815 
   -6641    -7611    -8612    -9534   -10337   -11024   -11624   -12136 
  -12555   -12925   -13322   -13864   -14669   -15780   -17173   -18781 
  -20465   -22041   -23364   -24359   -25013   -25341   -25344   -24983 
  -24224   -23111   -21736   -20205   -18669   -17293   -16153   -15256 
  -14588   -14115   -13816   -13701   -13797   -14112   -14566   -15007 
  -15267   -15204   -14726   -13808   -12492   -10834    -8848    -6549 
   -3980    -1197     1741     4807     7977    11184    14356    17431 
   20344    23040    25495    27691    29628    31381    33028    34522 
   35718    36473    36699    36357    35446    34028    32232    30236 
   28246    26451    24909    23490    21917    19891    17221    13826 
    9733     5113      240    -4630    -9306   -13627   -17432   -20565 
  -22886   -24326   -24957   -24922   -24333   -23294   -21906   -20253 
  -18409   -16364   -14036   -11386    -8430    -5258    -2089      780 
    3104     4747     5641     5747     5083     3772     1965     -265 
   -2864    -5716    -8669   -11568   -14268   -16653   -18663   -20279 
  -21511   -22382   -22903   -23088   -22931   -22364   -21263   -19534 
  -17179   -14231   -10741    -6843    -2659     1803     6527    11410 
   16309    21042    25444    29447    33014    36135    38850    41214 
   43297    45162    46791    48097    48976    49350    49221    48680 
   47863    46867    45685    44213    42333    40012    37378    34633 
   31918    29306    26814    24363    21876    19359    16841    14307 
   11764     9311     7069     5126     3491     2049      622     -952 
   -2745    -4666    -6524    -8135    -9354   -10144   -10569   -10710 
  -10651   -10472   -10245    -9950    -9450    -8671    -7661    -6485 
   -5246    -4064    -3005    -2127    -1476    -1078    -1019    -1410 
   -2272    -3534    -5105    -6924    -8930   -11005   -13029   -14969 
  -16842   -18640   -20315   -21795   -22959   -23700   -24019   -23982 
  -23627   -22911   -21751   -20085   -17917   -15352   -12550    -9658 
   -6802    -4043    -1379     1234     3869     6600     9452    12392 
   15369    18366    21391    24374    27151    29578    31588    33192 
   34472    35546    36471    37196    37620    37654    37236    36364 
   35122    33673    32188    30812    29644    28734    28110    27773 
   27668    27763    28029    28348    28601    28821    29091    29277 
   29138    28610    27698    26365    24567    22151    19014    15286 
   11164     6824     2508    -1493    -4974    -7843   -10067   -11682 
  -12789   -13505   -13924   -14135   -14250   -14329   -14348   -14291 
  -14122   -13862   -13666   -13616   -13665   -13856   -14303   -15062 
  -16170   -17598   -19168   -20667   -21931   -22838   -23354   -23535 
  -23456   -23181   -22769   -22266   -21709   -21135   -20578   -20072 
  -19678   -19440   -19294   -19124   -18896   -18620   -18275   -17829 
  -17313   -16844   -16543   -16498   -16735   -17171   -17661   -18045 
  -18150   -17882   -17231   -16187   -14724   -12848   -10612    -8090 
   -5342    -2428      576     3584     6516     9288    11769    13822 
   15345    16278    16636    16493    15942    15053    13871    12461 
   10948     9485     8153     6935     5789     4735     3825     3070 
    2430     1885     1434     1076      803      563      253     -192 
    -744    -1352    -2005    -2724    -3560    -4573    -5780    -7188 
   -8845   -10723   -12680   -14553   -16184   -17445   -18276   -18676 
  -18724   -18550   -18263   -17939   -17641   -17376   -17088   -16693 
