Origin Time       2011/03/11 14:46:00
Lat.              38.103
Long.             142.860
Depth. (km)       24
Mag.              9.0
Station Code      HKD146
Station Lat.      42.8076
Station Long.     140.6878
Station Height(m) 147
Record Time       2011/03/11 14:48:08
Sampling Freq(Hz) 100Hz
Duration Time(s)  300
Dir.              U-D
Scale Factor      3920(gal)/6182761
Max. Acc. (gal)   5.946
Last Correction   2011/03/11 14:47:53
Memo.             
[...]
   -9176    -9099    -9021    -8924    -8805    -8679    -8583    -8553 
   -8577    -8584    -8528    -8451    -8362    -8230    -8098    -8049 
   -8100    -8202    -8270    -8263    -8275    -8410    -8635    -8854 
   -9052    -9265    -9479    -9653    -9816   -10031   -10298   -10547 
  -10729   -10842   -10893   -10920   -10977   -11059   -11162   -11325 
  -11521   -11652   -11693   -11728   -11833   -11976   -12091   -12173 
  -12222   -12234   -12195   -12069   -11880   -11733   -11728   -11884 
  -12139   -12437   -12748   -13001   -13132   -13193   -13242   -13289 
  -13364   -13456   -13491   -13431   -13305   -13150   -12986   -12825 
  -12662   -12492   -12307   -12100   -11864   -11609   -11377   -11224 
  -11135   -11016   -10847   -10699   -10593   -10509   -10452   -10406 
  -10315   -10117    -9823    -9508    -9239    -9082    -9068    -9147 
   -9244    -9314    -9356    -9405    -9487    -9561    -9549    -9395 
   -9088    -8656    -8179    -7758    -7487    -7410    -7469    -7545 
   -7548    -7460    -7302    -7121    -6982    -6912    -6907    -6958 
   -7026    -7112    -7278    -7549    -7883    -8231    -8558    -8854 
   -9094    -9251    -9324    -9329    -9279    -9233    -9264    -9373 
   -9532    -9708    -9834    -9850    -9777    -9707    -9688    -9706 
   -9785    -9974   -10230   -10464   -10660   -10854   -11056   -11270 
  -11521   -11794   -12035   -12194   -12258   -12246   -12160   -11995 
  -11791   -11617   -11519   -11480   -11421   -11279   -11083   -10889 
  -10713   -10570   -10473   -10381   -10242   -10049    -9831    -9614 
   -9409    -9198    -8935    -8620    -8292    -7947    -7566    -7186 
   -6876    -6644    -6405    -6106    -5778    -5498    -5326    -5239 
   -5159    -5063    -4975    -4906    -4894    -4993    -5194    -5413 
   -5588    -5704    -5792    -5920    -6142    -6436    -6741    -7000 
   -7185    -7293    -7346    -7389    -7457    -7549    -7637    -7713 
   -7823    -8034    -8370    -8823    -9367    -9929   -10411   -10772 
  -11047   -11301   -11558   -11804   -12013   -12160   -12251   -12299 
  -12332   -12415   -12593   -12851   -13150   -13465   -13765   -14012 
  -14183   -14297   -14414   -14545   -14640   -14677   -14665   -14591 
  -14434   -14200   -13893   -13509   -13064   -12587   -12101   -11617 
  -11120   -10583   -10027    -9526    -9137    -8843    -8575    -8272 
   -7919    -7563    -7294    -7190    -7237    -7337    -7398    -7406 
   -7396    -7358    -7275    -7180    -7098    -6979    -6755    -6452 
   -6176    -5997    -5905    -5866    -5853    -5832    -5781    -5692 
   -5575    -5497    -5570    -5836    -6196    -6517    -6752    -6914 
   -7024    -7099    -7158    -7234    -7359    -7485    -7522    -7491 
   -7524    -7671    -7841    -7953    -8033    -8130    -8229    -8276 
   -8299    -8408    -8641    -8913    -9139    -9293    -9418    -9557 
   -9687    -9775    -9852    -9958   -10092   -10214   -10283   -10297 
  -10279   -10240   -10192   -10125   -10005    -9822    -9596    -9345 
   -9117    -8989    -9000    -9086    -9113    -9001    -8817    -8700 
   -8699    -8750    -8787    -8773    -8667    -8464    -8195    -7894 
   -7581    -7284    -7017    -6754    -6459    -6094    -5641    -5168 
   -4773    -4515    -4387    -4303    -4187    -4045    -3910    -3783 
   -3622    -3397    -3120    -2855    -2694    -2666    -2690    -2722 
   -2789    -2876    -2947    -3026    -3157    -3350    -3576    -3826 
   -4158    -4629    -5225    -5866    -6468    -6984    -7410    -7809 
   -8246    -8686    -9055    -9360    -9655    -9931   -10127   -10225 
  -10287   -10367   -10433   -10427   -10341   -10228   -10126   -10014 
   -9856    -9661    -9444    -9204    -8954    -8712    -8497    -8316 
   -8143    -7942    -7726    -7545    -7430    -7367    -7359    -7421 
   -7516    -7553    -7486    -7337    -7180    -7117    -7204    -7377 
   -7542    -7638    -7620    -7517    -7408    -7278    -7084    -6858 
   -6651    -6486    -6361    -6259    -6184    -6151    -6143    -6169 
   -6268    -6434    -6613    -6777    -6945    -7156    -7439    -7764 
   -8097    -8471    -8911    -9350    -9691    -9931   -10177   -10502 
  -10894   -11357   -11901   -12479   -13045   -13593   -14099   -14555 
  -15009   -15478   -15907   -16227   -16427   -16488   -16371   -16135 
  -15916   -15765   -15643   -15530   -15442   -15369   -15253   -15043 
  -14760   -14443   -14081   -13623   -13038   -12416   -11927   -11653 
  -11525   -11401   -11146   -10721   -10199    -9714    -9394    -9300 
   -9406    -9622    -9839    -9965    -9997   -10033   -10146   -10346 
  -10599   -10788   -10799   -10657   -10483   -10334   -10191   -10069 
   -9968    -9830    -9617    -9310    -8919    -8528    -8204    -7941 
   -7662    -7302    -6914    -6577    -6329    -6164    -6033    -5939 
   -5913    -5939    -5985    -6004    -5983    -5991    -6089    -6300 
   -6583    -6825    -6959    -7032    -7109    -7223    -7410    -7657 
   -7891    -8070    -8158    -8136    -8054    -7953    -7857    -7775 
   -7690    -7597    -7489    -7384    -7343    -7372    -7426    -7460 
   -7459    -7455    -7451    -7411    -7389    -7483    -7709    -7991 
   -8216    -8310    -8270    -8158    -8081    -8153    -8404    -8712 
   -8924    -9022    -9080    -9145    -9261    -9445    -9645    -9822 
   -9946    -9958    -9872    -9763    -9670    -9604    -9570    -9547 
   -9489    -9358    -9189    -9098    -9176    -9384    -9574    -9622 
   -9541    -9447    -9421    -9467    -9568    -9746   -10014   -10289 
  -10474   -10612   -10786   -11005   -11255   -11509   -11721   -11827 
  -11726   -11424   -11080   -10783   -10485   -10179    -9872    -9531 
   -9205    -8988    -8940    -9080    -9288    -9379    -9302    -9096 
   -8800    -8466    -8135    -7844    -7633    -7477    -7309    -7135 
   -6963    -6776    -6599    -6463    -6338    -6167    -5950    -5736 
   -5541    -5372    -5268    -5270    -5338    -5339    -5225    -5100 
   -5024    -5005    -5094    -5302    -5583    -5893    -6167    -6422 
   -6768    -7199    -7633    -8051    -8358    -8429    -8310    -8123 
   -7984    -7977    -8081    -8257    -8462    -8554    -8460    -8257 
   -7991    -7719    -7598    -7678    -7880    -8170    -8483    -8700 
   -8795    -8840    -8888    -8955    -9044    -9098    -9027    -8789 
   -8457    -8185    -8079    -8125    -8268    -8501    -8766    -8874 
   -8729    -8441    -8200    -8147    -8320    -8681    -9166    -9656 
  -10001   -10174   -10271   -10393   -10581   -10763   -10811   -10669 
  -10369   -10054    -9948   -10145   -10542   -10973   -11308   -11545 
  -11752   -11917   -12036   -12167   -12270   -12270   -12178   -12012 
  -11803   -11605   -11452   -11352   -11289   -11216   -11044   -10751 
  -10445   -10229   -10102   -10018    -9955    -9904    -9839    -9775 
   -9794    -9922   -10063   -10105   -10025    -9845    -9577    -9278 
   -9022    -8794    -8537    -8238    -7894    -7548    -7270    -7051 
   -6836    -6596    -6347    -6081    -5744    -5358    -5040    -4868 
   -4843    -4934    -5059    -5085    -4935    -4661    -4352    -4071 
   -3890    -3850    -3882    -3880    -3805    -3666    -3460    -3177 
   -2822    -2440    -2090    -1785    -1516    -1279    -1070     -910 
    -802     -720     -679     -706     -786     -910    -1104    -1396 
   -1805    -2320    -2874    -3393    -3843    -4238    -4669    -5207 
   -5829    -6508    -7200    -7830    -8400    -8962    -9554   -10197 
  -10863   -11517   -12152   -12744   -13229   -13540   -13655   -13628 
  -13588   -13669   -13884   -14135   -14329   -14430   -14450   -14398 
  -14271   -14113   -13993   -13921   -13840   -13700   -13510   -13332 
  -13212   -13111   -12969   -12784   -12547   -12230   -11880   -11597 
  -11410   -11270   -11134   -10997   -10896   -10858   -10843   -10790 
  -10689   -10580   -10493   -10375   -10191   -10009    -9904    -9896 
   -9971   -10085   -10201   -10322   -10439   -10509   -10508   -10495 
  -10539   -10588   -10524   -10279    -9898    -9502    -9149    -8797 
   -8410    -8003    -7615    -7243    -6876    -6559    -6335    -6158 
   -5935    -5615    -5202    -4719    -4214    -3757    -3376    -3052 
   -2779    -2569    -2407    -2252    -2063    -1856    -1693    -1599 
   -1568    -1630    -1847    -2226    -2687    -3145    -3561    -3924 
   -4235    -4504    -4737    -4958    -5212    -5496    -5750    -5944 
   -6114    -6326    -6614    -6948    -7276    -7574    -7838    -8073 
   -8293    -8498    -8649    -8740    -8817    -8939    -9167    -9475 
   -9743    -9901    -9925    -9803    -9555    -9245    -8979    -8845 
   -8862    -8982    -9098    -9136    -9100    -9017    -8927    -8873 
   -8873    -8925    -9009    -9099    -9217    -9377    -9520    -9583 
   -9580    -9576    -9643    -9815   -10056   -10293   -10476   -10589 
  -10636   -10652   -10677   -10700   -10670   -10547   -10359   -10162 
  -10004    -9925    -9964   -10145   -10418   -10696   -10954   -11141 
  -11219   -11225   -11197   -11186   -11214   -11240   -11242   -11212 
  -11176   -11177   -11221   -11269   -11269   -11223   -11198   -11292 
  -11533   -11837   -12106   -12280   -12337   -12314   -12268   -12250 
  -12291   -12376   -12481   -12580   -12626   -12617   -12639   -12753 
  -12880   -12901   -12788   -12604   -12398   -12181   -11985   -11826 
  -11677   -11474   -11174   -10799   -10427   -10159   -10075   -10153 
  -10302   -10386   -10302   -10078    -9794    -9500    -9256    -9082 
   -8900    -8587    -8117    -7568    -7026    -6565    -6256    -6124 
   -6068    -5915    -5598    -5190    -4790    -4446    -4173    -3982 
   -3873    -3795    -3683    -3563    -3504    -3520    -3586    -3700 
   -3871    -4066    -4225    -4327    -4362    -4342    -4307    -4298 
   -4360    -4481    -4583    -4634    -4662    -4740    -4943    -5271 
   -5653    -6003    -6282    -6509    -6710    -6932    -7222    -7555 
   -7867    -8104    -8262    -8382    -8520    -8675    -8782    -8790 
   -8726    -8641    -8556    -8468    -8379    -8327    -8342    -8412 
   -8509    -8616    -8737    -8914    -9179    -9483    -9746    -9924 
  -10038   -10148   -10294   -10492   -10720   -10904   -10993   -10977 
  -10887   -10824   -10885   -11101   -11437   -11800   -12127   -12452 
  -12806   -13150   -13471   -13824   -14236   -14667   -15056   -15359 
  -15593   -15813   -16018   -16172   -16276   -16327   -16326   -16270 
  -16120   -15854   -15516   -15171   -14866   -14626   -14441   -14303 
  -14221   -14187   -14142   -14043   -13918   -13797   -13657   -13486 
  -13327   -13219   -13146   -13067   -12949   -12791   -12563   -12232 
  -11856   -11540   -11341   -11231   -11154   -11109   -11091   -11036 
  -10881   -10601   -10231    -9888    -9667    -9576    -9572    -9581 
   -9534    -9399    -9186    -8960    -8788    -8706    -8734    -8797 
   -8769    -8624    -8420    -8211    -8042    -7936    -7861    -7776 
   -7667    -7514    -7314    -7089    -6863    -6687    -6636    -6694 
   -6788    -6883    -6987    -7120    -7291    -7476    -7627    -7703 
   -7658    -7474    -7222    -6989    -6780    -6569    -6362    -6200 
   -6096    -6030    -6011    -6053    -6130    -6186    -6193    -6164 
   -6127    -6091    -6015    -5863    -5690    -5635    -5800    -6161 
   -6626    -7129    -7611    -7982    -8190    -8305    -8443    -8668 
   -8985    -9333    -9579    -9622    -9488    -9311    -9229    -9250 
   -9273    -9226    -9063    -8789    -8494    -8280    -8179    -8137 
   -8094    -8033    -7919    -7749    -7639    -7735    -8130    -8775 
   -9470   -10054   -10520   -10905   -11230   -11535   -11878   -12251 
  -12553   -12723   -12781   -12769   -12747   -12760   -12812   -12871 
  -12895   -12861   -12750   -12537   -12268   -12031   -11826   -11637 
  -11515   -11460   -11392   -11237   -10959   -10613   -10298   -10068 
   -9949    -9923    -9941    -9983   -10017   -10011    -9969    -9891 
   -9788    -9685    -9586    -9476    -9359    -9243    -9115    -8985 
   -8929    -9026    -9231    -9417    -9504    -9492    -9407    -9274 
   -9112    -8958    -8841    -8731    -8570    -8345    -8080    -7810 
   -7578    -7406    -7283    -7164    -7050    -6967    -6849    -6639 
   -6412    -6221    -6038    -5894    -5872    -5965    -6070    -6118 
   -6128    -6122    -6154    -6324    -6646    -7047    -7458    -7787 
   -8007    -8185    -8338    -8448    -8544    -8677    -8884    -9120 
   -9278    -9313    -9245    -9098    -8907    -8707    -8538    -8444 
   -8366    -8175    -7832    -7430    -7081    -6841    -6701    -6633 
   -6615    -6622    -6653    -6715    -6783    -6850    -6976    -7171 
   -7347    -7440    -7506    -7655    -7939    -8353    -8898    -9538 
  -10167   -10739   -11277   -11800   -12349   -12967   -13618   -14225 
  -14714   -15030   -15177   -15242   -15326   -15488   -15703   -15909 
  -16083   -16239   -16392   -16527   -16636   -16776   -16964   -17088 
  -17004   -16688   -16235   -15760   -15314   -14892   -14462   -13967 
  -13366   -12708   -12084   -11527   -11041   -10628   -10201    -9650 
   -8996    -8335    -7724    -7186    -6746    -6404    -6093    -5764 
   -5462    -5208    -4966    -4702    -4402    -4077    -3766    -3468 
   -3157    -2831    -2514    -2233    -1981    -1716    -1421    -1100 
    -772     -483     -259      -76       81      202      298      370 
     383      304      129     -113     -417     -778    -1126    -1387 
   -1586    -1849    -2252    -2737    -3225    -3697    -4127    -4465 
   -4687    -4850    -5051    -5308    -5562    -5794    -6002    -6204 
   -6477    -6906    -7544    -8335    -9073    -9568    -9772    -9763 
   -9712    -9773    -9999   -10390   -10866   -11268   -11505   -11558 
  -11454   -11308   -11241   -11300   -11455   -11608   -11658   -11628 
  -11607   -11624   -11638   -11627   -11596   -11556   -11527   -11569 
  -11729   -11965   -12193   -12385   -12592   -12888   -13276   -13658 
  -13916   -13999   -13935   -13786   -13601   -13470   -13499   -13691 
  -13941   -14119   -14162   -14136   -14128   -14157   -14209   -14272 
  -14315   -14292   -14144   -13883   -13623   -13457   -13382   -13329 
  -13203   -12949   -12572   -12153   -11817   -11629   -11543   -11475 
  -11381   -11247   -11062   -10848   -10659   -10550   -10528   -10514 
  -10407   -10217   -10045    -9960    -9923    -9856    -9742    -9605 
   -9454    -9297    -9161    -9093    -9139    -9292    -9484    -9633 
   -9676    -9595    -9442    -9309    -9237    -9173    -9034    -8802 
   -8541    -8349    -8288    -8324    -8374    -8370    -8266    -8048 
   -7770    -7514    -7341    -7238    -7142    -7023    -6944    -6987 
   -7142    -7314    -7420    -7451    -7447    -7423    -7368    -7325 
   -7343    -7407    -7499    -7644    -7809    -7902    -7881    -7790 
   -7689    -7602    -7517    -7456    -7466    -7514    -7508    -7427 
   -7357    -7402    -7601    -7898    -8184    -8385    -8488    -8470 
   -8323    -8149    -8125    -8334    -8689    -9044    -9318    -9491 
   -9570    -9579    -9588    -9700    -9940   -10211   -10409   -10512 
  -10594   -10726   -10879   -11013   -11190   -11461   -11773   -12059 
  -12287   -12468   -12661   -12915   -13229   -13599   -14006   -14396 
  -14720   -14935   -14993   -14930   -14861   -14842   -14858   -14905 
  -14962   -14986   -14956   -14897   -14876   -14929   -15013   -15050 
  -15005   -14872   -14644   -14328   -13971   -13637   -13370   -13204 
  -13118   -13024   -12834   -12527   -12172   -11870   -11653   -11511 
  -11410   -11304   -11193   -11120   -11085   -11051   -11022   -11029 
  -11053   -11056   -11035   -10990   -10911   -10782   -10601   -10397 
  -10187    -9946    -9654    -9307    -8914    -8537    -8263    -8089 
   -7925    -7682    -7359    -7000    -6628    -6263    -5928    -5630 
   -5352    -5060    -4728    -4336    -3880    -3391    -2930    -2530 
   -2178    -1873    -1639    -1476    -1390    -1420    -1578    -1795 
   -1976    -2056    -2075    -2172    -2423    -2780    -3133    -3397 
   -3609    -3853    -4150    -4508    -4938    -5435    -5975    -6498 
   -6948    -7349    -7792    -8369    -9118    -9986   -10804   -11367 
  -11625   -11697   -11725   -11795   -11949   -12207   -12572   -12989 
  -13334   -13527   -13630   -13786   -14047   -14332   -14546   -14653 
  -14648   -14561   -14467   -14404   -14336   -14249   -14224   -14339 
  -14555   -14772   -14946   -15087   -15192   -15217   -15146   -15042 
  -14939   -14790   -14562   -14242   -13826   -13331   -12765   -12154 
  -11508   -10809   -10100    -9440    -8821    -8192    -7510    -6791 
   -6104    -5478    -4884    -4290    -3665    -3023    -2444    -1983 
   -1627    -1373    -1249    -1251    -1336    -1464    -1652    -1943 
   -2351    -2850    -3384    -3889    -4349    -4754    -5090    -5412 
   -5760    -6103    -6416    -6697    -6986    -7298    -7578    -7856 
   -8201    -8593    -8969    -9258    -9493    -9778   -10138   -10545 
  -10944   -11268   -11507   -11707   -11915   -12192   -12593   -13078 
  -13526   -13853   -14095   -14345   -14659   -15067   -15548   -16005 
  -16345   -16519   -16520   -16399   -16235   -16110   -16061   -16044 
  -16003   -15878   -15606   -15197   -14692   -14103   -13458   -12785 
  -12105   -11412   -10685    -9974    -9352    -8828    -8390    -7996 
   -7616    -7280    -7014    -6817    -6669    -6543    -6437    -6370 
   -6336    -6318    -6316    -6330    -6312    -6195    -5983    -5742 
   -5528    -5330    -5084    -4744    -4344    -3962    -3660    -3471 
   -3368    -3305    -3261    -3185    -3046    -2864    -2674    -2542 
   -2544    -2690    -2945    -3250    -3563    -3899    -4279    -4669 
   -4984    -5162    -5215    -5208    -5211    -5285    -5450    -5683 
   -5937    -6158    -6363    -6631    -6972    -7321    -7668    -8026 
   -8337    -8567    -8764    -8984    -9281    -9654   -10054   -10477 
  -10897   -11264   -11580   -11845   -12053   -12206   -12326   -12451 
  -12589   -12709   -12790   -12843   -12869   -12852   -12800   -12744 
  -12711   -12700   -12712   -12759   -12807   -12822   -12800   -12756 
  -12728   -12735   -12755   -12764   -12755   -12731   -12670   -12524 
  -12276   -11985   -11711   -11456   -11231   -11062   -10939   -10822 
  -10644   -10387   -10126    -9909    -9714    -9517    -9265    -8893 
   -8400    -7863    -7390    -7034    -6781    -6614    -6494    -6331 
   -6052    -5651    -5171    -4712    -4412    -4308    -4309    -4302 
   -4232    -4147    -4145    -4282    -4527    -4781    -4973    -5086 
   -5108    -5056    -5024    -5108    -5354    -5745    -6182    -6548 
   -6799    -6991    -7223    -7522    -7802    -7972    -8036    -8028 
   -7971    -7940    -8029    -8252    -8541    -8814    -9031    -9150 
   -9133    -9029    -8924    -8875    -8903    -8988    -9080    -9121 
   -9082    -9005    -8952    -8938    -8972    -9042    -9086    -9066 
   -8988    -8874    -8736    -8581    -8458    -8404    -8375    -8308 
   -8166    -7937    -7635    -7273    -6900    -6609    -6476    -6493 
   -6551    -6540    -6444    -6328    -6294    -6405    -6610    -6801 
   -6906    -6925    -6929    -6987    -7125    -7347    -7626    -7912 
