Origin Time       2011/03/11 14:46:00
Lat.              38.103
Long.             142.860
Depth. (km)       24
Mag.              9.0
Station Code      HKD124
Station Lat.      42.9986
Station Long.     141.7903
Station Height(m) 38
Record Time       2011/03/11 14:48:16
Sampling Freq(Hz) 100Hz
Duration Time(s)  300
Dir.              N-S
Scale Factor      3920(gal)/6182761
Max. Acc. (gal)   13.660
Last Correction   2011/03/11 14:48:01
Memo.             
[...]
   43282    43508    43718    43877    43964    43946    43849    43589 
   43006    42161    41213    40329    39652    39123    38640    38164 
   37658    37243    37041    37020    37224    37709    38364    39009 
   39466    39603    39472    39238    38910    38369    37603    36735 
   35833    34778    33476    32090    31049    30894    31816    33382 
   34925    35953    36313    36233    36055    35966    36098    36578 
   37364    38251    39010    39442    39425    38997    38406    37971 
   37797    37736    37605    37325    36991    36803    36857    36990 
   36912    36578    36197    35839    35463    35147    35040    35169 
   35337    35275    34826    33980    32994    32206    31682    31367 
   31310    31600    32344    33481    34680    35596    35950    35616 
   34791    33803    32808    31865    31164    30917    31072    31349 
   31436    31151    30643    30246    30210    30658    31513    32577 
   33766    35009    36073    36703    36835    36636    36403    36437 
   36820    37262    37374    36968    36072    34953    34018    33492 
   33286    33166    33002    32819    32601    32212    31648    31161 
   31062    31416    31988    32471    32690    32669    32594    32629 
   32785    32968    33044    32932    32676    32260    31492    30351 
   29175    28367    28006    27937    28145    28556    28949    29301 
   29564    29586    29353    28865    28294    28048    28263    28686 
   28968    28850    28298    27560    27029    26933    27175    27574 
   28105    28705    29117    29174    28963    28754    28904    29576 
   30643    31874    33010    33966    34993    36278    37670    38917 
   39800    40140    39875    39001    37685    36405    35693    35777 
   36498    37487    38404    39013    39222    39113    38865    38645 
   38579    38726    39066    39400    39380    38854    38065    37414 
   37136    37198    37472    37888    38387    38863    39197    39295 
   39158    38877    38594    38526    38804    39315    39805    40040 
   39947    39647    39293    39001    38846    38816    38843    38834 
   38639    38066    36997    35512    33877    32411    31365    30794 
   30555    30434    30195    29730    29203    28814    28680    28908 
   29402    29886    30252    30551    30888    31390    31998    32562 
   33075    33503    33761    33807    33606    33242    32897    32672 
   32695    33057    33606    34141    34556    34762    34818    34976 
   35457    36333    37519    38786    39862    40517    40663    40450 
   40093    39676    39210    38741    38364    38072    37657    36950 
   36002    34981    34079    33444    33068    32786    32413    31911 
   31347    30847    30588    30618    30745    30685    30232    29426 
   28588    28011    27702    27553    27552    27706    28015    28429 
   28742    28786    28599    28246    27852    27703    27939    28410 
   28964    29520    29996    30366    30571    30630    30777    31153 
   31713    32371    32901    33156    33226    33138    32814    32271 
   31589    30851    30182    29662    29303    29164    29261    29457 
   29576    29457    29004    28345    27760    27434    27336    27357 
   27517    27888    28332    28609    28701    28734    28811    29047 
   29501    30135    30931    31878    32925    34040    35167    36177 
   36907    37256    37292    37144    36824    36273    35536    34869 
   34606    34792    35130    35316    35237    34962    34611    34152 
   33392    32257    30961    29905    29422    29566    30128    30779 
   31191    31215    30933    30542    30264    30195    30294    30542 
   30815    30836    30379    29363    27838    25994    24214    23000 
   22684    23217    24153    24861    24900    24256    23287    22335 
   21405    20431    19523    18785    18147    17532    17115    17273 
   18316    20193    22407    24331    25508    25766    25273    24420 
   23637    23285    23533    24346    25527    26741    27717    28468 
   29125    29745    30303    30661    30681    30374    29849    29295 
   28941    28952    29345    29968    30685    31438    32130    32653 
   32932    32935    32728    32379    31867    31157    30298    29488 
   28966    28827    29063    29617    30364    31189    31949    32475 
   32760    32946    33136    33318    33360    33228    33163    33432 
   34143    35228    36386    37275    37802    38152    38641    39415 
   40289    40993    41403    41449    41005    40008    38658    37419 
   36750    36875    37722    38939    40037    40744    41087    41086 
   40696    39980    39070    38074    37045    36129    35625    35642 
   36006    36477    36804    36884    36762    36399    35791    35120 
   34648    34584    34834    34998    34779    34114    33180    32341 
   31807    31572    31569    31676    31814    31958    32030    31925 
   31492    30588    29276    27824    26482    25453    25053    25486 
   26618    28128    29501    30217    30131    29450    28617    28082 
   28006    28371    29055    29787    30337    30670    30919    31320 
   32083    33324    35118    37367    39624    41394    42503    42935 
   42735    42007    40856    39563    38572    38216    38561    39328 
   40103    40644    40883    40905    40840    40747    40686    40735 
   40949    41312    41674    41896    41980    41946    41772    41425 
   40913    40488    40461    40759    41020    40912    40371    39677 
   39051    38483    37867    37120    36417    36068    36056    36066 
   35815    35227    34374    33484    32874    32676    32826    33171 
   33496    33640    33475    32953    32243    31602    31207    31160 
   31434    31873    32283    32519    32584    32557    32434    32119 
   31494    30568    29556    28774    28384    28239    28109    27979 
   27926    28010    28350    28886    29334    29502    29356    29039 
   28838    28931    29378    30144    31057    31910    32569    32991 
   33236    33451    33774    34283    35003    35885    36795    37638 
   38439    39251    40042    40695    41093    41129    40629    39474 
   37815    36073    34764    34205    34398    35188    36314    37485 
   38480    39131    39489    39803    40164    40453    40620    40818 
   41309    42228    43483    44839    46081    47159    48011    48393 
   48156    47428    46457    45580    45089    45032    45371    46096 
   47082    48068    48748    48885    48355    47144    45402    43475 
   41791    40671    40196    40227    40458    40520    40161    39388 
   38441    37550    36808    36256    35856    35465    34954    34273 
   33500    32808    32214    31588    30914    30217    29452    28680 
   28048    27619    27367    27224    27144    27169    27277    27335 
   27283    27157    26989    26808    26600    26391    26330    26559 
   27067    27681    28176    28455    28561    28537    28419    28312 
   28314    28420    28565    28694    28834    29090    29478    29863 
   30144    30295    30227    29965    29707    29565    29630    30007 
   30631    31320    31878    32101    31868    31129    29904    28477 
   27321    26673    26513    26749    27138    27466    27826    28304 
   28686    28792    28698    28611    28731    29064    29454    29843 
   30269    30731    31114    31168    30840    30527    30744    31661 
   33005    34284    35139    35524    35588    35472    35309    35295 
   35535    35980    36515    36923    36999    36779    36506    36477 
   36868    37554    38260    38886    39466    40003    40455    40693 
   40568    40150    39739    39604    39772    39995    39972    39609 
   39004    38270    37481    36775    36371    36380    36654    36929 
   37003    36739    36070    35068    34024    33295    33012    33091 
   33396    33841    34422    35004    35275    35131    34788    34493 
   34291    33988    33498    32942    32362    31863    31780    32283 
   33236    34363    35236    35527    35401    35233    35231    35556 
   36178    36768    37125    37249    37229    37272    37335    37109 
   36591    35983    35422    35194    35447    35964    36633    37372 
   37802    37597    36705    35213    33483    32104    31366    31145 
   31279    31592    31904    32186    32379    32383    32236    32002 
   31682    31091    29998    28700    27822    27575    27862    28548 
   29331    30000    30632    31238    31657    31826    31829    31804 
   31885    32080    32220    32134    31891    31825    32270    33260 
   34579    36021    37487    38866    39935    40371    39934    38738 
   37276    36199    35952    36490    37497    38674    39706    40335 
   40479    40242    39890    39655    39606    39592    39283    38498 
   37368    36168    35153    34377    33718    33170    32829    32734 
   32810    32834    32627    32249    31868    31626    31566    31600 
   31585    31336    30775    30113    29539    28991    28414    27817 
   27222    26746    26501    26469    26586    26750    26859    26942 
   27061    27253    27647    28356    29286    30196    30821    31005 
   30793    30404    30172    30317    30800    31488    32164    32510 
   32421    32022    31456    30817    30125    29463    28991    28723 
   28579    28437    28088    27551    27201    27359    28025    28986 
   30049    30964    31362    31129    30449    29629    29056    28895 
   29064    29452    29883    30279    30617    30699    30532    30443 
   30579    30817    30979    30919    30686    30555    30696    30986 
   31160    30990    30418    29637    28933    28499    28390    28499 
   28691    28922    29162    29401    29737    30227    30754    31178 
   31477    31740    31995    32144    32178    32193    32289    32508 
   32716    32796    32833    32950    33176    33399    33437    33358 
   33430    33757    34210    34675    35154    35575    35763    35644 
   35226    34651    34154    33756    33337    32888    32587    32714 
   33265    33833    34012    33628    32783    31744    30680    29672 
   28790    28062    27517    27173    27016    27069    27327    27724 
   28155    28415    28328    27976    27555    27278    27378    27894 
   28594    29236    29755    30257    30863    31567    32256    32832 
   33301    33787    34395    35043    35473    35481    35075    34487 
   34078    34126    34698    35741    37094    38473    39588    40207 
   40272    39999    39778    39920    40398    40940    41316    41390 
   41174    40852    40592    40564    40916    41580    42325    42844 
   42748    41885    40583    39395    38724    38612    38822    39116 
   39333    39407    39383    39280    39042    38628    38030    37309 
   36597    36063    35868    36087    36683    37498    38278    38866 
   39183    39103    38560    37625    36502    35545    35082    35142 
   35429    35667    35830    35906    35764    35339    34698    34041 
   33607    33433    33342    33087    32525    31781    31099    30589 
   30274    30175    30267    30500    30853    31366    32137    33245 
   34637    36030    36951    37007    36110    34464    32500    30667 
   29227    28335    28064    28328    29026    30036    31101    31984 
   32577    32855    32866    32702    32499    32401    32426    32515 
   32657    32867    33140    33403    33480    33179    32440    31430 
   30502    29906    29628    29528    29445    29246    28943    28653 
   28463    28381    28385    28479    28652    28820    28907    28941 
   28996    29098    29236    29304    29180    28898    28552    28253 
   28109    28086    28156    28341    28486    28473    28343    28014 
   27563    27259    27042    26833    26703    26552    26439    26495 
   26547    26382    25823    24909    24018    23384    23071    23111 
   23312    23538    23839    24126    24241    24196    24095    23952 
   23744    23465    23098    22693    22371    22198    22186    22327 
   22605    22998    23442    23856    24249    24647    25051    25508 
   25998    26436    26773    26942    27003    27157    27469    27881 
   28333    28776    29151    29373    29437    29422    29403    29511 
   29829    30309    30929    31626    32222    32653    33092    33711 
   34524    35424    36191    36593    36559    36188    35718    35362 
   35181    35184    35414    35849    36318    36623    36649    36392 
   36041    35842    35815    35831    35811    35735    35562    35164 
   34439    33474    32478    31625    31042    30776    30770    30933 
   31187    31408    31472    31364    31144    30903    30760    30808 
   31078    31445    31642    31535    31272    31083    31095    31295 
   31553    31736    31769    31623    31289    30774    30110    29395 
   28838    28712    29151    30026    31052    31945    32521    32750 
   32668    32358    32033    31908    32039    32352    32706    33016 
   33322    33669    34044    34421    34766    35027    35131    35036 
   34767    34446    34320    34660    35526    36710    37948    39089 
   40035    40679    40927    40709    40116    39498    39307    39803 
   40795    41771    42348    42432    42167    41818    41475    41119 
   40897    40929    41180    41549    41782    41687    41366    40945 
   40498    40129    39932    40019    40450    41118    41809    42324 
   42586    42653    42624    42539    42409    42331    42391    42538 
   42739    43054    43520    44141    44836    45387    45700    46007 
   46620    47611    48826    50009    50914    51468    51722    51736 
   51651    51690    52019    52683    53588    54466    54973    54964 
   54599    54145    53776    53507    53232    52899    52535    52076 
   51455    50748    50090    49677    49669    49875    49951    49735 
   49147    48142    46791    45146    43340    41745    40724    40409 
   40684    41139    41326    41078    40444    39611    38878    38417 
   38206    38154    38104    37881    37382    36571    35540    34518 
   33701    33188    32979    32925    32877    32813    32750    32743 
   32798    32780    32622    32395    32161    31976    31849    31704 
   31476    31137    30700    30248    29831    29393    28844    28177 
   27550    27186    27151    27287    27337    27083    26480    25720 
   25033    24499    24122    23913    23901    24130    24523    24973 
   25559    26322    27067    27589    27780    27672    27525    27588 
   27838    28105    28279    28350    28371    28366    28336    28341 
   28432    28574    28746    28959    29176    29373    29518    29498 
   29237    28804    28387    28187    28294    28675    29182    29564 
   29653    29405    28828    28073    27405    26977    26764    26581 
   26200    25602    24964    24407    23957    23631    23414    23189 
   22892    22686    22774    23209    23929    24723    25347    25707 
   25744    25393    24703    23822    22932    22203    21645    21110 
   20490    19817    19223    18933    19081    19592    20318    21050 
   21545    21723    21628    21306    20912    20722    20948    21622 
   22539    23310    23679    23771    23924    24365    25068    25802 
   26363    26716    26969    27245    27567    27896    28215    28515 
   28757    28931    29039    29058    28972    28800    28588    28428 
   28370    28324    28185    28004    27942    28129    28648    29559 
   30753    31923    32828    33347    33435    33286    33219    33435 
   34044    35001    36047    36902    37420    37707    38094    38786 
   39727    40743    41608    42062    41893    41059    39786    38481 
   37560    37275    37566    38117    38604    38879    38958    38895 
   38720    38449    38095    37654    37156    36680    36265    35864 
   35468    35124    34852    34638    34433    34218    34073    34052 
   34067    33953    33584    32982    32258    31424    30468    29508 
   28791    28539    28815    29504    30394    31313    32171    32880 
   33404    33863    34398    35036    35716    36306    36692    36921 
   37139    37459    37912    38411    38780    38861    38590    37996 
   37182    36347    35785    35688    35949    36268    36373    36183 
   35784    35248    34645    34128    33812    33670    33577    33385 
   32976    32397    31878    31609    31628    31951    32551    33325 
   34186    35010    35619    35927    36008    36055    36214    36446 
   36654    36827    37001    37226    37508    37821    38208    38650 
   38945    38889    38439    37737    37043    36581    36481    36737 
   37162    37586    37959    38264    38552    38854    39060    39102 
   39030    38872    38633    38333    38020    37818    37867    38163 
   38619    39175    39742    40189    40387    40219    39669    38855 
   37941    37131    36663    36651    37029    37576    37955    37926 
   37543    37124    37026    37384    38061    38838    39509    39843 
   39699    39161    38437    37693    37035    36540    36177    35853 
   35582    35368    35121    34840    34569    34329    34105    33808 
   33442    33117    32877    32673    32391    32010    31661    31482 
   31526    31784    32193    32652    32994    33075    32913    32552 
   31997    31326    30652    30068    29657    29449    29385    29343 
   29222    28929    28355    27516    26595    25779    25156    24641 
   24098    23524    22991    22600    22424    22405    22458    22549 
   22574    22343    21745    20937    20240    19902    20040    20589 
   21303    21934    22366    22619    22782    22928    23137    23509 
   24029    24572    25031    25324    25448    25534    25719    25987 
   26192    26312    26505    26907    27537    28281    28974    29559 
   30095    30615    31096    31457    31596    31523    31366    31246 
   31178    31115    31084    31120    31185    31192    30962    30388 
   29660    29110    28866    28822    28850    28873    28807    28639 
   28554    28801    29363    30054    30791    31564    32345    33028 
   33516    33870    34196    34565    34990    35263    35156    34788 
   34408    34175    34277    34733    35258    35587    35557    35026 
   34139    33295    32786    32758    33207    33938    34729    35390 
   35767    35833    35653    35334    35017    34796    34716    34784 
   34901    34929    34811    34606    34454    34461    34626    34833 
   34954    35010    35070    35155    35306    35527    35730    35806 
   35722    35593    35546    35640    35984    36616    37415    38260 
   39027    39562    39801    39759    39539    39351    39352    39545 
   39911    40443    41135    42030    43162    44474    45790    46847 
   47474    47738    47852    47995    48280    48709    49122    49349 
   49359    49158    48797    48437    48211    48132    48091    47875 
   47353    46550    45524    44378    43295    42456    41978    41890 
   42133    42609    43150    43491    43398    42800    41773    40482 
   39160    38025    37226    36823    36740    36808    36856    36728 
   36361    35870    35461    35357    35702    36464    37519    38684 
   39684    40287    40417    40099    39496    38932    38707    38971 
   39663    40491    41126    41398    41259    40812    40233    39585 
   38861    38065    37248    36555    36063    35684    35347    35040 
   34769    34568    34404    34222    34092    34130    34352    34628 
   34754    34578    34092    33381    32555    31807    31289    31012 
