Origin Time       2011/03/11 14:46:00
Lat.              38.103
Long.             142.860
Depth. (km)       24
Mag.              9.0
Station Code      HKD140
Station Lat.      43.1908
Station Long.     140.9933
Station Height(m) 51
Record Time       2011/03/11 14:48:58
Sampling Freq(Hz) 100Hz
Duration Time(s)  174
Dir.              U-D
Scale Factor      3920(gal)/6182761
Max. Acc. (gal)   1.817
Last Correction   2011/03/11 14:48:43
Memo.             
[...]
  -20176   -20508   -20786   -20873   -20782   -20621   -20496   -20471 
  -20565   -20756   -20965   -21091   -21111   -21058   -20951   -20818 
  -20713   -20672   -20684   -20719   -20739   -20726   -20705   -20682 
  -20590   -20398   -20219   -20194   -20335   -20548   -20720   -20749 
  -20656   -20613   -20704   -20784   -20706   -20551   -20489   -20535 
  -20572   -20534   -20441   -20337   -20256   -20211   -20181   -20120 
  -20044   -20010   -20058   -20193   -20354   -20457   -20500   -20508 
  -20437   -20268   -20124   -20103   -20138   -20138   -20118   -20138 
  -20200   -20269   -20329   -20387   -20453   -20529   -20613   -20718 
  -20820   -20865   -20834   -20751   -20693   -20746   -20898   -21063 
  -21167   -21205   -21269   -21432   -21669   -21927   -22151   -22299 
  -22365   -22352   -22272   -22148   -21974   -21764   -21578   -21455 
  -21416   -21452   -21509   -21554   -21582   -21601   -21686   -21896 
  -22119   -22186   -22087   -21930   -21779   -21603   -21378   -21185 
  -21130   -21224   -21367   -21429   -21396   -21365   -21356   -21252 
  -20961   -20562   -20247   -20138   -20204   -20319   -20371   -20335 
  -20282   -20258   -20183   -20021   -19926   -20050   -20310   -20504 
  -20538   -20437   -20270   -20131   -20090   -20137   -20254   -20456 
  -20712   -20905   -20922   -20759   -20544   -20452   -20543   -20716 
  -20847   -20927   -21007   -21100   -21160   -21153   -21085   -20996 
  -20929   -20910   -20955   -21048   -21152   -21236   -21245   -21134 
  -20931   -20723   -20633   -20784   -21165   -21581   -21855   -22021 
  -22222   -22501   -22765   -22917   -22967   -22971   -22928   -22819 
  -22684   -22589   -22560   -22600   -22709   -22851   -22958   -23022 
  -23105   -23217   -23298   -23289   -23181   -23049   -22998   -23039 
  -23075   -23004   -22815   -22578   -22368   -22219   -22158   -22224 
  -22385   -22472   -22352   -22084   -21822   -21657   -21608   -21627 
  -21585   -21376   -21061   -20810   -20708   -20730   -20833   -20989 
  -21167   -21295   -21269   -21041   -20665   -20267   -19981   -19878 
  -19954   -20173   -20479   -20786   -21009   -21149   -21239   -21237 
  -21145   -21096   -21186   -21353   -21478   -21492   -21378   -21190 
  -21034   -20942   -20855   -20725   -20563   -20385   -20193   -20007 
  -19872   -19829   -19892   -20031   -20140   -20101   -19930   -19796 
  -19818   -19909   -19910   -19786   -19635   -19575   -19608   -19612 
  -19513   -19359   -19265   -19298   -19403   -19488   -19545   -19623 
  -19714   -19745   -19717   -19744   -19886   -20046   -20081   -19972 
  -19798   -19604   -19378   -19115   -18872   -18763   -18846   -19044 
  -19253   -19447   -19629   -19778   -19871   -19929   -20012   -20128 
  -20255   -20393   -20500   -20534   -20536   -20571   -20610   -20559 
  -20392   -20215   -20175   -20334   -20609   -20808   -20792   -20641 
  -20578   -20702   -20913   -21068   -21120   -21102   -21053   -21012 
  -20994   -20963   -20901   -20830   -20757   -20671   -20576   -20512 
  -20524   -20589   -20617   -20551   -20432   -20353   -20402   -20568 
  -20733   -20834   -20933   -21094   -21265   -21326   -21234   -21067 
  -20918   -20795   -20675   -20580   -20563   -20639   -20756   -20867 
  -20995   -21166   -21320   -21370   -21318   -21299   -21422   -21628 
  -21753   -21650   -21289   -20824   -20499   -20427   -20501   -20572 
  -20623   -20731   -20950   -21226   -21409   -21404   -21257   -21054 
  -20843   -20687   -20655   -20741   -20846   -20869   -20779   -20611 
  -20433   -20306   -20257   -20260   -20271   -20256   -20190   -20094 
  -20035   -20043   -20123   -20293   -20570   -20890   -21123   -21206 
  -21209   -21218   -21221   -21148   -20989   -20808   -20671   -20607 
  -20632   -20691   -20683   -20603   -20528   -20504   -20533   -20565 
  -20549   -20509   -20460   -20384   -20314   -20301   -20348   -20393 
  -20336   -20177   -20065   -20150   -20390   -20607   -20740   -20884 
  -21102   -21336   -21484   -21507   -21459   -21436   -21513   -21636 
  -21668   -21545   -21343   -21189   -21131   -21128   -21135   -21121 
  -21079   -20999   -20865   -20731   -20684   -20725   -20757   -20723 
  -20681   -20717   -20831   -20930   -20887   -20654   -20337   -20094 
  -19984   -19980   -20005   -19970   -19847   -19687   -19567   -19525 
  -19530   -19566   -19661   -19811   -19979   -20149   -20291   -20339 
  -20225   -19986   -19783   -19740   -19851   -20021   -20142   -20158 
  -20080   -19947   -19797   -19679   -19648   -19711   -19769   -19709 
  -19565   -19448   -19389   -19310   -19172   -19030   -18954   -18956 
  -18998   -19050   -19107   -19177   -19289   -19457   -19644   -19809 
  -19974   -20205   -20481   -20690   -20770   -20748   -20688   -20635 
  -20569   -20500   -20500   -20597   -20750   -20915   -21075   -21214 
  -21304   -21304   -21207   -21059   -20936   -20910   -20981   -21060 
  -21077   -21047   -21020   -21025   -21088   -21194   -21235   -21128 
  -20947   -20812   -20746   -20729   -20789   -20921   -21030   -21046 
  -21009   -21017   -21096   -21210   -21353   -21536   -21745   -21958 
  -22158   -22316   -22418   -22496   -22567   -22608   -22579   -22474 
  -22346   -22243   -22164   -22119   -22122   -22114   -22017   -21847 
  -21712   -21665   -21656   -21632   -21613   -21643   -21704   -21728 
  -21701   -21655   -21593   -21474   -21290   -21122   -21100   -21271 
  -21543   -21777   -21932   -22068   -22254   -22493   -22691   -22753 
  -22693   -22635   -22673   -22774   -22829   -22777   -22653   -22552 
  -22514   -22433   -22175   -21758   -21316   -20980   -20875   -21057 
  -21414   -21722   -21828   -21715   -21468   -21244   -21157   -21145 
  -21065   -20890   -20713   -20590   -20472   -20308   -20130   -20022 
  -20031   -20157   -20369   -20608   -20815   -20933   -20926   -20849 
  -20812   -20866   -20957   -20978   -20899   -20778   -20681   -20658 
  -20700   -20745   -20762   -20776   -20818   -20870   -20881   -20826 
  -20737   -20639   -20553   -20546   -20654   -20802   -20913   -20994 
  -21087   -21161   -21157   -21098   -21062   -21103   -21212   -21322 
  -21370   -21325   -21196   -21045   -20960   -20974   -21058   -21156 
  -21168   -20997   -20671   -20338   -20120   -20001   -19872   -19700 
  -19558   -19481   -19395   -19225   -19006   -18817   -18695   -18678 
  -18792   -18960   -19089   -19165   -19182   -19100   -18925   -18762 
  -18756   -18937   -19163   -19255   -19193   -19147   -19292   -19630 
  -20024   -20350   -20591   -20780   -20916   -20949   -20826   -20596 
  -20430   -20485   -20736   -20981   -21075   -21030   -20929   -20811 
  -20610   -20289   -19973   -19850   -19959   -20125   -20164   -20090 
  -20068   -20209   -20476   -20759   -20984   -21148   -21282   -21402 
  -21462   -21371   -21119   -20847   -20680   -20567   -20392   -20171 
  -20023   -20004   -20040   -20012   -19898   -19790   -19751   -19717 
  -19633   -19540   -19489   -19468   -19466   -19531   -19664   -19756 
  -19741   -19672   -19626   -19618   -19601   -19558   -19536   -19587 
  -19701   -19780   -19740   -19623   -19535   -19540   -19634   -19759 
  -19853   -19894   -19919   -19968   -20030   -20111   -20276   -20518 
  -20725   -20830   -20831   -20723   -20522   -20307   -20137   -20000 
  -19885   -19830   -19886   -20033   -20177   -20251   -20260   -20193 
  -20027   -19819   -19670   -19630   -19659   -19691   -19714   -19762 
  -19834   -19897   -19918   -19886   -19844   -19836   -19812   -19729 
  -19636   -19607   -19670   -19789   -19916   -20074   -20313   -20645 
  -20977   -21125   -21033   -20854   -20754   -20747   -20736   -20727 
  -20807   -20930   -21020   -21112   -21202   -21198   -21042   -20794 
  -20573   -20441   -20393   -20419   -20484   -20535   -20563   -20586 
  -20588   -20541   -20472   -20472   -20565   -20677   -20762   -20816 
  -20865   -20968   -21141   -21310   -21391   -21367   -21283   -21183 
  -21073   -20958   -20863   -20796   -20713   -20554   -20342   -20171 
  -20110   -20158   -20222   -20175   -19959   -19647   -19379   -19241 
  -19250   -19421   -19753   -20173   -20557   -20821   -20966   -21012 
  -20984   -20945   -20958   -21015   -21046   -21005   -20922   -20855 
  -20812   -20756   -20715   -20786   -20982   -21178   -21221   -21047 
  -20729   -20439   -20295   -20275   -20312   -20374   -20444   -20476 
  -20400   -20204   -20002   -19946   -20017   -20035   -19912   -19785 
  -19863   -20137   -20367   -20405   -20340   -20320   -20402   -20519 
  -20554   -20450   -20263   -20103   -19995   -19886   -19772   -19700 
  -19663   -19625   -19591   -19574   -19550   -19506   -19496   -19574 
  -19714   -19824   -19822   -19717   -19611   -19588   -19606   -19547 
  -19419   -19383   -19523   -19704   -19749   -19699   -19755   -20026 
  -20398   -20695   -20890   -21048   -21166   -21188   -21097   -20933 
  -20747   -20595   -20545   -20622   -20788   -20977   -21120   -21178 
  -21185   -21210   -21303   -21457   -21606   -21716   -21802   -21845 
  -21783   -21578   -21252   -20895   -20625   -20537   -20609   -20706 
  -20744   -20756   -20774   -20752   -20653   -20579   -20656   -20810 
  -20857   -20775   -20703   -20750   -20917   -21133   -21301   -21339 
  -21267   -21218   -21273   -21362   -21349   -21169   -20863   -20527 
  -20274   -20178   -20182   -20169   -20146   -20205   -20347   -20468 
  -20522   -20565   -20627   -20645   -20546   -20387   -20335   -20483 
  -20729   -20906   -20952   -20931   -20941   -21048   -21250   -21444 
  -21526   -21538   -21629   -21825   -21943   -21779   -21355   -20896 
  -20586   -20418   -20310   -20282   -20377   -20495   -20496   -20387 
  -20301   -20289   -20267   -20177   -20081   -20045   -20054   -20048 
  -19992   -19897   -19823   -19840   -19979   -20221   -20516   -20788 
  -20937   -20925   -20829   -20744   -20689   -20633   -20599   -20640 
  -20709   -20691   -20565   -20408   -20261   -20104   -19952   -19877 
  -19923   -20071   -20256   -20406   -20487   -20511   -20498   -20459 
  -20430   -20492   -20703   -21027   -21343   -21521   -21525   -21450 
  -21401   -21382   -21357   -21362   -21393   -21372   -21305   -21249 
  -21191   -21102   -21001   -20938   -20961   -21053   -21129   -21117 
  -21008   -20874   -20793   -20752   -20720   -20730   -20791   -20805 
  -20694   -20540   -20463   -20450   -20397   -20271   -20137   -20076 
  -20108   -20202   -20337   -20549   -20854   -21127   -21190   -21045 
  -20856   -20711   -20612   -20609   -20748   -20968   -21169   -21316 
  -21372   -21240   -20928   -20611   -20443   -20409   -20384   -20315 
  -20256   -20240   -20234   -20225   -20223   -20229   -20263   -20368 
  -20527   -20702   -20897   -21103   -21264   -21335   -21380   -21528 
  -21763   -21932   -21949   -21866   -21765   -21673   -21562   -21411 
  -21241   -21082   -20919   -20730   -20563   -20458   -20356   -20204 
  -20050   -19978   -20030   -20202   -20409   -20503   -20408   -20204 
  -20074   -20139   -20303   -20381   -20329   -20264   -20315   -20463 
  -20548   -20452   -20234   -20038   -19941   -19927   -19943   -19928 
  -19840   -19718   -19687   -19814   -20038   -20247   -20369   -20414 
  -20442   -20502   -20577   -20595   -20539   -20478   -20455   -20430 
  -20348   -20250   -20275   -20478   -20751   -20968   -21074   -21068 
  -20990   -20871   -20713   -20515   -20295   -20100   -19984   -19921 
  -19847   -19776   -19754   -19760   -19736   -19682   -19673   -19765 
  -19933   -20109   -20205   -20162   -20001   -19807   -19683   -19668 
  -19718   -19791   -19890   -20028   -20151   -20185   -20117   -19984 
  -19873   -19884   -20031   -20212   -20314   -20327   -20317   -20305 
  -20288   -20274   -20259   -20249   -20276   -20333   -20378   -20392 
  -20360   -20233   -19979   -19657   -19381   -19213   -19172   -19269 
  -19457   -19692   -19986   -20305   -20553   -20660   -20617   -20477 
  -20372   -20431   -20656   -20910   -21050   -21047   -20964   -20861 
  -20758   -20655   -20567   -20540   -20607   -20719   -20778   -20760 
  -20758   -20817   -20865   -20880   -20945   -21080   -21175   -21157 
  -21060   -20933   -20825   -20820   -20964   -21140   -21168   -21047 
  -20909   -20810   -20713   -20583   -20463   -20481   -20703   -21011 
  -21209   -21214   -21068   -20842   -20580   -20345   -20239   -20315 
  -20504   -20701   -20857   -20950   -20985   -21029   -21138   -21292 
  -21432   -21537   -21630   -21699   -21678   -21545   -21318   -21032 
  -20776   -20655   -20711   -20867   -20949   -20845   -20639   -20547 
  -20719   -21053   -21295   -21370   -21405   -21484   -21526   -21418 
  -21191   -20974   -20832   -20770   -20790   -20862   -20960   -21068 
  -21115   -21048   -20934   -20890   -21003   -21251   -21481   -21620 
  -21770   -22024   -22320   -22470   -22329   -21935   -21472   -21143 
  -21020   -20993   -20930   -20818   -20752   -20778   -20796   -20695 
  -20468   -20159   -19844   -19626   -19571   -19681   -19918   -20234 
  -20539   -20729   -20809   -20888   -21048   -21248   -21382   -21399 
  -21367   -21363   -21324   -21133   -20824   -20567   -20497   -20624 
  -20808   -20862   -20763   -20691   -20767   -20863   -20792   -20549 
  -20304   -20157   -20024   -19811   -19547   -19306   -19123   -18991 
  -18880   -18760   -18668   -18654   -18665   -18623   -18544   -18498 
  -18539   -18636   -18658   -18555   -18416   -18338   -18313   -18246 
  -18076   -17877   -17777   -17813   -17894   -17939   -18018   -18211 
  -18435   -18580   -18675   -18799   -18916   -18912   -18828   -18863 
  -19096   -19400   -19631   -19724   -19661   -19513   -19461   -19638 
  -19978   -20343   -20686   -20978   -21121   -21036   -20796   -20591 
  -20560   -20693   -20870   -20961   -20916   -20828   -20804   -20776 
  -20606   -20314   -20077   -20053   -20248   -20501   -20610   -20500 
  -20283   -20074   -19832   -19543   -19360   -19389   -19516   -19530 
  -19387   -19207   -19081   -19029   -19037   -19064   -19083   -19097 
  -19124   -19195   -19345   -19570   -19834   -20133   -20446   -20668 
  -20721   -20650   -20547   -20457   -20395   -20381   -20417   -20488 
  -20595   -20771   -21015   -21259   -21433   -21491   -21413   -21251 
  -21098   -20998   -20940   -20936   -20995   -21065   -21080   -21052 
  -21081   -21202   -21275   -21172   -20969   -20830   -20814   -20850 
  -20827   -20700   -20499   -20291   -20131   -19992   -19850   -19772 
  -19774   -19753   -19624   -19393   -19148   -18985   -18888   -18767 
  -18619   -18557   -18708   -19058   -19445   -19700   -19775   -19744 
  -19706   -19717   -19798   -19922   -20011   -20023   -19994   -19963 
  -19952   -19977   -19987   -19941   -19895   -19921   -20053   -20285 
  -20593   -20931   -21209   -21380   -21514   -21684   -21867   -21999 
  -22028   -21921   -21680   -21373   -21103   -20918   -20756   -20540 
  -20334   -20287   -20395   -20482   -20403   -20213   -20096   -20085 
  -20015   -19787   -19544   -19501   -19649   -19742   -19616   -19430 
  -19452   -19668   -19810   -19761   -19672   -19686   -19775   -19839 
  -19814   -19741   -19711   -19779   -19878   -19867   -19751   -19699 
  -19802   -19941   -19973   -19932   -19977   -20194   -20473   -20620 
  -20608   -20609   -20785   -21056   -21187   -21123   -21052   -21136 
  -21335   -21483   -21511   -21529   -21642   -21792   -21818   -21666 
  -21428   -21189   -20987   -20844   -20740   -20674   -20672   -20700 
  -20683   -20618   -20606   -20722   -20896   -21028   -21148   -21316 
  -21483   -21537   -21471   -21410   -21409   -21381   -21292   -21224 
  -21220   -21234   -21249   -21284   -21348   -21423   -21461   -21435 
  -21381   -21378   -21475   -21597   -21627   -21567   -21544   -21643 
  -21781   -21780   -21563   -21226   -20936   -20800   -20785   -20796 
  -20793   -20781   -20742   -20677   -20640   -20681   -20806   -20976 
  -21149   -21304   -21407   -21425   -21403   -21394   -21368   -21259 
  -21062   -20871   -20770   -20728   -20649   -20495   -20325   -20211 
  -20155   -20100   -20033   -20026   -20139   -20326   -20471   -20492 
  -20454   -20484   -20633   -20857   -21052   -21152   -21227   -21363 
  -21509   -21543   -21466   -21413   -21447   -21481   -21435   -21366 
  -21397   -21564   -21793   -21998   -22139   -22179   -22086   -21901 
  -21748   -21715   -21757   -21778   -21730   -21645   -21586   -21571 
  -21537   -21421   -21246   -21101   -21023   -20978   -20958   -20991 
  -21076   -21187   -21322   -21486   -21651   -21746   -21726   -21629 
  -21535   -21526   -21643   -21811   -21898   -21863   -21771   -21715 
  -21719   -21737   -21732   -21724   -21738   -21755   -21730   -21649 
  -21553   -21554   -21730   -21981   -22155   -22260   -22388   -22524 
  -22553   -22449   -22289   -22143   -22075   -22094   -22102   -22030 
  -21916   -21815   -21701   -21516   -21311   -21212   -21251   -21340 
  -21407   -21476   -21617   -21843   -22063   -22158   -22103   -21977 
  -21852   -21736   -21601   -21424   -21198   -20951   -20758   -20649 
  -20576   -20501   -20432   -20407   -20464   -20617   -20847   -21101 
  -21335   -21489   -21475   -21283   -21035   -20870   -20836   -20867 
  -20886   -20934   -21090   -21330   -21544   -21651   -21655   -21566 
  -21375   -21126   -20911   -20805   -20817   -20853   -20805   -20665 
  -20535   -20521   -20590   -20634   -20645   -20699   -20813   -20936 
  -21025   -21081   -21114   -21134   -21156   -21189   -21266   -21396 
  -21513   -21589   -21681   -21790   -21827   -21765   -21677   -21652 
  -21735   -21916   -22106   -22186   -22117   -21946   -21720   -21472 
  -21284   -21244   -21324   -21381   -21319   -21169   -21057   -21088 
  -21236   -21358   -21359   -21330   -21452   -21731   -21991   -22087 
  -22001   -21793   -21565   -21420   -21388   -21396   -21371   -21347 
  -21391   -21479   -21519   -21516   -21570   -21730   -21937   -22087 
  -22105   -21996   -21818   -21631   -21491   -21455   -21524   -21621 
  -21656   -21611   -21542   -21504   -21523   -21606   -21723   -21816 
  -21845   -21819   -21790   -21779   -21756   -21684   -21562   -21429 
  -21340   -21313   -21331   -21370   -21397   -21381   -21329   -21299 
  -21366   -21541   -21740   -21870   -21903   -21851   -21716   -21514 
  -21306   -21130   -20966   -20806   -20694   -20634   -20605   -20626 
  -20726   -20870   -20980   -21039   -21105   -21211   -21322   -21367 
  -21291   -21137   -21026   -21030   -21101   -21143   -21124   -21073 
  -21018   -20974   -20941   -20899   -20825   -20754   -20772   -20894 
  -20999   -20986   -20907   -20879   -20932   -21030   -21126   -21174 
  -21154   -21050   -20847   -20581   -20351   -20222   -20190   -20231 
  -20357   -20574   -20827   -21044   -21168   -21149   -21023   -20885 
  -20772   -20685   -20660   -20682   -20651   -20493   -20257   -20067 
  -19990   -19975   -19966   -20007   -20159   -20352   -20422   -20286 
  -20032   -19815   -19734   -19782   -19909   -20081   -20269   -20437 
  -20538   -20533   -20450   -20371   -20346   -20339   -20282   -20194 
  -20149   -20166   -20215   -20271   -20323   -20373   -20432   -20499 
  -20554   -20542   -20402   -20162   -19939   -19826   -19818   -19849 
  -19884   -19948   -20046   -20133   -20166   -20107   -19971   -19862 
