Origin Time       2011/03/11 14:46:00
Lat.              38.103
Long.             142.860
Depth. (km)       24
Mag.              9.0
Station Code      HKD104
Station Lat.      42.5886
Station Long.     142.1310
Station Height(m) 70
Record Time       2011/03/11 14:48:07
Sampling Freq(Hz) 100Hz
Duration Time(s)  290
Dir.              U-D
Scale Factor      3920(gal)/6182761
Max. Acc. (gal)   5.348
Last Correction   2011/03/11 14:47:52
Memo.             
[...]
   12295    11915    11764    11802    12033    12397    12669    12611 
   12238    11790    11423    11106    10800    10575    10499    10510 
   10495    10421    10288    10067     9742     9347     8949     8609 
    8338     8102     7904     7827     7961     8283     8627     8804 
    8762     8603     8451     8369     8356     8399     8523     8806 
    9297     9921    10465    10707    10601    10302     9997     9798 
    9749     9842    10049    10340    10693    11061    11391    11682 
   11955    12178    12328    12459    12637    12843    13003    13111 
   13241    13416    13549    13523    13311    13010    12754    12610 
   12572    12621    12724    12808    12798    12672    12464    12234 
   12021    11804    11572    11373    11206    10983    10601    10034 
    9400     8899     8636     8568     8605     8715     8932     9260 
    9548     9590     9327     8915     8567     8346     8158     7920 
    7635     7357     7146     7057     7101     7245     7476     7814 
    8279     8838     9423    10035    10736    11517    12244    12757 
   13009    13100    13202    13403    13666    13976    14390    14889 
   15279    15354    15088    14626    14132    13690    13325    13069 
   12970    13025    13146    13250    13388    13681    14130    14579 
   14858    14951    14996    15146    15420    15729    16009    16240 
   16398    16459    16424    16267    15940    15446    14892    14403 
   14042    13828    13732    13673    13628    13647    13758    13882 
   13880    13750    13670    13743    13846    13812    13650    13488 
   13369    13185    12822    12283    11653    11030    10512    10165 
    9932     9671     9356     9122     9058     9085     9043     8830 
    8444     7948     7431     7024     6847     6888     7046     7289 
    7659     8123     8522     8693     8644     8539     8486     8429 
    8310     8169     8035     7857     7585     7242     6895     6590 
    6327     6083     5843     5631     5504     5542     5807     6275 
    6822     7304     7652     7881     8031     8101     8069     7983 
    7952     8036     8246     8603     9085     9574     9925    10106 
   10179    10198    10211    10276    10405    10594    10872    11233 
   11597    11872    12003    11985    11852    11665    11505    11427 
   11420    11423    11403    11402    11482    11661    11894    12106 
   12248    12323    12351    12329    12257    12168    12134    12226 
   12471    12857    13330    13817    14251    14608    14908    15149 
   15264    15215    15079    15001    15073    15265    15458    15547 
   15507    15364    15158    14877    14446    13874    13327    12963 
   12767    12584    12292    11920    11586    11368    11251    11154 
   11026    10922    10932    11043    11141    11143    11083    11075 
   11199    11452    11805    12242    12686    13011    13151    13143 
   13061    12979    12980    13111    13299    13394    13311    13055 
   12641    12065    11376    10713    10203     9861     9668     9689 
   10003    10540    11070    11415    11575    11612    11568    11504 
   11470    11460    11482    11608    11920    12418    12963    13389 
   13660    13858    14067    14270    14396    14465    14540    14597 
   14570    14482    14455    14569    14738    14863    15027    15372 
   15836    16157    16193    16102    16101    16195    16251    16213 
   16128    16018    15859    15695    15614    15577    15480    15367 
   15348    15367    15252    14973    14694    14550    14442    14200 
   13816    13450    13229    13096    12947    12820    12806    12862 
   12821    12601    12354    12280    12339    12363    12358    12471 
   12724    12931    12887    12608    12296    12083    11943    11819 
   11739    11769    11904    12056    12134    12119    12109    12276 
   12706    13309    13900    14380    14773    15121    15412    15602 
   15715    15866    16187    16712    17354    17953    18331    18352 
   18042    17635    17431    17490    17588    17521    17304    17059 
   16809    16507    16254    16243    16458    16698    16861    17030 
   17250    17372    17266    17071    17038    17180    17280    17197 
   17006    16843    16733    16670    16733    16956    17199    17285 
   17217    17154    17142    17053    16811    16510    16212    15825 
   15273    14659    14181    13931    13876    13943    14033    14023 
   13883    13761    13795    13916    13980    14052    14371    15005 
   15726    16296    16693    17012    17300    17482    17468    17339 
   17277    17303    17288    17187    17096    17099    17139    17084 
   16898    16668    16419    16105    15765    15511    15367    15240 
   15061    14875    14739    14589    14299    13858    13400    13036 
   12762    12550    12405    12309    12201    12029    11805    11552 
   11234    10827    10374     9948     9651     9562     9623     9685 
    9697     9728     9804     9852     9804     9703     9652     9643 
    9549     9308     9020     8800     8616     8359     8079     7952 
    8086     8461     8994     9612    10215    10675    10915    10930 
   10795    10629    10498    10387    10275    10217    10289    10524 
   10906    11343    11693    11859    11826    11670    11511    11416 
   11364    11333    11333    11360    11385    11396    11418    11456 
   11472    11418    11326    11320    11473    11704    11878    11966 
   12024    12060    12020    11897    11758    11632    11454    11221 
   11058    11063    11132    11070    10831    10514    10147     9701 
    9247     8920     8740     8622     8577     8744     9155     9572 
    9748     9712     9657     9660     9622     9431     9082     8651 
    8238     7926     7732     7584     7429     7314     7314     7418 
    7542     7658     7816     8031     8251     8444     8583     8594 
    8421     8107     7771     7518     7339     7129     6845     6566 
    6347     6122     5816     5487     5307     5369     5531     5570 
    5422     5197     5060     5126     5378     5690     5972     6311 
    6894     7727     8582     9259     9803    10391    11067    11684 
   12136    12496    12858    13166    13313    13312    13288    13353 
   13511    13652    13672    13559    13338    13012    12624    12270 
   12011    11796    11514    11130    10727    10383    10087     9800 
    9517     9248     9013     8841     8742     8692     8703     8834 
    9094     9430     9797    10214    10738    11379    12054    12664 
   13154    13489    13630    13588    13396    13057    12567    11981 
   11422    11004    10719    10448    10100     9691     9280     8891 
    8528     8214     7986     7829     7699     7603     7580     7650 
    7789     7963     8190     8502     8848     9148     9416     9671 
    9827     9782     9515     9093     8607     8088     7542     7068 
    6814     6789     6815     6706     6463     6220     6027     5816 
    5520     5138     4740     4427     4252     4229     4355     4613 
    4991     5482     6032     6524     6849     6991     7006     6953 
    6897     6918     7063     7301     7548     7762     7977     8224 
    8497     8747     8887     8900     8865     8884     8981     9105 
    9266     9548     9895    10089    10034     9874     9778     9732 
    9611     9388     9134     8874     8601     8379     8283     8310 
    8381     8386     8252     7981     7686     7549     7630     7786 
    7889     7984     8159     8404     8645     8881     9168     9429 
    9491     9330     9091     8898     8786     8741     8721     8678 
    8628     8662     8803     8935     8963     9002     9258     9746 
   10270    10638    10854    11062    11358    11696    11963    12084 
   12117    12196    12343    12495    12665    12910    13204    13439 
   13541    13588    13719    13908    13930    13643    13197    12881 
   12852    13037    13233    13327    13400    13552    13722    13745 
   13553    13251    12981    12793    12674    12609    12585    12618 
   12740    12929    13112    13266    13405    13494    13483    13367 
   13185    12970    12724    12470    12291    12266    12359    12431 
   12386    12227    12008    11753    11445    11082    10706    10383 
   10160    10072    10178    10489    10863    11088    11096    11024 
   11043    11174    11286    11267    11185    11214    11393    11589 
   11676    11676    11701    11774    11795    11694    11494    11247 
   11002    10797    10641    10526    10435    10345    10247    10148 
   10070     9988     9819     9555     9305     9146     9034     8888 
    8693     8554     8610     8875     9193     9400     9505     9641 
    9908    10310    10770    11185    11507    11730    11805    11639 
   11212    10624    10016     9437     8872     8366     7992     7776 
    7735     7882     8180     8544     8889     9232     9659    10117 
   10437    10618    10857    11307    11919    12506    12945    13288 
   13654    14086    14577    15138    15770    16397    16900    17224 
   17389    17427    17386    17356    17395    17470    17568    17799 
   18272    18910    19448    19698    19743    19758    19747    19650 
   19553    19604    19798    19973    19994    19843    19528    19028 
   18399    17765    17130    16372    15455    14496    13618    12829 
   12123    11586    11284    11136    11007    10877    10823    10898 
   11065    11274    11529    11865    12268    12678    13033    13280 
   13442    13649    14016    14541    15127    15647    16037    16344 
   16640    16917    17121    17234    17300    17368    17455    17511 
   17468    17323    17093    16791    16498    16314    16268    16280 
   16238    16120    15996    15924    15916    15972    16075    16121 
   15958    15576    15101    14612    14133    13716    13382    13071 
   12724    12332    11939    11632    11480    11455    11498    11619 
   11865    12218    12566    12765    12779    12705    12666    12683 
   12649    12489    12269    12080    11938    11853    11817    11759 
   11612    11371    11117    10970    10939    10927    10850    10684 
   10477    10279    10093     9954     9938    10053    10241    10460 
   10702    10970    11259    11602    12069    12646    13154    13401 
   13391    13311    13294    13283    13181    13013    12875    12818 
   12799    12724    12560    12350    12110    11842    11552    11232 
   10908    10663    10569    10617    10745    10903    11077    11240 
   11371    11533    11797    12108    12349    12500    12664    12914 
   13145    13199    13136    13230    13617    14098    14429    14639 
   14857    15026    14993    14799    14669    14724    14859    14934 
   14924    14878    14848    14857    14903    14962    14996    15039 
   15171    15365    15512    15621    15820    16186    16654    17087 
   17392    17568    17646    17659    17634    17528    17236    16739 
   16194    15781    15516    15290    15033    14778    14576    14394 
   14163    13886    13612    13330    13008    12677    12385    12142 
   11926    11701    11473    11331    11376    11598    11900    12213 
   12531    12846    13099    13249    13358    13510    13718    13996 
   14382    14844    15222    15334    15162    14842    14494    14146 
   13748    13306    12985    12935    13060    13142    13099    13017 
   13001    13097    13308    13582    13786    13821    13771    13804 
   13950    14048    13915    13547    13116    12770    12523    12290 
   12035    11887    11991    12268    12444    12343    12084    11896 
   11845    11839    11816    11820    11914    12076    12211    12256 
   12219    12186    12246    12414    12654    12927    13192    13402 
   13523    13599    13752    14038    14394    14753    15132    15584 
   16116    16644    17051    17293    17442    17612    17811    17940 
   17953    17912    17847    17696    17394    16975    16581    16321 
   16163    15997    15742    15356    14834    14195    13477    12780 
   12210    11759    11359    11017    10805    10782    10934    11128 
   11170    10992    10702    10411    10091     9688     9313     9146 
    9180     9256     9308     9392     9560     9767     9925    10016 
   10055     9985     9754     9411     9073     8839     8730     8727 
    8821     8953     9032     9055     9115     9297     9589     9864 
    9974     9905     9763     9673     9713     9851     9965     9994 
   10001    10022     9960     9717     9333     8950     8710     8675 
    8794     8936     9023     9109     9279     9561     9905    10231 
   10527    10842    11171    11449    11612    11630    11502    11230 
   10866    10521    10244     9984     9702     9443     9308     9323 
    9381     9340     9155     8879     8600     8410     8341     8304 
    8191     7995     7744     7415     6984     6456     5857     5270 
    4812     4497     4274     4168     4214     4330     4376     4287 
    4132     4052     4114     4252     4359     4428     4552     4801 
    5129     5466     5833     6281     6756     7154     7478     7812 
    8146     8344     8339     8207     8010     7695     7232     6747 
    6419     6291     6303     6420     6601     6718     6612     6222 
    5659     5106     4630     4208     3886     3762     3815     3867 
    3782     3622     3519     3498     3480     3446     3476     3565 
    3573     3446     3315     3341     3536     3783     4013     4242 
    4415     4389     4104     3678     3316     3138     3139     3255 
    3459     3772     4151     4458     4595     4585     4522     4481 
    4489     4531     4579     4606     4604     4611     4708     4959 
    5305     5628     5890     6159     6513     6932     7329     7706 
    8151     8695     9318    10003    10701    11349    11917    12400 
   12809    13144    13392    13592    13800    13990    14116    14207 
   14302    14371    14360    14262    14109    13890    13584    13266 
   13038    12892    12768    12656    12592    12564    12498    12365 
   12248    12212    12213    12242    12367    12610    12990    13552 
   14254    14918    15357    15590    15811    16076    16213    16087 
   15749    15339    14953    14607    14324    14157    14081    13988 
   13776    13376    12813    12240    11805    11540    11411    11398 
   11478    11568    11591    11594    11704    11926    12102    12109 
   12019    11950    11853    11574    11130    10783    10770    11085 
   11569    12064    12416    12476    12255    11992    11918    12020 
   12143    12222    12322    12475    12600    12669    12804    13120 
   13563    13943    14105    14092    14064    14068    14059    14068 
   14152    14285    14395    14434    14445    14508    14582    14582 
   14544    14517    14418    14188    13941    13837    13891    13992 
   14031    13938    13738    13512    13241    12886    12567    12439 
   12448    12394    12241    12183    12322    12542    12746    12914 
   12989    12910    12692    12435    12280    12296    12440    12650 
   12895    13141    13348    13485    13578    13670    13765    13900 
   14143    14467    14745    14922    15067    15247    15409    15423 
   15232    14891    14457    13948    13427    13002    12700    12428 
   12070    11583    11002    10382     9781     9305     9069     9067 
    9182     9317     9471     9672     9887    10051    10184    10355 
   10523    10622    10736    11028    11523    12091    12593    13031 
   13444    13734    13791    13696    13626    13642    13660    13586 
   13479    13484    13595    13694    13733    13777    13880    13987 
   14012    13965    13914    13884    13852    13823    13826    13856 
   13855    13749    13515    13200    12863    12545    12270    12011 
   11731    11472    11310    11330    11558    11884    12148    12221 
   12033    11636    11176    10810    10653    10716    10918    11114 
   11162    11057    10896    10681    10334     9826     9262     8817 
    8551     8401     8316     8297     8340     8390     8394     8369 
    8360     8350     8242     8006     7770     7608     7423     7130 
    6826     6691     6802     7079     7399     7688     7922     8084 
    8147     8112     8032     7948     7844     7722     7648     7678 
    7779     7873     7980     8205     8537     8824     8964     8985 
    8963     8951     8983     9078     9238     9415     9544     9609 
    9649     9700     9785     9920    10114    10356    10603    10822 
   11022    11183    11265    11291    11289    11214    11021    10781 
   10639    10631    10640    10593    10583    10716    10936    11138 
   11349    11690    12171    12685    13195    13737    14263    14642 
   14813    14862    14896    14892    14763    14536    14332    14239 
   14249    14264    14183    13978    13688    13389    13161    13060 
   13093    13214    13378    13545    13668    13731    13769    13829 
   13913    14015    14139    14250    14293    14259    14176    14056 
   13908    13768    13661    13618    13686    13899    14200    14412 
   14434    14371    14339    14294    14141    13943    13888    14049 
   14269    14350    14322    14322    14310    14212    14118    14136 
   14213    14184    13972    13692    13486    13354    13228    13113 
   13123    13280    13416    13460    13557    13799    14065    14203 
   14251    14364    14584    14825    15000    15089    15088    14960 
   14661    14212    13700    13229    12896    12785    12902    13150 
   13463    13912    14547    15263    15899    16407    16854    17256 
   17514    17554    17433    17285    17200    17167    17103    16956 
   16774    16657    16673    16792    16913    17002    17088    17190 
   17289    17362    17437    17559    17700    17844    18018    18178 
   18239    18177    18050    17984    18077    18279    18498    18743 
   19052    19384    19630    19658    19381    18838    18212    17685 
   17308    17016    16723    16380    15975    15526    15085    14701 
   14382    14111    13884    13725    13642    13570    13423    13188 
   12947    12779    12645    12438    12128    11776    11438    11133 
   10870    10655    10456    10222     9949     9686     9459     9227 
    8985     8840     8864     8947     8911     8763     8656     8628 
    8573     8402     8170     8066     8189     8413     8600     8742 
    8831     8838     8811     8833     8941     9107     9307     9578 
    9886    10043     9907     9596     9349     9248     9225     9255 
    9356     9491     9608     9678     9687     9663     9668     9739 
    9867    10018    10172    10274    10265    10170    10044     9900 
    9745     9589     9429     9275     9184     9184     9249     9370 
    9528     9652     9684     9650     9615     9599     9591     9587 
    9584     9585     9626     9703     9723     9569     9264     9020 
    9000     9108     9136     9034     8938     8960     9047     9085 
    9024     8899     8755     8600     8496     8538     8732     8994 
    9258     9516     9765     9942     9976     9870     9696     9539 
    9431     9343     9262     9214     9247     9424     9771    10201 
   10575    10867    11173    11522    11838    12136    12535    13058 
   13565    13892    14018    14052    14024    13877    13635    13412 
