Origin Time       2011/03/11 14:46:00
Lat.              38.103
Long.             142.860
Depth. (km)       24
Mag.              9.0
Station Code      HKD144
Station Lat.      42.9059
Station Long.     140.7670
Station Height(m) 180
Record Time       2011/03/11 14:48:11
Sampling Freq(Hz) 100Hz
Duration Time(s)  300
Dir.              U-D
Scale Factor      3920(gal)/6182761
Max. Acc. (gal)   4.873
Last Correction   2011/03/11 14:47:56
Memo.             
[...]
  -19581   -19782   -19988   -20237   -20492   -20683   -20785   -20866 
  -20970   -21051   -21099   -21151   -21216   -21293   -21368   -21419 
  -21492   -21639   -21827   -21981   -22057   -22068   -22048   -22044 
  -22126   -22311   -22595   -22991   -23448   -23861   -24184   -24425 
  -24573   -24629   -24623   -24562   -24452   -24319   -24177   -24023 
  -23880   -23797   -23788   -23833   -23909   -23982   -24005   -23935 
  -23753   -23453   -23051   -22616   -22223   -21875   -21556   -21257 
  -20968   -20666   -20337   -20035   -19840   -19754   -19733   -19697 
  -19567   -19347   -19081   -18791   -18509   -18279   -18136   -18089 
  -18110   -18162   -18219   -18249   -18235   -18218   -18278   -18441 
  -18650   -18849   -19001   -19076   -19086   -19056   -18984   -18886 
  -18828   -18890   -19066   -19255   -19392   -19502   -19631   -19794 
  -19972   -20141   -20302   -20471   -20618   -20673   -20605   -20457 
  -20327   -20303   -20377   -20495   -20643   -20795   -20905   -20987 
  -21093   -21227   -21330   -21338   -21247   -21107   -20948   -20775 
  -20610   -20469   -20374   -20356   -20409   -20517   -20712   -21014 
  -21360   -21666   -21905   -22097   -22240   -22294   -22234   -22085 
  -21892   -21695   -21540   -21430   -21306   -21154   -21045   -21037 
  -21135   -21289   -21426   -21516   -21522   -21423   -21280   -21171 
  -21109   -21084   -21102   -21163   -21260   -21395   -21547   -21674 
  -21786   -21895   -21956   -21935   -21859   -21764   -21661   -21589 
  -21569   -21555   -21535   -21534   -21563   -21639   -21749   -21847 
  -21918   -21950   -21925   -21863   -21813   -21810   -21870   -21974 
  -22054   -22064   -22039   -22022   -22013   -21999   -21971   -21952 
  -21965   -21981   -21959   -21909   -21846   -21775   -21726   -21728 
  -21760   -21782   -21776   -21742   -21673   -21546   -21356   -21121 
  -20863   -20602   -20360   -20147   -19962   -19813   -19728   -19708 
  -19679   -19595   -19499   -19410   -19288   -19092   -18835   -18577 
  -18364   -18206   -18099   -18030   -17994   -18006   -18074   -18184 
  -18301   -18388   -18436   -18496   -18615   -18770   -18923   -19066 
  -19215   -19383   -19563   -19746   -19929   -20108   -20286   -20437 
  -20527   -20578   -20639   -20718   -20792   -20845   -20857   -20802 
  -20681   -20536   -20403   -20268   -20121   -19998   -19956   -20012 
  -20130   -20252   -20382   -20581   -20869   -21217   -21596   -21947 
  -22186   -22312   -22379   -22398   -22362   -22316   -22319   -22378 
  -22443   -22474   -22464   -22403   -22292   -22166   -22058   -21947 
  -21762   -21462   -21105   -20779   -20512   -20294   -20133   -20042 
  -20027   -20089   -20215   -20370   -20503   -20593   -20669   -20737 
  -20780   -20800   -20814   -20829   -20835   -20821   -20806   -20837 
  -20939   -21085   -21231   -21359   -21463   -21543   -21586   -21570 
  -21507   -21444   -21422   -21467   -21579   -21740   -21904   -22022 
  -22101   -22176   -22258   -22345   -22438   -22532   -22599   -22605 
  -22575   -22560   -22578   -22635   -22731   -22849   -22934   -22937 
  -22888   -22848   -22837   -22868   -22958   -23087   -23218   -23327 
  -23368   -23303   -23145   -22925   -22659   -22368   -22073   -21781 
  -21483   -21174   -20877   -20633   -20454   -20301   -20127   -19935 
  -19761   -19611   -19498   -19456   -19492   -19584   -19730   -19932 
  -20149   -20305   -20381   -20434   -20473   -20467   -20423   -20346 
  -20242   -20145   -20072   -20010   -19957   -19910   -19863   -19826 
  -19790   -19706   -19560   -19400   -19238   -19044   -18828   -18638 
  -18490   -18353   -18191   -17983   -17734   -17489   -17276   -17060 
  -16849   -16708   -16646   -16634   -16642   -16642   -16618   -16596 
  -16619   -16704   -16836   -17017   -17265   -17580   -17939   -18324 
  -18714   -19096   -19446   -19756   -20061   -20353   -20585   -20756 
  -20886   -20990   -21108   -21277   -21482   -21695   -21917   -22135 
  -22304   -22418   -22516   -22631   -22785   -22967   -23140   -23297 
  -23408   -23436   -23412   -23391   -23365   -23329   -23308   -23304 
  -23303   -23296   -23258   -23166   -23026   -22882   -22785   -22718 
  -22627   -22531   -22479   -22494   -22586   -22723   -22861   -23000 
  -23151   -23285   -23377   -23427   -23421   -23332   -23176   -22980 
  -22774   -22596   -22449   -22321   -22212   -22124   -22065   -22046 
  -22065   -22111   -22171   -22225   -22258   -22272   -22259   -22207 
  -22133   -22065   -22006   -21991   -22081   -22282   -22525   -22752 
  -22956   -23140   -23296   -23404   -23422   -23323   -23114   -22816 
  -22462   -22076   -21683   -21305   -20961   -20670   -20422   -20207 
  -20050   -19957   -19899   -19848   -19804   -19769   -19662   -19463 
  -19363   -19420   -19416   -19331   -19303   -19225   -19094   -19053 
  -18968   -18799   -18747   -18792   -18808   -18823   -18882   -18987 
  -19148   -19354   -19521   -19544   -19461   -19364   -19237   -19138 
  -19162   -19243   -19343   -19493   -19655   -19802   -19925   -19981 
  -19951   -19853   -19715   -19542   -19306   -18958   -18517   -18084 
  -17692   -17270   -16787   -16309   -15909   -15595   -15336   -15117 
  -14957   -14877   -14873   -14943   -15101   -15336   -15629   -15964 
  -16331   -16739   -17179   -17636   -18122   -18632   -19134   -19635 
  -20154   -20694   -21265   -21871   -22503   -23122   -23681   -24181 
  -24661   -25113   -25481   -25726   -25844   -25865   -25857   -25847 
  -25805   -25734   -25650   -25539   -25419   -25302   -25162   -25003 
  -24863   -24760   -24677   -24580   -24500   -24474   -24491   -24548 
  -24638   -24727   -24776   -24745   -24629   -24480   -24339   -24212 
  -24098   -23976   -23833   -23708   -23635   -23580   -23510   -23444 
  -23394   -23325   -23205   -23077   -23001   -22983   -22994   -22990 
  -22941   -22843   -22702   -22519   -22297   -22036   -21736   -21420 
  -21135   -20890   -20663   -20465   -20315   -20202   -20115   -20041 
  -19964   -19905   -19885   -19900   -19968   -20084   -20177   -20214 
  -20234   -20254   -20254   -20254   -20305   -20399   -20480   -20524 
  -20553   -20574   -20564   -20505   -20420   -20328   -20203   -20035 
  -19852   -19662   -19449   -19201   -18939   -18700   -18526   -18453 
  -18486   -18591   -18717   -18852   -19039   -19288   -19546   -19793 
  -20038   -20265   -20449   -20554   -20558   -20481   -20375   -20307 
  -20277   -20218   -20106   -19959   -19806   -19682   -19593   -19534 
  -19554   -19708   -19993   -20356   -20730   -21057   -21311   -21520 
  -21700   -21837   -21982   -22190   -22427   -22668   -22902   -23123 
  -23351   -23576   -23778   -23949   -24048   -24072   -24072   -24052 
  -23998   -23914   -23794   -23649   -23480   -23272   -23060   -22898 
  -22781   -22690   -22609   -22524   -22449   -22424   -22460   -22514 
  -22545   -22564   -22580   -22564   -22515   -22447   -22375   -22298 
  -22169   -21984   -21802   -21659   -21563   -21486   -21425   -21427 
  -21472   -21516   -21544   -21548   -21563   -21625   -21692   -21691 
  -21600   -21444   -21281   -21141   -20992   -20816   -20672   -20591 
  -20522   -20413   -20280   -20171   -20084   -20020   -20024   -20075 
  -20120   -20187   -20299   -20428   -20555   -20678   -20816   -20973 
  -21099   -21185   -21253   -21258   -21210   -21198   -21184   -21102 
  -21035   -20967   -20800   -20597   -20361   -20011   -19619   -19242 
  -18837   -18435   -18114   -17872   -17668   -17517   -17427   -17328 
  -17209   -17115   -17008   -16849   -16683   -16528   -16387   -16294 
  -16252   -16234   -16233   -16250   -16292   -16376   -16462   -16488 
  -16488   -16531   -16613   -16714   -16840   -16986   -17166   -17403 
  -17685   -17979   -18250   -18458   -18594   -18689   -18759   -18807 
  -18863   -18965   -19104   -19240   -19346   -19434   -19544   -19689 
  -19883   -20156   -20493   -20841   -21171   -21494   -21812   -22115 
  -22394   -22648   -22877   -23090   -23286   -23431   -23500   -23498 
  -23443   -23354   -23245   -23126   -23021   -22946   -22914   -22932 
  -22973   -23017   -23063   -23081   -23070   -23066   -23066   -23087 
  -23138   -23209   -23337   -23538   -23783   -24073   -24403   -24730 
  -25015   -25246   -25413   -25518   -25564   -25566   -25550   -25536 
  -25531   -25528   -25520   -25527   -25567   -25636   -25708   -25712 
  -25589   -25340   -24988   -24542   -24033   -23511   -23010   -22533 
  -22080   -21682   -21387   -21173   -20964   -20743   -20558   -20434 
  -20338   -20220   -20041   -19774   -19428   -19063   -18720   -18395 
  -18106   -17919   -17859   -17868   -17877   -17869   -17882   -17947 
  -18051   -18176   -18324   -18482   -18637   -18789   -18944   -19112 
  -19300   -19525   -19784   -20043   -20272   -20485   -20709   -20936 
  -21130   -21254   -21307   -21329   -21377   -21482   -21618   -21735 
  -21831   -21903   -21929   -21924   -21878   -21757   -21580   -21415 
  -21305   -21226   -21156   -21104   -21074   -21071   -21088   -21096 
  -21073   -21013   -20929   -20849   -20785   -20747   -20754   -20830 
  -20962   -21087   -21177   -21255   -21351   -21487   -21647   -21785 
  -21864   -21872   -21810   -21687   -21528   -21397   -21327   -21282 
  -21233   -21209   -21252   -21361   -21518   -21728   -21982   -22259 
  -22555   -22843   -23099   -23307   -23436   -23495   -23541   -23605 
  -23689   -23776   -23827   -23813   -23721   -23553   -23321   -23013 
  -22647   -22299   -22007   -21760   -21559   -21393   -21247   -21134 
  -21048   -20967   -20888   -20805   -20722   -20693   -20753   -20841 
  -20900   -20953   -21044   -21175   -21317   -21439   -21528   -21585 
  -21609   -21562   -21412   -21162   -20831   -20480   -20193   -19975 
  -19779   -19594   -19438   -19338   -19300   -19270   -19189   -19046 
  -18856   -18640   -18401   -18118   -17825   -17586   -17414   -17291 
  -17195   -17119   -17087   -17110   -17190   -17333   -17527   -17740 
  -17915   -18018   -18069   -18091   -18079   -18045   -18030   -18036 
  -18049   -18099   -18207   -18353   -18515   -18687   -18879   -19084 
  -19288   -19489   -19662   -19790   -19896   -20020   -20185   -20374 
  -20550   -20701   -20822   -20929   -21063   -21221   -21379   -21559 
  -21762   -21960   -22169   -22399   -22654   -22929   -23169   -23321 
  -23381   -23389   -23414   -23470   -23536   -23647   -23787   -23891 
  -23987   -24068   -24067   -24003   -23890   -23692   -23438   -23193 
  -22963   -22734   -22520   -22315   -22108   -21953   -21863   -21797 
  -21770   -21816   -21904   -21996   -22075   -22114   -22105   -22074 
  -22026   -21954   -21872   -21793   -21739   -21736   -21758   -21764 
  -21738   -21679   -21581   -21432   -21278   -21199   -21179   -21152 
  -21107   -21078   -21099   -21163   -21216   -21231   -21217   -21191 
  -21126   -20987   -20784   -20529   -20243   -19969   -19729   -19502 
  -19271   -19049   -18866   -18741   -18676   -18674   -18721   -18774 
  -18805   -18838   -18881   -18929   -18975   -18982   -18910   -18814 
  -18766   -18729   -18643   -18525   -18438   -18412   -18409   -18357 
  -18235   -18098   -17999   -17961   -18001   -18112   -18255   -18415 
  -18613   -18865   -19154   -19460   -19763   -20042   -20297   -20539 
  -20775   -21013   -21246   -21449   -21612   -21743   -21866   -21973 
  -22054   -22137   -22237   -22333   -22388   -22393   -22385   -22377 
  -22355   -22334   -22311   -22278   -22230   -22142   -22005   -21832 
  -21643   -21478   -21373   -21348   -21406   -21528   -21686   -21851 
  -21993   -22104   -22195   -22288   -22399   -22516   -22620   -22720 
  -22824   -22946   -23125   -23350   -23569   -23756   -23919   -24067 
  -24193   -24284   -24332   -24351   -24381   -24447   -24544   -24666 
  -24811   -24963   -25114   -25274   -25423   -25526   -25600   -25674 
  -25758   -25827   -25841   -25809   -25759   -25697   -25633   -25568 
  -25480   -25358   -25193   -24995   -24788   -24565   -24303   -23987 
  -23601   -23161   -22713   -22281   -21864   -21466   -21109   -20792 
  -20475   -20150   -19854   -19577   -19284   -18989   -18702   -18409 
  -18114   -17838   -17586   -17344   -17123   -16952   -16801   -16617 
  -16431   -16301   -16237   -16233   -16313   -16483   -16706   -16944 
  -17178   -17395   -17578   -17735   -17865   -17976   -18086   -18205 
  -18334   -18494   -18696   -18924   -19170   -19453   -19793   -20178 
  -20565   -20926   -21254   -21524   -21738   -21936   -22120   -22282 
  -22461   -22697   -22989   -23304   -23614   -23929   -24257   -24568 
  -24823   -24995   -25092   -25151   -25169   -25125   -25019   -24847 
  -24634   -24449   -24324   -24236   -24153   -24071   -24001   -23920 
  -23822   -23724   -23618   -23492   -23352   -23207   -23074   -22962 
  -22867   -22789   -22749   -22787   -22915   -23107   -23312   -23509 
  -23685   -23808   -23896   -23982   -24049   -24116   -24219   -24346 
  -24506   -24703   -24922   -25161   -25426   -25744   -26129   -26533 
  -26904   -27228   -27469   -27612   -27702   -27773   -27803   -27770 
  -27683   -27555   -27380   -27157   -26887   -26555   -26204   -25871 
  -25520   -25138   -24707   -24195   -23610   -22977   -22346   -21766 
  -21230   -20746   -20311   -19901   -19526   -19180   -18828   -18451 
  -18058   -17636   -17174   -16708   -16270   -15852   -15454   -15088 
  -14769   -14525   -14373   -14279   -14174   -14013   -13812   -13614 
  -13473   -13400   -13354   -13351   -13442   -13606   -13797   -14009 
  -14235   -14480   -14751   -15050   -15377   -15712   -16041   -16367 
  -16663   -16904   -17103   -17285   -17486   -17754   -18105   -18530 
  -19011   -19538   -20112   -20723   -21354   -21982   -22559   -23071 
  -23536   -23938   -24281   -24550   -24707   -24775   -24799   -24813 
  -24829   -24801   -24718   -24623   -24531   -24416   -24250   -24058 
  -23891   -23746   -23606   -23471   -23366   -23329   -23362   -23424 
  -23476   -23521   -23568   -23597   -23581   -23515   -23428   -23383 
  -23395   -23418   -23421   -23409   -23402   -23427   -23509   -23624 
  -23720   -23766   -23756   -23720   -23696   -23652   -23555   -23452 
  -23388   -23339   -23294   -23266   -23238   -23215   -23206   -23160 
  -23041   -22843   -22565   -22259   -21992   -21798   -21670   -21602 
  -21611   -21665   -21689   -21683   -21692   -21717   -21754   -21829 
  -21938   -22030   -22068   -22069   -22040   -21946   -21795   -21636 
  -21450   -21219   -20976   -20744   -20534   -20335   -20130   -19933 
  -19742   -19544   -19336   -19112   -18891   -18704   -18560   -18449 
  -18336   -18193   -18039   -17934   -17920   -17980   -18081   -18229 
  -18424   -18611   -18751   -18846   -18916   -18979   -19013   -19026 
  -19065   -19110   -19114   -19100   -19121   -19176   -19233   -19303 
  -19418   -19571   -19764   -19997   -20229   -20423   -20558   -20647 
  -20733   -20825   -20901   -20970   -21057   -21139   -21177   -21175 
  -21181   -21207   -21216   -21190   -21141   -21052   -20918   -20801 
  -20737   -20655   -20507   -20337   -20179   -20016   -19849   -19696 
  -19573   -19508   -19516   -19599   -19745   -19909   -20044   -20139 
  -20192   -20204   -20192   -20205   -20247   -20280   -20305   -20350 
  -20428   -20536   -20642   -20730   -20828   -20949   -21090   -21245 
  -21380   -21479   -21539   -21549   -21525   -21523   -21583   -21692 
  -21821   -21983   -22173   -22370   -22582   -22811   -23034   -23241 
  -23450   -23681   -23918   -24140   -24346   -24529   -24685   -24821 
  -24941   -25059   -25158   -25224   -25278   -25322   -25360   -25426 
  -25498   -25528   -25518   -25450   -25336   -25216   -25057   -24845 
  -24606   -24370   -24188   -24053   -23876   -23606   -23257   -22871 
  -22484   -22114   -21786   -21520   -21313   -21158   -21052   -20974 
  -20915   -20899   -20953   -21053   -21147   -21243   -21367   -21503 
  -21656   -21866   -22115   -22371   -22627   -22848   -23012   -23120 
  -23155   -23153   -23150   -23138   -23124   -23097   -23033   -22938 
  -22790   -22587   -22378   -22182   -21985   -21817   -21700   -21579 
  -21426   -21263   -21090   -20931   -20819   -20724   -20606   -20447 
  -20254   -20083   -19967   -19888   -19839   -19811   -19785   -19751 
  -19699   -19646   -19627   -19628   -19637   -19670   -19716   -19759 
  -19830   -19927   -20009   -20064   -20117   -20176   -20207   -20219 
  -20271   -20357   -20398   -20369   -20325   -20301   -20278   -20233 
  -20158   -20063   -19960   -19859   -19777   -19745   -19780   -19860 
  -19968   -20100   -20234   -20365   -20507   -20648   -20782   -20895 
  -20974   -21045   -21112   -21171   -21244   -21331   -21414   -21473 
  -21504   -21527   -21560   -21612   -21645   -21611   -21520   -21402 
  -21259   -21141   -21093   -21057   -21002   -20966   -20933   -20880 
  -20821   -20774   -20757   -20775   -20842   -20977   -21139   -21294 
  -21450   -21606   -21778   -21965   -22149   -22352   -22603   -22897 
  -23194   -23430   -23632   -23877   -24125   -24307   -24444   -24589 
  -24791   -25044   -25275   -25420   -25480   -25470   -25374   -25194 
  -24935   -24579   -24188   -23881   -23640   -23412   -23244   -23111 
  -22937   -22739   -22546   -22336   -22095   -21842   -21575   -21289 
  -20997   -20692   -20378   -20095   -19846   -19614   -19396   -19202 
  -19040   -18901   -18765   -18638   -18535   -18410   -18292   -18268 
  -18247   -18142   -18049   -17992   -17917   -17833   -17759   -17699 
  -17638   -17577   -17542   -17543   -17589   -17687   -17849   -18082 
  -18361   -18682   -19045   -19441   -19858   -20241   -20561   -20841 
  -21076   -21236   -21337   -21437   -21572   -21727   -21912   -22125 
  -22348   -22569   -22735   -22831   -22904   -22957   -22995   -23032 
  -23065   -23089   -23088   -23070   -23068   -23085   -23093   -23103 
  -23141   -23174   -23162   -23121   -23064   -23005   -22979   -22981 
  -22978   -22959   -22936   -22907   -22872   -22863   -22870   -22869 
  -22886   -22907   -22940   -23038   -23162   -23249   -23335   -23425 
  -23478   -23483   -23452   -23397   -23308   -23198   -23119   -23072 
  -23002   -22883   -22714   -22521   -22322   -22076   -21793   -21556 
  -21391   -21262   -21129   -20979   -20844   -20770   -20760   -20789 
  -20834   -20866   -20880   -20892   -20872   -20793   -20709   -20655 
  -20641   -20671   -20694   -20671   -20622   -20566   -20490   -20383 
  -20235   -20049   -19845   -19647   -19441   -19205   -18958   -18720 
  -18498   -18284   -18063   -17842   -17640   -17452   -17256   -17036 
  -16803   -16584   -16406   -16272   -16187   -16171   -16198   -16227 
  -16259   -16294   -16327   -16376   -16463   -16607   -16819   -17086 
  -17381   -17711   -18076   -18432   -18745   -19005   -19215   -19395 
  -19537   -19595   -19595   -19590   -19590   -19616   -19661   -19676 
  -19680   -19730   -19810   -19894   -19981   -20066   -20169   -20322 
  -20491   -20621   -20722   -20830   -20937   -21017   -21067   -21090 
  -21077   -21052   -21045   -21061   -21094   -21135   -21205   -21349 
  -21555   -21791   -22055   -22321   -22581   -22854   -23133   -23406 
  -23679   -23934   -24153   -24365   -24560   -24687   -24768   -24856 
  -24953   -25046   -25115   -25152   -25192   -25240   -25269   -25290 
