Origin Time       2011/03/11 14:46:00
Lat.              38.103
Long.             142.860
Depth. (km)       24
Mag.              9.0
Station Code      HKD162
Station Lat.      41.4859
Station Long.     140.2469
Station Height(m) 17
Record Time       2011/03/11 14:47:44
Sampling Freq(Hz) 100Hz
Duration Time(s)  278
Dir.              E-W
Scale Factor      3920(gal)/6182761
Max. Acc. (gal)   13.039
Last Correction   2011/03/11 14:47:29
Memo.             
[...]
   17259    18415    19510    20497    21308    21821    21895    21499 
   20808    20042    19280    18521    17817    17219    16692    16176 
   15680    15283    15094    15137    15304    15433    15419    15289 
   15179    15186    15263    15352    15494    15728    16012    16315 
   16695    17210    17836    18470    18968    19249    19339    19307 
   19232    19093    18716    17988    17016    16026    15236    14766 
   14630    14820    15337    16113    16978    17706    18144    18327 
   18379    18349    18205    17969    17754    17627    17545    17446 
   17329    17235    17188    17187    17205    17208    17220    17290 
   17404    17578    17900    18426    19144    19968    20734    21299 
   21608    21657    21465    21040    20426    19752    19163    18706 
   18315    17920    17549    17294    17247    17447    17856    18445 
   19214    20088    20899    21482    21754    21718    21438    21030 
   20592    20131    19574    18851    17997    17168    16500    16018 
   15675    15418    15225    15117    15098    15176    15407    15818 
   16362    16985    17656    18356    19078    19773    20365    20853 
   21288    21668    21947    22065    21968    21619    20999    20122 
   19106    18140    17399    16994    16915    17023    17170    17271 
   17344    17521    17893    18398    18875    19125    19014    18561 
   17905    17248    16795    16641    16766    17105    17547    17969 
   18329    18646    18939    19201    19408    19517    19452    19136 
   18567    17849    17144    16586    16235    16064    15976    15878 
   15725    15492    15151    14733    14346    14127    14164    14440 
   14822    15159    15397    15550    15639    15675    15624    15433 
   15132    14829    14629    14600    14724    14881    14961    14920 
   14764    14557    14369    14179    13925    13623    13381    13310 
   13508    14022    14793    15662    16449    17031    17418    17695 
   17904    18014    17979    17787    17482    17163    16935    16837 
   16849    16945    17086    17224    17333    17379    17281    17003 
   16621    16225    15826    15411    15015    14709    14554    14573 
   14754    15065    15442    15808    16100    16268    16308    16361 
   16626    17159    17848    18544    19156    19660    19993    19991 
   19564    18809    17892    16950    16045    15195    14506    14144 
   14146    14412    14791    15182    15628    16228    16939    17645 
   18291    18887    19482    20099    20667    21119    21466    21710 
   21786    21624    21212    20603    19891    19145    18403    17712 
   17125    16710    16566    16727    17090    17534    18050    18699 
   19494    20379    21261    21993    22428    22515    22303    21889 
   21352    20723    20044    19345    18633    17977    17520    17384 
   17601    18115    18787    19460    20061    20582    20977    21146 
   20991    20506    19805    19020    18220    17472    16874    16480 
   16279    16190    16100    15965    15836    15787    15852    15998 
   16129    16154    16015    15676    15202    14754    14421    14179 
   14001    13888    13817    13738    13590    13351    13106    13012 
   13122    13298    13331    13128    12801    12541    12436    12481 
   12653    12907    13184    13449    13690    13914    14155    14458 
   14878    15465    16202    16990    17728    18362    18852    19158 
   19281    19269    19176    19027    18794    18407    17787    16917 
   15892    14849    13886    13049    12361    11905    11788    12012 
   12522    13307    14374    15710    17233    18756    20077    21092 
   21769    22094    22068    21771    21327    20806    20218    19564 
   18834    18044    17266    16571    15961    15388    14753    13937 
   12970    12079    11474    11201    11248    11583    12127    12821 
   13688    14762    16017    17352    18623    19705    20528    21047 
   21203    20971    20445    19804    19236    18893    18831    18985 
   19218    19426    19622    19896    20319    20902    21602    22319 
   22909    23258    23317    23060    22501    21664    20528    19103 
   17519    15966    14651    13693    13061    12717    12717    13107 
   13877    14972    16278    17668    19026    20222    21221    22093 
   22875    23510    23879    23837    23317    22368    21097    19635 
   18134    16789    15784    15188    15005    15258    15975    17098 
   18483    19975    21444    22761    23777    24347    24377    23871 
   22918    21634    20120    18509    17014    15785    14812    14064 
   13594    13478    13764    14421    15324    16339    17382    18413 
   19424    20394    21253    21887    22207    22185    21823    21126 
   20110    18879    17640    16598    15862    15430    15248    15313 
   15690    16382    17320    18446    19748    21264    22946    24529 
   25690    26271    26316    25968    25319    24353    23064    21547 
   19961    18436    17008    15690    14566    13761    13350    13281 
   13428    13757    14383    15445    16964    18764    20528    22002 
   23144    23989    24501    24629    24407    23916    23200    22266 
   21153    19921    18605    17231    15873    14637    13577    12699 
   12072    11819    11997    12583    13507    14659    15940    17285 
   18632    19887    20919    21600    21823    21483    20543    19109 
   17385    15599    13923    12426    11112     9985     9081     8510 
    8405     8815     9667    10834    12208    13691    15158    16487 
   17596    18378    18718    18603    18055    17061    15725    14309 
   13068    12143    11554    11252    11222    11507    12117    12982 
   13994    15121    16413    17895    19512    21201    22880    24390 
   25594    26501    27204    27745    28032    27836    26966    25455 
   23501    21371    19379    17749    16501    15528    14704    13959 
   13379    13102    13112    13286    13532    13785    13972    14069 
   14130    14237    14417    14654    14956    15348    15805    16216 
   16456    16528    16575    16748    17104    17590    18100    18493 
   18629    18468    18050    17440    16742    16091    15654    15590 
   15924    16587    17580    18947    20595    22259    23615    24403 
   24559    24231    23593    22685    21507    20118    18632    17179 
   15873    14825    14184    14083    14554    15545    16878    18221 
   19340    20252    20984    21480    21778    22021    22276    22471 
   22451    22137    21628    21070    20514    19976    19471    19020 
   18699    18565    18614    18884    19413    20137    20908    21522 
   21811    21784    21584    21349    21178    21123    21192    21360 
   21559    21698    21711    21560    21246    20830    20397    19971 
   19508    18972    18410    17940    17658    17584    17669    17842 
   18074    18358    18624    18755    18677    18370    17837    17116 
   16275    15374    14486    13698    13046    12512    12077    11766 
   11696    11987    12591    13353    14207    15161    16176    17226 
   18272    19184    19852    20271    20537    20837    21360    22159 
   23131    24085    24848    25325    25478    25299    24781    23898 
   22642    21091    19439    17917    16649    15602    14704    13967 
   13456    13194    13119    13140    13235    13474    13932    14618 
   15489    16466    17507    18594    19586    20265    20571    20649 
   20667    20664    20539    20231    19845    19514    19262    19084 
   19029    19203    19645    20187    20593    20808    20919    20994 
   21029    20884    20387    19515    18390    17177    16024    15034 
   14295    13840    13560    13321    13122    13031    13111    13438 
   14046    14877    15861    17028    18451    20082    21695    22990 
   23753    23935    23617    22885    21757    20237    18384    16325 
   14301    12619    11467    10837    10637    10798    11298    12102 
   13106    14244    15579    17116    18651    19881    20564    20599 
   20080    19192    18077    16867    15763    14942    14501    14500 
   14958    15803    16884    18056    19255    20485    21707    22769 
   23494    23769    23577    22989    22110    20985    19626    18094 
   16509    14976    13573    12449    11793    11696    12098    12812 
   13607    14326    14917    15401    15898    16555    17362    18201 
   19042    19963    21035    22208    23279    24054    24536    24822 
   24924    24811    24433    23707    22633    21343    19966    18600 
   17404    16558    16204    16423    17198    18448    20112    22161 
   24477    26792    28809    30305    31124    31165    30390    28855 
   26717    24207    21583    19096    16997    15465    14455    13746 
   13214    12972    13201    13923    14973    16078    16964    17406 
   17226    16310    14669    12458     9992     7707     5965     4899 
    4441     4472     4924     5795     7098     8784    10700    12689 
   14665    16520    18116    19379    20291    20844    21050    20905 
   20357    19337    17866    16146    14499    13202    12412    12180 
   12433    12981    13589    14015    14078    13769    13195    12467 
   11694    10936    10221     9715     9718    10398    11679    13373 
   15213    16924    18412    19664    20579    21040    20977    20412 
   19523    18498    17433    16404    15499    14767    14259    14106 
   14458    15355    16697    18314    20084    21928    23761    25450 
   26774    27526    27662    27224    26244    24812    23123    21428 
   19957    18863    18184    17887    17990    18547    19501    20641 
   21708    22510    22945    22962    22617    22095    21569    21128 
   20798    20566    20475    20647    21149    21899    22737    23562 
   24358    25056    25438    25280    24545    23387    21991    20466 
   18885    17384    16184    15438    15047    14718    14285    13841 
   13570    13587    13929    14569    15434    16431    17421    18186 
   18529    18426    18048    17625    17230    16720    15991    15156 
   14441    14042    14024    14300    14779    15449    16211    16770 
   16821    16285    15348    14378    13697    13359    13212    13055 
   12724    12205    11654    11246    11085    11193    11506    11909 
   12262    12432    12379    12213    12120    12240    12611    13208 
   13985    14887    15891    16975    18031    18924    19611    20144 
   20610    21034    21312    21336    21148    20893    20687    20540 
   20382    20162    19895    19605    19317    19074    18938    18917 
   18934    18892    18765    18592    18424    18309    18283    18348 
   18493    18705    18964    19270    19602    19845    19904    19836 
   19709    19513    19230    18813    18198    17401    16517    15665 
   14976    14550    14394    14467    14713    14977    15049    14855 
   14458    13952    13400    12784    12074    11297    10487     9675 
    8945     8437     8319     8714     9628    10927    12388    13803 
   15029    16020    16862    17737    18749    19745    20411    20575 
   20271    19568    18520    17178    15619    13999    12458    10989 
    9585     8512     8215     8909    10402    12359    14580    17000 
   19560    22127    24481    26388    27717    28426    28473    27825 
   26550    24858    23005    21185    19572    18289    17311    16528 
   15856    15290    14953    15038    15617    16559    17584    18345 
   18563    18128    17074    15571    13957    12580    11549    10730 
    9969     9263     8822     8998    10005    11729    13895    16245 
   18582    20781    22725    24318    25572    26499    27048    27212 
   27043    26594    25906    24998    23918    22803    21880    21395 
   21428    21865    22590    23533    24549    25389    25848    25867 
   25512    24898    24073    23018    21778    20467    19175    17981 
   17019    16494    16587    17314    18492    19858    21225    22546 
   23851    25184    26621    28164    29657    30873    31617    31797 
   31417    30431    28774    26574    24130    21733    19592    17861 
   16651    16045    16102    16845    18173    19899    21911    24091 
   26160    27780    28707    28871    28443    27718    26902    26094 
   25287    24359    23271    22199    21294    20505    19690    18804 
   17968    17389    17218    17464    17937    18369    18637    18777 
   18859    18940    19118    19482    20000    20529    20865    20811 
   20307    19495    18579    17673    16805    16004    15264    14486 
   13612    12756    12121    11907    12240    13048    14103    15144 
   15958    16410    16450    16102    15430    14500    13415    12261 
   11080     9991     9260     9127     9646    10706    12140    13787 
   15569    17474    19458    21455    23340    24814    25537    25345 
   24285    22600    20627    18571    16476    14381    12413    10781 
    9729     9407     9781    10715    12075    13689    15334    16805 
   17987    18914    19715    20445    21010    21281    21159    20583 
   19595    18406    17268    16312    15559    15009    14674    14627 
   14965    15705    16768    18040    19344    20438    21148    21436 
   21388    21112    20630    19923    18981    17830    16571    15323 
   14122    13007    12106    11563    11470    11844    12539    13280 
   13904    14413    14818    15081    15142    14957    14569    14097 
   13690    13509    13628    13934    14221    14360    14298    14006 
   13504    12837    12001    10948     9632     8055     6265     4331 
    2359      473    -1173    -2365    -2910    -2768    -2082    -1081 
     157     1758     3751     5922     7977     9685    10927    11710 
   12073    11973    11358    10306     9083     8027     7396     7297 
    7701     8530     9735    11233    12892    14542    15957    16950 
   17455    17466    17022    16196    15009    13452    11662     9928 
    8495     7438     6754     6484     6723     7570     9033    10951 
   13077    15222    17320    19381    21388    23282    25003    26478 
   27594    28239    28409    28178    27608    26790    25855    24912 
   24080    23474    23134    23057    23208    23530    23940    24284 
   24426    24342    24053    23630    23215    22879    22527    21970 
   21023    19635    17962    16295    14951    14144    13895    14101 
   14659    15521    16652    18006    19550    21204    22688    23609 
   23742    23117    21893    20266    18373    16283    14126    12172 
   10752    10115    10321    11274    12839    14840    17024    19050 
   20586    21484    21802    21609    20925    19842    18550    17221 
   15920    14623    13326    12140    11245    10819    10967    11684 
   12948    14715    16767    18728    20262    21239    21695    21647 
   21028    19798    18062    16099    14312    13104    12727    13196 
   14365    15972    17680    19312    20958    22725    24616    26524 
   28192    29409    30168    30444    30101    29056    27406    25410 
   23272    20938    18300    15555    13171    11555    10843    10851 
   11222    11733    12401    13289    14356    15531    16722    17752 
   18475    18843    18804    18341    17606    16852    16269    15888 
   15530    14948    14047    12884    11627    10548     9866     9576 
    9526     9583     9691     9867    10172    10667    11420    12509 
   13875    15246    16289    16797    16776    16406    15938    15596 
   15482    15612    16013    16704    17638    18710    19773    20650 
   21250    21625    21892    22157    22404    22433    22053    21321 
   20511    19930    19757    19968    20475    21253    22250    23298 
   24183    24749    24955    24801    24249    23348    22323    21439 
   20814    20399    20113    19929    19850    19991    20553    21604 
   23024    24604    26108    27376    28426    29395    30369    31197 
   31567    31329    30579    29471    28152    26720    25176    23601 
   22215    21168    20479    20129    20051    20148    20401    20898 
   21720    22823    24118    25529    26867    27895    28470    28492 
   27852    26546    24717    22538    20069    17312    14401    11623 
    9279     7576     6604     6361     6846     8039     9784    11803 
   13847    15719    17213    18110    18289    17794    16740    15215 
   13326    11297     9385     7742     6459     5607     5139     4988 
    5241     6024     7295     8876    10595    12329    13985    15489 
   16794    17838    18486    18569    18047    17088    15904    14548 
   13008    11313     9510     7711     6015     4439     3112     2315 
    2288     3133     4673     6477     8249     9942    11519    12902 
   13917    14251    13755    12624    11129     9452     7763     6259 
    5161     4636     4740     5444     6613     8034     9562    11136 
   12682    14164    15607    16986    18181    19056    19536    19648 
   19484    19126    18622    18042    17468    16869    16152    15394 
   14749    14202    13619    12909    12101    11330    10745    10444 
   10494    10896    11546    12343    13317    14519    15830    16985 
   17761    18022    17698    16814    15538    14168    13012    12191 
   11620    11181    10905    11003    11628    12710    14085    15670 
   17544    19863    22589    25371    27777    29512    30446    30574 
   29938    28626    26818    24666    22218    19551    16823    14242 
   12098    10625     9879     9826    10382    11343    12440    13508 
   14574    15803    17306    18958    20461    21612    22425    22977 
   23211    22958    22156    21040    19994    19228    18763    18620 
   18867    19553    20628    21900    23099    24042    24702    25164 
   25557    25959    26342    26612    26720    26656    26397    25901 
   25123    24055    22760    21314    19771    18213    16728    15368 
   14190    13314    12891    12938    13233    13513    13716    13926 
   14196    14493    14803    15246    15958    16875    17791    18516 
   18924    18978    18732    18222    17479    16587    15616    14587 
   13556    12647    11904    11279    10781    10475    10367    10413 
   10589    10935    11513    12324    13318    14424    15567    16725 
   17854    18825    19482    19654    19169    17945    16087    13965 
   12049    10589     9620     9170     9405    10574    12729    15587 
   18769    22021    25155    27913    29992    31228    31674    31466 
   30703    29431    27666    25480    23021    20408    17703    15011 
   12569    10654     9438     8981     9305    10329    11798    13429 
   15093    16745    18305    19674    20756    21419    21506    20992 
   20061    18985    17992    17179    16484    15900    15554    15445 
   15430    15441    15502    15631    15777    15870    15923    16007 
   16130    16199    16114    15866    15565    15380    15381    15482 
   15630    15935    16519    17353    18273    19114    19877    20715 
   21717    22767    23640    24207    24556    24920    25446    26019 
   26406    26530    26502    26449    26374    26166    25784    25306 
   24772    24156    23445    22620    21729    20951    20493    20499 
   20995    21842    22796    23670    24410    25069    25696    26218 
   26483    26435    26125    25564    24735    23778    22955    22428 
   22183    22135    22214    22345    22374    22133    21615    20964 
   20291    19625    18955    18220    17338    16355    15467    14840 
