Origin Time       2011/03/11 14:46:00
Lat.              38.103
Long.             142.860
Depth. (km)       24
Mag.              9.0
Station Code      HKD152
Station Lat.      42.2586
Station Long.     140.2638
Station Height(m) 5
Record Time       2011/03/11 14:48:01
Sampling Freq(Hz) 100Hz
Duration Time(s)  300
Dir.              U-D
Scale Factor      3920(gal)/6182761
Max. Acc. (gal)   4.268
Last Correction   2011/03/11 14:47:46
Memo.             
[...]
   -9789    -9779    -9753    -9713    -9616    -9456    -9282    -9125 
   -8974    -8840    -8749    -8701    -8695    -8732    -8782    -8826 
   -8889    -8988    -9099    -9211    -9334    -9449    -9532    -9577 
   -9574    -9524    -9425    -9264    -9043    -8774    -8481    -8193 
   -7903    -7588    -7281    -7004    -6731    -6474    -6287    -6176 
   -6103    -6057    -6047    -6047    -6033    -6015    -6014    -6034 
   -6071    -6123    -6213    -6364    -6584    -6867    -7172    -7446 
   -7698    -7975    -8250    -8453    -8578    -8642    -8647    -8624 
   -8595    -8549    -8473    -8358    -8218    -8077    -7918    -7722 
   -7493    -7265    -7105    -7034    -7019    -7059    -7188    -7407 
   -7680    -7974    -8252    -8474    -8646    -8819    -9018    -9208 
   -9349    -9428    -9457    -9452    -9404    -9306    -9183    -9058 
   -8930    -8780    -8595    -8393    -8222    -8119    -8050    -7953 
   -7805    -7622    -7435    -7258    -7075    -6867    -6648    -6448 
   -6276    -6130    -6016    -5955    -5937    -5900    -5818    -5726 
   -5643    -5562    -5497    -5442    -5381    -5339    -5328    -5328 
   -5328    -5337    -5374    -5448    -5564    -5725    -5925    -6150 
   -6384    -6610    -6813    -6980    -7095    -7164    -7204    -7201 
   -7133    -7023    -6922    -6857    -6832    -6849    -6901    -6986 
   -7110    -7265    -7407    -7490    -7510    -7481    -7413    -7330 
   -7282    -7301    -7380    -7500    -7643    -7786    -7907    -7997 
   -8082    -8192    -8307    -8403    -8500    -8630    -8792    -8941 
   -9037    -9100    -9156    -9192    -9179    -9106    -8995    -8871 
   -8719    -8528    -8355    -8241    -8154    -8078    -8035    -8022 
   -8017    -8002    -7958    -7881    -7765    -7607    -7427    -7256 
   -7124    -7040    -6962    -6867    -6794    -6752    -6705    -6642 
   -6592    -6577    -6614    -6703    -6812    -6902    -6963    -7002 
   -7009    -6989    -6983    -7015    -7071    -7168    -7341    -7597 
   -7897    -8181    -8425    -8644    -8834    -8994    -9126    -9225 
   -9298    -9369    -9424    -9421    -9367    -9298    -9210    -9116 
   -9058    -9022    -8959    -8877    -8805    -8732    -8643    -8528 
   -8392    -8256    -8137    -8022    -7889    -7760    -7675    -7626 
   -7594    -7592    -7593    -7549    -7456    -7341    -7220    -7103 
   -6994    -6884    -6748    -6599    -6500    -6463    -6432    -6355 
   -6211    -6010    -5776    -5509    -5202    -4874    -4550    -4271 
   -4071    -3946    -3899    -3956    -4120    -4366    -4670    -4991 
   -5271    -5495    -5699    -5890    -6035    -6133    -6220    -6319 
   -6431    -6568    -6741    -6927    -7105    -7273    -7406    -7489 
   -7571    -7688    -7815    -7914    -8002    -8103    -8195    -8239 
   -8226    -8161    -8054    -7942    -7849    -7776    -7725    -7692 
   -7643    -7557    -7451    -7343    -7234    -7137    -7091    -7117 
   -7195    -7281    -7330    -7312    -7244    -7155    -7046    -6940 
   -6893    -6895    -6889    -6877    -6875    -6850    -6796    -6740 
   -6692    -6649    -6593    -6502    -6376    -6249    -6146    -6061 
   -5995    -5959    -5956    -5971    -5957    -5909    -5898    -5971 
   -6101    -6246    -6390    -6556    -6782    -7058    -7347    -7635 
   -7922    -8203    -8467    -8708    -8911    -9047    -9115    -9156 
   -9165    -9120    -9056    -9018    -9003    -9015    -9060    -9111 
   -9176    -9293    -9422    -9492    -9515    -9515    -9472    -9393 
   -9294    -9153    -8955    -8728    -8503    -8291    -8123    -8042 
   -8046    -8109    -8194    -8255    -8307    -8408    -8538    -8631 
   -8671    -8678    -8659    -8614    -8528    -8390    -8238    -8107 
   -8003    -7918    -7830    -7738    -7661    -7600    -7565    -7566 
   -7594    -7629    -7670    -7718    -7779    -7867    -7980    -8067 
   -8097    -8087    -8063    -8043    -8049    -8064    -8039    -7962 
   -7887    -7849    -7824    -7793    -7761    -7728    -7685    -7652 
   -7651    -7649    -7611    -7541    -7431    -7286    -7149    -7037 
   -6936    -6836    -6723    -6579    -6403    -6198    -5977    -5766 
   -5591    -5458    -5345    -5220    -5085    -4967    -4886    -4856 
   -4877    -4936    -5018    -5103    -5183    -5260    -5332    -5398 
   -5470    -5570    -5696    -5836    -5992    -6145    -6264    -6352 
   -6429    -6494    -6554    -6651    -6812    -6997    -7146    -7262 
   -7350    -7389    -7421    -7496    -7590    -7683    -7823    -8017 
   -8207    -8365    -8510    -8657    -8805    -8947    -9070    -9152 
   -9177    -9186    -9222    -9242    -9199    -9126    -9066    -9019 
   -8992    -8982    -8952    -8875    -8785    -8741    -8761    -8822 
   -8896    -8944    -8939    -8899    -8842    -8770    -8711    -8677 
   -8641    -8608    -8594    -8574    -8547    -8546    -8572    -8586 
   -8601    -8656    -8735    -8779    -8760    -8709    -8651    -8587 
   -8530    -8504    -8515    -8543    -8554    -8553    -8570    -8616 
   -8685    -8761    -8826    -8897    -8992    -9082    -9149    -9208 
   -9254    -9279    -9290    -9301    -9324    -9347    -9348    -9333 
   -9325    -9328    -9309    -9222    -9070    -8907    -8775    -8683 
   -8609    -8522    -8417    -8309    -8208    -8123    -8055    -7975 
   -7875    -7801    -7797    -7828    -7826    -7776    -7717    -7695 
   -7725    -7770    -7781    -7770    -7781    -7816    -7850    -7858 
   -7813    -7694    -7538    -7413    -7319    -7194    -7027    -6886 
   -6835    -6891    -7032    -7196    -7326    -7438    -7575    -7707 
   -7765    -7759    -7734    -7696    -7670    -7686    -7720    -7748 
   -7782    -7836    -7906    -7978    -8020    -8006    -7933    -7826 
   -7718    -7601    -7466    -7348    -7272    -7210    -7154    -7129 
   -7147    -7198    -7271    -7362    -7454    -7523    -7572    -7619 
   -7662    -7702    -7742    -7753    -7710    -7639    -7581    -7555 
   -7550    -7561    -7581    -7611    -7657    -7710    -7754    -7771 
   -7776    -7795    -7807    -7776    -7723    -7685    -7668    -7688 
   -7768    -7897    -8052    -8238    -8459    -8684    -8869    -9004 
   -9104    -9193    -9283    -9362    -9400    -9375    -9290    -9187 
   -9095    -8999    -8894    -8801    -8728    -8661    -8580    -8467 
   -8336    -8200    -8025    -7786    -7520    -7281    -7084    -6902 
   -6707    -6503    -6319    -6162    -6013    -5847    -5674    -5535 
   -5430    -5340    -5278    -5252    -5245    -5248    -5284    -5391 
   -5554    -5713    -5861    -6014    -6157    -6274    -6360    -6422 
   -6479    -6541    -6588    -6588    -6522    -6426    -6334    -6238 
   -6169    -6182    -6283    -6461    -6697    -6946    -7204    -7465 
   -7683    -7842    -7973    -8101    -8240    -8377    -8478    -8530 
   -8526    -8474    -8417    -8365    -8276    -8165    -8107    -8125 
   -8179    -8247    -8345    -8475    -8629    -8819    -9018    -9143 
   -9177    -9197    -9242    -9265    -9239    -9202    -9204    -9275 
   -9396    -9501    -9548    -9577    -9632    -9700    -9754    -9816 
   -9924   -10083   -10272   -10464   -10656   -10850   -11016   -11117 
  -11170   -11220   -11290   -11374   -11454   -11504   -11492   -11392 
  -11234   -11077   -10932   -10774   -10580   -10352   -10116    -9907 
   -9727    -9561    -9410    -9279    -9160    -9049    -8948    -8871 
   -8813    -8736    -8595    -8382    -8131    -7881    -7626    -7369 
   -7144    -6970    -6824    -6683    -6544    -6414    -6311    -6244 
   -6219    -6232    -6261    -6291    -6318    -6338    -6349    -6312 
   -6189    -6034    -5924    -5856    -5800    -5776    -5816    -5942 
   -6137    -6358    -6574    -6763    -6912    -7031    -7148    -7277 
   -7406    -7486    -7485    -7427    -7348    -7235    -7066    -6852 
   -6622    -6423    -6291    -6197    -6097    -5982    -5862    -5773 
   -5774    -5889    -6082    -6304    -6542    -6776    -6969    -7118 
   -7220    -7257    -7241    -7205    -7180    -7194    -7248    -7312 
   -7360    -7390    -7412    -7460    -7554    -7679    -7833    -8024 
   -8246    -8502    -8772    -8995    -9159    -9280    -9357    -9402 
   -9424    -9394    -9297    -9153    -8994    -8833    -8652    -8451 
   -8250    -8039    -7820    -7618    -7428    -7249    -7102    -7008 
   -6989    -7020    -7030    -6978    -6875    -6764    -6680    -6616 
   -6579    -6599    -6681    -6798    -6922    -7060    -7257    -7503 
   -7735    -7947    -8147    -8289    -8340    -8310    -8208    -8047 
   -7851    -7643    -7451    -7296    -7192    -7121    -7042    -6960 
   -6927    -6942    -6957    -6976    -7037    -7137    -7250    -7347 
   -7429    -7505    -7570    -7603    -7567    -7448    -7290    -7134 
   -6978    -6826    -6703    -6625    -6578    -6561    -6612    -6749 
   -6943    -7130    -7255    -7325    -7388    -7451    -7495    -7526 
   -7555    -7571    -7585    -7642    -7762    -7942    -8167    -8384 
   -8545    -8669    -8798    -8939    -9068    -9166    -9234    -9304 
   -9390    -9467    -9513    -9525    -9516    -9505    -9501    -9492 
   -9473    -9450    -9437    -9421    -9353    -9229    -9118    -9068 
   -9077    -9117    -9145    -9144    -9141    -9143    -9109    -9014 
   -8884    -8768    -8689    -8645    -8621    -8605    -8604    -8632 
   -8651    -8602    -8518    -8503    -8596    -8750    -8902    -9017 
   -9112    -9221    -9348    -9450    -9488    -9477    -9452    -9408 
   -9348    -9312    -9296    -9242    -9129    -8988    -8851    -8737 
   -8626    -8489    -8328    -8176    -8074    -8039    -8057    -8120 
   -8218    -8316    -8375    -8378    -8324    -8240    -8149    -8055 
   -7948    -7829    -7719    -7638    -7589    -7578    -7593    -7582 
   -7489    -7317    -7118    -6902    -6637    -6341    -6073    -5853 
   -5656    -5471    -5312    -5198    -5154    -5175    -5237    -5325 
   -5435    -5556    -5683    -5829    -5992    -6144    -6273    -6383 
   -6458    -6493    -6498    -6481    -6472    -6520    -6624    -6720 
   -6774    -6801    -6809    -6794    -6752    -6696    -6642    -6563 
   -6430    -6262    -6095    -5966    -5878    -5790    -5686    -5591 
   -5509    -5447    -5437    -5487    -5557    -5611    -5653    -5709 
   -5797    -5890    -5916    -5826    -5671    -5555    -5490    -5427 
   -5377    -5390    -5460    -5553    -5646    -5737    -5842    -5959 
   -6071    -6164    -6233    -6265    -6254    -6216    -6156    -6062 
   -5923    -5756    -5610    -5498    -5392    -5303    -5254    -5216 
   -5159    -5111    -5110    -5176    -5303    -5454    -5592    -5731 
   -5907    -6096    -6233    -6291    -6308    -6310    -6286    -6240 
   -6193    -6141    -6070    -6001    -5974    -6009    -6115    -6283 
   -6476    -6672    -6864    -7015    -7092    -7116    -7135    -7179 
   -7260    -7377    -7506    -7618    -7717    -7839    -8010    -8210 
   -8407    -8594    -8793    -9034    -9305    -9544    -9721    -9856 
   -9969   -10061   -10123   -10152   -10139   -10098   -10070   -10071 
  -10060    -9983    -9843    -9693    -9575    -9498    -9454    -9426 
   -9397    -9372    -9347    -9308    -9278    -9290    -9327    -9349 
   -9337    -9288    -9191    -9025    -8807    -8591    -8404    -8226 
   -8035    -7822    -7612    -7436    -7282    -7100    -6861    -6589 
   -6328    -6113    -5946    -5794    -5608    -5374    -5158    -5036 
   -4981    -4919    -4828    -4720    -4622    -4563    -4539    -4538 
   -4561    -4594    -4604    -4609    -4659    -4741    -4780    -4751 
   -4698    -4645    -4592    -4550    -4511    -4469    -4447    -4465 
   -4511    -4567    -4621    -4684    -4794    -4992    -5290    -5637 
   -5971    -6294    -6635    -6969    -7260    -7518    -7763    -7972 
   -8127    -8253    -8365    -8452    -8526    -8615    -8714    -8803 
   -8906    -9054    -9247    -9484    -9764   -10064   -10354   -10606 
  -10792   -10912   -11003   -11106   -11222   -11305   -11331   -11338 
  -11355   -11380   -11390   -11348   -11251   -11142   -11031   -10902 
  -10749   -10547   -10279    -9995    -9744    -9533    -9338    -9131 
   -8923    -8739    -8561    -8373    -8190    -8017    -7852    -7692 
   -7518    -7325    -7145    -7003    -6885    -6775    -6661    -6537 
   -6430    -6377    -6387    -6442    -6492    -6524    -6592    -6696 
   -6773    -6825    -6915    -7071    -7277    -7512    -7751    -7966 
   -8151    -8307    -8437    -8550    -8636    -8656    -8601    -8515 
   -8443    -8376    -8305    -8256    -8219    -8162    -8097    -8051 
   -8047    -8120    -8258    -8403    -8528    -8643    -8767    -8893 
   -9016    -9161    -9357    -9591    -9839   -10089   -10304   -10461 
  -10570   -10647   -10686   -10681   -10636   -10557   -10445   -10302 
  -10131    -9950    -9780    -9621    -9487    -9409    -9381    -9370 
   -9363    -9355    -9347    -9348    -9368    -9423    -9524    -9648 
   -9740    -9748    -9683    -9616    -9592    -9581    -9549    -9529 
   -9573    -9698    -9892   -10117   -10312   -10455   -10589   -10731 
  -10839   -10890   -10899   -10887   -10863   -10832   -10785   -10692 
  -10544   -10381   -10222   -10024    -9758    -9463    -9175    -8896 
   -8626    -8348    -8018    -7608    -7137    -6658    -6194    -5728 
   -5259    -4790    -4312    -3836    -3389    -2956    -2525    -2121 
   -1758    -1456    -1258    -1175    -1159    -1145    -1114    -1091 
   -1087    -1099    -1131    -1169    -1194    -1240    -1339    -1473 
   -1601    -1708    -1806    -1900    -1987    -2085    -2222    -2423 
   -2721    -3107    -3535    -3974    -4403    -4813    -5235    -5677 
   -6090    -6435    -6738    -7031    -7301    -7520    -7671    -7739 
   -7733    -7708    -7708    -7722    -7739    -7773    -7820    -7864 
   -7900    -7934    -7953    -7931    -7883    -7837    -7799    -7769 
   -7756    -7746    -7712    -7677    -7705    -7778    -7814    -7805 
   -7812    -7880    -8020    -8185    -8282    -8274    -8218    -8178 
   -8166    -8164    -8165    -8181    -8218    -8272    -8347    -8442 
   -8536    -8616    -8689    -8762    -8844    -8949    -9081    -9230 
   -9369    -9456    -9486    -9485    -9456    -9392    -9315    -9256 
   -9223    -9202    -9173    -9123    -9068    -9034    -9015    -8979 
   -8921    -8895    -8928    -8956    -8927    -8873    -8805    -8691 
   -8551    -8414    -8274    -8157    -8106    -8130    -8195    -8265 
   -8350    -8488    -8674    -8868    -9026    -9156    -9300    -9444 
   -9528    -9553    -9587    -9646    -9694    -9741    -9808    -9877 
   -9936    -9963    -9930    -9844    -9735    -9620    -9492    -9334 
   -9165    -9021    -8896    -8764    -8621    -8463    -8277    -8080 
   -7909    -7771    -7652    -7551    -7484    -7438    -7378    -7317 
   -7305    -7327    -7343    -7355    -7375    -7415    -7493    -7609 
   -7732    -7835    -7908    -7978    -8093    -8264    -8479    -8709 
   -8904    -9033    -9121    -9212    -9321    -9415    -9473    -9514 
   -9556    -9598    -9658    -9716    -9717    -9671    -9639    -9630 
   -9609    -9551    -9450    -9312    -9161    -9004    -8823    -8614 
   -8435    -8331    -8246    -8129    -8013    -7916    -7815    -7721 
   -7669    -7633    -7572    -7526    -7531    -7548    -7562    -7602 
   -7656    -7693    -7715    -7721    -7699    -7685    -7715    -7759 
   -7779    -7803    -7885    -8017    -8149    -8269    -8400    -8525 
   -8593    -8603    -8602    -8618    -8661    -8718    -8748    -8743 
   -8723    -8703    -8699    -8722    -8779    -8880    -9014    -9146 
   -9268    -9390    -9515    -9627    -9704    -9761    -9835    -9935 
  -10044   -10138   -10203   -10253   -10320   -10395   -10444   -10468 
  -10471   -10449   -10417   -10383   -10322   -10230   -10118    -9984 
   -9841    -9697    -9538    -9374    -9230    -9109    -9022    -8966 
   -8927    -8925    -8979    -9074    -9193    -9317    -9429    -9532 
   -9633    -9735    -9834    -9917    -9975   -10017   -10046   -10077 
  -10135   -10205   -10244   -10233   -10169   -10060    -9927    -9779 
   -9612    -9445    -9313    -9216    -9112    -8970    -8800    -8624 
   -8460    -8314    -8164    -7986    -7800    -7631    -7482    -7351 
   -7230    -7089    -6911    -6716    -6549    -6416    -6297    -6190 
   -6099    -6018    -5921    -5788    -5690    -5731    -5842    -5861 
   -5803    -5800    -5855    -5873    -5835    -5785    -5748    -5718 
   -5694    -5721    -5813    -5899    -5918    -5907    -5936    -6029 
   -6140    -6205    -6221    -6250    -6320    -6430    -6589    -6785 
   -6976    -7137    -7274    -7404    -7530    -7605    -7605    -7558 
   -7499    -7433    -7343    -7227    -7105    -6965    -6752    -6456 
   -6153    -5926    -5749    -5527    -5302    -5195    -5126    -4948 
   -4764    -4680    -4595    -4431    -4206    -3962    -3735    -3510 
   -3283    -3114    -3006    -2902    -2779    -2652    -2549    -2474 
   -2407    -2357    -2365    -2437    -2553    -2714    -2925    -3177 
   -3453    -3732    -3999    -4265    -4536    -4795    -5024    -5204 
   -5314    -5399    -5538    -5692    -5761    -5816    -5984    -6173 
   -6235    -6244    -6289    -6326    -6327    -6298    -6283    -6343 
   -6464    -6611    -6789    -7008    -7266    -7533    -7774    -8008 
   -8244    -8458    -8667    -8921    -9218    -9506    -9739    -9911 
  -10062   -10215   -10324   -10346   -10338   -10386   -10477   -10548 
  -10573   -10547   -10462   -10324   -10169   -10071   -10027    -9928 
   -9758    -9643    -9566    -9371    -9080    -8851    -8682    -8492 
   -8304    -8209    -8224    -8280    -8345    -8452    -8627    -8848 
   -9031    -9116    -9152    -9190    -9209    -9179    -9108    -9017 
   -8911    -8778    -8645    -8563    -8513    -8446    -8332    -8167 
   -7980    -7778    -7531    -7242    -6932    -6604    -6272    -5930 
   -5548    -5157    -4816    -4518    -4242    -4033    -3918    -3858 
   -3807    -3763    -3770    -3856    -3964    -4036    -4087    -4153 
   -4237    -4323    -4395    -4432    -4430    -4410    -4393    -4387 
   -4391    -4386    -4352    -4291    -4244    -4274    -4375    -4485 
   -4587    -4721    -4910    -5116    -5308    -5500    -5695    -5881 
   -6046    -6187    -6347    -6561    -6794    -7028    -7288    -7562 
   -7850    -8192    -8558    -8882    -9155    -9422    -9709    -9970 
  -10198   -10452   -10718   -10934   -11105   -11262   -11407   -11536 
  -11658   -11797   -11976   -12183   -12392   -12596   -12803   -13007 
  -13153   -13166   -13026   -12817   -12642   -12488   -12309   -12116 
  -11899   -11639   -11375   -11169   -11047   -11000   -10989   -10981 
  -10985   -11034   -11122   -11198   -11248   -11283   -11276   -11207 
  -11109   -11009   -10906   -10840   -10830   -10833   -10831   -10813 
  -10766   -10745   -10798   -10869   -10876   -10821   -10735   -10623 
  -10478   -10310   -10138    -9973    -9805    -9628    -9444    -9264 
   -9118    -9021    -8945    -8868    -8805    -8774    -8822    -8979 
   -9179    -9337    -9462    -9572    -9623    -9595    -9519    -9410 
   -9263    -9091    -8897    -8681    -8507    -8432    -8393    -8338 
