Origin Time       2011/03/11 14:46:00
Lat.              38.103
Long.             142.860
Depth. (km)       24
Mag.              9.0
Station Code      HKD161
Station Lat.      41.6795
Station Long.     140.4334
Station Height(m) 4
Record Time       2011/03/11 14:48:02
Sampling Freq(Hz) 100Hz
Duration Time(s)  258
Dir.              E-W
Scale Factor      3920(gal)/6182761
Max. Acc. (gal)   16.496
Last Correction   2011/03/11 14:47:47
Memo.             
[...]
    4178     4878     5522     5995     6279     6358     6234     5926 
    5414     4662     3692     2645     1676      791     -110    -1128 
   -2303    -3575    -4835    -6002    -7052    -7948    -8599    -8953 
   -9094    -9172    -9281    -9464    -9700    -9913   -10076   -10285 
  -10649   -11120   -11480   -11562   -11384   -11058   -10680   -10238 
   -9632    -8843    -7974    -7093    -6169    -5171    -4167    -3266 
   -2490    -1791    -1160     -668     -356     -167       31      348 
     745     1110     1423     1660     1764     1800     1858     1892 
    1851     1816     1877     2001     2084     2018     1754     1361 
     942      515       12     -619    -1322    -1999    -2638    -3293 
   -4024    -4807    -5506    -5991    -6246    -6338    -6355    -6317 
   -6232    -6245    -6515    -7032    -7663    -8285    -8932    -9713 
  -10616   -11506   -12241   -12779   -13173   -13456   -13614   -13635 
  -13533   -13370   -13268   -13287   -13308   -13177   -12937   -12723 
  -12541   -12303   -11971   -11581   -11177   -10754   -10255    -9632 
   -8935    -8276    -7727    -7285    -6898    -6508    -6120    -5807 
   -5611    -5504    -5440    -5390    -5330    -5231    -5076    -4920 
   -4844    -4809    -4721    -4622    -4571    -4478    -4227    -3806 
   -3284    -2750    -2190    -1481     -590      393     1403     2428 
    3437     4377     5210     5927     6543     7087     7577     7970 
    8218     8350     8434     8468     8352     8045     7588     7014 
    6340     5510     4480     3421     2482     1554      566     -444 
   -1519    -2669    -3790    -4869    -6010    -7249    -8541    -9831 
  -11041   -12082   -12913   -13520   -13824   -13717   -13228   -12532 
  -11756   -10900    -9936    -8896    -7807    -6649    -5400    -4077 
   -2729    -1423     -227      784     1607     2360     3110     3797 
    4404     5006     5634     6217     6664     6947     7069     6984 
    6682     6251     5764     5219     4585     3828     2947     1956 
     866     -268    -1350    -2330    -3202    -3922    -4434    -4706 
   -4711    -4459    -3999    -3345    -2477    -1414     -239      972 
    2234     3567     4861     5950     6821     7583     8247     8711 
    8892     8756     8313     7626     6810     5944     5058     4158 
    3170     2011      695     -785    -2443    -4174    -5862    -7557 
   -9392   -11322   -13185   -14931   -16539   -17995   -19379   -20719 
  -21906   -22892   -23760   -24573   -25327   -25980   -26489   -26829 
  -26969   -26872   -26535   -25985   -25250   -24354   -23349   -22311 
  -21261   -20191   -19165   -18232   -17332   -16377   -15341   -14292 
  -13320   -12375   -11330   -10164    -8930    -7655    -6396    -5239 
   -4202    -3271    -2453    -1776    -1263     -905     -669     -552 
    -601     -873    -1310    -1772    -2235    -2736    -3232    -3715 
   -4279    -4976    -5712    -6334    -6818    -7268    -7823    -8540 
   -9286    -9859   -10250   -10593   -10922   -11159   -11254   -11285 
  -11402   -11725   -12291   -13044   -13877   -14715   -15559   -16413 
  -17197   -17754   -18010   -18054   -18011   -17919   -17733   -17406 
  -16952   -16389   -15719   -14941   -14071   -13164   -12239   -11242 
  -10154    -9018    -7846    -6581    -5213    -3837    -2511    -1179 
     202     1563     2791     3854     4778     5557     6154     6506 
    6584     6471     6252     5903     5359     4588     3579     2402 
    1148     -160    -1520    -2896    -4272    -5639    -6924    -8040 
   -9026    -9984   -10877   -11585   -12105   -12526   -12908   -13258 
  -13509   -13600   -13676   -13952   -14388   -14761   -14950   -14982 
  -14916   -14822   -14718   -14499   -14124   -13732   -13385   -12932 
  -12254   -11452   -10739   -10191    -9740    -9375    -9145    -9020 
   -8961    -9000    -9125    -9264    -9395    -9517    -9557    -9442 
   -9186    -8846    -8450    -7999    -7460    -6793    -6018    -5216 
   -4466    -3814    -3235    -2641    -2011    -1430     -931     -482 
     -62      378      880     1393     1826     2167     2506     2894 
    3255     3574     3945     4360     4738     5087     5476     5900 
    6307     6688     6974     7021     6790     6371     5886     5388 
    4794     4021     3095     2066      977      -76     -976    -1719 
   -2394    -3073    -3793    -4597    -5480    -6354    -7155    -7925 
   -8730    -9577   -10395   -11104   -11759   -12476   -13209   -13796 
  -14145   -14288   -14324   -14307   -14197   -13989   -13770   -13543 
  -13208   -12704   -12002   -11110   -10110    -9022    -7826    -6570 
   -5276    -3902    -2492    -1141      124     1324     2469     3525 
    4414     5092     5594     6036     6508     6953     7276     7454 
    7460     7286     7021     6725     6314     5686     4861     3933 
    2937     1771      338    -1295    -2978    -4629    -6257    -7850 
   -9343   -10728   -12053   -13284   -14268   -14832   -14935   -14726 
  -14380   -13951   -13418   -12761   -11971   -11048    -9974    -8761 
   -7514    -6382    -5473    -4775    -4178    -3641    -3223    -2940 
   -2713    -2470    -2163    -1748    -1243     -732     -265      211 
     800     1548     2369     3098     3634     3993     4250     4497 
    4793     5139     5545     6005     6485     6955     7327     7555 
    7689     7698     7546     7315     7018     6628     6166     5580 
    4835     4043     3307     2644     2021     1367      643     -115 
    -823    -1364    -1665    -1762    -1733    -1593    -1323     -942 
    -477       66      648     1159     1476     1574     1476     1191 
     739      142     -578    -1362    -2163    -2956    -3653    -4161 
   -4503    -4800    -5129    -5507    -5981    -6578    -7194    -7730 
   -8211    -8648    -9021    -9422    -9951   -10578   -11265   -11989 
  -12648   -13149   -13525   -13891   -14290   -14664   -14961   -15152 
  -15226   -15200   -15056   -14789   -14522   -14382   -14376   -14404 
  -14374   -14341   -14388   -14424   -14400   -14401   -14430   -14472 
  -14613   -14896   -15293   -15776   -16324   -16926   -17566   -18223 
  -18857   -19395   -19806   -20118   -20327   -20386   -20282   -20004 
  -19544   -18924   -18142   -17185   -16127   -15116   -14137   -12985 
  -11601   -10071    -8388    -6544    -4618    -2710     -898      828 
    2492     4035     5460     6812     8011     8963     9735    10404 
   10885    11057    10903    10528    10057     9426     8516     7405 
    6199     5018     3995     2983     1799      506     -795    -2054 
   -3292    -4593    -5971    -7390    -8859   -10399   -12019   -13711 
  -15381   -16901   -18256   -19546   -20840   -22133   -23416   -24626 
  -25674   -26530   -27128   -27384   -27271   -26779   -25946   -24833 
  -23476   -21984   -20500   -19048   -17542   -15948   -14312   -12624 
  -10830    -8964    -7101    -5235    -3375    -1630     -125     1100 
    2108     3006     3848     4632     5338     5950     6481     6912 
    7151     7129     6896     6568     6251     5979     5697     5321 
    4815     4196     3455     2581     1682      887      193     -516 
   -1330    -2235    -3178    -4114    -4951    -5599    -6082    -6431 
   -6598    -6580    -6497    -6500    -6641    -6832    -6992    -7159 
   -7385    -7656    -7898    -8087    -8278    -8492    -8728    -9000 
   -9253    -9398    -9397    -9245    -8992    -8725    -8446    -8053 
   -7476    -6753    -5947    -5034    -3972    -2861    -1864     -995 
    -151      702     1494     2142     2615     2904     3041     3162 
    3352     3555     3746     3974     4240     4513     4761     4914 
    4917     4702     4233     3635     3033     2423     1831     1300 
     846      442       39     -334     -594     -668     -542     -324 
     -78      216      519      772      970     1106     1131     1004 
     727      338     -107     -570    -1050    -1583    -2217    -2993 
   -3919    -4917    -5882    -6775    -7604    -8449    -9434   -10573 
  -11760   -12917   -14046   -15089   -15879   -16300   -16406   -16327 
  -16091   -15646   -15027   -14293   -13341   -12043   -10450    -8673 
   -6779    -4824    -2852     -920      895     2581     4210     5841 
    7464     9052    10589    12062    13438    14674    15801    16865 
   17846    18730    19456    19872    19945    19782    19402    18748 
   17796    16552    15081    13521    12011    10608     9263     7909 
    6581     5317     4042     2723     1508      517     -356    -1228 
   -2065    -2872    -3719    -4580    -5352    -5991    -6590    -7264 
   -7990    -8709    -9459   -10266   -11109   -11932   -12608   -13092 
  -13463   -13721   -13862   -13916   -13807   -13546   -13286   -13050 
  -12740   -12321   -11849   -11367   -10836   -10200    -9476    -8712 
   -7901    -6994    -5993    -4953    -3927    -2952    -2063    -1303 
    -720     -307      -13      157      166       55     -138     -409 
    -758    -1247    -1918    -2602    -3055    -3250    -3343    -3443 
   -3498    -3466    -3403    -3297    -3160    -3043    -2845    -2494 
   -2065    -1576    -1009     -361      349     1020     1541     1854 
    1968     1943     1832     1615     1256      768      168     -539 
   -1351    -2260    -3249    -4291    -5391    -6561    -7777    -9018 
  -10281   -11540   -12703   -13652   -14369   -15014   -15768   -16580 
  -17210   -17538   -17621   -17468   -17047   -16407   -15654   -14838 
  -13917   -12929   -11974   -11051   -10139    -9259    -8382    -7474 
   -6564    -5681    -4847    -4090    -3446    -2959    -2588    -2225 
   -1843    -1498    -1245    -1100    -1071    -1152    -1309    -1501 
   -1668    -1732    -1666    -1533    -1442    -1439    -1526    -1715 
   -1947    -2129    -2261    -2386    -2491    -2578    -2755    -3107 
   -3569    -4060    -4600    -5235    -5993    -6856    -7740    -8571 
   -9334   -10071   -10896   -11936   -13179   -14511   -15872   -17308 
  -18868   -20464   -21934   -23231   -24387   -25368   -26102   -26567 
  -26767   -26713   -26435   -25972   -25300   -24374   -23240   -21987 
  -20655   -19276   -17881   -16456   -14967   -13409   -11816   -10192 
   -8531    -6885    -5304    -3765    -2278     -900      408     1730 
    3030     4224     5300     6226     6947     7496     7915     8208 
    8377     8419     8359     8260     8133     7924     7544     6963 
    6247     5423     4425     3238     1960      727     -362    -1286 
   -2090    -2852    -3628    -4433    -5260    -6065    -6827    -7642 
   -8593    -9590   -10506   -11304   -11962   -12420   -12642   -12668 
  -12583   -12466   -12372   -12261   -12018   -11635   -11234   -10843 
  -10392    -9845    -9214    -8541    -7855    -7180    -6568    -6069 
   -5727    -5545    -5463    -5408    -5301    -5132    -5019    -5030 
   -5075    -5067    -4984    -4800    -4463    -3929    -3235    -2496 
   -1799    -1155     -610     -267     -128     -119     -207     -362 
    -544     -717     -810     -793     -793     -901    -1072    -1286 
   -1562    -1912    -2377    -2953    -3600    -4309    -5033    -5665 
   -6161    -6531    -6779    -6942    -7040    -7041    -6993    -7040 
   -7230    -7454    -7584    -7590    -7497    -7324    -7096    -6817 
   -6478    -6108    -5757    -5488    -5329    -5239    -5206    -5248 
   -5330    -5436    -5559    -5610    -5504    -5324    -5269    -5430 
   -5734    -6080    -6410    -6745    -7133    -7537    -7892    -8219 
   -8573    -8927    -9173    -9221    -9093    -8924    -8855    -8848 
   -8710    -8344    -7878    -7546    -7469    -7601    -7852    -8119 
   -8342    -8593    -8929    -9299    -9692   -10081   -10362   -10511 
  -10576   -10551   -10402   -10097    -9644    -9078    -8391    -7600 
   -6775    -5907    -4945    -3899    -2778    -1577     -307     1039 
    2427     3775     5048     6247     7360     8398     9355    10176 
   10809    11182    11236    10990    10504     9798     8835     7586 
    6102     4465     2735      939     -948    -2933    -4931    -6812 
   -8490    -9936   -11166   -12192   -12985   -13538   -13903   -14118 
  -14198   -14151   -13954   -13573   -12987   -12209   -11283   -10237 
   -9081    -7837    -6526    -5156    -3705    -2175     -654      841 
    2397     4011     5613     7194     8696    10017    11165    12225 
   13203    14035    14700    15191    15378    15113    14449    13541 
   12495    11406    10358     9313     8210     7088     5988     4861 
    3648     2379     1114     -152    -1449    -2723    -3930    -5125 
   -6328    -7505    -8669    -9862   -11109   -12406   -13703   -14958 
  -16155   -17219   -18010   -18444   -18514   -18232   -17607   -16650 
  -15358   -13748   -11928   -10066    -8275    -6549    -4879    -3352 
   -2048     -914      132     1020     1591     1804     1737     1507 
    1195      810      392       78      -21       62      209      329 
     381      312       50     -423    -1086    -1922    -2880    -3897 
   -4964    -6110    -7345    -8541    -9472   -10071   -10421   -10560 
  -10504   -10282    -9903    -9380    -8712    -7861    -6822    -5661 
   -4506    -3481    -2627    -1904    -1254     -653     -137      250 
     528      760      935      945      694      174     -527    -1290 
   -2060    -2897    -3898    -5110    -6520    -8140   -10028   -12159 
  -14404   -16658   -18873   -20998   -22972   -24787   -26438   -27843 
  -28951   -29803   -30419   -30734   -30666   -30201   -29415   -28409 
  -27212   -25757   -24022   -22208   -20583   -19050   -17301   -15384 
  -13548   -11844   -10238    -8734    -7313    -5910    -4458    -3004 
   -1620     -271     1033     2178     3129     3982     4795     5511 
    6054     6485     6897     7230     7407     7430     7290     6997 
    6623     6246     5887     5520     5114     4649     4125     3554 
    2937     2243     1443      588     -261    -1131    -2096    -3172 
   -4316    -5486    -6672    -7840    -8860    -9665   -10373   -11088 
  -11780   -12434   -13100   -13811   -14563   -15329   -16072   -16764 
  -17384   -17847   -18099   -18235   -18328   -18361   -18349   -18289 
  -18116   -17790   -17337   -16829   -16351   -15939   -15549   -15117 
  -14599   -13990   -13311   -12527   -11592   -10580    -9650    -8906 
   -8379    -8068    -7938    -7933    -7953    -7898    -7780    -7675 
   -7652    -7773    -8019    -8312    -8625    -8963    -9258    -9420 
   -9372    -9061    -8621    -8257    -7978    -7725    -7433    -6964 
   -6276    -5533    -4857    -4218    -3649    -3232    -2942    -2686 
   -2395    -2077    -1795    -1569    -1380    -1209    -1019     -768 
    -437      -17      486     1009     1478     1880     2181     2293 
    2135     1660      928       40     -978    -2117    -3300    -4458 
   -5614    -6842    -8141    -9365   -10349   -11100   -11702   -12096 
  -12207   -12134   -11976   -11683   -11224   -10651   -10023    -9369 
   -8661    -7871    -7027    -6148    -5192    -4126    -2997    -1890 
    -833      162     1027     1749     2377     2884     3215     3405 
    3510     3539     3419     3080     2583     2028     1404      605 
    -446    -1654    -2812    -3810    -4732    -5697    -6631    -7342 
   -7800    -8144    -8462    -8729    -8922    -9097    -9262    -9327 
   -9264    -9163    -9063    -8941    -8813    -8710    -8636    -8555 
   -8434    -8260    -7986    -7563    -7015    -6386    -5668    -4848 
   -3967    -3138    -2473    -1999    -1658    -1398    -1204    -1085 
   -1062    -1169    -1467    -2012    -2804    -3803    -4922    -6058 
   -7128    -8059    -8793    -9349    -9806   -10212   -10514   -10608 
  -10485   -10205    -9778    -9201    -8523    -7821    -7181    -6625 
   -6096    -5597    -5230    -5030    -4910    -4806    -4732    -4608 
   -4289    -3815    -3283    -2685    -2055    -1465     -973     -641 
    -495     -492     -575     -771    -1105    -1513    -1977    -2549 
   -3238    -4013    -4841    -5696    -6554    -7362    -8054    -8594 
   -8947    -9075    -9001    -8847    -8727    -8635    -8552    -8542 
   -8644    -8856    -9258    -9892   -10619   -11263   -11800   -12266 
  -12624   -12829   -12865   -12723   -12453   -12133   -11726   -11135 
  -10334    -9341    -8150    -6776    -5266    -3635    -1889      -53 
    1848     3771     5644     7410     9056    10545    11777    12696 
   13329    13710    13866    13837    13655    13338    12846    12094 
   11047     9738     8233     6675     5163     3656     2111      561 
    -966    -2493    -4036    -5582    -7099    -8538    -9856   -11041 
  -12135   -13178   -14136   -14927   -15498   -15849   -16019   -16036 
  -15905   -15650   -15302   -14912   -14529   -14145   -13710   -13188 
  -12582   -11915   -11228   -10535    -9791    -8988    -8211    -7562 
   -7094    -6797    -6590    -6408    -6328    -6457    -6750    -7043 
   -7235    -7351    -7456    -7530    -7463    -7210    -6872    -6538 
   -6158    -5655    -5056    -4465    -3985    -3731    -3796    -4159 
   -4758    -5548    -6415    -7263    -8092    -8854    -9451    -9902 
  -10319   -10814   -11382   -11828   -12041   -12162   -12284   -12385 
  -12427   -12349   -12168   -11940   -11671   -11435   -11282   -11107 
  -10837   -10508   -10121    -9619    -8968    -8234    -7527    -6882 
   -6294    -5761    -5213    -4584    -3929    -3379    -3003    -2773 
   -2675    -2752    -2969    -3213    -3461    -3733    -3948    -4058 
   -4158    -4262    -4308    -4384    -4690    -5294    -6032    -6709 
   -7278    -7778    -8229    -8671    -9141    -9592   -10002   -10472 
  -11022   -11521   -11938   -12349   -12770   -13172   -13490   -13585 
  -13400   -13045   -12655   -12286   -11949   -11724   -11666   -11654 
  -11619   -11663   -11788   -11901   -11954   -11914   -11753   -11536 
  -11405   -11392   -11321   -11059   -10649   -10155    -9643    -9205 
   -8861    -8596    -8443    -8444    -8573    -8718    -8787    -8795 
   -8810    -8836    -8748    -8462    -8102    -7804    -7510    -7092 
   -6524    -5901    -5369    -4971    -4613    -4246    -3970    -3887 
   -3985    -4185    -4406    -4626    -4881    -5194    -5493    -5642 
   -5591    -5450    -5373    -5418    -5554    -5754    -6029    -6408 
   -6930    -7587    -8289    -8988    -9699   -10369   -10960   -11504 
  -11991   -12451   -12910   -13215   -13253   -13056   -12606   -11898 
  -11017   -10015    -8881    -7583    -6133    -4581    -2972    -1330 
     332     1997     3628     5111     6359     7444     8454     9351 
   10025    10451    10744    10932    10922    10707    10345     9836 
    9165     8363     7458     6438     5304     4063     2660     1100 
    -471    -1993    -3538    -5053    -6365    -7476    -8533    -9539 
  -10411   -11149   -11732   -12083   -12142   -11868   -11243   -10339 
   -9293    -8136    -6846    -5515    -4261    -3084    -1961     -890 
     173     1251     2298     3302     4254     5104     5844     6494 
    7007     7298     7342     7221     7046     6860     6591     6115 
    5359     4282     2843     1094     -853    -2936    -5073    -7154 
   -9171   -11172   -13201   -15252   -17229   -19040   -20612   -21850 
  -22762   -23471   -24019   -24359   -24478   -24416   -24203   -23792 
