Origin Time       2011/03/11 14:46:00
Lat.              38.103
Long.             142.860
Depth. (km)       24
Mag.              9.0
Station Code      HKD125
Station Lat.      42.7609
Station Long.     142.1344
Station Height(m) 69
Record Time       2011/03/11 14:48:03
Sampling Freq(Hz) 100Hz
Duration Time(s)  300
Dir.              U-D
Scale Factor      3920(gal)/6182761
Max. Acc. (gal)   8.061
Last Correction   2011/03/11 14:47:48
Memo.             
[...]
  -16323   -15907   -15505   -15126   -14977   -15185   -15717   -16545 
  -17654   -18914   -20053   -20816   -21101   -20949   -20472   -19848 
  -19293   -18935   -18750   -18714   -18836   -19088   -19481   -20056 
  -20596   -20657   -20143   -19478   -18966   -18458   -17788   -17089 
  -16653   -16703   -17185   -17725   -17970   -17948   -17868   -17736 
  -17448   -17042   -16629   -16274   -16092   -16272   -16851   -17663 
  -18516   -19277   -19843   -20190   -20369   -20397   -20305   -20220 
  -20245   -20361   -20532   -20764   -21113   -21675   -22488   -23424 
  -24159   -24365   -23959   -23097   -22105   -21370   -21058   -21038 
  -21093   -21064   -20932   -20815   -20759   -20628   -20300   -19845 
  -19454   -19270   -19291   -19375   -19328   -19025   -18519   -17970 
  -17506   -17207   -17147   -17345   -17679   -18043   -18475   -18938 
  -19304   -19665   -20255   -21021   -21656   -22039   -22285   -22436 
  -22436   -22292   -22061   -21860   -21847   -22033   -22242   -22383 
  -22554   -22773   -22824   -22530   -22023   -21644   -21700   -22268 
  -23125   -23909   -24380   -24511   -24443   -24406   -24532   -24652 
  -24478   -23977   -23355   -22831   -22521   -22369   -22252   -22204 
  -22370   -22832   -23583   -24532   -25561   -26612   -27660   -28603 
  -29218   -29254   -28647   -27669   -26759   -26243   -26271   -26771 
  -27415   -27806   -27655   -26801   -25323   -23642   -22203   -21150 
  -20464   -20162   -20278   -20822   -21839   -23326   -25010   -26380 
  -27058   -27077   -26729   -26281   -25854   -25442   -24999   -24510 
  -23963   -23301   -22463   -21455   -20315   -19096   -18022   -17452 
  -17570   -18248   -19139   -19935   -20608   -21242   -21755   -21972 
  -21837   -21486   -21139   -20963   -21018   -21298   -21766   -22306 
  -22739   -23034   -23326   -23652   -23872   -23873   -23698   -23500 
  -23400   -23418   -23519   -23618   -23564   -23336   -23152   -23110 
  -23015   -22672   -22012   -21062   -19948   -18816   -17839   -17176 
  -16823   -16594   -16258   -15684   -14952   -14249   -13643   -13083 
  -12608   -12330   -12304   -12563   -13070   -13638   -14092   -14419 
  -14624   -14623   -14439   -14332   -14582   -15198   -15951   -16606 
  -17070   -17379   -17603   -17770   -17887   -18026   -18252   -18488 
  -18484   -18007   -17113   -16071   -15016   -13967   -13102   -12605 
  -12408   -12354   -12340   -12287   -12216   -12241   -12400   -12562 
  -12550   -12376   -12225   -12237   -12416   -12739   -13218   -13842 
  -14617   -15566   -16606   -17643   -18657   -19483   -19890   -19885 
  -19604   -19142   -18578   -17962   -17337   -16778   -16367   -16160 
  -16138   -16175   -16096   -15789   -15377   -15158   -15297   -15734 
  -16320   -16971   -17641   -18193   -18568   -18827   -18871   -18570 
  -17958   -17081   -16027   -15018   -14312   -14123   -14549   -15471 
  -16680   -18078   -19547   -20793   -21552   -21805   -21663   -21298 
  -21019   -21094   -21413   -21577   -21397   -20987   -20449   -19827 
  -19221   -18683   -18186   -17747   -17488   -17607   -18200   -19154 
  -20300   -21487   -22543   -23408   -24209   -25084   -26033   -26921 
  -27549   -27771   -27617   -27264   -26839   -26330   -25725   -25067 
  -24383   -23759   -23421   -23574   -24220   -25131   -25998   -26634 
  -27040   -27240   -27146   -26697   -25988   -25184   -24439   -23848 
  -23352   -22794   -22121   -21416   -20786   -20355   -20198   -20193 
  -20160   -20103   -20200   -20608   -21322   -22202   -23088   -23939 
  -24881   -25954   -26931   -27600   -27928   -27939   -27706   -27351 
  -26943   -26484   -26000   -25530   -25080   -24688   -24417   -24268 
  -24268   -24481   -24918   -25565   -26309   -26850   -26900   -26388 
  -25471   -24414   -23364   -22232   -20881   -19404   -18149   -17444 
  -17293   -17437   -17650   -17843   -18017   -18274   -18726   -19349 
  -19976   -20444   -20724   -20944   -21310   -21971   -22885   -23864 
  -24715   -25298   -25608   -25819   -26082   -26387   -26680   -26872 
  -26855   -26746   -26735   -26703   -26449   -25975   -25298   -24462 
  -23665   -22996   -22298   -21490   -20733   -20230   -20130   -20477 
  -21106   -21753   -22204   -22336   -22231   -22160   -22346   -22842 
  -23493   -24013   -24256   -24287   -24207   -24122   -24117   -24080 
  -23767   -23137   -22429   -21876   -21560   -21515   -21736   -22144 
  -22670   -23237   -23639   -23713   -23542   -23268   -22922   -22515 
  -22090   -21718   -21540   -21643   -21901   -22095   -22062   -21744 
  -21311   -21148   -21472   -22067   -22540   -22643   -22242   -21277 
  -19928   -18540   -17346   -16490   -16165   -16444   -17115   -17851 
  -18521   -19209   -19935   -20575   -21029   -21285   -21407   -21473 
  -21508   -21417   -21032   -20401   -19828   -19478   -19212   -18881 
  -18505   -18192   -18052   -18052   -17988   -17759   -17543   -17528 
  -17646   -17701   -17601   -17347   -17001   -16715   -16599   -16598 
  -16644   -16694   -16632   -16421   -16303   -16581   -17254   -18061 
  -18763   -19191   -19262   -19127   -19098   -19323   -19690   -20047 
  -20296   -20328   -20150   -19920   -19694   -19376   -18971   -18643 
  -18487   -18456   -18448   -18361   -18153   -17885   -17559   -17009 
  -16044   -14669   -13131   -11848   -11174   -11093   -11256   -11334 
  -11223   -11026   -11001   -11412   -12315   -13548   -14908   -16299 
  -17732   -19284   -20993   -22651   -23868   -24428   -24479   -24324 
  -24234   -24393   -24800   -25273   -25610   -25673   -25393   -24828 
  -24131   -23395   -22637   -21816   -20921   -20197   -19897   -19810 
  -19564   -19144   -18767   -18578   -18569   -18660   -18839   -19242 
  -20033   -21254   -22849   -24690   -26546   -28195   -29530   -30517 
  -31188   -31641   -31970   -32269   -32608   -32889   -32879   -32431 
  -31547   -30409   -29395   -28792   -28471   -28160   -27907   -27945 
  -28269   -28618   -28757   -28604   -28207   -27672   -27036   -26244 
  -25409   -24868   -24751   -24806   -24792   -24720   -24652   -24522 
  -24185   -23487   -22374   -21026   -19737   -18642   -17773   -17272 
  -17225   -17447   -17637   -17641   -17532   -17513   -17760   -18264 
  -18843   -19348   -19832   -20448   -21204   -21958   -22535   -22779 
  -22628   -22207   -21781   -21562   -21593   -21777   -21936   -21924 
  -21724   -21378   -20972   -20716   -20835   -21363   -22197   -23232 
  -24334   -25362   -26287   -27083   -27574   -27616   -27284   -26755 
  -26215   -25878   -25867   -26073   -26267   -26271   -26036   -25743 
  -25685   -25953   -26340   -26628   -26807   -26916   -26878   -26632 
  -26274   -26005   -25968   -26155   -26479   -26918   -27487   -28102 
  -28638   -28977   -28975   -28618   -28015   -27229   -26387   -25657 
  -25062   -24618   -24428   -24413   -24267   -23798   -23066   -22259 
  -21563   -21089   -20829   -20691   -20543   -20284   -19858   -19243 
  -18524   -18004   -18012   -18552   -19327   -20012   -20359   -20222 
  -19621   -18735   -17808   -16985   -16307   -15781   -15300   -14686 
  -13939   -13281   -12900   -12808   -12955   -13306   -13808   -14385 
  -14996   -15662   -16408   -17156   -17665   -17711   -17328   -16781 
  -16423   -16566   -17256   -18155   -18810   -19010   -18860   -18637 
  -18596   -18723   -18694   -18267   -17602   -17017   -16634   -16352 
  -15981   -15428   -14904   -14738   -14938   -15285   -15645   -15875 
  -15868   -15682   -15334   -14863   -14513   -14428   -14595   -15056 
  -15859   -17017   -18475   -20015   -21370   -22354   -22818   -22683 
  -22071   -21253   -20448   -19713   -19049   -18498   -18065   -17718 
  -17479   -17430   -17703   -18353   -19223   -20120   -21003   -21765 
  -22119   -21859   -21075   -20159   -19704   -20111   -21235   -22650 
  -24062   -25312   -26302   -27123   -27972   -28921   -29877   -30682 
  -31212   -31447   -31450   -31306   -31062   -30689   -30022   -28904 
  -27433   -25898   -24468   -23097   -21700   -20273   -18925   -17840 
  -17138   -16771   -16517   -16178   -15916   -16080   -16671   -17354 
  -17879   -18221   -18467   -18705   -18932   -19053   -18950   -18547 
  -17811   -16774   -15616   -14590   -13826   -13311   -12973   -12756 
  -12792   -13386   -14566   -15918   -17040   -17781   -18092   -18087 
  -18093   -18400   -19096   -20150   -21405   -22531   -23228   -23497 
  -23620   -23848   -24210   -24545   -24608   -24329   -23808   -23110 
  -22373   -21797   -21395   -21063   -20715   -20303   -19779   -19056 
  -18156   -17235   -16425   -15755   -15146   -14582   -14219   -14210 
  -14586   -15272   -16073   -16783   -17372   -17952   -18585   -19290 
  -20102   -20881   -21281   -21163   -20722   -20136   -19501   -18971 
  -18743   -18977   -19668   -20609   -21590   -22541   -23354   -23835 
  -23942   -23877   -23863   -23925   -23850   -23391   -22605   -21864 
  -21425   -21195   -20996   -20747   -20405   -20046   -19817   -19724 
  -19655   -19556   -19507   -19646   -19974   -20303   -20512   -20664 
  -20740   -20617   -20398   -20358   -20595   -20985   -21316   -21438 
  -21402   -21328   -21188   -20834   -20127   -19069   -17931   -17045 
  -16491   -16154   -15895   -15608   -15292   -15004   -14720   -14325 
  -13770   -13180   -12699   -12348   -12143   -12172   -12446   -12824 
  -13231   -13758   -14536   -15660   -17167   -18913   -20562   -21786 
  -22491   -22837   -23040   -23226   -23417   -23506   -23345   -22945 
  -22506   -22249   -22297   -22619   -22993   -23187   -23241   -23326 
  -23443   -23526   -23599   -23646   -23526   -23133   -22519   -21822 
  -21146   -20527   -19942   -19292   -18470   -17612   -17043   -16920 
  -17132   -17454   -17648   -17560   -17227   -16781   -16230   -15536 
  -14732   -13799   -12749   -11798   -11239   -11187   -11478   -11873 
  -12255   -12557   -12774   -13052   -13532   -14181   -14900   -15590 
  -16173   -16728   -17411   -18152   -18739   -19096   -19267   -19382 
  -19638   -20043   -20271   -20035   -19430   -18620   -17778   -17261 
  -17202   -17370   -17576   -17743   -17815   -17771   -17591   -17273 
  -16873   -16519   -16299   -16217   -16314   -16591   -17014   -17598 
  -18177   -18356   -18033   -17610   -17584   -18178   -19249   -20422 
  -21485   -22517   -23556   -24450   -25015   -25147   -24909   -24490 
  -23961   -23222   -22288   -21421   -20863   -20582   -20385   -20208 
  -20164   -20321   -20650   -21127   -21732   -22384   -22978   -23459 
  -23789   -23946   -23996   -23964   -23758   -23414   -23149   -23081 
  -23129   -23156   -23013   -22654   -22333   -22337   -22541   -22693 
  -22859   -23174   -23655   -24378   -25291   -26084   -26620   -27086 
  -27507   -27631   -27428   -27121   -26786   -26427   -26175   -26086 
  -26041   -25944   -25846   -25807   -25817   -25858   -25885   -25828 
  -25690   -25481   -25116   -24580   -23988   -23483   -23201   -23150 
  -23095   -22873   -22605   -22413   -22247   -22096   -22016   -21911 
  -21593   -21047   -20463   -19995   -19618   -19295   -19064   -18890 
  -18686   -18353   -17786   -17045   -16377   -15957   -15751   -15657 
  -15707   -15986   -16490   -17190   -18013   -18799   -19425   -19815 
  -19899   -19738   -19555   -19493   -19484   -19443   -19357   -19173 
  -18873   -18591   -18485   -18574   -18771   -18951   -18989   -18886 
  -18826   -19026   -19530   -20140   -20542   -20486   -19937   -19076 
  -18157   -17373   -16806   -16416   -16111   -15947   -16180   -17035 
  -18412   -19874   -21066   -21978   -22733   -23385   -23915   -24248 
  -24309   -24070   -23513   -22637   -21610   -20804   -20493   -20595 
  -20864   -21134   -21329   -21473   -21646   -21882   -22201   -22674 
  -23341   -24120   -24850   -25375   -25587   -25505   -25289   -25069 
  -24734   -24034   -22898   -21545   -20329   -19465   -18886   -18403 
  -17966   -17702   -17736   -18067   -18583   -19150   -19690   -20168 
  -20485   -20511   -20252   -19849   -19391   -18865   -18170   -17104 
  -15553   -13749   -12133   -11021   -10512   -10607   -11256   -12262 
  -13214   -13696   -13579   -13094   -12712   -12794   -13347   -14110 
  -14766   -15208   -15567   -15991   -16607   -17455   -18324   -18917 
  -19169   -19287   -19503   -19888   -20340   -20649   -20735   -20773 
  -20964   -21322   -21681   -21791   -21584   -21309   -21182   -21120 
  -20957   -20639   -20244   -19955   -19881   -20035   -20440   -21044 
  -21659   -22073   -22191   -22088   -21927   -21852   -21917   -22088 
  -22364   -22776   -23256   -23724   -24277   -25041   -25970   -26970 
  -27909   -28558   -28831   -28914   -29044   -29237   -29310   -29092 
  -28489   -27551   -26473   -25373   -24247   -23155   -22232   -21485 
  -20748   -19894   -19026   -18380   -18092   -18158   -18459   -18728 
  -18731   -18468   -18063   -17618   -17298   -17316   -17726   -18415 
  -19284   -20242   -21057   -21591   -22043   -22679   -23500   -24312 
  -24958   -25415   -25749   -26026   -26250   -26300   -26021   -25373 
  -24464   -23472   -22559   -21771   -21016   -20193   -19292   -18389 
  -17632   -17177   -17053   -17040   -16829   -16401   -16107   -16387 
  -17419   -18982   -20642   -22053   -23079   -23785   -24408   -25181 
  -26107   -27004   -27688   -28123   -28418   -28704   -29104   -29642 
  -30193   -30635   -30863   -30812   -30612   -30432   -30230   -29875 
  -29418   -29074   -29021   -29337   -29986   -30822   -31690   -32482 
  -33075   -33258   -32829   -31843   -30657   -29661   -28971   -28411 
  -27711   -26720   -25547   -24415   -23421   -22504   -21523   -20359 
  -19059   -17857   -17005   -16627   -16735   -17280   -18109   -18999 
  -19828   -20580   -21165   -21439   -21432   -21290   -21110   -21021 
  -21131   -21281   -21231   -20996   -20650   -20149   -19552   -19009 
  -18505   -17910   -17258   -16634   -15955   -15125   -14245   -13505 
  -12972   -12561   -12157   -11705   -11200   -10668   -10195    -9866 
   -9685    -9668    -9852   -10149   -10439   -10768   -11298   -12042 
  -12859   -13644   -14300   -14747   -15023   -15217   -15382   -15517 
  -15528   -15350   -15072   -14783   -14466   -14197   -14129   -14282 
  -14594   -15055   -15674   -16468   -17474   -18619   -19623   -20235 
  -20484   -20578   -20684   -20814   -20877   -20838   -20732   -20561 
  -20380   -20359   -20588   -20995   -21478   -21911   -22108   -21962 
  -21543   -21039   -20706   -20770   -21261   -22052   -23052   -24167 
  -25206   -25983   -26379   -26340   -25923   -25269   -24460   -23569 
  -22735   -22038   -21492   -21107   -20875   -20845   -21101   -21597 
  -22163   -22628   -22859   -22762   -22342   -21662   -20799   -19922 
  -19243   -18846   -18620   -18376   -18090   -17884   -17814   -17900 
  -18242   -18852   -19502   -19946   -20187   -20388   -20679   -21135 
  -21769   -22489   -23183   -23774   -24099   -23977   -23452   -22821 
  -22382   -22209   -22191   -22171   -22047   -21844   -21650   -21490 
  -21286   -20969   -20537   -20002   -19432   -19039   -19065   -19552 
  -20311   -21143   -21925   -22530   -22890   -23075   -23210   -23430 
  -23851   -24429   -24920   -25088   -24899   -24489   -24012   -23622 
  -23558   -23952   -24524   -24748   -24331   -23397   -22307   -21452 
  -21003   -20810   -20717   -20766   -20982   -21260   -21527   -21788 
  -22020   -22144   -22055   -21665   -20983   -20161   -19420   -18904 
  -18638   -18623   -18797   -18990   -19075   -19130   -19297   -19601 
  -20026   -20554   -21099   -21538   -21770   -21740   -21495   -21121 
  -20640   -20059   -19472   -19034   -18941   -19377   -20252   -21173 
  -21845   -22239   -22356   -22196   -21913   -21705   -21695   -21944 
  -22386   -22802   -23051   -23268   -23620   -24011   -24221   -24171 
  -24004   -23956   -24165   -24564   -24949   -25176   -25252   -25267 
  -25265   -25140   -24723   -24027   -23232   -22424   -21580   -20661 
  -19672   -18710   -17886   -17224   -16668   -16150   -15618   -15001 
  -14226   -13355   -12614   -12276   -12536   -13342   -14350   -15236 
  -15936   -16514   -16973   -17227   -17211   -17038   -16931   -16996 
  -17226   -17641   -18224   -18870   -19517   -20089   -20448   -20594 
  -20730   -21071   -21720   -22670   -23764   -24732   -25417   -25813 
  -25954   -25931   -25880   -25848   -25747   -25393   -24632   -23577 
  -22574   -21804   -21136   -20378   -19538   -18797   -18326   -18197 
  -18284   -18319   -18130   -17726   -17306   -17107   -17099   -17095 
  -17081   -17183   -17481   -17954   -18532   -19157   -19760   -20245 
  -20498   -20415   -20033   -19583   -19241   -18988   -18803   -18772 
  -18914   -19180   -19570   -20006   -20316   -20493   -20654   -20781 
  -20795   -20750   -20756   -20828   -20896   -20874   -20748   -20675 
  -20901   -21448   -22032   -22425   -22668   -22960   -23520   -24376 
  -25340   -26269   -27087   -27721   -28229   -28688   -29000   -29102 
  -29158   -29256   -29251   -29032   -28592   -27938   -27196   -26510 
  -25876   -25327   -25045   -25102   -25328   -25506   -25522   -25310 
  -24807   -24047   -23242   -22660   -22371   -22184   -21882   -21417 
  -20884   -20413   -20053   -19754   -19506   -19400   -19531   -19887 
  -20367   -20815   -21011   -20829   -20410   -20034   -19872   -19894 
  -19893   -19654   -19192   -18694   -18333   -18246   -18508   -18978 
  -19375   -19607   -19790   -19982   -20254   -20772   -21524   -22312 
  -23030   -23582   -23809   -23780   -23814   -24006   -24108   -23977 
  -23666   -23184   -22612   -22220   -22196   -22481   -22920   -23419 
  -23846   -23956   -23773   -23599   -23405   -23102   -22823   -22434 
  -21726   -20769   -19708   -18672   -17814   -17180   -16576   -15738 
  -14623   -13380   -12243   -11431   -11023   -10912   -10910   -10914 
  -10957   -11152   -11639   -12465   -13476   -14469   -15380   -16165 
  -16709   -16955   -16963   -16858   -16781   -16821   -16936   -17021 
  -17040   -16975   -16712   -16134   -15307   -14444   -13724   -13223 
  -12929   -12726   -12474   -12161   -11869   -11676   -11669   -11908 
  -12373   -13001   -13652   -14116   -14319   -14407   -14579   -14931 
  -15421   -15942   -16492   -17213   -18129   -19043   -19806   -20357 
  -20560   -20310   -19686   -18853   -17997   -17354   -17073   -17050 
  -17079   -17079   -17064   -17014   -16909   -16813   -16805   -16917 
  -17190   -17598   -17999   -18321   -18625   -18858   -18819   -18493 
  -18157   -18091   -18376   -18873   -19323   -19552   -19550   -19392 
  -19106   -18554   -17698   -16880   -16503   -16551   -16660   -16504 
  -16011   -15352   -14808   -14545   -14510   -14604   -14868   -15328 
  -15785   -16002   -15932   -15660   -15315   -15110   -15239   -15652 
  -16114   -16529   -16988   -17524   -17976   -18143   -17969   -17590 
  -17222   -16999   -16955   -17092   -17370   -17637   -17727   -17671 
  -17669   -17858   -18151   -18358   -18464   -18666   -19130   -19862 
  -20725   -21524   -22070   -22199   -21842   -21113   -20204   -19252 
  -18344   -17512   -16654   -15667   -14693   -14044   -13945   -14458 
  -15492   -16721   -17679   -18128   -18218   -18210   -18222   -18286 
  -18410   -18599   -18886   -19314   -19848   -20368   -20785   -21136 
  -21523   -22051   -22810   -23736   -24624   -25415   -26175   -26792 
