Origin Time       2011/03/11 14:46:00
Lat.              38.103
Long.             142.860
Depth. (km)       24
Mag.              9.0
Station Code      HKD184
Station Lat.      42.7898
Station Long.     141.6008
Station Height(m) 69
Record Time       2011/03/11 14:47:57
Sampling Freq(Hz) 100Hz
Duration Time(s)  300
Dir.              N-S
Scale Factor      3920(gal)/6182761
Max. Acc. (gal)   25.941
Last Correction   2011/03/11 14:47:42
Memo.             
[...]
   29774    30767    31050    29983    27733    25190    23230    21942 
   21340    21697    22770    24025    25215    26296    27347    28425 
   29549    30634    31461    31949    31965    31240    30057    29156 
   28726    28338    27795    27550    28179    29408    30250    30315 
   29954    29340    28429    27177    25415    23239    21486    21429 
   23411    26074    27790    28122    27930    28730    30862    32711 
   33094    32650    31875    30276    27967    26002    24837    23834 
   22589    21650    21514    21838    21986    21787    21692    22282 
   23526    24859    26058    27374    28666    29310    29268    29222 
   29369    29120    28133    26974    26478    26772    27407    28234 
   29521    31007    31796    31548    30363    27764    23548    19073 
   16324    16144    18010    20810    23540    25814    27728    29454 
   31284    33376    35078    35474    34791    34286    34769    35918 
   36670    36079    34076    31256    28266    25705    23859    22575 
   21695    21184    21174    22068    24002    26438    28591    29997 
   30563    30386    29901    29530    28909    27596    26157    25502 
   26014    27581    29872    32763    36008    38476    39111    38341 
   37253    35921    33732    30860    28029    25317    22557    20258 
   19115    19269    20279    21513    22893    24674    26234    26574 
   25871    25331    25934    27499    28762    28957    28866    29558 
   31237    33728    36680    39471    41830    43845    45181    45133 
   43313    39846    35426    31193    27482    23188    17910    13333 
   11027    10998    12901    16382    20810    25842    31312    36771 
   41563    44671    45107    43075    39700    35567    30527    24766 
   19248    14613    10700     8104     8162    10933    15115    19278 
   22554    24979    26958    28541    29654    30363    30688    30434 
   29359    27717    26063    24675    23967    24535    26407    28684 
   30043    30369    30958    32084    32583    31807    29740    26293 
   21737    16775    12064     8242     6002     5594     6449     7922 
   10150    13484    17823    23145    29340    35461    40348    43367 
   44429    43838    41651    37885    33344    28738    24111    19956 
   17094    15778    15838    16787    18141    20024    22668    25898 
   29692    34161    38707    42133    43782    43936    43178    41983 
   40665    39009    36479    33339    30620    28797    27551    26515 
   25448    24260    23031    21601    19608    17071    14589    13109 
   13339    15199    18211    22037    26221    30060    33163    35463 
   36583    36153    34526    32305    29700    26864    24279    22475 
   21677    21569    21550    21623    22353    23745    25265    26635 
   27509    27303    26012    24353    22998    22115    21599    21305 
   21175    21543    22925    25117    26991    27702    27468    26732 
   25533    23886    22145    20810    20208    20511    21545    22590 
   23055    23031    22964    23234    23647    23725    23683    23766 
   23449    22333    20381    17679    15044    13627    13762    14938 
   16671    19114    22358    25472    27513    28790    29775    30089 
   29696    29312    28842    27393    25071    23033    21968    21938 
   23496    27111    31477    34541    35558    34624    31977    28413 
   25140    23015    22046    22039    23374    26033    28833    30573 
   30812    29991    29428    29935    30784    31061    30874    30847 
   31508    32721    33342    32412    30327    28346    27929    29816 
   32918    35118    35049    32961    30572    29434    29366    29293 
   28693    27673    26727    26476    26806    26656    25339    23589 
   22687    23241    25174    27870    30369    32030    32604    32168 
   31129    29332    26229    22466    19475    17818    17589    19173 
   22441    26498    30413    33510    35552    36805    37582    38034 
   38095    37210    34626    30342    25407    21018    17748    15829 
   15130    14880    14620    14791    15948    18460    22535    27765 
   33214    37975    41382    42981    42733    41327    39472    36823 
   32546    26599    20118    14885    11845    10282     9158     8322 
    8082     8692    10302    13117    17172    21796    26375    31094 
   35850    39830    42508    43980    44652    44703    43541    40355 
   35613    31278    29032    29009    30644    33516    36951    39939 
   41805    42528    42241    40267    35557    28805    22599    19094 
   18784    20915    24188    27363    29850    32260    35709    40044 
   43465    44319    42996    41098    39160    36718    33540    29855 
   26335    23472    20995    18736    17238    17301    19482    23259 
   27062    30100    32696    34735    35596    35242    34111    32418 
   30398    28629    27340    25957    23870    21251    18830    17127 
   15975    14985    14477    15103    16634    18139    18965    19091 
   19269    20612    23389    26932    30683    34307    37292    38978 
   38686    36081    31403    25404    19510    15406    13948    14755 
   16835    19567    22607    25202    26920    27939    28030    27017 
   25645    24639    23797    22482    20761    19513    19111    19182 
   19571    20202    21019    22659    25654    29388    32729    34950 
   35969    36200    35977    34990    32457    27967    22199    16536 
   12043     8981     6970     5757     5617     6468     7750     9581 
   12445    16046    19819    23765    27953    31751    34370    36207 
   38210    40177    41159    40509    37982    34027    29751    26041 
   22954    20104    17378    14949    13118    12863    15264    19624 
   24158    28226    31654    33763    34637    35101    35468    35641 
   35536    35151    34583    33796    32538    30530    27721    24409 
   21095    18530    17592    18384    19906    21283    22782    25212 
   29015    33975    38830    42013    43279    43213    42184    40684 
   38955    36561    33271    29701    26860    25159    24356    24732 
   26901    30453    34324    37954    41270    44016    45434    44955 
   42813    39129    33773    27554    21671    16912    14325    14365 
   15904    17941    20672    24244    28021    31118    33267    35119 
   37151    38546    38104    35754    32336    28584    25128    22935 
   22941    24982    27745    30203    32324    34298    36036    37260 
   37706    37306    36066    34139    31901    29906    28745    28262 
   27619    26663    26154    26605    27618    28347    28403    28262 
   28537    29153    29471    28728    26430    22839    19061    16524 
   15820    16416    18325    22293    27755    32805    36132    37419 
   36537    33839    30451    27007    23195    19038    15338    12825 
   11632    11684    13035    15572    18674    21474    23801    26299 
   29209    32018    34251    35879    36999    36993    34652    29797 
   23825    18455    14986    14150    15933    20099    26376    33766 
   40855    46621    50074    50161    46818    41124    34083    26223 
   18418    12083     8511     8531    12004    17501    23756    30590 
   37355    42497    45202    45444    43020    38333    32967    28136 
   23804    19907    16924    15131    14623    15632    17816    20033 
   21366    21823    21900    22023    22610    23716    24578    24537 
   23769    22820    22271    22276    22154    21419    20717    20836 
   21771    23349    25638    28558    31699    34352    35601    34896 
   32750    30255    27980    26285    25739    25917    25328    23408 
   21159    20002    20774    23042    25295    26592    27521    28930 
   30513    31290    30972    30284    29951    29733    28909    27452 
   25675    23520    21728    22011    24481    27323    29542    31281 
   32150    31767    30396    28226    25852    24581    25146    27358 
   30744    34651    38523    42400    46327    49531    51188    51128 
   48960    44324    38346    32669    27610    23124    20178    19601 
   20866    22606    23696    24047    24221    24502    25132    26700 
   29711    33890    38045    41165    43289    44933    46323    47224 
   47210    46097    44172    41949    39792    38086    37290    37126 
   36461    34419    30911    26388    21915    19097    18839    20537 
   23366    27175    31480    35276    38192    40658    42765    43862 
   43669    42540    40524    37436    33555    29613    26078    22426 
   18149    14386    12905    14076    16998    20310    22543    23111 
   22944    23372    24779    26802    28963    30618    31207    30851 
   30143    29214    27516    24892    22036    19646    17988    17029 
   16636    16876    17743    18944    20404    22149    23698    24470 
   24294    23273    21802    20182    18316    16369    14670    13258 
   12415    12341    12581    12816    13086    13584    14898    17300 
   20266    23080    24868    24885    23466    21552    19518    17145 
   14174    10839     7948     6197     5976     7405    10036    13276 
   16741    19931    22533    24556    25585    24859    22420    19569 
   17946    18205    19909    22181    23964    24736    24856    24609 
   24164    23944    23943    24000    24436    25320    26280    26901 
   26816    26210    25814    26153    27306    29095    31343    33856 
   36155    37650    37758    36081    33300    31063    30362    30833 
   31395    31150    29967    28135    25911    23889    22854    23123 
   24747    27542    30962    34891    39432    44072    48385    52352 
   55651    57790    58742    59332    60443    61517    61258    59223 
   55581    50871    45822    40437    34450    28200    22500    18629 
   17468    18359    20024    21689    23285    25568    29283    34281 
   39973    45674    50641    54411    56789    57585    56282    52193 
   45628    38121    31081    24935    19329    14112    10221     8797 
   10057    13859    19967    27479    35065    41626    46668    50179 
   52195    52788    51894    49285    45582    42330    40311    38961 
   37544    35788    33560    30694    27210    23461    19972    17056 
   14624    12872    12663    14203    16373    17937    18402    18185 
   18499    20342    23779    28205    32669    36267    38505    39424 
   39626    39742    39747    39306    38396    37073    34911    31277 
   26259    20867    16185    12668    10237     8745     8269     8875 
   10414    12955    16822    21903    27629    33484    38733    42189 
   42990    40973    36608    31299    26567    22667    18993    15240 
   11363     7313     3628     1325      713     1353     2943     5183 
    7499     9437    10947    12319    13597    14591    15622    17137 
   19066    21186    23404    25767    28330    30845    32977    34801 
   36488    37607    37343    35153    31097    25994    20813    16041 
   12192     9733     8488     8365     9818    12745    16250    19643 
   22721    25835    29697    34103    37990    41153    44035    46123 
   46606    45942    45019    43628    41250    38405    35923    33713 
   31204    28228    25046    22076    19306    16399    14018    13572 
   15476    19207    24156    29517    34595    39048    42415    44592 
   45906    45902    43611    39033    33236    27452    22370    18226 
   15365    13958    13622    13923    14517    14846    14278    12846 
   11483    10688     9897     8667     7370     6825     7526     9229 
   11666    15029    19439    24403    29019    32566    34387    34090 
   32469    30854    30055    30561    32136    33438    33229    31358 
   28270    24249    19642    15145    11008     6742     2394     -804 
   -1665      -98     2934     6369    10186    14675    19198    22834 
   25270    26776    28115    30167    33358    37453    41335    43584 
   43637    41527    37278    30972    22710    12985     3188    -4917 
   -9932   -11009    -8011    -1473     7503    17025    25408    32771 
   40079    47188    52891    56181    57105    56231    53610    48982 
   42595    35450    28565    22136    16021    10623     6679     4658 
    4722     7208    12411    19381    26281    32333    37956    43093 
   46646    47764    46769    44490    41445    37910    34385    31550 
   29561    27956    26595    25985    26265    26706    26668    26347 
   26398    27099    28087    28954    29765    30773    31930    32976 
   34023    35509    37511    39732    41967    44036    45447    45573 
   44205    41555    38053    34466    31488    29279    27624    26077 
   24434    23051    21929    20335    17730    14310    10886     8762 
    9241    12681    18221    24529    30475    35385    39310    42622 
   44853    45056    43273    40337    37004    33800    30765    27550 
   23884    19785    15784    12481     9615     6421     3012      636 
     271     1630     3857     6349     8772    11109    14031    18620 
   24658    29977    32776    33238    32406    30998    29158    26601 
   23179    19221    15316    11933     9301     7755     7904    10019 
   13714    18388    23121    26779    29298    31602    33940    35507 
   35450    33893    31910    30446    29668    29222    28819    28469 
   28063    27322    26293    25179    23848    22360    21307    20937 
   21037    21364    21544    21803    22905    24671    26283    27408 
   28232    29530    32089    35742    39695    42997    44849    45255 
   44691    43366    41281    38421    35225    32874    32227    32976 
   34256    35350    35970    36560    38155    41505    46499    52531 
   58887    64479    67828    68050    65578    61465    56538    51570 
   47535    44844    42820    40833    39042    37392    35397    33112 
   31087    29799    29103    28158    26993    27036    29066    32295 
   35688    38628    40435    40558    39207    37140    34826    32279 
   29559    26706    23640    20493    17135    13228     9367     6748 
    5851     6088     6378     6129     5606     5420     6054     7749 
   10517    14260    18547    22356    25001    26744    27866    28133 
   27231    25414    23647    22732    22645    22772    22420    21527 
   20819    20956    21963    23191    23653    23052    21950    20750 
   19515    18438    17829    17783    18214    19247    20959    22679 
   23565    23617    23145    22063    20436    18690    17240    16549 
   17051    18600    20261    21272    21963    23006    24327    25313 
   25746    26041    26625    27402    27818    27427    26406    25240 
   24107    23004    22090    21396    20757    20292    20478    21867 
   24472    27431    30103    33024    36599    39965    42287    43547 
   44012    44235    44614    44872    44534    43242    40964    38155 
   35396    33347    32521    32689    33450    34902    37153    40015 
   42921    44992    46134    47191    48596    50120    51251    51111 
   49112    45769    42271    39338    36681    33904    31390    29440 
   27839    26760    26585    27138    28269    30274    32966    35411 
   36923    37505    37273    36192    34359    32045    29826    28620 
   28940    30509    32452    33571    33202    31634    29528    27458 
   25738    24537    23964    23715    23174    22182    21354    21476 
   22678    24575    26785    28968    31134    33575    35977    37535 
   37757    36810    35591    34902    34743    34806    34609    33662 
   32375    31330    30038    28013    25617    23161    20756    18559 
   16489    14691    13735    13839    14841    16339    17610    18593 
   19948    21531    22420    22124    20790    19120    18199    18595 
   19873    21024    21281    20784    19991    18848    17434    16463 
   16351    16692    17139    17876    18965    20267    21881    23907 
   26320    29051    31787    34134    35737    36204    35394    33517 
   30888    27976    25248    22748    20463    18993    19083    20703 
   23240    26226    29249    31709    33256    33819    32970    30193 
   25988    21813    18935    17891    18412    19492    20244    20766 
   21611    22793    24050    25412    26693    27526    28361    30108 
   32754    35454    37623    39179    40157    40559    40455    40012 
   39381    38800    38676    39181    39964    40368    39873    38505 
   36713    34789    32781    30841    29419    29277    31150    35239 
   40973    47047    51861    54126    53584    51273    48338    44866 
   40246    34203    27573    21646    16716    12353     8528     5687 
    4564     5849     9485    14653    20348    25597    29869    33391 
   36497    39394    42323    44973    46727    47749    48718    49565 
   49407    47719    44714    40704    35899    30946    26925    24203 
   22116    20191    19068    19954    23111    27502    31893    35319 
   37304    38201    38511    38228    37098    35081    32666    30588 
   28994    27229    24567    20868    16523    12184     8596     6190 
    4816     4401     5473     8192    11839    15984    20623    25174 
   28846    31229    31940    30883    28211    23698    17512    10870 
    5008      491    -2493    -4104    -5134    -6339    -7262    -6776 
   -4576    -1289     2303     5813     9422    13426    17707    21770 
   24819    26191    26312    26328    26643    27041    27600    28114 
   27748    26428    25143    24333    23415    21675    18996    16183 
   14440    14312    15359    16919    19044    22445    27790    35035 
   43058    50027    54258    54945    52438    47829    42294    36578 
   30904    25582    21367    19133    19443    22109    26176    30419 
   34114    37471    40648    42816    43518    43683    44004    44246 
   44345    44472    44873    45690    46392    46592    46492    45854 
   44290    41988    39234    36131    32765    29408    26636    24797 
   23791    23651    24274    25272    26876    29333    31909    33832 
   34761    34596    33776    32933    32384    31973    30944    28706 
   25771    23312    21933    21195    20376    19309    18178    17255 
   17055    17818    19252    21176    23483    25699    27153    27368 
   26373    24738    23180    22155    21669    21315    20756    20030 
   19106    18038    17527    18090    19285    20328    20621    19950 
   18894    18515    19158    20496    22518    25068    27443    29294 
   30660    31214    30332    27864    24512    21190    18308    15959 
   14375    13631    13230    12754    12278    11686    10785     9703 
    8325     6481     4831     4315     4790     5207     5132     5153 
    5741     6865     8676    11325    14235    16454    17743    18676 
   19440    19574    18871    17561    16159    15239    14897    14895 
   15330    16528    18192    19841    21817    24359    27094    29812 
   32186    33922    35556    37726    40515    44071    48248    51830 
   53506    52802    49805    45159    40132    36097    33582    31980 
   30536    29212    28408    28049    27947    28736    30757    33317 
   35798    38165    40808    43864    46644    48443    49347    49927 
   50544    51098    51463    51431    50029    46169    40052    33216 
   27630    24356    22822    22327    23085    25138    28028    31282 
   34371    36796    38069    38011    37232    36422    35645    34832 
   34143    33765    33550    33101    32286    30799    28102    24371 
   20247    16426    13573    11883    11193    11293    12293    14577 
   17902    21257    23642    24365    22981    20057    17320    15718 
