Origin Time       2011/03/11 14:46:00
Lat.              38.103
Long.             142.860
Depth. (km)       24
Mag.              9.0
Station Code      HKD180
Station Lat.      43.1391
Station Long.     141.3513
Station Height(m) 3
Record Time       2011/03/11 14:49:01
Sampling Freq(Hz) 100Hz
Duration Time(s)  225
Dir.              U-D
Scale Factor      3920(gal)/6182761
Max. Acc. (gal)   4.945
Last Correction   2011/03/11 14:48:46
Memo.             
[...]
  -17304   -17168   -17117   -17090   -17067   -17001   -16802   -16520 
  -16276   -16114   -16021   -15952   -15910   -15926   -15911   -15739 
  -15425   -15090   -14886   -14869   -14907   -14871   -14826   -14910 
  -15067   -15098   -14991   -14920   -14967   -15108   -15240   -15172 
  -14964   -14980   -15338   -15809   -16189   -16346   -16233   -16001 
  -15888   -15970   -16126   -16269   -16457   -16738   -17046   -17287 
  -17370   -17255   -17119   -17157   -17299   -17430   -17553   -17597 
  -17486   -17309   -17141   -16968   -16795   -16591   -16365   -16296 
  -16487   -16796   -17013   -17046   -16970   -16963   -17090   -17211 
  -17168   -16965   -16697   -16493   -16507   -16738   -16963   -16987 
  -16856   -16774   -16875   -17108   -17266   -17172   -16913   -16797 
  -16960   -17192   -17253   -17055   -16600   -16022   -15586   -15444 
  -15503   -15582   -15576   -15482   -15379   -15389   -15589   -15901 
  -16186   -16457   -16817   -17251   -17618   -17773   -17674   -17465 
  -17379   -17461   -17507   -17361   -17118   -16895   -16647   -16305 
  -15917   -15589   -15440   -15518   -15698   -15796   -15770   -15663 
  -15526   -15426   -15363   -15251   -15108   -15005   -14841   -14514 
  -14181   -14086   -14281   -14608   -14883   -15056   -15144   -15151 
  -15113   -14941   -14569   -14291   -14365   -14643   -14929   -15152 
  -15284   -15342   -15338   -15272   -15146   -14962   -14836   -14894 
  -15062   -15163   -15034   -14641   -14216   -13990   -13914   -13888 
  -13909   -13928   -13933   -14021   -14169   -14231   -14202   -14209 
  -14340   -14605   -14920   -15161   -15323   -15471   -15583   -15595 
  -15465   -15175   -14827   -14629   -14646   -14707   -14644   -14488 
  -14378   -14435   -14694   -15009   -15190   -15270   -15383   -15550 
  -15739   -15933   -16154   -16406   -16545   -16450   -16247   -16129 
  -16145   -16228   -16235   -16090   -15937   -15928   -15999   -16047 
  -16110   -16276   -16521   -16700   -16679   -16480   -16342   -16514 
  -16936   -17310   -17494   -17590   -17744   -17990   -18232   -18376 
  -18456   -18562   -18716   -18922   -19149   -19264   -19181   -19014 
  -18910   -18931   -19101   -19267   -19214   -18988   -18782   -18676 
  -18639   -18624   -18622   -18631   -18706   -18886   -19023   -18992 
  -18898   -18845   -18810   -18841   -19043   -19387   -19719   -19916 
  -19972   -19972   -20034   -20222   -20430   -20489   -20416   -20366 
  -20412   -20535   -20676   -20789   -20891   -20930   -20831   -20699 
  -20697   -20767   -20722   -20536   -20381   -20370   -20467   -20641 
  -20872   -21040   -21018   -20778   -20440   -20278   -20456   -20807 
  -21068   -21188   -21242   -21257   -21209   -21137   -21134   -21188 
  -21188   -21164   -21260   -21463   -21550   -21369   -21054   -20830 
  -20747   -20738   -20784   -20926   -21223   -21620   -21901   -21968 
  -22001   -22180   -22451   -22641   -22683   -22717   -22853   -22957 
  -22872   -22618   -22294   -21975   -21697   -21485   -21350   -21236 
  -21035   -20698   -20298   -19951   -19704   -19505   -19256   -18944 
  -18641   -18373   -18110   -17893   -17792   -17780   -17805   -17895 
  -18031   -18103   -18058   -17917   -17757   -17719   -17843   -17974 
  -17990   -17910   -17742   -17497   -17284   -17146   -17002   -16826 
  -16653   -16458   -16202   -15932   -15671   -15376   -15077   -14845 
  -14671   -14532   -14442   -14377   -14329   -14377   -14584   -14905 
  -15237   -15452   -15466   -15381   -15373   -15418   -15380   -15283 
  -15279   -15447   -15695   -15841   -15735   -15378   -14973   -14741 
  -14683   -14683   -14724   -14783   -14804   -14831   -14902   -14924 
  -14849   -14774   -14809   -15004   -15330   -15633   -15799   -15877 
  -15905   -15895   -15884   -15846   -15787   -15826   -15931   -15922 
  -15808   -15726   -15692   -15699   -15774   -15926   -16114   -16259 
  -16282   -16102   -15679   -15187   -14861   -14719   -14716   -14888 
  -15174   -15446   -15640   -15763   -15923   -16232   -16661   -17089 
  -17416   -17643   -17881   -18165   -18351   -18362   -18330   -18375 
  -18477   -18571   -18571   -18402   -18124   -17909   -17846   -17908 
  -17980   -17920   -17707   -17470   -17339   -17343   -17399   -17408 
  -17339   -17254   -17234   -17294   -17382   -17457   -17543   -17685 
  -17864   -18066   -18289   -18457   -18495   -18422   -18318   -18226 
  -18107   -17871   -17472   -16991   -16620   -16457   -16345   -16076 
  -15672   -15315   -15131   -15071   -14978   -14803   -14678   -14704 
  -14806   -14823   -14715   -14591   -14543   -14560   -14581   -14546 
  -14497   -14526   -14609   -14682   -14798   -15013   -15240   -15337 
  -15315   -15341   -15488   -15628   -15581   -15266   -14822   -14485 
  -14274   -14038   -13723   -13405   -13235   -13308   -13547   -13858 
  -14204   -14498   -14693   -14875   -15143   -15528   -15922   -16107 
  -16036   -15898   -15847   -15923   -16103   -16253   -16288   -16301 
  -16370   -16441   -16462   -16420   -16286   -16115   -16071   -16212 
  -16404   -16523   -16576   -16625   -16701   -16783   -16841   -16860 
  -16844   -16845   -16932   -17092   -17271   -17410   -17445   -17379 
  -17277   -17187   -17162   -17244   -17420   -17639   -17817   -17891 
  -17846   -17686   -17427   -17115   -16805   -16571   -16442   -16344 
  -16217   -16095   -16076   -16240   -16562   -16909   -17144   -17238 
  -17212   -17065   -16908   -16911   -17031   -17122   -17183   -17210 
  -17149   -17098   -17206   -17416   -17540   -17491   -17294   -17063 
  -16934   -16852   -16628   -16240   -15847   -15581   -15507   -15562 
  -15605   -15697   -16029   -16588   -17162   -17545   -17729   -17849 
  -17965   -18007   -17936   -17839   -17813   -17892   -18083   -18323 
  -18501   -18608   -18705   -18812   -18960   -19247   -19668   -20024 
  -20177   -20175   -20039   -19828   -19751   -19873   -20084   -20344 
  -20604   -20791   -20955   -21108   -21157   -21161   -21277   -21527 
  -21832   -22077   -22235   -22392   -22554   -22669   -22710   -22671 
  -22571   -22455   -22393   -22315   -22078   -21735   -21366   -20967 
  -20609   -20338   -20147   -20044   -19989   -19914   -19796   -19609 
  -19356   -19118   -18945   -18845   -18866   -19044   -19306   -19520 
  -19633   -19687   -19732   -19787   -19787   -19629   -19357   -19150 
  -19060   -18950   -18722   -18484   -18412   -18503   -18601   -18624 
  -18601   -18567   -18578   -18647   -18696   -18681   -18671   -18696 
  -18677   -18592   -18585   -18765   -19003   -19079   -18965   -18846 
  -18848   -18868   -18774   -18597   -18457   -18473   -18669   -18910 
  -19060   -19174   -19348   -19483   -19475   -19436   -19496   -19655 
  -19802   -19709   -19338   -19009   -18914   -18888   -18787   -18679 
  -18719   -18986   -19356   -19644   -19760   -19696   -19536   -19433 
  -19512   -19773   -20070   -20227   -20172   -19964   -19717   -19486 
  -19260   -19017   -18803   -18666   -18485   -18095   -17549   -17013 
  -16596   -16343   -16232   -16191   -16145   -16006   -15728   -15425 
  -15254   -15230   -15257   -15170   -14903   -14610   -14382   -14172 
  -14048   -14085   -14198   -14276   -14262   -14191   -14206   -14363 
  -14537   -14571   -14431   -14280   -14316   -14543   -14768   -14786 
  -14564   -14210   -13819   -13464   -13205   -12966   -12674   -12410 
  -12225   -12035   -11782   -11528   -11389   -11423   -11574   -11722 
  -11794   -11867   -12073   -12367   -12566   -12585   -12440   -12180 
  -11925   -11806   -11842   -11957   -12070   -12130   -12100   -12021 
  -12046   -12192   -12249   -12101   -11900   -11846   -11988   -12270 
  -12617   -12923   -13117   -13255   -13374   -13422   -13430   -13458 
  -13456   -13441   -13561   -13868   -14257   -14642   -15025   -15411 
  -15765   -16070   -16308   -16413   -16412   -16389   -16298   -16123 
  -15981   -15901   -15776   -15529   -15211   -14947   -14853   -14985 
  -15231   -15411   -15581   -15892   -16275   -16589   -16803   -16933 
  -17089   -17371   -17672   -17819   -17836   -17827   -17780   -17679 
  -17550   -17371   -17173   -17048   -17011   -17006   -16977   -16877 
  -16730   -16705   -16888   -17157   -17415   -17569   -17517   -17380 
  -17327   -17311   -17314   -17397   -17453   -17400   -17403   -17587 
  -17837   -17972   -17893   -17648   -17406   -17284   -17252   -17201 
  -17055   -16798   -16498   -16353   -16497   -16802   -17064   -17147 
  -17021   -16840   -16721   -16607   -16499   -16441   -16347   -16158 
  -15967   -15807   -15619   -15422   -15276   -15236   -15343   -15499 
  -15616   -15757   -15961   -16196   -16428   -16618   -16683   -16585 
  -16458   -16457   -16575   -16687   -16732   -16710   -16589   -16399 
  -16211   -16042   -15914   -15869   -15914   -15998   -16062   -16064 
  -15978   -15836   -15705   -15620   -15556   -15489   -15458   -15500 
  -15610   -15792   -15996   -16094   -16067   -16045   -16097   -16163 
  -16213   -16247   -16266   -16326   -16427   -16457   -16329   -16050 
  -15724   -15501   -15417   -15424   -15527   -15697   -15857   -16000 
  -16083   -16066   -16042   -16072   -16109   -16081   -15953   -15823 
  -15807   -15883   -15993   -16121   -16225   -16269   -16304   -16392 
  -16482   -16469   -16327   -16157   -16078   -16091   -16064   -15871 
  -15629   -15568   -15683   -15883   -16127   -16301   -16402   -16596 
  -16893   -17137   -17282   -17345   -17320   -17291   -17354   -17486 
  -17666   -17864   -17980   -18017   -18085   -18205   -18343   -18494 
  -18651   -18794   -18866   -18764   -18521   -18311   -18231   -18279 
  -18429   -18615   -18803   -19006   -19154   -19194   -19130   -18903 
  -18624   -18622   -19000   -19622   -20334   -20898   -21162   -21236 
  -21250   -21237   -21244   -21317   -21479   -21739   -22041   -22274 
  -22387   -22387   -22265   -22072   -21940   -21941   -22037   -22164 
  -22264   -22322   -22405   -22573   -22789   -22927   -22876   -22697 
  -22555   -22521   -22570   -22602   -22453   -22075   -21622   -21276 
  -21082   -20994   -20921   -20766   -20546   -20399   -20328   -20193 
  -19984   -19787   -19640   -19614   -19661   -19579   -19327   -19000 
  -18636   -18320   -18167   -18179   -18245   -18215   -18063   -17923 
  -17884   -17921   -17964   -17927   -17781   -17580   -17418   -17381 
  -17479   -17623   -17718   -17735   -17726   -17793   -17920   -17992 
  -18034   -18145   -18315   -18493   -18627   -18698   -18750   -18792 
  -18820   -18878   -18902   -18825   -18787   -18871   -18944   -18991 
  -19086   -19117   -19025   -18940   -18927   -18982   -19056   -18993 
  -18809   -18658   -18531   -18397   -18277   -18074   -17757   -17482 
  -17317   -17192   -17058   -16912   -16809   -16781   -16752   -16644 
  -16415   -16068   -15728   -15590   -15644   -15629   -15389   -15045 
  -14755   -14604   -14638   -14741   -14713   -14513   -14225   -13959 
  -13836   -13871   -13921   -13848   -13626   -13313   -13061   -13010 
  -13083   -13064   -12860   -12558   -12395   -12591   -13112   -13744 
  -14250   -14454   -14398   -14243   -14100   -14066   -14144   -14200 
  -14148   -14046   -14028   -14215   -14630   -15106   -15371   -15370 
  -15322   -15402   -15612   -15837   -15954   -15985   -16034   -16144 
  -16346   -16601   -16762   -16796   -16823   -16884   -16928   -16960 
  -17030   -17177   -17433   -17754   -17975   -17948   -17708   -17495 
  -17581   -17991   -18450   -18711   -18815   -18970   -19299   -19723 
  -20097   -20316   -20215   -19813   -19397   -19126   -19052   -19171 
  -19284   -19238   -19151   -19205   -19391   -19522   -19511   -19443 
  -19411   -19444   -19541   -19648   -19699   -19709   -19759   -19863 
  -19894   -19728   -19382   -18984   -18728   -18705   -18744   -18654 
  -18468   -18363   -18472   -18740   -19015   -19201   -19211   -18999 
  -18653   -18324   -18141   -18113   -18127   -18100   -18041   -18008 
  -18129   -18412   -18643   -18651   -18485   -18355   -18375   -18418 
  -18423   -18445   -18479   -18568   -18696   -18720   -18623   -18547 
  -18617   -18802   -18939   -18930   -18773   -18541   -18344   -18157 
  -17942   -17799   -17739   -17686   -17696   -17771   -17784   -17728 
  -17646   -17506   -17407   -17488   -17713   -18016   -18390   -18758 
  -19035   -19206   -19277   -19295   -19341   -19381   -19318   -19157 
  -18946   -18699   -18444   -18227   -18072   -17997   -18039   -18093 
  -18022   -17972   -18066   -18208   -18343   -18365   -18144   -17763 
  -17407   -17148   -16938   -16756   -16633   -16581   -16566   -16517 
  -16384   -16201   -16045   -15948   -15885   -15864   -15933   -16075 
  -16161   -16102   -15953   -15789   -15649   -15616   -15710   -15774 
  -15708   -15591   -15433   -15206   -15050   -15053   -15055   -14948 
  -14856   -14840   -14795   -14695   -14544   -14286   -13990   -13819 
  -13757   -13691   -13628   -13573   -13554   -13681   -13831   -13798 
  -13694   -13632   -13549   -13437   -13319   -13197   -13104   -13037 
  -12919   -12675   -12327   -11996   -11783   -11660   -11521   -11331 
  -11172   -11106   -11087   -11045   -10960   -10838   -10707   -10620 
  -10591   -10607   -10686   -10835   -10987   -11086   -11167   -11266 
  -11330   -11310   -11222   -11110   -11026   -11012   -11050   -11044 
  -10898   -10652   -10474   -10416   -10288   -10021    -9857    -9864 
   -9907   -10024   -10141   -10109   -10049   -10017    -9957    -9926 
   -9889    -9777    -9627    -9462    -9336    -9330    -9419    -9532 
   -9641    -9715    -9754    -9839    -9991   -10128   -10201   -10239 
  -10310   -10421   -10479   -10391   -10189   -10019   -10028   -10225 
  -10469   -10631   -10728   -10835   -10962   -11097   -11273   -11481 
  -11647   -11775   -11947   -12179   -12396   -12553   -12692   -12918 
  -13228   -13433   -13510   -13642   -13784   -13868   -14048   -14257 
  -14314   -14310   -14366   -14537   -14818   -15038   -15089   -15053 
  -15032   -15105   -15247   -15303   -15260   -15277   -15396   -15530 
  -15680   -15919   -16227   -16492   -16656   -16765   -16907   -17146 
  -17430   -17594   -17608   -17661   -17876   -18191   -18548   -18911 
  -19185   -19308   -19282   -19141   -19041   -19186   -19563   -19954 
  -20131   -20041   -19915   -20041   -20367   -20615   -20795   -21072 
  -21333   -21484   -21624   -21683   -21624   -21577   -21514   -21432 
  -21442   -21466   -21345   -21086   -20805   -20645   -20649   -20731 
  -20821   -20853   -20761   -20596   -20454   -20358   -20316   -20365 
  -20510   -20693   -20815   -20817   -20774   -20787   -20839   -20906 
  -21031   -21169   -21190   -21080   -20951   -20894   -20929   -21007 
  -21012   -20897   -20769   -20699   -20614   -20544   -20616   -20699 
  -20622   -20572   -20674   -20760   -20811   -20840   -20674   -20275 
  -19797   -19428   -19261   -19172   -19066   -18961   -18822   -18692 
  -18669   -18728   -18819   -18881   -18813   -18660   -18556   -18554 
  -18626   -18686   -18674   -18634   -18603   -18564   -18469   -18293 
  -18178   -18271   -18491   -18724   -18929   -19024   -19004   -18979 
  -18965   -18924   -18849   -18725   -18597   -18500   -18420   -18421 
  -18536   -18627   -18545   -18373   -18328   -18392   -18435   -18526 
  -18665   -18729   -18767   -18875   -19095   -19417   -19688   -19792 
  -19800   -19779   -19743   -19737   -19798   -19907   -20003   -20087 
  -20230   -20401   -20508   -20586   -20700   -20834   -20992   -21198 
  -21410   -21601   -21754   -21781   -21617   -21324   -21071   -21053 
  -21281   -21576   -21815   -21973   -22012   -21963   -21873   -21721 
  -21525   -21322   -21157   -21148   -21245   -21270   -21291   -21358 
  -21234   -20924   -20721   -20650   -20561   -20443   -20335   -20230 
  -20129   -20048   -20004   -20022   -20095   -20143   -20109   -20039 
  -20020   -20121   -20298   -20419   -20434   -20453   -20589   -20813 
  -20977   -20931   -20614   -20144   -19733   -19480   -19354   -19310 
  -19298   -19270   -19213   -19142   -19088   -19060   -19016   -18914 
  -18770   -18631   -18533   -18522   -18601   -18595   -18327   -17962 
  -17771   -17743   -17790   -17901   -17933   -17749   -17469   -17313 
  -17369   -17536   -17597   -17477   -17328   -17239   -17129   -16976 
  -16836   -16676   -16444   -16181   -15952   -15807   -15782   -15794 
  -15722   -15623   -15625   -15720   -15820   -15853   -15791   -15718 
  -15754   -15882   -16008   -16159   -16422   -16750   -17006   -17102 
  -17091   -17127   -17310   -17609   -17899   -18071   -18205   -18400 
  -18486   -18345   -18160   -18054   -18023   -18098   -18232   -18319 
  -18385   -18521   -18691   -18754   -18665   -18508   -18388   -18364 
  -18392   -18365   -18293   -18286   -18343   -18348   -18254   -18121 
  -18005   -17875   -17655   -17358   -17114   -17000   -16987   -17036 
  -17054   -16945   -16760   -16571   -16355   -16173   -16125   -16170 
  -16194   -16160   -16132   -16195   -16314   -16383   -16383   -16377 
  -16398   -16360   -16202   -16086   -16144   -16254   -16286   -16189 
  -15958   -15747   -15688   -15632   -15444   -15192   -14948   -14781 
  -14791   -14949   -15098   -15167   -15219   -15290   -15329   -15285 
  -15195   -15134   -15144   -15271   -15548   -15879   -16066   -16024 
  -15854   -15680   -15608   -15707   -15875   -15924   -15803   -15649 
  -15649   -15844   -16068   -16132   -16048   -15990   -16079   -16319 
  -16637   -16957   -17246   -17423   -17407   -17324   -17363   -17538 
  -17802   -18079   -18261   -18351   -18377   -18295   -18099   -17896 
  -17824   -17916   -18078   -18241   -18406   -18579   -18755   -18873 
  -18845   -18675   -18470   -18380   -18472   -18613   -18612   -18461 
  -18303   -18246   -18281   -18334   -18336   -18277   -18188   -18064 
  -17905   -17750   -17633   -17578   -17591   -17629   -17625   -17554 
  -17448   -17330   -17215   -17209   -17311   -17316   -17181   -17078 
  -17040   -17041   -17042   -16914   -16739   -16773   -17015   -17248 
  -17317   -17202   -17015   -16956   -17129   -17403   -17567   -17568 
  -17517   -17514   -17513   -17436   -17326   -17223   -17129   -17132 
  -17265   -17430   -17553   -17623   -17630   -17567   -17435   -17277 
  -17134   -17007   -16957   -17042   -17167   -17194   -17128   -17067 
  -17076   -17129   -17140   -17078   -17008   -16972   -16927   -16887 
  -16934   -17100   -17345   -17527   -17551   -17519   -17518   -17518 
  -17525   -17529   -17525   -17582   -17679   -17710   -17640   -17489 
  -17279   -17072   -16960   -16985   -17066   -17103   -17143   -17294 
  -17523   -17684   -17674   -17512   -17382   -17471   -17701   -17855 
  -17836   -17620   -17291   -17078   -17048   -17027   -16937   -16818 
  -16677   -16573   -16618   -16781   -16937   -17073   -17218   -17352 
  -17459   -17475   -17326   -17086   -16889   -16843   -16994   -17209 
  -17303   -17299   -17301   -17334   -17430   -17583   -17698   -17749 
  -17766   -17703   -17543   -17396   -17342   -17299   -17192   -17086 
  -17063   -17124   -17209   -17232   -17169   -17107   -17084   -17038 
  -16972   -16971   -17072   -17186   -17167   -16978   -16755   -16682 
  -16800   -16972   -17016   -16852   -16578   -16341   -16199   -16178 
  -16261   -16341   -16352   -16319   -16307   -16347   -16404   -16458 
