Origin Time       2011/03/11 14:46:00
Lat.              38.103
Long.             142.860
Depth. (km)       24
Mag.              9.0
Station Code      HKD103
Station Lat.      42.7275
Station Long.     142.2973
Station Height(m) 86
Record Time       2011/03/11 14:48:02
Sampling Freq(Hz) 100Hz
Duration Time(s)  300
Dir.              N-S
Scale Factor      3920(gal)/6182761
Max. Acc. (gal)   23.248
Last Correction   2011/03/11 14:47:47
Memo.             
[...]
    7127     7125     7730     8900    10406    11921    13146    13895 
   14076    13643    12600    11046     9161     7152     5190     3368 
    1756      419     -654    -1521    -2195    -2659    -2906    -2935 
   -2732    -2299    -1688     -943      -38     1092     2482     4100 
    5837     7542     9084    10402    11539    12596    13633    14643 
   15532    16170    16488    16514    16302    15903    15372    14754 
   14063    13254    12243    10997     9576     8100     6695     5470 
    4498     3840     3582     3791     4417     5282     6155     6856 
    7358     7747     8061     8234     8170     7805     7163     6382 
    5659     5151     4883     4733     4502     4014     3245     2422 
    1941     2157     3228     5077     7444     9934    12140    13748 
   14564    14600    14054    13162    12108    11020     9975     9011 
    8147     7409     6787     6260     5873     5706     5802     6157 
    6726     7433     8178     8841     9280     9354     8984     8209 
    7200     6188     5333     4702     4312     4124     4031     3899 
    3629     3219     2764     2434     2410     2794     3585     4713 
    6105     7721     9517    11418    13337    15172    16798    18090 
   18980    19479    19651    19600    19433    19228    19065    18998 
   18969    18822    18439    17823    17089    16372    15715    15059 
   14312    13389    12261    11023     9851     8903     8233     7795 
    7494     7266     7088     6911     6669     6342     5919     5367 
    4692     3969     3298     2745     2288     1785     1045      -80 
   -1623    -3438    -5217    -6574    -7153    -6708    -5157    -2613 
     629     4187     7689    10812    13296    14977    15801    15802 
   15088    13843    12305    10732     9372     8398     7849     7663 
    7737     7945     8141     8171     7944     7461     6793     6014 
    5151     4193     3178     2239     1601     1445     1773     2441 
    3304     4302     5414     6595     7770     8826     9660    10263 
   10696    10954    10914    10419     9371     7783     5743     3379 
     877    -1557    -3764    -5616    -7002    -7896    -8358    -8455 
   -8222    -7670    -6796    -5636    -4269    -2756    -1141      507 
    2112     3608     4940     6100     7088     7831     8215     8182 
    7735     6964     6054     5238     4740     4726     5225     6108 
    7129     8007     8544     8674     8466     8125     7910     8014 
    8546     9532    10851    12297    13693    14815    15368    15113 
   13966    12053     9731     7423     5449     3955     2897     2111 
    1418      668     -208    -1157    -2087    -2939    -3662    -4243 
   -4706    -5024    -5094    -4803    -4098    -3032    -1724     -270 
    1275     2871     4462     5951     7212     8129     8635     8729 
    8442     7799     6809     5484     3882     2139      432    -1096 
   -2368    -3362    -4064    -4391    -4196    -3355    -1859      158 
    2465     4793     6861     8473     9596    10307    10710    10906 
   10953    10802    10358     9610     8640     7609     6775     6396 
    6579     7218     7975     8400     8161     7158     5497     3397 
    1123    -1015    -2728    -3860    -4396    -4402    -3936    -3050 
   -1841     -474      840     1879     2475     2562     2196     1537 
     781       97     -413     -719     -807     -619      -70      863 
    2092     3454     4768     5880     6691     7214     7574     7953 
    8510     9314    10297    11271    12043    12500    12608    12382 
   11876    11192    10481     9864     9386     9063     8876     8733 
    8569     8410     8310     8309     8404     8523     8608     8668 
    8753     8933     9241     9615     9907     9947     9576     8706 
    7363     5708     4020     2613     1739     1546     2047     3108 
    4490     5953     7293     8373     9161     9704    10059    10271 
   10375    10444    10568    10773    11015    11220    11301    11212 
   10943    10484     9794     8785     7410     5721     3820     1825 
    -123    -1887    -3371    -4506    -5175    -5210    -4508    -3105 
   -1172     1003     3049     4611     5465     5572     5049     4112 
    3030     2080     1494     1418     1910     2937     4325     5770 
    6902     7395     7091     6053     4524     2811     1157     -335 
   -1659    -2798    -3699    -4319    -4639    -4665    -4434    -4000 
   -3449    -2916    -2492    -2175    -1926    -1707    -1472    -1150 
    -623      214     1376     2818     4498     6353     8265    10030 
   11390    12162    12218    11442     9811     7461     4643     1692 
   -1049    -3366    -5241    -6821    -8298    -9743   -11031   -11916 
  -12113   -11404    -9754    -7311    -4348    -1248     1566     3785 
    5290     6135     6496     6568     6472     6274     6021     5798 
    5778     6139     6966     8298    10143    12423    14960    17435 
   19436    20614    20807    20018    18356    16008    13194    10165 
    7276     4904     3330     2698     2964     3931     5319     6787 
    7986     8576     8290     7045     4972     2365     -392    -2891 
   -4750    -5684    -5539    -4247    -1846     1473     5412     9658 
   13881    17731    20908    23233    24696    25402    25496    25129 
   24407    23413    22296    21246    20435    20004    20009    20385 
   20983    21608    22089    22372    22505    22561    22585    22535 
   22281    21719    20872    19897    19051    18583    18608    19026 
   19565    19912    19868    19399    18584    17580    16605    15840 
   15333    15043    14906    14833    14731    14512    14109    13514 
   12783    11994    11223    10502     9789     8992     7983     6621 
    4809     2586      158    -2167    -4051    -5260    -5755    -5628 
   -5030    -4144    -3086    -1840     -288     1700     4149     6932 
    9809    12515    14896    16981    18926    20891    22960    25136 
   27277    29056    30108    30221    29400    27832    25823    23717 
   21794    20227    19106    18410    17985    17665    17368    17064 
   16776    16570    16523    16683    16997    17258    17212    16668 
   15523    13764    11473     8827     6073     3490     1311     -371 
   -1609    -2576    -3494    -4499    -5566    -6544    -7233    -7459 
   -7154    -6389    -5370    -4383    -3706    -3511    -3796    -4379 
   -4991    -5430    -5630    -5593    -5348    -4962    -4490    -3996 
   -3592    -3342    -3196    -3019    -2586    -1649      -73     2122 
    4777     7635    10412    12858    14804    16173    16978    17266 
   17062    16382    15287    13880    12275    10579     8868     7194 
    5629     4281     3239     2577     2361     2637     3420     4667 
    6198     7764     9217    10504    11599    12537    13321    13824 
   13887    13388    12262    10565     8477     6249     4137     2328 
     928      -69     -802    -1486    -2305    -3335    -4556    -5900 
   -7249    -8455    -9380    -9896    -9917    -9452    -8657    -7818 
   -7210    -6974    -7107    -7514    -8103    -8820    -9643   -10536 
  -11381   -12022   -12358   -12384   -12174   -11830   -11461   -11209 
  -11182   -11344   -11527   -11483   -10988    -9945    -8423    -6604 
   -4737    -3034    -1596     -430      493     1232     1891     2630 
    3591     4830     6284     7797     9200    10325    11017    11135 
   10551     9245     7345     5046     2547       41    -2276    -4194 
   -5499    -6024    -5723    -4682    -3070    -1101      975     2923 
    4580     5876     6849     7618     8291     8979     9819    10944 
   12495    14605    17288    20401    23658    26668    29020    30345 
   30378    29091    26725    23747    20698    17976    15759    14107 
   13025    12479    12425    12793    13476    14341    15269    16207 
   17158    18116    19048    19919    20711    21408    21976    22349 
   22462    22279    21792    21026    20034    18888    17668    16409 
   15089    13629    11924     9955     7805     5619     3540     1631 
    -100    -1627    -2887    -3841    -4511    -4948    -5181    -5216 
   -5008    -4472    -3587    -2478    -1349     -375      351      816 
    1077     1239     1443     1847     2552     3560     4783     6079 
    7329     8464     9423    10174    10731    11132    11447    11743 
   12073    12530    13254    14362    15885    17714    19598    21216 
   22295    22693    22445    21762    20858    19834    18698    17387 
   15868    14275    12835    11750    11153    11084    11494    12278 
   13286    14291    15029    15329    15162    14629    13883    13044 
   12195    11400    10627     9724     8483     6677     4132      808 
   -3158    -7444   -11576   -15022   -17347   -18332   -18020   -16707 
  -14849   -12879   -11059    -9484    -8113    -6814    -5468    -4003 
   -2383     -654     1117     2922     4746     6518     8129     9506 
   10677    11764    12941    14369    16127    18173    20323    22309 
   23924    25035    25593    25669    25391    24876    24208    23424 
   22553    21616    20582    19399    18077    16672    15233    13825 
   12568    11597    11022    10892    11161    11721    12398    12974 
   13237    13014    12243    11048     9648     8227     6898     5717 
    4706     3847     3114     2519     2135     2055     2357     3049 
    4031     5136     6198     7067     7616     7764     7473     6754 
    5695     4475     3372     2679     2583     3109     4117     5369 
    6627     7731     8642     9378     9960    10429    10814    11089 
   11244    11347    11560    12079    13035    14414    16046    17687 
   19139    20297    21120    21606    21770    21645    21216    20393 
   19142    17535    15691    13779    11961    10283     8705     7144 
    5492     3705     1818     -105    -1995    -3813    -5528    -7114 
   -8573    -9913   -11145   -12282   -13320   -14259   -15139   -16016 
  -16936   -17939   -19026   -20137   -21195   -22114   -22816   -23249 
  -23364   -23083   -22360   -21237   -19823   -18234   -16557   -14857 
  -13208   -11696   -10414    -9450    -8861    -8685    -8914    -9411 
   -9931   -10245   -10193    -9713    -8860    -7711    -6337    -4858 
   -3424    -2171    -1212     -587     -268     -206     -348     -612 
    -869     -944     -677        8     1029     2151     3105     3745 
    4119     4416     4856     5594     6649     7896     9102    10008 
   10433    10389    10119     9988    10294    11145    12432    13904 
   15248    16218    16707    16720    16345    15732    15018    14311 
   13728    13363    13265    13428    13775    14199    14613    14967 
   15258    15484    15610    15560    15208    14413    13074    11191 
    8893     6393     3920     1665     -241    -1713    -2710    -3277 
   -3520    -3544    -3429    -3212    -2886    -2441    -1914    -1368 
    -845     -348      163      739     1438     2323     3429     4737 
    6207     7819     9548    11283    12816    13897    14311    13983 
   13024    11681    10287     9186     8639     8780     9588    10886 
   12381    13739    14678    15038    14795    14022    12855    11468 
   10021     8637     7400     6348     5475     4748     4131     3626 
    3230     2898     2587     2284     1976     1692     1527     1556 
    1792     2195     2678     3159     3589     3960     4338     4841 
    5553     6470     7496     8528     9538    10561    11659    12857 
   14110    15353    16500    17402    17907    17902    17342    16279 
   14859    13249    11566     9888     8257     6677     5140     3633 
    2159      811     -254     -914    -1129     -927     -374      504 
    1713     3198     4821     6422     7854     8998     9807    10314 
   10619    10866    11180    11668    12418    13427    14556    15579 
   16272    16493    16213    15513    14575    13609    12757    12043 
   11390    10690     9888     9000     8103     7339     6864     6738 
    6911     7295     7789     8263     8576     8592     8215     7432 
    6325     5038     3756     2645     1800     1204      716      119 
    -795    -2166    -4006    -6191    -8540   -10855   -12931   -14603 
  -15767   -16352   -16329   -15721   -14592   -13054   -11232    -9250 
   -7254    -5385    -3739    -2366    -1301     -586     -269     -367 
    -880    -1777    -2935    -4125    -5099    -5675    -5752    -5320 
   -4441    -3193    -1650      129     2131     4350     6736     9226 
   11751    14226    16573    18712    20569    22076    23147    23733 
   23892    23725    23305    22681    21895    21005    20039    18942 
   17601    15913    13810    11277     8391     5299     2150     -912 
   -3737    -6226    -8338   -10068   -11433   -12399   -12888   -12894 
  -12477   -11715   -10709    -9585    -8504    -7630    -7041    -6794 
   -6987    -7668    -8818   -10331   -11940   -13326   -14248   -14571 
  -14302   -13565   -12525   -11373   -10279    -9333    -8541    -7872 
   -7268    -6697    -6194    -5798    -5518    -5311    -5079    -4707 
   -4107    -3218    -1967     -308     1704     3943     6237     8395 
   10271    11770    12778    13189    12947    12045    10564     8701 
    6684     4709     2952     1537      536      -10     -113      199 
     925     2059     3556     5329     7255     9215    11122    12930 
   14665    16419    18270    20226    22244    24258    26212    28074 
   29813    31399    32829    34145    35417    36725    38097    39490 
   40808    41929    42719    43047    42811    41992    40656    38903 
   36826    34521    32103    29669    27264    24931    22726    20729 
   19023    17594    16339    15148    13905    12540    11102     9682 
    8321     7022     5723     4315     2737     1019     -754    -2464 
   -4027    -5421    -6624    -7590    -8293    -8708    -8834    -8706 
   -8335    -7702    -6793    -5606    -4162    -2515     -736     1111 
    2987     4842     6574     8058     9199     9934    10255    10228 
    9957     9535     9025     8464     7861     7214     6530     5869 
    5339     5027     4932     4994     5126     5226     5222     5108 
    4913     4653     4320     3942     3622     3496     3670     4186 
    5034     6139     7305     8224     8589     8204     7074     5448 
    3759     2460     1904     2277     3591     5673     8159    10583 
   12526    13715    14054    13613    12564    11086     9301     7308 
    5251     3274     1482      -33    -1263    -2335    -3417    -4637 
   -6043    -7607    -9232   -10737   -11929   -12709   -13077   -13088 
  -12827   -12382   -11827   -11174   -10392    -9473    -8408    -7184 
   -5797    -4229    -2462     -524     1523     3618     5741     7895 
   10041    12095    13953    15504    16640    17282    17431    17179 
   16712    16277    16066    16140    16468    16953    17436    17767 
   17881    17765    17390    16710    15716    14440    12923    11254 
    9537     7788     5914     3782     1294    -1562    -4692    -7903 
  -10943   -13551   -15498   -16623   -16870   -16304   -15060   -13312 
  -11292    -9268    -7460    -5973    -4810    -3896    -3102    -2300 
   -1404     -365      783     1883     2756     3314     3563     3568 
    3440     3300     3223     3226     3285     3361     3440     3537 
    3636     3695     3699     3636     3514     3382     3276     3199 
    3144     3103     3081     3090     3127     3190     3280     3418 
    3654     4010     4466     4998     5605     6307     7101     7916 
    8662     9323     9893    10335    10664    10950    11301    11855 
   12690    13787    15038    16249    17222    17844    18095    18015 
   17659    17064    16260    15298    14240    13163    12112    11086 
   10092     9157     8365     7825     7598     7678     8018     8533 
    9137     9760    10296    10624    10700    10563    10307    10085 
   10024    10179    10554    11058    11546    11927    12174    12301 
   12351    12368    12359    12304    12176    11965    11657    11238 
   10742    10235     9799     9510     9411     9523     9849    10356 
   10984    11648    12290    12902    13459    13938    14358    14754 
   15182    15690    16255    16787    17202    17425    17422    17198 
   16772    16235    15733    15366    15144    15018    14907    14752 
   14549    14331    14141    14050    14164    14571    15274    16174 
   17125    17985    18648    19049    19139    18871    18255    17390 
   16400    15368    14321    13226    12045    10767     9392     7910 
    6347     4805     3424     2335     1654     1421     1555     1889 
    2218     2335     2092     1437      395     -919    -2327    -3661 
   -4787    -5672    -6389    -7000    -7478    -7761    -7799    -7602 
   -7258    -6868    -6498    -6185    -5914    -5608    -5201    -4671 
   -4067    -3541    -3274    -3371    -3854    -4673    -5732    -6902 
   -8025    -8942    -9541    -9797    -9777    -9586    -9278    -8872 
   -8401    -7913    -7432    -6980    -6562    -6128    -5600    -4889 
   -3896    -2566     -932      923     2884     4786     6432     7642 
    8285     8302     7724     6688     5440     4242     3268     2614 
    2318     2341     2618     3133     3874     4775     5766     6793 
    7792     8664     9268     9455     9150     8374     7247     5990 
    4841     3969     3459     3320     3463     3760     4136     4571 
    5064     5597     6128     6636     7147     7650     8074     8330 
    8373     8235     7996     7721     7453     7197     6936     6697 
    6563     6648     7095     7982     9251    10745    12279    13710 
   14986    16131    17209    18237    19173    19935    20464    20814 
   21045    21138    21108    20991    20737    20265    19478    18236 
   16488    14329    11942     9578     7486     5800     4506     3508 
    2665     1834      952       74     -652    -1038     -947     -332 
     776     2289     4071     5988     7883     9544    10814    11667 
   12135    12333    12411    12405    12283    12036    11643    11098 
   10445     9718     8920     8059     7165     6303     5514     4771 
    4009     3199     2373     1606      957      429      -11     -403 
    -758    -1046    -1208    -1130     -638      442     2181     4502 
    7189     9928    12406    14388    15697    16241    16081    15394 
   14404    13314    12267    11383    10764    10484    10585    11043 
   11755    12595    13461    14305    15086    15720    16110    16164 
   15824    15117    14146    13055    12018    11212    10800    10912 
   11599    12824    14479    16372    18222    19706    20533    20547 
   19769    18343    16448    14256    11918     9517     7077     4619 
    2168     -243    -2577    -4765    -6712    -8367    -9742   -10879 
  -11819   -12573   -13103   -13328   -13172   -12641   -11806   -10764 
   -9649    -8594    -7680    -6925    -6268    -5654    -5081    -4552 
   -4090    -3766    -3642    -3723    -3911    -4037    -3946    -3528 
   -2733    -1596     -249     1164     2570     3970     5394     6836 
    8218     9438    10389    11024    11368    11438    11216    10680 
    9841     8747     7498     6259     5210     4455     3989     3735 
    3623     3642     3801     4107     4556     5119     5725     6307 
    6851     7404     8060     8899     9932    11115    12343    13473 
