Origin Time       2011/03/11 14:46:00
Lat.              38.103
Long.             142.860
Depth. (km)       24
Mag.              9.0
Station Code      HKD110
Station Lat.      42.1310
Station Long.     142.9354
Station Height(m) 4
Record Time       2011/03/11 14:47:55
Sampling Freq(Hz) 100Hz
Duration Time(s)  300
Dir.              E-W
Scale Factor      3920(gal)/6182761
Max. Acc. (gal)   32.365
Last Correction   2011/03/11 14:47:40
Memo.             
[...]
   11025    10371     9843     9597     9892    10517    10795    10384 
    9574     8770     8125     7649     7377     7445     7923     8455 
    8430     7673     6629     5839     5508     5574     5822     6023 
    6209     6453     6735     7305     8420     9876    11353    12765 
   14182    15615    16939    18005    18660    18736    18125    16910 
   15517    14387    13462    12280    10462     7991     5176     2522 
     550     -578    -1097    -1284    -1460    -1944    -2619    -3074 
   -3169    -3035    -2847    -2747    -2600    -2060    -1001      469 
    2270     4362     6683     9158    11661    13938    15790    17262 
   18432    19342    20146    20901    21413    21345    20403    18665 
   16596    14674    13148    11906    10744     9620     8354     6698 
    4829     3229     2141     1506     1138      650     -263    -1480 
   -2883    -4510    -6206    -7789    -9202   -10446   -11645   -12839 
  -13875   -14550   -14646   -14130   -13266   -12290   -11232   -10036 
   -8717    -7439    -6275    -5104    -4035    -3308    -2748    -1974 
    -871      382     1468     2171     2614     3276     4598     6491 
    8553    10598    12592    14492    16392    18492    20844    23272 
   25505    27348    28782    29894    30607    30696    30153    29215 
   28110    26864    25184    22778    19694    16183    12511     8864 
    5205     1419    -2467    -6365   -10125   -13517   -16408   -18784 
  -20668   -22177   -23465   -24530   -25288   -25674   -25657   -25306 
  -24761   -24151   -23611   -23248   -22999   -22550   -21718   -20694 
  -19531   -18008   -16070   -13882   -11784   -10160    -8996    -7996 
   -7088    -6330    -5526    -4394    -3005    -1546        3     1573 
    3074     4543     5836     6921     8093     9438    10746    11627 
   11678    11114    10517    10108     9919     9927     9985     9909 
    9331     8035     6352     4751     3297     1618     -634    -3415 
   -6471    -9590   -12628   -15442   -17857   -19815   -21411   -22736 
  -23715   -24088   -23632   -22308   -20216   -17530   -14422   -11020 
   -7444    -3818     -164     3637     7484    10971    13917    16417 
   18511    20311    21987    23463    24553    25184    25214    24494 
   23308    22189    21279    20303    18982    17165    14898    12459 
   10149     8077     6190     4329     2170     -547    -3676    -6856 
   -9730   -11984   -13675   -15124   -16438   -17618   -18827   -20272 
  -21962   -23525   -24572   -25151   -25478   -25700   -25920   -25956 
  -25621   -25191   -24832   -24329   -23686   -23054   -22280   -21085 
  -19410   -17460   -15618   -14229   -13404   -12999   -12657   -12009 
  -10963    -9697    -8407    -7170    -5968    -4915    -4334    -4241 
   -4302    -4533    -5260    -6546    -8240   -10143   -12008   -13628 
  -14875   -15804   -16617   -17378   -18006   -18400   -18479   -18301 
  -17966   -17468   -16871   -16306   -15690   -14792   -13500   -11861 
  -10082    -8422    -6937    -5502    -4060    -2607    -1026      755 
    2485     3834     4866     5914     7337     9423    12020    14611 
   16930    19014    20869    22321    23125    23290    23031    22391 
   21194    19354    17082    14712    12476    10474     8622     6735 
    4699     2415     -132    -2731    -5072    -6945    -8349    -9451 
  -10408   -11378   -12546   -13920   -15231   -16074   -16244   -15931 
  -15470   -15088   -14915   -14910   -14837   -14529   -13955   -13101 
  -12056   -10928    -9640    -8144    -6584    -5150    -4104    -3574 
   -3258    -2886    -2571    -2375    -2114    -1546     -467     1055 
    2652     4059     5249     6247     7123     7913     8395     8405 
    8184     7943     7672     7565     7960     8955    10495    12455 
   14507    16253    17425    17960    18118    18223    18295    18194 
   17815    17083    16104    15214    14705    14623    14864    15334 
   15916    16469    16891    17078    17002    16794    16555    16274 
   15874    15244    14483    13952    13968    14616    15672    16756 
   17672    18425    19074    19613    19918    19956    19840    19643 
   19390    19222    19397    19981    20728    21379    21774    21790 
   21442    20823    19965    18938    17783    16345    14548    12590 
   10698     8998     7547     6250     4939     3537     2030      406 
   -1188    -2488    -3414    -4045    -4410    -4375    -3626    -1971 
     443     3408     6833    10530    14100    17155    19552    21393 
   22885    24109    24991    25534    25771    25660    25367    25209 
   25275    25396    25246    24469    23008    21127    19027    16663 
   13910    10838     7857     5429     3675     2317      976     -451 
   -1929    -3538    -5230    -6945    -8899   -11161   -13504   -15728 
  -17636   -19132   -20422   -21643   -22676   -23385   -23686   -23667 
  -23578   -23423   -23100   -22767   -22474   -22021   -21249   -19971 
  -18086   -15736   -12942    -9660    -6108    -2598      630     3461 
    5968     8255    10248    11749    12772    13683    14844    16248 
   17566    18433    18700    18400    17577    16332    14816    13085 
   11074     8749     6215     3759     1710       90    -1444    -3254 
   -5502    -8064   -10551   -12649   -14276   -15478   -16422   -17284 
  -18053   -18468   -18160   -17012   -15224   -13150   -11226    -9679 
   -8427    -7469    -6861    -6493    -6299    -6281    -6337    -6348 
   -6192    -5632    -4503    -2973    -1387      -11     1011     1622 
    1784     1470      824      101     -552    -1047    -1254    -1015 
    -295      629     1459     2103     2358     1933      764     -944 
   -2805    -4403    -5542    -6308    -6862    -7301    -7672    -7946 
   -8162    -8489    -8893    -9106    -9016    -8710    -8376    -8251 
   -8352    -8465    -8416    -8034    -7119    -5658    -3774    -1566 
     827     3158     5260     7096     8491     9191     9243     8882 
    8328     7819     7412     6930     6223     5193     3850     2392 
    1013      -94     -743    -1075    -1323    -1427    -1399    -1349 
   -1197     -994     -857     -609     -190      127      187      158 
     367     1040     2025     2984     3859     4831     6031     7511 
    9168    10784    12314    13850    15433    17117    18883    20633 
   22365    24054    25628    27028    28004    28217    27568    26211 
   24502    22781    21034    18989    16448    13367     9861     6228 
    2909      151    -2266    -4690    -7112    -9298   -11129   -12639 
  -13988   -15361   -16648   -17508   -17696   -17089   -15627   -13423 
  -10774    -7952    -5047    -2053      911     3534     5622     7323 
    8832    10129    11105    11668    11988    12452    13123    13868 
   14666    15263    15361    15045    14413    13398    12047    10510 
    8966     7601     6478     5599     4989     4590     4339     4262 
    4314     4395     4510     4641     4592     4197     3477     2534 
    1574      844      364       35     -189     -408     -607     -579 
    -236      390     1206     2021     2778     3552     4305     4861 
    5086     5122     5190     5151     4759     4187     3812     3701 
    3514     2961     2249     1693     1104       31    -1623    -3512 
   -5347    -7213    -9211   -11062   -12413   -13209   -13638   -14034 
  -14525   -14796   -14620   -14052   -13028   -11476    -9553    -7525 
   -5478    -3171     -490     2230     4677     6909     9023    10818 
   11955    12422    12547    12597    12602    12422    11861    10876 
    9740     8838     8234     7623     6730     5510     4017     2237 
      78    -2406    -4948    -7299    -9334   -11035   -12497   -13684 
  -14321   -14301   -13777   -12902   -11944   -11351   -11412   -12017 
  -12719   -13135   -13284   -13389   -13560   -13788   -14083   -14407 
  -14508   -14232   -13770   -13333   -13050   -12940   -12646   -11727 
  -10144    -8110    -5894    -3769    -1734      327     2347     4313 
    6306     8154     9474     9987     9785     9339     9080     9182 
    9745    10750    12017    13497    15281    17372    19712    22113 
   24167    25492    25723    24569    22182    19075    15749    12476 
    9329     6461     4000     1890      271     -580     -784     -709 
    -599     -647     -995    -1731    -2975    -4649    -6463    -8313 
  -10228   -12033   -13518   -14646   -15488   -16121   -16465   -16265 
  -15466   -14358   -13168   -11900   -10704    -9849    -9354    -9009 
   -8500    -7654    -6560    -5202    -3385    -1024     1833     4942 
    7813     9979    11199    11608    11744    12021    12323    12272 
   11521     9860     7399     4440     1223    -2033    -5151    -7995 
  -10379   -12268   -13810   -15005   -15786   -16260   -16628   -17036 
  -17444   -17744   -17936   -17915   -17615   -17339   -17399   -17810 
  -18382   -18754   -18635   -18097   -17416   -16886   -16691   -16677 
  -16448   -15821   -14956   -14113   -13389   -12697   -11877   -10762 
   -9291    -7608    -5921    -4307    -2738    -1154      448     1912 
    2992     3538     3547     3212     2857     2606     2486     2743 
    3505     4696     6211     7625     8589     9383    10377    11685 
   13229    14692    15875    16934    18050    19177    20173    20976 
   21524    21740    21688    21480    21087    20351    18986    16775 
   13887    10727     7589     4446      990    -2793    -6364    -9280 
  -11634   -13697   -15599   -17299   -18613   -19367   -19474   -18967 
  -18122   -17199   -16049   -14477   -12603   -10415    -7696    -4434 
    -767     3055     6634     9786    12601    15145    17399    19342 
   20849    21703    21845    21324    20142    18482    16678    14888 
   13109    11306     9413     7416     5351     3278     1344     -299 
   -1648    -2839    -4072    -5435    -6694    -7477    -7696    -7543 
   -7188    -6789    -6390    -5757    -4734    -3434    -1982     -486 
     921     2195     3320     4234     4912     5438     5991     6737 
    7601     8264     8575     8625     8492     8250     7945     7638 
    7498     7465     7293     7042     6955     7246     8135     9660 
   11614    13600    15169    16162    16782    17398    18261    19335 
   20442    21321    21645    21249    20332    19406    18886    18732 
   18702    18636    18404    17977    17444    16716    15645    14376 
   13176    12119    11201    10467     9912     9494     9203     9021 
    8890     8669     8199     7479     6597     5625     4652     3634 
    2437     1156       59     -753    -1405    -2023    -2625    -3264 
   -4036    -4858    -5526    -5939    -6186    -6417    -6669    -6968 
   -7471    -8276    -9269   -10217   -10916   -11193   -10813    -9600 
   -7599    -5078    -2493     -232     1689     3490     5320     7168 
    8972    10719    12298    13461    14108    14371    14432    14366 
   14074    13429    12466    11282     9931     8557     7396     6462 
    5452     4146     2555      684    -1375    -3384    -5176    -6626 
   -7708    -8633    -9527   -10301   -10828   -10877   -10391    -9740 
   -9197    -8725    -8306    -7888    -7350    -6639    -5641    -4352 
   -3060    -1903     -772      255     1042     1655     2179     2585 
    2840     2876     2599     2058     1419      816      496      712 
    1359     2124     2757     3058     2924     2348     1297     -196 
   -1761    -2853    -3199    -2735    -1488      205     1911     3449 
    4774     5865     6748     7400     7796     7966     8012     8191 
    8687     9339     9948    10552    11258    12084    12905    13463 
   13502    12746    10900     7928     4093     -256    -4770    -9236 
  -13731   -18412   -23245   -28028   -32506   -36334   -39163   -40961 
  -41949   -42252   -41961   -41222   -40094   -38649   -37031   -35261 
  -33186   -30586   -27393   -23834   -20218   -16667   -13146    -9628 
   -6119    -2620      790     3989     6947     9669    12135    14302 
   16119    17695    19206    20587    21621    22172    22128    21372 
   19872    17594    14512    10704     6277     1458    -3347    -7864 
  -11995   -15714   -19155   -22403   -25367   -28068   -30508   -32436 
  -33714   -34501   -34971   -35271   -35490   -35440   -34862   -33714 
  -32028   -29914   -27524   -24787   -21587   -17971   -14031    -9949 
   -5980    -2217     1423     5052     8840    12927    17207    21385 
   25152    28241    30535    32093    33027    33446    33311    32381 
   30512    27785    24367    20498    16387    12146     7825     3386 
   -1215    -5860   -10305   -14312   -17802   -20958   -24094   -27378 
  -30703   -33846   -36624   -38837   -40255   -40759   -40295   -38720 
  -35913   -31997   -27388   -22577   -17719   -12683    -7525    -2518 
    2194     6746    11347    15978    20428    24469    27967    30993 
   33691    36058    37978    39269    39700    39074    37310    34593 
   31365    27997    24558    20954    17249    13641    10091     6403 
    2525    -1520    -5631    -9545   -13093   -16271   -19047   -21373 
  -23282   -24757   -25560   -25376   -24178   -22183   -19622   -16769 
  -13811   -10902    -8443    -6627    -5120    -3719    -2569    -1585 
    -450      918     2517     4470     6832     9599    12580    15251 
   17202    18282    18398    17694    16473    14770    12447     9471 
    5897     1865    -2406    -6778   -11219   -15640   -20040   -24543 
  -29030   -33273   -37276   -41032   -44335   -46995   -48915   -50043 
  -50371   -49924   -48674   -46587   -43823   -40643   -37201   -33569 
  -29785   -25846   -21737   -17439   -13038    -8666    -4256      426 
    5480    10766    15979    20819    25052    28540    31410    33902 
   36082    37846    38905    38910    37799    35729    32842    29367 
   25494    21139    16276    11169     6053     1076    -3607    -8003 
  -12164   -15944   -19255   -22195   -24769   -26912   -28654   -30017 
  -30899   -31179   -30951   -30415   -29464   -27928   -25825   -23074 
  -19693   -16026   -12406    -9050    -5968    -2870      399     3757 
    7138    10357    13165    15517    17436    18990    20404    21820 
   23155    24276    25078    25423    25255    24671    23833    22946 
   22127    21187    19829    17931    15519    12787    10053     7464 
    4928     2347     -330    -3157    -6022    -8666   -10866   -12494 
  -13593   -14347   -14857   -15146   -15105   -14395   -12926   -11024 
   -9114    -7686    -7004    -6797    -6724    -6670    -6603    -6541 
   -6389    -5834    -4692    -3104    -1393       37      953     1370 
    1324      915      436       81     -272     -708    -1059    -1164 
    -988     -557       53      824     1745     2659     3319     3466 
    2977     2052     1029      100     -683    -1319    -1790    -2076 
   -2096    -1611     -473     1177     3156     5414     7894    10324 
   12341    13851    14967    15866    16861    18278    20278    22811 
   25698    28733    31576    33869    35434    36195    36204    35597 
   34426    32742    30719    28564    26444    24396    22411    20564 
   18898    17337    15719    13901    11901     9748     7384     4789 
    2047     -518    -2528    -3961    -4909    -5363    -5456    -5251 
   -4718    -4039    -3323    -2517    -1741    -1031     -276      387 
     857     1325     1877     2547     3525     4928     6796     9109 
   11601    13890    15756    17203    18326    19229    19968    20385 
   20295    19799    19152    18526    17937    17303    16554    15655 
   14656    13669    12679    11607    10538     9639     8928     8368 
    8012     7886     8017     8500     9309    10395    11826    13527 
   15260    16903    18442    19766    20668    20983    20709    20074 
   19373    18631    17633    16261    14545    12550    10427     8357 
    6309     4014     1209    -2132    -5949   -10115   -14282   -18222 
  -21900   -25122   -27728   -29683   -30896   -31454   -31504   -31027 
  -30081   -28744   -27118   -25457   -23822   -22088   -20238   -18252 
  -16019   -13377   -10305    -7040    -3779     -594     2444     5279 
    7817     9991    11787    13144    14019    14301    13774    12399 
   10240     7373     4042      493    -2999    -6012    -8373   -10253 
  -11898   -13487   -14968   -16173   -16934   -17108   -16738   -15979 
  -15018   -14097   -13197   -12069   -10666    -9118    -7579    -6200 
   -5030    -3991    -2937    -1839     -784      228     1177     2108 
    3268     4718     6316     7970     9397    10265    10726    11103 
   11344    11236    10748     9972     9065     8222     7432     6550 
    5657     4978     4450     3719     2517      851    -1086    -3080 
   -5007    -6882    -8758   -10709   -12926   -15469   -18079   -20395 
  -22209   -23611   -24862   -26153   -27533   -28762   -29575   -30103 
  -30362   -30076   -29338   -28311   -26796   -24747   -22279   -19487 
  -16549   -13445    -9998    -6256    -2448     1231     4684     7805 
   10491    12840    15072    17345    19696    21944    23778    25018 
   25600    25535    24934    23884    22391    20435    17948    14941 
   11626     8261     5061     2250        8    -1458    -2069    -2145 
   -2183    -2511    -3245    -4359    -5850    -7786   -10053   -12320 
  -14425   -16448   -18292   -19680   -20512   -20974   -21382   -21763 
  -21735   -21045   -19854   -18451   -16995   -15459   -13734   -11802 
   -9714    -7488    -5148    -2720     -179     2504     5293     8118 
   10890    13411    15419    16821    17786    18538    19126    19509 
   19814    20253    20859    21342    21216    20247    18443    15745 
   12267     8311     4122       97    -3377    -6355    -8994   -11303 
  -13327   -15016   -16263   -17097   -17583   -17843   -18043   -18165 
  -18028   -17456   -16377   -14846   -13020   -11092    -9132    -7148 
   -5268    -3621    -2270    -1243     -430      234      664      863 
     909      775      444       67     -149     -216     -281     -412 
    -652    -1008    -1478    -2206    -3310    -4763    -6602    -8851 
  -11227   -13249   -14674   -15547   -15961   -16006   -15700   -15004 
  -14039   -13049   -12122   -11118    -9867    -8346    -6528    -4334 
   -1819      916     3859     7029    10377    13685    16616    18960 
   20713    22031    23152    24237    25214    25864    26083    25979 
   25694    25195    24391    23380    22269    20996    19467    17591 
   15399    13019    10407     7438     4129      705    -2438    -5165 
   -7557    -9420   -10681   -11680   -12655   -13639   -14724   -15977 
  -17278   -18419   -19379   -20341   -21467   -22804   -24246   -25545 
  -26488   -26930   -26677   -25609   -23841   -21499   -18649   -15617 
  -12951   -10961    -9597    -8572    -7457    -6046    -4530    -3183 
   -2127    -1326     -618      191     1210     2233     2828     2887 
    2666     2347     1993     1635     1146      377     -521    -1223 
   -1577    -1692    -1759    -1907    -2271    -2782    -3105    -3026 
   -2404    -1319     -169      894     1806     2371     2650     2793 
    2810     2652     2080      863     -891    -2969    -5269    -7687 
  -10113   -12424   -14376   -15835   -17029   -18243   -19573   -21042 
  -22598   -24073   -25237   -25863   -25886   -25426   -24566   -23181 
  -21033   -18046   -14480   -10767    -7180    -3705     -248     3191 
