Origin Time       2011/03/11 14:46:00
Lat.              38.103
Long.             142.860
Depth. (km)       24
Mag.              9.0
Station Code      HKD174
Station Lat.      42.5950
Station Long.     139.8286
Station Height(m) 10
Record Time       2011/03/11 14:49:23
Sampling Freq(Hz) 100Hz
Duration Time(s)  118
Dir.              E-W
Scale Factor      3920(gal)/6182761
Max. Acc. (gal)   2.109
Last Correction   2011/03/11 14:49:08
Memo.             
[...]
    8593     8539     8466     8397     8312     8185     8042     7936 
    7879     7836     7766     7657     7534     7449     7431     7464 
    7533     7649     7809     7971     8066     8060     7984     7897 
    7835     7809     7818     7847     7881     7941     8040     8156 
    8262     8348     8412     8452     8469     8462     8437     8410 
    8394     8388     8375     8332     8266     8200     8144     8097 
    8065     8061     8083     8082     8013     7903     7831     7845 
    7925     8012     8068     8090     8092     8083     8050     7995 
    7947     7932     7942     7962     7988     8030     8104     8221 
    8355     8462     8513     8504     8428     8281     8102     7940 
    7805     7686     7592     7555     7604     7741     7939     8168 
    8394     8585     8704     8706     8594     8437     8311     8235 
    8193     8191     8242     8312     8340     8292     8186     8066 
    7956     7843     7720     7608     7557     7595     7691     7769 
    7786     7749     7669     7537     7358     7190     7104     7120 
    7226     7427     7734     8105     8442     8642     8656     8519 
    8304     8073     7862     7695     7587     7560     7624     7750 
    7911     8081     8202     8225     8166     8073     7979     7887 
    7778     7647     7525     7442     7420     7468     7582     7750 
    7951     8161     8364     8526     8593     8541     8402     8243 
    8116     8038     8009     8005     8015     8058     8141     8221 
    8254     8264     8299     8347     8365     8358     8362     8384 
    8411     8444     8476     8484     8460     8412     8359     8330 
    8338     8369     8403     8423     8422     8391     8308     8156 
    7951     7734     7553     7449     7445     7541     7707     7882 
    8007     8058     8050     8009     7945     7884     7867     7912 
    7976     7996     7931     7772     7546     7310     7102     6924 
    6778     6685     6652     6662     6680     6683     6657     6604 
    6566     6586     6662     6773     6920     7105     7298     7441 
    7507     7529     7550     7569     7582     7616     7694     7817 
    7978     8141     8241     8237     8131     7936     7675     7409 
    7201     7079     7040     7083     7213     7408     7600     7727 
    7767     7731     7657     7591     7554     7549     7585     7670 
    7806     7987     8191     8378     8518     8601     8640     8653 
    8654     8628     8562     8480     8421     8401     8415     8461 
    8526     8590     8632     8647     8627     8566     8473     8365 
    8255     8149     8063     8027     8058     8148     8288     8456 
    8603     8692     8726     8738     8762     8803     8855     8915 
    8966     8975     8920     8802     8639     8447     8248     8065 
    7919     7824     7781     7774     7782     7800     7846     7945 
    8100     8299     8525     8753     8935     9014     8964     8796 
    8555     8308     8106     7959     7851     7774     7740     7757 
    7817     7896     7988     8119     8304     8498     8634     8661 
    8557     8345     8104     7912     7803     7783     7842     7956 
    8105     8277     8421     8471     8401     8237     8002     7706 
    7388     7114     6916     6777     6696     6693     6770     6931 
    7156     7378     7518     7550     7513     7466     7430     7408 
    7434     7546     7708     7848     7953     8058     8167     8239 
    8241     8188     8126     8089     8084     8107     8149     8192 
    8225     8232     8211     8191     8196     8208     8206     8218 
    8288     8400     8485     8501     8449     8343     8205     8059 
    7925     7828     7793     7818     7886     7991     8150     8380 
    8648     8875     9012     9066     9071     9049     9003     8943 
    8895     8886     8926     8993     9041     9034     8959     8829 
    8663     8470     8268     8096     7994     7985     8062     8191 
    8332     8481     8638     8783     8888     8923     8871     8756 
    8619     8497     8430     8447     8538     8677     8841     9012 
    9164     9245     9201     9029     8778     8502     8263     8115 
    8065     8068     8064     8028     7977     7948     7972     8035 
    8070     8021     7900     7760     7637     7503     7335     7192 
    7147     7213     7361     7553     7765     7970     8135     8230 
    8237     8194     8158     8149     8141     8114     8086     8081 
    8087     8084     8090     8128     8200     8277     8323     8315 
    8262     8173     8060     7946     7876     7885     7948     8002 
    8008     7952     7858     7796     7835     7981     8179     8365 
    8498     8561     8559     8510     8426     8316     8210     8127 
    8061     8008     7987     8001     8030     8065     8121     8215 
    8345     8490     8620     8714     8753     8730     8670     8620 
    8610     8630     8675     8768     8924     9115     9286     9394 
    9445     9473     9516     9572     9593     9552     9468     9370 
    9266     9153     9055     9020     9081     9202     9318     9403 
    9471     9528     9558     9526     9398     9183     8928     8658 
    8369     8090     7881     7775     7769     7843     7956     8047 
    8081     8079     8081     8087     8066     8005     7927     7848 
    7794     7803     7881     8002     8157     8323     8430     8430 
    8348     8243     8145     8058     7975     7889     7796     7694 
    7592     7492     7391     7318     7312     7381     7516     7709 
    7920     8070     8106     8040     7916     7791     7721     7730 
    7802     7911     8051     8206     8337     8420     8463     8486 
    8496     8498     8506     8553     8647     8744     8792     8778 
    8712     8595     8400     8099     7718     7361     7136     7081 
    7168     7331     7523     7703     7795     7740     7580     7410 
    7286     7215     7203     7248     7329     7433     7522     7545 
    7502     7441     7400     7380     7378     7403     7446     7441 
    7326     7138     6974     6867     6792     6734     6706     6731 
    6816     6936     7060     7183     7291     7346     7317     7234 
    7176     7189     7245     7291     7325     7410     7581     7782 
    7923     7947     7858     7709     7553     7412     7307     7265 
    7310     7440     7645     7923     8245     8533     8697     8700 
    8579     8419     8278     8174     8138     8191     8309     8450 
    8592     8745     8899     9002     8999     8885     8711     8556 
    8478     8475     8514     8604     8757     8926     9042     9084 
    9080     9052     9005     8964     8962     9027     9165     9337 
    9472     9514     9480     9444     9456     9493     9485     9399 
    9268     9145     9060     9017     8999     8986     8971     8960 
    8969     8992     8989     8940     8879     8856     8894     8996 
    9163     9377     9597     9783     9907     9946     9903     9801 
    9680     9579     9501     9429     9349     9242     9100     8960 
    8885     8879     8891     8889     8893     8909     8893     8811 
    8678     8533     8443     8484     8645     8819     8925     8956 
    8926     8832     8681     8519     8400     8340     8317     8320 
    8361     8438     8523     8610     8707     8814     8925     8997 
    8958     8787     8534     8263     8041     7939     7978     8127 
    8337     8573     8807     9012     9165     9255     9291     9289 
    9276     9274     9274     9249     9179     9073     8968     8910 
    8918     8972     9043     9112     9171     9215     9237     9220 
    9133     8967     8777     8638     8572     8542     8519     8496 
    8463     8414     8337     8219     8078     7977     7972     8054 
    8182     8321     8435     8492     8490     8460     8427     8385 
    8332     8291     8260     8234     8241     8306     8426     8573 
    8715     8851     8985     9094     9146     9126     9056     8987 
    8938     8886     8791     8634     8435     8232     8045     7883 
    7763     7729     7799     7938     8093     8211     8246     8196 
    8102     7988     7831     7603     7336     7111     6989     6982 
    7070     7216     7393     7582     7752     7870     7915     7900 
    7880     7884     7885     7864     7837     7817     7803     7784 
    7757     7742     7753     7771     7763     7708     7610     7493 
    7372     7236     7060     6848     6667     6595     6658     6831 
    7060     7297     7534     7789     8047     8243     8330     8329 
    8298     8285     8295     8280     8200     8082     7994     7948 
    7894     7782     7598     7357     7102     6866     6660     6499 
    6428     6468     6577     6696     6796     6868     6919     6975 
    7050     7148     7275     7417     7539     7606     7615     7597 
    7599     7648     7739     7855     7990     8137     8261     8336 
    8369     8367     8311     8188     8039     7936     7912     7956 
    8071     8260     8502     8763     8993     9140     9184     9155 
    9089     8987     8844     8701     8624     8650     8752     8888 
    9053     9250     9464     9650     9744     9701     9531     9277 
    8974     8648     8339     8089     7917     7834     7873     8054 
    8344     8647     8870     8981     9011     8996     8942     8839 
    8693     8534     8382     8246     8143     8096     8118     8188 
    8271     8354     8443     8545     8653     8729     8739     8675 
    8545     8350     8100     7841     7631     7489     7419     7425 
    7490     7589     7714     7835     7899     7886     7832     7789 
    7797     7875     8029     8233     8447     8640     8785     8870 
    8897     8869     8809     8759     8754     8815     8939     9077 
    9170     9203     9207     9213     9236     9265     9260     9205 
    9133     9065     9008     9001     9085     9256     9471     9657 
    9747     9733     9639     9483     9300     9150     9079     9093 
    9151     9199     9217     9216     9199     9148     9056     8954 
    8896     8914     8991     9079     9128     9107     9033     8943 
    8852     8763     8696     8684     8735     8824     8907     8949 
    8939     8890     8828     8762     8674     8565     8459     8371 
    8313     8293     8301     8317     8336     8370     8421     8457 
    8441     8378     8294     8221     8193     8212     8243     8263 
    8278     8306     8353     8411     8464     8503     8550     8624 
    8707     8776     8818     8834     8823     8781     8711     8634 
    8594     8621     8698     8785     8848     8869     8848     8794 
    8713     8617     8537     8515     8553     8614     8679     8748 
    8815     8854     8827     8714     8537     8350     8207     8130 
    8097     8095     8125     8169     8193     8183     8147     8072 
    7941     7770     7627     7580     7651     7823     8068     8346 
    8598     8763     8820     8779     8658     8486     8307     8166 
    8087     8077     8123     8164     8144     8088     8051     8010 
    7928     7825     7744     7698     7678     7661     7622     7566 
    7543     7565     7577     7544     7508     7534     7620     7714 
    7793     7879     7992     8106     8183     8214     8210     8168 
    8073     7912     7703     7513     7414     7441     7580     7771 
    7972     8166     8309     8352     8287     8148     7989     7862 
    7794     7778     7812     7911     8072     8253     8382     8399 
    8304     8142     7970     7832     7762     7771     7861     8022 
    8220     8404     8539     8637     8724     8803     8872     8918 
    8912     8859     8778     8681     8580     8481     8392     8346 
    8358     8405     8451     8473     8444     8341     8167     7961 
    7764     7600     7486     7434     7440     7493     7570     7642 
    7670     7625     7528     7423     7329     7231     7098     6912 
    6700     6540     6481     6505     6586     6723     6910     7118 
    7302     7438     7544     7649     7758     7828     7815     7718 
    7569     7391     7206     7058     7009     7077     7217     7361 
    7455     7482     7445     7341     7172     6986     6848     6799 
    6849     6983     7169     7365     7525     7612     7621     7570 
    7488     7436     7460     7564     7721     7889     7996     7993 
    7914     7825     7739     7655     7598     7595     7642     7706 
    7729     7666     7534     7373     7215     7081     6998     6988 
    7060     7196     7340     7444     7510     7567     7610     7621 
    7616     7650     7753     7901     8052     8168     8232     8276 
    8353     8480     8644     8825     8991     9104     9158     9159 
    9114     9047     8975     8888     8785     8698     8658     8659 
    8679     8707     8746     8805     8891     8999     9126     9265 
    9389     9441     9378     9215     9011     8822     8673     8565 
    8505     8495     8518     8549     8562     8549     8530     8530 
    8562     8627     8725     8850     8987     9114     9205     9245 
    9247     9216     9147     9062     8998     8991     9045     9134 
    9228     9314     9384     9434     9461     9481     9512     9546 
    9559     9544     9520     9510     9523     9559     9624     9729 
    9885    10078    10285    10507    10748    10984    11169    11266 
   11262    11171    11047    10940    10849    10763    10719    10738 
   10799    10869    10901    10869    10791    10681    10541    10380 
   10219    10079     9974     9912     9920    10021    10177    10313 
   10389    10397    10343    10258    10157    10003     9774     9500 
    9237     9012     8823     8682     8613     8612     8641     8673 
    8704     8740     8797     8899     9034     9151     9216     9229 
    9185     9082     8962     8891     8888     8945     9046     9164 
    9269     9351     9407     9420     9369     9252     9101     8964 
    8882     8860     8858     8841     8801     8735     8650     8557 
    8468     8414     8444     8569     8745     8897     8977     8986 
    8941     8842     8701     8565     8484     8459     8448     8422 
    8394     8401     8458     8546     8632     8694     8728     8733 
    8689     8572     8392     8205     8084     8063     8117     8206 
    8298     8374     8428     8474     8533     8590     8627     8658 
    8701     8760     8833     8884     8857     8756     8630     8498 
    8356     8252     8259     8374     8538     8709     8863     8975 
    9035     9046     9016     8948     8853     8754     8645     8492 
    8292     8084     7895     7710     7523     7372     7300     7305 
    7355     7429     7510     7577     7607     7588     7525     7426 
    7303     7168     7042     6940     6877     6851     6842     6849 
    6891     6969     7050     7110     7149     7164     7152     7116 
    7052     6968     6906     6897     6905     6867     6781     6686 
    6575     6438     6305     6197     6124     6111     6156     6228 
    6292     6333     6343     6309     6246     6202     6222     6308 
    6438     6596     6783     6989     7182     7323     7391     7375 
    7284     7156     7046     7002     7050     7170     7296     7373 
    7403     7420     7440     7451     7443     7422     7408     7427 
    7482     7530     7525     7454     7336     7233     7197     7232 
    7333     7509     7751     8019     8239     8347     8329     8214 
    8030     7798     7539     7284     7073     6925     6841     6837 
    6933     7121     7354     7584     7787     7945     8036     8042 
    7963     7834     7749     7777     7868     7928     7956     7993 
    8036     8083     8139     8184     8195     8184     8162     8107 
    8003     7883     7793     7734     7673     7608     7576     7606 
    7691     7805     7924     8029     8104     8152     8194     8239 
    8266     8267     8271     8298     8322     8293     8179     7995 
    7776     7564     7413     7334     7305     7339     7442     7590 
    7744     7867     7953     8020     8054     8033     7963     7873 
    7814     7814     7869     7972     8113     8284     8463     8613 
    8716     8772     8769     8698     8571     8396     8182     7956 
    7758     7617     7541     7541     7622     7759     7914     8064 
    8214     8354     8465     8544     8557     8482     8369     8265 
    8169     8090     8044     8023     8029     8099     8252     8457 
    8675     8891     9102     9287     9399     9403     9306     9129 
    8889     8628     8412     8295     8300     8418     8601     8778 
    8920     9034     9130     9202     9237     9227     9197     9177 
    9181     9208     9242     9261     9261     9260     9296     9366 
    9405     9362     9230     9018     8743     8434     8148     7952 
    7875     7903     7989     8088     8189     8298     8399     8450 
    8441     8433     8476     8542     8575     8552     8492     8429 
    8386     8373     8386     8434     8541     8705     8881     9014 
    9096     9141     9138     9054     8891     8688     8487     8334 
    8277     8330     8460     8605     8728     8835     8941     9041 
    9117     9148     9135     9119     9147     9225     9317     9370 
    9350     9248     9083     8907     8779     8706     8681     8708 
    8798     8938     9097     9242     9354     9420     9459     9508 
    9586     9670     9736     9793     9849     9900     9939     9952 
    9914     9826     9724     9641     9587     9564     9581     9628 
    9675     9701     9708     9693     9642     9541     9394     9219 
    9034     8864     8728     8623     8541     8494     8491     8504 
    8504     8516     8586     8715     8846     8910     8871     8740 
    8568     8420     8325     8264     8222     8208     8223     8236 
    8209     8144     8072     7999     7927     7886     7893     7928 
    7964     7984     7980     7929     7834     7741     7676     7632 
    7607     7614     7664     7750     7823     7835     7769     7640 
    7487     7345     7230     7139     7069     7043     7085     7161 
    7222     7264     7302     7340     7373     7387     7362     7297 
    7216     7148     7105     7066     7007     6913     6764     6567 
    6381     6260     6215     6223     6239     6236     6232     6263 
    6322     6356     6322     6234     6140     6055     5982     5931 
    5895     5870     5858     5857     5860     5855     5847     5865 
    5922     6009     6120     6241     6330     6375     6410     6466 
    6548     6651     6762     6876     7011     7186     7365     7483 
    7526     7527     7507     7481     7463     7458     7478     7524 
    7586     7674     7796     7928     8026     8066     8064     8049 
    8015     7936     7791     7595     7395     7239     7156     7153 
    7215     7297     7350     7343     7273     7172     7081     7019 
    6992     7007     7079     7204     7329     7413     7477     7560 
    7686     7860     8065     8266     8421     8493     8471     8357 
    8179     8024     7964     7994     8091     8237     8392     8512 
    8583     8617     8631     8626     8585     8504     8392     8265 
