Origin Time       2011/03/11 14:46:00
Lat.              38.103
Long.             142.860
Depth. (km)       24
Mag.              9.0
Station Code      HKD137
Station Lat.      43.3236
Station Long.     140.3791
Station Height(m) 15
Record Time       2011/03/11 14:49:09
Sampling Freq(Hz) 100Hz
Duration Time(s)  173
Dir.              U-D
Scale Factor      3920(gal)/6182761
Max. Acc. (gal)   1.839
Last Correction   2011/03/11 14:48:54
Memo.             
[...]
  -21982   -22012   -22030   -22032   -22035   -22053   -22094   -22150 
  -22204   -22246   -22269   -22271   -22258   -22239   -22210   -22163 
  -22110   -22060   -22018   -21987   -21965   -21949   -21931   -21912 
  -21900   -21889   -21866   -21831   -21793   -21761   -21737   -21719 
  -21708   -21702   -21697   -21699   -21717   -21754   -21820   -21926 
  -22052   -22164   -22248   -22313   -22366   -22406   -22445   -22502 
  -22579   -22657   -22727   -22783   -22822   -22858   -22916   -22997 
  -23090   -23189   -23290   -23382   -23457   -23511   -23564   -23636 
  -23717   -23800   -23878   -23939   -23979   -24006   -24016   -23996 
  -23942   -23862   -23775   -23701   -23643   -23587   -23516   -23433 
  -23357   -23303   -23278   -23276   -23288   -23303   -23317   -23326 
  -23325   -23320   -23322   -23326   -23322   -23310   -23292   -23250 
  -23178   -23086   -22985   -22887   -22791   -22684   -22565   -22437 
  -22296   -22148   -22003   -21871   -21760   -21668   -21594   -21536 
  -21498   -21481   -21482   -21499   -21520   -21538   -21552   -21554 
  -21544   -21532   -21521   -21515   -21515   -21515   -21514   -21519 
  -21527   -21526   -21515   -21504   -21498   -21504   -21517   -21522 
  -21519   -21504   -21463   -21398   -21331   -21274   -21227   -21182 
  -21141   -21113   -21096   -21080   -21075   -21084   -21096   -21108 
  -21126   -21156   -21192   -21213   -21213   -21217   -21240   -21264 
  -21293   -21342   -21407   -21474   -21554   -21656   -21781   -21916 
  -22051   -22181   -22296   -22393   -22476   -22550   -22628   -22714 
  -22795   -22880   -22983   -23104   -23236   -23371   -23515   -23669 
  -23814   -23945   -24064   -24172   -24271   -24355   -24419   -24464 
  -24494   -24520   -24546   -24563   -24569   -24569   -24572   -24580 
  -24591   -24603   -24619   -24637   -24658   -24682   -24700   -24689 
  -24643   -24577   -24510   -24446   -24368   -24266   -24148   -24029 
  -23917   -23814   -23718   -23617   -23503   -23385   -23277   -23180 
  -23093   -23014   -22939   -22861   -22768   -22666   -22570   -22487 
  -22418   -22352   -22281   -22199   -22104   -22002   -21898   -21796 
  -21695   -21592   -21491   -21399   -21316   -21241   -21171   -21102 
  -21040   -20998   -20975   -20965   -20963   -20960   -20953   -20946 
  -20945   -20957   -20977   -21000   -21034   -21076   -21118   -21171 
  -21236   -21297   -21346   -21400   -21482   -21588   -21695   -21802 
  -21920   -22031   -22125   -22201   -22250   -22276   -22279   -22257 
  -22220   -22175   -22113   -22030   -21929   -21814   -21687   -21559 
  -21441   -21335   -21240   -21150   -21070   -21019   -20991   -20978 
  -20987   -21018   -21054   -21091   -21148   -21226   -21304   -21367 
  -21413   -21447   -21474   -21496   -21525   -21571   -21620   -21655 
  -21665   -21651   -21633   -21622   -21608   -21588   -21557   -21503 
  -21430   -21349   -21264   -21187   -21136   -21115   -21121   -21137 
  -21154   -21184   -21231   -21279   -21314   -21336   -21350   -21355 
  -21354   -21358   -21382   -21420   -21452   -21485   -21528   -21577 
  -21611   -21618   -21613   -21604   -21592   -21589   -21597   -21607 
  -21609   -21603   -21602   -21609   -21617   -21624   -21628   -21633 
  -21641   -21658   -21675   -21688   -21708   -21742   -21783   -21818 
  -21834   -21836   -21840   -21842   -21832   -21814   -21794   -21769 
  -21738   -21706   -21677   -21651   -21619   -21577   -21538   -21505 
  -21466   -21416   -21352   -21278   -21193   -21096   -20980   -20858 
  -20754   -20674   -20608   -20552   -20509   -20487   -20487   -20506 
  -20544   -20608   -20685   -20763   -20847   -20944   -21048   -21151 
  -21248   -21339   -21414   -21470   -21526   -21591   -21654   -21705 
  -21755   -21826   -21920   -22018   -22109   -22195   -22279   -22343 
  -22387   -22423   -22444   -22446   -22442   -22440   -22434   -22422 
  -22399   -22358   -22317   -22294   -22292   -22300   -22316   -22338 
  -22364   -22393   -22428   -22462   -22483   -22485   -22484   -22492 
  -22501   -22500   -22483   -22464   -22463   -22477   -22493   -22503 
  -22503   -22489   -22457   -22400   -22307   -22188   -22061   -21939 
  -21816   -21695   -21582   -21480   -21387   -21303   -21250   -21245 
  -21275   -21332   -21426   -21557   -21724   -21916   -22110   -22307 
  -22517   -22733   -22940   -23133   -23308   -23457   -23576   -23666 
  -23729   -23773   -23799   -23806   -23804   -23790   -23757   -23709 
  -23650   -23569   -23481   -23406   -23340   -23276   -23219   -23181 
  -23162   -23144   -23108   -23062   -23016   -22965   -22897   -22817 
  -22740   -22665   -22593   -22533   -22496   -22482   -22481   -22477 
  -22473   -22467   -22444   -22396   -22331   -22261   -22184   -22098 
  -22013   -21941   -21883   -21841   -21814   -21807   -21822   -21847 
  -21869   -21884   -21893   -21892   -21881   -21865   -21849   -21823 
  -21780   -21728   -21684   -21648   -21619   -21601   -21604   -21618 
  -21636   -21657   -21678   -21694   -21711   -21735   -21777   -21840 
  -21922   -22009   -22091   -22171   -22256   -22336   -22407   -22478 
  -22555   -22633   -22700   -22753   -22797   -22823   -22825   -22804 
  -22762   -22719   -22685   -22656   -22632   -22611   -22589   -22568 
  -22553   -22557   -22587   -22640   -22712   -22800   -22898   -22996 
  -23082   -23155   -23219   -23264   -23279   -23264   -23228   -23176 
  -23113   -23051   -22985   -22906   -22820   -22738   -22656   -22567 
  -22478   -22392   -22308   -22226   -22154   -22093   -22046   -22017 
  -22015   -22051   -22124   -22214   -22315   -22433   -22557   -22671 
  -22768   -22856   -22935   -22996   -23026   -23029   -23011   -22982 
  -22953   -22926   -22903   -22887   -22875   -22862   -22840   -22803 
  -22758   -22708   -22649   -22585   -22520   -22464   -22431   -22414 
  -22405   -22412   -22434   -22457   -22478   -22507   -22542   -22579 
  -22615   -22642   -22654   -22637   -22590   -22522   -22446   -22366 
  -22281   -22187   -22090   -21996   -21902   -21802   -21697   -21597 
  -21500   -21396   -21295   -21208   -21132   -21068   -21020   -20992 
  -20986   -20996   -21024   -21075   -21141   -21215   -21295   -21367 
  -21425   -21483   -21553   -21619   -21670   -21713   -21745   -21755 
  -21747   -21730   -21706   -21695   -21716   -21761   -21816   -21872 
  -21932   -22004   -22088   -22168   -22232   -22279   -22319   -22362 
  -22423   -22503   -22590   -22679   -22770   -22872   -23002   -23153 
  -23294   -23426   -23546   -23642   -23719   -23782   -23821   -23825 
  -23799   -23753   -23687   -23606   -23528   -23467   -23418   -23366 
  -23301   -23225   -23150   -23081   -23018   -22954   -22887   -22819 
  -22759   -22709   -22656   -22591   -22514   -22421   -22318   -22224 
  -22146   -22084   -22036   -21999   -21959   -21909   -21865   -21828 
  -21791   -21765   -21747   -21719   -21669   -21608   -21559   -21537 
  -21541   -21563   -21609   -21679   -21771   -21873   -21979   -22088 
  -22206   -22337   -22480   -22629   -22771   -22902   -23037   -23180 
  -23309   -23408   -23483   -23548   -23605   -23654   -23694   -23739 
  -23787   -23826   -23869   -23930   -24006   -24085   -24153   -24217 
  -24300   -24393   -24486   -24583   -24678   -24760   -24824   -24872 
  -24908   -24935   -24949   -24940   -24913   -24874   -24821   -24760 
  -24701   -24643   -24577   -24507   -24433   -24356   -24273   -24179 
  -24081   -23987   -23890   -23785   -23675   -23566   -23478   -23414 
  -23351   -23274   -23193   -23113   -23040   -22972   -22898   -22808 
  -22707   -22609   -22525   -22461   -22415   -22376   -22339   -22315 
  -22309   -22321   -22353   -22407   -22475   -22538   -22580   -22604 
  -22628   -22662   -22705   -22748   -22786   -22820   -22845   -22855 
  -22855   -22859   -22878   -22909   -22939   -22966   -22988   -22993 
  -22987   -22980   -22978   -22984   -22996   -23013   -23033   -23043 
  -23044   -23045   -23051   -23071   -23095   -23105   -23098   -23077 
  -23041   -22996   -22946   -22896   -22838   -22759   -22672   -22600 
  -22546   -22503   -22472   -22445   -22410   -22355   -22283   -22202 
  -22113   -22014   -21906   -21791   -21670   -21546   -21426   -21311 
  -21207   -21118   -21045   -20995   -20978   -20996   -21036   -21081 
  -21121   -21154   -21171   -21175   -21176   -21179   -21174   -21159 
  -21138   -21120   -21113   -21121   -21137   -21158   -21193   -21243 
  -21304   -21369   -21434   -21498   -21560   -21606   -21624   -21617 
  -21595   -21562   -21513   -21454   -21396   -21342   -21291   -21250 
  -21212   -21176   -21149   -21127   -21093   -21050   -21009   -20969 
  -20930   -20894   -20862   -20824   -20769   -20695   -20611   -20534 
  -20465   -20403   -20351   -20318   -20295   -20264   -20215   -20157 
  -20099   -20029   -19951   -19886   -19832   -19778   -19731   -19707 
  -19716   -19755   -19797   -19834   -19885   -19958   -20047   -20147 
  -20247   -20342   -20434   -20535   -20652   -20776   -20896   -21013 
  -21130   -21246   -21361   -21467   -21557   -21632   -21699   -21761 
  -21824   -21899   -21993   -22093   -22206   -22332   -22451   -22551 
  -22634   -22708   -22787   -22867   -22930   -22971   -22999   -23028 
  -23069   -23128   -23197   -23262   -23317   -23360   -23389   -23403 
  -23394   -23360   -23312   -23261   -23211   -23161   -23114   -23082 
  -23060   -23032   -22998   -22969   -22944   -22914   -22878   -22834 
  -22783   -22729   -22667   -22607   -22565   -22541   -22520   -22494 
  -22462   -22425   -22378   -22318   -22259   -22214   -22182   -22156 
  -22135   -22115   -22095   -22084   -22079   -22063   -22031   -21988 
  -21942   -21890   -21844   -21811   -21779   -21733   -21674   -21610 
  -21549   -21492   -21438   -21392   -21355   -21317   -21273   -21236 
  -21221   -21224   -21232   -21239   -21259   -21310   -21379   -21439 
  -21485   -21516   -21540   -21575   -21631   -21709   -21792   -21849 
  -21873   -21881   -21882   -21869   -21841   -21788   -21714   -21644 
  -21594   -21558   -21538   -21537   -21555   -21594   -21651   -21711 
  -21773   -21838   -21901   -21959   -22008   -22032   -22028   -22003 
  -21969   -21936   -21901   -21861   -21826   -21798   -21764   -21713 
  -21655   -21599   -21538   -21475   -21432   -21402   -21370   -21336 
  -21303   -21279   -21269   -21262   -21254   -21259   -21297   -21374 
  -21476   -21580   -21686   -21808   -21943   -22080   -22214   -22340 
  -22458   -22576   -22679   -22775   -22882   -22985   -23071   -23142 
  -23195   -23225   -23236   -23240   -23244   -23254   -23270   -23275 
  -23264   -23249   -23232   -23197   -23128   -23026   -22903   -22778 
  -22667   -22574   -22506   -22462   -22429   -22398   -22373   -22365 
  -22377   -22394   -22408   -22417   -22411   -22381   -22340   -22305 
  -22288   -22285   -22278   -22259   -22235   -22209   -22188   -22174 
  -22158   -22134   -22102   -22054   -22000   -21963   -21944   -21922 
  -21882   -21832   -21786   -21754   -21735   -21725   -21727   -21743 
  -21768   -21791   -21815   -21854   -21902   -21949   -21993   -22038 
  -22084   -22134   -22191   -22259   -22335   -22401   -22448   -22478 
  -22506   -22545   -22595   -22650   -22711   -22776   -22837   -22890 
  -22944   -23005   -23069   -23140   -23212   -23268   -23297   -23297 
  -23276   -23259   -23274   -23312   -23352   -23387   -23409   -23424 
  -23447   -23473   -23481   -23467   -23433   -23396   -23368   -23340 
  -23305   -23269   -23224   -23162   -23088   -23021   -22967   -22907 
  -22832   -22746   -22652   -22559   -22473   -22396   -22328   -22265 
  -22211   -22168   -22141   -22121   -22101   -22082   -22063   -22045 
  -22040   -22056   -22095   -22149   -22200   -22234   -22254   -22264 
  -22271   -22288   -22312   -22328   -22338   -22352   -22370   -22393 
  -22434   -22490   -22552   -22609   -22647   -22666   -22669   -22657 
  -22633   -22611   -22606   -22611   -22618   -22629   -22644   -22655 
  -22659   -22652   -22635   -22601   -22548   -22490   -22422   -22328 
  -22200   -22042   -21878   -21729   -21588   -21446   -21300   -21143 
  -20974   -20797   -20620   -20448   -20295   -20163   -20045   -19939 
  -19850   -19776   -19716   -19672   -19645   -19633   -19624   -19621 
  -19644   -19703   -19787   -19886   -20000   -20131   -20274   -20412 
  -20527   -20608   -20656   -20680   -20696   -20715   -20740   -20771 
  -20810   -20855   -20906   -20959   -21018   -21090   -21170   -21256 
  -21345   -21435   -21518   -21580   -21618   -21648   -21678   -21711 
  -21758   -21826   -21906   -21980   -22045   -22100   -22153   -22199 
  -22229   -22252   -22281   -22318   -22362   -22404   -22435   -22450 
  -22452   -22459   -22479   -22503   -22531   -22565   -22601   -22644 
  -22694   -22749   -22815   -22893   -22977   -23049   -23100   -23139 
  -23180   -23231   -23279   -23304   -23301   -23273   -23239   -23219 
  -23214   -23199   -23162   -23115   -23069   -23024   -22978   -22932 
  -22890   -22852   -22817   -22782   -22750   -22712   -22657   -22582 
  -22495   -22410   -22338   -22294   -22276   -22277   -22286   -22294 
  -22301   -22311   -22336   -22385   -22455   -22529   -22602   -22680 
  -22757   -22830   -22910   -23004   -23115   -23238   -23358   -23477 
  -23599   -23720   -23842   -23977   -24132   -24303   -24483   -24653 
  -24798   -24923   -25027   -25106   -25162   -25203   -25235   -25260 
  -25274   -25271   -25250   -25214   -25164   -25111   -25065   -25020 
  -24964   -24898   -24815   -24717   -24613   -24505   -24390   -24281 
  -24180   -24081   -23977   -23866   -23752   -23643   -23536   -23424 
  -23321   -23230   -23150   -23078   -23000   -22901   -22788   -22668 
  -22549   -22442   -22352   -22263   -22173   -22100   -22056   -22039 
  -22042   -22054   -22067   -22079   -22090   -22106   -22128   -22142 
  -22137   -22117   -22089   -22055   -22010   -21963   -21932   -21928 
  -21941   -21961   -21991   -22029   -22073   -22120   -22166   -22211 
  -22245   -22263   -22274   -22285   -22292   -22288   -22270   -22240 
  -22207   -22178   -22150   -22118   -22088   -22049   -21996   -21950 
  -21928   -21924   -21917   -21902   -21890   -21879   -21858   -21826 
  -21791   -21764   -21739   -21704   -21663   -21636   -21632   -21648 
  -21676   -21706   -21743   -21793   -21849   -21903   -21957   -22017 
  -22084   -22152   -22212   -22261   -22300   -22340   -22398   -22491 
  -22610   -22740   -22865   -22975   -23076   -23184   -23301   -23425 
  -23544   -23653   -23761   -23875   -23980   -24065   -24128   -24180 
  -24223   -24256   -24281   -24287   -24265   -24213   -24137   -24049 
  -23954   -23851   -23730   -23595   -23465   -23350   -23241   -23147 
  -23084   -23050   -23041   -23046   -23058   -23086   -23126   -23174 
  -23235   -23306   -23378   -23443   -23499   -23539   -23561   -23578 
  -23599   -23621   -23640   -23655   -23655   -23638   -23612   -23574 
  -23521   -23464   -23410   -23358   -23305   -23247   -23179   -23106 
  -23033   -22975   -22944   -22923   -22895   -22861   -22818   -22765 
  -22698   -22610   -22508   -22412   -22325   -22239   -22165   -22112 
  -22080   -22063   -22049   -22035   -22035   -22053   -22076   -22097 
  -22115   -22132   -22145   -22150   -22141   -22118   -22093   -22068 
  -22043   -22020   -22006   -22002   -22007   -22015   -22028   -22061 
  -22125   -22215   -22324   -22447   -22582   -22730   -22884   -23045 
  -23210   -23360   -23489   -23617   -23760   -23904   -24029   -24132 
  -24216   -24281   -24329   -24354   -24354   -24324   -24265   -24189 
  -24100   -23996   -23876   -23744   -23619   -23513   -23419   -23330 
  -23242   -23159   -23091   -23036   -22988   -22949   -22918   -22889 
  -22853   -22808   -22766   -22731   -22697   -22659   -22627   -22603 
  -22582   -22560   -22542   -22530   -22514   -22489   -22465   -22452 
  -22443   -22439   -22437   -22428   -22409   -22373   -22320   -22267 
  -22224   -22190   -22165   -22158   -22178   -22221   -22266   -22307 
  -22334   -22342   -22336   -22323   -22307   -22287   -22257   -22221 
  -22188   -22164   -22140   -22112   -22079   -22041   -22001   -21961 
  -21915   -21866   -21811   -21748   -21672   -21581   -21489   -21408 
  -21340   -21281   -21232   -21196   -21181   -21199   -21245   -21303 
  -21366   -21438   -21521   -21618   -21721   -21824   -21926   -22026 
  -22121   -22207   -22289   -22376   -22465   -22543   -22602   -22647 
  -22674   -22680   -22680   -22685   -22690   -22690   -22683   -22666 
  -22642   -22619   -22601   -22587   -22563   -22524   -22481   -22451 
  -22436   -22430   -22433   -22445   -22467   -22496   -22532   -22579 
  -22637   -22692   -22735   -22771   -22806   -22829   -22829   -22825 
  -22835   -22848   -22851   -22849   -22847   -22836   -22813   -22782 
  -22751   -22722   -22697   -22679   -22670   -22672   -22678   -22685 
  -22693   -22695   -22695   -22708   -22735   -22769   -22811   -22859 
  -22907   -22952   -22997   -23043   -23092   -23151   -23213   -23262 
  -23303   -23348   -23388   -23409   -23401   -23375   -23344   -23305 
  -23252   -23191   -23121   -23042   -22961   -22895   -22855   -22835 
  -22816   -22800   -22803   -22820   -22844   -22876   -22904   -22928 
  -22959   -22995   -23037   -23082   -23117   -23138   -23142   -23128 
  -23107   -23089   -23079   -23072   -23057   -23034   -23006   -22969 
  -22925   -22880   -22847   -22826   -22814   -22813   -22826   -22849 
  -22873   -22894   -22916   -22937   -22966   -23010   -23060   -23102 
  -23127   -23140   -23156   -23176   -23199   -23213   -23214   -23206 
  -23185   -23145   -23096   -23040   -22986   -22932   -22869   -22790 
  -22693   -22583   -22469   -22367   -22282   -22198   -22110   -22020 
  -21917   -21796   -21670   -21552   -21453   -21385   -21351   -21342 
  -21336   -21331   -21323   -21307   -21289   -21272   -21246   -21205 
  -21160   -21135   -21130   -21137   -21155   -21189   -21248   -21332 
  -21426   -21518   -21611   -21701   -21796   -21904   -22024   -22157 
  -22286   -22393   -22493   -22593   -22689   -22787   -22883   -22970 
  -23036   -23068   -23068   -23040   -22990   -22929   -22870   -22826 
  -22791   -22753   -22705   -22652   -22598   -22545   -22501   -22467 
  -22434   -22398   -22356   -22308   -22248   -22173   -22087   -21997 
  -21908   -21821   -21731   -21630   -21517   -21404   -21299   -21194 
  -21086   -20988   -20918   -20874   -20828   -20767   -20698   -20628 
  -20554   -20478   -20410   -20344   -20265   -20185   -20126   -20090 
  -20068   -20048   -20029   -20016   -20011   -20010   -20017   -20030 
  -20041   -20037   -20018   -19995   -19982   -19982   -19987   -19998 
  -20027   -20084   -20162   -20258   -20371   -20496   -20623   -20744 
  -20861   -20980   -21103   -21217   -21309   -21384   -21452   -21511 
  -21563   -21610   -21659   -21711   -21764   -21804   -21827   -21851 
  -21887   -21931   -21976   -22015   -22055   -22108   -22168   -22228 
  -22293   -22366   -22441   -22508   -22563   -22613   -22666   -22715 
  -22755   -22793   -22840   -22892   -22943   -22997   -23053   -23106 
  -23153   -23189   -23218   -23252   -23294   -23341   -23394   -23455 
  -23515   -23565   -23603   -23636   -23663   -23686   -23712   -23732 
