Origin Time       2011/03/11 14:46:00
Lat.              38.103
Long.             142.860
Depth. (km)       24
Mag.              9.0
Station Code      HKD155
Station Lat.      42.0438
Station Long.     140.8064
Station Height(m) 4
Record Time       2011/03/11 14:47:56
Sampling Freq(Hz) 100Hz
Duration Time(s)  287
Dir.              E-W
Scale Factor      3920(gal)/6182761
Max. Acc. (gal)   9.745
Last Correction   2011/03/11 14:47:41
Memo.             
[...]
    3258     2371     1782     1721     1865     2089     2433     2628 
    2601     2593     2413     2086     2402     3326     3888     4114 
    4593     5187     5858     6679     6981     6376     5499     5110 
    5344     5672     5711     5653     5481     5046     4542     3916 
    3141     2780     2811     2463     1845     1635     1825     2190 
    2567     2662     2485     2139     1528      738     -171    -1058 
   -1321     -824     -215      309      850      967      590      356 
     400      338       34     -329     -478     -413     -240      239 
    1007     1610     1937     2216     2529     3015     3690     4191 
    4450     4727     5016     5149     4857     3939     2777     1986 
    1811     2137     2506     2535     2565     3014     3467     3424 
    3158     2971     2735     2491     2458     2638     2982     3391 
    3648     3692     3642     3600     3619     3727     3898     4003 
    4072     4393     4998     5675     6408     7042     7223     7117 
    7002     6466     5367     4529     4422     4604     4740     4826 
    4852     4936     5269     5836     6244     6039     5441     4950 
    4449     3815     3227     2375     1059      -17     -499     -871 
   -1317    -1793    -2545    -3526    -4312    -4748    -5099    -5604 
   -6067    -6278    -6374    -6180    -5476    -4815    -4567    -4233 
   -3482    -2514    -1537     -761     -394     -463     -831    -1192 
   -1328    -1392    -1617    -2116    -2871    -3518    -3728    -3589 
   -3070    -2202    -1585    -1284     -544      545     1283     1738 
    2044     1978     1703     1412     1040      623      185      -63 
     190      521      387      122       38       79      489     1167 
    1547     1698     2025     2576     3331     4200     4889     5124 
    4871     4468     4304     4206     3866     3452     2946     2098 
    1352     1102      888      664     1088     2101     2934     3375 
    3922     4777     5524     6006     6584     7365     8129     8692 
    8675     7985     7357     7151     6883     6431     5862     4940 
    3926     3319     2947     2341     1252     -186    -1443    -2225 
   -2597    -2467    -2083    -2275    -3260    -4527    -5813    -6984 
   -7742    -8042    -8237    -8871   -10080   -11239   -11730   -11547 
  -10915   -10019    -8957    -7733    -6556    -5618    -4673    -3698 
   -3134    -3019    -3165    -3706    -4415    -4752    -4768    -4646 
   -4208    -3545    -2965    -2449    -1897    -1296     -703     -369 
    -588    -1556    -3015    -4181    -4854    -5485    -5839    -5497 
   -4903    -4328    -3586    -2859    -2013     -650      708     1450 
    1706     1561     1181     1009     1011      973     1014     1219 
    1739     2597     3152     3138     3121     3205     3222     3437 
    3531     2765     1556     1020     1374     1859     1841     1549 
    1466     1466     1375     1550     2179     2928     3278     2811 
    1890     1561     2037     2428     2019      971      211      409 
    1079     1456     1436     1374     1622     1994     2013     1805 
    1698     1597     1481     1466     1520     1755     2172     2286 
    1904     1508     1267      785       57     -549    -1114    -1728 
   -1834    -1021      151      895     1277     1797     2563     3472 
    4200     4133     3403     2811     2439     2050     1864     1717 
    1319     1106     1154      963      902     1638     2745     3380 
    3415     3374     3671     4224     4821     5216     5086     4721 
    4748     4923     4775     4682     4912     5051     4899     4591 
    4314     4419     4961     5450     5550     5406     5288     5188 
    4696     3842     3510     4002     4662     5294     6036     6492 
    6349     5942     5841     6091     6021     5290     4385     3699 
    3306     3235     3077     2495     2034     2131     2403     2611 
    2984     3567     4068     4154     3994     4213     4866     5321 
    5195     4488     3421     2603     2434     2529     2434     2067 
    1429      870      943     1630     2398     2622     1935      741 
    -235     -734     -751     -590     -799    -1167    -1295    -1535 
   -1759    -1422     -888     -519      -83      358      694     1057 
    1315     1247      884      504      434      598      770     1127 
    1631     1804     1902     2654     3724     4308     4440     4477 
    4474     4290     3787     3148     2469     1612      920      629 
     396      406      902     1228     1136     1170     1395     1591 
    1558      768     -481     -977     -706     -576     -571     -339 
     -23      348      746      884      876     1205     2017     2918 
    3529     4184     5327     6445     6992     7332     7675     7803 
    7789     7561     6919     6175     5539     4852     4265     4029 
    4176     4688     5385     6112     6950     7767     8256     8383 
    8184     7643     6941     6318     5706     4688     3027     1210 
    -195    -1377    -2601    -3616    -4394    -5092    -5483    -5486 
   -5200    -4486    -3591    -2993    -2465    -1498      -48     1545 
    2924     4119     5286     6063     6118     5755     5294     4893 
    4758     4590     3926     3093     2550     2228     2043     2016 
    2277     3058     4106     4939     5605     6189     6449     6538 
    6953     7793     8912    10078    10851    11164    11474    11927 
   12256    12425    12609    12705    12508    12201    12061    11917 
   11543    11249    11247    11086    10540     9933     9351     8685 
    7919     6940     5715     4503     3767     3622     3333     2408 
    1662     1707     1888     1726     1444     1076      668      520 
     616      620      350       99      251      448      213     -110 
    -358     -858    -1433    -1964    -2786    -3591    -3846    -3880 
   -3996    -4119    -4586    -5380    -5705    -5285    -4628    -4365 
   -4828    -5478    -5475    -4879    -4205    -3738    -3582    -3362 
   -2795    -2481    -2541    -2042     -772      502     1318     1798 
    2450     3667     4953     5549     5525     5339     5251     5360 
    5381     4920     4057     3093     2289     1749     1293      860 
     420     -321    -1101    -1216     -818     -609     -709     -924 
   -1253    -1649    -2019    -2400    -2839    -3325    -3747    -4094 
   -4673    -5480    -6074    -6563    -7285    -7840    -7859    -7546 
   -7003    -6367    -5962    -5714    -5370    -4806    -4015    -3566 
   -3934    -4546    -4920    -5151    -5036    -4662    -4536    -4387 
   -3765    -2940    -2143    -1324     -447      423      975     1377 
    2233     3239     3818     4312     4974     5409     5468     5439 
    5489     5486     5369     5253     4948     4068     2839     1796 
     776     -432    -1259    -1600    -2170    -2847    -2945    -2715 
   -2604    -2526    -2638    -3066    -3459    -3673    -3803    -3848 
   -3852    -3891    -3914    -3591    -2667    -1654    -1145     -796 
    -256       43      -49     -107     -120     -381     -883    -1500 
   -2104    -2543    -2562    -2049    -1677    -1859    -1674     -754 
      18      463      921     1100      877      501      -40     -752 
   -1521    -2251    -2749    -2934    -2893    -2597    -1995    -1173 
    -387       64      193      258      427      846     1588     2360 
    2865     3132     3074     2752     2783     3110     3000     2750 
    2964     3192     3108     2956     2553     1754      990      470 
     -86     -846    -1652    -2238    -2567    -2774    -2817    -2699 
   -2553    -2223    -1741    -1645    -2024    -2532    -3288    -4303 
   -5065    -5444    -5806    -6363    -6952    -7196    -7011    -6710 
   -6513    -6443    -6252    -5540    -4500    -3706    -3184    -2676 
   -2272    -2014    -1604     -881       -5      708      953      902 
    1104     1539     1812     2078     2697     3664     4737     5465 
    5613     5545     5645     5960     6267     6317     6417     6826 
    6981     6614     6144     5651     5122     4797     4503     3978 
    3456     3084     2675     2182     1633     1085      725      438 
     -78     -937    -2210    -3453    -3921    -3857    -3870    -3809 
   -3593    -3440    -3086    -2281    -1447     -927     -386      411 
     946      871      716      886     1213     1682     2214     2396 
    2372     2679     3136     3343     3591     3999     4013     3548 
    3180     3173     3441     3922     4434     4569     4036     3246 
    2950     3168     3473     3834     4246     4514     4713     5041 
    5454     5645     5268     4457     3742     3333     3258     3615 
    4157     4587     5020     5482     5846     6243     6718     7056 
    7110     6705     5902     5144     4467     3622     2655     1473 
      97     -970    -1778    -2819    -3865    -4508    -4791    -4673 
   -4218    -3873    -3713    -3461    -3227    -3211    -3299    -3285 
   -3010    -2558    -2257    -2164    -2084    -1903    -1678    -1812 
   -2634    -3647    -4241    -4616    -5051    -5388    -5492    -5260 
   -4672    -4030    -3588    -3220    -2632    -1820    -1158     -694 
     -27      802     1455     1919     2071     1763     1454     1443 
    1296      897      771     1087     1499     1813     2120     2535 
    3039     3504     3817     3903     3822     3753     3559     3027 
    2558     2558     2810     3052     3175     3066     2989     3247 
    3466     3208     2675     2135     1600     1120      624       -7 
    -505     -434      280     1135     1600     1956     2677     3414 
    3717     3670     3497     3520     3745     3603     3091     2847 
    2945     3101     3183     2952     2433     2070     1991     1984 
    1951     1831     1575     1175      527     -383    -1292    -2049 
   -2678    -3009    -2985    -2912    -2944    -2937    -2764    -2372 
   -1795    -1180     -739     -658     -902    -1209    -1322    -1200 
   -1140    -1414    -1830    -2185    -2682    -3305    -3710    -3890 
   -4071    -4322    -4639    -4904    -4988    -5103    -5311    -5222 
   -4714    -3960    -3140    -2738    -2776    -2494    -1847    -1406 
   -1093     -655     -103      659     1636     2702     3809     4730 
    5187     5375     5716     6285     6851     7227     7530     8024 
    8620     9043     9242     8997     7941     6209     4306     2665 
    1559      845      143     -550    -1009    -1085     -786     -633 
   -1087    -1687    -1829    -1446     -723     -119       43      -19 
    -168     -355     -298     -253     -716    -1285    -1593    -2144 
   -3087    -3812    -4003    -4016    -4278    -4681    -4927    -5039 
   -4857    -3993    -2635    -1324     -225      675     1290     1642 
    1813     1806     1669     1506     1530     1960     2682     3542 
    4667     5981     7140     8070     8807     9178     9101     8710 
    8185     7704     7236     6646     6291     6454     6595     6383 
    6178     6016     5722     5434     5084     4407     3449     2367 
    1342      580      -13     -515     -736     -561      -42      552 
     957     1455     2278     3039     3598     4218     4822     5243 
    5407     5047     4229     3494     3173     3234     3383     3319 
    3131     2984     2824     2537     1935     1027      221     -348 
    -937    -1430    -1588    -1707    -1914    -1872    -1602    -1227 
    -494      556     1516     2261     3019     3957     4806     5247 
    5475     5656     5551     5253     5028     4609     3912     3415 
    3163     2883     2621     2346     2111     2227     2495     2485 
    2233     1853     1494     1345     1246     1181     1394     1645 
    1594     1313      814      116     -547    -1051    -1393    -1584 
   -1589    -1262     -867    -1042    -1578    -1603    -1186    -1042 
   -1177    -1173     -879     -400     -134     -371     -788     -963 
    -868     -667     -548     -519     -456     -479     -644     -754 
    -873     -970     -690     -254       45      710     1787     2605 
    3257     4213     5208     5860     6195     6340     6451     6595 
    6695     6636     6164     5166     3905     2577     1278      250 
    -441     -900    -1142    -1466    -2207    -3023    -3490    -3746 
   -4062    -4585    -5093    -5093    -4789    -4891    -5384    -5663 
   -5418    -4842    -4472    -4688    -5179    -5437    -5514    -5695 
   -6045    -6422    -6505    -6273    -6085    -5930    -5636    -5289 
   -4771    -4138    -3836    -3665    -3120    -2388    -1653     -869 
    -354     -276     -489     -928    -1365    -1778    -2467    -3128 
   -3444    -3785    -4089    -4038    -3965    -3948    -3607    -3027 
   -2545    -2376    -2554    -2627    -2202    -1575    -1031     -430 
     244      861     1451     1976     2260     2327     2436     2656 
    2776     2826     3153     3704     3994     3931     3792     3715 
    3877     4344     4786     5057     5378     5848     6423     7015 
    7453     7633     7456     7007     6891     7345     7670     7621 
    7731     7922     7778     7562     7532     7458     7289     7141 
    6826     6191     5598     5557     6008     6367     6203     5454 
    4223     2845     1726      822     -109     -957    -1412    -1340 
    -977     -734     -693     -682     -558      -33     1077     2447 
    3877     5658     7763     9798    11635    13190    14381    15380 
   16199    16573    16393    15833    15211    14610    13731    12572 
   11579    10734     9704     8700     8031     7669     7556     7513 
    7498     7788     8202     8286     8173     8012     7506     6683 
    5930     5424     5242     5375     5580     5656     5536     5261 
    4887     4237     3284     2362     1645     1127      686      -99 
   -1276    -2341    -3236    -4099    -4523    -4517    -4762    -5310 
   -5775    -6304    -7005    -7649    -8242    -8841    -9264    -9347 
   -9146    -8872    -8419    -7490    -6434    -5751    -5328    -5045 
   -4764    -4076    -3227    -2703    -2163    -1317     -437      417 
    1237     1744     1871     1913     2105     2228     1853     1121 
     705      870     1311     1895     2800     4028     5162     5659 
    5627     5875     6633     7300     7561     7400     6831     6279 
    5820     4918     3816     3315     3505     4159     5114     6037 
    6793     7393     7643     7406     6737     5818     4890     4101 
    3597     3518     3666     3879     4420     5009     4895     4389 
    4124     3841     3560     3650     3692     3302     2883     2776 
    2924     3222     3497     3609     3741     4153     4592     4438 
    3680     3001     2720     2612     2571     2548     2554     2873 
    3259     2798     1614      948     1088     1272     1089      552 
     -92     -426     -437     -509     -988    -1961    -3022    -3765 
   -4485    -5524    -6564    -7228    -7535    -7648    -7809    -7989 
   -7850    -7495    -7143    -6518    -5590    -4670    -3710    -2721 
   -1963    -1405    -1055    -1103    -1294    -1276    -1146    -1005 
    -789     -456      -89      114      215      395      485      414 
     332       31     -597    -1058    -1063     -797     -198      818 
    2015     3260     4385     5126     5619     5987     6129     6399 
    7168     8005     8261     8004     7871     8071     8150     7968 
    7739     7249     6528     6109     5702     4695     3571     2798 
    1922      877      229      200      784     1787     2453     2237 
    1503      965      960     1176     1226     1336     1636     1651 
    1209      646      268      388      981     1363     1184      874 
     833     1055     1270     1343     1624     2302     2954     3300 
    3466     3628     3953     4305     4345     4283     4388     4320 
    3985     3700     3363     2860     2493     2387     2466     2589 
    2490     2366     2581     2810     2677     2325     1900     1387 
     714      -51     -417      -69      654     1306     1572     1515 
    1783     2422     2600     2243     1863     1343      603       16 
    -332     -459     -234      160      498      779      726      188 
    -311     -369     -145       60      117      264      739     1259 
    1472     1525     1851     2622     3467     3963     4295     4850 
    5544     6074     6147     5479     4274     3160     2398     1862 
    1501     1322     1405     1829     2331     2583     2580     2468 
    2450     2534     2405     2073     1772     1426     1222     1476 
    1892     2162     2322     2287     2134     2216     2445     2448 
    2236     2021     2038     2369     2555     2223     1601      835 
      47     -354     -420     -466     -303       72      311      430 
     387      -38     -668    -1295    -1873    -2273    -2492    -2476 
   -2153    -1873    -1744    -1325     -617       -3      349      108 
    -871    -1939    -2539    -2752    -2860    -3287    -4202    -5207 
   -6170    -7245    -8253    -9124    -9893   -10081    -9239    -7617 
   -5847    -4381    -3245    -2340    -1758    -1422    -1086     -790 
    -501       75      791     1220     1467     1805     1999     1618 
     517     -914    -1900    -2303    -2792    -3586    -4281    -4654 
   -4546    -3911    -3154    -2476    -1604     -550      364     1000 
    1495     2070     2678     3152     3637     4178     4558     4920 
    5415     5783     6028     6251     6247     6344     7018     7675 
    7705     7537     7521     7438     7095     6391     5532     4974 
    4748     4611     4412     4037     3646     3438     3205     2846 
    2532     2159     1558      824     -159    -1654    -3305    -4406 
   -4917    -5357    -5943    -6605    -7541    -8750    -9544    -9645 
   -9648    -9713    -9594    -9747   -10353   -10631   -10348    -9975 
   -9545    -8774    -7506    -5883    -4294    -2869    -1493     -116 
    1231     2455     3515     4424     5031     5148     4970     4806 
    4567     4241     4077     3868     3239     2384     1808     1790 
    2091     2312     2493     2732     2970     3471     4301     4970 
    5505     6193     6454     5861     4969     4279     3984     4159 
    4345     4090     3687     3457     3084     2132      654     -903 
   -2332    -3841    -5303    -6237    -6660    -6862    -6972    -7209 
   -7568    -7704    -7586    -7354    -7037    -6855    -6801    -6437 
   -5794    -5289    -4935    -4654    -4454    -4296    -4403    -4784 
   -5010    -5064    -5084    -4907    -4752    -4846    -4715    -4178 
   -3683    -3240    -2622    -2078    -1794    -1603    -1357     -932 
    -294      507     1430     2201     2665     3140     3671     4064 
    4468     4867     5099     5514     6330     7095     7406     7241 
    6825     6556     6449     6052     5245     4352     3672     3361 
    3244     2926     2459     2255     2455     2930     3287     3172 
    3037     3361     3614     3376     3020     2860     2965     3213 
    3281     3242     3421     3758     4067     4231     4122     3850 
    3472     2715     1595      357    -1004    -2254    -3020    -3440 
   -3573    -3206    -2709    -2519    -2372    -2041    -1541     -807 
    -105      239      419      600      642      593      795     1500 
