Origin Time       2011/03/11 14:46:00
Lat.              38.103
Long.             142.860
Depth. (km)       24
Mag.              9.0
Station Code      HKD110
Station Lat.      42.1310
Station Long.     142.9354
Station Height(m) 4
Record Time       2011/03/11 14:47:55
Sampling Freq(Hz) 100Hz
Duration Time(s)  300
Dir.              N-S
Scale Factor      3920(gal)/6182761
Max. Acc. (gal)   35.387
Last Correction   2011/03/11 14:47:40
Memo.             
[...]
   -1026    -1301    -1033     -429      511     2103     4205     6350 
    8251     9673    10506    10949    11205    11307    11205    10784 
   10018     9105     8214     7229     5937     4326     2737     1634 
    1031      575      107     -517    -1523    -2756    -3880    -4912 
   -6051    -7318    -8567    -9688   -10702   -11535   -11857   -11498 
  -10732    -9904    -9120    -8391    -7735    -6940    -5662    -4016 
   -2568    -1645    -1284    -1563    -2343    -3147    -3582    -3556 
   -3090    -2086     -370     1873     4115     5987     7293     7943 
    8168     8282     8249     7941     7478     6975     6458     6136 
    6062     5836     5114     3828     2133      489     -790    -1755 
   -2427    -2902    -3472    -4182    -4741    -4848    -4379    -3521 
   -2618    -1740     -736      304     1114     1620     1790     1382 
     253    -1313    -2868    -4152    -5169    -5881    -5941    -5105 
   -3561    -1606      445     2130     3069     3176     2723     2300 
    2402     3008     3659     3874     3414     2315      921     -306 
   -1155    -1647    -1844    -1852    -1671    -1137     -141     1316 
    3161     5182     7161     8964    10344    11077    11227    10889 
    9994     8593     6878     5017     3277     1891      879      298 
     155      183      318      785     1561     2398     3100     3694 
    4402     5040     5099     4678     4115     3251     1958      369 
   -1428    -3183    -4476    -5035    -4924    -4478    -3958    -3569 
   -3525    -3744    -4115    -4724    -5350    -5683    -5901    -6464 
   -7719    -9493   -11142   -12379   -13341   -13898   -13813   -13204 
  -12343   -11248    -9690    -7812    -6229    -5160    -4388    -3967 
   -3991    -4213    -4357    -4165    -3302    -1652      588     3160 
    5836     8224     9885    10895    11637    11930    11465    10737 
   10448    10712    11253    11726    12073    12578    13335    14276 
   15390    16201    16112    15559    15161    14728    14094    13024 
   11024     8100     4609     1093    -2143    -5281    -7983    -9668 
  -10554   -11131   -11506   -11517   -11117   -10528    -9926    -9448 
   -9317    -9474    -9530    -9043    -7648    -5406    -2933     -757 
    1063     2556     3612     4064     3770     2831     1545       40 
   -1482    -2557    -3090    -3391    -3667    -4119    -4856    -5756 
   -6696    -7235    -6796    -5570    -4146    -2687    -1172      362 
    1863     3209     4341     5207     5615     5667     5929     6733 
    7868     9036    10164    11273    12213    12513    11734    10003 
    7935     6088     4721     3956     3846     4144     4561     5239 
    6174     6619     5934     4282     1969     -805    -3494    -5622 
   -7215    -8233    -8500    -8247    -7827    -7282    -6605    -5906 
   -5363    -4982    -4340    -3134    -1559      327     2601     5073 
    7637    10179    12271    13725    14721    15297    15477    15401 
   15060    14417    13614    12739    11823    11109    10634     9993 
    9011     7768     6282     4851     3619     2092      160    -1504 
   -2424    -2539    -1923     -795      604     1993     3191     4259 
    5041     5261     5144     5017     4758     4073     2782      827 
   -1537    -3610    -4657    -4530    -3520    -1944     -273      900 
    1355     1348     1137      805      567      704     1207     1838 
    2405     2993     3858     4991     6109     6965     7398     7391 
    7163     7010     6974     6766     6086     5029     3900     2712 
    1422      272     -588    -1142    -1194     -581      567     2006 
    3660     5629     7806     9800    11462    12793    13582    13995 
   14563    15181    15417    15376    15117    14277    12968    11839 
   11160    10730    10249     9302     7544     5042     2202     -546 
   -3039    -5356    -7503    -9426   -11164   -12664   -13647   -13841 
  -13250   -12203   -11211   -10679   -10564   -10533   -10418   -10207 
   -9859    -9304    -8329    -6592    -4019     -931     2191     4829 
    6557     7226     7090     6828     6938     7015     6286     4674 
    2777     1236      420      367      939     1877     2807     3488 
    3860     3955     3945     3957     4100     4577     5275     5756 
    5730     5069     3934     2793     1881     1260     1101     1219 
    1250     1357     1836     2449     2752     2602     2080     1282 
     443      -89     -257     -278     -228     -103      107      644 
    1687     2948     4050     4942     5635     5963     5770     5086 
    4242     3718     3634     3722     3681     3209     2289     1320 
     481     -360    -1327    -2481    -3546    -4221    -4755    -5311 
   -5688    -5898    -5898    -5330    -4083    -2392     -578      991 
    2055     2635     2946     3157     3094     2311      710    -1304 
   -3317    -5016    -6090    -6563    -6729    -6633    -6173    -5483 
   -4764    -4011    -3150    -2339    -2044    -2590    -3530    -4010 
   -3811    -3149    -2012     -612      546     1248     1524     1502 
    1440     1538     1885     2345     2695     3090     3662     4141 
    4532     5031     5426     5689     6179     6711     6676     5901 
    4467     2237     -944    -4889    -9130   -13236   -16924   -20100 
  -22838   -25080   -26647   -27543   -27699   -26800   -24801   -22067 
  -18945   -15725   -12718    -9985    -7302    -4507    -1607     1374 
    4510     7763    10851    13726    16590    19145    20873    21926 
   22692    23045    22608    21266    19312    17010    14205    10854 
    7321     3806      444    -2334    -4293    -5473    -5884    -5793 
   -5534    -5075    -4419    -3740    -3078    -2455    -1906    -1431 
    -951     -139     1177     2686     4252     6106     8183    10113 
   11708    12934    13625    13646    13212    12760    12591    12730 
   12847    12497    11644    10540     9357     8260     7278     6319 
    5544     5102     4752     4307     3868     3529     3380     3496 
    3753     4023     4149     3752     2734     1425      -88    -1909 
   -3784    -5273    -6154    -6572    -6872    -7081    -7014    -6802 
   -6540    -6015    -5119    -3929    -2510     -848     1022     2821 
    4344     5847     7635     9625    11546    13181    14276    14424 
   13335    11363     9189     6944     4526     2401     1009       36 
    -838    -1314    -1047      -66     1373     2898     4253     5460 
    6570     7587     8662     9736    10383    10510    10506    10530 
   10429    10201     9927     9563     9186     9028     9055     8747 
    7547     5531     3173      607    -2148    -4763    -6994    -8804 
  -10016   -10468   -10342    -9975    -9487    -8677    -7293    -5249 
   -2585      331     2863     4794     6411     8030     9914    12124 
   14464    16728    18480    19153    18850    18128    17265    16471 
   16051    15865    15345    14261    12835    11125     9114     7117 
    5265     3231     1025     -813    -2138    -3467    -5259    -7568 
  -10204   -12928   -15522   -17692   -19140   -19873   -20140   -19888 
  -18637   -16083   -12666    -9128    -5629    -2005     1551     4818 
    7805    10389    12381    13777    14720    15347    15692    15828 
   15921    15967    15896    15732    15406    14788    13911    12947 
   12102    11342    10282     8659     6437     3449     -185    -3756 
   -6778    -9303   -11325   -12811   -14102   -15677   -17675   -19793 
  -21573   -22736   -23133   -22567   -21042   -18981   -16706   -14081 
  -11166    -8443    -6104    -4079    -2536    -1560     -938     -506 
    -164      207      583      900     1265     1867     2709     3494 
    3867     3641     2668      815    -1732    -4458    -6811    -8387 
   -9166    -9556    -9920   -10291   -10594   -10740   -10571   -10039 
   -9296    -8349    -6889    -4840    -2785    -1330     -465      -32 
    -113     -624    -1119    -1210     -857     -158      812     1812 
    2547     3081     3682     4579     6022     7899     9739    11428 
   13031    14276    14953    15008    14344    13113    11632     9938 
    7959     5772     3482     1253     -728    -2416    -3674    -4295 
   -4487    -4735    -5236    -5930    -6857    -8136    -9639   -11055 
  -12306   -13395   -14076   -14143   -13563   -12168    -9875    -7038 
   -4107    -1242     1507     3969     6001     7606     8907    10131 
   11547    13378    15645    18047    20191    21866    23033    23773 
   24338    25113    26187    27028    26968    25846    23910    21450 
   18551    15167    11585     8297     5352     2491     -425    -3469 
   -6625    -9697   -12454   -14776   -16675   -18216   -19472   -20523 
  -21406   -22118   -22602   -22787   -22716   -22331   -21388   -19920 
  -18234   -16482   -14736   -13074   -11321    -9221    -6789    -4247 
   -1789      572     2847     4908     6886     9109    11261    12624 
   13012    12624    11498     9660     7499     5662     4424     3680 
    3524     4060     5081     6364     7788     9264    10619    11526 
   11864    11785    11347    10539     9386     8005     6861     6449 
    6719     7387     8243     8940     9002     8023     5961     3334 
     641    -2176    -5226    -8305   -11198   -13664   -15354   -16085 
  -15980   -15298   -14074   -12223   -10036    -7728    -5079    -2088 
    1146     4837     8879    12769    16280    19422    22194    24596 
   26618    28368    29944    31186    31957    32322    32309    31857 
   30931    29464    27469    25202    22860    20373    17631    14541 
   11022     7131     3045    -1109    -5285    -9616   -14303   -19080 
  -23379   -26964   -29660   -31170   -31502   -30870   -29431   -27459 
  -25191   -22675   -20172   -18099   -16485   -15047   -13564   -11867 
   -9887    -7766    -5723    -4047    -3063    -2710    -2599    -2635 
   -3062    -3943    -5086    -6258    -7176    -7692    -8002    -8340 
   -8862    -9801   -11056   -12004   -12370   -12657   -13330   -14297 
  -15375   -16557   -17801   -18884   -19571   -19886   -19876   -19353 
  -18193   -16474   -14255   -11522    -8291    -4732    -1117     2420 
    5817     8996    12013    14754    16734    17869    18691    19410 
   19904    20311    20596    20587    20519    20420    19999    19274 
   18240    16775    15013    13093    11044     8833     6267     3272 
      98    -2856    -5177    -6651    -7251    -6905    -5755    -4373 
   -3355    -3044    -3522    -4592    -5959    -7303    -8197    -8368 
   -7921    -7130    -6165    -5020    -3520    -1389     1531     5047 
    8733    12166    15101    17657    20002    21775    22475    22090 
   20869    19054    16923    14834    13087    11440     9359     6892 
    4323     1476    -1830    -5388    -8989   -12659   -16349   -19804 
  -22907   -25686   -27884   -29105   -29233   -28409   -26880   -24734 
  -21801   -18332   -15236   -13068   -11661   -10836   -10363    -9698 
   -8619    -7370    -6090    -4770    -3466    -2273    -1281     -473 
     339     1336     2629     4340     6329     8194     9823    11335 
   12682    13872    15053    16092    16752    17163    17552    17751 
   17418    16387    14608    12190     9508     6910     4566     2527 
     736     -937    -2651    -4335    -5717    -6816    -7800    -8568 
   -8985    -9149    -9270    -9477    -9745   -10098   -10693   -11476 
  -12130   -12434   -12315   -11749   -10742    -9103    -6648    -3822 
   -1250     1042     3193     5117     6834     8401     9709    10670 
   11434    12356    13596    14887    15994    16900    17495    17769 
   17995    18318    18452    17905    16597    14897    12796     9992 
    6873     4076     1667     -217    -1290    -1986    -2921    -3950 
   -4622    -4654    -3956    -2931    -2110    -1633    -1593    -2002 
   -2534    -3082    -3848    -4802    -5847    -6990    -8026    -8681 
   -8861    -8591    -8060    -7489    -7017    -6847    -7075    -7464 
   -7560    -7026    -6092    -5271    -4672    -4158    -3655    -2980 
   -1902     -623      251      642     1175     2113     3189     4404 
    5969     7839     9781    11427    12420    12687    12329    11563 
   10738    10117     9715     9324     8774     8066     7194     6229 
    5395     4850     4669     4856     5184     5409     5525     5481 
    5111     4424     3523     2398      978     -687    -2423    -4217 
   -6318    -8851   -11506   -13759   -15318   -16128   -16097   -15348 
  -14517   -14030   -13582   -12925   -12282   -11738   -11026    -9825 
   -8061    -6084    -4295    -2729    -1408     -430      444     1441 
    2418     3356     4365     5192     5526     5409     4878     4007 
    3306     3138     3196     3052     2449     1362      208     -677 
   -1246    -1344    -1003     -286      949     2482     3988     5384 
    6567     7503     8127     8232     7895     7372     6581     5377 
    4171     3668     3991     4670     5532     6757     8242     9818 
   11523    13167    14363    15014    15263    15152    14564    13508 
   12225    10860     9370     7824     6414     5292     4702     5060 
    6485     8503    10588    12590    14503    16264    17765    18975 
   19987    20762    21053    20784    20185    19505    18763    17909 
   17029    16224    15578    15084    14377    13109    11308     8973 
    6032     2452    -1952    -7180   -12850   -18666   -24492   -30184 
  -35660   -40716   -45012   -48442   -51057   -52861   -54045   -54799 
  -54900   -54182   -52879   -50998   -48198   -44468   -40220   -35623 
  -30419   -24683   -19082   -13979    -9164    -4500       26     4535 
    9087    13663    18211    22567    26589    30341    34004    37651 
   41129    44114    46311    47577    47833    47045    45342    42892 
   39737    36093    32430    28898    25316    21759    18380    14977 
   11253     7125     2774    -1490    -5503    -9247   -12656   -15772 
  -18703   -21324   -23324   -24402   -24627   -24440   -24008   -23177 
  -21856   -19866   -17039   -13753   -10507    -7170    -3610     -200 
    2964     6143     9391    12580    15537    18106    20141    21431 
   22119    22834    23890    24865    25246    24955    24152    23142 
   22290    21496    20227    18270    15806    12946     9770     6559 
    3736     1556     -159    -1709    -3061    -4098    -4984    -5848 
   -6375    -6206    -5509    -4783    -4312    -3987    -3548    -2795 
   -1799    -1003     -632     -426     -170      195      864     1990 
    3352     4525     5388     6252     7298     8315     9375    10813 
   12396    13733    14955    16098    16894    17369    17629    17465 
   16628    14945    12470     9664     6886     4191     1798     -187 
   -2275    -4851    -7515    -9732   -11403   -12557   -13036   -12715 
  -11754   -10288    -8248    -5786    -3271     -820     1594     3687 
    5084     5872     6390     6699     6823     7165     7930     8689 
    9283    10144    11402    12678    13701    14617    15569    16383 
   17035    17617    17729    16824    14986    12854    10939     9334 
    8085     7261     6579     5581     4201     2637      833    -1234 
   -3081    -4214    -4715    -4915    -4971    -4969    -4995    -4999 
   -4854    -4580    -4292    -3939    -3507    -3282    -3338    -3322 
   -3170    -3259    -3708    -4200    -4534    -4851    -5219    -5336 
   -4901    -4086    -3240    -2327    -1250     -297      413     1265 
    2575     4234     6014     7810     9506    10939    12026    12847 
   13665    14506    15006    15164    15454    15918    16197    16135 
   15725    15183    14754    14134    12918    10949     8101     4701 
    1412    -1535    -4257    -6925    -9682   -12292   -14313   -15721 
  -16788   -17692   -18561   -19566   -20736   -21813   -22543   -22972 
  -23174   -23085   -22662   -21818   -20381   -18308   -15695   -12651 
   -9279    -5701    -2166      998     3621     5784     7502     8549 
    8830     8520     7720     6409     4531     2043     -830    -3767 
   -6732    -9626   -12180   -14466   -16779   -19345   -22442   -26035 
  -29494   -32315   -34451   -35842   -36473   -36689   -36825   -36759 
  -36155   -34974   -33323   -31191   -28496   -25022   -20671   -15750 
  -10580    -5241      273     5897    11430    16738    21848    26680 
   30967    34550    37474    39749    41293    41982    41591    39908 
   37043    33461    29513    25225    20551    15481    10290     5452 
    1120    -2710    -5914    -8528   -10814   -12833   -14392   -15626 
  -16993   -18536   -20077   -21751   -23594   -25384   -26963   -28026 
  -28296   -28072   -27691   -27015   -25948   -24504   -22610   -20544 
  -18728   -17079   -15310   -13456   -11604    -9581    -7520    -6015 
   -5096    -4273    -3448    -2611    -1622     -580      380     1144 
    1636     2077     2537     2769     2692     2395     1894     1201 
     440     -292     -995    -1497    -1483     -718      901     3141 
    5408     7245     8604     9616    10462    11328    12191    12852 
   13213    13326    13312    13276    13120    12624    11864    11077 
   10377    10018    10133    10275     9942     9010     7572     5963 
    4528     3348     2522     2148     2090     2257     2629     3081 
    3638     4488     5707     7185     8656     9983    11356    12769 
   13839    14498    15125    15943    16795    17438    17887    18186 
   17940    16888    15479    14254    13242    12195    11059     9978 
    8953     7892     6971     6489     6452     6746     7320     8012 
    8600     8948     8944     8553     7917     7179     6283     5179 
    4097     3413     3198     3190     3210     3212     3019     2475 
    1717      812     -538    -2451    -4673    -6973    -9029   -10408 
  -11007   -11006   -10566    -9815    -8925    -8070    -7299    -6612 
   -6113    -5864    -5793    -5846    -5965    -6147    -6450    -6660 
   -6358    -5391    -3935    -2209     -372     1452     3159     4581 
    5452     5589     4936     3505     1542     -483    -2211    -3543 
   -4478    -5026    -5109    -4529    -3336    -1804        1     2088 
    4371     6810     9355    11800    13854    15269    16013    16395 
   16697    16832    16748    16588    16271    15625    14664    13333 
   11565     9503     7332     5249     3398     1577     -512    -2645 
   -4325    -5497    -6299    -6569    -6158    -5248    -4202    -3372 
   -2936    -2926    -3473    -4481    -5356    -5682    -5517    -5022 
   -4464    -4068    -3738    -3398    -3041    -2380    -1301     -156 
     757     1220     1071      515     -215    -1040    -1663    -1858 
   -1853    -1867    -1821    -1780    -2105    -3013    -4291    -5662 
   -7173    -8883   -10629   -12235   -13421   -13854   -13466   -12507 
  -11277    -9837    -8097    -6206    -4603    -3649    -3298    -3290 
   -3535    -3989    -4503    -5113    -5960    -6881    -7555    -7803 
   -7587    -7034    -6424    -6064    -5972    -5749    -5133    -4186 
   -2877    -1245      432     2011     3437     4567     5268     5423 
    5048     4364     3582     2712     1730      820       92     -638 
   -1455    -2249    -3023    -3870    -4767    -5640    -6527    -7531 
   -8641    -9619   -10200   -10390   -10444   -10543   -10615   -10460 
  -10089    -9639    -8975    -7944    -6761    -5679    -4755    -4064 
