Origin Time       2011/03/11 14:46:00
Lat.              38.103
Long.             142.860
Depth. (km)       24
Mag.              9.0
Station Code      HKD174
Station Lat.      42.5950
Station Long.     139.8286
Station Height(m) 10
Record Time       2011/03/11 14:49:23
Sampling Freq(Hz) 100Hz
Duration Time(s)  118
Dir.              U-D
Scale Factor      3920(gal)/6182761
Max. Acc. (gal)   1.459
Last Correction   2011/03/11 14:49:08
Memo.             
[...]
  -20788   -20751   -20709   -20651   -20566   -20449   -20305   -20158 
  -20051   -20005   -19998   -19992   -19957   -19893   -19823   -19762 
  -19721   -19709   -19725   -19759   -19809   -19871   -19927   -19953 
  -19944   -19910   -19868   -19825   -19791   -19783   -19806   -19822 
  -19800   -19755   -19714   -19690   -19673   -19629   -19556   -19502 
  -19514   -19563   -19585   -19549   -19470   -19393   -19350   -19339 
  -19344   -19356   -19382   -19425   -19472   -19508   -19538   -19579 
  -19646   -19736   -19830   -19909   -19957   -19959   -19925   -19892 
  -19873   -19850   -19803   -19735   -19679   -19659   -19656   -19641 
  -19618   -19592   -19551   -19491   -19427   -19373   -19332   -19302 
  -19291   -19302   -19339   -19405   -19486   -19572   -19665   -19743 
  -19774   -19746   -19694   -19671   -19709   -19801   -19893   -19935 
  -19935   -19940   -19963   -19970   -19935   -19877   -19838   -19824 
  -19816   -19807   -19806   -19830   -19884   -19935   -19953   -19949 
  -19945   -19937   -19912   -19879   -19856   -19857   -19883   -19911 
  -19923   -19933   -19952   -19965   -19939   -19876   -19824   -19816 
  -19840   -19876   -19911   -19930   -19911   -19862   -19825   -19830 
  -19868   -19905   -19909   -19877   -19849   -19881   -19959   -20020 
  -20037   -20032   -20042   -20092   -20157   -20192   -20172   -20123 
  -20073   -20024   -19991   -20003   -20036   -20043   -20022   -19992 
  -19970   -19946   -19915   -19886   -19864   -19854   -19882   -19959 
  -20041   -20068   -20033   -19967   -19897   -19836   -19809   -19818 
  -19811   -19764   -19724   -19725   -19752   -19802   -19866   -19911 
  -19946   -20010   -20070   -20077   -20053   -20042   -20048   -20061 
  -20074   -20081   -20091   -20106   -20096   -20033   -19972   -19987 
  -20053   -20086   -20069   -20050   -20066   -20100   -20126   -20148 
  -20172   -20190   -20222   -20265   -20273   -20265   -20283   -20304 
  -20298   -20273   -20250   -20256   -20313   -20420   -20535   -20607 
  -20656   -20722   -20777   -20781   -20753   -20744   -20761   -20791 
  -20830   -20865   -20903   -20968   -21026   -21031   -21019   -21036 
  -21084   -21147   -21224   -21315   -21410   -21478   -21485   -21459 
  -21477   -21552   -21636   -21678   -21656   -21607   -21580   -21569 
  -21549   -21520   -21513   -21555   -21633   -21704   -21750   -21760 
  -21715   -21646   -21615   -21635   -21680   -21709   -21703   -21676 
  -21637   -21569   -21485   -21428   -21398   -21384   -21412   -21462 
  -21486   -21496   -21512   -21538   -21576   -21592   -21558   -21522 
  -21510   -21478   -21445   -21462   -21503   -21528   -21534   -21522 
  -21516   -21544   -21580   -21565   -21496   -21434   -21411   -21421 
  -21443   -21463   -21477   -21484   -21495   -21530   -21578   -21621 
  -21654   -21685   -21727   -21743   -21703   -21665   -21673   -21681 
  -21670   -21659   -21635   -21602   -21588   -21583   -21557   -21533 
  -21563   -21610   -21585   -21492   -21404   -21365   -21384   -21395 
  -21337   -21259   -21248   -21336   -21468   -21551   -21542   -21481 
  -21468   -21539   -21618   -21642   -21619   -21578   -21575   -21667 
  -21809   -21904   -21926   -21912   -21894   -21903   -21924   -21891 
  -21796   -21706   -21662   -21660   -21688   -21713   -21690   -21629 
  -21580   -21564   -21580   -21619   -21661   -21710   -21772   -21789 
  -21743   -21702   -21711   -21749   -21795   -21855   -21917   -21961 
  -22006   -22062   -22115   -22181   -22298   -22437   -22523   -22543 
  -22550   -22570   -22589   -22617   -22676   -22746   -22789   -22798 
  -22811   -22868   -22936   -22963   -22959   -22958   -22985   -23018 
  -23003   -22962   -22960   -22995   -23043   -23080   -23057   -22979 
  -22933   -22941   -22948   -22951   -22948   -22892   -22801   -22734 
  -22681   -22615   -22543   -22474   -22405   -22336   -22251   -22143 
  -22055   -22028   -22052   -22104   -22156   -22183   -22195   -22195 
  -22176   -22146   -22102   -22047   -22007   -21995   -21994   -21977 
  -21945   -21914   -21899   -21936   -22012   -22068   -22093   -22109 
  -22130   -22181   -22248   -22269   -22230   -22179   -22141   -22126 
  -22146   -22168   -22161   -22137   -22089   -22026   -21995   -22012 
  -22019   -21983   -21942   -21909   -21868   -21835   -21823   -21817 
  -21811   -21819   -21832   -21839   -21862   -21898   -21918   -21933 
  -21963   -22001   -22036   -22051   -22030   -21988   -21956   -21934 
  -21918   -21924   -21957   -21993   -21999   -21989   -21999   -22018 
  -22021   -21994   -21927   -21851   -21815   -21811   -21802   -21790 
  -21784   -21773   -21767   -21764   -21751   -21733   -21720   -21711 
  -21690   -21653   -21626   -21625   -21647   -21685   -21731   -21772 
  -21790   -21792   -21801   -21813   -21798   -21748   -21701   -21698 
  -21739   -21812   -21906   -21975   -21997   -22011   -22021   -21992 
  -21934   -21890   -21868   -21864   -21882   -21920   -21982   -22059 
  -22106   -22109   -22094   -22083   -22083   -22088   -22100   -22133 
  -22161   -22170   -22200   -22252   -22274   -22274   -22294   -22305 
  -22285   -22272   -22277   -22276   -22267   -22244   -22175   -22070 
  -21999   -21985   -21989   -21992   -21974   -21919   -21860   -21832 
  -21827   -21825   -21837   -21850   -21832   -21799   -21797   -21835 
  -21900   -21960   -21990   -22013   -22053   -22116   -22187   -22224 
  -22219   -22216   -22241   -22278   -22297   -22287   -22277   -22302 
  -22363   -22410   -22398   -22338   -22279   -22247   -22239   -22228 
  -22189   -22123   -22060   -22024   -22004   -21988   -21980   -21970 
  -21964   -21980   -22017   -22063   -22090   -22082   -22069   -22072 
  -22096   -22130   -22141   -22103   -22034   -21981   -21979   -22020 
  -22084   -22123   -22091   -22022   -21981   -21976   -22006   -22079 
  -22154   -22202   -22256   -22313   -22337   -22331   -22318   -22302 
  -22285   -22272   -22253   -22224   -22208   -22215   -22211   -22177 
  -22143   -22135   -22136   -22123   -22090   -22049   -22010   -21981 
  -21972   -21989   -22037   -22107   -22167   -22198   -22199   -22163 
  -22118   -22115   -22144   -22164   -22185   -22227   -22269   -22277 
  -22258   -22239   -22239   -22258   -22277   -22281   -22287   -22299 
  -22292   -22269   -22258   -22274   -22312   -22343   -22331   -22272 
  -22213   -22193   -22194   -22198   -22194   -22181   -22173   -22185 
  -22201   -22218   -22261   -22320   -22363   -22383   -22382   -22353 
  -22313   -22277   -22245   -22231   -22242   -22261   -22277   -22279 
  -22277   -22294   -22316   -22301   -22251   -22191   -22145   -22145 
  -22194   -22257   -22302   -22322   -22327   -22353   -22416   -22476 
  -22504   -22525   -22547   -22538   -22508   -22497   -22509   -22539 
  -22586   -22639   -22686   -22714   -22723   -22731   -22734   -22726 
  -22729   -22763   -22820   -22867   -22888   -22884   -22850   -22816 
  -22811   -22801   -22745   -22663   -22598   -22569   -22558   -22557 
  -22562   -22564   -22548   -22502   -22432   -22374   -22343   -22298 
  -22231   -22196   -22194   -22194   -22213   -22253   -22283   -22299 
  -22310   -22294   -22242   -22207   -22205   -22189   -22166   -22185 
  -22234   -22288   -22330   -22335   -22306   -22269   -22241   -22221 
  -22212   -22239   -22300   -22359   -22405   -22445   -22473   -22493 
  -22525   -22569   -22614   -22663   -22710   -22739   -22772   -22847 
  -22935   -22961   -22912   -22841   -22783   -22759   -22778   -22816 
  -22853   -22878   -22857   -22774   -22695   -22675   -22686   -22694 
  -22695   -22681   -22642   -22583   -22526   -22480   -22449   -22453 
  -22500   -22560   -22600   -22610   -22582   -22513   -22442   -22416 
  -22438   -22491   -22560   -22631   -22704   -22781   -22831   -22826 
  -22798   -22817   -22886   -22947   -22980   -23002   -23012   -23010 
  -23010   -23010   -23012   -23015   -22995   -22950   -22897   -22827 
  -22742   -22681   -22643   -22584   -22506   -22442   -22386   -22317 
  -22233   -22161   -22136   -22173   -22249   -22329   -22391   -22437 
  -22456   -22439   -22421   -22434   -22475   -22520   -22542   -22533 
  -22510   -22472   -22416   -22351   -22289   -22250   -22242   -22242 
  -22232   -22221   -22202   -22146   -22055   -21973   -21960   -22014 
  -22058   -22050   -22048   -22099   -22152   -22142   -22082   -22028 
  -22004   -22007   -22015   -22016   -22009   -22016   -22073   -22160 
  -22242   -22323   -22398   -22439   -22434   -22404   -22388   -22399 
  -22422   -22431   -22433   -22450   -22467   -22470   -22474   -22487 
  -22498   -22484   -22433   -22376   -22371   -22441   -22542   -22592 
  -22547   -22448   -22365   -22323   -22304   -22292   -22270   -22216 
  -22138   -22081   -22065   -22058   -22033   -22006   -22002   -22002 
  -21969   -21923   -21893   -21852   -21778   -21708   -21686   -21700 
  -21688   -21629   -21567   -21549   -21565   -21559   -21507   -21441 
  -21379   -21315   -21274   -21264   -21264   -21277   -21321   -21398 
  -21484   -21507   -21446   -21399   -21431   -21492   -21536   -21576 
  -21627   -21698   -21788   -21875   -21945   -22009   -22064   -22095 
  -22095   -22093   -22133   -22181   -22188   -22151   -22068   -21962 
  -21909   -21946   -22022   -22071   -22084   -22081   -22094   -22136 
  -22175   -22208   -22257   -22299   -22312   -22299   -22262   -22194 
  -22086   -21990   -21964   -21985   -22032   -22098   -22140   -22158 
  -22203   -22296   -22371   -22356   -22287   -22233   -22199   -22194 
  -22234   -22257   -22198   -22089   -22013   -22017   -22069   -22065 
  -21973   -21888   -21871   -21892   -21932   -21967   -21971   -21968 
  -21974   -21962   -21943   -21960   -21976   -21938   -21877   -21822 
  -21790   -21814   -21874   -21883   -21828   -21793   -21810   -21854 
  -21903   -21935   -21930   -21880   -21804   -21776   -21839   -21923 
  -21951   -21940   -21935   -21960   -22037   -22097   -22072   -22041 
  -22079   -22137   -22150   -22114   -22062   -22051   -22118   -22169 
  -22094   -21967   -21937   -22003   -22065   -22056   -21985   -21905 
  -21869   -21886   -21903   -21908   -21947   -22000   -21990   -21900 
  -21805   -21796   -21896   -22034   -22117   -22135   -22129   -22123 
  -22141   -22178   -22199   -22186   -22157   -22162   -22233   -22323 
  -22375   -22405   -22441   -22443   -22384   -22324   -22301   -22284 
  -22269   -22292   -22365   -22435   -22463   -22474   -22481   -22470 
  -22439   -22382   -22310   -22279   -22301   -22309   -22258   -22171 
  -22084   -22035   -22052   -22092   -22087   -22024   -21958   -21907 
  -21823   -21728   -21706   -21772   -21887   -22019   -22094   -22077 
  -22024   -21967   -21913   -21883   -21855   -21809   -21789   -21836 
  -21903   -21930   -21946   -21970   -21971   -21963   -21981   -22024 
  -22063   -22074   -22062   -22038   -22026   -22040   -22059   -22049 
  -22013   -21968   -21937   -21958   -22020   -22047   -21992   -21892 
  -21831   -21844   -21865   -21829   -21746   -21668   -21626   -21601 
  -21583   -21576   -21555   -21510   -21460   -21434   -21423   -21383 
  -21310   -21244   -21193   -21140   -21080   -21003   -20906   -20821 
  -20779   -20763   -20734   -20682   -20616   -20578   -20576   -20561 
  -20522   -20483   -20465   -20461   -20449   -20432   -20411   -20350 
  -20264   -20230   -20268   -20330   -20382   -20405   -20386   -20329 
  -20281   -20295   -20358   -20427   -20463   -20451   -20434   -20451 
  -20478   -20501   -20535   -20541   -20507   -20503   -20539   -20562 
  -20546   -20483   -20402   -20345   -20314   -20309   -20295   -20230 
  -20147   -20102   -20109   -20139   -20148   -20111   -20067   -20069 
  -20089   -20096   -20097   -20060   -19995   -19965   -19977   -19982 
  -19962   -19949   -19955   -19937   -19875   -19800   -19745   -19701 
  -19660   -19621   -19576   -19545   -19545   -19536   -19506   -19482 
  -19479   -19514   -19582   -19675   -19777   -19828   -19821   -19831 
  -19879   -19921   -19931   -19900   -19855   -19854   -19875   -19845 
  -19766   -19680   -19625   -19631   -19667   -19679   -19660   -19611 
  -19529   -19447   -19438   -19497   -19537   -19527   -19516   -19541 
  -19599   -19651   -19631   -19527   -19431   -19431   -19502   -19573 
  -19623   -19658   -19662   -19628   -19608   -19635   -19666   -19669 
  -19640   -19594   -19586   -19604   -19582   -19523   -19498   -19507 
  -19477   -19425   -19436   -19516   -19594   -19603   -19556   -19517 
  -19504   -19514   -19535   -19525   -19472   -19439   -19469   -19549 
  -19649   -19704   -19677   -19652   -19700   -19754   -19738   -19689 
  -19650   -19616   -19602   -19612   -19618   -19637   -19692   -19734 
  -19717   -19667   -19634   -19634   -19650   -19653   -19635   -19628 
  -19653   -19675   -19667   -19660   -19683   -19722   -19759   -19778 
  -19773   -19760   -19733   -19691   -19647   -19599   -19559   -19542 
  -19563   -19602   -19586   -19514   -19452   -19404   -19381   -19411 
  -19456   -19479   -19502   -19534   -19553   -19566   -19595   -19638 
  -19685   -19725   -19754   -19781   -19816   -19842   -19849   -19869 
  -19918   -19961   -19971   -19961   -19964   -19992   -20014   -20004 
  -19959   -19909   -19894   -19906   -19914   -19891   -19830   -19748 
  -19685   -19653   -19617   -19551   -19488   -19467   -19451   -19401 
  -19351   -19332   -19321   -19290   -19241   -19192   -19161   -19147 
  -19123   -19076   -19035   -19036   -19102   -19207   -19293   -19347 
  -19388   -19430   -19476   -19502   -19476   -19423   -19388   -19375 
  -19360   -19353   -19370   -19413   -19497   -19611   -19715   -19778 
  -19794   -19789   -19814   -19882   -19954   -19998   -20018   -20041 
  -20086   -20135   -20164   -20168   -20158   -20141   -20119   -20116 
  -20149   -20182   -20185   -20172   -20179   -20225   -20292   -20347 
  -20383   -20408   -20414   -20383   -20314   -20240   -20204   -20206 
  -20208   -20192   -20189   -20226   -20300   -20388   -20442   -20449 
  -20455   -20486   -20511   -20508   -20483   -20453   -20460   -20529 
  -20614   -20677   -20713   -20715   -20680   -20636   -20587   -20525 
  -20450   -20381   -20337   -20316   -20320   -20365   -20425   -20457 
  -20462   -20453   -20430   -20412   -20409   -20404   -20403   -20429 
  -20471   -20484   -20466   -20464   -20498   -20552   -20612   -20655 
  -20663   -20664   -20711   -20808   -20930   -21034   -21087   -21117 
  -21144   -21138   -21131   -21181   -21253   -21293   -21291   -21253 
  -21229   -21257   -21293   -21315   -21349   -21374   -21366   -21351 
  -21335   -21316   -21320   -21340   -21377   -21422   -21396   -21285 
  -21202   -21212   -21294   -21419   -21540   -21604   -21633   -21661 
  -21656   -21595   -21545   -21577   -21643   -21653   -21635   -21682 
  -21736   -21690   -21610   -21593   -21604   -21617   -21674   -21727 
  -21689   -21624   -21609   -21628   -21688   -21748   -21727   -21694 
  -21758   -21864   -21908   -21898   -21897   -21892   -21873   -21913 
  -22000   -22051   -22057   -22050   -22041   -22038   -22058   -22072 
  -22053   -22028   -22062   -22191   -22259   -22106   -21928   -21945 
  -22028   -22022   -21978   -21949   -21941   -21969   -21997   -22008 
  -22020   -21978   -21900   -21853   -21813   -21762   -21716   -21686 
  -21662   -21621   -21544   -21426   -21343   -21357   -21359   -21266 
  -21167   -21109   -21042   -20993   -21019   -21008   -20866   -20760 
  -20800   -20818   -20750   -20729   -20736   -20699   -20665   -20668 
  -20697   -20706   -20642   -20535   -20442   -20406   -20470   -20577 
  -20595   -20523   -20461   -20440   -20441   -20436   -20384   -20340 
  -20376   -20397   -20311   -20247   -20292   -20338   -20349   -20333 
  -20260   -20255   -20387   -20451   -20331   -20208   -20203   -20235 
  -20278   -20321   -20283   -20247   -20327   -20404   -20377   -20296 
  -20189   -20116   -20154   -20203   -20187   -20190   -20230   -20253 
  -20225   -20186   -20203   -20230   -20190   -20115   -20062   -20053 
  -20085   -20121   -20100   -20045   -20055   -20104   -20096   -20041 
  -20006   -20024   -20068   -20069   -20032   -20040   -20078   -20071 
  -20024   -19966   -19903   -19815   -19728   -19729   -19774   -19762 
  -19731   -19738   -19782   -19851   -19906   -19935   -19987   -20073 
  -20152   -20211   -20227   -20186   -20182   -20257   -20317   -20314 
  -20305   -20322   -20351   -20366   -20333   -20288   -20296   -20312 
  -20308   -20340   -20387   -20429   -20486   -20496   -20455   -20455 
  -20493   -20526   -20563   -20579   -20549   -20563   -20644   -20667 
  -20638   -20656   -20668   -20639   -20635   -20634   -20582   -20538 
  -20529   -20517   -20524   -20584   -20659   -20693   -20684   -20666 
  -20691   -20806   -20949   -20995   -20990   -21049   -21113   -21122 
  -21127   -21132   -21130   -21178   -21271   -21325   -21323   -21334 
  -21363   -21361   -21356   -21372   -21389   -21427   -21467   -21454 
  -21395   -21344   -21355   -21385   -21351   -21302   -21324   -21355 
  -21319   -21253   -21221   -21248   -21312   -21346   -21349   -21381 
  -21432   -21427   -21366   -21334   -21356   -21396   -21436   -21456 
  -21446   -21437   -21452   -21502   -21560   -21575   -21558   -21534 
  -21503   -21480   -21456   -21421   -21405   -21418   -21436   -21452 
  -21487   -21520   -21536   -21555   -21542   -21491   -21468   -21466 
  -21441   -21410   -21382   -21340   -21314   -21326   -21323   -21298 
  -21309   -21322   -21294   -21266   -21254   -21232   -21171   -21096 
  -21078   -21109   -21131   -21121   -21097   -21087   -21082   -21045 
  -20956   -20876   -20881   -20925   -20938   -20922   -20889   -20842 
  -20812   -20835   -20879   -20898   -20904   -20892   -20875   -20876 
  -20877   -20856   -20819   -20774   -20742   -20762   -20841   -20910 
  -20933   -20953   -20990   -21011   -21022   -21043   -21055   -21072 
  -21118   -21164   -21199   -21250   -21310   -21330   -21334   -21394 
  -21481   -21518   -21501   -21462   -21447   -21491   -21559   -21591 
  -21597   -21614   -21617   -21591   -21584   -21576   -21528   -21500 
  -21518   -21522   -21530   -21585   -21620   -21559   -21450   -21386 
  -21370   -21384   -21435   -21482   -21492   -21483   -21468   -21467 
  -21477   -21474   -21464   -21449   -21431   -21444   -21482   -21496 
  -21479   -21456   -21457   -21505   -21583   -21621   -21594   -21532 
  -21468   -21447   -21489   -21556   -21615   -21678   -21725   -21740 
  -21782   -21866   -21918   -21886   -21808   -21784   -21858   -21953 
  -21986   -21962   -21948   -21980   -22025   -22037   -22010   -21972 
  -21960   -21988   -22019   -22040   -22103   -22182   -22206   -22218 
  -22263   -22320   -22380   -22401   -22327   -22247   -22264   -22306 
  -22277   -22235   -22248   -22269   -22243   -22196   -22176   -22181 
  -22172   -22146   -22121   -22088   -22043   -22007   -22015   -22061 
  -22072   -22038   -22032   -22064   -22100   -22151   -22178   -22151 
  -22165   -22236   -22269   -22267   -22267   -22253   -22243   -22267 
  -22283   -22261   -22245   -22268   -22307   -22321   -22312   -22337 
  -22408   -22462   -22465   -22453   -22460   -22460   -22424   -22373 
  -22340   -22333   -22326   -22316   -22325   -22330   -22318   -22320 
