Origin Time       2011/03/11 14:46:00
Lat.              38.103
Long.             142.860
Depth. (km)       24
Mag.              9.0
Station Code      HKD161
Station Lat.      41.6795
Station Long.     140.4334
Station Height(m) 4
Record Time       2011/03/11 14:48:02
Sampling Freq(Hz) 100Hz
Duration Time(s)  258
Dir.              U-D
Scale Factor      3920(gal)/6182761
Max. Acc. (gal)   8.876
Last Correction   2011/03/11 14:47:47
Memo.             
[...]
  -23201   -25005   -26683   -28195   -29467   -30470   -31305   -32133 
  -33028   -33882   -34517   -34889   -35075   -35089   -34907   -34561 
  -34116   -33704   -33428   -33217   -32955   -32611   -32223   -31888 
  -31710   -31663   -31513   -31044   -30292   -29395   -28403   -27350 
  -26251   -25102   -24088   -23459   -23260   -23414   -23809   -24278 
  -24676   -24951   -25164   -25346   -25375   -25130   -24559   -23693 
  -22766   -22056   -21662   -21570   -21699   -21911   -21978   -21722 
  -21309   -21102   -21212   -21457   -21609   -21556   -21363   -21205 
  -21158   -21130   -21032   -20932   -21007   -21390   -22032   -22715 
  -23163   -23189   -22857   -22423   -22072   -21818   -21609   -21409 
  -21274   -21324   -21539   -21723   -21821   -22047   -22597   -23418 
  -24337   -25260   -26142   -26895   -27402   -27608   -27582   -27454 
  -27312   -27179   -27062   -26984   -26934   -26831   -26566   -26079 
  -25481   -24989   -24641   -24327   -23984   -23622   -23322   -23169 
  -23136   -23220   -23518   -24075   -24859   -25794   -26684   -27341 
  -27779   -28115   -28351   -28281   -27754   -26954   -26255   -25833 
  -25564   -25254   -24786   -24127   -23344   -22557   -21886   -21335 
  -20765   -20122   -19500   -18987   -18657   -18628   -18875   -19231 
  -19678   -20318   -21150   -22120   -23192   -24286   -25311   -26273 
  -27242   -28228   -29153   -29900   -30401   -30695   -30848   -30814 
  -30422   -29646   -28735   -27876   -27034   -26180   -25445   -25034 
  -25008   -25138   -25157   -25080   -25135   -25479   -26121   -26963 
  -27893   -28842   -29728   -30484   -31158   -31833   -32540   -33272 
  -33920   -34282   -34282   -34062   -33758   -33352   -32824   -32224 
  -31572   -30821   -29932   -28946   -27935   -26931   -25956   -25015 
  -24069   -23111   -22251   -21698   -21505   -21527   -21641   -21752 
  -21744   -21690   -21890   -22496   -23311   -24098   -24797   -25414 
  -25908   -26231   -26407   -26490   -26452   -26189   -25663   -25037 
  -24587   -24488   -24718   -25087   -25356   -25371   -25204   -25094 
  -25177   -25395   -25624   -25804   -26001   -26375   -27039   -27927 
  -28872   -29827   -30867   -32057   -33352   -34601   -35662   -36460 
  -36986   -37289   -37437   -37456   -37338   -37089   -36686   -35980 
  -34823   -33338   -31921   -30876   -30086   -29172   -27989   -26753 
  -25746   -25092   -24663   -24233   -23791   -23521   -23549   -23760 
  -23875   -23732   -23414   -23134   -23020   -23019   -23032   -22991 
  -22850   -22654   -22478   -22297   -22027   -21592   -21020   -20439 
  -19944   -19545   -19202   -18896   -18646   -18456   -18265   -17988 
  -17685   -17607   -17936   -18572   -19263   -19821   -20238   -20610 
  -21033   -21595   -22399   -23498   -24766   -25974   -27003   -27910 
  -28839   -29811   -30659   -31203   -31408   -31359   -31151   -30860 
  -30532   -30086   -29385   -28461   -27477   -26557   -25768   -25128 
  -24575   -24021   -23451   -22955   -22635   -22502   -22530   -22719 
  -23086   -23581   -24052   -24302   -24260   -24078   -23991   -24106 
  -24352   -24542   -24508   -24302   -24077   -23823   -23439   -22947 
  -22496   -22226   -22095   -21894   -21525   -21073   -20594   -20053 
  -19399   -18676   -18084   -17785   -17728   -17773   -17874   -18097 
  -18434   -18753   -18891   -18753   -18419   -18096   -17941   -17937 
  -17941   -17842   -17660   -17502   -17486   -17675   -18030   -18461 
  -18894   -19298   -19718   -20263   -21024   -21994   -23098   -24223 
  -25251   -26112   -26819   -27407   -27857   -28122   -28201   -28172 
  -28132   -28070   -27853   -27443   -27022   -26777   -26697   -26683 
  -26612   -26343   -25772   -24944   -24158   -23725   -23545   -23216 
  -22541   -21730   -21137   -20904   -20891   -20861   -20687   -20458 
  -20327   -20343   -20537   -20837   -21001   -20928   -20730   -20532 
  -20478   -20643   -20907   -21147   -21373   -21612   -21864   -22142 
  -22480   -22910   -23430   -23966   -24412   -24730   -24932   -24977 
  -24773   -24381   -24072   -24004   -24050   -24044   -23975   -23957 
  -24132   -24542   -25094   -25709   -26439   -27345   -28325   -29201 
  -29909   -30528   -31142   -31719   -32208   -32604   -32892   -33025 
  -32924   -32527   -31884   -31110   -30276   -29368   -28349   -27279 
  -26350   -25686   -25184   -24668   -24073   -23417   -22777   -22288 
  -22054   -22092   -22324   -22576   -22693   -22706   -22731   -22807 
  -22882   -22826   -22566   -22261   -22117   -22155   -22314   -22622 
  -23141   -23841   -24604   -25341   -26009   -26569   -26992   -27262 
  -27359   -27243   -26942   -26579   -26217   -25767   -25136   -24376 
  -23622   -22901   -22126   -21239   -20275   -19344   -18631   -18249 
  -18089   -17966   -17818   -17657   -17503   -17438   -17650   -18298 
  -19291   -20352   -21322   -22283   -23337   -24378   -25187   -25638 
  -25761   -25674   -25544   -25584   -25936   -26528   -27135   -27535 
  -27661   -27700   -27896   -28267   -28614   -28756   -28679   -28513 
  -28401   -28344   -28158   -27664   -26915   -26143   -25482   -24867 
  -24208   -23497   -22731   -21933   -21227   -20756   -20623   -20801 
  -21024   -21077   -21132   -21434   -21945   -22390   -22457   -22134 
  -21735   -21489   -21368   -21244   -21003   -20586   -20090   -19712 
  -19491   -19259   -18885   -18474   -18330   -18653   -19295   -19936 
  -20509   -21250   -22278   -23375   -24269   -24936   -25536   -26154 
  -26706   -27079   -27226   -27194   -27086   -26936   -26632   -26019 
  -25134   -24280   -23770   -23627   -23651   -23656   -23643   -23776 
  -24188   -24816   -25439   -25876   -26129   -26307   -26484   -26707 
  -27012   -27415   -27859   -28213   -28394   -28457   -28474   -28407 
  -28184   -27823   -27443   -27155   -26991   -26891   -26762   -26558 
  -26308   -26092   -25970   -25903   -25773   -25511   -25192   -24935 
  -24757   -24613   -24462   -24277   -24124   -24106   -24279   -24674 
  -25219   -25784   -26312   -26764   -27146   -27488   -27769   -27955 
  -28033   -28014   -27966   -27981   -28077   -28161   -28117   -27905 
  -27552   -27126   -26752   -26529   -26425   -26371   -26439   -26752 
  -27280   -27822   -28211   -28496   -28845   -29272   -29625   -29789 
  -29801   -29822   -30026   -30420   -30801   -30978   -30986   -31004 
  -31125   -31252   -31218   -30957   -30558   -30163   -29782   -29286 
  -28607   -27776   -26826   -25799   -24776   -23825   -22957   -22143 
  -21377   -20723   -20283   -20095   -20123   -20303   -20535   -20686 
  -20716   -20798   -21209   -22060   -23171   -24199   -24907   -25391 
  -25944   -26670   -27429   -28076   -28589   -29051   -29517   -29899 
  -30022   -29796   -29294   -28689   -28159   -27769   -27452   -27107 
  -26652   -26086   -25528   -25104   -24818   -24567   -24251   -23888 
  -23620   -23632   -23975   -24439   -24781   -24971   -25128   -25395 
  -25862   -26446   -26943   -27258   -27467   -27675   -27898   -28090 
  -28204   -28222   -28198   -28239   -28363   -28462   -28386   -28023 
  -27393   -26687   -26152   -25862   -25639   -25313   -24930   -24609 
  -24400   -24283   -24200   -24122   -24045   -23954   -23819   -23572 
  -23157   -22644   -22170   -21765   -21323   -20795   -20384   -20379 
  -20783   -21263   -21523   -21640   -21921   -22519   -23324   -24109 
  -24720   -25159   -25534   -25973   -26490   -26907   -26960   -26573 
  -25954   -25350   -24827   -24261   -23514   -22643   -21863   -21317 
  -21023   -20936   -20944   -20892   -20708   -20494   -20406   -20495 
  -20717   -21015   -21365   -21729   -22045   -22280   -22405   -22344 
  -22078   -21702   -21376   -21211   -21189   -21215   -21251   -21329 
  -21443   -21571   -21814   -22380   -23317   -24435   -25524   -26551 
  -27662   -28985   -30435   -31783   -32854   -33693   -34507   -35396 
  -36205   -36678   -36687   -36307   -35671   -34882   -34063   -33301 
  -32553   -31752   -30932   -30208   -29654   -29262   -29006   -28851 
  -28698   -28460   -28218   -28162   -28324   -28499   -28442   -28126 
  -27779   -27590   -27527   -27498   -27457   -27329   -27058   -26701 
  -26386   -26190   -26109   -26139   -26279   -26469   -26629   -26797 
  -27113   -27618   -28135   -28412   -28342   -28059   -27838   -27785 
  -27724   -27480   -27129   -26890   -26913   -27156   -27497   -27867 
  -28226   -28537   -28824   -29102   -29277   -29247   -29066   -28944 
  -29067   -29415   -29799   -30039   -30067   -29962   -29863   -29798 
  -29672   -29366   -28852   -28201   -27530   -26922   -26369   -25838 
  -25339   -24893   -24521   -24203   -23874   -23475   -22981   -22382 
  -21764   -21308   -21091   -20916   -20425   -19506   -18532   -18023 
  -18088   -18397   -18613   -18709   -18908   -19366   -19973   -20556 
  -21128   -21776   -22467   -23058   -23398   -23396   -23113   -22837 
  -22867   -23186   -23503   -23672   -23923   -24563   -25529   -26419 
  -26924   -27110   -27294   -27657   -28050   -28222   -28092   -27757 
  -27377   -26992   -26466   -25780   -25131   -24643   -24247   -23788 
  -23196   -22556   -21976   -21481   -21075   -20809   -20738   -20892 
  -21329   -22067   -22993   -23934   -24782   -25553   -26328   -27053 
  -27526   -27632   -27480   -27260   -27067   -26822   -26326   -25465 
  -24373   -23317   -22513   -22059   -21863   -21696   -21429   -21178 
  -21104   -21230   -21490   -21762   -21919   -21987   -22097   -22297 
  -22554   -22821   -23011   -23020   -22842   -22646   -22612   -22707 
  -22784   -22847   -23006   -23263   -23512   -23655   -23691   -23698 
  -23746   -23840   -23963   -24130   -24369   -24725   -25293   -26076 
  -26868   -27470   -27935   -28446   -29050   -29632   -30095   -30431 
  -30662   -30797   -30843   -30845   -30889   -31054   -31292   -31430 
  -31380   -31305   -31440   -31769   -32000   -31939   -31751   -31690 
  -31765   -31815   -31747   -31565   -31317   -31053   -30818   -30645 
  -30455   -30131   -29699   -29297   -28979   -28671   -28269   -27714 
  -27091   -26649   -26549   -26660   -26667   -26340   -25731   -25126 
  -24733   -24476   -24131   -23600   -23011   -22614   -22505   -22513 
  -22463   -22356   -22242   -22162   -22236   -22606   -23249   -23942 
  -24477   -24873   -25337   -26018   -26863   -27663   -28209   -28437 
  -28459   -28462   -28579   -28803   -29017   -29129   -29082   -28861 
  -28588   -28451   -28471   -28458   -28222   -27791   -27360   -27083 
  -26979   -26974   -26937   -26712   -26268   -25801   -25546   -25484 
  -25371   -25037   -24588   -24272   -24223   -24386   -24609   -24767 
  -24874   -25045   -25387   -25905   -26457   -26842   -26908   -26649 
  -26235   -25851   -25478   -24958   -24245   -23490   -22876   -22481 
  -22273   -22135   -21943   -21663   -21334   -21047   -20903   -20904 
  -20957   -20992   -21042   -21226   -21623   -22217   -22949   -23781 
  -24714   -25777   -26933   -27979   -28714   -29175   -29514   -29875 
  -30372   -30907   -31180   -31016   -30507   -29845   -29129   -28324 
  -27392   -26381   -25407   -24623   -24126   -23872   -23798   -23967 
  -24462   -25162   -25769   -26096   -26261   -26542   -27020   -27510 
  -27898   -28213   -28460   -28570   -28481   -28256   -28035   -27831 
  -27544   -27078   -26359   -25448   -24573   -23910   -23428   -23014 
  -22615   -22214   -21835   -21493   -21119   -20707   -20395   -20235 
  -20213   -20376   -20658   -21005   -21555   -22343   -23229   -24094 
  -24880   -25630   -26472   -27474   -28569   -29580   -30412   -31138 
  -31839   -32463   -32843   -32885   -32701   -32435   -32091   -31594 
  -30903   -30048   -29063   -27967   -26812   -25595   -24285   -22954 
  -21659   -20342   -19018   -17820   -16889   -16277   -15867   -15455 
  -15007   -14769   -14964   -15480   -16075   -16602   -16975   -17207 
  -17383   -17586   -17927   -18420   -18886   -19157   -19224   -19218 
  -19329   -19650   -20078   -20444   -20712   -21007   -21517   -22311 
  -23230   -24060   -24739   -25285   -25681   -25872   -25827   -25649 
  -25517   -25488   -25481   -25441   -25410   -25449   -25523   -25556 
  -25583   -25773   -26265   -26964   -27606   -28000   -28143   -28161 
  -28209   -28328   -28395   -28266   -27970   -27726   -27696   -27814 
  -27915   -27892   -27717   -27420   -27027   -26467   -25664   -24736 
  -23911   -23326   -22962   -22678   -22385   -22178   -22208   -22486 
  -22877   -23291   -23726   -24179   -24643   -25107   -25579   -26122 
  -26748   -27392   -27998   -28493   -28816   -29023   -29156   -29164 
  -28991   -28602   -28032   -27409   -26836   -26352   -25908   -25418 
  -24932   -24625   -24578   -24703   -24851   -24995   -25245   -25709 
  -26361   -27060   -27626   -27947   -28042   -28055   -28126   -28291 
  -28515   -28743   -28878   -28829   -28673   -28672   -29042   -29705 
  -30331   -30645   -30659   -30568   -30492   -30361   -30067   -29606 
  -29054   -28514   -28069   -27713   -27344   -26887   -26345   -25754 
  -25231   -24927   -24861   -24988   -25332   -25873   -26468   -26921 
  -27148   -27242   -27357   -27601   -27963   -28277   -28403   -28351 
  -28182   -27917   -27540   -27042   -26452   -25846   -25355   -25051 
  -24834   -24526   -24069   -23585   -23291   -23318   -23631   -24124 
  -24734   -25473   -26360   -27357   -28417   -29493   -30513   -31434 
  -32288   -33143   -34077   -35128   -36189   -37079   -37759   -38295 
  -38682   -38908   -39084   -39298   -39461   -39442   -39176   -38608 
  -37775   -36837   -35933   -35089   -34252   -33362   -32393   -31371 
  -30342   -29307   -28220   -27098   -26025   -25062   -24217   -23464 
  -22783   -22230   -21879   -21731   -21701   -21656   -21565   -21608 
  -21971   -22601   -23281   -23845   -24272   -24622   -24927   -25152 
  -25205   -25078   -24894   -24747   -24617   -24353   -23799   -22968 
  -22049   -21227   -20545   -19984   -19603   -19512   -19772   -20405 
  -21325   -22309   -23236   -24161   -25080   -25868   -26547   -27250 
  -27919   -28512   -29087   -29569   -29982   -30498   -31145   -31793 
  -32231   -32393   -32391   -32275   -32038   -31699   -31224   -30551 
  -29740   -28896   -28065   -27286   -26528   -25733   -25018   -24560 
  -24376   -24373   -24478   -24665   -24894   -25089   -25206   -25273 
  -25299   -25257   -25158   -25017   -24831   -24637   -24389   -23971 
  -23374   -22630   -21770   -20907   -20170   -19622   -19206   -18768 
  -18255   -17738   -17231   -16675   -16097   -15659   -15506   -15598 
  -15731   -15740   -15614   -15382   -15111   -14912   -14811   -14756 
  -14702   -14683   -14873   -15423   -16289   -17284   -18274   -19324 
  -20563   -21951   -23282   -24408   -25394   -26400   -27488   -28597 
  -29619   -30470   -31113   -31561   -31825   -31867   -31637   -31120 
  -30377   -29529   -28686   -27892   -27110   -26288   -25423   -24568 
  -23795   -23106   -22440   -21817   -21364   -21184   -21278   -21541 
  -21840   -22151   -22532   -22950   -23330   -23714   -24132   -24447 
  -24570   -24616   -24774   -25162   -25719   -26239   -26615   -26867 
  -26998   -27012   -26983   -26971   -26943   -26849   -26710   -26605 
  -26604   -26706   -26852   -27027   -27297   -27664   -28021   -28261 
  -28338   -28338   -28436   -28722   -29165   -29697   -30311   -31091 
  -32057   -33047   -33867   -34454   -34878   -35262   -35673   -36044 
  -36257   -36267   -36088   -35720   -35182   -34542   -33850   -33081 
  -32217   -31321   -30482   -29723   -28987   -28206   -27358   -26450 
  -25505   -24574   -23702   -22906   -22148   -21385   -20654   -19945 
  -19123   -18155   -17229   -16574   -16275   -16251   -16402   -16690 
  -17115   -17704   -18458   -19299   -20143   -20983   -21831   -22625 
  -23352   -24112   -24901   -25598   -26131   -26481   -26641   -26619 
  -26490   -26352   -26168   -25828   -25350   -24942   -24852   -25071 
  -25321   -25397   -25366   -25431   -25739   -26284   -26901   -27390 
  -27696   -27950   -28319   -28869   -29504   -30055   -30468   -30820 
  -31184   -31572   -31924   -32121   -32082   -31832   -31468   -31134 
  -30951   -30898   -30810   -30518   -29978   -29292   -28621   -27985 
  -27248   -26350   -25419   -24649   -24091   -23648   -23256   -22948 
  -22740   -22626   -22646   -22828   -23118   -23455   -23829   -24239 
  -24682   -25174   -25691   -26160   -26507   -26656   -26614   -26541 
  -26543   -26528   -26352   -25950   -25381   -24807   -24329   -23882 
  -23380   -22869   -22475   -22253   -22162   -22166   -22237   -22339 
  -22492   -22780   -23282   -23976   -24725   -25396   -25968   -26446 
  -26796   -27016   -27164   -27292   -27384   -27383   -27244   -26953 
  -26530   -26053   -25587   -25055   -24353   -23521   -22636   -21788 
  -21139   -20750   -20533   -20382   -20256   -20218   -20306   -20500 
  -20783   -21006   -21003   -20832   -20629   -20455   -20268   -20041 
  -19861   -19768   -19720   -19750   -19917   -20206   -20517   -20694 
  -20661   -20484   -20273   -20107   -19987   -19854   -19677   -19520 
  -19511   -19742   -20198   -20781   -21327   -21689   -21916   -22204 
  -22661   -23206   -23692   -24043   -24315   -24661   -25222   -25990 
  -26821   -27558   -28135   -28564   -28886   -29137   -29253   -29067 
  -28570   -27990   -27527   -27192   -26906   -26612   -26358   -26249 
  -26312   -26452   -26532   -26508   -26494   -26677   -27108   -27622 
  -27992   -28149   -28210   -28326   -28566   -28912   -29251   -29465 
  -29547   -29592   -29702   -29890   -30086   -30208   -30179   -29954 
  -29599   -29220   -28808   -28254   -27488   -26513   -25341   -24026 
  -22637   -21157   -19577   -18038   -16681   -15518   -14552   -13799 
  -13210   -12734   -12362   -12130   -12143   -12496   -13124   -13844 
  -14559   -15317   -16152   -16942   -17532   -17946   -18334   -18773 
  -19243   -19683   -20088   -20572   -21242   -22084   -23039   -24065 
  -25084   -26017   -26889   -27745   -28525   -29162   -29688   -30149 
  -30517   -30747   -30797   -30623   -30263   -29826   -29371   -28892 
  -28394   -27896   -27415   -26971   -26572   -26271   -26219   -26496 
  -26931   -27282   -27508   -27718   -27966   -28212   -28372   -28447 
  -28556   -28743   -28872   -28802   -28517   -28061   -27473   -26760 
  -25935   -25080   -24308   -23709   -23273   -22949   -22789   -22866 
  -23205   -23759   -24290   -24642   -25014   -25545   -26042   -26368 
  -26548   -26543   -26342   -26062   -25817   -25665   -25531   -25188 
  -24514   -23709   -23123   -22932   -23005   -23101   -23101   -23025 
  -22975   -23119   -23537   -24088   -24518   -24667   -24550   -24348 
  -24263   -24319   -24395   -24395   -24318   -24281   -24488   -25004 
  -25632   -26135   -26482   -26784   -27143   -27597   -28121   -28655 
  -29178   -29728   -30310   -30846   -31251   -31497   -31573   -31529 
  -31455   -31289   -30903   -30333   -29685   -29028   -28404   -27770 
  -27051   -26247   -25374   -24431   -23471   -22618   -21898   -21155 
  -20263   -19328   -18601   -18215   -18058   -17952   -17864   -17897 
  -18102   -18414   -18816   -19292   -19752   -20239   -20874   -21616 
  -22332   -22932   -23417   -23852   -24286   -24744   -25235   -25701 
  -26047   -26185   -26063   -25728   -25332   -24988   -24686   -24320 
