Origin Time       2011/03/11 14:46:00
Lat.              38.103
Long.             142.860
Depth. (km)       24
Mag.              9.0
Station Code      HKD106
Station Lat.      42.3414
Station Long.     142.3688
Station Height(m) 5
Record Time       2011/03/11 14:47:58
Sampling Freq(Hz) 100Hz
Duration Time(s)  300
Dir.              U-D
Scale Factor      3920(gal)/6182761
Max. Acc. (gal)   10.082
Last Correction   2011/03/11 14:47:43
Memo.             
[...]
  -41478   -41032   -40094   -38919   -37888   -37075   -36339   -35537 
  -34559   -33557   -32833   -32447   -32249   -32090   -31961   -32045 
  -32500   -33281   -34148   -34821   -35186   -35282   -35181   -34979 
  -34760   -34527   -34194   -33669   -32920   -32049   -31288   -30770 
  -30417   -30077   -29740   -29541   -29613   -29929   -30189   -30115 
  -29868   -29871   -30341   -31123   -31916   -32617   -33319   -33972 
  -34350   -34347   -34088   -33899   -34175   -34975   -35893   -36511 
  -36770   -36850   -36956   -37202   -37528   -37781   -37947   -38138 
  -38354   -38429   -38284   -38071   -37959   -38050   -38454   -39167 
  -40042   -40940   -41786   -42567   -43316   -43964   -44374   -44568 
  -44608   -44426   -44033   -43589   -43239   -43072   -43141   -43422 
  -43861   -44408   -44912   -45109   -44872   -44341   -43721   -43080 
  -42340   -41395   -40220   -38920   -37743   -36904   -36382   -35992 
  -35540   -35011   -34574   -34253   -33833   -33126   -32111   -30902 
  -29753   -28991   -28730   -28825   -29074   -29382   -29753   -30168 
  -30546   -30802   -30938   -31046   -31221   -31451   -31611   -31598 
  -31480   -31532   -31953   -32622   -33338   -33944   -34316   -34492 
  -34581   -34583   -34516   -34418   -34277   -34271   -34691   -35431 
  -36105   -36555   -36885   -37243   -37681   -38094   -38321   -38320 
  -38162   -38004   -38056   -38385   -38779   -38975   -38973   -38953 
  -38989   -39009   -38935   -38720   -38277   -37531   -36621   -35868 
  -35390   -34988   -34560   -34306   -34351   -34516   -34560   -34390 
  -34101   -33846   -33599   -33270   -32912   -32560   -32112   -31478 
  -30720   -30055   -29621   -29284   -28837   -28336   -27952   -27623 
  -27237   -26920   -26804   -26939   -27499   -28561   -29852   -31039 
  -31951   -32558   -32957   -33211   -33258   -33133   -33002   -32986 
  -33089   -33261   -33479   -33659   -33666   -33565   -33581   -33719 
  -33790   -33702   -33495   -33278   -33109   -32867   -32426   -31838 
  -31218   -30679   -30345   -30262   -30354   -30512   -30666   -30850 
  -31134   -31477   -31826   -32222   -32709   -33313   -34036   -34742 
  -35303   -35867   -36724   -37980   -39419   -40620   -41311   -41536 
  -41451   -41242   -41098   -41014   -40837   -40502   -40018   -39555 
  -39373   -39406   -39360   -39192   -39008   -38829   -38644   -38463 
  -38295   -38117   -37878   -37640   -37573   -37714   -37971   -38324 
  -38760   -39230   -39748   -40369   -41123   -41971   -42832   -43731 
  -44707   -45632   -46313   -46634   -46567   -46226   -45851   -45602 
  -45528   -45615   -45746   -45767   -45644   -45365   -44919   -44506 
  -44327   -44255   -44047   -43594   -42931   -42243   -41716   -41333 
  -40976   -40584   -40120   -39618   -39230   -38986   -38598   -37681 
  -36246   -34747   -33536   -32531   -31480   -30303   -29067   -27839 
  -26669   -25582   -24570   -23668   -23015   -22756   -22849   -23114 
  -23402   -23624   -23794   -24035   -24390   -24820   -25346   -26015 
  -26769   -27514   -28254   -29082   -30039   -31050   -32003   -32882 
  -33777   -34721   -35711   -36819   -37970   -38891   -39427   -39654 
  -39842   -40254   -40847   -41406   -41848   -42200   -42454   -42550 
  -42461   -42223   -41819   -41208   -40558   -40094   -39762   -39370 
  -38882   -38338   -37727   -37050   -36387   -35822   -35349   -34942 
  -34620   -34366   -34058   -33567   -32969   -32494   -32181   -31851 
  -31456   -31159   -31153   -31459   -31897   -32337   -32754   -33080 
  -33333   -33645   -34037   -34492   -34959   -35349   -35740   -36205 
  -36582   -36821   -37094   -37422   -37665   -37754   -37710   -37649 
  -37641   -37626   -37557   -37374   -37039   -36599   -36089   -35598 
  -35248   -34988   -34726   -34527   -34460   -34488   -34524   -34499 
  -34445   -34437   -34447   -34339   -34089   -33829   -33578   -33222 
  -32786   -32498   -32529   -32767   -33016   -33269   -33522   -33636 
  -33554   -33380   -33222   -33118   -33099   -33289   -33789   -34510 
  -35263   -35961   -36643   -37291   -37841   -38279   -38579   -38670 
  -38506   -38203   -38075   -38315   -38752   -39056   -39061   -38881 
  -38750   -38741   -38664   -38311   -37707   -36983   -36198   -35483 
  -34962   -34609   -34449   -34560   -34896   -35399   -36065   -36780 
  -37389   -37872   -38293   -38616   -38769   -38867   -39104   -39483 
  -39876   -40152   -40230   -40166   -40101   -40117   -40245   -40483 
  -40670   -40557   -40114   -39486   -38801   -38184   -37686   -37187 
  -36551   -35778   -35010   -34434   -34116   -34018   -34112   -34343 
  -34663   -35041   -35295   -35242   -34947   -34565   -34159   -33801 
  -33520   -33209   -32804   -32377   -32103   -32167   -32536   -32938 
  -33147   -33126   -32984   -32853   -32747   -32607   -32486   -32416 
  -32337   -32286   -32323   -32455   -32722   -33133   -33632   -34141 
  -34639   -35101   -35342   -35177   -34633   -33923   -33304   -32890 
  -32582   -32175   -31553   -30773   -29988   -29369   -28959   -28655 
  -28407   -28286   -28378   -28639   -28902   -29076   -29184   -29315 
  -29571   -29962   -30404   -30823   -31210   -31631   -32185   -32825 
  -33294   -33443   -33434   -33428   -33392   -33321   -33261   -33139 
  -32871   -32489   -32061   -31607   -31131   -30659   -30277   -30067 
  -29977   -29892   -29815   -29900   -30273   -30882   -31537   -32057 
  -32441   -32861   -33473   -34341   -35489   -36893   -38508   -40204 
  -41716   -42783   -43325   -43496   -43608   -43841   -44116   -44296 
  -44288   -44024   -43601   -43215   -42924   -42743   -42695   -42608 
  -42303   -41870   -41447   -41026   -40568   -40085   -39585   -39047 
  -38515   -38045   -37613   -37105   -36376   -35448   -34525   -33702 
  -32964   -32340   -31829   -31381   -30995   -30689   -30548   -30643 
  -30880   -31115   -31269   -31389   -31578   -31881   -32325   -32858 
  -33392   -33930   -34439   -34951   -35554   -36135   -36604   -36960 
  -37136   -37123   -36935   -36610   -36273   -36015   -35827   -35585 
  -35140   -34570   -34156   -33995   -33986   -34132   -34276   -34063 
  -33588   -33203   -32885   -32577   -32501   -32731   -33041   -33249 
  -33345   -33389   -33446   -33508   -33560   -33714   -34056   -34435 
  -34593   -34466   -34219   -33938   -33535   -33066   -32719   -32573 
  -32669   -33051   -33684   -34488   -35323   -36037   -36659   -37269 
  -37884   -38561   -39313   -40098   -40953   -41883   -42802   -43581 
  -44079   -44303   -44406   -44493   -44575   -44599   -44447   -44014 
  -43316   -42490   -41702   -41031   -40400   -39690   -38919   -38232 
  -37758   -37485   -37252   -36941   -36644   -36513   -36573   -36744 
  -36876   -36719   -36144   -35367   -34753   -34497   -34556   -34706 
  -34755   -34765   -34913   -35198   -35418   -35393   -35113   -34658 
  -34087   -33445   -32790   -32239   -31883   -31670   -31534   -31526 
  -31690   -31965   -32317   -32749   -33145   -33375   -33460   -33473 
  -33433   -33347   -33246   -33233   -33409   -33676   -33834   -33839 
  -33773   -33733   -33865   -34244   -34774   -35324   -35791   -36155 
  -36522   -36883   -37059   -37008   -36840   -36644   -36503   -36447 
  -36395   -36261   -36041   -35812   -35673   -35603   -35459   -35146 
  -34643   -33959   -33224   -32636   -32263   -31951   -31458   -30794 
  -30328   -30276   -30445   -30609   -30750   -30961   -31312   -31751 
  -32154   -32442   -32561   -32547   -32629   -33034   -33694   -34344 
  -34776   -34904   -34843   -34884   -35215   -35776   -36289   -36435 
  -36177   -35773   -35443   -35240   -35148   -35168   -35389   -35910 
  -36651   -37380   -37900   -38105   -37992   -37633   -37165   -36837 
  -36828   -37058   -37402   -37808   -38148   -38240   -38022   -37686 
  -37579   -37844   -38257   -38545   -38738   -39030   -39467   -39900 
  -40159   -40207   -40141   -40096   -40175   -40392   -40603   -40598 
  -40365   -40147   -40202   -40565   -41025   -41351   -41502   -41542 
  -41454   -41157   -40618   -39908   -39191   -38643   -38337   -38174 
  -37955   -37586   -37130   -36673   -36252   -35869   -35517   -35212 
  -35057   -35203   -35600   -35957   -36073   -36064   -36175   -36517 
  -36992   -37376   -37451   -37113   -36489   -35874   -35367   -34783 
  -34055   -33353   -32829   -32561   -32556   -32701   -32822   -32893 
  -33076   -33495   -34126   -34885   -35665   -36308   -36580   -36375 
  -35960   -35751   -35908   -36335   -36870   -37367   -37735   -37939 
  -38062   -38321   -38814   -39385   -39859   -40204   -40432   -40510 
  -40467   -40436   -40564   -41015   -41818   -42671   -43254   -43559 
  -43698   -43704   -43610   -43488   -43349   -43076   -42519   -41712 
  -40901   -40313   -39962   -39669   -39288   -38835   -38317   -37681 
  -37078   -36758   -36693   -36686   -36645   -36487   -36103   -35522 
  -34907   -34400   -34046   -33844   -33806   -33911   -34078   -34153 
  -34074   -33993   -34051   -34220   -34453   -34792   -35282   -35776 
  -35978   -35767   -35240   -34509   -33731   -33144   -32938   -33137 
  -33554   -33923   -34016   -33748   -33239   -32685   -32189   -31696 
  -31088   -30359   -29494   -28445   -27381   -26535   -25944   -25622 
  -25610   -25800   -26039   -26373   -26940   -27667   -28296   -28705 
  -28966   -29196   -29492   -29902   -30425   -30989   -31436   -31824 
  -32382   -33039   -33560   -33927   -34138   -34162   -34099   -34006 
  -33800   -33488   -33200   -32914   -32491   -31977   -31579   -31375 
  -31371   -31670   -32225   -32738   -33028   -33128   -33071   -32852 
  -32539   -32315   -32352   -32680   -33170   -33609   -33919   -34255 
  -34660   -34999   -35316   -35731   -36204   -36707   -37352   -38162 
  -38963   -39616   -40163   -40784   -41615   -42579   -43492   -44205 
  -44688   -45053   -45436   -45816   -46020   -45905   -45449   -44852 
  -44484   -44466   -44583   -44560   -44194   -43452   -42533   -41679 
  -40970   -40314   -39559   -38717   -37981   -37470   -37138   -36813 
  -36265   -35428   -34464   -33534   -32744   -32222   -32020   -32008 
  -32032   -32123   -32385   -32768   -33020   -32873   -32382   -31916 
  -31788   -32087   -32670   -33234   -33612   -33959   -34532   -35369 
  -36298   -37206   -38105   -38948   -39650   -40203   -40545   -40585 
  -40409   -40219   -40132   -40184   -40368   -40534   -40550   -40516 
  -40558   -40682   -40824   -40905   -40936   -40975   -40945   -40762 
  -40575   -40627   -40969   -41398   -41695   -41916   -42252   -42683 
  -42998   -43041   -42815   -42388   -41884   -41532   -41452   -41444 
  -41188   -40642   -40076   -39743   -39672   -39705   -39673   -39545 
  -39356   -39149   -38992   -38891   -38797   -38702   -38679   -38783 
  -38917   -38907   -38721   -38489   -38326   -38291   -38382   -38537 
  -38716   -39018   -39595   -40387   -41123   -41539   -41519   -41121 
  -40523   -39911   -39406   -39027   -38697   -38309   -37836   -37396 
  -37099   -36870   -36600   -36280   -35885   -35376   -34819   -34330 
  -33978   -33705   -33372   -33016   -32857   -33001   -33399   -33942 
  -34467   -34825   -35033   -35238   -35541   -35842   -35807   -35191 
  -34164   -33130   -32376   -31982   -31774   -31420   -30869   -30411 
  -30226   -30292   -30591   -31023   -31357   -31479   -31494   -31616 
  -32071   -32930   -34074   -35317   -36421   -37181   -37625   -37953 
  -38315   -38770   -39316   -39897   -40463   -41041   -41712   -42512 
  -43408   -44329   -45133   -45663   -45889   -45893   -45734   -45460 
  -45156   -44848   -44541   -44329   -44352   -44706   -45368   -46185 
  -46925   -47344   -47309   -46944   -46490   -46025   -45540   -45067 
  -44567   -43938   -43151   -42281   -41492   -40941   -40602   -40370 
  -40185   -39969   -39638   -39206   -38770   -38386   -37970   -37389 
  -36638   -35876   -35302   -34929   -34551   -33992   -33298   -32687 
  -32321   -32134   -31990   -31806   -31447   -30900   -30388   -30081 
  -29964   -29838   -29518   -29187   -29193   -29553   -30000   -30353 
  -30599   -30803   -31074   -31524   -32162   -32832   -33375   -33815 
  -34238   -34610   -34893   -35177   -35581   -36127   -36688   -37111 
  -37386   -37560   -37673   -37805   -37976   -38041   -37844   -37407 
  -36866   -36301   -35764   -35338   -35054   -34831   -34640   -34570 
  -34601   -34503   -34057   -33304   -32499   -31806   -31148   -30464 
  -29943   -29838   -30084   -30366   -30503   -30521   -30479   -30445 
  -30540   -30850   -31260   -31541   -31672   -31887   -32312   -32754 
  -32933   -32834   -32677   -32617   -32551   -32315   -31940   -31617 
  -31469   -31446   -31440   -31426   -31458   -31639   -32083   -32754 
  -33439   -33935   -34132   -34037   -33829   -33679   -33625   -33700 
  -33879   -33987   -33972   -34023   -34269   -34716   -35342   -36026 
  -36679   -37380   -38157   -38836   -39213   -39169   -38669   -37877 
  -37136   -36691   -36559   -36597   -36651   -36692   -36791   -36918 
  -36942   -36870   -36872   -37071   -37413   -37679   -37661   -37325 
  -36794   -36271   -35945   -35842   -35809   -35675   -35327   -34789 
  -34300   -34076   -34029   -33929   -33714   -33455   -33220   -33072 
  -32940   -32758   -32747   -33142   -33839   -34594   -35354   -36212 
  -37164   -38071   -38849   -39572   -40398   -41489   -42857   -44303 
  -45662   -46884   -47894   -48707   -49493   -50315   -51072   -51660 
  -51939   -51791   -51258   -50436   -49464   -48517   -47658   -46871 
  -46170   -45627   -45408   -45595   -45981   -46287   -46370   -46206 
  -45894   -45541   -45140   -44673   -44169   -43657   -43236   -43040 
  -43045   -43082   -43002   -42761   -42449   -42126   -41688   -41065 
  -40342   -39621   -38986   -38549   -38365   -38346   -38331   -38261 
  -38250   -38388   -38630   -38904   -39185   -39444   -39609   -39681 
  -39764   -39879   -39929   -39806   -39467   -38974   -38396   -37790 
  -37278   -36956   -36827   -36873   -37084   -37402   -37698   -37878 
  -37941   -37924   -37818   -37482   -36774   -35838   -35027   -34563 
  -34510   -34836   -35344   -35767   -36033   -36250   -36494   -36762 
  -36939   -36839   -36435   -35848   -35131   -34327   -33595   -33083 
  -32830   -32818   -32970   -33130   -33169   -33097   -33116   -33410 
  -33844   -34091   -33977   -33550   -33000   -32529   -32190   -31954 
  -31848   -31954   -32368   -33129   -34071   -34870   -35304   -35378 
  -35272   -35216   -35251   -35242   -35141   -35010   -34891   -34811 
  -34829   -35079   -35648   -36381   -36979   -37282   -37315   -37137 
  -36782   -36326   -35874   -35444   -34950   -34350   -33775   -33375 
  -33071   -32714   -32329   -32019   -31827   -31724   -31694   -31761 
  -31869   -31878   -31763   -31613   -31496   -31477   -31626   -31927 
  -32259   -32447   -32390   -32186   -32030   -32075   -32355   -32755 
  -33158   -33551   -33839   -33828   -33545   -33240   -33139   -33324 
  -33692   -34086   -34523   -35132   -35931   -36828   -37722   -38459 
  -38794   -38588   -37989   -37187   -36211   -35176   -34311   -33707 
  -33308   -33085   -33058   -33188   -33357   -33487   -33602   -33726 
  -33791   -33826   -34001   -34328   -34706   -35173   -35722   -36241 
  -36737   -37191   -37495   -37728   -37961   -37988   -37655   -37100 
  -36487   -35891   -35392   -35002   -34600   -34031   -33234   -32290 
  -31306   -30343   -29512   -28920   -28537   -28286   -28119   -28016 
  -28078   -28356   -28773   -29395   -30237   -30969   -31354   -31605 
  -31975   -32469   -32998   -33458   -33841   -34329   -35038   -35767 
  -36219   -36350   -36286   -36071   -35757   -35446   -35138   -34812 
  -34539   -34408   -34510   -34795   -34925   -34689   -34361   -34261 
  -34352   -34539   -34823   -35076   -35199   -35418   -35987   -36829 
  -37669   -38277   -38603   -38778   -38910   -38841   -38272   -37174 
  -35858   -34804   -34438   -34728   -35169   -35348   -35262   -35147 
  -35238   -35562   -35885   -35956   -35769   -35543   -35525   -35740 
  -35966   -36026   -35966   -35966   -36197   -36714   -37408   -38019 
  -38326   -38367   -38364   -38473   -38691   -38853   -38801   -38578 
  -38313   -38020   -37639   -37171   -36656   -36180   -35862   -35737 
  -35715   -35639   -35437   -35120   -34678   -34159   -33722   -33443 
  -33216   -32962   -32729   -32521   -32270   -31974   -31751   -31729 
  -31874   -32019   -32079   -32127   -32220   -32372   -32612   -32881 
  -33037   -33031   -32965   -33032   -33355   -33855   -34387   -34881 
  -35278   -35595   -35943   -36323   -36624   -36744   -36660   -36516 
  -36523   -36710   -36926   -37016   -36946   -36829   -36803   -36914 
  -37141   -37401   -37616   -37833   -38221   -38861   -39555   -40027 
  -40263   -40444   -40687   -40968   -41198   -41291   -41235   -41148 
  -41223   -41573   -42145   -42806   -43398   -43778   -43971   -44172 
  -44545   -45126   -45773   -46265   -46554   -46682   -46661   -46599 
  -46544   -46411   -46213   -46047   -45937   -45834   -45786   -45858 
  -45906   -45833   -45712   -45525   -45233   -44907   -44604   -44403 
  -44430   -44685   -45017   -45242   -45165   -44732   -44157   -43734 
  -43557   -43478   -43340   -43193   -43146   -43106   -42853   -42344 
  -41677   -40903   -40100   -39419   -38892   -38462   -38128   -37899 
  -37824   -37911   -38008   -38062   -38214   -38489   -38722   -38759 
  -38554   -38122   -37451   -36548   -35570   -34776   -34248   -33824 
  -33407   -33059   -32731   -32379   -32201   -32361   -32773   -33216 
  -33473   -33530   -33588   -33807   -34160   -34497   -34718   -34848 
  -34946   -35074   -35320   -35680   -35981   -36149   -36311   -36597 
  -37023   -37461   -37704   -37684   -37460   -37055   -36513   -35940 
  -35420   -35022   -34808   -34820   -35035   -35276   -35398   -35439 
  -35464   -35419   -35143   -34558   -33834   -33270   -32974   -32759 
  -32408   -31914   -31460   -31237   -31297   -31556   -31883   -32166 
  -32347   -32448   -32497   -32486   -32447   -32437   -32487   -32651 
  -32972   -33349   -33673   -34009   -34372   -34665   -34910   -35173 
  -35393   -35441   -35258   -34928   -34546   -33999   -33108   -32035 
  -31212   -30878   -30999   -31354   -31584   -31477   -31094   -30618 
  -30233   -29989   -29758   -29419   -28974   -28532   -28226   -28069 
  -27899   -27571   -27125   -26754   -26632   -26694   -26733   -26673 
  -26537   -26288   -25852   -25293   -24801   -24462   -24291   -24306 
  -24422   -24478   -24335   -23991   -23610   -23377   -23412   -23781 
  -24400   -25099   -25834   -26634   -27476   -28351   -29217   -30018 
  -30866   -31903   -33033   -34080   -35054   -36069   -37118   -38115 
  -39033   -39861   -40628   -41321   -41794   -41996   -41995   -41780 
  -41318   -40629   -39815   -39073   -38531   -38160   -37826   -37335 
  -36570   -35608   -34651   -33884   -33343   -32957   -32658   -32461 
  -32491   -32855   -33399   -33783   -33833   -33669   -33555   -33687 
  -34086   -34599   -34980   -35062   -34845   -34472   -34108   -33825 
  -33597   -33371   -33137   -32967   -32946   -33101   -33435   -33932 
  -34539   -35201   -35839   -36351   -36775   -37328   -38119   -38927 
  -39369   -39304   -38964   -38654   -38503   -38613   -39070   -39735 
