Origin Time       2011/03/11 14:46:00
Lat.              38.103
Long.             142.860
Depth. (km)       24
Mag.              9.0
Station Code      HKD170
Station Lat.      41.7495
Station Long.     140.2510
Station Height(m) 83
Record Time       2011/03/11 14:48:08
Sampling Freq(Hz) 100Hz
Duration Time(s)  175
Dir.              E-W
Scale Factor      3920(gal)/6182761
Max. Acc. (gal)   3.841
Last Correction   2011/03/11 14:47:53
Memo.             
[...]
    5935     6014     6089     6144     6206     6309     6439     6606 
    6817     6999     7102     7152     7160     7130     7060     6951 
    6835     6715     6572     6446     6385     6370     6353     6296 
    6200     6114     6064     6036     6031     6053     6097     6162 
    6228     6271     6323     6394     6400     6251     5975     5672 
    5430     5305     5277     5252     5195     5138     5116     5145 
    5189     5214     5297     5482     5661     5707     5605     5444 
    5339     5314     5342     5406     5452     5431     5393     5414 
    5476     5530     5576     5666     5815     5950     6014     6056 
    6140     6259     6398     6560     6737     6904     7059     7178 
    7180     7060     6932     6856     6791     6700     6572     6368 
    6088     5844     5757     5813     5900     5914     5838     5750 
    5720     5716     5676     5591     5510     5498     5541     5576 
    5643     5818     6035     6173     6207     6233     6336     6445 
    6456     6391     6308     6218     6150     6152     6200     6213 
    6184     6193     6270     6389     6536     6651     6660     6595 
    6553     6566     6579     6543     6498     6459     6342     6147 
    5986     5918     5931     5983     6062     6185     6309     6404 
    6504     6605     6675     6738     6838     6954     7008     6969 
    6872     6758     6662     6583     6464     6296     6164     6178 
    6350     6522     6560     6496     6403     6327     6269     6154 
    5966     5774     5610     5455     5285     5116     5015     5005 
    5053     5149     5253     5299     5294     5285     5317     5407 
    5504     5540     5480     5347     5252     5288     5394     5476 
    5585     5807     6094     6339     6482     6532     6575     6664 
    6756     6801     6784     6741     6759     6823     6808     6693 
    6595     6571     6542     6435     6286     6171     6120     6117 
    6123     6119     6119     6112     6082     6049     6051     6113 
    6221     6311     6361     6420     6489     6521     6541     6617 
    6763     6965     7221     7460     7541     7423     7242     7121 
    7025     6872     6658     6428     6184     5899     5607     5379 
    5220     5100     5022     4972     4901     4767     4612     4548 
    4586     4628     4655     4693     4735     4813     4985     5272 
    5596     5794     5851     5960     6189     6397     6489     6475 
    6428     6429     6469     6480     6416     6269     6101     5960 
    5824     5719     5679     5643     5582     5535     5484     5409 
    5367     5422     5538     5624     5654     5666     5687     5742 
    5878     6098     6336     6543     6723     6864     6940     6983 
    7052     7198     7443     7715     7885     7909     7855     7795 
    7732     7655     7583     7543     7527     7484     7365     7177 
    6988     6889     6938     7118     7343     7531     7649     7712 
    7777     7879     7976     8010     7979     7906     7771     7564 
    7362     7241     7169     7074     6960     6852     6729     6572 
    6414     6281     6164     6067     6030     6072     6146     6230 
    6368     6562     6755     6935     7121     7258     7275     7211 
    7153     7098     6996     6849     6713     6599     6452     6279 
    6187     6221     6287     6311     6329     6363     6371     6328 
    6237     6101     5957     5888     5928     6009     6089     6190 
    6280     6270     6161     6065     6099     6277     6537     6846 
    7170     7412     7511     7523     7518     7547     7656     7786 
    7779     7555     7193     6868     6624     6339     6037     5867 
    5804     5733     5655     5625     5655     5711     5759     5770 
    5732     5715     5787     5890     5943     5954     5984     6088 
    6218     6239     6105     5920     5783     5745     5815     5901 
    5917     5929     6032     6200     6342     6421     6497     6629 
    6787     6858     6802     6744     6818     6991     7173     7360 
    7543     7690     7806     7876     7875     7793     7633     7462 
    7368     7354     7324     7223     7119     7069     7017     6892 
    6738     6666     6671     6647     6563     6475     6426     6430 
    6491     6557     6544     6467     6427     6475     6574     6681 
    6793     6867     6833     6715     6584     6456     6353     6308 
    6285     6253     6232     6236     6243     6163     5951     5710 
    5572     5558     5618     5742     5998     6412     6899     7367 
    7772     8111     8383     8581     8731     8869     9005     9150 
    9314     9450     9451     9305     9121     8953     8763     8560 
    8371     8155     7881     7570     7270     7021     6804     6568 
    6320     6101     5917     5747     5586     5468     5446     5514 
    5550     5490     5430     5408     5336     5246     5305     5590 
    6020     6434     6696     6792     6801     6791     6770     6735 
    6726     6797     6957     7165     7304     7227     6910     6493 
    6133     5904     5788     5746     5812     6034     6342     6608 
    6801     6967     7117     7227     7264     7195     7039     6883 
    6836     6952     7174     7379     7478     7480     7437     7409 
    7427     7446     7418     7336     7211     7100     7048     7037 
    7042     7026     6924     6717     6464     6232     6052     5919 
    5767     5529     5228     4924     4657     4499     4510     4678 
    4910     5094     5226     5417     5724     6059     6334     6588 
    6878     7165     7406     7650     7965     8335     8679     8916 
    8983     8901     8759     8641     8595     8566     8426     8134 
    7739     7298     6864     6487     6179     5932     5742     5611 
    5573     5673     5870     6114     6440     6822     7130     7312 
    7397     7436     7496     7595     7703     7766     7717     7552 
    7332     7112     6929     6794     6699     6644     6626     6650 
    6677     6590     6350     6055     5745     5343     4838     4359 
    4042     3880     3792     3773     3848     4007     4259     4581 
    4881     5098     5286     5576     6049     6636     7162     7530 
    7784     7984     8120     8209     8340     8516     8644     8678 
    8598     8374     8052     7719     7360     6926     6438     5943 
    5480     5073     4741     4551     4519     4578     4672     4715 
    4607     4399     4228     4148     4143     4206     4354     4581 
    4860     5169     5484     5793     6087     6316     6414     6367 
    6233     6104     6027     5978     5931     5866     5762     5611 
    5450     5337     5284     5229     5095     4861     4577     4313 
    4116     4019     4024     4114     4328     4713     5180     5588 
    5928     6268     6610     6897     7093     7225     7338     7417 
    7399     7238     6979     6759     6680     6702     6739     6776 
    6822     6843     6844     6920     7080     7169     7093     6919 
    6707     6479     6293     6200     6198     6253     6332     6458 
    6645     6817     6916     6928     6832     6652     6446     6230 
    5970     5638     5263     4895     4561     4255     3938     3607 
    3351     3210     3110     2975     2819     2718     2710     2720 
    2678     2644     2718     2890     3090     3331     3700     4231 
    4818     5309     5664     5960     6248     6535     6846     7207 
    7586     7924     8163     8263     8268     8247     8204     8182 
    8228     8213     7991     7607     7195     6824     6483     6151 
    5889     5751     5719     5781     5922     6043     6004     5781 
    5530     5334     5091     4759     4463     4309     4280     4328 
    4453     4646     4836     5008     5222     5482     5699     5769 
    5688     5565     5502     5537     5657     5782     5821     5742 
    5568     5346     5157     5080     5099     5083     4928     4727 
    4699     4955     5398     5878     6314     6697     7035     7342 
    7682     8073     8378     8423     8191     7842     7580     7466 
    7387     7247     7097     7025     7059     7171     7332     7556 
    7839     8100     8233     8214     8116     8048     8104     8268 
    8385     8333     8175     8092     8240     8586     8929     9151 
    9299     9394     9383     9265     9124     9022     8980     9021 
    9097     9091     8928     8623     8285     8006     7754     7455 
    7092     6696     6308     5951     5652     5412     5267     5332 
    5576     5754     5752     5695     5671     5588     5294     4792 
    4281     3934     3786     3789     3846     3881     3939     4069 
    4209     4308     4414     4574     4762     4907     4970     5007 
    5083     5148     5115     4994     4905     4965     5186     5449 
    5635     5770     5928     6105     6244     6276     6200     6131 
    6194     6419     6757     7137     7519     7909     8293     8605 
    8781     8728     8383     7873     7426     7134     6994     7039 
    7247     7489     7671     7784     7844     7829     7736     7659 
    7663     7673     7610     7446     7213     7047     7047     7155 
    7307     7562     7998     8522     8906     9044     9023     8947 
    8843     8728     8688     8819     9100     9420     9713     9964 
   10140    10200    10120     9939     9741     9532     9268     8931 
    8513     8040     7563     7101     6672     6269     5859     5482 
    5196     4975     4811     4761     4874     5120     5359     5414 
    5254     5053     5030     5216     5457     5620     5691     5771 
    5976     6249     6439     6551     6696     6851     6901     6849 
    6769     6686     6647     6694     6781     6868     6951     6977 
    6884     6688     6493     6376     6305     6233     6183     6140 
    6037     5887     5782     5791     5903     6070     6289     6552 
    6812     7085     7412     7725     7905     7965     7992     8014 
    8083     8316     8701     9033     9155     9121     9041     8936 
    8792     8573     8269     7952     7674     7386     6973     6373 
    5694     5106     4658     4326     4072     3812     3468     3049 
    2632     2286     2021     1841     1754     1747     1803     1925 
    2106     2334     2572     2732     2766     2761     2867     3148 
    3556     4017     4469     4871     5180     5361     5433     5461 
    5483     5480     5409     5271     5108     4912     4651     4338 
    4041     3873     3906     4103     4357     4527     4534     4449 
    4370     4292     4183     4035     3835     3621     3451     3302 
    3104     2841     2553     2266     1952     1649     1487     1504 
    1622     1781     1927     2001     2014     2022     2004     1879 
    1636     1352     1154     1148     1312     1514     1695     1939 
    2304     2686     2893     2874     2801     2812     2854     2873 
    2950     3197     3593     3979     4238     4374     4417     4411 
    4413     4447     4494     4522     4517     4517     4589     4749 
    4928     5045     5135     5347     5713     6083     6366     6620 
    6864     7012     7034     6971     6823     6585     6336     6167 
    6105     6113     6139     6170     6200     6199     6108     5891 
    5675     5622     5692     5764     5816     5876     5951     6036 
    6084     6043     5919     5799     5795     5905     5970     5915 
    5856     5889     6002     6176     6414     6725     7082     7379 
    7500     7425     7252     7119     7079     7060     6982     6842 
    6669     6500     6382     6358     6378     6338     6255     6224 
    6257     6316     6382     6484     6643     6763     6737     6588 
    6382     6185     6009     5767     5469     5258     5187     5241 
    5409     5562     5549     5391     5226     5137     5131     5169 
    5203     5218     5228     5242     5212     5092     4942     4850 
    4838     4877     4939     5047     5253     5524     5794     6056 
    6298     6550     6940     7481     8000     8378     8634     8817 
    8947     9005     8963     8851     8723     8576     8397     8282 
    8380     8696     9024     9156     9060     8832     8581     8377 
    8241     8160     8124     8170     8282     8312     8201     8068 
    7975     7829     7522     7058     6537     6058     5631     5254 
    4995     4907     4959     5043     5014     4832     4621     4483 
    4435     4480     4604     4814     5096     5354     5522     5631 
    5688     5642     5560     5612     5890     6360     6882     7286 
    7503     7574     7550     7450     7301     7209     7246     7299 
    7260     7187     7142     7143     7205     7286     7350     7460 
    7659     7865     7992     8018     7932     7717     7420     7126 
    6828     6465     6110     5886     5809     5797     5747     5643 
    5549     5481     5435     5415     5355     5189     4982     4877 
    4937     5110     5253     5219     5022     4797     4648     4599 
    4631     4662     4581     4397     4222     4080     3937     3840 
    3842     3916     3961     3897     3773     3683     3656     3734 
    3987     4395     4840     5199     5450     5632     5765     5820 
    5691     5350     4970     4716     4569     4459     4402     4377 
    4226     3900     3602     3435     3253     2963     2621     2291 
    1998     1793     1762     1847     1821     1621     1379     1140 
     854      524      238      118      192      393      663      962 
    1249     1521     1806     2139     2516     2941     3467     4078 
    4648     5087     5377     5558     5719     5869     5854     5545 
    5038     4540     4169     3938     3854     3914     4053     4214 
    4405     4579     4678     4796     5067     5429     5717     5875 
    5970     6076     6188     6239     6228     6224     6284     6416 
    6559     6656     6723     6765     6778     6779     6716     6486 
    6100     5692     5415     5332     5415     5610     5808     5869 
    5740     5479     5180     4943     4826     4775     4690     4624 
    4713     4908     5031     5035     5016     5044     5077     5072 
    5101     5204     5256     5139     4887     4645     4573     4707 
    4914     5043     5044     4946     4768     4496     4174     3931 
    3862     3924     3947     3817     3587     3341     3123     2969 
    2853     2783     2843     3002     3118     3122     3031     2918 
    2848     2786     2721     2762     2927     3082     3179     3274 
    3413     3602     3779     3914     4080     4336     4637     4868 
    4939     4896     4865     4873     4848     4754     4703     4851 
    5162     5461     5656     5759     5820     5884     5931     5890 
    5689     5312     4900     4668     4675     4798     4894     4913 
    4910     4935     4913     4754     4513     4327     4284     4374 
    4478     4474     4371     4242     4146     4134     4208     4333 
    4500     4719     5003     5325     5577     5655     5585     5500 
    5485     5540     5631     5750     5960     6342     6857     7370 
    7793     8134     8450     8723     8874     8943     9049     9220 
    9435     9691     9965    10185    10270    10199     9992     9716 
    9506     9410     9334     9215     9117     9178     9417     9633 
    9663     9558     9432     9322     9244     9171     9045     8889 
    8752     8625     8471     8257     7994     7766     7636     7539 
    7340     7004     6653     6421     6328     6389     6630     6907 
    7017     6965     6932     7060     7299     7509     7679     7895 
    8145     8344     8461     8533     8593     8613     8544     8354 
    8070     7808     7667     7582     7383     7025     6637     6334 
    6125     5991     5941     6009     6166     6280     6290     6260 
    6247     6285     6370     6462     6539     6591     6646     6777 
    7020     7351     7716     8039     8271     8370     8263     7960 
    7638     7483     7452     7354     7152     6980     6919     6880 
    6757     6618     6569     6537     6358     6035     5699     5422 
    5191     4994     4855     4817     4881     4993     5074     5062 
    4989     4919     4833     4663     4405     4196     4196     4398 
    4718     5147     5677     6185     6522     6682     6784     6918 
    7064     7131     7068     6874     6591     6314     6075     5879 
    5823     5936     6082     6106     5942     5657     5385     5209 
    5136     5091     4984     4822     4695     4657     4681     4723 
    4778     4817     4804     4750     4662     4600     4734     5120 
    5622     6115     6547     6867     7100     7374     7686     7883 
    7953     8031     8139     8201     8173     8081     8022     8000 
    7886     7646     7374     7099     6782     6393     5955     5564 
    5258     5002     4809     4686     4630     4695     4909     5197 
    5460     5609     5562     5338     5065     4823     4615     4474 
    4427     4429     4441     4488     4590     4699     4752     4785 
    4895     5062     5164     5175     5154     5127     5144     5232 
    5309     5266     5041     4669     4310     4124     4111     4159 
    4217     4342     4511     4590     4526     4413     4390     4501 
    4662     4791     4846     4812     4795     4912     5079     5121 
    5027     4969     5051     5173     5241     5286     5272     5102 
    4827     4596     4445     4312     4170     4019     3864     3723 
    3628     3602     3653     3773     3956     4207     4510     4816 
    5054     5211     5358     5551     5793     6123     6529     6898 
    7145     7255     7288     7360     7507     7701     7947     8190 
    8309     8239     7986     7641     7319     7060     6841     6658 
    6520     6400     6278     6229     6317     6469     6560     6543 
    6437     6267     6103     6096     6307     6587     6777     6874 
    6959     7063     7162     7246     7341     7448     7526     7556 
    7567     7598     7690     7842     8013     8215     8485     8792 
    9066     9219     9201     9055     8881     8725     8536     8254 
    7913     7595     7327     7093     6869     6677     6622     6707 
    6742     6599     6389     6226     6070     5870     5650     5464 
    5376     5406     5497     5619     5777     5928     6012     5965 
    5758     5487     5282     5129     4931     4752     4771     5005 
    5323     5620     5878     6137     6389     6550     6568     6450 
    6234     5976     5719     5465     5213     4983     4793     4645 
    4522     4347     4081     3837     3749     3788     3852     3933 
    4101     4369     4683     4970     5154     5247     5339     5485 
    5726     6075     6452     6781     7032     7198     7343     7534 
    7766     8008     8207     8295     8264     8153     8030     7999 
    8103     8284     8458     8592     8750     8958     9103     9104 
    9014     8928     8905     8926     8928     8892     8873     8953 
    9129     9290     9367     9420     9568     9883    10271    10585 
   10792    10880    10812    10630    10399    10141     9875     9647 
    9555     9644     9820     9960     9989     9870     9641     9366 
    9064     8761     8518     8372     8331     8331     8235     8010 
