Origin Time       2011/03/11 14:46:00
Lat.              38.103
Long.             142.860
Depth. (km)       24
Mag.              9.0
Station Code      HKD129
Station Lat.      42.6347
Station Long.     141.6057
Station Height(m) 6
Record Time       2011/03/11 14:48:02
Sampling Freq(Hz) 100Hz
Duration Time(s)  300
Dir.              U-D
Scale Factor      3920(gal)/6182761
Max. Acc. (gal)   8.714
Last Correction   2011/03/11 14:47:47
Memo.             
[...]
  -13435   -14222   -15154   -16170   -17139   -17832   -18086   -17847 
  -17411   -17277   -17563   -17993   -18145   -17739   -17030   -16600 
  -16655   -16741   -16509   -16311   -16540   -17095   -17519   -17398 
  -17011   -17012   -17422   -17855   -18218   -18529   -18758   -18858 
  -18687   -18337   -18056   -17832   -17621   -17463   -17404   -17589 
  -17987   -18267   -18191   -17783   -17305   -17075   -17072   -17066 
  -17219   -17867   -18887   -19814   -20289   -20465   -20941   -21758 
  -22211   -21991   -21527   -21439   -21953   -22569   -22649   -22249 
  -21954   -22146   -22681   -23075   -23044   -22806   -22520   -21994 
  -21235   -20496   -20052   -20145   -20543   -20724   -20690   -20772 
  -20978   -21012   -20678   -20082   -19469   -19035   -18736   -18350 
  -17836   -17384   -17194   -17209   -17184   -17168   -17372   -17633 
  -17589   -17150   -16567   -16226   -16165   -15901   -15170   -14304 
  -13685   -13387   -13238   -13060   -12871   -12922   -13414   -14091 
  -14582   -14913   -15201   -15421   -15525   -15292   -14604   -14036 
  -14180   -14788   -15445   -16139   -16839   -17333   -17315   -16741 
  -16070   -15634   -15320   -15128   -15202   -15458   -15687   -15661 
  -15297   -14980   -14828   -14195   -12913   -11787   -11450   -11779 
  -12238   -12284   -11941   -11919   -12425   -12610   -12035   -11174 
  -10447   -10124   -10259   -10485   -10710   -11036   -11272   -11437 
  -11708   -11889   -11700   -11164   -10701   -10750   -11092   -11122 
  -10784   -10507   -10650   -11300   -11910   -11809   -11451   -11693 
  -12512   -13376   -13693   -13226   -12541   -12247   -12025   -11262 
  -10356   -10299   -11247   -12439   -13092   -13000   -12692   -12899 
  -13575   -14020   -14109   -14436   -15222   -16080   -16651   -16904 
  -17067   -17382   -17907   -18481   -18804   -18766   -18516   -18208 
  -17971   -17921   -18010   -17981   -17711   -17354   -17136   -17232 
  -17460   -17349   -16845   -16420   -16354   -16327   -15884   -15061 
  -14413   -14262   -14245   -13999   -13687   -13691   -13908   -13704 
  -12932   -12049   -11470   -11370   -11392   -11268   -11387   -11641 
  -11479   -11085   -10927   -11149   -11618   -11868   -11737   -11749 
  -12167   -12599   -12650   -12258   -11944   -12250   -12560   -12057 
  -11096   -10415   -10413   -11078   -11784   -11974   -11824   -11685 
  -11660   -11816   -12129   -12423   -12541   -12355   -11813   -11126 
  -10726   -10806   -10989   -10860   -10520   -10302   -10400   -10713 
  -10920   -10808   -10382    -9939    -9993   -10651   -11398   -11750 
  -11791   -11898   -12096   -11990   -11397   -10797   -10767   -11033 
  -10899   -10312    -9754    -9688   -10100   -10450   -10494   -10285 
   -9685    -8768    -7860    -7272    -7160    -7258    -7268    -7244 
   -7292    -7531    -8071    -8634    -8763    -8332    -7504    -6705 
   -6347    -6239    -6033    -5810    -5748    -5878    -6004    -5825 
   -5514    -5667    -6480    -7460    -7993    -8027    -7996    -8164 
   -8511    -8959    -9417    -9869   -10259   -10266    -9813    -9506 
   -9807   -10452   -10941   -10917   -10513   -10301   -10499   -10851 
  -11214   -11597   -11972   -12320   -12589   -12733   -12972   -13621 
  -14477   -14990   -15060   -15104   -15616   -16630   -17456   -17485 
  -17081   -17073   -17506   -17624   -17071   -16309   -16042   -16393 
  -16674   -16314   -15503   -14801   -14612   -14864   -15140   -15132 
  -14889   -14697   -14787   -15118   -15143   -14401   -13484   -13214 
  -13458   -13626   -13379   -12888   -12701   -12991   -13393   -13595 
  -13635   -13644   -13579   -13451   -13390   -13448   -13589   -13573 
  -13256   -12886   -12629   -12350   -11861   -11233   -10693   -10233 
   -9796    -9383    -8951    -8685    -8800    -9088    -9139    -8819 
   -8405    -8240    -8443    -8900    -9334    -9577    -9583    -9312 
   -8962    -8856    -9026    -9215    -9266    -9346    -9577    -9805 
   -9866    -9701    -9347    -8962    -8724    -8725    -8961    -9417 
  -10017   -10529   -10824   -11011   -11175   -11249   -11155   -10823 
  -10391   -10444   -11193   -11868   -11871   -11567   -11711   -12707 
  -13920   -14133   -13247   -12309   -11977   -12081   -12193   -12243 
  -12592   -13186   -13397   -13054   -12620   -12405   -12235   -11721 
  -10951   -10543   -10572   -10451    -9971    -9493    -9447    -9880 
  -10359   -10501   -10388   -10352   -10495   -10582   -10475   -10293 
  -10120    -9938    -9812    -9936   -10260   -10505   -10635   -10606 
  -10301   -10004    -9987   -10190   -10552   -10913   -11096   -11193 
  -11363   -11607   -11770   -11738   -11671   -11882   -12398   -12872 
  -12991   -12738   -12409   -12360   -12561   -12709   -12721   -12777 
  -12996   -13164   -13008   -12735   -12735   -13009   -13353   -13521 
  -13321   -12998   -12767   -12304   -11554   -10945   -10595   -10335 
  -10030    -9697    -9616    -9915   -10243   -10259   -10028    -9822 
   -9860   -10171   -10490   -10565   -10458   -10315   -10257   -10358 
  -10449   -10329   -10049    -9803    -9785   -10074   -10540   -11026 
  -11437   -11686   -11921   -12337   -12752   -12960   -12991   -12959 
  -13073   -13362   -13582   -13689   -13845   -14035   -14129   -14174 
  -14278   -14313   -13976   -13233   -12489   -12028   -11671   -11239 
  -10994   -11440   -12593   -13761   -14281   -14130   -13879   -14012 
  -14320   -14454   -14464   -14463   -14471   -14383   -13971   -13345 
  -12919   -12866   -13054   -13301   -13464   -13419   -13310   -13542 
  -14182   -14735   -14750   -14386   -14084   -13905   -13667   -13279 
  -12798   -12469   -12403   -12399   -12337   -12261   -12227   -12304 
  -12372   -12143   -11581   -10939   -10543   -10489   -10427   -10194 
   -9981    -9735    -9535    -9646    -9926   -10242   -10605   -10857 
  -11092   -11426   -11506   -11211   -10872   -10630   -10400   -10110 
   -9867    -9916   -10200   -10353   -10195    -9916    -9901   -10314 
  -10843   -11067   -10909   -10702   -10829   -11230   -11506   -11466 
  -11338   -11344   -11320   -10990   -10384    -9894    -9825   -10036 
  -10241   -10360   -10537   -10892   -11113   -10730    -9904    -9289 
   -9143    -9267    -9517    -9791   -10112   -10696   -11406   -11830 
  -11905   -11804   -11637   -11452   -11170   -10753   -10532   -10810 
  -11267   -11330   -10909   -10370   -10015   -10024   -10388   -10630 
  -10468   -10367   -10708   -11209   -11439   -11451   -11696   -12400 
  -13266   -13762   -13648   -13293   -13237   -13427   -13368   -12917 
  -12336   -11871   -11678   -11789   -12171   -12850   -13704   -14459 
  -15019   -15535   -16058   -16227   -15855   -15520   -15788   -16461 
  -16897   -16646   -15939   -15367   -15178   -15305   -15607   -15915 
  -16156   -16270   -16308   -16660   -17515   -18382   -18640   -18242 
  -17727   -17657   -18137   -18744   -18871   -18513   -18411   -18986 
  -19764   -20121   -20030   -19852   -19901   -20382   -21077   -21300 
  -20845   -20280   -20147   -20556   -21220   -21620   -21467   -21018 
  -20753   -20811   -21019   -21251   -21508   -21784   -22051   -22335 
  -22706   -23254   -23945   -24556   -24881   -24770   -24233   -23548 
  -22858   -22115   -21464   -21023   -20765   -20698   -20565   -20063 
  -19416   -18929   -18599   -18324   -17972   -17511   -16954   -16332 
  -15843   -15494   -15027   -14397   -13719   -13049   -12495   -12174 
  -12169   -12591   -13306   -13787   -13713   -13376   -13250   -13346 
  -13257   -12800   -12264   -12056   -12299   -12714   -12985   -13160 
  -13498   -14053   -14473   -14400   -13969   -13627   -13683   -13952 
  -13978   -13813   -13887   -14234   -14517   -14374   -13706   -12913 
  -12432   -12192   -11944   -11690   -11694   -12195   -12879   -13164 
  -13012   -12799   -12829   -13115   -13363   -13405   -13390   -13326 
  -12979   -12371   -11851   -11589   -11363   -10960   -10538   -10442 
  -10846   -11531   -11995   -12006   -11794   -11594   -11482   -11542 
  -11611   -11417   -11218   -11348   -11500   -11234   -10522    -9738 
   -9364    -9251    -8671    -7491    -6438    -6159    -6672    -7436 
   -7812    -7758    -7598    -7239    -6483    -5621    -5117    -5078 
   -5230    -5265    -5124    -4958    -4866    -4728    -4412    -3972 
   -3512    -3008    -2504    -2458    -3203    -4207    -4812    -5021 
   -4960    -4688    -4530    -4682    -5047    -5661    -6472    -7069 
   -7187    -7089    -7155    -7393    -7619    -7764    -7819    -7799 
   -7834    -8055    -8392    -8772    -9049    -8802    -8050    -7341 
   -6892    -6658    -6631    -6798    -7269    -8022    -8822    -9595 
  -10288   -10731   -10863   -10651   -10074    -9375    -8871    -8655 
   -8742    -9133    -9564    -9684    -9450    -8994    -8435    -7941 
   -7552    -7141    -6815    -6828    -7070    -7033    -6416    -5680 
   -5585    -6242    -7090    -7565    -7520    -7169    -6740    -6431 
   -6478    -6798    -6979    -6746    -6153    -5554    -5332    -5444 
   -5560    -5599    -5706    -5911    -6208    -6625    -7009    -7213 
   -7315    -7474    -7894    -8497    -8905    -9113    -9450   -10039 
  -10765   -11389   -11718   -11824   -12030   -12643   -13539   -14321 
  -14961   -15636   -16296   -16834   -17136   -17329   -17725   -18122 
  -18271   -18326   -18376   -18667   -19400   -20340   -21306   -22031 
  -22098   -21611   -21078   -20792   -20770   -20977   -21173   -21065 
  -20844   -20817   -20851   -20657   -20227   -19898   -19907   -20127 
  -20281   -20207   -20111   -20194   -20166   -19866   -19739   -20200 
  -20953   -21332   -21228   -21087   -21173   -21282   -21154   -21056 
  -21592   -22742   -23577   -23389   -22564   -21963   -21885   -21905 
  -21644   -21248   -21000   -20893   -20687   -20279   -19897   -19724 
  -19581   -19322   -18962   -18457   -17963   -17708   -17738   -17971 
  -17949   -17296   -16392   -15817   -15759   -16081   -16595   -17139 
  -17422   -17269   -16814   -16269   -15763   -15298   -14848   -14440 
  -14070   -13723   -13492   -13590   -14105   -14706   -14971   -14912 
  -14804   -14809   -14908   -15035   -15272   -15627   -15823   -15732 
  -15543   -15449   -15520   -15773   -16236   -16809   -17259   -17496 
  -17687   -17981   -18224   -18087   -17551   -17059   -16964   -17101 
  -17094   -16866   -16656   -16500   -16152   -15618   -15118   -14777 
  -14679   -14685   -14578   -14537   -14685   -14627   -14091   -13352 
  -12717   -12176   -11566   -10789   -10007    -9484    -9259    -9198 
   -9120    -8894    -8607    -8487    -8614    -8678    -8296    -7651 
   -7275    -7438    -7965    -8388    -8486    -8514    -8619    -8576 
   -8169    -7573    -7259    -7457    -7875    -8013    -7727    -7438 
   -7623    -8201    -8593    -8429    -8027    -7847    -7931    -8080 
   -8049    -7815    -7672    -7612    -7318    -6920    -6852    -7283 
   -8059    -8735    -8983    -8976    -9012    -9192    -9414    -9487 
   -9617   -10269   -11326   -11995   -11785   -11204   -11106   -11662 
  -12244   -12190   -11611   -11085   -10713   -10315    -9977    -9699 
   -9264    -8641    -8021    -7674    -7610    -7429    -6953    -6372 
   -5850    -5493    -5271    -5183    -5390    -5842    -6302    -6643 
   -6849    -7031    -7289    -7500    -7499    -7289    -6992    -6783 
   -6827    -7170    -7692    -8187    -8506    -8530    -8299    -8108 
   -8160    -8396    -8679    -8920    -9035    -8957    -8895    -9096 
   -9395    -9577    -9637    -9615    -9676    -9941   -10332   -10782 
  -11233   -11503   -11435   -11130   -10813   -10493   -10076    -9666 
   -9532    -9770   -10040    -9945    -9559    -9286    -9368    -9538 
   -9314    -8721    -8151    -7837    -7746    -7600    -7258    -6922 
   -6820    -6964    -7108    -7025    -6803    -6613    -6499    -6382 
   -6170    -5977    -6052    -6451    -6924    -7145    -7114    -7147 
   -7367    -7539    -7657    -8074    -8716    -9099    -9135    -9185 
   -9481    -9818   -10008   -10199   -10480   -10784   -11044   -11376 
  -12119   -13287   -14499   -15604   -16692   -17783   -18801   -19594 
  -20053   -20406   -20985   -21697   -22182   -22308   -22288   -22467 
  -22882   -23150   -23037   -22891   -23185   -23848   -24255   -24003 
  -23488   -23333   -23631   -23986   -23978   -23641   -23340   -23269 
  -23308   -23255   -23032   -22723   -22379   -21812   -21056   -20633 
  -20595   -20317   -19596   -18876   -18574   -18757   -19194   -19604 
  -19956   -20271   -20358   -20140   -19855   -19733   -19727   -19608 
  -19373   -19360   -19775   -20311   -20461   -20073   -19337   -18466 
  -17737   -17390   -17267   -17078   -16857   -16656   -16320   -15721 
  -14862   -13985   -13500   -13519   -13763   -13891   -13765   -13590 
  -13770   -14427   -15175   -15564   -15515   -15277   -15163   -15108 
  -14705   -13928   -13223   -12793   -12485   -12221   -12044   -12000 
  -12213   -12717   -13221   -13304   -12951   -12642   -12655   -12797 
  -12824   -12583   -12157   -11734   -11232   -10662   -10247   -10000 
   -9793    -9518    -9183    -8880    -8433    -7601    -6665    -6216 
   -6378    -6590    -6134    -4950    -3869    -3510    -3461    -3130 
   -2525    -1997    -1753    -1642    -1532    -1605    -1909    -2064 
   -1635     -696      154      503      508      565      836     1013 
     792      432      355      509      641      608      376      332 
     804     1282     1154      541      -72     -463     -869    -1547 
   -2322    -2864    -3217    -3718    -4408    -4831    -4632    -4149 
   -3911    -3954    -4192    -4640    -5122    -5489    -5741    -5802 
   -5680    -5649    -5906    -6269    -6480    -6545    -6632    -6976 
   -7658    -8272    -8374    -8130    -7981    -8020    -8063    -7931 
   -7529    -7111    -7177    -7710    -8256    -8558    -8575    -8536 
   -8787    -9263    -9674    -9876    -9815    -9573    -9431    -9673 
  -10378   -11289   -11886   -11862   -11416   -11056   -11186   -11571 
  -11573   -11220   -11126   -11455   -11784   -11727   -11375   -11153 
  -11259   -11499   -11723   -11967   -12162   -12266   -12362   -12469 
  -12711   -13165   -13422   -13183   -12754   -12484   -12484   -12741 
  -13027   -13058   -12842   -12583   -12375   -12179   -11948   -11742 
  -11734   -11977   -12513   -13381   -14238   -14692   -14660   -14154 
  -13468   -13079   -13139   -13526   -14056   -14602   -15152   -15671 
  -15997   -15988   -15792   -15634   -15550   -15559   -15567   -15469 
  -15489   -15689   -15889   -16233   -16836   -17484   -18033   -18374 
  -18423   -18325   -18194   -18008   -17819   -17683   -17543   -17397 
  -17397   -17631   -17906   -17909   -17598   -17294   -17210   -17207 
  -17097   -16910   -16889   -17164   -17508   -17627   -17513   -17399 
  -17529   -17925   -18390   -18729   -18734   -18301   -17729   -17436 
  -17419   -17378   -17247   -17275   -17552   -17846   -17877   -17642 
  -17456   -17402   -17288   -17259   -17531   -17883   -17996   -17864 
  -17841   -18294   -19005   -19275   -18742   -17801   -17206   -17288 
  -17654   -17722   -17416   -17192   -17393   -17773   -17759   -17169 
  -16416   -15834   -15409   -15071   -14767   -14557   -14552   -14658 
  -14645   -14485   -14341   -14201   -14073   -14092   -14249   -14644 
  -15336   -15942   -16107   -15903   -15668   -15712   -16022   -16278 
  -16329   -16555   -17225   -17819   -17783   -17340   -17145   -17576 
  -18298   -18578   -18145   -17408   -16966   -17112   -17649   -18149 
  -18415   -18542   -18622   -18601   -18387   -17957   -17413   -16974 
  -16806   -16849   -16843   -16555   -16009   -15466   -15234   -15349 
  -15411   -15008   -14269   -13808   -14039   -14608   -14789   -14272 
  -13376   -12788   -12798   -12910   -12680   -12251   -11994   -12131 
  -12362   -12091   -11254   -10271    -9416    -8777    -8335    -7953 
   -7673    -7655    -7796    -7972    -8241    -8549    -8759    -8771 
   -8520    -8219    -8155    -8267    -8331    -8261    -8110    -7953 
   -7783    -7585    -7431    -7461    -7643    -7720    -7665    -7731 
   -7974    -8213    -8298    -8321    -8550    -8956    -9274    -9516 
   -9802   -10159   -10444   -10280    -9695    -9298    -9410    -9750 
   -9980   -10192   -10670   -11330   -11839   -12076   -12202   -12482 
  -12902   -13081   -12942   -12859   -12962   -13185   -13566   -13958 
  -14162   -14118   -13763   -13280   -13053   -13183   -13420   -13343 
  -12783   -12041   -11470   -11188   -11187   -11387   -11709   -12072 
  -12203   -11885   -11431   -11368   -11771   -12215   -12267   -11981 
  -11835   -12106   -12525   -12700   -12537   -12207   -11985   -11962 
  -11911   -11722   -11639   -11902   -12393   -12766   -12874   -12898 
  -12994   -13074   -13010   -12780   -12533   -12593   -12983   -13365 
  -13652   -13892   -14065   -14232   -14404   -14620   -14847   -14755 
  -14300   -13921   -13815   -13752   -13465   -12959   -12665   -12944 
  -13483   -13794   -13807   -13693   -13732   -14124   -14700   -15028 
  -14819   -14363   -14262   -14575   -14842   -14703   -14180   -13707 
  -13625   -13661   -13391   -12885   -12508   -12488   -12763   -12906 
  -12597   -12087   -11728   -11670   -11980   -12413   -12605   -12438 
  -11957   -11371   -10954   -10831   -10932   -10987   -10831   -10592 
  -10440   -10464   -10547   -10491   -10424   -10511   -10537   -10367 
  -10189   -10057    -9884    -9702    -9626    -9827   -10278   -10559 
  -10451   -10296   -10473   -10920   -11218   -11070   -10783   -10896 
  -11405   -11888   -12113   -12191   -12341   -12566   -12640   -12424 
  -12040   -11723   -11629   -11811   -12224   -12677   -12928   -12830 
  -12420   -11965   -11767   -11848   -11936   -11807   -11530   -11306 
  -11310   -11568   -11790   -11716   -11537   -11448   -11261   -10879 
  -10416    -9947    -9627    -9558    -9742   -10231   -10795   -10928 
  -10414    -9598    -9027    -8737    -8294    -7675    -7413    -7800 
   -8390    -8549    -8343    -8345    -8745    -9194    -9389    -9358 
   -9276    -9232    -9035    -8411    -7636    -7417    -7813    -8199 
   -8244    -8110    -8168    -8616    -9087    -9146    -8928    -8864 
   -9150    -9516    -9612    -9540    -9430    -9021    -8353    -7913 
   -7900    -8232    -8677    -8802    -8516    -8189    -8101    -8269 
   -8623    -9123    -9668   -10146   -10523   -10623   -10371   -10078 
   -9869    -9572    -9218    -8989    -8967    -9164    -9567   -10065 
  -10425   -10568   -10654   -10745   -10768   -10723   -10587   -10364 
  -10216   -10207   -10227   -10214   -10153   -10106   -10275   -10735 
  -11315   -11807   -12014   -11861   -11644   -11577   -11418   -11093 
  -10838   -10749   -10728   -10489    -9933    -9560    -9810   -10337 
  -10486   -10198   -10046   -10417   -11051   -11444   -11513   -11684 
  -12099   -12120   -11241    -9999    -9390    -9599    -9779    -9348 
   -8770    -8700    -9143    -9580    -9610    -9378    -9220    -9115 
   -8907    -8743    -8785    -8913    -9032    -9112    -9114    -9184 
   -9431    -9802   -10329   -10948   -11381   -11480   -11440   -11536 
  -11764   -11950   -11983   -11862   -11884   -12322   -12904   -13329 
  -13730   -14303   -15082   -15865   -16258   -16121   -15798   -15725 
