Origin Time       2011/03/11 14:46:00
Lat.              38.103
Long.             142.860
Depth. (km)       24
Mag.              9.0
Station Code      HKD141
Station Lat.      43.1449
Station Long.     140.4355
Station Height(m) 9
Record Time       2011/03/11 14:49:51
Sampling Freq(Hz) 100Hz
Duration Time(s)  64
Dir.              U-D
Scale Factor      3920(gal)/6182761
Max. Acc. (gal)   1.160
Last Correction   2011/03/11 14:49:36
Memo.             
  -22816   -22804   -22771   -22789   -22778   -22762   -22810   -22827 
  -22820   -22859   -22853   -22811   -22818   -22793   -22743   -22748 
  -22733   -22697   -22695   -22664   -22635   -22652   -22624   -22584 
  -22592   -22576   -22561   -22582   -22565   -22529   -22513   -22460 
  -22408   -22379   -22318   -22304   -22343   -22320   -22304   -22336 
  -22333   -22344   -22379   -22357   -22339   -22364   -22360   -22355 
  -22365   -22340   -22346   -22384   -22376   -22383   -22409   -22381 
  -22362   -22364   -22320   -22283   -22275   -22253   -22249   -22256 
  -22257   -22283   -22284   -22254   -22280   -22304   -22289   -22309 
  -22318   -22299   -22322   -22337   -22331   -22351   -22351   -22336 
  -22353   -22329   -22283   -22290   -22278   -22264   -22313   -22330 
  -22334   -22407   -22450   -22461   -22532   -22594   -22627   -22700 
  -22759   -22789   -22837   -22862   -22878   -22922   -22940   -22960 
  -23011   -23033   -23062   -23140   -23187   -23221   -23292   -23315 
  -23315   -23374   -23401   -23393   -23444   -23484   -23511   -23586 
  -23639   -23686   -23789   -23861   -23903   -23986   -24036   -24052 
  -24102   -24128   -24119   -24125   -24100   -24062   -24041   -23986 
  -23937   -23931   -23898   -23854   -23829   -23785   -23761   -23757 
  -23724   -23718   -23721   -23675   -23655   -23639   -23585   -23593 
  -23615   -23565   -23554   -23578   -23550   -23539   -23548   -23515 
  -23503   -23514   -23489   -23478   -23486   -23482   -23510   -23547 
  -23552   -23586   -23630   -23630   -23642   -23652   -23625   -23618 
  -23618   -23601   -23601   -23571   -23529   -23535   -23505   -23450 
  -23451   -23435   -23410   -23443   -23462   -23467   -23508   -23523 
  -23529   -23585   -23610   -23613   -23660   -23673   -23660   -23693 
  -23690   -23668   -23715   -23740   -23729   -23759   -23777   -23761 
  -23753   -23729   -23702   -23668   -23583   -23527   -23512   -23448 
  -23411   -23433   -23430   -23451   -23506   -23534   -23580   -23633 
  -23634   -23648   -23679   -23660   -23653   -23674   -23658   -23660 
  -23676   -23649   -23657   -23685   -23657   -23647   -23670   -23661 
  -23656   -23650   -23598   -23562   -23540   -23467   -23407   -23375 
  -23318   -23287   -23283   -23246   -23227   -23236   -23229   -23242 
  -23246   -23209   -23201   -23199   -23152   -23128   -23098   -23028 
  -23010   -23001   -22943   -22922   -22920   -22887   -22892   -22906 
  -22872   -22854   -22855   -22835   -22817   -22793   -22766   -22753 
  -22711   -22662   -22645   -22602   -22550   -22553   -22541   -22510 
  -22541   -22578   -22574   -22589   -22593   -22572   -22581   -22578 
  -22551   -22545   -22513   -22470   -22470   -22463   -22461   -22505 
  -22523   -22516   -22555   -22584   -22585   -22615   -22623   -22606 
  -22619   -22606   -22571   -22577   -22560   -22519   -22528   -22542 
  -22549   -22585   -22620   -22659   -22697   -22702   -22741   -22793 
  -22773   -22759   -22770   -22726   -22681   -22648   -22580   -22551 
  -22563   -22535   -22512   -22530   -22542   -22556   -22560   -22542 
  -22571   -22621   -22617   -22639   -22707   -22735   -22766   -22823 
  -22852   -22884   -22918   -22932   -22984   -23023   -23018   -23057 
  -23075   -23043   -23067   -23078   -23028   -23023   -23040   -23037 
  -23063   -23078   -23048   -23033   -23006   -22940   -22893   -22836 
  -22757   -22729   -22695   -22628   -22622   -22617   -22564   -22556 
  -22550   -22490   -22460   -22437   -22386   -22386   -22399   -22403 
  -22464   -22490   -22470   -22524   -22579   -22616   -22714   -22787 
  -22817   -22880   -22920   -22944   -23012   -23064   -23107   -23191 
  -23239   -23261   -23320   -23335   -23315   -23340   -23338   -23296 
  -23283   -23257   -23210   -23173   -23115   -23076   -23062   -23012 
  -22994   -23014   -22981   -22981   -23013   -22982   -22983   -23029 
  -23029   -23057   -23109   -23103   -23113   -23140   -23120   -23133 
  -23161   -23134   -23137   -23161   -23135   -23127   -23131   -23079 
  -23019   -22983   -22941   -22906   -22876   -22852   -22846   -22833 
  -22826   -22840   -22814   -22766   -22773   -22778   -22732   -22718 
  -22737   -22742   -22753   -22763   -22779   -22835   -22870   -22893 
  -22973   -23023   -23042   -23122   -23168   -23160   -23218   -23275 
  -23260   -23276   -23333   -23364   -23389   -23424   -23464   -23510 
  -23542   -23577   -23619   -23625   -23630   -23669   -23676   -23661 
  -23680   -23689   -23673   -23688   -23710   -23708   -23709   -23705 
  -23696   -23681   -23645   -23624   -23622   -23588   -23562   -23565 
  -23542   -23518   -23528   -23510   -23491   -23514   -23492   -23445 
  -23450   -23428   -23383   -23378   -23342   -23297   -23304   -23294 
  -23264   -23256   -23240   -23227   -23235   -23223   -23232   -23256 
  -23254   -23302   -23377   -23383   -23396   -23417   -23384   -23383 
  -23411   -23397   -23391   -23400   -23392   -23415   -23445   -23436 
  -23460   -23502   -23498   -23520   -23557   -23542   -23552   -23585 
  -23564   -23565   -23596   -23595   -23616   -23649   -23640   -23653 
  -23671   -23651   -23666   -23665   -23601   -23594   -23607   -23579 
  -23603   -23630   -23603   -23624   -23666   -23653   -23660   -23684 
  -23675   -23695   -23732   -23744   -23780   -23807   -23807   -23852 
  -23912   -23955   -24032   -24101   -24148   -24217   -24247   -24246 
  -24294   -24325   -24325   -24360   -24382   -24410   -24496   -24535 
  -24548   -24617   -24641   -24637   -24693   -24704   -24672   -24690 
  -24676   -24616   -24593   -24564   -24523   -24504   -24464   -24418 
  -24402   -24376   -24344   -24320   -24285   -24263   -24235   -24171 
  -24132   -24104   -24034   -23993   -23964   -23898   -23872   -23848 
  -23772   -23758   -23786   -23751   -23712   -23711   -23699   -23668 
  -23613   -23560   -23532   -23484   -23445   -23444   -23417   -23402 
  -23439   -23435   -23399   -23409   -23427   -23413   -23397   -23376 
  -23342   -23302   -23253   -23199   -23141   -23082   -23044   -23018 
  -22962   -22895   -22846   -22801   -22755   -22706   -22648   -22614 
  -22605   -22580   -22570   -22576   -22544   -22511   -22499   -22459 
  -22432   -22440   -22428   -22424   -22463   -22493   -22518   -22578 
  -22622   -22655   -22719   -22753   -22772   -22827   -22828   -22800 
  -22839   -22845   -22803   -22803   -22789   -22760   -22764   -22745 
  -22740   -22770   -22761   -22781   -22839   -22839   -22862   -22917 
  -22897   -22900   -22952   -22921   -22881   -22900   -22875   -22842 
  -22860   -22854   -22845   -22866   -22866   -22876   -22913   -22909 
  -22914   -22944   -22913   -22881   -22900   -22898   -22898   -22908 
  -22887   -22892   -22904   -22883   -22903   -22923   -22897   -22918 
  -22943   -22910   -22903   -22910   -22880   -22877   -22869   -22834 
  -22858   -22865   -22810   -22822   -22837   -22796   -22824   -22864 
  -22845   -22879   -22932   -22937   -22958   -22976   -22955   -22933 
  -22917   -22916   -22941   -22958   -22989   -23043   -23066   -23090 
  -23146   -23165   -23160   -23184   -23197   -23194   -23216   -23211 
  -23202   -23242   -23231   -23183   -23176   -23135   -23089   -23085 
  -23028   -22974   -22981   -22949   -22895   -22891   -22877   -22842 
  -22844   -22841   -22818   -22820   -22816   -22805   -22811   -22800 
  -22795   -22814   -22811   -22812   -22827   -22800   -22759   -22740 
  -22719   -22709   -22696   -22661   -22663   -22677   -22659   -22673 
  -22707   -22718   -22753   -22810   -22841   -22879   -22930   -22956 
  -23011   -23096   -23132   -23171   -23240   -23265   -23290   -23319 
  -23292   -23294   -23331   -23303   -23278   -23291   -23267   -23238 
  -23251   -23266   -23266   -23258   -23266   -23292   -23280   -23260 
  -23282   -23292   -23282   -23286   -23260   -23211   -23187   -23150 
  -23105   -23106   -23102   -23085   -23109   -23131   -23153   -23223 
  -23265   -23287   -23372   -23437   -23457   -23512   -23551   -23554 
  -23576   -23574   -23556   -23572   -23577   -23578   -23590   -23568 
  -23557   -23589   -23599   -23597   -23615   -23612   -23588   -23563 
  -23531   -23512   -23489   -23439   -23413   -23409   -23379   -23357 
  -23343   -23289   -23240   -23212   -23163   -23134   -23129   -23096 
  -23085   -23087   -23030   -22990   -22991   -22943   -22898   -22888 
  -22849   -22845   -22892   -22892   -22887   -22921   -22933   -22933 
  -22943   -22950   -22965   -22973   -22975   -22996   -22993   -22979 
  -23008   -23028   -23016   -23031   -23062   -23082   -23110   -23136 
  -23154   -23179   -23185   -23184   -23206   -23220   -23231   -23266 
  -23279   -23283   -23326   -23354   -23351   -23387   -23434   -23446 
  -23472   -23496   -23500   -23525   -23546   -23552   -23577   -23584 
  -23583   -23618   -23641   -23639   -23649   -23651   -23645   -23650 
  -23643   -23646   -23668   -23656   -23650   -23664   -23632   -23613 
  -23642   -23635   -23625   -23651   -23649   -23657   -23711   -23734 
  -23757   -23823   -23840   -23833   -23877   -23893   -23893   -23933 
  -23949   -23967   -24014   -24002   -23983   -24010   -24009   -24004 
  -24033   -24042   -24057   -24084   -24071   -24061   -24064   -24041 
  -24026   -24019   -23979   -23933   -23903   -23866   -23829   -23790 
  -23732   -23699   -23671   -23603   -23565   -23540   -23458   -23402 
  -23370   -23284   -23231   -23218   -23145   -23063   -23023   -22973 
  -22925   -22891   -22849   -22813   -22780   -22752   -22757   -22760 
  -22748   -22762   -22774   -22768   -22783   -22807   -22827   -22853 
  -22856   -22866   -22904   -22903   -22890   -22914   -22905   -22884 
  -22902   -22881   -22839   -22851   -22865   -22865   -22897   -22922 
  -22935   -22987   -23023   -23022   -23050   -23065   -23054   -23066 
  -23046   -23011   -23028   -23020   -22986   -23020   -23053   -23055 
  -23089   -23123   -23162   -23221   -23236   -23253   -23285   -23252 
  -23225   -23225   -23156   -23093   -23081   -23028   -22984   -22991 
  -22987   -23007   -23048   -23044   -23067   -23119   -23121   -23164 
  -23230   -23203   -23205   -23273   -23244   -23190   -23217   -23235 
  -23253   -23309   -23350   -23402   -23458   -23475   -23502   -23525 
  -23514   -23520   -23514   -23464   -23436   -23421   -23374   -23332 
  -23303   -23272   -23264   -23247   -23214   -23217   -23212   -23171 
  -23155   -23136   -23103   -23112   -23117   -23102   -23116   -23104 
  -23063   -23066   -23043   -22976   -22956   -22915   -22824   -22782 
  -22742   -22663   -22621   -22576   -22488   -22428   -22388   -22347 
  -22324   -22291   -22266   -22264   -22215   -22164   -22167   -22141 
  -22110   -22126   -22115   -22094   -22118   -22118   -22101   -22108 
  -22082   -22047   -22049   -22037   -22039   -22084   -22082   -22087 
  -22152   -22165   -22166   -22235   -22267   -22266   -22310   -22341 
  -22358   -22400   -22419   -22453   -22519   -22534   -22561   -22634 
  -22653   -22680   -22754   -22783   -22818   -22891   -22924   -22973 
  -23061   -23121   -23199   -23289   -23315   -23351   -23403   -23401 
  -23436   -23492   -23462   -23450   -23482   -23454   -23437   -23461 
  -23448   -23427   -23406   -23370   -23362   -23347   -23309   -23305 
  -23297   -23268   -23269   -23275   -23269   -23289   -23309   -23304 
  -23294   -23278   -23274   -23289   -23273   -23262   -23290   -23283 
  -23267   -23286   -23281   -23269   -23287   -23273   -23233   -23227 
  -23218   -23185   -23179   -23165   -23117   -23095   -23064   -23000 
  -22962   -22903   -22800   -22734   -22664   -22559   -22498   -22435 
  -22350   -22317   -22279   -22216   -22211   -22208   -22176   -22184 
  -22176   -22146   -22151   -22120   -22060   -22051   -22033   -21998 
  -22000   -21990   -21966   -21971   -21967   -21967   -21996   -22008 
  -22025   -22062   -22062   -22072   -22119   -22135   -22148   -22179 
  -22164   -22159   -22214   -22238   -22241   -22278   -22300   -22313 
  -22334   -22315   -22296   -22308   -22291   -22282   -22308   -22312 
  -22325   -22358   -22365   -22368   -22372   -22370   -22392   -22393 
  -22368   -22386   -22384   -22343   -22353   -22368   -22345   -22352 
  -22359   -22339   -22340   -22337   -22311   -22298   -22269   -22239 
  -22245   -22212   -22144   -22130   -22110   -22049   -22031   -22021 
  -21974   -21960   -21959   -21926   -21915   -21923   -21924   -21947 
  -21977   -22010   -22058   -22089   -22128   -22202   -22257   -22308 
  -22399   -22495   -22569   -22638   -22702   -22773   -22832   -22859 
  -22902   -22948   -22965   -22996   -23037   -23051   -23062   -23080 
  -23090   -23096   -23097   -23088   -23100   -23109   -23083   -23077 
  -23088   -23086   -23120   -23165   -23173   -23203   -23248   -23250 
  -23255   -23292   -23305   -23310   -23332   -23327   -23317   -23323 
  -23296   -23276   -23290   -23272   -23260   -23286   -23283   -23272 
  -23289   -23299   -23322   -23353   -23346   -23349   -23358   -23329 
  -23339   -23366   -23350   -23385   -23433   -23412   -23415   -23435 
  -23408   -23414   -23438   -23412   -23417   -23454   -23445   -23440 
  -23452   -23429   -23421   -23435   -23417   -23418   -23431   -23403 
  -23391   -23397   -23375   -23365   -23355   -23333   -23346   -23332 
  -23300   -23326   -23324   -23311   -23379   -23417   -23409   -23451 
  -23476   -23462   -23483   -23487   -23459   -23466   -23465   -23438 
  -23437   -23416   -23376   -23376   -23354   -23306   -23304   -23291 
  -23250   -23252   -23254   -23233   -23227   -23199   -23167   -23144 
  -23080   -23039   -23039   -22985   -22937   -22941   -22917   -22900 
  -22920   -22925   -22939   -22951   -22920   -22913   -22927   -22898 
  -22893   -22919   -22900   -22908   -22949   -22928   -22916   -22943 
  -22926   -22892   -22875   -22838   -22802   -22786   -22770   -22767 
  -22767   -22768   -22787   -22784   -22765   -22780   -22790   -22758 
  -22731   -22706   -22659   -22609   -22545   -22472   -22420   -22353 
  -22293   -22285   -22257   -22226   -22256   -22266   -22247   -22270 
  -22288   -22279   -22298   -22308   -22284   -22297   -22318   -22287 
  -22273   -22268   -22226   -22210   -22192   -22135   -22121   -22128 
  -22102   -22102   -22111   -22087   -22072   -22048   -22005   -21975 
  -21946   -21932   -21940   -21928   -21923   -21938   -21919   -21883 
  -21868   -21844   -21827   -21827   -21797   -21781   -21794   -21767 
  -21752   -21765   -21730   -21712   -21736   -21725   -21720   -21736 
  -21721   -21717   -21730   -21710   -21705   -21726   -21714   -21732 
  -21770   -21734   -21715   -21749   -21726   -21703   -21741   -21746 
  -21741   -21779   -21807   -21822   -21843   -21858   -21896   -21929 
  -21934   -21980   -22030   -22036   -22082   -22129   -22120   -22159 
  -22207   -22186   -22201   -22249   -22233   -22224   -22234   -22190 
  -22153   -22131   -22069   -22028   -22009   -21952   -21917   -21897 
  -21841   -21823   -21823   -21777   -21751   -21734   -21681   -21675 
  -21695   -21675   -21683   -21698   -21675   -21696   -21736   -21739 
  -21780   -21834   -21833   -21834   -21843   -21828   -21821   -21814 
  -21795   -21791   -21776   -21751   -21744   -21723   -21718   -21760 
  -21760   -21729   -21740   -21737   -21711   -21734   -21765   -21779 
  -21822   -21873   -21914   -21964   -21999   -22031   -22075   -22093 
  -22107   -22136   -22142   -22149   -22187   -22213   -22238   -22284 
  -22323   -22378   -22447   -22476   -22515   -22573   -22579   -22594 
  -22641   -22641   -22636   -22659   -22652   -22657   -22701   -22718 
  -22725   -22746   -22755   -22762   -22757   -22732   -22741   -22752 
  -22721   -22703   -22697   -22666   -22650   -22645   -22617   -22593 
  -22572   -22549   -22562   -22571   -22548   -22554   -22552   -22525 
  -22546   -22556   -22533   -22572   -22615   -22600   -22609   -22637 
  -22636   -22650   -22682   -22712   -22743   -22746   -22751   -22791 
  -22809   -22811   -22846   -22876   -22882   -22895   -22904   -22904 
  -22908   -22899   -22891   -22884   -22857   -22856   -22889   -22903 
  -22913   -22945   -22967   -22990   -23031   -23055   -23086   -23143 
  -23171   -23191   -23230   -23227   -23230   -23273   -23265   -23251 
  -23284   -23261   -23219   -23226   -23201   -23153   -23133   -23094 
  -23050   -23022   -22954   -22902   -22907   -22882   -22868   -22908 
  -22910   -22922   -22985   -22987   -22984   -23031   -23024   -23007 
  -23029   -23010   -22998   -23026   -23009   -22995   -23017   -23002 
  -23011   -23060   -23049   -23043   -23074   -23057   -23040   -23044 
  -23008   -22996   -23009   -22989   -22997   -23007   -22974   -22991 
  -23007   -22967   -22986   -23015   -22985   -22997   -23011   -22964 
  -22936   -22904   -22840   -22816   -22777   -22695   -22671   -22657 
  -22605   -22612   -22625   -22588   -22600   -22619   -22570   -22543 
  -22542   -22517   -22506   -22493   -22475   -22480   -22465   -22461 
  -22502   -22519   -22538   -22589   -22596   -22598   -22638   -22643 
  -22645   -22677   -22674   -22671   -22687   -22658   -22636   -22647 
  -22616   -22595   -22615   -22584   -22559   -22601   -22607   -22582 
  -22592   -22580   -22552   -22546   -22511   -22478   -22463   -22404 
  -22369   -22366   -22305   -22278   -22293   -22239   -22201   -22212 
  -22200   -22210   -22223   -22218   -22271   -22301   -22279   -22321 
  -22347   -22314   -22328   -22331   -22288   -22289   -22297   -22275 
  -22278   -22282   -22279   -22311   -22325   -22318   -22351   -22362 
  -22334   -22345   -22360   -22344   -22354   -22365   -22344   -22349 
  -22370   -22362   -22370   -22393   -22383   -22390   -22411   -22400 
  -22409   -22431   -22416   -22413   -22414   -22388   -22394   -22407 
  -22374   -22370   -22393   -22374   -22357   -22343   -22298   -22284 
  -22285   -22265   -22281   -22299   -22289   -22318   -22341   -22329 
  -22359   -22392   -22397   -22420   -22436   -22435   -22459   -22487 
  -22512   -22551   -22576   -22604   -22667   -22718   -22747   -22778 
  -22786   -22809   -22869   -22898   -22933   -22989   -22986   -22986 
  -23025   -23001   -22987   -23017   -22986   -22971   -23011   -22997 
  -22984   -23017   -23022   -23042   -23093   -23090   -23079   -23093 
  -23066   -23041   -23043   -23008   -22991   -23021   -23010   -22989 
  -22986   -22947   -22928   -22948   -22931   -22923   -22938   -22919 
  -22921   -22927   -22883   -22886   -22910   -22875   -22870   -22888 
  -22862   -22858   -22849   -22798   -22793   -22790   -22745   -22750 
  -22747   -22714   -22759   -22793   -22776   -22833   -22895   -22899 
  -22940   -22996   -23029   -23082   -23132   -23161   -23194   -23200 
  -23187   -23182   -23148   -23106   -23111   -23122   -23123   -23162 
  -23207   -23241   -23298   -23342   -23376   -23443   -23481   -23506 
  -23571   -23611   -23658   -23751   -23785   -23804   -23891   -23933 
  -23919   -23945   -23973   -23975   -23982   -23987   -23987   -23960 
  -23917   -23903   -23886   -23846   -23821   -23786   -23712   -23642 
  -23592   -23536   -23493   -23455   -23390   -23330   -23267   -23179 
  -23132   -23089   -23000   -22942   -22894   -22801   -22736   -22683 
  -22577   -22482   -22415   -22313   -22225   -22171   -22080   -22000 
