Origin Time       2011/03/11 14:46:00
Lat.              38.103
Long.             142.860
Depth. (km)       24
Mag.              9.0
Station Code      HKD154
Station Lat.      42.0965
Station Long.     140.5636
Station Height(m) 83
Record Time       2011/03/11 14:47:57
Sampling Freq(Hz) 100Hz
Duration Time(s)  300
Dir.              U-D
Scale Factor      3920(gal)/6182761
Max. Acc. (gal)   6.618
Last Correction   2011/03/11 14:47:42
Memo.             
[...]
    4539     4950     5064     4916     4566     4107     3672     3366 
    3256     3372     3687     4148     4661     5069     5243     5150 
    4844     4476     4224     4197     4428     4885     5462     6012 
    6373     6417     6156     5763     5395     5107     4930     4901 
    5005     5157     5252     5279     5333     5506     5828     6260 
    6721     7111     7335     7370     7305     7230     7128     6957 
    6711     6378     5936     5397     4853     4490     4469     4833 
    5536     6447     7336     7961     8168     7893     7163     6118 
    4995     4024     3295     2782     2463     2332     2381     2567 
    2803     3003     3133     3240     3373     3470     3390     3088 
    2703     2476     2613     3155     3912     4579     4932     4906 
    4560     4037     3518     3162     3045     3131     3312     3445 
    3369     3035     2616     2393     2513     2918     3459     4004 
    4464     4782     4910     4840     4600     4205     3694     3162 
    2744     2558     2630     2858     3072     3143     3029     2764 
    2417     2027     1638     1353     1272     1391     1626     1893 
    2078     2035     1719     1269      896      734      793     1006 
    1316     1695     2132     2600     3030     3310     3354     3163 
    2803     2349     1896     1538     1350     1352     1456     1555 
    1639     1778     2046     2467     2988     3530     4080     4704 
    5409     6030     6299     6033     5298     4390     3648     3291 
    3352     3712     4207     4703     5082     5259     5208     4947 
    4507     3990     3575     3383     3410     3597     3897     4232 
    4428     4326     3924     3360     2795     2344     2085     2092 
    2427     3080     3925     4765     5424     5803     5885     5710 
    5360     5015     4920     5232     5891     6632     7170     7421 
    7496     7516     7546     7615     7694     7744     7779     7834 
    7853     7706     7354     6947     6655     6508     6441     6386 
    6238     5884     5358     4914     4836     5217     5912     6580 
    6844     6528     5703     4552     3289     2186     1523     1409 
    1701     2148     2605     3035     3361     3432     3153     2587 
    1877     1125      409     -158     -448     -366       91      790 
    1516     2104     2482     2657     2676     2612     2578     2631 
    2690     2639     2466     2293     2287     2471     2694     2851 
    2965     3092     3259     3440     3568     3553     3290     2757 
    2098     1536     1209     1171     1404     1815     2280     2697 
    3018     3270     3506     3756     3991     4079     3871     3347 
    2649     2016     1666     1718     2156     2828     3553     4217 
    4716     4915     4759     4343     3860     3477     3241     3112 
    3046     2987     2842     2579     2278     2071     2087     2383 
    2897     3555     4304     5000     5455     5611     5517     5240 
    4859     4410     3945     3594     3445     3459     3512     3501 
    3444     3410     3377     3268     3055     2755     2393     2012 
    1690     1525     1568     1751     1909     1942     1907     1954 
    2220     2807     3730     4837     5880     6653     7082     7221 
    7119     6741     6116     5448     4964     4711     4542     4298 
    3975     3702     3604     3728     4027     4390     4722     4997 
    5227     5422     5574     5658     5661     5648     5778     6170 
    6743     7251     7460     7259     6707     5962     5141     4296 
    3457     2626     1788      974      292     -146     -319     -294 
    -145       58      241      330      292      149      -60     -294 
    -463     -466     -268      111      625     1191     1745     2263 
    2704     3012     3166     3193     3166     3137     3044     2772 
    2346     2015     2046     2446     3029     3644     4206     4655 
    5000     5318     5648     5939     6135     6271     6427     6627 
    6814     6922     6910     6737     6386     5963     5680     5681 
    5936     6316     6720     7095     7398     7544     7436     7077 
    6579     6060     5608     5260     4963     4625     4224     3889 
    3837     4181     4832     5592     6253     6637     6685     6501 
    6210     5865     5563     5434     5530     5780     5991     6020 
    5958     5932     5880     5685     5338     4958     4731     4746 
    4915     5051     5001     4750     4391     3973     3494     2982 
    2464     1963     1605     1582     1976     2674     3424     4002 
    4357     4559     4633     4480     3990     3276     2682     2532 
    3035     4255     5938     7570     8691     9060     8719     7951 
    7134     6605     6499     6705     7023     7288     7352     7095 
    6476     5561     4562     3785     3461     3641     4219     4954 
    5505     5561     5038     4131     3158     2429     2200     2569 
    3416     4450     5319     5776     5737     5244     4455     3639 
    3042     2725     2574     2493     2458     2453     2441     2421 
    2501     2773     3134     3414     3556     3559     3441     3257 
    3037     2831     2731     2721     2713     2664     2556     2386 
    2212     2114     2169     2372     2617     2851     3124     3416 
    3593     3515     3131     2504     1780     1077      463       26 
    -121       53      463     1007     1584     2042     2225     2132 
    1960     1928     2077     2270     2340     2258     2118     1970 
    1768     1490     1232     1140     1275     1578     1953     2267 
    2341     2036     1395      653       81     -233     -402     -560 
    -731     -885    -1008    -1108    -1170    -1145    -1018     -818 
    -599     -444     -404     -404     -326     -121      214      631 
     984     1074      786      238     -242     -378      -74      674 
    1758     2954     4043     4924     5622     6165     6496     6590 
    6557     6583     6857     7492     8490     9751    11019    11883 
   12049    11614    10959    10482    10397    10664    11115    11580 
   11929    12135    12270    12320    12177    11775    11140    10391 
    9688     9143     8756     8432     8084     7723     7388     7033 
    6609     6176     5820     5536     5278     5074     5020     5177 
    5530     5947     6224     6274     6183     6074     6014     5991 
    5941     5825     5626     5286     4808     4356     4135     4230 
    4568     4963     5241     5314     5151     4775     4262     3658 
    2997     2455     2308     2661     3314     3913     4198     4137 
    3912     3790     3942     4360     4922     5497     5983     6296 
    6369     6188     5859     5605     5643     6004     6484     6797 
    6736     6204     5251     4133     3218     2738     2684     2913 
    3261     3563     3623     3279     2618     1948     1516     1312 
    1122      798      441      298      537     1218     2313     3568 
    4548     4947     4734     4067     3140     2082      952     -174 
   -1143    -1774    -1976    -1818    -1489    -1134     -801     -542 
    -413     -392     -372     -233       70      494     1001     1540 
    2000     2308     2448     2421     2298     2216     2265     2394 
    2495     2601     2854     3326     3952     4607     5174     5523 
    5538     5205     4595     3833     3109     2633     2510     2682 
    2999     3304     3471     3380     2953     2316     1780     1618 
    1939     2731     3883     5134     6129     6669     6836     6867 
    6922     6988     7009     6997     6967     6845     6559     6172 
    5829     5656     5747     6097     6506     6729     6726     6677 
    6797     7174     7756     8472     9275    10107    10814    11179 
   11119    10668     9839     8732     7627     6807     6330     6033 
    5756     5559     5597     5868     6258     6693     7111     7461 
    7683     7643     7295     6822     6514     6607     7132     7869 
    8588     9217     9707     9996    10116    10154    10156    10068 
    9763     9213     8565     7975     7479     7020     6540     6074 
    5702     5396     5081     4777     4580     4590     4866     5363 
    5919     6364     6580     6498     6163     5709     5293     5046 
    5015     5166     5426     5734     6082     6410     6561     6455 
    6136     5656     5059     4439     3976     3833     3970     4188 
    4362     4483     4591     4740     4965     5291     5736     6226 
    6607     6805     6855     6803     6672     6442     6119     5755 
    5361     4905     4411     3988     3759     3746     3826     3811 
    3582     3142     2600     2137     1903     1947     2247     2673 
    3033     3206     3179     3008     2779     2573     2439     2387 
    2397     2427     2429     2394     2360     2354     2332     2234 
    2085     1931     1766     1582     1438     1483     1877     2580 
    3275     3621     3490     2975     2292     1604      980      508 
     257      218      393      810     1423     2122     2788     3326 
    3659     3720     3509     3157     2853     2726     2846     3251 
    3852     4446     4871     5127     5387     5794     6318     6813 
    7141     7291     7374     7454     7543     7700     7967     8231 
    8300     8058     7507     6760     5981     5331     4925     4746 
    4742     4914     5180     5364     5334     5028     4473     3835 
    3338     3140     3275     3655     4114     4472     4603     4557 
    4523     4659     5001     5464     5826     5879     5627     5236 
    4822     4420     4067     3852     3884     4205     4735     5312 
    5706     5702     5184     4218     3117     2270     1803     1538 
    1254      876      492      247      185      235      281      227 
      45     -235     -580     -935    -1219    -1374    -1315     -909 
    -103     1003     2197     3277     4186     4973     5650     6169 
    6551     6849     7012     6950     6659     6325     6226     6417 
    6709     6954     7096     7087     6887     6519     6092     5669 
    5179     4596     4058     3704     3611     3820     4228     4594 
    4711     4506     4040     3457     2934     2607     2479     2486 
    2584     2775     3112     3603     4065     4230     4032     3583 
    2985     2379     1945     1764     1854     2205     2766     3509 
    4335     4984     5184     4733     3650     2326     1224      521 
     214      298      806     1790     3128     4403     5150     5127 
    4361     3103     1749      696      158       83      293      620 
     967     1326     1658     1923     2193     2425     2494     2457 
    2417     2437     2658     3152     3870     4764     5764     6827 
    7917     8882     9559     9906     9937     9675     9228     8768 
    8432     8295     8331     8426     8447     8366     8362     8670 
    9251     9804    10051     9869     9301     8631     8185     8087 
    8298     8653     8974     9219     9409     9585     9746     9772 
    9567     9112     8401     7433     6306     5230     4396     3937 
    3869     4051     4348     4657     4860     4875     4682     4346 
    3952     3574     3308     3240     3416     3772     4121     4289 
    4235     4063     3902     3771     3606     3392     3211     3092 
    2925     2579     2051     1507     1134      981      979     1044 
    1179     1416     1690     1897     1988     1989     2014     2167 
    2455     2832     3253     3671     4032     4239     4185     3877 
    3422     2952     2628     2554     2702     2982     3323     3758 
    4375     5146     5895     6452     6812     7088     7348     7551 
    7567     7276     6680     5907     5153     4627     4521     4936 
    5833     6971     7928     8318     8024     7237     6264     5343 
    4613     4168     4036     4103     4175     4155     4031     3752 
    3265     2579     1850     1358     1281     1576     2059     2554 
    2995     3445     3975     4500     4847     4956     4873     4673 
    4449     4249     4082     3941     3779     3560     3376     3361 
    3458     3474     3320     3087     2950     2960     2967     2843 
    2618     2415     2274     2094     1844     1683     1776     2099 
    2488     2778     2860     2714     2403     2019     1685     1462 
    1389     1570     2001     2539     3044     3397     3537     3498 
    3337     3122     2946     2815     2684     2590     2663     3018 
    3675     4567     5591     6657     7691     8579     9194     9442 
    9332     8977     8445     7771     7068     6442     5883     5338 
    4831     4445     4236     4225     4392     4586     4545     4089 
    3298     2459     1865     1586     1485     1427     1360     1275 
    1183     1011      709      418      242       94      -98     -297 
    -403     -340     -120      237      728     1301     1871     2379 
    2801     3103     3267     3333     3330     3194     2836     2296 
    1773     1476     1480     1707     2084     2610     3213     3736 
    4106     4410     4707     4908     4933     4805     4611     4400 
    4114     3745     3466     3522     4021     4826     5636     6198 
    6399     6216     5697     4956     4079     3167     2418     1951 
    1720     1629     1594     1600     1679     1864     2219     2744 
    3255     3473     3210     2517     1624      722     -143     -941 
   -1554    -1867    -1881    -1736    -1636    -1718    -2044    -2622 
   -3399    -4254    -5039    -5689    -6194    -6437    -6179    -5280 
   -3875    -2306     -914      143      895     1365     1483     1208 
     646       39     -384     -522     -373       22      576     1187 
    1766     2205     2409     2363     2140     1926     1943     2247 
    2698     3118     3343     3311     3169     3133     3297     3658 
    4134     4591     4923     5053     4971     4743     4390     3833 
    3064     2250     1600     1197     1042     1121     1422     1937 
    2629     3390     4049     4418     4403     4113     3797     3668 
    3771     3996     4213     4400     4645     5078     5703     6338 
    6825     7161     7406     7631     7910     8293     8764     9252 
    9659     9926    10041     9939     9493     8619     7419     6216 
    5385     5106     5316     5818     6384     6824     7044     7104 
    7162     7301     7449     7494     7417     7308     7281     7367 
    7518     7684     7818     7899     7925     7864     7707     7547 
    7511     7643     7914     8368     9075    10003    11036    12008 
   12772    13251    13405    13286    13054    12843    12688    12543 
   12322    11971    11499    10928    10266     9550     8911     8542 
    8599     9108     9955    10928    11769    12284    12447    12353 
   12048    11500    10716     9778     8854     8171     7857     7862 
    8057     8261     8272     8008     7535     6978     6437     5945 
    5545     5361     5502     5927     6490     7023     7422     7681 
    7796     7705     7382     6888     6386     6054     5923     5953 
    6191     6629     7059     7193     6872     6203     5490     4999 
    4859     5089     5592     6201     6736     7020     6963     6624 
    6179     5819     5631     5561     5525     5483     5397     5278 
    5223     5277     5358     5362     5247     5054     4857     4647 
    4409     4221     4127     4068     3924     3546     2924     2229 
    1647     1291     1207     1358     1616     1851     1963     1817 
    1318      524     -401    -1240    -1786    -1935    -1684    -1127 
    -442      229      813     1257     1574     1767     1799     1714 
    1600     1501     1421     1258      951      646      526      676 
    1064     1586     2146     2640     2971     3109     3162     3277 
    3423     3436     3199     2788     2390     2106     1997     2074 
    2271     2505     2647     2594     2361     2027     1690     1446 
    1320     1278     1276     1218     1004      706      516      585 
     969     1617     2425     3255     3921     4245     4162     3718 
    3052     2385     1906     1648     1528     1459     1382     1245 
    1028      711      217     -471    -1216    -1806    -2041    -1886 
   -1439     -792      -88      529     1036     1413     1642     1748 
    1691     1448     1155     1033     1221     1676     2205     2586 
    2690     2522     2141     1636     1141      834      925     1526 
    2531     3635     4426     4637     4308     3662     2951     2371 
    2025     1880     1796     1635     1346     1039      909     1043 
    1431     1995     2563     2998     3248     3289     3171     3026 
    2964     3047     3288     3672     4152     4593     4812     4725 
    4432     4146     4057     4273     4800     5511     6190     6612 
    6653     6364     5952     5614     5420     5350     5338     5262 
    4999     4516     3932     3419     3060     2865     2847     2990 
    3188     3247     3081     2776     2504     2454     2688     3116 
    3665     4289     4898     5327     5387     5059     4573     4182 
    3968     3877     3910     4173     4687     5278     5714     5905 
    5948     5951     5899     5775     5636     5532     5449     5354 
    5264     5257     5370     5582     5904     6345     6783     7092 
    7290     7457     7600     7664     7611     7428     7121     6759 
    6459     6306     6330     6551     6996     7634     8249     8512 
    8229     7454     6432     5480     4850     4658     4867     5264 
    5597     5717     5544     5026     4191     3163     2087     1105 
     379       51      178      685     1408     2148     2699     2940 
    2920     2769     2609     2555     2659     2843     2964     2958 
    2853     2738     2688     2720     2812     2926     3102     3477 
    4095     4842     5609     6316     6904     7336     7509     7289 
    6653     5721     4669     3654     2844     2430     2501     2964 
    3523     3795     3586     3032     2391     1836     1438     1186 
    1075     1114     1246     1405     1568     1672     1646     1523 
    1368     1227     1169     1226     1361     1508     1541     1365 
    1036      707      535      569      726      936     1224     1694 
    2426     3350     4287     5114     5812     6363     6703     6784 
    6618     6301     6020     5974     6271     6860     7518     7936 
    7908     7441     6719     5954     5298     4871     4786     5117 
    5847     6779     7577     7920     7674     6985     6225     5744 
    5659     5852     6086     6189     6192     6214     6322     6523 
    6734     6890     7025     7140     7164     7050     6856     6724 
    6758     6928     7115     7249     7325     7345     7359     7407 
    7509     7714     8010     8327     8586     8687     8567     8278 
    7962     7777     7814     7976     8053     7915     7558     7054 
    6473     5834     5180     4606     4197     3949     3752     3484 
    3062     2466     1805     1322     1249     1641     2347     3133 
    3778     4145     4159     3773     3037     2143     1282      517 
    -145     -630     -873     -877     -692     -403     -121       -9 
    -198     -677    -1294    -1830    -2085    -1915    -1258     -203 
    1009     2096     2846     3180     3133     2774     2200     1599 
