Origin Time       2011/03/11 14:46:00
Lat.              38.103
Long.             142.860
Depth. (km)       24
Mag.              9.0
Station Code      HKD159
Station Lat.      41.7160
Station Long.     141.0046
Station Height(m) 23
Record Time       2011/03/11 14:47:35
Sampling Freq(Hz) 100Hz
Duration Time(s)  300
Dir.              U-D
Scale Factor      3920(gal)/6182761
Max. Acc. (gal)   11.758
Last Correction   2011/03/11 14:47:20
Memo.             
[...]
  -24931   -23396   -22437   -22421   -23237   -24542   -25757   -25975 
  -24543   -21829   -18967   -17147   -17294   -19467   -22614   -25513 
  -27407   -27807   -26660   -24605   -22477   -20701   -19513   -19373 
  -20541   -22670   -25187   -27434   -28567   -28002   -25930   -23242 
  -20989   -20057   -20921   -23085   -25251   -26391   -26236   -24979 
  -22960   -20573   -18462   -17318   -17378   -18611   -20821   -23359 
  -25389   -26412   -26518   -26126   -25508   -24856   -24283   -23627 
  -22835   -22279   -22327   -22829   -23238   -23153   -22489   -21466 
  -20511   -19789   -19237   -19103   -19625   -20619   -21989   -23493 
  -24291   -24024   -23413   -23152   -23232   -23368   -23391   -23414 
  -23771   -24515   -25252   -25571   -25228   -24200   -22764   -21417 
  -20700   -20849   -21501   -21921   -21716   -21238   -20995   -21056 
  -21283   -21716   -22558   -23903   -25596   -27268   -28334   -28276 
  -27124   -25360   -23640   -22694   -22870   -23836   -24937   -25584 
  -25364   -24098   -21948   -19533   -17649   -16686   -16753   -18149 
  -20809   -23875   -26443   -28064   -28399   -27118   -24333   -20898 
  -18070   -16912   -17792   -20165   -22906   -24838   -25264   -24507 
  -23476   -22609   -22033   -22034   -22493   -22946   -23451   -24300 
  -25274   -25994   -26414   -26502   -26131   -25413   -24596   -23928 
  -23689   -23852   -24146   -24512   -24830   -24864   -24733   -24609 
  -24384   -24015   -23729   -23933   -24834   -26129   -27275   -27818 
  -27472   -26111   -23930   -21682   -20245   -19987   -20833   -22444 
  -24185   -25405   -25729   -25106   -23736   -21904   -20114   -19154 
  -19595   -21311   -23522   -25178   -25548   -24715   -23266   -21710 
  -20477   -19911   -19986   -20417   -20818   -20894   -20766   -20703 
  -20769   -20988   -21318   -21701   -22126   -22298   -21797   -20658 
  -19310   -18295   -18206   -19260   -20952   -22531   -23483   -23532 
  -22760   -21823   -21334   -21185   -21363   -22270   -23687   -25035 
  -26137   -26752   -26584   -25874   -25097   -24367   -23576   -22756 
  -21977   -21392   -21463   -22451   -23717   -24385   -24431   -24311 
  -24255   -24447   -24989   -25503   -25428   -24585   -23125   -21406 
  -20207   -20239   -21553   -23788   -26179   -27640   -27657   -26610 
  -25109   -23593   -22481   -21970   -21689   -21272   -20800   -20331 
  -19985   -20242   -21230   -22574   -24125   -25780   -27040   -27517 
  -27160   -25824   -23592   -21332   -20100   -20237   -21333   -22790 
  -24296   -25609   -26061   -24967   -22617   -20206   -18876   -19248 
  -21279   -24161   -26747   -28005   -27338   -25027   -22163   -19761 
  -18157   -17557   -18452   -20866   -23949   -26606   -28061   -27930 
  -26326   -23988   -21927   -20902   -21025   -21598   -21924   -22194 
  -22748   -23311   -23539   -23313   -22643   -21822   -21262   -21174 
  -21602   -22346   -22837   -22687   -22234   -22167   -22831   -23971 
  -25091   -25837   -25854   -24802   -22801   -20574   -18886   -17998 
  -17902   -18562   -19648   -20860   -22164   -23219   -23632   -23571 
  -23121   -22063   -20841   -20325   -20634   -21512   -23042   -24954 
  -26597   -27777   -28303   -27589   -25729   -23455   -21305   -19911 
  -19694   -20303   -21112   -21658   -21905   -22055   -22067   -22005 
  -22157   -22479   -22680   -22667   -22607   -22824   -23488   -24352 
  -25109   -25750   -26294   -26514   -26188   -25451   -24769   -24421 
  -24203   -23791   -23157   -22529   -22236   -22710   -24085   -25749 
  -26803   -26713   -25514   -23708   -21911   -20638   -20243   -20754 
  -21889   -23311   -24808   -26172   -27136   -27573   -27322   -26004 
  -23618   -20862   -18548   -17278   -17402   -18697   -20429   -22019 
  -23412   -24471   -24753   -24409   -24039   -23742   -23475   -23506 
  -23854   -24135   -24039   -23572   -22886   -22048   -21110   -20358 
  -20117   -20391   -21017   -21820   -22490   -22805   -22937   -23320 
  -24230   -25285   -25602   -24982   -24240   -23968   -23991   -24083 
  -24129   -23864   -23275   -22881   -23130   -23919   -24731   -24997 
  -24566   -23718   -22758   -22070   -21977   -22423   -23146   -23735 
  -23846   -23597   -22995   -21701   -20036   -18793   -18220   -18478 
  -19917   -22110   -24086   -25319   -25525   -24530   -22811   -21178 
  -20125   -20083   -21441   -23617   -25353   -26273   -26589   -26232 
  -25577   -25343   -25677   -26385   -27059   -26946   -25700   -23886 
  -22238   -20876   -19773   -19374   -20056   -21608   -23575   -25434 
  -26539   -26458   -25270   -23498   -21984   -21434   -21944   -23287 
  -25176   -26955   -27708   -27078   -25651   -24166   -22764   -21512 
  -20824   -20896   -21533   -22365   -22905   -22985   -22802   -22411 
  -21907   -21676   -21992   -22885   -24170   -25306   -25756   -25223 
  -23685   -21691   -20095   -19454   -19845   -20944   -22467   -24263 
  -25673   -25796   -24450   -22143   -19691   -18032   -17635   -18349 
  -19906   -21983   -24122   -25875   -26883   -26932   -26132   -24960 
  -23882   -23002   -22188   -21383   -20623   -20019   -20027   -20987 
  -22382   -23472   -23992   -23955   -23681   -23506   -23285   -22939 
  -22740   -22740   -22883   -23303   -23880   -24193   -24013   -23421 
  -22817   -22754   -23313   -23883   -23941   -23750   -23650   -23296 
  -22498   -21701   -21078   -20434   -19911   -19813   -20115   -20484 
  -20465   -19895   -19097   -18615   -18994   -20527   -22947   -25424 
  -27064   -27379   -26363   -24584   -22905   -21768   -21224   -21400 
  -22486   -24283   -26139   -27603   -28427   -28086   -26288   -23402 
  -20185   -17547   -16273   -16779   -18935   -22008   -24863   -26474 
  -26600   -25702   -24366   -23140   -22166   -21306   -20857   -21076 
  -21795   -22861   -23901   -24429   -24546   -24547   -24386   -24092 
  -23943   -23996   -23922   -23605   -23400   -23452   -23689   -24294 
  -25220   -26121   -26840   -27112   -26439   -24668   -22115   -19339 
  -17262   -17002   -18913   -22089   -25192   -27256   -27825   -27110 
  -25573   -23282   -20477   -18071   -16774   -16651   -17848   -20463 
  -23691   -26367   -28153   -29147   -28960   -27239   -24427   -21343 
  -18815   -17633   -18050   -19635   -21764   -23858   -25246   -25478 
  -24858   -23910   -22729   -21544   -20889   -21024   -21912   -23306 
  -24745   -25849   -26411   -26377   -25815   -24706   -23106   -21508 
  -20523   -20312   -20656   -21321   -22102   -22855   -23620   -24397 
  -25112   -25885   -26527   -26296   -24934   -22870   -20477   -18244 
  -16984   -17121   -18353   -20147   -21943   -22979   -22704   -21317 
  -19446   -17788   -17094   -17663   -18974   -20351   -21554   -22575 
  -23463   -24308   -24996   -25138   -24454   -23073   -21480   -20482 
  -20957   -22894   -25018   -26018   -25434   -23544   -21483   -20563 
  -20930   -21876   -22768   -23086   -22862   -22905   -23771   -25119 
  -26349   -27177   -27404   -26812   -25636   -24567   -23990   -23809 
  -23935   -24109   -23725   -22501   -20607   -18307   -16318   -15720 
  -16866   -19181   -21985   -24601   -26187   -26307   -25169   -23347 
  -21765   -21299   -21984   -23110   -23826   -23535   -22506   -21866 
  -22477   -24203   -26236   -27627   -27651   -26150   -23619   -20664 
  -17770   -15823   -15797   -17876   -21579   -26002   -29747   -31549 
  -30880   -27988   -23850   -19842   -17351   -17331   -19566   -22850 
  -26100   -28542   -29301   -27897   -24834   -21213   -18108   -16346 
  -16276   -17348   -18270   -18285   -17901   -17930   -18672   -20122 
  -22017   -23772   -24672   -24298   -23115   -22253   -22514   -23962 
  -26111   -28133   -29399   -29843   -29382   -27691   -24988   -22126 
  -19677   -17827   -17203   -18597   -21595   -24724   -26633   -26466 
  -24256   -20932   -17735   -16194   -17518   -21243   -25581   -29149 
  -31226   -31062   -28758   -25666   -23072   -21913   -22669   -24441 
  -25724   -25809   -24572   -22217   -19656   -18034   -17921   -19448 
  -22519   -26234   -29017   -29859   -28702   -26014   -22779   -20201 
  -18980   -19223   -20760   -22992   -24955   -25825   -25137   -23047 
  -20599   -18839   -18015   -18094   -18919   -20000   -21036   -21922 
  -22456   -22800   -23438   -24440   -25557   -26661   -27424   -27342 
  -26500   -25394   -24251   -23118   -21958   -20915   -20664   -21683 
  -23534   -25358   -26440   -26218   -24439   -21455   -18018   -14892 
  -12937   -12988   -15155   -18584   -22051   -24560   -25602   -25202 
  -23792   -22120   -20947   -20505   -20619   -21268   -22431   -23884 
  -25456   -26723   -27006   -26183   -24674   -22910   -21146   -19502 
  -18280   -17964   -18714   -20268   -22432   -25124   -27831   -29750 
  -30375   -29511   -27290   -24426   -22036   -21015   -21373   -22398 
  -23454   -24282   -24882   -25250   -25316   -24994   -24074   -22608 
  -21043   -19730   -18926   -18489   -17819   -17040   -17109   -18462 
  -20621   -22873   -24495   -24868   -24131   -23117   -22538   -22789 
  -23865   -25239   -26203   -26457   -26502   -27294   -29140   -31144 
  -32031   -30975   -27914   -23898   -20634   -19354   -20306   -22842 
  -25587   -27103   -26990   -25766   -23711   -21125   -19116   -18577 
  -19227   -20343   -21487   -22504   -23441   -24557   -26129   -28059 
  -30087   -31812   -32114   -29922   -25383   -19565   -14117   -10876 
  -10615   -12775   -16486   -20877   -24834   -27251   -27499   -25976 
  -23985   -22345   -20996   -20009   -19863   -20919   -22710   -24193 
  -24976   -25198   -24802   -23892   -22929   -22279   -21901   -21688 
  -21740   -21977   -22230   -22781   -24048   -25878   -27604   -28519 
  -28066   -26020   -22960   -20104   -18284   -17682   -18376   -20346 
  -23116   -25761   -27455   -28018   -27704   -26648   -25181   -24206 
  -24149   -24660   -25508   -26273   -26391   -25855   -24922   -24057 
  -23752   -23949   -24455   -25261   -26113   -26485   -26031   -24772 
  -22846   -20428   -18089   -16917   -17808   -20784   -25051   -29294 
  -32241   -33224   -31969   -28857   -25364   -22937   -22207   -23099 
  -24672   -26070   -27004   -26826   -25271   -23113   -20725   -18256 
  -16877   -17490   -19460   -21817   -24188   -26234   -27464   -27821 
  -27647   -27205   -26794   -26750   -26895   -26643   -25628   -23830 
  -21371   -18551   -16212   -15579   -17173   -20513   -24863   -29320 
  -32575   -33437   -31656   -28379   -25296   -23157   -21969   -21948 
  -22941   -23968   -24311   -24150   -23854   -23553   -23214   -22494 
  -21242   -20051   -19552   -19896   -20978   -22550   -24231   -25587 
  -26551   -27445   -28228   -28267   -27187   -25517   -24007   -22811 
  -21799   -20744   -19332   -17771   -16760   -16854   -18365   -21147 
  -24288   -26654   -27628   -27225   -25788   -23826   -21911   -20498 
  -19878   -20181   -21434   -23396   -25340   -26600   -27059   -26920 
  -26349   -25505   -24920   -25006   -25164   -24686   -23868   -23112 
  -22241   -21261   -20254   -18852   -17336   -16700   -17224   -18864 
  -21519   -24041   -25233   -25401   -25351   -25143   -24997   -25391 
  -25606   -24761   -23466   -22286   -20893   -19516   -18857   -19121 
  -20407   -22545   -24159   -23717   -21362   -18356   -15983   -15568 
  -17536   -20720   -23795   -26157   -27431   -27568   -27138   -26618 
  -25782   -24506   -23434   -23245   -23858   -24481   -24357   -23358 
  -21812   -20467   -20261   -21273   -22583   -23354   -23397   -22753 
  -21480   -20007   -19110   -19426   -21151   -23874   -26622   -28579 
  -29596   -29649   -28522   -26310   -23673   -21559   -20784   -21685 
  -24164   -27504   -29856   -29478   -26557   -22358   -17742   -13544 
  -10916   -10506   -11959   -14488   -17560   -20777   -23812   -26580 
  -28706   -29590   -29325   -28492   -27465   -26351   -24953   -23048 
  -20963   -19338   -18309   -17524   -16973   -17261   -18812   -21242 
  -23606   -24948   -24930   -24011   -22850   -21851   -21225   -21220 
  -21797   -22291   -22317   -22244   -22372   -22841   -23729   -24704 
  -25364   -25425   -24815   -24038   -23589   -23430   -23338   -23122 
  -22664   -21852   -20613   -19243   -18239   -17795   -18054   -19415 
  -21925   -25004   -28028   -30356   -31278   -30585   -28680   -26184 
  -23342   -20001   -16806   -15076   -15338   -17359   -20581   -24085 
  -26868   -27894   -26535   -23225   -19001   -14890   -11978   -11163 
  -12681   -16211   -20876   -25446   -28948   -30615   -30155   -28233 
  -25900   -24073   -23485   -24216   -25360   -25920   -25791   -24974 
  -22986   -20232   -18024   -16827   -16602   -17607   -19329   -20789 
  -21677   -21821   -21188   -20336   -19745   -19527   -19831   -20804 
  -22215   -23666   -25008   -26168   -27208   -28207   -28754   -28521 
  -27719   -26429   -24591   -22638   -21287   -20666   -20629   -21554 
  -23290   -24567   -24670   -23900   -22516   -21031   -20406   -20947 
  -22354   -24473   -26821   -28620   -29522   -29257   -27546   -24819 
  -22185   -20538   -19746   -19226   -19001   -19184   -19432   -19437 
  -18894   -17536   -16030   -15779   -17401   -20182   -23208   -26030 
  -28050   -28591   -27872   -26684   -25072   -22590   -19449   -16387 
  -14390   -14581   -17238   -21348   -25282   -27605   -27886   -26508 
  -23973   -21064   -18358   -15812   -13867   -13480   -14997   -18264 
  -22958   -28035   -31854   -33136   -31142   -25802   -18486   -11757 
   -7961    -8298   -12702   -20195   -29076   -36898   -41337   -41503 
  -38271   -33396   -28224   -23460   -19732   -17507   -16942   -18056 
  -20230   -22219   -23390   -23971   -24164   -23857   -23135   -22353 
  -21567   -20901   -21104   -22592   -24600   -25843   -25535   -23778 
  -21413   -19511   -18697   -18794   -19173   -19331   -19084   -18738 
  -18671   -18638   -18698   -19509   -20833   -21846   -22463   -23065 
  -24042   -25603   -27416   -28882   -29444   -28562   -26165   -22856 
  -19586   -17525   -17617   -20008   -23837   -27549   -29768   -29679 
  -27229   -23629   -20505   -18458   -17267   -17077   -18580   -21958 
  -26367   -30527   -33431   -34309   -32165   -27123   -21256   -16475 
  -13929   -14440   -17410   -21483   -25674   -28627   -29029   -26948 
  -23511   -19836   -16831   -15568   -16699   -19543   -22800   -25249 
  -25737   -24270   -21770   -18657   -15825   -14769   -15826   -18400 
  -21711   -24919   -27637   -29556   -29920   -28298   -25370   -22415 
  -20255   -19097   -19015   -20093   -22112   -24334   -26053   -27151 
  -27629   -27418   -26944   -26496   -25652   -24258   -22746   -21454 
  -20619   -20438   -20701   -21064   -21607   -22327   -22885   -23479 
  -24705   -26568   -28544   -30097   -30788   -30446   -29465   -28419 
  -27478   -26678   -26103   -25512   -24502   -23112   -21908   -21395 
  -21453   -21670   -21989   -22459   -22998   -23770   -24830   -25602 
  -25652   -24935   -23072   -20058   -17036   -15286   -15361   -17200 
  -20257   -23532   -25655   -25510   -23003   -19167   -15759   -14275 
  -14940   -17074   -19811   -22048   -23042   -23055   -22682   -22317 
  -22130   -21863   -21108   -20013   -19389   -19917   -21408   -23160 
  -24530   -25056   -24579   -23465   -22562   -22391   -22726   -23368 
  -24150   -24548   -24305   -23543   -22235   -20463   -18722   -17525 
  -17398   -18910   -21865   -25176   -27834   -29274   -29060   -26977 
  -23678   -20806   -19830   -20840   -22855   -24910   -26242   -26007 
  -23802   -20223   -16389   -13418   -12293   -13273   -15943   -19830 
  -23819   -26079   -25633   -22914   -18946   -15337   -14127   -15995 
  -19701   -23602   -26306   -26993   -25919   -23626   -20653   -18018 
  -16375   -15528   -15400   -16358   -18726   -22487   -26902   -30620 
  -32813   -33464   -32422   -29700   -26409   -23720   -21664   -20143 
  -19628   -20261   -21664   -23250   -24402   -25072   -25566   -25834 
  -25753   -25444   -24835   -23434   -20869   -17644   -15005   -14044 
  -15007   -17321   -20142   -22700   -24547   -25625   -26066   -26108 
  -25622   -23937   -20910   -17474   -14972   -14463   -16202   -19630 
  -23792   -27445   -29366   -29220   -27891   -26601   -25838   -25601 
  -25882   -26161   -25537   -23528   -20205   -16411   -13681   -13052 
  -14722   -18558   -23635   -28215   -30885   -31148   -29167   -25356 
  -20413   -15470   -11943   -11210   -13690   -18125   -22456   -25168 
  -25505   -23246   -19048   -14610   -11544   -10462   -11555   -14702 
  -18823   -22557   -25403   -27303   -27888   -26999   -25169   -23133 
  -21666   -21451   -22418   -23758   -24756   -25161   -24938   -24349 
  -24083   -24497   -25073   -25172   -24759   -24082   -23357   -22863 
  -22745   -22818   -22863   -23116   -24177   -26133   -28173   -29391 
  -29447   -28386   -26474   -24283   -22565   -21763   -21549   -21382 
  -21433   -22144   -23411   -24836   -26110   -26831   -26524   -25248 
  -23606   -21934   -20615   -20702   -22829   -26197   -29099   -30054 
  -28690   -25702   -22089   -18877   -17215   -17906   -20549   -23626 
  -25920   -27270   -27794   -27278   -25701   -23802   -22549   -22313 
  -22934   -24218   -26022   -27692   -27861   -25687   -21966   -18318 
  -15952   -15400   -16629   -19262   -22598   -25471   -26872   -26647 
  -25417   -24151   -23564   -23664   -24208   -25220   -26303   -26281 
  -24530   -21875   -19604   -18406   -18508   -19811   -21754   -23580 
  -24838   -25455   -25179   -23745   -21451   -18998   -17540   -18279 
  -21237   -25429   -29739   -33067   -34711   -34567   -32534   -28685 
  -23863   -19104   -15204   -12999   -12817   -14164   -16505   -19280 
  -21270   -21356   -19813   -17841   -16495   -16448   -17507   -18812 
  -19911   -20841   -21898   -23365   -24913   -25890   -25999   -25491 
  -25045   -25164   -25729   -26328   -26506   -25785   -24088   -22096 
  -20706   -20262   -20633   -21672   -23105   -24355   -25015   -25086 
  -24671   -24055   -23440   -22441   -21058   -20370   -21354   -23950 
  -27297   -30206   -31528   -30703   -27985   -23977   -19731   -16753 
  -15939   -17221   -19954   -22883   -24606   -24473   -22970   -21202 
  -19871   -19211   -19434   -20414   -21642   -22716   -23602   -24367 
  -24682   -24180   -23196   -22407   -22061   -22089   -22286   -22092 
  -21096   -19466   -17506   -15890   -15922   -18173   -21565   -24774 
  -27335   -29013   -29532   -28789   -26819   -24005   -21126   -19111 
  -18523   -19003   -19746   -20181   -20150   -20107   -20590   -21458 
  -22232   -22721   -22977   -22866   -22120   -20722   -18949   -17551 
  -17385   -18303   -19553   -20790   -21785   -22379   -22894   -23839 
  -25207   -26392   -26880   -26477   -25127   -23332   -22089   -21929 
  -22718   -24128   -25729   -27058   -27643   -27177   -25812   -23812 
  -21492   -19578   -18803   -19405   -21045   -22838   -23807   -23582 
  -22517   -21220   -20281   -20244   -21310   -23264   -25711   -27844 
  -28852   -28667   -27349   -25024   -22609   -21093   -20878   -22008 
  -24033   -26200   -27842   -28289   -27127   -24712   -22312   -21536 
  -23119   -26441   -29955   -31739   -30826   -27922   -24183   -20386 
  -17253   -15275   -14623   -15537   -18063   -21621   -25131   -27501 
  -28328   -27883   -26608   -24958   -23188   -21370   -19761   -18803 
