Origin Time       2011/03/11 14:46:00
Lat.              38.103
Long.             142.860
Depth. (km)       24
Mag.              9.0
Station Code      HKD177
Station Lat.      43.4001
Station Long.     141.4346
Station Height(m) 6
Record Time       2011/03/11 14:48:43
Sampling Freq(Hz) 100Hz
Duration Time(s)  236
Dir.              E-W
Scale Factor      3920(gal)/6182761
Max. Acc. (gal)   4.818
Last Correction   2011/03/11 14:48:28
Memo.             
[...]
   -4845    -4803    -4863    -5014    -5151    -5284    -5416    -5402 
   -5173    -4926    -4877    -5036    -5315    -5648    -5898    -5918 
   -5740    -5477    -5177    -4905    -4768    -4814    -4989    -5252 
   -5620    -6068    -6502    -6797    -6846    -6706    -6506    -6272 
   -6016    -5788    -5605    -5449    -5296    -5139    -4990    -4877 
   -4825    -4790    -4686    -4514    -4321    -4052    -3606    -3064 
   -2625    -2362    -2241    -2268    -2438    -2658    -2855    -3035 
   -3174    -3267    -3411    -3655    -3923    -4165    -4325    -4315 
   -4205    -4142    -4142    -4179    -4289    -4506    -4826    -5179 
   -5496    -5724    -5747    -5479    -5006    -4482    -3947    -3407 
   -2932    -2572    -2366    -2433    -2802    -3313    -3863    -4464 
   -5069    -5643    -6192    -6663    -7022    -7326    -7632    -7963 
   -8309    -8609    -8762    -8723    -8560    -8373    -8233    -8188 
   -8252    -8361    -8405    -8364    -8317    -8245    -8029    -7655 
   -7279    -7025    -6866    -6708    -6484    -6197    -5897    -5618 
   -5405    -5289    -5236    -5231    -5269    -5293    -5327    -5464 
   -5633    -5677    -5642    -5650    -5690    -5730    -5766    -5721 
   -5506    -5132    -4670    -4147    -3550    -2902    -2297    -1863 
   -1645    -1546    -1469    -1436    -1487    -1573    -1654    -1740 
   -1805    -1848    -1936    -2069    -2172    -2253    -2411    -2661 
   -2889    -2982    -2948    -2863    -2734    -2552    -2367    -2175 
   -1948    -1745    -1565    -1427    -1479    -1723    -1984    -2198 
   -2444    -2758    -3093    -3469    -3924    -4380    -4782    -5174 
   -5601    -6059    -6499    -6876    -7213    -7529    -7781    -7877 
   -7727    -7339    -6800    -6164    -5471    -4798    -4228    -3780 
   -3455    -3322    -3410    -3608    -3823    -4036    -4244    -4457 
   -4668    -4863    -5055    -5284    -5568    -5886    -6204    -6445 
   -6492    -6322    -6063    -5869    -5814    -5881    -6018    -6144 
   -6114    -5847    -5503    -5362    -5461    -5564    -5485    -5231 
   -4919    -4678    -4564    -4566    -4674    -4898    -5200    -5469 
   -5645    -5754    -5828    -5861    -5804    -5677    -5616    -5641 
   -5648    -5616    -5560    -5440    -5259    -5066    -4847    -4578 
   -4327    -4176    -4145    -4221    -4384    -4620    -4909    -5180 
   -5343    -5375    -5302    -5221    -5250    -5416    -5668    -5896 
   -5998    -5924    -5586    -4939    -4141    -3406    -2800    -2237 
   -1642    -1096     -729     -547     -435     -315     -187      -66 
      -4     -106     -418     -878    -1407    -1979    -2574    -3150 
   -3679    -4129    -4467    -4744    -5029    -5258    -5367    -5432 
   -5557    -5777    -6070    -6361    -6602    -6826    -7075    -7266 
   -7299    -7271    -7289    -7315    -7366    -7520    -7722    -7841 
   -7832    -7673    -7352    -6985    -6695    -6457    -6202    -5896 
   -5594    -5436    -5468    -5612    -5826    -6091    -6333    -6546 
   -6836    -7233    -7671    -8122    -8562    -8905    -9117    -9272 
   -9399    -9433    -9342    -9174    -9002    -8844    -8648    -8375 
   -8014    -7561    -7075    -6604    -6152    -5744    -5348    -4924 
   -4548    -4316    -4254    -4393    -4702    -5046    -5394    -5794 
   -6150    -6325    -6292    -6104    -5828    -5504    -5098    -4595 
   -4129    -3806    -3549    -3307    -3082    -2812    -2503    -2291 
   -2265    -2332    -2326    -2207    -2113    -2180    -2395    -2665 
   -2943    -3203    -3426    -3673    -4027    -4410    -4655    -4737 
   -4744    -4729    -4689    -4640    -4672    -4854    -5116    -5350 
   -5565    -5795    -6000    -6190    -6438    -6734    -7043    -7373 
   -7674    -7861    -7941    -7973    -7954    -7824    -7581    -7314 
   -7118    -7018    -6994    -7009    -7059    -7165    -7262    -7292 
   -7296    -7262    -7150    -6969    -6711    -6369    -5999    -5603 
   -5128    -4587    -4049    -3589    -3227    -2892    -2512    -2074 
   -1596    -1112     -685     -412     -371     -507     -662     -822 
   -1122    -1586    -2108    -2580    -2920    -3148    -3387    -3693 
   -4021    -4286    -4395    -4389    -4446    -4643    -4913    -5201 
   -5492    -5734    -5879    -5891    -5713    -5385    -5037    -4688 
   -4326    -4030    -3777    -3514    -3306    -3124    -2846    -2482 
   -2106    -1770    -1575    -1635    -1943    -2413    -3042    -3799 
   -4510    -5084    -5572    -5965    -6223    -6373    -6452    -6462 
   -6422    -6417    -6502    -6604    -6618    -6520    -6308    -5983 
   -5597    -5276    -5116    -5037    -4940    -4913    -5024    -5204 
   -5437    -5761    -6103    -6323    -6388    -6388    -6403    -6425 
   -6376    -6225    -6022    -5794    -5576    -5456    -5440    -5476 
   -5541    -5615    -5703    -5779    -5730    -5532    -5304    -5120 
   -4968    -4871    -4845    -4871    -4973    -5160    -5411    -5779 
   -6261    -6726    -7077    -7269    -7311    -7324    -7391    -7451 
   -7483    -7588    -7757    -7871    -7918    -7934    -7856    -7678 
   -7493    -7304    -7037    -6695    -6368    -6122    -5886    -5604 
   -5345    -5117    -4844    -4606    -4560    -4686    -4935    -5336 
   -5800    -6120    -6221    -6172    -6041    -5933    -5901    -5836 
   -5742    -5753    -5822    -5792    -5625    -5393    -5223    -5175 
   -5138    -4981    -4716    -4414    -4143    -3987    -3979    -4058 
   -4152    -4287    -4506    -4734    -4851    -4845    -4801    -4775 
   -4735    -4646    -4545    -4517    -4618    -4803    -4959    -4995 
   -4881    -4654    -4373    -4042    -3634    -3207    -2918    -2836 
   -2869    -2913    -2953    -3050    -3240    -3414    -3428    -3331 
   -3294    -3395    -3558    -3691    -3787    -3850    -3856    -3836 
   -3881    -4023    -4148    -4213    -4361    -4562    -4538    -4326 
   -4240    -4290    -4297    -4287    -4326    -4415    -4612    -4859 
   -5016    -5048    -4940    -4711    -4446    -4193    -3986    -3826 
   -3645    -3435    -3262    -3213    -3288    -3364    -3464    -3732 
   -4105    -4408    -4640    -4912    -5207    -5410    -5555    -5743 
   -5892    -5892    -5804    -5748    -5774    -5826    -5805    -5696 
   -5518    -5264    -4995    -4838    -4847    -4984    -5199    -5453 
   -5675    -5823    -5920    -5953    -5924    -5911    -5933    -5928 
   -5835    -5657    -5486    -5348    -5171    -5036    -5103    -5284 
   -5358    -5343    -5390    -5425    -5275    -5025    -4895    -4866 
   -4786    -4743    -4858    -4968    -4925    -4815    -4720    -4594 
   -4444    -4381    -4384    -4302    -4075    -3739    -3418    -3273 
   -3277    -3387    -3599    -3756    -3799    -3802    -3664    -3254 
   -2669    -2104    -1589    -1024     -466      -27      365      734 
     928      932      723      143     -685    -1463    -2147    -2814 
   -3430    -3943    -4345    -4627    -4818    -4937    -4961    -4961 
   -4968    -4851    -4614    -4395    -4199    -4051    -4080    -4233 
   -4354    -4533    -4921    -5375    -5697    -5920    -6172    -6525 
   -6987    -7476    -7933    -8380    -8726    -8836    -8761    -8589 
   -8357    -8113    -7815    -7422    -7010    -6723    -6630    -6609 
   -6522    -6392    -6279    -6228    -6237    -6233    -6177    -6050 
   -5867    -5740    -5681    -5559    -5342    -5114    -4892    -4672 
   -4512    -4451    -4484    -4575    -4668    -4740    -4783    -4768 
   -4723    -4704    -4704    -4752    -4901    -5086    -5259    -5475 
   -5713    -5855    -5866    -5810    -5784    -5819    -5806    -5687 
   -5580    -5557    -5523    -5380    -5111    -4729    -4278    -3859 
   -3591    -3483    -3421    -3350    -3281    -3199    -3131    -3101 
   -3046    -2938    -2879    -2960    -3187    -3556    -4016    -4450 
   -4808    -5132    -5392    -5456    -5273    -4940    -4569    -4295 
   -4276    -4513    -4876    -5267    -5608    -5822    -5909    -5899 
   -5796    -5624    -5469    -5400    -5431    -5568    -5749    -5884 
   -6031    -6291    -6597    -6888    -7269    -7777    -8316    -8809 
   -9163    -9328    -9446    -9561    -9481    -9221    -9028    -8957 
   -8931    -8931    -8909    -8803    -8581    -8210    -7749    -7349 
   -7016    -6677    -6408    -6258    -6100    -5829    -5524    -5351 
   -5365    -5445    -5529    -5630    -5629    -5411    -5039    -4575 
   -4022    -3431    -2851    -2323    -1941    -1771    -1818    -2021 
   -2260    -2500    -2779    -3086    -3383    -3625    -3743    -3696 
   -3591    -3541    -3456    -3309    -3243    -3254    -3302    -3459 
   -3604    -3562    -3423    -3320    -3273    -3322    -3509    -3795 
   -4069    -4250    -4330    -4337    -4320    -4315    -4356    -4435 
   -4465    -4401    -4263    -4099    -3964    -3845    -3718    -3663 
   -3737    -3872    -4037    -4289    -4631    -5018    -5389    -5639 
   -5746    -5777    -5718    -5560    -5412    -5316    -5251    -5294 
   -5490    -5786    -6154    -6619    -7163    -7626    -7842    -7855 
   -7803    -7746    -7694    -7593    -7387    -7141    -6881    -6486 
   -5990    -5544    -5118    -4681    -4291    -3936    -3600    -3344 
   -3254    -3336    -3463    -3520    -3447    -3215    -2907    -2629 
   -2376    -2130    -1945    -1779    -1509    -1165     -839     -552 
    -369     -358     -497     -763    -1127    -1500    -1891    -2381 
   -2892    -3391    -3974    -4578    -5101    -5577    -5960    -6153 
   -6231    -6304    -6336    -6294    -6234    -6163    -6069    -6037 
   -6092    -6149    -6183    -6228    -6291    -6354    -6329    -6061 
   -5538    -4980    -4530    -4153    -3849    -3675    -3687    -3846 
   -4022    -4182    -4352    -4511    -4595    -4599    -4630    -4769 
   -5049    -5532    -6197    -6918    -7543    -8013    -8372    -8589 
   -8611    -8442    -8150    -7867    -7696    -7705    -7838    -7942 
   -8049    -8219    -8381    -8567    -8798    -8994    -9133    -9223 
   -9272    -9311    -9394    -9523    -9621    -9630    -9527    -9286 
   -8902    -8396    -7794    -7128    -6428    -5749    -5196    -4846 
   -4685    -4662    -4729    -4860    -4997    -5074    -5050    -4867 
   -4533    -4123    -3623    -3088    -2729    -2560    -2433    -2350 
   -2264    -2043    -1801    -1754    -1843    -1929    -2076    -2387 
   -2854    -3412    -3933    -4324    -4639    -4934    -5152    -5286 
   -5453    -5694    -5895    -5956    -5821    -5452    -4967    -4528 
   -4170    -3905    -3745    -3678    -3734    -3893    -4064    -4255 
   -4508    -4766    -4969    -5090    -5124    -5129    -5198    -5318 
   -5409    -5482    -5551    -5630    -5849    -6207    -6505    -6728 
   -7005    -7316    -7613    -7898    -8090    -8110    -7977    -7747 
   -7484    -7236    -7024    -6872    -6804    -6768    -6670    -6506 
   -6341    -6182    -6040    -5930    -5772    -5507    -5223    -5007 
   -4903    -4936    -5026    -5148    -5333    -5462    -5472    -5436 
   -5323    -5069    -4762    -4491    -4194    -3849    -3600    -3539 
   -3573    -3613    -3649    -3652    -3645    -3727    -3911    -4131 
   -4383    -4713    -5077    -5380    -5538    -5501    -5348    -5134 
   -4824    -4507    -4296    -4102    -3871    -3752    -3794    -3814 
   -3709    -3562    -3376    -3080    -2762    -2571    -2481    -2370 
   -2224    -2096    -2004    -1968    -1919    -1765    -1575    -1460 
   -1442    -1577    -1931    -2434    -2945    -3383    -3705    -3888 
   -4007    -4194    -4437    -4608    -4708    -4863    -5100    -5360 
   -5584    -5734    -5864    -6050    -6265    -6428    -6525    -6615 
   -6715    -6796    -6886    -7000    -7046    -6969    -6827    -6599 
   -6182    -5619    -5001    -4326    -3661    -3160    -2943    -3079 
   -3523    -4124    -4754    -5320    -5761    -6140    -6526    -6842 
   -7008    -7082    -7122    -7140    -7174    -7232    -7282    -7350 
   -7409    -7359    -7220    -7117    -7115    -7201    -7323    -7472 
   -7716    -8098    -8505    -8795    -8965    -9046    -9022    -8864 
   -8574    -8256    -8034    -7912    -7827    -7778    -7751    -7634 
   -7403    -7150    -6832    -6445    -6205    -6203    -6327    -6551 
   -6824    -6952    -6893    -6760    -6523    -6139    -5724    -5348 
   -5032    -4873    -4837    -4765    -4671    -4670    -4743    -4787 
   -4765    -4774    -4908    -5093    -5238    -5381    -5514    -5560 
   -5578    -5690    -5877    -6074    -6259    -6390    -6442    -6420 
   -6303    -6062    -5691    -5277    -4958    -4757    -4642    -4595 
   -4604    -4713    -4879    -4930    -4863    -4886    -5120    -5482 
   -5826    -6070    -6238    -6354    -6396    -6372    -6269    -6038 
   -5690    -5265    -4836    -4507    -4357    -4476    -4853    -5295 
   -5634    -5850    -5926    -5813    -5535    -5176    -4775    -4380 
   -4104    -3984    -3937    -3887    -3839    -3884    -4065    -4247 
   -4316    -4329    -4362    -4413    -4474    -4525    -4475    -4294 
   -4100    -3965    -3911    -4016    -4270    -4541    -4717    -4700 
   -4517    -4315    -4157    -4080    -4154    -4336    -4540    -4733 
   -4832    -4755    -4541    -4277    -4039    -3907    -3978    -4346 
   -4982    -5711    -6393    -7003    -7544    -7998    -8393    -8792 
   -9219    -9748   -10444   -11174   -11811   -12368   -12792   -13009 
  -13029   -12862   -12553   -12205   -11895   -11630   -11388   -11195 
  -11021   -10756   -10440   -10153    -9798    -9334    -8864    -8447 
   -8125    -7976    -7992    -8099    -8255    -8397    -8431    -8327 
   -8145    -7953    -7784    -7650    -7530    -7430    -7368    -7285 
   -7099    -6801    -6423    -6000    -5585    -5233    -4926    -4586 
   -4193    -3816    -3515    -3285    -3133    -3116    -3242    -3422 
   -3609    -3837    -4100    -4393    -4772    -5205    -5594    -5923 
   -6190    -6337    -6348    -6253    -6006    -5555    -5012    -4545 
   -4151    -3745    -3357    -3099    -3031    -3121    -3307    -3573 
   -3907    -4275    -4683    -5127    -5516    -5777    -5934    -6013 
   -5996    -5880    -5718    -5622    -5642    -5629    -5438    -5160 
   -4979    -4983    -5120    -5274    -5436    -5641    -5872    -6121 
   -6359    -6494    -6462    -6311    -6136    -5963    -5770    -5591 
   -5480    -5459    -5499    -5583    -5726    -5890    -6041    -6214 
   -6369    -6419    -6416    -6401    -6316    -6217    -6221    -6336 
   -6526    -6718    -6886    -7072    -7179    -7034    -6694    -6414 
   -6318    -6274    -6078    -5678    -5192    -4798    -4647    -4803 
   -5220    -5809    -6485    -7191    -7851    -8393    -8878    -9325 
   -9644    -9835    -9899    -9808    -9660    -9494    -9216    -8777 
   -8181    -7477    -6784    -6179    -5682    -5322    -5108    -5064 
   -5237    -5473    -5503    -5285    -4908    -4462    -4085    -3817 
   -3646    -3597    -3584    -3473    -3269    -3074    -2946    -2885 
   -2841    -2739    -2635    -2667    -2831    -3076    -3428    -3897 
   -4489    -5207    -5927    -6500    -6926    -7266    -7547    -7820 
   -8074    -8265    -8455    -8693    -8904    -9012    -9050    -9112 
   -9244    -9383    -9386    -9172    -8851    -8629    -8586    -8661 
   -8800    -8952    -9006    -8938    -8847    -8774    -8690    -8618 
   -8573    -8494    -8319    -8070    -7815    -7575    -7380    -7311 
   -7388    -7521    -7614    -7595    -7452    -7270    -7148    -7147 
   -7255    -7386    -7522    -7698    -7826    -7840    -7872    -8035 
   -8292    -8632    -9082    -9597   -10124   -10623   -10947   -10946 
  -10697   -10383   -10081    -9755    -9399    -9131    -9036    -9056 
   -9122    -9168    -9078    -8759    -8239    -7633    -6988    -6337 
   -5833    -5542    -5309    -5112    -5099    -5177    -5153    -5086 
   -5065    -4994    -4833    -4697    -4559    -4217    -3688    -3217 
   -2883    -2607    -2382    -2242    -2211    -2319    -2529    -2793 
   -3138    -3541    -3874    -4098    -4345    -4676    -4985    -5179 
   -5209    -5052    -4817    -4616    -4405    -4184    -4072    -4097 
   -4201    -4351    -4422    -4273    -3953    -3555    -3130    -2787 
   -2601    -2554    -2652    -2919    -3314    -3792    -4349    -4920 
   -5404    -5809    -6209    -6642    -7079    -7386    -7420    -7199 
   -6851    -6464    -6073    -5698    -5345    -5012    -4693    -4430 
   -4305    -4347    -4516    -4685    -4760    -4828    -4988    -5194 
   -5356    -5450    -5544    -5749    -6109    -6516    -6769    -6855 
   -6966    -7201    -7487    -7708    -7770    -7666    -7462    -7184 
   -6823    -6481    -6294    -6238    -6219    -6199    -6151    -6053 
   -5916    -5804    -5786    -5796    -5693    -5497    -5378    -5443 
   -5699    -6094    -6544    -6963    -7263    -7361    -7252    -7007 
   -6695    -6367    -6027    -5681    -5364    -5034    -4704    -4589 
   -4813    -5260    -5717    -5986    -6034    -5964    -5781    -5445 
   -5030    -4679    -4433    -4240    -4103    -4061    -4120    -4225 
   -4270    -4313    -4531    -4855    -5056    -5107    -5114    -5081 
   -4940    -4746    -4667    -4733    -4852    -5049    -5401    -5856 
   -6310    -6680    -6912    -6995    -6902    -6621    -6218    -5758 
   -5284    -4855    -4481    -4128    -3813    -3585    -3475    -3489 
   -3509    -3400    -3302    -3435    -3681    -3762    -3643    -3506 
   -3440    -3413    -3444    -3532    -3599    -3604    -3538    -3417 
   -3285    -3141    -2998    -2961    -3082    -3259    -3419    -3630 
   -3947    -4279    -4474    -4525    -4565    -4615    -4586    -4524 
   -4551    -4675    -4869    -5177    -5626    -6143    -6601    -6936 
   -7192    -7442    -7728    -8016    -8243    -8373    -8411    -8457 
   -8630    -8931    -9299    -9719   -10177   -10518   -10561   -10374 
  -10180   -10045    -9905    -9750    -9612    -9470    -9257    -8970 
   -8718    -8535    -8276    -7807    -7208    -6675    -6271    -5944 
   -5719    -5644    -5696    -5876    -6169    -6478    -6755    -7035 
   -7373    -7781    -8130    -8249    -8093    -7736    -7320    -6957 
   -6597    -6191    -5869    -5710    -5666    -5717    -5812    -5869 
   -5892    -5964    -6118    -6227    -6229    -6239    -6308    -6388 
   -6495    -6658    -6796    -6884    -6938    -6842    -6608    -6380 
   -6143    -5942    -5953    -6149    -6356    -6487    -6496    -6430 
   -6378    -6265    -6041    -5826    -5666    -5522    -5353    -5101 
   -4760    -4395    -4067    -3832    -3695    -3565    -3399    -3309 
   -3419    -3687    -3961    -4215    -4615    -5230    -5951    -6716 
   -7479    -8135    -8670    -9058    -9209    -9186    -9019    -8557 
   -7849    -7140    -6524    -6000    -5587    -5231    -4887    -4601 
   -4345    -4078    -3845    -3688    -3653    -3717    -3807    -3960 
   -4200    -4430    -4574    -4633    -4695    -4815    -4897    -4862 
   -4793    -4760    -4686    -4526    -4341    -4199    -4167    -4222 
   -4294    -4423    -4602    -4715    -4710    -4587    -4352    -4009 
   -3561    -3156    -3028    -3173    -3431    -3748    -4069    -4331 
   -4619    -5044    -5567    -6039    -6320    -6350    -6192    -6037 
