Origin Time       2011/03/11 14:46:00
Lat.              38.103
Long.             142.860
Depth. (km)       24
Mag.              9.0
Station Code      HKD122
Station Lat.      43.1968
Station Long.     141.7754
Station Height(m) 32
Record Time       2011/03/11 14:48:27
Sampling Freq(Hz) 100Hz
Duration Time(s)  300
Dir.              N-S
Scale Factor      3920(gal)/6182761
Max. Acc. (gal)   12.782
Last Correction   2011/03/11 14:48:12
Memo.             
[...]
    7417     7522     7573     7584     7439     7034     6437     5794 
    5177     4598     4043     3460     2776     1971     1134      308 
    -642    -1833    -3139    -4362    -5403    -6234    -6891    -7446 
   -7942    -8448    -9041    -9703   -10366   -10975   -11548   -12139 
  -12690   -13108   -13455   -13830   -14189   -14419   -14485   -14433 
  -14282   -13975   -13507   -13030   -12671   -12371   -12029   -11674 
  -11360   -11037   -10655   -10299   -10108   -10090   -10120   -10083 
   -9888    -9386    -8460    -7191    -5842    -4684    -3815    -3159 
   -2588    -2025    -1423     -717      115      996     1793     2394 
    2727     2720     2340     1718     1140      810      704      702 
     714      684      530      192     -270     -751    -1277    -1934 
   -2703    -3493    -4269    -5065    -5857    -6561    -7132    -7570 
   -7824    -7835    -7626    -7319    -7056    -6908    -6876    -6960 
   -7197    -7607    -8124    -8644    -9127    -9588   -10062   -10598 
  -11229   -11916   -12522   -12882   -12946   -12861   -12813   -12807 
  -12760   -12686   -12645   -12657   -12703   -12730   -12657   -12409 
  -11958   -11354   -10726   -10181    -9629    -8928    -8158    -7387 
   -6540    -5614    -4666    -3755    -2928    -2177    -1554    -1187 
   -1076    -1027     -826     -426       95      710     1420     2129 
    2709     3124     3389     3481     3362     3076     2772     2597 
    2584     2691     2876     3054     3135     3121     3068     3013 
    2968     2892     2742     2562     2355     2004     1418      628 
    -296    -1287    -2232    -2991    -3513    -3905    -4348    -4914 
   -5498    -6018    -6557    -7182    -7799    -8264    -8493    -8520 
   -8460    -8385    -8345    -8387    -8464    -8451    -8223    -7737 
   -7075    -6325    -5513    -4704    -4007    -3476    -3055    -2657 
   -2269    -1916    -1579    -1240     -934     -726     -614     -524 
    -450     -454     -523     -545     -410      -53      571     1453 
    2469     3449     4317     5133     5949     6692     7252     7647 
    7954     8109     7983     7598     7139     6799     6649     6633 
    6673     6734     6791     6794     6757     6784     6937     7169 
    7404     7625     7824     7924     7850     7651     7415     7086 
    6549     5867     5215     4613     3930     3132     2333     1627 
     990      358     -271     -859    -1444    -2106    -2761    -3199 
   -3395    -3544    -3810    -4193    -4629    -5100    -5592    -6029 
   -6312    -6419    -6429    -6387    -6219    -5881    -5414    -4889 
   -4369    -3888    -3454    -3021    -2458    -1631     -493      866 
    2268     3628     4931     6108     7114     7976     8710     9325 
    9828    10238    10662    11146    11545    11710    11636    11407 
   11086    10684    10257     9856     9412     8811     8074     7342 
    6703     6122     5507     4765     3834     2720     1517      398 
    -494    -1197    -1850    -2499    -3104    -3637    -4040    -4195 
   -4054    -3744    -3488    -3416    -3489    -3629    -3853    -4203 
   -4625    -5023    -5383    -5728    -5998    -6131    -6170    -6162 
   -6088    -5898    -5579    -5164    -4706    -4241    -3819    -3535 
   -3453    -3497    -3466    -3202    -2720    -2122    -1394     -445 
     681     1833     2936     3994     5005     5969     6935     7917 
    8779     9337     9597     9759     9935    10018     9906     9691 
    9547     9508     9462     9350     9248     9235     9261     9199 
    9018     8758     8362     7715     6778     5616     4407     3368 
    2590     2093     1880     1813     1731     1680     1819     2205 
    2795     3519     4289     4997     5529     5854     6095     6389 
    6694     6864     6844     6684     6462     6239     6046     5861 
    5593     5184     4714     4369     4226     4120     3866     3458 
    2957     2352     1686     1063      347     -648    -1572    -2163 
   -3092    -4533    -5652    -6636    -7942    -8933    -9643   -10500 
  -11204   -11756   -12216   -12372   -12338   -12229   -12062   -11963 
  -11910   -11672   -11058   -10074    -8881    -7628    -6406    -5344 
   -4532    -3934    -3551    -3317    -3043    -2735    -2521    -2447 
   -2661    -3315    -4305    -5397    -6477    -7586    -8752    -9924 
  -11043   -12088   -13035   -13828   -14427   -14882   -15260   -15511 
  -15528   -15297   -14948   -14568   -14075   -13406   -12662   -11899 
  -11033   -10069    -9087    -8058    -6949    -5858    -4873    -3997 
   -3152    -2223    -1205     -183      801     1781     2802     3828 
    4751     5555     6317     7089     7894     8778     9781    10874 
   11963    12991    14009    15013    15814    16178    16007    15362 
   14400    13266    12101    11112    10472    10195    10174    10318 
   10549    10750    10831    10776    10613    10377    10045     9618 
    9230     9026     9021     9168     9439     9811    10201    10462 
   10535    10498    10416    10226     9824     9261     8689     8139 
    7559     6992     6521     6084     5502     4681     3672     2501 
    1094     -540    -2232    -3814    -5206    -6320    -7048    -7384 
   -7502    -7655    -7949    -8316    -8723    -9262   -10032   -10995 
  -11993   -12868   -13468   -13650   -13402   -12812   -12020   -11171 
  -10275    -9313    -8434    -7768    -7235    -6699    -6191    -5837 
   -5607    -5322    -4933    -4547    -4233    -3997    -3882    -3921 
   -4034    -4064    -3939    -3719    -3522    -3410    -3359    -3370 
   -3514    -3832    -4248    -4634    -4972    -5363    -5873    -6500 
   -7238    -8043    -8813    -9475   -10023   -10421   -10554   -10365 
   -9964    -9569    -9315    -9099    -8739    -8265    -7822    -7453 
   -7148    -6922    -6782    -6648    -6386    -6007    -5674    -5448 
   -5208    -4803    -4209    -3537    -2920    -2351    -1742    -1081 
    -359      510     1536     2566     3413     4044     4539     4904 
    5066     5035     4935     4862     4842     4934     5216     5648 
    6081     6420     6693     6979     7279     7525     7733     8005 
    8330     8546     8530     8335     8127     8008     7958     7914 
    7814     7588     7173     6598     6003     5488     5043     4658 
    4417     4401     4515     4528     4326     3973     3519     2907 
    2146     1393      769      230     -276     -739    -1227    -1928 
   -2960    -4255    -5614    -6851    -7916    -8834    -9630   -10396 
  -11229   -12070   -12792   -13401   -14026   -14692   -15207   -15394 
  -15320   -15151   -14946   -14704   -14469   -14308   -14215   -14097 
  -13924   -13799   -13831   -13978   -14088   -14091   -14048   -13997 
  -13870   -13604   -13250   -12898   -12599   -12418   -12447   -12690 
  -13008   -13258   -13410   -13552   -13786   -14095   -14358   -14469 
  -14368   -14079   -13755   -13609   -13753   -14104   -14443   -14593 
  -14517   -14259   -13831   -13226   -12499   -11701   -10836    -9904 
   -8900    -7931    -7023    -5949    -4701    -3427    -2054     -670 
     436     1161     1593     1941     2402     3008     3718     4500 
    5358     6281     7257     8350     9606    10884    11909    12541 
   12852    12918    12690    12124    11320    10451     9617     8825 
    8109     7553     7198     7035     7102     7481     8172     8998 
    9707    10174    10393    10307     9828     9008     8004     6837 
    5334     3449     1425     -478    -2211    -3819    -5246    -6381 
   -7215    -7838    -8308    -8668    -9063    -9636   -10329   -10948 
  -11317   -11360   -11145   -10781   -10285    -9684    -9049    -8345 
   -7448    -6337    -5174    -4138    -3245    -2493    -1974    -1690 
   -1509    -1310    -1081     -931     -972    -1211    -1633    -2214 
   -2850    -3369    -3672    -3875    -4133    -4378    -4427    -4230 
   -3876    -3463    -3012    -2535    -2152    -1945    -1790    -1525 
   -1174     -859     -634     -484     -397     -403     -493     -544 
    -482     -410     -360     -212       33      235      309      272 
     180       56     -120     -341     -576     -799     -979    -1039 
    -849     -314      498     1388     2220     3021     3836     4590 
    5237     5876     6585     7292     7893     8363     8678     8739 
    8462     7883     7083     6102     4993     3851     2785     1838 
     909      -78     -980    -1648    -2179    -2761    -3444    -4108 
   -4649    -5108    -5526    -5831    -5979    -6042    -6127    -6265 
   -6403    -6537    -6751    -7036    -7315    -7633    -8104    -8695 
   -9234    -9570    -9642    -9484    -9144    -8616    -7896    -7036 
   -6103    -5154    -4256    -3450    -2678    -1859     -989     -144 
     592     1260     1967     2703     3383     4010     4660     5393 
    6191     7008     7826     8574     9132     9467     9669     9869 
   10113    10325    10465    10592    10735    10815    10745    10571 
   10385    10171     9878     9564     9355     9266     9192     9071 
    8905     8670     8352     8049     7867     7789     7717     7588 
    7429     7265     6988     6478     5777     5025     4288     3527 
    2730     1985     1332      692       13     -615    -1035    -1273 
   -1572    -2055    -2588    -2979    -3198    -3383    -3593    -3756 
   -3890    -4093    -4367    -4589    -4677    -4767    -5057    -5547 
   -6119    -6715    -7281    -7700    -7872    -7840    -7748    -7676 
   -7568    -7363    -7088    -6808    -6564    -6407    -6386    -6474 
   -6552    -6552    -6513    -6479    -6421    -6282    -6064    -5844 
   -5638    -5399    -5169    -5080    -5181    -5353    -5398    -5212 
   -4820    -4242    -3448    -2488    -1537     -728      -27      678 
    1457     2339     3339     4448     5622     6782     7842     8714 
    9321     9608     9587     9387     9137     8781     8186     7380 
    6569     5958     5552     5187     4780     4361     3940     3576 
    3387     3380     3414     3335     3057     2545     1794      838 
    -237    -1290    -2223    -3029    -3700    -4239    -4699    -5153 
   -5677    -6293    -6946    -7531    -7950    -8183    -8278    -8353 
   -8548    -8816    -8927    -8753    -8358    -7888    -7504    -7201 
   -6896    -6658    -6540    -6473    -6447    -6527    -6749    -6997 
   -7082    -7014    -6955    -7012    -7234    -7671    -8385    -9379 
  -10466   -11444   -12280   -12924   -13243   -13243   -13102   -13000 
  -12960   -12864   -12638   -12309   -11876   -11352   -10838   -10383 
   -9907    -9258    -8363    -7343    -6380    -5558    -4929    -4576 
   -4501    -4539    -4504    -4415    -4482    -4852    -5461    -6158 
   -6841    -7474    -8079    -8662    -9182    -9652   -10098   -10478 
  -10812   -11257   -11900   -12688   -13540   -14378   -15153   -15825 
  -16350   -16799   -17363   -18091   -18776   -19232   -19566   -19827 
  -19796   -19376   -18606   -17496   -16176   -14737   -13213   -11800 
  -10681    -9851    -9249    -8803    -8403    -7906    -7171    -6138 
   -4834    -3321    -1699     -127     1258     2423     3438     4371 
    5178     5805     6331     6861     7361     7741     7972     8106 
    8189     8199     8158     8167     8251     8276     8081     7652 
    7131     6647     6245     5957     5822     5804     5812     5830 
    5909     6030     6069     5963     5830     5808     5908     6118 
    6496     7089     7834     8598     9273     9804    10140    10201 
    9958     9545     9132     8757     8410     8140     7996     7961 
    7975     8032     8185     8426     8643     8746     8772     8754 
    8570     8132     7602     7201     7008     7055     7374     7888 
    8390     8668     8599     8171     7524     6851     6272     5856 
    5614     5493     5406     5287     5183     5161     5179     5160 
    5089     4979     4763     4340     3744     3140     2647     2248 
    1880     1563     1295      929      354     -355    -1063    -1704 
   -2250    -2618    -2725    -2633    -2573    -2742    -3116    -3606 
   -4219    -4966    -5744    -6372    -6713    -6741    -6449    -5870 
   -5190    -4693    -4556    -4752    -5200    -5876    -6715    -7614 
   -8556    -9498   -10263   -10670   -10667   -10344    -9896    -9520 
   -9312    -9230    -9147    -8945    -8557    -7952    -7174    -6348 
   -5555    -4778    -4059    -3556    -3347    -3298    -3234    -3125 
   -3008    -2857    -2664    -2522    -2493    -2482    -2424    -2447 
   -2721    -3299    -4158    -5249    -6461    -7638    -8672    -9566 
  -10392   -11167   -11774   -12118   -12260   -12294   -12228   -12054 
  -11808   -11542   -11338   -11252   -11315   -11628   -12228   -12935 
  -13583   -14168   -14752   -15377   -15966   -16448   -16933   -17422 
  -17659   -17642   -17601   -17461   -17160   -16837   -16455   -16082 
  -15889   -15713   -15358   -14828   -14178   -13457   -12629   -11669 
  -10652    -9620    -8595    -7612    -6673    -5823    -5169    -4761 
   -4630    -4795    -5115    -5393    -5599    -5782    -5919    -5942 
   -5819    -5624    -5448    -5279    -5099    -4980    -4983    -5027 
   -4954    -4720    -4414    -4083    -3677    -3163    -2602    -2048 
   -1454     -764       -5      748     1502     2339     3260     4194 
    5178     6322     7618     8914    10081    11106    11997    12726 
   13325    13918    14614    15398    16165    16890    17615    18257 
   18618    18638    18463    18273    18145    18035    17865    17607 
   17227    16660    15936    15190    14520    13857    13113    12368 
   11737    11188    10659    10236    10057    10069    10031     9729 
    9067     8057     6794     5444     4201     3181     2356     1625 
     920      220     -525    -1353    -2181    -2879    -3444    -3974 
   -4515    -5026    -5449    -5802    -6122    -6341    -6353    -6159 
   -5844    -5465    -5034    -4622    -4378    -4282    -4122    -3804 
   -3434    -3121    -2845    -2502    -2011    -1388     -704        6 
     687     1190     1422     1497     1575     1680     1817     2044 
    2335     2497     2333     1878     1361      949      661      477 
     367      252      -36     -615    -1303    -1844    -2278    -2688 
   -3071    -3542    -4190    -5006    -5946    -6859    -7599    -8135 
   -8446    -8450    -8111    -7541    -6957    -6531    -6294    -6196 
   -6234    -6378    -6436    -6240    -5867    -5491    -5162    -4883 
   -4722    -4708    -4679    -4414    -3921    -3392    -2913    -2400 
   -1775    -1082     -408      270     1047     1915     2742     3407 
    3841     3978     3801     3448     3141     2938     2739     2457 
    1973     1145      -21    -1386    -2805    -4213    -5672    -7250 
   -8881   -10469   -12025   -13604   -15179   -16615   -17789   -18700 
  -19412   -19977   -20423   -20798   -21144   -21373   -21237   -20616 
  -19772   -18907   -17873   -16687   -15515   -14334   -13169   -12025 
  -10819    -9636    -8534    -7349    -5935    -4321    -2623     -892 
     897     2716     4466     6101     7657     9131    10428    11509 
   12454    13251    13780    14012    13973    13700    13286    12830 
   12422    12148    11985    11807    11526    11155    10745    10320 
    9924     9638     9539     9612     9715     9741     9738     9740 
    9655     9388     8996     8641     8377     8135     7941     7936 
    8212     8654     9013     9177     9148     8840     8195     7337 
    6476     5790     5389     5357     5736     6389     7046     7615 
    8183     8703     8987     9002     8895     8786     8696     8607 
    8497     8348     8125     7771     7307     6869     6560     6380 
    6332     6448     6686     6900     6994     7033     7066     6963 
    6558     5857     5034     4258     3561     2880     2206     1612 
    1134      764      536      525      788     1319     2041     2820 
    3470     3814     3802     3547     3213     2871     2508     2147 
    1796     1326      621     -200     -918    -1486    -2008    -2532 
   -3021    -3493    -4089    -4891    -5796    -6658    -7459    -8197 
   -8745    -8935    -8746    -8350    -7967    -7724    -7647    -7738 
   -7982    -8321    -8672    -8973    -9222    -9407    -9453    -9343 
   -9153    -8938    -8721    -8514    -8317    -8158    -7998    -7709 
   -7275    -6789    -6289    -5754    -5169    -4600    -4153    -3798 
   -3413    -2976    -2527    -2072    -1620    -1198     -836     -536 
    -252       25      193      167      -20     -298     -692    -1226 
   -1765    -2140    -2356    -2552    -2767    -2884    -2852    -2781 
   -2754    -2784    -2869    -3012    -3225    -3464    -3607    -3573 
   -3373    -3030    -2559    -2036    -1576    -1218     -892     -554 
    -297     -265     -447     -681     -863    -1009    -1153    -1297 
   -1476    -1803    -2317    -2896    -3402    -3852    -4388    -5061 
   -5773    -6436    -7021    -7472    -7652    -7453    -6926    -6184 
   -5276    -4294    -3423    -2770    -2293    -1962    -1874    -2097 
   -2534    -3007    -3374    -3603    -3663    -3429    -2861    -2178 
   -1646    -1380    -1438    -1850    -2544    -3376    -4116    -4617 
   -5074    -5683    -6327    -6880    -7341    -7727    -8083    -8433 
   -8758    -9047    -9250    -9337    -9466    -9801   -10176   -10486 
  -10956   -11405   -11604   -11951   -12494   -12944   -13391   -13703 
  -13613   -13179   -12515   -11777   -11085   -10413    -9794    -9266 
   -8711    -7990    -7075    -6025    -4905    -3717    -2494    -1367 
    -392      515     1429     2269     2900     3345     3699     3931 
    3909     3604     3173     2816     2623     2560     2573     2610 
    2554     2287     1783     1084      224     -807    -1993    -3192 
   -4235    -5100    -5883    -6647    -7409    -8242    -9231   -10297 
  -11247   -11987   -12557   -13031   -13448   -13814   -14138   -14391 
  -14498   -14449   -14345   -14304   -14367   -14505   -14684   -14926 
  -15246   -15575   -15797   -15859   -15782   -15576   -15185   -14582 
  -13856   -13124   -12411   -11719   -11088   -10467    -9695    -8662 
   -7384    -5892    -4163    -2195     -137     1753     3368     4812 
    6150     7361     8494     9685    11006    12365    13613    14676 
   15533    16164    16599    16918    17183    17407    17515    17423 
   17162    16813    16370    15754    14885    13745    12396    10944 
    9546     8412     7635     7073     6494     5785     4953     3954 
    2706     1259     -213    -1577    -2782    -3707    -4233    -4461 
   -4666    -5078    -5724    -6470    -7220    -7920    -8436    -8680 
   -8745    -8740    -8611    -8309    -7887    -7449    -7083    -6789 
   -6550    -6455    -6572    -6815    -7056    -7284    -7554    -7870 
   -8156    -8295    -8251    -8061    -7738    -7348    -7029    -6823 
   -6657    -6466    -6270    -6176    -6159    -6009    -5629    -5093 
   -4466    -3756    -2932    -1980     -897      376     1839     3284 
    4433     5182     5613     5827     5835     5631     5313     5030 
    4850     4759     4738     4760     4766     4689     4536     4361 
    4196     4084     4095     4252     4483     4638     4624     4530 
    4508     4566     4612     4614     4586     4553     4564     4655 
