Origin Time       2011/03/11 14:46:00
Lat.              38.103
Long.             142.860
Depth. (km)       24
Mag.              9.0
Station Code      HKD102
Station Lat.      42.8778
Station Long.     142.4481
Station Height(m) 283
Record Time       2011/03/11 14:48:17
Sampling Freq(Hz) 100Hz
Duration Time(s)  278
Dir.              U-D
Scale Factor      3920(gal)/6182761
Max. Acc. (gal)   7.505
Last Correction   2011/03/11 14:48:02
Memo.             
[...]
  -37130   -37558   -38109   -38686   -39126   -39359   -39481   -39631 
  -39835   -40006   -40037   -39905   -39680   -39432   -39162   -38850 
  -38542   -38322   -38201   -38058   -37765   -37309   -36771   -36220 
  -35649   -35015   -34322   -33616   -32962   -32407   -31930   -31471 
  -31018   -30603   -30209   -29787   -29341   -28930   -28607   -28396 
  -28283   -28199   -28078   -27946   -27906   -28065   -28441   -28902 
  -29224   -29265   -29108   -28992   -29054   -29205   -29292   -29281 
  -29240   -29231   -29233   -29168   -28995   -28788   -28684   -28755 
  -28954   -29188   -29392   -29554   -29678   -29729   -29654   -29461 
  -29239   -29109   -29151   -29304   -29399   -29348   -29224   -29138 
  -29106   -29050   -28929   -28840   -28922   -29175   -29440   -29556 
  -29532   -29525   -29669   -29906   -30041   -29965   -29769   -29634 
  -29680   -29862   -30035   -30128   -30200   -30317   -30433   -30444 
  -30352   -30291   -30370   -30521   -30573   -30458   -30297   -30273 
  -30437   -30660   -30787   -30787   -30770   -30889   -31186   -31553 
  -31872   -32156   -32515   -33006   -33516   -33858   -33989   -34062 
  -34260   -34616   -35002   -35301   -35513   -35725   -36003   -36317 
  -36557   -36651   -36666   -36744   -36942   -37176   -37308   -37288 
  -37212   -37238   -37410   -37602   -37675   -37630   -37581   -37637 
  -37799   -37954   -37984   -37896   -37812   -37811   -37854   -37851 
  -37765   -37682   -37735   -37946   -38211   -38422   -38549   -38632 
  -38708   -38774   -38814   -38844   -38895   -38977   -39052   -39091 
  -39136   -39259   -39462   -39665   -39807   -39913   -40032   -40145 
  -40149   -39940   -39523   -39034   -38624   -38335   -38084   -37769 
  -37381   -36993   -36696   -36523   -36416   -36286   -36107   -35906 
  -35729   -35620   -35600   -35683   -35881   -36118   -36242   -36181 
  -36020   -35895   -35887   -35998   -36151   -36251   -36255   -36178 
  -36063   -35947   -35844   -35755   -35667   -35550   -35373   -35109 
  -34709   -34154   -33525   -32975   -32612   -32441   -32374   -32268 
  -32054   -31809   -31640   -31552   -31476   -31352   -31172   -31000 
  -30931   -30960   -30986   -30964   -30960   -31053   -31192   -31206 
  -31014   -30736   -30544   -30501   -30551   -30612   -30652   -30702 
  -30801   -30937   -31056   -31133   -31204   -31319   -31480   -31632 
  -31721   -31726   -31656   -31535   -31381   -31227   -31115   -31063 
  -31031   -30995   -30953   -30849   -30617   -30306   -30035   -29865 
  -29739   -29559   -29303   -29061   -28947   -28979   -29041   -28985 
  -28789   -28602   -28596   -28761   -28918   -28920   -28763   -28516 
  -28247   -27979   -27689   -27380   -27127   -26998   -26970   -26960 
  -26914   -26837   -26766   -26746   -26812   -26967   -27171   -27331 
  -27373   -27332   -27322   -27422   -27609   -27819   -28029   -28264 
  -28529   -28750   -28833   -28800   -28825   -29098   -29653   -30345 
  -30984   -31503   -31994   -32557   -33177   -33757   -34218   -34565 
  -34890   -35271   -35699   -36097   -36389   -36542   -36603   -36668 
  -36796   -36970   -37117   -37189   -37233   -37347   -37530   -37656 
  -37602   -37358   -37021   -36703   -36427   -36117   -35736   -35380 
  -35186   -35161   -35121   -34836   -34301   -33768   -33489   -33490 
  -33572   -33484   -33144   -32719   -32430   -32306   -32203   -32010 
  -31740   -31474   -31279   -31188   -31192   -31216   -31177   -31086 
  -31025   -31015   -30968   -30802   -30549   -30346   -30327   -30508 
  -30778   -30989   -31087   -31174   -31345   -31523   -31569   -31457 
  -31302   -31239   -31267   -31243   -31045   -30714   -30444   -30415 
  -30625   -30907   -31107   -31239   -31456   -31860   -32347   -32734 
  -32977   -33176   -33412   -33660   -33797   -33740   -33584   -33502 
  -33537   -33608   -33654   -33674   -33671   -33635   -33587   -33577 
  -33627   -33714   -33760   -33666   -33428   -33181   -33074   -33102 
  -33111   -32998   -32852   -32815   -32868   -32825   -32563   -32183 
  -31889   -31777   -31773   -31720   -31556   -31399   -31431   -31690 
  -32035   -32298   -32416   -32431   -32438   -32494   -32572   -32606 
  -32559   -32431   -32254   -32094   -32003   -31972   -31947   -31864 
  -31722   -31619   -31668   -31846   -31980   -31947   -31810   -31735 
  -31818   -31987   -32049   -31869   -31518   -31212   -31103   -31156 
  -31247   -31295   -31280   -31211   -31132   -31119   -31217   -31382 
  -31538   -31700   -31942   -32268   -32586   -32802   -32877   -32878 
  -32967   -33238   -33586   -33788   -33717   -33461   -33231   -33164 
  -33223   -33258   -33141   -32896   -32687   -32645   -32718   -32740 
  -32610   -32361   -32072   -31779   -31511   -31336   -31301   -31358 
  -31382   -31302   -31208   -31265   -31560   -32028   -32491   -32807 
  -33030   -33353   -33860   -34431   -34887   -35164   -35322   -35468 
  -35675   -35942   -36213   -36443   -36600   -36647   -36568   -36418 
  -36250   -36020   -35646   -35158   -34685   -34344   -34154   -34024 
  -33819   -33520   -33276   -33241   -33385   -33513   -33459   -33257 
  -33097   -33088   -33107   -32971   -32677   -32409   -32326   -32388 
  -32377   -32138   -31776   -31566   -31668   -31969   -32255   -32448 
  -32646   -32961   -33356   -33724   -34057   -34396   -34710   -34926 
  -35025   -35100   -35245   -35423   -35505   -35450   -35390   -35499 
  -35801   -36127   -36281   -36255   -36247   -36402   -36632   -36761 
  -36748   -36716   -36800   -37018   -37289   -37493   -37554   -37518 
  -37506   -37565   -37640   -37677   -37657   -37583   -37470   -37337 
  -37189   -37005   -36793   -36596   -36418   -36235   -36041   -35863 
  -35727   -35625   -35536   -35460   -35406   -35357   -35281   -35176 
  -35042   -34832   -34525   -34210   -33997   -33941   -33986   -33991 
  -33866   -33673   -33567   -33654   -33886   -34097   -34185   -34177 
  -34134   -34088   -34029   -33910   -33734   -33579   -33507   -33467 
  -33315   -32987   -32620   -32404   -32371   -32360   -32210   -31959 
  -31765   -31688   -31603   -31310   -30732   -30053   -29575   -29396 
  -29318   -29116   -28805   -28584   -28573   -28675   -28683   -28519 
  -28328   -28311   -28482   -28667   -28727   -28684   -28624   -28548 
  -28378   -28113   -27867   -27728   -27672   -27638   -27602   -27610 
  -27716   -27913   -28130   -28314   -28495   -28759   -29126   -29496 
  -29714   -29746   -29738   -29848   -30102   -30379   -30529   -30509 
  -30423   -30406   -30501   -30644   -30762   -30859   -30988   -31155 
  -31286   -31312   -31284   -31349   -31592   -31939   -32231   -32384 
  -32449   -32544   -32706   -32885   -33017   -33061   -33027   -32994 
  -33025   -33087   -33107   -33062   -32989   -32969   -33076   -33278 
  -33447   -33482   -33409   -33318   -33252   -33190   -33094   -32942 
  -32742   -32505   -32266   -32092   -32026   -32037   -32053   -32061 
  -32141   -32365   -32720   -33157   -33638   -34125   -34556   -34861 
  -35023   -35106   -35192   -35313   -35448   -35532   -35490   -35302 
  -35055   -34874   -34824   -34890   -34998   -35054   -35031   -35004 
  -35063   -35218   -35431   -35673   -35910   -36119   -36311   -36505 
  -36701   -36913   -37167   -37476   -37820   -38173   -38512   -38805 
  -39040   -39238   -39410   -39540   -39625   -39662   -39628   -39486 
  -39236   -38950   -38720   -38593   -38517   -38384   -38150   -37904 
  -37795   -37889   -38099   -38247   -38199   -37955   -37653   -37446 
  -37338   -37179   -36850   -36390   -35926   -35548   -35264   -35043 
  -34868   -34767   -34799   -34941   -35052   -35015   -34864   -34720 
  -34687   -34777   -34845   -34742   -34520   -34376   -34427   -34607 
  -34758   -34792   -34793   -34931   -35235   -35554   -35718   -35717 
  -35711   -35854   -36119   -36348   -36426   -36356   -36202   -36039 
  -35941   -35936   -36029   -36232   -36503   -36734   -36841   -36813 
  -36701   -36581   -36519   -36529   -36575   -36617   -36650   -36688 
  -36738   -36803   -36886   -36985   -37087   -37171   -37229   -37293 
  -37409   -37535   -37558   -37415   -37156   -36866   -36590   -36318 
  -36011   -35648   -35281   -35006   -34837   -34666   -34376   -33931 
  -33406   -32927   -32562   -32284   -32015   -31687   -31293   -30884 
  -30508   -30167   -29829   -29471   -29107   -28809   -28634   -28561 
  -28528   -28488   -28425   -28331   -28215   -28142   -28199   -28377 
  -28559   -28627   -28549   -28408   -28371   -28534   -28799   -28966 
  -28931   -28785   -28755   -29003   -29440   -29809   -29946   -29908 
  -29849   -29841   -29822   -29706   -29488   -29238   -29026   -28876 
  -28784   -28744   -28761   -28828   -28939   -29118   -29369   -29662 
  -29980   -30327   -30687   -31005   -31234   -31366   -31453   -31577 
  -31748   -31896   -31938   -31848   -31701   -31609   -31643   -31836 
  -32188   -32640   -33074   -33356   -33417   -33323   -33230   -33224 
  -33254   -33249   -33232   -33267   -33357   -33393   -33247   -32959 
  -32716   -32618   -32577   -32456   -32249   -32099   -32123   -32263 
  -32337   -32246   -32083   -32054   -32285   -32734   -33262   -33788 
  -34332   -34923   -35493   -35905   -36079   -36128   -36298   -36723 
  -37285   -37760   -38033   -38165   -38283   -38445   -38616   -38752 
  -38857   -38921   -38894   -38755   -38539   -38316   -38163   -38094 
  -38059   -38007   -37930   -37799   -37571   -37256   -36911   -36585 
  -36306   -36098   -35980   -35923   -35858   -35766   -35698   -35686 
  -35688   -35612   -35407   -35132   -34942   -34940   -35048   -35079 
  -34917   -34612   -34347   -34256   -34289   -34325   -34344   -34396 
  -34461   -34418   -34156   -33711   -33276   -33005   -32831   -32570 
  -32162   -31716   -31369   -31164   -31050   -30928   -30703   -30359 
  -29996   -29761   -29722   -29796   -29864   -29882   -29872   -29867 
  -29877   -29890   -29921   -30034   -30254   -30519   -30721   -30783 
  -30735   -30696   -30736   -30800   -30835   -30863   -30896   -30891 
  -30818   -30699   -30590   -30525   -30476   -30375   -30183   -29940 
  -29732   -29607   -29529   -29448   -29371   -29350   -29393   -29426 
  -29356   -29161   -28908   -28702   -28617   -28616   -28571   -28395 
  -28124   -27848   -27602   -27357   -27073   -26775   -26574   -26547 
  -26621   -26646   -26549   -26399   -26348   -26489   -26773   -27039 
  -27151   -27093   -26936   -26767   -26653   -26618   -26637   -26631 
  -26525   -26332   -26133   -25999   -25951   -25934   -25880   -25801 
  -25784   -25885   -26079   -26294   -26502   -26746   -27093   -27528 
  -27944   -28263   -28520   -28811   -29208   -29697   -30177   -30537 
  -30751   -30880   -31027   -31268   -31592   -31936   -32229   -32425 
  -32549   -32714   -33015   -33374   -33598   -33592   -33456   -33355 
  -33338   -33308   -33144   -32839   -32533   -32382   -32379   -32373 
  -32260   -32115   -32078   -32167   -32255   -32224   -32103   -32013 
  -31999   -32014   -32002   -31926   -31782   -31609   -31441   -31271 
  -31100   -30939   -30801   -30707   -30683   -30718   -30771   -30840 
  -30979   -31235   -31589   -31966   -32284   -32488   -32579   -32618 
  -32647   -32651   -32606   -32499   -32311   -32034   -31676   -31266 
  -30866   -30545   -30316   -30113   -29887   -29667   -29497   -29373 
  -29248   -29084   -28879   -28675   -28556   -28550   -28562   -28481 
  -28311   -28130   -27999   -27917   -27827   -27709   -27640   -27744 
  -28039   -28361   -28524   -28534   -28559   -28720   -28958   -29117 
  -29092   -28920   -28743   -28666   -28676   -28703   -28731   -28834 
  -29079   -29425   -29724   -29832   -29731   -29532   -29372   -29353 
  -29488   -29667   -29737   -29657   -29483   -29253   -28992   -28748 
  -28570   -28460   -28416   -28454   -28555   -28641   -28604   -28404 
  -28160   -28084   -28289   -28708   -29177   -29527   -29690   -29747 
  -29835   -30029   -30313   -30611   -30879   -31127   -31350   -31524 
  -31666   -31831   -32057   -32307   -32474   -32470   -32309   -32113 
  -32021   -32094   -32281   -32490   -32688   -32894   -33100   -33278 
  -33422   -33553   -33703   -33916   -34187   -34419   -34535   -34592 
  -34714   -34969   -35344   -35787   -36252   -36717   -37194   -37697 
  -38180   -38589   -38946   -39296   -39614   -39848   -39981   -40014 
  -39935   -39715   -39349   -38900   -38478   -38138   -37852   -37582 
  -37312   -37032   -36719   -36366   -36010   -35742   -35677   -35839 
  -36112   -36357   -36531   -36685   -36885   -37123   -37290   -37268 
  -37048   -36758   -36543   -36429   -36299   -36023   -35632   -35260 
  -34977   -34749   -34537   -34354   -34241   -34164   -34013   -33710 
  -33301   -32921   -32676   -32562   -32513   -32496   -32533   -32649 
  -32820   -32977   -33073   -33167   -33383   -33759   -34193   -34550 
  -34800   -35010   -35229   -35414   -35467   -35367   -35227   -35186 
  -35240   -35243   -35089   -34859   -34717   -34709   -34747   -34745 
  -34687   -34596   -34486   -34356   -34226   -34150   -34166   -34255 
  -34328   -34294   -34165   -34042   -33970   -33879   -33732   -33635 
  -33731   -34015   -34302   -34415   -34397   -34490   -34863   -35444 
  -36029   -36481   -36825   -37168   -37557   -37945   -38321   -38798 
  -39460   -40209   -40844   -41251   -41510   -41811   -42253   -42762 
  -43206   -43542   -43829   -44131   -44420   -44607   -44682   -44765 
  -44968   -45223   -45318   -45126   -44743   -44370   -44114   -43923 
  -43721   -43527   -43391   -43273   -43066   -42757   -42482   -42366 
  -42370   -42319   -42045   -41532   -40903   -40290   -39758   -39272 
  -38740   -38145   -37588   -37167   -36854   -36541   -36191   -35873 
  -35667   -35574   -35511   -35358   -35061   -34672   -34266   -33886 
  -33587   -33428   -33391   -33401   -33400   -33372   -33348   -33373 
  -33436   -33491   -33541   -33629   -33753   -33837   -33800   -33612 
  -33315   -33022   -32839   -32764   -32702   -32595   -32500   -32500 
  -32595   -32721   -32813   -32846   -32889   -33074   -33459   -33954 
  -34406   -34706   -34833   -34855   -34864   -34907   -34972   -35023 
  -35018   -34922   -34769   -34700   -34824   -35088   -35334   -35400 
  -35243   -35010   -34866   -34855   -34897   -34836   -34729   -34876 
  -35310   -35699   -35780   -35618   -35452   -35426   -35573   -35817 
  -35978   -35983   -35910   -35845   -35784   -35708   -35634   -35535 
  -35390   -35230   -35093   -34998   -34969   -35035   -35159   -35265 
  -35342   -35484   -35795   -36273   -36765   -37086   -37184   -37187 
  -37269   -37505   -37837   -38135   -38324   -38443   -38545   -38660 
  -38801   -38950   -39051   -39072   -39042   -38994   -38912   -38779 
  -38603   -38381   -38114   -37848   -37635   -37492   -37394   -37314 
  -37258   -37231   -37194   -37113   -36986   -36856   -36788   -36813 
  -36869   -36852   -36731   -36566   -36440   -36392   -36387   -36339 
  -36223   -36092   -35982   -35862   -35696   -35477   -35217   -34947 
  -34711   -34553   -34468   -34341   -34033   -33553   -33083   -32830 
  -32851   -33016   -33145   -33151   -33083   -33066   -33163   -33311 
  -33408   -33454   -33536   -33713   -33913   -33971   -33796   -33485 
  -33222   -33123   -33149   -33148   -33035   -32863   -32695   -32561 
  -32492   -32511   -32618   -32808   -33052   -33280   -33446   -33588 
  -33728   -33790   -33719   -33586   -33499   -33487   -33538   -33631 
  -33712   -33734   -33695   -33608   -33469   -33303   -33180   -33155 
  -33209   -33293   -33351   -33303   -33095   -32763   -32398   -32103 
  -31955   -31940   -31977   -32017   -32073   -32167   -32285   -32406 
  -32545   -32751   -33059   -33414   -33685   -33806   -33870   -34028 
  -34311   -34587   -34723   -34736   -34775   -34985   -35338   -35646 
  -35777   -35782   -35800   -35900   -36007   -35972   -35762   -35470 
  -35146   -34772   -34366   -33989   -33713   -33569   -33457   -33235 
  -32883   -32496   -32199   -32073   -32112   -32230   -32294   -32214 
  -32014   -31792   -31645   -31633   -31727   -31821   -31823   -31721 
  -31565   -31399   -31222   -31055   -30965   -30955   -30923   -30798 
  -30631   -30541   -30621   -30858   -31129   -31325   -31440   -31520 
  -31602   -31674   -31708   -31715   -31728   -31760   -31779   -31745 
  -31657   -31542   -31412   -31279   -31163   -31075   -31022   -30997 
  -30967   -30900   -30806   -30763   -30857   -31062   -31259   -31366 
  -31385   -31341   -31222   -30971   -30547   -30026   -29583   -29329 
  -29183   -28924   -28402   -27687   -27041   -26701   -26675   -26786 
  -26888   -26943   -26962   -26952   -26960   -27110   -27338   -27471 
  -27726   -28078   -27974   -27576   -27296   -26891   -26395   -26046 
  -25763   -25592   -25552   -25498   -25466   -25563   -25766   -25994 
  -26137   -26156   -26100   -26008   -25923   -25909   -26015   -26282 
  -26687   -27128   -27569   -28069   -28657   -29286   -29882   -30423 
  -30941   -31422   -31793   -32008   -32101   -32168   -32266   -32351 
  -32331   -32191   -32009   -31857   -31745   -31648   -31537   -31414 
  -31324   -31281   -31202   -30976   -30624   -30301   -30127   -30084 
  -30061   -29953   -29740   -29509   -29373   -29366   -29453   -29609 
  -29787   -29891   -29854   -29689   -29472   -29297   -29185   -29095 
  -28995   -28888   -28799   -28753   -28733   -28707   -28713   -28845 
  -29102   -29342   -29414   -29310   -29214   -29335   -29658   -29950 
  -30027   -29955   -29960   -30199   -30599   -30936   -31085   -31149 
  -31318   -31676   -32137   -32514   -32690   -32742   -32865   -33175 
  -33621   -34065   -34434   -34750   -35057   -35372   -35656   -35837 
  -35936   -36080   -36359   -36707   -36968   -37046   -36999   -36945 
  -36921   -36861   -36691   -36424   -36190   -36111   -36151   -36164 
  -36080   -35940   -35830   -35807   -35837   -35806   -35661   -35476 
  -35343   -35260   -35153   -34976   -34777   -34638   -34563   -34496 
  -34442   -34491   -34665   -34825   -34817   -34644   -34425   -34285 
  -34268   -34293   -34224   -34041   -33866   -33801   -33812   -33790 
  -33698   -33639   -33758   -34074   -34435   -34682   -34834   -35044 
  -35392   -35800   -36145   -36387   -36602   -36878   -37235   -37598 
  -37869   -38054   -38274   -38610   -39015   -39356   -39510   -39465 
  -39322   -39218   -39243   -39348   -39370   -39193   -38868   -38562 
  -38392   -38306   -38138   -37798   -37386   -37102   -37029   -37053 
  -37026   -36908   -36761   -36662   -36605   -36487   -36239   -35913 
  -35625   -35419   -35228   -34965   -34643   -34360   -34172   -34016 
  -33829   -33647   -33559   -33610   -33767   -33944   -34050   -34065 
  -34061   -34099   -34151   -34159   -34116   -34078   -34105   -34212 
  -34385   -34595   -34792   -34920   -34964   -34966   -34964   -34972 
  -35009   -35113   -35287   -35491   -35635   -35602   -35361   -35045 
  -34839   -34801   -34804   -34687   -34446   -34240   -34205   -34301 
  -34375   -34347   -34285   -34280   -34313   -34272   -34080   -33796 
  -33608   -33639   -33805   -33922   -33944   -33986   -34149   -34387 
  -34552   -34553   -34431   -34274   -34129   -33999   -33897   -33857 
  -33903   -34005   -34068   -33996   -33787   -33537   -33363   -33327 
