Origin Time       2011/03/11 14:46:00
Lat.              38.103
Long.             142.860
Depth. (km)       24
Mag.              9.0
Station Code      HKD115
Station Lat.      44.0070
Station Long.     142.1485
Station Height(m) 157
Record Time       2011/03/11 14:49:23
Sampling Freq(Hz) 100Hz
Duration Time(s)  157
Dir.              E-W
Scale Factor      3920(gal)/6182761
Max. Acc. (gal)   3.009
Last Correction   2011/03/11 14:49:08
Memo.             
[...]
   -8700    -8688    -8685    -8687    -8703    -8743    -8800    -8847 
   -8868    -8874    -8883    -8890    -8897    -8921    -8971    -9040 
   -9122    -9219    -9321    -9412    -9481    -9529    -9565    -9599 
   -9634    -9685    -9765    -9856    -9933   -10001   -10055   -10070 
  -10039    -9987    -9931    -9870    -9806    -9748    -9699    -9653 
   -9601    -9542    -9484    -9426    -9365    -9298    -9228    -9150 
   -9050    -8937    -8831    -8724    -8601    -8476    -8365    -8261 
   -8157    -8064    -7985    -7912    -7845    -7789    -7750    -7729 
   -7717    -7711    -7723    -7750    -7771    -7793    -7840    -7905 
   -7971    -8051    -8156    -8266    -8376    -8496    -8630    -8772 
   -8908    -9025    -9124    -9202    -9237    -9226    -9180    -9112 
   -9027    -8943    -8878    -8834    -8804    -8785    -8781    -8776 
   -8746    -8700    -8642    -8567    -8474    -8372    -8271    -8174 
   -8062    -7926    -7772    -7610    -7441    -7268    -7112    -6988 
   -6881    -6786    -6719    -6683    -6671    -6679    -6699    -6721 
   -6737    -6744    -6744    -6744    -6744    -6735    -6729    -6736 
   -6742    -6747    -6773    -6827    -6903    -6997    -7118    -7270 
   -7430    -7576    -7703    -7810    -7894    -7955    -8000    -8040 
   -8067    -8061    -8026    -7980    -7920    -7846    -7769    -7705 
   -7650    -7591    -7541    -7508    -7476    -7439    -7400    -7358 
   -7310    -7249    -7181    -7132    -7110    -7105    -7121    -7172 
   -7244    -7312    -7380    -7456    -7525    -7579    -7627    -7683 
   -7757    -7832    -7897    -7962    -8026    -8082    -8128    -8164 
   -8203    -8249    -8300    -8367    -8444    -8520    -8604    -8702 
   -8810    -8915    -9012    -9103    -9181    -9229    -9246    -9256 
   -9274    -9289    -9294    -9306    -9331    -9353    -9365    -9377 
   -9391    -9385    -9345    -9282    -9215    -9147    -9067    -8980 
   -8888    -8783    -8664    -8539    -8422    -8323    -8243    -8185 
   -8146    -8106    -8063    -8032    -8015    -7998    -7973    -7955 
   -7949    -7940    -7916    -7884    -7852    -7815    -7770    -7723 
   -7674    -7612    -7523    -7401    -7262    -7105    -6913    -6705 
   -6508    -6326    -6157    -6015    -5910    -5835    -5786    -5768 
   -5782    -5821    -5878    -5956    -6062    -6194    -6340    -6499 
   -6676    -6855    -7021    -7175    -7325    -7461    -7575    -7676 
   -7773    -7859    -7924    -7974    -8019    -8061    -8093    -8117 
   -8149    -8192    -8239    -8285    -8339    -8409    -8479    -8548 
   -8632    -8711    -8760    -8777    -8771    -8748    -8709    -8664 
   -8628    -8598    -8557    -8502    -8444    -8389    -8321    -8242 
   -8175    -8135    -8108    -8085    -8070    -8072    -8086    -8104 
   -8126    -8149    -8160    -8152    -8124    -8070    -7986    -7872 
   -7747    -7622    -7501    -7393    -7326    -7315    -7345    -7407 
   -7512    -7645    -7783    -7923    -8079    -8258    -8457    -8664 
   -8886    -9126    -9364    -9579    -9775    -9960   -10133   -10285 
  -10425   -10569   -10706   -10825   -10936   -11044   -11132   -11190 
  -11224   -11246   -11253   -11243   -11231   -11235   -11254   -11276 
  -11294   -11310   -11308   -11273   -11218   -11163   -11110   -11056 
  -11018   -11011   -11018   -11017   -11001   -10959   -10873   -10735 
  -10551   -10343   -10121    -9883    -9640    -9422    -9234    -9058 
   -8902    -8789    -8705    -8626    -8551    -8487    -8420    -8332 
   -8234    -8139    -8048    -7950    -7848    -7753    -7667    -7576 
   -7470    -7364    -7273    -7190    -7114    -7070    -7058    -7058 
   -7067    -7088    -7107    -7118    -7125    -7134    -7144    -7153 
   -7155    -7149    -7143    -7126    -7090    -7057    -7039    -7024 
   -7022    -7051    -7108    -7164    -7216    -7278    -7346    -7399 
   -7433    -7459    -7487    -7507    -7513    -7509    -7506    -7498 
   -7477    -7447    -7424    -7402    -7377    -7364    -7371    -7381 
   -7388    -7401    -7421    -7440    -7446    -7452    -7464    -7472 
   -7476    -7494    -7532    -7586    -7650    -7728    -7823    -7905 
   -7950    -7967    -7972    -7956    -7917    -7879    -7857    -7838 
   -7808    -7769    -7723    -7656    -7558    -7439    -7318    -7206 
   -7096    -6992    -6907    -6835    -6753    -6667    -6586    -6495 
   -6395    -6313    -6260    -6222    -6189    -6161    -6134    -6100 
   -6045    -5969    -5885    -5810    -5749    -5698    -5674    -5685 
   -5703    -5721    -5765    -5832    -5909    -6004    -6128    -6275 
   -6428    -6581    -6742    -6903    -7052    -7180    -7289    -7380 
   -7441    -7463    -7461    -7439    -7373    -7267    -7153    -7042 
   -6925    -6812    -6722    -6660    -6613    -6571    -6535    -6505 
   -6477    -6445    -6415    -6402    -6399    -6399    -6412    -6450 
   -6499    -6554    -6627    -6725    -6837    -6954    -7078    -7212 
   -7353    -7487    -7604    -7715    -7824    -7918    -7997    -8084 
   -8176    -8247    -8302    -8365    -8430    -8472    -8506    -8550 
   -8585    -8601    -8616    -8637    -8651    -8650    -8646    -8655 
   -8667    -8665    -8656    -8651    -8638    -8604    -8558    -8511 
   -8456    -8384    -8313    -8271    -8247    -8229    -8233    -8262 
   -8294    -8311    -8314    -8316    -8314    -8303    -8298    -8318 
   -8368    -8431    -8497    -8568    -8627    -8644    -8619    -8576 
   -8515    -8432    -8339    -8247    -8148    -8033    -7908    -7773 
   -7632    -7490    -7352    -7233    -7142    -7066    -7007    -6974 
   -6969    -6981    -7008    -7054    -7119    -7192    -7267    -7354 
   -7451    -7542    -7615    -7667    -7704    -7718    -7693    -7646 
   -7605    -7563    -7510    -7463    -7428    -7394    -7369    -7368 
   -7386    -7407    -7425    -7440    -7458    -7474    -7457    -7406 
   -7358    -7310    -7226    -7113    -6996    -6857    -6684    -6522 
   -6395    -6269    -6125    -5996    -5903    -5826    -5751    -5699 
   -5674    -5668    -5684    -5734    -5831    -5972    -6139    -6333 
   -6549    -6747    -6910    -7062    -7216    -7356    -7481    -7604 
   -7720    -7811    -7874    -7913    -7932    -7922    -7877    -7809 
   -7737    -7678    -7636    -7621    -7638    -7680    -7738    -7798 
   -7847    -7888    -7917    -7932    -7956    -8013    -8100    -8201 
   -8310    -8441    -8584    -8714    -8842    -8972    -9072    -9133 
   -9177    -9211    -9221    -9202    -9178    -9159    -9120    -9052 
   -8977    -8904    -8818    -8719    -8628    -8550    -8466    -8372 
   -8285    -8217    -8155    -8090    -8042    -8018    -8018    -8052 
   -8108    -8174    -8254    -8324    -8350    -8349    -8345    -8310 
   -8240    -8179    -8141    -8090    -8008    -7937    -7886    -7807 
   -7717    -7659    -7607    -7545    -7512    -7524    -7568    -7617 
   -7678    -7781    -7910    -8033    -8168    -8347    -8547    -8736 
   -8918    -9104    -9264    -9390    -9517    -9662    -9809    -9955 
  -10110   -10268   -10421   -10564   -10686   -10786   -10876   -10960 
  -11024   -11079   -11146   -11192   -11206   -11214   -11211   -11172 
  -11085   -10963   -10837   -10696   -10531   -10383   -10253   -10116 
   -9982    -9861    -9746    -9622    -9482    -9358    -9261    -9170 
   -9075    -8995    -8925    -8838    -8735    -8639    -8546    -8444 
   -8347    -8267    -8198    -8129    -8054    -7972    -7885    -7798 
   -7729    -7663    -7581    -7505    -7450    -7389    -7331    -7303 
   -7280    -7256    -7246    -7238    -7225    -7204    -7198    -7236 
   -7295    -7348    -7423    -7508    -7577    -7645    -7731    -7823 
   -7902    -7971    -8051    -8126    -8166    -8170    -8152    -8117 
   -8057    -7995    -7963    -7952    -7949    -7967    -8004    -8032 
   -8025    -7989    -7954    -7927    -7893    -7869    -7875    -7898 
   -7926    -7969    -8020    -8053    -8058    -8054    -8049    -8030 
   -7995    -7956    -7922    -7876    -7796    -7687    -7568    -7430 
   -7264    -7087    -6912    -6744    -6586    -6445    -6328    -6221 
   -6111    -6005    -5910    -5817    -5734    -5674    -5642    -5637 
   -5655    -5692    -5744    -5799    -5832    -5835    -5814    -5768 
   -5712    -5668    -5637    -5626    -5663    -5742    -5835    -5954 
   -6097    -6236    -6372    -6511    -6641    -6759    -6876    -7009 
   -7157    -7300    -7438    -7585    -7733    -7856    -7954    -8050 
   -8142    -8216    -8291    -8393    -8519    -8648    -8780    -8929 
   -9085    -9226    -9356    -9484    -9588    -9656    -9702    -9743 
   -9776    -9804    -9832    -9865    -9896    -9925    -9949    -9969 
   -9994   -10016   -10031   -10058   -10098   -10130   -10163   -10206 
  -10253   -10294   -10330   -10358   -10371   -10360   -10333   -10307 
  -10276   -10233   -10185   -10151   -10127   -10103   -10075   -10052 
  -10027    -9978    -9908    -9838    -9774    -9710    -9663    -9651 
   -9665    -9685    -9711    -9744    -9777    -9801    -9815    -9817 
   -9807    -9790    -9766    -9726    -9667    -9603    -9535    -9460 
   -9403    -9361    -9319    -9296    -9280    -9233    -9166    -9091 
   -9011    -8934    -8851    -8762    -8678    -8602    -8522    -8444 
   -8379    -8322    -8257    -8196    -8152    -8105    -8048    -8002 
   -7975    -7962    -7963    -7982    -8024    -8071    -8097    -8112 
   -8132    -8158    -8183    -8211    -8251    -8291    -8316    -8327 
   -8318    -8282    -8230    -8175    -8122    -8067    -7997    -7917 
   -7835    -7743    -7631    -7513    -7408    -7318    -7236    -7173 
   -7137    -7126    -7128    -7149    -7201    -7261    -7304    -7338 
   -7373    -7395    -7402    -7406    -7418    -7443    -7474    -7509 
   -7560    -7625    -7685    -7740    -7806    -7870    -7918    -7969 
   -8046    -8131    -8204    -8274    -8354    -8434    -8508    -8585 
   -8676    -8783    -8901    -9025    -9162    -9307    -9441    -9553 
   -9650    -9738    -9793    -9813    -9824    -9824    -9805    -9786 
   -9771    -9754    -9726    -9686    -9649    -9611    -9560    -9508 
   -9473    -9459    -9453    -9454    -9477    -9526    -9582    -9641 
   -9716    -9799    -9866    -9919    -9977   -10037   -10083   -10112 
  -10126   -10118   -10085   -10029    -9958    -9889    -9820    -9750 
   -9695    -9658    -9613    -9551    -9483    -9406    -9302    -9168 
   -9024    -8876    -8719    -8557    -8402    -8262    -8135    -8006 
   -7882    -7780    -7687    -7596    -7530    -7492    -7465    -7448 
   -7446    -7466    -7500    -7538    -7584    -7638    -7684    -7722 
   -7767    -7825    -7890    -7954    -8024    -8106    -8185    -8250 
   -8317    -8404    -8502    -8597    -8691    -8789    -8874    -8938 
   -8998    -9063    -9128    -9185    -9240    -9305    -9371    -9429 
   -9475    -9513    -9543    -9551    -9542    -9543    -9551    -9555 
   -9557    -9554    -9534    -9484    -9410    -9326    -9232    -9128 
   -9032    -8957    -8905    -8867    -8838    -8824    -8822    -8804 
   -8772    -8750    -8738    -8727    -8720    -8728    -8747    -8764 
   -8774    -8781    -8778    -8755    -8712    -8664    -8614    -8557 
   -8486    -8410    -8332    -8242    -8142    -8051    -7976    -7904 
   -7830    -7778    -7761    -7769    -7807    -7891    -8008    -8127 
   -8237    -8343    -8450    -8541    -8602    -8650    -8699    -8734 
   -8749    -8766    -8797    -8831    -8863    -8897    -8929    -8953 
   -8966    -8981    -9009    -9045    -9082    -9129    -9193    -9260 
   -9313    -9357    -9393    -9401    -9370    -9321    -9274    -9220 
   -9154    -9099    -9064    -9028    -8981    -8937    -8909    -8897 
   -8890    -8891    -8910    -8932    -8935    -8920    -8889    -8826 
   -8717    -8580    -8432    -8271    -8107    -7959    -7841    -7753 
   -7680    -7621    -7585    -7562    -7534    -7506    -7489    -7478 
   -7461    -7452    -7472    -7509    -7535    -7546    -7548    -7534 
   -7494    -7437    -7385    -7346    -7316    -7296    -7295    -7313 
   -7338    -7368    -7412    -7468    -7521    -7574    -7645    -7735 
   -7829    -7932    -8055    -8185    -8297    -8405    -8527    -8658 
   -8780    -8893    -9008    -9126    -9223    -9291    -9349    -9398 
   -9420    -9413    -9396    -9374    -9337    -9287    -9247    -9214 
   -9168    -9114    -9071    -9040    -9022    -9017    -9030    -9073 
   -9134    -9191    -9251    -9323    -9388    -9440    -9499    -9567 
   -9625    -9664    -9696    -9725    -9743    -9749    -9754    -9765 
   -9775    -9775    -9774    -9785    -9794    -9784    -9771    -9766 
   -9751    -9711    -9667    -9634    -9592    -9530    -9466    -9401 
   -9321    -9232    -9139    -9040    -8924    -8788    -8645    -8508 
   -8366    -8210    -8052    -7907    -7773    -7642    -7525    -7438 
   -7372    -7308    -7252    -7212    -7183    -7157    -7141    -7148 
   -7176    -7215    -7267    -7347    -7449    -7550    -7649    -7758 
   -7865    -7950    -8033    -8139    -8248    -8343    -8448    -8580 
   -8725    -8868    -9009    -9160    -9329    -9500    -9674    -9863 
  -10056   -10241   -10425   -10621   -10824   -11018   -11209   -11409 
  -11603   -11779   -11948   -12112   -12261   -12391   -12504   -12611 
  -12714   -12813   -12915   -13025   -13137   -13230   -13294   -13334 
  -13358   -13357   -13332   -13300   -13256   -13192   -13115   -13041 
  -12971   -12892   -12804   -12719   -12638   -12550   -12458   -12378 
  -12311   -12249   -12181   -12117   -12057   -11988   -11902   -11807 
  -11708   -11600   -11488   -11381   -11280   -11176   -11068   -10961 
  -10855   -10737   -10604   -10473   -10360   -10262   -10172   -10106 
  -10069   -10040    -9996    -9941    -9884    -9816    -9733    -9642 
   -9557    -9477    -9388    -9279    -9164    -9042    -8897    -8733 
   -8566    -8393    -8217    -8048    -7894    -7753    -7617    -7497 
   -7417    -7367    -7329    -7311    -7322    -7354    -7390    -7422 
   -7462    -7510    -7546    -7569    -7588    -7598    -7587    -7558 
   -7532    -7517    -7501    -7491    -7499    -7507    -7497    -7471 
   -7439    -7405    -7362    -7325    -7323    -7355    -7400    -7460 
   -7552    -7675    -7803    -7927    -8068    -8218    -8355    -8488 
   -8636    -8781    -8900    -8999    -9093    -9189    -9278    -9354 
   -9437    -9535    -9629    -9717    -9815    -9911    -9995   -10069 
  -10138   -10197   -10242   -10282   -10341   -10419   -10502   -10581 
  -10647   -10691   -10709   -10706   -10687   -10660   -10632   -10604 
  -10586   -10579   -10557   -10512   -10468   -10435   -10396   -10349 
  -10311   -10293   -10290   -10302   -10331   -10369   -10407   -10445 
  -10491   -10524   -10530   -10534   -10543   -10529   -10502   -10477 
  -10449   -10423   -10400   -10370   -10329   -10271   -10198   -10118 
  -10029    -9939    -9859    -9782    -9711    -9661    -9630    -9604 
   -9585    -9580    -9589    -9604    -9618    -9629    -9637    -9643 
   -9643    -9645    -9652    -9645    -9619    -9587    -9548    -9490 
   -9413    -9327    -9237    -9133    -9028    -8947    -8888    -8838 
   -8803    -8785    -8772    -8750    -8715    -8675    -8636    -8599 
   -8570    -8561    -8564    -8542    -8490    -8439    -8383    -8300 
   -8207    -8126    -8055    -7979    -7896    -7821    -7745    -7651 
   -7552    -7467    -7384    -7302    -7234    -7190    -7175    -7182 
   -7199    -7233    -7281    -7326    -7359    -7395    -7440    -7494 
   -7562    -7657    -7778    -7912    -8061    -8227    -8407    -8592 
   -8774    -8946    -9110    -9267    -9414    -9565    -9728    -9891 
  -10040   -10176   -10305   -10430   -10546   -10644   -10730   -10811 
  -10874   -10914   -10967   -11039   -11103   -11171   -11255   -11343 
  -11418   -11471   -11519   -11557   -11555   -11521   -11482   -11417 
  -11320   -11210   -11093   -10955   -10783   -10598   -10429   -10271 
  -10110    -9949    -9798    -9649    -9491    -9337    -9210    -9098 
   -8983    -8877    -8783    -8687    -8578    -8462    -8355    -8256 
   -8156    -8075    -8040    -8029    -8009    -8005    -8038    -8068 
   -8083    -8101    -8115    -8111    -8093    -8071    -8051    -8020 
   -7983    -7970    -7980    -7994    -8017    -8056    -8115    -8193 
   -8275    -8368    -8479    -8585    -8680    -8776    -8876    -8978 
   -9078    -9175    -9271    -9363    -9435    -9487    -9535    -9581 
   -9614    -9638    -9661    -9681    -9696    -9705    -9721    -9752 
   -9788    -9823    -9871    -9936   -10008   -10084   -10167   -10260 
  -10349   -10424   -10507   -10614   -10732   -10847   -10959   -11073 
  -11179   -11255   -11305   -11343   -11370   -11381   -11384   -11386 
  -11375   -11333   -11271   -11210   -11135   -11038   -10941   -10853 
  -10764   -10668   -10569   -10479   -10394   -10301   -10206   -10131 
  -10065    -9993    -9935    -9914    -9908    -9884    -9858    -9858 
   -9848    -9801    -9760    -9741    -9711    -9662    -9620    -9595 
   -9571    -9532    -9498    -9488    -9480    -9458    -9440    -9433 
   -9431    -9421    -9406    -9396    -9375    -9332    -9282    -9237 
   -9199    -9167    -9145    -9148    -9176    -9215    -9260    -9318 
   -9389    -9454    -9510    -9580    -9659    -9717    -9760    -9809 
   -9852    -9869    -9866    -9860    -9846    -9807    -9749    -9686 
   -9621    -9545    -9459    -9380    -9310    -9234    -9157    -9099 
   -9054    -9005    -8953    -8913    -8879    -8844    -8815    -8807 
   -8815    -8825    -8838    -8862    -8895    -8927    -8943    -8961 
   -9001    -9031    -9046    -9079    -9112    -9106    -9072    -9027 
   -8958    -8851    -8739    -8659    -8591    -8525    -8480    -8447 
   -8426    -8431    -8453    -8489    -8546    -8612    -8680    -8754 
   -8828    -8900    -8978    -9062    -9134    -9181    -9211    -9235 
   -9262    -9303    -9347    -9399    -9478    -9573    -9660    -9742 
   -9834    -9932   -10012   -10081   -10165   -10262   -10353   -10439 
  -10528   -10610   -10675   -10722   -10734   -10707   -10663   -10610 
  -10550   -10492   -10444   -10389   -10330   -10272   -10201   -10115 
  -10024    -9939    -9862    -9781    -9703    -9647    -9599    -9552 
   -9516    -9490    -9461    -9425    -9393    -9380    -9378    -9379 
   -9400    -9450    -9503    -9545    -9612    -9707    -9790    -9866 
   -9969   -10085   -10182   -10262   -10339   -10398   -10447   -10517 
  -10596   -10648   -10696   -10745   -10753   -10729   -10697   -10634 
  -10545   -10461   -10374   -10288   -10214   -10157   -10125   -10100 
  -10050    -9997    -9957    -9900    -9824    -9758    -9703    -9646 
   -9590    -9554    -9543    -9540    -9540    -9551    -9561    -9541 
   -9507    -9490    -9477    -9444    -9406    -9380    -9348    -9284 
   -9195    -9105    -9019    -8916    -8799    -8701    -8624    -8544 
   -8476    -8445    -8434    -8425    -8422    -8425    -8424    -8416 
   -8414    -8438    -8481    -8524    -8573    -8639    -8716    -8782 
   -8829    -8876    -8919    -8935    -8939    -8957    -8983    -9008 
   -9044    -9094    -9144    -9183    -9211    -9229    -9221    -9170 
