Origin Time       2011/03/11 14:46:00
Lat.              38.103
Long.             142.860
Depth. (km)       24
Mag.              9.0
Station Code      HKD105
Station Lat.      42.4826
Station Long.     142.0538
Station Height(m) 7
Record Time       2011/03/11 14:47:59
Sampling Freq(Hz) 100Hz
Duration Time(s)  300
Dir.              U-D
Scale Factor      3920(gal)/6182761
Max. Acc. (gal)   9.060
Last Correction   2011/03/11 14:47:44
Memo.             
[...]
  -10514    -9557    -8807    -9008    -9909   -10613   -10568    -9743 
   -8491    -7465    -7260    -8220   -10132   -12118   -13519   -14230 
  -14204   -13496   -12463   -11753   -11908   -12748   -13648   -14157 
  -14016   -13210   -12070   -11135   -10950   -11766   -13289   -14777 
  -15537   -15519   -15248   -15176   -15414   -15853   -16262   -16391 
  -16215   -16070   -16339   -17065   -17998   -18824   -19259   -19104 
  -18338   -17260   -16340   -15806   -15578   -15514   -15553   -15752 
  -16258   -17161   -18352   -19523   -20400   -20972   -21384   -21655 
  -21663   -21455   -21334   -21561   -22080   -22672   -23217   -23531 
  -23316   -22572   -21694   -21084   -20900   -21092   -21472   -21780 
  -21798   -21529   -21135   -20639   -20021   -19540   -19620   -20376 
  -21440   -22305   -22694   -22693   -22561   -22382   -22003   -21218 
  -19926   -18333   -16887   -15990   -15801   -16062   -16430   -17011 
  -17927   -18812   -19215   -19132   -18989   -19140   -19484   -19614 
  -19157   -18003   -16313   -14496   -13257   -13066   -13565   -14005 
  -13923   -13246   -12337   -11837   -12063   -12676   -13106   -13064 
  -12665   -12338   -12421   -12845   -13393   -13977   -14701   -15587 
  -16205   -16095   -15426   -14827   -14758   -15075   -15212   -14769 
  -13882   -13109   -12782   -12653   -12360   -11824   -11366   -11479 
  -12148   -12818   -13168   -13423   -13973   -14907   -15969   -16916 
  -17745   -18572   -19420   -20241   -21054   -21782   -22072   -21743 
  -21212   -21016   -21330   -21992   -22628   -22809   -22376   -21681 
  -21370   -21943   -23296   -24579   -24951   -24410   -23630   -23330 
  -23712   -24382   -24802   -24497   -23256   -21478   -19800   -18612 
  -17952   -17479   -16891   -16246   -15609   -14935   -14224   -13561 
  -13171   -13202   -13422   -13285   -12471   -11466   -11290   -12382 
  -14080   -15261   -15214   -14163   -13132   -13055   -14134   -15948 
  -17741   -18795   -18830   -18130   -17473   -17568   -18320   -19063 
  -19310   -18972   -18304   -17786   -17742   -18043   -18164   -17581 
  -16338   -15091   -14485   -14713   -15547   -16492   -16924   -16442 
  -15244   -14022   -13417   -13553   -14035   -14444   -14636   -14441 
  -13704   -12866   -12777   -13866   -15793   -17626   -18404   -17939 
  -17029   -16714   -17379   -18496   -19124   -18711   -17353   -15545 
  -14028   -13489   -14053   -15099   -15670   -15281   -14344   -13683 
  -13747   -14244   -14467   -13976   -12935   -11823   -10946   -10353 
  -10086   -10236   -10813   -11732   -12779   -13641   -14083   -14170 
  -14326   -14860   -15591   -16126   -16047   -15127   -13786   -12966 
  -13319   -14610   -15953   -16674   -16801   -16711   -16695   -16853 
  -16956   -16716   -16282   -15995   -16042   -16436   -16988   -17512 
  -17979   -18356   -18560   -18516   -18251   -17964   -17935   -18448 
  -19483   -20418   -20459   -19242   -17046   -14789   -13521   -13713 
  -14967   -16215   -16422   -15278   -13183   -10992    -9729    -9833 
  -10730   -11435   -11329   -10533    -9773    -9790   -10690   -11808 
  -12366   -12229   -11960   -12260   -13334   -14722   -15824   -16350 
  -16251   -15715   -15149   -14931   -15256   -16033   -16910   -17566 
  -17810   -17508   -16921   -16757   -17442   -18746   -20043   -20555 
  -19783   -17996   -16157   -15317   -15925   -17572   -19415   -20755 
  -21231   -20817   -19811   -18806   -18512   -19290   -20711   -21816 
  -21899   -20995   -19856   -19472   -20329   -22131   -24037   -25109 
  -24902   -23709   -22270   -21316   -21115   -21352   -21483   -21168 
  -20491   -19808   -19355   -19136   -19099   -19209   -19434   -19766 
  -20156   -20472   -20701   -20917   -20978   -20621   -19782   -18738 
  -18008   -17918   -18301   -18739   -18921   -18810   -18599   -18358 
  -18004   -17634   -17454   -17502   -17699   -17880   -17833   -17523 
  -17047   -16518   -16162   -16075   -15996   -15626   -14903   -14029 
  -13382   -13284   -13745   -14284   -14251   -13491   -12449   -11806 
  -11936   -12575   -13250   -13773   -14136   -14323   -14212   -13692 
  -13052   -12805   -13084   -13637   -14144   -14316   -14110   -13793 
  -13591   -13423   -13051   -12389   -11744   -11644   -12150   -12695 
  -12787   -12350   -11590   -10948   -10790   -11037   -11291   -11321 
  -11364   -11767   -12511   -13342   -13995   -14258   -14218   -14189 
  -14258   -14257   -14099   -13884   -13850   -14273   -15186   -16242 
  -16924   -16898   -16392   -16089   -16471   -17411   -18476   -19349 
  -19804   -19637   -18952   -18192   -17757   -17713   -17738   -17446 
  -16895   -16540   -16630   -16918   -16883   -16142   -14822   -13577 
  -13095   -13574   -14728   -15943   -16343   -15479   -13898   -12577 
  -12203   -12905   -14199   -15237   -15403   -14815   -14111   -13730 
  -13564   -13295   -12849   -12289   -11520   -10532    -9636    -9111 
   -9008    -9333    -9910   -10222    -9864    -9074    -8544    -8753 
   -9545   -10391   -11035   -11611   -12167   -12620   -13026   -13486 
  -14076   -14888   -15758   -16264   -16259   -16182   -16632   -17614 
  -18481   -18703   -18396   -18002   -17733   -17614   -17750   -18211 
  -18849   -19241   -18876   -17683   -16125   -14790   -14002   -13634 
  -13387   -13154   -12969   -12911   -13046   -13309   -13589   -13842 
  -14022   -14113   -14247   -14552   -14994   -15456   -15871   -16283 
  -16772   -17311   -17714   -17756   -17351   -16713   -16245   -16212 
  -16610   -17171   -17537   -17607   -17648   -18034   -18865   -19812 
  -20390   -20350   -19786   -18997   -18424   -18376   -18755   -19329 
  -19691   -19295   -18202   -17094   -16614   -16920   -17531   -17839 
  -17665   -17154   -16578   -16308   -16733   -17941   -19336   -19995 
  -19410   -17848   -16226   -15413   -15558   -16239   -16923   -17307 
  -17534   -17846   -18287   -18991   -20099   -21368   -22279   -22463 
  -21998   -21265   -20605   -20171   -19931   -19705   -19291   -18684 
  -18224   -18371   -19109   -19893   -20314   -20206   -19515   -18642 
  -18248   -18559   -19193   -19550   -19240   -18180   -16574   -14919 
  -13884   -13998   -15138   -16474   -17198   -17086   -16335   -15210 
  -13954   -12861   -12289   -12466   -13191   -13897   -14253   -14376 
  -14393   -14432   -14712   -15149   -15383   -15121   -14348   -13368 
  -12398   -11402   -10464    -9891    -9935   -10656   -11888   -13276 
  -14474   -15241   -15468   -15258   -14790   -14259   -14016   -14333 
  -15121   -16139   -17138   -17811   -18016   -17829   -17407   -17091 
  -17208   -17724   -18292   -18519   -18412   -18451   -18858   -19390 
  -19836   -20120   -20249   -20253   -20035   -19697   -19713   -20374 
  -21392   -21995   -21467   -19860   -18036   -17029   -17269   -18171 
  -18522   -17508   -15391   -13188   -11797   -11364   -11425   -11481 
  -11256   -10654    -9695    -8579    -7886    -8347   -10000   -11971 
  -13308   -13697   -13431   -12964   -12655   -12868   -13784   -15062 
  -16061   -16339   -15946   -15363   -15115   -15429   -16053   -16287 
  -15557   -14065   -12668   -12243   -13061   -14551   -15747   -16084 
  -15738   -15348   -15510   -16356   -17509   -18475   -18976   -19012 
  -18729   -18252   -17670   -17133   -16890   -17135   -17724   -18256 
  -18437   -18141   -17508   -16987   -16996   -17512   -18054   -18225 
  -18074   -17843   -17704   -17710   -17824   -17822   -17360   -16346 
  -15123   -14155   -13603   -13470   -13874   -14689   -15500   -16052 
  -16284   -16269   -16270   -16601   -17426   -18534   -19428   -19759 
  -19341   -18165   -16689   -15655   -15683   -16933   -18806   -20301 
  -20723   -20000   -18746   -17843   -17693   -18074   -18584   -18928 
  -18933   -18557   -17953   -17434   -17180   -17117   -17274   -17925 
  -19086   -20208   -20654   -20250   -19306   -18326   -17714   -17590 
  -17739   -17900   -18084   -18402   -18732   -18788   -18508   -18265 
  -18500   -19168   -19923   -20508   -20633   -20069   -19015   -17987 
  -17565   -18101   -19307   -20510   -21151   -20958   -20197   -19461 
  -19080   -19131   -19545   -20072   -20524   -20985   -21676   -22515 
  -22993   -22736   -21949   -21163   -20719   -20608   -20691   -20828 
  -20887   -20873   -20826   -20610   -20155   -19759   -19790   -20233 
  -20700   -20797   -20495   -20093   -19779   -19492   -19088   -18525 
  -18020   -17831   -17916   -18027   -17959   -17644   -17179   -16763 
  -16514   -16449   -16563   -16639   -16387   -15869   -15312   -14861 
  -14600   -14426   -14133   -13711   -13324   -12949   -12366   -11717 
  -11552   -12064   -12770   -12989   -12428   -11443   -10676   -10548 
  -11101   -12062   -13149   -14152   -14731   -14664   -14119   -13546 
  -13464   -14060   -14894   -15304   -15070   -14599   -14488   -14890 
  -15446   -15714   -15460   -14791   -14081   -13669   -13623   -13764 
  -13929   -14042   -14061   -14068   -14289   -14873   -15707   -16542 
  -17244   -17795   -18144   -18190   -17929   -17554   -17302   -17197 
  -16992   -16491   -15853   -15451   -15575   -16230   -17114   -17813 
  -18046   -17807   -17309   -16794   -16462   -16463   -16791   -17251 
  -17503   -17233   -16516   -15854   -15724   -16125   -16603   -16752 
  -16531   -16102   -15700   -15655   -16149   -17084   -18211   -19003 
  -18790   -17524   -16058   -15389   -15745   -16388   -16412   -15621 
  -14586   -14100   -14482   -15351   -16129   -16436   -16135   -15202 
  -13651   -11901   -10795   -10836   -11667   -12317   -11943   -10557 
   -8971    -8099    -8367    -9390   -10141    -9879    -8863    -7886 
   -7520    -7941    -8940   -10034   -10849   -11310   -11528   -11629 
  -11678   -11819   -12234   -12769   -12959   -12563   -11893   -11464 
  -11531   -12028   -12691   -13226   -13494   -13435   -13099   -12807 
  -12931   -13512   -14216   -14646   -14652   -14407   -14261   -14438 
  -14819   -15042   -14785   -14110   -13470   -13248   -13405   -13688 
  -13989   -14380   -14963   -15718   -16472   -16990   -17216   -17302 
  -17381   -17515   -17683   -17744   -17625   -17347   -16947   -16491 
  -16046   -15710   -15506   -15232   -14709   -14020   -13460   -13367 
  -13871   -14749   -15558   -15926   -15893   -15867   -16117   -16486 
  -16598   -16245   -15612   -15084   -14914   -15126   -15680   -16582 
  -17761   -19020   -20089   -20656   -20620   -20105   -19197   -18161 
  -17574   -17745   -18335   -18812   -18975   -18994   -19139   -19540 
  -20146   -20749   -21096   -21224   -21444   -21856   -22191   -22140 
  -21669   -21036   -20429   -19839   -19374   -19410   -20265   -21683 
  -22804   -22873   -21809   -20081   -18275   -16766   -15665   -15043 
  -14967   -15263   -15573   -15717   -15758   -15814   -15944   -16105 
  -16179   -16054   -15741   -15471   -15490   -15744   -15976   -15984 
  -15770   -15601   -15750   -16124   -16243   -15676   -14478   -13028 
  -11693   -10803   -10540   -10818   -11314   -11579   -11240   -10263 
   -9123    -8581    -9099   -10468   -11934   -12771   -12854   -12635 
  -12545   -12593   -12545   -12317   -12134   -12209   -12439   -12528 
  -12224   -11555   -10938   -10840   -11377   -12271   -13099   -13659 
  -14216   -15229   -16735   -18220   -19138   -19423   -19419   -19421 
  -19447   -19384   -19181   -19030   -19309   -20198   -21356   -22084 
  -21882   -20895   -19877   -19577   -20058   -20920   -21712   -22042 
  -21863   -21496   -21247   -21149   -20979   -20560   -19874   -18982 
  -18182   -18027   -18805   -19995   -20651   -20372   -19453   -18349 
  -17554   -17483   -18024   -18677   -19136   -19390   -19538   -19790 
  -20351   -21220   -22324   -23635   -24972   -26010   -26489   -26424 
  -26147   -25991   -26085   -26387   -26625   -26458   -25855   -24999 
  -24006   -23089   -22562   -22479   -22514   -22190   -21315   -20220 
  -19508   -19637   -20580   -21747   -22497   -22780   -23040   -23552 
  -24150   -24508   -24481   -24323   -24512   -25100   -25566   -25525 
  -25216   -25216   -25852   -26872   -27650   -27650   -26787   -25502 
  -24401   -23856   -23854   -23952   -23583   -22528   -21026   -19766 
  -19493   -20151   -20932   -21162   -20610   -19357   -17804   -16520 
  -15893   -15916   -16209   -16338   -16199   -15943   -15718   -15697 
  -16003   -16408   -16454   -15897   -14783   -13411   -12387   -12181 
  -12642   -13202   -13266   -12527   -11164    -9687    -8695    -8602 
   -9240    -9975   -10225    -9860    -9285    -9060    -9367    -9938 
  -10348   -10325    -9964    -9636    -9466    -9315    -9335    -9788 
  -10499   -11055   -11280   -11381   -11753   -12547   -13524   -14383 
  -15041   -15469   -15541   -15174   -14402   -13460   -12793   -12533 
  -12381   -12186   -12088   -12322   -13145   -14516   -15933   -16838 
  -17058   -16996   -17332   -18362   -19746   -20950   -21665   -21829 
  -21540   -21018   -20490   -20165   -20232   -20659   -21271   -21941 
  -22512   -22712   -22161   -20635   -18474   -16595   -15932   -16672 
  -18024   -18881   -18666   -17816   -17285   -17417   -17714   -17512 
  -16631   -15595   -15104   -15244   -15415   -15096   -14458   -14014 
  -14073   -14638   -15348   -15687   -15447   -14817   -14143   -13728 
  -13701   -13973   -14359   -14613   -14506   -13986   -13166   -12361 
  -11975   -12007   -12001   -11590   -10777    -9778    -8820    -8032 
   -7516    -7344    -7394    -7393    -7111    -6491    -5742    -5282 
   -5461    -6223    -6903    -6638    -5192    -3230    -1835    -1902 
   -3546    -5870    -7639    -8235    -7900    -7446    -7644    -8581 
   -9731   -10434   -10260    -9307    -8074    -7214    -7348    -8654 
  -10704   -12514   -13007   -12026   -10433    -9304    -9395   -10710 
  -12420   -13607   -13987   -13954   -14149   -14890   -15999   -17160 
  -18115   -18562   -18365   -17781   -17207   -16862   -16725   -16650 
  -16514   -16208   -15772   -15595   -16077   -17096   -18029   -18375 
  -18212   -17989   -18050   -18317   -18462   -18331   -18011   -17689 
  -17618   -17954   -18584   -19264   -19888   -20480   -20911   -20809 
  -19887   -18437   -17328   -17277   -18252   -19595   -20536   -20692 
  -20278   -19841   -19747   -19857   -19793   -19588   -19714   -20364 
  -21258   -22187   -23386   -25182   -27268   -28736   -28927   -27941 
  -26457   -25098   -24135   -23587   -23042   -22068   -20857   -19810 
  -19126   -18879   -18984   -19363   -19923   -20340   -20407   -20215 
  -19911   -19671   -19668   -19918   -20369   -20969   -21531   -21754 
  -21476   -20897   -20539   -20845   -21800   -23108   -24395   -25152 
  -25153   -24844   -24845   -25329   -26058   -26669   -26971   -27017 
  -26817   -26300   -25496   -24499   -23425   -22386   -21552   -21129 
  -20999   -20642   -19583   -17906   -16347   -15720   -16199   -17243 
  -18115   -18318   -17736   -16667   -15667   -15281   -15694   -16585 
  -17530   -18232   -18408   -18000   -17385   -17045   -17158   -17542 
  -17841   -17867   -17724   -17536   -17277   -16768   -15781   -14421 
  -13247   -12712   -12717   -12983   -13514   -14330   -15080   -15312 
  -14992   -14486   -14268   -14704   -15731   -16886   -17620   -17499 
  -16514   -15158   -13986   -13320   -13339   -13870   -14105   -13402 
  -12086   -10863   -10124    -9876    -9915   -10067   -10053    -9600 
   -8899    -8399    -8371    -8759    -9250    -9512    -9327    -8631 
   -7594    -6535    -5687    -5099    -4802    -4823    -5158    -5852 
   -6830    -7796    -8487    -8878    -9087    -9295    -9721   -10465 
  -11380   -12199   -12653   -12618   -12359   -12364   -12825   -13473 
  -13826   -13513   -12555   -11392   -10469    -9846    -9345    -8875 
   -8594    -8776    -9421   -10149   -10403    -9818    -8674    -7811 
   -7871    -8888   -10505   -12198   -13521   -14399   -14996   -15407 
  -15753   -16244   -16819   -17191   -17231   -16880   -16260   -15994 
  -16613   -17790   -18596   -18275   -16853   -15130   -13976   -13601 
  -13666   -13926   -14359   -14901   -15322   -15338   -14898   -14240 
  -13715   -13654   -14061   -14546   -14766   -14721   -14764   -15249 
  -15859   -15976   -15673   -15417   -15471   -16030   -17065   -18100 
  -18590   -18481   -18304   -18574   -19196   -19618   -19378   -18354 
  -16822   -15456   -14939   -15523   -16816   -17882   -18010   -17328 
  -16560   -16369   -16780   -17255   -17197   -16177   -14188   -11923 
  -10426   -10364   -11574   -13142   -13926   -13421   -12140   -10982 
  -10614   -11224   -12363   -13326   -13751   -13614   -13120   -12749 
  -12913   -13611   -14553   -15411   -15960   -16123   -16005   -15947 
  -16278   -16919   -17453   -17526   -17084   -16369   -15746   -15550 
  -15948   -16665   -17053   -16632   -15479   -14146   -13259   -13314 
  -14514   -16427   -18141   -18938   -18715   -17943   -17414   -17735 
  -18770   -19722   -19843   -18960   -17646   -16721   -16410   -16399 
  -16313   -15861   -15143   -14438   -13670   -12722   -11795   -11223 
  -11422   -12469   -13812   -14897   -15463   -15533   -15371   -15170 
  -15081   -15029   -14716   -14220   -13769   -13282   -12847   -12981 
  -14005   -15594   -17156   -18320   -18936   -18932   -18399   -17698 
  -17149   -16773   -16565   -16599   -16828   -17103   -17280   -17213 
  -16881   -16403   -16023   -16042   -16395   -16607   -16396   -15880 
  -15225   -14376   -13236   -12003   -11019   -10380    -9988    -9759 
   -9633    -9561    -9481    -9288    -8898    -8339    -7906    -8026 
   -8810   -10068   -11395   -12237   -12534   -12825   -13403   -14135 
  -14868   -15572   -16261   -16803   -16873   -16249   -15066   -13821 
  -13075   -13176   -13985   -14707   -14647   -13883   -12939   -12316 
  -12086   -11853   -11377   -10804   -10398   -10477   -11316   -12829 
  -14405   -15240   -14915   -13671   -12258   -11531   -11827   -12741 
  -13659   -14104   -13822   -13050   -12386   -12268   -12734   -13398 
  -13777   -13812   -13631   -13342   -13350   -13915   -14605   -14833 
  -14491   -14068   -14323   -15466   -16999   -18266   -18819   -18669 
  -18139   -17619   -17652   -18549   -20068   -21694   -22810   -22900 
  -22067   -21173   -21155   -22194   -23713   -24822   -24885   -24026 
  -22900   -22181   -22305   -23278   -24692   -25847   -26046   -25147 
  -23662   -22401   -22061   -22784   -24068   -25118   -25335   -24703 
  -23629   -22507   -21603   -21074   -20901   -20795   -20366   -19469 
  -18324   -17364   -16871   -16751   -16822   -17096   -17678   -18500 
  -19261   -19814   -20436   -21461   -22924   -24542   -25863   -26582 
  -26678   -26256   -25538   -24833   -24290   -23906   -23732   -23682 
  -23411   -22734   -21873   -21207   -20907   -20857   -20929   -21148 
  -21452   -21534   -21124   -20306   -19361   -18427   -17475   -16448 
  -15443   -14765   -14617   -14854   -15122   -15167   -15110   -15303 
  -15764   -16109   -16071   -15687   -15145   -14661   -14350   -14303 
  -14581   -14928   -14966   -14514   -13505   -12115   -10811    -9920 
   -9430    -9240    -9216    -9086    -8573    -7559    -6358    -5592 
   -5695    -6765    -8471   -10044   -10897   -11163   -11435   -12058 
  -12688   -12684   -11922   -10940   -10364   -10460   -11026   -11636 
  -12051   -12298   -12405   -12248   -11693   -10885   -10272   -10202 
