Origin Time       2011/03/11 14:46:00
Lat.              38.103
Long.             142.860
Depth. (km)       24
Mag.              9.0
Station Code      HKD130
Station Lat.      42.5626
Station Long.     141.3502
Station Height(m) 17
Record Time       2011/03/11 14:48:10
Sampling Freq(Hz) 100Hz
Duration Time(s)  300
Dir.              E-W
Scale Factor      3920(gal)/6182761
Max. Acc. (gal)   11.345
Last Correction   2011/03/11 14:47:55
Memo.             
[...]
  -17046   -16735   -16699   -17016   -17570   -18245   -18892   -19356 
  -19684   -19937   -20220   -20849   -21845   -22834   -23567   -24091 
  -24559   -24936   -25052   -24995   -24872   -24594   -24172   -23536 
  -22504   -21261   -20190   -19453   -19025   -18827   -18638   -18129 
  -17394   -16959   -16900   -16816   -16604   -16554   -16883   -17450 
  -17996   -18483   -18894   -19001   -18625   -17962   -17445   -17287 
  -17329   -17292   -17171   -17250   -17488   -17382   -16738   -15991 
  -15646   -15741   -15969   -16223   -16603   -16941   -16946   -16593 
  -15989   -15248   -14522   -13849   -13171   -12574   -12227   -11960 
  -11393   -10501    -9557    -8858    -8657    -8881    -9181    -9305 
   -9177    -8999    -9170    -9700   -10077   -10027    -9906   -10187 
  -10918   -11671   -11979   -11858   -11742   -11836   -11973   -12196 
  -12817   -13783   -14609   -15017   -15264   -15616   -15931   -15997 
  -15904   -15957   -16378   -17081   -17753   -18235   -18751   -19424 
  -19833   -19641   -19210   -19033   -19151   -19433   -19731   -19746 
  -19323   -18680   -18069   -17602   -17341   -17160   -16927   -16870 
  -17106   -17230   -16909   -16262   -15589   -15120   -14762   -14203 
  -13401   -12601   -12012   -11623   -11159   -10420    -9680    -9271 
   -8995    -8587    -8248    -8264    -8449    -8248    -7501    -6732 
   -6449    -6545    -6392    -5713    -5011    -4619    -4485    -4838 
   -5688    -6483    -6838    -6894    -6980    -7159    -7230    -7178 
   -7244    -7663    -8394    -8986    -9070    -8787    -8330    -7662 
   -6873    -6332    -6163    -6069    -5958    -5926    -5809    -5551 
   -5314    -5061    -4679    -4250    -4031    -4162    -4475    -4935 
   -5612    -6264    -6816    -7570    -8650    -9803   -10662   -11082 
  -11192   -11288   -11651   -12232   -12857   -13565   -14317   -14889 
  -15205   -15361   -15387   -15271   -15197   -15382   -15754   -16155 
  -16615   -17168   -17719   -18157   -18400   -18344   -18055   -17772 
  -17546   -17385   -17480   -17807   -18121   -18450   -18909   -19330 
  -19475   -19374   -19294   -19249   -18870   -18216   -17885   -18004 
  -18142   -17994   -17517   -16998   -16711   -16428   -15953   -15461 
  -15037   -14750   -14722   -14823   -14802   -14502   -13905   -13364 
  -13305   -13671   -14260   -15200   -16545   -17934   -18947   -19479 
  -19847   -20438   -21216   -22036   -22923   -23702   -24115   -24216 
  -24217   -24166   -23960   -23681   -23610   -23863   -24104   -23713 
  -22618   -21458   -20585   -19797   -19020   -18458   -18224   -18186 
  -18065   -17718   -17313   -16978   -16651   -16389   -16188   -15900 
  -15620   -15471   -15270   -14906   -14456   -13844   -13111   -12627 
  -12453   -12286   -12123   -12248   -12629   -12810   -12614   -12477 
  -12782   -13386   -13970   -14396   -14636   -14664   -14438   -13932 
  -13273   -12644   -12105   -11641   -11323   -11430   -11967   -12485 
  -12878   -13423   -14155   -14915   -15579   -16126   -16676   -17224 
  -17499   -17553   -17853   -18234   -18079   -17658   -17666   -18060 
  -18320   -18143   -17837   -18005   -18653   -19210   -19519   -20160 
  -21370   -22421   -22820   -23018   -23512   -24223   -24772   -25056 
  -25330   -25691   -26132   -26739   -27362   -27654   -27436   -26818 
  -26105   -25438   -24676   -23807   -23042   -22493   -22179   -22038 
  -21829   -21379   -20603   -19453   -18230   -17363   -16872   -16597 
  -16468   -16330   -16070   -15860   -15837   -15731   -15321   -14893 
  -14838   -15250   -15987   -16812   -17517   -17986   -18205   -18312 
  -18536   -18951   -19432   -19897   -20253   -20498   -20949   -21557 
  -21719   -21392   -21186   -21369   -21612   -21579   -21342   -21072 
  -20840   -20697   -20466   -20008   -19672   -19763   -20118   -20558 
  -21095   -21579   -21659   -21286   -20760   -20196   -19448   -18536 
  -17786   -17399   -17157   -16824   -16324   -15655   -15046   -14700 
  -14627   -14844   -15212   -15595   -16038   -16373   -16370   -16149 
  -15885   -15567   -15262   -15228   -15563   -16058   -16474   -16616 
  -16349   -15785   -15185   -14775   -14688   -14875   -15200   -15557 
  -15781   -15822   -15869   -15909   -15611   -14898   -14089   -13478 
  -13207   -13276   -13449   -13597   -13904   -14347   -14721   -15140 
  -15810   -16724   -17726   -18572   -19238   -19842   -20154   -20048 
  -19881   -19773   -19479   -19043   -18832   -19112   -19844   -20806 
  -21786   -22616   -23149   -23349   -23261   -22969   -22781   -22929 
  -23154   -23210   -23238   -23386   -23559   -23417   -22833   -22154 
  -21590   -21152   -21017   -21087   -21057   -21046   -21238   -21538 
  -21901   -22254   -22430   -22405   -22149   -21689   -21260   -20918 
  -20576   -20377   -20337   -20231   -20046   -19736   -19040   -18023 
  -16958   -16058   -15636   -15594   -15520   -15456   -15341   -14836 
  -14177   -13835   -13872   -14166   -14586   -15046   -15578   -16174 
  -16694   -16987   -16992   -16809   -16558   -16204   -15856   -15878 
  -16292   -16609   -16513   -16230   -16133   -16295   -16574   -16916 
  -17318   -17657   -17832   -17815   -17691   -17799   -18328   -19025 
  -19627   -20115   -20600   -21182   -21720   -21990   -22181   -22504 
  -22655   -22331   -21561   -20484   -19452   -18883   -18649   -18316 
  -17748   -17007   -16188   -15453   -14959   -14732   -14427   -13681 
  -12737   -11944   -11209   -10492   -10021    -9993   -10467   -11116 
  -11316   -10889   -10275    -9847    -9615    -9576    -9789   -10145 
  -10465   -10789   -11267   -11898   -12457   -12665   -12460   -12105 
  -11988   -12207   -12538   -12829   -13019   -13087   -13095   -12957 
  -12561   -12111   -11850   -11783   -11896   -12198   -12570   -12898 
  -13204   -13511   -13800   -14153   -14477   -14459   -14199   -14073 
  -14044   -13886   -13615   -13372   -13244   -13204   -13163   -13060 
  -12827   -12424   -11915   -11407   -11050   -11128   -11688   -12211 
  -12384   -12616   -13093   -13387   -13382   -13389   -13347   -12953 
  -12355   -11964   -11935   -12144   -12307   -12292   -12249   -12237 
  -12197   -12133   -11927   -11462   -10912   -10576   -10597   -10839 
  -11088   -11158   -10858   -10353    -9926    -9527    -9283    -9433 
   -9671    -9609    -9295    -8900    -8427    -7717    -6714    -5590 
   -4633    -4135    -4077    -4101    -3990    -3815    -3728    -3857 
   -4196    -4562    -4903    -5393    -6079    -6954    -8060    -9250 
  -10460   -11848   -13332   -14641   -15645   -16326   -16739   -16960 
  -16943   -16589   -16028   -15652   -15674   -15989   -16382   -16606 
  -16665   -16782   -16974   -17247   -17755   -18488   -19310   -20059 
  -20540   -20811   -21088   -21237   -21033   -20603   -20161   -19841 
  -19699   -19826   -20500   -21663   -22676   -23145   -23233   -23119 
  -22874   -22644   -22585   -22741   -23023   -23263   -23330   -23277 
  -23329   -23621   -23999   -24230   -24108   -23445   -22357   -21237 
  -20379   -19936   -19834   -19755   -19534   -19270   -19013   -18645 
  -18060   -17414   -17117   -17442   -18202   -19030   -19791   -20404 
  -20627   -20434   -20313   -20665   -21276   -21852   -22407   -22945 
  -23344   -23469   -23488   -23954   -25045   -26252   -27044   -27316 
  -27371   -27496   -27636   -27673   -27536   -27191   -26769   -26329 
  -25721   -24923   -24119   -23455   -22870   -22262   -21806   -21751 
  -21991   -22312   -22655   -22893   -22908   -22808   -22865   -23270 
  -23896   -24666   -25801   -27309   -28869   -30150   -30819   -30768 
  -30300   -29687   -28928   -28053   -27249   -26582   -25851   -24933 
  -24104   -23636   -23325   -22786   -22040   -21521   -21408   -21268 
  -20686   -19952   -19734   -20236   -21038   -21655   -21999   -22323 
  -22724   -22958   -22927   -22913   -23098   -23282   -23288   -23105 
  -22689   -22168   -21847   -21733   -21529   -21124   -20694   -20402 
  -20282   -20123   -19532   -18575   -17781   -17391   -17248   -17010 
  -16324   -15273   -14363   -13789   -13245   -12504   -11685   -10947 
  -10202    -9258    -8156    -7172    -6488    -6020    -5533    -4889 
   -4168    -3465    -2915    -2771    -2970    -3128    -3103    -3038 
   -3015    -3008    -3041    -3172    -3396    -3730    -4221    -4861 
   -5621    -6368    -6806    -6824    -6662    -6667    -7079    -7800 
   -8516    -9125    -9667   -10102   -10299   -10160    -9823    -9526 
   -9411    -9501    -9606    -9697   -10103   -10908   -11830   -12628 
  -13341   -14270   -15488   -16718   -17720   -18344   -18626   -18849 
  -19309   -20229   -21580   -23045   -24371   -25375   -25835   -25754 
  -25446   -25177   -24997   -24911   -24848   -24775   -24960   -25449 
  -25740   -25526   -25057   -24609   -24262   -24095   -24075   -23967 
  -23666   -23233   -22748   -22357   -22128   -21974   -21781   -21539 
  -21414   -21490   -21626   -21510   -20864   -19962   -19496   -19709 
  -20190   -20419   -20223   -19730   -19028   -18088   -17022   -16092 
  -15377   -14743   -14097   -13454   -12872   -12359   -11936   -11722 
  -11754   -11933   -12165   -12355   -12392   -12252   -12004   -11774 
  -11727   -11939   -12291   -12616   -12805   -12907   -13095   -13296 
  -13263   -12961   -12531   -12174   -12018   -11894   -11550   -11050 
  -10735   -10858   -11388   -12096   -12744   -13204   -13469   -13548 
  -13480   -13516   -13910   -14594   -15394   -16153   -16637   -16859 
  -17162   -17716   -18414   -19102   -19586   -19814   -19994   -20240 
  -20498   -20729   -20838   -20812   -20659   -20069   -18818   -17267 
  -15897   -14881   -14201   -13658   -13044   -12507   -12332   -12489 
  -12751   -12912   -12888   -12834   -12893   -13002   -13180   -13531 
  -13902   -14040   -13900   -13559   -13240   -13258   -13490   -13545 
  -13450   -13436   -13565   -13898   -14449   -15030   -15541   -16115 
  -16736   -17124   -17041   -16417   -15563   -14977   -14643   -14244 
  -13698   -13025   -12439   -12276   -12370   -12233   -11798   -11315 
  -10859   -10347    -9872    -9749   -10154   -11034   -12222   -13476 
  -14542   -15166   -15290   -15187   -15118   -15246   -15694   -16390 
  -17135   -17592   -17414   -16647   -15608   -14602   -13774   -12965 
  -11998   -10951   -10049    -9577    -9679   -10188   -10840   -11525 
  -12135   -12422   -12315   -12042   -11770   -11415   -10887   -10320 
   -9817    -9366    -9057    -8788    -8418    -8154    -8010    -7825 
   -7822    -8232    -8916    -9597   -10126   -10642   -11431   -12480 
  -13530   -14501   -15244   -15511   -15497   -15477   -15495   -15767 
  -16297   -16671   -16788   -16916   -17120   -17223   -17191   -17221 
  -17413   -17631   -17703   -17751   -18037   -18374   -18441   -18423 
  -18562   -18784   -18884   -18720   -18531   -18618   -18816   -18898 
  -18841   -18657   -18459   -18236   -17890   -17645   -17730   -17949 
  -17980   -17699   -17236   -16923   -16950   -17086   -17028   -16897 
  -16972   -17290   -17771   -18318   -18858   -19335   -19552   -19424 
  -19166   -19045   -19189   -19532   -19986   -20599   -21178   -21414 
  -21554   -22061   -22833   -23460   -23817   -24053   -24203   -24075 
  -23735   -23623   -24008   -24737   -25336   -25333   -24749   -23994 
  -23248   -22300   -21000   -19582   -18371   -17474   -16871   -16450 
  -16034   -15511   -14768   -13816   -12938   -12311   -11851   -11528 
  -11331   -11222   -11243   -11210   -10881   -10460   -10098    -9653 
   -9325    -9426    -9872   -10500   -11138   -11533   -11714   -11865 
  -11981   -12175   -12694   -13407   -13965   -14232   -14185   -13959 
  -13805   -13697   -13524   -13476   -13696   -13984   -14109   -14149 
  -14504   -15381   -16214   -16257   -15801   -15686   -15938   -16194 
  -16603   -17323   -18119   -18649   -18684   -18492   -18592   -18986 
  -19452   -20098   -21047   -22064   -22841   -23523   -24465   -25360 
  -25396   -24511   -23502   -22771   -22092   -21249   -20091   -18793 
  -17898   -17447   -17011   -16438   -15791   -15294   -15183   -15237 
  -15248   -15484   -15996   -16451   -16727   -16795   -16570   -16274 
  -16115   -15927   -15578   -15097   -14686   -14673   -14995   -15261 
  -15341   -15425   -15793   -16543   -17332   -17685   -17600   -17494 
  -17733   -18389   -19167   -19699   -20063   -20629   -21342   -21811 
  -21907   -21721   -21367   -20905   -20313   -19849   -19863   -20137 
  -20237   -20170   -20000   -19540   -18811   -18106   -17586   -17268 
  -17078   -16787   -16305   -15797   -15278   -14584   -13828   -13324 
  -13076   -12807   -12360   -11864   -11600   -11620   -11649   -11464 
  -11081   -10574    -9974    -9406    -9077    -9039    -9148    -9188 
   -9094    -9045    -9087    -9060    -9017    -9141    -9431    -9769 
  -10061   -10277   -10422   -10546   -10782   -11288   -12106   -13035 
  -13790   -14376   -15090   -16027   -16907   -17519   -17909   -18196 
  -18371   -18176   -17532   -16894   -16572   -16307   -15868   -15331 
  -14775   -14246   -13685   -12955   -12248   -11925   -11887   -11791 
  -11617   -11536   -11563   -11622   -11664   -11801   -12262   -13076 
  -14196   -15663   -17260   -18519   -19245   -19647   -20115   -21059 
  -22609   -24400   -26014   -27364   -28313   -28603   -28432   -28283 
  -28256   -28205   -28250   -28646   -29385   -30154   -30602   -30635 
  -30547   -30674   -31019   -31446   -31881   -32294   -32695   -32961 
  -33009   -33139   -33524   -33841   -33914   -33974   -34152   -34276 
  -34199   -33892   -33266   -32416   -31733   -31402   -31222   -30877 
  -30167   -29203   -28232   -27295   -26265   -25139   -24158   -23481 
  -22918   -22292   -21688   -21142   -20577   -19994   -19408   -18729 
  -17943   -17184   -16549   -16140   -16060   -16212   -16351   -16260 
  -15912   -15459   -15066   -14864   -14971   -15463   -16072   -16228 
  -15840   -15359   -15085   -14915   -14608   -14125   -13522   -12814 
  -12281   -12205   -12358   -12306   -11864   -11240   -10895   -10974 
  -11114   -11099   -11215   -11619   -11966   -12030   -12028   -12186 
  -12478   -12798   -13204   -13776   -14382   -14932   -15424   -15670 
  -15538   -15206   -14934   -14793   -14716   -14606   -14297   -13820 
  -13504   -13368   -13089   -12587   -11952   -11259   -10619    -9991 
   -9158    -8030    -6842    -5931    -5426    -5311    -5389    -5432 
   -5614    -6069    -6533    -7043    -7971    -9412   -11222   -13140 
  -14660   -15424   -15677   -15859   -16038   -16093   -16059   -16089 
  -16242   -16359   -16258   -15975   -15623   -15232   -14873   -14644 
  -14451   -14209   -14049   -14082   -14477   -15459   -16692   -17609 
  -18304   -19148   -20094   -20914   -21564   -22076   -22471   -22809 
  -23094   -23285   -23370   -23300   -23052   -22549   -21732   -20887 
  -20239   -19674   -19245   -19091   -19009   -18873   -18839   -18759 
  -18341   -17760   -17229   -16642   -16012   -15362   -14551   -13673 
  -12942   -12386   -12088   -12202   -12642   -13206   -13867   -14602 
  -15225   -15590   -15629   -15321   -14921   -14780   -14964   -15494 
  -16493   -17881   -19228   -20034   -20105   -19663   -19174   -19028 
  -19285   -19735   -20232   -20746   -21073   -21080   -21036   -21050 
  -20745   -19972   -19123   -18553   -18291   -18193   -18106   -18071 
  -18242   -18522   -18685   -18736   -18691   -18459   -18049   -17373 
  -16275   -15198   -14767   -14519   -14517   -15921   -17793   -18382 
  -17418   -16136   -16872   -18006   -17143   -16714   -16720   -15603 
  -14706   -13966   -13346   -13436   -13378   -13178   -13180   -13162 
  -13343   -13660   -14001   -14722   -15572   -15901   -15959   -16297 
  -16583   -16406   -16203   -16233   -15989   -15365   -14734   -14197 
  -13895   -13920   -14020   -14100   -14310   -14613   -14776   -14656 
  -14319   -13889   -13333   -12520   -11481   -10444    -9614    -9028 
   -8513    -7865    -7115    -6541    -6379    -6594    -6951    -7273 
   -7626    -8261    -9268   -10458   -11582   -12540   -13350   -13961 
  -14340   -14712   -15244   -15749   -15963   -15876   -15809   -16090 
  -16563   -16807   -16763   -16654   -16550   -16371   -16128   -15951 
  -15934   -16094   -16476   -17149   -17835   -17980   -17552   -17039 
  -16690   -16402   -16085   -15919   -16131   -16645   -17343   -18143 
  -18860   -19495   -20178   -20808   -21179   -21287   -21354   -21602 
  -21937   -22021   -21754   -21304   -20793   -20222   -19469   -18485 
  -17469   -16666   -16178   -15956   -15938   -16115   -16400   -16640 
  -16719   -16607   -16421   -16324   -16451   -16908   -17703   -18795 
  -20032   -20943   -21167   -20955   -20802   -20859   -20996   -21042 
  -20837   -20355   -19660   -18854   -18221   -17892   -17533   -16970 
  -16457   -16107   -15832   -15526   -15063   -14534   -14190   -14115 
  -14293   -14669   -15168   -15780   -16394   -16831   -17157   -17533 
  -17848   -17994   -18064   -18057   -17981   -17865   -17661   -17522 
  -17606   -17792   -17998   -18222   -18309   -18195   -18086   -18129 
  -18266   -18399   -18402   -18254   -17957   -17281   -16219   -15175 
  -14357   -13852   -13919   -14567   -15517   -16444   -16901   -16663 
  -16163   -16079   -16600   -17432   -18301   -19026   -19459   -19563 
  -19278   -18636   -17890   -17307   -17021   -16830   -16395   -15826 
  -15513   -15561   -15827   -16194   -16617   -17063   -17445   -17573 
  -17305   -16815   -16393   -15989   -15467   -15004   -14879   -15193 
  -15751   -16093   -15869   -15238   -14551   -13924   -13526   -13566 
  -13800   -13829   -13621   -13287   -12767   -11952   -10898    -9952 
   -9602    -9979   -10633   -11033   -10978   -10517    -9871    -9405 
   -9350    -9571    -9754    -9828   -10089   -10712   -11385   -11794 
  -11964   -11965   -11860   -11898   -12258   -12797   -13431   -14080 
  -14301   -13837   -12936   -11947   -11279   -11308   -12009   -12974 
  -13762   -14116   -14039   -13897   -14057   -14431   -14750   -14907 
  -14953   -14993   -15021   -14914   -14513   -13783   -12928   -12154 
  -11559   -11213   -11087   -11092   -11134   -11092   -10984   -10960 
  -11021   -11011   -10875   -10677   -10380    -9897    -9344    -8785 
   -8128    -7520    -7208    -7287    -7765    -8538    -9443   -10396 
  -11311   -11944   -11995   -11531   -11111   -11220   -11827   -12702 
  -13666   -14395   -14692   -14888   -15272   -15576   -15672   -15870 
  -16353   -17145   -18097   -18873   -19477   -20097   -20727   -21432 
  -22247   -23006   -23532   -23742   -23719   -23522   -23155   -22845 
  -22835   -23171   -23714   -24067   -24016   -23736   -23350   -22988 
  -22814   -22708   -22465   -22115   -21907   -22032   -22511   -23273 
  -23967   -24160   -23825   -23272   -22843   -22556   -22100   -21428 
  -20777   -20318   -20091   -19881   -19511   -19047   -18302   -17119 
  -15896   -14858   -13771   -12686   -11891   -11381   -11086   -11023 
  -11040   -11029   -11127   -11368   -11609   -11834   -12060   -12250 
  -12493   -12811   -13084   -13406   -13906   -14418   -14741   -14790 
  -14452   -13685   -12662   -11741   -11261   -11122   -10916   -10558 
  -10201    -9849    -9331    -8583    -7961    -7742    -7725    -7884 
   -8440    -9347   -10500   -11867   -13255   -14545   -15730   -16582 
