Origin Time       2011/03/11 14:46:00
Lat.              38.103
Long.             142.860
Depth. (km)       24
Mag.              9.0
Station Code      HKD103
Station Lat.      42.7275
Station Long.     142.2973
Station Height(m) 86
Record Time       2011/03/11 14:48:02
Sampling Freq(Hz) 100Hz
Duration Time(s)  300
Dir.              E-W
Scale Factor      3920(gal)/6182761
Max. Acc. (gal)   24.629
Last Correction   2011/03/11 14:47:47
Memo.             
[...]
   -5906    -6651    -7308    -7827    -8130    -8133    -7753    -6918 
   -5613    -3891    -1811      582     3213     5969     8730    11320 
   13494    15014    15730    15630    14818    13494    11921    10341 
    8919     7744     6826     6096     5391     4493     3240     1604 
    -288    -2238    -4079    -5691    -6998    -7943    -8471    -8537 
   -8129    -7301    -6187    -4934    -3636    -2351    -1155     -105 
     797     1556     2129     2400     2204     1378     -148    -2281 
   -4787    -7395    -9913   -12237   -14281   -15951   -17154   -17810 
  -17834   -17161   -15809   -13870   -11475    -8803    -6081    -3520 
   -1214      833     2600     4081     5322     6400     7407     8390 
    9304    10083    10625    10783    10494     9852     9055     8297 
    7656     7116     6637     6152     5588     4906     4090     3121 
    1965      613     -850    -2293    -3599    -4659    -5380    -5751 
   -5881    -5924    -5969    -6060    -6225    -6378    -6334    -5924 
   -5056    -3718    -1977        5     1960     3608     4829     5669 
    6243     6716     7214     7723     8191     8573     8713     8391 
    7500     6048     4158     2070       28    -1775    -3193    -4193 
   -4853    -5241    -5354    -5168    -4670    -3842    -2665    -1162 
     576     2432     4301     6089     7738     9217    10484    11465 
   12103    12409    12442    12216    11691    10863     9770     8455 
    6955     5334     3728     2302     1143      276     -298     -652 
    -915    -1194    -1580    -2167    -3001    -4052    -5279    -6649 
   -8094    -9500   -10734   -11687   -12319   -12639   -12693   -12632 
  -12643   -12819   -13141   -13523   -13858   -14039   -13982   -13636 
  -12977   -12010   -10791    -9439    -8092    -6865    -5838    -5045 
   -4441    -3955    -3537    -3158    -2804    -2461    -2116    -1820 
   -1673    -1747    -2046    -2535    -3175    -3924    -4702    -5413 
   -5964    -6299    -6440    -6464    -6455    -6460    -6489    -6542 
   -6594    -6567    -6412    -6150    -5835    -5532    -5305    -5188 
   -5176    -5241    -5333    -5363    -5211    -4772    -4011    -2989 
   -1837     -695      344     1232     1951     2542     3114     3750 
    4471     5273     6124     6946     7667     8262     8698     8926 
    8912     8690     8368     8072     7893     7878     8041     8329 
    8616     8754     8576     7924     6735     5064     3064      983 
    -903    -2375    -3361    -3950    -4282    -4459    -4539    -4540 
   -4477    -4383    -4274    -4108    -3817    -3361    -2745    -2015 
   -1250     -525      123      679     1144     1527     1803     1928 
    1843     1537     1071      512      -96     -690    -1193    -1549 
   -1763    -1924    -2179    -2639    -3295    -4028    -4714    -5297 
   -5754    -6030    -6052    -5788    -5254    -4467    -3427    -2248 
   -1107      -23     1037     2015     2841     3397     3542     3262 
    2669     1919     1153      515      115       -4      148      520 
    1032     1620     2264     2992     3813     4676     5505     6258 
    6946     7585     8133     8501     8617     8447     7973     7158 
    5942     4278     2178     -218    -2658    -4869    -6660    -7970 
   -8850    -9390    -9697    -9906   -10184   -10700   -11542   -12664 
  -13931   -15209   -16411   -17490   -18425   -19231   -19941   -20538 
  -20989   -21297   -21427   -21274   -20752   -19833   -18504   -16759 
  -14620   -12150    -9463    -6714    -4084    -1762      142     1645 
    2825     3740     4462     5071     5584     6000     6369     6719 
    6998     7099     6943     6532     5916     5166     4399     3753 
    3294     2994     2787     2609     2376     2012     1468      741 
    -134    -1076    -1939    -2535    -2712    -2406    -1630     -498 
     811     2155     3429     4501     5207     5364     4789     3355 
    1031    -2085    -5760    -9687   -13510   -16866   -19516   -21382 
  -22456   -22749   -22303   -21221   -19680   -17875   -15941   -13986 
  -12094   -10219    -8231    -6076    -3832    -1671      181     1517 
    2247     2393     2023     1199      -17    -1506    -3098    -4656 
   -6120    -7473    -8720    -9866   -10913   -11864   -12644   -13094 
  -13078   -12527   -11456   -10008    -8429    -6958    -5700    -4629 
   -3711    -2951    -2343    -1871    -1568    -1502    -1689    -2096 
   -2668    -3280    -3780    -4077    -4150    -4022    -3739    -3364 
   -2949    -2502    -2013    -1485     -936     -389       84      385 
     490      412      126     -409    -1257    -2469    -4011    -5759 
   -7549    -9223   -10664   -11816   -12669   -13259   -13681   -14024 
  -14287   -14398   -14251   -13758   -12919   -11784   -10373    -8736 
   -6983    -5201    -3398    -1580      188     1812     3220     4348 
    5148     5641     5955     6246     6565     6853     7069     7189 
    7172     7031     6845     6658     6454     6174     5789     5330 
    4777     4079     3306     2547     1804     1103      500       14 
    -378     -725    -1053    -1325    -1511    -1627    -1726    -1892 
   -2219    -2827    -3823    -5184    -6808    -8594   -10430   -12214 
  -13797   -14963   -15551   -15430   -14540   -12991   -11010    -8823 
   -6574    -4364    -2305     -492     1030     2278     3305     4181 
    5020     5944     6988     8104     9236    10314    11221    11847 
   12150    12119    11765    11163    10430     9661     8906     8178 
    7498     6912     6471     6241     6307     6699     7342     8108 
    8858     9468     9824     9879     9681     9326     8891     8416 
    7941     7524     7213     7042     7027     7131     7270     7314 
    7103     6523     5534     4165     2547      882     -643    -1907 
   -2902    -3705    -4368    -4851    -5104    -5148    -5008    -4616 
   -3932    -3067    -2139    -1208     -354      299      630      626 
     359     -141     -825    -1542    -2159    -2689    -3236    -3874 
   -4665    -5738    -7194    -8966   -10886   -12792   -14486   -15718 
  -16316   -16236   -15474   -14030   -11993    -9584    -7073    -4655 
   -2473     -689      621     1542     2192     2602     2779     2768 
    2632     2396     2070     1713     1397     1146      998     1082 
    1523     2291     3234     4189     5005     5563     5803     5745 
    5449     4939     4243     3441     2577     1618      576     -388 
   -1055    -1283    -1025     -292      855     2287     3834     5388 
    6892     8245     9359    10236    10939    11530    12056    12555 
   12996    13245    13207    12894    12371    11730    11130    10812 
   10995    11771    13100    14882    16972    19134    21060    22491 
   23281    23344    22696    21525    20051    18397    16630    14785 
   12854    10826     8790     6939     5461     4475     4037     4135 
    4661     5495     6544     7544     8205     8527     8522     8229 
    7899     7573     7197     6875     6483     5773     4720     3359 
    1698     -246    -2391    -4538    -6508    -8240    -9665   -10737 
  -11607   -12521   -13582   -14725   -15828   -16784   -17449   -17644 
  -17289   -16444   -15199   -13634   -11943   -10387    -9072    -7924 
   -6865    -5841    -4775    -3600    -2329    -1088       15      954 
    1636     1920     1792     1333      642     -124     -728     -982 
    -887     -595     -262        7      140      104      -46     -206 
    -306     -266       61      759     1753     2884     4010     4995 
    5707     6039     5935     5449     4751     4036     3465     3136 
    3076     3275     3713     4349     5126     5997     6932     7871 
    8732     9508    10239    10902    11407    11664    11604    11233 
   10655    10048     9616     9520     9805    10378    11048    11567 
   11748    11589    11207    10763    10437    10346    10483    10774 
   11065    11119    10719     9749     8259     6481     4742     3350 
    2509     2273     2536     3080     3677     4153     4413     4462 
    4358     4150     3849     3423     2825     2074     1214      254 
    -790    -1880    -2949    -3895    -4664    -5302    -5903    -6554 
   -7305    -8132    -8934    -9585    -9968    -9980    -9557    -8723 
   -7628    -6469    -5381    -4438    -3702    -3193    -2896    -2823 
   -2951    -3158    -3314    -3381    -3407    -3449    -3585    -3912 
   -4464    -5167    -5869    -6407    -6707    -6829    -6890    -6960 
   -7041    -7131    -7232    -7279    -7198    -7026    -6852    -6648 
   -6299    -5766    -5105    -4348    -3528    -2770    -2247    -2034 
   -2084    -2357    -2832    -3356    -3678    -3641    -3230    -2479 
   -1463     -377      535     1121     1341     1170      599     -279 
   -1288    -2300    -3230    -3963    -4400    -4549    -4507    -4376 
   -4247    -4231    -4386    -4632    -4819    -4876    -4843    -4790 
   -4760    -4745    -4687    -4552    -4387    -4288    -4274    -4220 
   -4025    -3720    -3302    -2711    -1960    -1108      -83     1284 
    3044     5110     7309     9480    11586    13587    15397    16980 
   18251    19058    19274    18817    17727    16185    14405    12541 
   10675     8835     6991     5097     3098      877    -1644    -4384 
   -7172    -9782   -11956   -13487   -14230   -14160   -13431   -12283 
  -10912    -9488    -8175    -7039    -6034    -5111    -4204    -3184 
   -1968     -563      967     2500     3943     5273     6469     7513 
    8406     9137     9721    10241    10809    11493    12295    13145 
   13896    14435    14796    15076    15338    15601    15847    16043 
   16178    16267    16321    16340    16305    16163    15872    15417 
   14792    14022    13196    12409    11689    10979    10188     9239 
    8090     6761     5308     3862     2638     1809     1420     1414 
    1690     2150     2749     3449     4151     4702     4961     4856 
    4426     3781     3036     2328     1794     1513     1496     1707 
    2030     2293     2362     2188     1780     1145      286     -784 
   -2042    -3504    -5265    -7426   -10014   -12955   -16078   -19165 
  -22009   -24387   -26112   -27119   -27436   -27135   -26356   -25269 
  -24058   -22932   -22065   -21534   -21313   -21271   -21218   -20972 
  -20386   -19369   -17891   -15959   -13592   -10874    -7986    -5108 
   -2370      163     2485     4604     6521     8200     9515    10324 
   10585    10321     9580     8495     7232     5934     4737     3732 
    2932     2336     1923     1637     1406     1138      763      314 
    -112     -419     -526     -395      -68      365      799     1124 
    1277     1241      983      449     -393    -1533    -2902    -4380 
   -5828    -7117    -8142    -8849    -9271    -9480    -9549    -9569 
   -9620    -9753    -9970   -10189   -10266   -10060    -9485    -8548 
   -7355    -6064    -4857    -3901    -3317    -3144    -3293    -3566 
   -3733    -3626    -3186    -2464    -1606     -798     -177      214 
     401      462      516      707     1193     2070     3329     4879 
    6588     8324     9992    11540    12963    14295    15570    16821 
   18103    19445    20821    22158    23323    24193    24752    25043 
   25071    24810    24235    23320    22079    20609    19026    17414 
   15868    14490    13331    12373    11551    10785     9997     9078 
    7876     6251     4173     1803     -604    -2841    -4767    -6314 
   -7512    -8445    -9170    -9700   -10030   -10170   -10140    -9964 
   -9656    -9214    -8640    -7979    -7328    -6788    -6420    -6212 
   -6114    -6106    -6180    -6279    -6312    -6170    -5734    -4937 
   -3811    -2444     -948      528     1802     2708     3155     3165 
    2829     2258     1566      855      197     -378     -847    -1213 
   -1576    -2091    -2835    -3784    -4838    -5874    -6764    -7384 
   -7698    -7791    -7766    -7722    -7733    -7808    -7892    -7942 
   -7989    -8103    -8344    -8761    -9377   -10162   -11034   -11909 
  -12693   -13235   -13402   -13189   -12674   -11937   -11055   -10103 
   -9119    -8116    -7138    -6252    -5497    -4843    -4231    -3623 
   -3005    -2365    -1712    -1073     -466      124      732     1408 
    2190     3092     4085     5093     6042     6901     7653     8249 
    8636     8774     8617     8132     7364     6423     5424     4470 
    3655     3068     2786     2810     3081     3510     3947     4206 
    4166     3778     3020     1902      519     -945    -2299    -3428 
   -4286    -4866    -5194    -5270    -5048    -4555    -3871    -3034 
   -2126    -1223     -280      711     1689     2616     3378     3828 
    3916     3683     3192     2513     1753     1050      541      317 
     379      667     1078     1474     1771     1963     2062     2080 
    2072     2077     2126     2252     2411     2597     2858     3195 
    3624     4137     4630     5039     5327     5442     5393     5139 
    4542     3583     2362      971     -458    -1766    -2860    -3732 
   -4455    -5140    -5838    -6538    -7230    -7915    -8598    -9245 
   -9759   -10036    -9982    -9512    -8647    -7497    -6157    -4707 
   -3202    -1714     -334      975     2367     3887     5409     6788 
    7967     8898     9516     9839     9978    10071    10252    10612 
   11190    11952    12803    13644    14410    15090    15705    16316 
   17037    17981    19214    20783    22730    25094    27805    30628 
   33323    35709    37512    38543    38826    38410    37393    35946 
   34223    32377    30562    28968    27738    26804    25988    25199 
   24511    23996    23607    23424    23596    24059    24644    25175 
   25420    25214    24455    23096    21237    19053    16742    14507 
   12495    10787     9414     8407     7799     7514     7388     7290 
    7089     6619     5776     4609     3274     1907      564     -731 
   -2005    -3336    -4752    -6195    -7597    -8966   -10347   -11728 
  -13035   -14213   -15237   -16063   -16658   -17048   -17275   -17343 
  -17292   -17194   -17083   -16948   -16778   -16571   -16336   -16064 
  -15711   -15257   -14716   -14116   -13508   -12969   -12574   -12351 
  -12278   -12323   -12458   -12653   -12860   -13042   -13183   -13259 
  -13251   -13154   -12974   -12741   -12514   -12331   -12173   -11989 
  -11715   -11244   -10461    -9385    -8135    -6756    -5288    -3865 
   -2591    -1495     -577      206      914     1609     2327     3057 
    3751     4369     4925     5475     6053     6645     7185     7566 
    7686     7518     7108     6519     5791     4977     4171     3451 
    2862     2397     1932     1297      374     -918    -2560    -4415 
   -6356    -8297   -10107   -11594   -12611   -13154   -13317   -13205 
  -12887   -12374   -11666   -10799    -9839    -8888    -8045    -7349 
   -6816    -6440    -6132    -5753    -5184    -4355    -3212    -1738 
     -17     1746     3296     4433     5108     5407     5439     5265 
    4868     4157     3095     1796      445     -822    -1958    -2995 
   -3993    -4992    -6018    -7080    -8134    -9143   -10110   -11002 
  -11770   -12406   -12898   -13214   -13367   -13411   -13418   -13441 
  -13483   -13535   -13561   -13433   -12992   -12183   -11080    -9812 
   -8531    -7352    -6326    -5422    -4487    -3333    -1878      -98 
    1975     4179     6267     8011     9253     9965    10276    10407 
   10559    10820    11198    11684    12193    12566    12676    12443 
   11866    11060    10180     9328     8545     7836     7170     6492 
    5769     5029     4307     3530     2514     1165     -469    -2323 
   -4288    -6168    -7779    -9014    -9844   -10245   -10135    -9496 
   -8457    -7179    -5783    -4391    -3094    -1900     -785      228 
    1044     1572     1807     1825     1744     1739     2049     2823 
    4061     5700     7630     9663    11601    13337    14850    16085 
   16936    17380    17467    17184    16510    15495    14251    12906 
   11574    10372     9393     8632     8011     7414     6717     5847 
    4839     3805     2883     2186     1736     1415     1022      403 
    -523    -1788    -3362    -5195    -7261    -9485   -11734   -13856 
  -15684   -17094   -18039   -18550   -18679   -18437   -17849   -17034 
  -16102   -15108   -14132   -13277   -12607   -12100   -11664   -11234 
  -10819   -10451   -10197   -10152   -10338   -10685   -11128   -11637 
  -12174   -12722   -13299   -13914   -14506   -14953   -15151   -15025 
  -14541   -13709   -12560   -11171    -9637    -7993    -6259    -4474 
   -2643     -776     1040     2657     4003     5096     5932     6494 
    6758     6703     6393     5874     5115     4149     3022     1805 
     672     -234     -818     -970     -669        1      940     2028 
    3128     4201     5278     6349     7419     8560     9782    10984 
   12048    12885    13395    13537    13314    12773    12110    11444 
   10744    10136     9645     9058     8314     7424     6335     5096 
    3797     2478     1182        1     -908    -1515    -1898    -2016 
   -1776    -1170     -212     1067     2561     4133     5676     7077 
    8199     8955     9305     9261     8894     8317     7690     7189 
    6940     6937     7038     7087     6972     6665     6240     5761 
    5218     4577     3795     2811     1553      -53    -2005    -4206 
   -6530    -8872   -11146   -13257   -15115   -16679   -17951   -18936 
  -19647   -20138   -20466   -20666   -20762   -20754   -20586   -20166 
  -19448   -18488   -17409   -16309   -15245   -14270   -13458   -12888 
  -12603   -12580   -12763   -13091   -13488   -13873   -14176   -14312 
  -14194   -13799   -13201   -12526   -11916   -11525   -11479   -11810 
  -12462   -13334   -14314   -15278   -16113   -16766   -17235   -17505 
  -17539   -17336   -16967   -16527   -16085   -15659   -15236   -14796 
  -14300   -13720   -13065   -12302   -11328   -10078    -8584    -6944 
   -5246    -3529    -1797      -34     1800     3743     5783     7827 
    9713    11236    12220    12581    12289    11336     9788     7835 
    5732     3727     2058      919      371      361      824     1694 
    2817     3996     5087     5998     6668     7107     7414     7737 
    8188     8789     9500    10236    10865    11267    11444    11463 
   11371    11233    11157    11197    11289    11315    11183    10851 
   10297     9557     8744     7948     7186     6493     5914     5429 
    5035     4786     4722     4859     5178     5614     6108     6642 
    7203     7738     8158     8422     8604     8812     9090     9421 
    9743     9929     9855     9491     8914     8257     7644     7197 
    7031     7178     7583     8152     8784     9373     9763     9771 
    9316     8450     7308     6091     5028     4280     3874     3730 
    3718     3680     3461     2982     2289     1518      817      294 
       8      -73      -68      -86     -188     -377     -587     -726 
    -696     -392      228     1118     2185     3292     4277     5013 
    5391     5341     4883     4087     3053     1897      695     -491 
   -1545    -2365    -2925    -3242    -3383    -3492    -3703    -4045 
   -4461    -4846    -5083    -5101    -4883    -4511    -4160    -3927 
   -3752    -3540    -3266    -2929    -2518    -2032    -1464     -792 
