Origin Time       2011/03/11 14:46:00
Lat.              38.103
Long.             142.860
Depth. (km)       24
Mag.              9.0
Station Code      HKD160
Station Lat.      41.7700
Station Long.     140.7383
Station Height(m) 4
Record Time       2011/03/11 14:47:48
Sampling Freq(Hz) 100Hz
Duration Time(s)  300
Dir.              U-D
Scale Factor      3920(gal)/6182761
Max. Acc. (gal)   9.619
Last Correction   2011/03/11 14:47:33
Memo.             
[...]
  -12659   -13088   -14333   -16185   -17807   -18371   -17732   -16663 
  -16636   -18144   -19506   -19619   -19560   -19148   -17429   -16208 
  -16944   -18313   -19192   -19069   -17107   -14281   -13135   -13835 
  -14472   -14268   -13098   -10530    -7140    -4620    -3887    -4341 
   -4591    -3563    -1438      654     1547      851     -716    -1887 
   -1488       53      833      504     -475    -2595    -4602    -4832 
   -4644    -4967    -4766    -4393    -4509    -4181    -2999    -1943 
   -1585    -1286     -661     -286     -276       54      872     1355 
     556    -1329    -2727    -2405    -1179     -902    -2171    -4111 
   -5794    -6913    -7482    -7614    -7705    -8268    -9358   -10733 
  -11741   -11430   -10931   -12197   -13530   -13161   -12834   -12772 
  -11997   -12048   -13538   -15062   -15796   -15172   -13604   -12862 
  -13482   -14534   -15491   -16094   -15510   -13363   -11077   -10702 
  -12375   -14101   -14124   -12559   -10659    -9575    -9765   -10394 
  -10271    -9744    -9869   -10314    -9634    -7638    -6249    -6660 
   -7718    -8071    -7237    -5537    -4539    -5147    -5774    -5105 
   -3976    -3040    -2005    -1148    -1090    -1263     -593      433 
     810      940     1210     1075      652      544      399     -191 
    -765     -943     -911    -1282    -2682    -4682    -5687    -4635 
   -3057    -3903    -7058    -9106    -8196    -6081    -5294    -6046 
   -7107    -7874    -8222    -8374    -8273    -7430    -7007    -8663 
  -11093   -11743   -10598    -9462    -9376   -10565   -12473   -13398 
  -12929   -12651   -12807   -12290   -11455   -11310   -11618   -11764 
  -11695   -11369   -10807   -10566   -11158   -12102   -12221   -11349 
  -10701   -10957   -11405   -11280   -10780   -10417   -10251   -10202 
  -10317   -10475   -10484   -10681   -11563   -12425   -11998   -10586 
   -9560    -9564   -10539   -11925   -12594   -11988   -10753    -9767 
   -9561   -10192   -10857   -10746   -10020    -9146    -8550    -8572 
   -8712    -8055    -6927    -6822    -7998    -8528    -7092    -5105 
   -4586    -5741    -7250    -7729    -6875    -5361    -4029    -3197 
   -2673    -2477    -2631    -2713    -2243    -1020      515     1395 
    1072      -88    -1058    -1086     -687     -809    -1351    -1770 
   -2131    -2499    -2565    -2316    -2335    -3107    -4023    -3993 
   -3161    -2588    -2633    -2773    -2554    -2104    -1596    -1064 
   -1103    -2108    -3250    -3814    -4094    -4299    -4469    -5006 
   -5969    -6780    -6999    -6827    -6983    -7675    -7999    -7486 
   -6928    -6659    -6289    -6288    -7157    -7935    -7836    -7675 
   -8326    -9521   -10538   -11069   -11301   -11359   -11254   -11377 
  -12021   -12874   -13472   -13497   -12905   -12216   -12065   -12215 
  -11929   -11312   -10887   -10508    -9946    -9495    -9400    -9554 
   -9834   -10158   -10327   -10148    -9716    -9488    -9427    -9025 
   -8763    -9081    -9090    -8721    -8938    -9570    -9827    -9577 
   -9045    -8376    -7839    -7823    -7963    -7478    -6539    -5907 
   -5977    -6652    -7375    -7703    -7692    -7571    -7888    -9055 
  -10270   -10567   -10240    -9863    -9488    -9233    -9218    -9163 
   -8776    -8137    -7593    -7572    -8136    -8635    -8525    -8142 
   -8021    -8280    -8936    -9973   -11145   -12168   -13029   -13857 
  -14671   -15440   -16182   -16927   -17570   -17821   -17525   -16906 
  -16286   -15674   -14768   -13529   -12526   -12081   -11745   -11292 
  -11106   -11291   -11298   -10701   -10014   -10005   -10263    -9787 
   -8649    -7484    -6338    -5231    -4547    -4163    -3251    -1529 
      67      707      716      800     1077     1231     1168      916 
     354     -304     -605     -599     -613     -759     -933     -916 
    -640     -157      394      570      271      168      609     1027 
    1005      922     1108     1291     1329     1521     1817     1780 
    1346      852      541      355      212      181       43     -554 
   -1260    -1604    -1982    -2592    -2824    -2734    -3157    -4256 
   -5510    -6479    -6964    -7007    -6881    -6948    -7429    -8148 
   -8552    -8248    -7683    -7686    -8311    -9020    -9468    -9447 
   -8884    -8179    -8010    -8670    -9650   -10118    -9843    -9327 
   -9169    -9694   -10854   -12120   -12818   -12809   -12611   -12694 
  -13040   -13464   -13843   -14040   -14026   -13990   -14139   -14490 
  -15023   -15698   -16201   -16339   -16480   -16893   -17330   -17652 
  -17875   -17890   -17911   -18336   -18956   -19315   -19433   -19482 
  -19551   -19795   -20105   -20116   -19888   -19773   -19741   -19641 
  -19449   -19019   -18444   -18132   -18081   -17862   -17227   -16355 
  -15486   -14579   -13608   -12707   -11813   -10782    -9795    -9214 
   -9091    -9190    -9302    -9277    -9144    -9163    -9468    -9898 
  -10262   -10504   -10629   -10674   -10615   -10354   -10024    -9899 
   -9854    -9653    -9367    -9062    -8715    -8436    -8319    -8334 
   -8490    -8810    -9145    -9426    -9848   -10358   -10597   -10537 
  -10474   -10452   -10304   -10084   -10025   -10067    -9865    -9338 
   -8684    -7934    -7107    -6373    -5724    -4980    -4161    -3423 
   -2790    -2248    -1946    -2028    -2334    -2566    -2648    -2619 
   -2521    -2534    -2789    -3156    -3465    -3698    -3865    -3967 
   -4048    -4050    -3860    -3553    -3334    -3364    -3640    -3995 
   -4198    -4201    -4303    -4682    -5153    -5587    -5913    -6106 
   -6371    -6695    -6776    -6707    -6718    -6653    -6553    -6855 
   -7566    -8222    -8705    -9228    -9814   -10420   -11021   -11500 
  -11905   -12336   -12626   -12637   -12371   -11818   -11195   -10749 
  -10271    -9641    -9191    -8954    -8681    -8444    -8358    -8400 
   -8620    -8997    -9492   -10109   -10574   -10647   -10647   -10754 
  -10618   -10257   -10096   -10013    -9626    -9070    -8551    -7986 
   -7448    -7151    -7061    -6998    -6933    -7049    -7447    -8000 
   -8593    -9181    -9637    -9893   -10073   -10276   -10461   -10541 
  -10463   -10316   -10243   -10298   -10487   -10680   -10681   -10526 
  -10335   -10180   -10180   -10209   -10119   -10108   -10194   -10297 
  -10685   -11358   -11935   -12295   -12454   -12416   -12342   -12337 
  -12399   -12589   -12726   -12456   -11945   -11689   -11795   -12127 
  -12562   -12801   -12651   -12352   -12222   -12330   -12604   -12974 
  -13388   -13722   -13889   -14066   -14483   -15046   -15485   -15722 
  -15777   -15589   -15276   -15116   -15054   -14823   -14468   -14253 
  -14158   -13999   -13902   -14078   -14369   -14572   -14719   -14687 
  -14218   -13416   -12642   -12027   -11411   -10593    -9632    -8817 
   -8254    -7848    -7516    -7120    -6534    -5866    -5330    -4956 
   -4616    -4246    -3839    -3311    -2588    -1842    -1234     -617 
     -61       66      -82      -50       88       74      -42     -245 
    -593     -960    -1300    -1803    -2452    -3006    -3496    -4052 
   -4515    -4844    -5254    -5606    -5590    -5411    -5413    -5597 
   -5896    -6209    -6347    -6274    -6108    -6027    -6139    -6264 
   -6257    -6274    -6396    -6477    -6497    -6730    -7390    -8233 
   -8773    -8801    -8562    -8457    -8618    -8953    -9321    -9542 
   -9657    -9940   -10450   -10950   -11155   -10935   -10481   -10039 
   -9711    -9639    -9836   -10093   -10299   -10339   -10139   -10007 
  -10076   -10017    -9842    -9841   -10019   -10247   -10202    -9635 
   -8906    -8420    -8198    -8154    -8097    -7895    -7667    -7465 
   -7268    -7215    -7400    -7745    -8099    -8242    -8066    -7730 
   -7423    -7308    -7575    -7970    -7993    -7763    -7728    -7942 
   -8236    -8486    -8562    -8439    -8189    -7756    -7150    -6601 
   -6145    -5546    -4780    -4097    -3633    -3326    -3174    -3301 
   -3680    -4105    -4675    -5664    -6717    -7275    -7619    -8265 
   -8972    -9332    -9424    -9435    -9418    -9367    -9229    -8930 
   -8393    -7682    -7028    -6519    -6121    -5818    -5542    -5380 
   -5537    -5903    -6164    -6117    -5738    -5238    -4879    -4788 
   -4998    -5403    -5862    -6266    -6508    -6682    -6962    -7093 
   -6686    -5917    -5242    -4771    -4232    -3438    -2685    -2201 
   -1692    -1177    -1024    -1046     -889     -585     -201      113 
     170      160      127     -207     -716    -1125    -1588    -2257 
   -2914    -3266    -3205    -2960    -3037    -3614    -4328    -4909 
   -5453    -6197    -7212    -8138    -8610    -8877    -9383   -10091 
  -10722   -11201   -11543   -11719   -11735   -11665   -11627   -11716 
  -11889   -11996   -11943   -11680   -11191   -10632   -10169    -9829 
   -9599    -9476    -9500    -9654    -9860   -10138   -10477   -10652 
  -10461   -10123   -10084   -10451   -10974   -11395   -11693   -11945 
  -12098   -12165   -12202   -12095   -11868   -11684   -11453   -10965 
  -10219    -9497    -9133    -9181    -9569   -10282   -11085   -11438 
  -11263   -11347   -12067   -12831   -13190   -13291   -13374   -13383 
  -13249   -13024   -12596   -12026   -11456   -10760   -10016    -9515 
   -9366    -9407    -9404    -9390    -9424    -9325    -9193    -9224 
   -9183    -9061    -8992    -8686    -8118    -7608    -7264    -7129 
   -7153    -7054    -6579    -5771    -4969    -4383    -3904    -3422 
   -2955    -2713    -2830    -2785    -2173    -1731    -2114    -2790 
   -3174    -3368    -3586    -3873    -4161    -4431    -4707    -4863 
   -4863    -4828    -4741    -4668    -4780    -4850    -4597    -4259 
   -4097    -4051    -4081    -4334    -4997    -5998    -7015    -7846 
   -8575    -9259    -9709    -9833    -9784    -9664    -9514    -9316 
   -8927    -8371    -7915    -7637    -7272    -6611    -5756    -4862 
   -4015    -3291    -2624    -1931    -1278     -609      189      943 
    1434     1733     2096     2572     2809     2658     2553     2828 
    3349     3881     4229     4326     4358     4550     4942     5393 
    5598     5292     4709     4341     4088     3577     2948     2352 
    1632      899      387     -118     -931    -1862    -2631    -3393 
   -4212    -4881    -5575    -6545    -7487    -8031    -8250    -8372 
   -8508    -8672    -8900    -9289    -9833   -10555   -11713   -13250 
  -14705   -15891   -16882   -17638   -18145   -18497   -18651   -18519 
  -18169   -17664   -17054   -16483   -15944   -15299   -14582   -13841 
  -13075   -12463   -11993   -11248   -10096    -8931    -8073    -7475 
   -6922    -6199    -5325    -4586    -4135    -3918    -3937    -4105 
   -4173    -4014    -3788    -3733    -3756    -3596    -3369    -3364 
   -3649    -4134    -4620    -4941    -5102    -5257    -5664    -6399 
   -7176    -7705    -8033    -8425    -9015    -9557    -9651    -9400 
   -9349    -9544    -9634    -9620    -9547    -9256    -8881    -8789 
   -9162    -9912   -10715   -11376   -12132   -13119   -14022   -14713 
  -15378   -15971   -16335   -16526   -16677   -16885   -17164   -17408 
  -17548   -17651   -17695   -17565   -17329   -16986   -16295   -15350 
  -14611   -14131   -13597   -13084   -12885   -12799   -12475   -12120 
  -11952   -11679   -11196   -10733   -10185    -9329    -8347    -7407 
   -6412    -5517    -5025    -4753    -4413    -4180    -4171    -4118 
   -3883    -3664    -3708    -3967    -4164    -4234    -4315    -4426 
   -4500    -4468    -4335    -4248    -4198    -4013    -3750    -3553 
   -3434    -3413    -3543    -3805    -4105    -4411    -4748    -5084 
   -5505    -6116    -6602    -6626    -6361    -6068    -5856    -5857 
   -6009    -6161    -6297    -6297    -6149    -5964    -5628    -5147 
   -4714    -4429    -4379    -4550    -4882    -5319    -5606    -5665 
   -5691    -5692    -5651    -5606    -5366    -4897    -4508    -4365 
   -4440    -4677    -5000    -5395    -5798    -6099    -6312    -6512 
   -6809    -7318    -7986    -8767    -9664   -10500   -11211   -11951 
  -12623   -13020   -13222   -13293   -13145   -12834   -12528   -12242 
  -11943   -11721   -11506   -11107   -10632   -10214    -9743    -9205 
   -8719    -8212    -7550    -6969    -6700    -6461    -6080    -5809 
   -5709    -5658    -5724    -5998    -6325    -6531    -6701    -6845 
   -6889    -7003    -7224    -7297    -7200    -7103    -6964    -6726 
   -6526    -6335    -6013    -5780    -5794    -5716    -5437    -5294 
   -5296    -5316    -5541    -5939    -6325    -6698    -6938    -7160 
   -7714    -8358    -8718    -8842    -8714    -8375    -8008    -7538 
   -6825    -5875    -4818    -3868    -3008    -2045     -929      230 
    1217     1894     2441     2988     3334     3436     3460     3318 
    3005     2820     2742     2509     2162     1847     1539     1158 
     635       31     -459     -830    -1319    -2056    -2978    -4025 
   -5180    -6432    -7726    -9009   -10324   -11628   -12720   -13572 
  -14369   -15134   -15728   -16113   -16390   -16732   -17115   -17274 
  -17236   -17214   -17143   -17070   -17295   -17757   -18133   -18426 
  -18758   -18989   -18973   -18813   -18717   -18691   -18545   -18336 
  -18300   -18381   -18406   -18267   -17753   -16825   -15823   -15017 
  -14268   -13307   -12032   -10370    -8385    -6479    -4806    -3083 
   -1362        2     1077     2169     3255     4192     5024     5711 
    6213     6709     7094     7063     6859     6795     6649     6256 
    5691     4976     4278     3751     3262     2715     2029     1038 
    -135    -1261    -2455    -3830    -5229    -6512    -7650    -8719 
   -9756   -10516   -10906   -11247   -11548   -11486   -11232   -11180 
  -11247   -11172   -10916   -10615   -10517   -10617   -10579   -10419 
  -10429   -10518   -10624   -10927   -11204   -11102   -10804   -10602 
  -10416   -10138    -9878    -9684    -9518    -9438    -9481    -9577 
   -9659    -9770    -9985   -10275   -10602   -10906   -11009   -10922 
  -10842   -10782   -10807   -11023   -11246   -11410   -11680   -11958 
  -12085   -12190   -12372   -12562   -12756   -12848   -12560   -11907 
  -11205   -10600   -10027    -9524    -9216    -9065    -8963    -8967 
   -9152    -9322    -9202    -8882    -8606    -8261    -7619    -6807 
   -6131    -5748    -5601    -5488    -5294    -5107    -4947    -4804 
   -4843    -5101    -5395    -5688    -6017    -6320    -6711    -7358 
   -8003    -8356    -8564    -8747    -8937    -9322    -9836   -10256 
  -10661   -11049   -11257   -11358   -11351   -11104   -10872   -10915 
  -10985   -10858   -10616   -10285    -9904    -9618    -9366    -8975 
   -8447    -7863    -7220    -6490    -5735    -4958    -4058    -3152 
   -2479    -2000    -1537    -1115     -914     -951    -1090    -1304 
   -1543    -1601    -1446    -1237    -1023     -842     -793     -893 
   -1154    -1538    -1792    -1739    -1581    -1666    -2040    -2398 
   -2518    -2580    -2909    -3580    -4356    -4960    -5383    -5834 
   -6321    -6664    -6947    -7346    -7876    -8621    -9487   -10190 
  -10817   -11540   -12202   -12667   -12966   -13168   -13304   -13354 
  -13297   -13067   -12699   -12374   -12128   -11943   -11867   -11793 
  -11668   -11587   -11460   -11215   -11033   -11018   -11102   -11231 
  -11339   -11322   -11148   -10925   -10733   -10504   -10184    -9779 
   -9254    -8627    -8014    -7422    -6723    -5917    -5165    -4584 
   -4175    -3809    -3395    -3098    -2995    -2851    -2603    -2365 
   -2113    -1869    -1664    -1419    -1123     -772     -433     -386 
    -709    -1056    -1221    -1408    -1862    -2613    -3428    -4061 
   -4686    -5532    -6490    -7497    -8494    -9212    -9562    -9767 
  -10115   -10640   -11069   -11284   -11476   -11781   -12152   -12448 
  -12608   -12761   -12904   -12905   -12851   -12790   -12662   -12717 
  -13083   -13432   -13694   -14057   -14391   -14524   -14538   -14471 
  -14277   -13953   -13396   -12625   -11934   -11289   -10336    -9175 
   -8134    -7253    -6527    -5912    -5184    -4385    -3818    -3449 
   -3050    -2671    -2385    -2085    -1798    -1684    -1679    -1635 
   -1606    -1678    -1828    -2093    -2589    -3318    -4086    -4726 
   -5302    -5937    -6604    -7325    -8145    -8846    -9345    -9924 
  -10539   -10890   -11110   -11351   -11401   -11233   -11059   -10850 
  -10489   -10039    -9608    -9246    -8921    -8416    -7606    -6806 
   -6367    -6185    -6084    -6136    -6303    -6375    -6372    -6556 
   -6948    -7249    -7445    -7877    -8512    -9027    -9484    -9991 
  -10416   -10866   -11480   -11979   -12191   -12266   -12265   -12184 
  -12046   -11878   -11707   -11419   -10952   -10476   -10067    -9688 
   -9397    -9150    -8771    -8287    -7934    -7704    -7339    -6873 
   -6616    -6648    -6733    -6655    -6521    -6645    -7113    -7745 
   -8408    -9000    -9429    -9820   -10307   -10767   -11134   -11524 
  -11944   -12276   -12545   -12869   -12946   -12207   -11117   -10960 
  -10995    -9644    -8542    -8766    -8457    -7833    -7575    -6772 
   -5662    -4745    -4647    -5412    -5608    -5276    -5202    -5258 
   -5457    -5345    -4713    -4460    -4536    -4147    -3667    -3579 
   -3471    -3145    -2728    -2443    -2588    -2866    -2899    -2848 
   -2833    -2990    -3424    -3807    -3982    -4253    -4626    -4853 
   -5119    -5656    -6330    -7084    -7885    -8645    -9514   -10528 
  -11409   -12086   -12701   -13215   -13528   -13680   -13854   -14172 
  -14425   -14420   -14343   -14182   -13678   -12952   -12222   -11412 
  -10593   -10003    -9616    -9176    -8518    -7809    -7447    -7491 
   -7563    -7433    -7270    -7237    -7214    -7038    -6803    -6612 
   -6357    -6099    -6081    -6215    -6253    -6224    -6283    -6536 
   -6966    -7437    -7899    -8359    -8815    -9282    -9691   -10012 
  -10243   -10215    -9882    -9415    -8927    -8516    -8214    -7991 
   -7909    -7881    -7753    -7658    -7647    -7573    -7566    -7766 
   -7938    -7950    -7828    -7477    -7097    -7106    -7432    -7763 
   -8159    -8848    -9844   -10924   -11822   -12537   -13269   -13991 
  -14497   -14848   -15277   -15728   -15993   -16094   -16109   -16028 
  -15831   -15507   -15217   -15101   -14912   -14488   -14036   -13607 
  -13150   -12845   -12717   -12528   -12187   -11770   -11347   -10981 
  -10722   -10570   -10416   -10210   -10059    -9899    -9535    -9082 
   -8747    -8480    -8261    -8160    -8064    -7905    -7883    -8058 
   -8186    -8170    -8131    -8113    -8164    -8349    -8533    -8514 
   -8341    -8270    -8470    -8773    -8829    -8622    -8471    -8513 
   -8590    -8546    -8384    -8186    -7957    -7640    -7153    -6422 
   -5522    -4596    -3687    -2748    -1753     -859     -225      249 
     572      594      483      389      147     -146     -285     -424 
    -604     -660     -624     -617     -700     -854     -973    -1025 
   -1063    -1146    -1375    -1764    -2194    -2703    -3388    -4126 
   -4901    -5825    -6731    -7457    -8108    -8696    -9159    -9553 
   -9903   -10207   -10575   -11061   -11477   -11627   -11536   -11269 
  -10886   -10580   -10341    -9816    -9020    -8492    -8343    -8229 
