Origin Time       2011/03/11 14:46:00
Lat.              38.103
Long.             142.860
Depth. (km)       24
Mag.              9.0
Station Code      HKD183
Station Lat.      42.9724
Station Long.     141.1656
Station Height(m) 285
Record Time       2011/03/11 14:49:05
Sampling Freq(Hz) 100Hz
Duration Time(s)  114
Dir.              U-D
Scale Factor      3920(gal)/6182761
Max. Acc. (gal)   1.574
Last Correction   2011/03/11 14:48:50
Memo.             
[...]
    7863     7942     8037     7968     7815     7792     7924     8074 
    8166     8237     8313     8356     8391     8502     8704     8909 
    9008     9031     9091     9184     9251     9286     9294     9317 
    9435     9622     9717     9622     9451     9387     9449     9485 
    9395     9235     9080     8954     8890     8915     9008     9100 
    9191     9320     9408     9402     9407     9469     9513     9509 
    9502     9523     9509     9398     9260     9174     9093     8970 
    8839     8688     8459     8274     8321     8503     8588     8565 
    8528     8482     8413     8350     8342     8398     8433     8348 
    8163     8052     8137     8246     8160     7959     7839     7845 
    7907     7936     7895     7859     7908     7955     7935     7971 
    8099     8211     8291     8365     8432     8541     8678     8734 
    8696     8660     8692     8776     8843     8840     8808     8820 
    8871     8941     9051     9146     9137     9037     8969     9034 
    9181     9288     9286     9147     8934     8787     8739     8688 
    8559     8383     8246     8234     8366     8549     8667     8729 
    8822     8966     9112     9215     9260     9294     9362     9466 
    9577     9644     9716     9873     9995     9943     9787     9631 
    9512     9441     9398     9363     9347     9342     9301     9174 
    8970     8804     8735     8705     8694     8716     8739     8701 
    8593     8516     8540     8599     8646     8720     8805     8802 
    8695     8602     8603     8623     8584     8529     8497     8485 
    8493     8512     8541     8561     8542     8474     8346     8203 
    8137     8135     8103     8032     7985     7966     7939     7938 
    8012     8089     8103     8165     8346     8509     8538     8477 
    8408     8396     8490     8613     8616     8517     8465     8511 
    8562     8563     8531     8440     8312     8255     8297     8352 
    8378     8434     8503     8469     8336     8230     8219     8307 
    8411     8399     8239     8044     7995     8153     8351     8459 
    8512     8549     8591     8681     8809     8940     9066     9173 
    9234     9248     9240     9241     9258     9248     9171     9076 
    9025     8963     8823     8659     8552     8516     8545     8592 
    8542     8356     8202     8295     8583     8797     8819     8806 
    8924     9115     9225     9221     9174     9154     9155     9112 
    9061     9111     9210     9188     8981     8700     8525     8508 
    8527     8486     8426     8397     8364     8291     8232     8204 
    8091     7862     7653     7540     7486     7456     7442     7450 
    7422     7295     7116     7004     7024     7105     7084     6933 
    6825     6853     6904     6881     6815     6801     6892     6995 
    6994     6921     6928     7053     7159     7182     7211     7270 
    7282     7264     7328     7472     7560     7603     7725     7825 
    7772     7718     7762     7775     7697     7599     7528     7465 
    7420     7448     7478     7395     7318     7375     7428     7389 
    7343     7288     7206     7190     7255     7306     7312     7362 
    7520     7701     7792     7834     7896     7966     8035     8148 
    8351     8595     8773     8857     8881     8916     9018     9087 
    8995     8806     8693     8722     8739     8600     8411     8287 
    8186     8087     8004     7896     7711     7529     7465     7422 
    7206     6919     6811     6863     6946     7055     7152     7165 
    7116     7079     7057     7003     6948     6966     7037     7087 
    7125     7164     7142     7068     7021     7023     7081     7169 
    7226     7264     7300     7307     7326     7394     7442     7407 
    7320     7280     7351     7458     7498     7489     7498     7572 
    7708     7842     7940     7984     7966     7959     7991     7997 
    7983     8028     8122     8162     8072     7933     7885     7910 
    7933     7972     8015     8047     8134     8256     8309     8284 
    8216     8112     7986     7853     7775     7808     7906     7967 
    7911     7782     7720     7767     7837     7876     7872     7776 
    7607     7516     7560     7614     7658     7811     8007     8068 
    8009     7949     7918     7939     8068     8246     8293     8154 
    7982     7904     7851     7757     7707     7772     7881     7916 
    7838     7679     7505     7401     7392     7440     7487     7490 
    7485     7494     7482     7535     7723     7884     7899     7855 
    7852     7928     8055     8151     8162     8085     7948     7796 
    7681     7666     7795     8008     8165     8161     8043     7998 
    8133     8302     8339     8295     8279     8298     8328     8378 
    8448     8487     8440     8351     8268     8180     8119     8121 
    8126     8097     8100     8138     8122     8082     8136     8245 
    8312     8356     8365     8287     8190     8191     8246     8181 
    7983     7841     7833     7877     7945     8038     8102     8123 
    8129     8127     8159     8248     8367     8480     8499     8402 
    8332     8352     8406     8461     8516     8586     8638     8625 
    8648     8790     8970     9112     9188     9189     9119     9000 
    8957     9038     9098     9081     9071     9056     8941     8752 
    8610     8505     8373     8277     8258     8192     8033     7935 
    7919     7832     7704     7633     7574     7509     7502     7555 
    7550     7411     7264     7241     7309     7447     7656     7830 
    7881     7860     7852     7828     7708     7553     7499     7494 
    7395     7230     7093     6967     6856     6863     6961     6933 
    6735     6612     6712     6925     7121     7274     7346     7296 
    7227     7239     7236     7180     7198     7313     7382     7322 
    7200     7135     7156     7199     7207     7155     7090     7107 
    7187     7250     7322     7421     7467     7435     7436     7551 
    7663     7637     7543     7506     7516     7497     7403     7275 
    7196     7152     7052     6886     6753     6765     6904     7025 
    7078     7127     7161     7158     7189     7280     7377     7456 
    7503     7524     7583     7709     7883     8101     8307     8396 
    8336     8241     8229     8265     8259     8232     8265     8347 
    8410     8410     8340     8292     8391     8554     8591     8472 
    8319     8246     8279     8374     8433     8365     8227     8139 
    8163     8289     8437     8510     8469     8362     8248     8137 
    8070     8085     8136     8171     8172     8142     8101     8058 
    8030     8016     8004     8006     8021     8018     8011     8041 
    8066     8017     7917     7826     7766     7728     7714     7754 
    7868     8005     8088     8130     8173     8199     8206     8240 
    8374     8602     8763     8757     8661     8561     8501     8492 
    8465     8381     8313     8295     8314     8333     8305     8228 
    8099     7935     7846     7900     7986     7958     7820     7647 
    7484     7380     7339     7324     7341     7375     7368     7346 
    7394     7505     7595     7611     7615     7709     7872     7991 
    8034     8060     8112     8184     8233     8234     8213     8188 
    8147     8103     8101     8170     8303     8488     8723     8928 
    8984     8894     8779     8742     8819     8931     8930     8780 
    8589     8499     8547     8608     8607     8592     8574     8600 
    8786     9086     9325     9401     9367     9367     9427     9441 
    9429     9464     9484     9440     9387     9328     9230     9124 
    9093     9170     9281     9358     9416     9436     9391     9326 
    9271     9245     9292     9404     9518     9547     9479     9440 
    9513     9616     9604     9434     9263     9260     9349     9344 
    9233     9113     9040     9048     9122     9159     9102     9044 
    9098     9188     9154     9056     9064     9186     9357     9539 
    9634     9592     9516     9549     9655     9660     9592     9633 
    9756     9811     9784     9747     9730     9676     9565     9492 
    9485     9457     9380     9285     9204     9175     9175     9178 
    9213     9245     9217     9168     9143     9127     9111     9141 
    9212     9237     9224     9255     9321     9336     9255     9162 
    9158     9199     9242     9306     9296     9155     9013     8979 
    9005     9002     8983     8999     9011     8969     8894     8818 
    8770     8798     8924     9114     9271     9275     9148     9050 
    9050     9123     9251     9354     9342     9245     9191     9259 
    9345     9326     9257     9182     9033     8844     8742     8756 
    8796     8778     8700     8609     8571     8617     8722     8825 
    8864     8860     8878     8907     8914     8945     9037     9134 
    9173     9137     9052     8994     9000     9038     9102     9178 
    9207     9176     9146     9144     9106     9017     8990     9031 
    8976     8791     8638     8622     8689     8749     8765     8744 
    8722     8710     8680     8624     8571     8529     8469     8374 
    8269     8196     8155     8104     8056     8069     8148     8240 
    8270     8205     8111     8064     8047     7982     7898     7912 
    8023     8139     8214     8201     8108     8047     8087     8169 
    8205     8201     8203     8186     8162     8209     8280     8289 
    8285     8332     8381     8354     8281     8251     8292     8346 
    8342     8280     8230     8273     8402     8461     8329     8070 
    7881     7886     7996     8068     8078     8049     8005     8024 
    8153     8293     8340     8332     8323     8254     8119     8052 
    8131     8300     8482     8610     8644     8629     8639     8678 
    8717     8803     8968     9075     9008     8877     8829     8861 
    8928     9020     9101     9129     9116     9117     9146     9156 
    9150     9162     9159     9125     9072     9010     8989     9015 
    9025     8965     8794     8593     8505     8543     8631     8713 
    8778     8836     8872     8865     8835     8780     8696     8634 
    8652     8729     8742     8603     8455     8453     8516     8498 
    8392     8289     8258     8233     8116     7969     7892     7901 
    7965     7990     7911     7782     7679     7623     7544     7403 
    7327     7352     7300     7125     6985     6960     6948     6788 
    6510     6294     6178     6107     6084     6091     6087     6101 
    6180     6262     6218     6094     6103     6269     6373     6325 
    6275     6346     6471     6550     6604     6663     6690     6694 
    6742     6789     6764     6731     6720     6693     6680     6741 
    6868     6969     6975     6943     6957     6990     6929     6768 
    6671     6668     6634     6555     6487     6455     6485     6570 
    6631     6642     6719     6918     7079     7038     6885     6859 
    7021     7263     7513     7700     7766     7782     7853     8008 
    8193     8317     8364     8374     8380     8426     8495     8517 
    8505     8520     8576     8641     8685     8708     8714     8726 
    8748     8746     8695     8601     8502     8444     8472     8570 
    8604     8503     8386     8359     8415     8462     8418     8320 
    8227     8154     8160     8266     8369     8355     8253     8162 
    8075     7928     7749     7601     7493     7438     7456     7488 
    7430     7296     7206     7198     7190     7146     7113     7100 
    7071     7030     7014     7015     6955     6834     6759     6758 
    6791     6870     6977     7030     6978     6879     6821     6808 
    6813     6816     6773     6676     6579     6545     6588     6668 
    6739     6775     6803     6865     6956     7038     7055     7008 
    7005     7113     7250     7302     7276     7270     7256     7167 
    7103     7173     7293     7333     7318     7348     7404     7413 
    7367     7301     7263     7331     7513     7643     7596     7482 
    7463     7592     7805     7970     8011     7971     8010     8191 
    8286     8152     8008     8039     8152     8192     8141     8112 
    8172     8291     8433     8556     8615     8620     8621     8685 
    8816     8931     9028     9199     9415     9561     9647     9712 
    9747     9796     9921    10089    10181    10206    10291    10361 
   10256    10080    10011    10059    10157    10236    10220    10108 
   10008     9989    10023    10059    10068    10069    10122    10237 
   10321    10283    10197    10191    10247    10279    10245    10123 
    9923     9744     9690     9730     9770     9781     9756     9691 
    9601     9532     9504     9459     9366     9268     9180     9108 
    9080     9077     9016     8895     8835     8838     8758     8595 
    8468     8411     8417     8502     8591     8579     8493     8420 
    8381     8313     8185     8067     8018     8057     8169     8275 
    8355     8453     8514     8479     8402     8352     8367     8444 
    8538     8619     8655     8666     8716     8784     8805     8796 
    8800     8818     8837     8861     8867     8840     8854     8933 
    8950     8876     8855     8954     9098     9224     9336     9462 
    9601     9679     9624     9498     9468     9606     9783     9831 
    9768     9729     9766     9844     9922     9975    10007    10031 
   10050    10077    10129    10187    10264    10417    10585    10662 
   10646    10558    10412    10258    10165    10157    10185    10178 
   10119    10009     9876     9780     9702     9595     9522     9544 
    9597     9598     9572     9573     9596     9620     9620     9610 
    9631     9680     9755     9832     9849     9844     9870     9891 
    9904     9970    10090    10187    10185    10105    10051    10088 
   10150    10154    10131    10135    10164    10165    10094    10007 
    9983     9984     9956     9909     9849     9795     9768     9733 
    9662     9609     9653     9744     9727     9589     9485     9495 
    9525     9498     9457     9458     9483     9488     9472     9455 
    9434     9433     9486     9518     9479     9477     9561     9632 
    9629     9617     9689     9816     9870     9860     9889     9950 
   10006    10095    10249    10394    10408    10329    10310    10398 
   10501    10503    10386    10263    10260    10365    10441    10431 
   10363    10259    10215    10295    10379    10342    10244    10201 
   10212    10232    10274    10292    10192    10071    10094    10188 
   10203    10162    10174    10223    10205    10141    10123    10150 
   10199    10245    10187     9969     9732     9635     9589     9439 
    9250     9162     9166     9133     8982     8814     8764     8843 
    8975     9040     8982     8874     8787     8686     8548     8440 
    8425     8504     8605     8635     8613     8590     8545     8501 
    8542     8703     8913     9030     9023     8988     8957     8927 
    8959     9062     9150     9156     9129     9126     9127     9139 
    9169     9176     9201     9323     9480     9543     9499     9464 
    9518     9625     9756     9895     9970     9950     9894     9899 
    9988    10047     9983     9863     9807     9831     9857     9810 
    9722     9683     9712     9781     9863     9902     9889     9879 
    9879     9881     9908     9953     9958     9882     9811     9837 
    9873     9828     9746     9706     9721     9696     9614     9595 
    9660     9717     9707     9656     9637     9632     9559     9437 
    9319     9201     9121     9141     9220     9253     9208     9144 
    9131     9127     9055     8999     9083     9254     9391     9456 
    9448     9397     9366     9392     9461     9488     9435     9409 
    9475     9539     9498     9402     9403     9517     9608     9626 
    9629     9623     9576     9500     9400     9258     9161     9185 
    9272     9348     9361     9318     9276     9219     9137     9054 
    8932     8769     8616     8526     8543     8642     8794     9007 
    9209     9292     9227     9093     8992     8961     8955     8921 
    8860     8778     8696     8668     8661     8613     8577     8589 
    8583     8538     8496     8458     8367     8272     8274     8332 
    8392     8454     8524     8603     8629     8563     8465     8379 
    8341     8397     8469     8421     8268     8149     8112     8105 
    8114     8128     8105     8036     7949     7875     7814     7767 
    7785     7830     7788     7709     7694     7691     7648     7623 
    7638     7639     7602     7539     7447     7330     7240     7211 
    7230     7313     7466     7602     7612     7510     7399     7346 
    7387     7521     7646     7648     7548     7443     7366     7304 
    7275     7280     7274     7243     7226     7222     7221     7241 
    7259     7210     7059     6885     6835     6940     7073     7132 
    7139     7135     7109     7085     7111     7176     7224     7227 
    7215     7199     7164     7128     7097     7040     6976     6976 
    7040     7098     7150     7243     7366     7466     7526     7586 
    7694     7840     7965     8016     7973     7891     7874     7920 
    7934     7911     7918     7930     7877     7703     7434     7225 
    7139     7073     6955     6823     6756     6785     6850     6884 
    6912     6987     7073     7118     7172     7250     7294     7292 
    7287     7348     7484     7574     7533     7424     7369     7428 
    7531     7533     7401     7247     7195     7238     7269     7245 
    7209     7215     7266     7296     7265     7206     7169     7166 
    7147     7093     7074     7135     7242     7347     7374     7317 
    7301     7391     7531     7658     7736     7774     7807     7828 
    7836     7869     7954     8082     8202     8232     8183     8182 
    8247     8285     8300     8307     8243     8113     8008     7957 
    7933     7930     7940     7930     7896     7850     7777     7660 
    7525     7420     7357     7319     7308     7327     7363     7428 
    7543     7699     7843     7890     7842     7809     7846     7873 
    7800     7661     7605     7701     7840     7948     8083     8258 
    8410     8513     8576     8613     8648     8708     8761     8730 
    8641     8607     8643     8656     8624     8612     8643     8656 
    8622     8577     8555     8593     8702     8821     8881     8877 
    8859     8846     8790     8718     8714     8757     8773     8723 
    8623     8554     8548     8531     8451     8327     8202     8102 
    7978     7805     7652     7539     7464     7460     7472     7402 
    7310     7327     7409     7406     7302     7193     7153     7189 
    7231     7210     7138     7075     7102     7200     7225     7157 
    7082     7015     6967     6947     6909     6819     6713     6701 
    6850     7042     7130     7150     7187     7242     7323     7426 
    7534     7658     7751     7737     7651     7585     7567     7574 
    7548     7469     7418     7428     7418     7349     7267     7209 
    7209     7255     7259     7188     7099     7058     7070     7109 
    7197     7337     7423     7377     7277     7235     7263     7290 
