Origin Time       2011/03/11 14:46:00
Lat.              38.103
Long.             142.860
Depth. (km)       24
Mag.              9.0
Station Code      HKD168
Station Lat.      41.8691
Station Long.     140.1266
Station Height(m) 2
Record Time       2011/03/11 14:47:55
Sampling Freq(Hz) 100Hz
Duration Time(s)  300
Dir.              E-W
Scale Factor      3920(gal)/6182761
Max. Acc. (gal)   6.704
Last Correction   2011/03/11 14:47:40
Memo.             
[...]
     755      813      916     1038     1117     1138     1108     1022 
     891      706      441      141     -132     -347     -455     -425 
    -326     -245     -208     -229     -317     -463     -677     -930 
   -1128    -1230    -1283    -1339    -1414    -1502    -1593    -1682 
   -1740    -1701    -1515    -1232     -976     -844     -837     -899 
    -975    -1020    -1002     -926     -815     -708     -652     -667 
    -715     -727     -654     -459     -149      200      507      729 
     832      791      597      295      -11     -267     -516     -797 
   -1105    -1451    -1846    -2242    -2600    -2979    -3421    -3880 
   -4318    -4720    -5053    -5326    -5529    -5602    -5500    -5217 
   -4853    -4553    -4361    -4234    -4071    -3734    -3182    -2525 
   -1914    -1470    -1221    -1085     -904     -576     -141      295 
     611      714      620      384       41     -335     -683     -990 
   -1301    -1704    -2207    -2709    -3150    -3541    -3881    -4169 
   -4427    -4657    -4822    -4886    -4851    -4729    -4554    -4410 
   -4335    -4284    -4250    -4277    -4367    -4486    -4548    -4445 
   -4154    -3732    -3249    -2776    -2359    -2049    -1900    -1884 
   -1890    -1865    -1819    -1736    -1603    -1425    -1193     -923 
    -680     -498     -365     -270     -214     -189     -187     -216 
    -309     -471     -652     -807     -934    -1041    -1149    -1284 
   -1455    -1688    -2013    -2376    -2664    -2832    -2930    -3024 
   -3146    -3332    -3612    -3960    -4305    -4596    -4811    -4950 
   -5024    -5039    -5006    -4977    -5001    -5081    -5229    -5452 
   -5714    -5949    -6095    -6136    -6088    -5981    -5895    -5882 
   -5900    -5928    -5999    -6095    -6175    -6256    -6355    -6428 
   -6463    -6497    -6529    -6533    -6525    -6518    -6486    -6407 
   -6284    -6107    -5899    -5729    -5588    -5441    -5297    -5125 
   -4878    -4592    -4331    -4131    -4001    -3947    -3976    -4047 
   -4102    -4104    -4020    -3873    -3739    -3646    -3603    -3594 
   -3582    -3590    -3658    -3794    -3991    -4206    -4402    -4565 
   -4665    -4693    -4676    -4619    -4526    -4436    -4397    -4415 
   -4442    -4453    -4437    -4297    -3972    -3554    -3153    -2839 
   -2675    -2649    -2706    -2811    -2928    -3024    -3105    -3268 
   -3628    -4176    -4796    -5373    -5837    -6202    -6533    -6871 
   -7262    -7770    -8375    -8932    -9280    -9349    -9158    -8796 
   -8372    -7960    -7617    -7412    -7344    -7325    -7308    -7302 
   -7327    -7402    -7487    -7504    -7431    -7273    -7026    -6707 
   -6350    -6018    -5783    -5658    -5616    -5653    -5738    -5823 
   -5898    -5959    -5989    -5990    -5944    -5816    -5620    -5392 
   -5169    -4987    -4838    -4689    -4530    -4335    -4064    -3734 
   -3429    -3241    -3219    -3341    -3544    -3783    -4045    -4284 
   -4440    -4515    -4559    -4638    -4817    -5097    -5393    -5583 
   -5555    -5243    -4709    -4141    -3717    -3511    -3495    -3596 
   -3747    -3893    -3975    -3958    -3850    -3688    -3543    -3469 
   -3433    -3366    -3233    -3033    -2822    -2672    -2594    -2555 
   -2512    -2418    -2224    -1920    -1602    -1394    -1316    -1340 
   -1441    -1550    -1629    -1723    -1843    -1952    -2060    -2173 
   -2253    -2287    -2330    -2422    -2572    -2786    -3062    -3364 
   -3629    -3770    -3758    -3628    -3416    -3191    -3057    -3040 
   -3106    -3237    -3390    -3520    -3621    -3690    -3762    -3877 
   -4005    -4122    -4242    -4342    -4398    -4419    -4439    -4531 
   -4759    -5163    -5770    -6546    -7445    -8410    -9316   -10053 
  -10587   -10901   -10990   -10862   -10551   -10164    -9805    -9524 
   -9365    -9311    -9282    -9211    -9080    -8915    -8762    -8648 
   -8580    -8529    -8422    -8201    -7856    -7414    -6936    -6484 
   -6091    -5756    -5465    -5234    -5068    -4897    -4678    -4459 
   -4279    -4159    -4161    -4302    -4554    -4901    -5296    -5684 
   -6068    -6433    -6707    -6860    -6947    -7038    -7131    -7142 
   -6972    -6602    -6146    -5785    -5622    -5630    -5736    -5866 
   -5971    -6043    -6072    -6045    -5963    -5826    -5641    -5431 
   -5204    -4951    -4649    -4261    -3793    -3308    -2860    -2487 
   -2178    -1878    -1541    -1156     -748     -366      -37      233 
     454      640      788      919     1108     1430     1879     2367 
    2828     3253     3640     3993     4310     4569     4777     4932 
    5003     4992     4897     4701     4437     4166     3936     3785 
    3677     3506     3219     2843     2420     2004     1646     1376 
    1202     1113     1074     1040     1002      954      861      714 
     525      290       41     -150     -252     -275     -267     -299 
    -406     -592     -872    -1251    -1688    -2118    -2517    -2917 
   -3323    -3718    -4109    -4482    -4779    -4953    -5012    -5015 
   -5020    -5045    -5111    -5241    -5434    -5663    -5851    -5942 
   -5992    -6047    -6100    -6170    -6284    -6468    -6734    -7015 
   -7221    -7356    -7467    -7639    -7984    -8500    -9081    -9624 
  -10070   -10425   -10721   -10975   -11182   -11332   -11437   -11523 
  -11610   -11730   -11895   -12042   -12136   -12211   -12303   -12468 
  -12718   -12962   -13131   -13205   -13178   -13074   -12916   -12722 
  -12520   -12278   -11952   -11550   -11072   -10522    -9942    -9396 
   -8950    -8647    -8471    -8358    -8255    -8141    -8033    -7957 
   -7917    -7875    -7769    -7584    -7353    -7128    -6988    -6967 
   -7055    -7251    -7506    -7750    -7965    -8114    -8146    -8084 
   -7990    -7891    -7777    -7650    -7526    -7379    -7203    -7064 
   -7046    -7163    -7350    -7492    -7474    -7231    -6803    -6289 
   -5731    -5144    -4593    -4128    -3741    -3398    -3035    -2525 
   -1815     -996     -158      634     1253     1650     1926     2149 
    2347     2595     2933     3343     3803     4268     4681     5014 
    5273     5469     5632     5819     6071     6370     6642     6807 
    6843     6772     6627     6449     6235     5945     5603     5301 
    5094     4984     4925     4823     4593     4218     3739     3195 
    2613     2008     1370      735      176     -272     -594     -826 
   -1072    -1400    -1826    -2371    -3025    -3719    -4397    -5035 
   -5604    -6072    -6426    -6677    -6878    -7088    -7325    -7597 
   -7912    -8214    -8471    -8711    -8914    -9049    -9114    -9105 
   -9057    -9038    -9084    -9183    -9279    -9310    -9255    -9117 
   -8918    -8730    -8629    -8632    -8709    -8816    -8896    -8888 
   -8741    -8429    -7985    -7492    -7011    -6555    -6121    -5675 
   -5158    -4583    -4034    -3583    -3252    -3004    -2779    -2572 
   -2425    -2327    -2226    -2131    -2100    -2166    -2323    -2577 
   -2955    -3450    -3985    -4491    -5001    -5577    -6226    -6957 
   -7767    -8598    -9405   -10170   -10863   -11503   -12131   -12711 
  -13176   -13498   -13668   -13668   -13533   -13347   -13167   -13006 
  -12871   -12783   -12787   -12880   -13000   -13105   -13158   -13107 
  -12948   -12690   -12314   -11840   -11320   -10784   -10270    -9834 
   -9483    -9186    -8914    -8616    -8254    -7858    -7451    -7045 
   -6662    -6301    -5969    -5684    -5427    -5184    -4947    -4690 
   -4417    -4175    -3975    -3807    -3670    -3564    -3508    -3551 
   -3697    -3863    -3958    -3932    -3797    -3623    -3475    -3367 
   -3297    -3264    -3258    -3249    -3234    -3264    -3391    -3592 
   -3787    -3885    -3837    -3643    -3352    -3087    -2977    -3077 
   -3386    -3814    -4227    -4585    -4880    -5073    -5163    -5167 
   -5090    -4975    -4871    -4781    -4693    -4601    -4533    -4543 
   -4649    -4819    -4981    -5053    -5016    -4913    -4799    -4729 
   -4693    -4608    -4426    -4159    -3863    -3638    -3500    -3396 
   -3298    -3160    -2942    -2669    -2357    -2006    -1610    -1123 
    -561      -34      409      745      952     1068     1120     1101 
    1026      920      847      844      877      913      903      782 
     550      249      -81     -412     -794    -1260    -1757    -2250 
   -2713    -3082    -3348    -3567    -3772    -3955    -4130    -4312 
   -4477    -4589    -4627    -4592    -4506    -4399    -4270    -4110 
   -3949    -3807    -3669    -3524    -3386    -3298    -3289    -3355 
   -3472    -3591    -3633    -3528    -3267    -2913    -2574    -2326 
   -2177    -2125    -2174    -2302    -2453    -2562    -2586    -2539 
   -2502    -2541    -2644    -2760    -2841    -2839    -2738    -2556 
   -2295    -1964    -1603    -1212     -776     -331       79      413 
     609      682      737      818      926     1097     1288     1405 
    1438     1389     1261     1137     1064     1018     1019     1052 
    1067     1069     1033      907      724      508      238      -82 
    -443     -825    -1222    -1688    -2228    -2797    -3376    -3909 
   -4352    -4724    -4985    -5110    -5150    -5135    -5099    -5102 
   -5156    -5283    -5503    -5749    -5951    -6102    -6217    -6325 
   -6453    -6608    -6749    -6805    -6775    -6701    -6620    -6608 
   -6700    -6816    -6892    -6907    -6812    -6579    -6244    -5846 
   -5403    -4957    -4543    -4145    -3751    -3353    -2947    -2571 
   -2231    -1882    -1510    -1148     -858     -714     -728     -868 
   -1100    -1358    -1593    -1763    -1808    -1757    -1674    -1573 
   -1486    -1418    -1333    -1258    -1206    -1144    -1091    -1095 
   -1152    -1225    -1264    -1214    -1090     -982     -973    -1099 
   -1316    -1524    -1680    -1795    -1894    -2025    -2188    -2334 
   -2446    -2504    -2510    -2507    -2495    -2452    -2363    -2219 
   -2065    -1927    -1801    -1733    -1713    -1690    -1688    -1712 
   -1756    -1881    -2086    -2316    -2587    -2908    -3250    -3624 
   -4048    -4493    -4911    -5230    -5385    -5401    -5364    -5296 
   -5198    -5152    -5224    -5439    -5836    -6339    -6775    -7089 
   -7276    -7270    -7124    -6960    -6788    -6618    -6494    -6345 
   -6107    -5828    -5545    -5279    -5064    -4819    -4441    -3951 
   -3387    -2766    -2113    -1435     -743     -100      445      907 
    1280     1537     1701     1812     1862     1830     1725     1581 
    1416     1204      897      488        1     -486     -874    -1117 
   -1224    -1240    -1244    -1336    -1568    -1895    -2272    -2701 
   -3110    -3412    -3656    -3914    -4162    -4384    -4593    -4751 
   -4822    -4800    -4657    -4386    -4035    -3648    -3239    -2839 
   -2469    -2124    -1798    -1420     -905     -271      414     1096 
    1695     2173     2584     2932     3180     3316     3319     3166 
    2895     2555     2167     1761     1392     1065      712      244 
    -378    -1136    -1978    -2823    -3589    -4248    -4839    -5418 
   -5965    -6410    -6737    -6976    -7148    -7276    -7414    -7591 
   -7755    -7832    -7808    -7672    -7416    -7111    -6824    -6587 
   -6470    -6511    -6644    -6785    -6888    -6914    -6865    -6803 
   -6776    -6785    -6819    -6833    -6778    -6649    -6439    -6134 
   -5769    -5389    -5028    -4713    -4399    -4010    -3563    -3120 
   -2696    -2306    -1939    -1499     -949     -351      276      918 
    1486     1911     2160     2179     1974     1653     1307      968 
     661      397      164       -9     -100     -159     -259     -459 
    -779    -1169    -1532    -1815    -2016    -2116    -2093    -1951 
   -1736    -1532    -1388    -1314    -1354    -1538    -1822    -2146 
   -2455    -2697    -2859    -2945    -2939    -2833    -2661    -2501 
   -2402    -2365    -2411    -2528    -2655    -2786    -2933    -3098 
   -3322    -3569    -3735    -3814    -3816    -3695    -3486    -3244 
   -2971    -2697    -2434    -2153    -1855    -1549    -1238     -956 
    -735     -598     -588     -699     -837     -948    -1078    -1246 
   -1405    -1517    -1556    -1518    -1433    -1290    -1051     -739 
    -435     -218     -137     -200     -384     -645     -959    -1335 
   -1770    -2221    -2594    -2777    -2755    -2613    -2456    -2388 
   -2438    -2537    -2608    -2618    -2586    -2565    -2602    -2718 
   -2882    -3048    -3219    -3415    -3633    -3877    -4161    -4482 
   -4811    -5111    -5397    -5696    -5965    -6144    -6253    -6322 
   -6361    -6390    -6411    -6413    -6410    -6417    -6435    -6475 
   -6545    -6628    -6683    -6690    -6681    -6705    -6786    -6932 
   -7137    -7338    -7451    -7460    -7378    -7215    -7021    -6814 
   -6582    -6392    -6298    -6286    -6330    -6370    -6366    -6344 
   -6285    -6134    -5863    -5487    -5098    -4787    -4589    -4497 
   -4435    -4349    -4234    -4030    -3735    -3419    -3087    -2779 
   -2588    -2507    -2477    -2482    -2507    -2544    -2591    -2666 
   -2817    -3038    -3282    -3558    -3884    -4245    -4617    -4962 
   -5280    -5609    -5972    -6392    -6845    -7267    -7643    -7974 
   -8260    -8552    -8889    -9297    -9822   -10452   -11131   -11809 
  -12391   -12793   -12986   -12951   -12784   -12676   -12702   -12868 
  -13161   -13493   -13782   -13982   -14060   -14067   -14084   -14113 
  -14066   -13833   -13379   -12784   -12167   -11580   -10970   -10227 
   -9318    -8303    -7242    -6153    -5017    -3817    -2601    -1433 
    -325      686     1547     2250     2804     3231     3582     3888 
    4151     4360     4509     4621     4740     4856     4904     4847 
    4660     4342     3948     3521     3070     2585     2017     1352 
     651      -23     -643    -1222    -1784    -2360    -2987    -3664 
   -4349    -5012    -5672    -6325    -6920    -7417    -7810    -8109 
   -8351    -8611    -8933    -9281    -9616    -9941   -10257   -10543 
  -10751   -10795   -10646   -10384   -10078    -9714    -9275    -8770 
   -8232    -7742    -7377    -7158    -7050    -6968    -6807    -6551 
   -6249    -5955    -5717    -5542    -5393    -5250    -5086    -4830 
   -4443    -3936    -3323    -2621    -1854    -1047     -235      508 
    1097     1505     1730     1784     1729     1631     1485     1257 
     945      556       89     -462    -1102    -1824    -2560    -3194 
   -3632    -3846    -3912    -3961    -4048    -4170    -4293    -4348 
   -4321    -4254    -4174    -4102    -4046    -3962    -3848    -3732 
   -3606    -3473    -3333    -3146    -2897    -2617    -2351    -2155 
   -2090    -2170    -2330    -2479    -2553    -2531    -2443    -2366 
   -2389    -2556    -2847    -3211    -3602    -3966    -4264    -4491 
   -4648    -4713    -4682    -4592    -4494    -4456    -4529    -4711 
   -4952    -5175    -5326    -5404    -5407    -5348    -5264    -5145 
   -4959    -4707    -4378    -3954    -3452    -2919    -2409    -1941 
   -1517    -1141     -827     -592     -417     -281     -211     -210 
    -256     -338     -400     -371     -268     -118       59      192 
     249      284      330      399      527      737     1042     1452 
    1932     2403     2796     3074     3217     3237     3220     3218 
    3190     3124     3042     2907     2708     2464     2164     1782 
    1294      697       56     -577    -1163    -1658    -2076    -2463 
   -2796    -3038    -3216    -3326    -3354    -3327    -3242    -3093 
   -2903    -2669    -2395    -2096    -1776    -1463    -1210    -1073 
   -1112    -1318    -1613    -1947    -2315    -2698    -3088    -3488 
   -3866    -4193    -4462    -4644    -4699    -4634    -4505    -4388 
   -4317    -4274    -4207    -4061    -3817    -3484    -3101    -2786 
   -2652    -2678    -2788    -2935    -3063    -3134    -3153    -3092 
   -2926    -2697    -2450    -2261    -2229    -2362    -2604    -2864 
   -3024    -3049    -3014    -2989    -2992    -3036    -3125    -3242 
   -3403    -3624    -3848    -4032    -4177    -4225    -4154    -4038 
   -3906    -3732    -3514    -3278    -3115    -3149    -3396    -3771 
   -4183    -4593    -5008    -5447    -5913    -6394    -6883    -7359 
   -7771    -8083    -8299    -8435    -8543    -8671    -8802    -8933 
   -9106    -9276    -9375    -9418    -9395    -9298    -9190    -9073 
   -8881    -8618    -8316    -7981    -7664    -7413    -7222    -7059 
   -6861    -6591    -6250    -5827    -5317    -4754    -4209    -3754 
   -3418    -3181    -2988    -2767    -2491    -2175    -1821    -1460 
   -1144     -874     -675     -592     -586     -617     -689     -766 
    -827     -919    -1068    -1274    -1551    -1843    -2056    -2192 
   -2326    -2505    -2763    -3104    -3454    -3755    -4009    -4205 
   -4334    -4420    -4448    -4383    -4230    -4013    -3794    -3671 
   -3655    -3681    -3712    -3714    -3608    -3386    -3106    -2765 
   -2376    -2016    -1747    -1613    -1604    -1630    -1623    -1585 
   -1490    -1331    -1148     -956     -752     -550     -298       57 
     454      808     1105     1321     1414     1371     1193      887 
     486       33     -437     -911    -1392    -1864    -2308    -2709 
   -3054    -3337    -3552    -3683    -3697    -3563    -3331    -3081 
   -2863    -2702    -2603    -2553    -2576    -2692    -2860    -3052 
   -3256    -3432    -3590    -3775    -3934    -3981    -3895    -3670 
   -3331    -2965    -2602    -2195    -1701    -1078     -319      473 
    1156     1650     1922     1962     1819     1593     1340     1042 
     680      251     -215     -656    -1062    -1474    -1908    -2345 
   -2751    -3093    -3341    -3468    -3496    -3484    -3459    -3437 
   -3427    -3402    -3367    -3355    -3365    -3360    -3298    -3180 
   -3057    -2962    -2915    -2950    -3033    -3091    -3128    -3163 
   -3206    -3264    -3324    -3400    -3541    -3762    -4056    -4397 
   -4715    -4954    -5107    -5198    -5261    -5341    -5439    -5534 
   -5643    -5785    -5933    -6073    -6234    -6446    -6706    -6989 
   -7256    -7491    -7709    -7909    -8099    -8295    -8459    -8552 
   -8572    -8546    -8513    -8485    -8432    -8339    -8225    -8115 
   -8025    -7935    -7814    -7626    -7348    -7028    -6715    -6402 
   -6091    -5786    -5484    -5204    -4934    -4673    -4455    -4267 
   -4073    -3888    -3720    -3532    -3311    -3084    -2890    -2793 
   -2849    -3023    -3249    -3484    -3692    -3857    -3983    -4091 
   -4229    -4399    -4545    -4625    -4611    -4514    -4385    -4256 
   -4128    -3967    -3721    -3417    -3117    -2860    -2688    -2616 
   -2607    -2663    -2791    -2942    -3082    -3185    -3195    -3106 
   -2960    -2807    -2695    -2630    -2571    -2510    -2483    -2500 
   -2545    -2638    -2797    -2992    -3150    -3231    -3299    -3454 
   -3743    -4166    -4682    -5198    -5608    -5878    -6048    -6209 
   -6447    -6768    -7115    -7417    -7615    -7701    -7702    -7652 
   -7552    -7381    -7131    -6788    -6349    -5878    -5412    -4962 
   -4581    -4263    -3927    -3543    -3130    -2726    -2390    -2154 
