Origin Time       2011/03/11 14:46:00
Lat.              38.103
Long.             142.860
Depth. (km)       24
Mag.              9.0
Station Code      HKD158
Station Lat.      41.8349
Station Long.     141.1408
Station Height(m) 7
Record Time       2011/03/11 14:47:35
Sampling Freq(Hz) 100Hz
Duration Time(s)  300
Dir.              E-W
Scale Factor      3920(gal)/6182761
Max. Acc. (gal)   50.017
Last Correction   2011/03/11 14:47:20
Memo.             
[...]
   -7607    -5124    -2844     -872      963     2896     5130     8097 
   11871    15881    19598    22727    25099    26611    27409    28297 
   29472    29848    29210    28464    28243    28667    28222    25476 
   23076    23313    23413    22305    21960    21472    20332    19956 
   19734    18982    18201    17178    15569    13440    10554     6965 
    3504      402    -2897    -6645   -10953   -16170   -22500   -29590 
  -36694   -43260   -49153   -54348   -58681   -62069   -64607   -66234 
  -66862   -66716   -66143   -65170   -63421   -60702   -57127   -52592 
  -47094   -41253   -35816   -31192   -27515   -24600   -21980   -19074 
  -15439   -11084    -6365    -1656     2764     6629     9696    11896 
   13296    14110    14535    14570    14263    13666    12960    12650 
   12836    13164    13528    13804    13821    13927    14647    15966 
   17443    18704    19530    19635    19180    19424    20944    22490 
   23480    24108    23733    22398    20669    18184    14592    10024 
    4733    -1038    -7087   -12991   -18271   -22966   -27525   -32107 
  -36367   -39661   -41402   -41538   -40474   -38638   -36338   -33798 
  -31132   -28302   -25207   -22014   -19209   -16989   -15186   -13645 
  -11899    -9343    -6142    -3014     -510      981     1342     1102 
     884      606     -145    -1577    -3673    -6024    -8006    -9434 
  -10392   -10723   -10427    -9797    -9000    -8094    -7057    -5845 
   -4652    -3741    -3306    -3469    -4100    -4954    -5763    -6312 
   -6723    -7060    -7011    -6537    -6193    -6404    -6711    -6713 
   -7033    -7926    -8660    -8731    -8252    -7630    -7143    -6798 
   -6592    -6451    -6216    -5700    -4720    -3462    -2345    -1443 
    -724     -356     -346     -599    -1121    -1720    -2043    -2014 
   -1913    -1869    -1720    -1635    -2231    -3868    -6193    -8601 
  -10882   -13087   -15197   -17330   -19726   -22243   -24462   -26203 
  -27350   -27733   -27463   -26889   -25973   -24232   -21811   -19190 
  -15812   -10957    -5015     1166     7290    13513    19356    23876 
   26935    28746    29444    29479    28781    26784    23635    20123 
   16880    13934    10931     7587     3912      374    -2570    -5038 
   -7206    -8896   -10087   -11072   -12104   -13501   -15467   -17677 
  -19854   -22092   -24170   -25590   -26360   -26968   -27667   -28592 
  -30030   -31913   -33946   -35928   -37423   -38155   -38280   -37836 
  -36800   -35250   -33071   -30127   -26611   -22899   -19207   -15571 
  -11847    -7705    -3284      879     4759     8305    11030    12955 
   14538    16026    17639    19445    21047    22127    22720    22663 
   21701    20122    18383    16538    14642    13084    12108    11464 
   10779     9915     8823     7404     5905     5149     5903     8067 
   10507    11976    12185    11078     8338     4805     1646    -1660 
   -5898   -10851   -16117   -21228   -25651   -29111   -31662   -33571 
  -35085   -36390   -37484   -38129   -38248   -37934   -37010   -35290 
  -33042   -30446   -27420   -24198   -21024   -17673   -13879    -9631 
   -5084     -568     3410     6532     8715     9867    10148     9875 
    9133     8039     6691     4963     2789      123    -3010    -6306 
   -9582   -12766   -15498   -17540   -19136   -20471   -21249   -21216 
  -20555   -19462   -17879   -15688   -12943    -9905    -6424    -1988 
    2835     6634     9600    13047    16306    18162    19261    19723 
   19086    18247    17570    16589    15464    14113    12177     9925 
    7486     4368      614    -3132    -6830   -10788   -14739   -18201 
  -21204   -24159   -27264   -30382   -33310   -35605   -36636   -36155 
  -34247   -31078   -26989   -22454   -17945   -13806   -10377    -8137 
   -7263    -7249    -7202    -6660    -6060    -5998    -6282    -6286 
   -5827    -5023    -3697    -1483     1692     5418     9034    12094 
   14672    17250    19954    22124    23321    23958    24411    24704 
   24988    25326    25674    26095    26262    25641    24391    23192 
   21929    19159    14491     9690     5041     -486    -5912   -10821 
  -16331   -22176   -27861   -33545   -38617   -42158   -43964   -44537 
  -44521   -44335   -43992   -43284   -42256   -41047   -39747   -38597 
  -37859   -37684   -38044   -38656   -39126   -39198   -38830   -38023 
  -36821   -35410   -34054   -32872   -31536   -29788   -27953   -26309 
  -25029   -24181   -23078   -20910   -17688   -13814    -9363    -4136 
    1596     7113    12118    16638    20387    23074    24857    26079 
   26797    27073    27406    28077    28908    29723    30408    30955 
   31162    30699    29904    29354    29194    29505    29967    29654 
   28757    28614    28890    28465    27812    26874    25058    23176 
   21617    19846    17568    14488    10541     6306     2686      262 
   -1285    -2942    -5425    -8744   -12575   -16669   -21135   -26108 
  -31313   -36599   -42104   -47777   -53524   -59098   -63877   -67506 
  -70056   -71298   -70573   -67462   -62740   -58570   -56253   -53723 
  -48122   -40259   -32783   -26454   -20746   -14821    -8617    -3480 
     356     3894     7191     9967    12297    14350    16359    17573 
   16419    12604     7720     4292     3955     5442     6485     7410 
    9236    10961    12196    13801    14672    13953    14337    16762 
   17911    17596    18433    19340    19261    19702    20625    21290 
   22000    22713    22990    22767    21916    19993    17080    13653 
    9959     6327     3176      487    -2266    -5464    -9076   -12987 
  -16763   -19622   -21159   -21656   -21653   -21594   -21729   -22008 
  -22397   -22898   -23084   -22736   -22280   -21757   -20928   -20221 
  -19993   -19704   -18833   -17619   -16382   -14958   -13171   -11325 
   -9993    -9394    -9138    -8872    -8645    -8146    -6889    -5147 
   -3425    -2057    -1477    -1417     -888      284     1418     2195 
    3031     4437     5985     6671     6199     4891     2968      222 
   -3301    -5890    -6213    -5851    -5665    -4824    -4299    -4512 
   -4185    -3454    -2696    -1553     -423      127      152       31 
     196      716     1248     1958     3519     5665     7408     8575 
    9526     9965     9185     7325     5165     2837      281    -2166 
   -4583    -7113    -9650   -12466   -15487   -18159   -20403   -22117 
  -22909   -22937   -22775   -22526   -22071   -21733   -21616   -21488 
  -21551   -21995   -22837   -24155   -25553   -26479   -26679   -25768 
  -23461   -19920   -15811   -12097    -9036    -6293    -3665     -375 
    4315     9683    14575    18431    21101    23369    26011    27474 
   26784    26666    27544    26522    24607    23461    21433    18458 
   15536    12432     9417     6920     4874     3255     1946      980 
     734     1025     1222     1257     1228     1047      491     -805 
   -2797    -5380    -8677   -12310   -15684   -18555   -20632   -21644 
  -21815   -21677   -21780   -22580   -24355   -27056   -30062   -32664 
  -34539   -35509   -35618   -35029   -33787   -32186   -30625   -29254 
  -28161   -27277   -26298   -24918   -22965   -20756   -19019   -17864 
  -16711   -15346   -13807   -11835    -9471    -7052    -4703    -2575 
    -775      744     1912     2769     3406     3626     3454     3236 
    3092     3124     3616     4813     6872     9852    13565    17202 
   19995    22675    25866    28500    30077    30685    29675    27233 
   24073    20284    16308    12811     9838     7088     4258     1226 
   -1900    -5229    -9005   -13012   -16782   -20164   -23197   -25782 
  -27961   -29893   -31271   -31810   -31902   -32164   -33032   -34547 
  -36446   -38718   -41278   -43455   -44743   -45312   -45518   -45483 
  -44968   -43560   -41090   -37756   -33761   -29176   -24277   -19489 
  -15074   -11297    -8185    -5382    -2679       87     3112     6170 
    8743    10572    11970    13329    14633    16046    17913    19970 
   21718    23177    24674    26224    27486    28248    28303    27388 
   25909    24650    23901    23548    23275    23012    23113    23270 
   22755    22089    21908    21425    20401    19420    18284    17083 
   16262    15404    14084    12533    10992     9485     8135     6682 
    4393     1271    -2248    -6298   -10831   -15304   -19491   -23487 
  -27454   -31723   -36514   -41317   -45157   -48059   -51020   -54230 
  -57069   -59012   -59649   -59095   -57842   -55919   -53195   -50049 
  -47001   -44018   -40882   -37793   -34701   -30974   -26487   -21693 
  -16728   -11789    -7507    -4287    -2087     -485     1127     2956 
    4883     6960     9324    11925    14407    16321    17632    18701 
   19817    20976    21888    22414    22994    24121    25706    27325 
   28781    30074    31120    31889    32467    32883    33083    32969 
   32368    31085    28995    25896    21843    17253    12089     6658 
    2108    -1389    -4278    -6438    -8305   -10547   -12874   -14892 
  -16548   -17682   -18602   -20002   -21656   -22631   -22430   -20892 
  -18112   -15004   -12614   -11038   -10003    -9600    -9849   -10340 
  -10673   -10827   -10715   -10096    -9014    -7875    -7016    -6151 
   -5131    -4387    -3789    -3063    -2725    -3223    -4458    -6115 
   -7713    -9095   -10640   -12203   -13078   -13302   -13432   -13747 
  -14678   -16649   -19358   -22211   -24880   -27149   -28922   -30275 
  -31436   -32553   -33272   -33070   -31740   -29308   -25786   -20926 
  -14450    -6613     1892    10335    18134    25082    31028    35436 
   37887    38580    38070    36899    35450    33929    32356    30541 
   28485    27041    26558    25287    22238    18922    16196    13804 
   11729     9491     6712     3968     2040     1078      585       29 
    -895    -2209    -3669    -5216    -7127    -9455   -11818   -13975 
  -15976   -17891   -19911   -22211   -24758   -27209   -28952   -29807 
  -30136   -30131   -29659   -28518   -26543   -23699   -20595   -18479 
  -17859   -18081   -18549   -18929   -18547   -16962   -14468   -11454 
   -8156    -4858    -1825      621     2314     3710     5517     7765 
    9681    10544    10552    10425    10256     9627     8436     6912 
    5404     3989     2276      232    -1981    -4635    -7187    -8469 
   -9110   -10817   -13035   -14278   -15805   -18734   -21778   -24688 
  -27835   -30887   -34210   -37609   -40037   -41494   -42483   -42884 
  -42347   -40690   -37858   -33831   -28593   -22602   -16778   -11400 
   -6199    -1319     3058     6952    10046    12000    12895    13080 
   12946    12479    11391     9814     8263     6962     5746     4714 
    3937     2782      751    -1905    -4624    -6799    -8338    -9485 
  -10012    -9852    -9322    -8367    -7083    -5971    -4987    -3548 
   -1321     1591     4880     8446    12356    16172    18934    20068 
   19826    18813    17602    16448    15028    13034    10482     7304 
    3837     1100    -1223    -5300   -10312   -12826   -14642   -19027 
  -23995   -28375   -32519   -35091   -36444   -37452   -37672   -37242 
  -36584   -35834   -34870   -33477   -31577   -29173   -26434   -23397 
  -20068   -16673   -13324   -10024    -7195    -5429    -4235    -2587 
    -508     1520     3138     3925     4137     4676     5928     7325 
    8199     8466     8205     7411     6284     5238     4654     4719 
    5311     6100     6863     7657     8810    10518    12379    13929 
   15465    17437    19615    21604    23177    23948    23576    22022 
   19519    16590    13530    10132     6410     2551    -1671    -6346 
  -11354   -17045   -23447   -29339   -33749   -38187   -44250   -49725 
  -52983   -55846   -57892   -57968   -57204   -55395   -52854   -51419 
  -50811   -49952   -49079   -48553   -48150   -47671   -47128   -46278 
  -44602   -41846   -38199   -33952   -29487   -24988   -19996   -14125 
   -7618     -849     5953    12529    18768    24945    31227    37209 
   42468    46951    50596    53413    55597    57180    58403    59900 
   61741    63245    63832    63244    61318    58149    54175    49773 
   45145    40508    35873    31041    26042    20896    15288     8886 
    1500    -6734   -14916   -21901   -27449   -32026   -35728   -38227 
  -39302   -39394   -39799   -40842   -41728   -43590   -47076   -50150 
  -53402   -58346   -62837   -65963   -68565   -69327   -67978   -66546 
  -64953   -61473   -56776   -53115   -51429   -50352   -47797   -44132 
  -40675   -36899   -32327   -26907   -20165   -12349    -3992     4480 
   11982    17552    21213    23256    23679    22988    22480    22911 
   23818    24505    25026    26083    28194    31048    33851    36325 
   38865    41629    44285    46704    49086    51506    53867    55859 
   56759    56081    54071    51187    47943    44881    42338    40404 
   38724    36756    33902    29428    23239    15911     7779    -1169 
  -10837   -20728   -30048   -38281   -45389   -51498   -56957   -62304 
  -67434   -71147   -72787   -73201   -72420   -69936   -67344   -66334 
  -66584   -66827   -65571   -62918   -61136   -60856   -59893   -57136 
  -53794   -51085   -49094   -47081   -44489   -41631   -38938   -36389 
  -33738   -30619   -26790   -22304   -17276   -12059    -7601    -4877 
   -3521    -1894      689     3463     6324     9908    14023    18064 
   21848    25426    29082    32994    36837    40280    43353    46289 
   49254    52269    55458    58970    62718    66445    69902    72568 
   73471    72836    72175    71025    68423    65626    62836    59174 
   54900    49558    42317    33551    24102    14590     5290    -3779 
  -12732   -21580   -30293   -39113   -48156   -57099   -65288   -72047 
  -77149   -80778   -83143   -84297   -84284   -83606   -82935   -82231 
  -81036   -79397   -78049   -76735   -72807   -65554   -59546   -57536 
  -56155   -52937   -49536   -47298   -45319   -41954   -36681   -30371 
  -23736   -16775    -9317    -1422     6223    13036    19284    24999 
   29591    33193    36580    39633    41584    42129    41129    38450 
   34421    29668    24873    20927    18500    17213    16266    15309 
   14124    12723    11301     9975     9201     9370    10450    12575 
   15147    16630    17784    20560    23137    23689    23789    23255 
   21295    19725    19075    17983    15949    12822     8330     3044 
   -2329    -7745   -13068   -18055   -22644   -26710   -30083   -32473 
  -33548   -33182   -31540   -28975   -25728   -22118   -18894   -16550 
  -14990   -14093   -13736   -13770   -14158   -14802   -15659   -16607 
  -17202   -17286   -17092   -16613   -15782   -14832   -13868   -12708 
  -11164    -8873    -5403     -789     4515    10025    15355    19923 
   22927    24325    24881    24761    23714    22084    20185    17741 
   14416    10149     5079     -493    -6209   -11781   -17027   -21896 
  -26502   -30812   -34567   -37998   -41519   -44364   -45590   -45571 
  -44450   -41849   -38348   -34405   -29919   -25390   -21376   -17895 
  -14929   -12615   -10883    -9500    -8459    -7551    -6186    -4086 
   -1458     1435     4465     7455    10232    12787    15217    17680 
   20029    21817    22998    23812    24192    23830    22734    21448 
   20462    19919    19920    20346    20828    21220    21525    21488 
   20862    19793    18271    15806    12158     7588     2546    -2234 
   -6265    -9745   -12828   -15568   -17913   -19500   -20739   -22453 
  -24521   -26580   -28228   -28711   -28597   -29697   -30916   -29823 
  -28666   -28966   -28108   -26976   -27225   -26765   -25096   -23342 
  -21997   -22372   -24500   -24697   -20232   -14490   -11795   -10437 
   -7023    -2572      590     2215     2381     1246      -94     -854 
    -958     -530       28      442      483      -86     -503      114 
    1045     1098      566      730     1994     3657     5146     6234 
    6743     6680     5984     4519     2526      322    -1995    -4154 
   -5940    -7710    -9757   -11734   -13229   -14163   -14638   -14942 
  -15490   -16827   -19638   -23847   -28261   -31961   -34917   -37310 
  -39079   -39443   -37649   -34595   -31102   -25770   -18353   -11389 
   -5575     -447     2592     4809     9501    15171    18480    20346 
   22829    24956    25101    23472    21277    19664    18676    17254 
   14914    11970     8225     2983    -3662   -10553   -16876   -22865 
  -28833   -34548   -39346   -42614   -44389   -45014   -44669   -43502 
  -41614   -38961   -35451   -31326   -27143   -23118   -19144   -15243 
  -11281    -6834    -1755     3401     7792    11222    14235    17247 
   20165    22640    24296    24965    24733    23838    22687    21650 
   20842    20163    18943    16188    11807     6787     2053    -2086 
   -5502    -8021    -9758   -11083   -12250   -13186   -13402   -12361 
  -10154    -7462    -4472     -583     3973     8206    11936    14047 
   13237    11984    12211    12149    12048    12726    12105     9961 
    8057     6512     5012     3625     1873     -826    -4445    -8323 
  -11688   -14122   -15787   -17395   -19462   -21827   -24229   -26418 
  -28045   -29224   -30455   -31898   -33286   -34366   -35110   -35405 
  -34783   -32784   -29560   -25715   -21631   -17446   -13516   -10096 
   -6925    -3684     -166     3292     5711     6812     7149     7434 
    8241     9360    10227    10389     8976     5702     1832    -1565 
   -4555    -7102    -9061   -10662   -12116   -13543   -15016   -16730 
  -18987   -21497   -23458   -24269   -23668   -21737   -18765   -14928 
  -10693    -6644    -2218     3007     7188     9403    11589    13807 
   14532    14757    14901    13758    11871    10003     8063     6501 
    5321     3780     1515    -1476    -4890    -7782    -9300    -9601 
   -9760   -10794   -12529   -14275   -15963   -17654   -19188   -20147 
  -19733   -17737   -14870   -11742    -8662    -5818    -3271    -1246 
     184     1167     1624     1556     1172      530     -382    -1534 
   -2814    -3843    -3969    -2637      123     3766     7649    11182 
   13955    15721    16333    16076    15622    15363    15276    15533 
   16243    16649    15861    13720    10414     6218     1431    -3696 
   -8747   -13519   -18020   -21845   -24951   -27929   -30697   -32718 
  -34031   -34573   -33430   -30771   -28948   -28438   -27008   -25165 
  -24675   -24323   -23568   -23050   -22167   -21402   -21358   -21024 
  -20313   -19707   -18716   -17008   -14771   -11975    -8231    -3565 
    1158     5226     8283     9808    10080    10277    10773    11212 
   11582    11797    11744    11778    11826    11403    11001    11571 
   13129    14942    16190    16265    14886    12246     9084     5952 
    2884       15    -2315    -4020    -5394    -6651    -7897    -9576 
  -11981   -14882   -18005   -20822   -22451   -22739   -22501   -22428 
  -22717   -23295   -23744   -23680   -23175   -22388   -21373   -20235 
  -19226   -18755   -18947   -19443   -19945   -20492   -21251   -22220 
  -22884   -22372   -20427   -17895   -15286   -11753    -7474    -3767 
     344     6200    12712    19130    25500    30873    34561    36948 
   38391    38817    38007    35974    33127    29744    25868    21610 
   16738    10802     4164    -1977    -6785   -10434   -13390   -15702 
  -17188   -17848   -17987   -17966   -17773   -17161   -16134   -14951 
