Origin Time       2011/03/11 14:46:00
Lat.              38.103
Long.             142.860
Depth. (km)       24
Mag.              9.0
Station Code      HKD150
Station Lat.      42.7010
Station Long.     140.0619
Station Height(m) 6
Record Time       2011/03/11 14:48:10
Sampling Freq(Hz) 100Hz
Duration Time(s)  213
Dir.              U-D
Scale Factor      3920(gal)/6182761
Max. Acc. (gal)   2.087
Last Correction   2011/03/11 14:47:55
Memo.             
[...]
   -7792    -7845    -7872    -7901    -7940    -7956    -7940    -7904 
   -7855    -7819    -7822    -7865    -7927    -7965    -7961    -7943 
   -7924    -7881    -7817    -7772    -7731    -7647    -7550    -7485 
   -7420    -7333    -7243    -7158    -7092    -7061    -7054    -7036 
   -6995    -6960    -6950    -6968    -6994    -6993    -6967    -6941 
   -6908    -6861    -6829    -6834    -6885    -6968    -7042    -7088 
   -7131    -7196    -7262    -7302    -7314    -7292    -7242    -7183 
   -7103    -7009    -6946    -6919    -6905    -6899    -6888    -6865 
   -6857    -6876    -6892    -6894    -6910    -6936    -6942    -6947 
   -6961    -6945    -6902    -6881    -6879    -6894    -6942    -7006 
   -7066    -7108    -7126    -7143    -7173    -7210    -7253    -7303 
   -7335    -7324    -7295    -7262    -7204    -7134    -7078    -7028 
   -7004    -7027    -7059    -7064    -7073    -7106    -7149    -7191 
   -7217    -7207    -7186    -7201    -7232    -7236    -7217    -7187 
   -7148    -7124    -7120    -7111    -7090    -7052    -6987    -6915 
   -6872    -6863    -6877    -6897    -6893    -6875    -6869    -6866 
   -6865    -6905    -6992    -7069    -7121    -7172    -7215    -7243 
   -7268    -7286    -7296    -7310    -7320    -7306    -7271    -7215 
   -7146    -7105    -7103    -7100    -7090    -7112    -7144    -7141 
   -7117    -7084    -7047    -7031    -7031    -7029    -7033    -7041 
   -7046    -7060    -7097    -7146    -7202    -7258    -7295    -7316 
   -7358    -7428    -7491    -7526    -7550    -7585    -7611    -7589 
   -7526    -7481    -7472    -7445    -7388    -7354    -7364    -7396 
   -7458    -7540    -7586    -7586    -7585    -7587    -7572    -7548 
   -7519    -7479    -7437    -7388    -7330    -7292    -7260    -7207 
   -7162    -7144    -7109    -7059    -7022    -6986    -6939    -6885 
   -6846    -6846    -6862    -6845    -6787    -6746    -6750    -6760 
   -6757    -6752    -6729    -6703    -6708    -6739    -6790    -6861 
   -6919    -6933    -6933    -6951    -6978    -6999    -7000    -6959 
   -6899    -6873    -6844    -6770    -6708    -6691    -6707    -6743 
   -6764    -6755    -6733    -6698    -6642    -6590    -6545    -6484 
   -6433    -6433    -6453    -6447    -6423    -6388    -6336    -6300 
   -6299    -6296    -6293    -6306    -6300    -6278    -6292    -6338 
   -6377    -6401    -6404    -6394    -6424    -6495    -6532    -6519 
   -6520    -6548    -6573    -6596    -6610    -6591    -6559    -6541 
   -6515    -6464    -6403    -6350    -6333    -6348    -6357    -6365 
   -6397    -6444    -6497    -6567    -6653    -6740    -6817    -6870 
   -6918    -6994    -7079    -7116    -7117    -7138    -7170    -7189 
   -7209    -7241    -7260    -7266    -7281    -7309    -7364    -7439 
   -7475    -7473    -7492    -7508    -7480    -7442    -7402    -7354 
   -7330    -7337    -7323    -7242    -7124    -7034    -6990    -6970 
   -6962    -6977    -7005    -6994    -6955    -6951    -6954    -6913 
   -6884    -6910    -6923    -6890    -6846    -6790    -6728    -6687 
   -6660    -6642    -6623    -6551    -6425    -6313    -6240    -6170 
   -6098    -6035    -5946    -5818    -5705    -5634    -5586    -5548 
   -5500    -5426    -5355    -5295    -5229    -5189    -5204    -5250 
   -5303    -5367    -5437    -5495    -5565    -5652    -5728    -5823 
   -5963    -6097    -6205    -6287    -6332    -6372    -6427    -6462 
   -6462    -6451    -6434    -6417    -6409    -6407    -6401    -6416 
   -6483    -6573    -6651    -6722    -6778    -6817    -6854    -6875 
   -6882    -6903    -6923    -6910    -6892    -6904    -6909    -6899 
   -6913    -6942    -6957    -6956    -6938    -6910    -6886    -6857 
   -6831    -6825    -6816    -6779    -6742    -6737    -6739    -6724 
   -6725    -6743    -6760    -6799    -6859    -6906    -6958    -7053 
   -7162    -7243    -7300    -7349    -7387    -7403    -7398    -7391 
   -7402    -7405    -7378    -7366    -7392    -7415    -7427    -7437 
   -7418    -7375    -7329    -7263    -7180    -7111    -7048    -6970 
   -6891    -6804    -6701    -6617    -6549    -6474    -6421    -6386 
   -6327    -6251    -6195    -6158    -6119    -6082    -6052    -6007 
   -5954    -5932    -5944    -5965    -5993    -6051    -6151    -6274 
   -6385    -6472    -6546    -6606    -6637    -6666    -6730    -6801 
   -6836    -6826    -6779    -6714    -6634    -6515    -6372    -6237 
   -6085    -5914    -5773    -5665    -5548    -5429    -5342    -5287 
   -5265    -5285    -5309    -5323    -5361    -5408    -5451    -5525 
   -5627    -5725    -5816    -5896    -5946    -5979    -6021    -6056 
   -6054    -6054    -6086    -6104    -6096    -6083    -6052    -6000 
   -5932    -5849    -5770    -5698    -5623    -5561    -5505    -5438 
   -5387    -5370    -5359    -5341    -5326    -5325    -5341    -5365 
   -5374    -5375    -5408    -5481    -5558    -5625    -5692    -5740 
   -5759    -5773    -5788    -5800    -5821    -5847    -5868    -5889 
   -5910    -5919    -5918    -5924    -5921    -5886    -5850    -5856 
   -5875    -5879    -5887    -5900    -5912    -5936    -5967    -6010 
   -6088    -6173    -6236    -6293    -6350    -6389    -6416    -6440 
   -6451    -6453    -6452    -6419    -6363    -6325    -6285    -6214 
   -6135    -6060    -5993    -5956    -5946    -5920    -5868    -5818 
   -5764    -5708    -5691    -5703    -5705    -5710    -5725    -5744 
   -5780    -5802    -5789    -5774    -5776    -5782    -5789    -5813 
   -5840    -5841    -5826    -5795    -5723    -5630    -5532    -5419 
   -5315    -5234    -5152    -5075    -5018    -4976    -4942    -4927 
   -4944    -4986    -5067    -5188    -5287    -5335    -5376    -5438 
   -5512    -5567    -5584    -5584    -5599    -5633    -5662    -5681 
   -5708    -5722    -5700    -5676    -5670    -5679    -5696    -5698 
   -5674    -5653    -5639    -5616    -5592    -5565    -5533    -5533 
   -5561    -5553    -5506    -5468    -5454    -5466    -5513    -5573 
   -5619    -5669    -5747    -5848    -5973    -6107    -6214    -6295 
   -6368    -6412    -6413    -6408    -6425    -6459    -6485    -6481 
   -6444    -6426    -6474    -6556    -6634    -6713    -6786    -6842 
   -6887    -6921    -6966    -7044    -7106    -7121    -7131    -7166 
   -7215    -7262    -7299    -7312    -7311    -7339    -7391    -7427 
   -7472    -7538    -7601    -7666    -7713    -7720    -7731    -7762 
   -7764    -7735    -7718    -7712    -7694    -7676    -7651    -7598 
   -7548    -7527    -7509    -7486    -7470    -7464    -7499    -7566 
   -7595    -7576    -7572    -7600    -7621    -7636    -7653    -7644 
   -7616    -7611    -7629    -7669    -7739    -7801    -7832    -7852 
   -7863    -7865    -7902    -7969    -7999    -7994    -7991    -7960 
   -7895    -7824    -7733    -7608    -7475    -7345    -7209    -7088 
   -7002    -6954    -6929    -6894    -6839    -6799    -6781    -6752 
   -6729    -6750    -6789    -6827    -6859    -6853    -6823    -6828 
   -6871    -6906    -6916    -6913    -6892    -6860    -6842    -6825 
   -6796    -6775    -6748    -6686    -6612    -6553    -6484    -6400 
   -6328    -6264    -6187    -6097    -6002    -5935    -5935    -5969 
   -6003    -6063    -6124    -6142    -6151    -6178    -6214    -6261 
   -6313    -6353    -6386    -6432    -6473    -6485    -6495    -6528 
   -6567    -6604    -6637    -6654    -6666    -6679    -6672    -6658 
   -6670    -6688    -6699    -6726    -6753    -6742    -6727    -6746 
   -6766    -6767    -6778    -6795    -6804    -6813    -6813    -6797 
   -6803    -6852    -6894    -6899    -6884    -6869    -6862    -6842 
   -6800    -6780    -6800    -6811    -6801    -6800    -6809    -6813 
   -6826    -6854    -6870    -6880    -6916    -6959    -6983    -7007 
   -7020    -7003    -6979    -6947    -6884    -6805    -6738    -6673 
   -6602    -6540    -6492    -6477    -6516    -6583    -6658    -6761 
   -6880    -6984    -7077    -7184    -7282    -7341    -7377    -7403 
   -7422    -7449    -7476    -7485    -7493    -7495    -7476    -7451 
   -7425    -7401    -7401    -7415    -7411    -7380    -7353    -7342 
   -7325    -7302    -7265    -7204    -7149    -7100    -7037    -6988 
   -6956    -6904    -6853    -6837    -6850    -6875    -6901    -6923 
   -6958    -7032    -7139    -7234    -7319    -7417    -7497    -7561 
   -7640    -7722    -7783    -7813    -7820    -7829    -7862    -7904 
   -7919    -7921    -7949    -8000    -8059    -8112    -8134    -8137 
   -8143    -8148    -8148    -8151    -8154    -8140    -8121    -8101 
   -8042    -7963    -7920    -7889    -7844    -7822    -7821    -7787 
   -7724    -7667    -7609    -7545    -7483    -7413    -7334    -7257 
   -7187    -7135    -7104    -7064    -6993    -6923    -6876    -6826 
   -6753    -6664    -6575    -6511    -6466    -6418    -6370    -6347 
   -6341    -6341    -6358    -6373    -6359    -6349    -6371    -6408 
   -6445    -6474    -6489    -6489    -6474    -6442    -6405    -6389 
   -6379    -6339    -6284    -6249    -6241    -6281    -6353    -6410 
   -6448    -6483    -6520    -6555    -6586    -6614    -6630    -6633 
   -6622    -6587    -6545    -6496    -6453    -6465    -6521    -6558 
   -6580    -6617    -6651    -6672    -6702    -6738    -6762    -6770 
   -6768    -6753    -6747    -6764    -6760    -6734    -6735    -6754 
   -6766    -6785    -6807    -6817    -6827    -6852    -6877    -6901 
   -6944    -6997    -7055    -7113    -7144    -7146    -7145    -7146 
   -7139    -7116    -7075    -7036    -7016    -7001    -6964    -6916 
   -6893    -6886    -6884    -6912    -6954    -6975    -6980    -6983 
   -6986    -7005    -7040    -7046    -7002    -6954    -6913    -6873 
   -6863    -6880    -6897    -6919    -6935    -6957    -7028    -7107 
   -7146    -7184    -7237    -7262    -7254    -7229    -7188    -7138 
   -7093    -7039    -6972    -6921    -6890    -6864    -6867    -6887 
   -6866    -6823    -6816    -6843    -6878    -6921    -6959    -6982 
   -7008    -7038    -7073    -7139    -7227    -7298    -7354    -7422 
   -7490    -7534    -7576    -7645    -7720    -7789    -7846    -7880 
   -7916    -7963    -7985    -7993    -8015    -8044    -8080    -8126 
   -8157    -8171    -8180    -8163    -8114    -8068    -8032    -7990 
   -7948    -7897    -7825    -7748    -7671    -7588    -7501    -7423 
   -7356    -7280    -7202    -7153    -7118    -7093    -7096    -7089 
   -7053    -7021    -6977    -6898    -6830    -6810    -6814    -6816 
   -6816    -6797    -6758    -6715    -6662    -6611    -6592    -6584 
   -6565    -6556    -6551    -6550    -6551    -6514    -6428    -6339 
   -6270    -6205    -6141    -6085    -6025    -5974    -5969    -5972 
   -5932    -5914    -5965    -6018    -6041    -6048    -6036    -6030 
   -6068    -6116    -6137    -6165    -6215    -6263    -6304    -6343 
   -6379    -6436    -6504    -6548    -6599    -6693    -6780    -6824 
   -6864    -6926    -6988    -7031    -7037    -6992    -6932    -6889 
   -6858    -6852    -6866    -6869    -6862    -6872    -6900    -6928 
   -6977    -7052    -7107    -7139    -7174    -7209    -7247    -7293 
   -7337    -7391    -7465    -7535    -7586    -7640    -7702    -7756 
   -7819    -7891    -7946    -7990    -8040    -8078    -8082    -8063 
   -8034    -8009    -8000    -7983    -7943    -7892    -7832    -7763 
   -7706    -7669    -7633    -7594    -7562    -7521    -7469    -7422 
   -7377    -7336    -7303    -7253    -7194    -7162    -7145    -7119 
   -7108    -7133    -7156    -7149    -7141    -7144    -7142    -7134 
   -7106    -7068    -7060    -7081    -7101    -7113    -7125    -7124 
   -7104    -7091    -7086    -7077    -7080    -7085    -7080    -7062 
   -7020    -6990    -7000    -7017    -7021    -7022    -7014    -6989 
   -6952    -6935    -6965    -7024    -7070    -7071    -7032    -6999 
   -6998    -7026    -7092    -7178    -7230    -7240    -7246    -7261 
   -7252    -7225    -7227    -7253    -7255    -7222    -7190    -7195 
   -7208    -7180    -7137    -7108    -7073    -7045    -7048    -7030 
   -6970    -6920    -6884    -6828    -6784    -6766    -6730    -6693 
   -6686    -6673    -6639    -6628    -6634    -6624    -6613    -6626 
   -6659    -6699    -6737    -6761    -6763    -6739    -6702    -6684 
   -6683    -6666    -6644    -6630    -6603    -6553    -6523    -6530 
   -6528    -6508    -6491    -6463    -6428    -6402    -6369    -6321 
   -6266    -6211    -6171    -6151    -6122    -6086    -6078    -6080 
   -6059    -6032    -6039    -6064    -6073    -6084    -6099    -6074 
   -6015    -5972    -5951    -5932    -5914    -5904    -5896    -5881 
   -5864    -5857    -5866    -5863    -5836    -5813    -5786    -5738 
   -5712    -5722    -5723    -5705    -5685    -5656    -5622    -5591 
   -5552    -5525    -5526    -5483    -5375    -5299    -5280    -5254 
   -5225    -5212    -5192    -5155    -5130    -5124    -5116    -5102 
   -5072    -5008    -4937    -4880    -4821    -4761    -4703    -4628 
   -4554    -4510    -4483    -4457    -4450    -4466    -4477    -4466 
   -4447    -4452    -4479    -4490    -4472    -4460    -4459    -4451 
   -4440    -4439    -4420    -4352    -4269    -4213    -4177    -4150 
   -4124    -4086    -4042    -3994    -3908    -3802    -3741    -3720 
   -3688    -3643    -3604    -3589    -3613    -3659    -3691    -3714 
   -3759    -3812    -3857    -3909    -3971    -4042    -4114    -4162 
   -4191    -4236    -4300    -4367    -4435    -4498    -4557    -4625 
   -4698    -4743    -4768    -4799    -4815    -4808    -4826    -4880 
   -4927    -4956    -4990    -5029    -5061    -5080    -5096    -5136 
   -5198    -5239    -5249    -5255    -5254    -5241    -5237    -5237 
   -5207    -5151    -5109    -5089    -5068    -5055    -5062    -5070 
   -5071    -5067    -5063    -5090    -5142    -5193    -5263    -5338 
   -5360    -5339    -5330    -5344    -5375    -5436    -5488    -5470 
   -5400    -5329    -5272    -5255    -5286    -5333    -5389    -5453 
   -5505    -5552    -5620    -5703    -5759    -5774    -5789    -5820 
   -5863    -5922    -5976    -6001    -6000    -5998    -6041    -6131 
   -6205    -6228    -6243    -6283    -6333    -6394    -6467    -6520 
   -6551    -6564    -6534    -6494    -6492    -6509    -6539    -6598 
   -6644    -6637    -6627    -6659    -6692    -6717    -6775    -6822 
   -6819    -6807    -6786    -6745    -6730    -6747    -6744    -6707 
   -6674    -6674    -6704    -6759    -6794    -6772    -6735    -6726 
   -6735    -6757    -6774    -6758    -6728    -6708    -6689    -6688 
   -6744    -6839    -6927    -7000    -7060    -7115    -7190    -7267 
   -7314    -7350    -7379    -7369    -7330    -7286    -7231    -7170 
   -7123    -7091    -7042    -6960    -6863    -6781    -6744    -6719 
   -6631    -6512    -6418    -6311    -6197    -6127    -6062    -5961 
   -5852    -5753    -5653    -5553    -5459    -5361    -5277    -5226 
   -5193    -5175    -5186    -5194    -5191    -5203    -5220    -5212 
   -5200    -5206    -5206    -5195    -5183    -5158    -5130    -5137 
   -5156    -5160    -5179    -5208    -5215    -5205    -5185    -5146 
   -5104    -5085    -5063    -5010    -4944    -4888    -4833    -4776 
   -4720    -4653    -4592    -4576    -4587    -4597    -4619    -4657 
   -4704    -4771    -4849    -4918    -4993    -5067    -5119    -5174 
   -5251    -5323    -5396    -5481    -5556    -5622    -5700    -5769 
   -5808    -5844    -5893    -5913    -5898    -5897    -5914    -5933 
   -5968    -5998    -5999    -5997    -6021    -6053    -6074    -6106 
   -6175    -6263    -6348    -6430    -6502    -6568    -6635    -6705 
   -6781    -6843    -6888    -6926    -6928    -6887    -6850    -6834 
   -6812    -6779    -6775    -6804    -6831    -6880    -6970    -7058 
   -7142    -7239    -7310    -7361    -7443    -7514    -7531    -7547 
   -7582    -7592    -7580    -7564    -7532    -7507    -7502    -7482 
   -7451    -7448    -7454    -7432    -7398    -7363    -7334    -7338 
   -7352    -7330    -7286    -7246    -7202    -7154    -7112    -7074 
   -7060    -7067    -7045    -7001    -6985    -6982    -6963    -6940 
   -6887    -6809    -6782    -6781    -6739    -6698    -6680    -6659 
   -6642    -6637    -6638    -6622    -6612    -6640    -6673    -6706 
   -6786    -6898    -6991    -7066    -7163    -7277    -7379    -7490 
   -7617    -7724    -7786    -7801    -7806    -7830    -7841    -7829 
   -7837    -7852    -7824    -7756    -7671    -7576    -7506    -7465 
   -7403    -7326    -7257    -7184    -7114    -7059    -7007    -6954 
   -6891    -6802    -6706    -6666    -6696    -6712    -6678    -6670 
   -6692    -6684    -6697    -6758    -6818    -6884    -6973    -7062 
   -7139    -7192    -7229    -7281    -7337    -7371    -7410    -7455 
   -7472    -7480    -7511    -7544    -7566    -7593    -7632    -7674 
   -7717    -7750    -7757    -7748    -7756    -7786    -7806    -7807 
   -7805    -7800    -7808    -7835    -7855    -7886    -7945    -7992 
   -8014    -8051    -8110    -8166    -8210    -8234    -8226    -8216 
   -8238    -8281    -8314    -8326    -8323    -8313    -8306    -8302 
   -8285    -8246    -8194    -8143    -8095    -8063    -8043    -8002 
   -7931    -7850    -7767    -7696    -7637    -7577    -7531    -7492 
   -7434    -7382    -7356    -7318    -7259    -7217    -7197    -7189 
   -7203    -7232    -7243    -7232    -7227    -7222    -7208    -7201 
   -7212    -7252    -7321    -7362    -7360    -7372    -7389    -7354 
   -7297    -7274    -7261    -7235    -7231    -7243    -7244    -7252 
   -7280    -7318    -7367    -7403    -7406    -7407    -7424    -7434 
   -7443    -7467    -7475    -7469    -7496    -7540    -7558    -7569 
   -7601    -7638    -7667    -7691    -7709    -7728    -7750    -7753 
   -7745    -7758    -7785    -7816    -7870    -7929    -7955    -7957 
   -7952    -7931    -7907    -7897    -7875    -7839    -7814    -7782 
   -7723    -7667    -7645    -7631    -7604    -7569    -7517    -7462 
   -7426    -7372    -7300    -7271    -7278    -7290    -7323    -7366 
   -7388    -7401    -7420    -7427    -7434    -7479    -7526    -7533 
   -7527    -7507    -7468    -7457    -7456    -7423    -7396    -7398 
   -7371    -7306    -7274    -7290    -7297    -7280    -7260    -7236 
   -7219    -7218    -7210    -7194    -7179    -7153    -7128    -7120 
   -7107    -7078    -7059    -7069    -7112    -7185    -7246    -7256 
   -7256    -7290    -7307    -7289    -7291    -7309    -7314    -7342 
   -7393    -7415    -7407    -7394    -7368    -7346    -7347    -7338 
   -7324    -7322    -7304    -7273    -7264    -7278    -7310    -7359 
   -7405    -7440    -7482    -7550    -7621    -7657    -7673    -7709 
   -7766    -7830    -7876    -7899    -7936    -7988    -8014    -8016 
   -8028    -8032    -8011    -7996    -7992    -7971    -7948    -7940 
   -7928    -7925    -7947    -7961    -7950    -7947    -7963    -7995 
   -8040    -8071    -8070    -8066    -8089    -8131    -8179    -8222 
   -8234    -8208    -8185    -8176    -8159    -8168    -8205    -8219 
