Origin Time       2011/03/11 14:46:00
Lat.              38.103
Long.             142.860
Depth. (km)       24
Mag.              9.0
Station Code      HKD148
Station Lat.      42.6680
Station Long.     140.3050
Station Height(m) 25
Record Time       2011/03/11 14:48:14
Sampling Freq(Hz) 100Hz
Duration Time(s)  300
Dir.              E-W
Scale Factor      3920(gal)/6182761
Max. Acc. (gal)   7.664
Last Correction   2011/03/11 14:47:59
Memo.             
[...]
   -2962    -3120    -3249    -3393    -3566    -3744    -3875    -3915 
   -3870    -3763    -3620    -3494    -3433    -3438    -3481    -3543 
   -3613    -3672    -3715    -3765    -3870    -4095    -4465    -4923 
   -5396    -5859    -6307    -6726    -7116    -7476    -7800    -8075 
   -8302    -8500    -8683    -8846    -8999    -9182    -9409    -9653 
   -9869   -10013   -10053    -9999    -9911    -9849    -9845    -9888 
   -9959   -10026   -10041    -9984    -9859    -9683    -9502    -9350 
   -9213    -9064    -8892    -8714    -8574    -8515    -8569    -8728 
   -8929    -9098    -9194    -9200    -9111    -8947    -8767    -8615 
   -8490    -8382    -8288    -8180    -8042    -7906    -7805    -7745 
   -7695    -7596    -7420    -7199    -6975    -6784    -6654    -6594 
   -6611    -6691    -6797    -6921    -7087    -7305    -7566    -7858 
   -8172    -8491    -8774    -8979    -9089    -9104    -9035    -8896 
   -8689    -8424    -8143    -7908    -7764    -7729    -7780    -7863 
   -7936    -7991    -8049    -8137    -8283    -8503    -8782    -9051 
   -9230    -9286    -9249    -9153    -9009    -8826    -8626    -8436 
   -8273    -8150    -8092    -8112    -8198    -8346    -8568    -8848 
   -9153    -9463    -9769   -10053   -10296   -10481   -10596   -10637 
  -10616   -10546   -10426   -10241    -9961    -9569    -9085    -8556 
   -8034    -7555    -7143    -6817    -6584    -6431    -6326    -6223 
   -6082    -5896    -5703    -5529    -5350    -5116    -4789    -4357 
   -3851    -3349    -2922    -2607    -2420    -2366    -2431    -2576 
   -2754    -2932    -3113    -3336    -3625    -3942    -4224    -4426 
   -4536    -4581    -4599    -4606    -4568    -4445    -4239    -4009 
   -3823    -3706    -3637    -3604    -3595    -3588    -3579    -3593 
   -3667    -3808    -4015    -4289    -4621    -4974    -5318    -5636 
   -5902    -6095    -6235    -6357    -6475    -6579    -6647    -6679 
   -6689    -6682    -6655    -6630    -6637    -6681    -6743    -6807 
   -6869    -6918    -6938    -6940    -6984    -7107    -7289    -7477 
   -7598    -7602    -7512    -7395    -7332    -7366    -7465    -7574 
   -7674    -7773    -7882    -8015    -8168    -8319    -8453    -8552 
   -8582    -8500    -8261    -7873    -7405    -6938    -6536    -6218 
   -5946    -5673    -5374    -5040    -4676    -4303    -3940    -3593 
   -3247    -2879    -2480    -2070    -1699    -1420    -1285    -1336 
   -1582    -1983    -2486    -3039    -3603    -4173    -4768    -5397 
   -6039    -6654    -7228    -7791    -8379    -8988    -9553    -9980 
  -10227   -10310   -10278   -10187   -10085    -9991    -9901    -9802 
   -9683    -9538    -9353    -9127    -8878    -8633    -8405    -8184 
   -7949    -7684    -7396    -7114    -6860    -6643    -6450    -6256 
   -6042    -5831    -5671    -5621    -5721    -5954    -6253    -6554 
   -6837    -7118    -7405    -7691    -7966    -8221    -8450    -8653 
   -8835    -8985    -9077    -9096    -9055    -8967    -8822    -8612 
   -8329    -7988    -7646    -7374    -7182    -7004    -6781    -6485 
   -6103    -5680    -5300    -5009    -4797    -4648    -4558    -4522 
   -4508    -4475    -4396    -4274    -4147    -4054    -4019    -4052 
   -4157    -4342    -4619    -4979    -5416    -5936    -6521    -7121 
   -7705    -8267    -8795    -9267    -9659    -9952   -10148   -10271 
  -10346   -10381   -10387   -10381   -10365   -10328   -10271   -10175 
  -10012    -9786    -9526    -9247    -8953    -8640    -8313    -7978 
   -7630    -7255    -6852    -6429    -5994    -5568    -5169    -4796 
   -4426    -4047    -3663    -3284    -2920    -2603    -2386    -2308 
   -2372    -2552    -2811    -3110    -3415    -3717    -4023    -4347 
   -4695    -5071    -5474    -5885    -6262    -6566    -6793    -6965 
   -7100    -7189    -7205    -7142    -7025    -6894    -6778    -6671 
   -6542    -6389    -6242    -6115    -6007    -5923    -5886    -5920 
   -6023    -6161    -6306    -6457    -6631    -6853    -7140    -7488 
   -7878    -8299    -8742    -9189    -9623   -10028   -10396   -10727 
  -11004   -11194   -11283   -11280   -11212   -11119   -11031   -10928 
  -10766   -10531   -10233    -9888    -9517    -9139    -8769    -8425 
   -8127    -7883    -7693    -7548    -7418    -7257    -7043    -6792 
   -6505    -6193    -5898    -5664    -5491    -5339    -5185    -5050 
   -4966    -4945    -4985    -5087    -5256    -5511    -5876    -6337 
   -6819    -7229    -7528    -7738    -7898    -8032    -8160    -8298 
   -8442    -8576    -8685    -8755    -8777    -8768    -8756    -8760 
   -8776    -8798    -8834    -8886    -8933    -8938    -8864    -8701 
   -8473    -8224    -7978    -7755    -7576    -7456    -7374    -7285 
   -7164    -7008    -6824    -6637    -6484    -6409    -6433    -6532 
   -6680    -6856    -7018    -7138    -7204    -7200    -7103    -6925 
   -6742    -6608    -6516    -6447    -6384    -6298    -6174    -6022 
   -5850    -5632    -5357    -5056    -4795    -4625    -4554    -4552 
   -4597    -4670    -4748    -4817    -4866    -4858    -4765    -4622 
   -4507    -4475    -4527    -4638    -4785    -4954    -5124    -5263 
   -5340    -5348    -5326    -5333    -5405    -5549    -5745    -5962 
   -6182    -6397    -6595    -6772    -6945    -7136    -7342    -7542 
   -7703    -7815    -7908    -8045    -8269    -8560    -8839    -9027 
   -9093    -9050    -8931    -8774    -8621    -8487    -8333    -8098 
   -7769    -7392    -7025    -6698    -6410    -6158    -5937    -5739 
   -5571    -5445    -5328    -5155    -4907    -4622    -4333    -4078 
   -3903    -3829    -3826    -3844    -3856    -3851    -3790    -3643 
   -3453    -3284    -3172    -3118    -3116    -3142    -3175    -3208 
   -3241    -3283    -3355    -3471    -3623    -3804    -4029    -4322 
   -4696    -5142    -5639    -6159    -6670    -7149    -7579    -7935 
   -8196    -8348    -8389    -8355    -8305    -8271    -8260    -8275 
   -8311    -8375    -8492    -8671    -8910    -9188    -9464    -9718 
   -9960   -10192   -10404   -10595   -10760   -10893   -10998   -11087 
  -11152   -11159   -11068   -10855   -10554   -10240    -9983    -9806 
   -9665    -9485    -9210    -8825    -8361    -7881    -7421    -6976 
   -6543    -6119    -5696    -5278    -4865    -4456    -4095    -3824 
   -3650    -3560    -3524    -3494    -3430    -3318    -3184    -3086 
   -3070    -3127    -3193    -3197    -3105    -2915    -2662    -2396 
   -2156    -1941    -1732    -1512    -1264     -983     -689     -415 
    -194      -54       -4      -29      -87     -133     -145     -125 
     -79       -5       86      152      148       42     -166     -441 
    -733    -1001    -1230    -1440    -1654    -1880    -2101    -2295 
   -2463    -2623    -2815    -3068    -3370    -3687    -4012    -4363 
   -4758    -5191    -5621    -6008    -6333    -6601    -6834    -7051 
   -7251    -7430    -7592    -7726    -7816    -7862    -7890    -7924 
   -7958    -7956    -7876    -7693    -7420    -7121    -6866    -6687 
   -6574    -6482    -6355    -6159    -5894    -5590    -5276    -4965 
   -4670    -4408    -4191    -4022    -3900    -3821    -3781    -3782 
   -3840    -3970    -4150    -4336    -4517    -4713    -4942    -5213 
   -5522    -5861    -6212    -6563    -6920    -7284    -7647    -7991 
   -8282    -8474    -8547    -8526    -8461    -8374    -8282    -8218 
   -8205    -8231    -8288    -8377    -8498    -8632    -8772    -8943 
   -9178    -9471    -9762    -9999   -10166   -10266   -10302   -10266 
  -10137    -9919    -9659    -9409    -9205    -9063    -8990    -9001 
   -9107    -9287    -9498    -9693    -9835    -9911    -9919    -9855 
   -9730    -9562    -9340    -9044    -8667    -8237    -7807    -7440 
   -7172    -6994    -6848    -6688    -6523    -6396    -6348    -6396 
   -6526    -6716    -6922    -7089    -7209    -7325    -7455    -7569 
   -7635    -7653    -7632    -7588    -7557    -7545    -7517    -7441 
   -7308    -7120    -6892    -6638    -6388    -6184    -6031    -5913 
   -5828    -5771    -5718    -5639    -5513    -5325    -5075    -4766 
   -4394    -3948    -3433    -2881    -2325    -1779    -1237     -708 
    -233      123      326      393      375      342      349      383 
     385      305      129     -130     -432     -736    -1030    -1323 
   -1637    -2002    -2440    -2930    -3452    -4008    -4590    -5154 
   -5648    -6053    -6380    -6632    -6814    -6919    -6923    -6822 
   -6640    -6398    -6111    -5793    -5457    -5121    -4791    -4457 
   -4114    -3761    -3392    -3014    -2650    -2317    -2022    -1764 
   -1547    -1389    -1319    -1351    -1483    -1706    -2008    -2379 
   -2806    -3280    -3781    -4282    -4778    -5290    -5815    -6318 
   -6762    -7136    -7459    -7750    -7999    -8198    -8359    -8509 
   -8677    -8861    -9040    -9198    -9327    -9431    -9531    -9641 
   -9758    -9879    -9989   -10052   -10036    -9931    -9743    -9490 
   -9202    -8934    -8737    -8620    -8569    -8567    -8591    -8611 
   -8605    -8563    -8492    -8423    -8387    -8389    -8409    -8392 
   -8282    -8067    -7775    -7445    -7114    -6797    -6499    -6229 
   -5992    -5773    -5556    -5332    -5098    -4853    -4595    -4335 
   -4094    -3864    -3632    -3399    -3167    -2932    -2697    -2462 
   -2222    -1966    -1695    -1436    -1229    -1090    -1017     -997 
   -1006    -1016    -1016    -1018    -1056    -1144    -1276    -1453 
   -1674    -1920    -2165    -2400    -2610    -2768    -2857    -2886 
   -2866    -2804    -2716    -2612    -2491    -2330    -2112    -1856 
   -1626    -1479    -1440    -1515    -1684    -1910    -2173    -2476 
   -2843    -3274    -3742    -4230    -4729    -5228    -5720    -6206 
   -6692    -7188    -7688    -8163    -8584    -8940    -9223    -9431 
   -9556    -9591    -9552    -9472    -9367    -9221    -9024    -8789 
   -8518    -8202    -7839    -7435    -7026    -6670    -6406    -6229 
   -6098    -5967    -5826    -5698    -5624    -5611    -5617    -5595 
   -5536    -5456    -5377    -5317    -5280    -5258    -5239    -5237 
   -5288    -5405    -5574    -5782    -6015    -6262    -6515    -6786 
   -7087    -7417    -7766    -8136    -8533    -8955    -9371    -9746 
  -10040   -10221   -10286   -10270   -10197   -10088    -9959    -9785 
   -9533    -9207    -8829    -8423    -8026    -7648    -7267    -6861 
   -6448    -6049    -5664    -5304    -4981    -4678    -4381    -4106 
   -3894    -3776    -3755    -3811    -3905    -4016    -4150    -4318 
   -4502    -4679    -4820    -4894    -4893    -4819    -4677    -4493 
   -4311    -4157    -4037    -3967    -3956    -4011    -4132    -4316 
   -4561    -4849    -5138    -5395    -5619    -5823    -6005    -6148 
   -6231    -6235    -6150    -5993    -5799    -5593    -5384    -5168 
   -4947    -4731    -4531    -4328    -4086    -3790    -3468    -3161 
   -2911    -2746    -2654    -2604    -2574    -2540    -2488    -2437 
   -2422    -2468    -2574    -2719    -2872    -3015    -3144    -3262 
   -3381    -3525    -3711    -3941    -4202    -4473    -4741    -5014 
   -5294    -5558    -5800    -6018    -6208    -6376    -6528    -6660 
   -6758    -6808    -6813    -6784    -6722    -6628    -6495    -6313 
   -6092    -5877    -5729    -5690    -5762    -5908    -6074    -6215 
   -6306    -6343    -6336    -6305    -6279    -6279    -6300    -6320 
   -6326    -6330    -6363    -6458    -6619    -6815    -6997    -7123 
   -7180    -7183    -7150    -7095    -7023    -6943    -6880    -6865 
   -6909    -7010    -7150    -7310    -7457    -7551    -7582    -7579 
   -7575    -7599    -7695    -7893    -8181    -8512    -8847    -9171 
   -9494    -9833   -10190   -10549   -10893   -11206   -11497   -11788 
  -12102   -12443   -12792   -13112   -13366   -13548   -13664   -13714 
  -13689   -13582   -13389   -13108   -12757   -12367   -11961   -11547 
  -11129   -10718   -10331    -9987    -9709    -9511    -9389    -9332 
   -9335    -9384    -9450    -9537    -9679    -9878   -10100   -10312 
  -10484   -10581   -10583   -10489   -10305   -10048    -9759    -9472 
   -9187    -8889    -8577    -8263    -7954    -7644    -7331    -7029 
   -6749    -6486    -6230    -5965    -5678    -5371    -5060    -4761 
   -4481    -4215    -3967    -3744    -3531    -3311    -3087    -2876 
   -2693    -2536    -2383    -2225    -2071    -1921    -1764    -1595 
   -1424    -1254    -1092     -956     -833     -685     -505     -328 
    -199     -140     -152     -225     -343     -497     -670     -839 
    -993    -1139    -1292    -1467    -1687    -1957    -2258    -2567 
   -2867    -3143    -3391    -3629    -3886    -4172    -4476    -4788 
   -5099    -5399    -5687    -5981    -6304    -6652    -7002    -7348 
   -7700    -8051    -8386    -8700    -8986    -9216    -9373    -9477 
   -9551    -9598    -9611    -9589    -9526    -9428    -9301    -9142 
   -8949    -8719    -8449    -8140    -7801    -7455    -7120    -6818 
   -6564    -6335    -6083    -5765    -5374    -4939    -4490    -4052 
   -3650    -3306    -3010    -2753    -2541    -2368    -2210    -2065 
   -1950    -1875    -1835    -1809    -1788    -1780    -1784    -1770 
   -1704    -1560    -1312     -953     -533     -112      291      685 
    1088     1508     1949     2413     2908     3444     4020     4612 
    5181     5679     6073     6342     6468     6448     6309     6095 
    5844     5583     5327     5074     4816     4564     4353     4199 
    4092     4010     3918     3797     3650     3466     3231     2955 
    2656     2348     2050     1781     1547     1344     1153      963 
     774      591      413      235       52     -132     -309     -462 
    -568     -636     -694     -746     -767     -757     -744     -747 
    -765     -806     -876     -975    -1098    -1238    -1390    -1568 
   -1798    -2093    -2428    -2772    -3108    -3418    -3675    -3855 
   -3946    -3944    -3865    -3739    -3595    -3437    -3291    -3199 
   -3179    -3202    -3231    -3248    -3249    -3240    -3237    -3257 
   -3298    -3352    -3413    -3468    -3499    -3512    -3534    -3577 
   -3643    -3737    -3854    -3976    -4093    -4219    -4397    -4660 
   -4985    -5313    -5598    -5824    -5987    -6087    -6126    -6109 
   -6046    -5944    -5812    -5648    -5451    -5247    -5081    -4986 
   -4972    -5017    -5077    -5131    -5176    -5212    -5261    -5343 
   -5446    -5554    -5662    -5763    -5841    -5873    -5826    -5688 
   -5500    -5302    -5105    -4913    -4733    -4572    -4450    -4378 
   -4336    -4291    -4219    -4138    -4089    -4086    -4113    -4165 
   -4252    -4371    -4518    -4697    -4895    -5068    -5165    -5174 
   -5111    -4992    -4860    -4761    -4687    -4583    -4414    -4185 
   -3921    -3674    -3481    -3321    -3139    -2918    -2683    -2467 
   -2298    -2188    -2128    -2102    -2093    -2083    -2065    -2048 
   -2056    -2102    -2178    -2262    -2325    -2344    -2327    -2302 
   -2294    -2313    -2363    -2441    -2520    -2571    -2603    -2641 
   -2684    -2709    -2709    -2685    -2638    -2573    -2503    -2441 
   -2385    -2335    -2291    -2247    -2182    -2066    -1893    -1674 
   -1427    -1190    -1018     -933     -918     -934     -944     -942 
    -948     -968     -988     -995     -976     -922     -829     -705 
    -559     -397     -236      -92       25      119      181      179 
      86     -125     -458     -877    -1328    -1774    -2182    -2520 
   -2778    -2967    -3106    -3222    -3352    -3503    -3639    -3711 
   -3710    -3666    -3616    -3599    -3640    -3713    -3766    -3772 
   -3752    -3742    -3760    -3797    -3835    -3853    -3838    -3796 
   -3735    -3665    -3626    -3671    -3833    -4111    -4497    -4968 
   -5481    -6000    -6505    -6987    -7452    -7907    -8331    -8690 
   -8975    -9222    -9479    -9771   -10086   -10395   -10654   -10829 
  -10925   -10981   -11020   -11024   -10976   -10889   -10782   -10673 
  -10577   -10514   -10509   -10583   -10731   -10936   -11181   -11429 
  -11633   -11770   -11839   -11833   -11766   -11688   -11645   -11639 
  -11629   -11567   -11432   -11208   -10868   -10411    -9865    -9254 
   -8600    -7943    -7331    -6796    -6327    -5896    -5469    -5015 
   -4536    -4057    -3606    -3200    -2842    -2539    -2310    -2178 
   -2148    -2195    -2280    -2368    -2431    -2471    -2524    -2619 
   -2745    -2875    -2992    -3084    -3140    -3175    -3222    -3306 
   -3430    -3578    -3759    -4000    -4312    -4675    -5062    -5440 
   -5771    -6027    -6203    -6309    -6366    -6399    -6438    -6499 
   -6571    -6644    -6716    -6795    -6888    -6986    -7069    -7132 
   -7183    -7237    -7300    -7343    -7329    -7245    -7108    -6958 
   -6830    -6731    -6652    -6570    -6459    -6302    -6113    -5926 
   -5785    -5715    -5696    -5666    -5573    -5425    -5281    -5214 
   -5266    -5406    -5570    -5717    -5827    -5906    -5977    -6047 
   -6123    -6225    -6370    -6563    -6792    -7031    -7265    -7498 
   -7750    -8047    -8392    -8746    -9045    -9261    -9413    -9535 
   -9652    -9759    -9829    -9864    -9887    -9909    -9914    -9885 
   -9827    -9757    -9702    -9686    -9697    -9679    -9597    -9464 
   -9297    -9123    -8965    -8823    -8692    -8589    -8521    -8472 
   -8427    -8362    -8257    -8133    -8028    -7959    -7922    -7913 
   -7929    -7966    -8004    -8031    -8042    -8033    -8018    -8030 
   -8096    -8211    -8352    -8496    -8628    -8730    -8806    -8860 
   -8895    -8915    -8917    -8894    -8846    -8776    -8692    -8607 
   -8537    -8485    -8442    -8403    -8372    -8351    -8345    -8352 
   -8363    -8372    -8389    -8428    -8480    -8513    -8500    -8438 
   -8345    -8225    -8078    -7920    -7774    -7648    -7537    -7442 
   -7355    -7259    -7138    -6997    -6844    -6670    -6466    -6239 
   -6008    -5788    -5566    -5325    -5075    -4828    -4582    -4337 
   -4099    -3874    -3657    -3438    -3237    -3087    -3011    -3022 
   -3116    -3283    -3498    -3727    -3930    -4064    -4103    -4070 
   -4032    -4025    -4027    -3990    -3878    -3676    -3426    -3196 
   -3014    -2866    -2712    -2507    -2246    -1985    -1790    -1684 
   -1658    -1700    -1794    -1913    -2037    -2167    -2309    -2466 
   -2649    -2853    -3059    -3249    -3419    -3564    -3674    -3751 
   -3813    -3877    -3929    -3927    -3838    -3669    -3452    -3235 
   -3056    -2917    -2786    -2635    -2477    -2359    -2307    -2302 
   -2316    -2335    -2353    -2384    -2454    -2577    -2738    -2894 
   -3002    -3042    -3021    -2946    -2821    -2644    -2421    -2176 
   -1940    -1721    -1510    -1293    -1051     -786     -535     -324 
    -140       56      291      560      827     1052     1221     1342 
    1433     1496     1517     1494     1446     1399     1372     1362 
    1339     1270     1137      948      716      431       71     -346 
    -788    -1225    -1632    -2003    -2336    -2618    -2836    -2990 
   -3101    -3217    -3380    -3587    -3810    -4036    -4264    -4492 
