Origin Time       2011/03/11 14:46:00
Lat.              38.103
Long.             142.860
Depth. (km)       24
Mag.              9.0
Station Code      HKD149
Station Lat.      42.7905
Station Long.     140.2305
Station Height(m) 24
Record Time       2011/03/11 14:49:14
Sampling Freq(Hz) 100Hz
Duration Time(s)  108
Dir.              N-S
Scale Factor      3920(gal)/6182761
Max. Acc. (gal)   2.518
Last Correction   2011/03/11 14:48:59
Memo.             
[...]
    7967     7919     7827     7713     7571     7388     7174     6982 
    6857     6798     6763     6693     6572     6449     6361     6293 
    6237     6228     6297     6431     6594     6745     6832     6810 
    6698     6567     6454     6343     6215     6096     6024     5991 
    5946     5865     5777     5713     5644     5503     5275     5026 
    4840     4754     4752     4802     4885     4996     5131     5303 
    5526     5779     6025     6233     6389     6498     6574     6615 
    6602     6530     6428     6324     6225     6145     6102     6076 
    6013     5909     5820     5789     5830     5952     6143     6351 
    6505     6557     6500     6359     6182     6036     5979     6034 
    6186     6358     6455     6443     6366     6300     6306     6406 
    6581     6780     6948     7063     7142     7197     7242     7292 
    7324     7311     7260     7192     7099     6980     6856     6743 
    6655     6595     6542     6476     6409     6374     6375     6397 
    6427     6449     6469     6510     6574     6639     6687     6729 
    6786     6845     6879     6903     6958     7057     7163     7218 
    7195     7098     6934     6696     6402     6126     5938     5850 
    5817     5781     5709     5595     5467     5369     5326     5347 
    5426     5513     5540     5485     5375     5240     5115     5045 
    5058     5154     5310     5489     5657     5783     5852     5896 
    5976     6111     6286     6498     6751     7020     7257     7400 
    7416     7338     7212     7063     6913     6792     6721     6646 
    6498     6303     6140     6062     6085     6213     6417     6651 
    6859     6996     7045     7017     6928     6809     6700     6618 
    6537     6416     6255     6122     6080     6142     6304     6556 
    6861     7155     7365     7463     7490     7511     7558     7640 
    7747     7843     7901     7924     7913     7831     7653     7431 
    7256     7172     7148     7149     7174     7231     7300     7311 
    7227     7121     7080     7119     7216     7354     7526     7684 
    7780     7830     7892     8024     8254     8539     8812     9042 
    9220     9324     9320     9237     9150     9116     9152     9222 
    9267     9255     9167     8995     8773     8544     8343     8216 
    8186     8205     8183     8087     7967     7896     7890     7916 
    7934     7916     7845     7708     7496     7227     6966     6780 
    6682     6644     6647     6700     6816     6985     7182     7384 
    7570     7724     7824     7862     7862     7872     7927     8017 
    8113     8209     8308     8399     8475     8520     8511     8451 
    8361     8277     8222     8195     8162     8103     8044     8012 
    7991     7955     7920     7893     7825     7670     7457     7255 
    7090     6941     6779     6616     6484     6392     6331     6300 
    6303     6324     6340     6344     6330     6284     6219     6188 
    6229     6327     6456     6623     6813     6982     7114     7206 
    7228     7148     6964     6716     6461     6238     6073     5982 
    5965     5996     6055     6144     6272     6449     6693     7012 
    7385     7759     8079     8303     8402     8383     8296     8209 
    8166     8153     8151     8147     8098     7950     7726     7538 
    7481     7537     7612     7654     7665     7619     7524     7488 
    7606     7834     8062     8204     8227     8157     8062     8000 
    7976     7955     7943     7954     7913     7753     7499     7188 
    6844     6506     6217     6004     5889     5905     6050     6239 
    6375     6444     6495     6562     6630     6682     6732     6785 
    6774     6633     6417     6244     6165     6151     6148     6121 
    6067     5994     5905     5813     5747     5714     5709     5715 
    5714     5699     5680     5672     5675     5658     5584     5452 
    5280     5090     4912     4759     4626     4505     4386     4261 
    4124     3997     3931     3952     4042     4173     4324     4476 
    4640     4845     5083     5290     5399     5412     5382     5344 
    5312     5308     5319     5305     5238     5142     5080     5092 
    5162     5231     5245     5183     5096     5080     5179     5359 
    5559     5700     5741     5725     5721     5762     5833     5900 
    5962     6038     6131     6227     6303     6318     6245     6106 
    5973     5897     5868     5857     5835     5774     5668     5529 
    5387     5311     5370     5547     5790     6054     6272     6393 
    6451     6539     6701     6897     7057     7142     7161     7150 
    7128     7092     7047     6997     6930     6836     6740     6682 
    6678     6713     6774     6858     6939     6993     7010     6982 
    6920     6847     6767     6673     6578     6505     6455     6399 
    6319     6225     6146     6115     6150     6238     6374     6538 
    6662     6690     6658     6634     6644     6669     6681     6663 
    6571     6391     6200     6033     5849     5676     5580     5560 
    5578     5623     5704     5823     5945     6029     6093     6179 
    6300     6452     6622     6783     6910     6997     7078     7191 
    7339     7490     7599     7637     7613     7541     7403     7183 
    6920     6663     6437     6257     6137     6100     6145     6231 
    6318     6380     6398     6376     6360     6390     6473     6578 
    6670     6732     6770     6812     6874     6958     7082     7272 
    7512     7751     7957     8141     8323     8504     8667     8793 
    8875     8915     8924     8918     8886     8810     8717     8665 
    8676     8714     8721     8662     8532     8349     8135     7927 
    7769     7672     7622     7601     7599     7616     7654     7719 
    7799     7856     7882     7911     7994     8155     8368     8593 
    8802     8964     9048     9035     8940     8819     8719     8643 
    8571     8499     8427     8358     8310     8305     8357     8462 
    8582     8680     8734     8723     8644     8517     8359     8190 
    8031     7877     7722     7561     7388     7211     7040     6882 
    6758     6696     6698     6749     6821     6879     6920     6948 
    6963     6959     6934     6894     6852     6801     6720     6619 
    6520     6420     6319     6248     6227     6244     6284     6322 
    6332     6298     6228     6134     6036     5965     5939     5944 
    5957     5966     5959     5911     5813     5706     5655     5683 
    5773     5920     6103     6253     6316     6298     6234     6168 
    6124     6104     6100     6122     6190     6301     6417     6512 
    6602     6712     6846     6982     7075     7088     7028     6922 
    6784     6640     6537     6512     6543     6572     6580     6593 
    6613     6628     6653     6710     6795     6885     6962     7015 
    7023     6978     6920     6901     6926     6958     6972     6970 
    6979     7043     7183     7363     7520     7640     7719     7727 
    7641     7486     7302     7106     6880     6615     6339     6089 
    5889     5754     5695     5719     5805     5909     5997     6051 
    6064     6042     5999     5950     5909     5888     5897     5938 
    5995     6041     6051     6017     5944     5819     5623     5368 
    5108     4909     4776     4660     4557     4502     4503     4552 
    4647     4787     4972     5198     5449     5694     5914     6098 
    6232     6299     6288     6207     6075     5897     5671     5431 
    5218     5041     4881     4754     4710     4754     4833     4921 
    5046     5233     5469     5743     6038     6327     6578     6759 
    6851     6849     6772     6656     6523     6369     6197     6030 
    5900     5808     5723     5641     5599     5627     5712     5821 
    5923     5999     6031     6002     5924     5814     5684     5565 
    5508     5520     5573     5662     5798     5963     6113     6248 
    6392     6528     6624     6692     6766     6855     6960     7080 
    7216     7365     7504     7630     7766     7937     8153     8414 
    8715     9032     9314     9506     9583     9566     9513     9471 
    9450     9445     9445     9433     9395     9324     9217     9108 
    9055     9086     9189     9335     9498     9647     9755     9817 
    9836     9826     9786     9700     9567     9399     9222     9074 
    8982     8947     8958     9000     9052     9118     9205     9304 
    9418     9558     9704     9810     9816     9695     9470     9172 
    8825     8459     8107     7815     7614     7489     7405     7352 
    7341     7388     7474     7546     7566     7533     7452     7312 
    7101     6860     6653     6510     6421     6362     6327     6340 
    6413     6524     6649     6777     6904     7026     7122     7157 
    7115     6992     6805     6611     6471     6400     6397     6452 
    6541     6635     6723     6824     6974     7181     7434     7743 
    8088     8415     8700     8956     9176     9325     9406     9470 
    9548     9600     9570     9466     9326     9159     8986     8838 
    8718     8604     8488     8386     8325     8325     8368     8383 
    8340     8288     8269     8276     8288     8314     8381     8480 
    8552     8569     8561     8562     8579     8621     8701     8832 
    9006     9181     9309     9377     9392     9365     9311     9235 
    9141     9044     8947     8838     8739     8674     8637     8593 
    8509     8392     8271     8160     8043     7902     7736     7578 
    7456     7384     7381     7468     7639     7860     8079     8234 
    8292     8280     8251     8236     8254     8303     8350     8348 
    8278     8175     8078     7999     7951     7932     7896     7794 
    7629     7446     7276     7110     6939     6774     6647     6585 
    6584     6620     6671     6728     6779     6792     6733     6612 
    6466     6311     6139     5960     5804     5691     5610     5545 
    5507     5498     5491     5463     5417     5371     5327     5294 
    5300     5359     5455     5568     5688     5812     5927     6018 
    6094     6157     6191     6186     6148     6107     6091     6113 
    6170     6245     6324     6407     6480     6523     6529     6514 
    6508     6536     6593     6658     6724     6802     6911     7047 
    7179     7281     7354     7398     7412     7419     7446     7485 
    7506     7490     7413     7260     7072     6909     6809     6782 
    6818     6896     6987     7069     7148     7247     7370     7501 
    7606     7657     7652     7610     7560     7523     7495     7463 
    7405     7283     7092     6894     6724     6567     6412     6257 
    6105     5966     5847     5732     5596     5438     5276     5125 
    4997     4887     4767     4633     4525     4475     4481     4521 
    4580     4656     4731     4797     4866     4962     5102     5275 
    5455     5610     5711     5776     5839     5887     5881     5819 
    5750     5709     5684     5664     5676     5733     5822     5933 
    6038     6092     6065     5984     5901     5853     5843     5887 
    6003     6161     6310     6436     6547     6632     6681     6712 
    6741     6760     6769     6813     6932     7119     7323     7504 
    7637     7708     7728     7736     7769     7824     7863     7867 
    7836     7751     7599     7419     7283     7238     7289     7407 
    7543     7649     7700     7706     7691     7665     7618     7572 
    7549     7518     7440     7329     7232     7181     7179     7218 
    7287     7350     7362     7325     7274     7228     7201     7217 
    7279     7344     7375     7371     7352     7326     7277     7192 
    7105     7052     7018     6988     6981     7004     7022     7011 
    7012     7075     7200     7351     7488     7588     7655     7693 
    7690     7632     7533     7424     7322     7245     7238     7312 
    7430     7553     7661     7729     7728     7689     7684     7726 
    7769     7804     7874     7988     8087     8126     8118     8076 
    7978     7812     7618     7456     7357     7307     7266     7203 
    7121     7041     6958     6861     6773     6740     6780     6847 
    6888     6888     6847     6768     6660     6530     6401     6304 
    6243     6200     6157     6114     6065     5993     5894     5809 
    5791     5868     6023     6192     6324     6421     6487     6544 
    6637     6783     6956     7105     7197     7237     7237     7190 
    7115     7073     7133     7294     7493     7694     7900     8101 
    8273     8396     8470     8508     8508     8474     8438     8417 
    8396     8365     8327     8291     8272     8275     8301     8351 
    8408     8448     8462     8454     8426     8376     8295     8198 
    8120     8089     8100     8147     8213     8264     8263     8185 
    8043     7889     7763     7670     7610     7582     7565     7523 
    7444     7359     7295     7252     7207     7121     6982     6802 
    6581     6324     6048     5786     5569     5408     5316     5287 
    5275     5235     5159     5054     4936     4828     4759     4739 
    4763     4811     4845     4859     4876     4904     4949     5013 
    5082     5129     5160     5205     5279     5352     5381     5356 
    5297     5237     5198     5181     5165     5119     5012     4829 
    4605     4395     4224     4079     3932     3773     3616     3491 
    3407     3340     3271     3221     3195     3167     3130     3103 
    3102     3134     3195     3272     3364     3489     3663     3884 
    4132     4392     4685     5012     5321     5552     5684     5731 
    5714     5649     5577     5565     5637     5756     5880     5998 
    6097     6160     6176     6146     6087     6028     5991     5978 
    5960     5908     5849     5825     5836     5845     5812     5742 
    5671     5612     5564     5552     5578     5589     5547     5458 
    5349     5249     5187     5190     5242     5294     5335     5385 
    5443     5494     5522     5526     5525     5526     5497     5417 
    5312     5199     5069     4929     4801     4694     4623     4624 
    4710     4829     4910     4959     5029     5130     5254     5413 
    5610     5823     6018     6158     6211     6197     6187     6232 
    6311     6371     6388     6365     6301     6212     6147     6140 
    6186     6293     6459     6622     6719     6771     6845     6960 
    7097     7248     7413     7560     7650     7689     7690     7652 
    7602     7574     7582     7603     7625     7652     7645     7576 
    7485     7420     7386     7384     7423     7489     7546     7580 
    7602     7620     7641     7668     7695     7713     7720     7720 
    7723     7754     7812     7854     7856     7834     7817     7817 
    7828     7856     7885     7856     7733     7542     7351     7222 
    7189     7254     7379     7519     7659     7797     7939     8104 
    8305     8532     8756     8952     9092     9171     9232     9319 
    9436     9570     9709     9833     9916     9959     9978     9968 
    9919     9848     9773     9699     9641     9616     9625     9643 
    9628     9559     9455     9349     9248     9132     8990     8842 
    8711     8588     8445     8276     8104     7942     7786     7648 
    7543     7464     7412     7424     7519     7664     7827     7989 
    8143     8293     8439     8561     8640     8678     8684     8659 
    8599     8499     8360     8198     8057     7968     7927     7898 
    7867     7839     7815     7802     7796     7782     7754     7726 
    7705     7677     7642     7621     7632     7668     7719     7796 
    7905     7995     8017     7985     7942     7913     7893     7856 
    7786     7694     7607     7538     7460     7349     7214     7074 
    6970     6938     6985     7093     7234     7385     7513     7590 
    7625     7649     7675     7708     7754     7815     7878     7931 
    7971     8003     8041     8088     8137     8184     8215     8208 
    8159     8084     8009     7950     7906     7873     7831     7763 
    7682     7614     7563     7522     7492     7450     7366     7238 
    7084     6922     6787     6704     6662     6633     6588     6512 
    6417     6331     6286     6288     6288     6239     6137     5996 
    5833     5682     5586     5568     5632     5763     5924     6072 
    6173     6210     6184     6110     6013     5919     5826     5723 
    5623     5553     5520     5523     5556     5613     5687     5754 
    5782     5778     5770     5769     5773     5771     5746     5689 
    5608     5527     5469     5441     5438     5453     5479     5500 
    5505     5499     5484     5456     5424     5407     5417     5448 
    5486     5505     5486     5442     5412     5424     5465     5507 
    5553     5615     5678     5722     5748     5778     5827     5904 
    6016     6144     6243     6289     6290     6255     6187     6114 
    6065     6040     6020     6009     6017     6053     6114     6193 
    6305     6460     6621     6756     6855     6923     6978     7009 
    6975     6858     6684     6504     6371     6316     6335     6390 
    6443     6472     6453     6379     6279     6192     6135     6119 
    6156     6220     6272     6301     6298     6267     6254     6308 
    6434     6612     6817     7018     7167     7250     7304     7373 
    7463     7550     7615     7662     7725     7831     7966     8091 
    8188     8255     8281     8272     8258     8260     8277     8303 
    8334     8349     8317     8224     8089     7931     7764     7602 
    7455     7315     7159     6976     6792     6644     6553     6513 
    6513     6544     6591     6621     6611     6575     6551     6557 
    6572     6579     6593     6646     6748     6867     6967     7048 
    7128     7223     7333     7433     7495     7517     7495     7417 
    7311     7236     7229     7287     7378     7462     7522     7567 
    7606     7651     7706     7763     7825     7904     7993     8070 
    8115     8115     8064     7969     7851     7740     7653     7590 
    7562     7578     7602     7586     7536     7492     7486     7518 
    7575     7630     7653     7635     7566     7433     7251     7072 
    6950     6900     6892     6903     6921     6937     6958     6989 
    7011     7009     6995     7010     7075     7183     7316     7454 
    7574     7664     7731     7799     7895     8037     8212     8384 
    8523     8625     8702     8763     8801     8811     8780     8697 
    8574     8446     8343     8268     8204     8142     8075     7985 
    7870     7756     7679     7662     7699     7759     7812     7837 
    7812     7714     7539     7332     7153     7017     6920     6869 
    6867     6898     6921     6925     6937     6973     7034     7129 
    7246     7337     7372     7353     7274     7132     6959     6809 
    6723     6703     6735     6791     6834     6842     6827     6830 
    6886     6995     7126     7259     7409     7569     7704     7803 
    7886     7951     7971     7953     7916     7862     7794     7722 
    7641     7544     7434     7319     7219     7145     7089     7049 
    7038     7054     7067     7051     6999     6929     6880     6874 
