Origin Time       2011/03/11 14:46:00
Lat.              38.103
Long.             142.860
Depth. (km)       24
Mag.              9.0
Station Code      HKD121
Station Lat.      43.3332
Station Long.     141.8553
Station Height(m) 28
Record Time       2011/03/11 14:48:30
Sampling Freq(Hz) 100Hz
Duration Time(s)  300
Dir.              N-S
Scale Factor      3920(gal)/6182761
Max. Acc. (gal)   11.773
Last Correction   2011/03/11 14:48:15
Memo.             
[...]
    6472     6330     6271     6284     6379     6471     6454     6333 
    6148     5883     5538     5187     4930     4816     4780     4667 
    4360     3899     3451     3189     3202     3481     3996     4752 
    5591     6209     6564     6886     7308     7790     8260     8669 
    8962     9014     8690     8059     7376     6813     6382     6069 
    5898     5867     5937     6063     6195     6274     6250     6098 
    5820     5468     5180     5071     5107     5166     5154     5010 
    4696     4225     3690     3217     2906     2791     2830     2945 
    3061     3102     3040     2905     2747     2621     2585     2657 
    2813     3044     3327     3589     3814     4114     4630     5375 
    6206     6979     7646     8189     8577     8818     9010     9213 
    9318     9205     8902     8499     8031     7456     6772     6061 
    5362     4701     4160     3781     3536     3382     3311     3328 
    3405     3540     3748     3961     4104     4198     4281     4322 
    4263     4075     3792     3466     3100     2670     2147     1488 
     718      -11     -501     -674     -594     -380     -138       41 
      89      -18     -236     -488     -710     -835     -784     -492 
      28      669     1315     1903     2396     2782     3020     3100 
    3161     3279     3386     3546     3889     4375     4883     5289 
    5507     5546     5520     5570     5731     5923     6065     6097 
    5920     5478     4916     4549     4602     5049     5703     6358 
    6844     7036     6887     6407     5597     4478     3161     1842 
     708     -136     -654     -822     -642     -172      487     1245 
    2042     2848     3678     4539     5365     6097     6751     7328 
    7793     8135     8347     8394     8305     8183     8049     7832 
    7570     7382     7304     7358     7570     7925     8433     9091 
    9776    10302    10543    10471    10077     9367     8445     7495 
    6684     6090     5699     5419     5117     4712     4226     3735 
    3309     2983     2740     2517     2258     1946     1607     1277 
     962      654      381      193       98       45      -12      -77 
    -137     -180     -149       24      333      709     1099     1466 
    1767     1997     2186     2323     2370     2309     2131     1877 
    1622     1418     1385     1685     2252     2883     3475     3994 
    4467     4941     5397     5808     6149     6439     6751     7074 
    7327     7501     7633     7688     7620     7485     7331     7106 
    6740     6217     5528     4651     3610     2494     1423      533 
     -98     -513     -772     -849     -698     -334      207      872 
    1555     2188     2826     3557     4433     5464     6598     7709 
    8662     9390     9896    10218    10418    10563    10685    10779 
   10834    10859    10844    10716    10440    10096     9753     9406 
    9111     8979     9039     9196     9367     9575     9821    10065 
   10399    10953    11699    12500    13211    13732    14036    14179 
   14268    14361    14419    14350    14077    13562    12847    12100 
   11524    11245    11260    11472    11784    12154    12538    12864 
   13084    13261    13524    13903    14296    14602    14797    14850 
   14692    14281    13652    12872    11992    11052    10068     9065 
    8059     7025     6043     5273     4671     4092     3581     3107 
    2515     1959     1708     1701     1737     1764     1778     1713 
    1538     1358     1287     1321     1448     1712     2088     2450 
    2708     2846     2858     2730     2459     2079     1677     1362 
    1191     1145     1154     1134     1013      752      390       27 
    -231     -299     -118      288      762     1113     1274     1281 
    1146      893      609      397      279      177       -6     -315 
    -728    -1152    -1502    -1789    -2051    -2286    -2541    -2831 
   -3014    -3042    -3070    -3108    -3051    -2940    -2811    -2597 
   -2292    -1984    -1735    -1500    -1167     -680      -76      576 
    1212     1770     2229     2650     3128     3762     4624     5717 
    6997     8420     9890    11233    12343    13291    14214    15181 
   16188    17162    17979    18533    18799    18833    18717    18520 
   18273    17962    17560    17066    16506    15905    15279    14651 
   14033    13387    12656    11845    10993    10115     9236     8384 
    7531     6675     5885     5178     4520     3955     3519     3156 
    2808     2477     2216     2051     1937     1861     1884     2011 
    2198     2441     2681     2786     2720     2560     2354     2171 
    2135     2306     2647     3131     3751     4486     5330     6274 
    7233     8110     8901     9623    10231    10677    10952    11061 
   11002    10798    10528    10249     9971     9696     9443     9220 
    8989     8674     8260     7840     7529     7358     7286     7226 
    7078     6766     6278     5681     5065     4522     4155     4002 
    4066     4379     4907     5512     6104     6647     7066     7291 
    7362     7359     7290     7109     6789     6322     5703     4921 
    3976     2966     2098     1578     1470     1658     1953     2185 
    2267     2227     2120     1982     1874     1873     1997     2206 
    2499     2925     3511     4240     5079     5992     6914     7718 
    8243     8393     8199     7779     7270     6783     6401     6210 
    6234     6382     6558     6712     6770     6664     6418     6077 
    5657     5184     4662     4089     3515     2965     2394     1759 
    1059      318     -437    -1166    -1803    -2304    -2664    -2873 
   -2945    -2965    -3029    -3169    -3371    -3586    -3723    -3715 
   -3588    -3390    -3150    -2941    -2884    -3038    -3345    -3685 
   -3942    -4028    -3906    -3603    -3173    -2672    -2168    -1725 
   -1378    -1169    -1123    -1201    -1303    -1333    -1231     -943 
    -451      149      747     1338     1968     2631     3270     3817 
    4271     4672     4986     5150     5227     5363     5653     6104 
    6635     7134     7501     7658     7568     7228     6690     6110 
    5666     5435     5383     5391     5276     4924     4374     3766 
    3250     2931     2819     2838     2907     3003     3150     3402 
    3817     4423     5199     6084     7016     7967     8913     9799 
   10559    11128    11466    11596    11578    11490    11432    11487 
   11671    11918    12149    12311    12395    12456    12573    12770 
   13025    13353    13791    14357    15072    15954    16955    17959 
   18866    19630    20205    20541    20643    20563    20347    20067 
   19820    19664    19568    19416    19078    18498    17741    16948 
   16195    15478    14786    14088    13329    12535    11819    11284 
   10938    10727    10579    10441    10320    10251    10230    10230 
   10231    10185    10005     9658     9219     8793     8414     8046 
    7640     7201     6759     6295     5766     5174     4581     4070 
    3681     3385     3123     2917     2869     3042     3413     3939 
    4605     5390     6248     7151     8097     9040     9874    10497 
   10874    11037    10999    10760    10352     9827     9279     8841 
    8577     8454     8420     8461     8548     8610     8621     8631 
    8688     8805     8967     9126     9236     9311     9382     9424 
    9380     9236     9043     8865     8714     8550     8305     7919 
    7409     6903     6525     6328     6293     6371     6525     6731 
    6986     7258     7412     7330     7054     6682     6318     6144 
    6314     6797     7397     7868     8018     7770     7165     6329 
    5405     4502     3710     3087     2608     2199     1868     1719 
    1836     2238     2866     3570     4162     4511     4575     4393 
    4067     3734     3482     3286     3027     2598     1963     1163 
     312     -423     -902    -1136    -1277    -1439    -1629    -1830 
   -2017    -2152    -2227    -2249    -2183    -2001    -1760    -1557 
   -1442    -1443    -1600    -1936    -2414    -2910    -3262    -3360 
   -3189    -2808    -2315    -1815    -1366     -970     -627     -372 
    -241     -265     -447     -739    -1056    -1299    -1431    -1512 
   -1640    -1894    -2307    -2825    -3339    -3746    -3971    -4012 
   -3933    -3808    -3660    -3440    -3049    -2371    -1356      -74 
    1369     2881     4337     5596     6587     7352     7970     8447 
    8762     8887     8796     8523     8149     7750     7397     7144 
    7016     7028     7131     7249     7317     7220     6925     6542 
    6123     5647     5155     4706     4307     3949     3665     3519 
    3557     3787     4224     4874     5682     6570     7483     8341 
    9082     9719    10286    10766    11129    11366    11442    11313 
   10958    10388     9616     8667     7602     6503     5474     4621 
    4006     3626     3421     3363     3508     3917     4572     5374 
    6154     6730     7011     7030     6928     6884     7046     7501 
    8235     9112     9925    10570    11096    11574    12037    12511 
   12985    13392    13645    13668    13484    13231    13039    12976 
   13054    13234    13391    13346    13030    12582    12224    12068 
   12121    12364    12728    13115    13451    13678    13748    13649 
   13428    13155    12869    12556    12176    11729    11208    10546 
    9691     8684     7631     6661     5895     5377     5083     4935 
    4816     4643     4388     4021     3518     2901     2214     1507 
     869      385       41     -227     -487     -850    -1379    -2044 
   -2822    -3655    -4392    -4959    -5418    -5823    -6171    -6455 
   -6694    -6920    -7125    -7259    -7290    -7197    -6945    -6516 
   -5914    -5125    -4140    -3003    -1811     -646      467     1550 
    2620     3675     4714     5750     6789     7755     8496     8873 
    8861     8547     8088     7661     7351     7110     6858     6550 
    6201     5911     5811     5992     6450     7063     7697     8294 
    8825     9287     9720    10169    10642    11056    11299    11369 
   11337    11250    11138    11021    10893    10720    10463    10117 
    9735     9351     8917     8361     7645     6774     5804     4824 
    3940     3251     2764     2409     2157     2025     2057     2306 
    2767     3406     4177     4912     5421     5648     5571     5203 
    4680     4119     3567     3082     2668     2313     2100     2093 
    2260     2549     2814     2830     2483     1792      880      -46 
    -819    -1381    -1730    -1896    -1899    -1724    -1425    -1083 
    -690     -242      199      588      898     1095     1153     1052 
     807      489      186      -90     -410     -842    -1436    -2216 
   -3082    -3803    -4194    -4198    -3832    -3175    -2339    -1390 
    -378      658     1717     2770     3725     4488     4994     5271 
    5414     5484     5535     5612     5688     5707     5619     5377 
    5001     4589     4269     4167     4317     4617     4891     5025 
    5043     5040     5111     5304     5558     5748     5827     5830 
    5745     5515     5120     4582     3913     3135     2337     1630 
    1054      620      381      379      633     1159     1937     2908 
    4019     5195     6284     7147     7771     8241     8688     9201 
    9762    10316    10804    11163    11379    11523    11733    12109 
   12615    13119    13456    13503    13248    12767    12177    11580 
   11019    10470     9880     9244     8640     8195     8032     8179 
    8529     8868     8983     8825     8488     8111     7799     7594 
    7519     7562     7618     7544     7267     6842     6420     6135 
    6039     6096     6206     6266     6228     6138     6120     6252 
    6516     6839     7179     7568     8032     8547     9095     9637 
   10092    10392    10531    10534    10387    10021     9404     8610 
    7766     6972     6268     5656     5119     4616     4091     3471 
    2677     1712      682     -317    -1216    -1923    -2372    -2584 
   -2644    -2631    -2620    -2660    -2749    -2908    -3165    -3535 
   -4034    -4640    -5274    -5856    -6305    -6510    -6399    -5992 
   -5355    -4568    -3717    -2853    -2001    -1146     -247      705 
    1664     2546     3297     3924     4423     4752     4909     4932 
    4862     4750     4692     4806     5161     5751     6500     7315 
    8123     8856     9406     9682     9664     9347     8738     7890 
    6917     5966     5192     4696     4538     4743     5244     5888 
    6548     7181     7804     8455     9158     9875    10554    11159 
   11631    11914    12002    11950    11871    11812    11723    11527 
   11155    10620    10068     9685     9621     9916    10447    11017 
   11491    11868    12232    12623    13006    13300    13415    13309 
   13035    12721    12525    12530    12694    12921    13113    13182 
   13140    13091    13091    13134    13225    13357    13485    13567 
   13571    13499    13405    13347    13346    13358    13334    13282 
   13220    13150    13068    12921    12638    12162    11434    10453 
    9314     8127     6934     5761     4613     3433     2163      831 
    -507    -1806    -2990    -4011    -4914    -5722    -6427    -7024 
   -7463    -7685    -7687    -7485    -7134    -6720    -6314    -6023 
   -5979    -6234    -6753    -7459    -8223    -8908    -9461    -9940 
  -10415   -10903   -11414   -11945   -12447   -12846   -13062   -12991 
  -12527   -11616   -10307    -8775    -7236    -5810    -4513    -3315 
   -2157     -966      333     1777     3279     4706     5998     7152 
    8153     9000     9762    10556    11457    12440    13460    14502 
   15497    16352    17043    17610    18124    18645    19175    19645 
   19978    20132    20059    19729    19217    18664    18212    17955 
   17894    17974    18129    18276    18299    18092    17650    17086 
   16521    16011    15574    15227    14987    14832    14741    14705 
   14705    14695    14640    14545    14453    14434    14540    14744 
   14934    14999    14883    14567    14061    13442    12813    12218 
   11674    11199    10754    10293     9780     9168     8454     7689 
    6949     6360     6020     5933     6064     6352     6719     7066 
    7254     7161     6760     6118     5360     4617     3961     3378 
    2828     2313     1845     1407      985      603      310      145 
      99      132      205      284      356      377      271       -7 
    -443     -947    -1360    -1540    -1429    -1064     -595     -228 
    -127     -349     -828    -1404    -1894    -2181    -2285    -2307 
   -2322    -2350    -2384    -2376    -2273    -2086    -1840    -1527 
   -1183     -875     -605     -307       77      473      727      805 
     731      494      118     -384    -1070    -1970    -3053    -4276 
   -5579    -6874    -8080    -9146   -10040   -10719   -11158   -11377 
  -11422   -11331   -11137   -10878   -10593   -10304   -10003    -9641 
   -9150    -8488    -7691    -6859    -6090    -5411    -4797    -4223 
   -3661    -3071    -2435    -1743     -932       89     1313     2632 
    3922     5105     6152     7066     7862     8601     9347    10120 
   10923    11750    12526    13171    13673    14045    14265    14318 
   14209    13932    13494    12949    12375    11830    11399    11231 
   11439    12033    12909    13895    14839    15687    16485    17289 
   18093    18857    19570    20201    20679    20960    21046    20935 
   20602    20036    19281    18422    17543    16718    16001    15398 
   14870    14346    13732    12976    12110    11234    10458     9822 
    9265     8715     8142     7542     6941     6423     6085     5947 
    5945     5992     6009     5917     5677     5361     5107     4998 
    5021     5113     5200     5212     5124     4966     4796     4629 
    4423     4130     3737     3337     3095     3095     3348     3830 
    4416     4932     5307     5518     5495     5259     4924     4544 
    4134     3757     3452     3224     3131     3238     3500     3811 
    4067     4187     4184     4186     4307     4549     4856     5192 
    5527     5825     6075     6241     6287     6276     6274     6235 
    6115     5901     5502     4908     4311     3843     3496     3302 
    3281     3337     3378     3398     3458     3653     4018     4518 
    5136     5890     6822     7926     9075    10073    10787    11174 
   11239    11082    10897    10781    10675    10508    10301    10081 
    9793     9344     8656     7701     6573     5454     4486     3743 
    3261     3088     3302     3922     4882     6095     7416     8661 
    9765    10797    11737    12358    12369    11641    10279     8562 
    6844     5372     4174     3144     2164     1202      380     -151 
    -379     -417     -321       51      799     1761     2726     3637 
    4588     5664     6778     7723     8330     8543     8424     8102 
    7670     7160     6635     6179     5790     5477     5331     5376 
    5521     5645     5649     5528     5361     5179     4943     4664 
    4394     4173     4041     4010     4035     4107     4292     4628 
    5085     5599     6072     6424     6656     6794     6820     6733 
    6547     6242     5792     5217     4631     4186     3929     3819 
    3809     3803     3733     3705     3866     4207     4628     5030 
    5344     5560     5723     5848     5943     6050     6191     6387 
    6689     7071     7391     7492     7279     6748     5941     4911 
    3777     2717     1872     1296      997      951     1171     1735 
    2613     3580     4407     5022     5467     5767     5919     5952 
    5932     5892     5777     5549     5278     5041     4871     4823 
    4961     5247     5569     5876     6142     6318     6400     6402 
    6379     6427     6542     6679     6922     7378     7983     8646 
    9461    10468    11481    12404    13280    14078    14756    15342 
   15864    16294    16627    16935    17202    17313    17256    17081 
   16769    16324    15859    15441    15051    14749    14642    14750 
   15090    15672    16378    17055    17624    18052    18331    18529 
   18717    18868    18923    18929    19007    19213    19496    19767 
   19927    19902    19705    19376    18890    18177    17190    15949 
   14528    13014    11483     9980     8481     7023     5737     4690 
    3845     3164     2595     2012     1295      422     -583    -1669 
   -2713    -3580    -4219    -4656    -4948    -5165    -5420    -5816 
   -6399    -7146    -7923    -8570    -9006    -9169    -8999    -8528 
   -7843    -6988    -5991    -4921    -3861    -2897    -2113    -1586 
   -1386    -1514    -1825    -2170    -2565    -3071    -3639    -4122 
   -4391    -4416    -4186    -3694    -2952    -1985     -910      104 
     977     1758     2535     3340     4173     5028     5842     6503 
    6892     6942     6737     6473     6256     6074     5888     5743 
    5794     6127     6677     7378     8144     8831     9355     9682 
    9785     9722     9577     9288     8735     7989     7243     6555 
    5981     5709     5816     6225     6894     7726     8509     9127 
    9578     9809     9761     9506     9144     8704     8243     7822 
