Origin Time       2011/03/11 14:46:00
Lat.              38.103
Long.             142.860
Depth. (km)       24
Mag.              9.0
Station Code      HKD142
Station Lat.      43.0841
Station Long.     140.8202
Station Height(m) 143
Record Time       2011/03/11 14:48:16
Sampling Freq(Hz) 100Hz
Duration Time(s)  300
Dir.              U-D
Scale Factor      3920(gal)/6182761
Max. Acc. (gal)   3.367
Last Correction   2011/03/11 14:48:01
Memo.             
[...]
  -15640   -15536   -15547   -15605   -15649   -15642   -15595   -15595 
  -15680   -15788   -15895   -16048   -16234   -16363   -16410   -16431 
  -16462   -16517   -16591   -16663   -16728   -16765   -16760   -16713 
  -16617   -16510   -16480   -16552   -16678   -16839   -17018   -17113 
  -17078   -17041   -17114   -17237   -17326   -17403   -17493   -17554 
  -17563   -17579   -17668   -17848   -18094   -18340   -18552   -18745 
  -18901   -18994   -19013   -18934   -18784   -18648   -18543   -18454 
  -18430   -18485   -18566   -18602   -18569   -18519   -18523   -18549 
  -18459   -18243   -18091   -18106   -18227   -18385   -18553   -18692 
  -18726   -18680   -18647   -18634   -18591   -18457   -18189   -17849 
  -17498   -17162   -16915   -16835   -16916   -17062   -17155   -17143 
  -17075   -17012   -16929   -16779   -16577   -16367   -16210   -16145 
  -16109   -16004   -15824   -15643   -15485   -15305   -15107   -14972 
  -14978   -15141   -15413   -15729   -16042   -16302   -16498   -16647 
  -16751   -16865   -17014   -17142   -17179   -17094   -17004   -17067 
  -17211   -17283   -17302   -17372   -17533   -17726   -17874   -17996 
  -18135   -18277   -18360   -18387   -18445   -18547   -18669   -18814 
  -18899   -18848   -18685   -18499   -18418   -18451   -18489   -18545 
  -18653   -18736   -18777   -18777   -18697   -18533   -18245   -17826 
  -17434   -17219   -17189   -17227   -17183   -17015   -16757   -16506 
  -16411   -16477   -16571   -16632   -16662   -16727   -16876   -17039 
  -17169   -17298   -17451   -17655   -17915   -18163   -18293   -18245 
  -18058   -17829   -17665   -17580   -17494   -17362   -17206   -17064 
  -16949   -16835   -16716   -16644   -16685   -16875   -17201   -17594 
  -17943   -18197   -18379   -18522   -18613   -18640   -18684   -18841 
  -19137   -19520   -19853   -20059   -20177   -20193   -20054   -19781 
  -19482   -19267   -19159   -19075   -18916   -18667   -18375   -18060 
  -17729   -17402   -17145   -17023   -17032   -17125   -17260   -17372 
  -17404   -17354   -17251   -17062   -16764   -16415   -16094   -15819 
  -15539   -15243   -14978   -14751   -14593   -14519   -14425   -14280 
  -14182   -14154   -14196   -14325   -14502   -14709   -14947   -15219 
  -15560   -15932   -16303   -16692   -17015   -17224   -17412   -17626 
  -17829   -17980   -18082   -18200   -18395   -18677   -19008   -19319 
  -19600   -19861   -20069   -20243   -20454   -20696   -20889   -20959 
  -20911   -20769   -20506   -20161   -19891   -19781   -19734   -19630 
  -19480   -19330   -19161   -18938   -18649   -18305   -17958   -17655 
  -17373   -17083   -16836   -16604   -16303   -15989   -15726   -15507 
  -15371   -15349   -15426   -15556   -15670   -15732   -15772   -15818 
  -15856   -15850   -15761   -15611   -15491   -15441   -15398   -15320 
  -15274   -15305   -15318   -15257   -15213   -15246   -15367   -15631 
  -16018   -16427   -16771   -16975   -17021   -16977   -16926   -16891 
  -16827   -16724   -16634   -16557   -16414   -16194   -15961   -15743 
  -15587   -15599   -15765   -15974   -16199   -16472   -16745   -16931 
  -17069   -17245   -17408   -17499   -17591   -17719   -17823   -17838 
  -17766   -17626   -17385   -17049   -16680   -16312   -16031   -15887 
  -15799   -15677   -15450   -15152   -14931   -14802   -14689   -14607 
  -14602   -14674   -14820   -15038   -15268   -15403   -15421   -15372 
  -15331   -15387   -15540   -15755   -16027   -16319   -16605   -16854 
  -17015   -17163   -17335   -17436   -17481   -17555   -17640   -17688 
  -17715   -17774   -17854   -17864   -17771   -17648   -17537   -17446 
  -17434   -17527   -17679   -17887   -18160   -18457   -18675   -18728 
  -18678   -18614   -18511   -18358   -18192   -18033   -17893   -17749 
  -17580   -17396   -17170   -16921   -16742   -16671   -16685   -16744 
  -16803   -16879   -17008   -17154   -17289   -17471   -17746   -18071 
  -18356   -18556   -18682   -18709   -18555   -18238   -17899   -17609 
  -17381   -17251   -17177   -17096   -16972   -16776   -16537   -16280 
  -15993   -15674   -15318   -14983   -14770   -14679   -14665   -14727 
  -14868   -15112   -15472   -15877   -16282   -16715   -17171   -17586 
  -17943   -18271   -18560   -18807   -19053   -19296   -19523   -19739 
  -19910   -20030   -20121   -20219   -20383   -20564   -20653   -20648 
  -20563   -20379   -20166   -20022   -19942   -19817   -19600   -19358 
  -19136   -18889   -18580   -18253   -17983   -17756   -17547   -17438 
  -17492   -17641   -17780   -17835   -17810   -17810   -17865   -17890 
  -17855   -17752   -17572   -17400   -17313   -17268   -17200   -17127 
  -17123   -17230   -17382   -17455   -17446   -17460   -17530   -17621 
  -17726   -17872   -18103   -18385   -18598   -18675   -18658   -18651 
  -18714   -18783   -18780   -18715   -18624   -18526   -18422   -18235 
  -17903   -17471   -17020   -16625   -16322   -16092   -15914   -15766 
  -15621   -15464   -15291   -15156   -15139   -15203   -15252   -15292 
  -15339   -15384   -15430   -15464   -15485   -15498   -15522   -15584 
  -15668   -15740   -15801   -15867   -15921   -15973   -16094   -16276 
  -16433   -16586   -16777   -16981   -17177   -17290   -17256   -17149 
  -17038   -16927   -16827   -16728   -16635   -16564   -16510   -16484 
  -16529   -16621   -16655   -16613   -16594   -16671   -16867   -17166 
  -17506   -17834   -18128   -18384   -18589   -18739   -18851   -18951 
  -19080   -19247   -19378   -19424   -19431   -19451   -19501   -19570 
  -19604   -19562   -19457   -19339   -19269   -19233   -19156   -19030 
  -18856   -18600   -18290   -17952   -17572   -17216   -16981   -16875 
  -16849   -16838   -16788   -16713   -16656   -16623   -16592   -16583 
  -16655   -16790   -16846   -16729   -16537   -16442   -16461   -16521 
  -16612   -16716   -16807   -16920   -17045   -17110   -17109   -17107 
  -17194   -17393   -17647   -17913   -18145   -18294   -18367   -18354 
  -18292   -18301   -18363   -18383   -18358   -18300   -18254   -18287 
  -18368   -18445   -18503   -18503   -18411   -18235   -17997   -17782 
  -17661   -17609   -17606   -17668   -17753   -17760   -17636   -17456 
  -17283   -17076   -16841   -16651   -16516   -16402   -16253   -16002 
  -15693   -15443   -15286   -15209   -15221   -15304   -15444   -15651 
  -15879   -16057   -16174   -16288   -16453   -16625   -16744   -16856 
  -17000   -17101   -17079   -16950   -16823   -16801   -16891   -17041 
  -17225   -17409   -17554   -17624   -17598   -17504   -17395   -17304 
  -17249   -17221   -17184   -17089   -16934   -16767   -16635   -16544 
  -16472   -16400   -16367   -16417   -16507   -16577   -16637   -16703 
  -16786   -16897   -17021   -17153   -17313   -17484   -17669   -17922 
  -18238   -18539   -18778   -18976   -19193   -19445   -19694   -19908 
  -20070   -20187   -20292   -20375   -20367   -20243   -20077   -19946 
  -19856   -19743   -19556   -19323   -19068   -18812   -18618   -18522 
  -18510   -18540   -18531   -18442   -18281   -18048   -17804   -17648 
  -17608   -17670   -17768   -17804   -17762   -17704   -17652   -17556 
  -17383   -17182   -17020   -16912   -16839   -16793   -16788   -16800 
  -16788   -16777   -16760   -16692   -16593   -16485   -16360   -16225 
  -16085   -15970   -15943   -16043   -16228   -16376   -16434   -16460 
  -16513   -16625   -16786   -16933   -17001   -16993   -16984   -17015 
  -17051   -17060   -17079   -17172   -17349   -17574   -17819   -18064 
  -18291   -18439   -18433   -18329   -18245   -18209   -18192   -18141 
  -18034   -17937   -17897   -17883   -17842   -17722   -17524   -17326 
  -17185   -17104   -17094   -17152   -17195   -17168   -17111   -17052 
  -17019   -17065   -17166   -17260   -17304   -17307   -17326   -17328 
  -17225   -17043   -16853   -16698   -16600   -16531   -16475   -16434 
  -16380   -16343   -16436   -16667   -16922   -17127   -17294   -17438 
  -17562   -17682   -17797   -17885   -17943   -17937   -17827   -17644 
  -17446   -17294   -17241   -17232   -17183   -17072   -16887   -16633 
  -16320   -15989   -15756   -15661   -15637   -15625   -15579   -15513 
  -15500   -15520   -15520   -15521   -15569   -15696   -15874   -16001 
  -16055   -16119   -16241   -16403   -16559   -16705   -16919   -17215 
  -17490   -17709   -17875   -17939   -17898   -17798   -17683   -17580 
  -17472   -17372   -17312   -17272   -17196   -17077   -16980   -17012 
  -17206   -17462   -17669   -17843   -18052   -18273   -18394   -18398 
  -18416   -18497   -18581   -18661   -18701   -18643   -18549   -18467 
  -18375   -18231   -17993   -17685   -17385   -17154   -16990   -16812 
  -16581   -16353   -16195   -16107   -16044   -16001   -15970   -15898 
  -15768   -15613   -15474   -15344   -15201   -15071   -14995   -14994 
  -15078   -15249   -15495   -15762   -16007   -16230   -16437   -16658 
  -16939   -17288   -17642   -17933   -18158   -18344   -18515   -18707 
  -18932   -19176   -19442   -19738   -20077   -20425   -20710   -20912 
  -21063   -21154   -21143   -21019   -20819   -20625   -20505   -20407 
  -20250   -20058   -19857   -19641   -19398   -19074   -18662   -18233 
  -17817   -17445   -17173   -16982   -16853   -16745   -16561   -16314 
  -16101   -15961   -15886   -15840   -15784   -15707   -15618   -15555 
  -15547   -15575   -15598   -15593   -15575   -15502   -15294   -14973 
  -14655   -14395   -14190   -14032   -13902   -13804   -13739   -13689 
  -13684   -13742   -13814   -13882   -13981   -14118   -14256   -14366 
  -14429   -14436   -14426   -14449   -14570   -14832   -15156   -15454 
  -15730   -16008   -16371   -16890   -17450   -17893   -18217   -18501 
  -18796   -19100   -19425   -19788   -20106   -20311   -20457   -20592 
  -20700   -20774   -20847   -20907   -20931   -20955   -21003   -21052 
  -21054   -20966   -20792   -20550   -20279   -20008   -19680   -19266 
  -18835   -18430   -18038   -17659   -17345   -17108   -16917   -16790 
  -16717   -16612   -16461   -16346   -16315   -16316   -16284   -16207 
  -16105   -15982   -15861   -15759   -15664   -15581   -15528   -15505 
  -15520   -15566   -15618   -15674   -15736   -15814   -15931   -16096 
  -16347   -16734   -17201   -17627   -17981   -18290   -18563   -18805 
  -19034   -19275   -19515   -19719   -19894   -20021   -20029   -19936 
  -19827   -19730   -19598   -19422   -19250   -19068   -18828   -18568 
  -18314   -18062   -17843   -17685   -17584   -17535   -17546   -17613 
  -17659   -17620   -17541   -17479   -17414   -17332   -17198   -16957 
  -16656   -16406   -16253   -16157   -16058   -15978   -15963   -15961 
  -15942   -15948   -15968   -15924   -15804   -15660   -15519   -15420 
  -15407   -15424   -15427   -15438   -15443   -15437   -15443   -15466 
  -15529   -15636   -15808   -16105   -16471   -16810   -17126   -17426 
  -17689   -17926   -18211   -18649   -19217   -19764   -20167   -20409 
  -20563   -20736   -20932   -21022   -20954   -20813   -20671   -20557 
  -20428   -20247   -20054   -19796   -19384   -18938   -18593   -18352 
  -18194   -18065   -17929   -17804   -17645   -17413   -17190   -17060 
  -17039   -17107   -17191   -17227   -17235   -17214   -17118   -16988 
  -16916   -16916   -16961   -17080   -17262   -17438   -17585   -17707 
  -17841   -18025   -18259   -18520   -18741   -18860   -18874   -18851 
  -18867   -18886   -18860   -18808   -18763   -18779   -18857   -18927 
  -18958   -18923   -18798   -18606   -18381   -18156   -17943   -17738 
  -17523   -17283   -17040   -16814   -16596   -16379   -16162   -15963 
  -15789   -15579   -15282   -14956   -14697   -14513   -14338   -14184 
  -14149   -14233   -14340   -14439   -14565   -14703   -14781   -14775 
  -14769   -14844   -14955   -15050   -15159   -15274   -15347   -15392 
  -15463   -15564   -15622   -15590   -15539   -15566   -15693   -15891 
  -16131   -16382   -16557   -16548   -16393   -16278   -16340   -16563 
  -16859   -17130   -17328   -17464   -17567   -17682   -17829   -17996 
  -18168   -18289   -18282   -18156   -18019   -17964   -17954   -17894 
  -17771   -17660   -17612   -17543   -17379   -17198   -17076   -17012 
  -16963   -16871   -16768   -16745   -16836   -16988   -17103   -17128 
  -17136   -17214   -17342   -17458   -17550   -17605   -17625   -17698 
  -17838   -17952   -17989   -17965   -17949   -17963   -17935   -17866 
  -17823   -17766   -17652   -17538   -17439   -17301   -17089   -16846 
  -16639   -16441   -16236   -16076   -15947   -15799   -15621   -15435 
  -15293   -15217   -15188   -15172   -15145   -15129   -15136   -15134 
  -15148   -15232   -15348   -15387   -15344   -15332   -15424   -15630 
  -15929   -16232   -16470   -16650   -16797   -16936   -17107   -17369 
  -17714   -18029   -18247   -18391   -18486   -18572   -18691   -18807 
  -18850   -18805   -18774   -18828   -18913   -18967   -18976   -18976 
  -19049   -19206   -19388   -19539   -19626   -19648   -19618   -19585 
  -19572   -19540   -19462   -19333   -19161   -18993   -18807   -18563 
  -18291   -17989   -17618   -17229   -16868   -16500   -16091   -15665 
  -15261   -14897   -14582   -14306   -14040   -13796   -13636   -13569 
  -13533   -13545   -13692   -13937   -14201   -14489   -14802   -15103 
  -15364   -15575   -15757   -15956   -16208   -16509   -16827   -17159 
  -17548   -18010   -18453   -18796   -19081   -19335   -19532   -19736 
  -20027   -20354   -20597   -20749   -20926   -21175   -21445   -21702 
  -21932   -22110   -22219   -22262   -22263   -22272   -22328   -22423 
  -22512   -22564   -22601   -22655   -22698   -22702   -22677   -22596 
  -22408   -22140   -21890   -21709   -21565   -21401   -21174   -20893 
  -20618   -20375   -20135   -19909   -19749   -19615   -19427   -19195 
  -18989   -18807   -18524   -18087   -17617   -17204   -16859   -16593 
  -16372   -16126   -15845   -15585   -15375   -15184   -14992   -14810 
  -14668   -14571   -14469   -14352   -14252   -14145   -14052   -14019 
  -13982   -13893   -13805   -13763   -13803   -13930   -14076   -14158 
  -14221   -14414   -14742   -15044   -15272   -15539   -15903   -16319 
  -16767   -17275   -17849   -18426   -18933   -19389   -19844   -20299 
  -20732   -21127   -21477   -21810   -22116   -22332   -22430   -22441 
  -22376   -22220   -21972   -21622   -21200   -20803   -20508   -20314 
  -20143   -19954   -19777   -19573   -19302   -19064   -18952   -18945 
  -18992   -19060   -19126   -19213   -19363   -19542   -19680   -19745 
  -19746   -19709   -19623   -19493   -19382   -19298   -19173   -19004 
  -18854   -18757   -18700   -18645   -18558   -18478   -18471   -18519 
  -18581   -18653   -18685   -18630   -18534   -18450   -18413   -18427 
  -18434   -18425   -18439   -18492   -18591   -18723   -18836   -18883 
  -18840   -18710   -18509   -18261   -17999   -17730   -17474   -17254 
  -17049   -16831   -16612   -16424   -16294   -16223   -16204   -16210 
  -16209   -16192   -16148   -16061   -15956   -15864   -15814   -15825 
  -15882   -15993   -16167   -16365   -16567   -16731   -16809   -16833 
  -16862   -16935   -17057   -17173   -17217   -17196   -17168   -17171 
  -17183   -17163   -17165   -17257   -17365   -17440   -17567   -17782 
  -18043   -18302   -18499   -18627   -18748   -18885   -19045   -19227 
  -19355   -19370   -19313   -19236   -19170   -19113   -19016   -18840 
  -18608   -18383   -18198   -18022   -17841   -17682   -17569   -17501 
  -17443   -17354   -17209   -17028   -16826   -16585   -16347   -16189 
  -16077   -15940   -15760   -15528   -15240   -14887   -14497   -14210 
  -14112   -14135   -14187   -14229   -14288   -14383   -14474   -14575 
  -14754   -15006   -15266   -15514   -15789   -16093   -16385   -16631 
  -16819   -16999   -17223   -17463   -17672   -17830   -17939   -18002 
  -18006   -17989   -18032   -18173   -18392   -18619   -18791   -18899 
  -18946   -18937   -18888   -18845   -18845   -18851   -18782   -18638 
  -18521   -18497   -18534   -18607   -18692   -18719   -18656   -18569 
  -18542   -18559   -18473   -18193   -17799   -17419   -17155   -17046 
  -17027   -17033   -17072   -17146   -17224   -17291   -17344   -17367 
  -17359   -17375   -17456   -17571   -17695   -17822   -17938   -18040 
  -18118   -18168   -18212   -18279   -18388   -18521   -18626   -18704 
  -18776   -18811   -18792   -18787   -18800   -18750   -18649   -18585 
  -18604   -18698   -18806   -18873   -18920   -18975   -19009   -18978 
  -18871   -18699   -18483   -18251   -18030   -17816   -17579   -17327 
  -17065   -16773   -16455   -16106   -15764   -15520   -15364   -15230 
  -15100   -14981   -14917   -14896   -14870   -14864   -14910   -15052 
  -15330   -15643   -15876   -16072   -16325   -16614   -16863   -17091 
  -17378   -17745   -18123   -18425   -18662   -18907   -19166   -19403 
  -19598   -19767   -19942   -20099   -20233   -20375   -20481   -20520 
  -20538   -20544   -20526   -20495   -20471   -20484   -20542   -20618 
  -20664   -20645   -20583   -20514   -20461   -20425   -20352   -20202 
  -20025   -19888   -19773   -19610   -19387   -19124   -18842   -18567 
  -18296   -18024   -17747   -17448   -17142   -16841   -16515   -16146 
  -15732   -15302   -14900   -14550   -14281   -14091   -13938   -13818 
  -13752   -13732   -13730   -13743   -13783   -13839   -13890   -13932 
  -13960   -13976   -14012   -14072   -14130   -14200   -14334   -14510 
  -14650   -14762   -14911   -15104   -15287   -15441   -15596   -15740 
  -15836   -15882   -15874   -15827   -15799   -15839   -15947   -16085 
  -16234   -16373   -16489   -16628   -16827   -17091   -17405   -17739 
  -18117   -18547   -18950   -19305   -19648   -19967   -20254   -20531 
  -20791   -21032   -21253   -21425   -21514   -21480   -21341   -21186 
  -21035   -20847   -20636   -20435   -20279   -20192   -20152   -20113 
  -20003   -19801   -19593   -19451   -19370   -19305   -19225   -19149 
  -19047   -18871   -18660   -18458   -18261   -18067   -17905   -17800 
  -17704   -17582   -17458   -17295   -17059   -16799   -16546   -16346 
  -16242   -16195   -16137   -16026   -15862   -15676   -15482   -15298 
  -15162   -15091   -15069   -15077   -15109   -15139   -15149   -15161 
  -15164   -15115   -15052   -15019   -14985   -14983   -15096   -15321 
  -15568   -15785   -16017   -16297   -16583   -16847   -17095   -17331 
  -17559   -17776   -17947   -18031   -18040   -18058   -18119   -18140 
  -18082   -18043   -18070   -18134   -18212   -18228   -18137   -17992 
  -17870   -17812   -17765   -17681   -17597   -17500   -17345   -17174 
  -17049   -16997   -17018   -17074   -17139   -17215   -17293   -17360 
  -17430   -17556   -17738   -17903   -17994   -17980   -17885   -17803 
  -17801   -17867   -17952   -18011   -18064   -18123   -18144   -18105 
  -18025   -17937   -17854   -17783   -17742   -17696   -17594   -17438 
  -17266   -17156   -17148   -17191   -17257   -17315   -17328   -17319 
  -17304   -17283   -17224   -17051   -16806   -16628   -16540   -16455 
  -16360   -16341   -16418   -16513   -16566   -16545   -16475   -16396 
  -16320   -16275   -16281   -16307   -16327   -16328   -16272   -16158 
  -16010   -15851   -15765   -15815   -15945   -16046   -16060   -16049 
  -16074   -16073   -15993   -15879   -15802   -15828   -15955   -16119 
  -16276   -16405   -16461   -16404   -16274   -16166   -16129   -16147 
  -16200   -16273   -16376   -16530   -16695   -16789   -16792   -16771 
