Origin Time       2011/03/11 14:46:00
Lat.              38.103
Long.             142.860
Depth. (km)       24
Mag.              9.0
Station Code      HKD115
Station Lat.      44.0070
Station Long.     142.1485
Station Height(m) 157
Record Time       2011/03/11 14:49:23
Sampling Freq(Hz) 100Hz
Duration Time(s)  157
Dir.              U-D
Scale Factor      3920(gal)/6182761
Max. Acc. (gal)   1.698
Last Correction   2011/03/11 14:49:08
Memo.             
[...]
  -13314   -13335   -13364   -13390   -13423   -13473   -13524   -13560 
  -13588   -13616   -13636   -13638   -13635   -13638   -13632   -13608 
  -13586   -13574   -13564   -13544   -13516   -13498   -13484   -13455 
  -13428   -13423   -13419   -13398   -13378   -13375   -13376   -13372 
  -13384   -13427   -13477   -13505   -13520   -13545   -13579   -13605 
  -13623   -13652   -13683   -13692   -13684   -13694   -13726   -13746 
  -13756   -13783   -13821   -13842   -13854   -13876   -13898   -13904 
  -13902   -13910   -13929   -13943   -13945   -13957   -13988   -14012 
  -14021   -14045   -14085   -14106   -14104   -14111   -14129   -14133 
  -14123   -14116   -14108   -14083   -14047   -14025   -14014   -13991 
  -13959   -13938   -13929   -13904   -13857   -13819   -13809   -13793 
  -13750   -13711   -13692   -13661   -13611   -13575   -13567   -13561 
  -13548   -13547   -13563   -13580   -13588   -13599   -13630   -13671 
  -13684   -13675   -13666   -13650   -13619   -13601   -13613   -13632 
  -13637   -13648   -13682   -13716   -13733   -13745   -13763   -13777 
  -13771   -13750   -13734   -13716   -13685   -13657   -13646   -13634 
  -13612   -13606   -13633   -13670   -13689   -13700   -13727   -13763 
  -13794   -13817   -13845   -13876   -13892   -13900   -13929   -13973 
  -14003   -14018   -14048   -14093   -14133   -14173   -14230   -14290 
  -14334   -14373   -14415   -14446   -14454   -14450   -14452   -14461 
  -14457   -14443   -14445   -14470   -14492   -14503   -14526   -14567 
  -14597   -14600   -14597   -14598   -14587   -14574   -14583   -14604 
  -14614   -14611   -14606   -14604   -14592   -14574   -14579   -14607 
  -14626   -14629   -14641   -14662   -14665   -14650   -14647   -14662 
  -14667   -14661   -14671   -14705   -14735   -14745   -14753   -14764 
  -14762   -14746   -14742   -14759   -14764   -14742   -14724   -14720 
  -14704   -14669   -14637   -14619   -14595   -14552   -14500   -14449 
  -14394   -14331   -14277   -14243   -14212   -14171   -14130   -14103 
  -14078   -14033   -13987   -13964   -13953   -13931   -13908   -13905 
  -13916   -13921   -13917   -13923   -13931   -13926   -13920   -13929 
  -13940   -13937   -13932   -13942   -13963   -13973   -13977   -13986 
  -13994   -13996   -14000   -14020   -14051   -14076   -14093   -14118 
  -14142   -14139   -14125   -14132   -14146   -14145   -14132   -14124 
  -14124   -14118   -14105   -14111   -14128   -14130   -14130   -14152 
  -14175   -14173   -14158   -14164   -14191   -14204   -14197   -14197 
  -14202   -14187   -14166   -14179   -14216   -14232   -14222   -14218 
  -14224   -14218   -14204   -14201   -14199   -14191   -14188   -14203 
  -14228   -14242   -14243   -14258   -14294   -14315   -14320   -14343 
  -14381   -14400   -14398   -14391   -14390   -14379   -14352   -14337 
  -14342   -14350   -14356   -14369   -14400   -14430   -14440   -14453 
  -14485   -14508   -14506   -14511   -14542   -14581   -14615   -14656 
  -14710   -14757   -14788   -14821   -14862   -14900   -14929   -14964 
  -15007   -15044   -15065   -15089   -15130   -15168   -15181   -15196 
  -15229   -15252   -15252   -15255   -15275   -15298   -15310   -15310 
  -15310   -15310   -15291   -15257   -15232   -15208   -15168   -15127 
  -15108   -15104   -15088   -15069   -15060   -15047   -15017   -14982 
  -14961   -14942   -14908   -14870   -14842   -14819   -14791   -14768 
  -14767   -14781   -14789   -14791   -14808   -14825   -14813   -14780 
  -14748   -14710   -14654   -14593   -14552   -14535   -14520   -14504 
  -14501   -14507   -14506   -14505   -14525   -14564   -14593   -14599 
  -14604   -14609   -14597   -14575   -14564   -14557   -14534   -14500 
  -14478   -14474   -14468   -14451   -14438   -14430   -14402   -14358 
  -14327   -14317   -14308   -14292   -14288   -14296   -14291   -14280 
  -14278   -14277   -14261   -14232   -14211   -14199   -14166   -14118 
  -14090   -14088   -14085   -14075   -14075   -14096   -14123   -14137 
  -14152   -14193   -14235   -14246   -14250   -14275   -14296   -14291 
  -14280   -14276   -14274   -14266   -14266   -14285   -14303   -14308 
  -14319   -14349   -14378   -14388   -14392   -14411   -14429   -14425 
  -14425   -14451   -14474   -14476   -14474   -14484   -14496   -14493 
  -14493   -14518   -14555   -14579   -14598   -14634   -14674   -14699 
  -14727   -14779   -14838   -14892   -14942   -14985   -15008   -15014 
  -15020   -15040   -15060   -15063   -15058   -15061   -15066   -15067 
  -15076   -15105   -15135   -15135   -15115   -15110   -15113   -15091 
  -15063   -15058   -15062   -15043   -15018   -15015   -15021   -15004 
  -14977   -14968   -14972   -14968   -14970   -14997   -15033   -15047 
  -15048   -15056   -15058   -15028   -14982   -14942   -14905   -14857 
  -14795   -14736   -14689   -14639   -14589   -14560   -14553   -14539 
  -14512   -14509   -14540   -14569   -14581   -14601   -14626   -14626 
  -14608   -14610   -14630   -14638   -14634   -14648   -14683   -14715 
  -14733   -14759   -14797   -14814   -14802   -14803   -14836   -14861 
  -14854   -14854   -14882   -14897   -14883   -14884   -14906   -14909 
  -14897   -14896   -14902   -14901   -14888   -14875   -14885   -14896 
  -14877   -14845   -14825   -14797   -14748   -14705   -14687   -14678 
  -14654   -14630   -14624   -14627   -14623   -14628   -14658   -14689 
  -14701   -14716   -14752   -14787   -14809   -14828   -14853   -14871 
  -14860   -14841   -14852   -14874   -14871   -14860   -14868   -14887 
  -14893   -14897   -14928   -14981   -15012   -15013   -15012   -15022 
  -15029   -15033   -15049   -15066   -15070   -15077   -15100   -15125 
  -15131   -15127   -15133   -15150   -15154   -15148   -15156   -15177 
  -15185   -15186   -15212   -15253   -15278   -15292   -15310   -15332 
  -15347   -15356   -15370   -15394   -15417   -15444   -15483   -15526 
  -15561   -15592   -15631   -15673   -15702   -15723   -15751   -15784 
  -15807   -15819   -15843   -15875   -15889   -15887   -15899   -15922 
  -15931   -15930   -15945   -15969   -15970   -15951   -15940   -15944 
  -15949   -15949   -15951   -15956   -15951   -15931   -15914   -15905 
  -15883   -15848   -15825   -15821   -15806   -15760   -15710   -15678 
  -15651   -15616   -15592   -15588   -15578   -15548   -15513   -15496 
  -15487   -15461   -15423   -15398   -15374   -15335   -15291   -15253 
  -15212   -15169   -15134   -15114   -15094   -15059   -15019   -14987 
  -14960   -14925   -14889   -14868   -14855   -14829   -14806   -14803 
  -14794   -14757   -14714   -14679   -14639   -14594   -14554   -14526 
  -14508   -14480   -14443   -14416   -14397   -14374   -14347   -14322 
  -14297   -14265   -14228   -14208   -14198   -14168   -14123   -14094 
  -14074   -14041   -14012   -14011   -14017   -14003   -13975   -13948 
  -13923   -13886   -13832   -13781   -13744   -13697   -13636   -13589 
  -13559   -13523   -13479   -13453   -13449   -13446   -13446   -13464 
  -13485   -13494   -13500   -13510   -13519   -13515   -13487   -13449 
  -13420   -13386   -13338   -13296   -13267   -13230   -13183   -13129 
  -13072   -13027   -12992   -12964   -12951   -12934   -12898   -12861 
  -12837   -12814   -12788   -12769   -12763   -12752   -12726   -12703 
  -12687   -12666   -12634   -12608   -12603   -12598   -12569   -12533 
  -12502   -12462   -12405   -12358   -12328   -12298   -12261   -12226 
  -12205   -12196   -12185   -12186   -12213   -12250   -12277   -12306 
  -12346   -12379   -12392   -12397   -12404   -12401   -12384   -12371 
  -12378   -12399   -12415   -12433   -12474   -12525   -12564   -12605 
  -12670   -12744   -12800   -12845   -12893   -12937   -12964   -12975 
  -12985   -12996   -12993   -12982   -12990   -13018   -13040   -13049 
  -13066   -13087   -13094   -13095   -13116   -13155   -13186   -13209 
  -13246   -13283   -13293   -13284   -13276   -13275   -13271   -13261 
  -13258   -13263   -13257   -13243   -13243   -13262   -13277   -13287 
  -13312   -13346   -13362   -13365   -13384   -13411   -13419   -13406 
  -13399   -13405   -13406   -13398   -13402   -13424   -13446   -13453 
  -13460   -13474   -13472   -13451   -13433   -13420   -13391   -13338 
  -13284   -13237   -13182   -13119   -13067   -13028   -12994   -12963 
  -12940   -12940   -12946   -12937   -12928   -12941   -12958   -12959 
  -12959   -12975   -12991   -12991   -12990   -12993   -12992   -12987 
  -12985   -12990   -13000   -13001   -13002   -13026   -13059   -13084 
  -13114   -13158   -13195   -13207   -13213   -13238   -13273   -13297 
  -13309   -13326   -13346   -13361   -13374   -13398   -13425   -13433 
  -13429   -13438   -13458   -13467   -13467   -13480   -13503   -13515 
  -13523   -13544   -13568   -13570   -13570   -13590   -13613   -13620 
  -13622   -13634   -13648   -13650   -13641   -13642   -13657   -13658 
  -13639   -13627   -13625   -13608   -13572   -13543   -13531   -13515 
  -13486   -13468   -13473   -13478   -13468   -13463   -13471   -13474 
  -13468   -13482   -13513   -13526   -13516   -13506   -13496   -13474 
  -13444   -13417   -13397   -13378   -13349   -13325   -13331   -13345 
  -13352   -13378   -13425   -13464   -13485   -13511   -13546   -13569 
  -13570   -13575   -13597   -13615   -13616   -13618   -13633   -13649 
  -13659   -13683   -13728   -13772   -13805   -13840   -13874   -13886 
  -13879   -13876   -13881   -13876   -13859   -13853   -13860   -13852 
  -13829   -13820   -13829   -13839   -13843   -13854   -13889   -13938 
  -13981   -14013   -14046   -14082   -14104   -14127   -14168   -14207 
  -14218   -14220   -14240   -14267   -14290   -14320   -14371   -14427 
  -14463   -14485   -14512   -14535   -14539   -14537   -14543   -14543 
  -14530   -14519   -14526   -14546   -14552   -14555   -14583   -14618 
  -14631   -14634   -14644   -14653   -14645   -14629   -14631   -14652 
  -14663   -14663   -14685   -14729   -14761   -14772   -14777   -14779 
  -14769   -14741   -14714   -14705   -14695   -14671   -14652   -14649 
  -14644   -14627   -14616   -14622   -14624   -14610   -14608   -14627 
  -14638   -14633   -14635   -14641   -14636   -14632   -14648   -14666 
  -14661   -14642   -14629   -14630   -14638   -14638   -14636   -14647 
  -14662   -14666   -14682   -14728   -14776   -14806   -14836   -14872 
  -14894   -14891   -14883   -14883   -14876   -14854   -14833   -14823 
  -14816   -14808   -14810   -14823   -14838   -14841   -14843   -14860 
  -14884   -14896   -14913   -14949   -14984   -14997   -15004   -15021 
  -15037   -15040   -15042   -15058   -15078   -15084   -15087   -15109 
  -15141   -15163   -15184   -15225   -15276   -15314   -15344   -15387 
  -15431   -15461   -15488   -15524   -15555   -15572   -15581   -15594 
  -15607   -15606   -15592   -15586   -15584   -15560   -15520   -15501 
  -15496   -15456   -15392   -15362   -15364   -15360   -15350   -15355 
  -15366   -15354   -15326   -15312   -15312   -15309   -15301   -15297 
  -15298   -15291   -15270   -15255   -15250   -15234   -15214   -15220 
  -15242   -15250   -15249   -15260   -15281   -15292   -15283   -15273 
  -15272   -15258   -15228   -15225   -15257   -15288   -15301   -15320 
  -15344   -15347   -15329   -15319   -15323   -15313   -15283   -15249 
  -15220   -15190   -15156   -15121   -15100   -15097   -15092   -15086 
  -15100   -15123   -15122   -15107   -15102   -15094   -15067   -15038 
  -15012   -14976   -14935   -14912   -14905   -14893   -14874   -14856 
  -14845   -14829   -14793   -14757   -14750   -14756   -14748   -14741 
  -14748   -14741   -14714   -14700   -14708   -14714   -14710   -14703 
  -14697   -14684   -14651   -14612   -14581   -14542   -14488   -14440 
  -14411   -14385   -14343   -14296   -14265   -14241   -14204   -14172 
  -14168   -14174   -14165   -14151   -14158   -14171   -14164   -14160 
  -14189   -14220   -14220   -14207   -14214   -14228   -14220   -14195 
  -14194   -14215   -14219   -14209   -14222   -14250   -14265   -14274 
  -14301   -14339   -14358   -14364   -14385   -14419   -14436   -14427 
  -14420   -14424   -14410   -14387   -14384   -14380   -14344   -14298 
  -14275   -14262   -14231   -14193   -14178   -14181   -14168   -14139 
  -14122   -14124   -14113   -14082   -14057   -14052   -14041   -14011 
  -13980   -13959   -13925   -13875   -13836   -13813   -13784   -13741 
  -13697   -13652   -13590   -13519   -13472   -13453   -13435   -13410 
  -13396   -13398   -13389   -13354   -13325   -13318   -13305   -13269 
  -13241   -13239   -13237   -13214   -13190   -13170   -13142   -13108 
  -13082   -13077   -13073   -13045   -13005   -12976   -12949   -12901 
  -12845   -12808   -12776   -12724   -12672   -12650   -12636   -12601 
  -12563   -12541   -12523   -12490   -12442   -12397   -12364   -12323 
  -12267   -12224   -12202   -12172   -12125   -12084   -12052   -12020 
  -11994   -11974   -11958   -11951   -11937   -11912   -11896   -11881 
  -11854   -11826   -11804   -11789   -11784   -11792   -11808   -11821 
  -11825   -11826   -11826   -11824   -11827   -11840   -11859   -11875 
  -11882   -11877   -11868   -11863   -11855   -11842   -11835   -11826 
  -11804   -11786   -11772   -11748   -11729   -11732   -11743   -11744 
  -11740   -11741   -11746   -11745   -11739   -11746   -11767   -11777 
  -11774   -11780   -11805   -11824   -11821   -11816   -11826   -11824 
  -11801   -11778   -11761   -11740   -11710   -11680   -11663   -11659 
  -11647   -11618   -11598   -11580   -11536   -11479   -11441   -11410 
  -11371   -11339   -11328   -11328   -11323   -11319   -11333   -11356 
  -11364   -11361   -11364   -11370   -11362   -11349   -11356   -11373 
  -11379   -11387   -11415   -11454   -11485   -11512   -11555   -11603 
  -11633   -11657   -11698   -11748   -11794   -11841   -11887   -11919 
  -11941   -11968   -12001   -12033   -12067   -12108   -12156   -12206 
  -12250   -12297   -12360   -12420   -12453   -12475   -12501   -12526 
  -12544   -12561   -12587   -12627   -12668   -12712   -12764   -12805 
  -12821   -12832   -12859   -12888   -12904   -12924   -12962   -13002 
  -13021   -13025   -13042   -13070   -13079   -13074   -13086   -13108 
  -13114   -13108   -13111   -13125   -13134   -13138   -13157   -13182 
  -13187   -13183   -13200   -13233   -13253   -13263   -13286   -13318 
  -13347   -13376   -13417   -13465   -13495   -13497   -13494   -13499 
  -13496   -13474   -13454   -13449   -13442   -13425   -13419   -13425 
  -13419   -13401   -13391   -13386   -13371   -13357   -13353   -13346 
  -13331   -13312   -13292   -13277   -13272   -13267   -13267   -13276 
  -13281   -13275   -13262   -13257   -13253   -13233   -13204   -13190 
  -13184   -13168   -13145   -13131   -13124   -13115   -13111   -13120 
  -13133   -13138   -13144   -13163   -13178   -13170   -13151   -13145 
  -13134   -13106   -13088   -13086   -13072   -13036   -13003   -12987 
  -12971   -12952   -12943   -12949   -12960   -12968   -12977   -12990 
  -12995   -12981   -12962   -12946   -12924   -12888   -12854   -12833 
  -12813   -12781   -12756   -12763   -12786   -12796   -12808   -12845 
  -12885   -12903   -12920   -12958   -12997   -13020   -13040   -13075 
  -13111   -13128   -13137   -13168   -13217   -13253   -13277   -13306 
  -13337   -13355   -13368   -13394   -13424   -13432   -13421   -13415 
  -13420   -13406   -13384   -13389   -13403   -13394   -13380   -13383 
  -13391   -13396   -13402   -13420   -13447   -13464   -13463   -13466 
  -13478   -13475   -13454   -13446   -13453   -13445   -13422   -13413 
  -13416   -13402   -13374   -13360   -13360   -13358   -13352   -13350 
  -13359   -13368   -13369   -13381   -13422   -13465   -13487   -13509 
  -13537   -13546   -13541   -13549   -13569   -13572   -13555   -13536 
  -13534   -13539   -13544   -13556   -13582   -13610   -13622   -13627 
  -13647   -13677   -13694   -13708   -13732   -13751   -13753   -13754 
  -13764   -13765   -13755   -13750   -13757   -13762   -13755   -13747 
  -13756   -13773   -13778   -13781   -13805   -13831   -13835   -13828 
  -13831   -13831   -13813   -13794   -13787   -13774   -13737   -13689 
  -13656   -13637   -13612   -13604   -13639   -13687   -13714   -13743 
  -13795   -13842   -13861   -13872   -13896   -13912   -13912   -13911 
  -13924   -13947   -13968   -13992   -14033   -14075   -14099   -14116 
  -14144   -14184   -14217   -14240   -14275   -14322   -14352   -14373 
  -14415   -14462   -14473   -14462   -14466   -14476   -14473   -14471 
  -14487   -14515   -14536   -14549   -14563   -14578   -14586   -14582 
  -14580   -14590   -14593   -14576   -14562   -14560   -14550   -14526 
  -14509   -14509   -14516   -14515   -14515   -14533   -14551   -14546 
  -14534   -14530   -14516   -14488   -14462   -14449   -14443   -14434 
  -14433   -14448   -14460   -14460   -14468   -14493   -14517   -14528 
  -14532   -14542   -14556   -14557   -14546   -14538   -14530   -14509 
  -14484   -14465   -14448   -14424   -14400   -14390   -14388   -14381 
  -14377   -14382   -14380   -14360   -14340   -14337   -14337   -14311 
  -14270   -14250   -14239   -14209   -14177   -14169   -14171   -14159 
  -14137   -14121   -14113   -14089   -14050   -14019   -13993   -13950 
  -13890   -13835   -13796   -13761   -13733   -13722   -13717   -13703 
  -13688   -13688   -13696   -13698   -13695   -13702   -13713   -13722 
  -13740   -13773   -13814   -13847   -13866   -13889   -13923   -13945 
  -13946   -13954   -13973   -13976   -13966   -13977   -14014   -14045 
  -14062   -14094   -14142   -14174   -14195   -14233   -14278   -14309 
  -14334   -14357   -14378   -14385   -14374   -14367   -14375   -14376 
  -14361   -14361   -14380   -14387   -14379   -14379   -14387   -14385 
  -14373   -14361   -14359   -14354   -14332   -14311   -14311   -14316 
  -14302   -14285   -14287   -14294   -14288   -14275   -14270   -14262 
  -14245   -14237   -14249   -14268   -14286   -14309   -14341   -14366 
  -14378   -14395   -14428   -14458   -14473   -14486   -14507   -14523 
  -14525   -14527   -14548   -14577   -14598   -14624   -14662   -14689 
  -14705   -14731   -14770   -14807   -14831   -14845   -14861   -14881 
  -14895   -14918   -14957   -14988   -14998   -15009   -15042   -15086 
  -15117   -15138   -15173   -15215   -15233   -15235   -15246   -15260 
  -15261   -15270   -15298   -15327   -15345   -15366   -15405   -15448 
  -15474   -15496   -15542   -15593   -15617   -15626   -15646   -15667 
  -15669   -15657   -15641   -15617   -15584   -15554   -15531   -15508 
  -15475   -15432   -15396   -15374   -15355   -15342   -15350   -15366 
  -15367   -15364   -15382   -15409   -15418   -15411   -15407   -15405 
  -15394   -15368   -15345   -15335   -15313   -15264   -15222   -15206 
  -15183   -15143   -15112   -15091   -15061   -15022   -14996   -14998 
  -14999   -14987   -14982   -14986   -14978   -14962   -14964   -14978 
  -14977   -14955   -14934   -14927   -14913   -14871   -14822   -14793 
  -14774   -14744   -14715   -14695   -14671   -14634   -14596   -14572 
  -14555   -14528   -14497   -14486   -14481   -14455   -14428   -14426 
  -14424   -14400   -14374   -14355   -14323   -14278   -14238   -14212 
  -14194   -14171   -14150   -14139   -14129   -14106   -14081   -14067 
  -14060   -14043   -14016   -13998   -13975   -13928   -13879   -13856 
  -13842   -13815   -13793   -13796   -13813   -13827   -13836   -13856 
