Origin Time       2011/03/11 14:46:00
Lat.              38.103
Long.             142.860
Depth. (km)       24
Mag.              9.0
Station Code      HKD145
Station Lat.      42.7978
Station Long.     140.9361
Station Height(m) 259
Record Time       2011/03/11 14:48:14
Sampling Freq(Hz) 100Hz
Duration Time(s)  205
Dir.              N-S
Scale Factor      3920(gal)/6182761
Max. Acc. (gal)   4.586
Last Correction   2011/03/11 14:47:59
Memo.             
[...]
    3056     3173     3399     3687     3977     4169     4242     4272 
    4245     4129     3978     3783     3540     3317     3112     2877 
    2616     2362     2182     2078     1930     1724     1569     1503 
    1494     1494     1442     1354     1265     1166     1050      881 
     646      427      307      342      534      819     1192     1675 
    2199     2678     3043     3239     3284     3222     3113     2999 
    2877     2815     2896     3055     3159     3146     3030     2860 
    2670     2493     2382     2361     2455     2704     3029     3275 
    3417     3518     3572     3517     3374     3271     3300     3434 
    3598     3737     3795     3770     3743     3783     3901     4080 
    4253     4328     4251     4069     3901     3784     3678     3622 
    3651     3644     3485     3221     2985     2828     2714     2632 
    2608     2672     2824     2976     3021     2954     2838     2712 
    2537     2306     2069     1851     1680     1599     1610     1686 
    1761     1781     1784     1820     1848     1777     1556     1291 
    1198     1345     1661     2085     2556     3062     3596     3974 
    4031     3821     3494     3162     2864     2620     2491     2472 
    2520     2654     2838     2969     3021     3007     2893     2672 
    2393     2101     1833     1602     1395     1254     1252     1413 
    1693     1981     2218     2444     2626     2685     2675     2708 
    2807     2974     3256     3638     3998     4235     4373     4494 
    4594     4632     4646     4632     4491     4200     3819     3358 
    2836     2388     2123     1957     1759     1553     1384     1174 
     889      611      416      333      387      549      700      803 
     961     1189     1376     1474     1557     1760     2143     2605 
    3073     3595     4138     4544     4725     4706     4540     4250 
    3870     3498     3214     2997     2795     2606     2436     2287 
    2199     2169     2075     1878     1710     1580     1338      981 
     683      565      590      681      830     1024     1234     1494 
    1777     1913     1878     1854     1912     1964     1949     1919 
    1971     2108     2245     2348     2436     2531     2719     3026 
    3299     3502     3791     4150     4388     4445     4389     4237 
    3992     3701     3359     2939     2472     2023     1689     1550 
    1577     1728     1989     2293     2572     2804     2915     2821 
    2576     2349     2196     2043     1941     2007     2168     2267 
    2234     2096     1910     1690     1467     1335     1345     1488 
    1652     1661     1523     1415     1413     1464     1514     1580 
    1697     1835     1992     2214     2459     2677     2892     3125 
    3417     3783     4158     4495     4781     4967     4999     4843 
    4511     4104     3710     3324     2946     2597     2311     2148 
    2076     2007     1948     1919     1915     1949     1990     1952 
    1793     1573     1397     1339     1390     1478     1556     1639 
    1722     1755     1746     1744     1766     1887     2192     2661 
    3256     3927     4548     5037     5375     5524     5458     5212 
    4870     4512     4152     3783     3418     3049     2718     2539 
    2563     2715     2885     2965     2881     2632     2244     1755 
    1225      707      255      -37      -89      100      464      940 
    1487     2039     2484     2721     2743     2623     2462     2372 
    2413     2547     2745     3055     3524     4100     4634     4977 
    5056     4904     4604     4240     3882     3579     3364     3240 
    3142     3008     2868     2806     2838     2844     2710     2485 
    2245     2002     1774     1558     1335     1200     1252     1349 
    1293     1149     1106     1223     1417     1547     1535     1406 
    1232     1129     1158     1247     1374     1590     1871     2175 
    2513     2940     3491     4066     4508     4755     4782     4613 
    4403     4268     4168     4050     3900     3726     3557     3391 
    3165     2855     2552     2336     2148     1912     1669     1507 
    1431     1382     1292     1093      841      721      805      987 
    1152     1281     1393     1484     1527     1537     1588     1780 
    2186     2756     3313     3682     3815     3796     3722     3625 
    3536     3456     3380     3392     3486     3568     3643     3692 
    3647     3529     3373     3216     3118     3069     3053     3091 
    3164     3265     3388     3424     3316     3189     3146     3113 
    2976     2707     2379     2131     2045     2114     2249     2370 
    2548     2818     3023     3103     3152     3188     3217     3291 
    3389     3406     3358     3431     3642     3747     3676     3625 
    3636     3602     3577     3630     3696     3770     3868     3859 
    3612     3195     2806     2559     2419     2370     2481     2715 
    2942     3132     3259     3218     3043     2855     2651     2395 
    2139     1990     2047     2331     2798     3341     3780     4015 
    4072     3953     3631     3153     2623     2156     1841     1697 
    1711     1872     2128     2393     2581     2593     2383     2063 
    1805     1668     1629     1729     1988     2306     2609     2837 
    2868     2713     2527     2372     2229     2163     2291     2609 
    2945     3163     3293     3390     3493     3630     3731     3747 
    3732     3699     3652     3689     3848     4038     4199     4366 
    4546     4602     4418     4077     3730     3443     3198     2961 
    2779     2726     2740     2659     2420     2087     1712     1290 
     873      593      518      576      686      795      859      927 
    1031     1057     1005     1028     1204     1506     1796     1928 
    1921     1885     1895     1941     1963     2010     2169     2372 
    2538     2684     2828     2986     3183     3393     3576     3705 
    3698     3526     3325     3224     3213     3218     3209     3240 
    3375     3658     4076     4466     4692     4807     4850     4815 
    4772     4761     4786     4904     5128     5371     5520     5496 
    5277     4939     4598     4285     3956     3624     3392     3337 
    3348     3218     2882     2473     2174     2113     2313     2625 
    2866     3076     3348     3564     3527     3191     2672     2103 
    1559     1124      849      727      833     1249     1863     2426 
    2796     3028     3199     3321     3437     3572     3709     3842 
    3996     4185     4357     4447     4430     4294     4038     3686 
    3252     2738     2182     1682     1345     1200     1229     1440 
    1794     2129     2266     2164     1859     1335      632      -74 
    -593     -853     -856     -572        8      805     1702     2583 
    3349     3943     4375     4668     4812     4849     4836     4734 
    4499     4180     3902     3784     3844     4047     4322     4526 
    4597     4585     4482     4230     3815     3286     2704     2103 
    1537     1116      881      775      775      892     1122     1476 
    1951     2510     3080     3577     3967     4235     4327     4286 
    4253     4250     4193     4086     4038     4156     4488     4986 
    5502     5870     5968     5793     5443     4997     4477     3882 
    3291     2853     2578     2332     2094     1934     1832     1755 
    1716     1728     1779     1839     1890     1961     2011     1929 
    1727     1549     1543     1822     2362     2965     3492     3969 
    4410     4766     5057     5407     5852     6180     6225     6071 
    5775     5318     4794     4333     3989     3762     3629     3558 
    3501     3463     3457     3320     2875     2233     1595     1009 
     509      194      120      257      519      807     1052     1275 
    1551     1879     2145     2311     2442     2601     2851     3174 
    3447     3611     3701     3773     3871     4016     4263     4621 
    4990     5257     5316     5086     4647     4197     3849     3563 
    3255     2950     2721     2503     2234     2049     2040     2078 
    2073     2052     2000     1849     1600     1367     1267     1284 
    1365     1528     1790     2146     2630     3243     3804     4099 
    4119     3949     3664     3379     3145     2928     2731     2569 
    2404     2165     1830     1513     1386     1497     1754     2037 
    2251     2364     2429     2513     2659     2874     3095     3324 
    3670     4169     4765     5411     6089     6782     7396     7763 
    7794     7500     6960     6342     5789     5260     4673     4038 
    3365     2662     1988     1397      861      297     -283     -792 
   -1218    -1517    -1606    -1553    -1490    -1451    -1390    -1217 
    -853     -219      730     1869     3003     4077     5063     5804 
    6178     6284     6314     6361     6420     6478     6548     6626 
    6682     6659     6464     6000     5281     4467     3710     3033 
    2434     1917     1443      983      539       96     -350     -689 
    -775     -651     -549     -557     -460      -71      525     1137 
    1658     2140     2679     3249     3809     4400     5024     5619 
    6106     6473     6801     7141     7463     7710     7797     7671 
    7357     6872     6225     5490     4728     3878     2926     2030 
    1326      832      502      237      -36     -358     -723    -1019 
   -1151    -1128    -1025     -945     -906     -761     -392      160 
     812     1542     2305     3039     3709     4219     4496     4679 
    4941     5316     5746     6098     6283     6373     6465     6541 
    6486     6196     5698     5072     4394     3795     3389     3184 
    3197     3411     3656     3793     3833     3791     3632     3335 
    2911     2402     1920     1620     1589     1792     2160     2667 
    3285     3890     4325     4479     4289     3818     3223     2620 
    2051     1502     1001      686      596      587      567      559 
     617      811     1173     1660     2223     2818     3349     3699 
    3833     3874     3981     4206     4513     4881     5303     5666 
    5805     5745     5636     5509     5274     4891     4494     4260 
    4170     4113     4134     4283     4416     4279     3740     2943 
    2165     1573     1270     1308     1507     1592     1531     1510 
    1645     1915     2276     2736     3327     3961     4439     4641 
    4593     4411     4259     4233     4292     4351     4364     4350 
    4334     4236     3949     3453     2800     2077     1417      967 
     805      917     1264     1776     2305     2757     3145     3437 
    3501     3268     2806     2224     1620     1180     1099     1406 
    2030     2866     3691     4209     4297     4111     3864     3636 
    3459     3402     3469     3510     3401     3241     3130     3012 
    2863     2699     2492     2269     2109     2050     2040     2035 
    2091     2184     2152     1994     1934     2043     2172     2232 
    2221     2161     2140     2203     2336     2583     2948     3366 
    3797     4216     4540     4618     4400     4062     3802     3648 
    3553     3526     3607     3757     3903     4045     4162     4177 
    4048     3760     3340     2900     2550     2278     2025     1783 
    1583     1483     1504     1635     1881     2180     2488     2919 
    3537     4225     4873     5479     6056     6511     6724     6736 
    6612     6293     5808     5282     4697     3964     3153     2441 
    1831     1175      507        6     -306     -555     -843    -1225 
   -1661    -1946    -1898    -1554    -1079     -583      -83      427 
     926     1403     1877     2344     2835     3440     4173     4910 
    5516     5897     5998     5827     5437     4941     4458     3999 
    3541     3059     2487     1843     1238      759      474      421 
     500      529      385        8     -577    -1119    -1244     -762 
     230     1461     2647     3613     4292     4674     4801     4746 
    4577     4346     4145     4127     4384     4857     5418     5903 
    6082     5818     5224     4477     3745     3205     2825     2421 
    1951     1458      979      591      390      445      735     1166 
    1680     2269     2954     3735     4552     5328     6034     6694 
    7277     7600     7508     7072     6536     6127     5919     5853 
    5838     5851     5964     6210     6453     6453     6081     5413 
    4530     3448     2284     1207      358     -140     -281     -184 
     -56     -139     -470     -837    -1094    -1167     -894     -299 
     432     1255     2130     2962     3751     4509     5192     5718 
    5984     5996     5909     5907     6061     6272     6396     6440 
    6423     6221     5757     5161     4640     4276     4012     3790 
    3614     3499     3481     3616     3824     3889     3735     3392 
    2764     1811      734     -205     -875    -1258    -1356    -1180 
    -809     -371       81      582     1110     1579     1918     2094 
    2084     1833     1346      744      195     -108      -78      207 
     703     1371     2048     2622     3158     3737     4260     4544 
    4616     4657     4746     4894     5184     5692     6342     6901 
    7162     7169     7161     7192     7082     6737     6239     5778 
    5514     5341     5052     4679     4326     3925     3322     2436 
    1384      455     -256     -910    -1616    -2374    -3140    -3838 
   -4341    -4461    -4088    -3322    -2350    -1332     -395      478 
    1417     2427     3428     4429     5459     6471     7389     8177 
    8811     9229     9381     9282     8990     8581     8103     7592 
    7109     6675     6256     5811     5221     4358     3282     2148 
     996     -189    -1270    -2002    -2275    -2187    -1877    -1442 
   -1018     -736     -566     -430     -266       89      671     1264 
    1772     2311     2962     3679     4317     4772     5113     5423 
    5709     5962     6118     6099     5909     5601     5246     4889 
    4550     4331     4281     4254     4064     3597     2879     2150 
    1640     1383     1384     1609     1825     1812     1611     1318 
     887      303     -291     -790    -1232    -1572    -1625    -1285 
    -562      459     1555     2446     3012     3348     3589     3736 
    3767     3842     4112     4476     4774     5003     5244     5574 
    6010     6422     6623     6556     6297     5919     5437     4883 
    4347     3860     3415     3096     3004     3138     3411     3667 
    3778     3729     3540     3241     2863     2451     2116     1909 
    1778     1664     1541     1501     1684     2053     2483     2851 
    2980     2808     2516     2295     2152     1980     1704     1379 
    1184     1224     1454     1808     2280     2960     3885     4896 
    5845     6742     7596     8353     8949     9316     9413     9214 
    8688     7944     7174     6456     5834     5419     5302     5520 
    5919     6188     6171     5918     5493     4904     4111     3130 
    2126     1261      606      225      173      394      740     1138 
    1661     2303     2850     3176     3345     3427     3463     3497 
    3619     3988     4648     5448     6147     6542     6588     6368 
    5960     5482     5087     4796     4508     4144     3696     3195 
    2620     1922     1230      767      569      507      525      619 
     763      992     1379     1884     2386     2798     3083     3191 
    3131     3030     3014     3125     3365     3687     3958     4009 
    3820     3546     3262     2894     2439     2021     1762     1704 
    1817     2010     2181     2306     2422     2431     2144     1590 
    1017      636      543      736     1128     1621     2159     2720 
    3242     3621     3860     4082     4328     4458     4380     4259 
    4385     4865     5570     6346     7117     7793     8217     8220 
    7737     6852     5774     4756     3950     3335     2885     2653 
    2632     2701     2727     2586     2170     1553      959      405 
    -275     -978    -1450    -1694    -1794    -1748    -1571    -1272 
    -834     -319      153      498      785     1242     2030     3071 
    4192     5289     6274     7063     7671     8154     8468     8525 
    8347     8020     7554     6942     6250     5625     5169     4794 
    4311     3577     2570     1441      334     -792    -1965    -2981 
   -3613    -3856    -3821    -3598    -3296    -3038    -2855    -2690 
   -2489    -2182    -1648     -781      418     1802     3131     4221 
    5041     5643     6091     6525     7062     7633     8104     8407 
    8513     8414     8156     7822     7444     7038     6697     6431 
    6009     5203     4004     2562     1122      -85     -961    -1537 
   -1916    -2178    -2327    -2327    -2149    -1771    -1186     -458 
     262      822     1198     1420     1421     1196      965      924 
    1072     1374     1803     2263     2574     2533     2082     1402 
     722      112     -419     -756     -753     -427       78      655 
    1226     1696     2047     2312     2567     2951     3503     4091 
    4609     5020     5279     5374     5317     5137     4932     4796 
    4746     4766     4767     4637     4380     4084     3879     3868 
    3975     4021     3925     3742     3563     3393     3138     2745 
    2302     1978     1917     2158     2615     3216     3936     4610 
    5034     5175     5024     4580     4023     3556     3175     2763 
    2272     1766     1326      959      674      577      793     1330 
    1999     2541     2870     3004     2861     2414     1846     1412 
    1300     1588     2190     2927     3633     4188     4611     5002 
    5336     5506     5468     5243     4879     4374     3707     2986 
    2358     1882     1557     1331     1146      994      856      660 
     330     -119     -547     -834    -1003    -1098    -1024     -714 
    -267      239      819     1441     2026     2519     2921     3267 
    3571     3861     4191     4580     4984     5301     5424     5339 
    5094     4721     4258     3826     3551     3461     3516     3668 
    3910     4284     4781     5299     5717     5881     5606     4838 
    3739     2510     1321      383     -104      -85      288      816 
    1387     1904     2284     2532     2612     2452     2076     1566 
     987      463      167      166      381      722     1150     1627 
    2101     2558     2967     3250     3371     3307     3053     2715 
    2478     2460     2625     2830     3000     3168     3394     3759 
    4276     4805     5184     5385     5440     5339     5071     4660 
    4195     3778     3423     3119     2926     2885     2974     3144 
    3288     3254     2962     2447     1849     1303      779      215 
    -345     -894    -1413    -1793    -2016    -2094    -1933    -1506 
    -895     -189      495     1087     1653     2272     2980     3799 
    4708     5645     6479     7108     7548     7790     7869     7954 
    8121     8266     8273     8133     7883     7495     6928     6219 
    5467     4768     4141     3529     2850     2107     1475     1131 
    1064     1063      917      635      355      156       73       87 
     220      641     1390     2232     3006     3760     4542     5260 
