Origin Time       2011/03/11 14:46:00
Lat.              38.103
Long.             142.860
Depth. (km)       24
Mag.              9.0
Station Code      HKD173
Station Lat.      42.0662
Station Long.     139.4515
Station Height(m) 11
Record Time       2011/03/11 14:47:56
Sampling Freq(Hz) 100Hz
Duration Time(s)  300
Dir.              U-D
Scale Factor      3920(gal)/6182761
Max. Acc. (gal)   3.210
Last Correction   2011/03/11 14:47:41
Memo.             
[...]
  -14685   -14664   -14703   -14716   -14628   -14396   -14066   -13742 
  -13484   -13309   -13189   -13035   -12786   -12477   -12189   -12002 
  -11976   -12070   -12156   -12128   -11961   -11722   -11525   -11429 
  -11428   -11467   -11459   -11364   -11235   -11181   -11293   -11545 
  -11813   -12007   -12105   -12123   -12092   -12062   -12110   -12261 
  -12452   -12602   -12640   -12561   -12488   -12583   -12874   -13238 
  -13548   -13777   -13938   -14031   -14041   -13969   -13854   -13731 
  -13605   -13495   -13434   -13425   -13464   -13556   -13690   -13814 
  -13865   -13826   -13736   -13655   -13649   -13774   -14013   -14260 
  -14407   -14422   -14327   -14198   -14146   -14228   -14413   -14617 
  -14735   -14677   -14439   -14110   -13790   -13494   -13165   -12783 
  -12395   -12070   -11858   -11792   -11891   -12156   -12512   -12821 
  -12992   -13031   -13011   -13021   -13100   -13224   -13351   -13427 
  -13428   -13441   -13588   -13903   -14326   -14732   -14985   -15042 
  -14966   -14848   -14747   -14662   -14544   -14388   -14264   -14220 
  -14229   -14277   -14369   -14459   -14466   -14306   -13954   -13535 
  -13245   -13175   -13287   -13505   -13776   -14051   -14292   -14504 
  -14736   -15048   -15447   -15868   -16241   -16508   -16591   -16494 
  -16337   -16212   -16128   -16038   -15873   -15588   -15175   -14663 
  -14155   -13770   -13537   -13375   -13205   -13029   -12889   -12849 
  -12979   -13275   -13621   -13867   -13971   -14034   -14198   -14527 
  -14979   -15469   -15892   -16154   -16206   -16084   -15896   -15733 
  -15631   -15587   -15574   -15580   -15622   -15686   -15736   -15781 
  -15874   -16045   -16252   -16414   -16510   -16596   -16726   -16888 
  -17046   -17186   -17259   -17186   -16960   -16647   -16321   -16022 
  -15749   -15509   -15306   -15085   -14795   -14449   -14067   -13681 
  -13339   -13073   -12875   -12687   -12471   -12273   -12135   -12031 
  -11924   -11832   -11814   -11905   -12095   -12379   -12779   -13315 
  -13935   -14546   -15098   -15584   -16023   -16437   -16770   -16925 
  -16889   -16753   -16618   -16529   -16453   -16336   -16175   -16016 
  -15925   -15919   -15911   -15821   -15687   -15581   -15515   -15449 
  -15325   -15121   -14898   -14741   -14695   -14775   -14965   -15203 
  -15400   -15466   -15392   -15266   -15194   -15212   -15278   -15290 
  -15174   -14951   -14757   -14747   -14945   -15235   -15516   -15742 
  -15877   -15903   -15883   -15936   -16147   -16517   -16973   -17409 
  -17741   -17892   -17800   -17518   -17174   -16817   -16412   -15916 
  -15336   -14769   -14308   -13953   -13669   -13398   -13083   -12748 
  -12449   -12212   -12057   -11989   -12009   -12123   -12282   -12410 
  -12488   -12558   -12691   -12888   -13052   -13091   -12979   -12767 
  -12588   -12572   -12763   -13115   -13491   -13740   -13847   -13905 
  -14006   -14209   -14509   -14868   -15257   -15610   -15872   -16069 
  -16275   -16573   -16966   -17307   -17470   -17470   -17406   -17377 
  -17415   -17465   -17426   -17213   -16800   -16216   -15516   -14753 
  -13979   -13244   -12561   -11902   -11284   -10801   -10543   -10533 
  -10693   -10897   -11079   -11237   -11385   -11550   -11749   -11981 
  -12224   -12439   -12597   -12670   -12652   -12602   -12621   -12734 
  -12831   -12810   -12709   -12611   -12586   -12704   -12969   -13276 
  -13481   -13511   -13465   -13518   -13735   -14066   -14406   -14675 
  -14884   -15101   -15375   -15725   -16107   -16438   -16674   -16818 
  -16931   -17088   -17323   -17616   -17896   -18045   -17984   -17780 
  -17616   -17633   -17829   -18078   -18209   -18105   -17783   -17368 
  -17001   -16742   -16537   -16289   -15954   -15534   -15101   -14750 
  -14466   -14166   -13831   -13476   -13119   -12809   -12582   -12437 
  -12345   -12236   -12076   -11937   -11909   -12001   -12154   -12293 
  -12366   -12379   -12394   -12482   -12688   -12992   -13309   -13566 
  -13734   -13832   -13969   -14243   -14641   -15081   -15458   -15703 
  -15834   -15883   -15840   -15701   -15499   -15289   -15113   -14998 
  -14966   -15024   -15142   -15269   -15366   -15425   -15431   -15363 
  -15250   -15157   -15141   -15205   -15297   -15401   -15556   -15760 
  -15971   -16193   -16428   -16659   -16879   -17071   -17195   -17217 
  -17126   -16939   -16711   -16476   -16228   -15987   -15798   -15669 
  -15555   -15417   -15264   -15162   -15155   -15201   -15226   -15173 
  -15011   -14741   -14418   -14152   -14013   -13956   -13875   -13724 
  -13570   -13537   -13716   -14102   -14579   -14996   -15286   -15494 
  -15707   -15983   -16319   -16656   -16943   -17150   -17273   -17362 
  -17517   -17787   -18088   -18279   -18281   -18122   -17891   -17667 
  -17511   -17443   -17411   -17365   -17302   -17267   -17354   -17569 
  -17769   -17812   -17670   -17400   -17088   -16791   -16515   -16246 
  -15979   -15716   -15471   -15260   -15123   -15106   -15177   -15254 
  -15296   -15299   -15287   -15311   -15373   -15418   -15400   -15319 
  -15201   -15079   -14968   -14883   -14865   -14934   -15043   -15081 
  -14974   -14752   -14490   -14266   -14145   -14140   -14205   -14279 
  -14319   -14303   -14261   -14289   -14441   -14665   -14888   -15044 
  -15079   -15008   -14902   -14852   -14930   -15118   -15319   -15450 
  -15491   -15481   -15461   -15443   -15436   -15440   -15429   -15371 
  -15257   -15098   -14918   -14794   -14807   -14961   -15187   -15405 
  -15596   -15785   -15984   -16178   -16322   -16343   -16208   -15968 
  -15714   -15519   -15398   -15289   -15124   -14895   -14642   -14394 
  -14149   -13902   -13632   -13336   -13070   -12915   -12885   -12952 
  -13099   -13330   -13636   -13978   -14311   -14642   -15042   -15566 
  -16173   -16764   -17263   -17600   -17738   -17757   -17825   -18052 
  -18400   -18726   -18925   -19023   -19084   -19103   -19041   -18909 
  -18776   -18699   -18687   -18712   -18719   -18673   -18610   -18570 
  -18510   -18326   -17944   -17375   -16711   -16065   -15538   -15192 
  -14994   -14818   -14534   -14134   -13757   -13547   -13532   -13670 
  -13911   -14162   -14352   -14486   -14603   -14747   -14929   -15126 
  -15313   -15422   -15373   -15192   -14981   -14795   -14600   -14316 
  -13902   -13416   -12944   -12556   -12324   -12255   -12277   -12360 
  -12537   -12812   -13143   -13490   -13849   -14221   -14568   -14812 
  -14925   -14962   -14984   -15025   -15098   -15177   -15217   -15215 
  -15213   -15229   -15246   -15256   -15268   -15312   -15399   -15481 
  -15508   -15511   -15572   -15749   -16011   -16263   -16445   -16598 
  -16824   -17205   -17711   -18174   -18399   -18309   -18028   -17807 
  -17797   -17932   -18039   -17980   -17749   -17449   -17144   -16808 
  -16427   -16063   -15754   -15472   -15180   -14868   -14568   -14342 
  -14208   -14113   -13987   -13805   -13606   -13463   -13390   -13332 
  -13251   -13172   -13151   -13242   -13461   -13797   -14199   -14546 
  -14738   -14807   -14879   -15053   -15286   -15424   -15382   -15208 
  -14992   -14808   -14699   -14670   -14714   -14812   -14911   -14959 
  -14947   -14896   -14811   -14664   -14425   -14102   -13720   -13309 
  -12928   -12656   -12542   -12532   -12513   -12410   -12249   -12106 
  -12034   -12071   -12249   -12541   -12831   -13000   -13038   -13059 
  -13175   -13379   -13578   -13694   -13712   -13675   -13643   -13662 
  -13744   -13835   -13855   -13802   -13735   -13691   -13670   -13666 
  -13694   -13753   -13808   -13831   -13819   -13764   -13672   -13571 
  -13483   -13394   -13243   -12975   -12633   -12335   -12140   -11968 
  -11721   -11418   -11174   -11078   -11123   -11249   -11442   -11713 
  -12031   -12329   -12570   -12794   -13071   -13392   -13683   -13907 
  -14091   -14262   -14404   -14492   -14537   -14568   -14580   -14529 
  -14405   -14270   -14168   -14092   -13989   -13784   -13453   -13053 
  -12633   -12230   -11914   -11726   -11660   -11689   -11725   -11667 
  -11504   -11309   -11169   -11140   -11232   -11385   -11498   -11512 
  -11421   -11252   -11114   -11108   -11192   -11243   -11190   -11024 
  -10814   -10667   -10613   -10626   -10705   -10816   -10912   -11023 
  -11223   -11586   -12151   -12847   -13554   -14224   -14851   -15426 
  -15986   -16558   -17095   -17552   -17931   -18234   -18454   -18570 
  -18533   -18331   -18035   -17684   -17212   -16610   -15964   -15338 
  -14781   -14312   -13891   -13511   -13166   -12838   -12577   -12425 
  -12327   -12265   -12309   -12470   -12707   -13001   -13348   -13705 
  -14041   -14368   -14663   -14860   -14934   -14910   -14849   -14844 
  -14901   -14909   -14817   -14696   -14556   -14352   -14138   -14006 
  -13973   -13989   -13970   -13851   -13689   -13649   -13799   -14003 
  -14094   -14049   -13936   -13822   -13776   -13846   -13985   -14059 
  -13991   -13849   -13723   -13651   -13642   -13678   -13772   -13962 
  -14187   -14315   -14352   -14442   -14626   -14802   -14952   -15109 
  -15243   -15341   -15484   -15796   -16301   -16864   -17336   -17648 
  -17840   -17997   -18126   -18200   -18214   -18185   -18109   -17944 
  -17715   -17490   -17284   -17150   -17108   -17005   -16725   -16369 
  -16066   -15842   -15683   -15572   -15473   -15330   -15174   -15061 
  -14926   -14798   -14840   -14945   -14886   -14666   -14259   -13611 
  -12873   -12179   -11574   -11171   -10981   -10856   -10762   -10752 
  -10796   -10908   -11079   -11224   -11359   -11490   -11532   -11575 
  -11715   -11869   -12164   -12692   -13197   -13560   -13901   -14244 
  -14543   -14801   -15012   -15136   -15227   -15309   -15292   -15156 
  -14896   -14527   -14188   -13973   -13890   -13844   -13699   -13564 
  -13603   -13776   -14034   -14343   -14671   -15079   -15509   -15866 
  -16261   -16692   -17028   -17321   -17608   -17868   -18169   -18413 
  -18439   -18367   -18334   -18258   -18142   -18044   -17881   -17657 
  -17501   -17484   -17673   -17974   -18109   -18099   -18158   -18255 
  -18255   -18211   -18269   -18361   -18277   -17960   -17576   -17323 
  -17108   -16767   -16434   -16172   -15806   -15334   -14886   -14529 
  -14291   -14090   -13873   -13744   -13722   -13752   -13790   -13767 
  -13775   -13880   -13906   -13821   -13819   -13899   -13895   -13860 
  -13920   -13988   -14055   -14138   -14099   -14026   -13978   -13794 
  -13616   -13591   -13599   -13709   -13941   -14038   -13943   -13817 
  -13667   -13487   -13334   -13154   -12938   -12854   -12998   -13306 
  -13683   -14050   -14485   -15081   -15667   -16170   -16673   -16992 
  -16996   -16859   -16665   -16442   -16354   -16406   -16489   -16610 
  -16708   -16676   -16598   -16596   -16701   -16912   -17153   -17254 
  -17145   -16953   -16825   -16770   -16753   -16757   -16706   -16544 
  -16329   -16055   -15629   -15130   -14753   -14511   -14281   -14056 
  -13881   -13721   -13618   -13593   -13569   -13592   -13732   -13907 
  -14044   -14185   -14370   -14556   -14701   -14781   -14787   -14781 
  -14801   -14799   -14759   -14669   -14524   -14431   -14390   -14210 
  -13841   -13454   -13141   -12868   -12632   -12410   -12180   -12086 
  -12245   -12516   -12670   -12618   -12427   -12165   -11938   -11970 
  -12239   -12530   -12821   -13081   -13292   -13594   -13974   -14294 
  -14558   -14749   -14742   -14545   -14281   -13998   -13744   -13532 
  -13364   -13279   -13219   -13108   -12965   -12826   -12706   -12607 
  -12475   -12314   -12205   -12105   -11965   -11930   -12123   -12421 
  -12662   -12846   -13044   -13328   -13684   -14020   -14280   -14460 
  -14608   -14739   -14770   -14706   -14603   -14463   -14343   -14249 
  -14139   -14018   -13832   -13625   -13519   -13411   -13183   -12860 
  -12528   -12319   -12228   -12220   -12345   -12414   -12248   -11981 
  -11791   -11819   -11988   -12066   -12119   -12255   -12358   -12434 
  -12602   -12757   -12836   -12914   -12873   -12630   -12302   -12021 
  -11838   -11712   -11670   -11689   -11612   -11457   -11323   -11265 
  -11395   -11607   -11623   -11503   -11439   -11419   -11481   -11642 
  -11790   -11909   -12050   -12269   -12576   -12839   -13041   -13317 
  -13698   -14145   -14570   -14834   -14980   -15240   -15665   -16015 
  -16112   -16103   -16237   -16456   -16600   -16840   -17246   -17551 
  -17725   -17890   -17943   -17894   -17867   -17768   -17617   -17584 
  -17599   -17545   -17446   -17349   -17282   -17248   -17167   -16920 
  -16591   -16330   -16101   -15890   -15735   -15558   -15234   -14839 
  -14583   -14486   -14450   -14387   -14189   -13911   -13724   -13586 
  -13447   -13360   -13237   -13084   -13026   -13055   -13152   -13317 
  -13475   -13549   -13564   -13537   -13401   -13240   -13187   -13206 
  -13285   -13428   -13565   -13613   -13568   -13562   -13673   -13769 
  -13768   -13842   -14104   -14442   -14715   -14851   -14931   -15082 
  -15260   -15377   -15454   -15518   -15478   -15361   -15382   -15578 
  -15825   -16087   -16322   -16416   -16339   -16226   -16130   -15955 
  -15710   -15404   -15012   -14619   -14277   -14054   -14059   -14146 
  -14094   -13943   -13804   -13679   -13634   -13766   -13991   -14182 
  -14357   -14531   -14731   -15081   -15468   -15644   -15778   -16027 
  -16138   -16058   -15978   -16002   -16251   -16685   -17130   -17528 
  -17824   -17994   -18127   -18396   -18776   -18987   -19102   -19370 
  -19629   -19754   -19835   -19811   -19616   -19299   -18947   -18649 
  -18395   -18083   -17652   -17169   -16726   -16427   -16377   -16384 
  -16171   -15805   -15441   -15112   -14757   -14309   -13888   -13558 
  -13196   -12820   -12550   -12425   -12389   -12363   -12339   -12350 
  -12373   -12321   -12239   -12361   -12702   -13114   -13599   -14113 
  -14490   -14671   -14801   -15035   -15371   -15718   -15915   -15853 
  -15678   -15537   -15390   -15213   -15013   -14822   -14679   -14557 
  -14511   -14554   -14535   -14432   -14372   -14421   -14539   -14641 
  -14693   -14708   -14654   -14478   -14234   -14052   -14010   -14040 
  -14031   -14054   -14236   -14551   -14935   -15346   -15770   -16238 
  -16738   -17176   -17480   -17710   -17962   -18212   -18427   -18629 
  -18786   -18838   -18778   -18634   -18441   -18194   -17843   -17399 
  -16932   -16519   -16213   -15955   -15677   -15384   -15035   -14635 
  -14295   -14032   -13815   -13635   -13425   -13159   -12893   -12640 
  -12411   -12288   -12312   -12427   -12558   -12668   -12738   -12777 
  -12829   -12927   -13069   -13185   -13150   -12951   -12710   -12555 
  -12577   -12768   -12980   -13095   -13108   -13069   -13059   -13111 
  -13176   -13269   -13358   -13250   -12993   -12827   -12762   -12839 
  -13153   -13575   -13930   -14107   -14121   -14161   -14307   -14451 
  -14590   -14844   -15100   -15212   -15323   -15543   -15859   -16220 
  -16497   -16614   -16637   -16649   -16638   -16659   -16781   -16920 
  -16973   -16937   -16858   -16808   -16828   -16879   -16947   -17071 
  -17189   -17186   -17067   -16881   -16650   -16429   -16257   -16142 
  -16049   -15906   -15722   -15571   -15457   -15345   -15240   -15063 
  -14717   -14279   -13853   -13453   -13087   -12768   -12498   -12266 
  -12094   -12053   -12183   -12446   -12756   -13020   -13248   -13502 
  -13767   -14096   -14579   -15139   -15669   -16108   -16376   -16521 
  -16704   -16939   -17187   -17486   -17744   -17829   -17756   -17663 
  -17691   -17768   -17749   -17718   -17729   -17645   -17426   -17170 
  -16994   -16953   -16969   -16962   -16903   -16734   -16466   -16186 
  -15987   -15938   -16015   -16125   -16213   -16295   -16396   -16503 
  -16589   -16658   -16749   -16926   -17121   -17194   -17198   -17192 
  -17141   -17119   -17145   -17156   -17105   -16937   -16744   -16637 
  -16547   -16379   -16097   -15813   -15673   -15630   -15612   -15635 
  -15694   -15737   -15766   -15846   -15981   -16135   -16247   -16273 
  -16256   -16201   -16028   -15757   -15511   -15352   -15293   -15293 
  -15303   -15336   -15356   -15374   -15470   -15585   -15647   -15644 
  -15557   -15463   -15459   -15519   -15617   -15756   -15903   -15969 
  -15932   -15897   -15948   -16076   -16183   -16157   -16051   -15972 
  -15906   -15849   -15803   -15738   -15720   -15793   -15875   -15922 
  -15975   -16037   -16103   -16207   -16377   -16556   -16685   -16793 
  -16898   -17055   -17301   -17499   -17613   -17708   -17763   -17847 
  -17957   -18029   -18104   -18141   -18122   -18121   -18080   -17958 
  -17799   -17621   -17443   -17290   -17075   -16732   -16394   -16140 
  -15915   -15695   -15467   -15210   -14953   -14705   -14430   -14222 
  -14195   -14256   -14305   -14346   -14410   -14520   -14630   -14745 
  -14947   -15210   -15441   -15588   -15660   -15699   -15701   -15678 
  -15697   -15815   -15996   -16136   -16208   -16303   -16439   -16550 
  -16629   -16727   -16861   -17010   -17154   -17280   -17371   -17413 
  -17346   -17165   -17028   -16977   -16957   -17010   -17062   -17089 
  -17116   -16991   -16763   -16563   -16377   -16276   -16253   -16275 
  -16328   -16276   -16124   -16006   -15995   -16106   -16261   -16330 
  -16219   -15954   -15637   -15331   -15089   -14958   -14851   -14629 
  -14332   -14070   -13915   -13924   -14062   -14318   -14650   -14910 
  -15031   -15044   -15020   -15036   -15082   -15078   -14977   -14800 
  -14587   -14373   -14185   -14015   -13854   -13671   -13440   -13215 
  -13075   -13040   -13065   -13076   -13046   -12985   -12890   -12779 
  -12734   -12830   -13049   -13279   -13405   -13418   -13342   -13221 
  -13169   -13208   -13252   -13260   -13185   -13050   -12975   -13012 
  -13159   -13397   -13622   -13774   -13872   -13908   -13919   -13938 
  -13923   -13876   -13829   -13786   -13792   -13861   -13930   -13978 
  -14018   -14042   -14034   -13960   -13822   -13691   -13602   -13545 
  -13556   -13640   -13736   -13784   -13758   -13677   -13569   -13434 
  -13294   -13204   -13182   -13185   -13162   -13120   -13107   -13148 
  -13222   -13342   -13527   -13712   -13845   -13953   -14076   -14212 
  -14331   -14419   -14496   -14582   -14660   -14694   -14659   -14546 
  -14379   -14221   -14086   -13975   -13926   -13932   -13945   -13909 
  -13784   -13594   -13387   -13194   -13077   -13082   -13214   -13462 
  -13784   -14105   -14365   -14583   -14829   -15137   -15518   -15946 
  -16307   -16530   -16644   -16702   -16755   -16813   -16831   -16776 
  -16599   -16268   -15850   -15426   -15033   -14718   -14501   -14349 
  -14203   -13955   -13539   -13033   -12581   -12252   -12018   -11835 
  -11688   -11586   -11547   -11570   -11630   -11681   -11703   -11784 
  -12028   -12414   -12861   -13307   -13710   -14085   -14479   -14902 
  -15394   -15979   -16528   -16910   -17205   -17456   -17520   -17483 
  -17499   -17407   -17224   -17071   -16798   -16416   -16025   -15594 
  -15235   -14969   -14606   -14169   -13827   -13550   -13304   -13163 
  -13107   -13106   -13158   -13267   -13454   -13605   -13638   -13592 
  -13547   -13596   -13712   -13815   -13967   -14209   -14433   -14585 
  -14768   -15043   -15376   -15741   -16106   -16430   -16666   -16741 
  -16694   -16735   -16882   -16977   -17109   -17290   -17285   -17150 
