Origin Time       2011/03/11 14:46:00
Lat.              38.103
Long.             142.860
Depth. (km)       24
Mag.              9.0
Station Code      HKD183
Station Lat.      42.9724
Station Long.     141.1656
Station Height(m) 285
Record Time       2011/03/11 14:49:05
Sampling Freq(Hz) 100Hz
Duration Time(s)  114
Dir.              N-S
Scale Factor      3920(gal)/6182761
Max. Acc. (gal)   1.875
Last Correction   2011/03/11 14:48:50
Memo.             
[...]
   -2150    -2076    -1997    -1851    -1641    -1509    -1656    -2136 
   -2774    -3307    -3619    -3775    -3854    -3871    -3844    -3776 
   -3660    -3563    -3588    -3756    -3987    -4157    -4159    -3981 
   -3747    -3577    -3447    -3278    -3121    -3128    -3360    -3682 
   -3868    -3782    -3442    -2979    -2537    -2217    -2128    -2328 
   -2719    -3092    -3260    -3101    -2652    -2178    -2009    -2220 
   -2533    -2538    -2061    -1305     -688     -519     -801    -1297 
   -1750    -1992    -1924    -1512     -878     -307      -85     -312 
    -827    -1311    -1507    -1371    -1064     -819     -831    -1114 
   -1398    -1399    -1124     -758     -466     -354     -414     -533 
    -611     -616     -565     -538     -618     -771     -926    -1124 
   -1469    -1995    -2580    -3004    -3109    -2888    -2444    -1924 
   -1490    -1290    -1358    -1573    -1768    -1842    -1752    -1501 
   -1231    -1196    -1535    -2073    -2422    -2325    -1823    -1139 
    -552     -298     -457     -918    -1418    -1699    -1709    -1603 
   -1535    -1516    -1482    -1462    -1551    -1699    -1743    -1679 
   -1663    -1735    -1752    -1606    -1411    -1380    -1514    -1609 
   -1591    -1539    -1476    -1365    -1195    -1048    -1012     -998 
    -836     -518     -244     -264     -586     -890     -858     -484 
     -42      186      123     -136     -410     -413       -7      474 
     501      -79     -900    -1436    -1485    -1307    -1303    -1624 
   -2055    -2273    -2160    -1840    -1548    -1478    -1663    -1985 
   -2279    -2467    -2577    -2634    -2631    -2602    -2652    -2805 
   -2921    -2899    -2767    -2571    -2425    -2484    -2670    -2716 
   -2509    -2133    -1729    -1500    -1632    -2063    -2486    -2683 
   -2682    -2605    -2544    -2533    -2544    -2565    -2675    -2917 
   -3155    -3223    -3138    -3027    -2968    -2969    -3023    -3088 
   -3030    -2710    -2222    -1886    -1879    -2017    -2040    -1879 
   -1557    -1145     -779     -526     -362     -292     -327     -399 
    -395     -271      -70      143      274      226        1     -246 
    -308     -131       99      178       82      -50      -45      132 
     333      381      192     -202     -645     -934     -957     -761 
    -445      -67      276      438      368      157      -25      -20 
     143      269      229       16     -339     -717     -905     -763 
    -363      -29     -106     -569    -1039    -1158     -844     -322 
      21      -17     -304     -630     -879     -949     -811     -600 
    -441     -369     -474     -806    -1208    -1496    -1622    -1583 
   -1395    -1163     -958     -741     -583     -668     -954    -1175 
   -1181     -986     -648     -294     -111     -160     -304     -371 
    -319     -220     -191     -358     -756    -1202    -1449    -1466 
   -1383    -1365    -1616    -2132    -2580    -2676    -2400    -1893 
   -1443    -1327    -1562    -1961    -2367    -2691    -2803    -2656 
   -2463    -2453    -2613    -2788    -2825    -2654    -2331    -1943 
   -1622    -1522    -1617    -1738    -1829    -1941    -2074    -2209 
   -2338    -2403    -2393    -2398    -2463    -2532    -2545    -2506 
   -2445    -2327    -2087    -1758    -1438    -1197    -1109    -1240 
   -1570    -1989    -2316    -2400    -2263    -2103    -2117    -2327 
   -2571    -2674    -2601    -2453    -2282    -2009    -1666    -1457 
   -1509    -1822    -2289    -2605    -2515    -2193    -2057    -2253 
   -2582    -2803    -2776    -2486    -2107    -1931    -2111    -2521 
   -2858    -2867    -2573    -2243    -2042    -1931    -1869    -1879 
   -2011    -2336    -2837    -3303    -3457    -3200    -2705    -2262 
   -2052    -2071    -2188    -2247    -2156    -1952    -1755    -1621 
   -1536    -1519    -1588    -1695    -1843    -2059    -2296    -2498 
   -2639    -2706    -2732    -2757    -2790    -2811    -2740    -2520 
   -2231    -2017    -1977    -2110    -2329    -2525    -2635    -2599 
   -2384    -2057    -1773    -1645    -1641    -1622    -1512    -1412 
   -1480    -1710    -1941    -2060    -2102    -2181    -2334    -2460 
   -2410    -2159    -1914    -1915    -2177    -2521    -2712    -2590 
   -2261    -1969    -1778    -1672    -1756    -2061    -2358    -2359 
   -1988    -1447    -1113    -1254    -1827    -2498    -2842    -2616 
   -1927    -1146     -677     -734    -1213    -1776    -2095    -2042 
   -1659    -1077     -498     -188     -301     -724    -1215    -1567 
   -1638    -1415    -1022     -580     -172       50      -61     -415 
    -708     -675     -266      243      414       65     -627    -1347 
   -1782    -1754    -1373     -986     -917    -1224    -1705    -2091 
   -2197    -2030    -1817    -1796    -1950    -2020    -1862    -1651 
   -1633    -1831    -2085    -2240    -2240    -2112    -1951    -1930 
   -2144    -2470    -2698    -2716    -2583    -2431    -2324    -2241 
   -2100    -1833    -1482    -1175    -1025    -1056    -1122    -1008 
    -687     -370     -257     -399     -680     -878     -860     -676 
    -477     -401     -472     -672     -979    -1297    -1506    -1542 
   -1383    -1119     -914     -820     -805     -859     -944     -981 
    -935     -853     -819     -884    -1087    -1385    -1552    -1445 
   -1244    -1165    -1207    -1282    -1337    -1346    -1324    -1302 
   -1287    -1261    -1182    -1015     -843     -855    -1143    -1603 
   -2011    -2173    -2050    -1758    -1495    -1462    -1714    -2063 
   -2231    -2068    -1660    -1268    -1082    -1109    -1312    -1634 
   -1871    -1813    -1496    -1132     -872     -751     -769     -905 
   -1059    -1118    -1069    -1003    -1088    -1399    -1742    -1874 
   -1802    -1705    -1684    -1702    -1745    -1856    -1970    -1972 
   -1888    -1816    -1752    -1639    -1501    -1440    -1516    -1694 
   -1968    -2405    -2925    -3282    -3328    -3117    -2806    -2581 
   -2546    -2629    -2656    -2495    -2162    -1862    -1819    -1967 
   -1999    -1781    -1500    -1426    -1661    -2070    -2409    -2518 
   -2476    -2466    -2483    -2421    -2355    -2438    -2594    -2641 
   -2577    -2516    -2502    -2546    -2698    -2957    -3244    -3513 
   -3677    -3540    -3073    -2549    -2272    -2316    -2554    -2793 
   -2917    -2934    -2921    -2935    -2961    -2944    -2885    -2839 
   -2850    -2935    -3058    -3053    -2752    -2266    -1943    -2034 
   -2511    -3120    -3561    -3598    -3154    -2455    -1886    -1694 
   -1917    -2371    -2800    -3068    -3114    -2920    -2659    -2589 
   -2754    -2941    -2912    -2639    -2332    -2238    -2443    -2813 
   -3086    -3113    -2989    -2885    -2926    -3159    -3460    -3623 
   -3600    -3555    -3646    -3804    -3814    -3609    -3317    -3090 
   -2991    -3041    -3234    -3506    -3768    -3945    -4001    -3982 
   -3962    -3912    -3784    -3632    -3487    -3360    -3345    -3448 
   -3539    -3567    -3558    -3512    -3458    -3410    -3309    -3141 
   -3015    -2970    -2906    -2811    -2744    -2668    -2558    -2462 
   -2395    -2367    -2421    -2541    -2657    -2719    -2724    -2733 
   -2851    -3099    -3297    -3255    -3024    -2803    -2719    -2799 
   -2982    -3121    -3066    -2801    -2501    -2388    -2501    -2666 
   -2693    -2556    -2416    -2461    -2698    -2923    -2929    -2716 
   -2467    -2358    -2445    -2583    -2517    -2231    -1979    -1942 
   -2104    -2332    -2420    -2232    -1827    -1362     -990     -858 
   -1018    -1342    -1696    -2073    -2412    -2541    -2409    -2146 
   -1950    -1979    -2225    -2543    -2806    -2930    -2873    -2725 
   -2693    -2877    -3140    -3270    -3185    -2946    -2734    -2735 
   -2941    -3172    -3270    -3186    -2987    -2821    -2809    -2987 
   -3249    -3389    -3324    -3134    -2902    -2713    -2634    -2594 
   -2496    -2364    -2242    -2110    -1976    -1917    -1987    -2131 
   -2193    -2011    -1558    -1041     -732     -685     -821    -1072 
   -1315    -1407    -1327    -1133     -891     -718     -786    -1179 
   -1678    -1920    -1817    -1569    -1352    -1264    -1356    -1566 
   -1786    -1947    -1994    -1924    -1850    -1921    -2197    -2602 
   -2970    -3164    -3176    -3088    -3018    -3096    -3343    -3644 
   -3908    -4081    -4042    -3755    -3385    -3083    -2881    -2799 
   -2816    -2827    -2764    -2650    -2533    -2452    -2432    -2457 
   -2460    -2381    -2197    -1962    -1825    -1880    -1997    -2071 
   -2202    -2443    -2682    -2858    -3006    -3083    -2982    -2728 
   -2479    -2350    -2347    -2377    -2318    -2209    -2246    -2447 
   -2614    -2605    -2421    -2121    -1762    -1433    -1300    -1496 
   -1928    -2278    -2280    -1923    -1401     -968     -777     -800 
    -905     -960     -868     -633     -401     -319     -408     -624 
    -941    -1263    -1438    -1403    -1186     -857     -536     -277 
     -78      -35     -238     -616    -1003    -1277    -1408    -1385 
   -1171     -828     -574     -627    -1012    -1522    -1903    -2032 
   -1944    -1837    -1938    -2240    -2481    -2432    -2110    -1686 
   -1358    -1298    -1580    -2100    -2590    -2797    -2651    -2294 
   -1954    -1752    -1619    -1453    -1249    -1003     -705     -520 
    -659    -1063    -1426    -1512    -1340    -1088     -930     -932 
   -1013    -1058    -1103    -1244    -1439    -1593    -1666    -1684 
   -1739    -1876    -2004    -2060    -2121    -2164    -2001    -1609 
   -1190     -925     -902    -1158    -1586    -1955    -2156    -2222 
   -2223    -2230    -2235    -2177    -2096    -2098    -2196    -2337 
   -2508    -2736    -2994    -3158    -3140    -3043    -3004    -2974 
   -2850    -2702    -2652    -2675    -2743    -2882    -3053    -3151 
   -3121    -3030    -3005    -3034    -2978    -2797    -2559    -2313 
   -2111    -1999    -1943    -1869    -1728    -1529    -1394    -1421 
   -1490    -1388    -1024     -528     -189     -152     -322     -594 
    -915    -1185    -1348    -1448    -1497    -1451    -1331    -1220 
   -1177    -1224    -1305    -1290    -1131     -960     -980    -1275 
   -1705    -2031    -2153    -2143    -2111    -2137    -2238    -2312 
   -2257    -2142    -2104    -2122    -2129    -2168    -2250    -2301 
   -2271    -2134    -1854    -1455    -1038     -702     -500     -457 
    -556     -746     -986    -1222    -1369    -1387    -1268    -1041 
    -872     -931    -1145    -1327    -1395    -1358    -1280    -1234 
   -1264    -1417    -1657    -1846    -1917    -1919    -1943    -2080 
   -2310    -2498    -2576    -2559    -2415    -2146    -1926    -1943 
   -2150    -2366    -2539    -2663    -2666    -2561    -2490    -2533 
   -2630    -2651    -2492    -2177    -1886    -1788    -1904    -2116 
   -2229    -2127    -1918    -1787    -1743    -1706    -1682    -1660 
   -1548    -1381    -1301    -1272    -1126     -867     -652     -585 
    -681     -872    -1019    -1019     -910     -842     -942    -1225 
   -1600    -1891    -1956    -1828    -1658    -1553    -1561    -1706 
   -1927    -2033    -1880    -1592    -1497    -1820    -2413    -2840 
   -2800    -2417    -2027    -1846    -1923    -2180    -2457    -2572 
   -2409    -2050    -1773    -1821    -2183    -2583    -2730    -2562 
   -2219    -1924    -1936    -2284    -2623    -2628    -2366    -2143 
   -2167    -2372    -2484    -2276    -1844    -1523    -1537    -1853 
   -2262    -2493    -2372    -1954    -1498    -1253    -1289    -1526 
   -1813    -2034    -2217    -2378    -2382    -2169    -1884    -1736 
   -1865    -2265    -2769    -3136    -3210    -3040    -2836    -2807 
   -2982    -3182    -3208    -3040    -2850    -2822    -2935    -3005 
   -2944    -2841    -2768    -2738    -2790    -2944    -3124    -3198 
   -3081    -2805    -2573    -2614    -2905    -3238    -3518    -3681 
   -3577    -3183    -2673    -2281    -2216    -2494    -2843    -2977 
   -2835    -2511    -2116    -1725    -1421    -1274    -1246    -1234 
   -1209    -1158    -1014     -753     -439     -151       17      -92 
    -571    -1192    -1500    -1266     -687     -141      114       24 
    -316     -718     -989    -1073    -1060    -1026     -969     -894 
    -847     -873    -1033    -1312    -1565    -1710    -1811    -1905 
   -1908    -1684    -1226     -791     -679     -934    -1351    -1662 
   -1688    -1462    -1162     -938     -869    -1006    -1285    -1513 
   -1598    -1645    -1732    -1850    -2010    -2205    -2324    -2291 
   -2198    -2194    -2317    -2481    -2542    -2383    -2028    -1696 
   -1652    -1949    -2353    -2555    -2488    -2319    -2169    -2070 
   -2050    -2093    -2133    -2115    -1984    -1751    -1496    -1242 
   -1028    -1021    -1328    -1824    -2272    -2490    -2435    -2223 
   -1994    -1834    -1769    -1691    -1508    -1363    -1461    -1804 
   -2183    -2389    -2376    -2266    -2212    -2216    -2169    -2042 
   -1886    -1798    -1936    -2326    -2703    -2855    -2858    -2843 
   -2836    -2826    -2792    -2744    -2723    -2724    -2710    -2653 
   -2561    -2476    -2449    -2553    -2845    -3243    -3521    -3531 
   -3334    -3078    -2871    -2801    -2961    -3371    -3891    -4273 
   -4307    -4003    -3611    -3419    -3595    -4091    -4623    -4925 
   -4983    -4904    -4761    -4631    -4526    -4399    -4265    -4119 
   -3931    -3831    -3937    -4141    -4257    -4192    -3965    -3705 
   -3493    -3280    -3080    -2942    -2853    -2836    -2880    -2994 
   -3256    -3526    -3555    -3330    -3006    -2801    -2900    -3253 
   -3605    -3726    -3514    -3075    -2716    -2673    -2955    -3387 
   -3615    -3379    -2819    -2235    -1841    -1803    -2134    -2590 
   -2853    -2790    -2519    -2218    -2000    -1958    -2073    -2173 
   -2190    -2210    -2270    -2364    -2482    -2545    -2526    -2529 
   -2601    -2656    -2619    -2517    -2460    -2535    -2699    -2851 
   -2915    -2796    -2477    -2118    -1936    -2046    -2356    -2604 
   -2594    -2402    -2278    -2323    -2409    -2392    -2242    -1982 
   -1618    -1259    -1111    -1225    -1404    -1480    -1506    -1583 
   -1688    -1730    -1670    -1541    -1379    -1182     -966     -822 
    -824     -957    -1151    -1319    -1401    -1381    -1222     -967 
    -828     -947    -1223    -1495    -1691    -1803    -1882    -2004 
   -2213    -2495    -2742    -2828    -2714    -2421    -2044    -1818 
   -1948    -2359    -2744    -2899    -2865    -2751    -2630    -2521 
   -2383    -2207    -2011    -1783    -1583    -1552    -1715    -1957 
   -2225    -2545    -2837    -2929    -2745    -2336    -1834    -1454 
   -1341    -1440    -1625    -1817    -1941    -1965    -1926    -1884 
   -1915    -2037    -2130    -2096    -1963    -1807    -1764    -1913 
   -2085    -2049    -1793    -1475    -1246    -1157    -1207    -1357 
   -1525    -1662    -1766    -1802    -1763    -1733    -1729    -1674 
   -1579    -1547    -1590    -1637    -1627    -1569    -1554    -1637 
   -1787    -1958    -2071    -2031    -1889    -1824    -1942    -2163 
   -2264    -2123    -1908    -1864    -1950    -1913    -1640    -1259 
    -965     -890    -1052    -1360    -1703    -1958    -1998    -1862 
   -1783    -1921    -2213    -2445    -2381    -1981    -1467    -1073 
    -923    -1064    -1408    -1777    -2033    -2086    -1928    -1682 
   -1480    -1360    -1314    -1319    -1327    -1301    -1256    -1218 
   -1197    -1196    -1210    -1252    -1351    -1470    -1566    -1720 
   -1989    -2239    -2316    -2210    -2033    -1936    -1937    -1933 
   -1945    -2077    -2274    -2401    -2436    -2442    -2473    -2554 
   -2656    -2672    -2538    -2360    -2297    -2388    -2562    -2700 
   -2680    -2529    -2406    -2341    -2221    -2002    -1764    -1620 
   -1603    -1685    -1829    -1915    -1836    -1671    -1560    -1531 
   -1579    -1704    -1886    -2092    -2202    -2077    -1765    -1481 
   -1373    -1447    -1652    -1903    -2084    -2116    -2011    -1876 
   -1825    -1867    -1929    -1961    -2025    -2257    -2656    -2961 
   -2895    -2469    -1992    -1842    -2234    -3083    -3989    -4440 
   -4192    -3436    -2616    -2141    -2167    -2550    -2969    -3092 
   -2789    -2266    -1895    -1894    -2221    -2651    -2941    -2999 
   -2883    -2685    -2560    -2675    -2982    -3212    -3168    -2899 
   -2581    -2355    -2264    -2250    -2194    -1979    -1613    -1332 
   -1381    -1712    -2018    -2038    -1798    -1549    -1512    -1672 
   -1813    -1817    -1757    -1720    -1760    -1917    -2161    -2374 
   -2428    -2294    -2077    -1935    -1920    -1945    -1928    -1889 
   -1909    -2039    -2210    -2281    -2210    -2089    -1997    -1928 
   -1905    -2018    -2316    -2680    -2866    -2767    -2537    -2365 
   -2317    -2392    -2547    -2713    -2808    -2733    -2457    -2081 
   -1759    -1628    -1769    -2130    -2533    -2771    -2721    -2430 
   -2102    -1947    -2005    -2111    -2063    -1843    -1592    -1336 
   -1020     -740     -621     -642     -735     -862     -970     -986 
    -884     -750     -688     -724     -867    -1073    -1206    -1216 
   -1159    -1040     -859     -753     -918    -1380    -1922    -2224 
   -2095    -1648    -1221    -1055    -1177    -1502    -1905    -2211 
   -2286    -2155    -1920    -1674    -1504    -1463    -1525    -1634 
   -1724    -1737    -1646    -1453    -1231    -1115    -1176    -1374 
   -1588    -1705    -1739    -1814    -2011    -2265    -2421    -2336 
   -1981    -1470    -1059     -997    -1250    -1484    -1435    -1146 
    -825     -650     -670     -796     -893     -901     -872     -929 
   -1136    -1393    -1530    -1503    -1396    -1281    -1180    -1087 
   -1016    -1039    -1201    -1413    -1505    -1392    -1148     -921 
    -828     -892    -1001     -990     -826     -632     -533     -516 
    -484     -423     -476     -783    -1254    -1622    -1736    -1679 
   -1622    -1653    -1729    -1779    -1797    -1797    -1789    -1867 
   -2167    -2617    -2939    -2953    -2691    -2303    -2016    -2013 
   -2252    -2538    -2685    -2645    -2493    -2264    -1941    -1614 
   -1466    -1624    -2048    -2532    -2872    -3010    -3000    -2869 
   -2622    -2359    -2207    -2129    -2036    -1980    -2033    -2158 
   -2323    -2502    -2649    -2796    -3011    -3248    -3363    -3257 
   -3016    -2841    -2839    -2983    -3153    -3150    -2895    -2568 
   -2407    -2459    -2590    -2626    -2498    -2296    -2165    -2152 
   -2194    -2205    -2138    -2026    -1974    -2095    -2429    -2795 
   -2871    -2549    -2037    -1618    -1473    -1585    -1761    -1902 
   -2079    -2268    -2327    -2243    -2129    -2033    -1918    -1763 
   -1594    -1433    -1334    -1441    -1780    -2128    -2262    -2168 
   -1952    -1775    -1795    -1979    -2124    -2091    -1882    -1593 
   -1414    -1464    -1645    -1766    -1764    -1709    -1687    -1763 
   -1920    -2005    -1927    -1796    -1733    -1738    -1823    -1985 
   -2033    -1808    -1452    -1195    -1164    -1394    -1767    -2076 
