Origin Time       2011/03/11 14:46:00
Lat.              38.103
Long.             142.860
Depth. (km)       24
Mag.              9.0
Station Code      HKD150
Station Lat.      42.7010
Station Long.     140.0619
Station Height(m) 6
Record Time       2011/03/11 14:48:10
Sampling Freq(Hz) 100Hz
Duration Time(s)  213
Dir.              N-S
Scale Factor      3920(gal)/6182761
Max. Acc. (gal)   3.075
Last Correction   2011/03/11 14:47:55
Memo.             
[...]
   13466    13643    13785    13937    14104    14280    14452    14597 
   14699    14776    14854    14904    14885    14853    14857    14815 
   14675    14526    14403    14233    14004    13796    13641    13493 
   13344    13254    13207    13144    13074    13038    13026    13021 
   13043    13084    13123    13184    13282    13379    13429    13465 
   13530    13616    13711    13793    13832    13852    13885    13913 
   13894    13810    13691    13563    13386    13129    12846    12582 
   12293    11958    11624    11313    11012    10731    10502    10323 
   10155    10005     9922     9910     9910     9897     9934    10050 
   10184    10326    10530    10805    11097    11369    11665    11994 
   12300    12605    12931    13223    13473    13710    13906    14046 
   14185    14354    14510    14635    14745    14837    14895    14904 
   14874    14843    14797    14703    14597    14528    14475    14373 
   14250    14172    14084    13966    13887    13820    13725    13632 
   13528    13416    13342    13281    13201    13136    13099    13069 
   13053    13050    13036    13021    13025    13030    13040    13066 
   13063    13020    12988    12977    12946    12887    12834    12797 
   12769    12752    12756    12761    12747    12723    12705    12688 
   12677    12687    12684    12637    12582    12548    12488    12377 
   12275    12191    12048    11869    11723    11579    11410    11229 
   11039    10851    10659    10485    10360    10262    10168    10113 
   10102    10106    10117    10145    10201    10278    10363    10465 
   10573    10660    10746    10834    10888    10908    10927    10943 
   10929    10891    10877    10888    10880    10855    10852    10877 
   10904    10932    10982    11025    11032    11029    11033    11053 
   11072    11040    10987    10966    10964    10960    10951    10947 
   10947    10938    10923    10884    10812    10747    10704    10627 
   10516    10437    10399    10362    10320    10308    10332    10373 
   10426    10472    10492    10496    10486    10460    10428    10383 
   10330    10294    10272    10250    10233    10231    10249    10278 
   10309    10362    10439    10498    10557    10657    10761    10867 
   11013    11159    11295    11464    11645    11797    11933    12091 
   12257    12384    12478    12560    12625    12663    12667    12631 
   12575    12507    12409    12289    12165    12047    11940    11858 
   11810    11791    11800    11836    11878    11918    11983    12059 
   12110    12154    12214    12282    12364    12467    12572    12662 
   12762    12896    13000    13077    13222    13346    13386    13475 
   13560    13547    13567    13603    13551    13513    13533    13515 
   13456    13390    13314    13249    13171    13046    12922    12847 
   12771    12637    12498    12438    12427    12399    12355    12334 
   12362    12433    12518    12603    12679    12762    12880    13011 
   13112    13182    13245    13296    13315    13300    13268    13227 
   13181    13101    13000    12935    12847    12679    12528    12414 
   12292    12204    12134    12036    11957    11907    11851    11809 
   11761    11690    11651    11616    11554    11536    11585    11638 
   11689    11795    11956    12108    12250    12416    12592    12738 
   12847    12976    13132    13234    13298    13398    13499    13567 
   13646    13710    13680    13583    13506    13428    13274    13065 
   12883    12715    12498    12251    12020    11814    11587    11319 
   11089    10925    10783    10693    10653    10621    10619    10654 
   10703    10778    10895    11037    11197    11397    11619    11813 
   11968    12099    12222    12344    12446    12518    12575    12624 
   12658    12683    12682    12627    12523    12396    12253    12086 
   11905    11725    11545    11366    11205    11075    10974    10906 
   10907    10937    10919    10929    10984    10936    10865    10903 
   10913    10872    10877    10879    10864    10886    10921    10957 
   10992    11005    11036    11098    11149    11198    11252    11288 
   11337    11435    11549    11674    11834    11989    12097    12189 
   12284    12356    12393    12379    12289    12161    12053    11952 
   11833    11733    11670    11621    11590    11567    11534    11523 
   11551    11560    11547    11568    11601    11660    11761    11823 
   11881    11998    12106    12187    12253    12258    12217    12173 
   12129    12066    11965    11827    11674    11498    11300    11105 
   10914    10723    10544    10375    10223    10096     9979     9854 
    9701     9543     9428     9351     9269     9179     9105     9063 
    9069     9129     9228     9362     9528     9712     9908    10122 
   10347    10565    10746    10880    10979    11051    11108    11159 
   11193    11210    11236    11260    11258    11258    11242    11181 
   11132    11074    10948    10826    10726    10598    10457    10298 
   10122     9979     9851     9717     9621     9571     9536     9529 
    9581     9692     9843    10040    10294    10571    10857    11173 
   11499    11829    12166    12489    12802    13104    13364    13578 
   13768    13953    14108    14201    14242    14248    14203    14106 
   13970    13798    13596    13376    13136    12881    12618    12353 
   12093    11842    11613    11432    11294    11172    11076    11037 
   11048    11073    11088    11100    11108    11114    11122    11116 
   11094    11090    11108    11133    11163    11184    11199    11216 
   11221    11203    11174    11142    11111    11088    11067    11039 
   11011    11001    10995    10977    10959    10935    10883    10824 
   10772    10703    10622    10549    10476    10398    10310    10203 
   10093    10001     9920     9850     9794     9739     9698     9701 
    9735     9765     9789     9814     9832     9819     9777     9713 
    9618     9494     9371     9261     9153     9047     8959     8899 
    8866     8842     8826     8849     8919     9018     9146     9305 
    9486     9681     9885    10080    10252    10418    10581    10719 
   10832    10919    10980    11025    11030    10974    10883    10798 
   10704    10569    10418    10273    10117     9953     9785     9613 
    9458     9326     9199     9069     8943     8832     8745     8690 
    8645     8601     8590     8628     8702     8793     8903     9052 
    9225     9389     9562     9761     9967    10170    10370    10565 
   10757    10922    11028    11077    11083    11041    10940    10782 
   10593    10405    10222    10041     9864     9694     9533     9397 
    9291     9201     9132     9102     9089     9067     9047     9027 
    9002     8985     8971     8961     8964     8961     8934     8895 
    8860     8833     8819     8830     8865     8930     9033     9145 
    9244     9347     9453     9550     9658     9772     9870     9977 
   10101    10215    10341    10510    10694    10874    11069    11277 
   11482    11701    11956    12231    12518    12829    13161    13506 
   13856    14203    14551    14901    15239    15549    15824    16056 
   16242    16374    16441    16448    16417    16348    16217    16035 
   15822    15579    15326    15093    14867    14618    14364    14145 
   13972    13827    13692    13568    13474    13414    13376    13364 
   13390    13457    13547    13651    13781    13937    14117    14318 
   14519    14690    14836    14980    15113    15207    15261    15297 
   15308    15269    15196    15124    15048    14969    14912    14875 
   14845    14837    14854    14873    14883    14885    14868    14827 
   14769    14689    14573    14429    14272    14105    13943    13805 
   13684    13581    13498    13422    13346    13274    13221    13191 
   13163    13116    13058    12998    12920    12797    12634    12444 
   12215    11953    11688    11420    11143    10864    10583    10323 
   10116     9943     9782     9664     9612     9595     9567     9516 
    9474     9464     9475     9495     9538     9607     9689     9792 
    9940    10149    10395    10643    10913    11215    11510    11775 
   12005    12186    12318    12395    12399    12327    12190    11995 
   11752    11478    11176    10858    10557    10274    10009     9783 
    9583     9392     9222     9088     8990     8899     8795     8719 
    8705     8729     8758     8793     8872     9015     9192     9359 
    9516     9702     9935    10176    10395    10613    10843    11077 
   11311    11548    11792    12051    12297    12506    12691    12860 
   13004    13119    13198    13236    13227    13152    13009    12793 
   12499    12150    11756    11319    10857    10388     9927     9510 
    9148     8834     8576     8397     8296     8251     8251     8304 
    8402     8529     8694     8893     9117     9381     9686    10013 
   10357    10711    11078    11479    11902    12328    12744    13110 
   13403    13647    13842    13977    14058    14086    14054    13968 
   13840    13667    13457    13236    13007    12753    12480    12193 
   11885    11560    11228    10891    10572    10279    10007     9775 
    9613     9518     9479     9498     9576     9706     9884    10099 
   10351    10642    10958    11277    11594    11907    12194    12452 
   12704    12945    13154    13349    13543    13702    13809    13876 
   13893    13861    13818    13752    13626    13462    13279    13070 
   12840    12598    12356    12130    11926    11743    11585    11465 
   11380    11306    11237    11187    11150    11102    11024    10924 
   10821    10714    10597    10488    10411    10362    10325    10313 
   10354    10445    10565    10706    10867    11049    11258    11493 
   11740    11983    12209    12414    12614    12803    12963    13110 
   13247    13347    13429    13516    13593    13651    13688    13703 
   13711    13703    13653    13574    13481    13358    13197    13017 
   12830    12644    12470    12314    12170    12038    11930    11845 
   11781    11749    11747    11757    11786    11839    11898    11961 
   12038    12115    12189    12263    12310    12329    12334    12312 
   12262    12205    12153    12101    12060    12059    12090    12134 
   12204    12290    12380    12495    12621    12728    12822    12902 
   12954    12977    12975    12967    12962    12953    12942    12929 
   12919    12912    12892    12866    12841    12810    12781    12745 
   12672    12558    12421    12259    12090    11942    11794    11625 
   11450    11274    11101    10953    10826    10712    10616    10545 
   10504    10476    10449    10436    10443    10455    10467    10477 
   10490    10519    10562    10605    10643    10675    10725    10807 
   10896    10987    11095    11208    11314    11417    11518    11614 
   11707    11804    11904    12000    12094    12167    12210    12245 
   12261    12224    12135    12021    11903    11789    11665    11524 
   11397    11307    11233    11161    11089    11016    10962    10949 
   10970    11008    11075    11165    11245    11327    11434    11556 
   11678    11786    11857    11880    11885    11886    11852    11778 
   11696    11615    11525    11425    11316    11200    11083    10956 
   10808    10649    10499    10385    10320    10286    10263    10257 
   10282    10320    10370    10449    10543    10641    10754    10879 
   11001    11127    11263    11394    11508    11618    11720    11806 
   11883    11945    11979    11994    11993    11970    11938    11896 
   11835    11775    11721    11637    11510    11372    11244    11128 
   11022    10912    10792    10678    10577    10476    10369    10262 
   10160    10078    10012     9963     9945     9960     9995    10034 
   10069    10103    10133    10158    10171    10178    10189    10197 
   10197    10207    10219    10218    10212    10213    10205    10175 
   10137    10108    10096    10097    10107    10129    10163    10213 
   10286    10374    10464    10544    10615    10685    10744    10801 
   10875    10966    11065    11169    11273    11382    11504    11632 
   11762    11903    12045    12179    12314    12436    12528    12603 
   12676    12733    12758    12760    12751    12717    12638    12535 
   12446    12384    12348    12337    12338    12349    12371    12390 
   12400    12412    12423    12426    12426    12403    12343    12264 
   12172    12072    11978    11882    11780    11673    11537    11382 
   11236    11066    10854    10648    10472    10311    10168    10054 
    9962     9905     9906     9942     9979    10030    10108    10186 
   10259    10348    10448    10553    10669    10780    10859    10915 
   10967    11000    11005    11010    11025    11044    11066    11091 
   11118    11141    11143    11126    11105    11081    11030    10946 
   10822    10663    10495    10311    10104     9883     9644     9399 
    9171     8969     8798     8658     8545     8462     8395     8345 
    8327     8337     8372     8433     8506     8581     8664     8748 
    8841     8968     9128     9304     9497     9717     9951    10176 
   10374    10549    10720    10893    11051    11185    11297    11395 
   11496    11590    11647    11667    11662    11625    11535    11394 
   11219    11010    10759    10473    10159     9828     9497     9156 
    8795     8435     8091     7764     7472     7237     7068     6958 
    6895     6882     6917     7003     7144     7316     7502     7697 
    7900     8116     8349     8585     8818     9065     9312     9530 
    9729     9925    10101    10247    10367    10467    10545    10591 
   10582    10528    10456    10376    10292    10210    10131    10042 
    9927     9790     9647     9505     9380     9267     9143     9006 
    8876     8762     8665     8595     8579     8639     8774     8966 
    9215     9533     9896    10278    10661    11017    11351    11685 
   12009    12318    12629    12932    13206    13452    13675    13854 
   13971    14020    13995    13898    13750    13549    13292    12994 
   12667    12323    11978    11637    11301    10980    10704    10478 
   10289    10146    10059    10015    10030    10128    10301    10555 
   10901    11302    11725    12179    12656    13123    13568    14003 
   14434    14844    15209    15519    15788    16025    16204    16322 
   16392    16394    16333    16228    16069    15864    15629    15366 
   15064    14729    14390    14069    13748    13414    13097    12835 
   12625    12440    12284    12191    12154    12144    12170    12239 
   12328    12433    12564    12709    12857    12998    13127    13246 
   13363    13475    13602    13753    13905    14051    14198    14334 
   14437    14517    14597    14659    14676    14663    14626    14564 
   14481    14375    14248    14130    14028    13950    13899    13863 
   13834    13801    13753    13688    13596    13477    13349    13214 
   13058    12885    12699    12515    12350    12181    12016    11890 
   11790    11702    11636    11586    11535    11483    11425    11348 
   11265    11201    11158    11125    11099    11082    11069    11048 
   11002    10943    10900    10881    10865    10846    10846    10873 
   10923    10999    11087    11176    11274    11375    11466    11555 
   11635    11695    11758    11839    11916    11998    12101    12209 
   12314    12423    12522    12612    12697    12769    12830    12885 
   12912    12896    12870    12841    12771    12669    12573    12474 
   12354    12223    12098    11965    11820    11698    11612    11538 
   11470    11407    11334    11237    11126    11028    10963    10917 
   10878    10866    10875    10880    10889    10919    10960    11006 
   11045    11061    11068    11062    11006    10903    10790    10670 
   10544    10430    10317    10196    10073     9952     9835     9730 
    9648     9609     9622     9682     9779     9894    10019    10171 
   10349    10525    10693    10856    11008    11134    11212    11245 
   11257    11252    11223    11195    11199    11242    11304    11369 
   11439    11545    11700    11870    12045    12240    12428    12586 
   12728    12867    13000    13113    13185    13224    13252    13258 
   13214    13119    12992    12840    12662    12469    12263    12066 
   11915    11808    11722    11654    11611    11598    11609    11645 
   11709    11785    11868    11958    12043    12121    12200    12271 
   12342    12419    12496    12562    12603    12614    12608    12592 
   12553    12500    12461    12426    12377    12331    12300    12260 
   12222    12212    12215    12222    12244    12272    12297    12323 
   12345    12352    12342    12325    12306    12279    12244    12194 
   12133    12080    12022    11933    11837    11753    11676    11618 
   11604    11636    11699    11780    11866    11948    12026    12094 
   12161    12233    12294    12343    12407    12476    12517    12539 
   12551    12538    12500    12440    12349    12217    12058    11876 
   11668    11441    11206    10967    10737    10521    10313    10116 
    9951     9827     9730     9644     9573     9528     9511     9511 
    9520     9571     9680     9809     9949    10113    10292    10483 
   10684    10882    11079    11279    11471    11653    11848    12061 
   12268    12471    12682    12884    13067    13252    13436    13604 
   13757    13887    13977    14024    14040    14038    14004    13925 
   13822    13725    13635    13543    13461    13405    13365    13322 
   13283    13247    13202    13159    13124    13079    13031    13021 
   13043    13055    13058    13073    13080    13072    13062    13058 
   13064    13081    13099    13127    13175    13236    13306    13380 
   13441    13483    13511    13532    13550    13565    13574    13580 
   13584    13594    13616    13627    13603    13557    13510    13449 
   13337    13170    12977    12752    12482    12210    11958    11693 
   11437    11237    11064    10907    10805    10751    10708    10683 
   10686    10697    10727    10796    10864    10893    10895    10897 
   10912    10934    10951    10969    10991    11010    11031    11058 
   11073    11073    11074    11082    11097    11128    11178    11240 
   11301    11354    11416    11486    11560    11648    11713    11740 
   11761    11753    11696    11615    11492    11336    11188    11027 
   10850    10670    10470    10257    10053     9871     9723     9605 
    9528     9506     9523     9586     9704     9845    10001    10184 
   10396    10627    10854    11075    11305    11546    11789    12024 
   12265    12519    12768    13009    13231    13423    13599    13727 
   13785    13814    13814    13766    13681    13557    13408    13231 
   13023    12802    12565    12333    12132    11943    11766    11615 
   11482    11369    11274    11196    11135    11086    11055    11046 
   11061    11109    11181    11266    11370    11495    11628    11762 
   11895    12023    12152    12271    12356    12419    12477    12509 
   12496    12451    12391    12315    12232    12136    12015    11895 
   11773    11630    11482    11328    11155    10977    10807    10642 
   10477    10328    10198    10066     9938     9829     9736     9658 
