Origin Time       2011/03/11 14:46:00
Lat.              38.103
Long.             142.860
Depth. (km)       24
Mag.              9.0
Station Code      HKD181
Station Lat.      43.1161
Station Long.     141.5462
Station Height(m) 8
Record Time       2011/03/11 14:48:06
Sampling Freq(Hz) 100Hz
Duration Time(s)  300
Dir.              N-S
Scale Factor      3920(gal)/6182761
Max. Acc. (gal)   19.691
Last Correction   2011/03/11 14:47:51
Memo.             
[...]
  -15848   -14666   -13573   -12591   -11768   -11279   -11241   -11591 
  -12215   -13018   -13898   -14790   -15660   -16450   -17134   -17781 
  -18456   -19108   -19675   -20252   -20958   -21753   -22543   -23316 
  -24021   -24478   -24505   -24059   -23276   -22425   -21772   -21369 
  -21057   -20712   -20376   -20155   -20061   -19957   -19687   -19290 
  -19033   -19264   -20236   -21958   -24223   -26695   -28967   -30723 
  -31802   -32223   -32208   -32034   -31844   -31643   -31379   -30941 
  -30193   -29152   -28023   -26954   -25907   -24778   -23597   -22548 
  -21803   -21445   -21463   -21700   -21934   -21999   -21824   -21531 
  -21379   -21537   -22077   -23085   -24539   -26185   -27741   -29110 
  -30250   -30994   -31127   -30637   -29795   -28953   -28310   -27926 
  -27870   -28189   -28741   -29220   -29353   -29017   -28253   -27199 
  -26084   -25164   -24549   -24178   -23961   -23881   -23951   -24135 
  -24334   -24459   -24498   -24520   -24544   -24479   -24247   -23839 
  -23288   -22670   -22138   -21930   -22204   -22883   -23765   -24735 
  -25819   -27019   -28157   -28964   -29261   -29098   -28718   -28348 
  -28087   -28010   -28195   -28622   -29167   -29666   -30000   -30171 
  -30218   -30140   -30004   -29930   -29928   -29881   -29715   -29522 
  -29442   -29471   -29471   -29312   -28954   -28439   -27872   -27370 
  -27016   -26888   -26958   -26985   -26723   -26163   -25445   -24656 
  -23814   -22977   -22262   -21837   -21825   -22173   -22719   -23282 
  -23716   -23942   -23908   -23622   -23221   -22878   -22706   -22766 
  -23101   -23720   -24501   -25160   -25455   -25327   -24826   -24063 
  -23208   -22452   -22013   -22077   -22627   -23387   -24019   -24366 
  -24420   -24146   -23443   -22307   -20909   -19492   -18287   -17438 
  -16942   -16738   -16774   -16907   -16956   -16894   -16806   -16720 
  -16607   -16445   -16213   -15885   -15517   -15303   -15438   -15939 
  -16681   -17505   -18324   -19210   -20266   -21386   -22333   -22959 
  -23270   -23351   -23247   -22931   -22389   -21713   -21154   -20969 
  -21245   -21879   -22637   -23384   -24246   -25304   -26424   -27553 
  -28753   -29973   -31090   -32157   -33430   -35007   -36698   -38369 
  -40013   -41559   -42943   -44166   -45145   -45703   -45738   -45298 
  -44556   -43670   -42635   -41399   -40063   -38811   -37717   -36679 
  -35519   -34121   -32491   -30768   -29100   -27453   -25730   -23992 
  -22356   -20856   -19468   -18105   -16670   -15254   -14119   -13459 
  -13332   -13754   -14667   -15767   -16520   -16612   -16221   -15767 
  -15578   -15738   -16130   -16634   -17094   -17306   -17324   -17336 
  -17269   -16969   -16496   -15983   -15497   -15035   -14590   -14216 
  -14066   -14302   -14940   -15850   -16917   -18040   -19093   -20029 
  -20950   -22007   -23194   -24299   -25109   -25602   -25887   -26006 
  -25925   -25675   -25414   -25252   -25104   -24806   -24321   -23778 
  -23320   -22985   -22785   -22766   -22863   -22857   -22614   -22250 
  -21911   -21605   -21363   -21312   -21484   -21771   -22087   -22483 
  -23133   -24195   -25538   -26751   -27528   -27861   -27890   -27817 
  -27858   -28133   -28642   -29262   -29758   -29890   -29517   -28702 
  -27622   -26331   -24801   -23102   -21447   -20102   -19209   -18711 
  -18423   -18198   -18032   -17958   -17933   -17840   -17556   -17159 
  -16912   -16989   -17416   -18153   -19075   -20033   -20981   -21960 
  -22986   -24001   -25010   -26078   -27160   -28162   -29039   -29700 
  -29987   -29780   -29133   -28280   -27427   -26640   -25937   -25329 
  -24925   -24892   -25194   -25623   -26081   -26632   -27309   -28032 
  -28704   -29242   -29604   -29876   -30188   -30595   -31112   -31707 
  -32302   -32848   -33304   -33577   -33627   -33464   -33112   -32662 
  -32154   -31584   -30983   -30293   -29477   -28613   -27682   -26577 
  -25267   -23831   -22385   -20983   -19640   -18400   -17306   -16362 
  -15568   -14974   -14695   -14841   -15399   -16186   -16987   -17705 
  -18306   -18760   -19056   -19221   -19317   -19426   -19632   -20051 
  -20831   -22012   -23427   -24832   -26118   -27282   -28266   -28906 
  -29076   -28850   -28413   -27839   -27134   -26397   -25866   -25819 
  -26369   -27400   -28702   -30086   -31375   -32377   -32922   -32976 
  -32637   -32087   -31540   -31148   -30933   -30851   -30813   -30718 
  -30582   -30553   -30733   -31109   -31609   -32167   -32656   -32774 
  -32288   -31209   -29602   -27543   -25179   -22591   -19862   -17228 
  -14911   -12939   -11228    -9746    -8589    -7890    -7655    -7696 
   -7655    -7250    -6533    -5721    -4932    -4313    -4158    -4718 
   -6036    -7989   -10273   -12467   -14293   -15734   -16983   -18307 
  -19869   -21721   -23817   -25983   -28006   -29697   -30925   -31652 
  -31922   -31893   -31780   -31656   -31458   -31258   -31280   -31659 
  -32315   -33084   -33820   -34371   -34647   -34699   -34652   -34640 
  -34691   -34752   -34800   -34766   -34521   -34030   -33307   -32282 
  -30991   -29611   -28146   -26573   -25066   -23691   -22414   -21236 
  -20080   -18941   -17976   -17234   -16693   -16438   -16606   -17285 
  -18350   -19389   -19807   -19079   -17357   -15442   -13850   -12605 
  -11653   -11130   -11237   -11537   -11445   -11392   -11731   -11959 
  -11961   -11848   -11409   -10736   -10051    -9409    -8963    -8833 
   -9020    -9543   -10330   -11202   -12069   -12987   -14053   -15325 
  -16830   -18566   -20380   -21956   -23157   -24215   -25309   -26310 
  -27166   -27987   -28832   -29687   -30389   -30829   -31129   -31297 
  -31323   -31465   -31858   -32324   -32692   -32924   -33038   -33025 
  -32877   -32648   -32433   -32315   -32295   -32321   -32357   -32398 
  -32399   -32218   -31721   -30881   -29743   -28348   -26658   -24683 
  -22637   -20599   -18183   -15149   -11910    -9061    -6890    -5352 
   -4341    -3921    -4018    -4343    -4725    -5082    -5355    -5578 
   -5805    -6032    -6277    -6683    -7374    -8286    -9322   -10423 
  -11515   -12564   -13557   -14559   -15699   -17010   -18518   -20243 
  -22038   -23684   -25018   -25923   -26331   -26388   -26488   -26995 
  -28022   -29555   -31580   -33957   -36339   -38382   -39946   -40976 
  -41412   -41249   -40551   -39422   -38056   -36669   -35376   -34150 
  -32878   -31514   -30099   -28651   -27217   -25875   -24655   -23556 
  -22545   -21584   -20684   -19892   -19270   -18894   -18871   -19338 
  -20369   -21879   -23622   -25345   -26890   -28177   -29152   -29805 
  -30218   -30559   -30955   -31435   -32003   -32648   -33303   -33891 
  -34378   -34745   -34939   -34904   -34573   -33866   -32770   -31359 
  -29678   -27782   -25886   -24319   -23270   -22684   -22381   -22262 
  -22368   -22712   -23071   -23087   -22576   -21635   -20451   -19159 
  -17923   -16952   -16396   -16354   -16846   -17707   -18650   -19439 
  -19876   -19783   -19147   -18193   -17238   -16531   -16272   -16662 
  -17816   -19644   -21883   -24159   -26103   -27528   -28461   -28990 
  -29193   -29187   -29097   -29026   -29166   -29694   -30543   -31425 
  -32041   -32230   -31981   -31363   -30473   -29461   -28510   -27764 
  -27265   -26941   -26699   -26525   -26443   -26522   -26860   -27356 
  -27810   -28144   -28288   -28175   -27859   -27455   -27099   -26850 
  -26644   -26478   -26416   -26475   -26671   -26976   -27297   -27578 
  -27809   -28051   -28450   -29085   -29831   -30484   -30987   -31424 
  -31762   -31840   -31627   -31179   -30485   -29613   -28717   -27864 
  -27003   -26054   -25007   -23965   -23094   -22532   -22309   -22420 
  -22866   -23538   -24212   -24721   -25076   -25367   -25676   -26123 
  -26851   -27988   -29618   -31699   -34014   -36211   -37909   -38813 
  -38804   -37988   -36672   -35231   -33991   -33206   -32979   -33170 
  -33403   -33238   -32417   -30968   -29098   -26997   -24800   -22686 
  -20854   -19409   -18381   -17827   -17787   -18152   -18661   -19055 
  -19211   -19144   -18940   -18655   -18308   -17995   -17909   -18168 
  -18737   -19539   -20484   -21444   -22255   -22779   -23031   -23141 
  -23202   -23282   -23446   -23743   -24200   -24803   -25482   -26077 
  -26355   -26180   -25678   -25165   -24966   -25255   -25982   -26947 
  -27887   -28484   -28464   -27707   -26257   -24320   -22169   -20029 
  -18093   -16549   -15506   -14929   -14627   -14345   -13928   -13411 
  -12935   -12596   -12423   -12450   -12727   -13254   -13949   -14729 
  -15544   -16298   -16869   -17228   -17490   -17822   -18347   -19159 
  -20375   -22078   -24175   -26374   -28386   -30077   -31453   -32595 
  -33587   -34394   -34842   -34828   -34436   -33777   -32838   -31520 
  -29788   -27726   -25462   -23197   -21235   -19780   -18840   -18309 
  -18041   -17864   -17618   -17285   -16958   -16709   -16674   -17039 
  -17847   -19016   -20381   -21701   -22841   -23810   -24592   -25132 
  -25491   -25887   -26515   -27381   -28363   -29371   -30332   -31101 
  -31500   -31432   -30969   -30311   -29652   -29121   -28834   -28801 
  -28875   -28899   -28770   -28372   -27632   -26606   -25493   -24556 
  -23934   -23577   -23311   -22969   -22566   -22211   -21896   -21557 
  -21194   -20826   -20481   -20227   -20083   -19958   -19703   -19216 
  -18534   -17844   -17346   -17105   -17055   -17112   -17253   -17475 
  -17691   -17774   -17742   -17803   -18172   -18919   -19975   -21185 
  -22397   -23544   -24599   -25493   -26139   -26511   -26651   -26616 
  -26420   -26099   -25764   -25477   -25186   -24833   -24395   -23805 
  -22957   -21831   -20504   -19059   -17610   -16270   -15086   -14099 
  -13357   -12891   -12586   -12065   -10995    -9549    -8212    -7220 
   -6548    -6195    -6220    -6621    -7309    -8159    -9026    -9766 
  -10318   -10713   -11052   -11465   -12013   -12681   -13420   -14161 
  -14828   -15353   -15776   -16275   -16981   -17874   -18932   -20251 
  -21952   -24031   -26286   -28387   -30053   -31120   -31583   -31718 
  -31910   -32310   -32847   -33468   -34156   -34849   -35474   -35972 
  -36206   -35951   -35103   -33795   -32245   -30736   -29570   -28786 
  -28163   -27475   -26657   -25797   -24995   -24319   -23819   -23469 
  -23221   -23089   -23075   -23110   -23134   -23160   -23186   -23185 
  -23175   -23155   -23094   -23014   -22954   -22876   -22723   -22512 
  -22240   -21741   -20880   -19894   -19190   -18914   -18965   -19222 
  -19639   -20271   -21239   -22640   -24398   -26273   -28060   -29690 
  -31134   -32330   -33259   -34046   -34889   -35775   -36359   -36475 
  -36570   -37112   -37891   -38467   -38792   -39041   -39282   -39359 
  -39108   -38628   -38011   -37245   -36424   -35569   -34564   -33423 
  -32261   -31113   -29963   -28794   -27637   -26592   -25699   -24867 
  -24020   -23100   -22075   -21003   -19963   -18997   -18168   -17642 
  -17642   -18226   -19244   -20537   -21818   -22577   -22602   -22209 
  -21790   -21479   -21241   -21027   -20765   -20387   -19922   -19417 
  -18854   -18223   -17601   -17107   -16780   -16567   -16458   -16514 
  -16752   -17063   -17253   -17233   -17124   -17093   -17206   -17515 
  -18084   -18919   -19956   -21113   -22323   -23568   -24897   -26363 
  -27936   -29493   -30979   -32418   -33703   -34645   -35201   -35429 
  -35367   -35103   -34670   -34007   -33153   -32270   -31530   -31014 
  -30692   -30585   -30819   -31447   -32353   -33316   -34132   -34656 
  -34759   -34345   -33398   -31995   -30303   -28546   -26945   -25629 
  -24627   -23946   -23525   -23217   -22901   -22539   -22113   -21626 
  -21133   -20753   -20573   -20530   -20484   -20404   -20425   -20702 
  -21274   -22072   -22991   -23961   -24926   -25765   -26333   -26561 
  -26471   -26096   -25405   -24402   -23233   -22133   -21300   -20806 
  -20603   -20558   -20519   -20375   -20101   -19744   -19366   -18988 
  -18525   -17880   -17031   -15963   -14735   -13592   -12828   -12555 
  -12637   -12932   -13444   -14169   -14983   -15721   -16216   -16405 
  -16423   -16466   -16624   -16889   -17223   -17666   -18303   -19149 
  -20158   -21298   -22562   -23937   -25316   -26549   -27568   -28404 
  -29108   -29682   -30138   -30527   -30845   -31014   -30956   -30630 
  -30093   -29507   -28976   -28449   -27871   -27290   -26732   -26165 
  -25528   -24768   -23977   -23344   -22938   -22707   -22635   -22716 
  -22852   -22929   -22926   -22870   -22774   -22637   -22387   -21914 
  -21270   -20772   -20747   -21205   -21859   -22371   -22486   -22132 
  -21503   -20904   -20641   -20950   -21753   -22616   -23130   -23195 
  -22884   -22342   -21849   -21669   -21853   -22315   -22920   -23496 
  -23873   -23929   -23619   -22981   -22107   -21106   -20093   -19225 
  -18720   -18663   -18789   -18640   -17961   -16775   -15257   -13715 
  -12451   -11597   -11245   -11585   -12699   -14355   -16140   -17668 
  -18666   -18966   -18531   -17523   -16238   -14938   -13808   -12999 
  -12666   -12955   -13885   -15202   -16346   -16815   -16613   -16016 
  -15107   -14019   -13097   -12587   -12583   -12970   -13444   -13841 
  -14187   -14521   -14854   -15212   -15708   -16415   -17289   -18311 
  -19450   -20577   -21546   -22309   -23011   -23904   -25132   -26665 
  -28393   -30206   -31861   -32979   -33429   -33535   -33690   -34037 
  -34569   -35227   -36025   -37184   -38976   -41611   -45084   -48807 
  -51912   -53929   -54883   -55025   -54568   -53635   -52317   -50675 
  -48866   -47105   -45520   -44277   -43443   -42816   -42217   -41487 
  -40440   -39052   -37218   -34874   -32293   -29695   -27156   -24797 
  -22600   -20463   -18345   -16220   -14139   -12365   -11218   -10794 
  -11094   -12171   -13659   -14638   -14320   -12722   -10869    -9798 
   -9425    -9317    -9563   -10220   -11033   -11839   -12616   -13290 
  -13796   -14144   -14302   -14279   -14278   -14536   -15155   -16174 
  -17613   -19417   -21504   -23821   -26201   -28258   -29639   -30287 
  -30419   -30289   -29878   -29021   -27857   -26799   -26064   -25679 
  -25774   -26369   -27201   -28021   -28684   -29115   -29390   -29653 
  -30090   -30868   -31958   -33172   -34266   -35041   -35455   -35562 
  -35385   -34905   -34161   -33331   -32632   -32138   -31758   -31377 
  -30905   -30255   -29359   -28159   -26683   -25125   -23716   -22615 
  -21896   -21542   -21451   -21490   -21521   -21591   -22063   -23167 
  -24717   -26527   -28454   -30174   -31503   -32505   -33238   -33736 
  -34030   -34159   -34198   -34162   -34041   -33839   -33445   -32708 
  -31618   -30226   -28600   -26879   -25212   -23672   -22358   -21433 
  -20930   -20630   -20311   -20013   -19899   -20094   -20740   -21884 
  -23386   -25037   -26605   -27841   -28635   -29018   -29013   -28593 
  -27754   -26560   -25160   -23765   -22601   -21837   -21473   -21367 
  -21350   -21351   -21408   -21532   -21675   -21839   -22141   -22729 
  -23601   -24550   -25386   -26069   -26643   -27150   -27621   -28128 
  -28755   -29568   -30619   -31852   -33042   -33911   -34290   -34283 
  -34253   -34478   -34808   -34900   -34672   -34217   -33648   -33102 
  -32585   -32037   -31411   -30487   -29128   -27505   -25851   -24401 
  -23377   -22872   -22782   -22837   -22898   -22915   -22748   -22419 
  -22091   -21790   -21446   -21054   -20611   -20045   -19378   -18711 
  -18039   -17355   -16675   -15824   -14698   -13628   -12908   -12504 
  -12333   -12389   -12775   -13605   -14754   -15874   -16602   -16777 
  -16489   -15922   -15249   -14662   -14369   -14487   -14948   -15507 
  -15913   -16054   -15914   -15535   -15062   -14673   -14452   -14458 
  -14782   -15369   -15974   -16383   -16592   -16741   -16993   -17476 
  -18271   -19391   -20757   -22216   -23624   -24940   -26175   -27292 
  -28309   -29335   -30426   -31578   -32729   -33783   -34713   -35474 
  -35945   -36086   -35945   -35572   -35011   -34294   -33420   -32355 
  -31138   -29931   -28839   -27805   -26714   -25531   -24310   -23054 
  -21684   -20187   -18666   -17205   -15755   -14296   -12961   -11894 
  -11207   -10932   -10886   -10848   -10796   -10822   -10962   -11231 
  -11769   -12693   -13854   -15013   -16010   -16760   -17402   -18250 
  -19465   -20919   -22330   -23500   -24378   -24911   -25084   -25046 
  -24970   -24888   -24749   -24602   -24548   -24428   -23826   -22625 
  -21197   -19795   -18297   -16631   -15014   -13749   -12946   -12582 
  -12747   -13487   -14589   -15819   -17101   -18325   -19306   -19960 
  -20323   -20472   -20518   -20592   -20801   -21113   -21356   -21410 
  -21313   -21233   -21349   -21729   -22280   -22797   -23132   -23327 
  -23490   -23628   -23680   -23571   -23255   -22701   -21843   -20661 
  -19300   -17982   -16871   -16023   -15475   -15354   -15765   -16651 
  -17844   -19125   -20281   -21233   -22010   -22605   -23018   -23352 
  -23777   -24418   -25325   -26491   -27823   -29133   -30230   -31030 
  -31562   -31863   -31969   -32067   -32429   -33114   -33910   -34578 
  -34975   -35009   -34593   -33699   -32394   -30799   -29080   -27456 
  -26086   -24923   -23798   -22596   -21242   -19716   -18069   -16354 
  -14638   -13016   -11523   -10206    -9242    -8837    -9080    -9884 
  -10903   -11753   -12331   -12743   -13085   -13455   -14012   -14911 
  -16173   -17678   -19328   -21084   -22860   -24564   -26143   -27523 
  -28660   -29592   -30386   -31108   -31852   -32696   -33645   -34720 
  -35871   -36572   -36145   -34753   -33196   -31831   -30622   -29662 
  -29035   -28656   -28399   -28152   -27894   -27646   -27389   -27137 
  -26882   -26569   -26324   -26413   -26883   -27627   -28632   -29803 
  -30926   -31832   -32352   -32393   -32029   -31378   -30449   -29206 
  -27748   -26321   -25133   -24290   -23808   -23575   -23430   -23308 
  -23227   -23217   -23229   -23130   -22928   -22850   -23122   -23769 
  -24575   -25302   -25828   -26041   -25910   -25665   -25657   -26164 
  -27347   -29187   -31461   -33828   -35846   -37036   -37251   -36834 
  -36056   -34915   -33655   -32684   -32067   -31651   -31387   -31304 
  -31309   -31267   -31112   -30740   -30083   -29229   -28338   -27529 
  -26817   -26162   -25516   -24901   -24418   -24028   -23578   -23082 
  -22674   -22429   -22352   -22383   -22456   -22501   -22408   -22118 
  -21691   -21165   -20454   -19357   -17724   -15791   -14106   -12976 
  -12318   -11968   -11835   -11777   -11595   -11238   -10819   -10438 
  -10138    -9982   -10047   -10389   -11008   -11809   -12638   -13463 
  -14418   -15636   -17102   -18723   -20456   -22273   -24081   -25862 
  -27776   -29832   -31612   -32570   -32497   -31738   -30793   -29739 
  -28578   -27645   -27046   -26598   -26318   -26182   -25915   -25383 
  -24567   -23329   -21663   -19790   -17920   -16178   -14676   -13518 
  -12699   -12200   -12047   -12186   -12567   -13149   -13769   -14260 
  -14574   -14741   -15078   -16053   -17565   -18997   -19881   -20107 
  -19840   -19417   -19237   -19605   -20572   -21913   -23276   -24345 
  -24912   -24965   -24732   -24483   -24330   -24294   -24417   -24791 
  -25500   -26535   -27735   -28831   -29576   -29834   -29633   -29128 
  -28509   -27982   -27762   -28030   -28810   -29963   -31355   -32933 
