Origin Time       2011/03/11 14:46:00
Lat.              38.103
Long.             142.860
Depth. (km)       24
Mag.              9.0
Station Code      HKD105
Station Lat.      42.4826
Station Long.     142.0538
Station Height(m) 7
Record Time       2011/03/11 14:47:59
Sampling Freq(Hz) 100Hz
Duration Time(s)  300
Dir.              N-S
Scale Factor      3920(gal)/6182761
Max. Acc. (gal)   17.107
Last Correction   2011/03/11 14:47:44
Memo.             
[...]
   -1251    -1751    -1278      -25     1525     3172     4963     6991 
    9203    11322    13067    14242    14739    14462    13441    12069 
   10818     9949     9387     8794     8021     7118     6263     5828 
    6049     6796     7614     8000     7927     7814     7913     8145 
    8407     8637     8689     8544     8502     8819     9338     9604 
    9260     8436     7600     6994     6608     6471     6547     6697 
    6794     6777     6854     7294     8015     8724     9106     8925 
    8259     7488     6966     6691     6342     5680     4804     4103 
    3977     4449     5174     5713     5669     4846     3452     2046 
    1137      861     1129     1932     3220     4705     6106     7287 
    8056     8263     7845     6799     5414     3997     2659     1793 
    1816     2568     3640     4716     5566     6282     7086     7842 
    8397     8970     9719    10432    10761    10567    10061     9392 
    8332     6749     4979     3453     2422     2197     3031     4645 
    6384     7722     8547     9102     9495     9487     8978     8368 
    8270     8966    10247    11718    12958    13564    13344    12510 
   11596    10815     9907     8739     7491     6547     6202     6469 
    7423     9183    11484    13663    15117    15755    15711    14831 
   13018    10583     8021     5662     3589     1974      986      541 
     733     1909     4072     6631     8809    10211    10864    10940 
   10667    10266     9802     9084     8011     6931     6093     5245 
    4276     3636     3822     4685     5603     6245     6600     6483 
    5714     4632     3948     4069     4868     6140     7810     9589 
   10972    11615    11562    11083    10230     9023     7756     6667 
    5821     5202     4847     4957     5636     6860     8558    10431 
   11993    12858    13041    12897    12764    12757    12593    11924 
   10873     9718     8565     7448     6327     5229     4301     3622 
    3276     3320     3602     4123     5226     7006     8956    10433 
   11149    11056    10153     8586     6627     4511     2432      602 
    -679    -1187     -985     -271      710     1590     2254     3030 
    4283     5977     7526     8387     8608     8580     8645     8809 
    8910     8961     8951     8837     8645     8400     8295     8490 
    8802     8964     8984     9057     9239     9398     9392     9079 
    8287     7006     5562     4424     3751     3304     2828     2423 
    2293     2329     2455     2850     3494     4053     4135     3633 
    2895     2272     1942     2262     3378     4690     5433     5357 
    4804     4358     4336     4693     5138     5340     5295     5278 
    5494     5903     6399     6986     7431     7306     6601     5585 
    4349     2958     1684      843      498      530      915     1789 
    3258     5389     8252    11625    14970    17784    19552    19729 
   18199    15341    11618     7481     3229    -1007    -4800    -7497 
   -8778    -8671    -7272    -4715    -1261     2766     6921    10486 
   12847    13892    13862    13250    12478    11486    10081     8304 
    6415     4945     4389     4822     5965     7456     9104    10749 
   12059    12924    13690    14710    15995    17161    17481    16433 
   14204    11353     8380     5670     3331     1256     -560    -1838 
   -2067     -909     1367     4022     6563     8875    10781    12119 
   12897    13208    13260    13192    12949    12439    11756    11147 
   10754    10549    10237     9381     8126     7053     6265     5508 
    4846     4634     5164     6460     8265    10209    11905    12921 
   13151    12976    12601    11805    10454     8933     7889     7529 
    7672     8221     9162    10523    12145    13505    14185    14279 
   13980    13208    11832     9665     6529     2771     -911    -3832 
   -5419    -5641    -4887    -3479    -1863     -498      553     1390 
    2111     2831     3738     5025     6370     7156     7083     6215 
    5058     3942     2668     1217     -371    -2224    -4177    -5869 
   -7084    -7805    -8138    -8280    -8434    -8512    -8075    -6827 
   -4849    -2464     -158     1759     3278     4443     5459     6481 
    7232     7500     7597     7864     8175     8212     7935     7578 
    7289     7042     6833     6666     6364     5702     4830     4117 
    3663     3219     2640     2244     2181     2190     2273     2599 
    3247     4357     5785     7119     8309     9643    11204    12810 
   14231    15342    16189    16714    16705    16120    15151    13939 
   12464    10914     9577     8408     7406     6892     7043     7711 
    8581     9322     9824    10105    10069     9804     9746    10125 
   10693    11239    11913    12873    13986    14954    15489    15400 
   14740    13930    13580    13939    14812    15946    17105    18008 
   18474    18606    18634    18527    18086    17272    16136    14735 
   13297    12173    11654    11878    12751    13845    14535    14662 
   14586    14449    14087    13394    12403    11144     9604     7824 
    6037     4794     4637     5621     7301     8956     9903     9949 
    9545     9334     9494     9556     8927     7459     5408     3277 
    1704     1078     1420     2706     4868     7513    10058    12051 
   13378    14370    15425    16457    17035    16897    15979    14309 
   12125     9902     8159     7037     6164     5152     4029     3021 
    2019      694    -1035    -2936    -4508    -5336    -5390    -4806 
   -3820    -2633    -1345      -93     1090     2040     2319     1752 
     616     -605    -1445    -1681    -1441    -1060     -756     -463 
      -2      782     2116     4050     6205     8069     9233     9576 
    9418     9185     9156     9346     9501     9602     9848    10194 
   10478    10483     9992     8999     7485     5481     3343     1581 
     648      691     1478     2822     4674     6781     8682    10005 
   10501    10052     8805     7056     5159     3356     1589     -130 
   -1492    -2203    -2222    -1764    -1101     -361      471     1374 
    2237     2946     3280     2951     2033     1062      356     -304 
   -1068    -1742    -2154    -2102    -1260      485     2708     4456 
    5104     4885     4179     3168     2049     1075      561      538 
     745     1184     1994     3124     4502     6045     7654     9295 
   10865    12111    12698    12487    11747    10986    10560    10533 
   10990    11921    12909    13561    13818    13799    13499    12653 
   11184     9452     7854     6693     6322     6749     7442     7953 
    7975     7249     5907     4214     2306      363    -1404    -2862 
   -3964    -4584    -4621    -4281    -3788    -3161    -2404    -1411 
      14     1801     3662     5395     6849     7789     8129     8208 
    8626     9626    10869    11995    12920    13557    13713    13215 
   12278    11543    11329    11532    12048    12766    13616    14575 
   15672    16904    18016    18689    18767    18393    17975    17706 
   17404    16835    15953    14952    14081    13383    12734    12024 
   11157    10233     9760    10227    11542    13146    14630    16003 
   17347    18677    20038    21328    22335    22809    22336    20914 
   19140    17467    16210    15600    15408    15229    14861    14381 
   13964    13633    13482    13683    14164    14638    14866    14982 
   15285    15725    15898    15352    13941    11855     9279     6377 
    3452      841    -1277    -2917    -4260    -5465    -6374    -6721 
   -6541    -6103    -5654    -5375    -5391    -5732    -6234    -6489 
   -6100    -5015    -3515    -2049    -1096     -972    -1703    -2849 
   -3691    -3874    -3671    -3591    -3809    -4067    -4116    -3762 
   -2632     -479     2339     4999     7002     8471     9602    10399 
   10719    10323     9242     7638     5505     3123     1153       90 
     102     1035     2462     4021     5607     7228     8910    10696 
   12513    14014    14834    14948    14555    13951    13414    13035 
   12899    12987    12966    12692    12416    12412    12701    12896 
   12616    11933    11026    10059     9417     9483    10449    12270 
   14521    16629    18288    19449    20086    20144    19544    18090 
   15725    12813     9921     7645     6414     6177     6607     7382 
    8368     9628    10994    12139    13040    13908    14918    16122 
   17421    18535    19268    19714    20094    20598    21073    20999 
   20122    18625    16853    15191    13876    12930    12300    11954 
   11703    11207    10528    10084    10077    10466    10983    11312 
   11442    11492    11495    11394    10922     9938     8770     7777 
    7110     6813     6653     6412     6184     5999     5888     5993 
    6278     6664     7190     7904     8704     9269     9356     8941 
    8181     7272     6231     5116     4142     3463     3273     3787 
    5034     6960     9387    11931    14086    15316    15419    14601 
   13183    11651    10466     9574     8557     7269     6066     5458 
    5750     6862     8219     9097     9112     8353     7395     6924 
    7074     7535     8010     8278     8316     8389     8742     9292 
    9607     9399     8849     8121     7208     6232     5336     4502 
    3567     2564     1825     1581     1873     2767     4318     6308 
    8334    10257    12031    13467    14422    14731    14428    14080 
   14328    15455    17444    20013    22709    25196    27473    29592 
   31274    32150    31975    30788    29041    27215    25761    25048 
   24835    24552    23844    22576    20905    19133    17501    16308 
   15723    15547    15433    15143    14632    13984    13258    12588 
   12303    12629    13220    13442    13252    13090    13157    13331 
   13268    12594    11336     9935     8963     8753     9023     9208 
    8957     8157     7028     6031     5579     5765     6232     6497 
    6383     6099     5849     5483     4954     4469     4070     3842 
    3983     4500     5276     6023     6360     6277     6150     6171 
    6182     6131     6017     5648     5074     4630     4604     5080 
    5758     6308     6742     7236     7929     8763     9487     9882 
    9829     9221     8123     6827     5624     4633     3690     2577 
    1370      178    -1067    -2395    -3784    -5083    -6016    -6481 
   -6592    -6700    -7215    -8199    -9516   -10969   -12213   -13043 
  -13451   -13424   -12809   -11305    -8861    -5907    -2872       38 
    2680     5023     7066     8667     9616     9825     9473     8981 
    8803     9042     9392     9610     9729     9748     9434     8543 
    7101     5401     3779     2526     1945     2363     3971     6520 
    9294    11606    13146    13797    13627    13006    12359    11956 
   11876    12213    13126    14502    15992    17352    18657    20166 
   21813    23156    23727    23093    21033    17912    14444    11044 
    7711     4611     2252     1080     1309     2830     5249     8081 
   10778    12914    14459    15672    16550    16680    15939    14740 
   13497    12397    11485    10760    10260     9940     9746     9703 
    9662     9326     8554     7522     6567     5936     5892     6764 
    8686    11272    13685    15430    16746    17885    18752    19242 
   19419    19354    18958    18218    17486    17111    17088    17380 
   18179    19485    20819    21626    21784    21527    20843    19490 
   17477    14969    12250     9855     8228     7473     7457     7913 
    8567     9231     9714     9847     9736     9610     9563     9680 
    9988    10302    10358    10000     9377     8795     8375     8162 
    8179     8330     8333     7717     6291     4337     2250      367 
   -1063    -2011    -2674    -3193    -3568    -3815    -3929    -3959 
   -3881    -3545    -3008    -2341    -1587     -966     -694     -996 
   -1902    -3168    -4636    -5964    -6650    -6693    -6323    -5412 
   -3773    -1541      999     3503     5469     6601     7147     7539 
    8037     8603     8959     8968     8717     8343     7971     7537 
    6866     5799     4277     2552     1116      383      493     1471 
    3232     5472     7954    10577    13153    15308    16619    16915 
   16167    14390    11757     8536     5145     2222      530      567 
    1979     3918     5980     8303    10999    13673    15760    17052 
   17639    17833    17881    17977    18494    19400    20023    19696 
   18276    16106    13485    10498     7329     4317     1784      -86 
   -1281    -1918    -2182    -2135    -1629     -410     1691     4360 
    6919     8945    10316    11004    11032    10482     9521     8268 
    6796     5320     4249     3895     4200     4993     6218     7767 
    9289    10351    10816    10723    10027     8853     7565     6533 
    6034     6211     7071     8522    10456    12656    14705    16258 
   17179    17511    17532    17552    17614    17493    16911    15793 
   14304    12558    10591     8596     6959     5974     5489     5140 
    4819     4502     4136     3811     3731     4103     4959     6139 
    7379     8375     9076     9704    10319    10762    10804    10129 
    8778     7444     6786     6894     7473     8088     8434     8384 
    7914     7155     6263     5308     4339     3455     2841     2672 
    3050     4003     5427     7043     8423     9242     9499     9407 
    9273     9427    10157    11558    13439    15737    18754    22494 
   26379    29816    32451    34155    34924    34574    33004    30584 
   27853    25338    23527    22637    22528    22828    23296    23969 
   24742    25224    25096    24334    23199    22006    20873    19813 
   18813    17804    16772    15745    14778    13997    13405    12899 
   12548    12510    12804    13240    13443    13144    12417    11421 
   10202     8821     7320     5684     3882     1936        7    -1819 
   -3481    -4713    -5396    -5823    -6360    -7017    -7453    -7450 
   -7166    -6870    -6629    -6404    -6230    -5956    -5190    -3761 
   -1859      163     1999     3577     4871     5727     6090     6038 
    5761     5559     5549     5753     6245     6993     7935     8906 
    9640    10163    10738    11483    12448    13665    15020    16352 
   17487    18251    18701    19039    19379    19685    19760    19402 
   18550    17329    15973    14609    13340    12446    12008    11707 
   11355    11113    11136    11370    11789    12444    13096    13208 
   12444    10972     9321     7883     6711     5765     4988     4266 
    3568     2920     2507     2596     3146     4001     5014     5775 
    5963     5618     4912     4054     3074     1714      -92    -2009 
   -3701    -4965    -5604    -5553    -4938    -3922    -2683    -1458 
    -411      461     1222     2008     2956     3847     4329     4280 
    3621     2534     1581      964      356     -587    -1934    -3248 
   -3869    -3598    -2758    -1782     -863      148     1336     2466 
    3264     3390     2440      501    -1762    -3696    -5083    -6065 
   -6629    -6459    -5274    -3064     -234     2572     4976     7142 
    9577    12519    15530    17905    19214    19429    18811    17659 
   16287    15007    13826    12583    11239     9822     8461     7247 
    6084     4989     4068     3215     2212     1076      158     -279 
    -265      124      927     2232     3907     5557     6894     7952 
    8867     9604    10185    10903    11926    13025    14018    15199 
   16993    19517    22483    25273    27413    28848    29768    30408 
   30868    31012    30524    29211    27268    25237    23653    22618 
   21917    21429    21211    21433    22206    23413    24761    25818 
   26280    26279    25987    25476    24899    24157    23037    21461 
   19437    17262    15201    13141    10957     8719     6591     4661 
    2810      848    -1272    -3365    -5145    -6355    -6934    -7161 
   -7285    -7320    -7367    -7521    -7680    -7652    -7264    -6558 
   -5657    -4453    -2827     -939      893     2412     3590     4695 
    5957     7251     8235     8658     8468     7608     6048     4148 
    2416      947     -412    -1534    -1875     -957     1037     3505 
    5890     7855     9437    10782    11907    12808    13436    13744 
   13857    14029    14439    15054    15676    15982    15758    15214 
   14679    14230    13678    12776    11601    10374     9133     8000 
    7322     7328     7893     8827    10088    11461    12661    13684 
   14668    15783    17085    18489    20056    21731    23267    24678 
   26096    27702    29668    31640    32966    33249    32577    31509 
   30369    28992    27216    25029    22524    19830    17116    14583 
   12106     9285     6004     2632     -244    -2366    -3927    -5146 
   -6204    -7336    -8497    -9385    -9827    -9854    -9620    -9278 
   -8845    -8307    -7650    -6839    -5930    -4968    -3895    -2757 
   -1684     -706       94      438      117     -744    -1758    -2484 
   -2654    -2240    -1260      164     1719     3290     5020     6868 
    8615    10141    11413    12449    13272    13956    14782    15868 
   16810    17099    16525    15138    13212    11145     9255     7655 
    6274     5127     4333     3887     3731     3737     3707     3532 
    3134     2636     2393     2528     2909     3475     4308     5566 
    7271     9174    10947    12371    13380    14062    14479    14613 
   14451    13966    13295    12766    12643    12934    13342    13526 
   13311    12627    11624    10705    10331    10609    11182    11892 
   12925    14288    15787    17232    18525    19565    20021    19613 
   18539    17239    15959    14666    13191    11443     9420     7236 
    5275     3860     2945     2331     1712      931      246     -225 
    -721    -1442    -2428    -3445    -4135    -4403    -4346    -4193 
   -4260    -4537    -4555    -3927    -2749    -1359      -72      946 
    1598     1697     1328      815      288      -73      -86      311 
    1282     2790     4677     6886     8939    10006     9628     8032 
    5774     3210      596    -1665    -3278    -4193    -4419    -3900 
   -2562     -485     2000     4594     7261     9846    11900    13119 
   13522    13197    12022     9961     7575     5666     4581     4090 
    3802     3666     4113     5503     7544     9735    11792    13335 
   14020    13949    13603    13333    12914    11962    10618     9345 
    8433     7749     6917     5999     5428     5381     5791     6517 
    7365     8191     8976     9818    10764    11734    12528    12985 
   13207    13390    13570    13680    13702    13680    13581    13292 
   12706    11966    11594    11887    12587    13338    13796    13592 
   12610    10941     8830     6666     4496     1946    -1096    -4191 
   -6602    -7812    -7962    -7371    -6098    -4386    -2668    -1106 
     556     2707     5137     7112     8328     8970     9173     8921 
    8247     7441     6805     6270     5541     4509     3402     2405 
    1536     1034     1093     1310     1072      291     -567    -1045 
   -1051     -663      206     1640     3328     4850     5972     6683 
    7293     8075     9037    10104    11050    11558    11454    10762 
    9676     8394     7052     5849     5024     4695     4740     4914 
