Origin Time       2011/03/11 14:46:00
Lat.              38.103
Long.             142.860
Depth. (km)       24
Mag.              9.0
Station Code      HKD114
Station Lat.      44.2829
Station Long.     142.1619
Station Height(m) 255
Record Time       2011/03/11 14:49:34
Sampling Freq(Hz) 100Hz
Duration Time(s)  186
Dir.              N-S
Scale Factor      3920(gal)/6182761
Max. Acc. (gal)   3.714
Last Correction   2011/03/11 14:49:19
Memo.             
[...]
    6398     6370     6341     6322     6311     6307     6315     6337 
    6374     6426     6497     6586     6685     6793     6913     7037 
    7157     7269     7370     7455     7522     7568     7590     7591 
    7572     7529     7466     7391     7304     7209     7115     7026 
    6945     6875     6815     6771     6744     6732     6735     6751 
    6776     6803     6829     6852     6868     6878     6885     6888 
    6882     6870     6854     6833     6808     6781     6757     6738 
    6725     6719     6725     6742     6770     6807     6854     6911 
    6977     7052     7135     7225     7319     7416     7511     7599 
    7682     7761     7836     7904     7967     8023     8071     8111 
    8147     8176     8198     8218     8240     8262     8283     8309 
    8343     8384     8434     8490     8549     8614     8678     8731 
    8777     8818     8841     8846     8840     8821     8793     8760 
    8721     8680     8637     8591     8544     8498     8456     8420 
    8392     8373     8359     8347     8336     8326     8314     8300 
    8280     8252     8216     8164     8092     8002     7891     7764 
    7626     7473     7315     7158     7005     6864     6740     6635 
    6550     6485     6438     6406     6386     6378     6380     6387 
    6392     6396     6394     6386     6373     6354     6322     6279 
    6225     6158     6081     5995     5902     5806     5714     5625 
    5543     5472     5413     5365     5337     5323     5323     5342 
    5374     5411     5453     5498     5544     5590     5634     5677 
    5719     5758     5794     5828     5860     5885     5905     5925 
    5944     5966     5994     6029     6070     6122     6180     6247 
    6330     6429     6538     6657     6783     6912     7041     7166 
    7284     7393     7487     7563     7623     7662     7681     7686 
    7680     7663     7636     7602     7564     7525     7485     7446 
    7413     7386     7362     7342     7328     7320     7315     7309 
    7301     7290     7276     7259     7233     7199     7158     7100 
    7026     6941     6841     6727     6602     6464     6314     6159 
    5996     5830     5668     5514     5365     5226     5105     5000 
    4911     4837     4779     4734     4699     4667     4639     4613 
    4587     4556     4520     4476     4425     4368     4301     4225 
    4150     4081     4015     3955     3904     3859     3820     3792 
    3776     3774     3784     3801     3828     3859     3894     3931 
    3968     4001     4027     4048     4060     4063     4060     4048 
    4026     3995     3959     3919     3883     3849     3813     3777 
    3741     3703     3668     3638     3617     3596     3577     3569 
    3564     3558     3557     3567     3582     3600     3619     3631 
    3636     3633     3626     3612     3590     3565     3537     3507 
    3477     3457     3452     3461     3485     3524     3576     3637 
    3704     3780     3865     3953     4039     4125     4207     4279 
    4340     4395     4443     4475     4493     4509     4519     4520 
    4520     4523     4526     4534     4550     4575     4608     4646 
    4690     4739     4793     4854     4916     4975     5035     5092 
    5139     5180     5213     5234     5240     5238     5227     5199 
    5158     5111     5057     4992     4928     4877     4830     4783 
    4744     4717     4691     4670     4661     4659     4655     4653 
    4653     4647     4639     4629     4604     4570     4539     4502 
    4455     4406     4355     4294     4228     4171     4124     4072 
    4017     3972     3940     3916     3894     3874     3853     3827 
    3794     3759     3724     3679     3621     3551     3471     3382 
    3291     3203     3112     3020     2937     2862     2795     2743 
    2713     2698     2692     2711     2759     2820     2889     2970 
    3061     3150     3238     3333     3430     3508     3566     3616 
    3656     3683     3700     3712     3715     3716     3716     3719 
    3736     3763     3794     3839     3906     3987     4078     4177 
    4282     4396     4512     4620     4727     4830     4918     4993 
    5065     5132     5181     5215     5249     5282     5305     5321 
    5335     5339     5331     5319     5310     5302     5292     5290 
    5301     5314     5326     5348     5380     5418     5458     5497 
    5530     5561     5589     5611     5619     5616     5612     5612 
    5610     5609     5620     5642     5672     5711     5764     5831 
    5914     6008     6109     6222     6343     6467     6600     6740 
    6871     6992     7109     7218     7309     7378     7432     7480 
    7520     7548     7571     7593     7612     7628     7647     7677 
    7712     7755     7809     7867     7922     7978     8042     8105 
    8166     8234     8311     8384     8452     8517     8573     8614 
    8655     8698     8734     8761     8785     8809     8835     8861 
    8892     8929     8965     8999     9038     9082     9127     9175 
    9223     9263     9300     9342     9382     9421     9459     9493 
    9521     9547     9576     9610     9646     9684     9733     9798 
    9872     9951    10033    10119    10209    10296    10381    10464 
   10543    10615    10680    10742    10795    10835    10861    10878 
   10891    10898    10894    10869    10825    10774    10723    10671 
   10625    10584    10540    10496    10460    10436    10424    10420 
   10423    10428    10432    10431    10421    10397    10352    10286 
   10204    10101     9978     9843     9699     9542     9377     9209 
    9036     8869     8716     8571     8429     8295     8168     8040 
    7912     7790     7673     7553     7425     7295     7164     7028 
    6887     6742     6598     6453     6302     6149     5996     5842 
    5691     5544     5399     5262     5133     5009     4897     4803 
    4720     4641     4567     4497     4432     4374     4324     4277 
    4228     4176     4114     4048     3990     3932     3868     3807 
    3753     3702     3655     3619     3602     3600     3618     3660 
    3720     3789     3867     3956     4046     4135     4227     4320 
    4410     4498     4578     4649     4712     4773     4834     4893 
    4951     5012     5074     5137     5206     5285     5376     5477 
    5587     5708     5845     5992     6150     6317     6484     6648 
    6811     6970     7116     7248     7364     7462     7540     7607 
    7678     7757     7842     7934     8033     8142     8266     8404 
    8557     8726     8909     9105     9313     9525     9738     9947 
   10149    10334    10503    10657    10786    10886    10964    11014 
   11031    11019    10984    10931    10872    10817    10769    10726 
   10693    10676    10674    10692    10729    10784    10852    10927 
   11005    11088    11175    11264    11346    11421    11484    11532 
   11570    11602    11624    11633    11632    11623    11602    11573 
   11549    11532    11518    11513    11517    11527    11541    11564 
   11596    11631    11666    11699    11718    11720    11715    11710 
   11703    11692    11671    11634    11581    11516    11447    11374 
   11299    11219    11128    11028    10932    10843    10757    10671 
   10587    10505    10423    10341    10258    10177    10096    10007 
    9908     9800     9684     9557     9417     9265     9101     8928 
    8748     8563     8374     8180     7982     7786     7597     7422 
    7266     7127     7000     6887     6789     6705     6635     6578 
    6529     6486     6447     6403     6347     6277     6190     6086 
    5973     5854     5729     5602     5474     5343     5220     5111 
    5017     4938     4872     4811     4760     4722     4697     4686 
    4686     4692     4702     4717     4737     4757     4776     4793 
    4805     4814     4821     4825     4831     4832     4824     4810 
    4793     4772     4746     4716     4685     4653     4619     4588 
    4561     4536     4514     4501     4497     4499     4505     4513 
    4522     4534     4551     4574     4600     4625     4648     4663 
    4669     4675     4685     4697     4713     4727     4740     4747 
    4750     4749     4740     4722     4695     4655     4602     4542 
    4479     4406     4324     4234     4143     4053     3966     3884 
    3813     3751     3693     3641     3591     3539     3485     3429 
    3370     3306     3235     3157     3071     2978     2878     2774 
    2667     2554     2440     2330     2224     2123     2034     1956 
    1890     1835     1790     1755     1732     1718     1714     1721 
    1738     1763     1790     1819     1850     1880     1907     1937 
    1969     1996     2023     2051     2075     2100     2129     2162 
    2196     2234     2278     2329     2384     2443     2506     2577 
    2657     2744     2840     2943     3050     3161     3273     3389 
    3506     3621     3739     3857     3972     4083     4190     4288 
    4380     4470     4554     4631     4701     4766     4823     4873 
    4925     4977     5024     5072     5120     5168     5223     5284 
    5352     5427     5508     5594     5686     5783     5881     5981 
    6083     6183     6282     6379     6476     6572     6668     6764 
    6859     6951     7038     7121     7201     7278     7350     7414 
    7472     7523     7570     7617     7662     7706     7750     7791 
    7832     7879     7928     7978     8034     8094     8156     8223 
    8290     8358     8429     8495     8554     8618     8681     8738 
    8797     8859     8918     8976     9030     9079     9126     9169 
    9204     9240     9273     9304     9335     9356     9371     9387 
    9402     9418     9445     9477     9508     9545     9588     9634 
    9684     9736     9792     9852     9908     9959    10008    10054 
   10084    10099    10104    10100    10086    10066    10042    10014 
    9982     9949     9914     9879     9848     9824     9802     9782 
    9759     9731     9695     9657     9618     9575     9531     9485 
    9434     9377     9317     9253     9186     9118     9049     8978 
    8902     8820     8735     8648     8560     8472     8383     8293 
    8204     8113     8017     7923     7831     7738     7645     7551 
    7458     7367     7280     7197     7116     7034     6955     6880 
    6805     6735     6673     6617     6571     6533     6503     6479 
    6464     6456     6456     6467     6487     6508     6529     6554 
    6582     6610     6645     6687     6731     6780     6831     6881 
    6929     6979     7030     7077     7123     7169     7213     7257 
    7303     7354     7413     7479     7552     7633     7720     7810 
    7908     8010     8108     8203     8298     8389     8475     8558 
    8643     8726     8807     8885     8960     9032     9099     9162 
    9221     9271     9315     9356     9394     9430     9464     9496 
    9529     9560     9591     9622     9653     9685     9719     9754 
    9787     9818     9850     9884     9917     9947     9975    10001 
   10022    10038    10050    10056    10055    10044    10029    10009 
    9984     9955     9925     9893     9866     9846     9830     9824 
    9826     9825     9822     9820     9817     9809     9799     9787 
    9771     9750     9723     9691     9656     9615     9573     9530 
    9489     9452     9417     9391     9376     9368     9371     9385 
    9402     9426     9456     9488     9520     9553     9586     9617 
    9643     9665     9685     9701     9716     9731     9749     9771 
    9794     9813     9832     9851     9867     9883     9899     9912 
    9923     9932     9939     9943     9949     9954     9957     9957 
    9955     9946     9932     9912     9885     9854     9818     9776 
    9729     9678     9620     9558     9493     9425     9348     9268 
    9187     9104     9020     8935     8847     8759     8669     8580 
    8499     8427     8359     8297     8247     8202     8160     8127 
    8102     8082     8066     8050     8035     8025     8015     8008 
    8003     7999     7997     7997     7993     7986     7979     7969 
    7954     7937     7916     7893     7868     7839     7809     7780 
    7748     7717     7683     7645     7608     7569     7526     7488 
    7454     7422     7396     7375     7357     7345     7336     7327 
    7318     7311     7298     7277     7250     7217     7175     7126 
    7070     7006     6935     6857     6773     6687     6599     6513 
    6433     6358     6288     6227     6174     6129     6091     6061 
    6035     6009     5980     5956     5931     5899     5862     5819 
    5765     5703     5633     5554     5470     5387     5302     5215 
    5133     5051     4966     4881     4796     4710     4621     4531 
    4440     4347     4251     4156     4060     3964     3874     3786 
    3697     3615     3537     3457     3384     3315     3248     3186 
    3127     3067     3007     2945     2882     2822     2760     2695 
    2628     2559     2489     2418     2340     2259     2174     2083 
    1990     1898     1802     1707     1620     1535     1450     1369 
    1289     1211     1137     1068     1003      947      899      855 
     819      792      773      764      764      772      785      800 
     816      831      844      855      862      861      851      835 
     815      791      766      740      717      701      688      679 
     678      685      702      723      749      786      830      877 
     930      986     1044     1103     1161     1219     1282     1342 
    1399     1456     1510     1558     1603     1643     1680     1716 
    1753     1791     1831     1875     1924     1983     2053     2136 
    2233     2345     2469     2602     2743     2892     3046     3203 
    3362     3521     3675     3822     3960     4089     4211     4325 
    4430     4527     4620     4709     4794     4878     4957     5034 
    5113     5193     5274     5360     5446     5532     5621     5710 
    5797     5885     5972     6056     6137     6218     6291     6358 
    6418     6469     6510     6542     6566     6582     6591     6595 
    6595     6595     6596     6599     6610     6630     6658     6694 
    6737     6789     6848     6909     6970     7038     7107     7176 
    7244     7305     7360     7410     7447     7477     7502     7519 
    7528     7539     7548     7555     7564     7574     7585     7601 
    7622     7647     7677     7710     7751     7801     7851     7905 
    7961     8013     8065     8116     8159     8195     8224     8242 
    8250     8252     8251     8246     8241     8238     8234     8231 
    8233     8235     8238     8242     8250     8256     8258     8258 
    8253     8241     8225     8204     8175     8142     8102     8051 
    7993     7928     7854     7771     7682     7585     7481     7375 
    7268     7160     7053     6950     6854     6765     6682     6609 
    6546     6491     6443     6404     6373     6347     6326     6305 
    6287     6267     6242     6210     6173     6128     6076     6015 
    5946     5867     5780     5690     5600     5512     5429     5352 
    5280     5219     5171     5133     5107     5093     5093     5102 
    5119     5141     5171     5208     5250     5293     5337     5383 
    5424     5460     5491     5517     5539     5559     5575     5587 
    5596     5605     5614     5627     5642     5657     5675     5696 
    5716     5737     5762     5782     5803     5827     5849     5868 
    5890     5916     5946     5978     6011     6047     6084     6126 
    6175     6226     6278     6333     6385     6433     6479     6521 
    6558     6590     6619     6644     6664     6676     6684     6689 
    6691     6691     6690     6686     6682     6678     6671     6665 
    6664     6662     6657     6652     6643     6629     6612     6590 
    6564     6536     6506     6470     6430     6386     6339     6287 
    6230     6167     6097     6018     5938     5861     5787     5718 
    5655     5598     5547     5500     5455     5416     5380     5345 
    5315     5287     5254     5221     5191     5160     5133     5110 
    5090     5076     5064     5057     5052     5047     5044     5041 
    5035     5027     5019     5012     5008     5006     5010     5020 
    5034     5052     5071     5093     5119     5146     5169     5194 
    5220     5243     5262     5280     5291     5298     5302     5299 
    5288     5276     5260     5240     5220     5200     5179     5158 
    5138     5121     5106     5093     5082     5075     5071     5071 
    5074     5084     5107     5135     5171     5217     5274     5342 
    5420     5501     5585     5673     5761     5847     5930     6006 
    6077     6141     6195     6237     6271     6301     6323     6342 
    6359     6375     6394     6415     6438     6469     6506     6550 
    6605     6667     6730     6793     6852     6907     6958     7005 
    7047     7084     7112     7132     7149     7159     7160     7160 
    7158     7154     7156     7158     7158     7162     7172     7184 
    7198     7215     7236     7257     7275     7292     7306     7317 
    7326     7328     7326     7322     7312     7295     7278     7258 
    7234     7209     7185     7161     7137     7111     7089     7072 
    7057     7049     7045     7043     7045     7050     7055     7062 
    7068     7076     7081     7081     7081     7088     7100     7114 
    7134     7161     7196     7237     7279     7328     7383     7438 
    7492     7551     7612     7671     7737     7808     7872     7933 
    7995     8058     8117     8169     8215     8252     8277     8289 
    8296     8299     8288     8266     8240     8212     8179     8143 
    8103     8057     8006     7954     7898     7844     7792     7739 
    7687     7636     7591     7548     7505     7463     7421     7379 
    7336     7292     7245     7193     7135     7072     7006     6938 
    6868     6797     6726     6651     6578     6506     6434     6364 
    6300     6242     6191     6145     6107     6074     6047     6027 
    6009     5992     5980     5971     5959     5951     5954     5962 
    5972     5987     6010     6033     6058     6092     6136     6185 
    6234     6285     6338     6391     6440     6483     6521     6552 
    6576     6589     6592     6589     6580     6559     6532     6508 
    6484     6459     6441     6433     6428     6429     6440     6457 
    6482     6518     6555     6594     6640     6686     6728     6770 
    6810     6840     6863     6879     6884     6884     6880     6869 
    6856     6844     6830     6815     6801     6786     6776     6770 
    6766     6761     6752     6744     6735     6724     6706     6683 
    6659     6636     6611     6580     6548     6521     6497     6472 
    6450     6429     6407     6386     6368     6350     6330     6304 
    6270     6230     6181     6123     6061     6002     5937     5857 
    5772     5687     5601     5514     5426     5334     5243     5153 
    5065     4982     4908     4841     4776     4714     4655     4593 
    4532     4474     4416     4352     4289     4225     4157     4089 
