Origin Time       2011/03/11 14:46:00
Lat.              38.103
Long.             142.860
Depth. (km)       24
Mag.              9.0
Station Code      HKD108
Station Lat.      42.2528
Station Long.     142.5643
Station Height(m) 42
Record Time       2011/03/11 14:47:56
Sampling Freq(Hz) 100Hz
Duration Time(s)  300
Dir.              N-S
Scale Factor      3920(gal)/6182761
Max. Acc. (gal)   18.187
Last Correction   2011/03/11 14:47:41
Memo.             
[...]
    4939     5649     6259     6864     7599     8568     9787    11191 
   12717    14301    15849    17285    18538    19516    20136    20372 
   20295    20052    19768    19470    19128    18758    18448    18311 
   18388    18563    18686    18752    18795    18747    18523    18154 
   17811    17633    17588    17584    17623    17817    18279    18990 
   19757    20336    20616    20603    20323    19799    19019    17988 
   16799    15536    14214    12893    11716    10784    10082     9525 
    9036     8614     8318     8164     8119     8100     8007     7851 
    7760     7856     8189     8715     9380    10191    11093    11933 
   12564    12915    13004    12856    12454    11851    11232    10855 
   10941    11563    12680    14240    16213    18562    21210    23976 
   26588    28798    30389    31138    30878    29656    27774    25651 
   23695    22223    21399    21229    21572    22172    22733    22994 
   22763    21973    20704    19136    17497    16020    14873    14128 
   13813    13951    14507    15393    16505    17697    18725    19303 
   19262    18611    17429    15768    13665    11228     8713     6466 
    4835     4120     4434     5623     7373     9319    11115    12504 
   13358    13685    13590    13156    12397    11371    10262     9347 
    8874     8949     9516    10462    11681    13059    14483    15812 
   16810    17199    16883    16096    15244    14639    14387    14400 
   14484    14508    14465    14373    14215    13955    13580    13128 
   12649    12195    11828    11586    11486    11607    12082    12950 
   14133    15587    17341    19360    21498    23545    25266    26463 
   27029    26940    26176    24749    22881    21007    19485    18367 
   17473    16675    16046    15741    15790    16056    16333    16441 
   16234    15626    14640    13402    12087    10803     9533     8207 
    6805     5398     4144     3247     2848     2991     3676     4873 
    6471     8282    10100    11751    13101    14099    14828    15399 
   15823    16067    16203    16400    16767    17291    17919    18597 
   19232    19708    19934    19856    19480    18900    18209    17433 
   16614    15835    15180    14743    14607    14820    15385    16216 
   17127    17929    18497    18760    18659    18110    17052    15541 
   13808    12190    10978    10378    10557    11618    13480    15838 
   18249    20304    21731    22374    22116    20893    18819    16229 
   13483    10774     8188     5882     4111     3107     2986     3715 
    5105     6897     8860    10811    12603    14106    15220    15884 
   16028    15575    14549    13150    11702    10518     9760     9442 
    9499     9843    10433    11266    12289    13403    14511    15517 
   16375    17117    17810    18530    19329    20176    20959    21591 
   22102    22657    23431    24388    25252    25757    25852    25606 
   25014    24035    22772    21446    20230    19174    18239    17337 
   16388    15341    14150    12772    11165     9339     7416     5599 
    4100     3081     2616     2735     3438     4627     6090     7614 
    9062    10360    11455    12237    12495    12048    10916     9408 
    7944     6765     5951     5588     5789     6589     7824     9144 
   10232    10969    11455    11904    12478    13200    13949    14489 
   14607    14225    13437    12471    11514    10637     9838     9140 
    8611     8285     8164     8291     8718     9451    10427    11489 
   12406    13006    13297    13415    13442    13317    12980    12547 
   12251    12267    12629    13324    14430    16039    18040    20071 
   21670    22519    22626    22185    21369    20295    19095    17978 
   17155    16681    16410    16147    15812    15470    15216    15056 
   14894    14575    13959    13024    11842    10476     9027     7694 
    6699     6170     6124     6517     7222     8069     8975     9995 
   11224    12686    14265    15719    16863    17691    18274    18647 
   18861    19004    19115    19091    18797    18269    17696    17244 
   16939    16630    16086    15196    14068    12912    11900    11075 
   10384     9826     9535     9665    10245    11160    12253    13418 
   14590    15727    16799    17763    18571    19190    19617    19880 
   20028    20147    20373    20798    21428    22247    23221    24241 
   25161    25838    26113    25853    25035    23739    22070    20123 
   17951    15574    13053    10552     8343     6682     5631     5057 
    4790     4795     5178     6079     7533     9378    11319    13081 
   14483    15432    15899    15936    15698    15398    15232    15343 
   15773    16471    17317    18156    18843    19267    19289    18769 
   17670    16088    14227    12345    10686     9401     8494     7833 
    7292     6857     6584     6526     6732     7220     7920     8701 
    9366     9683     9539     9028     8356     7703     7198     6969 
    7114     7592     8217     8791     9222     9533     9805    10130 
   10568    11139    11834    12596    13289    13778    14025    14087 
   14079    14066    13961    13652    13180    12703    12379    12269 
   12314    12413    12543    12730    12940    13111    13221    13289 
   13346    13366    13254    12915    12349    11659    10986    10477 
   10275    10481    11034    11677    12089    12033    11431    10397 
    9173     7990     6981     6159     5481     4930     4530     4319 
    4294     4368     4433     4466     4534     4733     5104     5547 
    5851     5900     5812     5820     6082     6640     7506     8699 
   10192    11871    13521    14858    15609    15653    15076    14074 
   12854    11562    10252     8939     7657     6390     5044     3557 
    2029      728      -19        6      834     2323     4223     6323 
    8486    10543    12258    13432    13982    13949    13442    12535 
   11239     9619     7921     6541     5864     6128     7323     9169 
   11197    12966    14287    15238    15960    16480    16717    16595 
   16082    15157    13825    12173    10431     8863     7576     6513 
    5666     5167     5187     5790     6859     8151     9475    10783 
   12027    13018    13550    13617    13414    13136    12863    12610 
   12406    12316    12394    12608    12900    13311    13937    14815 
   15831    16707    17158    17064    16518    15771    15079    14572 
   14254    14019    13715    13244    12601    11858    11093    10376 
    9852     9737    10219    11326    12864    14501    15931    16962 
   17507    17604    17393    16993    16359    15338    13895    12240 
   10669     9354     8392     7920     8074     8899    10290    12028 
   13872    15615    17076    18070    18465    18306    17808    17131 
   16230    14990    13428    11740    10186     8949     8169     7982 
    8438     9459    10905    12604    14410    16271    18156    19950 
   21459    22522    23117    23371    23428    23351    23147    22805 
   22301    21554    20406    18745    16670    14392    12015     9529 
    6935     4253     1532    -1060    -3214    -4600    -5030    -4525 
   -3235    -1349      938     3432     5924     8171     9934    11054 
   11523    11478    11145    10765    10546    10625    11084    12016 
   13550    15734    18434    21350    24090    26278    27700    28363 
   28393    27919    27032    25813    24382    22876    21396    20009 
   18782    17783    17042    16567    16408    16677    17441    18642 
   20117    21634    22954    23906    24399    24446    24210    23900 
   23665    23571    23604    23691    23761    23784    23700    23412 
   22866    22087    21150    20173    19302    18724    18639    19103 
   19963    20994    22038    22958    23536    23512    22711    21085 
   18690    15683    12327     8955     5891     3344     1396       72 
    -609     -669     -251      426     1183     1926     2634     3312 
    3944     4531     5133     5823     6629     7517     8425     9285 
   10021    10568    10889    10967    10781    10327     9665     8889 
    8099     7409     6949     6810     6956     7240     7483     7516 
    7231     6653     5954     5410     5330     5979     7442     9532 
   11910    14272    16410    18217    19687    20900    21967    22935 
   23716    24171    24287    24217    24115    23976    23667    23110 
   22354    21520    20734    20096    19667    19458    19427    19473 
   19461    19330    19191    19236    19581    20177    20861    21449 
   21706    21370    20356    18826    17037    15263    13717    12450 
   11364    10334     9325     8453     7937     7887     8115     8207 
    7794     6776     5330     3761     2330     1161      308      -53 
     382     1792     4101     7078    10455    13939    17227    20033 
   22125    23428    24057    24193    23932    23253    22162    20790 
   19271    17631    15867    14074    12463    11287    10701    10653 
   10912    11250    11589    12014    12674    13598    14631    15581 
   16308    16706    16681    16159    15114    13653    12005    10366 
    8788     7228     5651     4104     2670     1381      276     -504 
    -804     -582       92     1076     2186     3273     4283     5251 
    6237     7191     7902     8105     7612     6405     4680     2783 
    1058     -300    -1240    -1733    -1678    -1007      215     1853 
    3786     5885     8049    10211    12238    13920    15117    15853 
   16255    16422    16340    15933    15155    14016    12639    11293 
   10280     9828    10070    10971    12310    13855    15451    16963 
   18307    19485    20472    21161    21501    21600    21588    21472 
   21202    20791    20310    19800    19259    18752    18423    18357 
   18514    18709    18627    18014    16828    15225    13489    11914 
   10704     9931     9542     9406     9365     9316     9248     9192 
    9231     9449     9859    10416    11010    11465    11669    11666 
   11603    11630    11838    12238    12787    13424    14096    14776 
   15500    16354    17424    18718    20132    21492    22595    23249 
   23334    22873    22006    20916    19808    18919    18414    18318 
   18527    18836    19018    18946    18653    18288    18041    18067 
   18405    18904    19244    19092    18302    16956    15239    13402 
   11723    10414     9564     9152     9121     9483    10314    11660 
   13396    15211    16705    17497    17336    16117    13861    10779 
    7300     3998     1426     -102     -565      -66     1282     3377 
    6048     8932    11562    13597    14902    15472    15352    14628 
   13521    12429    11813    11989    12965    14561    16616    19019 
   21614    24145    26298    27809    28507    28309    27230    25422 
   23220    21059    19284    18056    17410    17301    17577    17996 
   18326    18457    18384    18083    17458    16453    15186    13934 
   12961    12386    12217    12481    13262    14544    16060    17400 
   18248    18497    18198    17439    16308    14953    13616    12512 
   11710    11186    10912    10832    10876    11044    11383    11949 
   12796    13930    15291    16719    17951    18737    18935    18523 
   17592    16336    14999    13761    12687    11773    10966    10224 
    9569     9042     8668     8473     8468     8660     8990     9319 
    9536     9599     9451     9018     8362     7730     7441     7718 
    8551     9701    10926    12223    13771    15685    17887    20171 
   22333    24207    25619    26364    26260    25255    23546    21548 
   19638    17977    16561    15345    14290    13343    12411    11443 
   10520     9851     9662    10091    11153    12732    14603    16466 
   17983    18866    18997    18435    17361    16022    14659    13418 
   12379    11650    11369    11582    12163    12855    13422    13743 
   13797    13606    13134    12238    10741     8568     5826     2786 
    -249    -3015    -5241    -6685    -7240    -7011    -6255    -5257 
   -4194    -3128    -2109    -1232     -582     -195      -59     -134 
    -370     -713    -1100    -1412    -1461    -1105     -338      722 
    1837     2716     3206     3395     3542     3856     4341     4827 
    5115     5093     4798     4348     3823     3263     2756     2486 
    2660     3372     4561     6090     7840     9691    11480    13025 
   14182    14868    15063    14808    14198    13348    12453    11799 
   11637    12035    12862    13925    15102    16322    17522    18611 
   19438    19817    19578    18599    16871    14551    11974     9572 
    7715     6614     6311     6698     7596     8859    10402    12128 
   13944    15800    17580    19031    19852    19883    19204    17995 
   16346    14230    11615     8616     5491     2510     -144    -2337 
   -3957    -4914    -5155    -4655    -3380    -1258     1714     5357 
    9314    13209    16795    19935    22526    24520    25971    27026 
   27832    28405    28613    28318    27532    26392    24999    23441 
   21936    20809    20254    20200    20416    20676    20799    20652 
   20173    19359    18229    16844    15340    13878    12597    11621 
   11041    10884    11097    11608    12404    13526    15020    16862 
   18945    21161    23399    25506    27303    28606    29288    29349 
   28874    27953    26645    25018    23249    21589    20193    19060 
   18086    17136    16112    14991    13821    12733    11925    11646 
   12129    13525    15889    19170    23170    27532    31837    35705 
   38802    40840    41666    41316    39980    37863    35088    31742 
   27966    24041    20358    17267    15000    13697    13397    13982 
   15135    16404    17410    17969    18044    17653    16829    15635 
   14216    12741    11360    10206     9465     9385    10147    11699 
   13762    16018    18242    20229    21757    22649    22827    22322 
   21282    19911    18399    16910    15607    14668    14246    14385 
   14990    15875    16834    17710    18443    19024    19390    19444 
   19148    18548    17727    16748    15640    14430    13182    11944 
   10686     9402     8187     7141     6311     5726     5443     5529 
    5964     6669     7617     8818    10243    11826    13463    14977 
   16170    16921    17169    16889    16139    15080    14000    13194 
   12774    12671    12739    12829    12830    12654    12289    11823 
   11379    11029    10726    10351     9862     9307     8795     8467 
    8424     8712     9315    10147    11086    11991    12683    12966 
   12668    11753    10387     8849     7429     6410     6025     6365 
    7353     8826    10657    12792    15196    17761    20234    22251 
   23529    24021    23841    23143    22082    20746    19161    17382 
   15504    13610    11728     9904     8233     6756     5403     4090 
    2821     1742     1091     1017     1409     1948     2382     2674 
    2917     3166     3309     3091     2307      924     -933    -3029 
   -5095    -6820    -7813    -7777    -6700    -4839    -2558     -150 
    2276     4740     7256     9775    12255    14661    16842    18501 
   19364    19367    18688    17620    16353    14876    13074    10872 
    8307     5543     2830      403    -1584    -2963    -3507    -3043 
   -1538      912     4117     7781    11556    15180    18524    21502 
   24017    25941    27130    27518    27134    26037    24356    22350 
   20344    18622    17363    16605    16255    16121    15941    15439 
   14427    12898    11107     9457     8267     7664     7654     8223 
    9316    10736    12179    13426    14455    15351    16153    16774 
   17119    17257    17363    17533    17752    18036    18499    19276 
   20372    21561    22462    22751    22289    21068    19154    16673 
   13802    10760     7852     5491     4135     4125     5529     8110 
   11456    15079    18537    21541    23911    25518    26313    26297 
   25453    23761    21311    18393    15436    12789    10621     9013 
    8051     7780     8216     9355    11078    13095    15064    16780 
   18211    19375    20292    21022    21629    22112    22420    22524 
   22474    22363    22203    21864    21152    19958    18294    16258 
   13998    11685     9451     7376     5545     4112     3255     3032 
    3368     4100     5003     5844     6446     6720     6691     6505 
    6356     6369     6496     6611     6658     6636     6533     6362 
    6180     6022     5889     5790     5725     5696     5760     6035 
    6584     7335     8122     8800     9349     9899    10654    11739 
   13056    14330    15323    15953    16258    16389    16566    16988 
   17788    19015    20608    22460    24521    26769    29107    31314 
   33081    34063    34004    32849    30675    27581    23741    19481 
   15240    11463     8520     6607     5666     5483     5843     6528 
    7258     7766     7968     7962     7853     7627     7186     6477 
    5624     4880     4418     4184     3984     3692     3320     2936 
    2606     2435     2586     3220     4364     5811     7220     8319 
    9010     9296     9199     8741     7961     6885     5514     3890 
    2169      604     -589    -1334    -1709    -1863    -1910    -1868 
   -1718    -1464    -1107     -642     -117      365      752     1099 
    1509     2034     2669     3429     4363     5492     6719     7806 
    8562     8999     9275     9548     9848    10081    10144    10025 
    9768     9398     8929     8428     8034     7898     8086     8585 
    9368    10364    11432    12401    13123    13543    13727    13811 
   13909    14087    14419    14988    15812    16800    17839    18928 
   20167    21590    23090    24477    25566    26238    26436    26148 
   25430    24363    22980    21271    19248    16904    14178    11094 
    7853     4778     2234      549      -46      563     2334     5050 
    8387    12016    15701    19323    22843    26249    29484    32426 
   34933    36931    38422    39403    39776    39373    38055    35780 
   32697    29170    25673    22577    20056    18190    17019    16469 
   16344    16430    16567    16623    16449    15978    15299    14557 
   13880    13361    13020    12794    12606    12468    12498    12845 
   13558    14520    15524    16425    17177    17791    18297    18733 
   19152    19606    20073    20405    20386    19929    19183    18437 
   17915    17640    17486    17349    17222    17113    16987    16822 
   16673    16619    16659    16654    16392    15723    14566    12864 
   10633     8038     5410     3133     1506      711      806     1727 
    3356     5570     8238    11209    14324    17389    20126    22187 
   23226    22997    21419    18618    14957    10962     7158     3933 
    1504      -61     -788     -755      -82     1111     2705     4572 
    6597     8676    10662    12307    13318    13502    12891    11807 
   10751    10144    10154    10733    11771    13162    14777    16472 
   18112    19601    20896    21942    22605    22720    22186    21030 
   19385    17403    15185    12854    10615     8645     6960     5450 
    4011     2645     1464      588      102      117      801     2302 
    4673     7831    11550    15459    19114    22174    24451    25794 
   26012    24914    22403    18588    13805     8541     3342    -1271 
   -4881    -7214    -8109    -7455    -5287    -1946     1969     5840 
