Origin Time       2011/03/11 14:46:00
Lat.              38.103
Long.             142.860
Depth. (km)       24
Mag.              9.0
Station Code      HKD101
Station Lat.      43.3338
Station Long.     142.9473
Station Height(m) 370
Record Time       2011/03/11 14:49:03
Sampling Freq(Hz) 100Hz
Duration Time(s)  219
Dir.              U-D
Scale Factor      3920(gal)/6182761
Max. Acc. (gal)   3.018
Last Correction   2011/03/11 14:48:48
Memo.             
[...]
  -15886   -15973   -15843   -15535   -15259   -15068   -14957   -14952 
  -14795   -14421   -14293   -14418   -14382   -14316   -14489   -14676 
  -14616   -14420   -14218   -13998   -13935   -14040   -13968   -13778 
  -13690   -13540   -13441   -13655   -13848   -13771   -13740   -13841 
  -13863   -13879   -13991   -14180   -14378   -14418   -14331   -14201 
  -13998   -13939   -14131   -14245   -14120   -13926   -13851   -13938 
  -13983   -13873   -13795   -13712   -13511   -13524   -13917   -14342 
  -14593   -14763   -14897   -15044   -15331   -15561   -15477   -15430 
  -15710   -15984   -16003   -15867   -15747   -15773   -15861   -15853 
  -15803   -15805   -15802   -15640   -15436   -15478   -15559   -15516 
  -15668   -15929   -16078   -16265   -16405   -16372   -16344   -16496 
  -16761   -16787   -16615   -16767   -17189   -17458   -17543   -17406 
  -17094   -16990   -17037   -16875   -16643   -16575   -16581   -16638 
  -16769   -16723   -16398   -16160   -16220   -16463   -16694   -16654 
  -16374   -16237   -16387   -16640   -16864   -16958   -16822   -16601 
  -16524   -16589   -16650   -16568   -16401   -16475   -16897   -17321 
  -17503   -17525   -17498   -17518   -17549   -17483   -17386   -17275 
  -17083   -16959   -17006   -17149   -17420   -17754   -17951   -18003 
  -17948   -17795   -17645   -17584   -17569   -17448   -17266   -17138 
  -16952   -16654   -16342   -16215   -16417   -16633   -16587   -16417 
  -16200   -16081   -16247   -16447   -16552   -16791   -17016   -17019 
  -17069   -17236   -17311   -17382   -17564   -17770   -17884   -17816 
  -17686   -17712   -17848   -17841   -17577   -17297   -17151   -16938 
  -16766   -16914   -17035   -16767   -16483   -16500   -16588   -16615 
  -16596   -16405   -16128   -15923   -15739   -15582   -15403   -15149 
  -14980   -14862   -14659   -14576   -14714   -14836   -14767   -14546 
  -14258   -13931   -13668   -13565   -13357   -12911   -12627   -12671 
  -12719   -12643   -12573   -12552   -12572   -12632   -12709   -12845 
  -13057   -13270   -13460   -13622   -13774   -14048   -14363   -14507 
  -14636   -14880   -15017   -14996   -14974   -14957   -14969   -15109 
  -15260   -15337   -15438   -15455   -15235   -14920   -14698   -14667 
  -14807   -14900   -14920   -14982   -14919   -14817   -14974   -15188 
  -15407   -15857   -16181   -16108   -16008   -16011   -15945   -15959 
  -16265   -16647   -16754   -16682   -16741   -16840   -16811   -16808 
  -16837   -16850   -16984   -17171   -17327   -17538   -17675   -17653 
  -17675   -17707   -17645   -17749   -17974   -17856   -17483   -17327 
  -17297   -17033   -16715   -16636   -16590   -16418   -16409   -16657 
  -16814   -16731   -16647   -16678   -16780   -17015   -17312   -17538 
  -17675   -17592   -17312   -17171   -17302   -17569   -17792   -17808 
  -17615   -17341   -17129   -17053   -16983   -16866   -16716   -16297 
  -15690   -15387   -15340   -15220   -15143   -15215   -15267   -15137 
  -14806   -14554   -14572   -14622   -14557   -14405   -14167   -14030 
  -14041   -13957   -13874   -13910   -13752   -13492   -13422   -13218 
  -12883   -12883   -12989   -12953   -13095   -13371   -13492   -13505 
  -13624   -13981   -14329   -14374   -14300   -14235   -14067   -13925 
  -13956   -14104   -14209   -14198   -14286   -14423   -14306   -14157 
  -14166   -14155   -14277   -14579   -14686   -14498   -14214   -14099 
  -14287   -14506   -14575   -14706   -14874   -14921   -15094   -15507 
  -15811   -15892   -15970   -16102   -16221   -16371   -16589   -16790 
  -16838   -16729   -16655   -16823   -17222   -17492   -17420   -17397 
  -17598   -17668   -17611   -17664   -17779   -17867   -17784   -17493 
  -17352   -17450   -17479   -17427   -17359   -17166   -16871   -16593 
  -16470   -16513   -16540   -16504   -16351   -16036   -15934   -16181 
  -16417   -16575   -16640   -16543   -16646   -16976   -17102   -17116 
  -17251   -17356   -17469   -17731   -17866   -17695   -17473   -17299 
  -17133   -17110   -17211   -17208   -17016   -16798   -16683   -16585 
  -16446   -16288   -16134   -16031   -15954   -15962   -16259   -16658 
  -16733   -16592   -16530   -16559   -16649   -16666   -16598   -16675 
  -16823   -16924   -17143   -17362   -17235   -16830   -16480   -16264 
  -16080   -15932   -15811   -15627   -15418   -15240   -15075   -15106 
  -15359   -15329   -14853   -14539   -14665   -14909   -15162   -15388 
  -15386   -15297   -15389   -15486   -15425   -15347   -15203   -14956 
  -14870   -14962   -15023   -15056   -15078   -15039   -14986   -14940 
  -14923   -15027   -15184   -15136   -14892   -14817   -14937   -14923 
  -14696   -14418   -14295   -14400   -14583   -14768   -14953   -15080 
  -15165   -15207   -15139   -15059   -15099   -15150   -15119   -15103 
  -15159   -15270   -15353   -15369   -15465   -15593   -15522   -15367 
  -15291   -15262   -15343   -15421   -15371   -15455   -15637   -15625 
  -15613   -15785   -16010   -16260   -16439   -16420   -16396   -16485 
  -16523   -16445   -16273   -16109   -16114   -16200   -16254   -16288 
  -16278   -16420   -16759   -16908   -16920   -17067   -17122   -17101 
  -17245   -17385   -17446   -17471   -17349   -17122   -16834   -16524 
  -16361   -16314   -16229   -16061   -15863   -15745   -15699   -15739 
  -15909   -16032   -16008   -15972   -16008   -16173   -16344   -16270 
  -16083   -15888   -15458   -15080   -15173   -15292   -15177   -15248 
  -15500   -15743   -16036   -16275   -16467   -16686   -16803   -16864 
  -16974   -17079   -17128   -17097   -17046   -16994   -16851   -16668 
  -16548   -16547   -16701   -16834   -16783   -16654   -16495   -16307 
  -16198   -16216   -16360   -16481   -16355   -16173   -16232   -16383 
  -16421   -16395   -16392   -16354   -16142   -15883   -15849   -15942 
  -15872   -15647   -15434   -15284   -15237   -15233   -15044   -14711 
  -14476   -14278   -14052   -13912   -13836   -13855   -13961   -13847 
  -13501   -13221   -12987   -12795   -12899   -13323   -13782   -13979 
  -13939   -13966   -14136   -14230   -14207   -14210   -14248   -14308 
  -14445   -14650   -14894   -14991   -14768   -14492   -14373   -14339 
  -14576   -15049   -15227   -14992   -14712   -14612   -14604   -14522 
  -14457   -14419   -14221   -13999   -14045   -14427   -14831   -14791 
  -14505   -14494   -14679   -14887   -15067   -15061   -15063   -15178 
  -15064   -14867   -15027   -15337   -15449   -15502   -15590   -15549 
  -15523   -15843   -16330   -16621   -16895   -17339   -17528   -17296 
  -17060   -16888   -16694   -16669   -16759   -16815   -16827   -16659 
  -16398   -16300   -16297   -16364   -16496   -16460   -16248   -16023 
  -15925   -16084   -16256   -16111   -15820   -15575   -15358   -15313 
  -15453   -15545   -15491   -15295   -15048   -14864   -14708   -14660 
  -14819   -14957   -15026   -15131   -14918   -14371   -14180   -14413 
  -14551   -14661   -14886   -14882   -14746   -14854   -14922   -14820 
  -14890   -14974   -14893   -14948   -15150   -15319   -15503   -15758 
  -16043   -16154   -16025   -15994   -16178   -16288   -16286   -16409 
  -16563   -16489   -16306   -16157   -15960   -15859   -15972   -16002 
  -15892   -15871   -15777   -15550   -15548   -15671   -15613   -15620 
  -15814   -15953   -16002   -16004   -15980   -16061   -16218   -16292 
  -16287   -16268   -16356   -16664   -16876   -16808   -16906   -17190 
  -17255   -17232   -17257   -17278   -17579   -18095   -18266   -18061 
  -17900   -17999   -18300   -18513   -18437   -18310   -18335   -18432 
  -18627   -18782   -18602   -18272   -17995   -17646   -17314   -17121 
  -17036   -17072   -17082   -16973   -16845   -16612   -16278   -16161 
  -16279   -16270   -16091   -16079   -16322   -16568   -16709   -16798 
  -16910   -17179   -17513   -17606   -17486   -17475   -17565   -17467 
  -17208   -17148   -17418   -17676   -17576   -17275   -17112   -17074 
  -16957   -16810   -16833   -16953   -16943   -16834   -16876   -17035 
  -16979   -16765   -16684   -16539   -16202   -16005   -15939   -15889 
  -16148   -16523   -16516   -16350   -16336   -16339   -16256   -16061 
  -15931   -16111   -16349   -16388   -16505   -16810   -17016   -17081 
  -17159   -17234   -17329   -17480   -17557   -17519   -17403   -17229 
  -17118   -17093   -17058   -17117   -17452   -17892   -18090   -18094 
  -18193   -18411   -18659   -18835   -18833   -18847   -18993   -18980 
  -18864   -18968   -19080   -18969   -18799   -18642   -18562   -18580 
  -18469   -18307   -18257   -18212   -18262   -18317   -18056   -17782 
  -17734   -17583   -17414   -17394   -17226   -17086   -17222   -17220 
  -17083   -17199   -17396   -17400   -17188   -16873   -16729   -16782 
  -16676   -16208   -15594   -15196   -15060   -14997   -15006   -14956 
  -14750   -14689   -14753   -14757   -14870   -14957   -14829   -14769 
  -14771   -14702   -14847   -15085   -15122   -15302   -15640   -15730 
  -15765   -16017   -16315   -16489   -16487   -16441   -16519   -16590 
  -16528   -16432   -16392   -16411   -16476   -16611   -16809   -16991 
  -17179   -17279   -17130   -16898   -16726   -16647   -16786   -17010 
  -17193   -17463   -17721   -17882   -18012   -17984   -17874   -17967 
  -18140   -18144   -18087   -18210   -18565   -18898   -18937   -18772 
  -18574   -18409   -18463   -18706   -18810   -18700   -18547   -18455 
  -18406   -18339   -18232   -18088   -18024   -18114   -18181   -18256 
  -18519   -18717   -18636   -18486   -18345   -18205   -18235   -18315 
  -18239   -18164   -18168   -18194   -18126   -17896   -17932   -18363 
  -18597   -18554   -18589   -18640   -18682   -18822   -18865   -18697 
  -18494   -18285   -18027   -17822   -17664   -17539   -17472   -17290 
  -17054   -17013   -16972   -16769   -16572   -16462   -16520   -16593 
  -16319   -15901   -15704   -15592   -15512   -15572   -15585   -15372 
  -15090   -15012   -15032   -14888   -14814   -14947   -15055   -15239 
  -15521   -15695   -15903   -16074   -15950   -15848   -16068   -16402 
  -16681   -16828   -16706   -16428   -16341   -16523   -16696   -16720 
  -16762   -16887   -16951   -16966   -17058   -17088   -16859   -16608 
  -16611   -16655   -16535   -16368   -16176   -15888   -15543   -15380 
  -15595   -15918   -16036   -16040   -15961   -15690   -15379   -15207 
  -15099   -14970   -14855   -14762   -14670   -14567   -14496   -14510 
  -14451   -14198   -14061   -14209   -14317   -14349   -14542   -14739 
  -14786   -14902   -15086   -15137   -15233   -15454   -15453   -15243 
  -15121   -15003   -14835   -14781   -14734   -14622   -14540   -14351 
  -14061   -13927   -13981   -14095   -14148   -14078   -13991   -14017 
  -13964   -13682   -13471   -13392   -13220   -13089   -13074   -13065 
  -13148   -13288   -13393   -13507   -13560   -13586   -13603   -13467 
  -13462   -13857   -14245   -14322   -14289   -14365   -14558   -14693 
  -14699   -14754   -14951   -15155   -15253   -15399   -15678   -15823 
  -15796   -15897   -16061   -16110   -16234   -16406   -16374   -16199 
  -15933   -15613   -15494   -15593   -15687   -15721   -15719   -15633 
  -15457   -15308   -15268   -15271   -15215   -15104   -15067   -15131 
  -15144   -15091   -15042   -14967   -14856   -14762   -14743   -14715 
  -14598   -14621   -14781   -14725   -14583   -14597   -14580   -14436 
  -14183   -13985   -14190   -14603   -14798   -14836   -14712   -14352 
  -14096   -14137   -14304   -14443   -14447   -14348   -14239   -14159 
  -14271   -14571   -14783   -14822   -14762   -14732   -14927   -15227 
  -15440   -15690   -15851   -15789   -15798   -15771   -15489   -15380 
  -15511   -15492   -15491   -15719   -15948   -16094   -16152   -16125 
  -16240   -16435   -16505   -16652   -16845   -16784   -16604   -16522 
  -16516   -16447   -16129   -15723   -15431   -15084   -14763   -14664 
  -14515   -14237   -14138   -14177   -14181   -14215   -14211   -14007 
  -13724   -13493   -13285   -13221   -13404   -13561   -13367   -12930 
  -12655   -12608   -12580   -12595   -12624   -12566   -12638   -12865 
  -12921   -12824   -12824   -12868   -12917   -13213   -13745   -14124 
  -14299   -14512   -14748   -14979   -15192   -15250   -15246   -15294 
  -15295   -15286   -15344   -15357   -15194   -14856   -14570   -14531 
  -14563   -14497   -14429   -14284   -14002   -13860   -13876   -13731 
  -13537   -13540   -13472   -13226   -13140   -13167   -13026   -12838 
  -12811   -12991   -13208   -13129   -12854   -12788   -12786   -12587 
  -12409   -12320   -12198   -12178   -12217   -12188   -12309   -12531 
  -12610   -12643   -12770   -13120   -13661   -14053   -14241   -14331 
  -14147   -13780   -13690   -13882   -13953   -13847   -13823   -14021 
  -14426   -14980   -15547   -15949   -16183   -16354   -16497   -16576 
  -16528   -16395   -16332   -16383   -16465   -16618   -16896   -17002 
  -16791   -16731   -16950   -17008   -16890   -16875   -16931   -16914 
  -16847   -16841   -16843   -16781   -16804   -16831   -16720   -16829 
  -17189   -17272   -17135   -17148   -17220   -17308   -17496   -17624 
  -17546   -17337   -17146   -16974   -16753   -16621   -16609   -16440 
  -16206   -16240   -16387   -16511   -16755   -17016   -17253   -17470 
  -17475   -17465   -17700   -17988   -18252   -18516   -18636   -18622 
  -18668   -18836   -18968   -18981   -19101   -19457   -19717   -19675 
  -19629   -19659   -19577   -19536   -19653   -19804   -19924   -19937 
  -19898   -19971   -20037   -19998   -20066   -20244   -20341   -20487 
  -20802   -21038   -20948   -20542   -20094   -19869   -19828   -19911 
  -20036   -20091   -20217   -20277   -19947   -19490   -19159   -18882 
  -18765   -18757   -18686   -18640   -18581   -18422   -18313   -18298 
  -18358   -18528   -18659   -18604   -18478   -18474   -18528   -18469 
  -18388   -18396   -18511   -18723   -18781   -18620   -18596   -18683 
  -18528   -18345   -18450   -18620   -18711   -18783   -18632   -18287 
  -18156   -18234   -18221   -18226   -18446   -18625   -18525   -18388 
  -18394   -18349   -18246   -18276   -18409   -18556   -18663   -18658 
  -18617   -18640   -18716   -18820   -18874   -18813   -18712   -18639 
  -18547   -18456   -18390   -18317   -18244   -18066   -17816   -17819 
  -17965   -17963   -17988   -18037   -17988   -18098   -18290   -18261 
  -18163   -18091   -17938   -17766   -17650   -17610   -17559   -17380 
  -17215   -17132   -16928   -16633   -16459   -16353   -16246   -16146 
  -15948   -15775   -15780   -15713   -15518   -15432   -15368   -15213 
  -15086   -15027   -15005   -14980   -14907   -14818   -14766   -14731 
  -14625   -14386   -14150   -14150   -14242   -14172   -14132   -14161 
  -14016   -13893   -13991   -14056   -13971   -13900   -13902   -13915 
  -13940   -14015   -14067   -13992   -13848   -13773   -13869   -14152 
  -14420   -14505   -14516   -14548   -14586   -14674   -14898   -15263 
  -15592   -15767   -15938   -16108   -16166   -16323   -16588   -16688 
  -16812   -17048   -17086   -17060   -17135   -17136   -17172   -17273 
  -17295   -17425   -17618   -17688   -17752   -17722   -17631   -17761 
  -17883   -17787   -17751   -17798   -17806   -17850   -17821   -17695 
  -17663   -17554   -17285   -17134   -17088   -17020   -16914   -16678 
  -16462   -16552   -16778   -16764   -16549   -16428   -16426   -16414 
  -16377   -16216   -15913   -15768   -15884   -16032   -16121   -16166 
  -16123   -15966   -15661   -15274   -14990   -14844   -14745   -14606 
  -14467   -14578   -14932   -15123   -15047   -14952   -14872   -14789 
  -14791   -14799   -14753   -14790   -14922   -15068   -15324   -15689 
  -15915   -15908   -15866   -15960   -16178   -16481   -16796   -17029 
  -17208   -17342   -17372   -17416   -17666   -17969   -17985   -17916 
  -18155   -18414   -18415   -18413   -18390   -18142   -17886   -17836 
  -17810   -17691   -17646   -17667   -17590   -17492   -17553   -17786 
  -18108   -18356   -18349   -18231   -18270   -18351   -18292   -18203 
  -18262   -18500   -18779   -18971   -19048   -19092   -19292   -19617 
  -19865   -20033   -20083   -19980   -20066   -20471   -20789   -20822 
  -20748   -20670   -20563   -20396   -20235   -20235   -20396   -20478 
  -20355   -20167   -20010   -19957   -20120   -20215   -19891   -19475 
  -19353   -19313   -19131   -18982   -18971   -18871   -18585   -18252 
  -17938   -17725   -17680   -17704   -17724   -17682   -17449   -17134 
  -16979   -16933   -16916   -16963   -16906   -16715   -16672   -16668 
  -16479   -16380   -16480   -16480   -16359   -16362   -16462   -16399 
  -16196   -16073   -16055   -16120   -16269   -16431   -16658   -16979 
  -17157   -17108   -17095   -17141   -17047   -16908   -16900   -17012 
  -17149   -17170   -17073   -17004   -17011   -17098   -17166   -17009 
  -16853   -17002   -17069   -16865   -16752   -16627   -16385   -16338 
  -16313   -16119   -16103   -16148   -15904   -15738   -15914   -15980 
  -15755   -15647   -15802   -15939   -15849   -15675   -15757   -16082 
  -16253   -16095   -15788   -15535   -15442   -15520   -15694   -15843 
  -15876   -15828   -15808   -15905   -16103   -16207   -16071   -15852 
  -15803   -15918   -16039   -16189   -16421   -16656   -16802   -16799 
  -16694   -16657   -16699   -16669   -16551   -16460   -16547   -16923 
  -17307   -17295   -17057   -16910   -16788   -16677   -16663   -16678 
  -16647   -16468   -16147   -15965   -15987   -16045   -16179   -16295 
  -16204   -16124   -16262   -16458   -16549   -16492   -16277   -16070 
  -16043   -16037   -15884   -15673   -15430   -15188   -15045   -14892 
  -14719   -14761   -14962   -15044   -15036   -15013   -14902   -14780 
  -14746   -14801   -14961   -15129   -15251   -15425   -15470   -15216 
  -15089   -15267   -15320   -15214   -15284   -15542   -15798   -15938 
  -15971   -16000   -16088   -16191   -16215   -16115   -15989   -15946 
  -16016   -16222   -16384   -16335   -16328   -16520   -16662   -16643 
  -16557   -16397   -16195   -16071   -15976   -15861   -15857   -15935 
  -15982   -16037   -16033   -15978   -15953   -15804   -15598   -15601 
  -15658   -15617   -15600   -15506   -15274   -15136   -15123   -15106 
  -15104   -15128   -15132   -15164   -15281   -15377   -15404   -15550 
  -15791   -15889   -15925   -16058   -16168   -16279   -16514   -16732 
  -16859   -16961   -16937   -16748   -16520   -16363   -16402   -16587 
  -16635   -16454   -16272   -16231   -16216   -16146   -16132   -16265 
  -16447   -16596   -16756   -16817   -16723   -16679   -16698   -16667 
  -16663   -16699   -16724   -16821   -16965   -17049   -17045   -16891 
  -16700   -16694   -16771   -16786   -16804   -16809   -16739   -16705 
  -16731   -16662   -16552   -16531   -16454   -16316   -16343   -16438 
  -16404   -16380   -16403   -16229   -15975   -15976   -16071   -16049 
  -16081   -16185   -16268   -16376   -16438   -16478   -16642   -16792 
  -16802   -16788   -16807   -16845   -16922   -17084   -17291   -17366 
  -17300   -17257   -17249   -17223   -17191   -17229   -17373   -17424 
  -17279   -17208   -17263   -17206   -17162   -17321   -17402   -17229 
  -17102   -17179   -17214   -17088   -16981   -16955   -16934   -16924 
  -16912   -16878   -16907   -17063   -17293   -17414   -17259   -17075 
  -17152   -17242   -17225   -17353   -17516   -17470   -17366   -17368 
  -17449   -17485   -17375   -17282   -17337   -17433   -17615   -17858 
