Origin Time       2011/03/11 14:46:00
Lat.              38.103
Long.             142.860
Depth. (km)       24
Mag.              9.0
Station Code      HKD124
Station Lat.      42.9986
Station Long.     141.7903
Station Height(m) 38
Record Time       2011/03/11 14:48:16
Sampling Freq(Hz) 100Hz
Duration Time(s)  300
Dir.              U-D
Scale Factor      3920(gal)/6182761
Max. Acc. (gal)   7.510
Last Correction   2011/03/11 14:48:01
Memo.             
[...]
   12459    12238    11634    11011    10646    10403    10018     9437 
    8837     8429     8263     8163     7986     7853     7874     7931 
    7957     7985     7928     7724     7519     7430     7342     7194 
    7126     7247     7522     7735     7584     7106     6637     6325 
    6142     6091     6091     5962     5576     4949     4270     3700 
    3171     2610     2093     1688     1393     1181     1034     1043 
    1328     1761     2037     2068     2107     2460     3057     3513 
    3589     3376     3131     3032     3032     3003     2919     2860 
    2957     3197     3343     3324     3348     3440     3406     3251 
    3172     3303     3597     3955     4429     5034     5589     5947 
    6058     5907     5640     5495     5554     5648     5583     5451 
    5493     5692     5813     5826     5916     6172     6534     6977 
    7522     8060     8457     8735     8889     8941     9109     9396 
    9538     9509     9555     9791    10016    10041    10045    10265 
   10604    10885    11160    11541    11906    12035    12021    12152 
   12462    12748    12922    13028    13004    12856    12803    12867 
   12837    12670    12540    12631    12921    13192    13341    13426 
   13471    13446    13326    13193    13198    13310    13329    13181 
   12982    12843    12825    12953    13117    13087    12808    12480 
   12251    12057    11837    11652    11509    11254    10809    10423 
   10414    10728    11023    11068    10900    10746    10734    10787 
   10880    11039    11195    11295    11311    11268    11292    11357 
   11351    11307    11253    11166    11106    11183    11435    11762 
   11968    11994    12008    12143    12286    12247    12011    11694 
   11402    11215    11157    11198    11337    11544    11640    11538 
   11424    11378    11303    11274    11368    11478    11523    11526 
   11610    11925    12382    12690    12704    12507    12270    12053 
   11778    11426    11067    10759    10517    10362    10329    10330 
   10252    10190    10246    10258     9958     9305     8554     7980 
    7657     7493     7396     7273     7011     6704     6558     6536 
    6486     6418     6365     6230     5978     5726     5541     5401 
    5362     5524     5880     6349     6790     7059     7177     7195 
    7049     6742     6449     6340     6391     6534     6855     7369 
    7945     8480     8847     8978     8908     8663     8409     8313 
    8224     7990     7689     7338     6807     6034     5120     4256 
    3569     3012     2552     2269     2126     1969     1821     1836 
    2069     2431     2749     2947     3121     3326     3496     3602 
    3703     3861     4060     4203     4244     4205     4070     3876 
    3746     3731     3800     3974     4340     4859     5251     5348 
    5328     5403     5514     5449     5205     5102     5343     5675 
    5804     5798     5908     6341     7065     7694     7889     7860 
    8046     8432     8724     8893     9107     9533    10152    10694 
   10944    10911    10721    10507    10361    10337    10397    10443 
   10494    10691    11106    11618    12021    12180    12062    11669 
   11107    10622    10334    10128     9875     9555     9156     8650 
    8101     7591     7073     6473     5818     5211     4800     4645 
    4656     4766     5010     5403     5907     6417     6807     7033 
    7177     7449     7934     8386     8620     8754     8947     9220 
    9448     9572     9767    10092    10324    10342    10187     9877 
    9484     9152     8894     8620     8324     8081     7976     8137 
    8527     8784     8698     8504     8486     8721     9140     9624 
   10139    10753    11447    12045    12440    12689    12882    13042 
   13168    13316    13576    13958    14398    14845    15263    15589 
   15787    15865    15820    15700    15585    15473    15347    15238 
   15092    14773    14327    13976    13760    13531    13174    12655 
   12060    11520    10979    10270     9454     8685     7941     7200 
    6506     5887     5338     4787     4260     3984     4098     4458 
    4747     4771     4612     4370     4030     3712     3613     3678 
    3730     3746     3846     4121     4398     4399     4192     4080 
    4158     4334     4560     4789     4942     4985     4972     4992 
    5027     4960     4696     4279     3874     3547     3309     3198 
    3139     3047     2892     2635     2320     2025     1769     1566 
    1437     1395     1380     1293     1157     1111     1204     1434 
    1819     2237     2519     2806     3294     3802     4041     4035 
    4100     4475     5007     5354     5410     5412     5561     5758 
    5926     6199     6576     6884     7122     7393     7707     8139 
    8785     9474     9951    10164    10202    10233    10428    10746 
   10972    11002    10937    10876    10736    10431    10127    10058 
   10230    10553    10954    11305    11502    11508    11322    11025 
   10746    10559    10404    10146     9807     9574     9508     9506 
    9524     9581     9650     9755     9955    10212    10469    10708 
   10852    10819    10720    10680    10531    10095     9577     9336 
    9443     9680     9898    10071    10151    10168    10160    10009 
    9642     9155     8670     8245     7842     7415     7051     6804 
    6532     6130     5769     5642     5597     5388     5117     5017 
    5086     5234     5412     5542     5591     5602     5650     5794 
    6010     6272     6629     7144     7783     8335     8573     8488 
    8338     8418     8685     8848     8824     8863     9101     9335 
    9437     9529     9627     9568     9284     8862     8388     7944 
    7722     7845     8148     8428     8688     8905     8874     8518 
    8113     7913     7792     7482     7058     6872     7024     7276 
    7458     7637     7846     7948     7894     7842     7885     7947 
    8051     8363     8842     9208     9367     9479     9608     9667 
    9580     9357     9165     9196     9403     9589     9653     9599 
    9518     9511     9539     9538     9530     9519     9436     9265 
    9211     9414     9557     9305     8879     8684     8786     9031 
    9236     9342     9501     9819    10203    10544    10796    10948 
   11018    11027    11016    11046    11118    11200    11309    11421 
   11532    11782    12172    12509    12672    12649    12495    12307 
   12098    11906    11829    11808    11708    11596    11658    11868 
   11908    11609    11170    10887    10884    10943    10743    10355 
   10067     9937     9857     9735     9518     9300     9266     9360 
    9367     9356     9602    10127    10707    11174    11466    11585 
   11614    11597    11433    11126    10842    10616    10371    10197 
   10284    10551    10681    10546    10234     9853     9510     9264 
    8996     8550     8026     7670     7589     7694     7807     7735 
    7412     7040     6876     6922     7057     7173     7223     7335 
    7636     8066     8501     8820     8887     8671     8320     8062 
    8053     8223     8341     8334     8343     8423     8488     8490 
    8425     8406     8604     8880     9043     9203     9384     9456 
    9394     9260     9182     9232     9315     9423     9660    10039 
   10455    10780    10917    10889    10857    10856    10774    10660 
   10647    10784    11112    11594    12058    12345    12428    12432 
   12501    12574    12402    11847    11130    10607    10391    10340 
   10177     9687     8995     8405     8037     7787     7526     7263 
    7073     6940     6832     6808     6954     7215     7352     7211 
    6922     6678     6479     6292     6212     6288     6434     6610 
    6899     7341     7814     8137     8321     8603     9071     9522 
    9775     9856     9905     9999    10110    10185    10207    10184 
   10112    10034    10048    10180    10377    10595    10774    10853 
   10872    10872    10727    10370     9989     9782     9724     9702 
    9682     9615     9458     9282     9149     8939     8515     8019 
    7670     7493     7492     7646     7759     7634     7288     6972 
    6902     6968     6891     6646     6424     6233     5949     5601 
    5302     5100     4932     4776     4752     4860     4895     4667 
    4231     3917     3902     3983     3948     3846     3805     3800 
    3699     3511     3402     3517     3907     4417     4699     4635 
    4497     4495     4584     4796     5241     5759     6089     6227 
    6263     6285     6417     6558     6506     6388     6397     6513 
    6757     7168     7725     8398     8968     9189     9182     9257 
    9468     9705     9974    10227    10260     9940     9368     8836 
    8561     8487     8435     8332     8260     8236     8136     7899 
    7617     7466     7547     7795     8112     8377     8431     8276 
    8118     8073     8029     7875     7625     7288     6894     6560 
    6311     5998     5574     5206     4975     4744     4411     4069 
    3938     4121     4481     4820     4999     4938     4642     4257 
    4068     4228     4650     5172     5647     6030     6362     6581 
    6639     6634     6622     6509     6202     5812     5560     5446 
    5331     5272     5398     5646     5946     6378     6972     7578 
    8022     8252     8286     8205     8218     8517     9081     9737 
   10357    10912    11422    11934    12398    12610    12508    12316 
   12292    12489    12724    12736    12471    12220    12276    12540 
   12698    12562    12151    11647    11227    10965    10902    10995 
   11023    10828    10536    10322    10206    10151    10113    10106 
   10219    10433    10651    10860    11021    11026    10917    10855 
   10868    10928    11101    11366    11586    11764    12037    12459 
   12954    13402    13720    13905    14054    14248    14401    14456 
   14553    14744    14969    15261    15612    15891    16022    16072 
   16099    16125    16207    16322    16404    16485    16535    16460 
   16281    16056    15813    15619    15514    15411    15173    14787 
   14466    14395    14461    14397    14090    13698    13452    13406 
   13451    13453    13329    13066    12712    12365    12112    11946 
   11747    11376    10824    10197     9567     9040     8678     8302 
    7753     7105     6497     6054     5811     5648     5470     5292 
    5125     4942     4709     4432     4132     3766     3323     2902 
    2572     2319     2141     2065     2129     2319     2481     2483 
    2444     2535     2688     2729     2676     2681     2767     2870 
    2954     2960     2920     2944     2960     2863     2747     2739 
    2819     2850     2765     2689     2804     3208     3777     4179 
    4258     4246     4385     4584     4653     4612     4544     4488 
    4484     4550     4660     4789     4930     5130     5515     6039 
    6491     6952     7636     8398     8999     9352     9442     9407 
    9420     9498     9589     9677     9792     9932    10049    10159 
   10271    10302    10203    10076    10079    10190    10202    10017 
    9690     9252     8717     8163     7749     7647     7848     8144 
    8322     8324     8321     8499     8754     8877     8828     8657 
    8387     8033     7709     7589     7652     7722     7725     7723 
    7717     7665     7651     7731     7781     7757     7775     7887 
    8095     8455     8980     9522     9848     9859     9684     9513 
    9443     9526     9798    10139    10320    10274    10094     9808 
    9410     9039     8841     8763     8659     8521     8505     8682 
    8845     8788     8591     8366     8053     7674     7388     7264 
    7227     7156     6992     6806     6663     6480     6183     5875 
    5690     5584     5403     5111     4874     4846     4969     5086 
    5175     5294     5378     5331     5249     5284     5417     5593 
    5855     6244     6675     7014     7199     7286     7439     7772 
    8244     8731     9031     9043     9036     9370     9992    10494 
   10698    10853    11081    11195    11179    11203    11283    11293 
   11217    11155    11069    10852    10560    10362    10380    10567 
   10663    10461    10032     9606     9389     9370     9301     9029 
    8623     8251     8074     8022     7815     7338     6754     6277 
    6044     6062     6187     6252     6302     6514     6864     7205 
    7463     7582     7596     7633     7789     8082     8449     8837 
    9253     9661     9918     9915     9715     9466     9307     9338 
    9497     9571     9459     9309     9263     9261     9164     8981 
    8853     8841     8842     8765     8700     8780     8947     9086 
    9199     9343     9552     9767     9824     9614     9247     8929 
    8678     8384     7991     7481     6912     6412     6071     5898 
    5838     5879     6049     6270     6391     6375     6263     6026 
    5631     5193     4866     4656     4577     4691     4826     4754 
    4538     4332     4222     4264     4406     4578     4825     5189 
    5599     5990     6367     6685     6879     6976     7011     7077 
    7371     7899     8420     8756     8993     9387     9989    10568 
   10966    11274    11646    12043    12354    12642    12980    13243 
   13303    13238    13278    13567    13996    14403    14759    15104 
   15458    15885    16475    17146    17681    18043    18341    18619 
   18934    19360    19845    20216    20370    20376    20310    20175 
   20029    19949    19943    19965    19941    19854    19759    19714 
   19717    19674    19446    18988    18408    17847    17457    17309 
   17207    16982    16691    16340    15847    15269    14806    14532 
   14274    13859    13385    13165    13266    13368    13228    12852 
   12332    11832    11452    11153    10920    10760    10620    10441 
   10213     9998     9804     9451     8891     8477     8421     8465 
    8379     8139     7748     7328     7004     6768     6642     6654 
    6695     6675     6676     6776     6890     6904     6830     6755 
    6770     6966     7331     7704     7937     8037     8124     8224 
    8234     8085     7822     7560     7394     7345     7359     7404 
    7511     7675     7810     7819     7742     7686     7541     7189 
    6819     6633     6586     6600     6698     6858     6966     7015 
    7109     7273     7464     7633     7760     7892     8017     8063 
    8044     7991     7901     7862     7944     8011     7965     7980 
    8197     8478     8580     8419     8130     7879     7684     7512 
    7387     7298     7175     6940     6647     6530     6640     6786 
    6855     6824     6759     6757     6762     6637     6340     5983 
    5734     5600     5555     5653     5854     6066     6239     6281 
    6185     6141     6205     6169     5960     5757     5678     5676 
    5682     5627     5485     5362     5378     5493     5573     5556 
    5525     5629     5906     6252     6523     6609     6609     6812 
    7329     7998     8638     9190     9662     9963     9990     9968 
   10247    10797    11309    11590    11655    11651    11718    11882 
   12060    12154    12122    12021    11983    12026    12007    11774 
   11312    10776    10400    10263    10122     9712     9191     8857 
    8719     8603     8301     7837     7506     7368     7289     7259 
    7298     7375     7377     7175     6812     6484     6315     6254 
    6206     6154     6187     6360     6559     6680     6793     6967 
    7122     7055     6715     6354     6189     6175     6274     6488 
    6719     6910     7105     7296     7480     7726     7955     8026 
    7990     7873     7638     7389     7145     6840     6623     6719 
    7118     7538     7704     7703     7746     7752     7536     7086 
    6513     5946     5445     4999     4693     4573     4494     4398 
    4324     4222     4021     3713     3420     3355     3541     3825 
    4107     4352     4555     4675     4693     4678     4611     4469 
    4374     4413     4568     4802     5129     5523     5825     5973 
    6084     6193     6254     6390     6711     7130     7589     7963 
    8008     7801     7689     7772     7930     8113     8247     8321 
    8543     8943     9321     9585     9776    10023    10364    10707 
   10940    10993    10994    11043    11000    10848    10799    10900 
   10951    10878    10847    10995    11341    11786    12122    12259 
   12326    12404    12433    12430    12487    12551    12521    12448 
   12370    12264    12181    12119    11963    11692    11440    11328 
   11399    11642    11919    12033    11912    11624    11286    10972 
   10709    10585    10637    10712    10698    10708    10858    11041 
   11023    10724    10325    10065     9988     9933     9798     9650 
    9553     9428     9141     8782     8575     8463     8193     7778 
    7479     7373     7248     7009     6762     6594     6576     6730 
    6953     7190     7472     7736     7847     7752     7562     7463 
    7596     7979     8470     8866     9137     9379     9526     9452 
    9206     8867     8477     8160     8088     8328     8787     9330 
    9845    10196    10287    10202    10146    10210    10287    10231 
   10095    10112    10329    10495    10506    10559    10730    10820 
   10740    10625    10553    10420    10063     9505     8994     8746 
    8749     8900     9178     9413     9318     8971     8645     8371 
    8176     8247     8613     9113     9572     9822     9850     9827 
    9859     9886     9799     9501     8946     8265     7745     7508 
    7371     7181     6948     6625     6229     5931     5751     5586 
    5482     5557     5762     5928     5968     5899     5789     5700 
    5671     5732     5860     6041     6319     6597     6646     6441 
    6248     6266     6392     6473     6588     6822     7051     7172 
    7245     7384     7608     7720     7563     7284     7123     7158 
    7250     7187     6933     6576     6123     5615     5145     4752 
    4496     4397     4291     4045     3756     3567     3444     3277 
    3041     2825     2771     2877     2976     2953     2869     2823 
    2806     2788     2816     2931     3128     3322     3375     3251 
    3031     2839     2758     2729     2692     2715     2883     3214 
    3629     3970     4160     4256     4416     4826     5417     5834 
    5856     5626     5500     5740     6268     6847     7384     7884 
    8375     8884     9333     9635     9861    10029    10040    10067 
   10330    10651    10834    10911    10884    10742    10603    10556 
   10494    10291     9961     9611     9377     9304     9330     9414 
    9485     9366     8995     8515     8090     7880     7914     7942 
    7821     7675     7579     7561     7673     7845     7984     8097 
    8160     8110     8032     8029     8016     7894     7697     7489 
    7351     7405     7647     7923     8147     8314     8394     8332 
    8231     8368     8736     9044     9257     9482     9638     9641 
    9479     9075     8535     8240     8329     8568     8783     8981 
    9197     9433     9657     9812     9804     9563     9159     8709 
    8308     8073     8073     8166     8045     7604     7066     6623 
