Origin Time       2011/03/11 14:46:00
Lat.              38.103
Long.             142.860
Depth. (km)       24
Mag.              9.0
Station Code      HKD116
Station Lat.      43.8005
Station Long.     141.9343
Station Height(m) 48
Record Time       2011/03/11 14:49:11
Sampling Freq(Hz) 100Hz
Duration Time(s)  300
Dir.              E-W
Scale Factor      3920(gal)/6182761
Max. Acc. (gal)   19.640
Last Correction   2011/03/11 14:48:56
Memo.             
[...]
     509      845     1184     1509     1800     2036     2204     2308 
    2355     2346     2287     2192     2069     1926     1783     1651 
    1528     1404     1265     1102      916      719      519      324 
     139      -32     -187     -322     -441     -552     -651     -735 
    -807     -863     -894     -887     -840     -768     -681     -555 
    -401     -251     -117        5      125      238      326      389 
     427      430      387      303      183       32     -129     -286 
    -440     -588     -716     -823     -916     -999    -1084    -1174 
   -1262    -1343    -1427    -1519    -1611    -1690    -1761    -1830 
   -1910    -2010    -2136    -2291    -2482    -2710    -2971    -3257 
   -3559    -3873    -4198    -4531    -4871    -5204    -5518    -5811 
   -6078    -6321    -6543    -6755    -6972    -7201    -7424    -7642 
   -7860    -8061    -8233    -8373    -8482    -8552    -8573    -8545 
   -8479    -8393    -8301    -8216    -8148    -8113    -8113    -8142 
   -8197    -8274    -8370    -8474    -8580    -8701    -8860    -9053 
   -9267    -9487    -9692    -9863    -9980   -10031   -10008    -9926 
   -9811    -9686    -9569    -9468    -9379    -9293    -9209    -9128 
   -9040    -8935    -8817    -8684    -8526    -8343    -8139    -7920 
   -7702    -7500    -7315    -7147    -6997    -6852    -6697    -6534 
   -6361    -6174    -5979    -5789    -5619    -5472    -5349    -5243 
   -5144    -5050    -4960    -4864    -4766    -4685    -4637    -4640 
   -4703    -4827    -5010    -5241    -5497    -5765    -6042    -6321 
   -6604    -6910    -7245    -7607    -8000    -8417    -8842    -9242 
   -9587    -9873   -10105   -10296   -10465   -10619   -10766   -10920 
  -11089   -11282   -11495   -11712   -11933   -12157   -12382   -12610 
  -12834   -13042   -13239   -13432   -13620   -13807   -13994   -14170 
  -14327   -14461   -14561   -14617   -14628   -14609   -14588   -14579 
  -14588   -14620   -14672   -14745   -14839   -14941   -15035   -15114 
  -15182   -15238   -15280   -15316   -15352   -15396   -15461   -15557 
  -15673   -15780   -15852   -15880   -15855   -15775   -15664   -15547 
  -15431   -15331   -15262   -15229   -15224   -15218   -15179   -15095 
  -14947   -14710   -14382   -13973   -13495   -12976   -12455   -11951 
  -11474   -11040   -10650   -10290    -9944    -9603    -9267    -8935 
   -8596    -8236    -7857    -7462    -7054    -6644    -6249    -5869 
   -5502    -5150    -4811    -4471    -4115    -3723    -3291    -2826 
   -2336    -1832    -1328     -842     -381       50      445      811 
    1156     1495     1841     2206     2596     3018     3465     3922 
    4372     4803     5204     5562     5876     6160     6438     6729 
    7033     7347     7668     7986     8279     8523     8709     8841 
    8925     8973     9005     9045     9111     9218     9384     9616 
    9898    10207    10508    10766    10957    11065    11084    11032 
   10938    10828    10715    10610    10518    10449    10391    10320 
   10210    10046     9823     9546     9220     8858     8475     8085 
    7706     7355     7030     6711     6390     6061     5704     5307 
    4875     4407     3901     3356     2778     2184     1600     1044 
     510       -5     -488     -944    -1389    -1828    -2253    -2655 
   -3030    -3379    -3689    -3952    -4167    -4321    -4412    -4455 
   -4463    -4450    -4428    -4399    -4356    -4305    -4259    -4216 
   -4167    -4108    -4038    -3951    -3843    -3718    -3564    -3358 
   -3098    -2790    -2432    -2024    -1584    -1125     -660     -210 
     210      584      915     1215     1483     1726     1967     2218 
    2468     2699     2880     2982     3006     2963     2868     2739 
    2596     2469     2376     2311     2256     2200     2136     2053 
    1935     1775     1575     1330     1046      752      468      192 
     -66     -293     -495     -696     -919    -1176    -1471    -1800 
   -2151    -2509    -2862    -3202    -3525    -3834    -4132    -4423 
   -4711    -5002    -5312    -5646    -6006    -6394    -6795    -7189 
   -7566    -7910    -8208    -8460    -8671    -8844    -8990    -9113 
   -9216    -9302    -9374    -9438    -9501    -9573    -9663    -9763 
   -9870    -9987   -10106   -10226   -10358   -10505   -10667   -10860 
  -11093   -11357   -11640   -11936   -12243   -12556   -12869   -13177 
  -13472   -13749   -14004   -14235   -14444   -14639   -14824   -15000 
  -15168   -15333   -15500   -15659   -15800   -15907   -15973   -15992 
  -15963   -15883   -15749   -15566   -15346   -15110   -14887   -14692 
  -14521   -14368   -14215   -14036   -13812   -13538   -13216   -12851 
  -12450   -12038   -11650   -11301   -10988   -10700   -10434   -10190 
   -9968    -9749    -9514    -9259    -8999    -8754    -8525    -8323 
   -8171    -8086    -8074    -8138    -8278    -8479    -8716    -8975 
   -9254    -9546    -9830   -10095   -10338   -10562   -10777   -11000 
  -11240   -11507   -11807   -12144   -12520   -12926   -13346   -13770 
  -14192   -14606   -15003   -15382   -15759   -16157   -16576   -17009 
  -17454   -17897   -18321   -18719   -19081   -19394   -19656   -19867 
  -20043   -20207   -20365   -20518   -20664   -20793   -20880   -20890 
  -20804   -20624   -20352   -19994   -19575   -19122   -18666   -18242 
  -17875   -17573   -17333   -17137   -16962   -16784   -16581   -16345 
  -16093   -15828   -15544   -15264   -15005   -14753   -14505   -14255 
  -13986   -13691   -13359   -12978   -12560   -12128   -11702   -11314 
  -10983   -10715   -10503   -10336   -10186   -10018    -9803    -9533 
   -9218    -8886    -8555    -8239    -7959    -7726    -7539    -7389 
   -7260    -7137    -7009    -6871    -6738    -6621    -6526    -6463 
   -6433    -6442    -6481    -6496    -6469    -6439    -6397    -6321 
   -6220    -6094    -5971    -5892    -5814    -5718    -5673    -5661 
   -5568    -5421    -5300    -5157    -4953    -4702    -4439    -4198 
   -3917    -3590    -3283    -2960    -2620    -2316    -2039    -1788 
   -1569    -1370    -1190    -1033     -885     -709     -499     -272 
      -2      313      653     1018     1402     1778     2138     2487 
    2823     3127     3388     3610     3807     3989     4156     4305 
    4434     4540     4627     4695     4741     4774     4804     4822 
    4819     4806     4800     4816     4862     4945     5069     5222 
    5371     5512     5664     5781     5824     5852     5896     5925 
    5952     6001     6067     6153     6255     6369     6487     6604 
    6731     6853     6946     7024     7106     7183     7257     7344 
    7441     7550     7672     7794     7903     8003     8097     8181 
    8258     8338     8424     8517     8620     8732     8853     8982 
    9102     9193     9254     9286     9282     9240     9153     9010 
    8816     8604     8389     8161     7927     7713     7513     7315 
    7127     6957     6785     6601     6405     6193     5951     5683 
    5401     5095     4758     4396     3999     3548     3050     2531 
    2012     1515     1065      668      317       15     -237     -445 
    -626     -795     -957    -1117    -1282    -1467    -1676    -1899 
   -2122    -2327    -2514    -2680    -2823    -2951    -3068    -3164 
   -3235    -3295    -3347    -3381    -3387    -3359    -3297    -3197 
   -3061    -2890    -2681    -2452    -2224    -2007    -1807    -1616 
   -1428    -1247    -1075     -907     -741     -569     -394     -229 
     -74       79      228      371      514      656      792      923 
    1054     1186     1321     1456     1599     1764     1961     2183 
    2419     2658     2893     3107     3293     3450     3574     3661 
    3722     3769     3811     3862     3931     4022     4139     4281 
    4438     4603     4770     4918     5032     5119     5196     5275 
    5362     5472     5612     5772     5939     6093     6214     6284 
    6282     6185     5987     5705     5358     4963     4541     4109 
    3679     3266     2881     2536     2236     1982     1784     1654 
    1585     1559     1562     1582     1597     1589     1554     1482 
    1368     1214     1026      807      558      281      -13     -318 
    -636     -964    -1298    -1642    -1999    -2383    -2786    -3185 
   -3583    -3976    -4328    -4637    -4921    -5168    -5386    -5587 
   -5764    -5933    -6103    -6267    -6435    -6619    -6810    -7009 
   -7217    -7423    -7621    -7820    -8024    -8229    -8436    -8646 
   -8859    -9072    -9274    -9454    -9614    -9748    -9850    -9913 
   -9937    -9937    -9931    -9943    -9988   -10071   -10196   -10367 
  -10583   -10834   -11098   -11352   -11588   -11813   -12037   -12254 
  -12462   -12682   -12917   -13153   -13387   -13619   -13829   -14009 
  -14172   -14310   -14407   -14475   -14533   -14570   -14568   -14519 
  -14432   -14307   -14142   -13958   -13771   -13586   -13406   -13233 
  -13059   -12872   -12658   -12420   -12157   -11865   -11550   -11211 
  -10851   -10489   -10131    -9773    -9420    -9065    -8703    -8344 
   -7993    -7651    -7329    -7047    -6816    -6642    -6525    -6461 
   -6440    -6451    -6477    -6508    -6539    -6568    -6588    -6601 
   -6619    -6651    -6711    -6810    -6953    -7139    -7356    -7581 
   -7804    -8020    -8226    -8417    -8589    -8752    -8913    -9063 
   -9200    -9328    -9440    -9537    -9617    -9670    -9692    -9672 
   -9600    -9495    -9377    -9256    -9141    -9038    -8972    -8955 
   -8938    -8889    -8840    -8793    -8713    -8611    -8505    -8387 
   -8263    -8156    -8069    -7999    -7945    -7916    -7897    -7868 
   -7834    -7778    -7661    -7479    -7251    -6984    -6693    -6395 
   -6105    -5835    -5595    -5381    -5179    -4986    -4801    -4623 
   -4446    -4268    -4089    -3920    -3770    -3638    -3520    -3422 
   -3338    -3260    -3190    -3122    -3043    -2952    -2841    -2696 
   -2519    -2324    -2123    -1911    -1677    -1434    -1188     -917 
    -608     -267      114      530      971     1427     1880     2306 
    2699     3057     3382     3684     3968     4244     4511     4747 
    4949     5122     5250     5323     5350     5335     5278     5181 
    5042     4874     4694     4512     4339     4183     4055     3965 
    3896     3827     3750     3646     3501     3311     3078     2812 
    2532     2255     2000     1777     1588     1440     1345     1294 
    1266     1237     1196     1141     1073      982      862      732 
     607      479      348      220       90      -46     -189     -341 
    -509     -692     -868    -1017    -1134    -1214    -1250    -1242 
   -1197    -1128    -1058    -1002     -965     -966    -1003    -1052 
   -1103    -1138    -1130    -1088    -1039     -989     -935     -890 
    -887     -934    -1012    -1107    -1228    -1379    -1538    -1694 
   -1874    -2077    -2278    -2478    -2677    -2892    -3145    -3421 
   -3723    -4066    -4436    -4827    -5226    -5610    -5993    -6389 
   -6784    -7175    -7557    -7911    -8237    -8547    -8832    -9073 
   -9260    -9398    -9501    -9580    -9650    -9717    -9788    -9883 
   -9992   -10099   -10207   -10297   -10346   -10367   -10373   -10363 
  -10345   -10323   -10295   -10256   -10216   -10171   -10085    -9944 
   -9763    -9559    -9337    -9106    -8884    -8696    -8563    -8488 
   -8475    -8519    -8592    -8667    -8737    -8797    -8847    -8892 
   -8943    -9008    -9094    -9197    -9306    -9412    -9497    -9546 
   -9563    -9551    -9519    -9494    -9500    -9542    -9642    -9815 
  -10050   -10339   -10674   -11041   -11431   -11839   -12262   -12696 
  -13135   -13580   -14035   -14501   -14983   -15471   -15945   -16386 
  -16776   -17099   -17354   -17548   -17691   -17803   -17901   -18001 
  -18118   -18261   -18422   -18595   -18774   -18946   -19105   -19237 
  -19330   -19387   -19402   -19364   -19291   -19206   -19099   -18969 
  -18834   -18691   -18527   -18354   -18188   -18035   -17905   -17808 
  -17755   -17753   -17785   -17813   -17811   -17750   -17613   -17407 
  -17146   -16843   -16512   -16162   -15805   -15448   -15092   -14742 
  -14394   -14053   -13731   -13419   -13107   -12798   -12501   -12219 
  -11944   -11674   -11412   -11150   -10885   -10611   -10317    -9998 
   -9669    -9348    -9033    -8727    -8447    -8186    -7919    -7640 
   -7349    -7038    -6705    -6352    -5975    -5575    -5157    -4721 
   -4285    -3874    -3488    -3125    -2798    -2508    -2242    -1993 
   -1761    -1532    -1300    -1075     -858     -639     -418     -201 
      14      231      453      684      918     1151     1380     1596 
    1803     2017     2233     2444     2657     2868     3071     3270 
    3462     3647     3827     3997     4157     4308     4442     4560 
    4669     4769     4861     4940     5005     5063     5119     5179 
    5252     5341     5441     5558     5690     5834     6002     6206 
    6455     6756     7114     7516     7939     8373     8821     9291 
    9782    10295    10830    11382    11947    12517    13078    13620 
   14137    14631    15105    15559    16005    16459    16912    17363 
   17831    18313    18797    19287    19775    20254    20721    21161 
   21579    21982    22378    22779    23181    23567    23940    24298 
   24635    24951    25240    25492    25705    25881    26041    26205 
   26375    26550    26722    26861    26970    27056    27099    27086 
   27018    26896    26725    26510    26243    25929    25583    25203 
   24787    24338    23862    23365    22848    22313    21777    21231 
   20678    20135    19590    19034    18480    17922    17344    16735 
   16083    15398    14684    13933    13153    12346    11514    10660 
    9794     8932     8070     7184     6305     5490     4688     3832 
    2984     2161     1301      435     -385    -1169    -1905    -2582 
   -3212    -3813    -4387    -4923    -5437    -5954    -6458    -6932 
   -7399    -7880    -8370    -8860    -9348    -9833   -10321   -10811 
  -11297   -11782   -12267   -12736   -13193   -13639   -14055   -14422 
  -14740   -15017   -15244   -15425   -15576   -15701   -15813   -15925 
  -16042   -16165   -16294   -16427   -16549   -16654   -16754   -16852 
  -16938   -17022   -17114   -17206   -17284   -17355   -17420   -17475 
  -17527   -17581   -17640   -17708   -17794   -17906   -18045   -18203 
  -18375   -18554   -18733   -18910   -19093   -19274   -19453   -19647 
  -19852   -20053   -20250   -20448   -20641   -20814   -20952   -21072 
  -21189   -21287   -21365   -21427   -21465   -21486   -21496   -21504 
  -21524   -21548   -21573   -21600   -21617   -21619   -21614   -21608 
  -21608   -21610   -21601   -21571   -21516   -21425   -21290   -21108 
  -20875   -20594   -20275   -19923   -19545   -19166   -18796   -18425 
  -18056   -17701   -17359   -17015   -16665   -16305   -15929   -15540 
  -15149   -14764   -14388   -14023   -13681   -13368   -13079   -12813 
  -12564   -12322   -12091   -11874   -11669   -11469   -11257   -11031 
  -10802   -10574   -10336   -10079    -9802    -9521    -9250    -8982 
   -8707    -8424    -8131    -7825    -7512    -7198    -6905    -6620 
   -6278    -5890    -5554    -5242    -4875    -4512    -4209    -3942 
   -3702    -3495    -3319    -3174    -3068    -2995    -2913    -2815 
   -2738    -2690    -2654    -2634    -2643    -2687    -2761    -2844 
   -2920    -2990    -3060    -3116    -3168    -3225    -3275    -3329 
   -3401    -3492    -3591    -3692    -3813    -3947    -4082    -4238 
   -4405    -4547    -4658    -4743    -4785    -4785    -4761    -4712 
   -4617    -4486    -4339    -4159    -3932    -3683    -3428    -3165 
   -2908    -2674    -2461    -2268    -2098    -1940    -1791    -1655 
   -1534    -1437    -1366    -1308    -1268    -1259    -1273    -1310 
   -1364    -1398    -1403    -1400    -1376    -1317    -1241    -1151 
   -1032     -898     -769     -643     -520     -413     -309     -200 
     -99        3      120      249      378      511      645      759 
     839      897      934      938      912      876      845      825 
     821      833      862      906      959     1019     1095     1186 
    1286     1398     1525     1669     1835     2009     2174     2335 
    2493     2631     2755     2887     3034     3194     3349     3492 
    3626     3749     3861     3966     4064     4167     4295     4457 
    4646     4849     5065     5300     5546     5791     6034     6281 
    6527     6771     7020     7270     7517     7761     7996     8211 
    8402     8579     8742     8889     9026     9161     9294     9433 
    9583     9744     9913    10090    10269    10443    10613    10783 
   10952    11114    11259    11376    11459    11508    11533    11555 
   11585    11619    11652    11708    11787    11841    11879    11940 
   11997    12034    12072    12106    12112    12095    12068    12040 
   12009    11982    11964    11943    11909    11853    11767    11645 
   11495    11334    11191    11097    11056    11050    11084    11152 
   11228    11291    11327    11334    11320    11294    11269    11261 
   11275    11310    11363    11418    11455    11472    11457    11388 
   11256    11076    10860    10621    10371    10124     9893     9679 
    9480     9293     9099     8872     8603     8291     7937     7553 
    7161     6772     6402     6073     5795     5571     5397     5251 
    5118     4994     4859     4690     4482     4228     3924     3577 
    3200     2806     2405     2002     1595     1196      806      415 
      28     -333     -665     -979    -1264    -1518    -1752    -1959 
   -2148    -2347    -2561    -2794    -3058    -3347    -3646    -3948 
   -4248    -4542    -4822    -5092    -5363    -5641    -5927    -6224 
   -6524    -6806    -7066    -7303    -7516    -7708    -7892    -8080 
   -8278    -8493    -8728    -8974    -9222    -9470    -9720    -9970 
  -10211   -10440   -10661   -10877   -11098   -11332   -11577   -11835 
  -12108   -12399   -12710   -13027   -13327   -13600   -13847   -14070 
  -14268   -14435   -14570   -14693   -14814   -14930   -15044   -15159 
  -15265   -15364   -15466   -15578   -15705   -15867   -16063   -16238 
  -16389   -16575   -16762   -16882   -16972   -17070   -17152   -17209 
  -17259   -17307   -17358   -17425   -17518   -17632   -17759   -17913 
  -18087   -18249   -18388   -18510   -18610   -18686   -18740   -18769 
  -18779   -18784   -18790   -18795   -18798   -18802   -18812   -18817 
  -18799   -18757   -18697   -18617   -18513   -18388   -18230   -18047 
  -17864   -17658   -17430   -17212   -16985   -16758   -16548   -16343 
  -16156   -15987   -15815   -15641   -15473   -15302   -15120   -14919 
  -14697   -14447   -14162   -13859   -13562   -13277   -13006   -12760 
  -12541   -12350   -12183   -12033   -11887   -11748   -11624   -11508 
  -11390   -11286   -11204   -11124   -11045   -10982   -10937   -10911 
  -10905   -10913   -10917   -10914   -10916   -10935   -10972   -11032 
  -11121   -11225   -11338   -11460   -11582   -11700   -11809   -11909 
  -12009   -12115   -12238   -12393   -12572   -12770   -12992   -13226 
  -13451   -13661   -13845   -13990   -14097   -14175   -14229   -14256 
