Origin Time       2011/03/11 14:46:00
Lat.              38.103
Long.             142.860
Depth. (km)       24
Mag.              9.0
Station Code      HKD108
Station Lat.      42.2528
Station Long.     142.5643
Station Height(m) 42
Record Time       2011/03/11 14:47:56
Sampling Freq(Hz) 100Hz
Duration Time(s)  300
Dir.              E-W
Scale Factor      3920(gal)/6182761
Max. Acc. (gal)   15.094
Last Correction   2011/03/11 14:47:41
Memo.             
[...]
    7365     5944     4922     4374     4260     4480     4926     5482 
    6062     6640     7220     7830     8428     8830     8848     8439 
    7743     7043     6635     6679     7191     8091     9212    10303 
   11087    11354    11018    10101     8767     7338     6150     5380 
    5030     4942     4890     4789     4671     4474     3979     2981 
    1462     -397    -2303    -3974    -5216    -5946    -6154    -5898 
   -5317    -4588    -3870    -3305    -3058    -3291    -4111    -5525 
   -7421    -9572   -11754   -13853   -15775   -17308   -18164   -18127 
  -17127   -15312   -13061   -10826    -8911    -7403    -6234    -5279 
   -4419    -3609    -2941    -2578    -2570    -2807    -3177    -3689 
   -4363    -5086    -5713    -6189    -6513    -6699    -6800    -6887 
   -6970    -7011    -7013    -7058    -7307    -7934    -8980   -10329 
  -11772   -13117   -14245   -15062   -15445   -15277   -14464   -12977 
  -10966    -8752    -6672    -4951    -3673    -2787    -2121    -1457 
    -681      183     1090     1972     2686     3109     3235     3094 
    2695     2089     1350      513     -398    -1299    -2022    -2363 
   -2178    -1437     -235     1186     2511     3513     4111     4343 
    4336     4193     3934     3582     3221     2972     2927     3145 
    3657     4426     5338     6285     7237     8195     9066     9659 
    9786     9283     8073     6288     4216     2135      300    -1048 
   -1778    -1932    -1655    -1067     -234      762     1753     2487 
    2700     2291     1419      300     -988    -2488    -4193    -5975 
   -7632    -8883    -9397    -9012    -7862    -6256    -4534    -2991 
   -1839    -1196    -1081    -1440    -2212    -3376    -4852    -6386 
   -7644    -8456    -8886    -9070    -9092    -8977    -8707    -8258 
   -7669    -7064    -6571    -6170    -5665    -4879    -3789    -2428 
    -839      858     2485     3947     5319     6724     8127     9319 
   10090    10354    10136     9559     8878     8378     8214     8379 
    8805     9403    10025    10506    10754    10697    10224     9259 
    7860     6243     4688     3382     2341     1453      570     -426 
   -1574    -2795    -3951    -4981    -5863    -6436    -6400    -5554 
   -4044    -2322     -815      284      947     1184      985      319 
    -818    -2362    -4177    -6081    -7887    -9430   -10586   -11262 
  -11376   -10862    -9726    -8055    -5986    -3684    -1330      869 
    2724     4164     5197     5805     5942     5646     5087     4500 
    4053     3806     3793     4111     4842     5942     7246     8569 
    9814    10966    11994    12807    13327    13551    13518    13238 
   12678    11799    10587     9053     7309     5595     4176     3175 
    2480     1873     1304      936      924     1230     1701     2192 
    2544     2574     2201     1494      595     -349    -1220    -1874 
   -2144    -2007    -1645    -1288    -1088    -1126    -1481    -2202 
   -3182    -4183    -5021    -5596    -5790    -5425    -4313    -2351 
     299     3160     5705     7690     9157    10195    10833    11106 
   11084    10796    10252     9531     8754     7926     6913     5637 
    4201     2785     1511      461     -238     -434      -56      829 
    1997     3127     3915     4134     3667     2553      924    -1081 
   -3335    -5654    -7716    -9172    -9851    -9748    -8900    -7423 
   -5571    -3630    -1766       44     1896     3779     5513     6822 
    7481     7445     6825     5755     4348     2685      779    -1386 
   -3767    -6240    -8657   -10882   -12829   -14423   -15522   -15957 
  -15603   -14416   -12517   -10197    -7821    -5746    -4211    -3287 
   -2941    -3098    -3622    -4317    -4993    -5504    -5733    -5576 
   -4941    -3818    -2381     -915      323     1118     1264      687 
    -431    -1744    -3003    -4199    -5413    -6587    -7524    -8008 
   -7863    -7058    -5828    -4588    -3673    -3198    -3133    -3398 
   -3864    -4401    -5001    -5743    -6645    -7634    -8596    -9455 
  -10223   -10935   -11598   -12175   -12595   -12803   -12862   -12959 
  -13310   -14055   -15191   -16578   -18011   -19337   -20473   -21319 
  -21692   -21392   -20308   -18488   -16089   -13265   -10096    -6636 
   -3022      469     3449     5583     6731     6900     6158     4671 
    2715      564    -1605    -3720    -5749    -7558    -8885    -9485 
   -9258    -8289    -6774    -4914    -2892     -938      677     1783 
    2393     2640     2681     2644     2597     2500     2213     1635 
     845       49     -537     -752     -562     -106      428      916 
    1318     1669     2031     2374     2595     2663     2668     2759 
    3073     3698     4662     5879     7125     8172     8905     9304 
    9418     9360     9256     9196     9201     9173     8946     8481 
    7923     7444     7147     7086     7250     7489     7544     7172 
    6285     5029     3699     2507     1524      859      739     1365 
    2725     4607     6733     8825    10589    11790    12341    12259 
   11552    10192     8202     5730     3084      641    -1306    -2603 
   -3215    -3206    -2733    -2010    -1226     -520      -36       71 
    -277    -1031    -2067    -3246    -4424    -5454    -6255    -6852 
   -7335    -7779    -8140    -8268    -8039    -7415    -6448    -5249 
   -3933    -2591    -1250      102     1430     2622     3551     4144 
    4458     4695     5058     5580     6176     6857     7759     8939 
   10268    11546    12646    13528    14168    14490    14388    13774 
   12599    10844     8450     5382     1801    -1884    -5192    -7781 
   -9520   -10437   -10612   -10120    -9047    -7514    -5712    -3883 
   -2264    -1048     -330      -94     -301     -960    -1997    -3138 
   -3963    -4150    -3627    -2524    -1126      210     1207     1749 
    1891     1793     1606     1374     1009      356     -652    -1938 
   -3336    -4652    -5729    -6525    -7095    -7507    -7805    -8050 
   -8277    -8374    -8112    -7404    -6369    -5180    -4003    -3051 
   -2541    -2539    -2864    -3255    -3586    -3889    -4243    -4715 
   -5340    -6061    -6758    -7357    -7841    -8220    -8546    -8908 
   -9312    -9618    -9674    -9474    -9120    -8730    -8409    -8228 
   -8178    -8122    -7820    -7058    -5806    -4180    -2314     -379 
    1423     2996     4416     5803     7161     8365     9318    10053 
   10664    11160    11463    11523    11392    11186    11019    10966 
   11033    11103    10977    10505     9649     8505     7289     6263 
    5653     5573     5988     6780     7795     8816     9596     9964 
    9846     9191     7941     6139     3976     1756     -121    -1270 
   -1573    -1254     -687     -167      170      342      513      894 
    1590     2562     3691     4862     6001     7047     7914     8484 
    8600     8117     7004     5481     3997     2977     2594     2787 
    3380     4173     4993     5684     6105     6141     5678     4639 
    3088     1268     -408    -1467    -1591     -769      738     2545 
    4333     5903     7136     7950     8236     7888     6933     5573 
    4042     2470      865     -769    -2339    -3649    -4481    -4725 
   -4371    -3423    -1936      -98     1769     3348     4443     4928 
    4644     3462     1427    -1212    -4084    -6824    -9091   -10551 
  -10967   -10329    -8886    -7055    -5304    -4062    -3554    -3689 
   -4149    -4628    -5012    -5341    -5600    -5620    -5175    -4161 
   -2670     -936      710     1879     2284     1951     1192      329 
    -422     -957    -1269    -1384    -1302    -1042     -719     -511 
    -489     -624     -929    -1447    -2121    -2772    -3290    -3743 
   -4209    -4646    -5008    -5306    -5519    -5545    -5247    -4540 
   -3457    -2154     -829      406     1567     2755     4065     5531 
    7081     8569     9874    10890    11463    11471    10940     9985 
    8651     6883     4698     2245     -250    -2498    -4206    -5245 
   -5692    -5713    -5487    -5143    -4699    -4049    -3056    -1713 
    -161     1368     2588     3260     3336     2951     2386     2011 
    2067     2499     3032     3382     3368     2953     2284     1661 
    1353     1445     1851     2436     3078     3656     4067     4277 
    4322     4254     4116     3932     3674     3293     2769     2146 
    1530      995      507       55     -261     -374     -369     -404 
    -528     -647     -686     -688     -739     -881    -1152    -1577 
   -2105    -2636    -3106    -3515    -3924    -4429    -5101    -5943 
   -6829    -7547    -7968    -8110    -8030    -7725    -7124    -6146 
   -4753    -2980     -983      985     2631     3722     4182     4074 
    3520     2604     1353     -145    -1693    -3070    -4098    -4674 
   -4780    -4490    -3955    -3324    -2670    -2022    -1409     -874 
    -459     -155       79      251      334      247     -107     -730 
   -1517    -2314    -2923    -3180    -3070    -2676    -2085    -1394 
    -687       13      730     1474     2184     2713     2929     2796 
    2374     1782     1126      466     -137     -624    -1055    -1576 
   -2179    -2619    -2641    -2187    -1331     -178     1100     2250 
    3012     3214     2819     1878      508    -1148    -3002    -4991 
   -6986    -8820   -10310   -11288   -11694   -11620   -11245   -10790 
  -10419   -10175   -10034    -9988   -10126   -10622   -11562   -12833 
  -14156   -15182   -15667   -15558   -14928   -13938   -12803   -11719 
  -10793    -9990    -9180    -8285    -7346    -6486    -5869    -5643 
   -5868    -6474    -7309    -8265    -9339   -10501   -11589   -12411 
  -12875   -13004   -12849   -12434   -11852   -11290   -10917   -10827 
  -11035   -11472   -12033   -12620   -13172   -13686   -14138   -14378 
  -14188   -13398   -11952    -9930    -7502    -4848    -2172      276 
    2319     3933     5148     5974     6450     6644     6627     6489 
    6369     6402     6657     7095     7528     7728     7578     7080 
    6263     5190     3962     2671     1365       64    -1210    -2470 
   -3784    -5179    -6591    -7912    -9066   -10045   -10832   -11352 
  -11594   -11674   -11719   -11733   -11590   -11126   -10225    -8814 
   -6871    -4489    -1868      762     3208     5388     7271     8746 
    9633     9859     9529     8869     8126     7517     7255     7514 
    8274     9290    10370    11550    12861    14166    15274    16019 
   16282    16038    15325    14166    12585    10669     8579     6509 
    4714     3496     3054     3406     4454     6073     8142    10497 
   12918    15137    16831    17672    17473    16268    14294    11907 
    9471     7269     5483     4273     3817     4178     5162     6388 
    7486     8204     8397     8014     7140     5966     4711     3587 
    2743     2218     1999     2061     2355     2798     3292     3766 
    4185     4508     4695     4743     4665     4494     4336     4374 
    4760     5521     6554     7652     8577     9141     9193     8624 
    7405     5645     3643     1739      170     -908    -1367    -1112 
    -162     1290     2919     4405     5526     6179     6346     6058 
    5364     4287     2756      672    -1930    -4880    -7989   -11013 
  -13596   -15324   -15869   -15138   -13265   -10459    -7014    -3344 
     161     3254     5799     7686     8803     9083     8530     7200 
    5175     2659       43    -2210    -3736    -4363    -4142    -3301 
   -2139     -936      120      956     1560     1913     1965     1623 
     761     -699    -2675    -4922    -7149    -9136   -10726   -11737 
  -11981   -11382   -10037    -8167    -6057    -3991    -2211     -926 
    -312     -446    -1258    -2532    -3965    -5278    -6303    -6976 
   -7321    -7498    -7754    -8280    -9105   -10115   -11136   -11972 
  -12449   -12534   -12401   -12369   -12705   -13490   -14618   -15849 
  -16883   -17477   -17486   -16815   -15419   -13373   -10893    -8261 
   -5745    -3568    -1907     -893     -550     -757    -1335    -2136 
   -3078    -4132    -5271    -6421    -7461    -8333    -9129   -10039 
  -11176   -12510   -13967   -15481   -16927   -18076   -18662   -18525 
  -17673   -16223   -14236   -11658    -8458    -4752     -777     3198 
    6945    10245    12820    14372    14666    13574    11100     7379 
    2712    -2406    -7367   -11662   -14979   -17112   -17870   -17135 
  -14972   -11659    -7607    -3309      717     4054     6461     7873 
    8329     7940     6901     5510     4122     3056     2551     2811 
    3966     5915     8314    10766    13000    14874    16262    17035 
   17128    16573    15486    14030    12373    10687     9121     7793 
    6809     6257     6157     6480     7202     8270     9539    10836 
   12063    13199    14239    15159    15889    16303    16241    15590 
   14411    12957    11507    10211     9098     8199     7599     7328 
    7192     6866     6119     4884     3242     1391     -468    -2271 
   -4073    -5926    -7757    -9365   -10504   -10974   -10719    -9892 
   -8785    -7656    -6677    -5977    -5646    -5692    -6016    -6465 
   -6898    -7222    -7433    -7631    -7948    -8425    -8892    -8999 
   -8459    -7279    -5692    -3899    -1933      248     2598     4928 
    6983     8522     9282     9001     7547     5014     1692    -2066 
   -5958    -9761   -13327   -16526   -19235   -21397   -23007   -24056 
  -24568   -24611   -24247   -23508   -22426   -21136   -19858   -18772 
  -17969   -17499   -17402   -17724   -18486   -19638   -21053   -22523 
  -23712   -24203   -23701   -22160   -19735   -16629   -13000    -8988 
   -4839     -926     2342     4606     5638     5423     4134     2072 
    -358    -2751    -4856    -6583    -7921    -8856    -9370    -9508 
   -9420    -9306    -9315    -9534   -10056   -10931   -12036   -13160 
  -14149   -14944   -15532   -15933   -16258   -16658   -17148   -17565 
  -17732   -17584   -17127   -16373   -15367   -14214   -13037   -11947 
  -11086   -10592   -10483   -10667   -11029   -11477   -11973   -12485 
  -12952   -13322   -13519   -13378   -12694   -11407    -9735    -8031 
   -6552    -5450    -4819    -4694    -5048    -5821    -6984    -8530 
  -10373   -12301   -14027   -15327   -16169   -16685   -17015   -17219 
  -17327   -17404   -17513   -17636   -17621   -17280   -16545   -15527 
  -14435   -13421   -12509   -11653   -10822   -10046    -9386    -8854 
   -8387    -7841    -7035    -5865    -4390    -2810    -1326      -56 
     910     1442     1393      693     -565    -2140    -3765    -5243 
   -6421    -7192    -7558    -7650    -7584    -7376    -7014    -6595 
   -6326    -6348    -6598    -6869    -6932    -6607    -5841    -4735 
   -3384    -1703      459     3058     5763     8129     9817    10691 
   10797    10273     9297     8108     7044     6495     6718     7727 
    9343    11278    13164    14621    15412    15510    15051    14223 
   13173    12016    10902     9955     9162     8380     7490     6553 
    5744     5111     4512     3827     3132     2637     2532     2878 
    3539     4241     4669     4571     3879     2732     1383      138 
    -765    -1283    -1498    -1512    -1474    -1590    -2056    -2980 
   -4339    -6022    -7910    -9881   -11787   -13473   -14826   -15779 
  -16314   -16482   -16430   -16395   -16577   -16982   -17436   -17788 
  -17991   -17983   -17580   -16516   -14673   -12181    -9245    -6042 
   -2821      115     2545     4370     5558     6068     5877     5072 
    3917     2824     2181     2177     2752     3689     4771     5889 
    7036     8218     9357    10335    11068    11503    11633    11492 
   11132    10667    10241     9946     9804     9797     9909    10123 
   10367    10520    10460    10085     9306     8060     6283     3920 
    1064    -1957    -4684    -6700    -7762    -7839    -7023    -5461 
   -3413    -1278      535     1796     2526     2828     2728     2238 
    1491      765      370      465     1024     1907     2878     3653 
    3989     3736     2855     1476     -113    -1614    -2838    -3699 
   -4197    -4403    -4367    -4057    -3431    -2540    -1506     -433 
     603     1523     2227     2595     2542     2041     1049     -539 
   -2739    -5248    -7494    -8945    -9303    -8473    -6511    -3707 
    -627     2100     4062     5141     5437     5153     4528     3847 
    3444     3616     4482     5957     7876    10053    12258    14226 
   15700    16534    16719    16288    15259    13621    11440     8970 
    6517     4237     2187      399    -1124    -2383    -3405    -4251 
   -4937    -5406    -5543    -5228    -4474    -3492    -2581    -2065 
   -2246    -3292    -5130    -7443    -9731   -11463   -12262   -11980 
  -10656    -8437    -5526    -2129     1557     5330     8901    11850 
   13760    14403    13823    12233     9864     6908     3623      421 
   -2276    -4220    -5374    -5862    -5876    -5586    -5043    -4178 
   -2957    -1504      -27     1305     2413     3311     4083     4780 
    5320     5529     5284     4649     3850     3121     2579     2215 
    1941     1688     1521     1646     2229     3186     4213     5026 
    5484     5531     5189     4563     3760     2806     1641      167 
   -1696    -3940    -6423    -8882   -11010   -12515   -13210   -13088 
  -12249   -10858    -9147    -7346    -5665    -4386    -3781    -3985 
   -4967    -6573    -8598   -10825   -13028   -14994   -16523   -17436 
  -17583   -16896   -15432   -13346   -10798    -7906    -4834    -1857 
     762     2835     4146     4455     3690     2062        0    -2024 
   -3616    -4460    -4341    -3232    -1328     1098     3767     6342 
    8467     9922    10712    11015    11026    10836    10421     9707 
    8681     7447     6184     5066     4188     3512     2914     2280 
    1515      593     -381    -1256    -1924    -2326    -2482    -2460 
   -2329    -2194    -2179    -2293    -2420    -2388    -2057    -1425 
    -648       69      563      716      462     -170    -1080    -2117 
   -3063    -3694    -3916    -3798    -3471    -3023    -2488    -1870 
   -1206     -619     -296     -430    -1183    -2619    -4600    -6824 
   -8936   -10568   -11369   -11068    -9573    -7009    -3649      138 
    3919     7227     9657    11001    11254    10508     8922     6668 
    3932     1023    -1628    -3597    -4618    -4695    -4090    -3177 
   -2294    -1698    -1548    -1874    -2572    -3485    -4484    -5456 
   -6262    -6822    -7184    -7447    -7627    -7686    -7660    -7667 
   -7810    -8191    -8928   -10059   -11473   -12945   -14231   -15164 
  -15656   -15667   -15228   -14433   -13370   -12077   -10581    -8937 
   -7263    -5721    -4463    -3635    -3398    -3833    -4814    -6019 
   -7111    -7888    -8303    -8452    -8464    -8397    -8261    -8055 
   -7763    -7398    -7075    -7005    -7285    -7773    -8281    -8763 
   -9187    -9386    -9107    -8232    -6889    -5327    -3780    -2448 
   -1514    -1160    -1529    -2671    -4513    -6880    -9554   -12271 
  -14757   -16836   -18416   -19369   -19516   -18791   -17435   -15901 
  -14554   -13564   -13008   -12934   -13319   -14007   -14757   -15344 
  -15639   -15636   -15400   -14992   -14417   -13673   -12795   -11852 
