Origin Time       2011/03/11 14:46:00
Lat.              38.103
Long.             142.860
Depth. (km)       24
Mag.              9.0
Station Code      HKD103
Station Lat.      42.7275
Station Long.     142.2973
Station Height(m) 86
Record Time       2011/03/11 14:48:02
Sampling Freq(Hz) 100Hz
Duration Time(s)  300
Dir.              U-D
Scale Factor      3920(gal)/6182761
Max. Acc. (gal)   15.619
Last Correction   2011/03/11 14:47:47
Memo.             
[...]
   -7666    -6752    -5915    -5162    -4633    -4481    -4708    -5138 
   -5564    -5879    -6018    -5932    -5652    -5277    -4909    -4653 
   -4595    -4671    -4675    -4486    -4186    -3933    -3817    -3839 
   -3978    -4193    -4421    -4641    -4907    -5327    -5987    -6891 
   -8004    -9281   -10649   -12057   -13531   -15077   -16564   -17842 
  -18872   -19705   -20377   -20878   -21181   -21297   -21235   -20946 
  -20397   -19651   -18832   -18028   -17245   -16424   -15542   -14644 
  -13726   -12709   -11571   -10421    -9436    -8737    -8339    -8167 
   -8042    -7751    -7223    -6544    -5817    -5098    -4426    -3802 
   -3137    -2360    -1568     -914     -450     -184     -115     -191 
    -370     -668    -1047    -1400    -1672    -1890    -2093    -2309 
   -2529    -2740    -3009    -3396    -3848    -4296    -4727    -5139 
   -5539    -5978    -6527    -7195    -7918    -8596    -9147    -9496 
   -9586    -9501    -9454    -9567    -9725    -9726    -9522    -9213 
   -8866    -8467    -7973    -7318    -6463    -5462    -4437    -3497 
   -2694    -2002    -1356     -718      -66      605     1261     1880 
    2507     3196     3974     4844     5775     6711     7607     8442 
    9235    10007    10666    11073    11213    11178    11022    10782 
   10567    10459    10348    10048     9518     8845     8111     7379 
    6744     6310     6117     6104     6147     6119     5971     5755 
    5562     5413     5230     4921     4464     3895     3295     2826 
    2639     2740     3018     3374     3773     4181     4492     4575 
    4360     3828     2995     1963      880     -189    -1227    -2152 
   -2859    -3354    -3734    -4051    -4264    -4358    -4419    -4583 
   -4919    -5412    -6035    -6727    -7422    -8121    -8854    -9625 
  -10418   -11231   -12066   -12813   -13331   -13638   -13790   -13808 
  -13786   -13810   -13875   -13945   -13985   -13913   -13614   -13110 
  -12564   -12076   -11607   -11116   -10622   -10167    -9728    -9178 
   -8457    -7658    -6880    -6118    -5320    -4469    -3556    -2587 
   -1665     -903     -254      443     1240     2007     2629     3131 
    3565     3968     4405     4882     5242     5264     4892     4308 
    3744     3279     2853     2422     2052     1882     2032     2499 
    3117     3635     3912     3991     3951     3763     3351     2689 
    1832      927      189     -261     -523     -819    -1312    -2002 
   -2781    -3562    -4303    -4977    -5632    -6347    -7099    -7820 
   -8487    -9058    -9467    -9690    -9741    -9595    -9207    -8631 
   -8030    -7535    -7166    -6833    -6431    -5981    -5628    -5496 
   -5588    -5792    -5976    -6138    -6350    -6647    -7031    -7506 
   -8077    -8736    -9416   -10017   -10497   -10893   -11258   -11635 
  -12110   -12770   -13576   -14352   -14932   -15267   -15449   -15599 
  -15743   -15835   -15843   -15774   -15642   -15425   -15086   -14686 
  -14341   -14056   -13710   -13188   -12496   -11686   -10747    -9689 
   -8659    -7831    -7235    -6741    -6208    -5611    -5008    -4495 
   -4155    -3999    -3984    -4066    -4172    -4189    -4079    -4021 
   -4207    -4553    -4826    -4959    -5012    -4990    -4911    -4873 
   -4882    -4805    -4554    -4216    -3929    -3693    -3412    -3067 
   -2715    -2392    -2093    -1783    -1370     -800     -192      232 
     373      330      256      200      124        9     -117     -217 
    -268     -281     -338     -537     -833    -1053    -1068     -889 
    -616     -349     -134        3       14     -144     -505    -1065 
   -1713    -2301    -2850    -3494    -4239    -4964    -5591    -6123 
   -6564    -6892    -7115    -7252    -7223    -6962    -6621    -6452 
   -6569    -6963    -7623    -8508    -9458   -10268   -10858   -11280 
  -11594   -11816   -11933   -11898   -11679   -11330   -10965   -10665 
  -10433   -10288   -10330   -10579   -10912   -11246   -11590   -11909 
  -12122   -12166   -12041   -11808   -11512   -11198   -10955   -10803 
  -10674   -10575   -10564   -10568   -10413   -10045    -9607    -9289 
   -9156    -9144    -9178    -9219    -9212    -9120    -8987    -8885 
   -8837    -8836    -8853    -8830    -8720    -8509    -8192    -7734 
   -7135    -6516    -6014    -5646    -5315    -4884    -4281    -3583 
   -2888    -2148    -1298     -425      317      852     1173     1266 
    1100      698      182     -292     -625     -812     -966    -1263 
   -1785    -2417    -2939    -3251    -3431    -3526    -3501    -3379 
   -3250    -3224    -3358    -3540    -3627    -3564    -3278    -2830 
   -2440    -2208    -2133    -2175    -2247    -2292    -2251    -2071 
   -1790    -1450    -1047     -606     -194      153      434      596 
     581      444      242      -49     -368     -561     -586     -499 
    -388     -367     -440     -539     -682     -884    -1082    -1246 
   -1410    -1640    -1996    -2511    -3173    -3948    -4792    -5673 
   -6605    -7595    -8637    -9746   -10863   -11790   -12325   -12411 
  -12180   -11852   -11569   -11378   -11314   -11346   -11348   -11222 
  -10980   -10687   -10369    -9974    -9416    -8672    -7830    -7011 
   -6259    -5563    -4898    -4211    -3415    -2440    -1311     -156 
     913     1851     2598     3098     3391     3634     3988     4516 
    5171     5834     6359     6675     6840     6949     7012     6940 
    6635     6085     5413     4791     4315     4005     3876     3954 
    4246     4675     5046     5178     5019     4657     4250     3903 
    3568     3072     2245     1023     -530    -2215    -3786    -5140 
   -6268    -7178    -7917    -8468    -8770    -8834    -8725    -8507 
   -8213    -7871    -7543    -7255    -6978    -6746    -6665    -6812 
   -7207    -7847    -8729    -9807   -10967   -12071   -13035   -13819 
  -14431   -14961   -15483   -15960   -16310   -16492   -16577   -16711 
  -16952   -17242   -17553   -17856   -18075   -18189   -18205   -18135 
  -17971   -17661   -17196   -16622   -16023   -15537   -15242   -15095 
  -14997   -14868   -14687   -14494   -14337   -14208   -14022   -13673 
  -13109   -12322   -11327   -10155    -8861    -7528    -6259    -5149 
   -4284    -3693    -3278    -2912    -2605    -2482    -2604    -2895 
   -3197    -3383    -3433    -3390    -3292    -3222    -3246    -3350 
   -3479    -3598    -3714    -3896    -4207    -4607    -4984    -5289 
   -5588    -5990    -6530    -7136    -7723    -8276    -8811    -9321 
   -9750    -9949    -9744    -9149    -8383    -7618    -6815    -5874 
   -4867    -4005    -3431    -3120    -2934    -2755    -2526    -2213 
   -1821    -1402     -998     -629     -291       40      373      713 
    1082     1519     2040     2619     3219     3802     4261     4401 
    4106     3474     2715     1953     1188      348     -613    -1632 
   -2595    -3435    -4165    -4842    -5490    -6044    -6404    -6509 
   -6364    -6033    -5548    -4895    -4106    -3299    -2591    -2037 
   -1653    -1453    -1417    -1489    -1604    -1728    -1893    -2118 
   -2325    -2423    -2407    -2284    -1990    -1460     -760      -41 
     656     1433     2315     3169     3882     4443     4829     4980 
    4940     4885     4926     5011     5042     4972     4724     4181 
    3289     2132      853     -379    -1392    -2103    -2551    -2830 
   -2991    -3012    -2856    -2474    -1838    -1070     -416       -4 
     207      256      174        6     -289     -742    -1200    -1475 
   -1612    -1788    -2034    -2246    -2388    -2527    -2731    -3058 
   -3511    -3965    -4211    -4160    -3950    -3846    -4072    -4681 
   -5585    -6695    -7905    -9035    -9981   -10751   -11327   -11693 
  -11948   -12245   -12627   -12937   -12951   -12592   -11937   -11074 
  -10066    -9008    -8031    -7219    -6584    -6069    -5602    -5176 
   -4862    -4724    -4770    -4962    -5245    -5586    -5974    -6387 
   -6820    -7241    -7529    -7572    -7378    -6962    -6343    -5646 
   -5060    -4712    -4590    -4617    -4799    -5130    -5447    -5592 
   -5574    -5469    -5277    -4955    -4501    -3985    -3471    -2973 
   -2496    -2066    -1702    -1405    -1178    -1060    -1092    -1305 
   -1725    -2300    -2904    -3447    -3912    -4273    -4477    -4472 
   -4219    -3729    -3139    -2659    -2386    -2245    -2132    -2052 
   -2091    -2312    -2664    -3037    -3374    -3679    -3981    -4330 
   -4753    -5194    -5537    -5713    -5778    -5871    -6027    -6130 
   -6081    -5894    -5638    -5420    -5371    -5583    -6032    -6580 
   -7092    -7558    -8048    -8571    -9077    -9559   -10005   -10288 
  -10254    -9968    -9704    -9668    -9884   -10303   -10839   -11378 
  -11853   -12190   -12210   -11786   -10971    -9892    -8588    -7003 
   -5134    -3169    -1370      113     1271     2256     3283     4399 
    5442     6237     6724     6950     6994     6923     6858     6936 
    7159     7416     7654     7914     8226     8554     8832     8981 
    8902     8564     8094     7675     7383     7185     7057     7008 
    7008     6980     6909     6860     6880     6976     7127     7265 
    7296     7150     6799     6288     5692     5068     4484     4021 
    3699     3465     3274     3093     2903     2722     2581     2507 
    2516     2534     2404     2059     1621     1275     1037      740 
     323      -19      -70      120      318      407      389      228 
     -66     -355     -554     -719     -917    -1117    -1255    -1358 
   -1497    -1671    -1875    -2162    -2527    -2877    -3142    -3317 
   -3407    -3433    -3470    -3511    -3431    -3196    -2877    -2501 
   -2113    -1774    -1470    -1258    -1270    -1524    -1914    -2348 
   -2839    -3431    -4053    -4608    -5151    -5795    -6538    -7244 
   -7822    -8379    -8997    -9534    -9900   -10135   -10185   -10061 
   -9942    -9898    -9826    -9632    -9293    -8832    -8297    -7737 
   -7242    -6981    -7099    -7586    -8287    -8985    -9502    -9845 
  -10182   -10623   -11152   -11751   -12440   -13186   -13926   -14668 
  -15462   -16297   -17048   -17558   -17798   -17859   -17792   -17585 
  -17294   -17051   -16866   -16587   -16251   -16054   -15955   -15951 
  -16180   -16557   -16988   -17437   -17809   -18108   -18325   -18412 
  -18413   -18375   -18295   -18159   -17957   -17697   -17359   -16872 
  -16201   -15425   -14668   -14003   -13425   -12887   -12363   -11857 
  -11396   -11051   -10879   -10813   -10714   -10476   -10029    -9361 
   -8558    -7719    -6880    -6006    -5068    -4114    -3201    -2312 
   -1449     -703     -180      100      185       75     -286     -878 
   -1567    -2204    -2716    -3132    -3513    -3854    -4082    -4191 
   -4334    -4671    -5192    -5748    -6164    -6316    -6219    -6013 
   -5845    -5746    -5591    -5258    -4783    -4313    -3998    -3888 
   -3921    -4055    -4288    -4562    -4775    -4914    -5050    -5190 
   -5255    -5206    -5038    -4775    -4488    -4220    -3996    -3868 
   -3855    -3934    -4109    -4406    -4794    -5172    -5488    -5763 
   -6002    -6192    -6334    -6468    -6692    -7110    -7699    -8295 
   -8724    -8935    -9022    -9091    -9144    -9103    -8886    -8478 
   -8006    -7706    -7729    -7981    -8185    -8133    -7882    -7603 
   -7370    -7177    -6992    -6763    -6464    -6113    -5747    -5394 
   -5077    -4852    -4775    -4845    -4971    -5019    -4895    -4580 
   -4152    -3745    -3432    -3186    -2976    -2778    -2557    -2312 
   -2104    -2034    -2223    -2682    -3231    -3724    -4145    -4484 
   -4813    -5274    -5888    -6610    -7458    -8486    -9704   -10986 
  -12176   -13187   -13967   -14616   -15243   -15736   -16070   -16279 
  -16331   -16359   -16468   -16576   -16611   -16513   -16280   -16054 
  -15916   -15760   -15443   -14937   -14315   -13661   -12980   -12236 
  -11455   -10681    -9911    -9125    -8309    -7513    -6875    -6436 
   -5995    -5336    -4451    -3510    -2644    -1758     -677      556 
    1734     2713     3467     4049     4503     4828     5011     5022 
    4830     4508     4212     3989     3715     3233     2516     1690 
     907      219     -399     -935    -1331    -1510    -1450    -1262 
   -1139    -1227    -1542    -1914    -2113    -2058    -1829    -1558 
   -1381    -1353    -1396    -1357    -1093     -574      106      825 
    1459     1879     2026     1911     1544      942      173     -672 
   -1525    -2376    -3227    -4012    -4636    -5081    -5391    -5641 
   -5941    -6335    -6792    -7301    -7796    -8147    -8364    -8607 
   -9020    -9609   -10224   -10701   -11026   -11300   -11583   -11824 
  -11937   -11878   -11696   -11499   -11371   -11303   -11144   -10733 
  -10112    -9456    -8913    -8575    -8451    -8446    -8406    -8253 
   -8057    -7876    -7627    -7160    -6385    -5327    -4105    -2887 
   -1794     -805      130      939     1556     2044     2464     2761 
    2890     2910     2871     2718     2412     2028     1646     1247 
     814      409       90     -139     -274     -258      -96       48 
     -22     -410    -1138    -2135    -3264    -4441    -5653    -6882 
   -8077    -9170   -10189   -11283   -12545   -13927   -15347   -16750 
  -18101   -19397   -20675   -21958   -23210   -24330   -25226   -25924 
  -26504   -26988   -27405   -27850   -28386   -28937   -29365   -29613 
  -29732   -29771   -29711   -29510   -29097   -28381   -27383   -26293 
  -25307   -24513   -23928   -23493   -23045   -22465   -21834   -21295 
  -20752   -19932   -18808   -17647   -16589   -15591   -14708   -14005 
  -13414   -12960   -12753   -12743   -12774   -12808   -12910   -13027 
  -13010   -12893   -12867   -12954   -13019   -13055   -13157   -13338 
  -13576   -13922   -14406   -14947   -15457   -15902   -16253   -16488 
  -16629   -16755   -16875   -16832   -16479   -15892   -15283   -14770 
  -14340   -13939   -13524   -13091   -12699   -12392   -12097   -11646 
  -10914    -9929    -8860    -7841    -6891    -6045    -5364    -4765 
   -4066    -3221    -2330    -1485     -717      -33      548     1003 
    1378     1733     2029     2247     2443     2645     2865     3131 
    3375     3441     3179     2575     1831     1187      726      416 
     182      -68     -372     -705    -1061    -1452    -1861    -2290 
   -2750    -3231    -3702    -4083    -4326    -4500    -4649    -4713 
   -4654    -4511    -4292    -3940    -3471    -3041    -2786    -2696 
   -2755    -2996    -3332    -3595    -3773    -3987    -4279    -4607 
   -4968    -5365    -5720    -5898    -5893    -5836    -5720    -5378 
   -4800    -4169    -3575    -2992    -2448    -2042    -1803    -1637 
   -1429    -1164     -867     -487       -6      433      676      762 
     856     1001     1124     1200     1239     1174      902      405 
    -242     -950    -1639    -2290    -2963    -3719    -4514    -5210 
   -5734    -6134    -6421    -6532    -6473    -6392    -6417    -6511 
   -6594    -6638    -6618    -6498    -6279    -6067    -5936    -5794 
   -5571    -5287    -4864    -4217    -3390    -2482    -1600     -817 
    -119      534     1194     1926     2674     3284     3734     4111 
    4445     4777     5187     5700     6251     6685     6900     6957 
    6886     6606     6136     5638     5209     4764     4174     3458 
    2789     2313     2079     2095     2298     2539     2766     3093 
    3599     4196     4721     5107     5410     5679     5950     6331 
    6871     7427     7833     8028     8042     7963     7860     7753 
    7644     7526     7426     7400     7434     7439     7388     7375 
    7491     7753     8141     8561     8884     9079     9223     9400 
    9617     9822    10042    10410    10956    11478    11766    11850 
   11866    11830    11688    11438    11114    10710    10144     9298 
    8165     6878     5594     4368     3155     1921      684     -546 
   -1827    -3225    -4648    -5875    -6742    -7205    -7368    -7518 
   -7934    -8614    -9324    -9823    -9960    -9711    -9201    -8634 
   -8136    -7687    -7223    -6727    -6201    -5678    -5267    -5098 
   -5164    -5297    -5336    -5238    -4993    -4604    -4134    -3595 
   -3023    -2574    -2320    -2170    -1947    -1517     -994     -610 
    -426     -384     -458     -608     -706     -648     -492     -421 
    -579    -1001    -1662    -2512    -3435    -4273    -4952    -5456 
   -5758    -5889    -5953    -6040    -6187    -6389    -6546    -6516 
   -6260    -5927    -5739    -5849    -6249    -6787    -7347    -7973 
   -8713    -9481   -10172   -10780   -11366   -12032   -12797   -13554 
  -14196   -14720   -15191   -15692   -16253   -16817   -17307   -17685 
  -17947   -18118   -18258   -18472   -18836   -19287   -19679   -19910 
  -19907   -19577   -18937   -18196   -17629   -17391   -17411   -17466 
  -17381   -17126   -16765   -16385   -16065   -15862   -15792   -15759 
  -15536   -14965   -14164   -13272   -12175   -10859    -9607    -8505 
   -7473    -6750    -6345    -5913    -5607    -5607    -5686    -5805 
   -5947    -6040    -6176    -6128    -5659    -5075    -4588    -4086 
   -3607    -3176    -2668    -2091    -1546    -1098     -773     -520 
    -336     -236      -85      184      354      223     -145     -591 
   -1056    -1567    -2077    -2393    -2410    -2230    -1966    -1662 
   -1387    -1208    -1149    -1234    -1506    -1982    -2632    -3358 
   -4005    -4454    -4657    -4626    -4457    -4285    -4130    -3939 
   -3757    -3723    -3880    -4130    -4393    -4685    -4994    -5238 
   -5368    -5391    -5354    -5369    -5585    -6110    -6942    -7945 
   -8936    -9745   -10253   -10467   -10542   -10660   -10883   -11177 
  -11537   -12021   -12637   -13277   -13837   -14298   -14648   -14871 
  -15018   -15147   -15250   -15296   -15278   -15220   -15137   -14993 
  -14738   -14378   -13913   -13305   -12588   -11862   -11130   -10284 
   -9262    -8123    -6960    -5794    -4598    -3416    -2384    -1586 
   -1027     -663     -386      -93      226      491      611      508 
     173     -284     -725    -1114    -1551    -2147    -2902    -3764 
   -4675    -5511    -6177    -6717    -7236    -7797    -8364    -8779 
   -9010    -9245    -9570    -9973   -10499   -11065   -11566   -12038 
  -12498   -12922   -13305   -13669   -14021   -14293   -14414   -14476 
  -14594   -14726   -14858   -15016   -15199   -15507   -15934   -16374 
  -16837   -17261   -17533   -17607   -17435   -17052   -16577   -16062 
  -15514   -14938   -14369   -13865   -13378   -12766   -11958   -10959 
   -9815    -8638    -7561    -6673    -5960    -5306    -4625    -3884 
   -3071    -2269    -1641    -1299    -1253    -1444    -1806    -2292 
   -2842    -3363    -3783    -4081    -4247    -4275    -4223    -4186 
   -4227    -4325    -4435    -4571    -4770    -5045    -5436    -5931 
   -6329    -6399    -6148    -5770    -5446    -5296    -5346    -5505 
   -5584    -5428    -5092    -4744    -4408    -4038    -3649    -3222 
   -2725    -2228    -1833    -1567    -1364    -1126     -800     -381 
     107      598     1038     1416     1710     1903     2019     2060 
    2005     1866     1675     1469     1303     1177     1028      852 
