Origin Time       2011/03/11 14:46:00
Lat.              38.103
Long.             142.860
Depth. (km)       24
Mag.              9.0
Station Code      HKD109
Station Lat.      42.1678
Station Long.     142.7673
Station Height(m) 4
Record Time       2011/03/11 14:47:53
Sampling Freq(Hz) 100Hz
Duration Time(s)  300
Dir.              E-W
Scale Factor      3920(gal)/6182761
Max. Acc. (gal)   24.762
Last Correction   2011/03/11 14:47:38
Memo.             
[...]
   -2027    -1162     -434        8      106       40      242      787 
    1241     1353     1265     1291     1927     3536     5851     8161 
    9802    10482    10439    10124     9714     9230     8681     7722 
    5839     2989     -422    -3871    -6806    -8831    -9933   -10351 
  -10138    -9070    -7117    -4808    -3002    -2348    -2997    -4645 
   -6582    -8044    -8776    -8858    -8214    -6791    -4834    -2668 
    -563     1215     2578     3608     4293     4618     4699     4693 
    4706     4771     4974     5342     5484     5044     4164     2825 
     953     -667    -1310    -1440    -1364     -679      350     1297 
    2451     3852     5178     6306     7126     7598     7857     7884 
    7392     6090     3916     1097    -1889    -4612    -7053    -9404 
  -11483   -12789   -13489   -14582   -16021   -16275   -15007   -13007 
   -9841    -5160      264     5808    10846    14867    17770    19249 
   19166    17792    15194    11331     6459     1019    -4466    -9484 
  -13748   -17086   -19229   -19968   -19261   -17265   -14492   -11486 
   -8475    -5706    -3292     -854     1681     3921     5936     7768 
    8870     9110     8947     8711     8467     7972     6848     5048 
    2830      468    -1812    -3871    -5673    -7247    -8670    -9856 
  -10472   -10361    -9544    -7895    -5476    -2794     -433     1274 
    2382     3203     3912     4461     4690     4422     3667     2678 
    1788     1292     1184      927      -78    -1886    -4067    -5974 
   -7038    -7116    -6412    -5290    -4164    -3171    -2075     -631 
    1130     3075     5196     7477     9601    10985    11237    10502 
    9220     7655     5786     3527      900    -1925    -4522    -6330 
   -7138    -7166    -6599    -5475    -3943    -2231     -376     1703 
    3778     5352     6217     6540     6540     6432     6395     6414 
    6484     6716     6840     6288     5000     3511     2285     1450 
    1030     1069     1424     1643     1451     1135      925      526 
    -352    -1528    -2672    -3694    -4613    -5327    -5845    -6316 
   -6641    -6620    -6288    -5613    -4368    -2391      261     3228 
    5952     8036     9419    10321    11056    11607    11620    10813 
    9061     6446     3358       48    -3509    -7102   -10376   -13155 
  -15184   -16220   -16280   -15409   -13669   -11275    -8457    -5466 
   -2572      181     2875     5321     7270     8803    10069    11041 
   11582    11457    10538     8967     7023     5079     3347     1504 
    -817    -3475    -6035    -7828    -8468    -8364    -7693    -6090 
   -3851    -1623      494     2395     3791     4740     5374     5652 
    5606     5347     4990     4671     4602     5086     6113     7270 
    8359     9432    10295    10671    10341     8908     6181     2557 
   -1283    -4639    -7212    -9484   -12064   -14862   -17202   -18331 
  -17936   -16268   -13405    -9039    -3906      402     3929     7670 
   11121    13642    15564    16559    15934    13866    10854     7300 
    3785     1008     -490     -623      126     1157     2208     3232 
    4314     5722     7609     9632    11110    11564    10981     9616 
    7637     5091     2156     -854    -3702    -6247    -8365    -9835 
  -10362    -9841    -8533    -6841    -4979    -2876     -419     2210 
    4559     6321     7544     8340     8667     8384     7320     5492 
    3154      400    -2811    -6154    -8963   -10624   -10704    -9061 
   -5946    -1897     2320     6063     9234    12046    14601    16601 
   17328    16440    14346    11422     7971     4684     2002     -325 
   -2739    -5483    -8440   -11169   -13201   -14229   -14240   -13507 
  -12151    -9943    -6773    -3107      266     2909     4849     6117 
    6628     6383     5500     4092     2212       55    -1954    -3442 
   -4171    -3869    -2326      272     3276     5958     7961     9371 
   10429    11260    11759    11553    10235     7663     3955     -558 
   -5432   -10199   -14393   -17787   -20536   -22875   -24777   -25846 
  -25524   -23503   -19707   -14200    -7670    -1164     4985    10995 
   16736    21720    25363    27152    27074    25576    22816    18472 
   12531     5641    -1332    -7515   -12188   -15210   -17004   -18002 
  -18286   -17703   -16186   -13846   -10877    -7637    -4522    -1452 
    1980     5706     9278    12413    14701    15505    14523    11951 
    8380     4677     1509    -1028    -3190    -5065    -6372    -6756 
   -6160    -4829    -3115    -1467     -331      162       94     -504 
   -1383    -2063    -2429    -2699    -2934    -3157    -3494    -3954 
   -4432    -4908    -5447    -6083    -6710    -7114    -7173    -6898 
   -6235    -5187    -4091    -3238    -2564    -2111    -2028    -2076 
   -2006    -1803    -1160      211     2004     3666     4855     5586 
    6047     6257     6111     5417     3783      938    -2775    -6610 
  -10059   -12927   -15037   -16178   -16140   -14842   -12493    -9380 
   -5752    -2094     1008     3433     5449     6963     7534     7182 
    6245     4834     3161     1439     -630    -3294    -6039    -8090 
   -9039    -8798    -7600    -5946    -4258    -2685    -1183      210 
    1333     2181     2835     3320     3700     3845     3251     1576 
    -992    -4232    -8216   -12425   -15503   -16993   -17814   -18548 
  -19127   -19388   -18847   -17026   -13798    -9371    -4453      194 
    4133     7060     9028    10439    11407    11750    11519    10998 
   10383     9783     9187     8151     6066     2847    -1030    -4936 
   -8313   -10866   -12532   -13293   -13413   -13299   -12762   -11301 
   -9045    -6540    -4069    -1680      648     3057     5646     8182 
   10224    11504    12122    12488    12870    13009    12459    11150 
    9297     7048     4568     2255      471     -906    -2239    -3568 
   -4671    -5340    -5430    -4903    -3816    -2287     -556     1224 
    3031     4610     5629     6153     6525     7067     7826     8476 
    8775     8786     8544     8071     7503     6918     6392     6109 
    6013     5745     5247     4724     4005     2810     1336      196 
      73     1176     3000     4891     6424     7426     8163     9015 
    9868    10423    10595    10294     9504     8398     6998     5285 
    3485     1758      197     -798     -830      -34     1052     1918 
    2271     1994     1134     -113    -1543    -3023    -4504    -5891 
   -6955    -7564    -7678    -7036    -5431    -3017        1     3380 
    6610     9243    11109    12088    12107    11282     9802     7696 
    4967     1962     -619    -2182    -2684    -2542    -2179    -1767 
   -1247     -379     1017     2747     4493     6244     8108    10153 
   12515    15087    17423    19285    20770    21876    22346    22000 
   20960    19419    17397    14899    12041     8962     5829     2816 
      27    -2421    -4329    -5659    -6681    -7546    -7981    -7642 
   -6470    -4643    -2298      474     3413     6254     8843    10918 
   12204    12521    11628     9421     6530     3963     1429    -2193 
   -6188    -9291   -12200   -15091   -16567   -16404   -15125   -12653 
   -9241    -5286     -939     3420     7723    12319    17011    20984 
   23514    24316    23489    21210    17747    13661     9549     5779 
    2529     -174    -2441    -4431    -6231    -7771    -8829    -9188 
   -8830    -8013    -7063    -6167    -5572    -5619    -6339    -7394 
   -8379    -9034    -9352    -9530    -9721    -9908   -10057   -10242 
  -10575   -11043   -11456   -11682   -11811   -11899   -11767   -11216 
  -10198    -8763    -7017    -5113    -3129    -1060      982     2944 
    5186     7959    10693    12618    13781    14396    14036    12651 
   10831     8613     5741     2368    -1405    -5523    -9557   -13012 
  -15732   -17801   -19382   -20580   -21258   -21299   -20844   -19985 
  -18639   -16806   -14590   -12014    -9111    -6033    -2858      318 
    3044     4912     6107     6993     7470     7107     5622     3203 
     422    -2149    -4085    -5130    -5262    -4515    -2953     -830 
    1611     4324     7183     9902    12356    14535    16187    16989 
   16893    16122    15004    13702    12106    10167     8065     5978 
    4083     2745     2255     2491     3161     4203     5636     7293 
    8911    10231    11018    11146    10639     9699     8630     7551 
    6370     5046     3664     2399     1458      735     -283    -1847 
   -3439    -4609    -5626    -6325    -5898    -4425    -2600     -534 
    1724     3852     5664     6942     7556     7738     7733     7507 
    6918     5883     4398     2600      837     -459    -1049    -1050 
    -779     -478     -181      251      895     1682     2628     3836 
    5206     6401     7227     7898     8667     9403     9896    10292 
   10852    11508    11929    11993    11875    11681    11316    10718 
    9921     8936     7654     5742     2801    -1203    -5729    -9915 
  -13045   -14764   -15016   -14031   -12190    -9799    -7021    -4001 
    -963     1867     4343     6356     7801     8667     9191     9822 
   10901    12441    14255    16070    17517    18248    17981    16576 
   14218    11272     8114     5215     2974     1385      308      -45 
     729     2725     5571     8564    11011    12618    13479    13753 
   13552    12902    11642     9658     7245     4896     2763      646 
   -1543    -3636    -5412    -6584    -6834    -6140    -4689    -2606 
    -131     2399     4899     7369     9556    11174    12243    13031 
   13674    14001    13799    12980    11577     9883     8368     7224 
    6371     5915     6067     6769     7777     8913    10094    11280 
   12369    13217    13759    13948    13700    13028    12017    10643 
    8882     6874     4693     2191     -782    -4144    -7550   -10660 
  -13348   -15542   -17098   -17960   -18195   -17802   -16679   -14856 
  -12559   -10015    -7427    -5175    -3787    -3622    -4593    -6202 
   -7897    -9511   -11240   -13207   -15356   -17653   -20052   -22321 
  -24161   -25493   -26403   -26891   -26932   -26564   -25843   -24884 
  -23873   -22845   -21565   -19839   -17742   -15512   -13360   -11311 
   -9350    -7712    -6557    -5699    -4982    -4339    -3543    -2478 
   -1322     -190      942     1974     2785     3487     4355     5588 
    7178     8964    10699    12017    12631    12523    11679    10004 
    7782     5579     3512     1567       70     -956    -1774    -2340 
   -2533    -2187    -1125      449     2123     3562     4561     5232 
    5977     7020     8239     9498    10655    11441    11659    11389 
   10940    10517    10034     9325     8334     7075     5654     4271 
    3068     2018      983      -77    -1063    -1941    -2596    -2602 
   -1693      -31     2091     4269     6005     7032     7396     7353 
    7071     6447     5429     4105     2472      580    -1374    -3280 
   -5127    -6695    -7535    -7401    -6470    -5066    -3490    -2079 
    -977      187     1751     3165     3822     4193     4795     5332 
    5699     6266     7272     8811    10918    13501    16207    18463 
   19956    20790    21170    21271    21213    21036    20750    20353 
   19747    18761    17265    15265    12916    10523     8489     7004 
    5890     4952     4102     3108     1828      668      152      363 
    1144     2378     4024     5897     7588     8976    10155    11004 
   11629    12411    13347    14094    14384    14059    13131    11810 
   10300     8758     7321     5992     4746     3714     3072     2965 
    3382     3915     4082     3800     3099     1924      453     -993 
   -2275    -3420    -4533    -5641    -6528    -6892    -6584    -5660 
   -4318    -2775    -1179      277     1384     2199     3014     4076 
    5562     7566     9916    12215    14040    15123    15530    15548 
   15382    15101    14698    14017    12943    11666    10444     9359 
    8505     7988     7696     7299     6558     5671     4874     3796 
    2215      809     -152    -1353    -2805    -3670    -3671    -3083 
   -2058     -635     1068     2829     4505     6061     7370     8224 
    8445     7941     6709     4791     2363     -310    -3165    -6207 
   -9083   -11200   -12260   -12430   -11973   -11060    -9932    -8931 
   -8303    -7974    -7711    -7507    -7429    -7260    -6699    -5674 
   -4285    -2708    -1209       17     1016     1986     3077     4210 
    5118     5592     5563     5141     4538     3772     2693     1167 
    -976    -3849    -7331   -11087   -14691   -17775   -20111   -21598 
  -22267   -22227   -21581   -20358   -18403   -15453   -11524    -7071 
   -2680     1256     4564     7214     9357    11404    13792    16423 
   18709    20361    21534    22179    22116    21615    20941    19856 
   18433    17216    16322    15557    14975    14710    14802    15259 
   16057    17221    18792    20541    22063    23062    23195    22183 
   20237    17777    15016    12112     9144     5914     2240    -1688 
   -5390    -8270    -9815    -9804    -8395    -6135    -3450     -228 
    3393     6590     8859    10251    10577     9680     8128     6665 
    5471     4348     3069     1407     -754    -3247    -5577    -7093 
   -7610    -7755    -8245    -9155   -10152   -10862   -10943   -10306 
   -9127    -7568    -5783    -3905    -1932       52     1676     2564 
    2616     1857      243    -2314    -5647    -9337   -13259   -17534 
  -22087   -26729   -31145   -34819   -37252   -38141   -37440   -35337 
  -32177   -28407   -24477   -20813   -17735   -15326   -13454   -11737 
   -9710    -7470    -5661    -4433    -3345    -2272    -1483    -1184 
   -1438    -1950    -2159    -1972    -1618    -1188    -1112    -1826 
   -2994    -3957    -4169    -3416    -2036     -495      944     2225 
    3515     5189     7378     9431    10844    12028    13205    14185 
   15154    16170    16901    17329    17631    17715    17577    17542 
   17762    17953    17777    17066    15774    14060    12333    10982 
    9963     8904     7723     6687     5954     5553     5540     5842 
    6209     6513     6858     7377     8061     8701     9067     9137 
    8880     8104     6783     5080     2983      409    -2471    -5400 
   -8292   -11266   -14448   -17511   -19826   -21261   -22082   -22316 
  -22028   -21535   -20900   -20074   -19067   -17503   -14964   -11581 
   -7724    -3710      144     3565     6372     8550    10278    11649 
   12524    12794    12364    11023     8857     6505     4540     2896 
    1108    -1001    -3022    -4452    -5165    -5234    -4856    -4406 
   -4179    -4239    -4525    -4814    -4816    -4504    -4125    -3827 
   -3475    -2768    -1374      836     3625     6576     9365    11945 
   14514    17117    19534    21585    23297    24752    25900    26559 
   26530    25601    23583    20450    16408    11733     6663     1483 
   -3517    -8231   -12590   -16296   -18987   -20408   -20332   -18736 
  -15938   -12195    -7530    -2154     3419     8751    13679    18139 
   21963    24976    27188    28626    29188    28797    27560    25775 
   23806    21894    19893    17246    13875    10741     8511     6657 
    4942     4178     4673     5854     7570     9882    12345    14713 
   17144    19544    21605    23095    23940    24267    24120    23231 
   21303    18214    14147     9693     5384     1433    -1914    -4495 
   -6401    -7524    -7692    -7063    -5792    -4011    -2066     -276 
    1150     2131     2832     3411     3752     3638     2966     1682 
    -292    -2904    -5876    -8817   -11426   -13642   -15593   -17421 
  -19168   -20729   -21866   -22452   -22665   -22841   -23177   -23594 
  -23868   -23911   -23741   -23214   -22253   -21196   -20477   -20278 
  -20624   -21411   -22436   -23545   -24567   -25250   -25336   -24758 
  -23839   -22970   -22111   -20845   -18738   -15708   -12083    -8361 
   -4963    -1979      852     3696     6456     9139    11881    14572 
   16856    18446    19220    19128    18177    16524    14370    11819 
    9210     7063     5379     3966     2990     2396     1903     1601 
    1699     2226     3176     4555     6251     7983     9485    10546 
   10916    10435     9081     7016     4553     1988     -413    -2460 
   -4254    -6073    -7990    -9831   -11591   -13507   -15708   -18217 
  -20972   -23666   -25959   -27633   -28523   -28621   -27933   -26565 
  -25027   -23554   -21814   -20028   -18919   -18451   -18214   -18374 
  -19057   -19804   -20180   -20205   -20189   -20347   -20548   -20550 
  -20262   -19745   -19184   -18724   -18294   -17656   -16574   -15010 
  -13127   -11030    -8807    -6674    -4804    -3268    -2153    -1437 
   -1008     -754     -391      420     1590     2674     3423     3884 
    4097     4037     3786     3573     3668     4128     4643     4874 
    4703     4144     3437     2923     2637     2432     2263     2051 
    1710     1406     1400     1710     2225     2958     4061     5613 
    7476     9412    11105    12252    12777    12751    12269    11434 
   10343     9365     9087     9616    10496    11332    11901    11943 
   11386    10458     9255     7543     5194     2383     -743    -4087 
   -7316   -10021   -11953   -12937   -12886   -11881   -10106    -7770 
   -4982    -1790     1523     4535     7150     9619    12059    14267 
   15965    17017    17575    17889    17792    17045    15880    14521 
   12913    11097     9229     7548     6233     5177     4314     3808 
    3620     3445     3168     2992     3217     3903     4722     5340 
    5702     5890     6061     6345     6686     6954     7171     7467 
    7838     8170     8509     8894     9198     9501    10028    10646 
   10992    10872    10205     8927     7161     5282     3568     1922 
     174    -1638    -3382    -4858    -5752    -5818    -5062    -3700 
   -2001      -75     1974     3804     5354     6930     8313     9007 
    8907     7776     5564     2887       35    -3131    -6489    -9976 
  -13616   -17072   -19917   -22143   -23943   -25220   -25748   -25395 
  -24045   -21822   -19257   -16892   -14711   -12162    -8928    -5327 
   -1746     1677     4879     7799    10192    12053    13968    15680 
   16140    15601    14913    14018    12973    12072    11080     9750 
    8061     6090     3988     1788     -404    -2291    -3638    -4465 
   -4924    -4960    -4450    -3575    -2657    -1878    -1271     -775 
    -355     -159     -532    -1737    -3611    -5752    -8082   -10850 
  -14105   -17565   -20840   -23495   -25055   -25124   -23793   -21750 
  -19507   -17055   -14462   -12008    -9727    -7363    -4772    -2115 
     418     2815     5006     6769     8018     8820     9188     9083 
    8543     7751     6994     6489     6362     6692     7425     8426 
    9692    11270    12983    14679    16581    18835    21050    22762 
   23821    24150    23666    22412    20502    17983    14863    11253 
    7377     3529       17    -3015    -5586    -7689    -9232   -10015 
   -9910    -9038    -7576    -5603    -3244     -555     2536     5882 
    9052    11717    13887    15892    18025    20070    21406    21560 
   20543    18814    16825    14664    12304     9708     6797     3822 
    1302     -484    -1559    -2101    -2313    -2190    -1547     -303 
