Origin Time       2011/03/11 14:46:00
Lat.              38.103
Long.             142.860
Depth. (km)       24
Mag.              9.0
Station Code      HKD184
Station Lat.      42.7898
Station Long.     141.6008
Station Height(m) 69
Record Time       2011/03/11 14:47:57
Sampling Freq(Hz) 100Hz
Duration Time(s)  300
Dir.              U-D
Scale Factor      3920(gal)/6182761
Max. Acc. (gal)   14.456
Last Correction   2011/03/11 14:47:42
Memo.             
[...]
   -6053    -8965    -9195    -7592    -5638    -4142    -3658    -3743 
   -3511    -3268    -3720    -5034    -7565   -11144   -14150   -15142 
  -13857   -10676    -6568    -2263     1965     4959     5679     4572 
    1760    -3054    -7958   -10053    -9038    -6655    -4090    -1126 
    3049     7707    10236     8879     4233    -2002    -7990   -12335 
  -15182   -16848   -15718   -10742    -3710     3486    10189    14461 
   13384     6740    -2348   -10141   -14821   -17203   -18213   -16657 
  -11598    -4120     4463    12463    16865    16356    12664     7023 
    -138    -6932   -12057   -16007   -18111   -16880   -13298    -9499 
   -5833    -2545     -997    -1254    -2159    -3701    -6443    -9809 
  -12644   -14230   -14405   -13638   -12411   -10769    -9162    -7799 
   -5612    -2126     1445     3686     3900     2508      539    -1887 
   -4918    -7618    -9359   -11177   -13594   -14891   -13907   -11951 
   -9875    -6694    -2518      704     1986     1843      289    -3088 
   -7597   -11618   -13867   -14029   -12511   -10063    -7695    -6212 
   -5621    -5260    -4600    -4262    -5153    -6316    -6489    -7024 
   -9089   -10236    -8237    -4778    -2146     -307     1383     2409 
    1253    -2864    -8043   -11340   -12123   -11560   -10494    -9255 
   -7508    -4589    -1273      444     -396    -3288    -7207   -10767 
  -12749   -12811   -11066    -7812    -3662      566     3621     4399 
    3272     1320    -1804    -7062   -13320   -18204   -20387   -19224 
  -14910    -9243    -4113     -332     1424      587    -1757    -3734 
   -5325    -7643   -10636   -13088   -13512   -11150    -7269    -4067 
   -1908     -275       27    -1332    -3309    -5061    -5760    -4838 
   -2866     -408     2192     3547     2445     -143    -2491    -4155 
   -5383    -6600    -7787    -7382    -4531    -1571     -844    -1436 
   -1779    -2673    -5982   -11594   -16410   -17178   -14075    -9482 
   -4847    -1271      146      -38     -806    -2189    -4027    -5950 
   -8217   -10442   -10913    -8902    -6172    -4766    -5264    -7479 
  -10618   -13313   -14950   -16381   -18062   -18258   -15340   -10295 
   -5052     -970      644     -666    -3330    -5256    -6036    -6437 
   -6672    -6298    -5134    -3410     -915     2692     5778     5588 
    2166    -1924    -5580    -9386   -12822   -14192   -12612    -8542 
   -3446      555     2281     2348     1223    -1779    -6408   -10582 
  -12639   -12615   -10752    -6965    -2012     2562     5416     5656 
    3289     -394    -4340    -8489   -11809   -12511   -10578    -7062 
   -3011     -401     -668    -2810    -5119    -6923    -8095    -9214 
  -11076   -12345   -11047    -7911    -4267     -161     3235     4536 
    4700     4455     2761      -39    -2324    -3885    -4628    -3630 
   -1292      802     1598      808     -580     -469     1428     2484 
     869    -1961    -3869    -4313    -3327    -1288      473     1020 
     624      -95     -596    -1010    -2262    -4323    -5865    -6080 
   -5113    -3664    -2949    -3190    -3104    -2325    -1548     -741 
    -165     -595    -2042    -4838    -9437   -14159   -16390   -15896 
  -14769   -14449   -13682    -9879    -3124     3156     6778     8362 
    8200     5852     1653    -3871   -10013   -14957   -16835   -15156 
  -10717    -5315    -1183       66    -1633    -4791    -8094   -11421 
  -14653   -17203   -18519   -18088   -16148   -14092   -12609   -11022 
   -9548    -9288    -9955   -10661   -11531   -12668   -13206   -11991 
   -8735    -4649    -1363      625     1272      156    -2222    -4460 
   -6423    -9274   -13112   -15954   -15981   -13823   -10928    -7714 
   -4881    -3262    -2136     -483     1254     1998     1246     -823 
   -3794    -7097    -9273    -8790    -6359    -4058    -2318     -298 
    2234     4556     4982     2660     -634    -3202    -5464    -7753 
   -9450   -10151    -9636    -7783    -4708     -277     5091     9386 
   10820     9420     5982     1317    -4049   -10039   -15640   -18661 
  -17955   -14352    -9565    -5061    -1088     2830     5892     6619 
    4743      707    -4355    -8062    -8740    -6763    -3371     -174 
    1042      212     -742     -881    -1296    -2956    -5819    -9076 
  -11346   -11700   -10019    -6650    -2776     -149      455      143 
     517     1342      560    -2834    -7163   -10422   -12182   -12586 
  -12189   -11833   -11299    -9929    -8177    -6956    -6198    -5653 
   -6118    -7635    -7890    -4871      -18     3391     3915     1883 
   -1983    -6101    -8879   -10306   -11215   -11670   -10896    -8478 
   -5041    -1831      210      700     -655    -3363    -6195    -8796 
  -11006   -11820   -10651    -7241    -1575     3975     6307     5632 
    3714      973    -2237    -5429    -8694   -11336   -12205   -11655 
  -10665    -9126    -6960    -4933    -3309    -2006    -1774    -3402 
   -6396    -9386   -11307   -11494    -9457    -5716    -2124     -118 
     688     1137      854    -1001    -4155    -7181    -8925    -9380 
   -8497    -5654    -1583     1561     2600     1486    -1433    -4762 
   -7223    -9374   -11659   -12518   -10790    -7557    -4138     -915 
    1635     2483      755    -2674    -5211    -5660    -5477    -5755 
   -5806    -5446    -5551    -6510    -7983    -9204    -9363    -8136 
   -5607    -2620     -787     -593     -716     -416     -264     -412 
   -1134    -3372    -6214    -7153    -5618    -3114    -1040     -175 
    -351     -541     -922    -2860    -6176    -9356   -11571   -12542 
  -12223   -10882    -9005    -7533    -6602    -4660    -1050     2295 
    3352     2139     -448    -3682    -6646    -8556    -8917    -7395 
   -4544    -1483     1377     4094     5637     4110     -215    -4735 
   -8386   -12039   -15202   -16376   -16029   -15283   -13200    -9022 
   -4349     -888      853     1039      617        6    -1365    -3027 
   -4536    -7066   -10555   -12982   -13328   -11565    -7753    -3286 
      59     2465     4691     5967     5608     4190     1854    -1889 
   -6476   -10582   -13809   -16368   -17624   -16030   -10473    -2217 
    5443    10467    12997    13069    10331     5697      480    -5524 
  -12508   -18671   -21668   -20421   -15399    -8412    -1781     2736 
    4441     3709     1432    -1782    -5683    -9927   -13704   -15596 
  -14309   -10234    -5836    -3490    -3411    -4737    -7084   -10450 
  -15108   -20522   -24227   -24255   -21589   -18287   -15013   -11508 
   -7679    -3854     -992     -312    -2203    -5401    -7545    -7719 
   -7376    -7429    -7104    -6382    -6153    -6097    -5261    -3770 
   -2338    -1275     -512      305     1731     4082     6861     8481 
    7555     4843     2112     -436    -3425    -6268    -7326    -5425 
   -1116     3621     6928     8194     7733     5765     2841      392 
   -1054    -2644    -4636    -5544    -4556    -2280      343     2372 
    3017     2053      -28    -2479    -4657    -6068    -6970    -7965 
   -8764    -9174    -9741    -9940    -8685    -6878    -6495    -7740 
   -8947    -8741    -7625    -6847    -6197    -4775    -2733     -646 
     945     1120     -462    -2917    -5721    -8985   -11618   -12328 
  -11610   -10250    -8418    -6904    -6403    -6553    -6938    -7445 
   -8213    -9539   -10427    -9392    -7207    -5126    -2289      989 
    1721     -776    -3980    -6834   -10306   -14629   -18519   -20168 
  -19182   -17079   -15090   -13196   -11345    -9651    -8159    -7245 
   -7018    -7052    -7598    -8955    -9764    -8682    -6860    -6280 
   -7050    -7878    -7910    -7320    -6328    -4880    -3957    -4608 
   -5827    -6356    -6631    -6947    -6731    -6401    -7110    -8469 
   -8665    -6758    -3684    -1252     -480     -887    -1480    -2196 
   -4151    -8146   -12995   -16477   -17737   -16949   -13900    -8880 
   -3148     2315     7003     9937    10043     7474     3282    -1611 
   -6272    -9914   -12023   -11853    -9341    -5784    -2463      222 
    2156     2773     1477    -1139    -3561    -4922    -5528    -5567 
   -4320    -1960     -384     -823    -2468    -4181    -5751    -6974 
   -7712    -8433    -8584    -6933    -4038    -1327      802     2239 
    2757     2489     1550       41    -1834    -4495    -8127   -11446 
  -13211   -13199   -11461    -8775    -6475    -5048    -4365    -4452 
   -5238    -6580    -8442   -10543   -12294   -12882   -11277    -7514 
   -3510     -728     1426     3375     3730     1043    -3789    -8138 
  -10816   -12470   -12894   -11372    -9219    -8263    -8000    -7296 
   -6402    -5839    -5846    -6138    -5825    -5169    -5406    -6406 
   -6922    -6432    -5322    -4151    -3647    -4613    -6905    -9154 
  -10198   -10287   -10336   -10652   -11092   -11388   -10953    -9594 
   -8211    -7878    -8445    -8732    -8354    -8436    -9805   -11385 
  -11417    -9879    -8177    -6984    -6132    -5628    -5665    -6532 
   -8232    -9892   -10435    -9944    -9728   -10484   -10833    -8875 
   -5067    -2188    -2022    -3451    -4610    -5155    -5324    -4695 
   -3101    -1295       34      735      680     -250    -1901    -3760 
   -4841    -4149    -1480     2304     5640     7224     6946     5688 
    4044     2037      357      140     1488     3337     4251     3626 
    2428     1653      864     -586    -2267    -3685    -5023    -6075 
   -6372    -6090    -5295    -3917    -2620    -1922    -1483    -1020 
    -653     -432     -679    -1902    -3662    -5067    -5835    -5714 
   -4695    -3622    -2821    -1807    -1099    -1955    -4379    -7077 
   -8520    -8073    -6946    -6479    -6361    -6316    -6559    -6282 
   -5232    -4826    -5642    -7083    -9237   -11926   -13851   -14458 
  -14338   -13997   -13641   -12835   -10775    -7758    -4966    -3066 
   -2117    -2168    -3285    -4965    -6353    -7669    -9829   -12335 
  -13254   -11201    -6697    -1965      683      767     -214     -917 
   -1784    -4002    -7370   -10046   -11063   -11880   -13905   -16152 
  -16779   -15557   -13781   -12681   -12522   -12267   -10528    -7575 
   -5030    -3478    -2314    -1889    -3072    -4884    -5755    -5751 
   -4953    -2515      894     2944     2840     1812      589    -1101 
   -3414    -6491   -10269   -13443   -14134   -11919    -8392    -5482 
   -3359    -1344      106      804     1723     2565     1851     -208 
   -2054    -2850    -2392     -951      400      899      673       18 
    -568     -824    -1684    -4078    -7369    -9717    -8967    -4419 
    1601     6115     8341     8771     7711     5072      618    -5061 
  -10150   -12817   -12471    -9734    -5779    -1513     2687     5756 
    6097     3488    -1277    -7142   -12090   -14512   -15030   -14601 
  -12623    -9022    -5320    -2150     1090     3546     2703    -2174 
   -8470   -13179   -15141   -14352   -11897    -9795    -8884    -7981 
   -6056    -3880    -3254    -5426    -9586   -13239   -14750   -13952 
  -10934    -6213     -815     4308     8041     9465     8740     6269 
    1912    -3809    -9184   -12580   -13616   -13162   -11828    -8871 
   -4105      528     3319     4456     3844      543    -4605    -8848 
  -10588   -11060   -12454   -14598   -15200   -13549   -11067    -8782 
   -7013    -5696    -3905    -1267      728      556    -1539    -4558 
   -8044   -11546   -13785   -13370   -10728    -8182    -7142    -6619 
   -5116    -2517     -291     -401    -3309    -7351   -10230   -10219 
   -6708    -1018     3899     5990     6139     6307     6460     4998 
    1509    -2300    -4759    -5892    -5856    -4073     -638     3382 
    6926     9197     9334     7192     3676    -1024    -6859   -11868 
  -13926   -12738    -9339    -5574    -2558      872     5361     8531 
    8551     6015      637    -7536   -14775   -17943   -18345   -17831 
  -16368   -13997   -11030    -7898    -5812    -5515    -6587    -8314 
   -9491    -9057    -7910    -7662    -8323    -9405   -10960   -12263 
  -12461   -12335   -12773   -12819   -11026    -7290    -2602     1575 
    3541     2512     -751    -5102    -9590   -13102   -15341   -17502 
  -19828   -19838   -15136    -6687     1858     7144     8356     6884 
    3858     -787    -6717   -12735   -17916   -21564   -22703   -20753 
  -16147   -10007    -3639     1777     5484     7305     7598     6621 
    3894     -467    -4453    -6410    -7402    -9217   -11484   -12687 
  -12684   -12433   -11863    -9865    -6943    -5350    -5480    -5832 
   -6122    -6472    -6249    -5991    -7020    -8798    -9783    -9866 
   -9489    -8584    -7693    -8048   -10337   -13661   -15890   -15743 
  -13394    -9522    -5301    -2092     -324      666     1215      215 
   -3184    -7784   -11806   -14488   -15234   -13012    -8041    -2209 
    3454     8737    12303    13173    11837     8587     3838     -885 
   -4542    -7468    -9680   -10378    -9655    -8234    -5808    -1850 
    2555     5058     4475     1817    -1506    -4695    -7185    -8882 
   -9670    -8850    -6561    -4421    -3562    -3405    -2734    -1297 
    -706    -2897    -7213   -11237   -13621   -13792   -11585    -8275 
   -5142    -2151       78      469      177      544      695      343 
     -65    -1698    -4809    -7257    -7773    -6370    -3097      581 
    3239     6034     9431    11156    10089     7355     3301    -2555 
   -8941   -12825   -12489    -9419    -5879    -1855     3182     8203 
   12708    16520    17677    14865     9121     1781    -5379    -9479 
   -9554    -8055    -7220    -6889    -6335    -4911    -2686    -1730 
   -3661    -7152   -10006   -11484   -12029   -12402   -12424   -10596 
   -7254    -5457    -5863    -5918    -5446    -6579    -9054   -10858 
  -11101   -10115    -9193    -9156    -8444    -5687    -2426     -489 
     109     -436    -2429    -5858   -10018   -13618   -15756   -16806 
  -17339   -16884   -15020   -12370    -9780    -7765    -6268    -5026 
   -4613    -5694    -7766   -10040   -12298   -14032   -14122   -12129 
   -8871    -5347    -1996      842     2470     2177     -246    -4514 
  -10139   -16173   -20738   -22076   -20089   -15975   -11270    -7353 
   -4468    -1582     1720     3874     2960    -1027    -6252   -10559 
  -12549   -11862    -9057    -5353    -1823     1144     3332     4859 
    6079     5863     2751    -1647    -4478    -5762    -7087    -8613 
   -9588    -9435    -8050    -6093    -4035    -1974    -1045    -2339 
   -4890    -6843    -7642    -8263    -9767   -11956   -13267   -12007 
   -8268    -4061    -1393     -835    -1511    -2389    -3504    -5642 
   -9232   -13089   -14735   -13053    -9333    -5365    -2422    -1096 
    -538     -137    -1344    -4838    -8773   -12179   -15752   -18308 
  -17621   -14449   -10653    -5874       75     5360     8372     8812 
    6907     3055    -2237    -8059   -13064   -16590   -18553   -17909 
  -13657    -6890      458     7183    11852    12621     8945     2847 
   -2750    -7295   -11506   -14112   -13725   -10963    -6167      426 
    6362     9227     9296     7551     3881    -1853    -8665   -14441 
  -17176   -16619   -13627    -8631    -2567     2302     4392     4235 
    2523    -1492    -7391   -11943   -13107   -12678   -12278   -10877 
   -8063    -4905    -2141     -648     -717    -1342    -2694    -5466 
   -8127    -9284    -9486    -8644    -6715    -5769    -6681    -7354 
   -6724    -6045    -6049    -6253    -5854    -4478    -3451    -4345 
   -5905    -5904    -4870    -4179    -2812      496     4627     8097 
   10438    10900     9142     6330     3372     -113    -4169    -7416 
   -8124    -5910    -2034     1522     3016     2195      440    -1374 
   -3580    -6359    -9906   -14297   -18025   -19231   -17823   -14275 
   -8566    -1806     3482     5440     4259     1554    -1697    -6052 
  -11748   -17254   -20443   -19996   -15652    -8951    -3181     -255 
     826     1024      -71    -2681    -6520   -10737   -13666   -14005 
  -12063    -9433    -7289    -5525    -3960    -3209    -3837    -5111 
   -5338    -3797    -1530     -122     -222    -1379    -2902    -4351 
   -5762    -7479    -9459   -11379   -13117   -14691   -15853   -15763 
  -13726   -10492    -8147    -7771    -8146    -8335    -8916    -9987 
  -11529   -14141   -17178   -18856   -18051   -14795   -10490    -7002 
   -4722    -3467    -4163    -7184   -11680   -16961   -21376   -22465 
  -19801   -14734    -8531    -2402     2221     4114     2795     -869 
   -5236    -9929   -15316   -19895   -21454   -19855   -16196   -11146 
   -5506     -503     3078     4738     4067     1615    -1743    -6041 
  -10954   -14772   -16306   -16170   -15403   -14367   -12840   -10378 
   -7370    -5495    -6308    -9318   -11886   -12329   -11921   -11551 
   -9765    -6180    -2743     -805      297     1696     3064     2798 
     102    -3710    -6236    -6171    -4082    -1124     1702     3357 
    3748     4058     4808     5240     4918     4092     2880     1543 
     999     2037     4361     6279     5593     2179    -1660    -4282 
   -5836    -6943    -8167    -9419    -9485    -7723    -5067    -2141 
     920     2662     1828    -1081    -5347    -9737   -12389   -13227 
  -13308   -12606   -10747    -7678    -3271     1525     4637     5037 
    2497    -3170   -10096   -15049   -17009   -17084   -16001   -13629 
  -10031    -6076    -2791     -751     -277    -1165    -2801    -5074 
   -7833    -9972   -10715   -10485    -9372    -6901    -3937    -2375 
   -2713    -3768    -4808    -6290    -7933    -8465    -8002    -7756 
   -7533    -5943    -2757      124      828      -46     -957    -1987 
   -3862    -6180    -8034    -8758    -7742    -5363    -3304    -2498 
   -2669    -3497    -4100    -3585    -2721    -2713    -3589    -4844 
   -5847    -5712    -4530    -4179    -6142    -9104   -10255    -8624 
   -5824    -3529    -2115    -1916    -3190    -4743    -5076    -4531 
   -4653    -6000    -7367    -7147    -5139    -2401     -149      843 
     720      200     -538    -1954    -4131    -6590    -8988   -10560 
   -9986    -7146    -3597    -1225     -582     -621     -574     -764 
   -1423    -2370    -3750    -5684    -7336    -7606    -6453    -4673 
   -3144    -2626    -2984    -2877    -1788     -808     -425     -528 
   -1597    -2801    -1823     1305     3449     2486     -284    -1930 
   -1025      852     1387      466     -975    -2687    -4061    -3994 
   -2468     -602      491      -77    -2308    -4106    -3508    -1573 
    -450    -1091    -3384    -5731    -5986    -3953    -1309      395 
     746      206     -845    -2704    -5281    -7310    -8277    -9430 
  -11420   -12969   -12604   -10371    -7654    -5890    -5654    -6328 
   -6740    -6938    -7871    -9083    -9360    -8857    -8392    -7805 
   -6226    -3324      158     2763     3296     1712    -1235    -4974 
   -9054   -12653   -14597   -14184   -12120    -9506    -6395    -3043 
   -1141    -1566    -2697    -3104    -3381    -3858    -3775    -3361 
   -3525    -3583    -2251     -446     -343    -2512    -5804    -8694 
  -10195   -10579   -10946   -11676   -12064   -11615   -10789   -10316 
  -10080    -9158    -7583    -6836    -7622    -8768    -9007    -8627 
   -8677    -9458   -10630   -11765   -12168   -11432   -10071    -8564 
