Origin Time       2011/03/11 14:46:00
Lat.              38.103
Long.             142.860
Depth. (km)       24
Mag.              9.0
Station Code      HKD159
Station Lat.      41.7160
Station Long.     141.0046
Station Height(m) 23
Record Time       2011/03/11 14:47:35
Sampling Freq(Hz) 100Hz
Duration Time(s)  300
Dir.              E-W
Scale Factor      3920(gal)/6182761
Max. Acc. (gal)   48.892
Last Correction   2011/03/11 14:47:20
Memo.             
[...]
  -37326   -42154   -44034   -43666   -41891   -39194   -35805   -31610 
  -26312   -20058   -13870    -9207    -6805    -6058    -5648    -4831 
   -4111    -4693    -7439   -12044   -17162   -21594   -24998   -27571 
  -29594   -31038   -31495   -30614   -28416   -25249   -21803   -18992 
  -17363   -16682   -16319   -15840   -15076   -13916   -12647   -12042 
  -12506   -13961   -16374   -19523   -22838   -25774   -27951   -29134 
  -29257   -28207   -25703   -21775   -17267   -13417   -10946    -9857 
   -9966   -10869   -11752   -12122   -12214   -12486   -13290   -14667 
  -16239   -17641   -18817   -19970   -21494   -23575   -25937   -28232 
  -30317   -32074   -33258   -33395   -31833   -28277   -23160   -17405 
  -12203    -8582    -6837    -6746    -7919    -9645   -11224   -12444 
  -13316   -13831   -14121   -14576   -15446   -16359   -16668   -16228 
  -15747   -16294   -18175   -20523   -21896   -21289   -18881   -15756 
  -13105   -11927   -12703   -15109   -18466   -22358   -26646   -30950 
  -34344   -35685   -33999   -29177   -22621   -16553   -12945   -12776 
  -15337   -18969   -22444   -25109   -26791   -27673   -27612   -26132 
  -22998   -18511   -13716   -10034    -8328    -8644   -10538   -12980 
  -14584   -14745   -14135   -13835   -14252   -14876   -15057   -14937 
  -15415   -17234   -20464   -24617   -28516   -30650   -30390   -28181 
  -24669   -20334   -15616   -11149    -7673    -5529    -4538    -4321 
   -4418    -4553    -5020    -6365    -8819   -12424   -17031   -21934 
  -26270   -29713   -32275   -33985   -35050   -35520   -34930   -32984 
  -29961   -26319   -22443   -18503   -14350    -9849    -5588    -2839 
   -2492    -4407    -7590   -10800   -13438   -15650   -17643   -19615 
  -21827   -24362   -27163   -29951   -31993   -32436   -31087   -28554 
  -25667   -23022   -20854   -19056   -17173   -14587   -11176    -7710 
   -5375    -5130    -7164   -10662   -14496   -17933   -20620   -22515 
  -23705   -24098   -23447   -21522   -18480   -15318   -13531   -13981 
  -16227   -18950   -20830   -21400   -21430   -21937   -23068   -24380 
  -25339   -25344   -23958   -21208   -17707   -14570   -12832   -12624 
  -13222   -14161   -15593   -17431   -19184   -20399   -20550   -19045 
  -15820   -11793    -8756    -8590   -11739   -16526   -20676   -23091 
  -23987   -24142   -24159   -23968   -23061   -21251   -19032   -17301 
  -17072   -19104   -22983   -27155   -30167   -31170   -29663   -25470 
  -19000   -11275    -3653     2220     4972     4433     1429    -2868 
   -7254   -11172   -14972   -19171   -23905   -29103   -34582   -39870 
  -44454   -47833   -49169   -47604   -42802   -35114   -25558   -15372 
   -5485     3643    12063    19855    26364    30325    30666    26927 
   18989     7409    -6069   -19517   -31401   -40359   -46071   -49665 
  -52308   -54134   -54698   -53334   -49134   -41674   -31523   -19894 
   -8244     2145    10413    15969    18507    18238    15615    10790 
    3844    -4704   -14119   -23766   -32776   -40091   -45222   -48129 
  -48743   -47070   -43351   -38336   -33229   -28831   -24983   -21127 
  -16849   -11762    -5877      -58     4690     7814     8801     7432 
    4240     -126    -5407   -11443   -17792   -23929   -29643   -34716 
  -38775   -41826   -43991   -44546   -42215   -36569   -28431   -19539 
  -12342    -8811    -9103   -11637   -13879   -14055   -12173    -8916 
   -5501    -3574    -3560    -4595    -5890    -7577   -10533   -15268 
  -21117   -26552   -30121   -31320   -30921   -30317   -30351   -30883 
  -31136   -30256   -28080   -25452   -23255   -21526   -19564   -16391 
  -11788    -6731    -2522     -356    -1154    -4879   -10371   -16077 
  -21000   -24981   -28336   -31542   -34956   -38302   -40490   -40698 
  -39405   -37580   -35599   -33294   -30135   -25267   -18047    -8683 
    1733    11680    19488    23565    23043    18090     9587    -1220 
  -12956   -24408   -34462   -41793   -45516   -45846   -43454   -38972 
  -33272   -27478   -22412   -18197   -14495   -10861    -7049    -3276 
      81     2843     4808     5691     5325     3535     -169    -6255 
  -14393   -23456   -31930   -38136   -41014   -40685   -37899   -33310 
  -27481   -21419   -16235   -12172    -9048    -7061    -6237    -6407 
   -7950   -11188   -15323   -19105   -21924   -23411   -23095   -20975 
  -17903   -15530   -15254   -16973   -19451   -21523   -22622   -22441 
  -20688   -17538   -13699   -10053    -7508    -6567    -7158    -9247 
  -13172   -19147   -26341   -32880   -37181   -38917   -38724   -37169 
  -34503   -31021   -26690   -21293   -15020    -8597    -3266     -116 
     562     -638    -2433    -3773    -4523    -5199    -6659    -9551 
  -13777   -18848   -24236   -29297   -33459   -36580   -38924   -40367 
  -40261   -38414   -34964   -29883   -23470   -16393    -9078    -1419 
    6483    13605    18393    19196    15434     8553      510    -7558 
  -15246   -22999   -31322   -39604   -46525   -51019   -53033   -53278 
  -51838   -48299   -42617   -34726   -24574   -12579      515    13403 
   24330    31726    34179    30904    22626    11166    -1500   -13887 
  -25133   -34830   -42967   -49871   -55960   -61091   -64480   -65441 
  -63532   -58435   -50120   -38930   -25875   -12344      634    12154 
   21318    27658    30973    31131    28053    21787    12806     1974 
  -10062   -22969   -35878   -47116   -55216   -59682   -60774   -58849 
  -54053   -46836   -38140   -28880   -20045   -12787    -7813    -4853 
   -2590      247     3796     7418    10201    11482    11079     8586 
    3717    -3042   -11219   -20414   -29696   -38038   -44705   -49185 
  -51253   -51116   -49018   -44889   -38922   -31646   -23505   -15182 
   -7579    -1348     3120     5712     6735     6633     5465     2917 
   -1123    -6496   -13047   -20389   -27657   -33892   -38575   -41499 
  -42524   -41942   -40447   -38502   -36139   -33163   -29288   -24226 
  -17720    -9761    -1214     6052    10172    10328     6814      419 
   -7959   -17055   -25452   -32280   -36923   -38893   -38289   -35492 
  -31004   -25666   -20369   -15713   -11980    -9539    -8753    -9048 
   -9221    -8638    -7423    -6168    -5865    -7532   -11368   -16566 
  -21910   -26264   -29273   -31365   -32810   -33653   -33763   -32567 
  -29705   -25145   -19094   -12620    -7024    -3014    -1031    -1262 
   -3457    -6964   -10964   -14707   -17447   -18926   -19817   -20751 
  -21672   -22652   -24059   -25734   -27174   -28046   -27801   -25639 
  -21001   -14138    -6571     -302     3517     4747     3676      504 
   -4794   -12032   -20397   -28577   -35120   -38770   -39222   -37424 
  -34399   -30584   -26354   -22122   -18377   -15666   -13909   -12391 
  -10622    -8703    -7346    -7492    -9391   -12227   -14670   -15954 
  -16361   -16693   -17696   -19442   -21136   -21799   -21193   -20075 
  -19619   -20667   -23041   -25692   -27695   -28657   -28538   -27707 
  -26965   -26919   -27356   -27416   -26284   -23882   -21021   -18526 
  -16100   -12543    -7279    -1143     4225     6872     5408      380 
   -6212   -12745   -18811   -24957   -32140   -41018   -51239   -61207 
  -68590   -71359   -68697   -60957   -49017   -34153   -17855    -1584 
   12660    22753    27798    28184    24921    19065    11393     2347 
   -7927   -19011   -29661   -38364   -44190   -47084   -47684   -46357 
  -42529   -35969   -27959   -20238   -13871    -9226    -5662    -1690 
    3585     9230    12809    12597     9350     4813     -190    -5345 
  -10151   -14022   -16985   -19787   -22725   -25489   -27951   -29653 
  -29677   -28169   -26751   -27018   -29532   -33778   -38183   -40808 
  -40709   -38296   -34412   -29379   -23067   -15704    -8138    -1455 
    3507     6335     7047     6244     4752     2838       48    -3879 
   -8337   -12639   -16861   -21620   -27640   -35280   -43782   -51437 
  -56567   -57888   -54837   -47928   -38263   -27087   -15620    -5138 
    2730     6994     8323     7918     6501     4634     2492     -349 
   -4021    -8236   -12828   -17254   -20633   -22849   -24894   -28249 
  -33418   -39086   -43520   -45747   -45182   -41798   -36741   -31407 
  -26566   -22787   -20064   -17923   -16337   -15309   -14500   -13351 
  -11300    -8192    -4638    -2088    -2135    -5290   -10241   -15082 
  -18986   -22160   -25301   -28738   -31631   -32641   -31337   -28486 
  -24974   -21044   -16774   -12913   -10424    -9664   -10735   -13124 
  -15089   -14923   -12280    -8199    -4450    -2411    -2584    -4842 
   -8541   -13229   -19047   -25667   -32072   -37382   -40641   -40899 
  -38611   -35515   -32537   -29185   -24728   -18711   -11086    -2859 
    4327     9595    12667    12849     9707     3879    -3931   -13369 
  -23555   -33118   -40915   -46614   -50798   -53967   -55898   -56108 
  -53981   -49075   -41687   -32246   -20939    -8492     3723    14013 
   20511    22216    19800    14457     6987    -1430    -9535   -17078 
  -23873   -28936   -31574   -32363   -32989   -34799   -37624   -40472 
  -42430   -42719   -40671   -36060   -29444   -21611   -12931    -3599 
    6035    14932    21007    22046    16994     6973    -4878   -15684 
  -24466   -31542   -37489   -42321   -45456   -46242   -44284   -40004 
  -34340   -27826   -20879   -13751    -6280      875     6199     8690 
    8007     4495     -759    -6848   -13140   -18967   -24022   -28306 
  -32083   -35799   -39291   -41932   -43353   -43051   -40320   -35227 
  -28545   -21084   -13697    -6919    -1254     2313     3592     3389 
    2244      436    -1726    -4291    -8072   -14313   -23553   -34817 
  -46210   -55828   -61861   -62940   -58569   -49375   -37355   -24906 
  -13621    -4680      943     3230     2984     1199    -1365    -4531 
   -8154   -11639   -14334   -16046   -17391   -19104   -21259   -23641 
  -25967   -27902   -29328   -30114   -30024   -29204   -27856   -25901 
  -23823   -22670   -22848   -23803   -24800   -25552   -25994   -25698 
  -23979   -20685   -16588   -12874   -10532    -9901   -10551   -11888 
  -13514   -15195   -16846   -18468   -20371   -22859   -25627   -28153 
  -30352   -32231   -32978   -31301   -26733   -19782   -11279    -2548 
    4381     7960     8132     5663     1373    -3943    -9786   -15967 
  -22214   -28218   -33664   -38222   -41712   -43928   -44659   -43870 
  -41457   -37196   -31272   -24677   -18462   -13020    -8364    -4372 
    -901     2391     5879     8943     9942     7322      483    -9936 
  -22354   -34790   -45527   -53798   -59786   -63643   -64776   -62391 
  -56286   -47136   -36478   -25991   -16418    -7682      121     6717 
   11976    15148    15165    12302     7846     2583    -3401   -10441 
  -18986   -28794   -38605   -46772   -52168   -54603   -54702   -53473 
  -51352   -47850   -42327   -34596   -25239   -15367    -6045     2023 
    8648    13551    16071    15987    13495     8612     1702    -6173 
  -13829   -20396   -25848   -31061   -36574   -41957   -46534   -49700 
  -50551   -48361   -43638   -37880   -32298   -26956   -21216   -15021 
   -9312    -5567    -4825    -6563    -9051   -10692   -10845   -10158 
  -10060   -11580   -14652   -18160   -20721   -21962   -22807   -24582 
  -28059   -32793   -37461   -40963   -42606   -41674   -37914   -32359 
  -26433   -20358   -13632    -6472       71     4623     5879     3449 
   -1539    -7174   -12409   -17720   -24132   -31957   -40175   -46969 
  -50927   -51755   -50295   -47840   -45354   -42771   -38299   -29660 
  -16806    -2269    10744    19387    22280    20820    17504    13547 
    9192     4227    -1985    -9407   -16963   -23431   -27970   -30811 
  -33360   -36591   -39941   -42022   -41942   -39801   -36358   -32493 
  -28803   -25538   -22635   -19507   -15202    -9611    -3740     1411 
    4933     5780     3778      -45    -4709    -9904   -15194   -19498 
  -21728   -21836   -20912   -20391   -21279   -23705   -27098   -30581 
  -33139   -34029   -33111   -30686   -27408   -23906   -20562   -17782 
  -15482   -12914    -9843    -7006    -5445    -5879    -8170   -11417 
  -14771   -17603   -19397   -20307   -21158   -22342   -22992   -21802 
  -18578   -14233    -9828    -6653    -6134    -8689   -13588   -19982 
  -26932   -33270   -38213   -41209   -41546   -38789   -33139   -25434 
  -17074    -9604    -3895      283     3425     5493     6131     4747 
     910    -4659   -10588   -16308   -21907   -27285   -32327   -37061 
  -41234   -44404   -46521   -47831   -48101   -46556   -42286   -34883 
  -25158   -14569    -4342     4646    11809    16575    18324    16993 
   13214     7532      276    -7792   -15574   -22576   -29149   -35661 
  -42180   -48558   -54124   -57909   -59209   -57466   -52236   -43910 
  -33556   -22118   -10775     -735     7579    13896    17994    20459 
   22022    22652    21788    18902    13802     6557    -2654   -13555 
  -25631   -38066   -49758   -59470   -66291   -69931   -70878   -69792 
  -66323   -59961   -51178   -40756   -29552   -18706    -9247    -1457 
    5038    10407    14420    16902    18033    18107    17161    14886 
   10604     3621    -5895   -17016   -29236   -42241   -55070   -66501 
  -75364   -80606   -81413   -77384   -68801   -56428   -41494   -25838 
  -11005     2613    15139    26248    35300    41609    44332    42770 
   36825    27132    14879     1191   -13438   -29091   -45539   -61443 
  -74771   -83606   -86860   -84981   -79525   -71764   -61903   -49271 
  -32837   -12415     9989    30738    46437    55456    58493    57388 
   53099    45274    33279    16932    -2776   -23816   -44173   -61737 
  -74687   -82579   -85827   -84841   -80025   -71835   -60653   -47148 
  -32740   -19086    -7282     2426    10211    16073    19592    20226 
   18167    14041     7923       72    -8221   -15754   -22153   -27262 
  -31282   -34848   -38079   -40488   -41643   -41192   -39273   -36868 
  -34791   -33066   -31280   -28928   -25600   -21358   -16903   -12650 
   -8446    -4606    -1868     -565     -588    -1989    -5131    -9870 
  -15291   -20495   -24924   -28363   -30877   -32421   -32810   -31863 
  -29357   -25509   -21471   -18605   -17600   -18437   -20497   -22809 
  -24580   -25370   -24676   -21912   -17121   -11192    -5403    -1026 
     795     -607    -4796   -10183   -14763   -17511   -19083   -20819 
  -23597   -27453   -31863   -35980   -38785   -39763   -38932   -36469 
  -32808   -28547   -24137   -20051   -16958   -14979   -13134   -10245 
   -6092    -1383     2656     4593     3669      296    -4477    -9777 
  -15148   -20447   -25722   -30709   -34737   -37070   -36991   -34370 
  -30370   -26805   -24794   -24265   -24306   -23936   -22952   -21856 
  -20996   -20283   -19227   -17179   -14267   -11278    -8674    -6789 
   -5993    -6280    -7321    -8363    -8340    -6808    -4508    -2667 
   -1978    -2536    -4366    -7549   -12205   -18258   -24929   -31136 
  -36062   -38935   -39391   -37913   -34848   -29960   -23396   -15886 
   -8115     -822     4704     7095     6190     2971    -1473    -6071 
   -9842   -12673   -15432   -18763   -22614   -27074   -32262   -37643 
  -42108   -44538   -44689   -43291   -41104   -38414   -35065   -30668 
  -25246   -19390   -13510    -7677    -2205     2285     5223     6161 
    4947     2003    -1940    -6116    -9782   -12582   -14708   -16771 
  -19852   -25149   -32999   -42199   -50547   -56185   -58283   -56995 
  -53080   -47156   -39524   -30720   -21430   -12156    -3706     2775 
    6736     8494     8785     8124     6389     3333     -885    -6063 
  -12063   -18389   -24250   -29390   -34676   -41190   -48718   -55675 
  -60277   -61224   -57901   -50531   -39753   -26746   -13439    -1380 
    8671    16239    21431    24782    26420    26054    23242    17411 
    8155    -4256   -18407   -32519   -45462   -56401   -64457   -68688 
  -68373   -63439   -54670   -43761   -32250   -20755    -9502     1296 
   10824    17539    20388    19374    15135     8625      734    -7776 
  -16193   -24154   -31590   -38530   -44998   -50787   -55270   -57366 
  -56190   -51899   -45573   -38326   -30631   -22536   -14332    -6893 
   -1405     1114      281    -3282    -8235   -13433   -18493   -23485 
  -28447   -33172   -36945   -38471   -36520   -30998   -23240   -15133 
   -8111    -2930       -8      648     -395    -2560    -5746    -9976 
  -15174   -21395   -28610   -36038   -42189   -46042   -47566   -47007 
  -44488   -39950   -33018   -23331   -11178     2254    15050    25285 
   31917    34898    34568    30880    23465    12582     -517   -13981 
  -26316   -36980   -45353   -50563   -52850   -53339   -52806   -51397 
  -48487   -43211   -35735   -26896   -17379    -8210     -450     5626 
    9828    11773    11536     9405     5584      542    -5214   -11431 
  -17803   -24052   -30329   -36973   -43586   -48745   -50953   -49661 
  -45453   -39516   -33225   -27911   -24199   -21809   -20061   -18238 
  -15703   -12014    -7384    -2486     2488     7365    11213    13111 
   12528     9057     3004    -4495   -12382   -20002   -26929   -33075 
  -38783   -44584   -50274   -54909   -57807   -58496   -56456   -51264 
  -42792   -31506   -18133    -3721     9719    20082    26738    30211 
   30732    27907    21665    12827     2554    -8137   -18657   -28780 
  -38021   -45703   -51328   -54508   -55183   -53627   -50234   -45461 
  -39499   -32496   -24679   -16039    -6903     1736     8635    13053 
   15279    15817    14568    11400     6622      505    -6824   -14941 
  -23326   -31769   -39878   -46407   -49886   -49807   -46914   -42499 
  -37493   -32167   -26219   -19249   -11546    -4177     1642     4788 
    4492     1076    -4317   -10812   -18068   -25736   -33034   -38811 
  -41856   -41538   -38135   -32518   -26132   -20412   -15929   -12680 
  -10374    -8476    -6678    -5036    -3751    -2921    -2324    -1794 
   -1627    -2538    -5298   -10105   -16457   -23243   -28992   -32730 
  -34332   -34149   -32871   -31509   -30869   -30505   -29179   -26805 
  -24211   -21469   -18271   -14642   -10551    -6066    -1980      629 
    1362      312    -2106    -4800    -6862    -8143    -8936   -10087 
  -12499   -16219   -20602   -24904   -28720   -32102   -35062   -37150 
  -37957   -37853   -37412   -36484   -34614   -31562   -27013   -21008 
  -14537    -8630    -3565      247     2035     1701     -280    -3464 
   -7398   -11727   -15843   -18486   -18901   -17968   -17344   -17846 
  -19039   -19843   -19340   -17564   -15860   -16171   -19372   -24491 
  -29824   -34248   -37442   -39606   -41044   -41443   -39925   -35795 
  -28845   -19707    -9763     -225     8056    14462    18792    20908 
   20377    16762    10149     1360    -8466   -18256   -27171   -34991 
  -41938   -48105   -53232   -56498   -56928   -54437   -49806   -43621 
  -36033   -27107   -16717    -5000     6939    17549    25560    29981 
   30264    26587    19686    10684      684   -10043   -21537   -33043 
  -43175   -50475   -53876   -53235   -49447   -43908   -37616   -30790 
  -23449   -16061    -9385    -4233    -1217     -234     -568    -1625 
   -3198    -5212    -7747   -11012   -14796   -18241   -20595   -21811 
  -22367   -23054   -24401   -25938   -26669   -26329   -25490   -24711 
  -24053   -23125   -21486   -18976   -16063   -13847   -13126   -13961 
