Origin Time       2011/03/11 14:46:00
Lat.              38.103
Long.             142.860
Depth. (km)       24
Mag.              9.0
Station Code      HKD176
Station Lat.      43.5324
Station Long.     141.5924
Station Height(m) 156
Record Time       2011/03/11 14:49:08
Sampling Freq(Hz) 100Hz
Duration Time(s)  197
Dir.              E-W
Scale Factor      3920(gal)/6182761
Max. Acc. (gal)   7.148
Last Correction   2011/03/11 14:48:53
Memo.             
[...]
    5705     6088     6525     6956     7324     7646     7959     8253 
    8501     8693     8834     8954     9089     9241     9391     9569 
    9855    10273    10737    11131    11403    11558    11611    11589 
   11534    11474    11412    11324    11173    10927    10572    10126 
    9636     9156     8741     8441     8288     8256     8284     8312 
    8291     8178     7943     7588     7154     6689     6249     5891 
    5623     5405     5206     5002     4754     4441     4089     3732 
    3386     3084     2893     2852     2924     3040     3163     3263 
    3308     3269     3132     2907     2656     2451     2324     2261 
    2250     2319     2495     2775     3138     3568     4065     4637 
    5285     5972     6640     7229     7678     7934     8002     7965 
    7927     7967     8141     8468     8888     9280     9529     9598 
    9534     9403     9222     8987     8714     8423     8106     7764 
    7445     7190     6988     6827     6728     6736     6891     7200 
    7609     8024     8371     8600     8646     8470     8113     7674 
    7243     6885     6666     6624     6728     6924     7200     7559 
    7970     8389     8783     9111     9343     9491     9602     9722 
    9895    10168    10571    11095    11691    12273    12760    13116 
   13311    13300    13081    12719    12313    11964    11770    11777 
   11965    12277    12631    12944    13169    13281    13254    13089 
   12828    12532    12251    12008    11809    11641    11487    11342 
   11199    11025    10783    10469    10096     9669     9211     8766 
    8358     7963     7574     7240     7034     6999     7137     7431 
    7843     8320     8819     9316     9794    10225    10578    10841 
   11010    11073    11036    10928    10784    10645    10569    10594 
   10677    10746    10816    10968    11267    11763    12449    13207 
   13878    14378    14667    14669    14328    13692    12847    11833 
   10676     9451     8240     7078     5995     5062     4332     3811 
    3530     3524     3761     4153     4621     5105     5529     5812 
    5918     5892     5795     5670     5561     5495     5454     5383 
    5246     5055     4848     4682     4629     4730     4957     5254 
    5564     5825     5983     6025     5989     5931     5897     5920 
    5987     6084     6262     6565     6976     7488     8119     8846 
    9614    10379    11122    11794    12306    12606    12711    12646 
   12406    11985    11436    10847    10269     9720     9226     8816 
    8494     8231     7999     7769     7502     7173     6793     6386 
    5979     5633     5429     5397     5517     5773     6134     6522 
    6878     7197     7482     7707     7840     7885     7852     7733 
    7527     7276     7050     6889     6780     6687     6604     6566 
    6599     6700     6875     7111     7364     7591     7757     7815 
    7743     7573     7386     7266     7245     7308     7440     7647 
    7951     8347     8786     9222     9635     9984    10225    10374 
   10493    10625    10760    10882    11008    11169    11359    11533 
   11658    11735    11771    11753    11661    11505    11294    11011 
   10626    10132     9590     9110     8766     8545     8387     8234 
    8048     7815     7552     7317     7167     7119     7176     7346 
    7603     7871     8062     8122     8067     7978     7927     7937 
    8008     8150     8382     8710     9089     9451     9739     9914 
    9969     9922     9816     9715     9642     9571     9486     9402 
    9322     9216     9073     8907     8721     8508     8264     7963 
    7566     7063     6495     5930     5432     5032     4711     4413 
    4073     3648     3159     2667     2241     1964     1934     2209 
    2753     3452     4191     4920     5612     6240     6802     7308 
    7758     8199     8690     9223     9755    10284    10823    11337 
   11756    12042    12190    12192    12038    11736    11306    10787 
   10236     9697     9189     8750     8452     8339     8398     8593 
    8880     9199     9478     9693     9901    10166    10489    10829 
   11130    11324    11383    11360    11304    11222    11123    11032 
   10964    10915    10872    10823    10743    10618    10473    10341 
   10239    10183    10172    10176    10173    10164    10160    10149 
   10097     9979     9801     9575     9351     9219     9249     9431 
    9692     9954    10151    10207    10058     9708     9230     8709 
    8211     7791     7495     7360     7428     7733     8276     9010 
    9841    10669    11405    11998    12449    12787    13056    13292 
   13490    13665    13891    14223    14612    14958    15162    15127 
   14786    14166    13390    12620    11996    11601    11443    11498 
   11777    12299    12975    13647    14212    14641    14902    14956 
   14785    14399    13836    13158    12422    11669    10899    10078 
    9198     8305     7448     6662     5965     5335     4731     4132 
    3545     2997     2529     2198     2071     2206     2608     3228 
    3979     4765     5497     6130     6653     7063     7345     7477 
    7464     7349     7194     7045     6909     6753     6538     6228 
    5787     5205     4503     3735     2970     2318     1894     1739 
    1850     2236     2889     3756     4754     5808     6868     7899 
    8850     9643    10199    10470    10459    10202     9770     9252 
    8716     8217     7826     7593     7485     7415     7322     7208 
    7094     6981     6855     6707     6517     6283     6062     5940 
    5968     6174     6574     7157     7857     8593     9280     9830 
   10160    10231    10053     9655     9065     8337     7565     6852 
    6286     5941     5868     6067     6489     7057     7678     8243 
    8676     8968     9139     9190     9114     8937     8704     8467 
    8275     8148     8065     7997     7928     7873     7886     7996 
    8168     8345     8502     8624     8677     8618     8425     8102 
    7724     7404     7215     7181     7294     7548     7950     8480 
    9059     9587    10003    10301    10471    10481    10323    10026 
    9642     9226     8824     8506     8360     8439     8718     9112 
    9535     9937    10274    10495    10558    10454    10209     9901 
    9622     9441     9429     9637    10047    10592    11209    11834 
   12347    12650    12751    12694    12474    12110    11659    11146 
   10589    10018     9445     8892     8423     8108     7971     7986 
    8111     8306     8542     8803     9073     9332     9569     9768 
    9879     9865     9750     9604     9478     9390     9350     9366 
    9435     9549     9685     9784     9784     9679     9495     9247 
    8943     8608     8271     7965     7743     7664     7758     8016 
    8420     8908     9363     9664     9725     9512     9039     8369 
    7584     6734     5832     4906     4018     3238     2604     2124 
    1805     1655     1673     1857     2188     2633     3176     3799 
    4480     5204     5959     6732     7484     8171     8795     9373 
    9872    10238    10453    10548    10564    10545    10550    10639 
   10846    11172    11594    12085    12598    13066    13419    13567 
   13410    12920    12158    11214    10180     9152     8202     7340 
    6548     5825     5204     4722     4420     4343     4513     4899 
    5447     6109     6811     7437     7902     8195     8334     8328 
    8216     8081     8013     8058     8231     8521     8874     9216 
    9504     9699     9741     9629     9431     9193     8899     8532 
    8106     7662     7282     7056     7029     7188     7495     7884 
    8268     8567     8747     8812     8783     8672     8492     8259 
    7994     7725     7465     7199     6915     6634     6395     6249 
    6232     6356     6619     7008     7493     8039     8604     9147 
    9654    10140    10623    11086    11485    11776    11928    11945 
   11871    11768    11687    11654    11682    11774    11904    12030 
   12129    12201    12215    12118    11908    11624    11299    10954 
   10595    10209     9786     9362     9005     8761     8643     8668 
    8833     9082     9345     9625     9964    10358    10771    11191 
   11609    12003    12345    12589    12684    12634    12519    12421 
   12367    12351    12377    12445    12530    12608    12645    12584 
   12385    12081    11744    11399    11002    10498     9856     9086 
    8257     7469     6818     6389     6248     6412     6852     7497 
    8214     8853     9304     9522     9528     9378     9127     8840 
    8575     8351     8149     7962     7835     7832     8000     8383 
    9007     9830    10746    11660    12549    13412    14225    14921 
   15400    15576    15447    15102    14665    14233    13874    13630 
   13519    13535    13661    13889    14222    14627    15028    15346 
   15519    15504    15317    15032    14714    14379    14036    13736 
   13529    13432    13488    13755    14207    14736    15244    15653 
   15891    15913    15713    15298    14701    13977    13171    12289 
   11311    10222     9052     7883     6810     5927     5304     4991 
    5021     5401     6102     7056     8168     9321    10399    11316 
   12020    12490    12734    12790    12697    12466    12083    11537 
   10857    10095     9344     8720     8288     8034     7905     7855 
    7890     8051     8354     8767     9234     9696    10113    10451 
   10649    10655    10484    10194     9827     9413     8989     8573 
    8164     7756     7340     6907     6486     6123     5844     5649 
    5515     5426     5410     5503     5696     5942     6204     6479 
    6784     7141     7562     8019     8466     8876     9244     9545 
    9739     9810     9780     9702     9608     9498     9352     9153 
    8924     8747     8699     8789     8965     9171     9349     9441 
    9413     9260     8983     8587     8117     7672     7370     7281 
    7396     7627     7865     8041     8107     8001     7658     7046 
    6202     5228     4269     3457     2863     2514     2441     2667 
    3188     3981     4980     6080     7159     8104     8836     9327 
    9609     9732     9719     9571     9308     8981     8639     8320 
    8062     7891     7811     7822     7926     8127     8427     8791 
    9135     9378     9501     9546     9571     9606     9658     9730 
    9847    10035    10301    10643    11021    11348    11554    11627 
   11563    11322    10877    10232     9390     8356     7211     6102 
    5144     4361     3744     3291     2996     2844     2844     3002 
    3271     3573     3832     3977     3964     3818     3619     3445 
    3335     3311     3382     3527     3700     3849     3950     4009 
    4059     4152     4323     4582     4943     5414     5988     6670 
    7469     8365     9299    10200    10982    11549    11859    11959 
   11928    11840    11736    11615    11452    11237    10982    10725 
   10522    10411    10384    10427    10537    10717    10952    11186 
   11371    11525    11687    11867    12048    12234    12459    12750 
   13110    13531    13980    14411    14790    15099    15319    15426 
   15404    15262    15022    14704    14301    13784    13155    12453 
   11699    10875     9955     8949     7884     6771     5610     4417 
    3229     2089     1057      206     -421     -794     -876     -664 
    -205      426     1153     1944     2780     3603     4329     4876 
    5210     5370     5434     5464     5515     5669     6021     6591 
    7297     8048     8790     9471    10052    10545    10992    11417 
   11826    12212    12536    12752    12869    12916    12893    12789 
   12620    12397    12097    11716    11287    10860    10471    10120 
    9785     9462     9187     9007     8940     8963     9038     9133 
    9224     9286     9267     9109     8815     8471     8150     7867 
    7627     7453     7324     7179     7001     6857     6836     6975 
    7273     7702     8191     8651     9017     9250     9341     9298 
    9145     8872     8452     7892     7258     6633     6083     5648 
    5338     5110     4924     4763     4600     4419     4246     4103 
    4008     3991     4082     4281     4567     4941     5422     5987 
    6554     7048     7415     7613     7636     7501     7225     6834 
    6393     5974     5633     5424     5426     5703     6275     7117 
    8139     9200    10191    11076    11846    12505    13087    13628 
   14095    14400    14480    14315    13900    13248    12426    11541 
   10709    10026     9556     9296     9182     9127     9065     8957 
    8780     8557     8361     8253     8246     8344     8547     8830 
    9150     9460     9728     9953    10151    10337    10536    10767 
   11027    11289    11508    11628    11632    11562    11474    11385 
   11268    11088    10841    10581    10378    10284    10349    10619 
   11101    11755    12526    13367    14226    15059    15825    16474 
   16952    17242    17335    17196    16817    16252    15570    14818 
   14033    13282    12635    12109    11709    11470    11394    11435 
   11556    11735    11922    12062    12121    12083    11952    11752 
   11519    11280    11050    10831    10636    10498    10440    10463 
   10536    10597    10603    10528    10314     9884     9217     8368 
    7418     6445     5519     4686     3945     3250     2542     1795 
    1017      249     -457    -1061    -1538    -1875    -2080    -2166 
   -2135    -1989    -1748    -1424    -1004     -481      136      837 
    1613     2444     3311     4192     5045     5805     6418     6870 
    7153     7263     7233     7120     6965     6804     6692     6670 
    6746     6937     7277     7729     8164     8464     8591     8556 
    8364     8023     7561     7007     6374     5676     4963     4320 
    3807     3437     3199     3104     3181     3443     3869     4415 
    5020     5625     6173     6624     6992     7318     7635     7968 
    8335     8732     9136     9531     9892    10169    10318    10323 
   10172     9853     9392     8857     8315     7798     7318     6896 
    6532     6193     5873     5586     5340     5143     5018     4992 
    5097     5391     5927     6697     7615     8573     9494    10340 
   11082    11683    12129    12451    12709    12926    13081    13146 
   13106    12951    12668    12264    11776    11252    10744    10309 
    9983     9757     9578     9386     9140     8850     8579     8398 
    8364     8509     8822     9253     9737    10199    10577    10845 
   10981    10965    10829    10652    10486    10334    10190    10079 
   10009     9941     9832     9681     9511     9361     9295     9357 
    9530     9772    10061    10355    10596    10756    10854    10924 
   10980    11002    10947    10768    10454    10046     9613     9190 
    8791     8432     8142     7966     7924     7985     8109     8273 
    8461     8667     8883     9085     9243     9355     9434     9485 
    9524     9594     9724     9920    10185    10522    10932    11379 
   11811    12214    12613    13024    13467    13981    14563    15139 
   15610    15909    16024    15981    15802    15485    15042    14529 
   14033    13613    13311    13173    13232    13481    13868    14333 
   14795    15150    15324    15335    15251    15105    14894    14628 
   14347    14071    13771    13402    12930    12335    11602    10739 
    9817     8956     8248     7722     7397     7294     7393     7634 
    7955     8319     8721     9167     9617     9990    10229    10324 
   10300    10232    10229    10366    10636    10995    11431    11928 
   12401    12713    12774    12601    12253    11766    11161    10479 
    9765     9050     8362     7742     7237     6886     6719     6745 
    6939     7245     7581     7867     8046     8080     7972     7783 
    7599     7496     7520     7648     7815     7977     8155     8375 
    8617     8855     9096     9349     9601     9835    10065    10292 
   10483    10595    10586    10427    10103     9617     9008     8339 
    7668     7040     6487     6036     5716     5553     5540     5600 
    5622     5526     5294     4930     4443     3873     3302     2829 
    2525     2397     2383     2431     2531     2676     2854     3060 
    3303     3589     3910     4260     4606     4886     5060     5113 
    5026     4793     4471     4159     3947     3908     4103     4540 
    5138     5780     6388     6936     7421     7836     8159     8344 
    8351     8190     7917     7588     7229     6853     6496     6217 
    6044     5944     5881     5853     5873     5945     6071     6275 
    6592     7052     7678     8428     9194     9879    10455    10948 
   11395    11821    12240    12683    13188    13764    14390    15015 
   15561    15978    16262    16387    16307    16010    15515    14859 
   14113    13355    12645    12031    11557    11236    11041    10917 
   10808    10658    10413    10005     9373     8514     7484     6391 
    5362     4506     3908     3640     3739     4195     4955     5919 
    6968     7992     8870     9525     9966    10253    10449    10604 
   10753    10890    10967    10960    10896    10813    10746    10708 
   10681    10639    10574    10485    10352    10150     9881     9573 
    9275     9021     8834     8753     8823     9055     9412     9850 
   10305    10683    10897    10903    10691    10250     9595     8795 
    7954     7158     6467     5943     5628     5549     5714     6094 
    6593     7111     7575     7906     8050     8044     7960     7819 
    7615     7353     7053     6743     6453     6225     6085     6047 
    6126     6321     6586     6860     7107     7304     7436     7542 
    7707     7996     8409     8899     9409     9900    10355    10747 
   11019    11119    11025    10726    10233     9609     8938     8292 
    7730     7310     7072     7052     7295     7830     8612     9561 
   10597    11620    12505    13166    13588    13800    13851    13779 
   13591    13286    12869    12330    11667    10898    10078     9286 
    8581     7990     7527     7223     7114     7188     7383     7650 
    7969     8320     8675     9017     9352     9683     9995    10258 
   10432    10482    10391    10143     9713     9138     8522     7941 
    7391     6837     6264     5689     5157     4736     4483     4408 
    4491     4701     5001     5333     5642     5875     5968     5871 
    5585     5146     4628     4132     3724     3434     3272     3217 
    3242     3338     3489     3680     3912     4176     4442     4702 
    5000     5367     5772     6152     6442     6574     6519     6310 
    6026     5757     5597     5622     5834     6168     6552     6934 
    7257     7465     7558     7594     7633     7702     7806     7920 
    7996     8018     8037     8107     8226     8339     8373     8303 
    8182     8086     8059     8118     8244     8359     8387     8315 
    8187     8070     8030     8077     8155     8225     8316     8481 
    8733     9062     9455     9888    10314    10671    10894    10927 
   10765    10461    10090     9756     9584     9648     9912    10287 
   10722    11200    11723    12323    13019    13745    14358    14722 
