Origin Time       2011/03/11 14:46:00
Lat.              38.103
Long.             142.860
Depth. (km)       24
Mag.              9.0
Station Code      HRS018
Station Lat.      34.3413
Station Long.     132.9069
Station Height(m) 3
Record Time       2011/03/11 14:50:37
Sampling Freq(Hz) 100Hz
Duration Time(s)  60
Dir.              N-S
Scale Factor      3920(gal)/6182761
Max. Acc. (gal)   1.071
Last Correction   2011/03/11 14:50:22
Memo.             
[...]
   19870    19819    19625    19419    19353    19376    19377    19340 
   19273    19200    19148    19094    19041    19026    19071    19133 
   19103    18999    18992    19058    19047    19021    19073    19122 
   19089    19046    19067    19091    19102    19155    19214    19219 
   19234    19317    19395    19414    19440    19521    19618    19701 
   19764    19791    19828    19916    20019    20094    20154    20208 
   20244    20276    20312    20348    20395    20453    20522    20582 
   20608    20621    20615    20583    20584    20601    20575    20533 
   20520    20519    20494    20452    20401    20360    20345    20311 
   20229    20120    20023    19955    19885    19828    19778    19689 
   19602    19550    19491    19423    19364    19308    19257    19219 
   19182    19159    19170    19173    19145    19120    19112    19143 
   19189    19199    19199    19231    19270    19293    19314    19337 
   19349    19366    19393    19411    19419    19429    19431    19425 
   19410    19408    19453    19500    19511    19519    19540    19564 
   19608    19686    19747    19764    19800    19896    19993    20061 
   20124    20167    20197    20268    20377    20462    20487    20473 
   20471    20485    20479    20442    20400    20383    20366    20309 
   20240    20188    20128    20048    19994    19962    19892    19789 
   19708    19671    19667    19657    19623    19581    19523    19482 
   19505    19532    19512    19477    19453    19455    19489    19508 
   19483    19454    19446    19434    19404    19354    19291    19239 
   19210    19196    19177    19110    19011    18948    18926    18911 
   18901    18909    18926    18916    18927    19006    19098    19181 
   19263    19325    19408    19528    19619    19658    19715    19838 
   19969    20045    20099    20162    20219    20253    20253    20242 
   20264    20306    20326    20331    20326    20308    20301    20309 
   20304    20255    20192    20179    20196    20183    20153    20142 
   20122    20065    20038    20066    20084    20081    20064    20008 
   19959    19993    20052    20043    19996    19964    19934    19887 
   19825    19768    19737    19719    19675    19585    19510    19513 
   19518    19443    19324    19247    19241    19229    19171    19112 
   19066    19029    19006    18983    18944    18941    19002    19030 
   19008    19016    19051    19080    19084    19072    19122    19250 
   19349    19361    19360    19425    19536    19631    19651    19590 
   19536    19581    19716    19838    19903    19963    20031    20065 
   20059    20063    20106    20164    20207    20250    20300    20319 
   20285    20236    20214    20215    20220    20212    20206    20228 
   20257    20277    20291    20298    20282    20234    20192    20183 
   20175    20180    20208    20188    20130    20107    20080    20010 
   19940    19881    19807    19730    19671    19627    19595    19576 
   19539    19456    19354    19273    19232    19254    19320    19359 
   19323    19253    19230    19261    19305    19337    19360    19368 
   19343    19311    19318    19340    19338    19344    19396    19471 
   19513    19512    19495    19478    19464    19445    19405    19395 
   19500    19672    19762    19726    19629    19558    19580    19680 
   19774    19813    19803    19767    19721    19704    19729    19738 
   19725    19755    19783    19737    19685    19708    19758    19762 
   19745    19745    19733    19669    19608    19629    19692    19743 
   19784    19815    19826    19815    19830    19869    19892    19940 
   20003    20015    19971    19940    19982    20036    20056    20107 
   20180    20201    20183    20181    20193    20218    20265    20263 
   20214    20191    20184    20154    20104    20086    20115    20121 
   20088    20038    19975    19908    19843    19823    19802    19711 
   19635    19611    19572    19499    19409    19320    19236    19148 
   19088    19083    19064    18987    18939    18955    18956    18908 
   18880    18908    18942    18960    18993    19016    18981    18945 
   18975    19036    19102    19151    19142    19130    19190    19295 
   19391    19472    19514    19492    19491    19592    19721    19764 
   19761    19810    19907    20010    20092    20121    20133    20224 
   20373    20443    20428    20455    20534    20599    20658    20714 
   20732    20747    20786    20824    20872    20894    20818    20684 
   20594    20564    20521    20443    20381    20329    20235    20115 
   20053    20058    20034    19953    19867    19759    19622    19580 
   19685    19745    19599    19404    19356    19401    19404    19324 
   19168    19030    19043    19117    19070    18959    18975    19095 
   19121    18983    18799    18755    18919    19100    19070    18878 
   18793    18874    18886    18811    18824    18848    18775    18729 
   18798    18896    18924    18889    18885    18943    18983    18970 
   19043    19265    19421    19346    19225    19335    19619    19795 
   19787    19752    19805    19929    20043    20091    20125    20194 
   20195    20159    20269    20412    20398    20358    20429    20538 
   20618    20661    20628    20538    20517    20597    20661    20667 
   20638    20554    20469    20464    20480    20412    20272    20155 
   20113    20147    20191    20170    20075    19925    19796    19754 
   19741    19728    19759    19781    19688    19516    19392    19386 
   19464    19468    19280    19041    18993    19111    19187    19157 
   19072    18969    18900    18840    18749    18708    18761    18833 
   18844    18771    18693    18704    18780    18823    18818    18818 
   18827    18843    18925    19055    19141    19175    19212    19275 
   19354    19402    19430    19514    19655    19786    19854    19885 
   19939    20008    20067    20099    20085    20115    20260    20404 
   20410    20311    20295    20426    20532    20529    20506    20495 
   20470    20472    20515    20538    20526    20530    20535    20491 
   20438    20411    20378    20394    20466    20431    20292    20159 
   19993    19875    19951    20042    19943    19768    19647    19549 
   19493    19516    19505    19390    19258    19201    19233    19295 
   19346    19399    19391    19243    19106    19194    19399    19484 
   19436    19386    19426    19485    19440    19379    19407    19425 
   19397    19410    19496    19568    19505    19409    19465    19575 
   19601    19561    19475    19462    19620    19781    19784    19702 
   19683    19793    19931    19929    19802    19780    19977    20167 
   20104    19904    19846    20000    20157    20082    19952    20037 
   20136    20068    20022    20091    20159    20153    20126    20147 
   20211    20253    20211    20136    20142    20214    20245    20163 
   20007    19956    20050    20036    19885    19870    19964    19915 
   19785    19765    19789    19778    19779    19777    19811    19803 
   19617    19540    19691    19709    19620    19668    19693    19598 
   19595    19710    19691    19521    19495    19594    19545    19423 
   19423    19515    19569    19432    19218    19241    19400    19374 
   19184    19008    18959    19067    19190    19082    18811    18816 
   19086    19086    18865    18854    18921    18870    18873    18967 
   19055    19122    19149    19248    19442    19489    19374    19366 
   19579    19863    19952    19790    19682    19838    20099    20252 
   20215    20063    19980    20117    20362    20354    20158    20210 
   20368    20283    20174    20241    20289    20263    20288    20321 
   20262    20166    20128    20163    20189    20132    20067    20052 
   20029    20046    20067    19934    19772    19730    19752    19811 
   19826    19715    19601    19567    19516    19416    19336    19293 
   19272    19241    19184    19125    19040    18904    18813    18895 
   19042    19006    18831    18714    18671    18674    18741    18773 
   18703    18701    18814    18792    18597    18521    18646    18752 
   18755    18801    18976    19171    19202    19117    19135    19264 
   19448    19680    19804    19725    19605    19669    19896    20064 
   20146    20206    20167    20113    20158    20179    20143    20151 
   20241    20334    20354    20468    20636    20465    20170    20276 
   20596    20751    20720    20579    20458    20387    20377    20516 
   20613    20423    20139    20049    20074    20063    20080    20104 
   19982    19680    19420    19458    19631    19614    19366    19039 
   18920    19059    19097    18894    18646    18516    18550    18649 
   18669    18584    18488    18479    18557    18623    18629    18629 
   18642    18664    18699    18724    18771    18840    18903    19001 
   19070    19036    19012    19105    19271    19417    19485    19471 
   19434    19473    19602    19741    19840    19918    19980    19978 
   19976    20138    20372    20395    20234    20201    20410    20626 
   20609    20435    20359    20446    20599    20706    20608    20419 
   20485    20682    20687    20589    20532    20509    20476    20392 
   20377    20427    20332    20177    20124    20064    19968    19919 
   19846    19735    19751    19857    19760    19469    19366    19480 
   19508    19443    19428    19410    19308    19220    19256    19241 
   19015    18843    18974    19208    19253    19069    18813    18753 
   18927    19066    19039    18930    18887    18968    19018    18997 
   19036    19093    19108    19130    19170    19192    19144    19089 
   19139    19223    19302    19416    19449    19383    19304    19272 
   19361    19481    19565    19611    19544    19487    19529    19587 
   19710    19877    19886    19712    19655    19929    20232    20196 
   19985    19933    20061    20243    20360    20287    20139    20207 
   20443    20583    20577    20474    20330    20252    20298    20395 
   20415    20350    20269    20134    20005    20021    20029    19855 
   19719    19784    19849    19744    19567    19464    19458    19488 
   19494    19470    19462    19446    19315    19133    19119    19281 
   19336    19154    18982    18994    19076    19125    19098    18982 
   18835    18803    18949    19039    18949    18890    18855    18760 
   18822    19007    18990    18812    18755    18904    19096    19170 
   19146    19086    19095    19222    19287    19331    19585    19845 
   19824    19686    19754    20030    20190    20187    20305    20485 
   20487    20408    20468    20619    20672    20697    20746    20683 
   20662    20777    20848    20905    20938    20794    20553    20430 
   20482    20538    20512    20492    20385    20048    19776    19906 
   20110    19930    19566    19392    19335    19276    19283    19265 
   19124    18982    18911    18827    18767    18849    18912    18738 
   18520    18512    18575    18542    18520    18546    18504    18474 
   18583    18681    18635    18581    18619    18665    18680    18703 
   18744    18773    18803    18901    19011    19001    18961    19065 
   19267    19432    19528    19570    19622    19802    20030    20158 
   20224    20289    20405    20597    20745    20812    20876    20908 
   20864    20875    21039    21148    21070    21007    21046    21050 
   20993    20949    20914    20871    20816    20726    20639    20583 
   20494    20383    20283    20146    20000    19899    19807    19709 
   19603    19464    19340    19281    19223    19143    19084    19009 
   18908    18869    18857    18777    18712    18691    18616    18540 
   18514    18462    18441    18507    18532    18463    18389    18405 
   18514    18592    18586    18583    18621    18692    18781    18823 
   18824    18897    19023    19084    19144    19287    19432    19528 
   19606    19647    19703    19879    20030    20023    20064    20230 
   20335    20403    20514    20572    20595    20687    20790    20821 
   20801    20821    20910    20957    20938    20952    20938    20877 
   20901    20938    20865    20794    20743    20645    20588    20557 
   20435    20301    20232    20148    20038    19950    19822    19630 
   19469    19379    19318    19263    19177    19046    18918    18825 
   18757    18706    18653    18573    18486    18417    18353    18295 
   18256    18225    18195    18174    18165    18168    18194    18237 
   18270    18276    18300    18386    18502    18595    18654    18691 
   18750    18869    19014    19132    19226    19331    19454    19578 
   19717    19861    19968    20056    20163    20279    20391    20483 
   20543    20613    20705    20748    20756    20837    21001    21117 
   21106    21056    21091    21174    21223    21260    21284    21268 
   21241    21214    21180    21145    21077    20961    20860    20823 
   20756    20577    20365    20207    20088    19960    19805    19656 
   19501    19318    19160    19045    18911    18760    18639    18519 
   18400    18335    18272    18184    18151    18165    18140    18070 
   18012    18010    18044    18055    18043    18081    18175    18248 
   18289    18330    18369    18445    18584    18697    18746    18818 
   18942    19068    19176    19259    19333    19449    19614    19783 
   19935    20051    20125    20226    20371    20494    20613    20747 
   20844    20909    20997    21103    21171    21180    21184    21239 
   21323    21349    21289    21217    21183    21166    21141    21091 
   20989    20871    20782    20678    20538    20415    20316    20209 
   20065    19866    19692    19611    19541    19374    19175    19066 
   18985    18847    18736    18694    18654    18574    18447    18329 
   18302    18328    18315    18254    18202    18191    18208    18255 
   18318    18332    18302    18313    18382    18426    18426    18449 
   18527    18630    18707    18751    18796    18847    18930    19066 
   19194    19307    19443    19550    19602    19695    19863    20013 
   20105    20192    20324    20464    20529    20552    20625    20731 
   20800    20839    20898    20953    20952    20939    20945    20933 
   20892    20838    20789    20750    20707    20659    20599    20508 
   20418    20359    20318    20281    20230    20144    20054    19988 
   19929    19885    19828    19700    19563    19517    19517    19475 
   19386    19271    19157    19080    19030    18971    18890    18795 
   18731    18720    18723    18713    18697    18678    18657    18673 
   18740    18771    18738    18730    18759    18784    18800    18825 
   18875    18944    19024    19094    19135    19175    19231    19299 
   19394    19509    19598    19639    19678    19753    19826    19892 
   19972    20022    20027    20061    20156    20255    20317    20347 
   20343    20346    20404    20469    20482    20478    20498    20534 
   20548    20510    20485    20521    20550    20520    20442    20381 
   20396    20399    20349    20323    20306    20245    20155    20080 
   20030    19947    19831    19737    19662    19609    19572    19501 
   19414    19362    19329    19249    19140    19084    19082    19066 
   18994    18886    18829    18863    18898    18846    18783    18792 
   18796    18782    18833    18919    18961    18959    18979    19028 
   19094    19214    19316    19352    19413    19485    19507    19504 
   19524    19572    19610    19666    19768    19824    19777    19712 
   19725    19808    19904    19965    19951    19926    19975    20040 
   20065    20071    20075    20099    20138    20154    20146    20156 
   20168    20137    20129    20164    20145    20101    20109    20141 
   20146    20108    20069    20059    20054    20027    19986    19975 
   19997    20004    19943    19846    19806    19807    19778    19730 
   19678    19619    19558    19519    19510    19511    19485    19423 
   19369    19352    19332    19269    19187    19143    19136    19130 
   19130    19125    19090    19049    19031    19016    18997    19015 
   19051    19064    19073    19087    19101    19126    19146    19129 
   19091    19083    19106    19130    19147    19157    19156    19169 
   19225    19291    19326    19378    19475    19549    19583    19628 
   19694    19775    19861    19912    19940    19999    20075    20114 
   20129    20165    20212    20245    20269    20273    20279    20320 
   20361    20352    20322    20325    20340    20311    20266    20258 
   20238    20176    20142    20154    20152    20116    20062    20012 
   19977    19933    19873    19830    19801    19750    19683    19643 
   19620    19567    19512    19494    19462    19394    19332    19275 
   19205    19157    19132    19093    19043    19016    19001    18970 
   18933    18914    18923    18955    18984    19004    19046    19116 
   19184    19247    19308    19368    19436    19530    19638    19718 
   19775    19863    19946    19972    20002    20074    20128    20147 
   20169    20196    20196    20176    20162    20171    20203    20230 
   20233    20212    20171    20134    20125    20138    20131    20079 
   20010    19959    19928    19914    19901    19844    19739    19663 
   19635    19592    19521    19458    19406    19356    19298    19223 
   19165    19153    19147    19118    19082    19063    19072    19086 
   19083    19073    19073    19085    19103    19133    19176    19207 
   19216    19221    19223    19232    19275    19341    19386    19401 
   19418    19457    19495    19528    19573    19622    19657    19699 
   19764    19797    19805    19862    19930    19949    19971    20038 
   20102    20135    20164    20201    20232    20268    20320    20360 
   20360    20348    20335    20314    20308    20314    20298    20267 
   20226    20155    20061    19980    19935    19920    19906    19852 
   19764    19698    19665    19619    19558    19540    19552    19519 
   19467    19449    19443    19451    19490    19501    19456    19442 
   19500    19556    19576    19603    19638    19649    19644    19655 
   19688    19720    19732    19711    19681    19680    19702    19732 
   19762    19766    19720    19667    19674    19717    19728    19715 
   19691    19671    19684    19694    19652    19593    19576    19587 
   19597    19607    19586    19527    19506    19541    19558    19537 
   19522    19516    19511    19530    19571    19590    19581    19565 
   19539    19506    19491    19480    19449    19427    19441    19439 
   19409    19405    19414    19394    19395    19433    19442    19436 
   19454    19466    19485    19552    19622    19664    19703    19730 
   19750    19802    19870    19918    19946    19982    20038    20081 
   20104    20151    20189    20162    20122    20132    20149    20151 
   20166    20173    20142    20104    20079    20056    20036    20010 
   19961    19912    19890    19876    19855    19840    19818    19769 
   19721    19698    19684    19654    19605    19563    19526    19479 
   19451    19439    19388    19307    19257    19244    19242    19226 
   19190    19168    19153    19135    19157    19218    19259    19270 
   19289    19300    19301    19384    19524    19584    19582    19599 
   19626    19669    19746    19812    19827    19834    19869    19879 
